Participant,CollectionSite,Address,City,State,Zip,MapURL
AUBURN POLICE DIVISION,"OUR HOME PHARMACY 
												
													OGLETREE VILLAGE",2320 MOORES MILL ROAD #100,AUBURN,AL,36830,"http://maps.google.com/maps?q=2320 MOORES MILL ROAD #100,+AUBURN,+AL+36830&hl=en"
BOGALUSA POLICE DEPARTMENT,NIELSEN'S PHARMACY,1619 S. COLUMBIA STREET,BOGALUSA,LA,70427,"http://maps.google.com/maps?q=1619 S. COLUMBIA STREET,+BOGALUSA,+LA+70427&hl=en"
CALERA POLICE DEPARTMENT,OLIVER PARK,HIGHWAY 25,CALERA,AL,35040,"http://maps.google.com/maps?q=HIGHWAY 25,+CALERA,+AL+35040&hl=en"
CALHOUN CO SHERIFF'S OFFICE,CALHOUN COUNTY SHERIFF'S OFFICE,20838 NE WC REEDER DRIVE,BLOUNTSTOWN,FL,32424,"http://maps.google.com/maps?q=20838 NE WC REEDER DRIVE,+BLOUNTSTOWN,+FL+32424&hl=en"
CHAMBERS COUNTY DRUG TASK FORCE,CHAMBERS COUNTY COURTHOUSE,2 SOUTH LAFAYETTE STREET,LAFAYETTE,AL,36862,"http://maps.google.com/maps?q=2 SOUTH LAFAYETTE STREET,+LAFAYETTE,+AL+36862&hl=en"
CHAMBERS COUNTY DRUG TASK FORCE,CVS PHARMACY,10 VETERANS MEMORIAL PARKWAY,LANETT,AL,36863,"http://maps.google.com/maps?q=10 VETERANS MEMORIAL PARKWAY,+LANETT,+AL+36863&hl=en"
CLANTON POLICE DEPARTMENT,CVS PHARMACY,1105 7TH STREET NORTH,CLANTON,AL,35045,"http://maps.google.com/maps?q=1105 7TH STREET NORTH,+CLANTON,+AL+35045&hl=en"
CONECUH COUNTY SHERIFF'S OFFICE,CONECUH COUNTY SHERIFFS OFFICE,104 LIBERTY STREET,EVERGREEN,AL,36401,"http://maps.google.com/maps?q=104 LIBERTY STREET,+EVERGREEN,+AL+36401&hl=en"
COOSA COUNTY SHERIFF OFFICE,COOSA COUNTY SHERIFF'S OFFICE,296 SCHOOL STREET,ROCKFORD,AL,35136,"http://maps.google.com/maps?q=296 SCHOOL STREET,+ROCKFORD,+AL+35136&hl=en"
CRESTVIEW POLICE DEPARTMENT,WALGREEN'S,2350 S. FERDON BLVD.,CRESTVIEW,FL,32536,"http://maps.google.com/maps?q=2350 S. FERDON BLVD.,+CRESTVIEW,+FL+32536&hl=en"
DEA GULFPORT RESIDENT OFFICE,EDGEWATER MALL,2600 BEACH BLVD.,BILOXI,MS,39531,"http://maps.google.com/maps?q=2600 BEACH BLVD.,+BILOXI,+MS+39531&hl=en"
DEMOPOLIS POLICE DEPARTMENT,"THEO RATLIFF ACTIVITY CENTER 
												
													PARKING LOT",306 1ST AVENUE,DEMOPOLIS,AL,36732,"http://maps.google.com/maps?q=306 1ST AVENUE,+DEMOPOLIS,+AL+36732&hl=en"
"EGLIN AFB, 96 SECURITY FORCES SQUANDRON",BASE EXCHANGE,BLDG 1757 MEMORIAL LAKE TRAIL,EGLIN AFB,FL,32542,"http://maps.google.com/maps?q=BLDG 1757 MEMORIAL LAKE TRAIL,+EGLIN AFB,+FL+32542&hl=en"
ELBERTA POLICE DEPARTMENT,ELBERTA POLICE DEPARTMENT,13062 MAIN STREET,ELBERTA,AL,36530,"http://maps.google.com/maps?q=13062 MAIN STREET,+ELBERTA,+AL+36530&hl=en"
ESCAMBIA COUNTY SHERIFF OFFICE,WAL GREEN,1841 E OLIVE RD,PENSACOLA,FL,32514,"http://maps.google.com/maps?q=1841 E OLIVE RD,+PENSACOLA,+FL+32514&hl=en"
ESCAMBIA COUNTY SHERIFF OFFICE,WALGREEN,4497 MOBILE HWY,PENSACOLA,FL,32505,"http://maps.google.com/maps?q=4497 MOBILE HWY,+PENSACOLA,+FL+32505&hl=en"
ESCAMBIA COUNTY SHERIFF OFFICE,WALGREENS,6314 NORTH 9TH AVE,PENSACOLA,FL,32504,"http://maps.google.com/maps?q=6314 NORTH 9TH AVE,+PENSACOLA,+FL+32504&hl=en"
ESCAMBIA COUNTY SHERIFF OFFICE,WALGREENS,700 NORTH PACE BLVD,PENSACOLA,FL,32505,"http://maps.google.com/maps?q=700 NORTH PACE BLVD,+PENSACOLA,+FL+32505&hl=en"
ESCAMBIA COUNTY SHERIFF OFFICE,WALGREENS,85 BEVERLY PARKWAY,PENSACOLA,FL,32505,"http://maps.google.com/maps?q=85 BEVERLY PARKWAY,+PENSACOLA,+FL+32505&hl=en"
ESCAMBIA COUNTY SHERIFF OFFICE,WALL GREEN,5995 W MOBILE HWY,PENSACOLA,FL,32526,"http://maps.google.com/maps?q=5995 W MOBILE HWY,+PENSACOLA,+FL+32526&hl=en"
FORT WALTON BEACH POLICE DEPARTMENT,FORT WALTON BEACH POLICE DEPARTMENT,7 HOLLYWOOD BLVD NE,FORT WALTON BEACH,FL,32548,"http://maps.google.com/maps?q=7 HOLLYWOOD BLVD NE,+FORT WALTON BEACH,+FL+32548&hl=en"
GADSDEN COUNTY SHERIFF'S OFFICE,GADSDEN COUNTY SHERIFF'S OFFICE,339 EAST JEFFERSON STREET,QUINCY,FL,32351,"http://maps.google.com/maps?q=339 EAST JEFFERSON STREET,+QUINCY,+FL+32351&hl=en"
GEORGE CTY SHERIFF'S OFFICE//LUCEDALE PD,"WAYNE LEE'S GROCERY 
												
													GEORGE CTY SHERIFF/LUCEDALE PD",12109 OLD HWY 63,LUCEDALE,MS,39452,"http://maps.google.com/maps?q=12109 OLD HWY 63,+LUCEDALE,+MS+39452&hl=en"
GROVEHILL POLICE DEPARTMENT,CITY DRUGS,123 JACKSON STREET SOUTH,GROVE HILL,AL,36451,"http://maps.google.com/maps?q=123 JACKSON STREET SOUTH,+GROVE HILL,+AL+36451&hl=en"
GULF BREEZE POLICE DEPARTMENT,GULF BREEZE POLICE DEPARTMENT,311 FAIRPOINT DRIVE,GULF BREEZE,FL,32561,"http://maps.google.com/maps?q=311 FAIRPOINT DRIVE,+GULF BREEZE,+FL+32561&hl=en"
HATTIESBURG POLICE DEPARTMENT,HATTIESBURG POLICE DEPARTMENT,300 KLONDYKE ST.,HATTIESBURG,MS,39401,"http://maps.google.com/maps?q=300 KLONDYKE ST.,+HATTIESBURG,+MS+39401&hl=en"
HAVANA POLICE DEPARTMENT,HAVANA POLICE DEPARTMENT,121 E. 7TH AVENUE,HAVANA,FL,32333,"http://maps.google.com/maps?q=121 E. 7TH AVENUE,+HAVANA,+FL+32333&hl=en"
JACKSON COUNTY SHERIFF'S OFFICE,SUNLAND CENTER,3700 WILLIAMS DR,MARIANNA,FL,32446,"http://maps.google.com/maps?q=3700 WILLIAMS DR,+MARIANNA,+FL+32446&hl=en"
JACKSON POLICE DEPARTMENT,CVS PHARMACY,813 COLLEGE AVENUE,JACKSON,AL,36545,"http://maps.google.com/maps?q=813 COLLEGE AVENUE,+JACKSON,+AL+36545&hl=en"
JACKSON POLICE DEPARTMENT,MAC'S DRUGS,201 COMMERCE STREET,JACKSON,AL,36545,"http://maps.google.com/maps?q=201 COMMERCE STREET,+JACKSON,+AL+36545&hl=en"
JACKSON POLICE DEPARTMENT,WALMART,4206 N. COLLEGE AVENUE,JACKSON,AL,36545,"http://maps.google.com/maps?q=4206 N. COLLEGE AVENUE,+JACKSON,+AL+36545&hl=en"
LAUREL POLICE DEPARTMENT,"LAUREL POLICE DEPARTMENT 
												
													CAPTAIN TOMMY COX",317 S. MAGNOLIA ST.,LAUREL,MS,39440,"http://maps.google.com/maps?q=317 S. MAGNOLIA ST.,+LAUREL,+MS+39440&hl=en"
LEE COUNTY SHERIFF'S OFFICE,LEE COUNTY SHERIFF'S OFFICE,1900 FREDERICK ROAD,OPELIKA,AL,36801,"http://maps.google.com/maps?q=1900 FREDERICK ROAD,+OPELIKA,+AL+36801&hl=en"
LEE COUNTY SHERIFF'S OFFICE,SMITHS STATION GOVERNMENT CENTER,2336 LEE RD 430,SMITHS STATION,AL,36877,"http://maps.google.com/maps?q=2336 LEE RD 430,+SMITHS STATION,+AL+36877&hl=en"
LINDEN POLICE DEPARTMENT,LINDEN VOLUNTEER FIRE DEPARTMENT,212 E. COATS AVENUE,LINDEN,AL,36748,"http://maps.google.com/maps?q=212 E. COATS AVENUE,+LINDEN,+AL+36748&hl=en"
LINDEN POLICE DEPARTMENT,YORK CITY HALL,607 2ND AVENUE,YORK,AL,36925,"http://maps.google.com/maps?q=607 2ND AVENUE,+YORK,+AL+36925&hl=en"
LONG BEACH POLICE DEPARTMENT,LONG BEACH POLICE DEPARTMENT,201 ALEXANDER RD,LONG BEACH,MS,39560,"http://maps.google.com/maps?q=201 ALEXANDER RD,+LONG BEACH,+MS+39560&hl=en"
LOUISIANA STATE POLICE,LSP TROOP L HEAD QUARTERS,2600 NORTH CAUSEWAY,MANDEVILLE,LA,70471,"http://maps.google.com/maps?q=2600 NORTH CAUSEWAY,+MANDEVILLE,+LA+70471&hl=en"
LOUISVILLE POLICE DEPARTMENT,"LOUISVILLE POLICE DEPARTMENT 
												
													FRONT LOBBY",2363 SOUTH CHURCH AVE.,LOUISVILLE,MS,39339,"http://maps.google.com/maps?q=2363 SOUTH CHURCH AVE.,+LOUISVILLE,+MS+39339&hl=en"
MANDEVILLE POLICE DEPARTMENT,MANDEVILLE POLICE DEPARTMENT,1870 HWY 90,MANDEVILLE,LA,70448,"http://maps.google.com/maps?q=1870 HWY 90,+MANDEVILLE,+LA+70448&hl=en"
MERIDIAN POLICE DEPARTMENT,"MERIDIAN POLICE BONITA LAKES MALL POLICE PRECINCT 
												
													NEAR THE FOOD COURT",1680 BONITA LAKES CIRCLE,MERIDIAN,MS,39301,"http://maps.google.com/maps?q=1680 BONITA LAKES CIRCLE,+MERIDIAN,+MS+39301&hl=en"
MOBILE COUNTY SHERIFF'S OFFICE,COSTCO,1450 TINGLE CIRCLE EAST,MOBILE,AL,36606,"http://maps.google.com/maps?q=1450 TINGLE CIRCLE EAST,+MOBILE,+AL+36606&hl=en"
MOBILE COUNTY SHERIFF'S OFFICE,CVS PHARMACY  #4888,44523 OLD SHELL ROAD,MOBILE,AL,36608,"http://maps.google.com/maps?q=44523 OLD SHELL ROAD,+MOBILE,+AL+36608&hl=en"
MOBILE COUNTY SHERIFF'S OFFICE,CVS PHARMACY #1814,3932 COTTAGE HILL ROAD,MOBILE,AL,36695,"http://maps.google.com/maps?q=3932 COTTAGE HILL ROAD,+MOBILE,+AL+36695&hl=en"
MOBILE COUNTY SHERIFF'S OFFICE,CVS PHARMACY #4818,4881 SCHILLINGER ROAD,MOBILE,AL,36619,"http://maps.google.com/maps?q=4881 SCHILLINGER ROAD,+MOBILE,+AL+36619&hl=en"
MOBILE COUNTY SHERIFF'S OFFICE,CVS PHARMACY #4900,2550 DAUPHIN STREET,MOBILE,AL,36606,"http://maps.google.com/maps?q=2550 DAUPHIN STREET,+MOBILE,+AL+36606&hl=en"
MOBILE COUNTY SHERIFF'S OFFICE,CVS PHARMACY #7671,1401 HILLCREST ROAD,MOBILE,AL,36695,"http://maps.google.com/maps?q=1401 HILLCREST ROAD,+MOBILE,+AL+36695&hl=en"
MOBILE COUNTY SHERIFF'S OFFICE,MOBILE COUNTY SHERIFF SOUTH SIDE OFFICE,510 SOUTH ROYAL,MOBILE,AL,36695,"http://maps.google.com/maps?q=510 SOUTH ROYAL,+MOBILE,+AL+36695&hl=en"
MOBILE COUNTY SHERIFF'S OFFICE,WALGREENS PHARMACY #01777,3948 AIRPORT BOULEVARD,MOBILE,AL,36608,"http://maps.google.com/maps?q=3948 AIRPORT BOULEVARD,+MOBILE,+AL+36608&hl=en"
MOBILE COUNTY SHERIFF'S OFFICE,WALGREENS PHARMACY #10851,6396 AIRPORT BLVD,MOBILE,AL,36608,"http://maps.google.com/maps?q=6396 AIRPORT BLVD,+MOBILE,+AL+36608&hl=en"
MOBILE COUNTY SHERIFF'S OFFICE,WALGREENS PHARMACY #15151,5705 COTTAGE HILL ROAD,MOBILE,AL,36609,"http://maps.google.com/maps?q=5705 COTTAGE HILL ROAD,+MOBILE,+AL+36609&hl=en"
MOBILE POLICE DEPARTMENT,MOBILE POLICE DEPARTMENT,2460 GOVERNMENT STREET,MOBILE,AL,36606,"http://maps.google.com/maps?q=2460 GOVERNMENT STREET,+MOBILE,+AL+36606&hl=en"
MONROEVILLE POLICE DEPARTMENT,MONROE DRUGS,360 SOUTH ALABAMA AVE,MONROEVILLE,AL,36460,"http://maps.google.com/maps?q=360 SOUTH ALABAMA AVE,+MONROEVILLE,+AL+36460&hl=en"
MONROEVILLE POLICE DEPARTMENT,MONROEVILLE POLICE DEPARTMENT,49 SOUTH MOUNT PLEASANT AVENUE,MONROEVILLE,AL,36460,"http://maps.google.com/maps?q=49 SOUTH MOUNT PLEASANT AVENUE,+MONROEVILLE,+AL+36460&hl=en"
MONROEVILLE POLICE DEPARTMENT,WALMART SHOPPING CENTER,3371 SOUTH ALABAMA AVENUE,MONROEVILLE,AL,36460,"http://maps.google.com/maps?q=3371 SOUTH ALABAMA AVENUE,+MONROEVILLE,+AL+36460&hl=en"
MONTGOMERY POLICE DEPARTMENT,FRAZER UNITED METHODIST CHURCH,6000 ATLANTA HIGHWAY,MONTGOMERY,AL,36117,"http://maps.google.com/maps?q=6000 ATLANTA HIGHWAY,+MONTGOMERY,+AL+36117&hl=en"
MONTGOMERY POLICE DEPARTMENT,MONTGOMERY POLICE DEPARTMENT,2190 EAST S. BLVD,MONTGOMERY,AL,36109,"http://maps.google.com/maps?q=2190 EAST S. BLVD,+MONTGOMERY,+AL+36109&hl=en"
MUSCOGEE COUNTY SHERIFFS OFFICE,HOLLYWOOD CONNECTION FAMILY FUN CENTE,1683 WHITTLESEY ROAD,COLUMBUS,GA,31904,"http://maps.google.com/maps?q=1683 WHITTLESEY ROAD,+COLUMBUS,+GA+31904&hl=en"
PASS CHRISTIAN POLICE DEPARTMENT,PASS CHRISTIAN LIBRARY,111 HIERN AVENUE,PASS CHRISTIAN,MS,39571,"http://maps.google.com/maps?q=111 HIERN AVENUE,+PASS CHRISTIAN,+MS+39571&hl=en"
PETAL POLICE DEPARTMENT,PETAL POLICE DEPARTMENT,127 WEST 8TH AVE.,PETAL,MS,39465,"http://maps.google.com/maps?q=127 WEST 8TH AVE.,+PETAL,+MS+39465&hl=en"
PHENIX CITY POLICE DEPARTMENT,CVS PHARMACY,2514 CRAWFORD ROAD,PHENIX CITY,AL,36867,"http://maps.google.com/maps?q=2514 CRAWFORD ROAD,+PHENIX CITY,+AL+36867&hl=en"
PHENIX CITY POLICE DEPARTMENT,NORTH PRECINCT,4301 PARK DRIVE,PHENIX CITY,AL,36867,"http://maps.google.com/maps?q=4301 PARK DRIVE,+PHENIX CITY,+AL+36867&hl=en"
PHENIX CITY POLICE DEPARTMENT,PHENIX CITY POLICE DEPARTMENT,1111 BROAD STREET,PHENIX CITY,AL,36867,"http://maps.google.com/maps?q=1111 BROAD STREET,+PHENIX CITY,+AL+36867&hl=en"
PHENIX CITY POLICE DEPARTMENT,SOUTH PRECINCT,1507 5TH STREET SOUTH,PHENIX CITY,AL,36869,"http://maps.google.com/maps?q=1507 5TH STREET SOUTH,+PHENIX CITY,+AL+36869&hl=en"
PLAQUEMINES PARSH SHERIFF'S OFFICE,BELLE CHASE LOCK UP,104 AVENUE G,BELLE CHASSE,LA,70037,"http://maps.google.com/maps?q=104 AVENUE G,+BELLE CHASSE,+LA+70037&hl=en"
RANKIN COUNTY SHERIFF'S OFFICE,RANKIN COUNTY SHERIFF'S OFFICE,221 N. TIMBER ST.,BRANDON,MS,39042,"http://maps.google.com/maps?q=221 N. TIMBER ST.,+BRANDON,+MS+39042&hl=en"
SHALIMAR POLICE DEPARTMENT,SHALIMAR POLICE DEPARTMENT,2 CHEROKEE ROAD,SHALIMAR,FL,32579,"http://maps.google.com/maps?q=2 CHEROKEE ROAD,+SHALIMAR,+FL+32579&hl=en"
SHELBY COUNTY TASK FORCE,FRED'S PHARMACY,21665 AL-25,COLUMBIANA,AL,35051,"http://maps.google.com/maps?q=21665 AL-25,+COLUMBIANA,+AL+35051&hl=en"
SHELBY COUNTY TASK FORCE,TARGET,250 SOUTH COLONIAL DRIVE,ALABASTER,AL,35007,"http://maps.google.com/maps?q=250 SOUTH COLONIAL DRIVE,+ALABASTER,+AL+35007&hl=en"
SIMPSON COUNTY SHERIFF'S OFFICE,"SIMPSON COUNTY SHERIFF'S OFFICE 
												
													E-911 BUILDING",1752 SIMPSON HWY 149,MENDENHALL,MS,39114,"http://maps.google.com/maps?q=1752 SIMPSON HWY 149,+MENDENHALL,+MS+39114&hl=en"
SLIDELL PD,SLIDELL PD,2112 SGT. ALFRED DR,SLIDELL,LA,70458,"http://maps.google.com/maps?q=2112 SGT. ALFRED DR,+SLIDELL,+LA+70458&hl=en"
SLIDELL POLICE DEPARTMENT,SLIDELL POLICE DEPARTMENT,2112 SGT ALFRED DRIVE,SLIDELL,LA,70458,"http://maps.google.com/maps?q=2112 SGT ALFRED DRIVE,+SLIDELL,+LA+70458&hl=en"
SUNO POLICE DEPARTMENT,SUNO PD HQ MAINTENANCE BLVD.,6400 PRESS DR,NEW ORLEANS,LA,70126,"http://maps.google.com/maps?q=6400 PRESS DR,+NEW ORLEANS,+LA+70126&hl=en"
TALLAPOOSA COUNTY NARCOTICS TF,WALGREENS PHARMACY,3140 US 280,ALEXANDER CITY,AL,35010,"http://maps.google.com/maps?q=3140 US 280,+ALEXANDER CITY,+AL+35010&hl=en"
THOMASVILLE POLICE DEPARTMENT,WALMART,34301 HIGHWAY 43,THOMASVILLE,AL,36784,"http://maps.google.com/maps?q=34301 HIGHWAY 43,+THOMASVILLE,+AL+36784&hl=en"
WASHINGTON COUNTY SHERIFFS OFFICE,WASHINGTON COUNTY SHERIFFS OFFICE,45 COURT STREET,CHATOM,AL,36518,"http://maps.google.com/maps?q=45 COURT STREET,+CHATOM,+AL+36518&hl=en"
WEST ALABAMA NARCOTICS TF,"ASHLEY FURNITURE 
												
													WEST ALABAMA NARCOTICS TASK FORCE",701 SKYLAND BLVD,TUSCALOOSA,AL,35405,"http://maps.google.com/maps?q=701 SKYLAND BLVD,+TUSCALOOSA,+AL+35405&hl=en"
WEST ALABAMA NARCOTICS TF,CVS,4260 UNIVERISTY BLVD,TUSCALOOSA,AL,35404,"http://maps.google.com/maps?q=4260 UNIVERISTY BLVD,+TUSCALOOSA,+AL+35404&hl=en"
WEST ALABAMA NARCOTICS TF,RITE AID,2300 MCFARLAND BLVD.,NORTHPORT,AL,35476,"http://maps.google.com/maps?q=2300 MCFARLAND BLVD.,+NORTHPORT,+AL+35476&hl=en"
WEST ALABAMA NARCOTICS TF,WALGREENS,8701 HIGHWAY 69 S.,TUSCALOOSA,AL,35405,"http://maps.google.com/maps?q=8701 HIGHWAY 69 S.,+TUSCALOOSA,+AL+35405&hl=en"
WEST ALABAMA NARCOTICS TF,WALMART NEIGHBORHOOD MARKET,4201 HARGROVE RD. E.,TUSCALOOSA,AL,35405,"http://maps.google.com/maps?q=4201 HARGROVE RD. E.,+TUSCALOOSA,+AL+35405&hl=en"
WILCOX COUNTY SHERIFFS DEPARTMENT,WILCOX COUNTY COURTHOUSE,100 BROAD STREET,CAMDEN,AL,36726,"http://maps.google.com/maps?q=100 BROAD STREET,+CAMDEN,+AL+36726&hl=en"
