Participant,CollectionSite,Address,City,State,Zip,MapURL
ALAMEDA COUNTY DISTRICT ATTORNEY'S OFFICE,FREMONT HALL OF JUSTICE,39439 PASEO PADRE PARKWAY,FREMONT,CA,94538,"http://maps.google.com/maps?q=39439 PASEO PADRE PARKWAY,+FREMONT,+CA+94538&hl=en"
ANAHEIM P.D. (KAISER),KAISER PERMANENTE ANAHEIM MEDICAL CENTER KRAEMER MEDICAL OFFICE BLDG. 1,3460 E. LA PALMA AVE.,ANAHEIM,CA,92806,"http://maps.google.com/maps?q=3460 E. LA PALMA AVE.,+ANAHEIM,+CA+92806&hl=en"
AZUSA POLICE DEPARTMENT,AZUSA POLICE DEPT. CPL. JASON KIMES,725 N. ALAMEDA AVE.6268123299X3922,AZUSA,CA,91702,"http://maps.google.com/maps?q=725 N. ALAMEDA AVE.,+AZUSA,+CA+91702&hl=en"
BAKERSFIELD POLICE DEPARTMENT,BAKERSFIELD POLICE DEPARTMENT,1601 TRUXTUN AVE,BAKERSFIELD,CA,93301,"http://maps.google.com/maps?q=1601 TRUXTUN AVE,+BAKERSFIELD,+CA+93301&hl=en"
BAKERSFIELD POLICE DEPARTMENT,BAKERSFIELD POLICE WEST COLLECTION SITE,3500 STOCKDALE HWY,BAKERSFIELD,CA,93309,"http://maps.google.com/maps?q=3500 STOCKDALE HWY,+BAKERSFIELD,+CA+93309&hl=en"
BALDWIN PD (KAISER),KAISER PERMANENTE BALDWIN PK MED. CTR. PARKING LOT,1011 BALDWIN PARK BLVD.,BALDWIN PARK,CA,91706,"http://maps.google.com/maps?q=1011 BALDWIN PARK BLVD.,+BALDWIN PARK,+CA+91706&hl=en"
BREA POLICE DEPARTMENT,BREA POLICE DEPARTMENT FRONT DRIVEWAY,1 CIVIC CENTER CIRCLE,BREA,CA,92821,"http://maps.google.com/maps?q=1 CIVIC CENTER CIRCLE,+BREA,+CA+92821&hl=en"
BUENA PARK P.D.,BUENA PARK PD LOBBY,6640 BEACH BL.,BUENA PARK,CA,90621,"http://maps.google.com/maps?q=6640 BEACH BL.,+BUENA PARK,+CA+90621&hl=en"
BUENA PARK P.D.,BUENA PARK SENIOR CENTER LOBBY,8150 KNOTT AVE,BUENA PARK,CA,90620,"http://maps.google.com/maps?q=8150 KNOTT AVE,+BUENA PARK,+CA+90620&hl=en"
BURBANK POLICE DEPARTMENT,BURBANK POLICE STATION PARKING LOT,200 N THIRD ST.,BURBANK,CA,91502,"http://maps.google.com/maps?q=200 N THIRD ST.,+BURBANK,+CA+91502&hl=en"
CALIFORNIA HIGHWAY PATROL- MONTEREY OFFICE,CALIFORNIA HIGHWAY PATROL MONTEREY OFFICE,960 E BLANCO RD,SALINAS,CA,93901,"http://maps.google.com/maps?q=960 E BLANCO RD,+SALINAS,+CA+93901&hl=en"
CAMARILLO POLICE DEPARTMENT,CAMARILLO POLICE DEPT. LOBBY,3701 E. LAS POSAS RD.,CAMARILLO,CA,93010,"http://maps.google.com/maps?q=3701 E. LAS POSAS RD.,+CAMARILLO,+CA+93010&hl=en"
CARMEL POLICE DEPARTMENT,CARMEL POLICE DEPARTMENT,SE JUNIPERO AND FOURTH AVENUE,CARMEL,CA,93921,"http://maps.google.com/maps?q=SE JUNIPERO AND FOURTH AVENUE,+CARMEL,+CA+93921&hl=en"
CHINO POLICE DEPARTMENT,CHINO POLICE DEPARTMENT FRONT LOBBY,5450 GUARDIAN WAY,CHINO,CA,91710,"http://maps.google.com/maps?q=5450 GUARDIAN WAY,+CHINO,+CA+91710&hl=en"
"CITY OF BELLFLOWER, L.A. CTY SHERIFF (KAISER)",KAISER MEDICAL OFFICES PARKING LOT OFF OF CLARK AVE.,9400 E. ROSECRANS,BELLFLOWER,CA,90706,"http://maps.google.com/maps?q=9400 E. ROSECRANS,+BELLFLOWER,+CA+90706&hl=en"
CLAREMONT POLICE DEPARTMENT,CLAREMONT POLICE DEPARTMENT FRONT LOBBY,570 W. BONITA AVE,CLAREMONT,CA,91711,"http://maps.google.com/maps?q=570 W. BONITA AVE,+CLAREMONT,+CA+91711&hl=en"
CLAREMONT POLICE DEPARTMENT,KECK GRADUATE INSTITUTE INSIDE CAMPUS OFFICE,535 WATSON DR.,CLAREMONT,CA,91711,"http://maps.google.com/maps?q=535 WATSON DR.,+CLAREMONT,+CA+91711&hl=en"
CLOVIS POLICE DEPARTMENT,CLOVIS POLICE DEPT,1233 5TH ST,CLOVIS,CA,93612,"http://maps.google.com/maps?q=1233 5TH ST,+CLOVIS,+CA+93612&hl=en"
COLTON POLICE DEPARTMENT,COLTON POLICE DEPARTMENT CIVIC CENTER PARKING LOT,650 NORTH LA CADEENA DR.,COLTON,CA,92324,"http://maps.google.com/maps?q=650 NORTH LA CADEENA DR.,+COLTON,+CA+92324&hl=en"
CORONA POLICE DEPT.,CVS PARKING LOT,1322 W. 6TH STREET,CORONA,CA,92882,"http://maps.google.com/maps?q=1322 W. 6TH STREET,+CORONA,+CA+92882&hl=en"
COSTA MESA PD,COSTA MESA P.D. LOBBY,99 FAIR DR.,COSTA MESA,CA,92628,"http://maps.google.com/maps?q=99 FAIR DR.,+COSTA MESA,+CA+92628&hl=en"
CULVER CITY POLICE DEPARTMENT,CULVER CITY POLICE DEPARTMENT NORTHSIDE CORNER,4040 DUQUESNE,CULVER CITY,CA,90232,"http://maps.google.com/maps?q=4040 DUQUESNE,+CULVER CITY,+CA+90232&hl=en"
CYPRESS POLICE DEPT.,CYPRESS POLICE DEPT. FRONT PARKING LOT,5275 ORANGE AVE.,CYPRESS,CA,90630,"http://maps.google.com/maps?q=5275 ORANGE AVE.,+CYPRESS,+CA+90630&hl=en"
DEA FRESNO RESIDENT OFFICE,RIVER PARK NEXT TO YOSHINO'S RESTAURANT,110 EAST PASEO DEL CENTRO,FRESNO,CA,93720,"http://maps.google.com/maps?q=110 EAST PASEO DEL CENTRO,+FRESNO,+CA+93720&hl=en"
DEPT OF VETERANS AFFAIRS POLICE SERVICE--LIVERMORE,DEPT OF VETERANS AFFAIRS POLICE SERVICE--LIVERMORE,4951 ARROYO ROAD BLDG # 74,LIVERMORE,CA,94550,"http://maps.google.com/maps?q=4951 ARROYO ROAD BLDG # 74,+LIVERMORE,+CA+94550&hl=en"
DEPT OF VETERANS AFFAIRS POLICE SERVICE--PALO ALTO,DEPT OF VETERANS AFFAIRS POLICE SERVICE--PALO ALTO,3801 MIRANDA AVENUE,PALO ALTO,CA,94304,"http://maps.google.com/maps?q=3801 MIRANDA AVENUE,+PALO ALTO,+CA+94304&hl=en"
DEPT OF VETERANS AFFAIRS POLICE SERVICE-MENLO PARK,DEPT OF VETERANS AFFAIRS POLICE SERVICE-MENLO PARK,795 WILLOW ROAD BLDG #334,MENLO PARK,CA,94025,"http://maps.google.com/maps?q=795 WILLOW ROAD BLDG #334,+MENLO PARK,+CA+94025&hl=en"
DINUBA POLICE DEPARTMENT,DINUBA POLICE DEPARTMENT,680 S. ALTA AVENUE,DINUBA,CA,93618,"http://maps.google.com/maps?q=680 S. ALTA AVENUE,+DINUBA,+CA+93618&hl=en"
DOWNEY POLICE DEPARTMENT,DOWNEY POLICE DEPARTMENT IN THE WEST PARKING LOT,10911 BROOKSHIRE AVENUE,DOWNEY,CA,90241,"http://maps.google.com/maps?q=10911 BROOKSHIRE AVENUE,+DOWNEY,+CA+90241&hl=en"
DRUG ENFORCEMENT ADMINISTRATION,FEDERAL ROYBAL BUILDING - LOBBY,255 E TEMPLE ST,LOS ANGELES,CA,90012,"http://maps.google.com/maps?q=255 E TEMPLE ST,+LOS ANGELES,+CA+90012&hl=en"
DRUG ENFORCEMENT ADMINISTRATION,WATTS HEALTHCARE CORP. TENESHA TAYLOR 3235685400X5422,10300 COMPTON AVE.,LOS ANGELES,CA,90002,"http://maps.google.com/maps?q=10300 COMPTON AVE.,+LOS ANGELES,+CA+90002&hl=en"
EL SEGUNDO POLICE DEPT.,EL SEGUNDO CITY YARD PARKING LOT,150 ILLINOIS ST.,EL SEGUNDO,CA,90245,"http://maps.google.com/maps?q=150 ILLINOIS ST.,+EL SEGUNDO,+CA+90245&hl=en"
FILLMORE POLICE DEPARTMENT,FILLMORE POLICE DEPARTMENT LOBBY,524 SESPE AVE.,FILLMORE,CA,93015,"http://maps.google.com/maps?q=524 SESPE AVE.,+FILLMORE,+CA+93015&hl=en"
FIREBAUGH POLICE DEPARTMENT,FIREBAUGH POLICE DEPARTMENT,1575 11TH STREET,FIREBAUGH,CA,93622,"http://maps.google.com/maps?q=1575 11TH STREET,+FIREBAUGH,+CA+93622&hl=en"
FRESNO COUNTY SHERIFF'S OFFICE,FRESNO COUNTY SHERIFF'S OFFICE AREA 2 SUBSTATION,5717 E. SHIELDS AVENUE,FRESNO,CA,93727,"http://maps.google.com/maps?q=5717 E. SHIELDS AVENUE,+FRESNO,+CA+93727&hl=en"
FULLERTON POLICE DEPARTMENT,FULLERTON POLICE DEPARTMENT DRIVE-THRU ON HIGHLAND AVE.,237 W COMMONWEALTH AVE,FULLERTON,CA,92832,"http://maps.google.com/maps?q=237 W COMMONWEALTH AVE,+FULLERTON,+CA+92832&hl=en"
GARDEN GROVE POLICE DEPARTMENT,GARDEN GROVE POLICE DEPARTMENT LOBBY,11301 ACACIA PKWY,GARDEN GROVE,CA,92842,"http://maps.google.com/maps?q=11301 ACACIA PKWY,+GARDEN GROVE,+CA+92842&hl=en"
GARDENA POLICE DEPARTMENT,GARDENA P.D. ATTN: ERICA MCLEOD 3102179689,1718 W 162 STREET,GARDENA,CA,90247,"http://maps.google.com/maps?q=1718 W 162 STREET,+GARDENA,+CA+90247&hl=en"
GLENDALE POLICE DEPARTMENT,CVS PHARMACY IN PARKING LOT,1122 E BROADWAY,GLENDALE,CA,91205,"http://maps.google.com/maps?q=1122 E BROADWAY,+GLENDALE,+CA+91205&hl=en"
GLENDALE POLICE DEPARTMENT,CVS PHARMACY IN PARKING LOT,2037 VERDUGO BL,MONTROSE,CA,91020,"http://maps.google.com/maps?q=2037 VERDUGO BL,+MONTROSE,+CA+91020&hl=en"
GLENDALE POLICE DEPARTMENT,SMART & FINAL EXTRA,1855 W. GLENOAKS BLVD,GLENDALE,CA,91201,"http://maps.google.com/maps?q=1855 W. GLENOAKS BLVD,+GLENDALE,+CA+91201&hl=en"
GLENDALE POLICE DEPARTMENT,YMCA PARKING LOT,1930 FOOTHILL BLVD.,LA CANADA FLINTRIDGE,CA,91011,"http://maps.google.com/maps?q=1930 FOOTHILL BLVD.,+LA CANADA FLINTRIDGE,+CA+91011&hl=en"
GLENDORA POLICE DEPARTMENT,GLENDORA POLICE DEPARTMENT JLINGER@GLENDORAPD.ORG,150 S. GLENDORA AVE,GLENDORA,CA,91741,"http://maps.google.com/maps?q=150 S. GLENDORA AVE,+GLENDORA,+CA+91741&hl=en"
GONZALES POLICE DEPARTMENT,GONZALES POLICE DEPARTMENT,109 FOURTH STREET,GONZALES,CA,93926,"http://maps.google.com/maps?q=109 FOURTH STREET,+GONZALES,+CA+93926&hl=en"
GUADALUPE POLICE DEPARTMENT,GUADALUPE POLICE DEPARTMENT LOBBY,4490 10TH STREET,GUADALUPE,CA,93434,"http://maps.google.com/maps?q=4490 10TH STREET,+GUADALUPE,+CA+93434&hl=en"
HERMOSA BEACH POLICE DEPARTMENT,HERMOSA BEACH POLICE DEPARTMENT FRONT LOBBY,540 PIER AVE,HERMOSA BEACH,CA,90254,"http://maps.google.com/maps?q=540 PIER AVE,+HERMOSA BEACH,+CA+90254&hl=en"
HOLLISTER POLICE DEPARTMENT,TARGET PARKING LOT,1790 AIRLINE HWY,HOLLISTER,CA,95023,"http://maps.google.com/maps?q=1790 AIRLINE HWY,+HOLLISTER,+CA+95023&hl=en"
HUNTINGTON BEACH POLICE DEPT.,HUNTINGTON BEACH P.D. FRONT LOBBY,2000 MAIN STREET,HUNTINGTON BEACH,CA,92648,"http://maps.google.com/maps?q=2000 MAIN STREET,+HUNTINGTON BEACH,+CA+92648&hl=en"
INGLEWOOD P.D.,INGLEWOOD PD IN FRONT OF CITY HALL,1 WEST MANCHESTER BL,INGLEWOOD,CA,90301,"http://maps.google.com/maps?q=1 WEST MANCHESTER BL,+INGLEWOOD,+CA+90301&hl=en"
INYO COUNTY SHERIFF'S DEPARTMENT,KMART,1200 NORTH MAIN STREET,BISHOP,CA,93514,"http://maps.google.com/maps?q=1200 NORTH MAIN STREET,+BISHOP,+CA+93514&hl=en"
INYO COUNTY SHERIFF'S DEPARTMENT,MCDONALD'S,601 SOUTH MAIN STREET,LONE PINE,CA,93545,"http://maps.google.com/maps?q=601 SOUTH MAIN STREET,+LONE PINE,+CA+93545&hl=en"
IRVINE P.D. (KAISER),HOAG HEALTH CTR. ROXANNA BRYANT 7143569675,16405 SAND CANYON,IRVINE,CA,92618,"http://maps.google.com/maps?q=16405 SAND CANYON,+IRVINE,+CA+92618&hl=en"
IRVINE P.D. (KAISER),IRVINE POLICE DEPT. FRONT PARKING LOT,1 CIVIC CENTER PLAZA,IRVINE,CA,92606,"http://maps.google.com/maps?q=1 CIVIC CENTER PLAZA,+IRVINE,+CA+92606&hl=en"
IRVINE P.D. (KAISER),KAISER PERMANENTE FRONT PARKING LOT,6650 ALTON PARKWAY,IRVINE,CA,92618,"http://maps.google.com/maps?q=6650 ALTON PARKWAY,+IRVINE,+CA+92618&hl=en"
IRVINE VALLEY COLLEGE POLICE,IRVINE VALLEY COLLEGE POLICE PARKING LOT 5,5500 IRVINE CENTER DR.,IRVINE,CA,92618,"http://maps.google.com/maps?q=5500 IRVINE CENTER DR.,+IRVINE,+CA+92618&hl=en"
LA HABRA POLICE DEPARTMENT,LA HABRA POLICE DEPARTMENT FRONT LOBBY,150 NORTH EUCLID STREET,LA HABRA,CA,90631,"http://maps.google.com/maps?q=150 NORTH EUCLID STREET,+LA HABRA,+CA+90631&hl=en"
LA VERNE POLICE DEPARTMENT,LA VERNE POLICE DEPARTMENT LOBBY,2061 THIRD ST.,LA VERNE,CA,91750,"http://maps.google.com/maps?q=2061 THIRD  ST.,+LA VERNE,+CA+91750&hl=en"
LATHROP POLICE SERVICES,LATHROP SENIOR CENTER,15707 FIFTH STREET,LATHROP,CA,95330,"http://maps.google.com/maps?q=15707 FIFTH STREET,+LATHROP,+CA+95330&hl=en"
LINDSAY POLICE DEPARTMENT,LINDSAY POLICE DEPARTMENT,185 N. GALE HILL AVE,LINDSAY,CA,93247,"http://maps.google.com/maps?q=185 N. GALE HILL AVE,+LINDSAY,+CA+93247&hl=en"
LIVERMORE POLICE DEPARTMENT,LIVERMORE POLICE DEPARTMENT,1110 S. LIVERMORE AVE.,LIVERMORE,CA,94550,"http://maps.google.com/maps?q=1110 S. LIVERMORE AVE.,+LIVERMORE,+CA+94550&hl=en"
LONG BEACH POLICE DEPARTMENT,LONG BEACH MEMORIAL HOSP. PARKING LOT,2801 ATLANTIC,LONG BEACH,CA,90806,"http://maps.google.com/maps?q=2801 ATLANTIC,+LONG BEACH,+CA+90806&hl=en"
LOS ALAMITOS POLICE DEPT.,MCAULIFFE MIDDLE SCHOOL ATTN:CHRIS VLASIC 5627994700XT80412,4112 CERRITOS AVE.,LOS ALAMITOS,CA,90720,"http://maps.google.com/maps?q=4112 CERRITOS AVE.,+LOS ALAMITOS,+CA+90720&hl=en"
LOS ANGELES COUNTY SHERIFF'S DEPT.,CARSON STATION - LASD DEPUTY FRED NOYA 3108301123,701 E. CARSON ST.,CARSON,CA,90745,"http://maps.google.com/maps?q=701 E. CARSON ST.,+CARSON,+CA+90745&hl=en"
LOS ANGELES COUNTY SHERIFF'S DEPT.,CENTURY STATION - LASD,11703 E. ALAMEDA ST.,LYNWOOD,CA,90262,"http://maps.google.com/maps?q=11703 E. ALAMEDA ST.,+LYNWOOD,+CA+90262&hl=en"
LOS ANGELES COUNTY SHERIFF'S DEPT.,COMPTON STATION - LASD,301 S. WILLOWBROOK AVE.,COMPTON,CA,90221,"http://maps.google.com/maps?q=301 S. WILLOWBROOK AVE.,+COMPTON,+CA+90221&hl=en"
LOS ANGELES COUNTY SHERIFF'S DEPT.,CRESCENTA VALLEY STATION - LASD,4554 N. BRIGGS AVE.,LA CRESCENTA,CA,91214,"http://maps.google.com/maps?q=4554 N. BRIGGS AVE.,+LA CRESCENTA,+CA+91214&hl=en"
LOS ANGELES COUNTY SHERIFF'S DEPT.,EAST LOS ANGELES STATION - LASD,5019 E. THIRD ST.,LOS ANGELES,CA,90022,"http://maps.google.com/maps?q=5019 E. THIRD ST.,+LOS ANGELES,+CA+90022&hl=en"
LOS ANGELES COUNTY SHERIFF'S DEPT.,INDUSTRY STATION - LASD,150 N. HUDSON AVE.,LA PUENTE,CA,91744,"http://maps.google.com/maps?q=150 N. HUDSON AVE.,+LA PUENTE,+CA+91744&hl=en"
LOS ANGELES COUNTY SHERIFF'S DEPT.,LAKEWOOD STATION - LASD,5130 N. CLARK AVE,LAKEWOOD,CA,90712,"http://maps.google.com/maps?q=5130 N. CLARK AVE,+LAKEWOOD,+CA+90712&hl=en"
LOS ANGELES COUNTY SHERIFF'S DEPT.,LOMITA SHERIFF DEPT. SGT. DOUG SHIVE 3102001534,26123 S. NARBONNE AVE.,LOMITA,CA,90717,"http://maps.google.com/maps?q=26123 S. NARBONNE AVE.,+LOMITA,+CA+90717&hl=en"
LOS ANGELES COUNTY SHERIFF'S DEPT.,MALIBU/LOST HILLS STATION - LASD,27050 AGOURA RD.,AGOURA HILLS,CA,91301,"http://maps.google.com/maps?q=27050 AGOURA RD.,+AGOURA HILLS,+CA+91301&hl=en"
LOS ANGELES COUNTY SHERIFF'S DEPT.,NORWALK STATION - LASD,12335 CIVIC CENTER DR.,NORWALK,CA,90650,"http://maps.google.com/maps?q=12335 CIVIC CENTER DR.,+NORWALK,+CA+90650&hl=en"
LOS ANGELES COUNTY SHERIFF'S DEPT.,SANTA CLARITA VALLEY STATION - LASD,23740 W. MAGIC MOUNTAIN PKWY,VALENCIA,CA,91355,"http://maps.google.com/maps?q=23740 W. MAGIC MOUNTAIN PKWY,+VALENCIA,+CA+91355&hl=en"
LOS ANGELES COUNTY SHERIFF'S DEPT.,SOUTH LOS ANGELES STATION - LASD,1310 W. IMPERIAL HWY.,LOS ANGELES,CA,90044,"http://maps.google.com/maps?q=1310 W. IMPERIAL HWY.,+LOS ANGELES,+CA+90044&hl=en"
LOS ANGELES COUNTY SHERIFF'S DEPT.,TEMPLE STATION - LASD,8838 E. LAS TUNAS DR.,TEMPLE CITY,CA,91780,"http://maps.google.com/maps?q=8838 E. LAS TUNAS DR.,+TEMPLE CITY,+CA+91780&hl=en"
LOS ANGELES PD (KAISER),FIRST BAPTIST CHURCH ALICE LEE 9093422788,760 S. WESTMORELAND AVE.,LOS ANGELES,CA,90005,"http://maps.google.com/maps?q=760 S. WESTMORELAND AVE.,+LOS ANGELES,+CA+90005&hl=en"
LOS ANGELES PD (KAISER),KAISER PERMANENTE - PANORAMA CITY MEDICAL CENTER LILIA AIVAZYAN 8183752417,"13652 CANTARA ST., NORTH 3 BLDG",PANORAMA CITY,CA,91402,"http://maps.google.com/maps?q=13652 CANTARA ST., NORTH 3 BLDG,+PANORAMA CITY,+CA+91402&hl=en"
LOS ANGELES PD (KAISER),KAISER PERMANENTE LOS ANGELES MEDICAL CENTER ALEX CAO 3107410290,4760 WEST SUNSET BLVD.,HOLLYWOOD,CA,90027,"http://maps.google.com/maps?q=4760 WEST SUNSET BLVD.,+HOLLYWOOD,+CA+90027&hl=en"
LOS ANGELES PD (KAISER),KAISER PERMANENTE SOUTH BAY MED. CTR. PARHAM NEBEGH 6266286241,"25825 S. VERMONT AVE., PARKVIEW BLDG.",HARBOR CITY,CA,90710,"http://maps.google.com/maps?q=25825 S. VERMONT AVE., PARKVIEW BLDG.,+HARBOR CITY,+CA+90710&hl=en"
LOS ANGELES PD (KAISER),KAISER PERMANENTE WEST LOS ANGELES MEDICAL CTR. SUNNY LEE 8187938455,6041 CADILLAC AV. (24 HR. PHARM. CIRCLE),LOS ANGELES,CA,90034,"http://maps.google.com/maps?q=6041 CADILLAC AV. (24 HR. PHARM. CIRCLE),+LOS ANGELES,+CA+90034&hl=en"
LOS ANGELES PD (KAISER),KAISER PERMANENTE WOODLAND HILLS MEDICAL CENTER ROBERT DEAMER 8052364941,5601 DE SOTO AVENUE,WOODLAND HILLS,CA,91367,"http://maps.google.com/maps?q=5601 DE SOTO AVENUE,+WOODLAND HILLS,+CA+91367&hl=en"
LOS GATOS/MONTE SERENO POLICE DEPARTMENT,LOS GATOS PARK & PUBLIC WORKS,41 MILES AVENUE,LOS GATOS,CA,95030,"http://maps.google.com/maps?q=41 MILES AVENUE,+LOS GATOS,+CA+95030&hl=en"
MADERA COUNTY SHERIFF'S OFFICE,MADERA COUNTY SHERIFF'S OFFICE DETECTIVE BRAD DORR,2725 FALCON DRIVE,MADERA,CA,93637,"http://maps.google.com/maps?q=2725 FALCON DRIVE,+MADERA,+CA+93637&hl=en"
MADERA COUNTY SHERIFF'S OFFICE,MADERA COUNTY SHERIFF'S OFFICE SUBSTATION,48267 LIBERTY DRIVE,OAKHURST,CA,93644,"http://maps.google.com/maps?q=48267 LIBERTY DRIVE,+OAKHURST,+CA+93644&hl=en"
MANHATTAN BEACH POLICE DEPARTMENT,MANHATTAN BEACH POLICE DEPARTMENT CONFERENCE ROOM,420 15TH ST,MANHATTAN BEACH,CA,90266,"http://maps.google.com/maps?q=420 15TH ST,+MANHATTAN BEACH,+CA+90266&hl=en"
MARINA POLICE DEPARTMENT,PUBLIC SAFETY BUILDING,211 HILLCREST AVENUE,MARINA,CA,93933,"http://maps.google.com/maps?q=211 HILLCREST AVENUE,+MARINA,+CA+93933&hl=en"
MARIPOSA COUNTY SHERIFF'S OFFICE,MARIPOSA SHERIFF'S OFFICE DISPATCH LOBBY,"4963 10TH STREET,",MARIPOSA,CA,95338,"http://maps.google.com/maps?q=4963 10TH STREET,,+MARIPOSA,+CA+95338&hl=en"
MARIPOSA COUNTY SHERIFF'S OFFICE,MARIPOSA SHERIFF'S OFFICE SUB STATION #1,10549 FISKE ROAD,COULTERVILLE,CA,95311,"http://maps.google.com/maps?q=10549 FISKE ROAD,+COULTERVILLE,+CA+95311&hl=en"
MENDOTA POLICE DEPARTMENT,MENDOTA POLICE DEPARTMENT,"1000 AIRPORT BLVD., BUILDING A",MENDOTA,CA,93640,"http://maps.google.com/maps?q=1000 AIRPORT BLVD., BUILDING A,+MENDOTA,+CA+93640&hl=en"
MERCED COUNTY SHERIFF'S OFFICE,MERCED COUNTY SHERIFF'S OFFICE,700 W. 22ND STREET,MERCED,CA,95340,"http://maps.google.com/maps?q=700 W.  22ND STREET,+MERCED,+CA+95340&hl=en"
MILPITAS PD,MILPITAS POLICE DEPARTMENT,1275 N. MILPITAS BLVD,MILPITAS,CA,95035,"http://maps.google.com/maps?q=1275 N. MILPITAS BLVD,+MILPITAS,+CA+95035&hl=en"
MONTCLAIR POLICE DEPARTMENT,MONTCLAIR POLICE DEPARTMENT FRONT LOBBY,4870 ARROW HIGHWAY,MONTCLAIR,CA,91763,"http://maps.google.com/maps?q=4870 ARROW HIGHWAY,+MONTCLAIR,+CA+91763&hl=en"
MONTEREY COUNTY SHERIFF'S OFFICE,BANK OF AMERICA PARKING LOT IN FRONT OF THE BANK,RIO ROAD AT HWY 1,CARMEL,CA,93923,"http://maps.google.com/maps?q=RIO ROAD AT HWY 1,+CARMEL,+CA+93923&hl=en"
MONTEREY COUNTY SHERIFF'S OFFICE,PINE CANYON FIRE STATION PARKING LOT IN FRONT OF THE FIRE STATION,51251 PINE CANYON ROAD,KING CITY,CA,93930,"http://maps.google.com/maps?q=51251 PINE CANYON ROAD,+KING CITY,+CA+93930&hl=en"
MONTEREY COUNTY SHERIFF'S OFFICE,PRUNETREE SHOPPING CENTER PARKING LOT IN FRONT OF CVS/PHARMACY,17579 VIERRA CANYON ROAD,SALINAS,CA,93907,"http://maps.google.com/maps?q=17579 VIERRA CANYON ROAD,+SALINAS,+CA+93907&hl=en"
MONTEREY POLICE DEPARTMENT,MONTEREY POLICE DEPARTMENT,351 MADISON ST,MONTEREY,CA,93940,"http://maps.google.com/maps?q=351 MADISON ST,+MONTEREY,+CA+93940&hl=en"
MONTEREY POLICE DEPARTMENT,MONTEREY POLICE DEPARTMENT,351 MADISON STREET,MONTEREY,CA,93940,"http://maps.google.com/maps?q=351 MADISON STREET,+MONTEREY,+CA+93940&hl=en"
MOORPARK POLICE DEPARTMENT,MOORPARK POLICE DEPT. LOBBY,610 SPRING RD.,MOORPARK,CA,93021,"http://maps.google.com/maps?q=610 SPRING RD.,+MOORPARK,+CA+93021&hl=en"
MORGAN HILL POLICE DEPARTMENT,MORGAN HILL POLICE DEPARTMENT,16200 VINEYARD BLVD,MORGAN HILL,CA,95037,"http://maps.google.com/maps?q=16200 VINEYARD BLVD,+MORGAN HILL,+CA+95037&hl=en"
NEWPORT BEACH POLICE DEPARTMENT,HOAG HOSPITAL LOWER CAMPUS PARKING LOT,1 HOAG ROAD,NEWPORT BEACH,CA,92663,"http://maps.google.com/maps?q=1 HOAG ROAD,+NEWPORT BEACH,+CA+92663&hl=en"
NEWPORT BEACH POLICE DEPARTMENT,OASIS SENIOR CENTER PARKING LOT,801 NARCISSUS AVE,CORONA DEL MAR,CA,92625,"http://maps.google.com/maps?q=801 NARCISSUS AVE,+CORONA DEL MAR,+CA+92625&hl=en"
ONTARIO POLICE DEPARTMENT,ONTARIO POLICE DEPARTMENT FRONT LOBBY,2500 S. ARCHIBALD AVE,ONTARIO,CA,91761,"http://maps.google.com/maps?q=2500 S. ARCHIBALD AVE,+ONTARIO,+CA+91761&hl=en"
ONTARIO POLICE DEPARTMENT,ONTARIO SENIOR CENTER,225 E. B STREET,ONTARIO,CA,91762,"http://maps.google.com/maps?q=225 E. B STREET,+ONTARIO,+CA+91762&hl=en"
ORANGE COUNTY SHERIFF'S DEPARTMENT,LAGUNA WOODS CITY HALL MPIXOMATIS@OCSD.ORG,24264 EL TORO RD.,LAGUNA WOODS,CA,92637,"http://maps.google.com/maps?q=24264 EL TORO  RD.,+LAGUNA WOODS,+CA+92637&hl=en"
ORANGE COUNTY SHERIFF'S DEPARTMENT,ROSSMOOR RUSH PARK,3021 BLUME DR.,ROSSMOOR,CA,90720,"http://maps.google.com/maps?q=3021 BLUME DR.,+ROSSMOOR,+CA+90720&hl=en"
ORANGE COUNTY SHERIFF'S DEPARTMENT,WALTER HEAD START CENTER PARKING LOT,9200 PACIFIC PLACE,ANAHEIM,CA,92804,"http://maps.google.com/maps?q=9200 PACIFIC PLACE,+ANAHEIM,+CA+92804&hl=en"
ORANGE COUNTY SHERIFF'S DEPARTMENT,YORBA LINDA COMMUNITY CENTER KBOYD@OCSD.ORG,4501 CASA LOMA AVE,YORBA LINDA,CA,92886,"http://maps.google.com/maps?q=4501 CASA LOMA AVE,+YORBA LINDA,+CA+92886&hl=en"
ORANGE COVE POLICE DEPARTMENT,ORANGE COVE POLICE DEPARTMENT,550 CENTER STREET,ORANGE COVE,CA,93646,"http://maps.google.com/maps?q=550 CENTER STREET,+ORANGE COVE,+CA+93646&hl=en"
ORANGE POLICE DEPARTMENT,CITY OF ORANGE CITY HALL PARKING LOT,360 E. CHAPMAN,ORANGE,CA,92866,"http://maps.google.com/maps?q=360 E. CHAPMAN,+ORANGE,+CA+92866&hl=en"
OXNARD POLICE DEPARTMENT,OXNARD POLICE DEPARTMENT LOBBY,251 SOUTH C STREET,OXNARD,CA,93030,"http://maps.google.com/maps?q=251 SOUTH C STREET,+OXNARD,+CA+93030&hl=en"
PALOS VERDES ESTATES POLICE DEPARTMENT,PALO VERDES ESTATES POLICE DEPARTMENT DRIVE THRU,340 PALO VERDES DRIVE W.,PALOS VERDES PENINSULA,CA,90274,"http://maps.google.com/maps?q=340 PALO VERDES DRIVE W.,+PALOS VERDES PENINSULA,+CA+90274&hl=en"
PASADENA POLICE DEPARTMENT,PASADENA POLICE DEPARTMENT IN FRONT OF LOBBY,207 GARFIELD AVE,PASADENA,CA,91101,"http://maps.google.com/maps?q=207 GARFIELD AVE,+PASADENA,+CA+91101&hl=en"
POMONA POLICE DEPARTMENT,POMONA POLICE DEPARTMENT FRONT LOBBY,490 MISSION BLVD,POMONA,CA,91766,"http://maps.google.com/maps?q=490 MISSION BLVD,+POMONA,+CA+91766&hl=en"
PORT HUENEME POLICE DEPARTMENT,PORT HUENEME POLICE DEPARTMENT LOBBY,250 NORTH VENTURA ROAD,PORT HUENEME,CA,93041,"http://maps.google.com/maps?q=250 NORTH VENTURA ROAD,+PORT HUENEME,+CA+93041&hl=en"
PORTERVILLE POLICE DEPARTMENT,PORTERVILLE POLICE DEPARTMENT,350 N. D STREET,PORTERVILLE,CA,93257,"http://maps.google.com/maps?q=350 N. D  STREET,+PORTERVILLE,+CA+93257&hl=en"
REDONDO BEACH POLICE DEPARTMENT,REDONDO BEACH POLICE ANNEX PARKING LOT OFF VINCENT STREET,200 N. PACIFIC COAST HWY,REDONDO BEACH,CA,90277,"http://maps.google.com/maps?q=200 N. PACIFIC COAST HWY,+REDONDO BEACH,+CA+90277&hl=en"
RIPON POLICE DEPARTMENT,RIPON POLICE DEPARTMENT,259 N. WILMA AVE.,RIPON,CA,95366,"http://maps.google.com/maps?q=259 N. WILMA AVE.,+RIPON,+CA+95366&hl=en"
RIVERSIDE COUNTY SHERIFF'S DEPARTMENT,JURUPA VALLEY SHERIFF'S STATION STATION LOBBY,7477 MISSION BLVD.,RIVERSIDE,CA,92509,"http://maps.google.com/maps?q=7477 MISSION BLVD.,+RIVERSIDE,+CA+92509&hl=en"
RIVERSIDE P.D. (KAISER),KAISER HOSPITAL PARKING LOT,10800 MAGNOLIA AVENUE (NW CORNER),RIVERSIDE,CA,92505,"http://maps.google.com/maps?q=10800 MAGNOLIA AVENUE (NW CORNER),+RIVERSIDE,+CA+92505&hl=en"
SAN BERNARDINO CTY SHERIFF DEPT,APPLE VALLEY STATION (LOBBY) LAURA MARKS 7602407400 XT 7443,14931 DALE EVANS PARKWAY,APPLE VALLEY,CA,92307,"http://maps.google.com/maps?q=14931 DALE EVANS PARKWAY,+APPLE VALLEY,+CA+92307&hl=en"
SAN BERNARDINO CTY SHERIFF DEPT,BARSTOW SHERIFF DEPT. KELSEY PARSONS 7602564838,225 E. MOUNTAIN VIEW ST.,BARSTOW,CA,92311,"http://maps.google.com/maps?q=225 E. MOUNTAIN VIEW ST.,+BARSTOW,+CA+92311&hl=en"
SAN BERNARDINO CTY SHERIFF DEPT,HESPERIA STATION (LOBBY) DEP. GREG LUGO 7609471500,15840 SMOKE TREE STREET,HESPERIA,CA,92345,"http://maps.google.com/maps?q=15840 SMOKE TREE STREET,+HESPERIA,+CA+92345&hl=en"
SAN BERNARDINO CTY SHERIFF DEPT,HIGHLAND STATION LEE GUERRA 9094259793,26985 BASELINE ROAD,HIGHLAND,CA,92346,"http://maps.google.com/maps?q=26985 BASELINE ROAD,+HIGHLAND,+CA+92346&hl=en"
SAN BERNARDINO CTY SHERIFF DEPT,PHELAN SHERIFF STATION 7608681006 JOE PARKER,4050 PHELAN RD,PHELAN,CA,92371,"http://maps.google.com/maps?q=4050 PHELAN RD,+PHELAN,+CA+92371&hl=en"
SAN BERNARDINO CTY SHERIFF DEPT,RANCHO CUCAMONGA STATION DET. JOHN NABRY 9094772854,10510 CIVIC CENTER DRIVE,RANCHO CUCAMONGA,CA,91730,"http://maps.google.com/maps?q=10510 CIVIC CENTER DRIVE,+RANCHO CUCAMONGA,+CA+91730&hl=en"
SAN BERNARDINO CTY SHERIFF DEPT,VICTORVILLE STATION (LOBBY) KEVIN DOWDEY 7602412911,909938333814200 AMARGOSA RD.,VICTORVILLE,CA,92392,"http://maps.google.com/maps?q=9099383338,+VICTORVILLE,+CA+92392&hl=en"
SAN GABRIEL POLICE DEPARTMENT,SAN GABRIEL POLICE DEPARTMENT IN FRONT OF POLICE STATION,625 SOUTH DEL MAR AVE.,SAN GABRIEL,CA,91776,"http://maps.google.com/maps?q=625 SOUTH DEL MAR AVE.,+SAN GABRIEL,+CA+91776&hl=en"
SAN JOAQUIN COUNTY SHERIFF'S OFFICE,MOUNTAIN HOUSE COMMUNITY SERVICE CENTER,230 S. STERLING AVENUE,TRACY,CA,95391,"http://maps.google.com/maps?q=230 S. STERLING AVENUE,+TRACY,+CA+95391&hl=en"
SAN JOSE POLICE DEPARTMENT,ALMADEN COMMUNITY CENTER,6445 CAMDEN AVE,SAN JOSE,CA,95120,"http://maps.google.com/maps?q=6445 CAMDEN AVE,+SAN JOSE,+CA+95120&hl=en"
SAN JOSE POLICE DEPARTMENT,BASCOM CONNUNITY CENTER,1000 S. BASCOM AVENUE,SAN JOSE,CA,95128,"http://maps.google.com/maps?q=1000 S. BASCOM AVENUE,+SAN JOSE,+CA+95128&hl=en"
SAN JOSE POLICE DEPARTMENT,CALABAZAS BRANCH LIBRARY,1230 S. BLANEY AVENUE,SAN JOSE,CA,95129,"http://maps.google.com/maps?q=1230 S.  BLANEY AVENUE,+SAN JOSE,+CA+95129&hl=en"
SAN JOSE POLICE DEPARTMENT,CAMDEN COMMUNITY CENTER,3369 UNION AVE,SAN JOSE,CA,95124,"http://maps.google.com/maps?q=3369 UNION AVE,+SAN JOSE,+CA+95124&hl=en"
SAN JOSE POLICE DEPARTMENT,MAYFAIR COMMUNITY CENTER,2039 KAMMERER AVE,SAN JOSE,CA,95116,"http://maps.google.com/maps?q=2039 KAMMERER AVE,+SAN JOSE,+CA+95116&hl=en"
SAN JOSE POLICE DEPARTMENT,SAN JOSE POLICE SUBSTATION,6087 GREAT OAKS PKWY,SAN JOSE,CA,95119,"http://maps.google.com/maps?q=6087 GREAT OAKS PKWY,+SAN JOSE,+CA+95119&hl=en"
SAN JOSE POLICE DEPARTMENT,SEVEN TREES COMMUNITY CENTER,3590 CAS DRIVE,SAN JOSE,CA,95111,"http://maps.google.com/maps?q=3590 CAS DRIVE,+SAN JOSE,+CA+95111&hl=en"
SAN JOSE POLICE DEPARTMENT,WILLOW GLEN COMMUNITY CENTER,2175 LINCOLN AVE,SAN JOSE,CA,95113,"http://maps.google.com/maps?q=2175 LINCOLN AVE,+SAN JOSE,+CA+95113&hl=en"
SAN LOUIS OBISPO POLICE DEPT.,SAN LUIS OBISPO CA HWY PATROL OFFICE OFCR JORDAN RICHARDS 8055933311,675 CALIFORNIA BLVD.,SAN LUIS OBISPO,CA,93401,"http://maps.google.com/maps?q=675 CALIFORNIA BLVD.,+SAN LUIS OBISPO,+CA+93401&hl=en"
SANGER POLICE DEPARTMENT,SANGER POLICE DEPARTMENT,1700 7TH STREET,SANGER,CA,93657,"http://maps.google.com/maps?q=1700  7TH STREET,+SANGER,+CA+93657&hl=en"
SANTA ANA POLICE DEPARTMENT,WESTEND OFFICE LOBBY,3750 WEST MCFADDEN AVE.UNIT I,SANTA ANA,CA,92704,"http://maps.google.com/maps?q=3750 WEST MCFADDEN AVE.,+SANTA ANA,+CA+92704&hl=en"
SANTA BARBARA COUNTY SHERIFF'S DEPARTMENT,SANTA BARBARA COUNTY SHERIFF'S HQ PARKING LOT,4434 CALLE REAL,SANTA BARBARA,CA,93110,"http://maps.google.com/maps?q=4434 CALLE REAL,+SANTA BARBARA,+CA+93110&hl=en"
SANTA BARBARA POLICE DEPARTMENT,LA CUMBRE PLAZA NEXT TO STARBUCKS ON THE CURBLINE,121 S HOPE AVENUE,SANTA BARBARA,CA,93105,"http://maps.google.com/maps?q=121 S HOPE AVENUE,+SANTA BARBARA,+CA+93105&hl=en"
SANTA CLARA POLICE DEPARTMENT,SANTA CLARA POLICE DEPARTMENT,601 EL CAMINO REAL,SANTA CLARA,CA,95050,"http://maps.google.com/maps?q=601 EL CAMINO REAL,+SANTA CLARA,+CA+95050&hl=en"
SANTA MONICA P.D.,SANTA MONICA P.D. OUTSIDE CURB,333 OLYMPIC DR.,SANTA MONICA,CA,90401,"http://maps.google.com/maps?q=333 OLYMPIC DR.,+SANTA MONICA,+CA+90401&hl=en"
SEAL BEACH POLICE DEPARTMENT,LEISURE WORLD MAIN GATE,13533 SEAL BEACH BL.,SEAL BEACH,CA,90740,"http://maps.google.com/maps?q=13533 SEAL BEACH BL.,+SEAL BEACH,+CA+90740&hl=en"
SEASIDE POLICE DEPARTMENT,SEASIDE POLICE DEPARTMENT,440 HARCOURT AVENUE,SEASIDE,CA,93955,"http://maps.google.com/maps?q=440 HARCOURT AVENUE,+SEASIDE,+CA+93955&hl=en"
SIGNAL HILL POLICE DEPARTMENT,SIGNAL HILL POLICE DEPARTMENT IN LOBBY,2745 WALNUT AVENUE,SIGNAL HILL,CA,90755,"http://maps.google.com/maps?q=2745 WALNUT AVENUE,+SIGNAL HILL,+CA+90755&hl=en"
SIMI VALLEY POLICE DEPT.,SIMI VALLEY POLICE DEPT. PARKING LOT,3901 ALAMO ST.,SIMI VALLEY,CA,93063,"http://maps.google.com/maps?q=3901 ALAMO ST.,+SIMI VALLEY,+CA+93063&hl=en"
SOUTH PASADENA POLICE DEPARTMENT,SOUTH PASADENA POLICE DEPARTMENT COURTYARD,1422 MISSION ST.,SOUTH PASADENA,CA,91030,"http://maps.google.com/maps?q=1422 MISSION ST.,+SOUTH PASADENA,+CA+91030&hl=en"
TEHACHAPI POLICE DEPARTMENT,TEHACHAPI POLICE DEPARTMENT,220 WEST C STREET,TEHACHAPI,CA,93561,"http://maps.google.com/maps?q=220 WEST  C  STREET,+TEHACHAPI,+CA+93561&hl=en"
TORRANCE POLICE DEPARTMENT,TORRANCE POLICE DEPARTMENT TORRANCE PD PARKING LOT,3300 CIVIC CENTER DRIVE,TORRANCE,CA,90503,"http://maps.google.com/maps?q=3300 CIVIC CENTER DRIVE,+TORRANCE,+CA+90503&hl=en"
TRACY POLICE DEPARTMENT,TRACY CITY HALL NORTH PARKING LOT,333 CIVIC CENTER DRIVE,TRACY,CA,95376,"http://maps.google.com/maps?q=333 CIVIC CENTER DRIVE,+TRACY,+CA+95376&hl=en"
TULARE POLICE DEPARTMENT,TULARE POLICE DEPARTMENT BEHIND CITY HALL IN THE PARKING LOT,411 E. KERN,TULARE,CA,93274,"http://maps.google.com/maps?q=411 E. KERN,+TULARE,+CA+93274&hl=en"
TUOLUMNE COUNTY SHERIFF'S OFFICE,JUNCTION SHOPPING CENTER,"13775 MONO WAY, #H",SONORA,CA,95370,"http://maps.google.com/maps?q=13775 MONO WAY, #H,+SONORA,+CA+95370&hl=en"
TUSTIN POLICE DEPARTMENT,TUSTIN POLICE DEPARTMENT COMMUNITY CENTER,300 CENTENNIAL WAY,TUSTIN,CA,92780,"http://maps.google.com/maps?q=300 CENTENNIAL WAY,+TUSTIN,+CA+92780&hl=en"
U.C.IRVINE P.D.,UNIVERSITY HILLS COMMUNITY CTR. PARKING LOT,1083 CALIFORNIA AVE.,IRVINE,CA,92617,"http://maps.google.com/maps?q=1083 CALIFORNIA AVE.,+IRVINE,+CA+92617&hl=en"
UNION CITY POLICE DEPARTMENT,UNION CITY POLICE DEPARTMENT,34009 ALVARADO NILES ROAD,UNION CITY,CA,94587,"http://maps.google.com/maps?q=34009 ALVARADO NILES ROAD,+UNION CITY,+CA+94587&hl=en"
UPLAND POLICE DEPARTMENT,UPLAND POLICE DEPARTMENT TRAINING ROOM OFF LOBBY,1499 W. 13TH ST.,UPLAND,CA,91786,"http://maps.google.com/maps?q=1499 W. 13TH ST.,+UPLAND,+CA+91786&hl=en"
VENTURA COUNTY SHERIFF HQ STATION,MOORPARK PD SGT. DARIN HENDREN,610 SPRING ROAD,MOORPARK,CA,93021,"http://maps.google.com/maps?q=610 SPRING ROAD,+MOORPARK,+CA+93021&hl=en"
VENTURA COUNTY SHERIFF HQ STATION,OJAI POLICE DEPT SGT. SHANE MATHEWS 8056461414,402 S. VENTURA ST.,OJAI,CA,93023,"http://maps.google.com/maps?q=402 S. VENTURA ST.,+OJAI,+CA+93023&hl=en"
VISALIA POLICE DEPARTMENT,VISALIA POLICE DEPARTMENT,303 S. JOHNSON STREET,VISALIA,CA,93291,"http://maps.google.com/maps?q=303 S. JOHNSON STREET,+VISALIA,+CA+93291&hl=en"
WESTMINSTER POLICE DEPARTMENT,WESTMINSTER POLICE DEPT. / CITY HALL PARKING LOT,8200 WESTMINSTER BLVD.,WESTMINSTER,CA,92683,"http://maps.google.com/maps?q=8200 WESTMINSTER BLVD.,+WESTMINSTER,+CA+92683&hl=en"
WHITTIER POLICE DEPARTMENT,WHITTIER CITY HALL DROP OFF/DRIVE BY,13230 PENN ST.,WHITTIER,CA,90602,"http://maps.google.com/maps?q=13230 PENN ST.,+WHITTIER,+CA+90602&hl=en"
WOODLAKE POLICE DEPARTMENT,WOODLAKE POLICE DEPARTMENT,"350 N. VLAENCIA BLVD.,",WOODLAKE,CA,93286,"http://maps.google.com/maps?q=350 N. VLAENCIA BLVD.,,+WOODLAKE,+CA+93286&hl=en"
