Participant,CollectionSite,Address,City,State,Zip,MapURL
15TH DRUG TASK FORCE,DANVILLE POLICE DEPARTMENT,1299 EAST 8TH STREET,DANVILLE,AR,72833,"http://maps.google.com/maps?q=1299 EAST 8TH STREET,+DANVILLE,+AR+72833&hl=en"
18TH WEST JUDICIAL DRUG TASK FORCE,MONTGOMERY COUNTY SHERIFF'S OFFICE PERMANENT DROP BOX,105 HWY 270 EAST#9,MOUNT IDA,AR,71957,"http://maps.google.com/maps?q=105 HWY 270 EAST,+MOUNT IDA,+AR+71957&hl=en"
18TH WEST JUDICIAL DRUG TASK FORCE,NORMAN FIRST BAPTIST CHURCH,205 GOLF COURSE ROAD,NORMAN,AR,71960,"http://maps.google.com/maps?q=205 GOLF COURSE ROAD,+NORMAN,+AR+71960&hl=en"
ALLEN POLICE DEPARTMENT,ALLEN CITY HALL,305 CENTURY PARKWAY,ALLEN,TX,75013,"http://maps.google.com/maps?q=305 CENTURY PARKWAY,+ALLEN,+TX+75013&hl=en"
ALLEN POLICE DEPARTMENT,LOWERY FRESHMAN CENTER,601 E. MAIN ST,ALLEN,TX,75002,"http://maps.google.com/maps?q=601 E. MAIN ST,+ALLEN,+TX+75002&hl=en"
ARGYLE POLICE DEPARTMENT,ARGYLE POLICE DEPARTMENT,506 N. HWY 377,ARGYLE,TX,76226,"http://maps.google.com/maps?q=506 N. HWY 377,+ARGYLE,+TX+76226&hl=en"
ARLINGTON PD,ARLINGTON POLICE DEPARTMENT EAST DISTRICT,2001 NEW YORK,ARLINGTON,TX,76010,"http://maps.google.com/maps?q=2001 NEW YORK,+ARLINGTON,+TX+76010&hl=en"
ARLINGTON PD,ARLINGTON POLICE DEPARTMENT NORTH DISTRICT,620 W. DIVISION,ARLINGTON,TX,76011,"http://maps.google.com/maps?q=620 W. DIVISION,+ARLINGTON,+TX+76011&hl=en"
ARLINGTON PD,ARLINGTON POLICE DEPARTMENT SOUTH DISTRICT,1030 S.W. GREEN OAKS BLVD.,ARLINGTON,TX,76017,"http://maps.google.com/maps?q=1030 S.W. GREEN OAKS BLVD.,+ARLINGTON,+TX+76017&hl=en"
ARLINGTON PD,LAKE ARLINGTON BRANCH PUBLIC LIBRARY,4000 W. GREEN OAKS BLVD.,ARLINGTON,TX,76016,"http://maps.google.com/maps?q=4000 W. GREEN OAKS BLVD.,+ARLINGTON,+TX+76016&hl=en"
ASHDOWN POLICE DEPARTMENT,ASHDOWN POLICE DEPARTMENT PERMANENT DROP BOX,745 SOUTH LOCUST STREET,ASHDOWN,AR,71822,"http://maps.google.com/maps?q=745 SOUTH LOCUST STREET,+ASHDOWN,+AR+71822&hl=en"
ATHENS POLICE DEPT,ATHENS PARTNERSHIP CENTER,201 W. CORSICANA ST,ATHENS,TX,75751,"http://maps.google.com/maps?q=201 W. CORSICANA ST,+ATHENS,+TX+75751&hl=en"
AZLE PD,AZLE PD,613 SOUTHEAST PARKWAY,AZLE,TX,76020,"http://maps.google.com/maps?q=613 SOUTHEAST PARKWAY,+AZLE,+TX+76020&hl=en"
BALCH SPRINGS POLICE DEPARTMENT,BALCH SPRINGS POLICE DEPARTMENT,12500 ELAM ROAD,BALCH SPRINGS,TX,75180,"http://maps.google.com/maps?q=12500 ELAM ROAD,+BALCH SPRINGS,+TX+75180&hl=en"
BARTONVILLE POLICE DEPARTMENT,BARTONVILLE POLICE DEPARTMENT,1941 EAST JETER RD,BARTONVILLE,TX,76226,"http://maps.google.com/maps?q=1941 EAST JETER RD,+BARTONVILLE,+TX+76226&hl=en"
BEDFORD PD,BEDFORD POLICE DEPARTMENT,2121 L. DON DODSON DR.,BEDFORD,TX,76021,"http://maps.google.com/maps?q=2121 L. DON DODSON DR.,+BEDFORD,+TX+76021&hl=en"
BELLMEAD POLICE DEPARTMENT,BELLMEAD POLICE DEPARTMENT,701 MAXFIELD ST.,WACO,TX,76705,"http://maps.google.com/maps?q=701 MAXFIELD ST.,+WACO,+TX+76705&hl=en"
BENBROOK PD,BENBROOK FIRE DEPARTMENT,528 MERCEDES ST,BENBROOK,TX,76126,"http://maps.google.com/maps?q=528 MERCEDES ST,+BENBROOK,+TX+76126&hl=en"
BLUE MOUND PD,BLUE MOUND PD,301 S. BLUE MOUND RD,BLUE MOUND,TX,76131,"http://maps.google.com/maps?q=301 S. BLUE MOUND RD,+BLUE MOUND,+TX+76131&hl=en"
BOONEVILLE POLICE DEPARTMENT,BOONEVILLE POLICE DEPARTMENT PERMANENT DROP BOX,497 EAST MAIN ST.,BOONEVILLE,AR,72927,"http://maps.google.com/maps?q=497 EAST MAIN ST.,+BOONEVILLE,+AR+72927&hl=en"
BOYD POLICE DEPARTMENT,BOYD POLICE DEPARTMENT,731 EAST ROCK ISLAND AVE.,BOYD,TX,76023,"http://maps.google.com/maps?q=731 EAST ROCK ISLAND AVE.,+BOYD,+TX+76023&hl=en"
BURLESON PD,BURLESON POLICE DEPARTMENT,1161 SW WILSHIRE BLVD,BURLESON,TX,76028,"http://maps.google.com/maps?q=1161 SW WILSHIRE BLVD,+BURLESON,+TX+76028&hl=en"
CADDO PARISH SHERIFF'S OFFICE,SHERIFF'S SAFETY TOWN,8910 JEWELLA AVENUE,SHREVEPORT,LA,71118,"http://maps.google.com/maps?q=8910 JEWELLA AVENUE,+SHREVEPORT,+LA+71118&hl=en"
CARROLLTON PD,CARROLLTON PD,2025 E JACKSON RD,CARROLLTON,TX,75006,"http://maps.google.com/maps?q=2025 E JACKSON RD,+CARROLLTON,+TX+75006&hl=en"
CARROLLTON PD,HEBRON VALLEY ELEMENTARY SCHOOL,4108 CREEK VALLEY BLVD,CARROLLTON,TX,75010,"http://maps.google.com/maps?q=4108 CREEK VALLEY BLVD,+CARROLLTON,+TX+75010&hl=en"
CEDAR HILL PD,CEDAR HILL ISD PD ADMIN BLDG,504 E. BELTLINE RD,CEDAR HILL,TX,75104,"http://maps.google.com/maps?q=504 E. BELTLINE RD,+CEDAR HILL,+TX+75104&hl=en"
CELINA POLICE DEPARTMENT,CELINA FIRE DEPARTMENT,1413 S PRESTON RD,CELINA,TX,75009,"http://maps.google.com/maps?q=1413 S PRESTON RD,+CELINA,+TX+75009&hl=en"
COLLEYVILLE PD,COLLEYVILLE SENIOR CENTER,2512 GLADE RD,COLLEYVILLE,TX,76034,"http://maps.google.com/maps?q=2512 GLADE RD,+COLLEYVILLE,+TX+76034&hl=en"
COLONY PD,THE COLONY HIGH SCHOOL,4301 BLAIR OAKS,THE COLONY,TX,75056,"http://maps.google.com/maps?q=4301 BLAIR OAKS,+THE COLONY,+TX+75056&hl=en"
COPPELL POLICE DEPT,COPPELL JUSTICE CENTER,130 TOWN CENTER BLVD,COPPELL,TX,75019,"http://maps.google.com/maps?q=130 TOWN CENTER BLVD,+COPPELL,+TX+75019&hl=en"
CORSICANA ISD LAW ENFORCEMENT,FIRST BAPTIST CHURCH CHURCH PARKING,509 W. COLLIN,CORSICANA,TX,75110,"http://maps.google.com/maps?q=509 W. COLLIN,+CORSICANA,+TX+75110&hl=en"
CROWLEY PD,CROWLEY PD,617 BUSINESS FM 1187 W,CROWLEY,TX,76036,"http://maps.google.com/maps?q=617 BUSINESS FM 1187 W,+CROWLEY,+TX+76036&hl=en"
DAINGERFIELD PD,SHOPPING CENTER,305 W.M. WATSON BLVD.,DAINGERFIELD,TX,75638,"http://maps.google.com/maps?q=305 W.M. WATSON BLVD.,+DAINGERFIELD,+TX+75638&hl=en"
DALLAS COUNTY HOSP DIST PD,AMBULATORY SURGERY CENTER,4900 HARRY HINES BLVD,DALLAS,TX,75235,"http://maps.google.com/maps?q=4900 HARRY HINES BLVD,+DALLAS,+TX+75235&hl=en"
DALLAS COUNTY HOSP DIST PD,BLUITT-FLOWERS CENTER,303 E OVERTON RD,DALLAS,TX,75216,"http://maps.google.com/maps?q=303 E OVERTON RD,+DALLAS,+TX+75216&hl=en"
DALLAS COUNTY HOSP DIST PD,DE-HARO-SALDIVAR CENTER,1400 N WESTMORELAND RD,DALLAS,TX,75211,"http://maps.google.com/maps?q=1400 N WESTMORELAND RD,+DALLAS,+TX+75211&hl=en"
DALLAS COUNTY HOSP DIST PD,GARLAND CENTER,802 HOPKINS ST,GARLAND,TX,75040,"http://maps.google.com/maps?q=802 HOPKINS ST,+GARLAND,+TX+75040&hl=en"
DALLAS COUNTY HOSP DIST PD,HATCHER WOMEN'S CENTER,4600 SCYENE RD,DALLAS,TX,75210,"http://maps.google.com/maps?q=4600 SCYENE RD,+DALLAS,+TX+75210&hl=en"
DALLAS COUNTY HOSP DIST PD,SOUTHEAST DALLAS CENTER,9202 ELAM RD,DALLAS,TX,75217,"http://maps.google.com/maps?q=9202 ELAM RD,+DALLAS,+TX+75217&hl=en"
DALLAS POLICE DEPARTMENT,BACHMAN LAKE BRANCH LIBRARY,9480 WEBB CHAPEL RD,DALLAS,TX,75220,"http://maps.google.com/maps?q=9480 WEBB CHAPEL RD,+DALLAS,+TX+75220&hl=en"
DALLAS POLICE DEPARTMENT,DALLAS POLICE SUBSTATION NORTHEAST DIVISION,9915 E NORTHWEST HWY,DALLAS,TX,75238,"http://maps.google.com/maps?q=9915 E NORTHWEST HWY,+DALLAS,+TX+75238&hl=en"
DALLAS POLICE DEPARTMENT,DAN F. LONG MIDDLE SCHOOL,2525 FRANKFORD RD,DALLAS,TX,75287,"http://maps.google.com/maps?q=2525 FRANKFORD RD,+DALLAS,+TX+75287&hl=en"
DALLAS POLICE DEPARTMENT,E.B. COMSTOCK MIDDLE SCHOOL,7044 HODDE STREET,DALLAS,TX,75217,"http://maps.google.com/maps?q=7044 HODDE STREET,+DALLAS,+TX+75217&hl=en"
DALLAS POLICE DEPARTMENT,KATHLYN JOY GILLIAM COLLEGIATE ACADEMY,1700 E. CAMP WISDOM RD.,DALLAS,TX,75241,"http://maps.google.com/maps?q=1700 E. CAMP WISDOM RD.,+DALLAS,+TX+75241&hl=en"
DALLAS POLICE DEPARTMENT,L.V. STOCKARD MIDDLE SCHOOL,2300 S. RAVINIA DR.,DALLAS,TX,75211,"http://maps.google.com/maps?q=2300 S. RAVINIA DR.,+DALLAS,+TX+75211&hl=en"
DALLAS POLICE DEPARTMENT,WOODROW WILSON HIGH SCHOOL,100 S. GLASGOW DR.,DALLAS,TX,75214,"http://maps.google.com/maps?q=100 S. GLASGOW DR.,+DALLAS,+TX+75214&hl=en"
DALLAS SHERIFF'S DEPARTMENT,SOUTH DALLAS GOVERNMENT CENTER,7201 SOUTH POLK,DALLAS,TX,75232,"http://maps.google.com/maps?q=7201 SOUTH POLK,+DALLAS,+TX+75232&hl=en"
DENISON POLICE DEPARTMENT,DENISON POLICE DEPARTMENT,108 W. MAIN ST.,DENISON,TX,75020,"http://maps.google.com/maps?q=108 W. MAIN ST.,+DENISON,+TX+75020&hl=en"
DESOTO POLICE DEPT.,DESOTO POLICE DEPARTMENT,714 E. BELTLINE RD.,DESOTO,TX,75115,"http://maps.google.com/maps?q=714 E. BELTLINE RD.,+DESOTO,+TX+75115&hl=en"
DUNCANVILLE PD,DUNCANVILLE PD,203 E WHEATLAND RD,DUNCANVILLE,TX,75116,"http://maps.google.com/maps?q=203 E WHEATLAND RD,+DUNCANVILLE,+TX+75116&hl=en"
ELLIS COUNTY CONSTABLE'S OFFICE PCT ONE,ENNIS ISD ADMINISTRATION BUILDING,303 KNOX ST,ENNIS,TX,75119,"http://maps.google.com/maps?q=303 KNOX ST,+ENNIS,+TX+75119&hl=en"
ELLIS COUNTY SO,WAXAHACHIE,1000 N HWY 77,WAXAHACHIE,TX,75165,"http://maps.google.com/maps?q=1000 N HWY 77,+WAXAHACHIE,+TX+75165&hl=en"
EVERMAN PD,EVERMAN POLICE DEPARTMENT,404 W ENON AVE,EVERMAN,TX,76140,"http://maps.google.com/maps?q=404 W ENON AVE,+EVERMAN,+TX+76140&hl=en"
FAIRVIEW PD,FAIRVIEW FIRE STATION #1,500 SOUTH STATE HWY 5,FAIRVIEW,TX,75069,"http://maps.google.com/maps?q=500 SOUTH STATE HWY 5,+FAIRVIEW,+TX+75069&hl=en"
FARMERS BRANCH PD,FARMERS BRANCH POLICE DEPT,3723 VALLEY VIEW LANE,FARMERS BRANCH,TX,75244,"http://maps.google.com/maps?q=3723 VALLEY VIEW LANE,+FARMERS BRANCH,+TX+75244&hl=en"
FARMERSVILLE POLICE DEPARTMENT,FARMERSVILLE POLICE DEPT.,134 N. WASHINGTON ST.,FARMERSVILLE,TX,75442,"http://maps.google.com/maps?q=134 N. WASHINGTON ST.,+FARMERSVILLE,+TX+75442&hl=en"
FERRIS POLICE DEPARTMENT,GAZEBO ON THE TOWN SQUARE,100 TOWN PLAZA,FERRIS,TX,75125,"http://maps.google.com/maps?q=100 TOWN PLAZA,+FERRIS,+TX+75125&hl=en"
FLOWER MOUND PD,FLOWER MOUND HIGH SCHOOL,3411 PETERS COLONY,FLOWER MOUND,TX,75022,"http://maps.google.com/maps?q=3411 PETERS COLONY,+FLOWER MOUND,+TX+75022&hl=en"
FLOWER MOUND PD,MARCUS HIGH SCHOOL,5707 MORRISS RD,FLOWER MOUND,TX,75028,"http://maps.google.com/maps?q=5707 MORRISS RD,+FLOWER MOUND,+TX+75028&hl=en"
FORT WORTH PD,FORT WORTH PD BOB BOLEN,505 W FELIX ST,FORT WORTH,TX,76115,"http://maps.google.com/maps?q=505 W FELIX ST,+FORT WORTH,+TX+76115&hl=en"
FORT WORTH PD,FORT WORTH PD EAST DIVISION PARKING LOT BY PROP ROOM,3616 E LANCASTER,FORT WORTH,TX,76102,"http://maps.google.com/maps?q=3616 E LANCASTER,+FORT WORTH,+TX+76102&hl=en"
FORT WORTH PD,NORTH DIVISION SECTOR,4651 N. MAIN ST.,FORT WORTH,TX,76106,"http://maps.google.com/maps?q=4651 N. MAIN ST.,+FORT WORTH,+TX+76106&hl=en"
FORT WORTH PD,NORTHWEST DIVISION SECTOR,8755 N. RIVERSIDE DR,FORT WORTH,TX,76244,"http://maps.google.com/maps?q=8755 N. RIVERSIDE DR,+FORT WORTH,+TX+76244&hl=en"
FORT WORTH PD,RIDGMAR MALL N PARKING LOT BY DILLARDS,1888 GREEN OAKS RD,FORT WORTH,TX,76116,"http://maps.google.com/maps?q=1888 GREEN OAKS RD,+FORT WORTH,+TX+76116&hl=en"
FORT WORTH PD,RIVERSIDE COMMUNITY CENTER,3700 E BELKNAP ST,FORT WORTH,TX,76111,"http://maps.google.com/maps?q=3700 E BELKNAP ST,+FORT WORTH,+TX+76111&hl=en"
GAINESVILLE POLICE DEPARTMENT,CHIEF STEVEN K. FLEMING PUBLIC SAFETY CENTER,201 SANTA FE STREET,GAINESVILLE,TX,76240,"http://maps.google.com/maps?q=201 SANTA FE STREET,+GAINESVILLE,+TX+76240&hl=en"
GILMER POLICE DEPARTMENT,GILMER CIVIC CENTER,1218 271 NORTH,GILMER,TX,75644,"http://maps.google.com/maps?q=1218 271 NORTH,+GILMER,+TX+75644&hl=en"
GLENN HEIGHTS PD,GLENN HEIGHTS POLICE DEPARTMENT,550 E. BEAR CREEK RD.,GLENN HEIGHTS,TX,75154,"http://maps.google.com/maps?q=550 E. BEAR CREEK RD.,+GLENN HEIGHTS,+TX+75154&hl=en"
GLENWOOD POLICE DEPARTMENT,GLENWOOD CITY HALL PERMANENT DROP BOX,210 NORTH 2ND STREET,GLENWOOD,AR,71943,"http://maps.google.com/maps?q=210 NORTH 2ND STREET,+GLENWOOD,+AR+71943&hl=en"
GRAND PRAIRIE POLICE DEPT.,PUBLIC SAFETY BUILDING,1525 ARKANSAS LANE,GRAND PRAIRIE,TX,75052,"http://maps.google.com/maps?q=1525 ARKANSAS LANE,+GRAND PRAIRIE,+TX+75052&hl=en"
GRAPEVINE POLICE DEPT,GRAPEVINE PD,1007 IRA E WOODS AVE,GRAPEVINE,TX,76051,"http://maps.google.com/maps?q=1007 IRA E WOODS AVE,+GRAPEVINE,+TX+76051&hl=en"
GREENVILLE PD,GREENVILLE PD,3000 LEE STREET,GREENVILLE,TX,75401,"http://maps.google.com/maps?q=3000 LEE STREET,+GREENVILLE,+TX+75401&hl=en"
GREENWOOD POLICE DEPARTMENT,GREENWOOD POLICE DEPARTMENT PERMANENT DROP BOX,250 OLD HACKETT RD,GREENWOOD,AR,72936,"http://maps.google.com/maps?q=250 OLD HACKETT RD,+GREENWOOD,+AR+72936&hl=en"
GREENWOOD POLICE DEPARTMENT,WAL-MART,551 LIBERTY DRIVE,GREENWOOD,AR,72936,"http://maps.google.com/maps?q=551 LIBERTY DRIVE,+GREENWOOD,+AR+72936&hl=en"
HENDERSON PD,HENDERSON FIRE DEPARTMENT #2,612 HWY 79 N,HENDERSON,TX,75652,"http://maps.google.com/maps?q=612 HWY 79 N,+HENDERSON,+TX+75652&hl=en"
HIGHLAND PARK DEPT OF PUBLIC SAFETY,HIGHLAND PARK DPS,4700 DREXEL DR,HIGHLAND PARK,TX,75205,"http://maps.google.com/maps?q=4700 DREXEL DR,+HIGHLAND PARK,+TX+75205&hl=en"
HILLSBORO POLICE DEPARTMENT,HILLSBORO POLICE DEPARTMENT,303 N. WACO STREET,HILLSBORO,TX,76645,"http://maps.google.com/maps?q=303 N. WACO STREET,+HILLSBORO,+TX+76645&hl=en"
HOPE POLICE DEPARTMENT,HEMPSTEAD COUNTY LAW ENFORCEMENT CENTER PERMANENT DROP BOX,312 SOUTH WASHINGTON,HOPE,AR,71801,"http://maps.google.com/maps?q=312 SOUTH WASHINGTON,+HOPE,+AR+71801&hl=en"
HOWARD COUNTY SHERIFF'S OFFICE,HOWARD COUNTY SHERIFF'S OFFICE PERMANENT DROP BOX,101 ISAAC PERKINS BLVD.,NASHVILLE,AR,71852,"http://maps.google.com/maps?q=101 ISAAC PERKINS BLVD.,+NASHVILLE,+AR+71852&hl=en"
IRVING POLICE DEPT,IRVING POLICE DEPARTMENT PARKING LOT,305 N O'CONNOR RD,IRVING,TX,75061,"http://maps.google.com/maps?q=305 N O'CONNOR RD,+IRVING,+TX+75061&hl=en"
IRVING POLICE DEPT,IRVING POLICE NORTH STATION PARKING LOT,5992 RIVERSIDE DRIVE,IRVING,TX,75039,"http://maps.google.com/maps?q=5992 RIVERSIDE DRIVE,+IRVING,+TX+75039&hl=en"
ITALY PD,ITALY PD,161 W. MAIN,ITALY,TX,76651,"http://maps.google.com/maps?q=161 W. MAIN,+ITALY,+TX+76651&hl=en"
JACKSONVILLE PD,JACKSONVILLE CHAMBER OF COMMERCE,526 E. COMMERCE ST,JACKSONVILLE,TX,75766,"http://maps.google.com/maps?q=526 E. COMMERCE ST,+JACKSONVILLE,+TX+75766&hl=en"
KAUFMAN POLICE DEPARTMENT,KAUFMAN HELP CENTER,400 S. TERRELL HWY,KAUFMAN,TX,75142,"http://maps.google.com/maps?q=400 S. TERRELL HWY,+KAUFMAN,+TX+75142&hl=en"
KELLER POLICE DEPARTMENT,KELLER POLICE DEPARTMENT,330 RUFE SNOW DRIVE,KELLER,TX,76248,"http://maps.google.com/maps?q=330 RUFE SNOW DRIVE,+KELLER,+TX+76248&hl=en"
KEMP POLICE DEPARTMENT,KEMP POLICE DEPARTMENT,100 SOUTH STATE HIGHWAY 274,KEMP,TX,75143,"http://maps.google.com/maps?q=100 SOUTH STATE HIGHWAY 274,+KEMP,+TX+75143&hl=en"
KENNEDALE POLICE DEPT,KENNEDALE POLICE DEPT,401 MUNICIPAL DR,KENNEDALE,TX,76060,"http://maps.google.com/maps?q=401 MUNICIPAL DR,+KENNEDALE,+TX+76060&hl=en"
LACY LAKEVIEW POLICE DEPARTMENT,LACY LAKEVIEW POLICE DEPARTMENT,503 E. CRAVEN AVE.,WACO,TX,76705,"http://maps.google.com/maps?q=503 E. CRAVEN AVE.,+WACO,+TX+76705&hl=en"
LAFAYETTE COUNTY SHERIFF'S OFFICE,LAFAYETTE COUNTY SHERIFF'S OFFICE PERMANENT DROP BOX,5 COURTHOUSE SQUARE,LEWISVILLE,AR,71845,"http://maps.google.com/maps?q=5 COURTHOUSE SQUARE,+LEWISVILLE,+AR+71845&hl=en"
LAKE DALLAS POLICE DEPARTMENT,LAKE DALLAS POLICE DEPARTMENT,212 MAIN ST,LAKE DALLAS,TX,75065,"http://maps.google.com/maps?q=212 MAIN ST,+LAKE DALLAS,+TX+75065&hl=en"
LAVON PD,LAVON PD,501 B. LINCOLN AVE,LAVON,TX,75166,"http://maps.google.com/maps?q=501 B. LINCOLN AVE,+LAVON,+TX+75166&hl=en"
LEWISVILLE PD,LEWISVILLE HIGH SCHOOL,1098 W. MAIN STREET,LEWISVILLE,TX,75067,"http://maps.google.com/maps?q=1098 W. MAIN STREET,+LEWISVILLE,+TX+75067&hl=en"
LITTLE ELM PD,LITTLE ELM PUBLIC SAFETY CENTER,88 W. ELDORADO PKWY,LITTLE ELM,TX,75068,"http://maps.google.com/maps?q=88 W. ELDORADO PKWY,+LITTLE ELM,+TX+75068&hl=en"
LITTLE RIVER COUNTY SHERIFF'S OFFICE,LITTLE RIVER COUNTY SHERIFF'S OFFICE PERMANENT DROP BOX,351 N. SECOND ST.,ASHDOWN,AR,71822,"http://maps.google.com/maps?q=351 N. SECOND ST.,+ASHDOWN,+AR+71822&hl=en"
LOGAN COUNTY SHERIFF'S OFFICE,LOGAN POLICE DEPARTMENT PERMANENT DROP BOX,508 W. GROBER ST,PARIS,AR,72855,"http://maps.google.com/maps?q=508 W. GROBER ST,+PARIS,+AR+72855&hl=en"
MANSFIELD PD,MANSFIELD POLICE DEPARTMENT,1305 E. BROAD ST,MANSFIELD,TX,76063,"http://maps.google.com/maps?q=1305 E. BROAD ST,+MANSFIELD,+TX+76063&hl=en"
MAYPEARL PD,MAYPEARL PD,104 E. SECOND,MAYPEARL,TX,76064,"http://maps.google.com/maps?q=104 E. SECOND,+MAYPEARL,+TX+76064&hl=en"
MCKINNEY PD,MCKINNEY PUBLIC SAFETY BUILDING,2200 TAYLOR BURK DR,MCKINNEY,TX,75071,"http://maps.google.com/maps?q=2200 TAYLOR BURK DR,+MCKINNEY,+TX+75071&hl=en"
MELISSA POLICE DEPARTMENT,MELISSA POLICE DEPARTMENT 2ND FLOOR OF CITY HALL,3411 BARKER AVE,MELISSA,TX,75454,"http://maps.google.com/maps?q=3411 BARKER AVE,+MELISSA,+TX+75454&hl=en"
MESQUITE POLICE DEPARTMENT,MESQUITE POLICE DEPARTMENT,777 N. GALLOWAY,MESQUITE,TX,75149,"http://maps.google.com/maps?q=777 N. GALLOWAY,+MESQUITE,+TX+75149&hl=en"
MIDLOTHIAN PD,ACE HARDWARE PARKING LOT,530 E. MAIN,MIDLOTHIAN,TX,76065,"http://maps.google.com/maps?q=530 E. MAIN,+MIDLOTHIAN,+TX+76065&hl=en"
MILFORD PD,MILFORD PD,107 S. MAIN,MILFORD,TX,76670,"http://maps.google.com/maps?q=107 S. MAIN,+MILFORD,+TX+76670&hl=en"
MILLER COUNTY SHERIFF'S OFFICE,MILLER COUNTY SHERIFF'S OFFICE PERMANENT DROP BOX,2300 EAST STREET,TEXARKANA,AR,71854,"http://maps.google.com/maps?q=2300 EAST STREET,+TEXARKANA,+AR+71854&hl=en"
MURPHY PD,MURPHY PD,206 N. MURPHY RD,MURPHY,TX,75094,"http://maps.google.com/maps?q=206 N. MURPHY RD,+MURPHY,+TX+75094&hl=en"
NACOGDOCHES COUNTY SHERIFF'S OFFICE,NACOGDOCHES COUNTY SHERIFF'S OFFICE,2306 DOUGLASS HIGHWAY,NACOGDOCHES,TX,75964,"http://maps.google.com/maps?q=2306 DOUGLASS HIGHWAY,+NACOGDOCHES,+TX+75964&hl=en"
NACOGDOCHES POLICE DEPARTMENT,NACOGDOCHES POLICE DEPARTMENT,1122 NORTH UNIVERSITY DRIVE,NACOGDOCHES,TX,75961,"http://maps.google.com/maps?q=1122 NORTH UNIVERSITY DRIVE,+NACOGDOCHES,+TX+75961&hl=en"
OVILLA POLICE DEPARTMENT,OVILLA POLICE DEPARTMENT,105 S. COCKRELL HILL,OVILLA,TX,75154,"http://maps.google.com/maps?q=105 S. COCKRELL HILL,+OVILLA,+TX+75154&hl=en"
PALMER POLICE DEPARTMENT,PALMER CITY HALL,113 W JEFFERSON,PALMER,TX,75152,"http://maps.google.com/maps?q=113 W JEFFERSON,+PALMER,+TX+75152&hl=en"
PANOLA COUNTY SHERIFF'S DEPT.,PANOLA COUNTY SHERIFF'S DEPARTMENT DENISE GRAY,314 W. WELLINGTON,CARTHAGE,TX,75633,"http://maps.google.com/maps?q=314 W. WELLINGTON,+CARTHAGE,+TX+75633&hl=en"
PARIS POLICE DEPARTMENT,PARIS POLICE DEPARTMENT PERMANENT DROP BOX,1810 EAST WALNUT STREET,PARIS,AR,72855,"http://maps.google.com/maps?q=1810 EAST WALNUT STREET,+PARIS,+AR+72855&hl=en"
PARKER PD,PARKER PD PARKING LOT,5700 E PARKER ROAD,PARKER,TX,75002,"http://maps.google.com/maps?q=5700 E PARKER ROAD,+PARKER,+TX+75002&hl=en"
PLANO POLICE DEPARTMENT,CLARK HIGH SCHOOL,523 W SPRING CREEK PARKWAY,PLANO,TX,75023,"http://maps.google.com/maps?q=523 W SPRING CREEK PARKWAY,+PLANO,+TX+75023&hl=en"
PLANO POLICE DEPARTMENT,PLANO EAST SENIOR HIGH,3000 LOS RIOS BLVD,PLANO,TX,75074,"http://maps.google.com/maps?q=3000 LOS RIOS BLVD,+PLANO,+TX+75074&hl=en"
PLANO POLICE DEPARTMENT,PLANO SENIOR HIGH,2200 INDEPENDENCE PARKWAY,PLANO,TX,75075,"http://maps.google.com/maps?q=2200 INDEPENDENCE PARKWAY,+PLANO,+TX+75075&hl=en"
PLANO POLICE DEPARTMENT,PLANO WEST SENIOR HIGH SCHOOL,5601 WEST PARKER ROAD,PLANO,TX,75093,"http://maps.google.com/maps?q=5601 WEST PARKER ROAD,+PLANO,+TX+75093&hl=en"
POLK COUNTY SHERIFF'S OFFICE,POLK COUNTY SHERIFF'S OFFICE PERMANENT DROP BOX,507 CHURCH AVE,MENA,AR,71953,"http://maps.google.com/maps?q=507 CHURCH AVE,+MENA,+AR+71953&hl=en"
PONDER POLICE DEPARTMENT,BETTY FOSTER LIBRARY,405 SHAFFNER,PONDER,TX,76259,"http://maps.google.com/maps?q=405 SHAFFNER,+PONDER,+TX+76259&hl=en"
PRESCOTT POLICE DEPARTMENT,PRESCOTT POLICE DEPARTMENT PERMANENT DROP BOX,128 W. MAIN ST.,PRESCOTT,AR,71857,"http://maps.google.com/maps?q=128 W. MAIN ST.,+PRESCOTT,+AR+71857&hl=en"
PRINCETON POLICE DEPARTMENT,PRINCETON POLICE DEPARTMENT,306 MAIN ST.,PRINCETON,TX,75407,"http://maps.google.com/maps?q=306 MAIN ST.,+PRINCETON,+TX+75407&hl=en"
RED OAK PD,RED OAK PD,547 N METHODIST ST,RED OAK,TX,75154,"http://maps.google.com/maps?q=547 N METHODIST ST,+RED OAK,+TX+75154&hl=en"
RICHARDSON POLICE DEPT,RICHARDSON CIVIC CENTER/SOUTH PARKING LOT,411 WEST ARAPAHO ROAD,RICHARDSON,TX,75080,"http://maps.google.com/maps?q=411 WEST ARAPAHO ROAD,+RICHARDSON,+TX+75080&hl=en"
RICHLAND COLLEGE,RICHLAND COLLEGE D LOT,12800 ABRAMS RD,DALLAS,TX,75243,"http://maps.google.com/maps?q=12800 ABRAMS RD,+DALLAS,+TX+75243&hl=en"
RICHLAND COLLEGE,RICHLAND COLLEGE GARLAND CAMPUS NORTHWEST PARKING LOT,675 W WALNUT ST,DALLAS,TX,75240,"http://maps.google.com/maps?q=675 W WALNUT ST,+DALLAS,+TX+75240&hl=en"
RICHLAND HILLS PD,RICHLAND HILLS FD,3201 DIANA DRIVE,RICHLAND HILLS,TX,76118,"http://maps.google.com/maps?q=3201 DIANA DRIVE,+RICHLAND HILLS,+TX+76118&hl=en"
ROANOKE PD,ROANOKE PD,609 DALLAS DR,ROANOKE,TX,76262,"http://maps.google.com/maps?q=609 DALLAS DR,+ROANOKE,+TX+76262&hl=en"
ROCKWALL POLICE DEPARTMENT,ROCKWALL POLICE COMMUNITY SERVICES,1113 RIDGE ROAD,ROCKWALL,TX,75087,"http://maps.google.com/maps?q=1113 RIDGE ROAD,+ROCKWALL,+TX+75087&hl=en"
ROWLETT POLICE DEPT,ROWLETT COMMUNITY CENTER,5300 MAIN ST,ROWLETT,TX,75088,"http://maps.google.com/maps?q=5300 MAIN ST,+ROWLETT,+TX+75088&hl=en"
SANSOM PARK POLICE,SANSOM PARK FIRE STATION,5500 BUCHANAN ST,SANSOM PARK,TX,76114,"http://maps.google.com/maps?q=5500 BUCHANAN ST,+SANSOM PARK,+TX+76114&hl=en"
SEAGOVILLE PD,BROOKSHIRES FOOD PARKING LOT,125 HALL ST,SEAGOVILLE,TX,75159,"http://maps.google.com/maps?q=125 HALL ST,+SEAGOVILLE,+TX+75159&hl=en"
SEBASTIAN COUNTY SHERIFF'S OFFICE,ECONOMY FEED & TRAILER,11318 HWY 71 S.,FORT SMITH,AR,72916,"http://maps.google.com/maps?q=11318 HWY 71 S.,+FORT SMITH,+AR+72916&hl=en"
SEVIER COUNTY SHERIFF'S OFFICE,SEVIER COUNTY SHERIFF'S OFFICE PERMANENT DROP BOX,137 W. ROBINSON RD,DE QUEEN,AR,71832,"http://maps.google.com/maps?q=137 W. ROBINSON RD,+DE QUEEN,+AR+71832&hl=en"
SHAWNEE PD,SHAWNEE SENIOR CENTER,401 N. BELL,SHAWNEE,OK,74801,"http://maps.google.com/maps?q=401 N. BELL,+SHAWNEE,+OK+74801&hl=en"
SHERMAN POLICE DEPT,SHERMAN POLICE DEPT,317 S. TRAVIS,SHERMAN,TX,75090,"http://maps.google.com/maps?q=317 S. TRAVIS,+SHERMAN,+TX+75090&hl=en"
SOUTH CENTRAL DRUG TASK FORCE,DEQUEEN WALMART,HWY 70 EAST,DE QUEEN,AR,71832,"http://maps.google.com/maps?q=HWY 70 EAST,+DE QUEEN,+AR+71832&hl=en"
SOUTHLAKE PD,SOUTHLAKE PD,600 STATE ST,SOUTHLAKE,TX,76092,"http://maps.google.com/maps?q=600 STATE ST,+SOUTHLAKE,+TX+76092&hl=en"
TARRANT COUNTY SHERIFF'S DEPARTMENT,NORTH PATROL,6651 LAKE WORTH BLVD.,FORT WORTH,TX,76135,"http://maps.google.com/maps?q=6651 LAKE WORTH BLVD.,+FORT WORTH,+TX+76135&hl=en"
TARRANT COUNTY SHERIFF'S DEPARTMENT,TARRANT COUNTY CORRECTIONS CENTER MAIN LOBBY,100 N. LAMAR,FORT WORTH,TX,76196,"http://maps.google.com/maps?q=100 N. LAMAR,+FORT WORTH,+TX+76196&hl=en"
TERRELL POLICE DEPARTMENT,TERRELL POLICE DEPARTMENT HEADQUARTERS,1100 N SH 34,TERRELL,TX,75160,"http://maps.google.com/maps?q=1100 N SH 34,+TERRELL,+TX+75160&hl=en"
TEXARKANA POLICE DEPARTMENT,TEXARKANA POLICE DEPARTMENT PERMANENT DROP BOX,100 N. STATE LINE AVE,TEXARKANA,AR,71854,"http://maps.google.com/maps?q=100 N. STATE LINE AVE,+TEXARKANA,+AR+71854&hl=en"
TROPHY CLUB PD,TROPHY CLUB POLICE DEPT LOBBY,ONE TROPHY WOOD DRIVE,TROPHY CLUB,TX,76262,"http://maps.google.com/maps?q=ONE TROPHY WOOD DRIVE,+TROPHY CLUB,+TX+76262&hl=en"
TYLER POLICE DEPARTMENT,BROADWAY SQUARE MALL,4601 S BROADWAY,TYLER,TX,75703,"http://maps.google.com/maps?q=4601 S BROADWAY,+TYLER,+TX+75703&hl=en"
U.T. HEALTH SCIENCE CENTER AT TYLER,U.T. HEALTH SCIENCE CENTER AT TYLER,11937 US HWY 271,TYLER,TX,75708,"http://maps.google.com/maps?q=11937 US HWY 271,+TYLER,+TX+75708&hl=en"
UNIVERSITY OF NORTH TEXAS POLICE DEPARTMENT,UNT WILLIS LIBRARY,1506 W. HIGHLAND ST.,DENTON,TX,76201,"http://maps.google.com/maps?q=1506 W. HIGHLAND ST.,+DENTON,+TX+76201&hl=en"
UNIVERSITY PARK POLICE DEPT,UNIVERSITY PARK PD,3800 UNIVERSITY BLVD,DALLAS,TX,75205,"http://maps.google.com/maps?q=3800 UNIVERSITY BLVD,+DALLAS,+TX+75205&hl=en"
VAN ALSTYNE POLICE DEPARTMENT,VAN ALSTYNE POLICE DEPARTMENT,242 N. PRESTON AVENUE,VAN ALSTYNE,TX,75495,"http://maps.google.com/maps?q=242 N. PRESTON AVENUE,+VAN ALSTYNE,+TX+75495&hl=en"
WALDRON POLICE DEPARTMENT,HARPS FOOD PARKING LOT,1350 6TH STREET,WALDRON,AR,72958,"http://maps.google.com/maps?q=1350 6TH STREET,+WALDRON,+AR+72958&hl=en"
WALDRON POLICE DEPARTMENT,WALDRON POLICE DEPARTMENT PERMANENT DROP BOX,323 WASHINGTON ST.,WALDRON,AR,72958,"http://maps.google.com/maps?q=323 WASHINGTON ST.,+WALDRON,+AR+72958&hl=en"
WATAUGA PD,WATAUGA PD,7101 WHITLEY RD,WATAUGA,TX,76148,"http://maps.google.com/maps?q=7101 WHITLEY RD,+WATAUGA,+TX+76148&hl=en"
WHITE SETTLEMENT PD,WHITE SETTLEMENT SENIOR SERVICES CTR,8211 WHITE SETTLEMENT RD,FORT WORTH,TX,76108,"http://maps.google.com/maps?q=8211 WHITE SETTLEMENT RD,+FORT WORTH,+TX+76108&hl=en"
WYLIE PD,WYLIE POLICE DEPT,2000 N HWY 78,WYLIE,TX,75098,"http://maps.google.com/maps?q=2000 N HWY 78,+WYLIE,+TX+75098&hl=en"
