Participant,CollectionSite,Address,City,State,Zip,MapURL
10TH JUDICIAL DRUG TASK FORCE,POLK CITY SHERIFF OFFICE,164 INDUSTRIAL ACCESS CIRCLE,BENTON,TN,37307,"http://maps.google.com/maps?q=164 INDUSTRIAL ACCESS CIRCLE,+BENTON,+TN+37307&hl=en"
10TH JUDICIAL DRUG TASK FORCE,WALMART,1815 DECATUR PIKE,ATHENS,TN,37303,"http://maps.google.com/maps?q=1815 DECATUR PIKE,+ATHENS,+TN+37303&hl=en"
10TH JUDICIAL DRUG TASK FORCE,WALMART,4225 HIGHWAY 411,MADISONVILLE,TN,37354,"http://maps.google.com/maps?q=4225 HIGHWAY 411,+MADISONVILLE,+TN+37354&hl=en"
ACWORTH POLICE DEPARTMENT,TARGET,3378 COBB PARKWAY,ACWORTH,GA,30101,"http://maps.google.com/maps?q=3378 COBB PARKWAY,+ACWORTH,+GA+30101&hl=en"
ACWORTH POLICE DEPARTMENT,WALGREENS,6090 LAKE ACWORTH DRIVE,ACWORTH,GA,30101,"http://maps.google.com/maps?q=6090 LAKE ACWORTH DRIVE,+ACWORTH,+GA+30101&hl=en"
ADAIR COUNTY SHERIFF'S OFFICE,"ADAIR COUNTY SHERIFF'S OFFICE 
												
													TACO BELL (PICK UP IN PARKING LOT)",899 JAMES TOWN STREET,COLUMBIA,KY,42728,"http://maps.google.com/maps?q=899 JAMES TOWN STREET,+COLUMBIA,+KY+42728&hl=en"
ALABAMA BOARD OF PHARMACY,ALABAMA BOARD OF PHARMACY,111 VILLAGE STREET,BIRMINGHAM,AL,35242,"http://maps.google.com/maps?q=111 VILLAGE STREET,+BIRMINGHAM,+AL+35242&hl=en"
ALAMO POLICE DEPARTMENT,ALAMO POLICE DEPT.,31 W. MAIN ST.,ALAMO,TN,38001,"http://maps.google.com/maps?q=31 W. MAIN ST.,+ALAMO,+TN+38001&hl=en"
ALGOOD POLICE DEPT.,ALGOOD CITY HALL LOBBY,215 W. MAIN STREET,COOKEVILLE,TN,38506,"http://maps.google.com/maps?q=215 W. MAIN STREET,+COOKEVILLE,+TN+38506&hl=en"
ALPHARETTA DEPARTMENT OF PUBLIC SAFETY,ALPHARETTA FIRE STATION 81,2970 WEBB BRIDGE ROAD,ALPHARETTA,GA,30009,"http://maps.google.com/maps?q=2970 WEBB BRIDGE ROAD,+ALPHARETTA,+GA+30009&hl=en"
ALPHARETTA DEPARTMENT OF PUBLIC SAFETY,ALPHARETTA FIRE STATION 82,3070 MARKET PLACE,ALPHARETTA,GA,30009,"http://maps.google.com/maps?q=3070 MARKET PLACE,+ALPHARETTA,+GA+30009&hl=en"
ALPHARETTA DEPARTMENT OF PUBLIC SAFETY,ALPHARETTA FIRE STATION 83,9600 WEST SIDE PKWY,ALPHARETTA,GA,30009,"http://maps.google.com/maps?q=9600 WEST SIDE PKWY,+ALPHARETTA,+GA+30009&hl=en"
ALPHARETTA DEPARTMENT OF PUBLIC SAFETY,ALPHARETTA FIRE STATION 84,525 PARK BRIDGE PKWY,ALPHARETTA,GA,30009,"http://maps.google.com/maps?q=525 PARK BRIDGE PKWY,+ALPHARETTA,+GA+30009&hl=en"
ALPHARETTA DEPARTMENT OF PUBLIC SAFETY,ALPHARETTA FIRE STATION 85,1475 MID BROADWELL ROAD,ALPHARETTA,GA,30009,"http://maps.google.com/maps?q=1475 MID BROADWELL ROAD,+ALPHARETTA,+GA+30009&hl=en"
ALPHARETTA DEPARTMENT OF PUBLIC SAFETY,ALPHARETTA FIRE STATION 86,3275 KIMBALL BRIDGE ROAD,ALPHARETTA,GA,30009,"http://maps.google.com/maps?q=3275 KIMBALL BRIDGE ROAD,+ALPHARETTA,+GA+30009&hl=en"
ALPHARETTA DEPARTMENT OF PUBLIC SAFETY,ALPHARETTA PUBLIC SAFETY HEADQUARTERS,2565 OLD MILTON PKWY,ALPHARETTA,GA,30009,"http://maps.google.com/maps?q=2565 OLD MILTON PKWY,+ALPHARETTA,+GA+30009&hl=en"
"ANNISTON ARMY DEPOT, ASAP","ANNISTON ARMY DEPOT 
												
													BLDG 206 AND 422",7 FRANKFORD AVEASAP,ANNISTON,AL,36201,"http://maps.google.com/maps?q=7 FRANKFORD AVE,+ANNISTON,+AL+36201&hl=en"
ATHENS TN POLICE DEPARTMENT,ATHENS POLICE DEPARTMENT,815 NORTH JACKSON STREET,ATHENS,TN,37303,"http://maps.google.com/maps?q=815 NORTH JACKSON STREET,+ATHENS,+TN+37303&hl=en"
ATLANTA POLICE DEPARTMENT,"ATLANTA POLICE DEPARTMENT 
												
													ZONE 1 PRECINCT",2315 DONALD LEE HOLLOWELL PKY. N.W.,ATLANTA,GA,30318,"http://maps.google.com/maps?q=2315 DONALD LEE HOLLOWELL PKY. N.W.,+ATLANTA,+GA+30318&hl=en"
ATLANTA POLICE DEPARTMENT,"ATLANTA POLICE DEPARTMENT 
												
													ZONE 2 PRECINCT",3120 MAPLE DRIVE N.E.,ATLANTA,GA,30305,"http://maps.google.com/maps?q=3120 MAPLE DRIVE N.E.,+ATLANTA,+GA+30305&hl=en"
ATLANTA POLICE DEPARTMENT,"ATLANTA POLICE DEPARTMENT 
												
													ZONE 3 PRECINCT",880 CHEROKEE AVENUE,ATLANTA,GA,30315,"http://maps.google.com/maps?q=880 CHEROKEE AVENUE,+ATLANTA,+GA+30315&hl=en"
ATLANTA POLICE DEPARTMENT,"ATLANTA POLICE DEPARTMENT 
												
													ZONE 4 PRECINCT",1125 CASCADE CR. S.W.,ATLANTA,GA,30311,"http://maps.google.com/maps?q=1125 CASCADE CR. S.W.,+ATLANTA,+GA+30311&hl=en"
ATLANTA POLICE DEPARTMENT,"ATLANTA POLICE DEPARTMENT 
												
													ZONE 5 PRECINCT",200 SPRING ST.,ATLANTA,GA,30303,"http://maps.google.com/maps?q=200 SPRING ST.,+ATLANTA,+GA+30303&hl=en"
ATLANTA POLICE DEPARTMENT,"ATLANTA POLICE DEPARTMENT 
												
													ZONE 6 PRECINCT",2025 HOSEA L. WILLIAMS DR. S.E.,ATLANTA,GA,30317,"http://maps.google.com/maps?q=2025 HOSEA L. WILLIAMS DR. S.E.,+ATLANTA,+GA+30317&hl=en"
AUBURN POLICE DIVISION,"OUR HOME PHARMACY 
												
													OGLETREE VILLAGE",2320 MOORES MILL ROAD #100,AUBURN,AL,36830,"http://maps.google.com/maps?q=2320 MOORES MILL ROAD #100,+AUBURN,+AL+36830&hl=en"
AVONDALE ESTATES POLICE DEPARTMENT,AVONDALE ESTATES PD,21 N. AVONDALE PLAZA,AVONDALE ESTATES,GA,30002,"http://maps.google.com/maps?q=21 N. AVONDALE PLAZA,+AVONDALE ESTATES,+GA+30002&hl=en"
BEDFORD COUNTY SHERIFF'S DEPT.,FIRST BAPTIST CHURCH,304 E. DEPOT ST,SHELBYVILLE,TN,37160,"http://maps.google.com/maps?q=304 E. DEPOT ST,+SHELBYVILLE,+TN+37160&hl=en"
BELLE MEADE POLICE DEPT.,BELLE MEADE POLICE DEPARTMENT,4705 HARDING PIKE,NASHVILLE,TN,37205,"http://maps.google.com/maps?q=4705 HARDING PIKE,+NASHVILLE,+TN+37205&hl=en"
BLOUNT COUNTY DISTRICT ATTORNEY'S OFFICE,BLOUNTSVILLE TOWN HALL,10017 LEE ST,BLOUNTSVILLE,AL,35031,"http://maps.google.com/maps?q=10017 LEE ST,+BLOUNTSVILLE,+AL+35031&hl=en"
BLOUNT COUNTY DISTRICT ATTORNEY'S OFFICE,CLEVELAND PHARMACY,36321 AL 79,CLEVELAND,AL,35049,"http://maps.google.com/maps?q=36321 AL 79,+CLEVELAND,+AL+35049&hl=en"
BLOUNT COUNTY DISTRICT ATTORNEY'S OFFICE,HAYDEN HEALTH MART,4086 STATE HWY 160,HAYDEN,AL,35079,"http://maps.google.com/maps?q=4086 STATE HWY 160,+HAYDEN,+AL+35079&hl=en"
BLOUNT COUNTY DISTRICT ATTORNEY'S OFFICE,HIGHLAND LAKE TOWN HALL,612 LAKESHORE DRIVE,ONEONTA,AL,35121,"http://maps.google.com/maps?q=612 LAKESHORE DRIVE,+ONEONTA,+AL+35121&hl=en"
BLOUNT COUNTY DISTRICT ATTORNEY'S OFFICE,LOCUST FORK TOWN HALL,34 TOWN HALL RD,LOCUST FORK,AL,35097,"http://maps.google.com/maps?q=34 TOWN HALL RD,+LOCUST FORK,+AL+35097&hl=en"
BLOUNT COUNTY DISTRICT ATTORNEY'S OFFICE,ONEONTA WAL-MART,2453 2ND AVENUE EAST,ONEONTA,AL,35121,"http://maps.google.com/maps?q=2453 2ND AVENUE EAST,+ONEONTA,+AL+35121&hl=en"
BLOUNT COUNTY DISTRICT ATTORNEY'S OFFICE,SNEAD TOWN HALL,87169 US HIGHWAY 278,ALTOONA,AL,35952,"http://maps.google.com/maps?q=87169 US HIGHWAY 278,+ALTOONA,+AL+35952&hl=en"
BOGALUSA POLICE DEPARTMENT,NIELSEN'S PHARMACY,1619 S. COLUMBIA STREET,BOGALUSA,LA,70427,"http://maps.google.com/maps?q=1619 S. COLUMBIA STREET,+BOGALUSA,+LA+70427&hl=en"
BOWLING GREEN- WARREN CO DRUG TASK FORCE,BOWLING GREEN POLICE DEPARTMENT,911 KENTUCKY STREET,BOWLING GREEN,KY,42101,"http://maps.google.com/maps?q=911 KENTUCKY STREET,+BOWLING GREEN,+KY+42101&hl=en"
BOWLING GREEN- WARREN CO DRUG TASK FORCE,"KENTUCKY STATE POLICE 
												
													POST 3",3119 NASHVILLE ROAD,BOWLING GREEN,KY,42101,"http://maps.google.com/maps?q=3119 NASHVILLE ROAD,+BOWLING GREEN,+KY+42101&hl=en"
BOWLING GREEN- WARREN CO DRUG TASK FORCE,"SAFETY CITY 
												
													IN FRONT OF GREENWOOD HIGH SCHOOL",5065 SCOTTSVILLE ROAD,BOWLING GREEN,KY,42104,"http://maps.google.com/maps?q=5065 SCOTTSVILLE ROAD,+BOWLING GREEN,+KY+42104&hl=en"
BRADLEY COUNTY SHERIFF'S OFFICE,BCSO CID ENTRANCE,2290 BLYTHE AVE SE,CLEVELAND,TN,37311,"http://maps.google.com/maps?q=2290 BLYTHE AVE SE,+CLEVELAND,+TN+37311&hl=en"
BRENTWOOD POLICE DEPARTMENT,BRENTWOOD POLICE DEPARTMENT,5211 MARYLAND WAY,BRENTWOOD,TN,37027,"http://maps.google.com/maps?q=5211 MARYLAND WAY,+BRENTWOOD,+TN+37027&hl=en"
BROWNSVILLE POLICE DEPARTMENT,BROWNSVILLE POLICE DEPARTMENT,118 N.LAFAYETTE ST.,BROWNSVILLE,TN,38012,"http://maps.google.com/maps?q=118 N.LAFAYETTE ST.,+BROWNSVILLE,+TN+38012&hl=en"
CALDWELL COUNTY SHERIFF'S OFFICE,CALDWELL COUNTY SHERIFF,100 E MARKET ST,PRINCETON,KY,42445,"http://maps.google.com/maps?q=100 E MARKET ST,+PRINCETON,+KY+42445&hl=en"
CALERA POLICE DEPARTMENT,OLIVER PARK,HIGHWAY 25,CALERA,AL,35040,"http://maps.google.com/maps?q=HIGHWAY 25,+CALERA,+AL+35040&hl=en"
CALHOUN COUNTY SHERIFF'S OFFICE,QUINTARD MALL,700 QUINTARD DRIVE,OXFORD,AL,36203,"http://maps.google.com/maps?q=700 QUINTARD DRIVE,+OXFORD,+AL+36203&hl=en"
CAMDEN POLICE DEPT.,CAMDEN POLICE DEPT.,119 W. MAIN ST.,CAMDEN,TN,38320,"http://maps.google.com/maps?q=119 W. MAIN ST.,+CAMDEN,+TN+38320&hl=en"
CAPE GIRARDEAU POLICE DEPT.,CAPE GIRARDEAU POLICE DEPARTMENT,2530 MARIA LOUISE,CAPE GIRARDEAU,MO,63701,"http://maps.google.com/maps?q=2530 MARIA LOUISE,+CAPE GIRARDEAU,+MO+63701&hl=en"
CARBONDALE POLICE DEPARTMENT,CARBONDALE POLICE DEPARTMENT,501 SOUTH WASHINGTON STREET,CARBONDALE,IL,62901,"http://maps.google.com/maps?q=501 SOUTH WASHINGTON STREET,+CARBONDALE,+IL+62901&hl=en"
CARROLL COUNTY SHERIFF'S DEPARTMENT,"CARROLL COUNTY SHERIFF'S DEPARTMENT 
												
													PERMANENT DROP BOX",105 EAST WASHINGTON ST.,CARROLLTON,MS,38917,"http://maps.google.com/maps?q=105 EAST WASHINGTON ST.,+CARROLLTON,+MS+38917&hl=en"
CARROLL COUNTY SHERIFF'S OFFICE,CARROLL COUNTY SHERIFF'S OFFICE,200 NORANDAL DRIVE,HUNTINGDON,TN,38344,"http://maps.google.com/maps?q=200 NORANDAL DRIVE,+HUNTINGDON,+TN+38344&hl=en"
CARTERSVILLE POLICE DEPARTMENT,CARTERSVILLE POLICE DEPARTMENT,195 CASSVILLE ROAD,CARTERSVILLE,GA,30120,"http://maps.google.com/maps?q=195 CASSVILLE ROAD,+CARTERSVILLE,+GA+30120&hl=en"
CARTHAGE POLICE DEPARTMENT,CARTHAGE CITY HALL,314 SPRING ST.,CARTHAGE,TN,37030,"http://maps.google.com/maps?q=314 SPRING ST.,+CARTHAGE,+TN+37030&hl=en"
CATOOSA CO. SHERIFF'S OFFICE,CATOOSA CO. SHERIFF'S OFFICE,5842 HIGHWAY 41,RINGGOLD,GA,30736,"http://maps.google.com/maps?q=5842 HIGHWAY 41,+RINGGOLD,+GA+30736&hl=en"
CHAMBERS COUNTY DRUG TASK FORCE,CHAMBERS COUNTY COURTHOUSE,2 SOUTH LAFAYETTE STREET,LAFAYETTE,AL,36862,"http://maps.google.com/maps?q=2 SOUTH LAFAYETTE STREET,+LAFAYETTE,+AL+36862&hl=en"
CHAMBERS COUNTY DRUG TASK FORCE,CVS PHARMACY,10 VETERANS MEMORIAL PARKWAY,LANETT,AL,36863,"http://maps.google.com/maps?q=10 VETERANS MEMORIAL PARKWAY,+LANETT,+AL+36863&hl=en"
CHAPEL HILL POLICE DEPT.,CHAPEL HILL POLICE DEPT.,119 N. HORTON PKWY,CHAPEL HILL,TN,37034,"http://maps.google.com/maps?q=119 N. HORTON PKWY,+CHAPEL HILL,+TN+37034&hl=en"
CHARLESTON DEPARTMENT OF PUBLIC SAFETY,"CHARLESTON DEPT PUBLIC SAFETY 
												
													HEADQUARTERS",204 N MAIN,CHARLESTON,MO,63834,"http://maps.google.com/maps?q=204 N MAIN,+CHARLESTON,+MO+63834&hl=en"
CHESTER COUNTY SHERIFFS OFFICE,CRIMINAL JUSTICE COMPLEX,333 ERIC BELL DR.,HENDERSON,TN,38340,"http://maps.google.com/maps?q=333 ERIC BELL DR.,+HENDERSON,+TN+38340&hl=en"
CITY OF COOKEVILLE POLICE DEPT.,ANDY'S PHARMACY,305 W. SPRING STREET,COOKEVILLE,TN,38501,"http://maps.google.com/maps?q=305 W. SPRING STREET,+COOKEVILLE,+TN+38501&hl=en"
CITY OF COOKEVILLE POLICE DEPT.,WALGREENS,950 N. WASHINGTON AVE.,COOKEVILLE,TN,38501,"http://maps.google.com/maps?q=950 N. WASHINGTON AVE.,+COOKEVILLE,+TN+38501&hl=en"
CLANTON POLICE DEPARTMENT,CVS PHARMACY,1105 7TH STREET NORTH,CLANTON,AL,35045,"http://maps.google.com/maps?q=1105 7TH STREET NORTH,+CLANTON,+AL+35045&hl=en"
CLAY COUNTY SHERIFF'S OFFICE,CLAY COUNTY SHERIFF'S OFFICE,400 WEST LAKE AVE,CELINA,TN,38551,"http://maps.google.com/maps?q=400 WEST LAKE AVE,+CELINA,+TN+38551&hl=en"
CLINTON POLICE DEPT.,CLINTON POLICE DEPT.,125 W. BROAD ST.,CLINTON,TN,37716,"http://maps.google.com/maps?q=125 W. BROAD ST.,+CLINTON,+TN+37716&hl=en"
COBB COUNTY POLICE DEPARTMENT,PRECINCT 1,2380 COBB PKWY,MARIETTA,GA,30060,"http://maps.google.com/maps?q=2380 COBB PKWY,+MARIETTA,+GA+30060&hl=en"
COBDEN POLICE DEPARTMENT,COBDEN POLICE DEPARTMENT,112 EAST MAPLE,COBDEN,IL,62920,"http://maps.google.com/maps?q=112 EAST MAPLE,+COBDEN,+IL+62920&hl=en"
COFFEE COUNTY SHERIFF DEPARTMENT,FIRST VISION BANK,2134 HILLSBORO HWY.,MANCHESTER,TN,37355,"http://maps.google.com/maps?q=2134 HILLSBORO HWY.,+MANCHESTER,+TN+37355&hl=en"
COLLIERVILLE POLICE DEPARTMENT,COLLIERVILLE POLICE DEPARTMENT,156 N. ROWLETT COLLIERVILLE,COLLIERVILLE,TN,38017,"http://maps.google.com/maps?q=156 N. ROWLETT COLLIERVILLE,+COLLIERVILLE,+TN+38017&hl=en"
COLUMBUS POLICE DEPARTMENT,COLUMBUS POLICE DEPARTMENT,1501 MAIN ST.,COLUMBUS,MS,39701,"http://maps.google.com/maps?q=1501 MAIN ST.,+COLUMBUS,+MS+39701&hl=en"
CONECUH COUNTY SHERIFF'S OFFICE,CONECUH COUNTY SHERIFFS OFFICE,104 LIBERTY STREET,EVERGREEN,AL,36401,"http://maps.google.com/maps?q=104 LIBERTY STREET,+EVERGREEN,+AL+36401&hl=en"
COOSA COUNTY SHERIFF OFFICE,COOSA COUNTY SHERIFF'S OFFICE,296 SCHOOL STREET,ROCKFORD,AL,35136,"http://maps.google.com/maps?q=296 SCHOOL STREET,+ROCKFORD,+AL+35136&hl=en"
CRESTVIEW POLICE DEPARTMENT,WALGREEN'S,2350 S. FERDON BLVD.,CRESTVIEW,FL,32536,"http://maps.google.com/maps?q=2350 S. FERDON BLVD.,+CRESTVIEW,+FL+32536&hl=en"
CROSSVILLE POLICE DEPT.,CROSSVILLE POLICE DEPT.,115 HENRY ST.,CROSSVILLE,TN,38555,"http://maps.google.com/maps?q=115 HENRY ST.,+CROSSVILLE,+TN+38555&hl=en"
CULLMAN COUNTY SHERIFF,CULLMAN COUNTY SHERIFF,1910 BEECH AVENUE SE,CULLMAN,AL,35055,"http://maps.google.com/maps?q=1910 BEECH AVENUE SE,+CULLMAN,+AL+35055&hl=en"
CULLMAN POLICE DEPARTMENT,CULLMAN POLICE DEPARTMENT,601 SECOND AVENUE NE,CULLMAN,AL,35055,"http://maps.google.com/maps?q=601 SECOND AVENUE NE,+CULLMAN,+AL+35055&hl=en"
CUMBERLAND CO. SHERIFF'S DEPARTMENT,CUMBERLAND COUNTY SHERIFF,90 JUSTICE CENTER DR,CROSSVILLE,TN,38555,"http://maps.google.com/maps?q=90 JUSTICE CENTER DR,+CROSSVILLE,+TN+38555&hl=en"
DANVILLE POLICE DEPARTMENT,DANVILLE POLICE DEPARTMENT/CITY HALL,445 W MAIN STREET,DANVILLE,KY,40422,"http://maps.google.com/maps?q=445 W MAIN STREET,+DANVILLE,+KY+40422&hl=en"
DEA GULFPORT RESIDENT OFFICE,EDGEWATER MALL,2600 BEACH BLVD.,BILOXI,MS,39531,"http://maps.google.com/maps?q=2600 BEACH BLVD.,+BILOXI,+MS+39531&hl=en"
DEA-JACKSON DISTRICT OFFICE,"DOGWOOD FESTIVAL 
												
													BETWEEN THE STORES OF BELK & OLD NAVY",272 DOGWOOD BLVD.OFF OF HIGHWAY 25; LAKELAND DR.,FLOWOOD,MS,39232,"http://maps.google.com/maps?q=272 DOGWOOD BLVD.,+FLOWOOD,+MS+39232&hl=en"
DECATUR POLICE DEPARTMENT,DECATUR POLICE DEPARTMENT,420 WEST TRINITY PLACE,DECATUR,GA,30030,"http://maps.google.com/maps?q=420 WEST TRINITY PLACE,+DECATUR,+GA+30030&hl=en"
DEKALB COUNTY POLICE,CLIFTON SPRINGS HEALTH CENTER,3110 CLIFTON SPRINGS ROAD,LITHONIA,GA,30058,"http://maps.google.com/maps?q=3110 CLIFTON SPRINGS ROAD,+LITHONIA,+GA+30058&hl=en"
DEKALB COUNTY POLICE,DEKALB COUNTY PD TUCKER PRECINCT,4451 LAWRENCEVILLE HWY.,TUCKER,GA,30084,"http://maps.google.com/maps?q=4451 LAWRENCEVILLE HWY.,+TUCKER,+GA+30084&hl=en"
DEKALB COUNTY POLICE,DEKALB POLICE HEADQUARTERS,1960 W. EXCHANGE PLACE,TUCKER,GA,30084,"http://maps.google.com/maps?q=1960 W. EXCHANGE PLACE,+TUCKER,+GA+30084&hl=en"
DEKALB COUNTY POLICE,EAST DEKALB HEALTH CENTER,2277 S. STONE MOUNTAIN-LITHONIA ROAD,LITHONIA,GA,30058,"http://maps.google.com/maps?q=2277 S. STONE MOUNTAIN-LITHONIA ROAD,+LITHONIA,+GA+30058&hl=en"
DEKALB COUNTY POLICE,NORTH DEKALB HEALTH CENTER,"3807 CLAIRMONT RD., NE",CHAMBLEE,GA,30341,"http://maps.google.com/maps?q=3807 CLAIRMONT RD., NE,+CHAMBLEE,+GA+30341&hl=en"
DEKALB COUNTY POLICE,RICHARDSON HEALTH CENTER,445 WINN WAY,DECATUR,GA,30030,"http://maps.google.com/maps?q=445 WINN WAY,+DECATUR,+GA+30030&hl=en"
DEMOPOLIS POLICE DEPARTMENT,"THEO RATLIFF ACTIVITY CENTER 
												
													PARKING LOT",306 1ST AVENUE,DEMOPOLIS,AL,36732,"http://maps.google.com/maps?q=306 1ST AVENUE,+DEMOPOLIS,+AL+36732&hl=en"
DICKSON POLICE DEPARTMENT,FIRST BANK,345 HWY 46 SOUTH,DICKSON,TN,37055,"http://maps.google.com/maps?q=345 HWY 46 SOUTH,+DICKSON,+TN+37055&hl=en"
DUNLAP POLICE DEPT,DUNLAP POLICE DEPT,119 CHURCH ST,DUNLAP,TN,37327,"http://maps.google.com/maps?q=119 CHURCH ST,+DUNLAP,+TN+37327&hl=en"
DUQUOIN POLICE DEPARTMENT,"DUQUOIN POLICE DEPARTMENT 
												
													LOBBY",304 E. POPLAR ST,DU QUOIN,IL,62832,"http://maps.google.com/maps?q=304 E. POPLAR ST,+DU QUOIN,+IL+62832&hl=en"
DYER COUNTY SHERIFF'S DEPT.,DYER CO. HEALTH DEPT.,1755 PARR AVE.,DYERSBURG,TN,38024,"http://maps.google.com/maps?q=1755 PARR AVE.,+DYERSBURG,+TN+38024&hl=en"
DYER COUNTY SHERIFF'S OFFICE,"DYER COUNTY JAIL 
												
													LOBBY",401 EAST CEDAR STREET,DYERSBURG,TN,38024,"http://maps.google.com/maps?q=401 EAST CEDAR STREET,+DYERSBURG,+TN+38024&hl=en"
EAST POINT POLICE DEPARTMENT,EAST POINT POLICE DEPARTMENT,2727 EAST POINT STREET,ATLANTA,GA,30344,"http://maps.google.com/maps?q=2727 EAST POINT STREET,+ATLANTA,+GA+30344&hl=en"
EAST PRAIRIE POLICE DEPARTMENT,"EAST PRAIRIE POLICE DEPARTMENT 
												
													MARK HIGGINS",219 N. WASHINGTON,EAST PRAIRIE,MO,63845,"http://maps.google.com/maps?q=219 N. WASHINGTON,+EAST PRAIRIE,+MO+63845&hl=en"
EAST RIDGE POLICE DEPARTMENT,WALGREENS,5301 RINGGOLD RD,EAST RIDGE,TN,37412,"http://maps.google.com/maps?q=5301 RINGGOLD RD,+EAST RIDGE,+TN+37412&hl=en"
EATONTON POLICE DEPARTMENT,EATONTON POLICE DEOARRTMENT,214 W. MARION STREET,EATONTON,GA,31024,"http://maps.google.com/maps?q=214 W. MARION STREET,+EATONTON,+GA+31024&hl=en"
"EGLIN AFB, 96 SECURITY FORCES SQUANDRON",BASE EXCHANGE,BLDG 1757 MEMORIAL LAKE TRAIL,EGLIN AFB,FL,32542,"http://maps.google.com/maps?q=BLDG 1757 MEMORIAL LAKE TRAIL,+EGLIN AFB,+FL+32542&hl=en"
ELBERTA POLICE DEPARTMENT,ELBERTA POLICE DEPARTMENT,13062 MAIN STREET,ELBERTA,AL,36530,"http://maps.google.com/maps?q=13062 MAIN STREET,+ELBERTA,+AL+36530&hl=en"
ESCAMBIA COUNTY SHERIFF OFFICE,WAL GREEN,1841 E OLIVE RD,PENSACOLA,FL,32514,"http://maps.google.com/maps?q=1841 E OLIVE RD,+PENSACOLA,+FL+32514&hl=en"
ESCAMBIA COUNTY SHERIFF OFFICE,WALGREEN,4497 MOBILE HWY,PENSACOLA,FL,32505,"http://maps.google.com/maps?q=4497 MOBILE HWY,+PENSACOLA,+FL+32505&hl=en"
ESCAMBIA COUNTY SHERIFF OFFICE,WALGREENS,6314 NORTH 9TH AVE,PENSACOLA,FL,32504,"http://maps.google.com/maps?q=6314 NORTH 9TH AVE,+PENSACOLA,+FL+32504&hl=en"
ESCAMBIA COUNTY SHERIFF OFFICE,WALGREENS,700 NORTH PACE BLVD,PENSACOLA,FL,32505,"http://maps.google.com/maps?q=700 NORTH PACE BLVD,+PENSACOLA,+FL+32505&hl=en"
ESCAMBIA COUNTY SHERIFF OFFICE,WALGREENS,85 BEVERLY PARKWAY,PENSACOLA,FL,32505,"http://maps.google.com/maps?q=85 BEVERLY PARKWAY,+PENSACOLA,+FL+32505&hl=en"
ESCAMBIA COUNTY SHERIFF OFFICE,WALL GREEN,5995 W MOBILE HWY,PENSACOLA,FL,32526,"http://maps.google.com/maps?q=5995 W MOBILE HWY,+PENSACOLA,+FL+32526&hl=en"
ETOWAH COUNTY DRUG ENFORCEMENT UNIT,WALMART,340 E. MEIGHAN BLVD.,GADSDEN,AL,35903,"http://maps.google.com/maps?q=340 E. MEIGHAN BLVD.,+GADSDEN,+AL+35903&hl=en"
FAIRFIELD GLADE POLICE DEPARTMENT,FAIRFIELD GLADE POLICE DEPT,7258 PEAVINE RD,CROSSVILLE,TN,38558,"http://maps.google.com/maps?q=7258 PEAVINE RD,+CROSSVILLE,+TN+38558&hl=en"
FAIRVIEW POLICE DEPARTMENT,FRED'S PHARMACY,2415 FAIRVIEW BLVD,FAIRVIEW,TN,37062,"http://maps.google.com/maps?q=2415 FAIRVIEW BLVD,+FAIRVIEW,+TN+37062&hl=en"
FAYETTE COUNTY SHERIFF'S DEPARTMENT,FAYETTE COUNTY SHERIFF'S DEPARTMENT,155 JOHNSON AVENUE,FAYETTEVILLE,GA,30214,"http://maps.google.com/maps?q=155 JOHNSON AVENUE,+FAYETTEVILLE,+GA+30214&hl=en"
FAYETTEVILLE POLICE DEPARTMENT,FAYETTEVILLE POLICE DEPARTMENT,760 JIMMIE MAYFIELD BLVD.,NEWNAN,GA,30265,"http://maps.google.com/maps?q=760 JIMMIE MAYFIELD BLVD.,+NEWNAN,+GA+30265&hl=en"
FORT WALTON BEACH POLICE DEPARTMENT,FORT WALTON BEACH POLICE DEPARTMENT,7 HOLLYWOOD BLVD NE,FORT WALTON BEACH,FL,32548,"http://maps.google.com/maps?q=7 HOLLYWOOD BLVD NE,+FORT WALTON BEACH,+FL+32548&hl=en"
FRANKLIN COUNTY SHERIFF'S OFFICE,FRANKLIN COUNTY SHERIFF'S OFFICE,494 GEORGE FRALEY PKWY,WINCHESTER,TN,37398,"http://maps.google.com/maps?q=494 GEORGE FRALEY PKWY,+WINCHESTER,+TN+37398&hl=en"
FULTON POLICE DEPARTMENT,WAL MART SUPERCENTER,101 INTERCHANGE DR.1409 S. ADAMS ST.,FULTON,MS,38843,"http://maps.google.com/maps?q=101 INTERCHANGE DR.,+FULTON,+MS+38843&hl=en"
GARDENDALE POLICE DEPARTMENT,GARDENDALE POLICE DEPARTMENT,1309 DECATUR HIGHWAY,GARDENDALE,AL,35071,"http://maps.google.com/maps?q=1309 DECATUR HIGHWAY,+GARDENDALE,+AL+35071&hl=en"
GEORGE CTY SHERIFF'S OFFICE//LUCEDALE PD,"WAYNE LEE'S GROCERY 
												
													GEORGE CTY SHERIFF/LUCEDALE PD",12109 OLD HWY 63,LUCEDALE,MS,39452,"http://maps.google.com/maps?q=12109 OLD HWY 63,+LUCEDALE,+MS+39452&hl=en"
GIBSON COUNTY SHERIFF'S OFFICE,GIBSON COUNTY SHERIFF'S OFFICE,401 N. COLLEGE STREET,TRENTON,TN,38382,"http://maps.google.com/maps?q=401 N. COLLEGE STREET,+TRENTON,+TN+38382&hl=en"
GILES COUNTY SHERIFF'S DEPT.,CVS PHARMACY,709 W COLLEGE ST.,PULASKI,TN,38478,"http://maps.google.com/maps?q=709 W COLLEGE ST.,+PULASKI,+TN+38478&hl=en"
GLASGOW POLICE DEPARTMENT,WALMART,2345 HAPPY VALLEY RD.,GLASGOW,KY,42141,"http://maps.google.com/maps?q=2345 HAPPY VALLEY RD.,+GLASGOW,+KY+42141&hl=en"
GOODLETTSVILLE POLICE DEPARTMENT,GOODLETTSVILLE POLICE DEPARTMENT,105 SOUTH MAIN STREET,GOODLETTSVILLE,TN,37072,"http://maps.google.com/maps?q=105 SOUTH MAIN STREET,+GOODLETTSVILLE,+TN+37072&hl=en"
GREENBRIER POLICE DEPARTMENT,GREENBRIER PHARMACY,2239 HWY 41 S,GREENBRIER,TN,37073,"http://maps.google.com/maps?q=2239 HWY 41 S,+GREENBRIER,+TN+37073&hl=en"
GROVEHILL POLICE DEPARTMENT,CITY DRUGS,123 JACKSON STREET SOUTH,GROVE HILL,AL,36451,"http://maps.google.com/maps?q=123 JACKSON STREET SOUTH,+GROVE HILL,+AL+36451&hl=en"
GRUNDY COUNTY SHERIFF'S OFFICE,"COALMONT 
												
													BESIDE L & L HARDWARE",38 S. INDUSTRIAL PARK RD.,COALMONT,TN,37313,"http://maps.google.com/maps?q=38 S. INDUSTRIAL PARK RD.,+COALMONT,+TN+37313&hl=en"
GULF BREEZE POLICE DEPARTMENT,GULF BREEZE POLICE DEPARTMENT,311 FAIRPOINT DRIVE,GULF BREEZE,FL,32561,"http://maps.google.com/maps?q=311 FAIRPOINT DRIVE,+GULF BREEZE,+FL+32561&hl=en"
GWINNETT COUNTY POLICE DEPARTMENT,CITY OF PEACHTREE CORNERS CITY HALL,310 TECHNOLOGY PARKWAY,PEACHTREE CORNERS,GA,30092,"http://maps.google.com/maps?q=310 TECHNOLOGY PARKWAY,+PEACHTREE CORNERS,+GA+30092&hl=en"
GWINNETT COUNTY SHERIFF'S OFFICE,GWINNETT COUNTY POLICE DEPARTMENT,2900 UNIVESTIY PARKWAY,LAWRENCEVILLE,GA,30043,"http://maps.google.com/maps?q=2900 UNIVESTIY PARKWAY,+LAWRENCEVILLE,+GA+30043&hl=en"
HAMILTON COUNTY SHERIFF'S OFFICE,ELKS LODGE,1069 GRAYSVILLE RD,CHATTANOOGA,TN,37421,"http://maps.google.com/maps?q=1069 GRAYSVILLE RD,+CHATTANOOGA,+TN+37421&hl=en"
HANCOCK COUNTY SHERIFF'S OFFICE,LEWISPORT FIRE DEPARTMENT,4TH STREET,LEWISPORT,KY,42351,"http://maps.google.com/maps?q=4TH STREET,+LEWISPORT,+KY+42351&hl=en"
HARRIMAN POLICE DEPT.,WALGREENS,1797 ROANE STATE HWY,HARRIMAN,TN,37748,"http://maps.google.com/maps?q=1797 ROANE STATE HWY,+HARRIMAN,+TN+37748&hl=en"
HATTIESBURG POLICE DEPARTMENT,HATTIESBURG POLICE DEPARTMENT,300 KLONDYKE ST.,HATTIESBURG,MS,39401,"http://maps.google.com/maps?q=300 KLONDYKE ST.,+HATTIESBURG,+MS+39401&hl=en"
HENDERSONVILLE POLICE DEPT.,HENDERSONVILLE PD,#3 EXECUTIVE PARK DR.,HENDERSONVILLE,TN,37075,"http://maps.google.com/maps?q=#3 EXECUTIVE PARK DR.,+HENDERSONVILLE,+TN+37075&hl=en"
HOLMES COUNTY SHERIFF'S OFFICE,HOLMES COUNTY SHERIFF'S OFFICE,23240 HWY. 12 EAST,LEXINGTON,MS,39095,"http://maps.google.com/maps?q=23240 HWY. 12 EAST,+LEXINGTON,+MS+39095&hl=en"
HOOVER POLICE DEPARTMENT,HOOVER POLICE DEPARTMENT,100 MUNICIPAL DRIVE,BIRMINGHAM,AL,35216,"http://maps.google.com/maps?q=100 MUNICIPAL DRIVE,+BIRMINGHAM,+AL+35216&hl=en"
HUMBOLDT POLICE DEPARTMENT,HUMBOLDT PD,1421 OSBORNE ST.,HUMBOLDT,TN,38343,"http://maps.google.com/maps?q=1421 OSBORNE ST.,+HUMBOLDT,+TN+38343&hl=en"
HUMPHREYS SHERIFF'S OFFICE,"CASE DRUG 
												
													1: 30 P.M. - 3:30 P.M.",990 BROADWAY AVE.,NEW JOHNSONVILLE,TN,37134,"http://maps.google.com/maps?q=990 BROADWAY AVE.,+NEW JOHNSONVILLE,+TN+37134&hl=en"
HUMPHREYS SHERIFF'S OFFICE,"CVS 
												
													11:00 A.M. - 1:00 P.M.",408 W. MAIN ST.,WAVERLY,TN,37185,"http://maps.google.com/maps?q=408 W. MAIN ST.,+WAVERLY,+TN+37185&hl=en"
HUMPHREYS SHERIFF'S OFFICE,"MCEWEN PRESCRIPTION SHOP 
												
													8:30 A.M. - 10:30 A.M.",10033 HWY 70 E,MC EWEN,TN,37101,"http://maps.google.com/maps?q=10033 HWY 70 E,+MC EWEN,+TN+37101&hl=en"
HUNTINGDON POLICE DEPT.,HUNTINGDON PUBLIC SAFETY BLDG.,12740 LEXINGTON ST.,HUNTINGDON,TN,38344,"http://maps.google.com/maps?q=12740 LEXINGTON ST.,+HUNTINGDON,+TN+38344&hl=en"
JACKSON COUNTY SHERIFF'S OFFICE,SUNLAND CENTER,3700 WILLIAMS DR,MARIANNA,FL,32446,"http://maps.google.com/maps?q=3700 WILLIAMS DR,+MARIANNA,+FL+32446&hl=en"
JACKSON COUNTY SHERIFFS OFFICE,JACKSON COUNTY COURT HOUSE,102 EAST LAUREL STREET,SCOTTSBORO,AL,35768,"http://maps.google.com/maps?q=102 EAST LAUREL STREET,+SCOTTSBORO,+AL+35768&hl=en"
JACKSON POLICE DEPARTMENT,CVS PHARMACY,813 COLLEGE AVENUE,JACKSON,AL,36545,"http://maps.google.com/maps?q=813 COLLEGE AVENUE,+JACKSON,+AL+36545&hl=en"
JACKSON POLICE DEPARTMENT,JACKSON POLICE / FIRE COMPLEX,525 S. HOPE ST.,JACKSON,MO,63755,"http://maps.google.com/maps?q=525 S. HOPE ST.,+JACKSON,+MO+63755&hl=en"
JACKSON POLICE DEPARTMENT,MAC'S DRUGS,201 COMMERCE STREET,JACKSON,AL,36545,"http://maps.google.com/maps?q=201 COMMERCE STREET,+JACKSON,+AL+36545&hl=en"
JACKSON POLICE DEPARTMENT,WALMART,4206 N. COLLEGE AVENUE,JACKSON,AL,36545,"http://maps.google.com/maps?q=4206 N. COLLEGE AVENUE,+JACKSON,+AL+36545&hl=en"
JACKSON-MADISON COUNTY METRO NARCOTICS,CVS PHARMACY,1405 N. HIGHLAND,JACKSON,TN,38301,"http://maps.google.com/maps?q=1405 N. HIGHLAND,+JACKSON,+TN+38301&hl=en"
JACKSON-MADISON COUNTY METRO NARCOTICS,KROGER PHARMACY,41 STONEBROOK PLACE,JACKSON,TN,38301,"http://maps.google.com/maps?q=41 STONEBROOK PLACE,+JACKSON,+TN+38301&hl=en"
JACKSON-MADISON COUNTY METRO NARCOTICS,"WAL-GREENS 
												
													BEMIS",1405 S HIGHLAND AVE,JACKSON,TN,38301,"http://maps.google.com/maps?q=1405 S HIGHLAND AVE,+JACKSON,+TN+38301&hl=en"
JASPER POLICE DEPARTMENT,JASPER POLICE DEPARTMENT,1610 ALABAMA AVENUE,JASPER,AL,35501,"http://maps.google.com/maps?q=1610 ALABAMA AVENUE,+JASPER,+AL+35501&hl=en"
JEFFERSON COUNTY SHERIFF DEPARTMENT,JEFFERSON COUNTY SHERIFF DEPARTMENT,2651 CENTER POINT ROAD,BIRMINGHAM,AL,35215,"http://maps.google.com/maps?q=2651 CENTER POINT ROAD,+BIRMINGHAM,+AL+35215&hl=en"
JEFFERSON COUNTY SHERIFF DEPARTMENT,JEFFERSON COUNTY SHERIFFF MCCALLA,5977 EASTERN VALLEY ROAD,MC CALLA,AL,35111,"http://maps.google.com/maps?q=5977 EASTERN VALLEY ROAD,+MC CALLA,+AL+35111&hl=en"
JOHNS CREEK POLICE DEPARTMENT,EMORY JOHNS CREEK HOSPITAL,6325 HOSPITAL PARKWAY,JOHNS CREEK,GA,30097,"http://maps.google.com/maps?q=6325 HOSPITAL PARKWAY,+JOHNS CREEK,+GA+30097&hl=en"
JONESBORO POLICE DEPARTMENT,JONESBORO POLCE DEPARTMETN,170 S. MAIN STREET,JONESBORO,GA,30236,"http://maps.google.com/maps?q=170 S. MAIN STREET,+JONESBORO,+GA+30236&hl=en"
KENNESAW POLICE DEPARTMENT,CVS PHARMACY,2782 COBB PKWY.,KENNESAW,GA,30144,"http://maps.google.com/maps?q=2782 COBB PKWY.,+KENNESAW,+GA+30144&hl=en"
KENTUCKY STATE POLICE POST 15,KENTUCKY STATE POLICE POST 15,1118 JAMESTOWN STREET,COLUMBIA,KY,42728,"http://maps.google.com/maps?q=1118 JAMESTOWN STREET,+COLUMBIA,+KY+42728&hl=en"
KENTUCKY STATE POLICE POST 16,KSP POST 16,8298 KEACH DRIVE,HENDERSON,KY,42420,"http://maps.google.com/maps?q=8298 KEACH DRIVE,+HENDERSON,+KY+42420&hl=en"
KENTUCKY STATE POLICE POST 2,KENTUCKY STATE POLICE POST 2,1000 WESTERN KENTUCKY PARKWAY,NORTONVILLE,KY,42442,"http://maps.google.com/maps?q=1000 WESTERN KENTUCKY PARKWAY,+NORTONVILLE,+KY+42442&hl=en"
KENTUCKY STATE POLICE POST 3,"KENTUCKY STATE POLICE 
												
													POST 3",3119NASHVILLE RD.,BOWLING GREEN,KY,42101,"http://maps.google.com/maps?q=3119,+BOWLING GREEN,+KY+42101&hl=en"
KINGSTON POLICE DEPT.,FOOD CITY,1000 LADD LANDING BLVD.,KINGSTON,TN,37763,"http://maps.google.com/maps?q=1000 LADD LANDING BLVD.,+KINGSTON,+TN+37763&hl=en"
LAUREL POLICE DEPARTMENT,"LAUREL POLICE DEPARTMENT 
												
													CAPTAIN TOMMY COX",317 S. MAGNOLIA ST.,LAUREL,MS,39440,"http://maps.google.com/maps?q=317 S. MAGNOLIA ST.,+LAUREL,+MS+39440&hl=en"
LAVERGNE POLICE DEPARTMENT,KROGER,5145 MURFREESBORO RD,LA VERGNE,TN,37086,"http://maps.google.com/maps?q=5145 MURFREESBORO RD,+LA VERGNE,+TN+37086&hl=en"
LAWRENCE CO. SHERIFF'S DEPT.,WLX COUNTRY CAFE,1212 N. LOCUST AVE,LAWRENCEBURG,TN,38464,"http://maps.google.com/maps?q=1212 N. LOCUST AVE,+LAWRENCEBURG,+TN+38464&hl=en"
LEBANON POLICE DEPARTMENT,WALGREENS,606 S. CUMBERLAND ST.,LEBANON,TN,37087,"http://maps.google.com/maps?q=606 S. CUMBERLAND ST.,+LEBANON,+TN+37087&hl=en"
LEE COUNTY SHERIFF'S DEPARTMENT,"LEE COUNTY SHERIFF'S DEPARTMENT 
												
													FRIDAY, APRIL 27, 2018 - NTBI XV",510 NORTH COMMERCE ST.,TUPELO,MS,38804,"http://maps.google.com/maps?q=510 NORTH COMMERCE ST.,+TUPELO,+MS+38804&hl=en"
LEE COUNTY SHERIFF'S OFFICE,LEE COUNTY SHERIFF'S OFFICE,1900 FREDERICK ROAD,OPELIKA,AL,36801,"http://maps.google.com/maps?q=1900 FREDERICK ROAD,+OPELIKA,+AL+36801&hl=en"
LEE COUNTY SHERIFF'S OFFICE,SMITHS STATION GOVERNMENT CENTER,2336 LEE RD 430,SMITHS STATION,AL,36877,"http://maps.google.com/maps?q=2336 LEE RD 430,+SMITHS STATION,+AL+36877&hl=en"
LEITCHFIELD POLICE DEPARTMENT,LEITCHFIELD POLICE DEPT,117 SOUTH MAIN STREET,LEITCHFIELD,KY,42754,"http://maps.google.com/maps?q=117 SOUTH MAIN STREET,+LEITCHFIELD,+KY+42754&hl=en"
LEXINGTON POLICE DEPARTMENT,FAMILY PHARMACY,6 HOSPITAL DRIVE,LEXINGTON,TN,38351,"http://maps.google.com/maps?q=6 HOSPITAL DRIVE,+LEXINGTON,+TN+38351&hl=en"
LEXINGTON POLICE DEPARTMENT,WALGREENS PHARMACY,603 WEST CHURCH STREET,LEXINGTON,TN,38351,"http://maps.google.com/maps?q=603 WEST CHURCH STREET,+LEXINGTON,+TN+38351&hl=en"
LINCOLN CO. SHERIFF'S DEPT,LINCOLN COUNTY HIGH SCHOOL,1233 HUNTSVILLE HWY,FAYETTEVILLE,TN,37334,"http://maps.google.com/maps?q=1233 HUNTSVILLE HWY,+FAYETTEVILLE,+TN+37334&hl=en"
LINDEN POLICE DEPARTMENT,LINDEN VOLUNTEER FIRE DEPARTMENT,212 E. COATS AVENUE,LINDEN,AL,36748,"http://maps.google.com/maps?q=212 E. COATS AVENUE,+LINDEN,+AL+36748&hl=en"
LINDEN POLICE DEPARTMENT,YORK CITY HALL,607 2ND AVENUE,YORK,AL,36925,"http://maps.google.com/maps?q=607 2ND AVENUE,+YORK,+AL+36925&hl=en"
LINEVILLE POLICE DEPARTMENT,LINEVILLE POLICE DEPARTMENT,40 2ND AVENUE,LINEVILLE,AL,36266,"http://maps.google.com/maps?q=40 2ND AVENUE,+LINEVILLE,+AL+36266&hl=en"
LIVINGSTON POLICE DEPARTMENT,LIVINGSTON POLICE DEPARTMENT,900 N. CHURCH ST,LIVINGSTON,TN,38570,"http://maps.google.com/maps?q=900 N. CHURCH ST,+LIVINGSTON,+TN+38570&hl=en"
LONG BEACH POLICE DEPARTMENT,LONG BEACH POLICE DEPARTMENT,201 ALEXANDER RD,LONG BEACH,MS,39560,"http://maps.google.com/maps?q=201 ALEXANDER RD,+LONG BEACH,+MS+39560&hl=en"
LORETTO POLICE DEPT.,LORETTO CITY HALL,415 NORTH MILITARY STRREET,LORETTO,TN,38469,"http://maps.google.com/maps?q=415 NORTH MILITARY STRREET,+LORETTO,+TN+38469&hl=en"
LOUISVILLE POLICE DEPARTMENT,"LOUISVILLE POLICE DEPARTMENT 
												
													FRONT LOBBY",2363 SOUTH CHURCH AVE.,LOUISVILLE,MS,39339,"http://maps.google.com/maps?q=2363 SOUTH CHURCH AVE.,+LOUISVILLE,+MS+39339&hl=en"
MACON COUNTY SHERIFF'S DEPT,MACON COUNTY SHERIFF'S DEPT,902 HWY 52 BY-PASS E,LAFAYETTE,TN,37083,"http://maps.google.com/maps?q=902 HWY 52 BY-PASS E,+LAFAYETTE,+TN+37083&hl=en"
MADISON POLICE DEPARTMENT,MADISON CULTURAL CENTER PARKING LOT,2115 MAIN STREET,MADISON,MS,39110,"http://maps.google.com/maps?q=2115 MAIN STREET,+MADISON,+MS+39110&hl=en"
MADISONVILLE POLICE DEPT.,MADISONVILLE POLICE DEPARTMENT,315 ENGLEWOOD RD.,MADISONVILLE,TN,37354,"http://maps.google.com/maps?q=315 ENGLEWOOD RD.,+MADISONVILLE,+TN+37354&hl=en"
MANCHESTER POLICE DEPARTMENT,"MANCHESTER POLICE DEPARTMENT 
												
													DRUG TAKE BACK DROP BOX",200 WEST FORT STREET,MANCHESTER,TN,37355,"http://maps.google.com/maps?q=200 WEST FORT STREET,+MANCHESTER,+TN+37355&hl=en"
MARION POLICE DEPARTMENT,"MARION POLICE DEPARTMENT 
												
													CHIEF RAY O'NEAL",217 SOUTH MAIN STREET,MARION,KY,42064,"http://maps.google.com/maps?q=217 SOUTH MAIN STREET,+MARION,+KY+42064&hl=en"
MARSHALL COUNTY SHERIFF'S OFFICE,MARSHALL COUNTY SHERIFF'S OFFICE,209 1ST AVE N.,LEWISBURG,TN,37091,"http://maps.google.com/maps?q=209 1ST AVE N.,+LEWISBURG,+TN+37091&hl=en"
MASSAC COUNTY SHERIFF'S DEPT,"MASSAC COUNTY SHERIFF'S DEPT 
												
													LOCATED IN THE LOBBY",515 MARKET ST,METROPOLIS,IL,62960,"http://maps.google.com/maps?q=515 MARKET ST,+METROPOLIS,+IL+62960&hl=en"
MCMINN COUNTY SHERIFF,CVS,928 DECATUR PIKE,ATHENS,TN,37303,"http://maps.google.com/maps?q=928 DECATUR PIKE,+ATHENS,+TN+37303&hl=en"
MCMINNVILLE POLICE DEPT.,MCMINNVILLE POLICE DEPARTMENT,204 RED ROAD,MCMINNVILLE,TN,37110,"http://maps.google.com/maps?q=204 RED ROAD,+MCMINNVILLE,+TN+37110&hl=en"
MCNAIRY COUNTY SHERIFF'S OFFICE,MCNAIRY COUNTY SHERIFF'S OFFICE,300 INDUSTRIAL PARK DR,SELMER,TN,38375,"http://maps.google.com/maps?q=300 INDUSTRIAL PARK DR,+SELMER,+TN+38375&hl=en"
MEIGS COUNTY SHERIFF'S OFFICE,MEIGS COUNTY JAIL,410 RIVER ROAD,DECATUR,TN,37322,"http://maps.google.com/maps?q=410 RIVER ROAD,+DECATUR,+TN+37322&hl=en"
"MERCER COUNTY, KY SHERIFFS OFFICE",MERCER COUNTY SHERIFFS OFFICE,207 WEST LEXINGTON ST,HARRODSBURG,KY,40330,"http://maps.google.com/maps?q=207 WEST LEXINGTON ST,+HARRODSBURG,+KY+40330&hl=en"
MERCER UNIVERSITY POLICE DEPARTMENT,"MERCER UNIVERSITY 
												
													PHARMACY ADMINISTRATION & CAFETERIA BLDG.",3001 MERCER UNIVERSITY DRIVE,ATLANTA,GA,30341,"http://maps.google.com/maps?q=3001 MERCER UNIVERSITY DRIVE,+ATLANTA,+GA+30341&hl=en"
MERIDIAN POLICE DEPARTMENT,"MERIDIAN POLICE BONITA LAKES MALL POLICE PRECINCT 
												
													NEAR THE FOOD COURT",1680 BONITA LAKES CIRCLE,MERIDIAN,MS,39301,"http://maps.google.com/maps?q=1680 BONITA LAKES CIRCLE,+MERIDIAN,+MS+39301&hl=en"
METRO NASHVILLE POLICE DEPARTMENT,KROGER,5544 OLD HICKORY BLVD.,HERMITAGE,TN,37076,"http://maps.google.com/maps?q=5544 OLD HICKORY BLVD.,+HERMITAGE,+TN+37076&hl=en"
METRO NASHVILLE POLICE DEPARTMENT,KROGER,6690 NOLENSVILLE RD.,BRENTWOOD,TN,37027,"http://maps.google.com/maps?q=6690 NOLENSVILLE RD.,+BRENTWOOD,+TN+37027&hl=en"
MIDDLE TN STATE UNIVERSITY POLICE DEPARTMENT,MTSU HEALTH SERVICES,1848 BLUE RAIDER DRIVE,MURFREESBORO,TN,37132,"http://maps.google.com/maps?q=1848 BLUE RAIDER DRIVE,+MURFREESBORO,+TN+37132&hl=en"
MILAN POLICE DEPARTMENT,MILAN HEALTH DEPT.,6501 TELECOM DRIVE,MILAN,TN,38358,"http://maps.google.com/maps?q=6501 TELECOM DRIVE,+MILAN,+TN+38358&hl=en"
MILAN POLICE DEPARTMENT,"MILAN PUBLIC SAFETY BUILDING 
												
													DROP BOX IN LOBBY",7029 TELECOM DRIVE,MILAN,TN,38358,"http://maps.google.com/maps?q=7029 TELECOM DRIVE,+MILAN,+TN+38358&hl=en"
MILTON POLICE DEPARTMENT,TARGET,13055 HIGHWAY 9,ALPHARETTA,GA,30004,"http://maps.google.com/maps?q=13055 HIGHWAY 9,+ALPHARETTA,+GA+30004&hl=en"
MISSISSIPPI STATE UNIVERSITY POLICE DEPARTMENT,MISSISSIPPI STATE UNIVERSITY POLICE DEPARTMENT,25 WALKER ROAD,MISSISSIPPI STATE,MS,39762,"http://maps.google.com/maps?q=25 WALKER ROAD,+MISSISSIPPI STATE,+MS+39762&hl=en"
MOBILE COUNTY SHERIFF'S OFFICE,COSTCO,1450 TINGLE CIRCLE EAST,MOBILE,AL,36606,"http://maps.google.com/maps?q=1450 TINGLE CIRCLE EAST,+MOBILE,+AL+36606&hl=en"
MOBILE COUNTY SHERIFF'S OFFICE,CVS PHARMACY  #4888,44523 OLD SHELL ROAD,MOBILE,AL,36608,"http://maps.google.com/maps?q=44523 OLD SHELL ROAD,+MOBILE,+AL+36608&hl=en"
MOBILE COUNTY SHERIFF'S OFFICE,CVS PHARMACY #1814,3932 COTTAGE HILL ROAD,MOBILE,AL,36695,"http://maps.google.com/maps?q=3932 COTTAGE HILL ROAD,+MOBILE,+AL+36695&hl=en"
MOBILE COUNTY SHERIFF'S OFFICE,CVS PHARMACY #4818,4881 SCHILLINGER ROAD,MOBILE,AL,36619,"http://maps.google.com/maps?q=4881 SCHILLINGER ROAD,+MOBILE,+AL+36619&hl=en"
MOBILE COUNTY SHERIFF'S OFFICE,CVS PHARMACY #4900,2550 DAUPHIN STREET,MOBILE,AL,36606,"http://maps.google.com/maps?q=2550 DAUPHIN STREET,+MOBILE,+AL+36606&hl=en"
MOBILE COUNTY SHERIFF'S OFFICE,CVS PHARMACY #7671,1401 HILLCREST ROAD,MOBILE,AL,36695,"http://maps.google.com/maps?q=1401 HILLCREST ROAD,+MOBILE,+AL+36695&hl=en"
MOBILE COUNTY SHERIFF'S OFFICE,MOBILE COUNTY SHERIFF SOUTH SIDE OFFICE,510 SOUTH ROYAL,MOBILE,AL,36695,"http://maps.google.com/maps?q=510 SOUTH ROYAL,+MOBILE,+AL+36695&hl=en"
MOBILE COUNTY SHERIFF'S OFFICE,WALGREENS PHARMACY #01777,3948 AIRPORT BOULEVARD,MOBILE,AL,36608,"http://maps.google.com/maps?q=3948 AIRPORT BOULEVARD,+MOBILE,+AL+36608&hl=en"
MOBILE COUNTY SHERIFF'S OFFICE,WALGREENS PHARMACY #10851,6396 AIRPORT BLVD,MOBILE,AL,36608,"http://maps.google.com/maps?q=6396 AIRPORT BLVD,+MOBILE,+AL+36608&hl=en"
MOBILE COUNTY SHERIFF'S OFFICE,WALGREENS PHARMACY #15151,5705 COTTAGE HILL ROAD,MOBILE,AL,36609,"http://maps.google.com/maps?q=5705 COTTAGE HILL ROAD,+MOBILE,+AL+36609&hl=en"
MOBILE POLICE DEPARTMENT,MOBILE POLICE DEPARTMENT,2460 GOVERNMENT STREET,MOBILE,AL,36606,"http://maps.google.com/maps?q=2460 GOVERNMENT STREET,+MOBILE,+AL+36606&hl=en"
MONROE COUNTY SHERIFF OFFICE,MONROE COUNTY SHERIFF'S OFFICE,145 L. CAREY BITTICK DR,FORSYTH,GA,31029,"http://maps.google.com/maps?q=145 L. CAREY BITTICK DR,+FORSYTH,+GA+31029&hl=en"
MONROE COUNTY SHERIFF'S OFFICE,WALGREENS,4440 US 411,MADISONVILLE,TN,37354,"http://maps.google.com/maps?q=4440 US 411,+MADISONVILLE,+TN+37354&hl=en"
MONROE COUNTY SHERIFF'S OFFICE,WALGREENS,929 NEW HWY 68,SWEETWATER,TN,37874,"http://maps.google.com/maps?q=929 NEW HWY 68,+SWEETWATER,+TN+37874&hl=en"
MONROE POLICE DEPARTMENT,MONROE POLICE DEPARTMENT,WAYNE STREET,MONROE,GA,30655,"http://maps.google.com/maps?q=WAYNE STREET,+MONROE,+GA+30655&hl=en"
MONROEVILLE POLICE DEPARTMENT,MONROE DRUGS,360 SOUTH ALABAMA AVE,MONROEVILLE,AL,36460,"http://maps.google.com/maps?q=360 SOUTH ALABAMA AVE,+MONROEVILLE,+AL+36460&hl=en"
MONROEVILLE POLICE DEPARTMENT,MONROEVILLE POLICE DEPARTMENT,49 SOUTH MOUNT PLEASANT AVENUE,MONROEVILLE,AL,36460,"http://maps.google.com/maps?q=49 SOUTH MOUNT PLEASANT AVENUE,+MONROEVILLE,+AL+36460&hl=en"
MONROEVILLE POLICE DEPARTMENT,WALMART SHOPPING CENTER,3371 SOUTH ALABAMA AVENUE,MONROEVILLE,AL,36460,"http://maps.google.com/maps?q=3371 SOUTH ALABAMA AVENUE,+MONROEVILLE,+AL+36460&hl=en"
MONTEREY POLICE DEPARTMENT,FRED'S PHARMACY,104 S. HOLLY STREET,MONTEREY,TN,38574,"http://maps.google.com/maps?q=104 S. HOLLY STREET,+MONTEREY,+TN+38574&hl=en"
MONTEREY POLICE DEPARTMENT,MONTEREY DRUGS,201F NORTH ELMORE ST.,MONTEREY,TN,38574,"http://maps.google.com/maps?q=201F NORTH ELMORE ST.,+MONTEREY,+TN+38574&hl=en"
MONTEREY POLICE DEPARTMENT,MONTEREY POLICE DEPARTMENT,711 E. COMMERCIAL AVE.,MONTEREY,TN,38574,"http://maps.google.com/maps?q=711 E. COMMERCIAL AVE.,+MONTEREY,+TN+38574&hl=en"
MONTGOMERY POLICE DEPARTMENT,FRAZER UNITED METHODIST CHURCH,6000 ATLANTA HIGHWAY,MONTGOMERY,AL,36117,"http://maps.google.com/maps?q=6000 ATLANTA HIGHWAY,+MONTGOMERY,+AL+36117&hl=en"
MONTGOMERY POLICE DEPARTMENT,MONTGOMERY POLICE DEPARTMENT,2190 EAST S. BLVD,MONTGOMERY,AL,36109,"http://maps.google.com/maps?q=2190 EAST S. BLVD,+MONTGOMERY,+AL+36109&hl=en"
MORGAN COUNTY SHERIFF'S OFFICE,MORGAN COUNTY SHERIFF'S OFFICE,414 MAIN ST.,WARTBURG,TN,37887,"http://maps.google.com/maps?q=414 MAIN ST.,+WARTBURG,+TN+37887&hl=en"
MT. JULIET POLICE DEPT.,MT. JULIET POLICE DEPT.,1019 CHARLIE DANIELS PKWY,MOUNT JULIET,TN,37122,"http://maps.google.com/maps?q=1019 CHARLIE DANIELS PKWY,+MOUNT JULIET,+TN+37122&hl=en"
MUSCOGEE COUNTY SHERIFFS OFFICE,HOLLYWOOD CONNECTION FAMILY FUN CENTE,1683 WHITTLESEY ROAD,COLUMBUS,GA,31904,"http://maps.google.com/maps?q=1683 WHITTLESEY ROAD,+COLUMBUS,+GA+31904&hl=en"
NEW JOHNSONVILLE POLICE DEPARTMENT,NEW JOHNSONVILLE CITY HALL,323 LONG ST.,NEW JOHNSONVILLE,TN,37134,"http://maps.google.com/maps?q=323 LONG ST.,+NEW JOHNSONVILLE,+TN+37134&hl=en"
NEWBERN POLICE DEPT.,NEWBERN POLICE DEPT.,121 EAST MAIN ST.,NEWBERN,TN,38059,"http://maps.google.com/maps?q=121 EAST MAIN ST.,+NEWBERN,+TN+38059&hl=en"
NORCROSS POLICE DEPARTMENT,NORCROSS POLICE DEPARTMENT,65 LAWRENCEVILLE STREET,NORCROSS,GA,30071,"http://maps.google.com/maps?q=65 LAWRENCEVILLE STREET,+NORCROSS,+GA+30071&hl=en"
OAK RIDGE POLICE DEPT.,OAK RIDGE POLICE DEPT.,200 S. TULANE AVE,OAK RIDGE,TN,37830,"http://maps.google.com/maps?q=200 S. TULANE AVE,+OAK RIDGE,+TN+37830&hl=en"
OAKLAND POLICE DEPT.,CITY HALL,170 DOSS CIRCLE,OAKLAND,TN,38060,"http://maps.google.com/maps?q=170 DOSS CIRCLE,+OAKLAND,+TN+38060&hl=en"
OVERTON COUNTY SHERIFF'S DEPT.,R & M PHARMACY,1970 BRADFORD HICKS DR,LIVINGSTON,TN,38570,"http://maps.google.com/maps?q=1970 BRADFORD HICKS DR,+LIVINGSTON,+TN+38570&hl=en"
OWENSBORO POLICE DEPARTMENT,"OWENSBORO POLICE DEPARTMENT 
												
													FRONT LOBBY",222 E 9TH ST,OWENSBORO,KY,42303,"http://maps.google.com/maps?q=222 E 9TH ST,+OWENSBORO,+KY+42303&hl=en"
OXFORD POLICE DEPARTMENT,"OXFORD SQUARE AREA - DOUBLE DECKER ARTS FESTIVAL 
												
													CORNER-JACKSON AVE. & 9TH ST. BY ST. PETERS EPISCOPAL CHURCH",JACKSON AVE. & 9TH STREETNEAR ST. PETERS EPISCOPAL CHURCH,OXFORD,MS,38655,"http://maps.google.com/maps?q=JACKSON AVE. & 9TH STREET,+OXFORD,+MS+38655&hl=en"
PASS CHRISTIAN POLICE DEPARTMENT,PASS CHRISTIAN LIBRARY,111 HIERN AVENUE,PASS CHRISTIAN,MS,39571,"http://maps.google.com/maps?q=111 HIERN AVENUE,+PASS CHRISTIAN,+MS+39571&hl=en"
PEACHTREE CITY POLICE DEPARTMENT,PEACHTREE CITY POLICE DEPARTMENT,350 HIGHWAY 74 SOUTH,PEACHTREE CITY,GA,30269,"http://maps.google.com/maps?q=350 HIGHWAY 74 SOUTH,+PEACHTREE CITY,+GA+30269&hl=en"
PEARL POLICE DEPARTMENT,PEARL POLICE DEPARTMENT,2422 OLD BRANDON RD.,PEARL,MS,39208,"http://maps.google.com/maps?q=2422 OLD BRANDON RD.,+PEARL,+MS+39208&hl=en"
PERRY COUNTY RECYCLING MANGEMENT DISTIRCT,TELL CITY FIRE STATION,707 MOZART STREET,TELL CITY,IN,47586,"http://maps.google.com/maps?q=707 MOZART STREET,+TELL CITY,+IN+47586&hl=en"
PETAL POLICE DEPARTMENT,PETAL POLICE DEPARTMENT,127 WEST 8TH AVE.,PETAL,MS,39465,"http://maps.google.com/maps?q=127 WEST 8TH AVE.,+PETAL,+MS+39465&hl=en"
PHENIX CITY POLICE DEPARTMENT,CVS PHARMACY,2514 CRAWFORD ROAD,PHENIX CITY,AL,36867,"http://maps.google.com/maps?q=2514 CRAWFORD ROAD,+PHENIX CITY,+AL+36867&hl=en"
PHENIX CITY POLICE DEPARTMENT,NORTH PRECINCT,4301 PARK DRIVE,PHENIX CITY,AL,36867,"http://maps.google.com/maps?q=4301 PARK DRIVE,+PHENIX CITY,+AL+36867&hl=en"
PHENIX CITY POLICE DEPARTMENT,PHENIX CITY POLICE DEPARTMENT,1111 BROAD STREET,PHENIX CITY,AL,36867,"http://maps.google.com/maps?q=1111 BROAD STREET,+PHENIX CITY,+AL+36867&hl=en"
PHENIX CITY POLICE DEPARTMENT,SOUTH PRECINCT,1507 5TH STREET SOUTH,PHENIX CITY,AL,36869,"http://maps.google.com/maps?q=1507 5TH STREET SOUTH,+PHENIX CITY,+AL+36869&hl=en"
PORTLAND POLICE DEPARTMENT,PORTLAND POLICE DEPT.,433 N. BROADWAY,PORTLAND,TN,37148,"http://maps.google.com/maps?q=433 N. BROADWAY,+PORTLAND,+TN+37148&hl=en"
PUTNAM COUNTY SHERIFF DEPT.,NUNALLY DRUG STORE,226 WEST MAIN STREET,BAXTER,TN,38544,"http://maps.google.com/maps?q=226 WEST MAIN STREET,+BAXTER,+TN+38544&hl=en"
PUTNAM COUNTY SHERIFF DEPT.,WALGREENS 5474,500 SOUTH WILLOW AVENUE,COOKEVILLE,TN,38501,"http://maps.google.com/maps?q=500 SOUTH WILLOW AVENUE,+COOKEVILLE,+TN+38501&hl=en"
RANDOLPH COUNTY SHERIFF OFFICE,RANDOLPH COUNTY SHERIFF OFFICE,1 MAIN STREET,WEDOWEE,AL,36278,"http://maps.google.com/maps?q=1 MAIN STREET,+WEDOWEE,+AL+36278&hl=en"
RANKIN COUNTY SHERIFF'S OFFICE,RANKIN COUNTY SHERIFF'S OFFICE,221 N. TIMBER ST.,BRANDON,MS,39042,"http://maps.google.com/maps?q=221 N. TIMBER ST.,+BRANDON,+MS+39042&hl=en"
RHEA COUNTY SHERIFF'S DEPT.,"SPRING CITY,  CITY HALL 
												
													TENT LOCATED IN THE FRONT PARKING LOT",229 FRONT STREET,SPRING CITY,TN,37381,"http://maps.google.com/maps?q=229 FRONT STREET,+SPRING CITY,+TN+37381&hl=en"
RHEA COUNTY SHERIFF'S DEPT.,"WALMART SUPERCENTER 
												
													TENT LOCATED AT THE PARKING LOT ENTRANCE",3034 RHEA COUNTY HWY,DAYTON,TN,37321,"http://maps.google.com/maps?q=3034 RHEA COUNTY HWY,+DAYTON,+TN+37321&hl=en"
RIVERDALE POLICE DEPARTMENT,RIVERDALE TOWN CENTER,7210 CHURCH ST,RIVERDALE,GA,30274,"http://maps.google.com/maps?q=7210 CHURCH ST,+RIVERDALE,+GA+30274&hl=en"
ROANOKE POLICE DEPARTMENT,ROANOKE POLICE DEPARTMENT,30 WEST POINT STREET,ROANOKE,AL,36274,"http://maps.google.com/maps?q=30 WEST POINT STREET,+ROANOKE,+AL+36274&hl=en"
ROBERTSON COUNTY SHERIFF'S OFFICE,CVS,903 MEMORIAL BLVD.,SPRINGFIELD,TN,37172,"http://maps.google.com/maps?q=903 MEMORIAL BLVD.,+SPRINGFIELD,+TN+37172&hl=en"
ROCKDALE COUNTY SHERIFFS OFFICE,ROCKDALE COUNTY SHERIFF'S OFFICE,911 CHAMBERS DR,CONYERS,GA,30012,"http://maps.google.com/maps?q=911 CHAMBERS DR,+CONYERS,+GA+30012&hl=en"
ROCKWOOD POLICE DEPT,ROCKWOOD POLICE DEPT,115 N FRONT ST,ROCKWOOD,TN,37854,"http://maps.google.com/maps?q=115 N FRONT ST,+ROCKWOOD,+TN+37854&hl=en"
ROSWELL POLICE DEPARTMENT,ROSWELL RECYCLING CENTER,11570 MAXWELL RD,ALPHARETTA,GA,30009,"http://maps.google.com/maps?q=11570 MAXWELL RD,+ALPHARETTA,+GA+30009&hl=en"
RUSSELL COUNTY SHERIFF'S OFFICE,RUSSELL COUNTY SHERIFF'S OFFICE,410 MONUMENT SQUARE #109,JAMESTOWN,KY,42629,"http://maps.google.com/maps?q=410 MONUMENT SQUARE #109,+JAMESTOWN,+KY+42629&hl=en"
RUTHERFORD COUNTY SHERIFF'S OFFICE,CRUSH THE CRISIS,200 STONECREST BLVD.,SMYRNA,TN,37167,"http://maps.google.com/maps?q=200 STONECREST BLVD.,+SMYRNA,+TN+37167&hl=en"
RUTHERFORD COUNTY SHERIFF'S OFFICE,RUTHERFORD COUNTY SHERIFF'S OFFICE,940 NEW SALEM HIGHWAY,MURFREESBORO,TN,37129,"http://maps.google.com/maps?q=940 NEW SALEM HIGHWAY,+MURFREESBORO,+TN+37129&hl=en"
SALINE COUNTY SHERIFF'S OFFICE,SALINE COUNTY COURTHOUSE,15 E POPLAR ST,HARRISBURG,IL,62946,"http://maps.google.com/maps?q=15 E POPLAR ST,+HARRISBURG,+IL+62946&hl=en"
SAVANNAH POLICE DEPT.,SAVANNAH POLICE DEPT.,80 KING ST.,SAVANNAH,TN,38372,"http://maps.google.com/maps?q=80 KING ST.,+SAVANNAH,+TN+38372&hl=en"
SCOTT CITY POLICE DEPARTMENT,SCOTT CITY POLICE DEPARTMENT,618 MAIN ST,SCOTT CITY,MO,63780,"http://maps.google.com/maps?q=618 MAIN ST,+SCOTT CITY,+MO+63780&hl=en"
SCOTT COUNTY SHERIFF'S OFFICE,SCOTT COUNTY SHERIFF'S OFFICE,575 SCOTT HIGH DRIVE,HUNTSVILLE,TN,37756,"http://maps.google.com/maps?q=575 SCOTT HIGH DRIVE,+HUNTSVILLE,+TN+37756&hl=en"
SHAWNEETOWN POLICE DEPARTMENT,CITY HALL,330 N. LINCOLN BLVD,SHAWNEETOWN,IL,62984,"http://maps.google.com/maps?q=330 N. LINCOLN BLVD,+SHAWNEETOWN,+IL+62984&hl=en"
SHELBY COUNTY TASK FORCE,FRED'S PHARMACY,21665 AL-25,COLUMBIANA,AL,35051,"http://maps.google.com/maps?q=21665 AL-25,+COLUMBIANA,+AL+35051&hl=en"
SHELBY COUNTY TASK FORCE,GREYSTONE YMCA,5414 HIGHWAY 280,BIRMINGHAM,AL,35242,"http://maps.google.com/maps?q=5414 HIGHWAY 280,+BIRMINGHAM,+AL+35242&hl=en"
SHELBY COUNTY TASK FORCE,PELHAM POLICE DEPARTMENT,32 PHILIP DAVIS STREET,PELHAM,AL,35124,"http://maps.google.com/maps?q=32 PHILIP DAVIS STREET,+PELHAM,+AL+35124&hl=en"
SHELBY COUNTY TASK FORCE,TARGET,250 SOUTH COLONIAL DRIVE,ALABASTER,AL,35007,"http://maps.google.com/maps?q=250 SOUTH COLONIAL DRIVE,+ALABASTER,+AL+35007&hl=en"
SHELBY COUNTY TASK FORCE,VINCENT FIRE DEPARTMENT,42030 AL-25,VINCENT,AL,35178,"http://maps.google.com/maps?q=42030 AL-25,+VINCENT,+AL+35178&hl=en"
SHELBY COUNTY TASK FORCE,WINN DIXIE,150 CHELSEA CORNERS WAY,CHELSEA,AL,35043,"http://maps.google.com/maps?q=150 CHELSEA CORNERS WAY,+CHELSEA,+AL+35043&hl=en"
SIGNAL MOUNTAIN POLICE DEPARTMENT,SIGNAL MOUNTAIN POLICE DEPARTMENT,1111 RIDGEWAY AVENUE,SIGNAL MOUNTAIN,TN,37377,"http://maps.google.com/maps?q=1111 RIDGEWAY AVENUE,+SIGNAL MOUNTAIN,+TN+37377&hl=en"
SIKESTON DEPARTMENT OF PUBLIC SAFETY,SIKESTON DEPARTMENT OF PUBLIC SAFETY,201 NORTH KINGSHIGHWAY,SIKESTON,MO,63801,"http://maps.google.com/maps?q=201 NORTH KINGSHIGHWAY,+SIKESTON,+MO+63801&hl=en"
SIMPSON COUNTY SHERIFF'S OFFICE,"SIMPSON COUNTY SHERIFF'S OFFICE 
												
													E-911 BUILDING",1752 SIMPSON HWY 149,MENDENHALL,MS,39114,"http://maps.google.com/maps?q=1752 SIMPSON HWY 149,+MENDENHALL,+MS+39114&hl=en"
SMYRNA POLICE DEPARTMENT,SMYRNA PD,400 ENON SPRINGS RD EAST,SMYRNA,TN,37167,"http://maps.google.com/maps?q=400 ENON SPRINGS RD EAST,+SMYRNA,+TN+37167&hl=en"
SNELLVILLE POLICE DEPARTMENT,SNELLVILLE POLICE DEPARTMENT,2315 WISTERIA DR.,SNELLVILLE,GA,30078,"http://maps.google.com/maps?q=2315 WISTERIA DR.,+SNELLVILLE,+GA+30078&hl=en"
SODDY DAISY POLICE DEPT.,SODDY DAISY POLICE DEPT,9835 DAYTON,SODDY DAISY,TN,37379,"http://maps.google.com/maps?q=9835 DAYTON,+SODDY DAISY,+TN+37379&hl=en"
SOUTH FULTON POLICE DEPARTMENT,SOUTH FULTON POLICE DEPARTMENT,700 MILTON COUNCE DR.,SOUTH FULTON,TN,38257,"http://maps.google.com/maps?q=700 MILTON COUNCE DR.,+SOUTH FULTON,+TN+38257&hl=en"
SPARTA POLICE DEPARTMENT,WALGREEN DRUG STORE,483 WEST BOCKMAN WAY,SPARTA,TN,38583,"http://maps.google.com/maps?q=483 WEST BOCKMAN WAY,+SPARTA,+TN+38583&hl=en"
SPRING HILL POLICE DEPARTMENT,B & B PHARMACY,5407 MAIN STREET,SPRING HILL,TN,37174,"http://maps.google.com/maps?q=5407 MAIN STREET,+SPRING HILL,+TN+37174&hl=en"
SPRING HILL POLICE DEPARTMENT,"SPRING HILL POLICE DEPARTMENT 
												
													24/7 ACCESS",199 TOWN CENTER PKWY - LOWER LEVEL,SPRING HILL,TN,37174,"http://maps.google.com/maps?q=199 TOWN CENTER PKWY - LOWER LEVEL,+SPRING HILL,+TN+37174&hl=en"
SUMNER COUNTY SHERIFF`S OFFICE,FREDS PHARMACY,5305 HWY 31E,WESTMORELAND,TN,37186,"http://maps.google.com/maps?q=5305 HWY 31E,+WESTMORELAND,+TN+37186&hl=en"
SUMNER COUNTY SHERIFF`S OFFICE,PERKINS DRUG STORE,532 HARTSVILLE PIKE,GALLATIN,TN,37066,"http://maps.google.com/maps?q=532 HARTSVILLE PIKE,+GALLATIN,+TN+37066&hl=en"
SUMNER COUNTY SHERIFF`S OFFICE,WALGREENS,104 HWY 52,PORTLAND,TN,37148,"http://maps.google.com/maps?q=104 HWY 52,+PORTLAND,+TN+37148&hl=en"
SUMNER COUNTY SHERIFF`S OFFICE,WALGREENS,198 E MAIN ST,HENDERSONVILLE,TN,37075,"http://maps.google.com/maps?q=198 E MAIN ST,+HENDERSONVILLE,+TN+37075&hl=en"
SUMNER COUNTY SHERIFF`S OFFICE,WALGREENS,365 NEW SHACKLE ISLAND,HENDERSONVILLE,TN,37075,"http://maps.google.com/maps?q=365 NEW SHACKLE ISLAND,+HENDERSONVILLE,+TN+37075&hl=en"
SUMNER COUNTY SHERIFF`S OFFICE,WALGREENS,455 LONG HOLLOW PIKE,GOODLETTSVILLE,TN,37072,"http://maps.google.com/maps?q=455 LONG HOLLOW PIKE,+GOODLETTSVILLE,+TN+37072&hl=en"
SUMNER COUNTY SHERIFF`S OFFICE,WALGREENS,585 HASHVILLE PIKE,GALLATIN,TN,37066,"http://maps.google.com/maps?q=585 HASHVILLE PIKE,+GALLATIN,+TN+37066&hl=en"
SUMNER COUNTY SHERIFF`S OFFICE,WALGREENS,914 GREENLEA BLVD,GALLATIN,TN,37066,"http://maps.google.com/maps?q=914 GREENLEA BLVD,+GALLATIN,+TN+37066&hl=en"
SWEETWATER POLICE DEPT.,SWEETWATER POLICE DEPT.,208 MONROE ST.,SWEETWATER,TN,37874,"http://maps.google.com/maps?q=208 MONROE ST.,+SWEETWATER,+TN+37874&hl=en"
SYLVESTER POLICE DEPARTMENT,PIGGLY WIGGLY,631 EAST FRANKLIN STREET,SYLVESTER,GA,31791,"http://maps.google.com/maps?q=631 EAST FRANKLIN STREET,+SYLVESTER,+GA+31791&hl=en"
TALLAPOOSA COUNTY NARCOTICS TF,WALGREENS PHARMACY,3140 US 280,ALEXANDER CITY,AL,35010,"http://maps.google.com/maps?q=3140 US 280,+ALEXANDER CITY,+AL+35010&hl=en"
TBI,TBI HQ,901 R.S. GASS BLVD,NASHVILLE,TN,37216,"http://maps.google.com/maps?q=901 R.S. GASS BLVD,+NASHVILLE,+TN+37216&hl=en"
THOMASVILLE POLICE DEPARTMENT,WALMART,34301 HIGHWAY 43,THOMASVILLE,AL,36784,"http://maps.google.com/maps?q=34301 HIGHWAY 43,+THOMASVILLE,+AL+36784&hl=en"
TIPTON COUNTY SHERIFF'S OFFICE,"TIPTON COUNTY SHERIFF'S OFFICE 
												
													CRIMINAL JUSTICE COMPLEX",1801 S. COLLEGE STSUITE 106,COVINGTON,TN,38019,"http://maps.google.com/maps?q=1801 S. COLLEGE ST,+COVINGTON,+TN+38019&hl=en"
TRIGG COUNTY SHERIFF'S OFFICE,TRIGG COUNTY SHERIFF'S OFFICE,134 COMMERCE STREET,CADIZ,KY,42211,"http://maps.google.com/maps?q=134 COMMERCE STREET,+CADIZ,+KY+42211&hl=en"
TROUSDALE COUNTY SHERIFF'S OFFICE,SHERIFF'S STATION,210 BROADWAY,HARTSVILLE,TN,37074,"http://maps.google.com/maps?q=210 BROADWAY,+HARTSVILLE,+TN+37074&hl=en"
TRUSSVILLE POLICE DEPARTMENT,TRUSSVILLE POLICE DEPARTMENT COURT,131 MAIN STREET,TRUSSVILLE,AL,35173,"http://maps.google.com/maps?q=131 MAIN STREET,+TRUSSVILLE,+AL+35173&hl=en"
TULLAHOMA POLICE DEPT,WALGREENS,700 NORTH JACKSON STREET,TULLAHOMA,TN,37388,"http://maps.google.com/maps?q=700 NORTH JACKSON STREET,+TULLAHOMA,+TN+37388&hl=en"
TUPELO POLICE DEPARTMENT,TUPELO POLICE DEPARTMENT,400 NORTH FRONT STREET,TUPELO,MS,38804,"http://maps.google.com/maps?q=400 NORTH FRONT STREET,+TUPELO,+MS+38804&hl=en"
TUSCUMBIA POLICE DEPARTMENT,EXPRESS CARE OF THE SHOALS,1106 NORTH CAVE STREET,TUSCUMBIA,AL,35674,"http://maps.google.com/maps?q=1106 NORTH CAVE STREET,+TUSCUMBIA,+AL+35674&hl=en"
UNION CITY POLICE DEPARTMENT,BAPTIST MEMORIAL HOSPITAL,1201 BISHOP STREET,UNION CITY,TN,38261,"http://maps.google.com/maps?q=1201 BISHOP STREET,+UNION CITY,+TN+38261&hl=en"
US FEDERAL PROTECTIVE SERVICES,"US ENVIRONMENTAL PROTECTIN AGENCY (EPA) 
												
													COLLECTION IS APRIL 25-27, WEDNESDAY THRU FRIDAY","61 FORSYTH STREET SWATLANTA FEDERAL CENTER, SAM NUNN TOWER",ATLANTA,GA,30303,"http://maps.google.com/maps?q=61 FORSYTH STREET SW,+ATLANTA,+GA+30303&hl=en"
VA MEDICAL CENTER POLICE DEPARTMENT,"BIRMINGHAM VA MEDICAL CENTER 
												
													EMERGENCY ROOM",700 SOUTH 19TH STREET,BIRMINGHAM,AL,35233,"http://maps.google.com/maps?q=700 SOUTH 19TH STREET,+BIRMINGHAM,+AL+35233&hl=en"
VAN BUREN COUNTY SHERIFF DEPARTMENT,VAN BUREN COUNTY JAIL,17 VETERANS SQ.,SPENCER,TN,38585,"http://maps.google.com/maps?q=17 VETERANS SQ.,+SPENCER,+TN+38585&hl=en"
VESTAVIA HILLS POLICE DEPARTMENT,VESTAVIA HILLS POLICE DEPARTMENT,1032 MONTGOMERY HIGHWAY,VESTAVIA HILLS,AL,35216,"http://maps.google.com/maps?q=1032 MONTGOMERY HIGHWAY,+VESTAVIA HILLS,+AL+35216&hl=en"
VESTAVIA HILLS POLICE DEPARTMENT,"VHPD EAST PRECINCT-CAHABA HEIGHTS 
												
													P. D. SUB STATION",3241 CAHABA HEIGHTS RD.,CAHABA HEIGHTS,AL,35243,"http://maps.google.com/maps?q=3241 CAHABA HEIGHTS RD.,+CAHABA HEIGHTS,+AL+35243&hl=en"
WASHINGTON COUNTY SHERIFFS OFFICE,WASHINGTON COUNTY SHERIFFS OFFICE,45 COURT STREET,CHATOM,AL,36518,"http://maps.google.com/maps?q=45 COURT STREET,+CHATOM,+AL+36518&hl=en"
WAYNE COUNTY SHERIFF'S OFFICE,WAYNE COUNTY SHERIFF,1016 ANDREW JACKSON DR.,WAYNESBORO,TN,38485,"http://maps.google.com/maps?q=1016 ANDREW JACKSON DR.,+WAYNESBORO,+TN+38485&hl=en"
WEAKLEY COUNTY SHERIFF DEPARTMENT,FRED'S PHARMACY,1207 S MERIDIAN ST #1,GREENFIELD,TN,38230,"http://maps.google.com/maps?q=1207 S MERIDIAN ST #1,+GREENFIELD,+TN+38230&hl=en"
WEAKLEY COUNTY SHERIFF DEPARTMENT,FRED'S PHARMACY,8487 TN-22 #1,DRESDEN,TN,38225,"http://maps.google.com/maps?q=8487 TN-22 #1,+DRESDEN,+TN+38225&hl=en"
WEAKLEY COUNTY SHERIFF DEPARTMENT,TENNOVA HEALTHCARE- VOLUNTEER MARTIN HOSPITAL,161 MT. PELIA RD,MARTIN,TN,38237,"http://maps.google.com/maps?q=161 MT. PELIA RD,+MARTIN,+TN+38237&hl=en"
WEBSTER COUNTY SHERIFF'S OFFICE,WEBSTER COUNTY SHERIFF'S OFFICE,25 US HWY 41 A SOUTH,DIXON,KY,42409,"http://maps.google.com/maps?q=25 US HWY 41 A SOUTH,+DIXON,+KY+42409&hl=en"
WEST ALABAMA NARCOTICS TF,"ASHLEY FURNITURE 
												
													WEST ALABAMA NARCOTICS TASK FORCE",701 SKYLAND BLVD,TUSCALOOSA,AL,35405,"http://maps.google.com/maps?q=701 SKYLAND BLVD,+TUSCALOOSA,+AL+35405&hl=en"
WEST ALABAMA NARCOTICS TF,CVS,4260 UNIVERISTY BLVD,TUSCALOOSA,AL,35404,"http://maps.google.com/maps?q=4260 UNIVERISTY BLVD,+TUSCALOOSA,+AL+35404&hl=en"
WEST ALABAMA NARCOTICS TF,RITE AID,2300 MCFARLAND BLVD.,NORTHPORT,AL,35476,"http://maps.google.com/maps?q=2300 MCFARLAND BLVD.,+NORTHPORT,+AL+35476&hl=en"
WEST ALABAMA NARCOTICS TF,WALGREENS,8701 HIGHWAY 69 S.,TUSCALOOSA,AL,35405,"http://maps.google.com/maps?q=8701 HIGHWAY 69 S.,+TUSCALOOSA,+AL+35405&hl=en"
WEST ALABAMA NARCOTICS TF,WALMART NEIGHBORHOOD MARKET,4201 HARGROVE RD. E.,TUSCALOOSA,AL,35405,"http://maps.google.com/maps?q=4201 HARGROVE RD. E.,+TUSCALOOSA,+AL+35405&hl=en"
WEST CITY POLICE DEPT,WEST CITY POLICE DEPT.,201 S. BROWNING ST,WEST CITY,IL,62812,"http://maps.google.com/maps?q=201 S. BROWNING ST,+WEST CITY,+IL+62812&hl=en"
WEST FRANKFORT POLICE DEPT,WEST FRANKFORT POLICE DEPARTMENT,201 EAST NOLEN STREET,WEST FRANKFORT,IL,62896,"http://maps.google.com/maps?q=201 EAST NOLEN STREET,+WEST FRANKFORT,+IL+62896&hl=en"
WEST POINT POLICE DEPARTMENT,SAVE-A-LOT - PARKING LOT,"411 W MAIN ST,",WEST POINT,MS,39773,"http://maps.google.com/maps?q=411 W MAIN ST,,+WEST POINT,+MS+39773&hl=en"
WEST POINT POLICE DEPARTMENT,WAL-MART,HWY 45 N.,WEST POINT,MS,39773,"http://maps.google.com/maps?q=HWY 45 N.,+WEST POINT,+MS+39773&hl=en"
WESTMORELAND POLICE DEPT.,WESTMORELAND PD,1044 PLEASANT GROVE RD,WESTMORELAND,TN,37186,"http://maps.google.com/maps?q=1044 PLEASANT GROVE RD,+WESTMORELAND,+TN+37186&hl=en"
WHITE BLUFF POLICE DEPARTMENT,FRED'S PHARMACY,4928 HWY 70 EAST,WHITE BLUFF,TN,37187,"http://maps.google.com/maps?q=4928 HWY 70 EAST,+WHITE BLUFF,+TN+37187&hl=en"
WHITE COUNTY SHERIFF  DEPARTMENT,WHITE COUNTY SHERIFF'S DEPARTMENT,111 DEPOT STREET,SPARTA,TN,38583,"http://maps.google.com/maps?q=111 DEPOT STREET,+SPARTA,+TN+38583&hl=en"
WHITE COUNTY SHERIFF OFFICE,WHITE COUNTY SHERIFF OFFICE,108 N MAIN CROSS,CARMI,IL,62821,"http://maps.google.com/maps?q=108 N MAIN CROSS,+CARMI,+IL+62821&hl=en"
WHITE HOUSE POLICE DEPARTMENT,KROGERS,510 HWY 76,WHITE HOUSE,TN,37188,"http://maps.google.com/maps?q=510 HWY 76,+WHITE HOUSE,+TN+37188&hl=en"
WILCOX COUNTY SHERIFFS DEPARTMENT,WILCOX COUNTY COURTHOUSE,100 BROAD STREET,CAMDEN,AL,36726,"http://maps.google.com/maps?q=100 BROAD STREET,+CAMDEN,+AL+36726&hl=en"
WILLIAMSON COUNTY SHERIFF'S OFFICE,WALGREENS PHARMACY,1509 MURFREESBORO RD,FRANKLIN,TN,37067,"http://maps.google.com/maps?q=1509 MURFREESBORO RD,+FRANKLIN,+TN+37067&hl=en"
WILLIAMSON COUNTY SHERIFF'S OFFICE,WILLIAMSON COUNTY ADMINISTRATIVE BUILDING,407 N. MONROE,MARION,IL,62959,"http://maps.google.com/maps?q=407 N. MONROE,+MARION,+IL+62959&hl=en"
WILSON COUNTY SHERIFF'S DEPARTMENT,GIBBS PHARMACY,1427 W. BADDOUR PKWY #B,LEBANON,TN,37087,"http://maps.google.com/maps?q=1427 W. BADDOUR PKWY #B,+LEBANON,+TN+37087&hl=en"
WINONA POLICE DEPARTMENT,FRED'S PHARMACY,603 MIDDLETON RD.,WINONA,MS,38967,"http://maps.google.com/maps?q=603 MIDDLETON RD.,+WINONA,+MS+38967&hl=en"
WINONA POLICE DEPARTMENT,HAMMOND'S PHARMACY,405 NORTH APPLEGATE STREET,WINONA,MS,38967,"http://maps.google.com/maps?q=405 NORTH APPLEGATE STREET,+WINONA,+MS+38967&hl=en"
WINONA POLICE DEPARTMENT,OLD DIRT CHEAP BLDG,104 SOUTH APPLEGATE STREET,WINONA,MS,38967,"http://maps.google.com/maps?q=104 SOUTH APPLEGATE STREET,+WINONA,+MS+38967&hl=en"
WINONA POLICE DEPARTMENT,SUPERVALUE,601 MIDDLETON ROAD,WINONA,MS,38967,"http://maps.google.com/maps?q=601 MIDDLETON ROAD,+WINONA,+MS+38967&hl=en"
WINONA POLICE DEPARTMENT,WINONA CITY HALL,409 SUMMITT STREET,WINONA,MS,38967,"http://maps.google.com/maps?q=409 SUMMITT STREET,+WINONA,+MS+38967&hl=en"
