Participant,CollectionSite,Address,City,State,Zip,MapURL
ALCONA COUNTY SHERIFF OFFICE,ALCONA COUNTY SHERIFF OFFICE,214 W MAIN ST.,HARRISVILLE,MI,48740,"http://maps.google.com/maps?q=214 W MAIN ST.,+HARRISVILLE,+MI+48740&hl=en"
ALPENA COUNTY SHERIFF'S OFFICE,ALPENA COUNTY SHERIFF'S OFFICE,320 JOHNSON STREET,ALPENA,MI,49707,"http://maps.google.com/maps?q=320 JOHNSON STREET,+ALPENA,+MI+49707&hl=en"
ANTIGO POLICE DEPARTMENT,"ANTIGO POLICE DEPARTMENT 
												
													EVENT 8:00 AM TO 5:00 PM",840 CLERMONT ST,ANTIGO,WI,54409,"http://maps.google.com/maps?q=840 CLERMONT ST,+ANTIGO,+WI+54409&hl=en"
APPLETON POLICE DEPARTMENT,APPLETON POLICE DEPARTMENT,222 S. WALNUT STREET,APPLETON,WI,54911,"http://maps.google.com/maps?q=222 S. WALNUT STREET,+APPLETON,+WI+54911&hl=en"
ARENAC COUNTY SHERIFF'S OFFICE,ARENAC COUNTY SHERIFF'S OFFICE,126 GROVE STREET,STANDISH,MI,48658,"http://maps.google.com/maps?q=126 GROVE STREET,+STANDISH,+MI+48658&hl=en"
ASHLAND COUNTY SHERIFF'S OFFICE,"ASHLAND COUNTY SHERIFF'S OFFICE 
												
													DROP BOX ONLY 24/7",220 6TH STREET E,ASHLAND,WI,54806,"http://maps.google.com/maps?q=220 6TH STREET E,+ASHLAND,+WI+54806&hl=en"
ASHLAND POLICE DEPARTMENT,ASHLAND POLICE DEPARATMENT,601 W MAIN STREET,ASHLAND,WI,54806,"http://maps.google.com/maps?q=601 W MAIN STREET,+ASHLAND,+WI+54806&hl=en"
ASHWAUBENON POLICE DEPARTMENT,ASHWAUBENON PUBLIC SAFETY BUILDING,2155 HOLMGREN WAY,ASHWAUBENON,WI,54304,"http://maps.google.com/maps?q=2155 HOLMGREN WAY,+ASHWAUBENON,+WI+54304&hl=en"
BARAGA COUNTY SHERIFF'S OFFICE,BARAGA COUNTY SHERIFF'S OFFICE,940 HIGHWAY US 41,LANSE,MI,49946,"http://maps.google.com/maps?q=940 HIGHWAY US 41,+LANSE,+MI+49946&hl=en"
BAY CITY DEPARTMENT OF PUBLIC SAFETY,"LAW ENFORCEMENT CENTER 
												
													BAY CITY DEPARTMENT OF PUBLIC SAFETY",501 3RD STREET,BAY CITY,MI,48708,"http://maps.google.com/maps?q=501 3RD STREET,+BAY CITY,+MI+48708&hl=en"
BAYFIELD POLICE DEPARTMENT,"BAYFIELD POLICE DEPARTMENT 
												
													DROP BOX M-F 8:00AM-4:00PM",125 S FIRST STREET,BAYFIELD,WI,54814,"http://maps.google.com/maps?q=125 S FIRST STREET,+BAYFIELD,+WI+54814&hl=en"
BENZIE COUNTY SHERIFF'S OFFICE,BENZIE COUNTY SHERIFF'S OFFICE,505 MICHIGAN AVE,BEULAH,MI,49617,"http://maps.google.com/maps?q=505 MICHIGAN AVE,+BEULAH,+MI+49617&hl=en"
BERLIN POLICE DEPARTMENT,"BERLIN POLICE DEPARTMENT 
												
													DROP BOX ONLY M-F 7:30 AM-4:30 PM",108 N. CAPRON STREET,BERLIN,WI,54923,"http://maps.google.com/maps?q=108 N. CAPRON STREET,+BERLIN,+WI+54923&hl=en"
BIG RAPIDS DEPARTMENT OF PUBLIC SAFETY,BIG RAPIDS DEPARTMENT OF PUBLIC SAFETY,435 NORTH MICHIGAN AVE,BIG RAPIDS,MI,49307,"http://maps.google.com/maps?q=435 NORTH MICHIGAN AVE,+BIG RAPIDS,+MI+49307&hl=en"
BIRCHWOOD POLICE DEPARTMENT,"BIRCHWOOD VILLAGE HALL 
												
													BOX ONLY M-T 8:00AM-5:00PM",101 N MAIN ST,BIRCHWOOD,WI,54817,"http://maps.google.com/maps?q=101 N MAIN ST,+BIRCHWOOD,+WI+54817&hl=en"
BRILLION POLICE DEPARTMENT,BRILLION POLICE DEPARTMENT,130 CALUMENT ST,BRILLION,WI,54110,"http://maps.google.com/maps?q=130 CALUMENT ST,+BRILLION,+WI+54110&hl=en"
BROWN COUNTY SHERIFF'S OFFICE,"ALLOUEZ VILLAGE HALL 
												
													EVENT 10:00 AM - 2:00 PM",1900 LIBAL STREET,GREEN BAY,WI,54301,"http://maps.google.com/maps?q=1900 LIBAL STREET,+GREEN BAY,+WI+54301&hl=en"
BROWN COUNTY SHERIFF'S OFFICE,"BELLEVUE VILLAGE HALL 
												
													EVENT 10:00 AM - 2:00 PM",3100 EATON ROAD,GREEN BAY,WI,54311,"http://maps.google.com/maps?q=3100 EATON ROAD,+GREEN BAY,+WI+54311&hl=en"
BROWN COUNTY SHERIFF'S OFFICE,"DENMARK VILLAGE HALL 
												
													EVENT 10:00 AM - 2:00 PM",118 EAST MAIN STREET,DENMARK,WI,54208,"http://maps.google.com/maps?q=118 EAST MAIN STREET,+DENMARK,+WI+54208&hl=en"
BROWN COUNTY SHERIFF'S OFFICE,"SUAMICO MUNICIPAL SERVICE CENTER 
												
													EVENT 10:00 AM - 2:00 PM",12781 VELP AVE,SUAMICO,WI,54313,"http://maps.google.com/maps?q=12781 VELP AVE,+SUAMICO,+WI+54313&hl=en"
CALUMET COUNTY SHERIFF'S OFFICE,"CALUMET COUNTY SHERIFF'S OFFICE 
												
													DROP BOX ONLY 24/7",206 COURT STREET,CHILTON,WI,53014,"http://maps.google.com/maps?q=206 COURT STREET,+CHILTON,+WI+53014&hl=en"
CARROLLTON TOWNSHIP POLICE DEPARTMENT,CARROLLTON TOWNSHIP POLICE DEPARTMENT,1645 MAPLERIDGE ROAD,SAGINAW,MI,48604,"http://maps.google.com/maps?q=1645 MAPLERIDGE ROAD,+SAGINAW,+MI+48604&hl=en"
CHIPPEWA COUNTY SHERIFF OFFICE,CHIPPEWA COUNTY SHERIFF OFFICE,325 COURT STREET,SAULT SAINTE MARIE,MI,49783,"http://maps.google.com/maps?q=325 COURT STREET,+SAULT SAINTE MARIE,+MI+49783&hl=en"
CHOCOLAY POLICE DEPARTMENT,CHOCOLAY POLICE DEPARTMENT,5010 US 41 SOUTH,MARQUETTE,MI,49855,"http://maps.google.com/maps?q=5010 US 41 SOUTH,+MARQUETTE,+MI+49855&hl=en"
CITY OF GILLETT POLICE DEPARTMENT,"GILLETT POLICE DEPARTMENT 
												
													DROP BOX ONLY M-TH 7:00AM-4:00PM",150 N. MCKENZIE AVE,GILLETT,WI,54124,"http://maps.google.com/maps?q=150 N. MCKENZIE AVE,+GILLETT,+WI+54124&hl=en"
CLINTONVILLE POLICE DEPARTMENT,"CLINTONVILLE POLICE DEPARTMENT 
												
													DROP BOX ONLY 24/7",35 S CLINTON AVE,CLINTONVILLE,WI,54929,"http://maps.google.com/maps?q=35 S CLINTON AVE,+CLINTONVILLE,+WI+54929&hl=en"
COOK COUNTY SO,COOK COUNTY SHERIFF'S OFFICE,143 GUNFLINT TRAIL,GRAND MARAIS,MN,55604,"http://maps.google.com/maps?q=143 GUNFLINT TRAIL,+GRAND MARAIS,+MN+55604&hl=en"
COOK COUNTY SO,GRAND PORTAGE HEALTH SERVICES,62 UPPER ROAD,GRAND PORTAGE,MN,55605,"http://maps.google.com/maps?q=62 UPPER ROAD,+GRAND PORTAGE,+MN+55605&hl=en"
CORNELL POLICE DEPARTMENT,"CORNELL POLICE DEPARTMENT 
												
													DROP BOX ONLY M-F 8:00 AM - 12:00 PM",221 MAIN STREET,CORNELL,WI,54732,"http://maps.google.com/maps?q=221 MAIN STREET,+CORNELL,+WI+54732&hl=en"
CRAWFORD COUNTY SHERIFF'S OFFICE,CRAWFORD COUNTY SHERIFF'S OFFICE,200 W MICHIGAN AVE,GRAYLING,MI,49738,"http://maps.google.com/maps?q=200 W MICHIGAN AVE,+GRAYLING,+MI+49738&hl=en"
DE PERE POLICE DEPARTMENT,"DE PERE POLICE DEPARTMENT 
												
													DROP BOX M-F 8:00 AM-4:30 PM",325 S BROADWAY ST,DE PERE,WI,54115,"http://maps.google.com/maps?q=325 S BROADWAY ST,+DE PERE,+WI+54115&hl=en"
DENTON TOWNSHIP POLICE DEPARTMENT,"DENTON TOWNSHIP POLICE DEPARTMENT 
												
													TOWNSHIP HALL",2565 SOUTH GLADWIN ROAD,PRUDENVILLE,MI,48651,"http://maps.google.com/maps?q=2565 SOUTH GLADWIN ROAD,+PRUDENVILLE,+MI+48651&hl=en"
EAGLE RIVER POLICE DEPARTMENT,"EAGLE RIVER POLICE DEPARTMENT 
												
													DROP BOX ONLY M-F 8:00AM-4:30PM",525 E MAPLE ST,EAGLE RIVER,WI,54521,"http://maps.google.com/maps?q=525 E MAPLE ST,+EAGLE RIVER,+WI+54521&hl=en"
EDGAR POLICE DEPARTMENT,"EDGAR POLICE DEPARTMENT 
												
													EVENT 8:00AM-11:00AM",224 S. THIRD AVE,EDGAR,WI,54426,"http://maps.google.com/maps?q=224 S. THIRD AVE,+EDGAR,+WI+54426&hl=en"
ELK RAPIDS POLICE DEPARTMENT,ELK RAPIDS POLICE DEPARTMENT,321 BRIDGE STREET,ELK RAPIDS,MI,49629,"http://maps.google.com/maps?q=321 BRIDGE STREET,+ELK RAPIDS,+MI+49629&hl=en"
ESCANABA DEPARTMENT OF PUBLIC SAFETY,ESCANABA DEPARTMENT OF PUBLIC SAFETY,1900 THIRD AVENUE N,ESCANABA,MI,49829,"http://maps.google.com/maps?q=1900 THIRD AVENUE N,+ESCANABA,+MI+49829&hl=en"
EVEREST METRO POLICE DEPARTMENT,"EVEREST METRO POLICE DEPARTMENT 
												
													DROP BOX M-F 8:00 AM - 5:00 PM",5303 MESKER ST,WESTON,WI,54476,"http://maps.google.com/maps?q=5303 MESKER ST,+WESTON,+WI+54476&hl=en"
FERRIS STATE UNIVERSITY DEPT OF PUBLIC SAFETY,FERRIS STATE UNIVERSITY DEPT OF PUBLIC SAFETY,1319 CRAMER CIRCLE,BIG RAPIDS,MI,49307,"http://maps.google.com/maps?q=1319 CRAMER CIRCLE,+BIG RAPIDS,+MI+49307&hl=en"
FOREST COUNTY SHERIFF'S OFFICE,"FOREST COUNTY SHERIFF'S OFFICE 
												
													EVENT 10:00AM-2:00PM",100 S. PARK,CRANDON,WI,54520,"http://maps.google.com/maps?q=100 S. PARK,+CRANDON,+WI+54520&hl=en"
FORSYTH TOWNSHIP POLICE DEPARTMENT,FORSYTH TOWNSHIP POLICE DEPARTMENT,99 NORTH PINE STREET,GWINN,MI,49841,"http://maps.google.com/maps?q=99 NORTH PINE STREET,+GWINN,+MI+49841&hl=en"
FOX VALLEY METRO POLICE DEPARTMENT,"KIMBERLY VILLAGE HALL 
												
													EVENT 11:00AM-2:00PM",515 W KIMBERLY AVE,KIMBERLY,WI,54136,"http://maps.google.com/maps?q=515 W KIMBERLY AVE,+KIMBERLY,+WI+54136&hl=en"
FREEDOM POLICE DEPARTMENT,"FREEDOM TOWN HALL 
												
													EVENT 11:00 AM TO 6:00 PM",W2004 CNTY RD S,FREEDOM,WI,54131,"http://maps.google.com/maps?q=W2004 CNTY RD S,+FREEDOM,+WI+54131&hl=en"
GERRISH TOWNSHIP POLICE DEPARTMENT,GERRISH TOWNSHIP POLICE DEPARTMENT,3075 E HIGGINS LAKE DR,ROSCOMMON,MI,48653,"http://maps.google.com/maps?q=3075 E HIGGINS LAKE DR,+ROSCOMMON,+MI+48653&hl=en"
GLADWIN CITY POLICE,"CITY POLICE HEADQUARTERS 
												
													DROP BOX",109 S CITY PARK,GLADWIN,MI,48624,"http://maps.google.com/maps?q=109 S CITY PARK,+GLADWIN,+MI+48624&hl=en"
GRAND CHUTE POLICE DEPARTMENT,"GRAND CHUTE POLICE DEPARTMENT 
												
													DROP BOX EVENT 11:00 AM - 1:00 PM",1900 W GRAND CHUTE BLVD,GRAND CHUTE,WI,54913,"http://maps.google.com/maps?q=1900 W GRAND CHUTE BLVD,+GRAND CHUTE,+WI+54913&hl=en"
GRAND RAPIDS POLICE DEPARTMENT,"GRAND RAPIDS POLICE DEPARTMENT 
												
													DROP BOX M-TH 8:00 AM - 4:30 PM F 8:00 AM - NOON",2410 48TH ST,WISCONSIN RAPIDS,WI,54494,"http://maps.google.com/maps?q=2410 48TH ST,+WISCONSIN RAPIDS,+WI+54494&hl=en"
GRAND TRAVERSE BAND TRIBAL POLICE,GRAND TRAVERSE BAND TRIBAL POLICE,2300 N STALLMAN ROAD,SUTTONS BAY,MI,49682,"http://maps.google.com/maps?q=2300 N STALLMAN ROAD,+SUTTONS BAY,+MI+49682&hl=en"
GRAND TRAVERSE COUNTY SHERIFF'S OFFICE,ACME TOWNSHIP HALL,6042 ACME ROAD,WILLIAMSBURG,MI,49690,"http://maps.google.com/maps?q=6042 ACME ROAD,+WILLIAMSBURG,+MI+49690&hl=en"
GRAND TRAVERSE COUNTY SHERIFF'S OFFICE,BLAIR TOWNSHIP HALL,2121 COUNTY ROAD 633,GRAWN,MI,49637,"http://maps.google.com/maps?q=2121 COUNTY ROAD 633,+GRAWN,+MI+49637&hl=en"
GRAND TRAVERSE COUNTY SHERIFF'S OFFICE,FIFE LAKE TOWNSHIP FIRE DEPARTMENT,134 MORGAN STREET,FIFE LAKE,MI,49633,"http://maps.google.com/maps?q=134 MORGAN STREET,+FIFE LAKE,+MI+49633&hl=en"
GRAND TRAVERSE COUNTY SHERIFF'S OFFICE,"GRAND TRAVERSE MALL 
												
													LOCATION SOUTH OF FOOD COURT ENTRANCE",3200 WEST SOUTH AIRPORT ROAD,TRAVERSE CITY,MI,49684,"http://maps.google.com/maps?q=3200 WEST SOUTH AIRPORT ROAD,+TRAVERSE CITY,+MI+49684&hl=en"
GRAND TRAVERSE COUNTY SHERIFF'S OFFICE,GRAND TRAVERSE METRO FIRE STATION #9,110 HIGH LAKE RD,TRAVERSE CITY,MI,49686,"http://maps.google.com/maps?q=110 HIGH LAKE RD,+TRAVERSE CITY,+MI+49686&hl=en"
GRAND TRAVERSE COUNTY SHERIFF'S OFFICE,PARADISE TOWNSHIP EMERGENCY SERVICES,2266 EAST M-113,KINGSLEY,MI,49649,"http://maps.google.com/maps?q=2266 EAST M-113,+KINGSLEY,+MI+49649&hl=en"
GRAND TRAVERSE COUNTY SHERIFF'S OFFICE,PENINSULA TOWNSHIP FIRE DEPARTMENT,14247 CENTER ROAD,TRAVERSE CITY,MI,49686,"http://maps.google.com/maps?q=14247 CENTER ROAD,+TRAVERSE CITY,+MI+49686&hl=en"
GRAND TRAVERSE COUNTY SHERIFF'S OFFICE,SGT. DENNIS FINCH LAW ENFORCEMENT CENTER,851 WOODMERE AVENUE,TRAVERSE CITY,MI,49686,"http://maps.google.com/maps?q=851 WOODMERE AVENUE,+TRAVERSE CITY,+MI+49686&hl=en"
GRAYLING POLICE DEPARTMENT,GRAYLING POLICE DEPARTMENT,1020 CITY BLVD,GRAYLING,MI,49738,"http://maps.google.com/maps?q=1020 CITY BLVD,+GRAYLING,+MI+49738&hl=en"
GREEN BAY POLICE DEPARTMENT,"ST MARY'S HOSPITAL 
												
													EVENT 10:00AM-1:00PM",1726 SHAWANO AVE,GREEN BAY,WI,54303,"http://maps.google.com/maps?q=1726 SHAWANO AVE,+GREEN BAY,+WI+54303&hl=en"
GREEN LAKE COUNTY SHERIFF'S OFFICE,"GREEN LAKE COUNTY SHERIFF'S OFFICE 
												
													DROP BOX ONLY 24/7",571 COUNTY RD A,GREEN LAKE,WI,54941,"http://maps.google.com/maps?q=571 COUNTY RD A,+GREEN LAKE,+WI+54941&hl=en"
HANNAHVILLE TRIBAL POLICE DEPARTMENT,"HANNAHVILLE TRIBAL POLICE DEPARTMENT 
												
													LOCATED BEHIND THE ISLAND RESORT AND CASINO",W399 U.S. 2 & 41,HARRIS,MI,49845,"http://maps.google.com/maps?q=W399 U.S. 2 & 41,+HARRIS,+MI+49845&hl=en"
HAYWARD POLICE DEPARTMENT,"HAYWARD POLICE DEPARTMENT 
												
													EVENT 9:00 AM TO NOON",15889 W THIRD ST,HAYWARD,WI,54843,"http://maps.google.com/maps?q=15889 W THIRD ST,+HAYWARD,+WI+54843&hl=en"
HOBART LAWRENCE POLICE DEPARTMENT,"HOBART LAWRENCE POLICE DEPARTMENT 
												
													EVENT AT PD 4/27/2018 1:00PM-4:00PM",2400 SHADY COURT,HOBART,WI,54115,"http://maps.google.com/maps?q=2400 SHADY COURT,+HOBART,+WI+54115&hl=en"
HOUGHTON COUNTY SHERIFF'S OFFICE,HOUGHTON COUNTY SHERIFF'S OFFICE,403 E HOUGHTON AVENUE,HOUGHTON,MI,49931,"http://maps.google.com/maps?q=403 E HOUGHTON AVENUE,+HOUGHTON,+MI+49931&hl=en"
HURON COUNTY SHERIFF'S OFFICE,HURON COUNTY SHERIFF'S OFFICE,120 S HEISTERMAN STREET,BAD AXE,MI,48413,"http://maps.google.com/maps?q=120 S HEISTERMAN STREET,+BAD AXE,+MI+48413&hl=en"
IOSCO COUNTY SHERIFF'S OFFICE,IOSCO COUNTY SHERIFF'S OFFICE,428 W LAKE STREET,TAWAS CITY,MI,48763,"http://maps.google.com/maps?q=428 W LAKE STREET,+TAWAS CITY,+MI+48763&hl=en"
IRON  COUNTY SHERIFF'S OFFICE,IRON COUNTY SHERIFF'S OFFICE,2 SOUTH SIXTH STREET,CRYSTAL FALLS,MI,49920,"http://maps.google.com/maps?q=2 SOUTH SIXTH STREET,+CRYSTAL FALLS,+MI+49920&hl=en"
IRON COUNTY SHERIFF'S OFFICE,"IRON COUNTY SHERIFF'S OFFICE 
												
													DROP BOX ONLY 24/7",300 TACONITE STREET STE 226,HURLEY,WI,54534,"http://maps.google.com/maps?q=300 TACONITE STREET STE 226,+HURLEY,+WI+54534&hl=en"
ISHPEMING CITY POLICE DEPARTMENT,ISHPEMING CITY POLICE DEPARTMENT,100 S. LAKE ST,ISHPEMING,MI,49849,"http://maps.google.com/maps?q=100 S. LAKE ST,+ISHPEMING,+MI+49849&hl=en"
KALKASKA COUNTY SHERIFF'S OFFICE,KALKASKA COUNTY SHERIFF'S OFFICE,605 N BIRCH STREET,KALKASKA,MI,49646,"http://maps.google.com/maps?q=605 N BIRCH STREET,+KALKASKA,+MI+49646&hl=en"
KAUKAUNA POLICE DEPARTMENT,"KAUKAUNA POLICE DEPARTMENT 
												
													EVENT 12:00AM-3:00PM",144 W 2ND STREET,KAUKAUNA,WI,54130,"http://maps.google.com/maps?q=144 W 2ND STREET,+KAUKAUNA,+WI+54130&hl=en"
KEWAUNEE COUNTY SHERIFF'S OFFICE,"KEWAUNEE COUNTY HIGHWAY DEPARTMENT 
												
													EVENT 4/21/18 8:00AM-12:00PM",E2180 STATE HIGHWAY 54,CASCO,WI,54205,"http://maps.google.com/maps?q=E2180 STATE HIGHWAY 54,+CASCO,+WI+54205&hl=en"
KRONENWETTER POLICE DEPARTMENT,"KRONENWETTER POLICE DEPARTMENT 
												
													DROP BOX ONLY 24/7",1582 KRONENWETTER DR,KRONENWETTER,WI,54455,"http://maps.google.com/maps?q=1582 KRONENWETTER DR,+KRONENWETTER,+WI+54455&hl=en"
LAC COURTE OREILLES TRIBAL POLICE DEPARTMENT,"LAC COURTE OREILLES TRIBAL POLICE DEPARTMENT 
												
													EVENT 10:00AM-2:00PM",13394 W TREPANIA ROAD,HAYWARD,WI,54843,"http://maps.google.com/maps?q=13394 W TREPANIA ROAD,+HAYWARD,+WI+54843&hl=en"
LAC DU FLAMBEU TRIBAL POLICE DEPARTMENT,"LAC DU FLAMBEAU TRIBAL POLICE DEPARTMENT 
												
													EVENT 10:00 AM - 2:00 PM",623 PEACE PIPE RD,LAC DU FLAMBEAU,WI,54538,"http://maps.google.com/maps?q=623 PEACE PIPE RD,+LAC DU FLAMBEAU,+WI+54538&hl=en"
LAC VIEUX DESERT TRIBAL POLICE DEPARTMENT,LAC VIEUX DESERT TRIBAL POLICE DEPARTMENT,E23924 POW WOW TRAIL,WATERSMEET,MI,49969,"http://maps.google.com/maps?q=E23924 POW WOW TRAIL,+WATERSMEET,+MI+49969&hl=en"
LEELANAU COUNTY SHERIFF'S OFFICE,LEELANAU COUNTY SHERIFF'S OFFICE,8525 EAST GOVERNMENT CENTER DRIVE,SUTTONS BAY,MI,49682,"http://maps.google.com/maps?q=8525 EAST GOVERNMENT CENTER DRIVE,+SUTTONS BAY,+MI+49682&hl=en"
LITTLE RIVER BAND OF OTTAWA INDIANS,"3031 DOMRES RD, MANISTEE, MI. 49660",3031 DOMRES RD,MANISTEE,MI,49660,"http://maps.google.com/maps?q=3031 DOMRES RD,+MANISTEE,+MI+49660&hl=en"
LUXEMBURG POLICE DEPARTMENT,"LUXEMBURG POLICE DEPARTMENT 
												
													DROP BOX M-F 7:45AM-4:15PM",206 MAPLE STREET,LUXEMBURG,WI,54217,"http://maps.google.com/maps?q=206 MAPLE STREET,+LUXEMBURG,+WI+54217&hl=en"
MANAWA POLICE DEPARTMENT,"MANAWA POLICE DEPARTMENT 
												
													EVENT 10:00 AM TO 2:00 PM",500 S BRIDGE ST,MANAWA,WI,54949,"http://maps.google.com/maps?q=500 S BRIDGE ST,+MANAWA,+WI+54949&hl=en"
MANITOWOC COUNTY SHERIFF'S OFFICE,"MANITOWOC COUNTY SHERIFF'S OFFICE 
												
													DROP BOX AT SO M-F 8:00AM-4:30PM",1025 S 9TH STREET,MANITOWOC,WI,54220,"http://maps.google.com/maps?q=1025 S 9TH STREET,+MANITOWOC,+WI+54220&hl=en"
MARATHON CITY POLICE DEPARTMENT,"MARATHON CITY POLICE DEPARTMENT 
												
													DROP BOX M-F 7:00AM-4:00PM",311 WALNUT STREET,MARATHON,WI,54448,"http://maps.google.com/maps?q=311 WALNUT STREET,+MARATHON,+WI+54448&hl=en"
MARINETTE COUNTY SHERIFF'S OFFICE,"AMBERG COMMUNITY CENTER 
												
													EVENT FROM 9:00AM-1:00PM",N15035 GRANT STREET/COUNTY HWY V,AMBERG,WI,54102,"http://maps.google.com/maps?q=N15035 GRANT STREET/COUNTY HWY V,+AMBERG,+WI+54102&hl=en"
MARINETTE COUNTY SHERIFF'S OFFICE,"BAY AREA MEDICAL CENTER CRIVITZ 
												
													EVENT FROM 9:00AM-1:00PM",112 N US HWY 141,CRIVITZ,WI,54114,"http://maps.google.com/maps?q=112 N US HWY 141,+CRIVITZ,+WI+54114&hl=en"
MARINETTE COUNTY SHERIFF'S OFFICE,"BAY AREA MEDICAL CENTER MOBILITY CENTER 
												
													EVENT FROM 9:00AM-1:00PM",3117 SHORE DRIVE,MARINETTE,WI,54143,"http://maps.google.com/maps?q=3117 SHORE DRIVE,+MARINETTE,+WI+54143&hl=en"
MARINETTE COUNTY SHERIFF'S OFFICE,"MARINETTE COUNTY SHERIFF'S OFFICE 
												
													EVENT FROM 9:00AM-1:00PM",2161 UNIVERSITY DR,MARINETTE,WI,54143,"http://maps.google.com/maps?q=2161 UNIVERSITY DR,+MARINETTE,+WI+54143&hl=en"
MARINETTE POLICE DEPARTMENT,"MARINETTE POLICE DEPARTMENT 
												
													DROP BOX 24/7",1905 HALL AVE.,MARINETTE,WI,54143,"http://maps.google.com/maps?q=1905 HALL AVE.,+MARINETTE,+WI+54143&hl=en"
MARION POLICE DEPARTMENT,"MARION POLICE DEPARTMENT 
												
													DROP BOX M-F 7:00AM-12:00AM, S 10:00AM-12:00AM, S 12:00PM-10",124 W GARFIELD AVE,MARION,WI,54950,"http://maps.google.com/maps?q=124 W GARFIELD AVE,+MARION,+WI+54950&hl=en"
MARQUETTE POLICE DEPARTMENT,MARQUETTE POLICE DEPARTMENT,300 W BARAGA,MARQUETTE,MI,49855,"http://maps.google.com/maps?q=300 W BARAGA,+MARQUETTE,+MI+49855&hl=en"
MARSHFIELD POLICE DEPARTMENT,"SHOPKO 
												
													EVENT 10:00 AM - 2:00 PM",1306 N CENTRAL AVE,MARSHFIELD,WI,54449,"http://maps.google.com/maps?q=1306 N CENTRAL AVE,+MARSHFIELD,+WI+54449&hl=en"
MECOSTA COUNTY SHERIFF'S OFFICE,MECOSTA COUNTY SHERIFF'S OFFICE,225 S STEWART STREET,BIG RAPIDS,MI,49307,"http://maps.google.com/maps?q=225 S STEWART STREET,+BIG RAPIDS,+MI+49307&hl=en"
MENASHA POLICE DEPARTMENT,MENASHA POLICE DEPARTMENT,430 FIRST STREET,MENASHA,WI,54952,"http://maps.google.com/maps?q=430 FIRST STREET,+MENASHA,+WI+54952&hl=en"
MENOMINEE COUNTY SHERIFF'S OFFICE,"MENOMINEE COUNTY SHERIFF'S OFFICE 
												
													10:00AM-4:00PM",W3269 COURTHOUSE LANE,KESHENA,WI,54135,"http://maps.google.com/maps?q=W3269 COURTHOUSE LANE,+KESHENA,+WI+54135&hl=en"
MENOMONIEE TRIBAL POLICE DEPARTMENT,"MENOMONIEE TRIBAL POLICE DEPARTMENT 
												
													EVENT 10:00AM-2:00PM",W3293 WOLF RIVER DRIVE,KESHENA,WI,54135,"http://maps.google.com/maps?q=W3293 WOLF RIVER DRIVE,+KESHENA,+WI+54135&hl=en"
MERRILL POLICE DEPARTMENT,"MERRILL POLICE DEPARTMENT 
												
													DROP BOX ONLY 24/7",1004 E 1ST ST,MERRILL,WI,54452,"http://maps.google.com/maps?q=1004 E 1ST ST,+MERRILL,+WI+54452&hl=en"
MICHIGAN STATE POLICE,MICHIGAN STATE POLICE ALPENA POST,3283 WEST WASHINGTON,ALPENA,MI,49707,"http://maps.google.com/maps?q=3283 WEST WASHINGTON,+ALPENA,+MI+49707&hl=en"
MICHIGAN STATE POLICE,MICHIGAN STATE POLICE CADILLAC POST,7711 U.S. 131,CADILLAC,MI,49601,"http://maps.google.com/maps?q=7711 U.S. 131,+CADILLAC,+MI+49601&hl=en"
MICHIGAN STATE POLICE,MICHIGAN STATE POLICE CALUMET POST,55195 NORTH U.S. HIGHWAY 41,CALUMET,MI,49913,"http://maps.google.com/maps?q=55195 NORTH U.S. HIGHWAY 41,+CALUMET,+MI+49913&hl=en"
MICHIGAN STATE POLICE,MICHIGAN STATE POLICE CARO POST,1485 CLEAVER ROAD,CARO,MI,48723,"http://maps.google.com/maps?q=1485 CLEAVER ROAD,+CARO,+MI+48723&hl=en"
MICHIGAN STATE POLICE,MICHIGAN STATE POLICE GAYLORD POST,563 SOUTH OTSEGO,GAYLORD,MI,49735,"http://maps.google.com/maps?q=563 SOUTH OTSEGO,+GAYLORD,+MI+49735&hl=en"
MICHIGAN STATE POLICE,MICHIGAN STATE POLICE GLADSTONE POST,922 LAKE SHORE DRIVE,GLADSTONE,MI,49837,"http://maps.google.com/maps?q=922 LAKE SHORE DRIVE,+GLADSTONE,+MI+49837&hl=en"
MICHIGAN STATE POLICE,MICHIGAN STATE POLICE HART POST,3793 WEST POLK ROAD,HART,MI,49420,"http://maps.google.com/maps?q=3793 WEST POLK ROAD,+HART,+MI+49420&hl=en"
MICHIGAN STATE POLICE,MICHIGAN STATE POLICE HOUGHTON LAKE POST,9011 W LAKE CITY ROAD,HOUGHTON LAKE,MI,48629,"http://maps.google.com/maps?q=9011 W LAKE CITY ROAD,+HOUGHTON LAKE,+MI+48629&hl=en"
MICHIGAN STATE POLICE,MICHIGAN STATE POLICE IRON MOUNTAIN POST,1916 NORTH STEPHENSON,IRON MOUNTAIN,MI,49801,"http://maps.google.com/maps?q=1916 NORTH STEPHENSON,+IRON MOUNTAIN,+MI+49801&hl=en"
MICHIGAN STATE POLICE,MICHIGAN STATE POLICE LAKEVIEW POST,10300 HOWARD CITY-EDMORE ROAD,LAKEVIEW,MI,48850,"http://maps.google.com/maps?q=10300 HOWARD CITY-EDMORE ROAD,+LAKEVIEW,+MI+48850&hl=en"
MICHIGAN STATE POLICE,MICHIGAN STATE POLICE MOUNT PLEASANT POST,3580 SOUTH ISABELLA ROAD,MOUNT PLEASANT,MI,48858,"http://maps.google.com/maps?q=3580 SOUTH ISABELLA ROAD,+MOUNT PLEASANT,+MI+48858&hl=en"
MICHIGAN STATE POLICE,MICHIGAN STATE POLICE NEGAUNEE POST,180 U.S. 41 EAST,NEGAUNEE,MI,49866,"http://maps.google.com/maps?q=180 U.S. 41 EAST,+NEGAUNEE,+MI+49866&hl=en"
MICHIGAN STATE POLICE,MICHIGAN STATE POLICE SAULT STE. MARIE POST,3900 I-75 BR,SAULT SAINTE MARIE,MI,49783,"http://maps.google.com/maps?q=3900 I-75 BR,+SAULT SAINTE MARIE,+MI+49783&hl=en"
MICHIGAN STATE POLICE,MICHIGAN STATE POLICE TRI-CITY POST,2402 SALZBURG ROAD,FREELAND,MI,48623,"http://maps.google.com/maps?q=2402 SALZBURG ROAD,+FREELAND,+MI+48623&hl=en"
MICHIGAN STATE POLICE,MICHIGAN STATE POLICE WAKEFIELD POST,100 SUNDAY LAKE STREET,WAKEFIELD,MI,49968,"http://maps.google.com/maps?q=100 SUNDAY LAKE STREET,+WAKEFIELD,+MI+49968&hl=en"
MICHIGAN STATE POLICE,MICHIGAN STATE POLICE WEST BRANCH POST,496 EAST HOUGHTON,WEST BRANCH,MI,48661,"http://maps.google.com/maps?q=496 EAST HOUGHTON,+WEST BRANCH,+MI+48661&hl=en"
MICHIGAN TECH PUBLIC SAFETY & POLICE SERVICES,MICHIGAN TECH PUBLIC SAFETY,206 MACINNES DRIVE,HOUGHTON,MI,49931,"http://maps.google.com/maps?q=206 MACINNES DRIVE,+HOUGHTON,+MI+49931&hl=en"
MINOCQUA POLICE DEPARTMENT,"MINOCQUA POLICE DEPARTMENT 
												
													EVENT 10:00 AM TO 2:00 PM",418 E CHICAGO AVE,MINOCQUA,WI,54548,"http://maps.google.com/maps?q=418 E CHICAGO AVE,+MINOCQUA,+WI+54548&hl=en"
MISSAUKEE COUNTY SHERIFF'S DEPARTMENT,MISSAUKEE COUNTY SHERIFF'S DEPARTMENT,110 S PINE STREET,LAKE CITY,MI,49651,"http://maps.google.com/maps?q=110 S PINE STREET,+LAKE CITY,+MI+49651&hl=en"
MONTMORENCY CO SHERIFF'S OFFICE,MONTMORENCY CO SHERIFF'S OFFICE,11045 M-32 W,ATLANTA,MI,49709,"http://maps.google.com/maps?q=11045 M-32 W,+ATLANTA,+MI+49709&hl=en"
MOSINEE POLICE DEPARTMENT,"MOSINEE POLICE DEPARTMENT 
												
													EVENT 9:00AM-12:00PM",225 MAIN STREET,MOSINEE,WI,54455,"http://maps.google.com/maps?q=225 MAIN STREET,+MOSINEE,+WI+54455&hl=en"
NEENAH POLICE DEPARTMENT,"NEENAH POLICE DEPARTMENT 
												
													DROP BOX ONLY 24/7",2111 MARATHON AVE,NEENAH,WI,54956,"http://maps.google.com/maps?q=2111 MARATHON AVE,+NEENAH,+WI+54956&hl=en"
NEW HOLSTEIN POLICE DEPARTMENT,"NEW HOLSTEIN POLICE DEPARTMENT 
												
													EVENT 10:00 AM TO 12:00 PM",2110 WASHINGTON STREET,NEW HOLSTEIN,WI,53061,"http://maps.google.com/maps?q=2110 WASHINGTON STREET,+NEW HOLSTEIN,+WI+53061&hl=en"
NEW LONDON POLICE DEPARTMENT,"NEW LONDON POLICE DEPARTMENT 
												
													EVENT 10:00 AM TO 2:00 PM",700 SHIOCTON ST,NEW LONDON,WI,54961,"http://maps.google.com/maps?q=700 SHIOCTON ST,+NEW LONDON,+WI+54961&hl=en"
NEWAYGO COUNTY SHERIFF'S OFFICE,"HOMETOWN PHARMACY- NEWAYGO 
												
													NEWAYGO CITY POLICE WILL BE MANNING THIS COLLECTION SITE.",60 82ND STREET,NEWAYGO,MI,49337,"http://maps.google.com/maps?q=60 82ND STREET,+NEWAYGO,+MI+49337&hl=en"
NEWAYGO COUNTY SHERIFF'S OFFICE,NEWAYGO COUNTY SHERIFF'S OFFICE,300 WILLIAMS STREET,WHITE CLOUD,MI,49349,"http://maps.google.com/maps?q=300 WILLIAMS STREET,+WHITE CLOUD,+MI+49349&hl=en"
NEWAYGO POLICE DEPARTMENT,HOMETOWN PHARMACY,226 W RIVER VALLEY DR,NEWAYGO,MI,49337,"http://maps.google.com/maps?q=226 W RIVER VALLEY DR,+NEWAYGO,+MI+49337&hl=en"
OCONTO COUNTY SHERIFF'S OFFICE,"OCONTO COUNTY SHERIFF'S OFFICE 
												
													DROP BOX ONLY M-F 8:00AM-4:00PM",220 ARBUTUS AVE,OCONTO,WI,54153,"http://maps.google.com/maps?q=220 ARBUTUS AVE,+OCONTO,+WI+54153&hl=en"
OGEMAW COUNTY SHERIFF'S OFFICE,OGEMAW COUNTY CORRECTIONAL FACILITY,912 W HOUGHTON AVENUE,WEST BRANCH,MI,48661,"http://maps.google.com/maps?q=912 W HOUGHTON AVENUE,+WEST BRANCH,+MI+48661&hl=en"
OMRO POLICE DEPARTMENT,"OMRO POLICE DEPARTMENT 
												
													EVENT 8:00AM-12:00PM",205 S WEBSTER AVE,OMRO,WI,54963,"http://maps.google.com/maps?q=205 S WEBSTER AVE,+OMRO,+WI+54963&hl=en"
ONEIDA COUNTY SHERIFF'S OFFICE,"ONEIDA COUNTY LANDFILL 
												
													EVENT 10:00AM-2:00PM",7450 COUNTY HIGHWAY K,RHINELANDER,WI,54501,"http://maps.google.com/maps?q=7450 COUNTY HIGHWAY K,+RHINELANDER,+WI+54501&hl=en"
ONEIDA POLICE DEPARTMENT,"ONEIDA POLICE DEPARTMENT 
												
													DROP BOX ONLY 24/7",2783 FREEDOM RD,ONEIDA,WI,54155,"http://maps.google.com/maps?q=2783 FREEDOM RD,+ONEIDA,+WI+54155&hl=en"
ONTONAGON COUNTY SHERIFF OFFICE,ONTONAGON COUNTY SHERIFF OFFICE,620 CONGLOMERATE STREET,ONTONAGON,MI,49953,"http://maps.google.com/maps?q=620 CONGLOMERATE STREET,+ONTONAGON,+MI+49953&hl=en"
OSCEOLA COUNTY SHERIFF'S OFFICE,OSCEOLA COUNTY SHERIFF'S OFFICE,325 W UPTON STREET,REED CITY,MI,49677,"http://maps.google.com/maps?q=325 W UPTON STREET,+REED CITY,+MI+49677&hl=en"
OSCODA COUNTY SHERIFF'S OFFICE,OSCODA COUNTY SHERIFF'S OFFICE,301 MORENCI STREET,MIO,MI,48647,"http://maps.google.com/maps?q=301 MORENCI STREET,+MIO,+MI+48647&hl=en"
OSCODA TOWNSHIP POLICE DEPARTMENT,OSCODA TOWNSHIP POLICE DEPARTMENT,110 STATE ST,OSCODA,MI,48750,"http://maps.google.com/maps?q=110 STATE ST,+OSCODA,+MI+48750&hl=en"
OSHKOSH POLICE DEPARTMENT,"OSHKOSH POLICE DEPARTMENT 
												
													DROP BOX 24/7",420 JACKSON STREET,OSHKOSH,WI,54901,"http://maps.google.com/maps?q=420 JACKSON STREET,+OSHKOSH,+WI+54901&hl=en"
OTSEGO COUNTY SHERIFF'S OFFICE,OTSEGO COUNTY SHERIFF'S OFFICE,124 S COURT ST.,GAYLORD,MI,49735,"http://maps.google.com/maps?q=124 S COURT ST.,+GAYLORD,+MI+49735&hl=en"
PARK FALLS POLICE DEPARTMENT,"PARK FALLS POLICE DEPARTMENT 
												
													EVENT 9:00AM-1:00PM",400 4TH AVE SOUTH,PARK FALLS,WI,54552,"http://maps.google.com/maps?q=400 4TH AVE SOUTH,+PARK FALLS,+WI+54552&hl=en"
PORT EDWARDS POLICE DEPARTMENT,"PORT EDWARDS POLICE DEPARTMENT 
												
													EVENT 1:00PM-3:00PM",201 MARKET AVE,PORT EDWARDS,WI,54469,"http://maps.google.com/maps?q=201 MARKET AVE,+PORT EDWARDS,+WI+54469&hl=en"
PORTAGE COUNTY SHERIFF'S OFFICE,"COMMUNITY CENTER 
												
													APRIL 28TH 12:30PM-2:00PM",100 MAIN ST,ALMOND,WI,54909,"http://maps.google.com/maps?q=100 MAIN ST,+ALMOND,+WI+54909&hl=en"
PORTAGE COUNTY SHERIFF'S OFFICE,"FAITH LUTHERAN CHURCH 
												
													EVENT APRIL 24TH 11:30AM-12:30PM",253 S MAIN ST,ROSHOLT,WI,54473,"http://maps.google.com/maps?q=253 S MAIN ST,+ROSHOLT,+WI+54473&hl=en"
PORTAGE COUNTY SHERIFF'S OFFICE,"JENSEN CENTER 
												
													EVENT APRIL 27TH 11:30 AM-1:00PM",487 N MAIN ST,AMHERST,WI,54406,"http://maps.google.com/maps?q=487 N MAIN ST,+AMHERST,+WI+54406&hl=en"
PORTAGE COUNTY SHERIFF'S OFFICE,"LINCOLN CENTER 
												
													EVENT APRIL 28TH 8:00AM-12:00PM",1519 WATER ST,STEVENS POINT,WI,54481,"http://maps.google.com/maps?q=1519 WATER ST,+STEVENS POINT,+WI+54481&hl=en"
PORTAGE COUNTY SHERIFF'S OFFICE,"VILLAGE PARK LODGE JUNCTION CITY 
												
													APRIL 26TH 11:00 AM - 12:30PM",1001 MAIN STREET,JUNCTION CITY,WI,54443,"http://maps.google.com/maps?q=1001 MAIN STREET,+JUNCTION CITY,+WI+54443&hl=en"
PRESQUE ISLE SHERIFF'S OFFICE,PRESQUE ISLE SHERIFF'S OFFICE,267 N SECOND STREET,ROGERS CITY,MI,49779,"http://maps.google.com/maps?q=267 N SECOND STREET,+ROGERS CITY,+MI+49779&hl=en"
PRICE COUNTY SHERIFF'S OFFICE,"PRICE COUNTY SHERIFF'S OFFICE 
												
													DROP BOX ONLY 24/7",164 CHERRY ST,PHILLIPS,WI,54555,"http://maps.google.com/maps?q=164 CHERRY ST,+PHILLIPS,+WI+54555&hl=en"
PULASKI POLICE DEPARTMENT,"PULASKI POLICE DEPARTMENT 
												
													EVENT  8:00AM-12:00PM",585 E GLENBROOK DRIVE,PULASKI,WI,54162,"http://maps.google.com/maps?q=585 E GLENBROOK DRIVE,+PULASKI,+WI+54162&hl=en"
REED CITY POLICE DEPARTMENT,REED CITY POLICE DEPARTMENT,229 E LINCOLN AVE,REED CITY,MI,49677,"http://maps.google.com/maps?q=229 E LINCOLN AVE,+REED CITY,+MI+49677&hl=en"
RHINELANDER POLICE DEPARTMENT,"RHINELANDER POLICE DEPARTMENT 
												
													EVENT 10:00AM-2:00PM",201 N BROWN ST,RHINELANDER,WI,54501,"http://maps.google.com/maps?q=201 N BROWN ST,+RHINELANDER,+WI+54501&hl=en"
RICE LAKE POLICE DEPARTMENT,"RICE LAKE POLICE DEPARTMENT 
												
													DROP BOX 24/7",34 SOUTH WILSON AVE,RICE LAKE,WI,54868,"http://maps.google.com/maps?q=34 SOUTH WILSON AVE,+RICE LAKE,+WI+54868&hl=en"
RIPON POLICE DEPT,"RIPON POLICE DEPT 
												
													DROP BOX ONLY 24/7",100 E JACKSON ST,RIPON,WI,54971,"http://maps.google.com/maps?q=100 E JACKSON ST,+RIPON,+WI+54971&hl=en"
ROTHSCHILD POLICE DEPARTMENT,"ROTHSCHILD POLICE DEPARTMENT 
												
													DROP BOX ONLY 24/7",211 GRAND AVE,ROTHSCHILD,WI,54474,"http://maps.google.com/maps?q=211 GRAND AVE,+ROTHSCHILD,+WI+54474&hl=en"
RUSK COUNTY SHERIFF'S OFFICE,"RUSK COUNTY SHERIFF'S OFFICE 
												
													DROP BOX 24/7","311 E. MINER AVE, SUITE L100",LADYSMITH,WI,54848,"http://maps.google.com/maps?q=311 E. MINER AVE, SUITE L100,+LADYSMITH,+WI+54848&hl=en"
SAWYER COUNTY SHERIFF'S OFFICE,"WINTER CO-OP 
												
													EVENT 10:00AM-1:00PM",5159 N SOUTH MAIN ST,WINTER,WI,54896,"http://maps.google.com/maps?q=5159 N SOUTH MAIN ST,+WINTER,+WI+54896&hl=en"
SEYMOUR POLICE DEPARTMENT,"SEYMOUR POLICE DEPARTMENT 
												
													DROP BOX M-F 8:00AM-4:00PM",306 N MAIN STREET,SEYMOUR,WI,54165,"http://maps.google.com/maps?q=306 N MAIN STREET,+SEYMOUR,+WI+54165&hl=en"
SHAWANO POLICE DEPARTMENT,"SHAWANO POLICE DEPARTMENT 
												
													DROP BOX 24/7",125 S. SAWYER ST,SHAWANO,WI,54166,"http://maps.google.com/maps?q=125 S. SAWYER ST,+SHAWANO,+WI+54166&hl=en"
SHEBOYGAN POLICE DEPARTMENT,"HOWARDS GROVE VILLAGE HALL 
												
													EVENT 10:00AM-1:00PM",913 S WISCONSIN DR,SHEBOYGAN,WI,53083,"http://maps.google.com/maps?q=913 S WISCONSIN DR,+SHEBOYGAN,+WI+53083&hl=en"
SHICOTON POLICE DEPARTMENT,"SHIOCTON POLICE DEPARTMENT 
												
													DROP BOX M-F 7:00AM-3:30PM",NN5605 ST RD 76,SHIOCTON,WI,54170,"http://maps.google.com/maps?q=NN5605 ST RD 76,+SHIOCTON,+WI+54170&hl=en"
SPENCER POLICE DEPARTMENT,"SPENCER POLICE DEPARTMENT 
												
													EVENT 10:00AM-2:00PM",105 S PARK STREET,SPENCER,WI,54479,"http://maps.google.com/maps?q=105 S PARK STREET,+SPENCER,+WI+54479&hl=en"
STEVENS POINT POLICE DEPARTMENT,"LINCOLN CENTER 
												
													EVENT 7:30 AM - 4:00 PM",1519 WATER STREET,STEVENS POINT,WI,54481,"http://maps.google.com/maps?q=1519 WATER STREET,+STEVENS POINT,+WI+54481&hl=en"
SUPERIOR POLICE DEPARTMENT,"SUPERIOR POLICE DEPARTMENT 
												
													DROP BOX",1316 N 14TH STREETSUITE 150,SUPERIOR,WI,54880,"http://maps.google.com/maps?q=1316 N 14TH STREET,+SUPERIOR,+WI+54880&hl=en"
SURING POLICE DEPARTMENT,"SURING POLICE DEPARTMENT 
												
													EVENT 9:00AM-1:00PM",604 E MAIN STREET,SURING,WI,54174,"http://maps.google.com/maps?q=604 E MAIN STREET,+SURING,+WI+54174&hl=en"
TAWAS POLICE AUTHORITY,TAWAS POLICE AUTHORITY,810 W WESTOVER STREET,EAST TAWAS,MI,48730,"http://maps.google.com/maps?q=810 W WESTOVER STREET,+EAST TAWAS,+MI+48730&hl=en"
TAYLOR COUNTY SHERIFF'S OFFICE,"TAYLOR COUNTY SHERIFF'S OFFICE 
												
													DROP BOX M-F 8:30AM-4:30PM",224 SOUTH 2ND STREET,MEDFORD,WI,54451,"http://maps.google.com/maps?q=224 SOUTH 2ND STREET,+MEDFORD,+WI+54451&hl=en"
THREE LAKES POLICE DEPARTMENT,"THREE LAKES POLICE DEPARTMENT 
												
													EVENT 10:00AM-2:00PM",1733 SUPERIOR STREET,THREE LAKES,WI,54562,"http://maps.google.com/maps?q=1733 SUPERIOR STREET,+THREE LAKES,+WI+54562&hl=en"
TOMAHAWK POLICE DEPT,"TOMAHAWK POLICE DEPT 
												
													7:00AM-11:00PM",219 W SOMO AVE,TOMAHAWK,WI,54487,"http://maps.google.com/maps?q=219 W SOMO AVE,+TOMAHAWK,+WI+54487&hl=en"
TUSCOLA COUNTY SHERIFFS OFFICE,TUSCOLA COUNTY SHERIFF'S OFFICE,420 COURT STREET,CARO,MI,48723,"http://maps.google.com/maps?q=420 COURT STREET,+CARO,+MI+48723&hl=en"
VILAS COUNTY SHERIFF'S OFFICE,"VILAS CONTY SHERIFF'S OFFICE 
												
													EVENT 10:00AM-3:30PM",330 COURT STREET,EAGLE RIVER,WI,54521,"http://maps.google.com/maps?q=330 COURT STREET,+EAGLE RIVER,+WI+54521&hl=en"
VILLAGE OF WESTFIELD POLICE DEPARTMENT,"VILLAGE OF WESTFILED POLICE DEPARTMENT 
												
													DROP BOX M-F 8:00AM-4:00PM",129 E 3RD STREET,WESTFIELD,WI,53964,"http://maps.google.com/maps?q=129 E 3RD STREET,+WESTFIELD,+WI+53964&hl=en"
WASHBURN COUNTY SHERIFF'S OFFICE,"WASHBURN COUNTY SHERIFF'S OFFICE 
												
													EVENT 10:00AM-2:00PM",421 HWY 63,SHELL LAKE,WI,54871,"http://maps.google.com/maps?q=421 HWY 63,+SHELL LAKE,+WI+54871&hl=en"
WASHINGTON ISLAND POLICE DEPARTMENT,"WASHINGTON ISLAND POLICE DEPARTMENT 
												
													EVENT 10:00AM-12:00PM",1045 MAIN ROAD,WASHINGTON ISLAND,WI,54246,"http://maps.google.com/maps?q=1045 MAIN ROAD,+WASHINGTON ISLAND,+WI+54246&hl=en"
WAUPACA COUNTY SHERIFF'S OFFICE,"WAUPACA COUNTY SHERIFF'S OFFICE 
												
													DROP BOX ONLY M-F 7:00AM-5:00PM",1402 E ROYALTON ST,WAUPACA,WI,54981,"http://maps.google.com/maps?q=1402 E ROYALTON ST,+WAUPACA,+WI+54981&hl=en"
WAUPACA POLICE DEPARTMENT,"WAUPACA POLICE DEPARTMENT 
												
													EVENT 10:00AM-2:00PM",124 S WASHINGTON ST,WAUPACA,WI,54981,"http://maps.google.com/maps?q=124 S WASHINGTON ST,+WAUPACA,+WI+54981&hl=en"
WAUSAU POLICE DEPARTMENT,"WAUSAU POLICE DEPARTMENT 
												
													EVENT 10:00AM-2:00PM",515 GRAND AVE,WAUSAU,WI,54403,"http://maps.google.com/maps?q=515 GRAND AVE,+WAUSAU,+WI+54403&hl=en"
WAUSHARA COUNTY SHERIFF'S OFFICE,"REDGRANITE FIRE DEPARTMENT 
												
													EVENT 10:00AM-12:00PM",135 E BANNERMAN AVE,REDGRANITE,WI,54970,"http://maps.google.com/maps?q=135 E BANNERMAN AVE,+REDGRANITE,+WI+54970&hl=en"
WEYAUWEGA POLICE DEPARTMENT,"WEYAUWEGA POLICE DEPARTMENT 
												
													DROP BOX M-F 8:00AM-4:30PM",109 E MAIN ST,WEYAUWEGA,WI,54983,"http://maps.google.com/maps?q=109 E MAIN ST,+WEYAUWEGA,+WI+54983&hl=en"
WINNECONNE POLICE DEPARTMENT,"WINNECONNE POLICE DEPARTMENT 
												
													EVENT 8:00AM-12:00PM",30 S FIRST STREET,WINNECONNE,WI,54986,"http://maps.google.com/maps?q=30 S FIRST STREET,+WINNECONNE,+WI+54986&hl=en"
WISCONSIN RAPIDS POLICE DEPARTMENT,"COPPS FOOD CENTER 
												
													EVENT APRIL 20TH 10:00AM-2:00PM",900 E RIVERVIEW EXPRESSWAY,WISCONSIN RAPIDS,WI,54494,"http://maps.google.com/maps?q=900 E RIVERVIEW EXPRESSWAY,+WISCONSIN RAPIDS,+WI+54494&hl=en"
WOOD COUNTY SHERIFF'S OFFICE,"WOOD COUNTY SHERIFF'S OFFICE 
												
													DROP BOX ONLY M-F 8:00AM-4:30PM",400 MARKET STREET,WISCONSIN RAPIDS,WI,54494,"http://maps.google.com/maps?q=400 MARKET STREET,+WISCONSIN RAPIDS,+WI+54494&hl=en"
WRIGHTSTOWN POLICE DEPARTMENT,"WRIGHTSTOWN POLICE DEPARTMENT 
												
													EVENT 10:00AM-2:00PM",352 HIGH ST,WRIGHTSTOWN,WI,54180,"http://maps.google.com/maps?q=352 HIGH ST,+WRIGHTSTOWN,+WI+54180&hl=en"
