Participant,CollectionSite,Address,City,State,Zip,MapURL
10TH JUDICIAL DRUG TASK FORCE,PIGGLY WIGGLY,125 FIVE POINT DRIVE,DUCKTOWN,TN,37326,"http://maps.google.com/maps?q=125 FIVE POINT DRIVE,+DUCKTOWN,+TN+37326&hl=en"
10TH JUDICIAL DRUG TASK FORCE,POLK CITY SHERIFF OFFICE,164 INDUSTRIAL ACCESS CIRCLE,BENTON,TN,37307,"http://maps.google.com/maps?q=164 INDUSTRIAL ACCESS CIRCLE,+BENTON,+TN+37307&hl=en"
10TH JUDICIAL DRUG TASK FORCE,WALMART,1815 DECATUR PIKE,ATHENS,TN,37303,"http://maps.google.com/maps?q=1815 DECATUR PIKE,+ATHENS,+TN+37303&hl=en"
10TH JUDICIAL DRUG TASK FORCE,WALMART,4225 HIGHWAY 411,MADISONVILLE,TN,37354,"http://maps.google.com/maps?q=4225 HIGHWAY 411,+MADISONVILLE,+TN+37354&hl=en"
5TH JUDICIAL DRUG TASK FORCE,BLOUNT COUNTY JUSTICE CENTER,940 EAST LAMAR ALEXANDER PARKWAY,MARYVILLE,TN,37804,"http://maps.google.com/maps?q=940 EAST LAMAR ALEXANDER PARKWAY,+MARYVILLE,+TN+37804&hl=en"
ACWORTH POLICE DEPARTMENT,TARGET,3378 COBB PARKWAY,ACWORTH,GA,30101,"http://maps.google.com/maps?q=3378 COBB PARKWAY,+ACWORTH,+GA+30101&hl=en"
ACWORTH POLICE DEPARTMENT,WALGREENS,6090 LAKE ACWORTH DRIVE,ACWORTH,GA,30101,"http://maps.google.com/maps?q=6090 LAKE ACWORTH DRIVE,+ACWORTH,+GA+30101&hl=en"
AIKEN DEPARTMENT OF PUBLIC SAFETY,CLYBURN CENTER FOR PRIMARY CARE,1000 CLYBURN PLACE,AIKEN,SC,29801,"http://maps.google.com/maps?q=1000 CLYBURN PLACE,+AIKEN,+SC+29801&hl=en"
ALGOOD POLICE DEPT.,ALGOOD CITY HALL LOBBY,215 W. MAIN STREET,COOKEVILLE,TN,38506,"http://maps.google.com/maps?q=215 W. MAIN STREET,+COOKEVILLE,+TN+38506&hl=en"
ALPHARETTA DEPARTMENT OF PUBLIC SAFETY,ALPHARETTA FIRE STATION 81,2970 WEBB BRIDGE ROAD,ALPHARETTA,GA,30009,"http://maps.google.com/maps?q=2970 WEBB BRIDGE ROAD,+ALPHARETTA,+GA+30009&hl=en"
ALPHARETTA DEPARTMENT OF PUBLIC SAFETY,ALPHARETTA FIRE STATION 82,3070 MARKET PLACE,ALPHARETTA,GA,30009,"http://maps.google.com/maps?q=3070 MARKET PLACE,+ALPHARETTA,+GA+30009&hl=en"
ALPHARETTA DEPARTMENT OF PUBLIC SAFETY,ALPHARETTA FIRE STATION 83,9600 WEST SIDE PKWY,ALPHARETTA,GA,30009,"http://maps.google.com/maps?q=9600 WEST SIDE PKWY,+ALPHARETTA,+GA+30009&hl=en"
ALPHARETTA DEPARTMENT OF PUBLIC SAFETY,ALPHARETTA FIRE STATION 84,525 PARK BRIDGE PKWY,ALPHARETTA,GA,30009,"http://maps.google.com/maps?q=525 PARK BRIDGE PKWY,+ALPHARETTA,+GA+30009&hl=en"
ALPHARETTA DEPARTMENT OF PUBLIC SAFETY,ALPHARETTA FIRE STATION 85,1475 MID BROADWELL ROAD,ALPHARETTA,GA,30009,"http://maps.google.com/maps?q=1475 MID BROADWELL ROAD,+ALPHARETTA,+GA+30009&hl=en"
ALPHARETTA DEPARTMENT OF PUBLIC SAFETY,ALPHARETTA FIRE STATION 86,3275 KIMBALL BRIDGE ROAD,ALPHARETTA,GA,30009,"http://maps.google.com/maps?q=3275 KIMBALL BRIDGE ROAD,+ALPHARETTA,+GA+30009&hl=en"
ALPHARETTA DEPARTMENT OF PUBLIC SAFETY,ALPHARETTA PUBLIC SAFETY HEADQUARTERS,2565 OLD MILTON PKWY,ALPHARETTA,GA,30009,"http://maps.google.com/maps?q=2565 OLD MILTON PKWY,+ALPHARETTA,+GA+30009&hl=en"
"ANNISTON ARMY DEPOT, ASAP","ANNISTON ARMY DEPOT 
												
													BLDG 206 AND 422",7 FRANKFORD AVEASAP,ANNISTON,AL,36201,"http://maps.google.com/maps?q=7 FRANKFORD AVE,+ANNISTON,+AL+36201&hl=en"
ATHENS TN POLICE DEPARTMENT,ATHENS POLICE DEPARTMENT,815 NORTH JACKSON STREET,ATHENS,TN,37303,"http://maps.google.com/maps?q=815 NORTH JACKSON STREET,+ATHENS,+TN+37303&hl=en"
ATLANTA POLICE DEPARTMENT,"ATLANTA POLICE DEPARTMENT 
												
													ZONE 1 PRECINCT",2315 DONALD LEE HOLLOWELL PKY. N.W.,ATLANTA,GA,30318,"http://maps.google.com/maps?q=2315 DONALD LEE HOLLOWELL PKY. N.W.,+ATLANTA,+GA+30318&hl=en"
ATLANTA POLICE DEPARTMENT,"ATLANTA POLICE DEPARTMENT 
												
													ZONE 2 PRECINCT",3120 MAPLE DRIVE N.E.,ATLANTA,GA,30305,"http://maps.google.com/maps?q=3120 MAPLE DRIVE N.E.,+ATLANTA,+GA+30305&hl=en"
ATLANTA POLICE DEPARTMENT,"ATLANTA POLICE DEPARTMENT 
												
													ZONE 3 PRECINCT",880 CHEROKEE AVENUE,ATLANTA,GA,30315,"http://maps.google.com/maps?q=880 CHEROKEE AVENUE,+ATLANTA,+GA+30315&hl=en"
ATLANTA POLICE DEPARTMENT,"ATLANTA POLICE DEPARTMENT 
												
													ZONE 4 PRECINCT",1125 CASCADE CR. S.W.,ATLANTA,GA,30311,"http://maps.google.com/maps?q=1125 CASCADE CR. S.W.,+ATLANTA,+GA+30311&hl=en"
ATLANTA POLICE DEPARTMENT,"ATLANTA POLICE DEPARTMENT 
												
													ZONE 5 PRECINCT",200 SPRING ST.,ATLANTA,GA,30303,"http://maps.google.com/maps?q=200 SPRING ST.,+ATLANTA,+GA+30303&hl=en"
ATLANTA POLICE DEPARTMENT,"ATLANTA POLICE DEPARTMENT 
												
													ZONE 6 PRECINCT",2025 HOSEA L. WILLIAMS DR. S.E.,ATLANTA,GA,30317,"http://maps.google.com/maps?q=2025 HOSEA L. WILLIAMS DR. S.E.,+ATLANTA,+GA+30317&hl=en"
AUBURN POLICE DIVISION,"OUR HOME PHARMACY 
												
													OGLETREE VILLAGE",2320 MOORES MILL ROAD #100,AUBURN,AL,36830,"http://maps.google.com/maps?q=2320 MOORES MILL ROAD #100,+AUBURN,+AL+36830&hl=en"
AVONDALE ESTATES POLICE DEPARTMENT,AVONDALE ESTATES PD,21 N. AVONDALE PLAZA,AVONDALE ESTATES,GA,30002,"http://maps.google.com/maps?q=21 N. AVONDALE PLAZA,+AVONDALE ESTATES,+GA+30002&hl=en"
BARNWELL COUNTY SHERIFF'S OFFICE,CVS,9912 DUNBARTON BLVD.,BARNWELL,SC,29812,"http://maps.google.com/maps?q=9912 DUNBARTON BLVD.,+BARNWELL,+SC+29812&hl=en"
BEAUFORT COUNTY SHERIFF'S OFFICE,BEAUFORT COUNTY CONVENIENCE CNTR,104 SIMMONSVILLE RD.,BLUFFTON,SC,29910,"http://maps.google.com/maps?q=104 SIMMONSVILLE RD.,+BLUFFTON,+SC+29910&hl=en"
BEAUFORT COUNTY SHERIFF'S OFFICE,BEAUFORT COUNTY CONVENIENCE CNTR,80 SHANKLIN RD.,BEAUFORT,SC,29906,"http://maps.google.com/maps?q=80 SHANKLIN RD.,+BEAUFORT,+SC+29906&hl=en"
BEDFORD COUNTY SHERIFF'S DEPT.,FIRST BAPTIST CHURCH,304 E. DEPOT ST,SHELBYVILLE,TN,37160,"http://maps.google.com/maps?q=304 E. DEPOT ST,+SHELBYVILLE,+TN+37160&hl=en"
BISHOPVILLE POLICE DEPT,BISHOPVILLE CITY POLICE DEPT.,112 E. COUNCIL ST.,BISHOPVILLE,SC,29010,"http://maps.google.com/maps?q=112 E. COUNCIL ST.,+BISHOPVILLE,+SC+29010&hl=en"
BLOUNT COUNTY DISTRICT ATTORNEY'S OFFICE,BLOUNTSVILLE TOWN HALL,10017 LEE ST,BLOUNTSVILLE,AL,35031,"http://maps.google.com/maps?q=10017 LEE ST,+BLOUNTSVILLE,+AL+35031&hl=en"
BLOUNT COUNTY DISTRICT ATTORNEY'S OFFICE,CLEVELAND PHARMACY,36321 AL 79,CLEVELAND,AL,35049,"http://maps.google.com/maps?q=36321 AL 79,+CLEVELAND,+AL+35049&hl=en"
BLOUNT COUNTY DISTRICT ATTORNEY'S OFFICE,HAYDEN HEALTH MART,4086 STATE HWY 160,HAYDEN,AL,35079,"http://maps.google.com/maps?q=4086 STATE HWY 160,+HAYDEN,+AL+35079&hl=en"
BLOUNT COUNTY DISTRICT ATTORNEY'S OFFICE,HIGHLAND LAKE TOWN HALL,612 LAKESHORE DRIVE,ONEONTA,AL,35121,"http://maps.google.com/maps?q=612 LAKESHORE DRIVE,+ONEONTA,+AL+35121&hl=en"
BLOUNT COUNTY DISTRICT ATTORNEY'S OFFICE,LOCUST FORK TOWN HALL,34 TOWN HALL RD,LOCUST FORK,AL,35097,"http://maps.google.com/maps?q=34 TOWN HALL RD,+LOCUST FORK,+AL+35097&hl=en"
BLOUNT COUNTY DISTRICT ATTORNEY'S OFFICE,ONEONTA WAL-MART,2453 2ND AVENUE EAST,ONEONTA,AL,35121,"http://maps.google.com/maps?q=2453 2ND AVENUE EAST,+ONEONTA,+AL+35121&hl=en"
BLOUNT COUNTY DISTRICT ATTORNEY'S OFFICE,SNEAD TOWN HALL,87169 US HIGHWAY 278,ALTOONA,AL,35952,"http://maps.google.com/maps?q=87169 US HIGHWAY 278,+ALTOONA,+AL+35952&hl=en"
BRADLEY COUNTY SHERIFF'S OFFICE,BCSO CID ENTRANCE,2290 BLYTHE AVE SE,CLEVELAND,TN,37311,"http://maps.google.com/maps?q=2290 BLYTHE AVE SE,+CLEVELAND,+TN+37311&hl=en"
CALHOUN COUNTY SHERIFF'S OFFICE,QUINTARD MALL,700 QUINTARD DRIVE,OXFORD,AL,36203,"http://maps.google.com/maps?q=700 QUINTARD DRIVE,+OXFORD,+AL+36203&hl=en"
CAMDEN POLICE DEPARTMENT,CAMDEN POLICE DEPARTMENT,816 W. DEKALB ST.,CAMDEN,SC,29020,"http://maps.google.com/maps?q=816 W. DEKALB ST.,+CAMDEN,+SC+29020&hl=en"
CARTERSVILLE POLICE DEPARTMENT,CARTERSVILLE POLICE DEPARTMENT,195 CASSVILLE ROAD,CARTERSVILLE,GA,30120,"http://maps.google.com/maps?q=195 CASSVILLE ROAD,+CARTERSVILLE,+GA+30120&hl=en"
CARTHAGE POLICE DEPARTMENT,CARTHAGE CITY HALL,314 SPRING ST.,CARTHAGE,TN,37030,"http://maps.google.com/maps?q=314 SPRING ST.,+CARTHAGE,+TN+37030&hl=en"
CATOOSA CO. SHERIFF'S OFFICE,CATOOSA CO. SHERIFF'S OFFICE,5842 HIGHWAY 41,RINGGOLD,GA,30736,"http://maps.google.com/maps?q=5842 HIGHWAY 41,+RINGGOLD,+GA+30736&hl=en"
CHAMBERS COUNTY DRUG TASK FORCE,CHAMBERS COUNTY COURTHOUSE,2 SOUTH LAFAYETTE STREET,LAFAYETTE,AL,36862,"http://maps.google.com/maps?q=2 SOUTH LAFAYETTE STREET,+LAFAYETTE,+AL+36862&hl=en"
CHAMBERS COUNTY DRUG TASK FORCE,CVS PHARMACY,10 VETERANS MEMORIAL PARKWAY,LANETT,AL,36863,"http://maps.google.com/maps?q=10 VETERANS MEMORIAL PARKWAY,+LANETT,+AL+36863&hl=en"
CHAPEL HILL POLICE DEPT.,CHAPEL HILL POLICE DEPT.,119 N. HORTON PKWY,CHAPEL HILL,TN,37034,"http://maps.google.com/maps?q=119 N. HORTON PKWY,+CHAPEL HILL,+TN+37034&hl=en"
CHAPIN POLICE DEPARTMENT,CHAPIN TOWN HALL,157 NW COLUMBIA AVE,CHAPIN,SC,29036,"http://maps.google.com/maps?q=157 NW COLUMBIA AVE,+CHAPIN,+SC+29036&hl=en"
CHARLTON COUNTY SHERIFF'S OFFICE,SOUTH EASTERN BANK,4233 2ND STREET,FOLKSTON,GA,31537,"http://maps.google.com/maps?q=4233 2ND STREET,+FOLKSTON,+GA+31537&hl=en"
CHEROKEE COUNTY SHERIFF'S OFFICE,"CHEROKEE CO. SHERIFF'S OFFICE 
												
													LAW ENFORCEMENT CENTER",312 EAST FREDERICK ST.(10AM-1PM ONLY!),GAFFNEY,SC,29340,"http://maps.google.com/maps?q=312 EAST FREDERICK ST.,+GAFFNEY,+SC+29340&hl=en"
CHESTER POLICE DEPARTMENT,WAL-MART,1691 JA COCHRAN BYPASS,CHESTER,SC,29706,"http://maps.google.com/maps?q=1691 JA COCHRAN BYPASS,+CHESTER,+SC+29706&hl=en"
CITY OF COLUMBIA POLICE DEPARTMENT,CITY OF COLUMBIA POLICE DEPARTMENT,1 JUSTICE SQUARE,COLUMBIA,SC,29201,"http://maps.google.com/maps?q=1 JUSTICE SQUARE,+COLUMBIA,+SC+29201&hl=en"
CITY OF COOKEVILLE POLICE DEPT.,ANDY'S PHARMACY,305 W. SPRING STREET,COOKEVILLE,TN,38501,"http://maps.google.com/maps?q=305 W. SPRING STREET,+COOKEVILLE,+TN+38501&hl=en"
CITY OF COOKEVILLE POLICE DEPT.,WALGREENS,950 N. WASHINGTON AVE.,COOKEVILLE,TN,38501,"http://maps.google.com/maps?q=950 N. WASHINGTON AVE.,+COOKEVILLE,+TN+38501&hl=en"
CLINTON POLICE DEPT.,CLINTON POLICE DEPT.,125 W. BROAD ST.,CLINTON,TN,37716,"http://maps.google.com/maps?q=125 W. BROAD ST.,+CLINTON,+TN+37716&hl=en"
COBB COUNTY POLICE DEPARTMENT,PRECINCT 1,2380 COBB PKWY,MARIETTA,GA,30060,"http://maps.google.com/maps?q=2380 COBB PKWY,+MARIETTA,+GA+30060&hl=en"
COFFEE COUNTY SHERIFF DEPARTMENT,FIRST VISION BANK,2134 HILLSBORO HWY.,MANCHESTER,TN,37355,"http://maps.google.com/maps?q=2134 HILLSBORO HWY.,+MANCHESTER,+TN+37355&hl=en"
COLUMBIA COUNTY SHERIFF'S OFFICE,EVANS SUB STATION,650-A RONALD REAGAN DRIVE,EVANS,GA,30809,"http://maps.google.com/maps?q=650-A RONALD REAGAN DRIVE,+EVANS,+GA+30809&hl=en"
CROSSVILLE POLICE DEPT.,CROSSVILLE POLICE DEPT.,115 HENRY ST.,CROSSVILLE,TN,38555,"http://maps.google.com/maps?q=115 HENRY ST.,+CROSSVILLE,+TN+38555&hl=en"
CULLMAN COUNTY SHERIFF,CULLMAN COUNTY SHERIFF,1910 BEECH AVENUE SE,CULLMAN,AL,35055,"http://maps.google.com/maps?q=1910 BEECH AVENUE SE,+CULLMAN,+AL+35055&hl=en"
CULLMAN POLICE DEPARTMENT,CULLMAN POLICE DEPARTMENT,601 SECOND AVENUE NE,CULLMAN,AL,35055,"http://maps.google.com/maps?q=601 SECOND AVENUE NE,+CULLMAN,+AL+35055&hl=en"
CUMBERLAND CO. SHERIFF'S DEPARTMENT,CUMBERLAND COUNTY SHERIFF,90 JUSTICE CENTER DR,CROSSVILLE,TN,38555,"http://maps.google.com/maps?q=90 JUSTICE CENTER DR,+CROSSVILLE,+TN+38555&hl=en"
DECATUR POLICE DEPARTMENT,DECATUR POLICE DEPARTMENT,420 WEST TRINITY PLACE,DECATUR,GA,30030,"http://maps.google.com/maps?q=420 WEST TRINITY PLACE,+DECATUR,+GA+30030&hl=en"
DEKALB COUNTY POLICE,CLIFTON SPRINGS HEALTH CENTER,3110 CLIFTON SPRINGS ROAD,LITHONIA,GA,30058,"http://maps.google.com/maps?q=3110 CLIFTON SPRINGS ROAD,+LITHONIA,+GA+30058&hl=en"
DEKALB COUNTY POLICE,DEKALB COUNTY PD TUCKER PRECINCT,4451 LAWRENCEVILLE HWY.,TUCKER,GA,30084,"http://maps.google.com/maps?q=4451 LAWRENCEVILLE HWY.,+TUCKER,+GA+30084&hl=en"
DEKALB COUNTY POLICE,DEKALB POLICE HEADQUARTERS,1960 W. EXCHANGE PLACE,TUCKER,GA,30084,"http://maps.google.com/maps?q=1960 W. EXCHANGE PLACE,+TUCKER,+GA+30084&hl=en"
DEKALB COUNTY POLICE,EAST DEKALB HEALTH CENTER,2277 S. STONE MOUNTAIN-LITHONIA ROAD,LITHONIA,GA,30058,"http://maps.google.com/maps?q=2277 S. STONE MOUNTAIN-LITHONIA ROAD,+LITHONIA,+GA+30058&hl=en"
DEKALB COUNTY POLICE,NORTH DEKALB HEALTH CENTER,"3807 CLAIRMONT RD., NE",CHAMBLEE,GA,30341,"http://maps.google.com/maps?q=3807 CLAIRMONT RD., NE,+CHAMBLEE,+GA+30341&hl=en"
DEKALB COUNTY POLICE,RICHARDSON HEALTH CENTER,445 WINN WAY,DECATUR,GA,30030,"http://maps.google.com/maps?q=445 WINN WAY,+DECATUR,+GA+30030&hl=en"
DUNLAP POLICE DEPT,DUNLAP POLICE DEPT,119 CHURCH ST,DUNLAP,TN,37327,"http://maps.google.com/maps?q=119 CHURCH ST,+DUNLAP,+TN+37327&hl=en"
EAST POINT POLICE DEPARTMENT,EAST POINT POLICE DEPARTMENT,2727 EAST POINT STREET,ATLANTA,GA,30344,"http://maps.google.com/maps?q=2727 EAST POINT STREET,+ATLANTA,+GA+30344&hl=en"
EAST RIDGE POLICE DEPARTMENT,WALGREENS,5301 RINGGOLD RD,EAST RIDGE,TN,37412,"http://maps.google.com/maps?q=5301 RINGGOLD RD,+EAST RIDGE,+TN+37412&hl=en"
EATONTON POLICE DEPARTMENT,EATONTON POLICE DEOARRTMENT,214 W. MARION STREET,EATONTON,GA,31024,"http://maps.google.com/maps?q=214 W. MARION STREET,+EATONTON,+GA+31024&hl=en"
ELGIN POLICE DEPARTMENT,ELGIN TOWN HALL,2469 MAIN STREET,ELGIN,SC,29045,"http://maps.google.com/maps?q=2469 MAIN STREET,+ELGIN,+SC+29045&hl=en"
ETOWAH COUNTY DRUG ENFORCEMENT UNIT,WALMART,340 E. MEIGHAN BLVD.,GADSDEN,AL,35903,"http://maps.google.com/maps?q=340 E. MEIGHAN BLVD.,+GADSDEN,+AL+35903&hl=en"
EUTAWVILLE POLICE DEPT,EUTAWVILLE POLICE DEPT,413 PORCHER AVE,EUTAWVILLE,SC,29048,"http://maps.google.com/maps?q=413 PORCHER AVE,+EUTAWVILLE,+SC+29048&hl=en"
FAIRFIELD GLADE POLICE DEPARTMENT,FAIRFIELD GLADE POLICE DEPT,7258 PEAVINE RD,CROSSVILLE,TN,38558,"http://maps.google.com/maps?q=7258 PEAVINE RD,+CROSSVILLE,+TN+38558&hl=en"
FANNIN COUNTY SHERIFF'S OFFICE,FANNIN COUNTY SHERIFF'S OFFICE,645 WEST FIRST STREET,BLUE RIDGE,GA,30513,"http://maps.google.com/maps?q=645 WEST FIRST STREET,+BLUE RIDGE,+GA+30513&hl=en"
FAYETTE COUNTY SHERIFF'S DEPARTMENT,FAYETTE COUNTY SHERIFF'S DEPARTMENT,155 JOHNSON AVENUE,FAYETTEVILLE,GA,30214,"http://maps.google.com/maps?q=155 JOHNSON AVENUE,+FAYETTEVILLE,+GA+30214&hl=en"
FAYETTEVILLE POLICE DEPARTMENT,FAYETTEVILLE POLICE DEPARTMENT,760 JIMMIE MAYFIELD BLVD.,NEWNAN,GA,30265,"http://maps.google.com/maps?q=760 JIMMIE MAYFIELD BLVD.,+NEWNAN,+GA+30265&hl=en"
FLORIDA NATIONAL GUARD,CHEEK AND SCOTT PHARMACY (JASPER),1150 US HWY 41 NWSUITE13,JASPER,FL,32052,"http://maps.google.com/maps?q=1150 US HWY 41 NW,+JASPER,+FL+32052&hl=en"
FOREST ACRES POLICE DEPARTMENT,FOREST ACRES POLICE DEPARTMENT,5205 N. TRENHOLM ROAD,COLUMBIA,SC,29206,"http://maps.google.com/maps?q=5205 N. TRENHOLM ROAD,+COLUMBIA,+SC+29206&hl=en"
FORT JACKSON POLICE DEPARTMENT,FORT JACKSON MAIN POST EXCHANGE,4110 MOSEBY STREET,COLUMBIA,SC,29207,"http://maps.google.com/maps?q=4110 MOSEBY STREET,+COLUMBIA,+SC+29207&hl=en"
FOUNTAIN INN POLICE DEPT.,FOUNTAIN INN POLICE DEPT.,300 N. MAIN STREET,FOUNTAIN INN,SC,29644,"http://maps.google.com/maps?q=300 N. MAIN STREET,+FOUNTAIN INN,+SC+29644&hl=en"
FRANKLIN COUNTY SHERIFF'S OFFICE,FRANKLIN COUNTY SHERIFF CID,159 A. T. MAULDIN DRIVE,CARNESVILLE,GA,30521,"http://maps.google.com/maps?q=159 A. T. MAULDIN DRIVE,+CARNESVILLE,+GA+30521&hl=en"
FRANKLIN COUNTY SHERIFF'S OFFICE,FRANKLIN COUNTY SHERIFF'S OFFICE,494 GEORGE FRALEY PKWY,WINCHESTER,TN,37398,"http://maps.google.com/maps?q=494 GEORGE FRALEY PKWY,+WINCHESTER,+TN+37398&hl=en"
GADSDEN COUNTY SHERIFF'S OFFICE,GADSDEN COUNTY SHERIFF'S OFFICE,339 EAST JEFFERSON STREET,QUINCY,FL,32351,"http://maps.google.com/maps?q=339 EAST JEFFERSON STREET,+QUINCY,+FL+32351&hl=en"
GARDENDALE POLICE DEPARTMENT,GARDENDALE POLICE DEPARTMENT,1309 DECATUR HIGHWAY,GARDENDALE,AL,35071,"http://maps.google.com/maps?q=1309 DECATUR HIGHWAY,+GARDENDALE,+AL+35071&hl=en"
GATLINBURG POLICE DEPT.,GATLINBURG PD,1230 E. PKWY,GATLINBURG,TN,37738,"http://maps.google.com/maps?q=1230 E. PKWY,+GATLINBURG,+TN+37738&hl=en"
GILES COUNTY SHERIFF'S DEPT.,CVS PHARMACY,709 W COLLEGE ST.,PULASKI,TN,38478,"http://maps.google.com/maps?q=709 W COLLEGE ST.,+PULASKI,+TN+38478&hl=en"
GLYNN/BRUNSWICK NARCOTICS ENFORCEMENT UNIT,"GLYNN COUNTY POLICE DEPT 
												
													ST. SIMONS ISLAND PRECINCT",1965 DEMERE ROAD,SAINT SIMONS ISLAND,GA,31522,"http://maps.google.com/maps?q=1965 DEMERE ROAD,+SAINT SIMONS ISLAND,+GA+31522&hl=en"
GREENVILLE HEALTH SYSTEM PD,GREENVILLE MEMORIAL HOSPITAL,701 GROVE RD,GREENVILLE,SC,29605,"http://maps.google.com/maps?q=701 GROVE RD,+GREENVILLE,+SC+29605&hl=en"
GREENVILLE HEALTH SYSTEM PD,GREER MEMORIAL HOSPITAL,830 S. BUNCOMBE RD.,GREER,SC,29650,"http://maps.google.com/maps?q=830 S. BUNCOMBE RD.,+GREER,+SC+29650&hl=en"
GREENVILLE HEALTH SYSTEM PD,HILLCREST MEMORIAL HOSPITAL,729 SE MAIN STREET,SIMPSONVILLE,SC,29681,"http://maps.google.com/maps?q=729 SE MAIN STREET,+SIMPSONVILLE,+SC+29681&hl=en"
GREENVILLE HEALTH SYSTEM PD,OCONEE MEMORIAL HOSPITAL,298 MEMORIAL DR,SENECA,SC,29672,"http://maps.google.com/maps?q=298 MEMORIAL DR,+SENECA,+SC+29672&hl=en"
GREENWOOD COUNTY SHERIFF'S OFFICE,GREENWOOD COUNTY SHERIFF'S OFFICE,528 EDGEFIELD STREET,GREENWOOD,SC,29646,"http://maps.google.com/maps?q=528 EDGEFIELD STREET,+GREENWOOD,+SC+29646&hl=en"
GREER POLICE DEPARTMENT,ACE ENVIRONMENTAL,315 BUNCOMBE ST.,GREER,SC,29651,"http://maps.google.com/maps?q=315 BUNCOMBE ST.,+GREER,+SC+29651&hl=en"
GRUNDY COUNTY SHERIFF'S OFFICE,"COALMONT 
												
													BESIDE L & L HARDWARE",38 S. INDUSTRIAL PARK RD.,COALMONT,TN,37313,"http://maps.google.com/maps?q=38 S. INDUSTRIAL PARK RD.,+COALMONT,+TN+37313&hl=en"
GWINNETT COUNTY POLICE DEPARTMENT,CITY OF PEACHTREE CORNERS CITY HALL,310 TECHNOLOGY PARKWAY,PEACHTREE CORNERS,GA,30092,"http://maps.google.com/maps?q=310 TECHNOLOGY PARKWAY,+PEACHTREE CORNERS,+GA+30092&hl=en"
GWINNETT COUNTY SHERIFF'S OFFICE,GWINNETT COUNTY POLICE DEPARTMENT,2900 UNIVESTIY PARKWAY,LAWRENCEVILLE,GA,30043,"http://maps.google.com/maps?q=2900 UNIVESTIY PARKWAY,+LAWRENCEVILLE,+GA+30043&hl=en"
HAMILTON COUNTY SHERIFF'S OFFICE,ELKS LODGE,1069 GRAYSVILLE RD,CHATTANOOGA,TN,37421,"http://maps.google.com/maps?q=1069 GRAYSVILLE RD,+CHATTANOOGA,+TN+37421&hl=en"
HARRIMAN POLICE DEPT.,WALGREENS,1797 ROANE STATE HWY,HARRIMAN,TN,37748,"http://maps.google.com/maps?q=1797 ROANE STATE HWY,+HARRIMAN,+TN+37748&hl=en"
HAVANA POLICE DEPARTMENT,HAVANA POLICE DEPARTMENT,121 E. 7TH AVENUE,HAVANA,FL,32333,"http://maps.google.com/maps?q=121 E. 7TH AVENUE,+HAVANA,+FL+32333&hl=en"
IRMO POLICE DEPARTMENT,IRMO POLICE DEPARTMENT,1230 COLUMBIA AVE.,IRMO,SC,29063,"http://maps.google.com/maps?q=1230 COLUMBIA AVE.,+IRMO,+SC+29063&hl=en"
JACKSON COUNTY SHERIFF'S OFFICE,SUNLAND CENTER,3700 WILLIAMS DR,MARIANNA,FL,32446,"http://maps.google.com/maps?q=3700 WILLIAMS DR,+MARIANNA,+FL+32446&hl=en"
JACKSON COUNTY SHERIFFS OFFICE,JACKSON COUNTY COURT HOUSE,102 EAST LAUREL STREET,SCOTTSBORO,AL,35768,"http://maps.google.com/maps?q=102 EAST LAUREL STREET,+SCOTTSBORO,+AL+35768&hl=en"
JEFFERSON COUNTY SHERIFF DEPARTMENT,JEFFERSON COUNTY SHERIFF DEPARTMENT,2651 CENTER POINT ROAD,BIRMINGHAM,AL,35215,"http://maps.google.com/maps?q=2651 CENTER POINT ROAD,+BIRMINGHAM,+AL+35215&hl=en"
JOHNS CREEK POLICE DEPARTMENT,EMORY JOHNS CREEK HOSPITAL,6325 HOSPITAL PARKWAY,JOHNS CREEK,GA,30097,"http://maps.google.com/maps?q=6325 HOSPITAL PARKWAY,+JOHNS CREEK,+GA+30097&hl=en"
JONESBORO POLICE DEPARTMENT,JONESBORO POLCE DEPARTMETN,170 S. MAIN STREET,JONESBORO,GA,30236,"http://maps.google.com/maps?q=170 S. MAIN STREET,+JONESBORO,+GA+30236&hl=en"
KENNESAW POLICE DEPARTMENT,CVS PHARMACY,2782 COBB PKWY.,KENNESAW,GA,30144,"http://maps.google.com/maps?q=2782 COBB PKWY.,+KENNESAW,+GA+30144&hl=en"
KERSHAW COUNTY SHERIFF'S OFFICE,KERSHAW CO. SHERIFF'S OFFICE,821 RIDGEWAY RD.,LUGOFF,SC,29078,"http://maps.google.com/maps?q=821 RIDGEWAY RD.,+LUGOFF,+SC+29078&hl=en"
KINGSTON POLICE DEPT.,FOOD CITY,1000 LADD LANDING BLVD.,KINGSTON,TN,37763,"http://maps.google.com/maps?q=1000 LADD LANDING BLVD.,+KINGSTON,+TN+37763&hl=en"
KNOXVILLE POLICE DEPARTMENT,KROGER,9225 KINGSTON PIKE,KNOXVILLE,TN,37922,"http://maps.google.com/maps?q=9225 KINGSTON PIKE,+KNOXVILLE,+TN+37922&hl=en"
LAVERGNE POLICE DEPARTMENT,KROGER,5145 MURFREESBORO RD,LA VERGNE,TN,37086,"http://maps.google.com/maps?q=5145 MURFREESBORO RD,+LA VERGNE,+TN+37086&hl=en"
LEBANON POLICE DEPARTMENT,WALGREENS,606 S. CUMBERLAND ST.,LEBANON,TN,37087,"http://maps.google.com/maps?q=606 S. CUMBERLAND ST.,+LEBANON,+TN+37087&hl=en"
LEE COUNTY SHERIFF'S OFFICE,LEE COUNTY SHERIFF'S OFFICE,1900 FREDERICK ROAD,OPELIKA,AL,36801,"http://maps.google.com/maps?q=1900 FREDERICK ROAD,+OPELIKA,+AL+36801&hl=en"
LEE COUNTY SHERIFF'S OFFICE,SMITHS STATION GOVERNMENT CENTER,2336 LEE RD 430,SMITHS STATION,AL,36877,"http://maps.google.com/maps?q=2336 LEE RD 430,+SMITHS STATION,+AL+36877&hl=en"
LEXINGTON CO. SHERIFF'S DEPARTMENT,"LEXINGTON COUNTY SHERIFF'S DEPT. 
												
													HEADQUARTERS",521 GIBSON ROAD,LEXINGTON,SC,29072,"http://maps.google.com/maps?q=521 GIBSON ROAD,+LEXINGTON,+SC+29072&hl=en"
LEXINGTON POLICE DEPARTMENT,CVS PHARMACY,5608 SUNSET BLVD.,LEXINGTON,SC,29072,"http://maps.google.com/maps?q=5608 SUNSET BLVD.,+LEXINGTON,+SC+29072&hl=en"
LINCOLN CO. SHERIFF'S DEPT,LINCOLN COUNTY HIGH SCHOOL,1233 HUNTSVILLE HWY,FAYETTEVILLE,TN,37334,"http://maps.google.com/maps?q=1233 HUNTSVILLE HWY,+FAYETTEVILLE,+TN+37334&hl=en"
LINEVILLE POLICE DEPARTMENT,LINEVILLE POLICE DEPARTMENT,40 2ND AVENUE,LINEVILLE,AL,36266,"http://maps.google.com/maps?q=40 2ND AVENUE,+LINEVILLE,+AL+36266&hl=en"
LIVINGSTON POLICE DEPARTMENT,LIVINGSTON POLICE DEPARTMENT,900 N. CHURCH ST,LIVINGSTON,TN,38570,"http://maps.google.com/maps?q=900 N. CHURCH ST,+LIVINGSTON,+TN+38570&hl=en"
MADISONVILLE POLICE DEPT.,MADISONVILLE POLICE DEPARTMENT,315 ENGLEWOOD RD.,MADISONVILLE,TN,37354,"http://maps.google.com/maps?q=315 ENGLEWOOD RD.,+MADISONVILLE,+TN+37354&hl=en"
MANCHESTER POLICE DEPARTMENT,"MANCHESTER POLICE DEPARTMENT 
												
													DRUG TAKE BACK DROP BOX",200 WEST FORT STREET,MANCHESTER,TN,37355,"http://maps.google.com/maps?q=200 WEST FORT STREET,+MANCHESTER,+TN+37355&hl=en"
MARSHALL COUNTY SHERIFF'S OFFICE,MARSHALL COUNTY SHERIFF'S OFFICE,209 1ST AVE N.,LEWISBURG,TN,37091,"http://maps.google.com/maps?q=209 1ST AVE N.,+LEWISBURG,+TN+37091&hl=en"
MC CORMICK POLICE DEPARTMENT,PINE ST. AND GOLD ST.,100 N. PINE ST.,MC CORMICK,SC,29835,"http://maps.google.com/maps?q=100 N. PINE ST.,+MC CORMICK,+SC+29835&hl=en"
MCINTOSH COUNTY SHERIFF'S OFFICE,FRED'S PHARMACY,5316 HWY 17,DARIEN,GA,31305,"http://maps.google.com/maps?q=5316 HWY 17,+DARIEN,+GA+31305&hl=en"
MCMINN COUNTY SHERIFF,CVS,928 DECATUR PIKE,ATHENS,TN,37303,"http://maps.google.com/maps?q=928 DECATUR PIKE,+ATHENS,+TN+37303&hl=en"
MCMINNVILLE POLICE DEPT.,MCMINNVILLE POLICE DEPARTMENT,204 RED ROAD,MCMINNVILLE,TN,37110,"http://maps.google.com/maps?q=204 RED ROAD,+MCMINNVILLE,+TN+37110&hl=en"
MEIGS COUNTY SHERIFF'S OFFICE,MEIGS COUNTY JAIL,410 RIVER ROAD,DECATUR,TN,37322,"http://maps.google.com/maps?q=410 RIVER ROAD,+DECATUR,+TN+37322&hl=en"
MERCER UNIVERSITY POLICE DEPARTMENT,"MERCER UNIVERSITY 
												
													PHARMACY ADMINISTRATION & CAFETERIA BLDG.",3001 MERCER UNIVERSITY DRIVE,ATLANTA,GA,30341,"http://maps.google.com/maps?q=3001 MERCER UNIVERSITY DRIVE,+ATLANTA,+GA+30341&hl=en"
MIDDLE TN STATE UNIVERSITY POLICE DEPARTMENT,MTSU HEALTH SERVICES,1848 BLUE RAIDER DRIVE,MURFREESBORO,TN,37132,"http://maps.google.com/maps?q=1848 BLUE RAIDER DRIVE,+MURFREESBORO,+TN+37132&hl=en"
MILTON POLICE DEPARTMENT,TARGET,13055 HIGHWAY 9,ALPHARETTA,GA,30004,"http://maps.google.com/maps?q=13055 HIGHWAY 9,+ALPHARETTA,+GA+30004&hl=en"
MONROE COUNTY SHERIFF OFFICE,MONROE COUNTY SHERIFF'S OFFICE,145 L. CAREY BITTICK DR,FORSYTH,GA,31029,"http://maps.google.com/maps?q=145 L. CAREY BITTICK DR,+FORSYTH,+GA+31029&hl=en"
MONROE COUNTY SHERIFF'S OFFICE,WALGREENS,4440 US 411,MADISONVILLE,TN,37354,"http://maps.google.com/maps?q=4440 US 411,+MADISONVILLE,+TN+37354&hl=en"
MONROE COUNTY SHERIFF'S OFFICE,WALGREENS,929 NEW HWY 68,SWEETWATER,TN,37874,"http://maps.google.com/maps?q=929 NEW HWY 68,+SWEETWATER,+TN+37874&hl=en"
MONROE POLICE DEPARTMENT,MONROE POLICE DEPARTMENT,WAYNE STREET,MONROE,GA,30655,"http://maps.google.com/maps?q=WAYNE STREET,+MONROE,+GA+30655&hl=en"
MONTEREY POLICE DEPARTMENT,FRED'S PHARMACY,104 S. HOLLY STREET,MONTEREY,TN,38574,"http://maps.google.com/maps?q=104 S. HOLLY STREET,+MONTEREY,+TN+38574&hl=en"
MONTEREY POLICE DEPARTMENT,MONTEREY DRUGS,201F NORTH ELMORE ST.,MONTEREY,TN,38574,"http://maps.google.com/maps?q=201F NORTH ELMORE ST.,+MONTEREY,+TN+38574&hl=en"
MONTEREY POLICE DEPARTMENT,MONTEREY POLICE DEPARTMENT,711 E. COMMERCIAL AVE.,MONTEREY,TN,38574,"http://maps.google.com/maps?q=711 E. COMMERCIAL AVE.,+MONTEREY,+TN+38574&hl=en"
MORGAN COUNTY SHERIFF'S OFFICE,MORGAN COUNTY SHERIFF'S OFFICE,414 MAIN ST.,WARTBURG,TN,37887,"http://maps.google.com/maps?q=414 MAIN ST.,+WARTBURG,+TN+37887&hl=en"
MT. JULIET POLICE DEPT.,MT. JULIET POLICE DEPT.,1019 CHARLIE DANIELS PKWY,MOUNT JULIET,TN,37122,"http://maps.google.com/maps?q=1019 CHARLIE DANIELS PKWY,+MOUNT JULIET,+TN+37122&hl=en"
MUSCOGEE COUNTY SHERIFFS OFFICE,HOLLYWOOD CONNECTION FAMILY FUN CENTE,1683 WHITTLESEY ROAD,COLUMBUS,GA,31904,"http://maps.google.com/maps?q=1683 WHITTLESEY ROAD,+COLUMBUS,+GA+31904&hl=en"
NASSAU COUNTY SHERIFF'S OFFICE,NASSAU COUNTY SHERIFF'S OFFICE,77151 CITIZENS CIR,YULEE,FL,32097,"http://maps.google.com/maps?q=77151 CITIZENS CIR,+YULEE,+FL+32097&hl=en"
NEWBERRY COUNTY SHERIFF'S OFFICE,NEWBERRY COUNTY SHERIFF'S OFFICE,550 WILSON RD.,NEWBERRY,SC,29108,"http://maps.google.com/maps?q=550 WILSON RD.,+NEWBERRY,+SC+29108&hl=en"
NORCROSS POLICE DEPARTMENT,NORCROSS POLICE DEPARTMENT,65 LAWRENCEVILLE STREET,NORCROSS,GA,30071,"http://maps.google.com/maps?q=65 LAWRENCEVILLE STREET,+NORCROSS,+GA+30071&hl=en"
NORTH AUGUSTA PUBLIC SAFETY,PARK'S PHARMACY,437 GEORGIA AVE,NORTH AUGUSTA,SC,29841,"http://maps.google.com/maps?q=437 GEORGIA AVE,+NORTH AUGUSTA,+SC+29841&hl=en"
OAK RIDGE POLICE DEPT.,OAK RIDGE POLICE DEPT.,200 S. TULANE AVE,OAK RIDGE,TN,37830,"http://maps.google.com/maps?q=200 S. TULANE AVE,+OAK RIDGE,+TN+37830&hl=en"
OCONEE COUNTY SHERIFF'S OFFICE,OCSO,300 S. CHURCH ST.,WALHALLA,SC,29691,"http://maps.google.com/maps?q=300 S. CHURCH ST.,+WALHALLA,+SC+29691&hl=en"
OCONEE COUNTY SHERIFF'S OFFICE,OCSO SUBSTATION,302 MEMORIAL DRIVE,SENECA,SC,29678,"http://maps.google.com/maps?q=302 MEMORIAL DRIVE,+SENECA,+SC+29678&hl=en"
ORANGEBURG COUNTY SHERIFF'S OFFICE,PIGGLY WIGGLY,2526 OLD EDISTO DR.US 301 SOUTH,ORANGEBURG,SC,29115,"http://maps.google.com/maps?q=2526 OLD EDISTO DR.,+ORANGEBURG,+SC+29115&hl=en"
ORANGEBURG COUNTY SHERIFF'S OFFICE,"RMC DIALYSIS ACCESS INSTITUTE 
												
													(OUTSIDE)",3000 ST MATTHEWS RD,ORANGEBURG,SC,29118,"http://maps.google.com/maps?q=3000 ST MATTHEWS RD,+ORANGEBURG,+SC+29118&hl=en"
ORANGEBURG DEPT OF PUBLIC SAFETY,STATION 2 FIRE DEPT,835 CHESTNUT ST.,ORANGEBURG,SC,29115,"http://maps.google.com/maps?q=835 CHESTNUT ST.,+ORANGEBURG,+SC+29115&hl=en"
OVERTON COUNTY SHERIFF'S DEPT.,R & M PHARMACY,1970 BRADFORD HICKS DR,LIVINGSTON,TN,38570,"http://maps.google.com/maps?q=1970 BRADFORD HICKS DR,+LIVINGSTON,+TN+38570&hl=en"
PEACHTREE CITY POLICE DEPARTMENT,PEACHTREE CITY POLICE DEPARTMENT,350 HIGHWAY 74 SOUTH,PEACHTREE CITY,GA,30269,"http://maps.google.com/maps?q=350 HIGHWAY 74 SOUTH,+PEACHTREE CITY,+GA+30269&hl=en"
PEMBROKE POLICE DEPARTMENT,PEMBROKE POLICE DEPARTMENT,154 W. RAILROAD ST.,PEMBROKE,GA,31321,"http://maps.google.com/maps?q=154 W. RAILROAD ST.,+PEMBROKE,+GA+31321&hl=en"
PHENIX CITY POLICE DEPARTMENT,CVS PHARMACY,2514 CRAWFORD ROAD,PHENIX CITY,AL,36867,"http://maps.google.com/maps?q=2514 CRAWFORD ROAD,+PHENIX CITY,+AL+36867&hl=en"
PHENIX CITY POLICE DEPARTMENT,NORTH PRECINCT,4301 PARK DRIVE,PHENIX CITY,AL,36867,"http://maps.google.com/maps?q=4301 PARK DRIVE,+PHENIX CITY,+AL+36867&hl=en"
PHENIX CITY POLICE DEPARTMENT,PHENIX CITY POLICE DEPARTMENT,1111 BROAD STREET,PHENIX CITY,AL,36867,"http://maps.google.com/maps?q=1111 BROAD STREET,+PHENIX CITY,+AL+36867&hl=en"
PHENIX CITY POLICE DEPARTMENT,SOUTH PRECINCT,1507 5TH STREET SOUTH,PHENIX CITY,AL,36869,"http://maps.google.com/maps?q=1507 5TH STREET SOUTH,+PHENIX CITY,+AL+36869&hl=en"
PICKENS COUNTY SHERIFF'S OFFICE,BAPTIST EASLEY HOSPITAL,200 FLEET DR,EASLEY,SC,29640,"http://maps.google.com/maps?q=200 FLEET DR,+EASLEY,+SC+29640&hl=en"
PICKENS COUNTY SHERIFF'S OFFICE,CANNON HOSPITAL,123 W G ACKER DR,PICKENS,SC,29671,"http://maps.google.com/maps?q=123 W G ACKER DR,+PICKENS,+SC+29671&hl=en"
PICKENS COUNTY SHERIFF'S OFFICE,CLEMSON FREE CLINIC,1200 CLEMSON,CLEMSON,SC,29631,"http://maps.google.com/maps?q=1200 CLEMSON,+CLEMSON,+SC+29631&hl=en"
PIGEON FORGE POLICE DEPARTMENT,KRISPY KREME DONUTS,4074 PARKWAY,PIGEON FORGE,TN,37863,"http://maps.google.com/maps?q=4074 PARKWAY,+PIGEON FORGE,+TN+37863&hl=en"
POOLER POLICE DEPARTMENT,CVS,500 POOLER PARKWAY,POOLER,GA,31322,"http://maps.google.com/maps?q=500 POOLER PARKWAY,+POOLER,+GA+31322&hl=en"
PUTNAM COUNTY SHERIFF DEPT.,NUNALLY DRUG STORE,226 WEST MAIN STREET,BAXTER,TN,38544,"http://maps.google.com/maps?q=226 WEST MAIN STREET,+BAXTER,+TN+38544&hl=en"
PUTNAM COUNTY SHERIFF DEPT.,WALGREENS 5474,500 SOUTH WILLOW AVENUE,COOKEVILLE,TN,38501,"http://maps.google.com/maps?q=500 SOUTH WILLOW AVENUE,+COOKEVILLE,+TN+38501&hl=en"
RANDOLPH COUNTY SHERIFF OFFICE,RANDOLPH COUNTY SHERIFF OFFICE,1 MAIN STREET,WEDOWEE,AL,36278,"http://maps.google.com/maps?q=1 MAIN STREET,+WEDOWEE,+AL+36278&hl=en"
RHEA COUNTY SHERIFF'S DEPT.,"SPRING CITY,  CITY HALL 
												
													TENT LOCATED IN THE FRONT PARKING LOT",229 FRONT STREET,SPRING CITY,TN,37381,"http://maps.google.com/maps?q=229 FRONT STREET,+SPRING CITY,+TN+37381&hl=en"
RHEA COUNTY SHERIFF'S DEPT.,"WALMART SUPERCENTER 
												
													TENT LOCATED AT THE PARKING LOT ENTRANCE",3034 RHEA COUNTY HWY,DAYTON,TN,37321,"http://maps.google.com/maps?q=3034 RHEA COUNTY HWY,+DAYTON,+TN+37321&hl=en"
RICHLAND CO. SHERIFF'S DEPARTMENT,RICHLAND CO. SHERIFF'S DEPARTMENT,5623 TWO NOTCH RD,COLUMBIA,SC,29223,"http://maps.google.com/maps?q=5623 TWO NOTCH RD,+COLUMBIA,+SC+29223&hl=en"
RICHMOND COUNTY SHERIFF'S OFFICE,CVS,1520 WALTON WAY,AUGUSTA,GA,30904,"http://maps.google.com/maps?q=1520 WALTON WAY,+AUGUSTA,+GA+30904&hl=en"
RICHMOND COUNTY SHERIFF'S OFFICE,CVS,2902 PEACH ORCHARD,AUGUSTA,GA,30906,"http://maps.google.com/maps?q=2902 PEACH ORCHARD,+AUGUSTA,+GA+30906&hl=en"
RICHMOND HILL POLICE DEPARTMENT,RICHMOND HILL POLICE DEPARTMENT,120 RICHARD DAVIS DRIVE,RICHMOND HILL,GA,31324,"http://maps.google.com/maps?q=120 RICHARD DAVIS DRIVE,+RICHMOND HILL,+GA+31324&hl=en"
RIVERDALE POLICE DEPARTMENT,RIVERDALE TOWN CENTER,7210 CHURCH ST,RIVERDALE,GA,30274,"http://maps.google.com/maps?q=7210 CHURCH ST,+RIVERDALE,+GA+30274&hl=en"
ROANOKE POLICE DEPARTMENT,ROANOKE POLICE DEPARTMENT,30 WEST POINT STREET,ROANOKE,AL,36274,"http://maps.google.com/maps?q=30 WEST POINT STREET,+ROANOKE,+AL+36274&hl=en"
ROCKDALE COUNTY SHERIFFS OFFICE,ROCKDALE COUNTY SHERIFF'S OFFICE,911 CHAMBERS DR,CONYERS,GA,30012,"http://maps.google.com/maps?q=911 CHAMBERS DR,+CONYERS,+GA+30012&hl=en"
ROCKWOOD POLICE DEPT,ROCKWOOD POLICE DEPT,115 N FRONT ST,ROCKWOOD,TN,37854,"http://maps.google.com/maps?q=115 N FRONT ST,+ROCKWOOD,+TN+37854&hl=en"
ROSWELL POLICE DEPARTMENT,ROSWELL RECYCLING CENTER,11570 MAXWELL RD,ALPHARETTA,GA,30009,"http://maps.google.com/maps?q=11570 MAXWELL RD,+ALPHARETTA,+GA+30009&hl=en"
ROYSTON POLICE DEPARTMENT,ROYSTON POLICE DEPARTMENT,830 CHURCH STREET,ROYSTON,GA,30662,"http://maps.google.com/maps?q=830 CHURCH STREET,+ROYSTON,+GA+30662&hl=en"
RUTHERFORD COUNTY SHERIFF'S OFFICE,CRUSH THE CRISIS,200 STONECREST BLVD.,SMYRNA,TN,37167,"http://maps.google.com/maps?q=200 STONECREST BLVD.,+SMYRNA,+TN+37167&hl=en"
RUTHERFORD COUNTY SHERIFF'S OFFICE,RUTHERFORD COUNTY SHERIFF'S OFFICE,940 NEW SALEM HIGHWAY,MURFREESBORO,TN,37129,"http://maps.google.com/maps?q=940 NEW SALEM HIGHWAY,+MURFREESBORO,+TN+37129&hl=en"
SAFE KIDS CHARLOTTE MECKLENBURG,"HARRIS TEETER 
												
													IN FRONT OF STORE",1704 CENTRAL AVENUE,CHARLOTTE,NC,28205,"http://maps.google.com/maps?q=1704 CENTRAL AVENUE,+CHARLOTTE,+NC+28205&hl=en"
SAFE KIDS CHARLOTTE MECKLENBURG,HARRIS TEETER - STONECREST,7852 REA RD,CHARLOTTE,NC,28277,"http://maps.google.com/maps?q=7852 REA RD,+CHARLOTTE,+NC+28277&hl=en"
SAFE KIDS CHARLOTTE MECKLENBURG,HARRIS TEETER- STEELECROFT,13000 S TRYON,CHARLOTTE,NC,28278,"http://maps.google.com/maps?q=13000 S TRYON,+CHARLOTTE,+NC+28278&hl=en"
SAFE KIDS CHARLOTTE MECKLENBURG,"HARRIS TETEER 
												
													IN FRONT OF STORE",2717 SOUTH BLVD,CHARLOTTE,NC,28209,"http://maps.google.com/maps?q=2717 SOUTH BLVD,+CHARLOTTE,+NC+28209&hl=en"
SAFE KIDS UNION COUNTY,UNION COUNTY MAIN SHERIFF'S OFFICE-WINGATE,3344 PRESSON ROAD,MONROE,NC,28112,"http://maps.google.com/maps?q=3344 PRESSON ROAD,+MONROE,+NC+28112&hl=en"
SAFE KIDS UNION COUNTY,"UNION COUNTY SHERIFF'S OFFICE 
												
													SATELLITE FACILITY- WESLEY CHAPEL FIRE DEPARTMENT #26",315 WAXHAW-INDIAN TRAIL RD,WAXHAW,NC,28173,"http://maps.google.com/maps?q=315 WAXHAW-INDIAN TRAIL RD,+WAXHAW,+NC+28173&hl=en"
SAFE KIDS UNION COUNTY,WAXHAW POLICE DEPARTMENT,3620 PROVIDENCE ROAD SOUTH,WAXHAW,NC,28173,"http://maps.google.com/maps?q=3620 PROVIDENCE ROAD SOUTH,+WAXHAW,+NC+28173&hl=en"
SCOTT COUNTY SHERIFF'S OFFICE,SCOTT COUNTY SHERIFF'S OFFICE,575 SCOTT HIGH DRIVE,HUNTSVILLE,TN,37756,"http://maps.google.com/maps?q=575 SCOTT HIGH DRIVE,+HUNTSVILLE,+TN+37756&hl=en"
SEVIER COUNTY SHERIFF'S OFFICE,SCSO SPECIAL OPERATIONS CENTER,735 MIDDLE CREEK ROAD,SEVIERVILLE,TN,37862,"http://maps.google.com/maps?q=735 MIDDLE CREEK ROAD,+SEVIERVILLE,+TN+37862&hl=en"
SEVIER COUNTY SHERIFF'S OFFICE,SEYMOUR FIRST BAPTIST CHURCH,11621 CHAPMAN HWY,SEYMOUR,TN,37865,"http://maps.google.com/maps?q=11621 CHAPMAN HWY,+SEYMOUR,+TN+37865&hl=en"
SHELBY COUNTY TASK FORCE,GREYSTONE YMCA,5414 HIGHWAY 280,BIRMINGHAM,AL,35242,"http://maps.google.com/maps?q=5414 HIGHWAY 280,+BIRMINGHAM,+AL+35242&hl=en"
SHELBY COUNTY TASK FORCE,VINCENT FIRE DEPARTMENT,42030 AL-25,VINCENT,AL,35178,"http://maps.google.com/maps?q=42030 AL-25,+VINCENT,+AL+35178&hl=en"
SIGNAL MOUNTAIN POLICE DEPARTMENT,SIGNAL MOUNTAIN POLICE DEPARTMENT,1111 RIDGEWAY AVENUE,SIGNAL MOUNTAIN,TN,37377,"http://maps.google.com/maps?q=1111 RIDGEWAY AVENUE,+SIGNAL MOUNTAIN,+TN+37377&hl=en"
SMYRNA POLICE DEPARTMENT,SMYRNA PD,400 ENON SPRINGS RD EAST,SMYRNA,TN,37167,"http://maps.google.com/maps?q=400 ENON SPRINGS RD EAST,+SMYRNA,+TN+37167&hl=en"
SNELLVILLE POLICE DEPARTMENT,SNELLVILLE POLICE DEPARTMENT,2315 WISTERIA DR.,SNELLVILLE,GA,30078,"http://maps.google.com/maps?q=2315 WISTERIA DR.,+SNELLVILLE,+GA+30078&hl=en"
SODDY DAISY POLICE DEPT.,SODDY DAISY POLICE DEPT,9835 DAYTON,SODDY DAISY,TN,37379,"http://maps.google.com/maps?q=9835 DAYTON,+SODDY DAISY,+TN+37379&hl=en"
SPARTA POLICE DEPARTMENT,WALGREEN DRUG STORE,483 WEST BOCKMAN WAY,SPARTA,TN,38583,"http://maps.google.com/maps?q=483 WEST BOCKMAN WAY,+SPARTA,+TN+38583&hl=en"
SPARTANBURG POLICE DEPARTMENT,BI-LO,2199 SOUTHPORT RD.,SPARTANBURG,SC,29306,"http://maps.google.com/maps?q=2199 SOUTHPORT RD.,+SPARTANBURG,+SC+29306&hl=en"
SPARTANBURG POLICE DEPARTMENT,CVS PHARMACY,87 GARNER RD.,SPARTANBURG,SC,29303,"http://maps.google.com/maps?q=87 GARNER RD.,+SPARTANBURG,+SC+29303&hl=en"
SPRING HILL POLICE DEPARTMENT,B & B PHARMACY,5407 MAIN STREET,SPRING HILL,TN,37174,"http://maps.google.com/maps?q=5407 MAIN STREET,+SPRING HILL,+TN+37174&hl=en"
SPRING HILL POLICE DEPARTMENT,"SPRING HILL POLICE DEPARTMENT 
												
													24/7 ACCESS",199 TOWN CENTER PKWY - LOWER LEVEL,SPRING HILL,TN,37174,"http://maps.google.com/maps?q=199 TOWN CENTER PKWY - LOWER LEVEL,+SPRING HILL,+TN+37174&hl=en"
SPRINGDALE POLICE DEPT,SPRINGDALE POLICE DEPT,2915 PLATT SPRINGS RD,WEST COLUMBIA,SC,29170,"http://maps.google.com/maps?q=2915 PLATT SPRINGS RD,+WEST COLUMBIA,+SC+29170&hl=en"
ST. MATTHEWS POLICE DEPT,ST. MATTHEWS POLICE DEPT.,304 AGNES ST.,SAINT MATTHEWS,SC,29135,"http://maps.google.com/maps?q=304 AGNES ST.,+SAINT MATTHEWS,+SC+29135&hl=en"
SUMTER COUNTY SHERIFF'S OFFICE,SUMTER COUNTY SHERIFF'S OFFICE,1281 N. MAIN STREET,SUMTER,SC,29150,"http://maps.google.com/maps?q=1281 N. MAIN STREET,+SUMTER,+SC+29150&hl=en"
SUMTER POLICE DEPARTMENT,SUMTER POLICE DEPARTMENT,107 E HAMPTON STREET,SUMTER,SC,29150,"http://maps.google.com/maps?q=107 E HAMPTON STREET,+SUMTER,+SC+29150&hl=en"
SWEETWATER POLICE DEPT.,SWEETWATER POLICE DEPT.,208 MONROE ST.,SWEETWATER,TN,37874,"http://maps.google.com/maps?q=208 MONROE ST.,+SWEETWATER,+TN+37874&hl=en"
SYLVESTER POLICE DEPARTMENT,PIGGLY WIGGLY,631 EAST FRANKLIN STREET,SYLVESTER,GA,31791,"http://maps.google.com/maps?q=631 EAST FRANKLIN STREET,+SYLVESTER,+GA+31791&hl=en"
TALLAHASSEE POLICE DEPARTMENT,TALLAHASSEE POLICE DEPARTMENT,234 E. 7TH AV,TALLAHASSEE,FL,32303,"http://maps.google.com/maps?q=234 E. 7TH AV,+TALLAHASSEE,+FL+32303&hl=en"
TALLAPOOSA COUNTY NARCOTICS TF,WALGREENS PHARMACY,3140 US 280,ALEXANDER CITY,AL,35010,"http://maps.google.com/maps?q=3140 US 280,+ALEXANDER CITY,+AL+35010&hl=en"
TATTNALL COUNTY SHERIFF'S OFFICE,GLENNVILLE POLICE DEPARTMENT,705 NORTH CASWELL STREET,GLENNVILLE,GA,30427,"http://maps.google.com/maps?q=705 NORTH CASWELL STREET,+GLENNVILLE,+GA+30427&hl=en"
TATTNALL COUNTY SHERIFF'S OFFICE,TATTNALL COUNTY SHERIFF'S OFFICE,108 W. BRAZELL STREET,REIDSVILLE,GA,30453,"http://maps.google.com/maps?q=108 W. BRAZELL STREET,+REIDSVILLE,+GA+30453&hl=en"
TRAVELERS REST PD,TRAVELERS REST POLICE DEPT,6711 STATE PARK RD.,TRAVELERS REST,SC,29690,"http://maps.google.com/maps?q=6711 STATE PARK RD.,+TRAVELERS REST,+SC+29690&hl=en"
TRUSSVILLE POLICE DEPARTMENT,TRUSSVILLE POLICE DEPARTMENT COURT,131 MAIN STREET,TRUSSVILLE,AL,35173,"http://maps.google.com/maps?q=131 MAIN STREET,+TRUSSVILLE,+AL+35173&hl=en"
TULLAHOMA POLICE DEPT,WALGREENS,700 NORTH JACKSON STREET,TULLAHOMA,TN,37388,"http://maps.google.com/maps?q=700 NORTH JACKSON STREET,+TULLAHOMA,+TN+37388&hl=en"
TYBEE ISLAND POLICE DEPARTMENT,TYBEE ISLAND YMCA,204 5TH STREET,TYBEE ISLAND,GA,31328,"http://maps.google.com/maps?q=204 5TH STREET,+TYBEE ISLAND,+GA+31328&hl=en"
UNION COUNTY SHERIFF'S OFFICE,UNION COUNTY SHERIFFS OFFICE,130 VETERANS STREET,MAYNARDVILLE,TN,37807,"http://maps.google.com/maps?q=130 VETERANS STREET,+MAYNARDVILLE,+TN+37807&hl=en"
UNION PUBLIC SAFETY DEPARTMENT,UNION PUBLIC SAFETY DEPT.,215 THOMPSON BLVD.,UNION,SC,29379,"http://maps.google.com/maps?q=215 THOMPSON BLVD.,+UNION,+SC+29379&hl=en"
US FEDERAL PROTECTIVE SERVICES,"US ENVIRONMENTAL PROTECTIN AGENCY (EPA) 
												
													COLLECTION IS APRIL 25-27, WEDNESDAY THRU FRIDAY","61 FORSYTH STREET SWATLANTA FEDERAL CENTER, SAM NUNN TOWER",ATLANTA,GA,30303,"http://maps.google.com/maps?q=61 FORSYTH STREET SW,+ATLANTA,+GA+30303&hl=en"
USC DIVISION OF LAW ENFORCEMENT/SAFETY,USC COLUMBIA CAMPUS,CORNER GREENE AND BULL ST.,COLUMBIA,SC,29208,"http://maps.google.com/maps?q=CORNER GREENE AND BULL ST.,+COLUMBIA,+SC+29208&hl=en"
VAN BUREN COUNTY SHERIFF DEPARTMENT,VAN BUREN COUNTY JAIL,17 VETERANS SQ.,SPENCER,TN,38585,"http://maps.google.com/maps?q=17 VETERANS SQ.,+SPENCER,+TN+38585&hl=en"
WAYNE COUNTY SHERIFF'S OFFICE & SAFE KIDS,WALMART,1100 N 1ST STREET,JESUP,GA,31545,"http://maps.google.com/maps?q=1100 N 1ST STREET,+JESUP,+GA+31545&hl=en"
WEST COLUMBIA POLICE DEPT.,BILO,2349 AUGUSTA RD,WEST COLUMBIA,SC,29169,"http://maps.google.com/maps?q=2349 AUGUSTA RD,+WEST COLUMBIA,+SC+29169&hl=en"
WEST COLUMBIA POLICE DEPT.,MEDICINE MART,1300 SUNSET BLVD,WEST COLUMBIA,SC,29169,"http://maps.google.com/maps?q=1300 SUNSET BLVD,+WEST COLUMBIA,+SC+29169&hl=en"
WEST COLUMBIA POLICE DEPT.,WALGREENS,1537 CHARLESTON HWY,WEST COLUMBIA,SC,29169,"http://maps.google.com/maps?q=1537 CHARLESTON HWY,+WEST COLUMBIA,+SC+29169&hl=en"
WHITE COUNTY SHERIFF  DEPARTMENT,WHITE COUNTY SHERIFF'S DEPARTMENT,111 DEPOT STREET,SPARTA,TN,38583,"http://maps.google.com/maps?q=111 DEPOT STREET,+SPARTA,+TN+38583&hl=en"
WILLIAMSON COUNTY SHERIFF'S OFFICE,WALGREENS PHARMACY,1509 MURFREESBORO RD,FRANKLIN,TN,37067,"http://maps.google.com/maps?q=1509 MURFREESBORO RD,+FRANKLIN,+TN+37067&hl=en"
WILSON COUNTY SHERIFF'S DEPARTMENT,GIBBS PHARMACY,1427 W. BADDOUR PKWY #B,LEBANON,TN,37087,"http://maps.google.com/maps?q=1427 W. BADDOUR PKWY #B,+LEBANON,+TN+37087&hl=en"
