Participant,CollectionSite,Address,City,State,Zip,MapURL
193 SPECIAL OPERATIONS WING,"193 SPECIAL OPERATIONS WING 
												
													MILITARY MEMBERS ONLY !!! NOT A PUBLIC DROP OFF SITE",CONSTELLATION COURT** FOR MILITARY ONLY***,HARRISBURG,PA,17112,"http://maps.google.com/maps?q=CONSTELLATION COURT,+HARRISBURG,+PA+17112&hl=en"
ABINGTON TOWNSHIP POLICE DEPARTMENT,ABINGTON TOWNSHIP POLICE DEPARTMENT,1166 OLD YORK ROAD,ABINGTON,PA,19001,"http://maps.google.com/maps?q=1166 OLD YORK ROAD,+ABINGTON,+PA+19001&hl=en"
AKRON BOROUGH POLICE DEPT,ROYER PHARMACY,113 S 7TH ST,AKRON,PA,17501,"http://maps.google.com/maps?q=113 S 7TH ST,+AKRON,+PA+17501&hl=en"
ALDAN POLICE DEPARTMENT,ALDAN MUNICIPAL BUILDING,ONE WEST PROVIDENCE ROAD,ALDAN,PA,19018,"http://maps.google.com/maps?q=ONE WEST PROVIDENCE ROAD,+ALDAN,+PA+19018&hl=en"
ALLEGANY COUNTY SHERIFF'S OFFICE,BOLIVAR VOL. FIRE DEPARTMENT,460 MAIN ST,BOLIVAR,NY,14715,"http://maps.google.com/maps?q=460 MAIN ST,+BOLIVAR,+NY+14715&hl=en"
ALLEGANY COUNTY SHERIFF'S OFFICE,RIVERWALK PLAZA,STATE ROUTE 417,WELLSVILLE,NY,14895,"http://maps.google.com/maps?q=STATE ROUTE 417,+WELLSVILLE,+NY+14895&hl=en"
ALLENTOWN POLICE DEPARTMENT,GIANT FOOD STORE #6074,3015 W. EMMAUS AVENUE,ALLENTOWN,PA,18103,"http://maps.google.com/maps?q=3015 W. EMMAUS AVENUE,+ALLENTOWN,+PA+18103&hl=en"
ALLENTOWN POLICE DEPARTMENT,REDNER'S MARKET,1201 AIRPORT ROAD,ALLENTOWN,PA,18109,"http://maps.google.com/maps?q=1201 AIRPORT ROAD,+ALLENTOWN,+PA+18109&hl=en"
ALLENTOWN POLICE DEPARTMENT,ST LUKES ALLENTOWN HOSPITAL,1736 HAMILTON ST,ALLENTOWN,PA,18104,"http://maps.google.com/maps?q=1736 HAMILTON ST,+ALLENTOWN,+PA+18104&hl=en"
ANDOVER POLICE DEPARTMENT,"ANDOVER POLICE STATION 
												
													973-383-5544",145 LAKE ILIFF RD.,NEWTON,NJ,07860,"http://maps.google.com/maps?q=145 LAKE ILIFF RD.,+NEWTON,+NJ+07860&hl=en"
AUBURN POLICE DEPARTMENT,"AUBURN POLICE DEPARTMENT 
												
													HQ",46 NORTH STREET,AUBURN,NY,13021,"http://maps.google.com/maps?q=46 NORTH STREET,+AUBURN,+NY+13021&hl=en"
AUBURN POLICE DEPARTMENT,KINNEY DRUGS,62 OWASCO ST.,AUBURN,NY,13021,"http://maps.google.com/maps?q=62 OWASCO ST.,+AUBURN,+NY+13021&hl=en"
BALDWINSVILLE POLICE DEPARTMENT,KINNEY DRUGS,21 E. GENESEE STREET,BALDWINSVILLE,NY,13027,"http://maps.google.com/maps?q=21 E. GENESEE STREET,+BALDWINSVILLE,+NY+13027&hl=en"
BENSALEM TWP POLICE DEPARTMENT,GIANT,2721 STREET RD,BENSALEM,PA,19020,"http://maps.google.com/maps?q=2721 STREET RD,+BENSALEM,+PA+19020&hl=en"
BENTON BOROUGH POLICE DEPT,BENTON VOL FIRE STATION,150 COLLEY ST,BENTON,PA,17814,"http://maps.google.com/maps?q=150 COLLEY ST,+BENTON,+PA+17814&hl=en"
BERWICK PD,BERWICK PD,1800 N MARKET ST,BERWICK,PA,18603,"http://maps.google.com/maps?q=1800 N MARKET ST,+BERWICK,+PA+18603&hl=en"
BETHLEHEM POLICE DEPARTMENT,WESTGATE MALL,2285 SCHOENERSVILLE ROAD,BETHLEHEM,PA,18017,"http://maps.google.com/maps?q=2285 SCHOENERSVILLE ROAD,+BETHLEHEM,+PA+18017&hl=en"
BETHLEHEM TWNSHP POLICE DEPARTMENT,CVS PHARMACY,4950 FREEMANSBURG AVENUE,EASTON,PA,18045,"http://maps.google.com/maps?q=4950 FREEMANSBURG AVENUE,+EASTON,+PA+18045&hl=en"
BETHLEHEM TWNSHP POLICE DEPARTMENT,GIANT PHARMACY #6366,3926 NAZARETH PIKE,BETHLEHEM,PA,18020,"http://maps.google.com/maps?q=3926 NAZARETH PIKE,+BETHLEHEM,+PA+18020&hl=en"
BETHLEHEM TWNSHP POLICE DEPARTMENT,"ST. LUKES HOSPITAL, ANDERSON CAMPUS",1872 ST LUKES BLVD,EASTON,PA,18045,"http://maps.google.com/maps?q=1872 ST LUKES BLVD,+EASTON,+PA+18045&hl=en"
BETHLEHEM TWNSHP POLICE DEPARTMENT,YOUNG'S PHARMACY,3708 FREEMANSBURG AVENUE,EASTON,PA,18045,"http://maps.google.com/maps?q=3708 FREEMANSBURG AVENUE,+EASTON,+PA+18045&hl=en"
BORDENTOWN TOWNSHIP POLICE DEPARTMENT,BORDENTOWN TOWNSHIP POLICE DEPARTMENT,1 MUNICIPAL DRIVE,BORDENTOWN,NJ,08505,"http://maps.google.com/maps?q=1 MUNICIPAL DRIVE,+BORDENTOWN,+NJ+08505&hl=en"
BRADFORD COUNTY SHERIFF'S OFFICE,MILLER'S PHARMACY,ROUTE 6,WYALUSING,PA,18853,"http://maps.google.com/maps?q=ROUTE 6,+WYALUSING,+PA+18853&hl=en"
BRANCHBURG TOWNSHIP POLICE DEPARTMENT,BRANCHBURG TOWNSHIP POLICE DEPARTMENT,590 OLD YORK ROAD,BRANCHBURG,NJ,08876,"http://maps.google.com/maps?q=590 OLD YORK ROAD,+BRANCHBURG,+NJ+08876&hl=en"
BRISTOL BOROUGH POLICE DEPT.,BRISTOL BOROUGH POLICE DEPARTMENT,250 POND STREET,BRISTOL,PA,19007,"http://maps.google.com/maps?q=250 POND STREET,+BRISTOL,+PA+19007&hl=en"
BROOKHAVEN POLICE DEPT,GIANT SUPERMARKET,4930 EDGMONT AVE,BROOKHAVEN,PA,19015,"http://maps.google.com/maps?q=4930 EDGMONT AVE,+BROOKHAVEN,+PA+19015&hl=en"
BROOME COUNTY SHERIFF'S DEPARTMENT,AMERICAN LEGION POST 1700,305 MAPLE STREET,ENDICOTT,NY,13760,"http://maps.google.com/maps?q=305 MAPLE STREET,+ENDICOTT,+NY+13760&hl=en"
BROOME COUNTY SHERIFF'S DEPARTMENT,BROOME COUNTY SHERIFF'S OFFICE,155 LT. VANWINKLE DR.,BINGHAMTON,NY,13905,"http://maps.google.com/maps?q=155 LT. VANWINKLE DR.,+BINGHAMTON,+NY+13905&hl=en"
BROOME COUNTY SHERIFF'S DEPARTMENT,JOHNSON CITY ELKS,4212 WATSON BLVD.,JOHNSON CITY,NY,13790,"http://maps.google.com/maps?q=4212 WATSON BLVD.,+JOHNSON CITY,+NY+13790&hl=en"
BROOME COUNTY SHERIFF'S DEPARTMENT,VESTAL FIRE STATION 4,3341 VESTAL PKWY EAST,VESTAL,NY,13850,"http://maps.google.com/maps?q=3341 VESTAL PKWY EAST,+VESTAL,+NY+13850&hl=en"
BROOME COUNTY SHERIFF'S DEPARTMENT,WINDSOR COMMUNITY CENTER,107 MAIN STREET,WINDSOR,NY,13865,"http://maps.google.com/maps?q=107 MAIN STREET,+WINDSOR,+NY+13865&hl=en"
BYRAM TWP. POLICE DEPARTMENT,CVS PHARMACY,77 RT. 206,STANHOPE,NJ,07874,"http://maps.google.com/maps?q=77 RT. 206,+STANHOPE,+NJ+07874&hl=en"
BYRAM TWP. POLICE DEPARTMENT,SHOP RITE,90 ROUTE 206,STANHOPE,NJ,07874,"http://maps.google.com/maps?q=90 ROUTE 206,+STANHOPE,+NJ+07874&hl=en"
CALIFON BOROUGH POLICE DEPARTMENT,CALIFON MUNICIPAL BUILDING,39 ACADEMY STREET,CALIFON,NJ,07830,"http://maps.google.com/maps?q=39 ACADEMY STREET,+CALIFON,+NJ+07830&hl=en"
CALN TOWNSHIP POLICE DEPARTMENT,CVS,101 REECEVILLE ROAD,COATESVILLE,PA,19320,"http://maps.google.com/maps?q=101 REECEVILLE ROAD,+COATESVILLE,+PA+19320&hl=en"
CAMILLUS POLICE DEPARTEMENT,POLICE HQ DROP BOX,4600 WEST GENESEE ST.,SYRACUSE,NY,13219,"http://maps.google.com/maps?q=4600 WEST GENESEE ST.,+SYRACUSE,+NY+13219&hl=en"
CATASAUQUA POLICE DEPARTMENT,CATASAUQUA POLICE DEPARTMENT,90 BRIDGE ST.,CATASAUQUA,PA,18032,"http://maps.google.com/maps?q=90 BRIDGE ST.,+CATASAUQUA,+PA+18032&hl=en"
CATAWISSA BOROUGH POLICE DEPT,CATAWISSA BOROUGH PD,118 N 3RD ST,CATAWISSA,PA,17820,"http://maps.google.com/maps?q=118 N 3RD ST,+CATAWISSA,+PA+17820&hl=en"
CATTARAUGUS COUNTY SHERIFF'S DEPARTMENT,CATTARAUGUS COUNTY OFFICE BUILDING,1 LEO MOSS DRIVE,OLEAN,NY,14760,"http://maps.google.com/maps?q=1 LEO MOSS DRIVE,+OLEAN,+NY+14760&hl=en"
CAZENOVIA POLICE DEPARTMENT,KINNEY DRUGS PARKING LOT,41 ALBANY STREET,CAZENOVIA,NY,13035,"http://maps.google.com/maps?q=41 ALBANY STREET,+CAZENOVIA,+NY+13035&hl=en"
CENTRAL BUCKS REGIONAL POLICE DEPARTMENT,CVS PHARMACY,160 SOUTH MAIN STREET,DOYLESTOWN,PA,18901,"http://maps.google.com/maps?q=160 SOUTH MAIN STREET,+DOYLESTOWN,+PA+18901&hl=en"
CENTRAL BUCKS REGIONAL POLICE DEPARTMENT,RITE AID,306 TOWN CENTER,NEW BRITAIN,PA,18901,"http://maps.google.com/maps?q=306 TOWN CENTER,+NEW BRITAIN,+PA+18901&hl=en"
CENTRE CO SHERIFF'S OFFICE,BURKHOLDER'S COUNTRY MARKET,107 MARKET DRIVE,SPRING MILLS,PA,16875,"http://maps.google.com/maps?q=107 MARKET DRIVE,+SPRING MILLS,+PA+16875&hl=en"
CHENANGO COUNTY SHERIFF'S OFFICE,GREENE FIRE DEPARTMENT,NORTH CANAL STREET,GREENE,NY,13778,"http://maps.google.com/maps?q=NORTH CANAL STREET,+GREENE,+NY+13778&hl=en"
CHENANGO COUNTY SHERIFF'S OFFICE,NORTH NORWICH FIRE DEPARTMENT,108 BEACH LANE,NORTH NORWICH,NY,13814,"http://maps.google.com/maps?q=108 BEACH LANE,+NORTH NORWICH,+NY+13814&hl=en"
CHITTENANGO POLICE DEPARTMENT,KINNEY DRUGS,540 GENESEE ST.,CHITTENANGO,NY,13037,"http://maps.google.com/maps?q=540 GENESEE ST.,+CHITTENANGO,+NY+13037&hl=en"
CHITTENANGO POLICE DEPARTMENT,MEDICINE SHOPPE,1315 W GENESEE STREET,CHITTENANGO,NY,13037,"http://maps.google.com/maps?q=1315 W GENESEE STREET,+CHITTENANGO,+NY+13037&hl=en"
CHITTENANGO POLICE DEPARTMENT,POLICE HQS,222 GENESEE STREET,CHITTENANGO,NY,13037,"http://maps.google.com/maps?q=222 GENESEE STREET,+CHITTENANGO,+NY+13037&hl=en"
CICERO POLICE DEPARTMENT,KINNEY DRUGS,8150 THOMPSON RD.,CICERO,NY,13039,"http://maps.google.com/maps?q=8150 THOMPSON RD.,+CICERO,+NY+13039&hl=en"
CICERO POLICE DEPARTMENT,WALGREEN'S PARKING LOT,6189 ROUTE 31,CICERO,NY,13039,"http://maps.google.com/maps?q=6189 ROUTE 31,+CICERO,+NY+13039&hl=en"
CITY OF COATESVILLE POLICE DEPARTMENT,COATESVILLE POLICE DEPARTMENT,1 CITY HALL PLACE,COATESVILLE,PA,19320,"http://maps.google.com/maps?q=1 CITY HALL PLACE,+COATESVILLE,+PA+19320&hl=en"
CITY OF EASTON POLICE DEPT,CITY OF EASTON POLICE DEPT,48 N 4TH ST,EASTON,PA,18042,"http://maps.google.com/maps?q=48 N 4TH ST,+EASTON,+PA+18042&hl=en"
CLEMENTON POLICE DEPARTMENT,CLEMENTON POLICE DEPARTMENT,101 GIBBSBORO ROAD,CLEMENTON,NJ,08021,"http://maps.google.com/maps?q=101 GIBBSBORO ROAD,+CLEMENTON,+NJ+08021&hl=en"
CLINTON TOWNSHIP POLICE DEPARTMENT,CLINTON TOWNSHIP PUBLIC SAFETY BUILDING,1370 ROUTE 31 NORTH,ANNANDALE,NJ,08801,"http://maps.google.com/maps?q=1370 ROUTE 31 NORTH,+ANNANDALE,+NJ+08801&hl=en"
COAL TOWNSHIP POLICE DEPARTMENT,COAL TOWNSHIP POLICE DEPARTMENT,805 W. LYNN STREET,COAL TOWNSHIP,PA,17866,"http://maps.google.com/maps?q=805 W. LYNN STREET,+COAL TOWNSHIP,+PA+17866&hl=en"
COLLEGEVILLE POLICE DEPARTMENT,COLLEGEVILLE BOROUGH MUNICIPAL BUILDING,491 EAST MAIN ST,COLLEGEVILLE,PA,19426,"http://maps.google.com/maps?q=491 EAST MAIN ST,+COLLEGEVILLE,+PA+19426&hl=en"
COLLINGSWOOD POLICE DEPARTMENT,COLLINGSWOOD POLICE HQ,735 NORTH ATLANTIC AVENUE,COLLINGSWOOD,NJ,08108,"http://maps.google.com/maps?q=735 NORTH ATLANTIC AVENUE,+COLLINGSWOOD,+NJ+08108&hl=en"
DANVILLE POLICE DEPARTMENT,DANVILLE POLICE DEPARTMENT,453 MILL STREET,DANVILLE,PA,17821,"http://maps.google.com/maps?q=453 MILL STREET,+DANVILLE,+PA+17821&hl=en"
DEA NEW YORK DIVISION,"DEPARTMENT OF FAMILY SERVICES ROBERT TRAVIS BLDG 
												
													SUSAN CLARK",16 COMMUNITY LANE,LIBERTY,NY,12754,"http://maps.google.com/maps?q=16 COMMUNITY LANE,+LIBERTY,+NY+12754&hl=en"
DEA NEW YORK DIVISION,"FALLSBURG POLICE STATION 
												
													ALETA M. GOMEZ 845.794.8080  X170",19 RAILROAD PLAZA,SOUTH FALLSBURG,NY,12779,"http://maps.google.com/maps?q=19 RAILROAD PLAZA,+SOUTH FALLSBURG,+NY+12779&hl=en"
DEA NEW YORK DIVISION,"JEFFERSON PHARMACY 
												
													SUSAN CLARK",4892 MAIN STREET,JEFFERSONVILLE,NY,12748,"http://maps.google.com/maps?q=4892 MAIN STREET,+JEFFERSONVILLE,+NY+12748&hl=en"
DEA NEW YORK DIVISION,"LIBERTY POLICE DEPARTMENT 
												
													ALETA M. GOMEZ  845.794.8080  X170",159 NORTH MAIN STREET,LIBERTY,NY,12754,"http://maps.google.com/maps?q=159 NORTH MAIN STREET,+LIBERTY,+NY+12754&hl=en"
DEA NEW YORK DIVISION,"RIVRESIDE REMEDIES 
												
													SUSAN CLARK",39 LOWER MAIN STREET,CALLICOON,NY,12723,"http://maps.google.com/maps?q=39 LOWER MAIN STREET,+CALLICOON,+NY+12723&hl=en"
DEA NEW YORK DIVISION,"TUSTEN TOWN 
												
													SUSAN CLARK",210 BRIDGE STREET,NARROWSBURG,NY,12764,"http://maps.google.com/maps?q=210 BRIDGE STREET,+NARROWSBURG,+NY+12764&hl=en"
DELANCO TOWNSHIP POLICE DEPARTMENT,DELANCO TOWNSHIP POLICE DEPARTMENT,770 COOPERSTOWN ROAD,DELANCO,NJ,08075,"http://maps.google.com/maps?q=770 COOPERSTOWN ROAD,+DELANCO,+NJ+08075&hl=en"
DELAWARE TOWNSHIP POLICE,DELAWARE TOWNSHIP POLICE HQ,816 SERGEANTSVILLE ROAD,STOCKTON,NJ,08559,"http://maps.google.com/maps?q=816 SERGEANTSVILLE ROAD,+STOCKTON,+NJ+08559&hl=en"
DELRAN TWP. POLICE DEPARTMENT,"DELRAN TWP. POLICE DEPARTMENT 
												
													856-461-4498",900 CHESTER AVE.,DELRAN TOWNSHIP,NJ,08075,"http://maps.google.com/maps?q=900 CHESTER AVE.,+DELRAN TOWNSHIP,+NJ+08075&hl=en"
DERRY TOWNSHIP POLICE DEPARTMENT,"PENN STATE HERSHEY MEDICAL CENTER 
												
													ACADEMIC SUPPORT BUILDING",90 HOPE DR.,HERSHEY,PA,17033,"http://maps.google.com/maps?q=90 HOPE DR.,+HERSHEY,+PA+17033&hl=en"
DEWITT POLICE DEPARTMENT,KINNEY DRUGS,307 NOTTINGHAM ROAD,SYRACUSE,NY,13210,"http://maps.google.com/maps?q=307 NOTTINGHAM ROAD,+SYRACUSE,+NY+13210&hl=en"
DOUGLASS TOWNSHIP POLICE,GIANT,173 HOLLY RD,GILBERTSVILLE,PA,19525,"http://maps.google.com/maps?q=173 HOLLY RD,+GILBERTSVILLE,+PA+19525&hl=en"
DOWNINGTOWN POLICE DEPARTMENT,DOWNINGTOWN POLICE DEPARTMENT,10 WEST LANCASTER AVE.,DOWNINGTOWN,PA,19335,"http://maps.google.com/maps?q=10 WEST LANCASTER AVE.,+DOWNINGTOWN,+PA+19335&hl=en"
DOYLESTOWN TWP POLICE DEPT.,DOYLESTOWN HOSPITAL,595 W. STATE STREET,DOYLESTOWN,PA,18901,"http://maps.google.com/maps?q=595 W. STATE STREET,+DOYLESTOWN,+PA+18901&hl=en"
DUBLIN BOROUGH POLICE DEPARTMENT,DUBLIN IGA FOODSTORE,161 NORTH MAIN STREET,DUBLIN,PA,18917,"http://maps.google.com/maps?q=161 NORTH MAIN STREET,+DUBLIN,+PA+18917&hl=en"
DURYEA POLICE DEPARTMENT,DURYEA BOROUGH  TOWN HALL BUILDING,315 MAIN STREET,DURYEA,PA,18642,"http://maps.google.com/maps?q=315 MAIN STREET,+DURYEA,+PA+18642&hl=en"
EAST LAMPERTER TWP POLICE DEPT,ROYER PHARMACY,335 W MAIN ST,LEOLA,PA,17540,"http://maps.google.com/maps?q=335 W MAIN ST,+LEOLA,+PA+17540&hl=en"
EAST NORRITON POLICE DEPARTMENT,EAST NORRITON TOWNSHIP POLICE DEPARTMENT,2501 STANBRIDGE STREET,NORRISTOWN,PA,19401,"http://maps.google.com/maps?q=2501 STANBRIDGE STREET,+NORRISTOWN,+PA+19401&hl=en"
EAST WINDSOR TWP. POLICE DEPARTMENT,"EAST WINDSOR POLICE DEPARTMENT 
												
													609-448-5678",80 ONE MILE RD.,EAST WINDSOR,NJ,08520,"http://maps.google.com/maps?q=80 ONE MILE RD.,+EAST WINDSOR,+NJ+08520&hl=en"
EMMAUS POLICE DEPARTMENT,EMMAUS POLICE DEPARTMENT,400  JUBILEE STREET,EMMAUS,PA,18049,"http://maps.google.com/maps?q=400  JUBILEE STREET,+EMMAUS,+PA+18049&hl=en"
EPHRATA POLICE DEPT,ROYER PHARMACY,2 EAST MAIN ST,EPHRATA,PA,17522,"http://maps.google.com/maps?q=2 EAST MAIN ST,+EPHRATA,+PA+17522&hl=en"
EWING POLICE DEPARTMENT,"EWING TOWNSHIP MUNICIPAL BUILDING 
												
													609-882-1313",2 JAKE GARZIO DRIVE,EWING,NJ,08628,"http://maps.google.com/maps?q=2 JAKE GARZIO DRIVE,+EWING,+NJ+08628&hl=en"
FALLS TOWNSHIP POLICE DEPARTMENT,FALLS TOWNSHIP POLICE DEPARTMENT,188 LINCOLN HIGHWAY,FAIRLESS HILLS,PA,19030,"http://maps.google.com/maps?q=188 LINCOLN HIGHWAY,+FAIRLESS HILLS,+PA+19030&hl=en"
FLEMINGTON BOROUGH POLICE DEPARTMENT,FLEMINGTON BOROUGH POLICE DEPARTMENT,100 MAIN STREET,FLEMINGTON,NJ,08822,"http://maps.google.com/maps?q=100 MAIN STREET,+FLEMINGTON,+NJ+08822&hl=en"
FLORENCE TOWNSHIP POLICE DEPARTMENT,FLORENCE TOWNSHIP MUNICIPAL BUILDING,711 BROAD STREET,FLORENCE,NJ,08518,"http://maps.google.com/maps?q=711 BROAD STREET,+FLORENCE,+NJ+08518&hl=en"
FOREST CITY POLICE,FOREST CITY AREA EMERGENCY SERVICES,380 RAILROAD STREET,FOREST CITY,PA,18421,"http://maps.google.com/maps?q=380 RAILROAD STREET,+FOREST CITY,+PA+18421&hl=en"
FOUNTAIN HILL POLICE DEPARTMENT,FOUNTAIN HILL POLICE DEPARTMENT,941 LONG STREET,FOUNTAIN HILL,PA,18015,"http://maps.google.com/maps?q=941 LONG STREET,+FOUNTAIN HILL,+PA+18015&hl=en"
FOUNTAIN HILL POLICE DEPARTMENT,"ST LUKES HOSPITAL MEDICAL BLDG 
												
													PARKING LOT",801 OSTRUM ST,FOUNTAIN HILL,PA,18015,"http://maps.google.com/maps?q=801 OSTRUM ST,+FOUNTAIN HILL,+PA+18015&hl=en"
FRANKLIN TOWNSHIP POLICE DEPARTMENT,HUNTERDON COUNTY PROSECUTOR,65 PARK AVENUE,FLEMINGTON,NJ,08822,"http://maps.google.com/maps?q=65 PARK AVENUE,+FLEMINGTON,+NJ+08822&hl=en"
FRENCHTOWN BOROUGH POLICE DEPARTMENT,FRENCHTOWN BOROUGH POLICE DEPARTMENT,27 SECOND STREET,FRENCHTOWN,NJ,08825,"http://maps.google.com/maps?q=27 SECOND STREET,+FRENCHTOWN,+NJ+08825&hl=en"
GLOUCESTER CITY POLICE DEPARTMENT,GLOUCESTER CITY POLICE DEPT.,313 MONMOUTH ST.,GLOUCESTER,NJ,08030,"http://maps.google.com/maps?q=313 MONMOUTH ST.,+GLOUCESTER,+NJ+08030&hl=en"
GLOUCESTER TWP. POLICE DEPARTMENT,"GLOUCESTER TWP. POLICE HQ 
												
													856-228-4500",1261 CHEWS LANDING RD.,LAUREL SPRINGS,NJ,08021,"http://maps.google.com/maps?q=1261 CHEWS LANDING RD.,+LAUREL SPRINGS,+NJ+08021&hl=en"
GREAT BEND POLICE DEPARTMENT,GREAT BEND POLICE STATION,335 WASHINGTON STREET,GREAT BEND,PA,18821,"http://maps.google.com/maps?q=335 WASHINGTON STREET,+GREAT BEND,+PA+18821&hl=en"
HAMBURG BOROUGH POLICE,HAMBURG BOROUGH POLICE DEPT,61 N 3RD ST,HAMBURG,PA,19526,"http://maps.google.com/maps?q=61 N 3RD ST,+HAMBURG,+PA+19526&hl=en"
HAMILTON COLLEGE CAMPUS SAFETY,HAMILTON COLLEGE CAMPUS SAFETY,198 COLLEGE HILL ROAD,CLINTON,NY,13323,"http://maps.google.com/maps?q=198 COLLEGE HILL ROAD,+CLINTON,+NY+13323&hl=en"
HATBORO POLICE DEPARTMENT,HATBORO POLICE DEPARTMENT,120 EAST MONTGOMERY AVENUE,HATBORO,PA,19040,"http://maps.google.com/maps?q=120 EAST MONTGOMERY AVENUE,+HATBORO,+PA+19040&hl=en"
HATFIELD TOWNSHIP POLICE DEPARTMENT,HATFIELD TOWNSHIP ADMINISTRATIVE BUILDING,1950 SCHOOL ROAD,HATFIELD,PA,19440,"http://maps.google.com/maps?q=1950 SCHOOL ROAD,+HATFIELD,+PA+19440&hl=en"
HERKIMER COUNTY SHERIFF'S OFFICE,HERKIMER COUNTY SHERIFF'S OFFICE,320 NORTH MAIN STREETSUITE 2900,HERKIMER,NY,13350,"http://maps.google.com/maps?q=320 NORTH MAIN STREET,+HERKIMER,+NY+13350&hl=en"
HIGH BRIDGE POLICE,HIGH BRIDGE POLICE DEPARTMENT,99 WEST MAIN STREET,HIGH BRIDGE,NJ,08829,"http://maps.google.com/maps?q=99 WEST MAIN STREET,+HIGH BRIDGE,+NJ+08829&hl=en"
HIGHSPIRE BOROUGH POLICE DEPARTMENT,HIGHSPIRE BOROUGH BUILDING,640 ESHELMAN ST.,HIGHSPIRE,PA,17034,"http://maps.google.com/maps?q=640 ESHELMAN ST.,+HIGHSPIRE,+PA+17034&hl=en"
HILLSBOROUGH TWP POLICE DEPT.,HILLSBOROUGH TWP POLICE DEPT.,379 S. BRANCH RD.,HILLSBOROUGH,NJ,08844,"http://maps.google.com/maps?q=379 S. BRANCH RD.,+HILLSBOROUGH,+NJ+08844&hl=en"
HILLTOWN TOWNSHIP POLICE DEPARTMENT,HILLTOWN TOWNSHIP MUNICIPAL BUILDING,13 WEST CREAMERY ROAD,HILLTOWN,PA,18927,"http://maps.google.com/maps?q=13 WEST CREAMERY ROAD,+HILLTOWN,+PA+18927&hl=en"
HOLLAND TWP. POLICE DEPARTMENT.,"HOLLAND TWP. POLICE DEPARTMENT 
												
													908-995-4670",61 CHURCH ROAD,MILFORD,NJ,08848,"http://maps.google.com/maps?q=61 CHURCH ROAD,+MILFORD,+NJ+08848&hl=en"
HOPEWELL TWP. POLICE DEPARTMENT,HOPEWELL TWP POLICE DEPT.,201 WISHINGTON CROSSING PENNINGTON ROAD,TITUSVILLE,NJ,08560,"http://maps.google.com/maps?q=201 WISHINGTON CROSSING PENNINGTON ROAD,+TITUSVILLE,+NJ+08560&hl=en"
HORSHAM TOWNSHIP POLICE DEPARTMENT,GIANT FOOD STORE,314 HORSHAM ROAD,HORSHAM,PA,19044,"http://maps.google.com/maps?q=314 HORSHAM ROAD,+HORSHAM,+PA+19044&hl=en"
ILION POLICE DEPARTMENT,KINNEY DRUGS,40 1ST  STREET,ILION,NY,13357,"http://maps.google.com/maps?q=40 1ST  STREET,+ILION,+NY+13357&hl=en"
ITHACA POLICE DEPARTMENT,KINNEY DRUGS,513 N CAYUGA ST.,ITHACA,NY,14850,"http://maps.google.com/maps?q=513 N CAYUGA ST.,+ITHACA,+NY+14850&hl=en"
JENKINTOWN POLICE DEPARTMENT,JENKINTOWN POLICE DEPARTMENT,700 SUMMIT AVE,JENKINTOWN,PA,19046,"http://maps.google.com/maps?q=700 SUMMIT AVE,+JENKINTOWN,+PA+19046&hl=en"
KINGSTON TOWNSHIP POLICE DEPARTMENT,KINGSTON TOWNSHIP POLICE DEPARTMENT,180 EAST CENTER STREET,SHAVERTOWN,PA,18708,"http://maps.google.com/maps?q=180 EAST CENTER STREET,+SHAVERTOWN,+PA+18708&hl=en"
KIRKLAND POLICE DEPARTMENT,KINNEY DRUGS,12 FRANKLIN AVE.,CLINTON,NY,13323,"http://maps.google.com/maps?q=12 FRANKLIN AVE.,+CLINTON,+NY+13323&hl=en"
KULPMONT POLICE DEPARTMENT,KULPMONT POLICE DEPARTMENT,9 NORTH 8TH STREET,KULPMONT,PA,17834,"http://maps.google.com/maps?q=9 NORTH 8TH STREET,+KULPMONT,+PA+17834&hl=en"
LAMBERTVILLE CITY POLICE DEPARTMENT,LAMBERTVILLE CITY POLICE DEPARTMENT,349 NORTH MAIN STREET,LAMBERTVILLE,NJ,08530,"http://maps.google.com/maps?q=349 NORTH MAIN STREET,+LAMBERTVILLE,+NJ+08530&hl=en"
LAWRENCE TWP. POLICE DEPARTMENT,"LAWRENCE TWP. POLICE DEPARTMENT 
												
													609-896-0225",2211 LAWRENCE RD.,LAWRENCE TOWNSHIP,NJ,08648,"http://maps.google.com/maps?q=2211 LAWRENCE RD.,+LAWRENCE TOWNSHIP,+NJ+08648&hl=en"
LIMERICK TOWNSHIP POLICE DEPARTMENT,LIMERICK TOWNSHIP POLICE STATION,155 SOUTH LIMERICK ROAD,LIMERICK,PA,19468,"http://maps.google.com/maps?q=155 SOUTH LIMERICK ROAD,+LIMERICK,+PA+19468&hl=en"
LOWER MAKEFIELD TWP POLICE DEPARTMENT,LOWER MAKEFIELD TWP POLICE DEPARTMENT,1100 EDGEWOOD ROAD,YARDLEY,PA,19067,"http://maps.google.com/maps?q=1100 EDGEWOOD ROAD,+YARDLEY,+PA+19067&hl=en"
LOWER MERION TWP. POLICE DEPARTMENT,"LOWER MERION TWP. POLICE DEPARTMENT 
												
													LOBBY",71 E. LANCASTER AVE.,ARDMORE,PA,19003,"http://maps.google.com/maps?q=71 E. LANCASTER AVE.,+ARDMORE,+PA+19003&hl=en"
LOWER MORELAND POLICE DEPARTMENT,LOWER MORELAND POLICE DEPARTMENT,640 RED LION ROAD,HUNTINGDON VALLEY,PA,19006,"http://maps.google.com/maps?q=640 RED LION ROAD,+HUNTINGDON VALLEY,+PA+19006&hl=en"
LOWER PAXTON TOWNSHIP POLICE DEPARTMENT,LOWER PAXTON TOWNSHIP POLICE DEPARTMENT,425 PRINCE STREET,HARRISBURG,PA,17109,"http://maps.google.com/maps?q=425 PRINCE STREET,+HARRISBURG,+PA+17109&hl=en"
LOWER PROVIDENCE POLICE DEPARTMENT,LOWER PROVIDENCE POLICE DEPARTMENT,100 PARKLANE DR,EAGLEVILLE,PA,19403,"http://maps.google.com/maps?q=100 PARKLANE DR,+EAGLEVILLE,+PA+19403&hl=en"
LOWER SAUCON TOWNSHIP POLICE DEPARTMENNT,GIANT FOOD STORE,1880 LEITHSVILLE RD,HELLERTOWN,PA,18055,"http://maps.google.com/maps?q=1880 LEITHSVILLE RD,+HELLERTOWN,+PA+18055&hl=en"
LOWER SAUCON TOWNSHIP POLICE DEPARTMENNT,LOWER SAUCON TOWNSHIP POLICE DEPARTMENT,3700 OLD PHILADELPHIA PIKE,BETHLEHEM,PA,18015,"http://maps.google.com/maps?q=3700 OLD PHILADELPHIA PIKE,+BETHLEHEM,+PA+18015&hl=en"
LOWER SOUTHAMPTON TOWNSHIP POLICE DEPARTMENT,LOWER SOUTHAMPTON TOWNSHIP POLICE HEADQUARTERS,1500 DESIRE AVENUE,FEASTERVILLE TREVOSE,PA,19053,"http://maps.google.com/maps?q=1500 DESIRE AVENUE,+FEASTERVILLE TREVOSE,+PA+19053&hl=en"
LUMBERTON TOWNSHIP PD,MUNICIPAL BLDG,35 MUNICIPAL DRIV,LUMBERTON,NJ,08048,"http://maps.google.com/maps?q=35 MUNICIPAL DRIV,+LUMBERTON,+NJ+08048&hl=en"
MACUNGIE BOROUGH POLICE DEPT,MACUNGIE POLICE DEPT,21 LOCUST ST,MACUNGIE,PA,18062,"http://maps.google.com/maps?q=21 LOCUST ST,+MACUNGIE,+PA+18062&hl=en"
MANLIUS TOWN POLICE DEPARTMENT,POLICE HQ,1 ARKIE ALBANESE AVE,MANLIUS,NY,13104,"http://maps.google.com/maps?q=1 ARKIE ALBANESE AVE,+MANLIUS,+NY+13104&hl=en"
MANSFIELD BOROUGH POLICE DEPARTMENT,MANSFIELD BOROUGH POLICE DEPARTMENT,14 SOUTH MAIN STREET,MANSFIELD,PA,16933,"http://maps.google.com/maps?q=14 SOUTH MAIN STREET,+MANSFIELD,+PA+16933&hl=en"
MARLBOROUGH TOWNSHIP POLICE DEPARTMENT,MARLBOROUGH TOWNSHIP POLICE DEPARTMENT,6040 UPPER RIDGE ROAD,GREEN LANE,PA,18054,"http://maps.google.com/maps?q=6040 UPPER RIDGE ROAD,+GREEN LANE,+PA+18054&hl=en"
MARPLE TOWNSHIP POLICE DEPARTMENT,GIANT FOOD STORE,2910 SPRINGFIELD ROAD,BROOMALL,PA,19008,"http://maps.google.com/maps?q=2910 SPRINGFIELD ROAD,+BROOMALL,+PA+19008&hl=en"
MERCER COUNTY SHERIFF'S OFFICE,"MERCER COUNTY SHERIFF'S OFFICE 
												
													609-989-6111",640 S. BROAD STREETLOT ACROSS FROM BUILDING,TRENTON,NJ,08618,"http://maps.google.com/maps?q=640 S. BROAD STREET,+TRENTON,+NJ+08618&hl=en"
MERCHANTVILLE BORORUGH POLICE DEPARTMENT,CVS PHARMACY,18 W MAPLE AVE,MERCHANTVILLE,NJ,08109,"http://maps.google.com/maps?q=18 W MAPLE AVE,+MERCHANTVILLE,+NJ+08109&hl=en"
MIDDLETOWN POLICE,GIANT PHARMACY,450 EAST MAINT STREET,MIDDLETOWN,PA,17057,"http://maps.google.com/maps?q=450 EAST MAINT STREET,+MIDDLETOWN,+PA+17057&hl=en"
MIDDLETOWN TOWNSHIP POLICE DEPARTMENT,CVS  PHARMACY AT TARGET STORE,2331 E. LINCOLN HIGHWAY,LANGHORNE,PA,19047,"http://maps.google.com/maps?q=2331 E. LINCOLN HIGHWAY,+LANGHORNE,+PA+19047&hl=en"
MIDDLETOWN TOWNSHIP POLICE DEPARTMENT,GIANT FOOD PHARMACY,4001 NEW FALLS ROAD,LEVITTOWN,PA,19056,"http://maps.google.com/maps?q=4001 NEW FALLS ROAD,+LEVITTOWN,+PA+19056&hl=en"
MIDDLETOWN TOWNSHIP POLICE DEPARTMENT,ST MARY MEDICAL CENTER,1201 LANGHORNE-NEWTOWN ROAD,LANGHORNE,PA,19047,"http://maps.google.com/maps?q=1201 LANGHORNE-NEWTOWN ROAD,+LANGHORNE,+PA+19047&hl=en"
MONTGOMERY COUNTY DISTRICT ATTORNEY,UPPER MERION TOWNSHIP MUNICIPAL BUILDING,175 WEST VALLEY FORGE ROAD,KING OF PRUSSIA,PA,19406,"http://maps.google.com/maps?q=175 WEST VALLEY FORGE ROAD,+KING OF PRUSSIA,+PA+19406&hl=en"
MONTGOMERY TWP. POLICE DEPARTMENT,WEGMANS SUPERMARKET,1201 KNAPP ROAD,NORTH WALES,PA,19454,"http://maps.google.com/maps?q=1201 KNAPP ROAD,+NORTH WALES,+PA+19454&hl=en"
MONTICELLO POLICE DEPARTMENT,"MONTICELLO POLICE DEPT 
												
													CHIEF MUIR",2 PLEASANT STREET,MONTICELLO,NY,12701,"http://maps.google.com/maps?q=2 PLEASANT STREET,+MONTICELLO,+NY+12701&hl=en"
MONTOUR COUNTY SHERIFF'S OFFICE,MONTOUR COUNTY COURTHOUSE,253 MILL ST,DANVILLE,PA,17821,"http://maps.google.com/maps?q=253 MILL ST,+DANVILLE,+PA+17821&hl=en"
MOSCOW BOROUGH POLICE DEPARTMENT,MOSCOW BOROUGH MUNICIPAL BUILDING,123 VAN BRUNT ST,MOSCOW,PA,18444,"http://maps.google.com/maps?q=123 VAN BRUNT ST,+MOSCOW,+PA+18444&hl=en"
MOUNT CARMEL BOROUGH POLICE,MOUNT CARMEL BOROUGH POLICE DEPARTMENT,137 WEST FOURTH STREET,MOUNT CARMEL,PA,17851,"http://maps.google.com/maps?q=137 WEST FOURTH STREET,+MOUNT CARMEL,+PA+17851&hl=en"
MOUNT CARMEL TWP POLICE DEPARTMENT,MOUNT CARMEL BOROUGH POLICE DEPARTMENT,300 LAUREL STREET,MOUNT CARMEL,PA,17851,"http://maps.google.com/maps?q=300 LAUREL STREET,+MOUNT CARMEL,+PA+17851&hl=en"
MOUNT HOLLY TOWNSHIP,MT. HOLLY TOWNSHIP P.D.,23 WASHINGTON AVE.,MOUNT HOLLY,NJ,08060,"http://maps.google.com/maps?q=23 WASHINGTON AVE.,+MOUNT HOLLY,+NJ+08060&hl=en"
NARCOTICS STRIKE FORCE,"UNIVERSITY OF THE SCIENCES 
												
													ROSENBERGER HALL",600 S 43RD STROOM 100,PHILADELPHIA,PA,19104,"http://maps.google.com/maps?q=600 S 43RD ST,+PHILADELPHIA,+PA+19104&hl=en"
NEW BRITAIN TOWNSHIP POLICE DEPARTMENT,GIANT,4275 COUNTY LINE ROAD,CHALFONT,PA,18914,"http://maps.google.com/maps?q=4275 COUNTY LINE ROAD,+CHALFONT,+PA+18914&hl=en"
NEW BRITAIN TOWNSHIP POLICE DEPARTMENT,NEW BRITAIN TOWNSHIP POLICE DEPARTMENT,207 PARK AVENUE,CHALFONT,PA,18914,"http://maps.google.com/maps?q=207 PARK AVENUE,+CHALFONT,+PA+18914&hl=en"
NEW HANOVER TOWNSHIP POLICE DEPARTMENT,NEW HANOVER TOWNSHIP POLICE DEPARMENT,2943 N. CHARLOTTE STREET,GILBERTSVILLE,PA,19525,"http://maps.google.com/maps?q=2943 N. CHARLOTTE STREET,+GILBERTSVILLE,+PA+19525&hl=en"
NEW HANOVER TOWNSHIP POLICE DEPT,NEW HANOVER TOWNSHIP POLICE DEPT,2943 N CHARLOTTE ST,GILBERTSVILLE,PA,19525,"http://maps.google.com/maps?q=2943 N CHARLOTTE ST,+GILBERTSVILLE,+PA+19525&hl=en"
NEW HARTFORD POLICE DEPARTMENT,NEW HARTFORD POLICE DEPARTMENT,32 KELLOGG RD,NEW HARTFORD,NY,13413,"http://maps.google.com/maps?q=32 KELLOGG RD,+NEW HARTFORD,+NY+13413&hl=en"
NEW HOLLAND POLICE DEPT,GARDEN SPOT VILLAGE,433 SOUTH KINZER AVE,NEW HOLLAND,PA,17557,"http://maps.google.com/maps?q=433 SOUTH KINZER AVE,+NEW HOLLAND,+PA+17557&hl=en"
NEW HOPE POLICE DEPARTMENT,CVS PHARMACY,302 WEST BRIDGE STREET,NEW HOPE,PA,18938,"http://maps.google.com/maps?q=302 WEST BRIDGE STREET,+NEW HOPE,+PA+18938&hl=en"
NEW JERSEY STATE POLICE KINGWOOD,NEW JERSEY STATE POLICE,945 RT. 12,FRENCHTOWN,NJ,08825,"http://maps.google.com/maps?q=945 RT. 12,+FRENCHTOWN,+NJ+08825&hl=en"
NEW PALTZ POLICE DEPARTMENT,POLICE STATION,83 S. PUTT CORNERS RD.,NEW PALTZ,NY,12561,"http://maps.google.com/maps?q=83 S. PUTT CORNERS RD.,+NEW PALTZ,+NY+12561&hl=en"
NEWTON POLICE DEPARTMENT,NEWTON POLICE DEPARTMENT,39 TRINITY STREET,NEWTON,NJ,07860,"http://maps.google.com/maps?q=39 TRINITY STREET,+NEWTON,+NJ+07860&hl=en"
NEWTOWN BOROUGH POLCE DEPT.,NEWTOWN FIRE ASSOCIATION BUILDING,14 LIBERTY STREET,NEWTOWN,PA,18940,"http://maps.google.com/maps?q=14 LIBERTY STREET,+NEWTOWN,+PA+18940&hl=en"
NEWTOWN TWP. POLICE DEPARTMENT,NEWTOWN ATHLETIC CLUB,120 PHEASANT RUN,NEWTOWN,PA,18940,"http://maps.google.com/maps?q=120 PHEASANT RUN,+NEWTOWN,+PA+18940&hl=en"
NEWTOWN TWP. POLICE DEPARTMENT,NEWTOWN TWP. MUNICIPAL BUILDING,100 MUNICIPAL DRIVE,NEWTOWN,PA,18940,"http://maps.google.com/maps?q=100 MUNICIPAL DRIVE,+NEWTOWN,+PA+18940&hl=en"
NORTH WALES POLICE DEPARTMENT,NORTH WALES BOROUGH HALL,300 SCHOOL STREET,NORTH WALES,PA,19454,"http://maps.google.com/maps?q=300 SCHOOL STREET,+NORTH WALES,+PA+19454&hl=en"
NORTHERN LANCASTER COUNTY REGIONAL POLICE DEPT.,GIANT FOOD STORE,1008 LITITZ PIKE,LITITZ,PA,17543,"http://maps.google.com/maps?q=1008 LITITZ PIKE,+LITITZ,+PA+17543&hl=en"
NORTHUMBERLAND COUNTY SHERIFF'S OFFICE,NORTHUMBERLAND COUNTY COURT HOUSE,201 MARKET STREET,SUNBURY,PA,17801,"http://maps.google.com/maps?q=201 MARKET STREET,+SUNBURY,+PA+17801&hl=en"
NORTHUMBERLAND POLICE DEPT,NORRY PHARMACY,125 DUKE ST,NORTHUMBERLAND,PA,17857,"http://maps.google.com/maps?q=125 DUKE ST,+NORTHUMBERLAND,+PA+17857&hl=en"
NORTHWEST LANCASTER CO REGIONAL POLICE DEPT,GIANT FOOD STORE,1278 N MARKET ST,ELIZABETHTOWN,PA,17022,"http://maps.google.com/maps?q=1278 N MARKET ST,+ELIZABETHTOWN,+PA+17022&hl=en"
NORWICH POLICE DEPARTMENT,"NORWICH POLICE DEPARTMENT 
												
													POLICE HQ",18 E. MAIN STREET,NORWICH,NY,13815,"http://maps.google.com/maps?q=18 E. MAIN STREET,+NORWICH,+NY+13815&hl=en"
NYS UNIVERSITY POLICE @ ONEONTA,"NYS UNIVERSITY POLICE 
												
													SUNY ONEONTA",ALUMNI HALL51 SOUTH WEST DORM DRIVE,ONEONTA,NY,13820,"http://maps.google.com/maps?q=ALUMNI HALL,+ONEONTA,+NY+13820&hl=en"
OLD FORGE POLICE DEPARTMENT,CVS PHARMACY,101 S. MAIN STREET,OLD FORGE,PA,18518,"http://maps.google.com/maps?q=101 S. MAIN STREET,+OLD FORGE,+PA+18518&hl=en"
OLYPHANT POLICE DEPARTMENT,OLYPHANT BOROUGH POLICE STATION,604 EAST PARK STREET,OLYPHANT,PA,18447,"http://maps.google.com/maps?q=604 EAST PARK STREET,+OLYPHANT,+PA+18447&hl=en"
ONEIDA INDIAN NATION POLICE DEPARTMENT,TURNING STONE CASINO EVENT CENTER ENTRANCE,5218 PATRICK ROAD,VERONA,NY,13478,"http://maps.google.com/maps?q=5218 PATRICK ROAD,+VERONA,+NY+13478&hl=en"
ONEONTA POLICE DEPARTMENT,POLICE DEPARTMENT,79 MAIN STREET,ONEONTA,NY,13820,"http://maps.google.com/maps?q=79 MAIN STREET,+ONEONTA,+NY+13820&hl=en"
ONTARIO COUNTY OFFICE OF SHERIFF,"WEGMANS FOOD MARKET 
												
													EVENT ON  APRIL 28, 2018",345 EASTERN BLVD,CANANDAIGUA,NY,14424,"http://maps.google.com/maps?q=345 EASTERN BLVD,+CANANDAIGUA,+NY+14424&hl=en"
OXFORD POLICE DEPARTMENT,"OXFORD POLICE DEPARTMENT 
												
													POLICE HQ",20 LAFAYETTE PARK,OXFORD,NY,13830,"http://maps.google.com/maps?q=20 LAFAYETTE PARK,+OXFORD,+NY+13830&hl=en"
PALMYRA POLICE DEPARTMENT,PALMYRA POLICE DEPARTMENT,20 WEST BROAD ST.,PALMYRA,NJ,08065,"http://maps.google.com/maps?q=20 WEST BROAD ST.,+PALMYRA,+NJ+08065&hl=en"
PENNDEL BOROUGH POLICE DEPT,PENNDEL POLICE STATION,300 SOUTH BELLEVUE AVE,PENNDEL,PA,19047,"http://maps.google.com/maps?q=300 SOUTH BELLEVUE AVE,+PENNDEL,+PA+19047&hl=en"
PENNRIDGE REGIONAL POLICE DEPARTMENT,PENNRIDGE POLICE DEPARTMENT HQ,200 RIDGE ROAD,SELLERSVILLE,PA,18960,"http://maps.google.com/maps?q=200 RIDGE ROAD,+SELLERSVILLE,+PA+18960&hl=en"
PENNSYLVANIA STATE POLICE,"PENNSYLVANIA STATE POLICE 
												
													MEDIA BARRACKS",1342 WEST BALTIMORE PIKE,MEDIA,PA,19063,"http://maps.google.com/maps?q=1342 WEST BALTIMORE PIKE,+MEDIA,+PA+19063&hl=en"
PENNSYLVANIA STATE POLICE TROOP M BETHLEHEM,PA STATE POLICE,2960 AIRPORT RD,BETHLEHEM,PA,18017,"http://maps.google.com/maps?q=2960 AIRPORT RD,+BETHLEHEM,+PA+18017&hl=en"
"PENNSYLVANIA STATE POLICE, LYKENS STATION","PENNSYLVANIA STATE POLICE 
												
													LYKENS STATION",301 STATE DR,ELIZABETHVILLE,PA,17023,"http://maps.google.com/maps?q=301 STATE DR,+ELIZABETHVILLE,+PA+17023&hl=en"
PENNSYLVANIA STATE POLICE- PHILADELPHIA,PSP PHILADELPHIA,2201 BELMONT AVENUE,PHILADELPHIA,PA,19131,"http://maps.google.com/maps?q=2201 BELMONT AVENUE,+PHILADELPHIA,+PA+19131&hl=en"
PERKASIE BOROUGH POLICE DEPARTMENT,PERKASIE BOROUGH POLICE DEPARTMENT,311 SOUTH 9TH STREET,PERKASIE,PA,18944,"http://maps.google.com/maps?q=311 SOUTH 9TH STREET,+PERKASIE,+PA+18944&hl=en"
PHILADELPHIA POLICE DEPARTMENT,FIRE DEPARTMENT ENGINE 19 / LADDER 8,300 E. CHELTEN AVENUE,PHILADELPHIA,PA,19120,"http://maps.google.com/maps?q=300 E. CHELTEN AVENUE,+PHILADELPHIA,+PA+19120&hl=en"
PHILADELPHIA POLICE DEPARTMENT,FIRE DEPARTMENT ENGINE 2 / LADDER 3,2426-32 N. 2ND ST.,PHILADELPHIA,PA,19133,"http://maps.google.com/maps?q=2426-32 N. 2ND ST.,+PHILADELPHIA,+PA+19133&hl=en"
PHILADELPHIA POLICE DEPARTMENT,FIRE DEPARTMENT ENGINE 22/LADDER 31,3270 COMLY ROAD,PHILADELPHIA,PA,19154,"http://maps.google.com/maps?q=3270 COMLY ROAD,+PHILADELPHIA,+PA+19154&hl=en"
PHILADELPHIA POLICE DEPARTMENT,FIRE DEPARTMENT ENGINE 33,4750 RICHMOND ST.,PHILADELPHIA,PA,19137,"http://maps.google.com/maps?q=4750 RICHMOND ST.,+PHILADELPHIA,+PA+19137&hl=en"
PHILADELPHIA POLICE DEPARTMENT,FIRE DEPARTMENT ENGINE 43 / LADDER 9,2108-14 MARKET ST.,PHILADELPHIA,PA,19103,"http://maps.google.com/maps?q=2108-14 MARKET ST.,+PHILADELPHIA,+PA+19103&hl=en"
PHILADELPHIA POLICE DEPARTMENT,FIRE DEPARTMENT ENGINE 45 / LADDER 14,2401 N. 26TH ST.,PHILADELPHIA,PA,19132,"http://maps.google.com/maps?q=2401 N. 26TH ST.,+PHILADELPHIA,+PA+19132&hl=en"
PHILADELPHIA POLICE DEPARTMENT,FIRE DEPARTMENT ENGINE 50 / LADDER 12,1325 W. CAMBRIA ST.,PHILADELPHIA,PA,19132,"http://maps.google.com/maps?q=1325 W. CAMBRIA ST.,+PHILADELPHIA,+PA+19132&hl=en"
PHILADELPHIA POLICE DEPARTMENT,FIRE DEPARTMENT ENGINE 51 / LADDER 29,5931 OLD YORK RD.,PHILADELPHIA,PA,19141,"http://maps.google.com/maps?q=5931 OLD YORK RD.,+PHILADELPHIA,+PA+19141&hl=en"
PHILADELPHIA POLICE DEPARTMENT,FIRE DEPARTMENT ENGINE 54,1913 N. 63RD ST.,PHILADELPHIA,PA,19151,"http://maps.google.com/maps?q=1913 N. 63RD ST.,+PHILADELPHIA,+PA+19151&hl=en"
PHILADELPHIA POLICE DEPARTMENT,FIRE DEPARTMENT ENGINE 57,5559 CHESTNUT ST.,PHILADELPHIA,PA,19139,"http://maps.google.com/maps?q=5559 CHESTNUT ST.,+PHILADELPHIA,+PA+19139&hl=en"
PHILADELPHIA POLICE DEPARTMENT,FIRE DEPARTMENT ENGINE 60 / LADDER 19,2301 S. 24TH ST.,PHILADELPHIA,PA,19145,"http://maps.google.com/maps?q=2301 S. 24TH ST.,+PHILADELPHIA,+PA+19145&hl=en"
PHILADELPHIA POLICE DEPARTMENT,FIRE DEPARTMENT ENGINE 62 / LADDER 34,9845 BUSTLETON AVE.,PHILADELPHIA,PA,19115,"http://maps.google.com/maps?q=9845 BUSTLETON AVE.,+PHILADELPHIA,+PA+19115&hl=en"
PHILADELPHIA POLICE DEPARTMENT,FIRE DEPARTMENT ENGINE 68 / LADDER 13,801 S. 52ND ST.,PHILADELPHIA,PA,19143,"http://maps.google.com/maps?q=801 S. 52ND ST.,+PHILADELPHIA,+PA+19143&hl=en"
PHILADELPHIA POLICE DEPARTMENT,FIRE DEPARTMENT ENGINE 7 / LADDER 10,3798 KENSINGTON AVE.,PHILADELPHIA,PA,19124,"http://maps.google.com/maps?q=3798 KENSINGTON AVE.,+PHILADELPHIA,+PA+19124&hl=en"
PHILADELPHIA POLICE DEPARTMENT,FIRE DEPARTMENT ENGINE 71 / LADDER 28,1900 COTTMAN AVENUE,PHILADELPHIA,PA,19111,"http://maps.google.com/maps?q=1900 COTTMAN AVENUE,+PHILADELPHIA,+PA+19111&hl=en"
PHILADELPHIA POLICE DEPARTMENT,FIRE DEPARTMENT ENGINE 73,7515 OGONTZ AVE.,PHILADELPHIA,PA,19150,"http://maps.google.com/maps?q=7515 OGONTZ AVE.,+PHILADELPHIA,+PA+19150&hl=en"
PHILADELPHIA POLICE DEPARTMENT,FIRE DEPARTMENT ENGING 36 / LADDER 20,7818 FRANKFORD AVE.,PHILADELPHIA,PA,19136,"http://maps.google.com/maps?q=7818 FRANKFORD AVE.,+PHILADELPHIA,+PA+19136&hl=en"
PHILADELPHIA POLICE DEPARTMENT,FIRE DEPARTMENT ENGING 9 / LADDER 21,6900 GERMANTOWN AVENUE,PHILADELPHIA,PA,19119,"http://maps.google.com/maps?q=6900 GERMANTOWN AVENUE,+PHILADELPHIA,+PA+19119&hl=en"
PHILADELPHIA POLICE DEPARTMENT,FIRE DEPARTMENT LADDER 2,101-15 N. 4TH ST.,PHILADELPHIA,PA,19106,"http://maps.google.com/maps?q=101-15 N. 4TH ST.,+PHILADELPHIA,+PA+19106&hl=en"
PHILADELPHIA POLICE DEPARTMENT,FIRE DEPARTMENT LADDER 30,6630 RIDGE AVE.,PHILADELPHIA,PA,19128,"http://maps.google.com/maps?q=6630 RIDGE AVE.,+PHILADELPHIA,+PA+19128&hl=en"
PHILADELPHIA POLICE DEPARTMENT,FIRST CLASS PHARMACY,7316 FRANKFORD AVENUE,PHILADELPHIA,PA,19149,"http://maps.google.com/maps?q=7316 FRANKFORD AVENUE,+PHILADELPHIA,+PA+19149&hl=en"
PHILADELPHIA SHERIFF'S OFFICE,18TH STREET APOTHECARY,113 SOUTH 18TH STREET,PHILADELPHIA,PA,19103,"http://maps.google.com/maps?q=113 SOUTH 18TH STREET,+PHILADELPHIA,+PA+19103&hl=en"
PHILADELPHIA SHERIFF'S OFFICE,STATE REPRESENTATIVES OFC OF ANGEL CRUZ,"3503 B STREET, #7",PHILADELPHIA,PA,19134,"http://maps.google.com/maps?q=3503 B STREET, #7,+PHILADELPHIA,+PA+19134&hl=en"
PHOENIXVILLE POLICE DEPARTMENT,PHOENIXVILLE BOROUGH HALL,351 BRIDGE STREET,PHOENIXVILLE,PA,19460,"http://maps.google.com/maps?q=351 BRIDGE STREET,+PHOENIXVILLE,+PA+19460&hl=en"
PINE HILL POLICE DEPARTMENT,PINE HILL POLICE DEPARTMENT,48 WEST 6TH AVENUE,PINE HILL,NJ,08021,"http://maps.google.com/maps?q=48 WEST 6TH AVENUE,+PINE HILL,+NJ+08021&hl=en"
PLAINS TWP POLICE DEPT,PLAINS TWP PD,126 NORTH MAIN ST,WILKES BARRE,PA,18705,"http://maps.google.com/maps?q=126 NORTH MAIN ST,+WILKES BARRE,+PA+18705&hl=en"
PLUMSTEAD TWP. POLICE DEPARTMENT,K-MART CROSS KEYS PLACE SHOPPING CENTER,4377 SWAMP ROAD,DOYLESTOWN,PA,18902,"http://maps.google.com/maps?q=4377 SWAMP ROAD,+DOYLESTOWN,+PA+18902&hl=en"
PLYMOUTH TOWNSHIP POLICE DEPARTMENT,PLYMOUTH TOWNSHIP POLICE DEPARTMENT,700 BELVOIR ROAD,PLYMOUTH MEETING,PA,19462,"http://maps.google.com/maps?q=700 BELVOIR ROAD,+PLYMOUTH MEETING,+PA+19462&hl=en"
POCONO MOUNTAIN REGIONAL POLICE DEPT.,POCONO MOUNTAIN REGIONAL POLICE DEPARTMENT,2454 ROUTE 940,POCONO SUMMIT,PA,18346,"http://maps.google.com/maps?q=2454 ROUTE 940,+POCONO SUMMIT,+PA+18346&hl=en"
POCONO MOUNTAIN REGIONAL POLICE DEPT.,"ST LUKES UNIVERSAL HEALTH NETWORK 
												
													MONROE CAMPUS",100 ST LUKES LN,STROUDSBURG,PA,18360,"http://maps.google.com/maps?q=100 ST LUKES LN,+STROUDSBURG,+PA+18360&hl=en"
PORT JERVIS CITY POLICE DEPARTMENT,PORT JERVIS POLICE DEPARTMENT,20 HAMMOND STREET,PORT JERVIS,NY,12771,"http://maps.google.com/maps?q=20 HAMMOND STREET,+PORT JERVIS,+NY+12771&hl=en"
POTTSTOWN POLICE DEPARTMENT,BOROUGH OF POTTSTOWN,100 EAST HIGH ST,POTTSTOWN,PA,19464,"http://maps.google.com/maps?q=100 EAST HIGH ST,+POTTSTOWN,+PA+19464&hl=en"
QUAKERTOWN POLICE DEPARTMENT,"QUAKERTOWN BOROUGH HALL 
												
													PARKING LOT",35 N. 3RD STREET,QUAKERTOWN,PA,18951,"http://maps.google.com/maps?q=35 N. 3RD STREET,+QUAKERTOWN,+PA+18951&hl=en"
QUAKERTOWN POLICE DEPARTMENT,"ST LUKES QUAKERTOWN HOSPITAL 
												
													MAIN ENTRANCE",1021 PARK AVE,QUAKERTOWN,PA,18951,"http://maps.google.com/maps?q=1021 PARK AVE,+QUAKERTOWN,+PA+18951&hl=en"
RADNOR POLICE DEPARTMENT,RADNOR POLICE DEPARTMENT,301 IVEN AVENUE,WAYNE,PA,19087,"http://maps.google.com/maps?q=301 IVEN AVENUE,+WAYNE,+PA+19087&hl=en"
RARITAN BORO POLICE DEPARTMENT,RARITAN PD,20 FIRST ST.,RARITAN,NJ,08869,"http://maps.google.com/maps?q=20 FIRST ST.,+RARITAN,+NJ+08869&hl=en"
RARITAN TOWNSHIP POLICE DEPARTMENT,RARITAN TOWNSHIP POLICE DEPARTMENT,2 MUNICIPAL DRIVE,FLEMINGTON,NJ,08822,"http://maps.google.com/maps?q=2 MUNICIPAL DRIVE,+FLEMINGTON,+NJ+08822&hl=en"
RICHLAND TOWNSHIP POLICE DEPARTMENT,RICHLAND TOWNSHIP POLICE DEPARTMENT,229 CALIFORNIA ROAD,QUAKERTOWN,PA,18951,"http://maps.google.com/maps?q=229 CALIFORNIA ROAD,+QUAKERTOWN,+PA+18951&hl=en"
RICHLAND TOWNSHIP POLICE DEPARTMENT,RICHLAND TWP POLICE DEPT,229 CALIFORNIA RD,QUAKERTOWN,PA,18951,"http://maps.google.com/maps?q=229 CALIFORNIA RD,+QUAKERTOWN,+PA+18951&hl=en"
ROBBINSVILLE TOWNSHIP POLICE,ROBBINSVILLE TOWNSHIP POLICE,1117 ROUTE 130,ROBBINSVILLE,NJ,08691,"http://maps.google.com/maps?q=1117 ROUTE 130,+ROBBINSVILLE,+NJ+08691&hl=en"
ROCKLEDGE BOROUGH POLICE DEPARTMENT,ROCKLEDGE POLICE DEPARTMENT,1 PARK AVENUE,ROCKLEDGE,PA,19046,"http://maps.google.com/maps?q=1 PARK AVENUE,+ROCKLEDGE,+PA+19046&hl=en"
ROME POLICE DEPARTMENT,POLICE HQ,301 N. JAMES ST.,ROME,NY,13440,"http://maps.google.com/maps?q=301 N. JAMES ST.,+ROME,+NY+13440&hl=en"
ROYERSFORD POLICE DEPARTMENT,ROYERSFORD POLICE DEPARTMENT,300 MAIN STREET,ROYERSFORD,PA,19468,"http://maps.google.com/maps?q=300 MAIN STREET,+ROYERSFORD,+PA+19468&hl=en"
RUNNEMEDE POLICE DEPARTMENT,RUNNEMEDE POLICE DEPARTMENT,24 N. BLACK HORSE PIKE,RUNNEMEDE,NJ,08078,"http://maps.google.com/maps?q=24 N. BLACK HORSE PIKE,+RUNNEMEDE,+NJ+08078&hl=en"
SALISBURY TOWNSHIP POLICE DEPARTMENT,SOUTH MALL,3300 LEHIGH STREET,ALLENTOWN,PA,18103,"http://maps.google.com/maps?q=3300 LEHIGH STREET,+ALLENTOWN,+PA+18103&hl=en"
SCHUYLER COUNTY SHERIFF'S OFFICE,"ODESSA FIRE DEPARTMENT 
												
													28 APRIL 2018",300 EAST MAIN STREET,ODESSA,NY,14869,"http://maps.google.com/maps?q=300 EAST MAIN STREET,+ODESSA,+NY+14869&hl=en"
SCHUYLER COUNTY SHERIFF'S OFFICE,SCHUYLER COUNTY HUMAN SERVICES COMPLEX,323 OWEGO STREET,MONTOUR FALLS,NY,14865,"http://maps.google.com/maps?q=323 OWEGO STREET,+MONTOUR FALLS,+NY+14865&hl=en"
SCHUYLER COUNTY SHERIFF'S OFFICE,"TYRONE FIRE DEPARTMENT 
												
													28 APRIL 2018",3600 STATE RTE 226,TYRONE,NY,14887,"http://maps.google.com/maps?q=3600 STATE RTE 226,+TYRONE,+NY+14887&hl=en"
SCHUYLKILL COUNTY SHERIFF'S OFFICE,ASHLAND POLICE DEPARTMENT,401 SOUTH 18TH STREET,ASHLAND,PA,17921,"http://maps.google.com/maps?q=401 SOUTH 18TH STREET,+ASHLAND,+PA+17921&hl=en"
SCHUYLKILL COUNTY SHERIFF'S OFFICE,BUTLER TOWNSHIP POLICE DEPARTMENT,211 BROAD STREET,ASHLAND,PA,17921,"http://maps.google.com/maps?q=211 BROAD STREET,+ASHLAND,+PA+17921&hl=en"
SCHUYLKILL COUNTY SHERIFF'S OFFICE,CASS TOWNSHIP POLICE DEPARTMENT,1209 VALLEY ROAD,POTTSVILLE,PA,17901,"http://maps.google.com/maps?q=1209 VALLEY ROAD,+POTTSVILLE,+PA+17901&hl=en"
SCHUYLKILL COUNTY SHERIFF'S OFFICE,COALDALE POLICE DEPARTMENT,221-223 3RD STREET,COALDALE,PA,18218,"http://maps.google.com/maps?q=221-223 3RD STREET,+COALDALE,+PA+18218&hl=en"
SCHUYLKILL COUNTY SHERIFF'S OFFICE,FRACKVILLE POLICE DEPARTMENT,42 SOUTH CENTER STREET,FRACKVILLE,PA,17931,"http://maps.google.com/maps?q=42 SOUTH CENTER STREET,+FRACKVILLE,+PA+17931&hl=en"
SCHUYLKILL COUNTY SHERIFF'S OFFICE,GIRARDVILLE POLICE DEPARTMENT,4TH & B. STREET,GIRARDVILLE,PA,17935,"http://maps.google.com/maps?q=4TH & B. STREET,+GIRARDVILLE,+PA+17935&hl=en"
SCHUYLKILL COUNTY SHERIFF'S OFFICE,HEGINS POLICE DEPARTMENT,417 GAP STREET,VALLEY VIEW,PA,17983,"http://maps.google.com/maps?q=417 GAP STREET,+VALLEY VIEW,+PA+17983&hl=en"
SCHUYLKILL COUNTY SHERIFF'S OFFICE,HOMETOWN AUCTION,125 MAHANOY AVE RT 54,TAMAQUA,PA,18252,"http://maps.google.com/maps?q=125 MAHANOY AVE RT 54,+TAMAQUA,+PA+18252&hl=en"
SCHUYLKILL COUNTY SHERIFF'S OFFICE,MAHANOY CITY POLICE DEPARTMENT,239 EAST PINE STREET,MAHANOY CITY,PA,17948,"http://maps.google.com/maps?q=239 EAST PINE STREET,+MAHANOY CITY,+PA+17948&hl=en"
SCHUYLKILL COUNTY SHERIFF'S OFFICE,MINERSVILLE POLICE DEPARTMENT,15 NORTH DELAWARE AVENUE,MINERSVILLE,PA,17954,"http://maps.google.com/maps?q=15 NORTH DELAWARE AVENUE,+MINERSVILLE,+PA+17954&hl=en"
SCHUYLKILL COUNTY SHERIFF'S OFFICE,ORWIGSBURG POLICE DEPARTMENT,209 NORTH WARREN STREET,ORWIGSBURG,PA,17961,"http://maps.google.com/maps?q=209 NORTH WARREN STREET,+ORWIGSBURG,+PA+17961&hl=en"
SCHUYLKILL COUNTY SHERIFF'S OFFICE,PINE GROVE POLICE DEPARTMENT,ONE SNYDER DRIVE,PINE GROVE,PA,17963,"http://maps.google.com/maps?q=ONE SNYDER DRIVE,+PINE GROVE,+PA+17963&hl=en"
SCHUYLKILL COUNTY SHERIFF'S OFFICE,PORT CARBON POLICE DEPARTMENT,90 WASHINGTON STREET,PORT CARBON,PA,17965,"http://maps.google.com/maps?q=90 WASHINGTON STREET,+PORT CARBON,+PA+17965&hl=en"
SCHUYLKILL COUNTY SHERIFF'S OFFICE,RUSH TOWNSHIP POLICE DEPT,104 MAHANOY AVE,TAMAQUA,PA,18252,"http://maps.google.com/maps?q=104 MAHANOY AVE,+TAMAQUA,+PA+18252&hl=en"
SCHUYLKILL COUNTY SHERIFF'S OFFICE,SAINT CLAIR POLICE DEPARTMENT,24 NORTH 2ND STREET,SAINT CLAIR,PA,17970,"http://maps.google.com/maps?q=24 NORTH 2ND STREET,+SAINT CLAIR,+PA+17970&hl=en"
SCHUYLKILL COUNTY SHERIFF'S OFFICE,SAINT LUKES MINERS CAMPUS,360 WEST RUDDLE ST,COALDALE,PA,18218,"http://maps.google.com/maps?q=360 WEST RUDDLE ST,+COALDALE,+PA+18218&hl=en"
SCHUYLKILL COUNTY SHERIFF'S OFFICE,"SCHUYLKILL COUNTY COURT HOUSE (SECURITY ENTRANCE) 
												
													SECURITY ENTRANCE",401 NORTH 2ND STREET,POTTSVILLE,PA,17901,"http://maps.google.com/maps?q=401 NORTH 2ND STREET,+POTTSVILLE,+PA+17901&hl=en"
SCHUYLKILL COUNTY SHERIFF'S OFFICE,SCHUYLKILL HAVEN POLICE DEPARTMENT,220 PARKWAY AVENUE,SCHUYLKILL HAVEN,PA,17972,"http://maps.google.com/maps?q=220 PARKWAY AVENUE,+SCHUYLKILL HAVEN,+PA+17972&hl=en"
SCHUYLKILL COUNTY SHERIFF'S OFFICE,SHENANDOAH POLICE DEPARTMENT,15 WEST WASHINGTON STREET,SHENANDOAH,PA,17976,"http://maps.google.com/maps?q=15 WEST WASHINGTON STREET,+SHENANDOAH,+PA+17976&hl=en"
SCHUYLKILL COUNTY SHERIFF'S OFFICE,TAMAQUA POLICE DEPARTMENT,320 BROAD STREET,TAMAQUA,PA,18252,"http://maps.google.com/maps?q=320 BROAD STREET,+TAMAQUA,+PA+18252&hl=en"
SCHUYLKILL COUNTY SHERIFF'S OFFICE,TREMONT POLICE DEPARTMENT,19 NORTH PINE STREET,TREMONT,PA,17981,"http://maps.google.com/maps?q=19 NORTH PINE STREET,+TREMONT,+PA+17981&hl=en"
SCRANTON POLICE DEPARTMENT,SCRANTON POLICE DEPARTMENT,100 S. WASHINGTON AVENUE,SCRANTON,PA,18503,"http://maps.google.com/maps?q=100 S. WASHINGTON AVENUE,+SCRANTON,+PA+18503&hl=en"
SHAMOKIN POLICE DEPARTMENT,SHAMOKIN POLICE DEPARTMENT,511 NORTH FRANKLIN STREET,SHAMOKIN,PA,17872,"http://maps.google.com/maps?q=511 NORTH FRANKLIN STREET,+SHAMOKIN,+PA+17872&hl=en"
SHERRILL POLICE DEPARTMENT,"SHERRILL POLICE DEPARTMENT 
												
													POLICE HQ",373 SHERRILL ROAD,SHERRILL,NY,13461,"http://maps.google.com/maps?q=373 SHERRILL ROAD,+SHERRILL,+NY+13461&hl=en"
SIDNEY POLICE DEPARTMENT,SIDNEY POLICE DEPARTMENT,21 LIBERTY STREET,SIDNEY,NY,13838,"http://maps.google.com/maps?q=21 LIBERTY STREET,+SIDNEY,+NY+13838&hl=en"
SOLEBURY TOWNSHIP POLICE DEPARTMENT,GIANT FOOD STORE,6542 LOGAN SQUARE,NEW HOPE,PA,18938,"http://maps.google.com/maps?q=6542 LOGAN SQUARE,+NEW HOPE,+PA+18938&hl=en"
SOLEBURY TOWNSHIP POLICE DEPARTMENT,SOLEBURY TOWNSHIP POLICE DEPARTMENT,3092 SUGAN ROAD,NEW HOPE,PA,18938,"http://maps.google.com/maps?q=3092 SUGAN ROAD,+NEW HOPE,+PA+18938&hl=en"
SOMERVILLE POLICE DEPT.,SOMERVILLE POLICE DEPT.,24 SOUTH BRIDGE ST.,SOMERVILLE,NJ,08876,"http://maps.google.com/maps?q=24 SOUTH BRIDGE ST.,+SOMERVILLE,+NJ+08876&hl=en"
SOUDERTON BOROUGH POLICE,SOUDERTON BOROUGH POLICE STATION,31 WEST SUMMIT ST,SOUDERTON,PA,18964,"http://maps.google.com/maps?q=31 WEST SUMMIT ST,+SOUDERTON,+PA+18964&hl=en"
SOUTH BRUNSWICK POLICE DEPARTMENT,"SOUTH BRUNSWICK POLICE DEPARTMENT 
												
													732-329-4000",540 RIDGE RD.,MONMOUTH JUNCTION,NJ,08852,"http://maps.google.com/maps?q=540 RIDGE RD.,+MONMOUTH JUNCTION,+NJ+08852&hl=en"
SOUTH WHITEHALL TWP POLICE DEPT,SOUTH WHITEHALL TWP POLICE DEPT,4444 WALBERT AVENUE,ALLENTOWN,PA,18104,"http://maps.google.com/maps?q=4444 WALBERT AVENUE,+ALLENTOWN,+PA+18104&hl=en"
SULLIVAN COUNTY SHERIFF'S OFFICE,SULLIVAN COUNTY SHERIFF'S OFFICE,245 MUNCY ST,LAPORTE,PA,18626,"http://maps.google.com/maps?q=245 MUNCY ST,+LAPORTE,+PA+18626&hl=en"
SUMMIT HILL POLICE DEPARTMENT,SUMMIT HILL POLICE DEPARTMENT,"40 W. AMIDON STREET, SUITE 1",SUMMIT HILL,PA,18250,"http://maps.google.com/maps?q=40 W. AMIDON STREET, SUITE 1,+SUMMIT HILL,+PA+18250&hl=en"
SUNBURY POLICE DEPARTMENT,SUNBURY POLICE DEPARTMENT,440 MARKET STREET,SUNBURY,PA,17801,"http://maps.google.com/maps?q=440 MARKET STREET,+SUNBURY,+PA+17801&hl=en"
SUSQUEHANNA BOROUGH POLICE,SCHNEIDER'S MARKET,171 ERIE BLVDSUITE 1,SUSQUEHANNA,PA,18847,"http://maps.google.com/maps?q=171 ERIE BLVD,+SUSQUEHANNA,+PA+18847&hl=en"
SUSQUEHANNA COUNTY SHERIFF'S OFFICE,SUSQUEHANNA COUNTY COURTHOUSE,31 LAKE AVENUE,MONTROSE,PA,18801,"http://maps.google.com/maps?q=31 LAKE AVENUE,+MONTROSE,+PA+18801&hl=en"
SUSQUEHANNA TOWNSHIP POLICE DEPARTMENT,GIANT FOOD STORE,2300 LINGLESTOWN RD.,HARRISBURG,PA,17110,"http://maps.google.com/maps?q=2300 LINGLESTOWN RD.,+HARRISBURG,+PA+17110&hl=en"
SYRACUSE POLICE DEPARTMENT,KINNEY DRUGS,104 LAFAYETTE RD.,SYRACUSE,NY,13205,"http://maps.google.com/maps?q=104 LAFAYETTE RD.,+SYRACUSE,+NY+13205&hl=en"
SYRACUSE POLICE DEPARTMENT,KINNEY DRUGS,2912 JAMES ST,SYRACUSE,NY,13206,"http://maps.google.com/maps?q=2912 JAMES ST,+SYRACUSE,+NY+13206&hl=en"
SYRACUSE POLICE DEPARTMENT,KINNEY DRUGS,406 BUTTERNUT STREET,SYRACUSE,NY,13208,"http://maps.google.com/maps?q=406 BUTTERNUT STREET,+SYRACUSE,+NY+13208&hl=en"
TELFORD BOROUGH POLICE DEPARTMENT,INDIAN VALLEY PUBLIC LIBRARY,100 EAST CHURCH AVENUE,TELFORD,PA,18969,"http://maps.google.com/maps?q=100 EAST CHURCH AVENUE,+TELFORD,+PA+18969&hl=en"
TINICUM TOWNSHIP POLICE DEPARTMENT,WEHRUNG'S FAMILY HOME CENTER,7711 EASTON ROAD,OTTSVILLE,PA,18942,"http://maps.google.com/maps?q=7711 EASTON ROAD,+OTTSVILLE,+PA+18942&hl=en"
TIOGA COUNTY SHERIFF'S OFFICE,"TIOGA COUNTY SHERIFF'S OFFICE 
												
													TRINITY-CASA OF TIOGA",ACROSS FROM AGWAY6 MCMASTER ST.,OWEGO,NY,13827,"http://maps.google.com/maps?q=ACROSS FROM AGWAY,+OWEGO,+NY+13827&hl=en"
TOMPKINS COUNTY SHERIFF'S OFFICE,SHERIFF'S HQ,779 WARREN ROAD,ITHACA,NY,14850,"http://maps.google.com/maps?q=779 WARREN ROAD,+ITHACA,+NY+14850&hl=en"
TOMPKINS COUNTY SHERIFF'S OFFICE,SLATERVILLE FIRE STATION,2681 SLATERVILLE RD.,SLATERVILLE SPRINGS,NY,14881,"http://maps.google.com/maps?q=2681 SLATERVILLE RD.,+SLATERVILLE SPRINGS,+NY+14881&hl=en"
TOWAMENCIN TOWNSHIP POLICE DEPARTMENT,TOWAMENCIN TOWNSHIP POLICE DEPARTMENT,1090 TROXEL ROAD,LANSDALE,PA,19446,"http://maps.google.com/maps?q=1090 TROXEL ROAD,+LANSDALE,+PA+19446&hl=en"
TOWNSHIP OF SPRING POLICE DEPARTMENT,GIANT FOOD STORE #6050,2641 SHILLINGTON RD.,READING,PA,19608,"http://maps.google.com/maps?q=2641 SHILLINGTON RD.,+READING,+PA+19608&hl=en"
TOWNSHIP OF SPRING POLICE DEPARTMENT,GIANT FOOD STORE 6289,2104 VAN REED RD.,READING,PA,19609,"http://maps.google.com/maps?q=2104 VAN REED RD.,+READING,+PA+19609&hl=en"
TREDYFFRIN TOWNSHIP POLICE DEPARTMENT,TREDYFFRIN TOWNSHIP POLICE DEPARTMENT,1100 DUPORTAIL ROAD,BERWYN,PA,19312,"http://maps.google.com/maps?q=1100 DUPORTAIL ROAD,+BERWYN,+PA+19312&hl=en"
UPPER DUBLIN TWP. POLICE DEPARTMENT,UPPER DUBLIN TOWNSHIP POLICE DEPT.,801 LOCH ALSH AVENUE,FORT WASHINGTON,PA,19034,"http://maps.google.com/maps?q=801 LOCH ALSH AVENUE,+FORT WASHINGTON,+PA+19034&hl=en"
UPPER GWYNEDD TOWNSHIP POLICE DEPARTMENT,UPPER GWYNEDD TOWNSHIP POLICE DEPARTMENT,1 PARKSIDE PLACE,WEST POINT,PA,19486,"http://maps.google.com/maps?q=1 PARKSIDE PLACE,+WEST POINT,+PA+19486&hl=en"
UPPER MACUNGIE POLICE DEPT,UPPER MACUNGIE POLICE DEPT,37 GRIM RD,BREINIGSVILLE,PA,18031,"http://maps.google.com/maps?q=37 GRIM RD,+BREINIGSVILLE,+PA+18031&hl=en"
UPPER MAKEFIELD TWP. POLICE DEPARTMENT,UPPER MAKEFIELD TWP. POLICE DEPARTMENT,1076 EAGLE ROAD,NEWTOWN,PA,18940,"http://maps.google.com/maps?q=1076 EAGLE ROAD,+NEWTOWN,+PA+18940&hl=en"
UPPER MERION TOWNSHIP POLICE DEPARTMENT,UPPER MERION TOWNSHIP POLICE DEPARTMENT,175 WEST VALLEY FORGE ROAD,KING OF PRUSSIA,PA,19406,"http://maps.google.com/maps?q=175 WEST VALLEY FORGE ROAD,+KING OF PRUSSIA,+PA+19406&hl=en"
UPPER MORELAND TWP. POLICE DEPT.,GIANT FOOD STORE,315 N YORK RD,WILLOW GROVE,PA,19090,"http://maps.google.com/maps?q=315 N YORK RD,+WILLOW GROVE,+PA+19090&hl=en"
UPPER MORELAND TWP. POLICE DEPT.,UPPER MORELAND TOWNSHIP POLICE DEPARTMENT,117 PARK AVENUE,WILLOW GROVE,PA,19090,"http://maps.google.com/maps?q=117 PARK AVENUE,+WILLOW GROVE,+PA+19090&hl=en"
UPPER PERK POLICE DEPT,UPPER PERK POLICE STATION,88 W. 6TH STREET,PENNSBURG,PA,18073,"http://maps.google.com/maps?q=88 W. 6TH STREET,+PENNSBURG,+PA+18073&hl=en"
UPPER PROVIDENCE TWP POLICE DEPT.,UPPER PROVIDENCE TWP. POLICE DEPT.,1286 BLACK ROCK RD.,OAKS,PA,19456,"http://maps.google.com/maps?q=1286 BLACK ROCK RD.,+OAKS,+PA+19456&hl=en"
UPPER SAUCON TWP POLICE DEPT,UPPER SAUCON PD,5500 CAMP MEETING RD,CENTER VALLEY,PA,18034,"http://maps.google.com/maps?q=5500 CAMP MEETING RD,+CENTER VALLEY,+PA+18034&hl=en"
UPPER SOUTHAMPTON TOWNSHIP PD,RITE AID,1035 COUNTY LINE RD,HUNTINGDON VALLEY,PA,19006,"http://maps.google.com/maps?q=1035 COUNTY LINE RD,+HUNTINGDON VALLEY,+PA+19006&hl=en"
UPPER SOUTHAMPTON TOWNSHIP PD,SOUTHAMPTON ESTATES,238 STREET RD,SOUTHAMPTON,PA,18966,"http://maps.google.com/maps?q=238 STREET RD,+SOUTHAMPTON,+PA+18966&hl=en"
UPPER SOUTHAMPTON TOWNSHIP PD,UPPER SOUTHAMPTON PD,939 STREET RD,SOUTHAMPTON,PA,18966,"http://maps.google.com/maps?q=939 STREET RD,+SOUTHAMPTON,+PA+18966&hl=en"
UTICA POLICE DEPARTMENT,POLICE HQ,413 ORISKANY ST. W,UTICA,NY,13502,"http://maps.google.com/maps?q=413 ORISKANY ST. W,+UTICA,+NY+13502&hl=en"
WARMINSTER POLICE DEPARTMENT,"ANN'S CHOICE 
												
													**RESIDENTS ONLY**",3000 ANN'S CHOICE WAY,WARMINSTER,PA,18974,"http://maps.google.com/maps?q=3000 ANN'S CHOICE WAY,+WARMINSTER,+PA+18974&hl=en"
WARMINSTER POLICE DEPARTMENT,SHOP RITE OF WARMINSTER,942 W. STREET ROAD,WARMINSTER,PA,18974,"http://maps.google.com/maps?q=942 W. STREET ROAD,+WARMINSTER,+PA+18974&hl=en"
WARMINSTER POLICE DEPARTMENT,WARMINSTER TWP. POLICE HQ.,401 GIBSON AVE,WARMINSTER,PA,18974,"http://maps.google.com/maps?q=401 GIBSON AVE,+WARMINSTER,+PA+18974&hl=en"
WARRINGTON TOWNSHIP POLICE DEPARTMENT,"WARRINGTON TOWNSHIP MUNICIPAL BUILDING 
												
													LOBBY",852 EASTON ROAD,WARRINGTON,PA,18976,"http://maps.google.com/maps?q=852 EASTON ROAD,+WARRINGTON,+PA+18976&hl=en"
WARWICK TOWNSHIP POLICE DEPARTMENT,WAWA,1937 YORK ROAD,JAMISON,PA,18929,"http://maps.google.com/maps?q=1937 YORK ROAD,+JAMISON,+PA+18929&hl=en"
WELLSBORO POLICE DEPARTMENT,WELLSBORO POLICE DEPARTMENT,28 CRAFTON STREET,WELLSBORO,PA,16901,"http://maps.google.com/maps?q=28 CRAFTON STREET,+WELLSBORO,+PA+16901&hl=en"
WEST AMWELL TOWNSHIP POLICE DEPARTMENT,WEST AMWELL POLICE DEPARTMENT,24 MT. AIRY VILLAGE ROAD,LAMBERTVILLE,NJ,08530,"http://maps.google.com/maps?q=24 MT. AIRY VILLAGE ROAD,+LAMBERTVILLE,+NJ+08530&hl=en"
WEST CONSHOHOCKEN POLICE DEPARTMENT,WEST CONSHOHOCKEN BOROUGH HALL,112 FORD STREET,WEST CONSHOHOCKEN,PA,19428,"http://maps.google.com/maps?q=112 FORD STREET,+WEST CONSHOHOCKEN,+PA+19428&hl=en"
WEST NORRITON TOWNSHIP POLICE DEPARTMENT,WEST NORRITON POLICE DEPARTMENT,1630 W. MARSHALL,NORRISTOWN,PA,19403,"http://maps.google.com/maps?q=1630 W. MARSHALL,+NORRISTOWN,+PA+19403&hl=en"
WEST POTTSGROVE TWP. POLICE DEPARTMENT,WEST POTTSGROVE TWP. POLICE DEPARTMENT,"980 N. GROSSTOWNSTOWE, A",POTTSTOWN,PA,19464,"http://maps.google.com/maps?q=980 N. GROSSTOWN,+POTTSTOWN,+PA+19464&hl=en"
WHITEMARSH POLICE DEPARTMENT,"WHITEMARSH TOWNSHIP POLICE STATION 
												
													(LOBBY)",616 EAST GERMANTOWN PIKE,LAFAYETTE HILL,PA,19444,"http://maps.google.com/maps?q=616 EAST GERMANTOWN PIKE,+LAFAYETTE HILL,+PA+19444&hl=en"
WILLINGBORO POLICE DEPARTMENT,WILLINGBORO TWP. MUNICIPAL BUILDING,1 REV. MARTIN LUTHER KING JR. DRIVE,WILLINGBORO,NJ,08046,"http://maps.google.com/maps?q=1 REV. MARTIN LUTHER KING JR. DRIVE,+WILLINGBORO,+NJ+08046&hl=en"
WRIGHT TOWNSHIP POLICE DEPARTMENT,WRIGHT TOWNSHIP POLICE DEPARTMENT,321 SOUTH MOUNTAIN. BLVD.,MOUNTAIN TOP,PA,18707,"http://maps.google.com/maps?q=321 SOUTH MOUNTAIN. BLVD.,+MOUNTAIN TOP,+PA+18707&hl=en"
WYOMING COUNTY DISTRICT ATTORNEYS OFFIC DETECTIVES,CVS PHARMACY,BUSINESS ROUTE 6 AND SR 29,TUNKHANNOCK,PA,18657,"http://maps.google.com/maps?q=BUSINESS ROUTE 6 AND SR 29,+TUNKHANNOCK,+PA+18657&hl=en"
WYOMING COUNTY DISTRICT ATTORNEYS OFFIC DETECTIVES,LECH'S PHARMACY,SR0006,TUNKHANNOCK,PA,18657,"http://maps.google.com/maps?q=SR0006,+TUNKHANNOCK,+PA+18657&hl=en"
WYOMING COUNTY DISTRICT ATTORNEYS OFFIC DETECTIVES,RITE AID,420 TIOGA PLZ,TUNKHANNOCK,PA,18657,"http://maps.google.com/maps?q=420 TIOGA PLZ,+TUNKHANNOCK,+PA+18657&hl=en"
YARDLEY BOROUGH POLICE DEPARTMENT,YARDLEY BOROUGH POLICE DEPARTMENT,56 S. MAIN ST,YARDLEY,PA,19067,"http://maps.google.com/maps?q=56 S. MAIN ST,+YARDLEY,+PA+19067&hl=en"
