Participant,CollectionSite,Address,City,State,Zip,MapURL
ADAIR COUNTY SHERIFF'S OFFICE,ADAIR COUNTY SHERIFF'S OFFICE,215 N. FRANKLIN,KIRKSVILLE,MO,63501,"http://maps.google.com/maps?q=215 N. FRANKLIN,+KIRKSVILLE,+MO+63501&hl=en"
ADAMS COUNTY SHERIFF'S OFFICE,ADAMS COUNTY HEALTH DEPARTMENT,330 VERMONT,QUINCY,IL,62301,"http://maps.google.com/maps?q=330 VERMONT,+QUINCY,+IL+62301&hl=en"
ALBANY POLICE DEPARTMENT,"ALBANY POLICE DEPARTMENT 
												
													DROP BOX ONLY 24/7",206 N. WATER STREET,ALBANY,WI,53502,"http://maps.google.com/maps?q=206 N. WATER STREET,+ALBANY,+WI+53502&hl=en"
ALBIA POLICE DEPARTMENT,MONROE COUNTY LAW ENFORCEMENT CENTER,114 19TH AVE WEST,ALBIA,IA,52531,"http://maps.google.com/maps?q=114 19TH AVE WEST,+ALBIA,+IA+52531&hl=en"
ALEDO POLICE DEPT.,"ALEDO POLICE DEPT. 
												
													PARKING LOT",200 N.E. 2ND STREET,ALEDO,IL,61231,"http://maps.google.com/maps?q=200 N.E. 2ND STREET,+ALEDO,+IL+61231&hl=en"
ALTOONA POLICE,ALTOONA FIRE DEPT,950 VENBURY DRIVE,ALTOONA,IA,50009,"http://maps.google.com/maps?q=950 VENBURY DRIVE,+ALTOONA,+IA+50009&hl=en"
AMES IOWA POLICE DEPARMENT,"CITY HALL 
												
													1ST FLR WEST SIDE OF BLDG",515 CLARK AVE,AMES,IA,50010,"http://maps.google.com/maps?q=515 CLARK AVE,+AMES,+IA+50010&hl=en"
ANKENY POLICE DEPARTMENT,WALGREENS,2702 SE DELAWARE AVE.,ANKENY,IA,50021,"http://maps.google.com/maps?q=2702 SE DELAWARE AVE.,+ANKENY,+IA+50021&hl=en"
APPANOOSE COUNTY SHERIFF,APPANOOSE COUNTY SHERIFF'S OFFICE,1125 W. VAN BUREN ST.,CENTERVILLE,IA,52544,"http://maps.google.com/maps?q=1125 W. VAN BUREN ST.,+CENTERVILLE,+IA+52544&hl=en"
BARABOO POLICE DEPARTMENT,"BARABOO POLICE DEPARTMENT 
												
													BOX M-F 7:30AM-4:30PM",135 4TH ST,BARABOO,WI,53913,"http://maps.google.com/maps?q=135 4TH ST,+BARABOO,+WI+53913&hl=en"
BELLEVILLE POLICE DEPARTMENT,"BELLEVILLE POLICE DEPARTMENT 
												
													EVENT 10:00AM-2:00PM",121 FIFTH AVE,BELLEVILLE,WI,53508,"http://maps.google.com/maps?q=121 FIFTH AVE,+BELLEVILLE,+WI+53508&hl=en"
BELOIT POLICE DEPARTMENT,"BELOIT POLICE DEPARTMENT 
												
													DROP BOX ONLY",100 STATE ST,BELOIT,WI,53511,"http://maps.google.com/maps?q=100 STATE ST,+BELOIT,+WI+53511&hl=en"
BELOIT TOWN POLICE DEPARTMENT,"TOWN OF BELOIT POLICE DEPARTMENT 
												
													EVENT 10:00 AM TO 2:00 PM",1133 INMAN PKWY,BELOIT,WI,53511,"http://maps.google.com/maps?q=1133 INMAN PKWY,+BELOIT,+WI+53511&hl=en"
BENTON COUNTY SHERIFF'S OFFICE,"BENTON COUNTY SHERIFF'S OFFICE 
												
													DETECTIVE MARK PHIPPEN",113 EAST THIRD STREET,VINTON,IA,52349,"http://maps.google.com/maps?q=113 EAST THIRD STREET,+VINTON,+IA+52349&hl=en"
BLUE MOUNDS POLICE DEPARTMENT,"BLUE MOUNDS POLICE DEPARTMENT 
												
													EVENT 9:00AM-4:00PM",11011 BRIGHAM AVE,BLUE MOUNDS,WI,53517,"http://maps.google.com/maps?q=11011 BRIGHAM AVE,+BLUE MOUNDS,+WI+53517&hl=en"
BOONE IOWA POLICE DEPARTMENT,"BOONE POLICE DEPARTMENT 
												
													10:00 AM-12:00 PM.",525 STORY STREET,BOONE,IA,50036,"http://maps.google.com/maps?q=525 STORY STREET,+BOONE,+IA+50036&hl=en"
BOSCOBEL POLICE DEPARTMENT,"BOSCOBEL POLICE DEPARTMENT 
												
													DROP BOX ONLY 7:00 AM - 4:00 PM",1006 WISCONSIN AVE,BOSCOBEL,WI,53805,"http://maps.google.com/maps?q=1006 WISCONSIN AVE,+BOSCOBEL,+WI+53805&hl=en"
BREMER COUNTY SHERIFF'S OFFICE,AMERICAN LEGION,500 MAIN ST,JANESVILLE,IA,50647,"http://maps.google.com/maps?q=500 MAIN ST,+JANESVILLE,+IA+50647&hl=en"
BREMER COUNTY SHERIFF'S OFFICE,BREMER COUNTY SHERIFF'S OFFICE,"111 4TH STREET, NE",WAVERLY,IA,50677,"http://maps.google.com/maps?q=111 4TH STREET, NE,+WAVERLY,+IA+50677&hl=en"
BRODHEAD POLICE DEPARTMENT,"BRODHEAD POLICE DEPARTMENT 
												
													DROP BOX ONLY 24/7",1004 W. EXCHANGE ST,BRODHEAD,WI,53520,"http://maps.google.com/maps?q=1004 W. EXCHANGE ST,+BRODHEAD,+WI+53520&hl=en"
BROWN COUNTY SHERIFF'S OFFICE,MT. STERLING IGA,200 PITTSFIELD ROAD,MOUNT STERLING,IL,62353,"http://maps.google.com/maps?q=200 PITTSFIELD ROAD,+MOUNT STERLING,+IL+62353&hl=en"
BUCHANAN COUNTY SHERIFF'S OFFICE,BUCHANAN COUNTY SHERIFF'S OFFICE,210 5TH AVENUE NE,INDEPENDENCE,IA,50644,"http://maps.google.com/maps?q=210 5TH AVENUE NE,+INDEPENDENCE,+IA+50644&hl=en"
CANTON POLICE DEPARTMENT,CANTON POLICE DEPARTMENT,2 N. MAIN STREET,CANTON,IL,61520,"http://maps.google.com/maps?q=2 N. MAIN STREET,+CANTON,+IL+61520&hl=en"
CARLISLE POLICE DEPARTMENT,CARLISLE FIRE DEPARTMENT,135 N. 2ND STREET,CARLISLE,IA,50047,"http://maps.google.com/maps?q=135 N. 2ND STREET,+CARLISLE,+IA+50047&hl=en"
CEDAR COUNTY SHERIFF'S OFFICE,CEDAR COUNTY SHERIFF'S OFFICE,711 E. SOUTH ST,TIPTON,IA,52772,"http://maps.google.com/maps?q=711 E. SOUTH ST,+TIPTON,+IA+52772&hl=en"
CEDAR FALLS POLICE DEPARTMENT,CEDAR FALLS POLICE DEPARTMENT,220 CLAY STREET,CEDAR FALLS,IA,50613,"http://maps.google.com/maps?q=220 CLAY STREET,+CEDAR FALLS,+IA+50613&hl=en"
CEDAR RAPIDS POLICE DEPT.,CEDAR RAPIDS POLICE DEPARTMENT,505 1ST ST SW,CEDAR RAPIDS,IA,52404,"http://maps.google.com/maps?q=505 1ST ST SW,+CEDAR RAPIDS,+IA+52404&hl=en"
CHARLES CITY POLICE DEPT.,CHARLES CITY POLICE DEPT.,105 MILWAUKEE MALL,CHARLES CITY,IA,50616,"http://maps.google.com/maps?q=105 MILWAUKEE MALL,+CHARLES CITY,+IA+50616&hl=en"
CITY OF LODI POLICE DEPARTMENT,"CITY OF LODI POLICE DEPARTMENT 
												
													EVENT 7:00AM - 4:00PM",142 S MAIN ST,LODI,WI,53555,"http://maps.google.com/maps?q=142 S MAIN ST,+LODI,+WI+53555&hl=en"
CLINTON POLICE DEPARTMENT,COMMANCHE POLICE DEPARTMENT,819 S. WASHINGTON BLVD,CLINTON,IA,52732,"http://maps.google.com/maps?q=819 S. WASHINGTON BLVD,+CLINTON,+IA+52732&hl=en"
COLONA POLICE DEPARTMENT,"COLONA POLICE DEPARTMENT 
												
													LOBBY",215 1ST STREET,COLONA,IL,61241,"http://maps.google.com/maps?q=215 1ST STREET,+COLONA,+IL+61241&hl=en"
CORALVILLE POLICE DEPARTMENT,CORALVILLE POLICE DEPARTMENT,1503 5TH STREET,CORALVILLE,IA,52241,"http://maps.google.com/maps?q=1503 5TH STREET,+CORALVILLE,+IA+52241&hl=en"
CRAWFORD COUNTY SHERIFF'S OFFICE,"CRAWFORD COUNTY SHERIFF'S OFICE 
												
													DROP BOX ONLY 24/7",224 N BEAUMONT RD,PRAIRIE DU CHIEN,WI,53821,"http://maps.google.com/maps?q=224 N BEAUMONT RD,+PRAIRIE DU CHIEN,+WI+53821&hl=en"
CROSS PLAINS POLICE DEPARTMENT,"CROSS PLAINS POLICE DEPARTMENT 
												
													EVENT 7:00 AM TO 10:00 AM",2417 BREWERY RD,CROSS PLAINS,WI,53528,"http://maps.google.com/maps?q=2417 BREWERY RD,+CROSS PLAINS,+WI+53528&hl=en"
DANE COUNTY SHERIFF'S OFFICE,DANE COUNTY SHERIFF'S OFFICE,115 W DOTY STREET,MADISON,WI,53703,"http://maps.google.com/maps?q=115 W DOTY STREET,+MADISON,+WI+53703&hl=en"
DARLINGTON POLICE DEPARTMENT,"DARLINGTON MUNICIPAL BUILDING 
												
													DROP BOX 24/7",627 MAIN ST,DARLINGTON,WI,53530,"http://maps.google.com/maps?q=627 MAIN ST,+DARLINGTON,+WI+53530&hl=en"
DICKEYVILLE POLICE DEPARTMENT,"DICKEYVILLE POLICE DEPARTMENT 
												
													EVENT 9:00AM-12:00PM",500 EAST AVENUE,DICKEYVILLE,WI,53808,"http://maps.google.com/maps?q=500 EAST AVENUE,+DICKEYVILLE,+WI+53808&hl=en"
DIXON POLICE DEPARTMENT,DIXON POLICE DEPARTMENT,220 SOUTH HENNEPIN AVENUE,DIXON,IL,61021,"http://maps.google.com/maps?q=220 SOUTH HENNEPIN AVENUE,+DIXON,+IL+61021&hl=en"
DUBUQUE DRUG TASK FORCE,SAM'S CLUB,4400 ASBURY RD,DUBUQUE,IA,52002,"http://maps.google.com/maps?q=4400 ASBURY RD,+DUBUQUE,+IA+52002&hl=en"
ELROY POLICE DEPARTMENT,"ELROY POLICE DEPARTMENT 
												
													EVENT 9:00AM-1:00PM",1717 OMAHA STREET,ELROY,WI,53929,"http://maps.google.com/maps?q=1717 OMAHA STREET,+ELROY,+WI+53929&hl=en"
EVANSVILLE POLICE DEPARTMENT,"EVANSVILLE POLICE DEPARTMENT 
												
													EVENT 8:00 AM TO 11:00 AM",10 WEST CHURCH STREET,EVANSVILLE,WI,53536,"http://maps.google.com/maps?q=10 WEST CHURCH STREET,+EVANSVILLE,+WI+53536&hl=en"
FENNIMORE POLICE DEPARTMENT,"FENNIMORE MUNICIPAL BUILDING 
												
													DROP BOX M-F 8:30AM-4:30PM",860 LINCOLN AVE,FENNIMORE,WI,53809,"http://maps.google.com/maps?q=860 LINCOLN AVE,+FENNIMORE,+WI+53809&hl=en"
FILLMORE COUNTY SO,FILLMORE COUNTY SHERIFF'S OFFICE,901 HOUSTON STREET NW,PRESTON,MN,55965,"http://maps.google.com/maps?q=901 HOUSTON STREET NW,+PRESTON,+MN+55965&hl=en"
FILLMORE COUNTY SO,LANESBORO CITY HALL,202 PARKWAY AVENUE NORTH,LANESBORO,MN,55949,"http://maps.google.com/maps?q=202 PARKWAY AVENUE NORTH,+LANESBORO,+MN+55949&hl=en"
FILLMORE COUNTY SO,MABEL CITY HALL,201 SOUTH MAIN STREET,MABEL,MN,55954,"http://maps.google.com/maps?q=201 SOUTH MAIN STREET,+MABEL,+MN+55954&hl=en"
FILLMORE COUNTY SO,RUSHFORD POLICE DEPARTMENT,405 ELM STREET SOUTH,RUSHFORD,MN,55971,"http://maps.google.com/maps?q=405 ELM STREET SOUTH,+RUSHFORD,+MN+55971&hl=en"
FILLMORE COUNTY SO,SPRING VALLEY FIRE DEPARTMENT,120 WEST COURTLAND STREET,SPRING VALLEY,MN,55975,"http://maps.google.com/maps?q=120 WEST COURTLAND STREET,+SPRING VALLEY,+MN+55975&hl=en"
FITCHBURG POLICE DEPARTMENT,"FITCHBURG POLICE DEPARTMENT 
												
													DROP BOX M-F 7:30 AM TO 4:30 PM",5520 LACY ROAD,MADISON,WI,53711,"http://maps.google.com/maps?q=5520 LACY ROAD,+MADISON,+WI+53711&hl=en"
FRANKLIN COUNTY SHERIFF'S OFFICE,FRANKLIN COUNTY SHERIFF'S OFFICE,105 5TH ST. SW,HAMPTON,IA,50441,"http://maps.google.com/maps?q=105 5TH ST. SW,+HAMPTON,+IA+50441&hl=en"
FREEPORT IL PD,FREEPORT POLICE @ CUB FOODS PARKING LOT,1512 S. WEST AV.,FREEPORT,IL,61032,"http://maps.google.com/maps?q=1512 S. WEST AV.,+FREEPORT,+IL+61032&hl=en"
GENESEO POLICE DEPARTMENT,"GENESEO MUNICIPAL BUILDING 
												
													CITY HALL AND POLICE DEPARTMENT",119 SOUTH OAKWOOD AVE,GENESEO,IL,61254,"http://maps.google.com/maps?q=119 SOUTH OAKWOOD AVE,+GENESEO,+IL+61254&hl=en"
GREEN COUNTY SHERIFF'S OFFICE,"GREEN COUNTY SHERIFF'S OFFICE 
												
													DROP BOX ONLY 24/7",2827 6TH ST,MONROE,WI,53566,"http://maps.google.com/maps?q=2827 6TH ST,+MONROE,+WI+53566&hl=en"
GREENE COUNTY SHERIFF'S OFFICE,GREENE COUNTY SHERIFF'S OFFICE,204 SOUTH CHESTNUT STREET,JEFFERSON,IA,50129,"http://maps.google.com/maps?q=204 SOUTH CHESTNUT STREET,+JEFFERSON,+IA+50129&hl=en"
GRUNDY COUNTY LAW ENFORCEMENT CENTER,GRUNDY COUNTY LAW ENFORCEMENT CENTER,610  MAIN STREET,TRENTON,MO,64683,"http://maps.google.com/maps?q=610  MAIN STREET,+TRENTON,+MO+64683&hl=en"
HAMILTON COUNTY SHERIFF'S OFFICE,"EJS POLICE DEPARTMENT 
												
													LOBBY",701 MAIN STREET,JEWELL,IA,50130,"http://maps.google.com/maps?q=701 MAIN STREET,+JEWELL,+IA+50130&hl=en"
HAMILTON COUNTY SHERIFF'S OFFICE,HY-VEE,823 2ND ST.,WEBSTER CITY,IA,50595,"http://maps.google.com/maps?q=823 2ND ST.,+WEBSTER CITY,+IA+50595&hl=en"
HAMILTON COUNTY SHERIFF'S OFFICE,"VAN DIEST MEDICAL CENTER 
												
													STRATFORD",817 SHAKESPEARE AVE,STRATFORD,IA,50249,"http://maps.google.com/maps?q=817 SHAKESPEARE AVE,+STRATFORD,+IA+50249&hl=en"
HANCOCK COUNTY SHERIFF'S OFFICE,"DALLAS CITY HALL 
												
													DALLAS CITY POLICE DEPARTMENT",120 W. 1ST STREET,DALLAS CITY,IL,62330,"http://maps.google.com/maps?q=120 W. 1ST STREET,+DALLAS CITY,+IL+62330&hl=en"
HANCOCK COUNTY SHERIFF'S OFFICE,HAMILTON POLICE DEPARTMENT,1010 BROADWAY ST,HAMILTON,IL,62341,"http://maps.google.com/maps?q=1010 BROADWAY ST,+HAMILTON,+IL+62341&hl=en"
HANCOCK COUNTY SHERIFF'S OFFICE,HANCOCK COUNTY SHERIFF'S OFFICE,98 BUCHANAN ST,CARTHAGE,IL,62321,"http://maps.google.com/maps?q=98 BUCHANAN ST,+CARTHAGE,+IL+62321&hl=en"
HANCOCK COUNTY SHERIFF'S OFFICE,JIFFI STOP,101 S. WORRELL STREET,BOWEN,IL,62316,"http://maps.google.com/maps?q=101 S. WORRELL STREET,+BOWEN,+IL+62316&hl=en"
HANCOCK COUNTY SHERIFF'S OFFICE,LAHARPE POLICE DEPARTMENT,207 E. MAIN STREET,LA HARPE,IL,61450,"http://maps.google.com/maps?q=207 E. MAIN STREET,+LA HARPE,+IL+61450&hl=en"
HANCOCK COUNTY SHERIFF'S OFFICE,NAUVOO POLICE DEPARTMENT,60 N BLUFF ST,NAUVOO,IL,62354,"http://maps.google.com/maps?q=60 N BLUFF ST,+NAUVOO,+IL+62354&hl=en"
HANCOCK COUNTY SHERIFF'S OFFICE,"WARSAW CITY HALL 
												
													WARSAW POLICE DEPARTMENT",210 N 4TH ST,WARSAW,IL,62379,"http://maps.google.com/maps?q=210 N 4TH ST,+WARSAW,+IL+62379&hl=en"
HIAWATHA POLICE DEPT,"HIAWATHA POLICE DEPT 
												
													LOBBY, SOUTH WALL",101 EMMONS ST,HIAWATHA,IA,52233,"http://maps.google.com/maps?q=101 EMMONS ST,+HIAWATHA,+IA+52233&hl=en"
HIGHLAND POLICE DEPARTMENT,"HIGHLAND POLICE DEPARTMENT 
												
													EVENT 10:00 AM TO 2:00 PM",530 MAIN STREET,HIGHLAND,WI,53543,"http://maps.google.com/maps?q=530 MAIN STREET,+HIGHLAND,+WI+53543&hl=en"
HILLSBORO POLICE DEPARTMENT,"HILLSBORO POLICE DEPARTMENT 
												
													DROP BOX M-F 8:00AM-4:30PM",836 PRAIRIE AVE,HILLSBORO,WI,54634,"http://maps.google.com/maps?q=836 PRAIRIE AVE,+HILLSBORO,+WI+54634&hl=en"
INDIANOLA POLICE DEPARTMENT,INDIANOLA POLICE DEPARTMENT,110 N. 1ST STREET,INDIANOLA,IA,50125,"http://maps.google.com/maps?q=110 N. 1ST STREET,+INDIANOLA,+IA+50125&hl=en"
IOWA CITY POLICE DEPARTMENT,EAST SIDE RECYCLING CENTER,2401 SCOTT BLVD SE,IOWA CITY,IA,52240,"http://maps.google.com/maps?q=2401 SCOTT BLVD SE,+IOWA CITY,+IA+52240&hl=en"
IOWA COUNTY SHERIFF'S OFFICE,IOWA COUNTY SHERIFF'S OFFICE,960 FRANKLYN AVE.,MARENGO,IA,52301,"http://maps.google.com/maps?q=960 FRANKLYN AVE.,+MARENGO,+IA+52301&hl=en"
IOWA COUNTY SHERIFF'S OFFICE,"IOWA COUNTY SHERIFF'S OFFICE 
												
													DROP BOX ONLY 24/7",1205 N. BEQUETTE ST,DODGEVILLE,WI,53533,"http://maps.google.com/maps?q=1205 N. BEQUETTE ST,+DODGEVILLE,+WI+53533&hl=en"
JACKSON COUNTY SHERIFF'S OFFICE,MAQUOKETA POLICE DEPARTMENT,102 S NIAGARA ST,MAQUOKETA,IA,52060,"http://maps.google.com/maps?q=102 S NIAGARA ST,+MAQUOKETA,+IA+52060&hl=en"
JACKSON COUNTY SHERIFF'S OFFICE,SABULA POLICE DEPARTMENT,411 BROAD ST,SABULA,IA,52070,"http://maps.google.com/maps?q=411 BROAD ST,+SABULA,+IA+52070&hl=en"
JANESVILLE POLICE DEPARTMENT,"JANESVILLE POLICE DEPARTMENT 
												
													DROP BOX ONLY 24/7",100 N. JACKSON ST,JANESVILLE,WI,53548,"http://maps.google.com/maps?q=100 N. JACKSON ST,+JANESVILLE,+WI+53548&hl=en"
JASPER COUNTY SHERIFF'S OFFICE,COLFAX FIRE DEPT.,113 W. STATE ST.,COLFAX,IA,50054,"http://maps.google.com/maps?q=113 W. STATE ST.,+COLFAX,+IA+50054&hl=en"
JASPER COUNTY SHERIFF'S OFFICE,NEWTON FIRE DEPT,410 S.2ND. AVE. W.,NEWTON,IA,50208,"http://maps.google.com/maps?q=410 S.2ND. AVE. W.,+NEWTON,+IA+50208&hl=en"
JEFFERSON COUNTY SHERIFF'S OFFICE,HY-VEE PHARMACY,1300 W. BURLINGTON,FAIRFIELD,IA,52556,"http://maps.google.com/maps?q=1300 W. BURLINGTON,+FAIRFIELD,+IA+52556&hl=en"
JOHNSTON POLICE DEPARTMENT,"JOHNSTON POLICE DEPARTMENT 
												
													PUBLIC SAFETY BUILDING",6373 MERLE HAY RD,JOHNSTON,IA,50131,"http://maps.google.com/maps?q=6373 MERLE HAY RD,+JOHNSTON,+IA+50131&hl=en"
KEWANEE POLICE DEPARTMENT,"KEWANEE CITY HALL 
												
													ROTUNDA",401 E. THIRD STREET,KEWANEE,IL,61443,"http://maps.google.com/maps?q=401 E. THIRD STREET,+KEWANEE,+IL+61443&hl=en"
KNOX COUNTY SHERIFFS OFFICE,KNOX COUNTY SHERIFF'S OFFICE,107 NORTH 4TH STREET,EDINA,MO,63537,"http://maps.google.com/maps?q=107 NORTH 4TH STREET,+EDINA,+MO+63537&hl=en"
KOSSUTH COUNTY SHERIFF'S OFFICE,"HY VEE FOOD STORE 
												
													NO BOXES",1500 HYW.169 N.,ALGONA,IA,50511,"http://maps.google.com/maps?q=1500 HYW.169 N.,+ALGONA,+IA+50511&hl=en"
LA CRESCENT PD,LA CRESCENT CITY HALL,315 MAIN STREET,LA CRESCENT,MN,55947,"http://maps.google.com/maps?q=315 MAIN STREET,+LA CRESCENT,+MN+55947&hl=en"
LA CROSSE COUNTY SHERIFF'S OFFICE,"LA CROSSE COUNTY SHERIFF'S DEPARTMENT 
												
													DROP BOX ONLY M-F 8:00 AM TO 4:30 PM",333 VINE ST,LA CROSSE,WI,54601,"http://maps.google.com/maps?q=333 VINE ST,+LA CROSSE,+WI+54601&hl=en"
LA CROSSE POLICE DEPARTMENT,"LA CROSSE POLICE DEPARTMENT 
												
													DROP BOX ONLY M-F 8:30AM-5:00PM",400 LA CROSSE ST,LA CROSSE,WI,54601,"http://maps.google.com/maps?q=400 LA CROSSE ST,+LA CROSSE,+WI+54601&hl=en"
LA FARGE POLICE DEPARTMENT,"LA FARGE POLICE DEPARTMENT 
												
													EVENT 8:00AM-5:00PM",201 S CHERRY STREET,LA FARGE,WI,54639,"http://maps.google.com/maps?q=201 S CHERRY STREET,+LA FARGE,+WI+54639&hl=en"
LAKE MILLS POLICE DEPARTMENT,LAKE MILLS POLICE DEPARTMENT,304 S. MILL STREET,LAKE MILLS,IA,50450,"http://maps.google.com/maps?q=304 S. MILL STREET,+LAKE MILLS,+IA+50450&hl=en"
LANCASTER POLICE DEPARTMENT,"LANCASTER POLICE DEPARTMENT 
												
													DROP BOX ONLY 24/7",222 S. MADISON ST,LANCASTER,WI,53813,"http://maps.google.com/maps?q=222 S. MADISON ST,+LANCASTER,+WI+53813&hl=en"
LEE COUNTY SHERIFF'S OFFICE,LEE COUNTY SHERIFF'S OFFICE,2530 255TH ST,MONTROSE,IA,52639,"http://maps.google.com/maps?q=2530 255TH ST,+MONTROSE,+IA+52639&hl=en"
LINDEN POLICE DEPARTMENT,"LINDEN POLICE DEPARTMENT 
												
													EVENT 8:00AM-11:30AM",444 JEFFERSON STREET,LINDEN,WI,53553,"http://maps.google.com/maps?q=444 JEFFERSON STREET,+LINDEN,+WI+53553&hl=en"
LINN COUNTY SHERIFF'S OFFICE,CENTER POINT AMBULANCE SERVICES,521 FRANKLIN ST,CENTER POINT,IA,52213,"http://maps.google.com/maps?q=521 FRANKLIN ST,+CENTER POINT,+IA+52213&hl=en"
LINN COUNTY SHERIFF'S OFFICE,ELY FIRE STATION,1300 MAIN ST,ELY,IA,52227,"http://maps.google.com/maps?q=1300 MAIN ST,+ELY,+IA+52227&hl=en"
LINN COUNTY SHERIFF'S OFFICE,LINN COUNTY SHERIFF'S OFFICE,310 2ND AVE SW,CEDAR RAPIDS,IA,52404,"http://maps.google.com/maps?q=310 2ND AVE SW,+CEDAR RAPIDS,+IA+52404&hl=en"
LOVES PARK POLICE DEPARTMENT,LOVES PARK POLICE @ WALGREENS,5900 N. 2ND ST.,LOVES PARK,IL,61111,"http://maps.google.com/maps?q=5900 N. 2ND ST.,+LOVES PARK,+IL+61111&hl=en"
MADISON POLICE DEPARTMENT,"MADISON POLICE WEST DISTRICT 
												
													DROP BOX ONLY M-F 8:00 AM- 4:00PM",1710 MCKENNA BLVD,MADISON,WI,53711,"http://maps.google.com/maps?q=1710 MCKENNA BLVD,+MADISON,+WI+53711&hl=en"
MADRID POLICE DEPARTMENT,MADRID CITY HALL,304 S WATER STREET,MADRID,IA,50156,"http://maps.google.com/maps?q=304 S WATER STREET,+MADRID,+IA+50156&hl=en"
MANCHESTER POLICE DEPARTMENT,BLAKESLEY DRUG,220 EAST MAIN ST.,MANCHESTER,IA,52057,"http://maps.google.com/maps?q=220 EAST MAIN ST.,+MANCHESTER,+IA+52057&hl=en"
MANSON POLICE DEPARTMENT,"MANSON POLICE DEPARTMENT 
												
													LOBBY",1015 13TH STREET,MANSON,IA,50563,"http://maps.google.com/maps?q=1015 13TH STREET,+MANSON,+IA+50563&hl=en"
MARION COUNTY SHERIFFS OFFICE,MARION COUNTY SHERIFF'S OFFICE,211 N. GODFREY LN,KNOXVILLE,IA,50138,"http://maps.google.com/maps?q=211 N. GODFREY LN,+KNOXVILLE,+IA+50138&hl=en"
MARION POLICE DEPARTMENT,"MARION POLICE DEPARTMENT 
												
													FRONT PARKING LOT",6315 HWY 151MARION,MARION,IA,52302,"http://maps.google.com/maps?q=6315 HWY 151,+MARION,+IA+52302&hl=en"
MASON COUNTY SHERIFF'S OFFICE,"IGA STORE - MASON CITY 
												
													10:00 AM - 11:00 AM  (PARKING LOT)",201 WEST ELM,MASON CITY,IL,62664,"http://maps.google.com/maps?q=201 WEST ELM,+MASON CITY,+IL+62664&hl=en"
MASON COUNTY SHERIFF'S OFFICE,"ONEY FOOD'S PARKING LOT 
												
													PARKING LOT 1:00 PM - 2:00 PM",500 S. PROMENADE,HAVANA,IL,62644,"http://maps.google.com/maps?q=500 S. PROMENADE,+HAVANA,+IL+62644&hl=en"
MASON COUNTY SHERIFF'S OFFICE,"THE LODGE AT MANITO 
												
													11:30 AM - 12:30 PM (PARKING LOT)",1303 S. EAST AVENUE,MANITO,IL,61546,"http://maps.google.com/maps?q=1303 S. EAST AVENUE,+MANITO,+IL+61546&hl=en"
MELCHER-DALLAS POLICE DEPARTMENT,CITY HALL,305 EAST D. MAIN STREET,MELCHER DALLAS,IA,50062,"http://maps.google.com/maps?q=305 EAST D. MAIN STREET,+MELCHER DALLAS,+IA+50062&hl=en"
MENARD COUNTY SHERIFF'S DEPT.,MENARD COUNTY JAIL,315 S. SIXTH STREET,PETERSBURG,IL,62675,"http://maps.google.com/maps?q=315 S. SIXTH STREET,+PETERSBURG,+IL+62675&hl=en"
MERCER COUNTY SHERIFF'S OFFICE,MATHERVILLE VILLAGE HALL,500 2ND STREET,MATHERVILLE,IL,61263,"http://maps.google.com/maps?q=500 2ND STREET,+MATHERVILLE,+IL+61263&hl=en"
MERCER COUNTY SHERIFF'S OFFICE,MERCER COUNTY SHERIFF'S OFFICE,802 EAST MAIN STREET,PRINCETON,MO,64673,"http://maps.google.com/maps?q=802 EAST MAIN STREET,+PRINCETON,+MO+64673&hl=en"
MERCER COUNTY SHERIFF'S OFFICE,SEATON FIRE STATION,317 MAPLE STREET,SEATON,IL,61476,"http://maps.google.com/maps?q=317 MAPLE STREET,+SEATON,+IL+61476&hl=en"
MESKWAKI NATION POLICE DEPARTMENT,MESKWAKI TRIBAL SENIOR CENTER,301 MESKWAKI ROAD,TAMA,IA,52339,"http://maps.google.com/maps?q=301 MESKWAKI ROAD,+TAMA,+IA+52339&hl=en"
MIDDLETON POLICE DEPARTMENT,"MIDDLETON POLICE DEPARTMENT 
												
													DROP BOX ONLY 24/7",7341 DONNA DRIVE,MIDDLETON,WI,53562,"http://maps.google.com/maps?q=7341 DONNA DRIVE,+MIDDLETON,+WI+53562&hl=en"
MILAN POLICE DEPARTMENT,"MILAN MUNICIPAL BUILDING 
												
													FRONT PARKING LOT",405 E. 1ST STREET,MILAN,IL,61264,"http://maps.google.com/maps?q=405 E. 1ST STREET,+MILAN,+IL+61264&hl=en"
MOLINE POLICE DEPARTMENT,MOLINE POLICE DEPARTMENT,1640 6TH AVE,MOLINE,IL,61265,"http://maps.google.com/maps?q=1640 6TH AVE,+MOLINE,+IL+61265&hl=en"
MONROE POLICE DEPARTMENT,"GREEN COUNTY SHERIFF'S OFFICE 
												
													BOX",2827 6TH STREET,MONROE,WI,53566,"http://maps.google.com/maps?q=2827 6TH STREET,+MONROE,+WI+53566&hl=en"
MONROE POLICE DEPARTMENT,MONROE CITY HALL,206 W. SHERMAN STREET,MONROE,IA,50170,"http://maps.google.com/maps?q=206 W. SHERMAN STREET,+MONROE,+IA+50170&hl=en"
MONTICELLO POLICE DEPARTMENT,"MONTICELLO POLICE DEPARTMENT 
												
													DROP BOX M-F 7:30AM-3:30PM",140 N MAIN ST,MONTICELLO,WI,53570,"http://maps.google.com/maps?q=140 N MAIN ST,+MONTICELLO,+WI+53570&hl=en"
MORTON POLICE DEPARTMENT,MORTON POLICE DEPARTMENT,375 W. BIRCHWOOD STREET,MORTON,IL,61550,"http://maps.google.com/maps?q=375 W. BIRCHWOOD STREET,+MORTON,+IL+61550&hl=en"
MOUNT PLEASANT POLICE DEPT.,MOUNT PLEASANT POLICE DEPT.,204 E. WASHINGTON ST.,MOUNT PLEASANT,IA,52641,"http://maps.google.com/maps?q=204 E. WASHINGTON ST.,+MOUNT PLEASANT,+IA+52641&hl=en"
MOUNT VERNON POLICE DEPARTMENT,MOUNT VERNON POLICE DEPARTMENT,213 1ST STREET NW,MOUNT VERNON,IA,52314,"http://maps.google.com/maps?q=213 1ST STREET NW,+MOUNT VERNON,+IA+52314&hl=en"
MUSCODA POLICE DEPARTMENT,"MUSCODA POLICE DEPT 
												
													DROP BOX ONLY M-F 8:00AM-4:30PM",206 N WISCONSIN AVE,MUSCODA,WI,53573,"http://maps.google.com/maps?q=206 N WISCONSIN AVE,+MUSCODA,+WI+53573&hl=en"
NEW GLARUS POLICE DEPARTMENT,"NEW GLARUS POLICE DEPARTMENT 
												
													DROP BOX ONLY M-F 7:30AM-4:00PM",313 2ND STREET,NEW GLARUS,WI,53574,"http://maps.google.com/maps?q=313 2ND STREET,+NEW GLARUS,+WI+53574&hl=en"
NORTH LIBERTY IOWA POLICE DEPARTMENT,NORTH LIBERTY POLICE DEPT.,5 E. CHERRY ST.,NORTH LIBERTY,IA,52317,"http://maps.google.com/maps?q=5 E. CHERRY ST.,+NORTH LIBERTY,+IA+52317&hl=en"
NORTHEAST IOWA DRUG TASK FORCE,CALMAR POLICE DEPT,101 WASHINGTON ST,CALMAR,IA,52132,"http://maps.google.com/maps?q=101 WASHINGTON ST,+CALMAR,+IA+52132&hl=en"
NORTHEAST IOWA DRUG TASK FORCE,CHICKASAW COUNTY COMMUNITY CENTER,260 EAST PROSPECT ST.,NEW HAMPTON,IA,50659,"http://maps.google.com/maps?q=260 EAST PROSPECT ST.,+NEW HAMPTON,+IA+50659&hl=en"
NORTHEAST IOWA DRUG TASK FORCE,CITY OF LANSING CITY HALL,201 JOHN ST,LANSING,IA,52151,"http://maps.google.com/maps?q=201 JOHN ST,+LANSING,+IA+52151&hl=en"
NORTHEAST IOWA DRUG TASK FORCE,CLAYTON COUNTY SHERIFF'S OFFICE,22680 230TH ST,SAINT OLAF,IA,52072,"http://maps.google.com/maps?q=22680 230TH ST,+SAINT OLAF,+IA+52072&hl=en"
NORTHEAST IOWA DRUG TASK FORCE,ELKADER OPERA HOUSE,207 NORTH MAIN ST.,ELKADER,IA,52043,"http://maps.google.com/maps?q=207 NORTH MAIN ST.,+ELKADER,+IA+52043&hl=en"
NORTHEAST IOWA DRUG TASK FORCE,HOWARD COUNTY SHERIFF'S OFFICE,124 S. PARK PLACE,CRESCO,IA,52136,"http://maps.google.com/maps?q=124 S. PARK PLACE,+CRESCO,+IA+52136&hl=en"
NORTHEAST IOWA DRUG TASK FORCE,LANSING FIRE DEPT.,51 NORTH FRONT ST.,LANSING,IA,52151,"http://maps.google.com/maps?q=51 NORTH FRONT ST.,+LANSING,+IA+52151&hl=en"
NORTHEAST IOWA DRUG TASK FORCE,MONONA POLICE DEPT.,104 EAST CENTER ST.,MONONA,IA,52159,"http://maps.google.com/maps?q=104 EAST CENTER ST.,+MONONA,+IA+52159&hl=en"
NORTHEAST IOWA DRUG TASK FORCE,POSTVILLE CITY HALL,147 N. LAWLWER ST.,POSTVILLE,IA,52162,"http://maps.google.com/maps?q=147 N. LAWLWER ST.,+POSTVILLE,+IA+52162&hl=en"
NORTHEAST IOWA DRUG TASK FORCE,THRIFTY WHITE PHARMACY,702 MONTGOMERY ST.,DECORAH,IA,52101,"http://maps.google.com/maps?q=702 MONTGOMERY ST.,+DECORAH,+IA+52101&hl=en"
NORTHEAST IOWA DRUG TASK FORCE,WAL-MART SUPER CENTER,1798 OLD STAGE ROAD,DECORAH,IA,52101,"http://maps.google.com/maps?q=1798 OLD STAGE ROAD,+DECORAH,+IA+52101&hl=en"
NORTHEAST IOWA DRUG TASK FORCE,WAUKON POLICE DEPT.,104 1ST STREET,WAUKON,IA,52172,"http://maps.google.com/maps?q=104 1ST STREET,+WAUKON,+IA+52172&hl=en"
NORTHEAST MISSOURI NARCOTICS TASK FORCE,COUNTY MARKET,1805 ELM ST,CANTON,MO,63435,"http://maps.google.com/maps?q=1805 ELM ST,+CANTON,+MO+63435&hl=en"
NORWALK POLICE DEPARTMENT,NORWALK POLICE DEPARTMENT,1100 CHATHAM AVE,NORWALK,IA,50211,"http://maps.google.com/maps?q=1100 CHATHAM AVE,+NORWALK,+IA+50211&hl=en"
NORWALK POLICE DEPARTMENT,"NORWALK POLICE DEPARTMENT 
												
													EVENT 10:00AM-2:00PM",208 S CHURCH STREET,NORWALK,WI,54648,"http://maps.google.com/maps?q=208 S CHURCH STREET,+NORWALK,+WI+54648&hl=en"
OREGON POLICE DEPARTMENT,"OREGON POLICE DEPARTMENT 
												
													DROP BOX ONLY M 8:00AM05:00PM T-F 8:00AM-9:00PM",383 PARK STREET,OREGON,WI,53575,"http://maps.google.com/maps?q=383 PARK STREET,+OREGON,+WI+53575&hl=en"
OSKALOOSA IA POLICE DEPARTMENT,MAHASKA DRUG PHARMACY,207 NORTH E STREET,OSKALOOSA,IA,52577,"http://maps.google.com/maps?q=207 NORTH E STREET,+OSKALOOSA,+IA+52577&hl=en"
PARKERSBURG POLICE DEPARTMENT,UNITY POINT MEDICAL CLINIC,502 3RD STREET,PARKERSBURG,IA,50665,"http://maps.google.com/maps?q=502 3RD STREET,+PARKERSBURG,+IA+50665&hl=en"
PEKIN POLICE DEPARTMENT,"PEKIN POLICE DEPARTMENT 
												
													LOBBY",111 SOUTH CAPITOL STREET,PEKIN,IL,61554,"http://maps.google.com/maps?q=111 SOUTH CAPITOL STREET,+PEKIN,+IL+61554&hl=en"
PELLA POLICE DEPARTMENT,"PELLA POLICE DEPARTMENT 
												
													FRONT LOBBY",614 MAIN ST.,PELLA,IA,50219,"http://maps.google.com/maps?q=614 MAIN ST.,+PELLA,+IA+50219&hl=en"
PEORIA POLICE DEPARTMENT,KROGER PHARMACY,9219 N. LINDBERGH DRIVE,PEORIA,IL,61615,"http://maps.google.com/maps?q=9219 N. LINDBERGH DRIVE,+PEORIA,+IL+61615&hl=en"
PEORIA POLICE DEPARTMENT,PEORIA POLICE DEPARTMENT,600 SW ADAMS,PEORIA,IL,61602,"http://maps.google.com/maps?q=600 SW ADAMS,+PEORIA,+IL+61602&hl=en"
PERRY POLICE DEPARTMENT,HY-VEE STORE,1215 HWY. 141,PERRY,IA,50220,"http://maps.google.com/maps?q=1215 HWY. 141,+PERRY,+IA+50220&hl=en"
PLATTEVILLE POLICE DEPARTMENT,"PLATTEVILLE POLICE DEPARTMENT 
												
													DROP BOX ONLY 24/7",165 N. 4TH ST,PLATTEVILLE,WI,53818,"http://maps.google.com/maps?q=165 N. 4TH ST,+PLATTEVILLE,+WI+53818&hl=en"
POLK COUNTY SHERIFF'S OFFICE,CVS,104 E 1ST STREET,ANKENY,IA,50021,"http://maps.google.com/maps?q=104 E 1ST STREET,+ANKENY,+IA+50021&hl=en"
POLK COUNTY SHERIFF'S OFFICE,CVS,215 EUCLID AVE,DES MOINES,IA,50310,"http://maps.google.com/maps?q=215 EUCLID AVE,+DES MOINES,+IA+50310&hl=en"
POLK COUNTY SHERIFF'S OFFICE,WALGREENS,2702 SE DELAWARE AVE,ANKENY,IA,50021,"http://maps.google.com/maps?q=2702 SE DELAWARE AVE,+ANKENY,+IA+50021&hl=en"
PUTNAM COUNTY SHERIFF'S OFFICE,PUTNAM SHERIFF'S OFFICE,"1601 MAIN STREET, COURTHOUSE RM:0101 (BASEMENT)",UNIONVILLE,MO,63565,"http://maps.google.com/maps?q=1601 MAIN STREET, COURTHOUSE RM:0101 (BASEMENT),+UNIONVILLE,+MO+63565&hl=en"
REEDSBURG POLICE DEPARTMENT,"REEDSBURG POLICE DEPARTMENT 
												
													DROP BOX ONLY 24/7",200 S PARK ST,REEDSBURG,WI,53959,"http://maps.google.com/maps?q=200 S PARK ST,+REEDSBURG,+WI+53959&hl=en"
RICHLAND CENTER POLICE DEPT,"RICHLAND CENTER POLICE DEPT 
												
													EVENT 10:00AM-2:00PM",470 S MAIN ST,RICHLAND CENTER,WI,53581,"http://maps.google.com/maps?q=470 S MAIN ST,+RICHLAND CENTER,+WI+53581&hl=en"
RICHLAND COUNTY SHERIFF'S OFFICE,"RICHLAND COUNTY SHERIFF'S OFFICE 
												
													DROP BOX 24/7",181 W SEMINARY ST,RICHLAND CENTER,WI,53581,"http://maps.google.com/maps?q=181 W SEMINARY ST,+RICHLAND CENTER,+WI+53581&hl=en"
RINGGOLD COUNTY SHERIFF'S OFFICE,"RINGGOLD CO SHERIFF'S OFFICE 
												
													NO BOXES",801 W. SOUTH ST.,MOUNT AYR,IA,50854,"http://maps.google.com/maps?q=801 W. SOUTH ST.,+MOUNT AYR,+IA+50854&hl=en"
ROCK COUNTY SHERIFF'S OFFICE,"ROCK COUNTY SHERIFF'S OFFICE 
												
													DROP BOX 24/7",200 E USH 14,JANESVILLE,WI,53545,"http://maps.google.com/maps?q=200 E USH 14,+JANESVILLE,+WI+53545&hl=en"
ROCK ISLAND COUNTY SHERIFF'S OFFICE,ROCK ISLAND COUNTY JUSTICE CENTER,1317 3RD AVENUE,ROCK ISLAND,IL,61201,"http://maps.google.com/maps?q=1317 3RD AVENUE,+ROCK ISLAND,+IL+61201&hl=en"
SAUK COUNTY SHERIFF'S OFFICE,"SAUK COUNTY SHERIFF'S OFFICE 
												
													DROP BOX M-F 8:00AM-4:00PM",1300 LANGE COURT,BARABOO,WI,53913,"http://maps.google.com/maps?q=1300 LANGE COURT,+BARABOO,+WI+53913&hl=en"
SAUK PRAIRIE POLICE DEPARTMENT,"SAUK PRAIRIE HOSPITAL 
												
													EVENT 9:00AM-12:00PM",260 26TH STREET,PRAIRIE DU SAC,WI,53578,"http://maps.google.com/maps?q=260 26TH STREET,+PRAIRIE DU SAC,+WI+53578&hl=en"
SCHUYLER COUNTY SHERIFF'S OFFICE,"SCHUYLER COUNTY SHERIFF'S OFFICE 
												
													SCHUYLER COUNTY COURTHOUSE BASEMENT",110 W WASHINGTON,LANCASTER,MO,63548,"http://maps.google.com/maps?q=110 W WASHINGTON,+LANCASTER,+MO+63548&hl=en"
SHULLSBURG POLICE DEPARTMENT,"SHULLSBURG POLICE DEPARTMENT 
												
													EVENT 10:00AM-2:00PM",190 N JUDGEMENT STREET,SHULLSBURG,WI,53586,"http://maps.google.com/maps?q=190 N JUDGEMENT STREET,+SHULLSBURG,+WI+53586&hl=en"
SIGOURNEY POLICE DEPARTMENT,SIGOURNEY POLICE DEPARTMENT,100 N. MAIN ST.,SIGOURNEY,IA,52591,"http://maps.google.com/maps?q=100 N. MAIN ST.,+SIGOURNEY,+IA+52591&hl=en"
SILVIS POLICE DEPARTMENT,SILVIS POLICE DEPARTMENT,600 ILLINI DR,SILVIS,IL,61282,"http://maps.google.com/maps?q=600 ILLINI DR,+SILVIS,+IL+61282&hl=en"
SOUTHEAST IOWA NARCOTICS TASK FORCE,SLUMBERLAND FURNITURE,3150 E. AGENCY RD,BURLINGTON,IA,52601,"http://maps.google.com/maps?q=3150 E. AGENCY RD,+BURLINGTON,+IA+52601&hl=en"
SPRING GREEN POLICE DEPARTMENT,"SPRING GREEN POLICE DEPARTMENT 
												
													DROP BOX ONLY M-F  8:00AM-4:30PM",112 WEST MONROE STREET,SPRING GREEN,WI,53588,"http://maps.google.com/maps?q=112 WEST MONROE STREET,+SPRING GREEN,+WI+53588&hl=en"
STRAWBERRY POINT POLICE DEPARTMENT,STRAWBERRY POINT POLICE DEPARTMENT,111 COMMERICAL ST,STRAWBERRY POINT,IA,52076,"http://maps.google.com/maps?q=111 COMMERICAL ST,+STRAWBERRY POINT,+IA+52076&hl=en"
URBANDALE POLICE DEPARTMENT,"URBANDALE POLICE DEPARTMENT 
												
													8AM-12PM",3740 86TH ST,URBANDALE,IA,50322,"http://maps.google.com/maps?q=3740 86TH ST,+URBANDALE,+IA+50322&hl=en"
UW MADISON POLICE DEPARTMENT,"UW MADISON POLICE DEPARTMENT 
												
													DROP BOX ONLY 24/7",1429 MONROE STREET,MADISON,WI,53711,"http://maps.google.com/maps?q=1429 MONROE STREET,+MADISON,+WI+53711&hl=en"
VAN BUREN COUNTY SHERIFF'S OFFICE,"LAW CENTER 
												
													LOBBY",907 BROAD STREET,KEOSAUQUA,IA,52565,"http://maps.google.com/maps?q=907 BROAD STREET,+KEOSAUQUA,+IA+52565&hl=en"
VERNON COUNTY SHERIFF'S OFFICE,"STODDARD VILLAGE HALL 
												
													EENT 10:00AM-2:00PM",180 N MAIN STREET,STODDARD,WI,54658,"http://maps.google.com/maps?q=180 N MAIN STREET,+STODDARD,+WI+54658&hl=en"
VERONA POLICE DEPARTMENT,"VERONA POLICE DEPARTMENT 
												
													EVENT 10:00AM-2:00PM",111 LINCOLN STREET,VERONA,WI,53593,"http://maps.google.com/maps?q=111 LINCOLN STREET,+VERONA,+WI+53593&hl=en"
VIROQUA POLICE DEPARTMENT,"VIROQUA POLICE DEPARTMENT 
												
													EVENT 10:00AM-2:00PM",702 EAST BROADWAY,VIROQUA,WI,54665,"http://maps.google.com/maps?q=702 EAST BROADWAY,+VIROQUA,+WI+54665&hl=en"
WARREN COUNTY SHERIFF'S OFFICE,WARREN COUNTY SHERIFF'S OFFICE,115 N HOWARD ST.,INDIANOLA,IA,50125,"http://maps.google.com/maps?q=115 N HOWARD ST.,+INDIANOLA,+IA+50125&hl=en"
WASHINGTON POLICE DEPARTMENT,WASHINGTON POLICE DEPARTMENT,115 W. JEFFERSON ST.,WASHINGTON,IL,61571,"http://maps.google.com/maps?q=115 W. JEFFERSON ST.,+WASHINGTON,+IL+61571&hl=en"
WATERLOO POLICE DEPARTMENT,GREENWOOD PHARMACY,2104 KIMBALL AVE,WATERLOO,IA,50702,"http://maps.google.com/maps?q=2104 KIMBALL AVE,+WATERLOO,+IA+50702&hl=en"
WATERLOO POLICE DEPARTMENT,WALGREENS,3910 UNIVERSITY AVE,WATERLOO,IA,50701,"http://maps.google.com/maps?q=3910 UNIVERSITY AVE,+WATERLOO,+IA+50701&hl=en"
WAUKEE POLICE DEPARTMENT,WAUKEE POLICE DEPARTMENT,1300 SE LA GRANT PKWY,WAUKEE,IA,50263,"http://maps.google.com/maps?q=1300 SE LA GRANT PKWY,+WAUKEE,+IA+50263&hl=en"
WAUNAKEE POLICE DEPARTMENT,"WAUNAKEE POLICE DEPARTMENT 
												
													EVENT 10:00AM-2:00PM",205 N KLEIN DRIVE,WAUNAKEE,WI,53597,"http://maps.google.com/maps?q=205 N KLEIN DRIVE,+WAUNAKEE,+WI+53597&hl=en"
WAVERLY POLICE DEPARTMENT,WAVERLY PUBLIC LIBRARY,1500 WEST BREMER AVE,WAVERLY,IA,50677,"http://maps.google.com/maps?q=1500 WEST BREMER AVE,+WAVERLY,+IA+50677&hl=en"
WEBSTER COUNTY SHERIFF'S OFFICE,DANIEL PHARMACY,1114 CENTRAL AVE,FORT DODGE,IA,50501,"http://maps.google.com/maps?q=1114 CENTRAL AVE,+FORT DODGE,+IA+50501&hl=en"
WEST BRANCH POLICE DEPARTMENT,WEST BRANCH CITY HALL,110 N. POPLAR ST.,WEST BRANCH,IA,52358,"http://maps.google.com/maps?q=110 N. POPLAR ST.,+WEST BRANCH,+IA+52358&hl=en"
WEST DES MOINES POLICE DEPARTMENT,WEST DES MOINES POLICE DEPARTMENT,250 MILLS CIVIC PKWY,WEST DES MOINES,IA,50265,"http://maps.google.com/maps?q=250 MILLS CIVIC PKWY,+WEST DES MOINES,+IA+50265&hl=en"
WEST LIBERTY IOWA POLICE DEPARTMENT,"CITY HALL 
												
													LOBBY (10AM - 1PM)",409 N. CALHOUN ST,WEST LIBERTY,IA,52776,"http://maps.google.com/maps?q=409 N. CALHOUN ST,+WEST LIBERTY,+IA+52776&hl=en"
WI DEPARTMENT OF JUSTICE,"WI DEPARTMENT OF JUSTICE 
												
													DROP BOX",17 WEST MAIN STREET,MADISON,WI,53703,"http://maps.google.com/maps?q=17 WEST MAIN STREET,+MADISON,+WI+53703&hl=en"
WILLIAMSBURG POLICE DEPARTMENT,WILLIAMSBURG POLICE DEPARTMENT,210 STATE STREET,WILLIAMSBURG,IA,52361,"http://maps.google.com/maps?q=210 STATE STREET,+WILLIAMSBURG,+IA+52361&hl=en"
WINDSOR HEIGHTS POLICE DEPARTMENT,WINDSOR HEIGHTS POLICE DEPARTMENT,1133 66TH STREET,WINDSOR HEIGHTS,IA,50324,"http://maps.google.com/maps?q=1133 66TH STREET,+WINDSOR HEIGHTS,+IA+50324&hl=en"
WINNEBAGO COUNTY SHERIFF'S OFFICE,WINNEBAGO COUNTY SHERIFF'S OFFICE,935 HWY. 69 NORTH,FOREST CITY,IA,50436,"http://maps.google.com/maps?q=935 HWY. 69 NORTH,+FOREST CITY,+IA+50436&hl=en"
