Participant,CollectionSite,Address,City,State,Zip,MapURL
13TH JUDICIAL DTF,COLUMBIA COUNTY SHERIFF'S OFFICE,82 COLUMBIA ROAD 300,MAGNOLIA,AR,71753,"http://maps.google.com/maps?q=82 COLUMBIA ROAD 300,+MAGNOLIA,+AR+71753&hl=en"
15TH DRUG TASK FORCE,DANVILLE POLICE DEPARTMENT,1299 EAST 8TH STREET,DANVILLE,AR,72833,"http://maps.google.com/maps?q=1299 EAST 8TH STREET,+DANVILLE,+AR+72833&hl=en"
18TH WEST JUDICIAL DRUG TASK FORCE,MONTGOMERY COUNTY SHERIFF'S OFFICE PERMANENT DROP BOX,105 HWY 270 EAST#9,MOUNT IDA,AR,71957,"http://maps.google.com/maps?q=105 HWY 270 EAST,+MOUNT IDA,+AR+71957&hl=en"
18TH WEST JUDICIAL DRUG TASK FORCE,NORMAN FIRST BAPTIST CHURCH,205 GOLF COURSE ROAD,NORMAN,AR,71960,"http://maps.google.com/maps?q=205 GOLF COURSE ROAD,+NORMAN,+AR+71960&hl=en"
5TH DRUG TASK FORCE,PARTY IN THE PARK RIVER VALLEY ARTS CENTER,1001 EAST B STREET,RUSSELLVILLE,AR,72801,"http://maps.google.com/maps?q=1001 EAST B STREET,+RUSSELLVILLE,+AR+72801&hl=en"
ALEDO ISD PD,VANDAGRIFF ELEMENTARY SCHOOL,408 FM 1187 S,ALEDO,TX,76008,"http://maps.google.com/maps?q=408  FM 1187 S,+ALEDO,+TX+76008&hl=en"
ALLEN POLICE DEPARTMENT,ALLEN CITY HALL,305 CENTURY PARKWAY,ALLEN,TX,75013,"http://maps.google.com/maps?q=305 CENTURY PARKWAY,+ALLEN,+TX+75013&hl=en"
ALLEN POLICE DEPARTMENT,LOWERY FRESHMAN CENTER,601 E. MAIN ST,ALLEN,TX,75002,"http://maps.google.com/maps?q=601 E. MAIN ST,+ALLEN,+TX+75002&hl=en"
ALMA POLICE DEPARTMENT,ALMA POLICE DEPARTMENT PERMANENT DROP BOX,804 FAYETTEVILLE AVE,ALMA,AR,72921,"http://maps.google.com/maps?q=804 FAYETTEVILLE AVE,+ALMA,+AR+72921&hl=en"
ANDERSON COUNTY SHERIFF,ANDERSON COUNTY SHERIFF,135 E 85TH AVE,GARNETT,KS,66032,"http://maps.google.com/maps?q=135 E 85TH AVE,+GARNETT,+KS+66032&hl=en"
ANDOVER POLICE DEPARTMENT,WALGREENS,440 N ANDOVER RD,ANDOVER,KS,67002,"http://maps.google.com/maps?q=440 N ANDOVER RD,+ANDOVER,+KS+67002&hl=en"
ARGYLE POLICE DEPARTMENT,ARGYLE POLICE DEPARTMENT,506 N. HWY 377,ARGYLE,TX,76226,"http://maps.google.com/maps?q=506 N. HWY 377,+ARGYLE,+TX+76226&hl=en"
ARKADELPHIA POLICE DEPARTMENT,CLARK COUNTY COURTHOUSE,401 CLAY STREET,ARKADELPHIA,AR,71923,"http://maps.google.com/maps?q=401 CLAY STREET,+ARKADELPHIA,+AR+71923&hl=en"
ARLINGTON PD,ARLINGTON POLICE DEPARTMENT EAST DISTRICT,2001 NEW YORK,ARLINGTON,TX,76010,"http://maps.google.com/maps?q=2001 NEW YORK,+ARLINGTON,+TX+76010&hl=en"
ARLINGTON PD,ARLINGTON POLICE DEPARTMENT NORTH DISTRICT,620 W. DIVISION,ARLINGTON,TX,76011,"http://maps.google.com/maps?q=620 W. DIVISION,+ARLINGTON,+TX+76011&hl=en"
ARLINGTON PD,ARLINGTON POLICE DEPARTMENT SOUTH DISTRICT,1030 S.W. GREEN OAKS BLVD.,ARLINGTON,TX,76017,"http://maps.google.com/maps?q=1030 S.W. GREEN OAKS BLVD.,+ARLINGTON,+TX+76017&hl=en"
ARLINGTON PD,LAKE ARLINGTON BRANCH PUBLIC LIBRARY,4000 W. GREEN OAKS BLVD.,ARLINGTON,TX,76016,"http://maps.google.com/maps?q=4000 W. GREEN OAKS BLVD.,+ARLINGTON,+TX+76016&hl=en"
ASHDOWN POLICE DEPARTMENT,ASHDOWN POLICE DEPARTMENT PERMANENT DROP BOX,745 SOUTH LOCUST STREET,ASHDOWN,AR,71822,"http://maps.google.com/maps?q=745 SOUTH LOCUST STREET,+ASHDOWN,+AR+71822&hl=en"
AUGUSTA DEPT. OF PUBLIC SAFETY,AUGUSTA DEPT. OF PUBLIC SAFETY,2100 N. OHIO,AUGUSTA,KS,67010,"http://maps.google.com/maps?q=2100 N. OHIO,+AUGUSTA,+KS+67010&hl=en"
AZLE PD,AZLE PD,613 SOUTHEAST PARKWAY,AZLE,TX,76020,"http://maps.google.com/maps?q=613 SOUTHEAST PARKWAY,+AZLE,+TX+76020&hl=en"
BALCH SPRINGS POLICE DEPARTMENT,BALCH SPRINGS POLICE DEPARTMENT,12500 ELAM ROAD,BALCH SPRINGS,TX,75180,"http://maps.google.com/maps?q=12500 ELAM ROAD,+BALCH SPRINGS,+TX+75180&hl=en"
BARTLESVILLE OKLAHOMA PD,BARTLESVILLE PD,615 S JOHNSTONE AVE,BARTLESVILLE,OK,74003,"http://maps.google.com/maps?q=615 S JOHNSTONE AVE,+BARTLESVILLE,+OK+74003&hl=en"
BARTLESVILLE OKLAHOMA PD,FIRE STATION NO. 3,100 SE MADISON BLVD,BARTLESVILLE,OK,74006,"http://maps.google.com/maps?q=100 SE MADISON BLVD,+BARTLESVILLE,+OK+74006&hl=en"
BARTLESVILLE OKLAHOMA PD,FIRE STATION NO. 4,3501 SE PRICE RD,BARTLESVILLE,OK,74006,"http://maps.google.com/maps?q=3501 SE PRICE RD,+BARTLESVILLE,+OK+74006&hl=en"
BARTON COUNTY SHERIFF'S OFFICE,BARTON COUNTY DRUG TAKE BACK,1300 KANSAS,GREAT BEND,KS,67530,"http://maps.google.com/maps?q=1300 KANSAS,+GREAT BEND,+KS+67530&hl=en"
BARTONVILLE POLICE DEPARTMENT,BARTONVILLE POLICE DEPARTMENT,1941 EAST JETER RD,BARTONVILLE,TX,76226,"http://maps.google.com/maps?q=1941 EAST JETER RD,+BARTONVILLE,+TX+76226&hl=en"
BEDFORD PD,BEDFORD POLICE DEPARTMENT,2121 L. DON DODSON DR.,BEDFORD,TX,76021,"http://maps.google.com/maps?q=2121 L. DON DODSON DR.,+BEDFORD,+TX+76021&hl=en"
BEGGS POLICE DEPARTMENT,BEGGS POLICE DEPARTMENT,108 N. BROADWAY,BEGGS,OK,74421,"http://maps.google.com/maps?q=108 N. BROADWAY,+BEGGS,+OK+74421&hl=en"
BEL AIRE POLICE DEPARTMENT,BEL AIRE POLICE DEPARTMENT,7651 E. CENTRAL PARK AVE.,WICHITA,KS,67226,"http://maps.google.com/maps?q=7651 E. CENTRAL PARK AVE.,+WICHITA,+KS+67226&hl=en"
BELLA VISTA POLICE DEPARTMENT,BELLA VISTA POLICE DEPARTMENT PERMANENT DROP BOX,105 TOWN CENTER,BELLA VISTA,AR,72714,"http://maps.google.com/maps?q=105 TOWN CENTER,+BELLA VISTA,+AR+72714&hl=en"
BELLE PLAINE POLICE DEPARTMENT,BELLE PLAINE POLICE DEPARTMENT,419 N. LOGAN ST,CONWAY SPRINGS,KS,67031,"http://maps.google.com/maps?q=419 N. LOGAN ST,+CONWAY SPRINGS,+KS+67031&hl=en"
BELLE PLAINE POLICE DEPARTMENT,CONWAY SPRINGS POLICE DEPARTMENT,310 W SPRING AVE,CONWAY SPRINGS,KS,67031,"http://maps.google.com/maps?q=310 W SPRING AVE,+CONWAY SPRINGS,+KS+67031&hl=en"
BELLE PLAINE POLICE DEPARTMENT,OXFORD POLICE DEPARTMENT,121 S. SUMMER,OXFORD,KS,67119,"http://maps.google.com/maps?q=121 S. SUMMER,+OXFORD,+KS+67119&hl=en"
BELLE PLAINE POLICE DEPARTMENT,WELLINGTON POLICE DEPARTMENT,"200 N. C, STE 100",WELLINGTON,KS,67152,"http://maps.google.com/maps?q=200 N. C, STE 100,+WELLINGTON,+KS+67152&hl=en"
BENTON COUNTY SHERIFF'S OFFICE,BENTON COUNTY SHERIFF'S OFFICE PERMANENT DROP BOX,1300 SW 14TH STREET,BENTONVILLE,AR,72712,"http://maps.google.com/maps?q=1300 SW 14TH STREET,+BENTONVILLE,+AR+72712&hl=en"
BIA CONCHO AGENCY,B.I.A CONCHO AGENCY,1621 B EAST HIGHWAY 66,EL RENO,OK,73036,"http://maps.google.com/maps?q=1621 B EAST HIGHWAY 66,+EL RENO,+OK+73036&hl=en"
BIA-OFFICE OF JUSTICE SERVICES,BIA-ANADARKO AGENCY,124 E PARKER MCKENZIE DR,ANADARKO,OK,73005,"http://maps.google.com/maps?q=124 E PARKER MCKENZIE DR,+ANADARKO,+OK+73005&hl=en"
BIA-OJS PAWNEE PONCA TRIBE OF OK,BIA POLICE DEPARTMENT,123 WHITE EAGLE DR,PONCA CITY,OK,74601,"http://maps.google.com/maps?q=123 WHITE EAGLE DR,+PONCA CITY,+OK+74601&hl=en"
BLUE MOUND PD,BLUE MOUND PD,301 S. BLUE MOUND RD,BLUE MOUND,TX,76131,"http://maps.google.com/maps?q=301 S. BLUE MOUND RD,+BLUE MOUND,+TX+76131&hl=en"
BOONE COUNTY SHERIFF'S OFFICE,BOONE COUNTY SHERIFF'S OFFICE PERMANENT DROP BOX,5800 LAW DRIVE,HARRISON,AR,72601,"http://maps.google.com/maps?q=5800 LAW DRIVE,+HARRISON,+AR+72601&hl=en"
BOONEVILLE POLICE DEPARTMENT,BOONEVILLE POLICE DEPARTMENT PERMANENT DROP BOX,497 EAST MAIN ST.,BOONEVILLE,AR,72927,"http://maps.google.com/maps?q=497 EAST MAIN ST.,+BOONEVILLE,+AR+72927&hl=en"
BOYD POLICE DEPARTMENT,BOYD POLICE DEPARTMENT,731 EAST ROCK ISLAND AVE.,BOYD,TX,76023,"http://maps.google.com/maps?q=731 EAST ROCK ISLAND AVE.,+BOYD,+TX+76023&hl=en"
BRANSON POLICE DEPARTMENT,LAKELAND PHARMACY,1232 BRANSON HILLS PKWY#205,BRANSON,MO,65616,"http://maps.google.com/maps?q=1232 BRANSON HILLS PKWY,+BRANSON,+MO+65616&hl=en"
BRIDGEPORT PD,STAGECOACH REHAB. CENTER UNDER AWNING OF ENTRANCE,2108 15TH ST / HWY 380,BRIDGEPORT,TX,76426,"http://maps.google.com/maps?q=2108 15TH ST / HWY 380,+BRIDGEPORT,+TX+76426&hl=en"
CADDO PARISH SHERIFF'S OFFICE,SHERIFF'S SAFETY TOWN,8910 JEWELLA AVENUE,SHREVEPORT,LA,71118,"http://maps.google.com/maps?q=8910 JEWELLA AVENUE,+SHREVEPORT,+LA+71118&hl=en"
CAMDEN POLICE DEPARTMENT,CAMDEN POLICE DEPARTMENT,1 POLICE DRIVE,CAMDEN,AR,71701,"http://maps.google.com/maps?q=1 POLICE DRIVE,+CAMDEN,+AR+71701&hl=en"
CARL JUNCTION POLICE DEPARTMENT,CARL JUNCTION POLICE DEPARTMENT,302 N MAIN,CARL JUNCTION,MO,64834,"http://maps.google.com/maps?q=302 N MAIN,+CARL JUNCTION,+MO+64834&hl=en"
CARROLL COUNTY SHERIFF'S OFFICE,CARROLL COUNTY SHERIFF'S OFFICE PERMANENT DROP BOX,205 HAILEY ROAD,BERRYVILLE,AR,72616,"http://maps.google.com/maps?q=205 HAILEY ROAD,+BERRYVILLE,+AR+72616&hl=en"
CARROLLTON PD,CARROLLTON PD,2025 E JACKSON RD,CARROLLTON,TX,75006,"http://maps.google.com/maps?q=2025 E JACKSON RD,+CARROLLTON,+TX+75006&hl=en"
CARROLLTON PD,HEBRON VALLEY ELEMENTARY SCHOOL,4108 CREEK VALLEY BLVD,CARROLLTON,TX,75010,"http://maps.google.com/maps?q=4108 CREEK VALLEY BLVD,+CARROLLTON,+TX+75010&hl=en"
CASSVILLE POLICE DEPARTMENT,CITY HALL/CASSVILLE POLICE DEPT,300 MAIN STREET,CASSVILLE,MO,65625,"http://maps.google.com/maps?q=300 MAIN STREET,+CASSVILLE,+MO+65625&hl=en"
CEDAR HILL PD,CEDAR HILL ISD PD ADMIN BLDG,504 E. BELTLINE RD,CEDAR HILL,TX,75104,"http://maps.google.com/maps?q=504 E. BELTLINE RD,+CEDAR HILL,+TX+75104&hl=en"
CELINA POLICE DEPARTMENT,CELINA FIRE DEPARTMENT,1413 S PRESTON RD,CELINA,TX,75009,"http://maps.google.com/maps?q=1413 S PRESTON RD,+CELINA,+TX+75009&hl=en"
CENTERTON POLICE DEPARTMENT,CENTERTON POLICE DEPARTMENT PERMANENT DROP BOX,220 MUNICIPAL DR,CENTERTON,AR,72719,"http://maps.google.com/maps?q=220 MUNICIPAL DR,+CENTERTON,+AR+72719&hl=en"
CHANUTE POLICE DEPT,MEDICINE SHOPPE,421 W. MAIN,CHANUTE,KS,66720,"http://maps.google.com/maps?q=421 W. MAIN,+CHANUTE,+KS+66720&hl=en"
CHENEY POLICE DEPT.,FIRE STATION,525 N MAIN,CHENEY,KS,67025,"http://maps.google.com/maps?q=525 N MAIN,+CHENEY,+KS+67025&hl=en"
CHEROKEE COUNTY SHERIFF'S OFFICE,APPLE MARKET,103 NORTH EAST AVENUE,COLUMBUS,KS,66725,"http://maps.google.com/maps?q=103 NORTH EAST AVENUE,+COLUMBUS,+KS+66725&hl=en"
CHEROKEE COUNTY SHERIFF'S OFFICE,GALENA CITY HALL,211 WEST 7TH STREET,GALENA,KS,66739,"http://maps.google.com/maps?q=211 WEST 7TH STREET,+GALENA,+KS+66739&hl=en"
CHEROKEE COUNTY SHERIFF'S OFFICE,MARVINS IGA,1400 MILITARY AVENUE,BAXTER SPRINGS,KS,66713,"http://maps.google.com/maps?q=1400 MILITARY AVENUE,+BAXTER SPRINGS,+KS+66713&hl=en"
CHEROKEE NATION MARSHAL SERVICE,CHEROKEE NATION MARSHAL SERVICE,22114 S BALDHILL RD,TAHLEQUAH,OK,74465,"http://maps.google.com/maps?q=22114 S BALDHILL RD,+TAHLEQUAH,+OK+74465&hl=en"
CLARKSVILLE POLICE DEPARTMENT,CLARKSVILLE POLICE DEPARTMENT PERMANENT DROP BOX,1008 WEST MAIN STREET,CLARKSVILLE,AR,72830,"http://maps.google.com/maps?q=1008 WEST MAIN STREET,+CLARKSVILLE,+AR+72830&hl=en"
COLLEYVILLE PD,COLLEYVILLE SENIOR CENTER,2512 GLADE RD,COLLEYVILLE,TX,76034,"http://maps.google.com/maps?q=2512 GLADE RD,+COLLEYVILLE,+TX+76034&hl=en"
COLONY PD,THE COLONY HIGH SCHOOL,4301 BLAIR OAKS,THE COLONY,TX,75056,"http://maps.google.com/maps?q=4301 BLAIR OAKS,+THE COLONY,+TX+75056&hl=en"
COPPELL POLICE DEPT,COPPELL JUSTICE CENTER,130 TOWN CENTER BLVD,COPPELL,TX,75019,"http://maps.google.com/maps?q=130 TOWN CENTER BLVD,+COPPELL,+TX+75019&hl=en"
COWLEY COUNTY SHERIFF'S OFFICE,COWLEY COUNTY SHERIFF'S OFFICE,911 FULLER ST,WINFIELD,KS,67156,"http://maps.google.com/maps?q=911 FULLER ST,+WINFIELD,+KS+67156&hl=en"
CRAIG COUNTY SO,CRAIG COUNTY SHERIFFS OFFICE,210 W. DELAWARE AVE #101,VINITA,OK,74301,"http://maps.google.com/maps?q=210 W. DELAWARE AVE #101,+VINITA,+OK+74301&hl=en"
CRAWFORD COUNTY SHERIFF'S OFFICE,CRAWFORD COUNTY JUSTICE CENTER PERMANENT DROP BOX,4235 ALMA HWY,VAN BUREN,AR,72956,"http://maps.google.com/maps?q=4235 ALMA HWY,+VAN BUREN,+AR+72956&hl=en"
CROWLEY PD,CROWLEY PD,617 BUSINESS FM 1187 W,CROWLEY,TX,76036,"http://maps.google.com/maps?q=617 BUSINESS FM 1187 W,+CROWLEY,+TX+76036&hl=en"
CUSTER COUNTY SO,HOMELAND,1200 W. GARY BLVD.,CLINTON,OK,73601,"http://maps.google.com/maps?q=1200 W. GARY BLVD.,+CLINTON,+OK+73601&hl=en"
DAINGERFIELD PD,SHOPPING CENTER,305 W.M. WATSON BLVD.,DAINGERFIELD,TX,75638,"http://maps.google.com/maps?q=305 W.M. WATSON BLVD.,+DAINGERFIELD,+TX+75638&hl=en"
DALLAS COUNTY HOSP DIST PD,AMBULATORY SURGERY CENTER,4900 HARRY HINES BLVD,DALLAS,TX,75235,"http://maps.google.com/maps?q=4900 HARRY HINES BLVD,+DALLAS,+TX+75235&hl=en"
DALLAS COUNTY HOSP DIST PD,BLUITT-FLOWERS CENTER,303 E OVERTON RD,DALLAS,TX,75216,"http://maps.google.com/maps?q=303 E OVERTON RD,+DALLAS,+TX+75216&hl=en"
DALLAS COUNTY HOSP DIST PD,DE-HARO-SALDIVAR CENTER,1400 N WESTMORELAND RD,DALLAS,TX,75211,"http://maps.google.com/maps?q=1400 N WESTMORELAND RD,+DALLAS,+TX+75211&hl=en"
DALLAS COUNTY HOSP DIST PD,GARLAND CENTER,802 HOPKINS ST,GARLAND,TX,75040,"http://maps.google.com/maps?q=802 HOPKINS ST,+GARLAND,+TX+75040&hl=en"
DALLAS COUNTY HOSP DIST PD,HATCHER WOMEN'S CENTER,4600 SCYENE RD,DALLAS,TX,75210,"http://maps.google.com/maps?q=4600 SCYENE RD,+DALLAS,+TX+75210&hl=en"
DALLAS COUNTY HOSP DIST PD,SOUTHEAST DALLAS CENTER,9202 ELAM RD,DALLAS,TX,75217,"http://maps.google.com/maps?q=9202 ELAM RD,+DALLAS,+TX+75217&hl=en"
DALLAS POLICE DEPARTMENT,BACHMAN LAKE BRANCH LIBRARY,9480 WEBB CHAPEL RD,DALLAS,TX,75220,"http://maps.google.com/maps?q=9480 WEBB CHAPEL RD,+DALLAS,+TX+75220&hl=en"
DALLAS POLICE DEPARTMENT,DALLAS POLICE SUBSTATION NORTHEAST DIVISION,9915 E NORTHWEST HWY,DALLAS,TX,75238,"http://maps.google.com/maps?q=9915 E NORTHWEST HWY,+DALLAS,+TX+75238&hl=en"
DALLAS POLICE DEPARTMENT,DAN F. LONG MIDDLE SCHOOL,2525 FRANKFORD RD,DALLAS,TX,75287,"http://maps.google.com/maps?q=2525 FRANKFORD RD,+DALLAS,+TX+75287&hl=en"
DALLAS POLICE DEPARTMENT,E.B. COMSTOCK MIDDLE SCHOOL,7044 HODDE STREET,DALLAS,TX,75217,"http://maps.google.com/maps?q=7044 HODDE STREET,+DALLAS,+TX+75217&hl=en"
DALLAS POLICE DEPARTMENT,KATHLYN JOY GILLIAM COLLEGIATE ACADEMY,1700 E. CAMP WISDOM RD.,DALLAS,TX,75241,"http://maps.google.com/maps?q=1700 E. CAMP WISDOM RD.,+DALLAS,+TX+75241&hl=en"
DALLAS POLICE DEPARTMENT,L.V. STOCKARD MIDDLE SCHOOL,2300 S. RAVINIA DR.,DALLAS,TX,75211,"http://maps.google.com/maps?q=2300 S. RAVINIA DR.,+DALLAS,+TX+75211&hl=en"
DALLAS POLICE DEPARTMENT,WOODROW WILSON HIGH SCHOOL,100 S. GLASGOW DR.,DALLAS,TX,75214,"http://maps.google.com/maps?q=100 S. GLASGOW DR.,+DALLAS,+TX+75214&hl=en"
DALLAS SHERIFF'S DEPARTMENT,SOUTH DALLAS GOVERNMENT CENTER,7201 SOUTH POLK,DALLAS,TX,75232,"http://maps.google.com/maps?q=7201 SOUTH POLK,+DALLAS,+TX+75232&hl=en"
DARDANELLE POLICE DEPARTMENT,DARDANELLE POLICE DEPARTMENT PERMANENT DROP BOX,2005 HIGHWAY 22,DARDANELLE,AR,72834,"http://maps.google.com/maps?q=2005 HIGHWAY 22,+DARDANELLE,+AR+72834&hl=en"
DEA TULSA RESIDENT OFFICE,NEWS ON 6,303 N. BOSTON AVENUE,TULSA,OK,74103,"http://maps.google.com/maps?q=303 N. BOSTON AVENUE,+TULSA,+OK+74103&hl=en"
DENISON POLICE DEPARTMENT,DENISON POLICE DEPARTMENT,108 W. MAIN ST.,DENISON,TX,75020,"http://maps.google.com/maps?q=108 W. MAIN ST.,+DENISON,+TX+75020&hl=en"
DERBY POLICE DEPARTMENT,DERBY POLICE DEPARTMENT,229 N. BALTIMORE,DERBY,KS,67037,"http://maps.google.com/maps?q=229 N. BALTIMORE,+DERBY,+KS+67037&hl=en"
DESOTO POLICE DEPT.,DESOTO POLICE DEPARTMENT,714 E. BELTLINE RD.,DESOTO,TX,75115,"http://maps.google.com/maps?q=714 E. BELTLINE RD.,+DESOTO,+TX+75115&hl=en"
DUNCANVILLE PD,DUNCANVILLE PD,203 E WHEATLAND RD,DUNCANVILLE,TX,75116,"http://maps.google.com/maps?q=203 E WHEATLAND RD,+DUNCANVILLE,+TX+75116&hl=en"
EL DORADO POLICE DEPARTMENT,WALMART,301 S. VILLAGE RD,EL DORADO,KS,67042,"http://maps.google.com/maps?q=301 S. VILLAGE RD,+EL DORADO,+KS+67042&hl=en"
ELKINS POLICE DEPARTMENT,ELKINS POLICE DEPARTMENT PERMANENT DROP BOX,1874 STOKENBURY ROAD,ELKINS,AR,72727,"http://maps.google.com/maps?q=1874 STOKENBURY ROAD,+ELKINS,+AR+72727&hl=en"
EUREKA SPRINGS POLICE DEPARTMENT,EUREKA SPRINGS POLICE DEPARTMENT PERMANENT DROP BOX,147 PASSION PLAY ROAD,EUREKA SPRINGS,AR,72632,"http://maps.google.com/maps?q=147 PASSION PLAY ROAD,+EUREKA SPRINGS,+AR+72632&hl=en"
EVERMAN PD,EVERMAN POLICE DEPARTMENT,404 W ENON AVE,EVERMAN,TX,76140,"http://maps.google.com/maps?q=404 W ENON AVE,+EVERMAN,+TX+76140&hl=en"
FAIR GROVE POLICE DEPARTMENT,FAMILY PHARMACY,49 E. OLD MILL RD,FAIR GROVE,MO,65648,"http://maps.google.com/maps?q=49 E. OLD MILL RD,+FAIR GROVE,+MO+65648&hl=en"
FAIRVIEW PD,FAIRVIEW FIRE STATION #1,500 SOUTH STATE HWY 5,FAIRVIEW,TX,75069,"http://maps.google.com/maps?q=500 SOUTH STATE HWY 5,+FAIRVIEW,+TX+75069&hl=en"
FARMERS BRANCH PD,FARMERS BRANCH POLICE DEPT,3723 VALLEY VIEW LANE,FARMERS BRANCH,TX,75244,"http://maps.google.com/maps?q=3723 VALLEY VIEW LANE,+FARMERS BRANCH,+TX+75244&hl=en"
FARMERSVILLE POLICE DEPARTMENT,FARMERSVILLE POLICE DEPT.,134 N. WASHINGTON ST.,FARMERSVILLE,TX,75442,"http://maps.google.com/maps?q=134 N. WASHINGTON ST.,+FARMERSVILLE,+TX+75442&hl=en"
FARMINGTON POLICE DEPARTMENT,FARMINGTON POLICE DEPARTMENT PERMANENT DROP BOX,354 WEST MAIN,FARMINGTON,AR,72730,"http://maps.google.com/maps?q=354 WEST MAIN,+FARMINGTON,+AR+72730&hl=en"
FAYETTEVILLE POLICE DEPARTMENT,HARPS MARKETPLACE #124,1274 N. COLORADO DR,FAYETTEVILLE,AR,72704,"http://maps.google.com/maps?q=1274 N. COLORADO DR,+FAYETTEVILLE,+AR+72704&hl=en"
FERRIS POLICE DEPARTMENT,GAZEBO ON THE TOWN SQUARE,100 TOWN PLAZA,FERRIS,TX,75125,"http://maps.google.com/maps?q=100 TOWN PLAZA,+FERRIS,+TX+75125&hl=en"
FLOWER MOUND PD,FLOWER MOUND HIGH SCHOOL,3411 PETERS COLONY,FLOWER MOUND,TX,75022,"http://maps.google.com/maps?q=3411 PETERS COLONY,+FLOWER MOUND,+TX+75022&hl=en"
FLOWER MOUND PD,MARCUS HIGH SCHOOL,5707 MORRISS RD,FLOWER MOUND,TX,75028,"http://maps.google.com/maps?q=5707 MORRISS RD,+FLOWER MOUND,+TX+75028&hl=en"
FORSYTH POLICE DEPARTMENT,COUNTRY MART,15720 US HWY 160,FORSYTH,MO,65653,"http://maps.google.com/maps?q=15720 US HWY 160,+FORSYTH,+MO+65653&hl=en"
FORT SMITH POLICE DEPARTMENT,FORT SMITH POLICE DEPARTMENT PERMANENT DROP BOX,100 SOUTH 10TH STREET,FORT SMITH,AR,72901,"http://maps.google.com/maps?q=100 SOUTH 10TH STREET,+FORT SMITH,+AR+72901&hl=en"
FORT WORTH PD,FORT WORTH PD BOB BOLEN,505 W FELIX ST,FORT WORTH,TX,76115,"http://maps.google.com/maps?q=505 W FELIX ST,+FORT WORTH,+TX+76115&hl=en"
FORT WORTH PD,FORT WORTH PD EAST DIVISION PARKING LOT BY PROP ROOM,3616 E LANCASTER,FORT WORTH,TX,76102,"http://maps.google.com/maps?q=3616 E LANCASTER,+FORT WORTH,+TX+76102&hl=en"
FORT WORTH PD,NORTH DIVISION SECTOR,4651 N. MAIN ST.,FORT WORTH,TX,76106,"http://maps.google.com/maps?q=4651 N. MAIN ST.,+FORT WORTH,+TX+76106&hl=en"
FORT WORTH PD,NORTHWEST DIVISION SECTOR,8755 N. RIVERSIDE DR,FORT WORTH,TX,76244,"http://maps.google.com/maps?q=8755 N. RIVERSIDE DR,+FORT WORTH,+TX+76244&hl=en"
FORT WORTH PD,RIDGMAR MALL N PARKING LOT BY DILLARDS,1888 GREEN OAKS RD,FORT WORTH,TX,76116,"http://maps.google.com/maps?q=1888 GREEN OAKS RD,+FORT WORTH,+TX+76116&hl=en"
FORT WORTH PD,RIVERSIDE COMMUNITY CENTER,3700 E BELKNAP ST,FORT WORTH,TX,76111,"http://maps.google.com/maps?q=3700 E BELKNAP ST,+FORT WORTH,+TX+76111&hl=en"
FRANKLIN COUNTY SHERIFF'S OFFICE,FRANKLIN COUNTY SHERIFF'S OFFICE PERMANENT DROP BOX,101 WEST MAIN STREET,OZARK,AR,72949,"http://maps.google.com/maps?q=101 WEST MAIN STREET,+OZARK,+AR+72949&hl=en"
GAINESVILLE POLICE DEPARTMENT,CHIEF STEVEN K. FLEMING PUBLIC SAFETY CENTER,201 SANTA FE STREET,GAINESVILLE,TX,76240,"http://maps.google.com/maps?q=201 SANTA FE STREET,+GAINESVILLE,+TX+76240&hl=en"
GARLAND COUNTY SHERIFFS DEPARTMENT,GARLAND COUNTY SHERIFF'S DEPARTMENT PERMANENT DROP BOX,525 OUCHITA AVENUE,HOT SPRINGS,AR,71901,"http://maps.google.com/maps?q=525 OUCHITA AVENUE,+HOT SPRINGS,+AR+71901&hl=en"
GENTRY POLICE DEPARTMENT,GENTRY POLICE DEPARTMENT PERMANENT DROP BOX,628 E. THIRD ST.,GENTRY,AR,72734,"http://maps.google.com/maps?q=628 E. THIRD ST.,+GENTRY,+AR+72734&hl=en"
GILMER POLICE DEPARTMENT,GILMER CIVIC CENTER,1218 271 NORTH,GILMER,TX,75644,"http://maps.google.com/maps?q=1218 271 NORTH,+GILMER,+TX+75644&hl=en"
GLENN HEIGHTS PD,GLENN HEIGHTS POLICE DEPARTMENT,550 E. BEAR CREEK RD.,GLENN HEIGHTS,TX,75154,"http://maps.google.com/maps?q=550 E. BEAR CREEK RD.,+GLENN HEIGHTS,+TX+75154&hl=en"
GLENWOOD POLICE DEPARTMENT,GLENWOOD CITY HALL PERMANENT DROP BOX,210 NORTH 2ND STREET,GLENWOOD,AR,71943,"http://maps.google.com/maps?q=210 NORTH 2ND STREET,+GLENWOOD,+AR+71943&hl=en"
GODDARD POLICE DEPARTMENT,GODDARD CITY HALL/POLICE DEPARTMENT,118 N MAIN ST,GODDARD,KS,67052,"http://maps.google.com/maps?q=118 N MAIN ST,+GODDARD,+KS+67052&hl=en"
GRANBY POLICE DEPARTMENT,GRANBY COMMUNITY BUILDING,147 E. CHURCH ST,GRANBY,MO,64844,"http://maps.google.com/maps?q=147 E. CHURCH ST,+GRANBY,+MO+64844&hl=en"
GRAND PRAIRIE POLICE DEPT.,PUBLIC SAFETY BUILDING,1525 ARKANSAS LANE,GRAND PRAIRIE,TX,75052,"http://maps.google.com/maps?q=1525 ARKANSAS LANE,+GRAND PRAIRIE,+TX+75052&hl=en"
GRAPEVINE POLICE DEPT,GRAPEVINE PD,1007 IRA E WOODS AVE,GRAPEVINE,TX,76051,"http://maps.google.com/maps?q=1007 IRA E WOODS AVE,+GRAPEVINE,+TX+76051&hl=en"
GRAVETTE POLICE DEPARTMENT,GRAVETTE POLICE DEPARTMENT PERMANENT DROP BOX,606 1ST AVE SE,GRAVETTE,AR,72736,"http://maps.google.com/maps?q=606 1ST AVE SE,+GRAVETTE,+AR+72736&hl=en"
GREENE COUNTY SHERIFF'S OFFICE,ALPS PHARMACY,2650 W. KEARNEY ST,SPRINGFIELD,MO,65803,"http://maps.google.com/maps?q=2650 W. KEARNEY ST,+SPRINGFIELD,+MO+65803&hl=en"
GREENE COUNTY SHERIFF'S OFFICE,GEORGE'S PHARMACY,3650 E. SUNSHINE ST,SPRINGFIELD,MO,65809,"http://maps.google.com/maps?q=3650 E. SUNSHINE ST,+SPRINGFIELD,+MO+65809&hl=en"
GREENE COUNTY SHERIFF'S OFFICE,LAWRENCE DRUG,1454 E. REPUBLIC ROAD,SPRINGFIELD,MO,65804,"http://maps.google.com/maps?q=1454 E. REPUBLIC ROAD,+SPRINGFIELD,+MO+65804&hl=en"
GREENE COUNTY SHERIFF'S OFFICE,MEDICINE STORE,1302 E. SUNSHINE ST,SPRINGFIELD,MO,65804,"http://maps.google.com/maps?q=1302 E. SUNSHINE ST,+SPRINGFIELD,+MO+65804&hl=en"
GREENE COUNTY SHERIFF'S OFFICE,MERCY PHARMACY,3231 S. NATIONAL AVE,SPRINGFIELD,MO,65807,"http://maps.google.com/maps?q=3231 S. NATIONAL AVE,+SPRINGFIELD,+MO+65807&hl=en"
GREENE COUNTY SHERIFF'S OFFICE,WALGREENS,2681 W. REPUBLIC ROAD,SPRINGFIELD,MO,65807,"http://maps.google.com/maps?q=2681 W. REPUBLIC ROAD,+SPRINGFIELD,+MO+65807&hl=en"
GREENVILLE PD,GREENVILLE PD,3000 LEE STREET,GREENVILLE,TX,75401,"http://maps.google.com/maps?q=3000 LEE STREET,+GREENVILLE,+TX+75401&hl=en"
GREENWOOD POLICE DEPARTMENT,GREENWOOD POLICE DEPARTMENT PERMANENT DROP BOX,250 OLD HACKETT RD,GREENWOOD,AR,72936,"http://maps.google.com/maps?q=250 OLD HACKETT RD,+GREENWOOD,+AR+72936&hl=en"
GREENWOOD POLICE DEPARTMENT,WAL-MART,551 LIBERTY DRIVE,GREENWOOD,AR,72936,"http://maps.google.com/maps?q=551 LIBERTY DRIVE,+GREENWOOD,+AR+72936&hl=en"
HARRISON POLICE DEPARTMENT,HARRISON POLICE DEPARTMENT,116 SOUTH SPRING STREET,HARRISON,AR,72601,"http://maps.google.com/maps?q=116 SOUTH SPRING STREET,+HARRISON,+AR+72601&hl=en"
HARVEY COUNTY SHERIFF'S OFFICE,HARVEY COUNTY SHERIFF'S OFFICE,120 E 7TH,NEWTON,KS,67114,"http://maps.google.com/maps?q=120 E 7TH,+NEWTON,+KS+67114&hl=en"
HAYSVILLE POLICE DEPARTMENT,HAYSVILLE PD,200 W. GRAND,HAYSVILLE,KS,67060,"http://maps.google.com/maps?q=200 W. GRAND,+HAYSVILLE,+KS+67060&hl=en"
HIGHLAND PARK DEPT OF PUBLIC SAFETY,HIGHLAND PARK DPS,4700 DREXEL DR,HIGHLAND PARK,TX,75205,"http://maps.google.com/maps?q=4700 DREXEL DR,+HIGHLAND PARK,+TX+75205&hl=en"
HILLSBORO POLICE DEPARTMENT,HILLSBORO POLICE DEPARTMENT,414 N. ASH ST.,HILLSBORO,KS,67063,"http://maps.google.com/maps?q=414 N. ASH ST.,+HILLSBORO,+KS+67063&hl=en"
HOPE POLICE DEPARTMENT,HEMPSTEAD COUNTY LAW ENFORCEMENT CENTER PERMANENT DROP BOX,312 SOUTH WASHINGTON,HOPE,AR,71801,"http://maps.google.com/maps?q=312 SOUTH WASHINGTON,+HOPE,+AR+71801&hl=en"
HOT SPRINGS POLICE DEPARTMENT,HOT SPRINGS POLICE DEPARTMENT PERMANENT DROP BOX,641 MALVERN AVE.,HOT SPRINGS NATIONAL PARK,AR,71901,"http://maps.google.com/maps?q=641 MALVERN AVE.,+HOT SPRINGS NATIONAL PARK,+AR+71901&hl=en"
HOT SPRINGS VILLAGE POLICE DEPARTMENT,HOT SPRINGS VILLAGE POLICE DEPARTMENT PERMANENT DROP BOX,113 CALELLA RD.,HOT SPRINGS VILLAGE,AR,71909,"http://maps.google.com/maps?q=113 CALELLA RD.,+HOT SPRINGS VILLAGE,+AR+71909&hl=en"
HOWARD COUNTY SHERIFF'S OFFICE,HOWARD COUNTY SHERIFF'S OFFICE PERMANENT DROP BOX,101 ISAAC PERKINS BLVD.,NASHVILLE,AR,71852,"http://maps.google.com/maps?q=101 ISAAC PERKINS BLVD.,+NASHVILLE,+AR+71852&hl=en"
HUTCHINSON POLICE DEPARTMENT,HUTCHINSON CLINIC,2101 N. WALDRON ST,HUTCHINSON,KS,67502,"http://maps.google.com/maps?q=2101 N. WALDRON ST,+HUTCHINSON,+KS+67502&hl=en"
IRVING POLICE DEPT,IRVING POLICE DEPARTMENT PARKING LOT,305 N O'CONNOR RD,IRVING,TX,75061,"http://maps.google.com/maps?q=305 N O'CONNOR RD,+IRVING,+TX+75061&hl=en"
IRVING POLICE DEPT,IRVING POLICE NORTH STATION PARKING LOT,5992 RIVERSIDE DRIVE,IRVING,TX,75039,"http://maps.google.com/maps?q=5992 RIVERSIDE DRIVE,+IRVING,+TX+75039&hl=en"
JACKSBORO PD,JACK COUNTY COURT HOUSE N SIDE,100 N MAIN,JACKSBORO,TX,76458,"http://maps.google.com/maps?q=100 N MAIN,+JACKSBORO,+TX+76458&hl=en"
JASPER COUNTY SHERIFF'S OFFICE,JASPER COUNTY COURTHOUSE,601 PEARL AVE,JOPLIN,MO,64801,"http://maps.google.com/maps?q=601 PEARL AVE,+JOPLIN,+MO+64801&hl=en"
JOHNSON COUNTY SHERIFF'S DEPARTMENT,JOHNSON COUNTY COURTHOUSE PERMANENT DROP BOX,215 W. MAIN ST.,CLARKSVILLE,AR,72830,"http://maps.google.com/maps?q=215 W. MAIN ST.,+CLARKSVILLE,+AR+72830&hl=en"
JOHNSON COUNTY SHERIFF'S DEPARTMENT,JOHNSON COUNTY SHERIFF'S OFFICE PERMANENT DROP BOX,P.O. BOX 39,CLARKSVILLE,AR,72830,"http://maps.google.com/maps?q=P.O. BOX 39,+CLARKSVILLE,+AR+72830&hl=en"
JOHNSON COUNTY SHERIFF'S DEPARTMENT,SENIOR ACTIVITY CENTER PERMANENT DROP BOX,1421 OAKLAND ST.,CLARKSVILLE,AR,72830,"http://maps.google.com/maps?q=1421 OAKLAND ST.,+CLARKSVILLE,+AR+72830&hl=en"
JOHNSON POLICE DEPARTMENT,JOHNSON POLICE DEPARTMENT,2904 MAIN DRIVE,JOHNSON,AR,72741,"http://maps.google.com/maps?q=2904 MAIN DRIVE,+JOHNSON,+AR+72741&hl=en"
JOPLIN POLICE DEPARTMENT,MEDICINE SHOP PARKING LOT,2131 E. 32ND STREET,JOPLIN,MO,64804,"http://maps.google.com/maps?q=2131 E. 32ND STREET,+JOPLIN,+MO+64804&hl=en"
KAUFMAN POLICE DEPARTMENT,KAUFMAN HELP CENTER,400 S. TERRELL HWY,KAUFMAN,TX,75142,"http://maps.google.com/maps?q=400 S. TERRELL HWY,+KAUFMAN,+TX+75142&hl=en"
KELLER POLICE DEPARTMENT,KELLER POLICE DEPARTMENT,330 RUFE SNOW DRIVE,KELLER,TX,76248,"http://maps.google.com/maps?q=330 RUFE SNOW DRIVE,+KELLER,+TX+76248&hl=en"
KEMP POLICE DEPARTMENT,KEMP POLICE DEPARTMENT,100 SOUTH STATE HIGHWAY 274,KEMP,TX,75143,"http://maps.google.com/maps?q=100 SOUTH STATE HIGHWAY 274,+KEMP,+TX+75143&hl=en"
KENNEDALE POLICE DEPT,KENNEDALE POLICE DEPT,401 MUNICIPAL DR,KENNEDALE,TX,76060,"http://maps.google.com/maps?q=401 MUNICIPAL DR,+KENNEDALE,+TX+76060&hl=en"
KINGMAN COUNTY SHERIFF'S OFFICE,CUNNINGHAM CLINIC,112 N. MAIN STREET,CUNNINGHAM,KS,67035,"http://maps.google.com/maps?q=112 N. MAIN STREET,+CUNNINGHAM,+KS+67035&hl=en"
KINGMAN COUNTY SHERIFF'S OFFICE,KINGMAN LAW ENFORCEMENT CENTER,120 N. SPRUCE STREET,KINGMAN,KS,67068,"http://maps.google.com/maps?q=120 N. SPRUCE STREET,+KINGMAN,+KS+67068&hl=en"
LAFAYETTE COUNTY SHERIFF'S OFFICE,LAFAYETTE COUNTY SHERIFF'S OFFICE PERMANENT DROP BOX,5 COURTHOUSE SQUARE,LEWISVILLE,AR,71845,"http://maps.google.com/maps?q=5 COURTHOUSE SQUARE,+LEWISVILLE,+AR+71845&hl=en"
LAKE DALLAS POLICE DEPARTMENT,LAKE DALLAS POLICE DEPARTMENT,212 MAIN ST,LAKE DALLAS,TX,75065,"http://maps.google.com/maps?q=212 MAIN ST,+LAKE DALLAS,+TX+75065&hl=en"
LAMAR POLICE DEPARTMENT,LAMAR CITY HALL PERMANENT DROP BOX,437 W MAIN STREET,LAMAR,AR,72846,"http://maps.google.com/maps?q=437 W MAIN STREET,+LAMAR,+AR+72846&hl=en"
LARNED POLICE DEPARTMENT,LARNED POLICE DEPARTMENT,419 BROADWAY,LARNED,KS,67550,"http://maps.google.com/maps?q=419 BROADWAY,+LARNED,+KS+67550&hl=en"
LAVACA POLICE DEPARTMENT,LAVACA POLICE DEPARTMENT PERMANENT DROP BOX,104 SOUTH DAVIS STREET,LAVACA,AR,72941,"http://maps.google.com/maps?q=104 SOUTH DAVIS STREET,+LAVACA,+AR+72941&hl=en"
LAVON PD,LAVON PD,501 B. LINCOLN AVE,LAVON,TX,75166,"http://maps.google.com/maps?q=501 B. LINCOLN AVE,+LAVON,+TX+75166&hl=en"
LEWISVILLE PD,LEWISVILLE HIGH SCHOOL,1098 W. MAIN STREET,LEWISVILLE,TX,75067,"http://maps.google.com/maps?q=1098 W. MAIN STREET,+LEWISVILLE,+TX+75067&hl=en"
LITTLE ELM PD,LITTLE ELM PUBLIC SAFETY CENTER,88 W. ELDORADO PKWY,LITTLE ELM,TX,75068,"http://maps.google.com/maps?q=88 W. ELDORADO PKWY,+LITTLE ELM,+TX+75068&hl=en"
LITTLE FLOCK POLICE DEPARTMENT,LITTLE FLOCK POLICE DEPARTMENT PERMANENT DROP BOX,1500 LITTLE FLOCK DR.,ROGERS,AR,72756,"http://maps.google.com/maps?q=1500 LITTLE FLOCK DR.,+ROGERS,+AR+72756&hl=en"
LITTLE RIVER COUNTY SHERIFF'S OFFICE,LITTLE RIVER COUNTY SHERIFF'S OFFICE PERMANENT DROP BOX,351 N. SECOND ST.,ASHDOWN,AR,71822,"http://maps.google.com/maps?q=351 N. SECOND ST.,+ASHDOWN,+AR+71822&hl=en"
LOGAN COUNTY SHERIFF'S OFFICE,LOGAN POLICE DEPARTMENT PERMANENT DROP BOX,508 W. GROBER ST,PARIS,AR,72855,"http://maps.google.com/maps?q=508 W. GROBER ST,+PARIS,+AR+72855&hl=en"
LOWELL POLICE DEPARTMENT,LOWELL POLICE DEPARTMENT,216 NORTH LINCOLN STREETPERMANENT DROP BOX,LOWELL,AR,72745,"http://maps.google.com/maps?q=216 NORTH LINCOLN STREET,+LOWELL,+AR+72745&hl=en"
MADISON COUNTY SHERIFF'S DEPARTMENT,MADISON COUNTY SHERIFF'S OFFICE PERMANENT DROP BOX,201 WEST MAIN STREET,HUNTSVILLE,AR,72740,"http://maps.google.com/maps?q=201 WEST MAIN STREET,+HUNTSVILLE,+AR+72740&hl=en"
MALVERN POLICE DEPARTMENT,MALVERN POLICE DEPARTMENT PERMANENT DROP BOX,215 EAST HIGHLAND AVE,MALVERN,AR,72104,"http://maps.google.com/maps?q=215 EAST HIGHLAND AVE,+MALVERN,+AR+72104&hl=en"
MALVERN POLICE DEPARTMENT,MALVERN WALMART SUPERCENTER PARKING LOT,1910 MARTIN LUTHER KING BLVD,MALVERN,AR,72104,"http://maps.google.com/maps?q=1910 MARTIN LUTHER KING BLVD,+MALVERN,+AR+72104&hl=en"
MANSFIELD PD,MANSFIELD POLICE DEPARTMENT,1305 E. BROAD ST,MANSFIELD,TX,76063,"http://maps.google.com/maps?q=1305 E. BROAD ST,+MANSFIELD,+TX+76063&hl=en"
MCKINNEY PD,MCKINNEY PUBLIC SAFETY BUILDING,2200 TAYLOR BURK DR,MCKINNEY,TX,75071,"http://maps.google.com/maps?q=2200 TAYLOR BURK DR,+MCKINNEY,+TX+75071&hl=en"
MCPHERSON POLICE DEPARTMENT,MCPHERSON JOINT LAW ENFORCEMENT CTR LOBBY,1177 W. WOODSIDE CTR,MCPHERSON,KS,67460,"http://maps.google.com/maps?q=1177 W. WOODSIDE CTR,+MCPHERSON,+KS+67460&hl=en"
MELISSA POLICE DEPARTMENT,MELISSA POLICE DEPARTMENT 2ND FLOOR OF CITY HALL,3411 BARKER AVE,MELISSA,TX,75454,"http://maps.google.com/maps?q=3411 BARKER AVE,+MELISSA,+TX+75454&hl=en"
MESQUITE POLICE DEPARTMENT,MESQUITE POLICE DEPARTMENT,777 N. GALLOWAY,MESQUITE,TX,75149,"http://maps.google.com/maps?q=777 N. GALLOWAY,+MESQUITE,+TX+75149&hl=en"
MIDLOTHIAN PD,ACE HARDWARE PARKING LOT,530 E. MAIN,MIDLOTHIAN,TX,76065,"http://maps.google.com/maps?q=530 E. MAIN,+MIDLOTHIAN,+TX+76065&hl=en"
MILLER COUNTY SHERIFF'S OFFICE,MILLER COUNTY SHERIFF'S OFFICE PERMANENT DROP BOX,2300 EAST STREET,TEXARKANA,AR,71854,"http://maps.google.com/maps?q=2300 EAST STREET,+TEXARKANA,+AR+71854&hl=en"
MISSOURI SOUTHERN STATE UNIV POLICE DEPT,MSSU PD,726 N. MISSION HILLS DRIVE,JOPLIN,MO,64801,"http://maps.google.com/maps?q=726 N. MISSION HILLS DRIVE,+JOPLIN,+MO+64801&hl=en"
MONETT POLICE DEPARTMENT,BRUNER'S PHARMACY,321 EAST BROADWAY,MONETT,MO,65708,"http://maps.google.com/maps?q=321 EAST BROADWAY,+MONETT,+MO+65708&hl=en"
MONETT POLICE DEPARTMENT,MONETT POLICE DEPARTMENT,1901 EAST CLEVELAND AVE,MONETT,MO,65708,"http://maps.google.com/maps?q=1901 EAST CLEVELAND AVE,+MONETT,+MO+65708&hl=en"
MOUNDS PD,MOUNDS CITY HALL,1317 COMMERCIAL AVE,MOUNDS,OK,74047,"http://maps.google.com/maps?q=1317 COMMERCIAL AVE,+MOUNDS,+OK+74047&hl=en"
MOUNT VERNON POLICE DEPARTMENT,CITY OF MOUNT VERNON,319 EAST DALLAS,MOUNT VERNON,MO,65712,"http://maps.google.com/maps?q=319 EAST DALLAS,+MOUNT VERNON,+MO+65712&hl=en"
MOUNTAINBURG POLICE DEPARTMENT,MOUNTAINBURG POLICE DEPARTMENT PERMANENT DROP BOX,101 HWY 71 NW,MOUNTAINBURG,AR,72946,"http://maps.google.com/maps?q=101 HWY 71 NW,+MOUNTAINBURG,+AR+72946&hl=en"
MULBERRY POLICE DEPARTMENT,MULBERRY CITY COMPLEX PERMANENT DROP BOX,207 N. MAIN STREET,MULBERRY,AR,72947,"http://maps.google.com/maps?q=207 N. MAIN STREET,+MULBERRY,+AR+72947&hl=en"
MURPHY PD,MURPHY PD,206 N. MURPHY RD,MURPHY,TX,75094,"http://maps.google.com/maps?q=206 N. MURPHY RD,+MURPHY,+TX+75094&hl=en"
NEOSHO POLICE DEPARTMENT,WILDCAT CORNER,817 S NEOSHO BLVD,NEOSHO,MO,64850,"http://maps.google.com/maps?q=817 S NEOSHO BLVD,+NEOSHO,+MO+64850&hl=en"
NEWTON COUNTY SHERIFF'S OFFICE,NEWTON COUNTY SHERIFF'S OFFICE,208 W. COLER ST.,NEOSHO,MO,64850,"http://maps.google.com/maps?q=208 W. COLER ST.,+NEOSHO,+MO+64850&hl=en"
NEWTON COUNTY SHERIFF'S OFFICE,NEWTON COUNTY SHERIFF'S OFFICE PERMANENT DROP BOX,401 N. SPRING,JASPER,AR,72641,"http://maps.google.com/maps?q=401 N. SPRING,+JASPER,+AR+72641&hl=en"
NIXA POLICE DEPARTMENT,FAMILY PHARMACY,105 RIDGECREST AVE.#2,NIXA,MO,65714,"http://maps.google.com/maps?q=105 RIDGECREST AVE.,+NIXA,+MO+65714&hl=en"
NORTHEASTERN STATE UNIVERSITY POLICE,NORTHEASTERN HEALTH SYSTEMS TAHLEQUAH,1400 EAST DOWNING,TAHLEQUAH,OK,74464,"http://maps.google.com/maps?q=1400 EAST DOWNING,+TAHLEQUAH,+OK+74464&hl=en"
OKLAHOMA BAPTIST UNIVERSITY PD,OKLAHOMA BAPTIST UNIVERSITY,500 W. UNIVERSITY ST.,SHAWNEE,OK,74804,"http://maps.google.com/maps?q=500 W. UNIVERSITY ST.,+SHAWNEE,+OK+74804&hl=en"
OKLAHOMA BUREAU OF NARCOTICS/CARXE COALITION,CASH SAVER STORE,4129 SE 29TH STREET,DEL CITY,OK,73115,"http://maps.google.com/maps?q=4129 SE 29TH STREET,+DEL CITY,+OK+73115&hl=en"
OKLAHOMA BUREAU OF NARCOTICS/CARXE COALITION,HOMELAND STORE,1108 NW 18TH STREET,OKLAHOMA CITY,OK,73106,"http://maps.google.com/maps?q=1108 NW 18TH STREET,+OKLAHOMA CITY,+OK+73106&hl=en"
OKLAHOMA BUREAU OF NARCOTICS/CARXE COALITION,HOMELAND STORE,9225 NORTH MAY AVENUE,OKLAHOMA CITY,OK,73120,"http://maps.google.com/maps?q=9225 NORTH MAY AVENUE,+OKLAHOMA CITY,+OK+73120&hl=en"
OKLAHOMA COUNTY SO,MWC SUBSTATION,8029 SE 29TH,MIDWEST CITY,OK,73110,"http://maps.google.com/maps?q=8029 SE 29TH,+MIDWEST CITY,+OK+73110&hl=en"
OSAGE NATION PD,OSAGE NATION POLICE DEPARTMENT,1071 GRANDVIEW LANE,PAWHUSKA,OK,74056,"http://maps.google.com/maps?q=1071 GRANDVIEW LANE,+PAWHUSKA,+OK+74056&hl=en"
OTOE MISSOURIA TRIBAL PD,OTOE MISSOURIA POLICE DEPARTMENT,22915 OTOE CEMETERY RD,RED ROCK,OK,74651,"http://maps.google.com/maps?q=22915 OTOE CEMETERY RD,+RED ROCK,+OK+74651&hl=en"
OUACHITA COUNTY SHERIFF'S DEPARTMENT,OUACHITA COUNTY DETENTION FACILITY PERMANENT DROP BOX,109 GOODGAME,CAMDEN,AR,71701,"http://maps.google.com/maps?q=109 GOODGAME,+CAMDEN,+AR+71701&hl=en"
OVILLA POLICE DEPARTMENT,OVILLA POLICE DEPARTMENT,105 S. COCKRELL HILL,OVILLA,TX,75154,"http://maps.google.com/maps?q=105 S. COCKRELL HILL,+OVILLA,+TX+75154&hl=en"
OZARK POLICE DEPARTMENT,CHRSITINA COUNTY JUDICIAL CENTER,110 W. ELM ST,OZARK,MO,65721,"http://maps.google.com/maps?q=110 W. ELM ST,+OZARK,+MO+65721&hl=en"
OZARK POLICE DEPARTMENT,OZARK POLICE DEPARTMENT PERMANENT DROP BOX,200 SOUTH 4TH STREET,OZARK,AR,72949,"http://maps.google.com/maps?q=200 SOUTH 4TH STREET,+OZARK,+AR+72949&hl=en"
PALMER POLICE DEPARTMENT,PALMER CITY HALL,113 W JEFFERSON,PALMER,TX,75152,"http://maps.google.com/maps?q=113 W JEFFERSON,+PALMER,+TX+75152&hl=en"
PARIS POLICE DEPARTMENT,PARIS POLICE DEPARTMENT PERMANENT DROP BOX,1810 EAST WALNUT STREET,PARIS,AR,72855,"http://maps.google.com/maps?q=1810 EAST WALNUT STREET,+PARIS,+AR+72855&hl=en"
PARKER PD,PARKER PD PARKING LOT,5700 E PARKER ROAD,PARKER,TX,75002,"http://maps.google.com/maps?q=5700 E PARKER ROAD,+PARKER,+TX+75002&hl=en"
PEA RIDGE POLICE DEPARTMENT,PEA RIDGE POLICE DEPARTMENT PERMANENT DROP BOX,187 SLACK ST.,PEA RIDGE,AR,72751,"http://maps.google.com/maps?q=187 SLACK ST.,+PEA RIDGE,+AR+72751&hl=en"
PERRY COUNTY SHERIFF'S OFFICE,HARPS GROCERY,112 HOUSTON AVENUE,PERRYVILLE,AR,72126,"http://maps.google.com/maps?q=112 HOUSTON AVENUE,+PERRYVILLE,+AR+72126&hl=en"
PERRY COUNTY SHERIFF'S OFFICE,PERRY COUNTY DETENTION CENTER DROP BOX AREA PERMANENT DROP BOX,511 APLIN AVE,PERRYVILLE,AR,72126,"http://maps.google.com/maps?q=511 APLIN AVE,+PERRYVILLE,+AR+72126&hl=en"
PITTSBURG KANSAS POLICE DEPT.,PITTSBURG POLICE DEPARTMENT,201 N. PINE ST.,PITTSBURG,KS,66762,"http://maps.google.com/maps?q=201 N. PINE ST.,+PITTSBURG,+KS+66762&hl=en"
PLANO POLICE DEPARTMENT,CLARK HIGH SCHOOL,523 W SPRING CREEK PARKWAY,PLANO,TX,75023,"http://maps.google.com/maps?q=523 W SPRING CREEK PARKWAY,+PLANO,+TX+75023&hl=en"
PLANO POLICE DEPARTMENT,PLANO EAST SENIOR HIGH,3000 LOS RIOS BLVD,PLANO,TX,75074,"http://maps.google.com/maps?q=3000 LOS RIOS BLVD,+PLANO,+TX+75074&hl=en"
PLANO POLICE DEPARTMENT,PLANO SENIOR HIGH,2200 INDEPENDENCE PARKWAY,PLANO,TX,75075,"http://maps.google.com/maps?q=2200 INDEPENDENCE PARKWAY,+PLANO,+TX+75075&hl=en"
PLANO POLICE DEPARTMENT,PLANO WEST SENIOR HIGH SCHOOL,5601 WEST PARKER ROAD,PLANO,TX,75093,"http://maps.google.com/maps?q=5601 WEST PARKER ROAD,+PLANO,+TX+75093&hl=en"
POLK COUNTY SHERIFF'S OFFICE,POLK COUNTY SHERIFF'S OFFICE PERMANENT DROP BOX,507 CHURCH AVE,MENA,AR,71953,"http://maps.google.com/maps?q=507 CHURCH AVE,+MENA,+AR+71953&hl=en"
PONDER POLICE DEPARTMENT,BETTY FOSTER LIBRARY,405 SHAFFNER,PONDER,TX,76259,"http://maps.google.com/maps?q=405 SHAFFNER,+PONDER,+TX+76259&hl=en"
POTTSVILLE POLICE DEPARTMENT,DOLLAR GENERAL,6876 U.S. HWY 64,POTTSVILLE,AR,72858,"http://maps.google.com/maps?q=6876 U.S. HWY 64,+POTTSVILLE,+AR+72858&hl=en"
PRAIRIE GROVE POLICE DEPARTMENT,HARPS FOOD STORE #125,319 E. BUCHANAN ST.,PRAIRIE GROVE,AR,72753,"http://maps.google.com/maps?q=319 E. BUCHANAN ST.,+PRAIRIE GROVE,+AR+72753&hl=en"
PRAIRIE GROVE POLICE DEPARTMENT,PRAIRIE GROVE POLICE DEPARTMENT,955 E. DOUGLAS ST.#1,PRAIRIE GROVE,AR,72753,"http://maps.google.com/maps?q=955 E. DOUGLAS ST.,+PRAIRIE GROVE,+AR+72753&hl=en"
PRATT KANSAS POLICE DEPARTMENT,WALMART 9AM-5PM,2003 E. 1ST ST.,PRATT,KS,67124,"http://maps.google.com/maps?q=2003 E. 1ST ST.,+PRATT,+KS+67124&hl=en"
PRESCOTT POLICE DEPARTMENT,PRESCOTT POLICE DEPARTMENT PERMANENT DROP BOX,128 W. MAIN ST.,PRESCOTT,AR,71857,"http://maps.google.com/maps?q=128 W. MAIN ST.,+PRESCOTT,+AR+71857&hl=en"
PRINCETON POLICE DEPARTMENT,PRINCETON POLICE DEPARTMENT,306 MAIN ST.,PRINCETON,TX,75407,"http://maps.google.com/maps?q=306 MAIN ST.,+PRINCETON,+TX+75407&hl=en"
RED OAK PD,RED OAK PD,547 N METHODIST ST,RED OAK,TX,75154,"http://maps.google.com/maps?q=547 N METHODIST ST,+RED OAK,+TX+75154&hl=en"
REPUBLIC POLICE DEPARTMENT,WALGREENS,1050 E. US 60 HWY,REPUBLIC,MO,65738,"http://maps.google.com/maps?q=1050 E. US 60 HWY,+REPUBLIC,+MO+65738&hl=en"
RICHARDSON POLICE DEPT,RICHARDSON CIVIC CENTER/SOUTH PARKING LOT,411 WEST ARAPAHO ROAD,RICHARDSON,TX,75080,"http://maps.google.com/maps?q=411 WEST ARAPAHO ROAD,+RICHARDSON,+TX+75080&hl=en"
RICHLAND COLLEGE,RICHLAND COLLEGE D LOT,12800 ABRAMS RD,DALLAS,TX,75243,"http://maps.google.com/maps?q=12800 ABRAMS RD,+DALLAS,+TX+75243&hl=en"
RICHLAND COLLEGE,RICHLAND COLLEGE GARLAND CAMPUS NORTHWEST PARKING LOT,675 W WALNUT ST,DALLAS,TX,75240,"http://maps.google.com/maps?q=675 W WALNUT ST,+DALLAS,+TX+75240&hl=en"
RICHLAND HILLS PD,RICHLAND HILLS FD,3201 DIANA DRIVE,RICHLAND HILLS,TX,76118,"http://maps.google.com/maps?q=3201 DIANA DRIVE,+RICHLAND HILLS,+TX+76118&hl=en"
ROANOKE PD,ROANOKE PD,609 DALLAS DR,ROANOKE,TX,76262,"http://maps.google.com/maps?q=609 DALLAS DR,+ROANOKE,+TX+76262&hl=en"
ROCKWALL POLICE DEPARTMENT,ROCKWALL POLICE COMMUNITY SERVICES,1113 RIDGE ROAD,ROCKWALL,TX,75087,"http://maps.google.com/maps?q=1113 RIDGE ROAD,+ROCKWALL,+TX+75087&hl=en"
ROGERS POLICE DEPARTMENT,MERCY CLINIC,3101 SE 14TH STREET,BENTONVILLE,AR,72712,"http://maps.google.com/maps?q=3101 SE 14TH STREET,+BENTONVILLE,+AR+72712&hl=en"
ROGERS POLICE DEPARTMENT,ROGERS POLICE DEPARTMENT PERMANENT DROP BOX,1905 S. DIXIELAND,ROGERS,AR,72758,"http://maps.google.com/maps?q=1905 S. DIXIELAND,+ROGERS,+AR+72758&hl=en"
ROSE HILL POLICE DEPARTMENT,ROSE HILL POLICE DEPARTMENT,125 W ROSEWOOD ST,ROSE HILL,KS,67133,"http://maps.google.com/maps?q=125 W ROSEWOOD ST,+ROSE HILL,+KS+67133&hl=en"
ROWLETT POLICE DEPT,ROWLETT COMMUNITY CENTER,5300 MAIN ST,ROWLETT,TX,75088,"http://maps.google.com/maps?q=5300 MAIN ST,+ROWLETT,+TX+75088&hl=en"
RUSSELLVILLE POLICE DEPARTMENT,RUSSELLVILLE POLICE DEPARTMENT PERMANENT DROP BOX,115 WEST 'H' STREET,RUSSELLVILLE,AR,72802,"http://maps.google.com/maps?q=115 WEST 'H' STREET,+RUSSELLVILLE,+AR+72802&hl=en"
SANSOM PARK POLICE,SANSOM PARK FIRE STATION,5500 BUCHANAN ST,SANSOM PARK,TX,76114,"http://maps.google.com/maps?q=5500 BUCHANAN ST,+SANSOM PARK,+TX+76114&hl=en"
SAPULPA POLICE DEPARTMENT,SAPULPA POLICE DEPARTMENT,20 N. WALNUT ST.,SAPULPA,OK,74066,"http://maps.google.com/maps?q=20 N. WALNUT ST.,+SAPULPA,+OK+74066&hl=en"
SEAGOVILLE PD,BROOKSHIRES FOOD PARKING LOT,125 HALL ST,SEAGOVILLE,TX,75159,"http://maps.google.com/maps?q=125 HALL ST,+SEAGOVILLE,+TX+75159&hl=en"
SEBASTIAN COUNTY SHERIFF'S OFFICE,ECONOMY FEED & TRAILER,11318 HWY 71 S.,FORT SMITH,AR,72916,"http://maps.google.com/maps?q=11318 HWY 71 S.,+FORT SMITH,+AR+72916&hl=en"
SEBASTIAN COUNTY SHERIFF'S OFFICE,SEBASTIAN COUNTY SHERIFF'S OFFICE PERMANENT DROP BOX,800 SOUTH A STREET,FORT SMITH,AR,72901,"http://maps.google.com/maps?q=800 SOUTH A STREET,+FORT SMITH,+AR+72901&hl=en"
SEDGWICK COUNTY SHERIFF'S OFFICE,HOUSEHOLD HAZARDOUS WASTE,801 W. STILLWELL,WICHITA,KS,67213,"http://maps.google.com/maps?q=801 W. STILLWELL,+WICHITA,+KS+67213&hl=en"
SEDGWICK COUNTY SHERIFF'S OFFICE,OAKLAWN ACTIVITY CENTER,4900 SOUTH CLIFTON,WICHITA,KS,67203,"http://maps.google.com/maps?q=4900 SOUTH CLIFTON,+WICHITA,+KS+67203&hl=en"
SEDGWICK COUNTY SHERIFF'S OFFICE,SEDGWICK COUNTY ZOO,5500 W. ZOO BLVD.,WICHITA,KS,67212,"http://maps.google.com/maps?q=5500 W. ZOO BLVD.,+WICHITA,+KS+67212&hl=en"
SEVIER COUNTY SHERIFF'S OFFICE,SEVIER COUNTY SHERIFF'S OFFICE PERMANENT DROP BOX,137 W. ROBINSON RD,DE QUEEN,AR,71832,"http://maps.google.com/maps?q=137 W. ROBINSON RD,+DE QUEEN,+AR+71832&hl=en"
SHAWNEE PD,SHAWNEE SENIOR CENTER,401 N. BELL,SHAWNEE,OK,74801,"http://maps.google.com/maps?q=401 N. BELL,+SHAWNEE,+OK+74801&hl=en"
SHERMAN POLICE DEPT,SHERMAN POLICE DEPT,317 S. TRAVIS,SHERMAN,TX,75090,"http://maps.google.com/maps?q=317 S. TRAVIS,+SHERMAN,+TX+75090&hl=en"
SILOAM SPRINGS POLICE DEPARTMENT,SILOAM SPRINGS POLICE DEPARTMENT CRAFT FESTIVAL BOOTH,110 NORTH MT. OLIVE STREET,SILOAM SPRINGS,AR,72761,"http://maps.google.com/maps?q=110 NORTH MT. OLIVE STREET,+SILOAM SPRINGS,+AR+72761&hl=en"
SILOAM SPRINGS POLICE DEPARTMENT,SILOAM SPRINGS POLICE DEPARTMENT PERMANENT DROP BOX,100 US HIGHWAY 412 W.,SILOAM SPRINGS,AR,72761,"http://maps.google.com/maps?q=100 US HIGHWAY 412 W.,+SILOAM SPRINGS,+AR+72761&hl=en"
SOUTH CENTRAL DRUG TASK FORCE,DEQUEEN WALMART,HWY 70 EAST,DE QUEEN,AR,71832,"http://maps.google.com/maps?q=HWY 70 EAST,+DE QUEEN,+AR+71832&hl=en"
SOUTH HUTCHINSON POLICE DEPARTMENT,SOUTH HUTCHINSON POLICE DEPARTMENT,10 E BLANCHARD AVE,SOUTH HUTCHINSON,KS,67505,"http://maps.google.com/maps?q=10 E BLANCHARD AVE,+SOUTH HUTCHINSON,+KS+67505&hl=en"
SOUTHLAKE PD,SOUTHLAKE PD,600 STATE ST,SOUTHLAKE,TX,76092,"http://maps.google.com/maps?q=600 STATE ST,+SOUTHLAKE,+TX+76092&hl=en"
SPRINGDALE POLICE DEPARTMENT,HARPS FOOD STORES,918 SOUTH GUTENSOHN ROAD,SPRINGDALE,AR,72764,"http://maps.google.com/maps?q=918 SOUTH GUTENSOHN ROAD,+SPRINGDALE,+AR+72764&hl=en"
SPRINGDALE POLICE DEPARTMENT,SPRINGDALE POLICE DEPARTMENT PERMANENT DROP BOX,201 N. SPRING ST.,SPRINGDALE,AR,72764,"http://maps.google.com/maps?q=201 N. SPRING ST.,+SPRINGDALE,+AR+72764&hl=en"
TANEY COUNTY SHERIFF'S OFFICE,SCOOTER'S EXPRESS GAS & GROCERIES,13022 STATE HWY 76,FORSYTH,MO,65653,"http://maps.google.com/maps?q=13022 STATE HWY 76,+FORSYTH,+MO+65653&hl=en"
TARRANT COUNTY SHERIFF'S DEPARTMENT,NORTH PATROL,6651 LAKE WORTH BLVD.,FORT WORTH,TX,76135,"http://maps.google.com/maps?q=6651 LAKE WORTH BLVD.,+FORT WORTH,+TX+76135&hl=en"
TARRANT COUNTY SHERIFF'S DEPARTMENT,TARRANT COUNTY CORRECTIONS CENTER MAIN LOBBY,100 N. LAMAR,FORT WORTH,TX,76196,"http://maps.google.com/maps?q=100 N. LAMAR,+FORT WORTH,+TX+76196&hl=en"
TERRELL POLICE DEPARTMENT,TERRELL POLICE DEPARTMENT HEADQUARTERS,1100 N SH 34,TERRELL,TX,75160,"http://maps.google.com/maps?q=1100 N SH 34,+TERRELL,+TX+75160&hl=en"
TEXARKANA POLICE DEPARTMENT,TEXARKANA POLICE DEPARTMENT PERMANENT DROP BOX,100 N. STATE LINE AVE,TEXARKANA,AR,71854,"http://maps.google.com/maps?q=100 N. STATE LINE AVE,+TEXARKANA,+AR+71854&hl=en"
TROPHY CLUB PD,TROPHY CLUB POLICE DEPT LOBBY,ONE TROPHY WOOD DRIVE,TROPHY CLUB,TX,76262,"http://maps.google.com/maps?q=ONE TROPHY WOOD DRIVE,+TROPHY CLUB,+TX+76262&hl=en"
TULSA COUNTY SHERIFF'S OFFICE,TULSA CRIME STOPPERS PROMENADE MALL,"4107 S YALE AVE, SUITE 142",TULSA,OK,74135,"http://maps.google.com/maps?q=4107 S YALE AVE, SUITE 142,+TULSA,+OK+74135&hl=en"
TULSA PD,MET EAST TULSA,12466 E 21ST ST,TULSA,OK,74129,"http://maps.google.com/maps?q=12466 E 21ST ST,+TULSA,+OK+74129&hl=en"
TULSA PD,PATRICK HENRY ELEMENTARY,3820 E. 41ST ST,TULSA,OK,74135,"http://maps.google.com/maps?q=3820 E. 41ST ST,+TULSA,+OK+74135&hl=en"
U.T. HEALTH SCIENCE CENTER AT TYLER,U.T. HEALTH SCIENCE CENTER AT TYLER,11937 US HWY 271,TYLER,TX,75708,"http://maps.google.com/maps?q=11937 US HWY 271,+TYLER,+TX+75708&hl=en"
UNIVERSITY OF ARKANSAS POLICE DEPARTMENT,UNIVERSITY OF ARKANSAS,155 S. RAZORBACK ROAD,FAYETTEVILLE,AR,72701,"http://maps.google.com/maps?q=155 S. RAZORBACK ROAD,+FAYETTEVILLE,+AR+72701&hl=en"
UNIVERSITY OF NORTH TEXAS POLICE DEPARTMENT,UNT WILLIS LIBRARY,1506 W. HIGHLAND ST.,DENTON,TX,76201,"http://maps.google.com/maps?q=1506 W. HIGHLAND ST.,+DENTON,+TX+76201&hl=en"
UNIVERSITY PARK POLICE DEPT,UNIVERSITY PARK PD,3800 UNIVERSITY BLVD,DALLAS,TX,75205,"http://maps.google.com/maps?q=3800 UNIVERSITY BLVD,+DALLAS,+TX+75205&hl=en"
VAN ALSTYNE POLICE DEPARTMENT,VAN ALSTYNE POLICE DEPARTMENT,242 N. PRESTON AVENUE,VAN ALSTYNE,TX,75495,"http://maps.google.com/maps?q=242 N. PRESTON AVENUE,+VAN ALSTYNE,+TX+75495&hl=en"
VAN BUREN POLICE DEPARTMENT,VAN BUREN POLICE DEPARTMENT PERMANENT DROP BOX,111 S. 11TH ST.,VAN BUREN,AR,72956,"http://maps.google.com/maps?q=111 S. 11TH ST.,+VAN BUREN,+AR+72956&hl=en"
WALDRON POLICE DEPARTMENT,HARPS FOOD PARKING LOT,1350 6TH STREET,WALDRON,AR,72958,"http://maps.google.com/maps?q=1350 6TH STREET,+WALDRON,+AR+72958&hl=en"
WALDRON POLICE DEPARTMENT,WALDRON POLICE DEPARTMENT PERMANENT DROP BOX,323 WASHINGTON ST.,WALDRON,AR,72958,"http://maps.google.com/maps?q=323 WASHINGTON ST.,+WALDRON,+AR+72958&hl=en"
WASHINGTON COUNTY SHERIFF'S OFFICE,VA MEDICAL CENTER PERMANENT DROP BOX,1100 NORTH COLLEGE AVE.1100 NORTH COLLEGE AVE.,FAYETTEVILLE,AR,72701,"http://maps.google.com/maps?q=1100 NORTH COLLEGE AVE.,+FAYETTEVILLE,+AR+72701&hl=en"
WASHINGTON COUNTY SHERIFF'S OFFICE,WASHINGTON COUNTY COURTHOUSE PERMANENT DROP BOX (MON-FRI ONLY),280 NORTH COLLEGE AVE.,FAYETTEVILLE,AR,72701,"http://maps.google.com/maps?q=280 NORTH COLLEGE AVE.,+FAYETTEVILLE,+AR+72701&hl=en"
WASHINGTON COUNTY SHERIFF'S OFFICE,WASHINGTON COUNTY SHERIFF'S DEPARTMENT PERMANENT DROP BOX,1155 CLYDESDALE DR.,FAYETTEVILLE,AR,72701,"http://maps.google.com/maps?q=1155 CLYDESDALE DR.,+FAYETTEVILLE,+AR+72701&hl=en"
WATAUGA PD,WATAUGA PD,7101 WHITLEY RD,WATAUGA,TX,76148,"http://maps.google.com/maps?q=7101 WHITLEY RD,+WATAUGA,+TX+76148&hl=en"
WEATHERFORD COLLEGE PD,WEATHERFORD COLLEGE PD PARKING LOT IN FRONT OF CAMPUS PD,225 COLLEGE PARK DR,WEATHERFORD,TX,76086,"http://maps.google.com/maps?q=225 COLLEGE PARK DR,+WEATHERFORD,+TX+76086&hl=en"
WEATHERFORD POLICE DEPARTMENT,WEATHERFORD NINTH GRADE CENTER,1007 S. MAIN ST,WEATHERFORD,TX,76086,"http://maps.google.com/maps?q=1007 S. MAIN ST,+WEATHERFORD,+TX+76086&hl=en"
WEST BRANSON POLICE DEPARTMENT,LAKELAND PHARMACY,18565 BUSINESS 13,REEDS SPRING,MO,65737,"http://maps.google.com/maps?q=18565 BUSINESS 13,+REEDS SPRING,+MO+65737&hl=en"
WEST FORK POLICE DEPARTMENT,WEST FORK CITY ADMINISTRATION BUILDING PERMANENT DROP BOX,262 WEST MAIN STREET,WEST FORK,AR,72774,"http://maps.google.com/maps?q=262 WEST MAIN STREET,+WEST FORK,+AR+72774&hl=en"
WHITE SETTLEMENT PD,WHITE SETTLEMENT SENIOR SERVICES CTR,8211 WHITE SETTLEMENT RD,FORT WORTH,TX,76108,"http://maps.google.com/maps?q=8211 WHITE SETTLEMENT RD,+FORT WORTH,+TX+76108&hl=en"
WICHITA POLICE DEPARTMENT,DILLONS PARKING LOT,9450 E HARRY,WICHITA,KS,67207,"http://maps.google.com/maps?q=9450 E HARRY,+WICHITA,+KS+67207&hl=en"
WILSON COUNTY SHERIFF'S OFFICE,WILSON COUNTY SHERIFF'S OFFICE,925 PIERCE STREET,FREDONIA,KS,66736,"http://maps.google.com/maps?q=925 PIERCE STREET,+FREDONIA,+KS+66736&hl=en"
WYLIE PD,WYLIE POLICE DEPT,2000 N HWY 78,WYLIE,TX,75098,"http://maps.google.com/maps?q=2000 N HWY 78,+WYLIE,+TX+75098&hl=en"
