Participant,CollectionSite,Address,City,State,Zip,MapURL
ALEXANDRIA POLICE DEPARTMENT,ALEXANDRIA POLICE DEPARTMENT/COMMUNITY CENTER,8236 W. MAIN ST,ALEXANDRIA,KY,41001,"http://maps.google.com/maps?q=8236 W. MAIN ST,+ALEXANDRIA,+KY+41001&hl=en"
AMBERLEY VILLAGE,AMBERLEY VILLAGE FIRE DEPARTMENT,7149 RIDGE ROAD,CINCINNATI,OH,45237,"http://maps.google.com/maps?q=7149 RIDGE ROAD,+CINCINNATI,+OH+45237&hl=en"
AMELIA POLICE DEPARTMENT,AMELIA POLICE DEPARTMENT,44 W MAIN ST,AMELIA,OH,45102,"http://maps.google.com/maps?q=44 W MAIN ST,+AMELIA,+OH+45102&hl=en"
ASHLAND KY POLICE,ASHLAND KY POLICE,201 17TH STREET,ASHLAND,KY,41101,"http://maps.google.com/maps?q=201 17TH STREET,+ASHLAND,+KY+41101&hl=en"
ATHENS POLICE DEPARTMENT,"ATHENS ELKS LODGE 
												
													PARKING LOT",600 WEST UNION STREET,ATHENS,OH,45701,"http://maps.google.com/maps?q=600 WEST UNION STREET,+ATHENS,+OH+45701&hl=en"
BECKLEY POLICE DEPARTMENT,RALEIGH COUNTY COMMISSION ON AGING,1614 SOUTH KANAWHA STREET,BECKLEY,WV,25801,"http://maps.google.com/maps?q=1614 SOUTH KANAWHA STREET,+BECKLEY,+WV+25801&hl=en"
BEXLEY POLICE DEPARTMENT,"BEXLEY POLICE DEPARTMENT 
												
													DAWN OVERLY",559 NORTH CASSINGHAM ROADBEXLEY,COLUMBUS,OH,43209,"http://maps.google.com/maps?q=559 NORTH CASSINGHAM ROAD,+COLUMBUS,+OH+43209&hl=en"
BLAND COUNTY SHERIFF'S OFFICE,BLAND COUNTY SHERIFFS OFFICE,612 MAIN ST. SUITE 203,BLAND,VA,24315,"http://maps.google.com/maps?q=612 MAIN ST. SUITE 203,+BLAND,+VA+24315&hl=en"
BLENDON TWP POLICE,BLENDON TWP POLICE,6340 HEMPSTEAD RD,WESTERVILLE,OH,43081,"http://maps.google.com/maps?q=6340 HEMPSTEAD RD,+WESTERVILLE,+OH+43081&hl=en"
BLUE ASH POLICE DEPARTMENT,"BLUE ASH MUNICIPAL AND SAFETY CENTER 
												
													FRONT PARKING LOT",4343 COOPER RD,BLUE ASH,OH,45242,"http://maps.google.com/maps?q=4343 COOPER RD,+BLUE ASH,+OH+45242&hl=en"
BOONE COUNTY SHERIFF'S OFFICE,"BOONE COUNTY SHERIFF'S OFFICE 
												
													COUNTY COURTHOUSE",200 STATE STREET,MADISON,WV,25130,"http://maps.google.com/maps?q=200 STATE STREET,+MADISON,+WV+25130&hl=en"
BOONE COUNTY SHERIFF'S OFFICE,"JOHN SLACK PARK 
												
													SHERIFF W WHITE",SR#3GENERAL DELIVERY,RACINE,WV,25165,"http://maps.google.com/maps?q=SR#3,+RACINE,+WV+25165&hl=en"
BOONE COUNTY SHERIFFS OFFICE,"BOONE COUNTY SHERIFFS OFFICE 
												
													SIDE PARKING LOT",3000 CONRAD LANE,BURLINGTON,KY,41005,"http://maps.google.com/maps?q=3000 CONRAD LANE,+BURLINGTON,+KY+41005&hl=en"
BOONE COUNTY SHERIFFS OFFICE,"UNION CITY BUILDING 
												
													PARKING LOT",1843 MOUNT ZION RD,UNION,KY,41091,"http://maps.google.com/maps?q=1843 MOUNT ZION RD,+UNION,+KY+41091&hl=en"
BOONE COUNTY SHERIFFS OFFICE,"WALTON KENTUCKY CITY BUILDING 
												
													PARKING LOT",40 NORTH MAIN STREET,WALTON,KY,41094,"http://maps.google.com/maps?q=40 NORTH MAIN STREET,+WALTON,+KY+41094&hl=en"
BRACKEN COUNTY SHERIFF OFFICE,BRACKEN COUNTY FISCAL COURTHOUSE,116 W MIAMI STREET,BROOKSVILLE,KY,41004,"http://maps.google.com/maps?q=116 W MIAMI STREET,+BROOKSVILLE,+KY+41004&hl=en"
BRISTOL SHERIFF'S OFFICE,"FOOD CITY 
												
													NEAR FRONT ENTRANCE",1320 EUCLID AVE,BRISTOL,VA,24201,"http://maps.google.com/maps?q=1320 EUCLID AVE,+BRISTOL,+VA+24201&hl=en"
BRISTOL TENNESSEE POLICE DEPARTMENT,BRISTOL POLICE DEPARTMENT,801 ANDERSON STREET,BRISTOL,TN,37620,"http://maps.google.com/maps?q=801 ANDERSON STREET,+BRISTOL,+TN+37620&hl=en"
BROWN COUNTY SHERIFF OFFICE,"BROWN COUNTY SHERIFFS OFFICE 
												
													PARKING LOT",750 MOUNT ORAB PIKE,GEORGETOWN,OH,45121,"http://maps.google.com/maps?q=750 MOUNT ORAB PIKE,+GEORGETOWN,+OH+45121&hl=en"
BROWN COUNTY SHERIFF OFFICE,"ORSCHELN FARM & HOME 
												
													PARKING LOT",206 STERLING RUN BLVD,MOUNT ORAB,OH,45154,"http://maps.google.com/maps?q=206 STERLING RUN BLVD,+MOUNT ORAB,+OH+45154&hl=en"
BUCHANAN COUNTY SHERIFF'S OFFICE,"FOOD CITY PHARMACY 
												
													VANSANT FOOD CITY",18765 RIVERSIDE DRIVE,VANSANT,VA,24656,"http://maps.google.com/maps?q=18765 RIVERSIDE DRIVE,+VANSANT,+VA+24656&hl=en"
BUTLER COUNTY SHERIFF'S OFFICE,KROGER,7300 YANKEE ROAD,MIDDLETOWN,OH,45044,"http://maps.google.com/maps?q=7300 YANKEE ROAD,+MIDDLETOWN,+OH+45044&hl=en"
BUTLER COUNTY SHERIFF'S OFFICE,LIBERTY TWP. PRINCETON GLENDALE FIRE STATION,6682 PRINCETON-GLENDALE RD.,HAMILTON,OH,45011,"http://maps.google.com/maps?q=6682 PRINCETON-GLENDALE RD.,+HAMILTON,+OH+45011&hl=en"
BUTLER TOWNSHIP POLICE DEPARTMENT,"BUTLER TOWNSHIP POLICE DEPARTMENT 
												
													MAIN LOBBY",3510 SUDACHI DR,DAYTON,OH,45414,"http://maps.google.com/maps?q=3510 SUDACHI DR,+DAYTON,+OH+45414&hl=en"
CALHOUN COUNTY SHERIFF,CALHOUN COUNTY SHERIFF,363 MAIN STSTE 204,GRANTSVILLE,WV,26147,"http://maps.google.com/maps?q=363 MAIN ST,+GRANTSVILLE,+WV+26147&hl=en"
CARTER COUNTY SO,"CARTER COUNTY DETENTION CENTER 
												
													INSIDE LOBBY AREA. OPEN 24HRS PER DAY.",900 3RD ST.,ELIZABETHTON,TN,37643,"http://maps.google.com/maps?q=900 3RD ST.,+ELIZABETHTON,+TN+37643&hl=en"
CEREDO WV POLICE DEPT,CEREDO PD,766 B STREET,CEREDO,WV,25507,"http://maps.google.com/maps?q=766 B STREET,+CEREDO,+WV+25507&hl=en"
CHARLESTON POLICE DEPARTMENT,DOLLAR GENERAL,1555 WASHINGTON STREET EAST,CHARLESTON,WV,25311,"http://maps.google.com/maps?q=1555 WASHINGTON STREET EAST,+CHARLESTON,+WV+25311&hl=en"
CHARLESTON POLICE DEPARTMENT,DRUG EMPORIUM,1603 KANAWHA BLVDWEST,CHARLESTON,WV,25302,"http://maps.google.com/maps?q=1603 KANAWHA BLVDWEST,+CHARLESTON,+WV+25302&hl=en"
CHARLESTON POLICE DEPARTMENT,"PIGGLY WIGGLY 
												
													PARKING LOT",5003 MACCORKLE AVENUE SE,CHARLESTON,WV,25304,"http://maps.google.com/maps?q=5003 MACCORKLE AVENUE SE,+CHARLESTON,+WV+25304&hl=en"
CHARLESTON POLICE DEPARTMENT,RITE AID BRIDGE ROAD,1015 BRIDGE ROAD,CHARLESTON,WV,25314,"http://maps.google.com/maps?q=1015 BRIDGE ROAD,+CHARLESTON,+WV+25314&hl=en"
CHARLESTON POLICE DEPARTMENT,"UNIV. OF CHARLESTON 
												
													ROBERT C. BYRD SCHOOL OF PHARMACY",2300 MACCORKLE AVE,CHARLESTON,WV,25304,"http://maps.google.com/maps?q=2300 MACCORKLE AVE,+CHARLESTON,+WV+25304&hl=en"
CHARLESTON POLICE DEPARTMENT,"WALGREENS DRUGSTORE 
												
													PARKING LOT",655 WASHINGTON STREET W,CHARLESTON,WV,25302,"http://maps.google.com/maps?q=655 WASHINGTON STREET W,+CHARLESTON,+WV+25302&hl=en"
CHILLICOTHE POLICE DEPARTMENT,"KROGER 
												
													PARKING LOT",887 N BRIDGE STREET,CHILLICOTHE,OH,45601,"http://maps.google.com/maps?q=887 N BRIDGE STREET,+CHILLICOTHE,+OH+45601&hl=en"
CINCINNATI POLICE,"CINCINNATI POLICE DISTRICT 3 
												
													SIDE LOT",2300 FERGUSON RD,CINCINNATI,OH,45238,"http://maps.google.com/maps?q=2300 FERGUSON RD,+CINCINNATI,+OH+45238&hl=en"
CINCINNATI POLICE,"CINCINNATI POLICE DISTRICT 4 
												
													PARKING LOT",7616 READING RD,CINCINNATI,OH,45229,"http://maps.google.com/maps?q=7616 READING RD,+CINCINNATI,+OH+45229&hl=en"
CINCINNATI POLICE,"KENARD KROGER 
												
													PARKING LOT BY STREET",4777 KENARD AVE,CINCINNATI,OH,45232,"http://maps.google.com/maps?q=4777 KENARD AVE,+CINCINNATI,+OH+45232&hl=en"
CINCINNATI VA HOSPITAL,"CINCINNATI VA HOSPITAL 
												
													OPC CIRCLE",3100 VINE STREET,CINCINNATI,OH,45220,"http://maps.google.com/maps?q=3100 VINE STREET,+CINCINNATI,+OH+45220&hl=en"
CITY OF DEERPARK,"CITY OF DEERPARK 
												
													24HR DROP BOX ONLY, LOCATED IN POLICE LOBBY.",7777 BLUE ASH RD,CINCINNATI,OH,45236,"http://maps.google.com/maps?q=7777 BLUE ASH RD,+CINCINNATI,+OH+45236&hl=en"
CITY OF OXFORD,"TALLAWANDA HIGH SCHOOL 
												
													IN FRONT OF SCHOOL",5301 UNIVERSITY PARK BLVD,OXFORD,OH,45056,"http://maps.google.com/maps?q=5301 UNIVERSITY PARK BLVD,+OXFORD,+OH+45056&hl=en"
CITY OF READING POLICE DEPARTMENT,"CITY OF READING POLICE DEPARTMENT 
												
													POLICE DEPARTMENT LOBBY",1000 MARKET STREETREADING,CINCINNATI,OH,45215,"http://maps.google.com/maps?q=1000 MARKET STREET,+CINCINNATI,+OH+45215&hl=en"
CLAY COUNTY SHERIFF DEPT.,"CLAY COUNTY COURT HOUSE 
												
													FRONT DOOR/COURTYARD SQUARE",246 MAIN STREET,CLAY,WV,25043,"http://maps.google.com/maps?q=246 MAIN STREET,+CLAY,+WV+25043&hl=en"
CLEARCREEK TOWNSHIP POLICE DEPARTMENT,CLEARCREEK TOWNSHIP POLICE DEPARTMENT,7593 BUNNELL HILL RD,SPRINGBORO,OH,45066,"http://maps.google.com/maps?q=7593 BUNNELL HILL RD,+SPRINGBORO,+OH+45066&hl=en"
CLERMONT COUNTY SHERIFF'S OFFICE,CENTRAL JOINT FIRE DEPARTMENT,2401 OLD SR 32,BATAVIA,OH,45103,"http://maps.google.com/maps?q=2401 OLD SR 32,+BATAVIA,+OH+45103&hl=en"
CLERMONT COUNTY SHERIFF'S OFFICE,CLERMONT COUNTY SHERIFF'S OFFICE,4470 SR 222,BATAVIA,OH,45103,"http://maps.google.com/maps?q=4470 SR 222,+BATAVIA,+OH+45103&hl=en"
CLERMONT COUNTY SHERIFF'S OFFICE,CLERMONT NORTHEASTERN HIGH SCHOOL,5347 NEWTONSVILLE HUTCHINSON RD,BATAVIA,OH,45103,"http://maps.google.com/maps?q=5347 NEWTONSVILLE HUTCHINSON RD,+BATAVIA,+OH+45103&hl=en"
COEBURN POLICE DEPARTMENT,"COEBURN FOOD CITY 
												
													MARTY SHOPPING CENTER",517 FRONT ST W,COEBURN,VA,24230,"http://maps.google.com/maps?q=517 FRONT ST W,+COEBURN,+VA+24230&hl=en"
COLUMBUS DIVISION OF POLICE,COLUMBUS HEALTH DEPARTMENT,240 PARSONS AVE,COLUMBUS,OH,43215,"http://maps.google.com/maps?q=240 PARSONS AVE,+COLUMBUS,+OH+43215&hl=en"
DAMASCUS POLICE DEPARTMENT,DAMASCUS TOWN PARK,104 S BEAVER DAM AVE,DAMASCUS,VA,24236,"http://maps.google.com/maps?q=104 S BEAVER DAM AVE,+DAMASCUS,+VA+24236&hl=en"
DANVILLE POLICE DEPARTMENT,DANVILLE POLICE DEPARTMENT/CITY HALL,445 W MAIN STREET,DANVILLE,KY,40422,"http://maps.google.com/maps?q=445 W MAIN STREET,+DANVILLE,+KY+40422&hl=en"
DARKE COUNTY SHERIFF'S OFFICE,FAMILY HEALTH BUILDING,5735 MEEKER ROAD,GREENVILLE,OH,45331,"http://maps.google.com/maps?q=5735 MEEKER ROAD,+GREENVILLE,+OH+45331&hl=en"
DAYTON POLICE DEPARTMENT,DAYTON POLICE DEPARTMENT 1ST DISTRICT OFFICE,417 EAST HELENA STREET,DAYTON,OH,45420,"http://maps.google.com/maps?q=417 EAST HELENA STREET,+DAYTON,+OH+45420&hl=en"
DAYTON POLICE DEPARTMENT,DAYTON POLICE DEPARTMENT 2ND DISTRICT OFFICE,2721 WAYNE AVENUE,DAYTON,OH,45420,"http://maps.google.com/maps?q=2721 WAYNE AVENUE,+DAYTON,+OH+45420&hl=en"
DAYTON POLICE DEPARTMENT,DAYTON POLICE DEPARTMENT 3RD DISTRICT OFFICE,951 WASHINGTON STREET,DAYTON,OH,45402,"http://maps.google.com/maps?q=951 WASHINGTON STREET,+DAYTON,+OH+45402&hl=en"
DAYTON POLICE DEPARTMENT,DAYTON POLICE DEPARTMENT 5TH DISTRICT OFFICE,248 SALEM AVENUE,DAYTON,OH,45406,"http://maps.google.com/maps?q=248 SALEM AVENUE,+DAYTON,+OH+45406&hl=en"
DAYTON POLICE DEPARTMENT,DAYTON POLICE SAFETY BUILDING,335 W THIRD STREET,DAYTON,OH,45402,"http://maps.google.com/maps?q=335 W THIRD STREET,+DAYTON,+OH+45402&hl=en"
DICKENSON COUNTY SHERIFF'S OFFICE,"FOOD CITY 
												
													NEAR THE FRONT ENTRANCE",410 CHASE STREET,CLINTWOOD,VA,24228,"http://maps.google.com/maps?q=410 CHASE STREET,+CLINTWOOD,+VA+24228&hl=en"
DUBLIN POLICE,"DUBLIN POLICE DEPARTMENT HEADQUARTERS 
												
													ENTER ON DRIVE WEST OF TRAFFIC CIRCLE.EXIT AT TRAFFIC CIRCLE",6565 COMMERCE PKWY,DUBLIN,OH,43017,"http://maps.google.com/maps?q=6565 COMMERCE PKWY,+DUBLIN,+OH+43017&hl=en"
DUBLIN POLICE DEPARTMENT,CVS PHARMACY #7658,100 GILES AVENUE,DUBLIN,VA,24084,"http://maps.google.com/maps?q=100 GILES AVENUE,+DUBLIN,+VA+24084&hl=en"
ELIZABETHTON TN POLICE DEPARTMENT,ELIZABETHTON POLICE DEPARTMENT,525 EAST F STREET,ELIZABETHTON,TN,37643,"http://maps.google.com/maps?q=525 EAST F STREET,+ELIZABETHTON,+TN+37643&hl=en"
EMINENCE POLICE DEPARTMENT,EMINENCE POLICE DEPARTMENT,45 DEPOT AVE,EMINENCE,KY,40019,"http://maps.google.com/maps?q=45 DEPOT AVE,+EMINENCE,+KY+40019&hl=en"
ENGLEWOOD POLICE DEPARTMENT,ENGLEWOOD GOVERNMENT CENTER,333 W NATIONAL ROAD,ENGLEWOOD,OH,45322,"http://maps.google.com/maps?q=333 W NATIONAL ROAD,+ENGLEWOOD,+OH+45322&hl=en"
FAIRFAX POLICE DEPARTMENT,FAIRFAX POLICE DEPARTMENT,5903 HAWTHORNE AVENUE,CINCINNATI,OH,45227,"http://maps.google.com/maps?q=5903 HAWTHORNE AVENUE,+CINCINNATI,+OH+45227&hl=en"
FAIRFIELD COUNTY SHERIFF'S OFFICE,"DILEY RIDGE MEDICAL CENTER 
												
													PARKING LOT",7911 DILEY ROAD,CANAL WINCHESTER,OH,43110,"http://maps.google.com/maps?q=7911 DILEY ROAD,+CANAL WINCHESTER,+OH+43110&hl=en"
FAIRFIELD COUNTY SHERIFF'S OFFICE,VIOLET TOWNSHIP MAINTENANCE GARAGE,490 N CENTER STCORNER OF N CENTER & STEMEN RD,PICKERINGTON,OH,43147,"http://maps.google.com/maps?q=490 N CENTER ST,+PICKERINGTON,+OH+43147&hl=en"
FAIRFIELD POLICE DEPARTMENT,FAIRFIELD POLICE DEPARTMENT,5230 PLEASANT AVE,FAIRFIELD,OH,45014,"http://maps.google.com/maps?q=5230 PLEASANT AVE,+FAIRFIELD,+OH+45014&hl=en"
FAIRFIELD-HOCKING-ATHENS MAJOR CRIMES UNIT,"KROGER 
												
													PARKING LOT",1735 N MEMEORIAL DR,LANCASTER,OH,43130,"http://maps.google.com/maps?q=1735 N MEMEORIAL DR,+LANCASTER,+OH+43130&hl=en"
FAYETTE COUNTY SHERIFF'S OFFICE,"COMMUNTY HEALTH FAIR 
												
													GRACE COMMUNITY CHURCH",525 GLENN AVE,WASHINGTON COURT HOUSE,OH,43160,"http://maps.google.com/maps?q=525 GLENN AVE,+WASHINGTON COURT HOUSE,+OH+43160&hl=en"
FAYETTE COUNTY SHERIFF'S OFFICE,FAYETTE COUNTY SHERIFF'S OFFICE,100 NORTH COURT ST. STE 5,FAYETTEVILLE,WV,25840,"http://maps.google.com/maps?q=100 NORTH COURT ST. STE 5,+FAYETTEVILLE,+WV+25840&hl=en"
FAYETTE COUNTY SHERIFF'S OFFICE,SHERIFF'S ANNEX BUILDING,110 WEST MARKET STREET,WASHINGTON COURT HOUSE,OH,43160,"http://maps.google.com/maps?q=110 WEST MARKET STREET,+WASHINGTON COURT HOUSE,+OH+43160&hl=en"
FELICITY POLICE DEPARTMENT,FELICITY POLICE DEPARTMENT,415 WALNUT STREET,FELICITY,OH,45120,"http://maps.google.com/maps?q=415 WALNUT STREET,+FELICITY,+OH+45120&hl=en"
FLEMINGSBURG POLICE DEPARTMENT,FLEMINGSBURG POLICE DEPARTMENT,116 S MAIN CROSS STREET,FLEMINGSBURG,KY,41041,"http://maps.google.com/maps?q=116 S MAIN CROSS STREET,+FLEMINGSBURG,+KY+41041&hl=en"
FLORENCE POLICE DEPARTMENT,FLORENCE POLICE DEPARTMENT,8100 EWING BLVD,FLORENCE,KY,41042,"http://maps.google.com/maps?q=8100 EWING BLVD,+FLORENCE,+KY+41042&hl=en"
"FORT THOMAS, KENTUCKY POLICE DEPARTMENT",FT. THOMAS POLICE DEPARTMENT,130 N. FT. THOMAS AVE,FORT THOMAS,KY,41075,"http://maps.google.com/maps?q=130 N. FT. THOMAS AVE,+FORT THOMAS,+KY+41075&hl=en"
FRANKFORT POLICE DEPARTMENT,"FRANKLIN COUNTY HEALTH DEPARTMENT 
												
													EAST WEST CONNECTOR ROAD",851 EAST WEST CONNECTOR ROAD,FRANKFORT,KY,40601,"http://maps.google.com/maps?q=851 EAST WEST CONNECTOR ROAD,+FRANKFORT,+KY+40601&hl=en"
FRANKLIN COUNTY SHERIFF'S OFFICE,KROGER,300 S. HAMILTON RD,GAHANNA,OH,43230,"http://maps.google.com/maps?q=300 S. HAMILTON RD,+GAHANNA,+OH+43230&hl=en"
FRANKLIN COUNTY SHERIFF'S OFFICE,KROGER,3637 S. HIGH ST,COLUMBUS,OH,43207,"http://maps.google.com/maps?q=3637 S. HIGH ST,+COLUMBUS,+OH+43207&hl=en"
FRANKLIN COUNTY SHERIFF'S OFFICE,KROGER,4656 CEMETERY RD.,HILLIARD,OH,43026,"http://maps.google.com/maps?q=4656 CEMETERY RD.,+HILLIARD,+OH+43026&hl=en"
FRANKLIN COUNTY SHERIFF'S OFFICE,KROGER,55 W. SCHROCK RD.,WESTERVILLE,OH,43081,"http://maps.google.com/maps?q=55 W. SCHROCK RD.,+WESTERVILLE,+OH+43081&hl=en"
FRANKLIN COUNTY SHERIFF'S OFFICE,KROGER,6095 GENDER RD,CANAL WINCHESTER,OH,43110,"http://maps.google.com/maps?q=6095 GENDER RD,+CANAL WINCHESTER,+OH+43110&hl=en"
FRANKLIN COUNTY SHERIFF'S OFFICE,KROGER,7255 SAWMILL RD.,DUBLIN,OH,43016,"http://maps.google.com/maps?q=7255 SAWMILL RD.,+DUBLIN,+OH+43016&hl=en"
FRANKLIN POLICE DEPARTMENT (LOBBY),WAL-MART,1275 E. SECOND STREET,FRANKLIN,OH,45005,"http://maps.google.com/maps?q=1275 E. SECOND STREET,+FRANKLIN,+OH+45005&hl=en"
FRANKLIN TOWNSHIP POLICE DEPARTMENT,"FRANKLIN TOWNSHIP POLICE DEPT. 
												
													FRANKLIN TOWNSHIP FIRE DEPT.",2193 FRANK RD,COLUMBUS,OH,43223,"http://maps.google.com/maps?q=2193 FRANK RD,+COLUMBUS,+OH+43223&hl=en"
GILES COUNTY SHERIFF'S OFFICE,GILES COUNTY SHERIFF'S OFFICE,1 TAYLOR AVENUE SUITE 3,PEARISBURG,VA,24134,"http://maps.google.com/maps?q=1 TAYLOR AVENUE SUITE 3,+PEARISBURG,+VA+24134&hl=en"
GOSHEN TOWNSHIP POLICE DEPARTMENT,GOSHEN POLICE DEPARTMENT,6757 GOSHEN ROAD,GOSHEN,OH,45122,"http://maps.google.com/maps?q=6757 GOSHEN ROAD,+GOSHEN,+OH+45122&hl=en"
GRAYMOOR-DEVONDALE POLICE DEPARTMENT,GRAYMOOR-DEVONDALE POLICE DEPARTMENT,1500 LYNN WAY,LOUISVILLE,KY,40222,"http://maps.google.com/maps?q=1500 LYNN WAY,+LOUISVILLE,+KY+40222&hl=en"
GRAYSON COUNTY SHERIFF'S OFFICE,CORNER CAFE & MARKET,4013 TROUTDALE HIGHWAY,MOUTH OF WILSON,VA,24363,"http://maps.google.com/maps?q=4013 TROUTDALE HIGHWAY,+MOUTH OF WILSON,+VA+24363&hl=en"
GREEN TOWNSHIP POLICE DEPARTMENT,"GREEN TOWNSHIP POLICE 
												
													KIOSK IN THE LOBBY ONLY",6303 HARRISON AVE.,CINCINNATI,OH,45247,"http://maps.google.com/maps?q=6303 HARRISON AVE.,+CINCINNATI,+OH+45247&hl=en"
GREENE COUNTY SHERIFF'S OFFICE,BEAVERCREEK POLICE DEPARTMENT,1388 RESEARCH PARK DRIVE,DAYTON,OH,45432,"http://maps.google.com/maps?q=1388 RESEARCH PARK DRIVE,+DAYTON,+OH+45432&hl=en"
GREENE COUNTY SHERIFF'S OFFICE,FAIRBORN POLICE DEPARTMENT,70 W HEBBLE ROAD,FAIRBORN,OH,45324,"http://maps.google.com/maps?q=70 W HEBBLE ROAD,+FAIRBORN,+OH+45324&hl=en"
GREENE COUNTY SHERIFF'S OFFICE,GREENE COUNTY SHERIFF'S OFFICE,120 E MAIN STREET,XENIA,OH,45385,"http://maps.google.com/maps?q=120 E MAIN STREET,+XENIA,+OH+45385&hl=en"
GREENE COUNTY SHERIFF'S OFFICE,SUGARCREEK TOWNSHIP POLICE DEPARTMENT,4398 CLYO ROAD,DAYTON,OH,45459,"http://maps.google.com/maps?q=4398 CLYO ROAD,+DAYTON,+OH+45459&hl=en"
GREENHILLS POLICE,GREENHILLS MUNCIPAL BUILDING,11000 WINTON RD,CINCINNATI,OH,45218,"http://maps.google.com/maps?q=11000 WINTON RD,+CINCINNATI,+OH+45218&hl=en"
GROVE CITY POLICE,JACKSON TOWNSHIP STATION 202,3650 HOOVER ROAD,GROVE CITY,OH,43123,"http://maps.google.com/maps?q=3650 HOOVER ROAD,+GROVE CITY,+OH+43123&hl=en"
HAMILTON COUNTY SHERIFF'S OFFICE,HARRISON TOWNSHIP,9940 NEW HAVEN ROAD,HARRISON,OH,45030,"http://maps.google.com/maps?q=9940 NEW HAVEN ROAD,+HARRISON,+OH+45030&hl=en"
HAMILTON COUNTY SHERIFF'S OFFICE,MIAMI TOWNSHIP,3780 SHADY LANE,NORTH BEND,OH,45052,"http://maps.google.com/maps?q=3780 SHADY LANE,+NORTH BEND,+OH+45052&hl=en"
HAMILTON POLICE DEPARTMENT,HAMILTON POLICE DEPARTMENT,331 SOUTH FRONT STREET,HAMILTON,OH,45011,"http://maps.google.com/maps?q=331 SOUTH FRONT STREET,+HAMILTON,+OH+45011&hl=en"
HAMILTON TOWNSHIP POLICE DEPARTMENT,HAMILTON TOWNSHIP POLICE DEPARTMENT,7780 SOUTH STATE ROUTE 48,MAINEVILLE,OH,45039,"http://maps.google.com/maps?q=7780 SOUTH STATE ROUTE 48,+MAINEVILLE,+OH+45039&hl=en"
HARLAN POLICE DEPARTMENT,HARLAN POLICE DEPARTMENT,218 SOUTH MAIN,HARLAN,KY,40831,"http://maps.google.com/maps?q=218 SOUTH MAIN,+HARLAN,+KY+40831&hl=en"
HARRISON COUNTY SHERIFF'S OFFICE,HARRISON COUNTY SHERIFF'S OFFICE,113 W. PIKE ST.,CYNTHIANA,KY,41031,"http://maps.google.com/maps?q=113 W. PIKE ST.,+CYNTHIANA,+KY+41031&hl=en"
HAWKINS COUNTY SHERIFF'S OFFICE,HAWKINS COUNTY SHERIFF'S OFFICE,117 JUSTIC CENTER DR,ROGERSVILLE,TN,37857,"http://maps.google.com/maps?q=117 JUSTIC CENTER DR,+ROGERSVILLE,+TN+37857&hl=en"
HIGHLAND HEIGHTS POLICE,HIGHLAND HEIGHTS POLICE,176 JOHNS HILL RD,HIGHLAND HEIGHTS,KY,41076,"http://maps.google.com/maps?q=176 JOHNS HILL RD,+HIGHLAND HEIGHTS,+KY+41076&hl=en"
HILLIARD DIVISION OF POLICE,HILLIARD DIVISION OF POLICE,5171 NORTHWEST PARKWAY,HILLIARD,OH,43026,"http://maps.google.com/maps?q=5171 NORTHWEST PARKWAY,+HILLIARD,+OH+43026&hl=en"
HINTON POLICE DEPARTMENT,"KROGER 
												
													PARKING LOT",308 STOKES DRIVE,HINTON,WV,25951,"http://maps.google.com/maps?q=308 STOKES DRIVE,+HINTON,+WV+25951&hl=en"
HUBER HEIGHTS POLICE DEPARTMENT,HUBER HEIGHTS POLICE DEPARTMENT,6121 TAYLORSVILLE ROAD,DAYTON,OH,45424,"http://maps.google.com/maps?q=6121 TAYLORSVILLE ROAD,+DAYTON,+OH+45424&hl=en"
HUNTINGTON POLICE DEPARTMENT,CABELL HUNTINGTON HEALTH DEPARTMENT,703 7TH AVE HUNTINGTON,HUNTINGTON,WV,25701,"http://maps.google.com/maps?q=703 7TH AVE HUNTINGTON,+HUNTINGTON,+WV+25701&hl=en"
INDIANA STATE POLICE,"INDIANA STATE POLICE 
												
													DISTRICT 42",902 SOUTH ADAMS STREET,VERSAILLES,IN,47042,"http://maps.google.com/maps?q=902 SOUTH ADAMS STREET,+VERSAILLES,+IN+47042&hl=en"
INDIANA STATE POLICE,"INDIANA STATE POLICE 
												
													DISTRICT 45",8014 HIGHWAY 311,SELLERSBURG,IN,47172,"http://maps.google.com/maps?q=8014 HIGHWAY 311,+SELLERSBURG,+IN+47172&hl=en"
JACKSON COUNTY SHERIFF'S DEPARTMENT,KENNA VOLUNTEER FIRE DEPARTMENT,RT 21 AT PLEASANT VALLEY ROAD,KENNA,WV,25248,"http://maps.google.com/maps?q=RT 21 AT PLEASANT VALLEY ROAD,+KENNA,+WV+25248&hl=en"
JACKSON COUNTY SHERIFF'S DEPARTMENT,RAVENSWOOD VOLUNTEER FIRE DEPT,333 VIRGINIA STREET,RAVENSWOOD,WV,26164,"http://maps.google.com/maps?q=333 VIRGINIA STREET,+RAVENSWOOD,+WV+26164&hl=en"
JACKSON COUNTY SHERIFF'S DEPARTMENT,RIPLEY CITY HALL,203 SOUTH CHURCH ST,RIPLEY,WV,25271,"http://maps.google.com/maps?q=203 SOUTH CHURCH ST,+RIPLEY,+WV+25271&hl=en"
JEFFERSON COUNTY SHERIFF'S OFFICE,JEFFERSON COUNTY SHERIFF'S OFFICE,531 COURT PLACE SUITE 600,LOUISVILLE,KY,40202,"http://maps.google.com/maps?q=531 COURT PLACE SUITE 600,+LOUISVILLE,+KY+40202&hl=en"
JOHNSON COUNTY SHERIFF'S OFFICE,BUTLER FIRE DEPARTMENT,PIERCE TOWN ROAD,BUTLER,TN,37640,"http://maps.google.com/maps?q=PIERCE TOWN ROAD,+BUTLER,+TN+37640&hl=en"
JOHNSON COUNTY SHERIFF'S OFFICE,MOUNTAIN CITY POLICE DEPARTMENT,210 SOUTH CHURCH STREET,MOUNTAIN CITY,TN,37683,"http://maps.google.com/maps?q=210 SOUTH CHURCH STREET,+MOUNTAIN CITY,+TN+37683&hl=en"
JOHNSON COUNTY SHERIFF'S OFFICE,SHADY VALLEY FIRE DEPT.,10114 US 421 N,SHADY VALLEY,TN,37688,"http://maps.google.com/maps?q=10114 US 421 N,+SHADY VALLEY,+TN+37688&hl=en"
JONESBOROUGH DEPT. OF PUBLIC SAFETY,JONESBOROUGH FIRE DEPT.,123 BOONE STREET,JONESBOROUGH,TN,37659,"http://maps.google.com/maps?q=123 BOONE STREET,+JONESBOROUGH,+TN+37659&hl=en"
KANAWHA COUNTY SHERIFF'S OFFICE,"KANAWHA COUNTY SHERIFF'S DETACHMENT 
												
													CROSS LANES DETACHMENT/CPL J.A. RATLIFF",903 CROSS LANES DR,CROSS LANES,WV,25313,"http://maps.google.com/maps?q=903 CROSS LANES DR,+CROSS LANES,+WV+25313&hl=en"
KANAWHA COUNTY SHERIFF'S OFFICE,"KANAWHA COUNTY SHERIFF'S OFFICE 
												
													QUINCY DETACHMENT/LT R.B. LILLY",2700 E DUPONT AVE,BELLE,WV,25015,"http://maps.google.com/maps?q=2700 E DUPONT AVE,+BELLE,+WV+25015&hl=en"
KANAWHA COUNTY SHERIFF'S OFFICE,"KANAWHA COUNTY SHERIFF'S OFFICE 
												
													SISSONVILLE DETACHMENT/LT. K.L. WHITE",6438 SISSONVILLE DRIVE,SISSONVILLE,WV,25320,"http://maps.google.com/maps?q=6438 SISSONVILLE DRIVE,+SISSONVILLE,+WV+25320&hl=en"
KANAWHA COUNTY SHERIFF'S OFFICE,"KANAWHA COUNTY SHERIFF'S OFFICE 
												
													ST. ALBANS DETACHMENT/CPT. BOONE",6809 OHIO AVENUE,SAINT ALBANS,WV,25177,"http://maps.google.com/maps?q=6809 OHIO AVENUE,+SAINT ALBANS,+WV+25177&hl=en"
KANAWHA COUNTY SHERIFF'S OFFICE,"KANWHA COUNTY SHERIFF'S DEPT 
												
													ELKVIEW DETACHMENT/SGT. M. HUDDLESTON",902 MAIN ST,ELKVIEW,WV,25071,"http://maps.google.com/maps?q=902 MAIN ST,+ELKVIEW,+WV+25071&hl=en"
KENTUCKY STATE POLICE POST 10,KENTUCKY STATE POLICE,3319 SOUTH US 421,HARLAN,KY,40831,"http://maps.google.com/maps?q=3319 SOUTH US 421,+HARLAN,+KY+40831&hl=en"
KENTUCKY STATE POLICE POST 11,LAUREL COUNTY HEALTH DEPARTMENT,525 WHITLEY STREET,LONDON,KY,40741,"http://maps.google.com/maps?q=525 WHITLEY STREET,+LONDON,+KY+40741&hl=en"
KENTUCKY STATE POLICE POST 13,KENTUCKY STATE POLICE,100 JUSTICE DRIVE,HAZARD,KY,41701,"http://maps.google.com/maps?q=100 JUSTICE DRIVE,+HAZARD,+KY+41701&hl=en"
KENTUCKY STATE POLICE POST 14,KENTUCKY STATE POLICE,5975 STATE ROUTE US 60,ASHLAND,KY,41102,"http://maps.google.com/maps?q=5975 STATE ROUTE US 60,+ASHLAND,+KY+41102&hl=en"
KENTUCKY STATE POLICE POST 5,KENTUCKY STATE POLICE,160 CITATION LANE,CAMPBELLSBURG,KY,40011,"http://maps.google.com/maps?q=160 CITATION LANE,+CAMPBELLSBURG,+KY+40011&hl=en"
KENTUCKY STATE POLICE POST 6,KSP POST 6,4265 DIXIE HIGHWAY,DRY RIDGE,KY,41035,"http://maps.google.com/maps?q=4265 DIXIE HIGHWAY,+DRY RIDGE,+KY+41035&hl=en"
KENTUCKY STATE POLICE POST 7,KENTUCKY STATE POLICE POST 7,"699 EASTERN BYPASS, RICHMOND, KY",RICHMOND,KY,40475,"http://maps.google.com/maps?q=699 EASTERN BYPASS, RICHMOND, KY,+RICHMOND,+KY+40475&hl=en"
KENTUCKY STATE POLICE POST 8,MOREHEAD POLICE DEPARTMENT,105 E MAIN STREET,MOREHEAD,KY,40351,"http://maps.google.com/maps?q=105 E MAIN STREET,+MOREHEAD,+KY+40351&hl=en"
KENTUCKY STATE POLICE POST 9 PIKEVILLE,KENTUCKY STATE POLICE POST 9 PIKEVILLE,3499 N MAYO TRAIL,PIKEVILLE,KY,41501,"http://maps.google.com/maps?q=3499 N MAYO TRAIL,+PIKEVILLE,+KY+41501&hl=en"
KETTERING POLICE DEPARTMENT,KETTERING POLICE DEPARTMENT,3600 SHROYER RD,KETTERING,OH,45429,"http://maps.google.com/maps?q=3600 SHROYER RD,+KETTERING,+OH+45429&hl=en"
KINGSPORT POLICE DEPARTMENT,KINGSPORT JUSTICE CENTER,200 SHELBY ST,KINGSPORT,TN,37660,"http://maps.google.com/maps?q=200 SHELBY ST,+KINGSPORT,+TN+37660&hl=en"
KINGSPORT POLICE DEPARTMENT,V.O. DOBBINS COMPLEX,301 LOUIS ST,KINGSPORT,TN,37660,"http://maps.google.com/maps?q=301 LOUIS ST,+KINGSPORT,+TN+37660&hl=en"
LANCASTER (OH) POLICE DEPARTMENT,OHIO UNIVERSITY LANCASTER CAMPUS,1570 GRANVILLE PIKE,LANCASTER,OH,43130,"http://maps.google.com/maps?q=1570 GRANVILLE PIKE,+LANCASTER,+OH+43130&hl=en"
LEBANON DIVISION OF POLICE,COUNTRYSIDE YMCA,1699 DEERFIELD RD.,LEBANON,OH,45036,"http://maps.google.com/maps?q=1699 DEERFIELD RD.,+LEBANON,+OH+45036&hl=en"
LEBANON DIVISION OF POLICE,KROGER (PARKING LOT),1425 COLUMBUS AVE,LEBANON,OH,45036,"http://maps.google.com/maps?q=1425 COLUMBUS AVE,+LEBANON,+OH+45036&hl=en"
LEBANON POLICE DEPARTMENT,WALMART,1050 REGIONAL PARK ROAD,LEBANON,VA,24266,"http://maps.google.com/maps?q=1050 REGIONAL PARK ROAD,+LEBANON,+VA+24266&hl=en"
LEE COUNTY SHERIFF'S OFFICE,"FOOD CITY STORE 
												
													NEAR FRONT ENTRANCE",205 RIVER BEND ROAD,PENNINGTON GAP,VA,24277,"http://maps.google.com/maps?q=205 RIVER BEND ROAD,+PENNINGTON GAP,+VA+24277&hl=en"
LEXINGTON POLICE DEPARTMENT,KENTUCKY AMERICAN WATER COMPANY,2300 RICHMOND RD,LEXINGTON,KY,40502,"http://maps.google.com/maps?q=2300 RICHMOND RD,+LEXINGTON,+KY+40502&hl=en"
LICKING COUNTY SHERIFF'S OFFICE,KROGER,350 EAST BROAD STREET,PATASKALA,OH,43062,"http://maps.google.com/maps?q=350 EAST BROAD STREET,+PATASKALA,+OH+43062&hl=en"
LOCKLAND POLICE DEPARTMENT,LOCKLAND CHURCH OF NAZARENE,335 W WYOMING AV,LOCKLAND,OH,45215,"http://maps.google.com/maps?q=335 W WYOMING AV,+LOCKLAND,+OH+45215&hl=en"
LOGAN COUNTY SHERIFF'S DEPARTMENT,"WAL-MART SUPER CENTER 
												
													FOUNTAIN PLACE MALL",U.S.  119/WV 73,LOGAN,WV,25601,"http://maps.google.com/maps?q=U.S.  119/WV 73,+LOGAN,+WV+25601&hl=en"
LOUISVILLE METRO POLICE DEPARTMENT,"CVS 
												
													PARKING LOT",3130 PORTLAND AVE,LOUISVILLE,KY,40212,"http://maps.google.com/maps?q=3130 PORTLAND AVE,+LOUISVILLE,+KY+40212&hl=en"
LOUISVILLE METRO POLICE DEPARTMENT,"KROGER 
												
													PARKING LOT",291 N HUBBARD'S LN,LOUISVILLE,KY,40207,"http://maps.google.com/maps?q=291 N HUBBARD'S LN,+LOUISVILLE,+KY+40207&hl=en"
LOUISVILLE METRO POLICE DEPARTMENT,"WALGREEN'S 
												
													PARKING LOT",11930 STANDIFORD PLAZA DR,LOUISVILLE,KY,40229,"http://maps.google.com/maps?q=11930 STANDIFORD PLAZA DR,+LOUISVILLE,+KY+40229&hl=en"
LOUISVILLE METRO POLICE DEPARTMENT,"WALGREENS 
												
													PARKING LOT",12101 DIXIE HIGHWAY,LOUISVILLE,KY,40272,"http://maps.google.com/maps?q=12101 DIXIE HIGHWAY,+LOUISVILLE,+KY+40272&hl=en"
LOUISVILLE METRO POLICE DEPARTMENT,"WALGREENS 
												
													PARKING LOT",4025 TAYLORSVILLE RD,LOUISVILLE,KY,40220,"http://maps.google.com/maps?q=4025 TAYLORSVILLE RD,+LOUISVILLE,+KY+40220&hl=en"
LOVELAND POLICE DEPARTMENT,"LOVELAND ELEMENTARY AND PRIMARY SCHOOLS 
												
													DRIVE THROUGH DROP OFF",600 LOVELAND MADEIRA ROAD,LOVELAND,OH,45140,"http://maps.google.com/maps?q=600 LOVELAND MADEIRA ROAD,+LOVELAND,+OH+45140&hl=en"
LOVELAND POLICE DEPARTMENT,"LOVELAND POLICE DEPARTMENT 
												
													LOBBY DROP BOX",126 SOUTH LEBANON ROAD,LOVELAND,OH,45140,"http://maps.google.com/maps?q=126 SOUTH LEBANON ROAD,+LOVELAND,+OH+45140&hl=en"
LUDLOW POLICE DEPARTMENT,LUDLOW POLICE DEPARTMENT,51 ELM STREET,LUDLOW,KY,41016,"http://maps.google.com/maps?q=51 ELM STREET,+LUDLOW,+KY+41016&hl=en"
MADISON COUNTY SHERIFF'S OFFICE,MADISON COUNTY SHERIFF OPERATION CENTER,222 GARFIELD STREET,LONDON,OH,43140,"http://maps.google.com/maps?q=222 GARFIELD STREET,+LONDON,+OH+43140&hl=en"
MASON COUNTY SHERIFF'S OFFICE,MASON COUNTY SHERIFF'S OFFICE,200 SIXTH STREET,POINT PLEASANT,WV,25550,"http://maps.google.com/maps?q=200 SIXTH STREET,+POINT PLEASANT,+WV+25550&hl=en"
MASON COUNTY SHERIFF'S OFFICE,NEW HAVEN VOLUNTEER FIRE DEPT,407 5TH STREET,NEW HAVEN,WV,25265,"http://maps.google.com/maps?q=407 5TH STREET,+NEW HAVEN,+WV+25265&hl=en"
MATEWAN WV PD,MATEWAN POLICE DEPARTMENT,ROUTE 65 MCCOY ALLEY,MATEWAN,WV,25678,"http://maps.google.com/maps?q=ROUTE 65 MCCOY ALLEY,+MATEWAN,+WV+25678&hl=en"
MCDOWELL COUNTY SHERIFF DEPARTMENT,MAGIC MART,COAL HERITAGE RD,WELCH,WV,24801,"http://maps.google.com/maps?q=COAL HERITAGE RD,+WELCH,+WV+24801&hl=en"
MERCER COUNTY SHERIFF'S DEPARTMENT,MERCER COUNTY SD GARAGE,1501 WEST MAIN STREET,PRINCETON,WV,24740,"http://maps.google.com/maps?q=1501 WEST MAIN STREET,+PRINCETON,+WV+24740&hl=en"
"MERCER COUNTY, KY SHERIFFS OFFICE",MERCER COUNTY SHERIFFS OFFICE,207 WEST LEXINGTON ST,HARRODSBURG,KY,40330,"http://maps.google.com/maps?q=207 WEST LEXINGTON ST,+HARRODSBURG,+KY+40330&hl=en"
MIAMI COUNTY SHERIFF'S OFFICE,MIAMI COUNTY TRANSFER STATION,2500 N COUNTY ROAD 25A,TROY,OH,45373,"http://maps.google.com/maps?q=2500 N COUNTY ROAD 25A,+TROY,+OH+45373&hl=en"
MIAMI TOWNSHIP POLICE DEPARTMENT,MIAMI TOWNSHIP POLICE DEPARTMENT,2660 LYONS ROAD,MIAMISBURG,OH,45342,"http://maps.google.com/maps?q=2660 LYONS ROAD,+MIAMISBURG,+OH+45342&hl=en"
MIAMI TOWNSHIP POLICE DEPT. - CLERMONT CO.,"MIAMI TOWNSHIP POLICE DEPT. - CLERMONT CO. 
												
													24HR DROP BOX LOCATED IN LOBBY",5900 MCPICKEN DRIVE,MILFORD,OH,45150,"http://maps.google.com/maps?q=5900 MCPICKEN DRIVE,+MILFORD,+OH+45150&hl=en"
MILTON POLICE DEPARTMENT,MILTON VOLUNTEER  FIRE DEPARTMENT,341 E MAIN ST,MILTON,WV,25541,"http://maps.google.com/maps?q=341 E MAIN ST,+MILTON,+WV+25541&hl=en"
MONTGOMERY COUNTY SHERIFF'S OFFICE,MONTGOMERY COUNTY SHERIFF'S OFFICE,345 W. SECOND ST.,DAYTON,OH,45422,"http://maps.google.com/maps?q=345 W. SECOND ST.,+DAYTON,+OH+45422&hl=en"
MONTGOMERY POLICE DEPARTMENT,MONTGOMERY SAFETY CENTER,10150 MONTGOMERY RD,CINCINNATI,OH,45242,"http://maps.google.com/maps?q=10150 MONTGOMERY RD,+CINCINNATI,+OH+45242&hl=en"
MORAINE POLICE DEPARTMENT,"MORAINE MUNICIPAL BUILDING 
												
													MORAINE POLICE DIVISION",4200 DRYDEN RD.,MORAINE,OH,45439,"http://maps.google.com/maps?q=4200 DRYDEN RD.,+MORAINE,+OH+45439&hl=en"
MOREHEAD POLICE DEPARTMENT,CARL D. PERKINS COMMUNITY CENTER,CRAYTON JACKSON LANE,MOREHEAD,KY,40351,"http://maps.google.com/maps?q=CRAYTON JACKSON LANE,+MOREHEAD,+KY+40351&hl=en"
MOUNT CARMEL POLICE DEPT.,PUBLIC SAFETY DEPT.,213 HAMMOND AVENUE,MOUNT CARMEL,TN,37645,"http://maps.google.com/maps?q=213 HAMMOND AVENUE,+MOUNT CARMEL,+TN+37645&hl=en"
MOUNT STERLING POLICE DEPARTMENT,MT. STERLING PLICE DEPT.,35 SOUTH BANK,MOUNT STERLING,KY,40353,"http://maps.google.com/maps?q=35 SOUTH BANK,+MOUNT STERLING,+KY+40353&hl=en"
MUSKINGUM COUNTY SHERIFF'S OFFICE,"MUSKINGUM COUNTY HEALTH DEPARTMENT 
												
													PARKING LOT",205 N 7TH STREET,ZANESVILLE,OH,43701,"http://maps.google.com/maps?q=205 N 7TH STREET,+ZANESVILLE,+OH+43701&hl=en"
MUSKINGUM COUNTY SHERIFF'S OFFICE,RIESBECKS PICK'N SAVE,2200 JUNE PARKWAY,ZANESVILLE,OH,43701,"http://maps.google.com/maps?q=2200 JUNE PARKWAY,+ZANESVILLE,+OH+43701&hl=en"
NEW ALBANY POLICE DEPARTMENT,PLAIN TOWNSHIP FIRE DEPARTMENT,9500 JOHNSTOWN RD.,NEW ALBANY,OH,43054,"http://maps.google.com/maps?q=9500 JOHNSTOWN RD.,+NEW ALBANY,+OH+43054&hl=en"
NICHOLAS COUNTY SHERIFF'S DEPARTMENT,NICHOLAS COUNTY COURTHOUSE,700 MAIN ST,SUMMERSVILLE,WV,26651,"http://maps.google.com/maps?q=700 MAIN ST,+SUMMERSVILLE,+WV+26651&hl=en"
NICHOLASVILLE POLICE DEPARTMENT,WAL-MART,1032 NORTH MAIN,NICHOLASVILLE,KY,40356,"http://maps.google.com/maps?q=1032 NORTH MAIN,+NICHOLASVILLE,+KY+40356&hl=en"
NITRO POLICE DEPARTMENT,NITRO POLICE DEPARTMENT,497 1ST AVENUE SOUTH,NITRO,WV,25143,"http://maps.google.com/maps?q=497 1ST AVENUE SOUTH,+NITRO,+WV+25143&hl=en"
NORTHERN KENTUCKY DRUG STRIKE FORCE,BELLEVUE POLICE DEPARTMENT,616 POPLAR ST.,BELLEVUE,KY,41073,"http://maps.google.com/maps?q=616 POPLAR ST.,+BELLEVUE,+KY+41073&hl=en"
NORTHERN KENTUCKY DRUG STRIKE FORCE,CAMPBELL COUNTY POLICE DEPARTMENT,8774 CONSTABLE DR.,ALEXANDRIA,KY,41001,"http://maps.google.com/maps?q=8774 CONSTABLE DR.,+ALEXANDRIA,+KY+41001&hl=en"
NORTHERN KENTUCKY DRUG STRIKE FORCE,COLD SPRING POLICE DEPARTMENT,5589 EAST ALEXANDRIA PIKE,COLD SPRING,KY,41076,"http://maps.google.com/maps?q=5589 EAST ALEXANDRIA PIKE,+COLD SPRING,+KY+41076&hl=en"
NORTHERN KENTUCKY DRUG STRIKE FORCE,COVINGTON POLICE DEPARTMENT,1 POLICE MEMORIAL DR.,COVINGTON,KY,41014,"http://maps.google.com/maps?q=1 POLICE MEMORIAL DR.,+COVINGTON,+KY+41014&hl=en"
NORTHERN KENTUCKY DRUG STRIKE FORCE,DAYTON POLICE DEPARTMENT,514 6TH AVE.,DAYTON,KY,41074,"http://maps.google.com/maps?q=514 6TH AVE.,+DAYTON,+KY+41074&hl=en"
NORTHERN KENTUCKY DRUG STRIKE FORCE,EDGEWOOD POLICE DEPARTMENT,385 DUDLEY PIKE,EDGEWOOD,KY,41017,"http://maps.google.com/maps?q=385 DUDLEY PIKE,+EDGEWOOD,+KY+41017&hl=en"
NORTHERN KENTUCKY DRUG STRIKE FORCE,ERLANGER POLICE DEPARTMENT,505 COMMONWEALTH AVE.,ERLANGER,KY,41018,"http://maps.google.com/maps?q=505 COMMONWEALTH AVE.,+ERLANGER,+KY+41018&hl=en"
NORTHERN KENTUCKY DRUG STRIKE FORCE,FT. WRIGHT POLICE DEPARTMENT,409 KYLES LN.,COVINGTON,KY,41011,"http://maps.google.com/maps?q=409 KYLES LN.,+COVINGTON,+KY+41011&hl=en"
NORTHERN KENTUCKY DRUG STRIKE FORCE,HIGHLAND HEIGHTS POLICE DEPARTMENT,176 JOHNS HILL RD.,HIGHLAND HEIGHTS,KY,41076,"http://maps.google.com/maps?q=176 JOHNS HILL RD.,+HIGHLAND HEIGHTS,+KY+41076&hl=en"
NORTHERN KENTUCKY DRUG STRIKE FORCE,KENTON COUNTY POLICE DEPARTMENT,11777 MADISON PIKE,INDEPENDENCE,KY,41051,"http://maps.google.com/maps?q=11777 MADISON PIKE,+INDEPENDENCE,+KY+41051&hl=en"
NORTHERN KENTUCKY DRUG STRIKE FORCE,NEWPORT POLICE DEPARTMENT,998 MONMOUTH ST.,NEWPORT,KY,41071,"http://maps.google.com/maps?q=998 MONMOUTH ST.,+NEWPORT,+KY+41071&hl=en"
NORTHERN KENTUCKY DRUG STRIKE FORCE,PARK HILLS POLICE DEPARTMENT,1106 AMSTERDAM RD.,PARK HILLS,KY,41011,"http://maps.google.com/maps?q=1106 AMSTERDAM RD.,+PARK HILLS,+KY+41011&hl=en"
NORTHERN KENTUCKY DRUG STRIKE FORCE,SOUTHGATE POLICE DEPARTMENT,301 W. WALNUT,SOUTHGATE,KY,41071,"http://maps.google.com/maps?q=301 W. WALNUT,+SOUTHGATE,+KY+41071&hl=en"
NORTHERN KENTUCKY DRUG STRIKE FORCE,VILLA HILLS POLICE DEPARTMENT,719 RODGERS RD.,VILLA HILLS,KY,41017,"http://maps.google.com/maps?q=719 RODGERS RD.,+VILLA HILLS,+KY+41017&hl=en"
NORTHERN KENTUCKY DRUG STRIKE FORCE,WILDER POLICE DEPARTMENT,520 LICKING PIKE,WILDER,KY,41071,"http://maps.google.com/maps?q=520 LICKING PIKE,+WILDER,+KY+41071&hl=en"
NORTHERN KENTUCKY UNIVERSITY POLICE,NKUPD,415 OLD JOHNS HILL ROAD,HIGHLAND HEIGHTS,KY,41099,"http://maps.google.com/maps?q=415 OLD JOHNS HILL ROAD,+HIGHLAND HEIGHTS,+KY+41099&hl=en"
NORTON POLICE DEPARTMENT,"CVS PHARMACY 
												
													PARKING LOT",1128 PARK AVENUE,NORTON,VA,24273,"http://maps.google.com/maps?q=1128 PARK AVENUE,+NORTON,+VA+24273&hl=en"
OAK HILL WV POLICE DEPARTMENT,OAK HILL PD,691 VIRGINIA ST,OAK HILL,WV,25901,"http://maps.google.com/maps?q=691 VIRGINIA ST,+OAK HILL,+WV+25901&hl=en"
OLDHAM COUNTY SHERIFF'S OFFICE,LAGRANGE FIRE DEPARTMENT STATION 2,3637 W HWY 146,BUCKNER,KY,40010,"http://maps.google.com/maps?q=3637 W HWY 146,+BUCKNER,+KY+40010&hl=en"
OLDHAM COUNTY SHERIFF'S OFFICE,OLDHAM COUNTY POLICE DEPARTMENT,1855 NORTH HIGHWAY 393,LA GRANGE,KY,40031,"http://maps.google.com/maps?q=1855 NORTH HIGHWAY 393,+LA GRANGE,+KY+40031&hl=en"
PARIS POLICE DEPARTMENT,WALMART,305 LETTON DRIVE,PARIS,KY,40361,"http://maps.google.com/maps?q=305 LETTON DRIVE,+PARIS,+KY+40361&hl=en"
"PARKERSBURG, WV POLICE DEPARTMENT",CVS PHARMACY,2323 MURDOCH AVENUE,PARKERSBURG,WV,26101,"http://maps.google.com/maps?q=2323 MURDOCH AVENUE,+PARKERSBURG,+WV+26101&hl=en"
PARTNERSHIPS FOR SUCCESS/SCOTT COUNTY PARTNERSHIP,"AUSTIN POLICE DEPARTMENT LOBBY 
												
													24/7 CONTROLLED AND NON-CONTROLLED MEDICATION DROP BOX",127 S. HIGHWAY 31,AUSTIN,IN,47102,"http://maps.google.com/maps?q=127 S. HIGHWAY 31,+AUSTIN,+IN+47102&hl=en"
PARTNERSHIPS FOR SUCCESS/SCOTT COUNTY PARTNERSHIP,"SCOTT COUNTY SHERIFF'S DEPARTMENT LOBBY 
												
													24/7 CONTROLLED AND NON-CONTROLLED MEDICATION DROP",111 S. FIRST ST.,SCOTTSBURG,IN,47170,"http://maps.google.com/maps?q=111 S. FIRST ST.,+SCOTTSBURG,+IN+47170&hl=en"
PARTNERSHIPS FOR SUCCESS/SCOTT COUNTY PARTNERSHIP,"SCOTTSBURG WALMART 
												
													DEA DRUG TAKE BACK APRIL 28, 2018, 10 AM - 2 PM",1618 W. MCCLAIN AVE.,SCOTTSBURG,IN,47170,"http://maps.google.com/maps?q=1618 W. MCCLAIN AVE.,+SCOTTSBURG,+IN+47170&hl=en"
PENDLETON COUNTY SHERIFF'S OFFICE,PENDLETON COUNTY SHERIFF'S OFFICE,202 CHAPEL STREET,FALMOUTH,KY,41040,"http://maps.google.com/maps?q=202 CHAPEL STREET,+FALMOUTH,+KY+41040&hl=en"
PICKERINGTON POLICE DEPARTMENT,PICKERINGTON POLICE DEPARTMENT,1311 REFUGEE RD.,PICKERINGTON,OH,43147,"http://maps.google.com/maps?q=1311 REFUGEE RD.,+PICKERINGTON,+OH+43147&hl=en"
PIERCE TOWNSHIP POLICE DEPARTMENT,PIERCE TOWNSHIP POLICE DEPARTMENT,950 LOCUST CORNER RD,CINCINNATI,OH,45245,"http://maps.google.com/maps?q=950 LOCUST CORNER RD,+CINCINNATI,+OH+45245&hl=en"
PREBLE COUNTY SHERIFF'S OFFICE,PREBLE COUNTY SHERIFF'S OFFICE,1139 PREBLE DRIVE,EATON,OH,45320,"http://maps.google.com/maps?q=1139 PREBLE DRIVE,+EATON,+OH+45320&hl=en"
PULASKI (TOWN OF) POLICE DEPARTMENT,"FOOD CITY 
												
													PARKING LOT NEAR ENTRANCE TO STORE",1400 BOB WHITE BLVD,PULASKI,VA,24301,"http://maps.google.com/maps?q=1400 BOB WHITE BLVD,+PULASKI,+VA+24301&hl=en"
PUTNAM COUNTY SHERIFF'S DEPARTMENT,PUTNAM COUNTY SHERIFF'S DEPARTMENT,SHERIFF'S DEPARTMENT3389 WINFIELD ROAD,WINFIELD,WV,25213,"http://maps.google.com/maps?q=SHERIFF'S DEPARTMENT,+WINFIELD,+WV+25213&hl=en"
RALEIGH COUNTY SD,CRAB ORCHARD PHARMACY,1299 ROBERT C. BYRD DRIVE,CRAB ORCHARD,WV,25827,"http://maps.google.com/maps?q=1299 ROBERT C. BYRD DRIVE,+CRAB ORCHARD,+WV+25827&hl=en"
REYNOLDSBURG POLICE DEPARTMENT,REYNOLDSBURG POLICE DEPARTMENT,7240 E. MAIN ST,REYNOLDSBURG,OH,43068,"http://maps.google.com/maps?q=7240 E. MAIN ST,+REYNOLDSBURG,+OH+43068&hl=en"
RICHLANDS POLICE DEPARTMENT,"RICHLANDS POLICE DEPARTMENT 
												
													FRONT LOBBY",1851 CRANWELL DRIVE,RICHLANDS,VA,24641,"http://maps.google.com/maps?q=1851 CRANWELL DRIVE,+RICHLANDS,+VA+24641&hl=en"
RICHMOND POLICE DEPARTMENT,"RICHMOND POLICE DEPARTMENT 
												
													MSUTTON@RICHMONDINDIANA.GOV",50 NORTH 5TH STREET,RICHMOND,IN,47374,"http://maps.google.com/maps?q=50 NORTH 5TH STREET,+RICHMOND,+IN+47374&hl=en"
ROSS COUNTY SHERIFF'S OFFICE,ROSS COUNTY LAW COMPLEX,28 N PAINT ST.,CHILLICOTHE,OH,45601,"http://maps.google.com/maps?q=28 N PAINT ST.,+CHILLICOTHE,+OH+45601&hl=en"
ROSS TWP POLICE DEPARTMNET,ROSS TWP. POLICE DEPARTMENT,4055 HAMILTON CLEVES RD,FAIRFIELD,OH,45014,"http://maps.google.com/maps?q=4055 HAMILTON CLEVES RD,+FAIRFIELD,+OH+45014&hl=en"
ROWAN COUNTY SHERIFF'S OFFICE,KSP POST 8 MOREHEAD,1595 FLEMINGSBURG ROAD,MOREHEAD,KY,40351,"http://maps.google.com/maps?q=1595 FLEMINGSBURG ROAD,+MOREHEAD,+KY+40351&hl=en"
RUSH COUNTY SHERIFF DEPARTMENT,"RUSH MEMORIAL HOSPITAL 
												
													13TH STREET ENTRANCE",1300 N MAIN ST,RUSHVILLE,IN,46173,"http://maps.google.com/maps?q=1300 N MAIN ST,+RUSHVILLE,+IN+46173&hl=en"
RUSSELL COUNTY SHERIFF'S OFFICE,BLUE DEVIL DRUG,19408 HWY 58,CASTLEWOOD,VA,24224,"http://maps.google.com/maps?q=19408 HWY 58,+CASTLEWOOD,+VA+24224&hl=en"
RUSSELL COUNTY SHERIFF'S OFFICE,FOOD CITY,159 PITTSTON RD,LEBANON,VA,24266,"http://maps.google.com/maps?q=159 PITTSTON RD,+LEBANON,+VA+24266&hl=en"
RUSSELL COUNTY SHERIFF'S OFFICE,NEW GARDEN PHARMACY,5300 REDBUD HWY,HONAKER,VA,24260,"http://maps.google.com/maps?q=5300 REDBUD HWY,+HONAKER,+VA+24260&hl=en"
SCOTT COUNTY SHERIFF'S OFFICE,"FOOD COUNTRY 
												
													OUTSIDE NEAR MAIN ENTRANCE",42158 US 58,DUFFIELD,VA,24244,"http://maps.google.com/maps?q=42158 US 58,+DUFFIELD,+VA+24244&hl=en"
SCOTT COUNTY SHERIFF'S OFFICE,"SCOTT COUNTY SHERIFF'S OFFICE 
												
													NEAR MAIN ENTRANCE",336 WATER  STREET,GATE CITY,VA,24251,"http://maps.google.com/maps?q=336 WATER  STREET,+GATE CITY,+VA+24251&hl=en"
SEYMOUR POLICE DEPARTMENT,"BROWNSTOWN SENIOR CENTER 
												
													11:30 AM TO 1:30 PM",124 S MAIN ST,BROWNSTOWN,IN,47220,"http://maps.google.com/maps?q=124 S MAIN ST,+BROWNSTOWN,+IN+47220&hl=en"
SEYMOUR POLICE DEPARTMENT,"CROTHERSVILLE SENIOR CENTER 
												
													9-11 AM",114 E MAIN ST,CROTHERSVILLE,IN,47229,"http://maps.google.com/maps?q=114 E MAIN ST,+CROTHERSVILLE,+IN+47229&hl=en"
SEYMOUR POLICE DEPARTMENT,"FREETOWN COMMUNITY CENTER 
												
													4:30 -6:30 PM",6789 N UNION ST,FREETOWN,IN,47235,"http://maps.google.com/maps?q=6789 N UNION ST,+FREETOWN,+IN+47235&hl=en"
SEYMOUR POLICE DEPARTMENT,"JACKSON COUNTY HEALTH DEPARTMENT 
												
													10:00 AM TO 2:00 PM",801 W 2ND ST,SEYMOUR,IN,47274,"http://maps.google.com/maps?q=801 W 2ND ST,+SEYMOUR,+IN+47274&hl=en"
SEYMOUR POLICE DEPARTMENT,"MEDORA SENIOR CENTER 
												
													2-4 PM",52 W MAIN ST,MEDORA,IN,47260,"http://maps.google.com/maps?q=52 W MAIN ST,+MEDORA,+IN+47260&hl=en"
SEYMOUR POLICE DEPARTMENT,"SEYMOUR POLICE DEPARTMENT 
												
													OPEN 24 HOURS A DAY FOR TAKE BACKS",205 NORTH EWING STREET,SEYMOUR,IN,47274,"http://maps.google.com/maps?q=205 NORTH EWING STREET,+SEYMOUR,+IN+47274&hl=en"
SHARON TOWNSHIP POLICE DEPARTMENT,SHARON TOWNSHIP POLICE DEPARTMENT,95 E. WILSON BRIDGE ROAD,WORTHINGTON,OH,43085,"http://maps.google.com/maps?q=95 E. WILSON BRIDGE ROAD,+WORTHINGTON,+OH+43085&hl=en"
SHARONVILLE POLICE DEPARTMENT,SHARONVILLE MUNICIPAL BUILDING,10900 READING ROAD,CINCINNATI,OH,45241,"http://maps.google.com/maps?q=10900 READING ROAD,+CINCINNATI,+OH+45241&hl=en"
SHELBY COUNTY CORONER OFFICE,SHELBY COUNTY CORONER'S OFFICE,419 WASHINGTON STREET,SHELBYVILLE,KY,40065,"http://maps.google.com/maps?q=419 WASHINGTON STREET,+SHELBYVILLE,+KY+40065&hl=en"
SMYTH COUNTY SHERIFF'S OFFICE,MARION VA WALGREENS,1102 NORTH MAIN ST,MARION,VA,24354,"http://maps.google.com/maps?q=1102 NORTH MAIN ST,+MARION,+VA+24354&hl=en"
SPENCER POLICE DEPARTMENT,SPENCER POLICE DEPARTMENT,116 COURT ST,SPENCER,WV,25276,"http://maps.google.com/maps?q=116 COURT ST,+SPENCER,+WV+25276&hl=en"
SPRINGBORO POLICE DEPARTMENT,CITY OF SPRINGBORO MUNICIPAL BUILDING,320 W CENTRAL AVE.,SPRINGBORO,OH,45066,"http://maps.google.com/maps?q=320 W CENTRAL AVE.,+SPRINGBORO,+OH+45066&hl=en"
SPRINGDALE POLICE DEPARTMENT,SPRINGDALE POLICE DEPARTMENT,12105 LAWNVIEW AVE.,CINCINNATI,OH,45246,"http://maps.google.com/maps?q=12105 LAWNVIEW AVE.,+CINCINNATI,+OH+45246&hl=en"
SPRINGFIELD POLICE DEPARTMENT,SPRINGFIELD POLICE DEPARTMENT,130 N FOUNTAIN AVE,SPRINGFIELD,OH,45502,"http://maps.google.com/maps?q=130 N FOUNTAIN AVE,+SPRINGFIELD,+OH+45502&hl=en"
SPRINGFIELD TOWNSHIP POLICE DEPARTMENT,SPRINGFIELD TOWNSHIP POLICE DEPARTMENT,1130 COMPTON ROAD,CINCINNATI,OH,45231,"http://maps.google.com/maps?q=1130 COMPTON ROAD,+CINCINNATI,+OH+45231&hl=en"
ST. ALBANS POLICE DEPARTMENT,ST. ALBANS POLICE DEPARTMENT,51 6TH AVENUE,SAINT ALBANS,WV,25177,"http://maps.google.com/maps?q=51 6TH AVENUE,+SAINT ALBANS,+WV+25177&hl=en"
SULLIVAN COUNTY SHERIFFS OFFICE,SULLIVAN COUNTY SHERIFF'S OFFICE,140 BLOUNTSVILLE BYPASS,BLOUNTVILLE,TN,37617,"http://maps.google.com/maps?q=140 BLOUNTSVILLE BYPASS,+BLOUNTVILLE,+TN+37617&hl=en"
TAZEWELL (TOWN OF) POLICE DEPARTMENT,TAZEWELL POLICE DEPARTMENT,211 CENTRAL AVE,TAZEWELL,VA,24651,"http://maps.google.com/maps?q=211 CENTRAL AVE,+TAZEWELL,+VA+24651&hl=en"
TROTWOOD POLICE DEPARTMENT,TROTWOOD POLICE DEPARTMENT,3035 OLIVE ROAD,DAYTON,OH,45426,"http://maps.google.com/maps?q=3035 OLIVE ROAD,+DAYTON,+OH+45426&hl=en"
UNION COUNTY SHERIFF'S OFFICE,PLEASANT VALLEY FIRE DEPARTMENT,650 WEST MAIN STREET,PLAIN CITY,OH,43064,"http://maps.google.com/maps?q=650 WEST MAIN STREET,+PLAIN CITY,+OH+43064&hl=en"
UNION COUNTY SHERIFF'S OFFICE,PLEASANT VALLEY FIRE DEPT,650 W. MAIN STREET,PLAIN CITY,OH,43064,"http://maps.google.com/maps?q=650 W. MAIN STREET,+PLAIN CITY,+OH+43064&hl=en"
UNITE TASK FORCE,UNITE TASK FORCE,350 CAP DRIVE,LONDON,KY,40744,"http://maps.google.com/maps?q=350 CAP DRIVE,+LONDON,+KY+40744&hl=en"
UPPER ARLINGTON DIVISION OF POLICE,"UPPER ARLINGTON POLICE DIVISION 
												
													MUNICIPAL SERVICES CENTER",3600 TREMONT ROAD,UPPER ARLINGTON,OH,43221,"http://maps.google.com/maps?q=3600 TREMONT ROAD,+UPPER ARLINGTON,+OH+43221&hl=en"
VANDALIA DIVISION OF POLICE,VANDALIA POLICE DEPARTMENT,245 JAMES BOHANAN DR.,VANDALIA,OH,45377,"http://maps.google.com/maps?q=245 JAMES BOHANAN DR.,+VANDALIA,+OH+45377&hl=en"
VIENNA WV POLICE DEPARTMENT,VIENNA VOLUNTEER FD,609 28TH ST,VIENNA,WV,26105,"http://maps.google.com/maps?q=609 28TH ST,+VIENNA,+WV+26105&hl=en"
VIRGINIA STATE POLICE,"VIRGINIA STATE POLICE DIVISION IV HQS 
												
													POC: LT PATRICK KIRTNER",1186 EAST LEE HIGHWAY,WYTHEVILLE,VA,24382,"http://maps.google.com/maps?q=1186 EAST LEE HIGHWAY,+WYTHEVILLE,+VA+24382&hl=en"
WARREN COUNTY DRUG TASK FORCE,KROGER,5100 TERRA FIRMA DR.,MASON,OH,45040,"http://maps.google.com/maps?q=5100 TERRA FIRMA DR.,+MASON,+OH+45040&hl=en"
WASHINGTON COUNTY SHERIFF'S OFFICE,"BELPRE SENIOR CENTER 
												
													PARKING LOT",1614 WASHINGTON BLVD,BELPRE,OH,45714,"http://maps.google.com/maps?q=1614 WASHINGTON BLVD,+BELPRE,+OH+45714&hl=en"
WASHINGTON COUNTY SHERIFF'S OFFICE,CORNER OF 2ND ST AND PUTNAM ST,CORNER OF 2ND ST AND PUTNAM ST,MARIETTA,OH,45750,"http://maps.google.com/maps?q=CORNER OF 2ND ST AND PUTNAM ST,+MARIETTA,+OH+45750&hl=en"
WASHINGTON COUNTY SHERIFF'S OFFICE,"FORT FRYE HIGH SCHOOL 
												
													PARKING LOT",420 FIFTH STREET,BEVERLY,OH,45715,"http://maps.google.com/maps?q=420 FIFTH STREET,+BEVERLY,+OH+45715&hl=en"
WASHINGTON COUNTY SHERIFF'S OFFICE,"WASHINGTON COUNTY SHERIFF'S OFFICE 
												
													24HR DROP BOX LOCATED IN LOBBY",309 4TH STREET,MARIETTA,OH,45750,"http://maps.google.com/maps?q=309 4TH STREET,+MARIETTA,+OH+45750&hl=en"
WASHINGTON COUNTY SHERIFF'S OFFICE,"WHITE OAK PHARMACY 
												
													PARKING LOT",8465 STATE ROUTE 339,BARLOW,OH,45712,"http://maps.google.com/maps?q=8465 STATE ROUTE 339,+BARLOW,+OH+45712&hl=en"
WASHINGTON COUNTY TENNESSEE SHERIFFS OFFICE,GRAY COMMUNITY CHEST,113 GRAY RURITAN DRIVE,GRAY,TN,37615,"http://maps.google.com/maps?q=113 GRAY RURITAN DRIVE,+GRAY,+TN+37615&hl=en"
WAYNESVILLE POLICE DEPARTMENT,WAYNESVILLE HIGH SCHOOL (PARKING LOT),735 DAYTON ROAD,WAYNESVILLE,OH,45068,"http://maps.google.com/maps?q=735 DAYTON ROAD,+WAYNESVILLE,+OH+45068&hl=en"
WEBER CITY POLICE DEPARTMENT,"FOOD CITY - WEBER CITY 
												
													NEAR FRONT ENTRANCE",FRANK B. SMITH LN,WEBER CITY,VA,24290,"http://maps.google.com/maps?q=FRANK B. SMITH LN,+WEBER CITY,+VA+24290&hl=en"
WEST CHESTER POLICE DEPARTMENT,WALGREENS PARKING LOT,7804 CINCINNATI-DAYTON ROAD,WEST CHESTER,OH,45069,"http://maps.google.com/maps?q=7804 CINCINNATI-DAYTON ROAD,+WEST CHESTER,+OH+45069&hl=en"
WEST JEFFERSON POLICE DEPARTMENT,WEST JEFFERSON POLICE DEPARTMENT,28 EAST MAIN ST.,WEST JEFFERSON,OH,43162,"http://maps.google.com/maps?q=28 EAST MAIN ST.,+WEST JEFFERSON,+OH+43162&hl=en"
WEST VIRGINIA STATE POLICE,"WEST VIRGINIA STATE POLICE 
												
													SGT B K WELLMAN/3045285555",3339 US ROUTE 60 EAST,HUNTINGTON,WV,25705,"http://maps.google.com/maps?q=3339 US ROUTE 60 EAST,+HUNTINGTON,+WV+25705&hl=en"
WEST VIRGINIA STATE POLICE,"WEST VIRGINIA STATE POLICE 
												
													SGT R.E. RICHARDSON/3044204600",3828 STAUNTON TPK.,PARKERSBURG,WV,26104,"http://maps.google.com/maps?q=3828 STAUNTON TPK.,+PARKERSBURG,+WV+26104&hl=en"
WEST VIRGINIA STATE POLICE,"WEST VIRGINIA STATE POLICE 
												
													SGT R.J. DRAKE/3048243101",8021 COURT AVENUE,HAMLIN,WV,25523,"http://maps.google.com/maps?q=8021 COURT AVENUE,+HAMLIN,+WV+25523&hl=en"
WEST VIRGINIA STATE POLICE,"WEST VIRGINIA STATE POLICE 
												
													SGT R.L. FRYE/3047927200",735 RIVERVIEW AVENUE,LOGAN,WV,25601,"http://maps.google.com/maps?q=735 RIVERVIEW AVENUE,+LOGAN,+WV+25601&hl=en"
WEST VIRGINIA STATE POLICE,"WEST VIRGINIA STATE POLICE 
												
													SGT. B.K. HAMMONTREE/3045587777",711 JEFFERSON ROAD,SOUTH CHARLESTON,WV,25309,"http://maps.google.com/maps?q=711 JEFFERSON ROAD,+SOUTH CHARLESTON,+WV+25309&hl=en"
WEST VIRGINIA STATE POLICE,"WEST VIRGINIA STATE POLICE 
												
													SGT. C.H.FLOWERS/304-586-2000",3389 WINFIELD ROAD,WINFIELD,WV,25213,"http://maps.google.com/maps?q=3389 WINFIELD ROAD,+WINFIELD,+WV+25213&hl=en"
WEST VIRGINIA STATE POLICE,"WVSP-BECKLEY 
												
													SGT G.D. WILLIAMS/3042566700",105 PINECREST DR,BECKLEY,WV,25801,"http://maps.google.com/maps?q=105 PINECREST DR,+BECKLEY,+WV+25801&hl=en"
WEST VIRGINIA STATE POLICE,"WVSP-OAK HILL 
												
													SGT. J.L. MILAM/3044692915",3057 MAIN ST,OAK HILL,WV,25901,"http://maps.google.com/maps?q=3057 MAIN ST,+OAK HILL,+WV+25901&hl=en"
WEST VIRGINIA STATE POLICE,"WVSP-PRINCETON 
												
													SGT. D.W. MILLER/3044252101",910 OAKVALE RD,PRINCETON,WV,24740,"http://maps.google.com/maps?q=910 OAKVALE RD,+PRINCETON,+WV+24740&hl=en"
"WILLIAMSON, WV POLICE DEPARTMENT","WILLIAMSON, WV PD",108 EAST 4TH AVE,WILLIAMSON,WV,25661,"http://maps.google.com/maps?q=108 EAST 4TH AVE,+WILLIAMSON,+WV+25661&hl=en"
WILLIAMSTOWN POLICE DEPT,WILLIAMSTOWN PD,100 WEST 5TH ST,WILLIAMSTOWN,WV,26187,"http://maps.google.com/maps?q=100 WEST 5TH ST,+WILLIAMSTOWN,+WV+26187&hl=en"
WILMINGTON POLICE DEPARTMENT,FOSTER J. BOYD CANCER CENTER,31 FARQUHAR ST,WILMINGTON,OH,45177,"http://maps.google.com/maps?q=31 FARQUHAR ST,+WILMINGTON,+OH+45177&hl=en"
WILMINGTON POLICE DEPARTMENT,UHAL'S IGA MARKET,440 E WASHINGTON ST,SABINA,OH,45169,"http://maps.google.com/maps?q=440 E WASHINGTON ST,+SABINA,+OH+45169&hl=en"
WINCHESTER POLICE DEPARTMENT,WINCHESTER POLICE DEPARTMENT,16 SOUTH MAPLE STREET,WINCHESTER,KY,40391,"http://maps.google.com/maps?q=16 SOUTH MAPLE STREET,+WINCHESTER,+KY+40391&hl=en"
WINFIELD WV POLICE DEPT,WINFIELD WV POLICE DEPARTMENT,3232 WINFIELD ROAD,WINFIELD,WV,25213,"http://maps.google.com/maps?q=3232 WINFIELD ROAD,+WINFIELD,+WV+25213&hl=en"
WISE COUNTY SHERIFF'S OFFICE,FOOD CITY,16410 WISE ST,SAINT PAUL,VA,24283,"http://maps.google.com/maps?q=16410 WISE ST,+SAINT PAUL,+VA+24283&hl=en"
WISE POLICE DEPARTMENT,"FOOD CITY 
												
													NEAR FRONT ENTRANCE",207 WOODLAND DRIVE,WISE,VA,24293,"http://maps.google.com/maps?q=207 WOODLAND DRIVE,+WISE,+VA+24293&hl=en"
WOOD COUNTY WV SHERIFF'S DEPARTMENT,LUBECK VFD,1340 HARRIS HWY,PARKERSBURG,WV,26101,"http://maps.google.com/maps?q=1340 HARRIS HWY,+PARKERSBURG,+WV+26101&hl=en"
WOOD COUNTY WV SHERIFF'S DEPARTMENT,MINERAL WELLS VFD,1695 ELIZABETH PIKE,MINERAL WELLS,WV,26150,"http://maps.google.com/maps?q=1695 ELIZABETH PIKE,+MINERAL WELLS,+WV+26150&hl=en"
WOOD COUNTY WV SHERIFF'S DEPARTMENT,WAVERLY VFD,15425 EMERSON AVE,WAVERLY,WV,26184,"http://maps.google.com/maps?q=15425 EMERSON AVE,+WAVERLY,+WV+26184&hl=en"
WOODFORD COUNTY SHERIFF DEPT,KROGER,KROGER WAY,VERSAILLES,KY,40383,"http://maps.google.com/maps?q=KROGER WAY,+VERSAILLES,+KY+40383&hl=en"
WOODFORD COUNTY SHERIFF DEPT,MIDWAY CITY HALL,MAIN ST,MIDWAY,KY,40347,"http://maps.google.com/maps?q=MAIN ST,+MIDWAY,+KY+40347&hl=en"
WORTHINGTON DIVISION OF POLICE,WORTHINGTON DIVISION OF POLICE,6555 WORTHINGTON GALLENA RD,COLUMBUS,OH,43085,"http://maps.google.com/maps?q=6555 WORTHINGTON GALLENA RD,+COLUMBUS,+OH+43085&hl=en"
WV DIVISION OF PROTECTIVE SERVICES,"WV STATE CAPITOL BUILDING 
												
													OUTSIDE-CALIFORNIA AVE",1900 KANAWHA BOULEVARD EAST,CHARLESTON,WV,25305,"http://maps.google.com/maps?q=1900 KANAWHA BOULEVARD EAST,+CHARLESTON,+WV+25305&hl=en"
WYOMING COUNTY SHERIFF'S,MAGIC MART,759 OCEANA SQUARE/RTE 971,OCEANA,WV,24870,"http://maps.google.com/maps?q=759 OCEANA SQUARE/RTE 971,+OCEANA,+WV+24870&hl=en"
WYOMING COUNTY SHERIFF'S,RITE AID,401 MORAN AVE,MULLENS,WV,25882,"http://maps.google.com/maps?q=401 MORAN AVE,+MULLENS,+WV+25882&hl=en"
WYOMING COUNTY SHERIFF'S,RITE AID,448 APPALACHIAN HWY,PINEVILLE,WV,24874,"http://maps.google.com/maps?q=448 APPALACHIAN HWY,+PINEVILLE,+WV+24874&hl=en"
WYTHE COUNTY SHERIFF'S OFFICE,"WYTHE COUNTY SHERIFF'S OFFICE 
												
													SALLY PORT AREA FOR COLLECTION",245 S 4TH STREET,WYTHEVILLE,VA,24382,"http://maps.google.com/maps?q=245 S 4TH STREET,+WYTHEVILLE,+VA+24382&hl=en"
