Participant,CollectionSite,Address,City,State,Zip,MapURL
193 SPECIAL OPERATIONS WING,"193 SPECIAL OPERATIONS WING 
												
													MILITARY MEMBERS ONLY !!! NOT A PUBLIC DROP OFF SITE",CONSTELLATION COURT** FOR MILITARY ONLY***,HARRISBURG,PA,17112,"http://maps.google.com/maps?q=CONSTELLATION COURT,+HARRISBURG,+PA+17112&hl=en"
ALLEGANY COUNTY SHERIFF'S OFFICE,BOLIVAR VOL. FIRE DEPARTMENT,460 MAIN ST,BOLIVAR,NY,14715,"http://maps.google.com/maps?q=460 MAIN ST,+BOLIVAR,+NY+14715&hl=en"
ALLEGANY COUNTY SHERIFF'S OFFICE,RIVERWALK PLAZA,STATE ROUTE 417,WELLSVILLE,NY,14895,"http://maps.google.com/maps?q=STATE ROUTE 417,+WELLSVILLE,+NY+14895&hl=en"
ALLEGHENY COUNTY POLICE DEPARTMENT,NORTH PARK STATION,700 WEST RIDGE DRIVE,ALLISON PARK,PA,15101,"http://maps.google.com/maps?q=700 WEST RIDGE DRIVE,+ALLISON PARK,+PA+15101&hl=en"
ALLEGHENY COUNTY POLICE DEPARTMENT,SOUTH PARK STATION,1801 BROWNSVILLE ROAD,SOUTH PARK,PA,15129,"http://maps.google.com/maps?q=1801 BROWNSVILLE ROAD,+SOUTH PARK,+PA+15129&hl=en"
ALLEGHENY COUNTY POLICE DEPARTMENT,WILMERDING STATION,315 STATION ST,WILMERDING,PA,15148,"http://maps.google.com/maps?q=315 STATION ST,+WILMERDING,+PA+15148&hl=en"
ALTOONA POLICE DEPT,THOMPSONS PHARMACY,600 E CHESTNUT AVE,ALTOONA,PA,16601,"http://maps.google.com/maps?q=600 E CHESTNUT AVE,+ALTOONA,+PA+16601&hl=en"
AMHERST POLICE DEPARTMENT,MILLARD FILLMORE HOSPITAL,1540 MAPLE RD.,WILLIAMSVILLE,NY,14221,"http://maps.google.com/maps?q=1540 MAPLE RD.,+WILLIAMSVILLE,+NY+14221&hl=en"
ANDOVER POLICE DEPARTMENT,ANDOVER POLICE DEPARTMENT,134 MAPLE ST,ANDOVER,OH,44003,"http://maps.google.com/maps?q=134 MAPLE ST,+ANDOVER,+OH+44003&hl=en"
ASHTABULA COUNTY SHERIFF'S OFFICE,ASHTABULA COUNTY SHERIFF'S OFFICE,25 W. JEFFERSON ST.,JEFFERSON,OH,44047,"http://maps.google.com/maps?q=25 W. JEFFERSON ST.,+JEFFERSON,+OH+44047&hl=en"
ASPINWALL POLICE DEPARTMENT,ASPINWALL POLICE STATION,217 COMMERCIAL AVENUE,ASPINWALL,PA,15215,"http://maps.google.com/maps?q=217 COMMERCIAL AVENUE,+ASPINWALL,+PA+15215&hl=en"
AUSTINTOWN POLICE DEPARTMENT,"AUSTINTOWN TOWNSHIP POLICE DISTRICT 
												
													OUTDOOR DRIVE-THRU COLLECTION",92 OHLTOWN RD.,YOUNGSTOWN,OH,44515,"http://maps.google.com/maps?q=92 OHLTOWN RD.,+YOUNGSTOWN,+OH+44515&hl=en"
BATAVIA POLICE DEPARTMENT,BATAVIA POLICE DEPARTMENT,10 W. MAIN STREET,BATAVIA,NY,14020,"http://maps.google.com/maps?q=10 W. MAIN STREET,+BATAVIA,+NY+14020&hl=en"
BEAVER POLICE DEPARTMENT,"BEAVER POLICE DEPARTMENT 
												
													FRONT LOBBY",601 W SOUTH RANGE RD,NORTH LIMA,OH,44452,"http://maps.google.com/maps?q=601 W SOUTH RANGE RD,+NORTH LIMA,+OH+44452&hl=en"
BELLEVUE BOROUGH POLICE DEPARTMENT,BELLEVUE BOROUGH POLICE DEPARTMENT,537 BAYNE AVENUE,PITTSBURGH,PA,15202,"http://maps.google.com/maps?q=537 BAYNE AVENUE,+PITTSBURGH,+PA+15202&hl=en"
BELMONT COUNTY SHERIFF'S OFFICE,RIESBECK'S FOOD STORE,56130 NATIONAL ROAD,BRIDGEPORT,OH,43912,"http://maps.google.com/maps?q=56130 NATIONAL ROAD,+BRIDGEPORT,+OH+43912&hl=en"
BENTON BOROUGH POLICE DEPT,BENTON VOL FIRE STATION,150 COLLEY ST,BENTON,PA,17814,"http://maps.google.com/maps?q=150 COLLEY ST,+BENTON,+PA+17814&hl=en"
BERWICK PD,BERWICK PD,1800 N MARKET ST,BERWICK,PA,18603,"http://maps.google.com/maps?q=1800 N MARKET ST,+BERWICK,+PA+18603&hl=en"
BIGLERVILLE BOROUGH POLICE DEPARTMENT,BIGLERVILLE FIRE DEPARTMENT,111 SOUTH MAIN STREET,BIGLERVILLE,PA,17307,"http://maps.google.com/maps?q=111 SOUTH MAIN STREET,+BIGLERVILLE,+PA+17307&hl=en"
BOARDMAN POLICE DEPARTMENT,BOARDMAN POLICE DEPARTMENT,8299 MARKET STREET,BOARDMAN,OH,44512,"http://maps.google.com/maps?q=8299 MARKET STREET,+BOARDMAN,+OH+44512&hl=en"
BRADFORD COUNTY SHERIFF'S OFFICE,MILLER'S PHARMACY,ROUTE 6,WYALUSING,PA,18853,"http://maps.google.com/maps?q=ROUTE 6,+WYALUSING,+PA+18853&hl=en"
BROOKE COUNTY SHERIFF'S OFFICE,"BROOKE COUNTY COURTHOUSE 
												
													GREEN ROOM",632 MAIN STREET,WELLSBURG,WV,26070,"http://maps.google.com/maps?q=632 MAIN STREET,+WELLSBURG,+WV+26070&hl=en"
BUFFALO POLICE DEPARTMENT,"BUFFALO STATE COLLEGE 
												
													CLEVELAND HALL",1300 ELMWOOD AVE.,BUFFALO,NY,14222,"http://maps.google.com/maps?q=1300 ELMWOOD AVE.,+BUFFALO,+NY+14222&hl=en"
CAMERON POLICE DEPARTMENT,CAMERON POLICE DEPARTMENT,44 MAIN STREET,CAMERON,WV,26033,"http://maps.google.com/maps?q=44 MAIN STREET,+CAMERON,+WV+26033&hl=en"
CANONSBURG POLICE DEPARTMENT,SHOP AND SAVE GROCERY STORE,617 WEST PIKE STREET,CANONSBURG,PA,15317,"http://maps.google.com/maps?q=617 WEST PIKE STREET,+CANONSBURG,+PA+15317&hl=en"
CARLOW UNIVERSITY POLICE,CARLOW UNIVERSITY,3333 FIFTH AVE,PITTSBURGH,PA,15213,"http://maps.google.com/maps?q=3333 FIFTH AVE,+PITTSBURGH,+PA+15213&hl=en"
CARNEGIE MELLON UNIVERSITY POLICE DEPT,CARNEGIE MELLON UNIVERSITY POLICE DEPT STATION,300 S CRAIG ST,PITTSBURGH,PA,15213,"http://maps.google.com/maps?q=300 S CRAIG ST,+PITTSBURGH,+PA+15213&hl=en"
CARROLL TOWNSHIP POLICE DEPARTMENT,"MONONGAHELA VALLEY HOSPITAL, INC.",1163 COUNTRY CLUB ROAD,MONONGAHELA,PA,15063,"http://maps.google.com/maps?q=1163 COUNTRY CLUB ROAD,+MONONGAHELA,+PA+15063&hl=en"
CATAWISSA BOROUGH POLICE DEPT,CATAWISSA BOROUGH PD,118 N 3RD ST,CATAWISSA,PA,17820,"http://maps.google.com/maps?q=118 N 3RD ST,+CATAWISSA,+PA+17820&hl=en"
CATTARAUGUS COUNTY SHERIFF'S DEPARTMENT,CATTARAUGUS COUNTY OFFICE BUILDING,1 LEO MOSS DRIVE,OLEAN,NY,14760,"http://maps.google.com/maps?q=1 LEO MOSS DRIVE,+OLEAN,+NY+14760&hl=en"
CATTARAUGUS COUNTY SHERIFF'S DEPARTMENT,CORNER DRUG STORE,1 WASHINGTON STREET,CATTARAUGUS,NY,14719,"http://maps.google.com/maps?q=1 WASHINGTON STREET,+CATTARAUGUS,+NY+14719&hl=en"
CATTARAUGUS COUNTY SHERIFF'S DEPARTMENT,DELEVAN HEALTH CENTER,38 N. MAIN ST.,DELEVAN,NY,14042,"http://maps.google.com/maps?q=38 N. MAIN ST.,+DELEVAN,+NY+14042&hl=en"
CATTARAUGUS COUNTY SHERIFF'S DEPARTMENT,GOWANDA VILLAGE MUNICIPAL BUILDING,27 EAST MAIN STREET,GOWANDA,NY,14070,"http://maps.google.com/maps?q=27 EAST MAIN STREET,+GOWANDA,+NY+14070&hl=en"
CATTARAUGUS COUNTY SHERIFF'S DEPARTMENT,"SALAMANCA CITY MUNICIPAL BUILDING 
												
													FIRE DEPARTMENT",225 WILDWOOD AVE,SALAMANCA,NY,14779,"http://maps.google.com/maps?q=225 WILDWOOD AVE,+SALAMANCA,+NY+14779&hl=en"
CENTERVILLE BORO PD,CENTERVILLE BORO,100 E END ST,BROWNSVILLE,PA,15417,"http://maps.google.com/maps?q=100 E END ST,+BROWNSVILLE,+PA+15417&hl=en"
CENTRE CO SHERIFF'S OFFICE,BURKHOLDER'S COUNTRY MARKET,107 MARKET DRIVE,SPRING MILLS,PA,16875,"http://maps.google.com/maps?q=107 MARKET DRIVE,+SPRING MILLS,+PA+16875&hl=en"
CENTRE CO SHERIFF'S OFFICE,WEIS MARKET,501 N 3RD ST,PHILIPSBURG,PA,16866,"http://maps.google.com/maps?q=501 N 3RD ST,+PHILIPSBURG,+PA+16866&hl=en"
CHARTIERS TOWNSHIP POLICE DEPARTMENT,CHARTIERS TOWNSHIP POLICE DEPARTMENT,2 BUCCANEER DRIVE,HOUSTON,PA,15342,"http://maps.google.com/maps?q=2 BUCCANEER DRIVE,+HOUSTON,+PA+15342&hl=en"
CHAUTAUQUA COUNTY SHERIFF'S DEPARTMENT,ALSTAR HQS. NORTH,738 MONROE STREET,DUNKIRK,NY,14048,"http://maps.google.com/maps?q=738 MONROE STREET,+DUNKIRK,+NY+14048&hl=en"
CHAUTAUQUA COUNTY SHERIFF'S DEPARTMENT,CHAUTAUQUE MALL,318 EAST FAIRMOUNT AVE,LAKEWOOD,NY,14750,"http://maps.google.com/maps?q=318 EAST FAIRMOUNT AVE,+LAKEWOOD,+NY+14750&hl=en"
CHAUTAUQUA COUNTY SHERIFF'S DEPARTMENT,SOUTHSIDE PHARMACY,766 FOOTE AVE.,JAMESTOWN,NY,14701,"http://maps.google.com/maps?q=766 FOOTE AVE.,+JAMESTOWN,+NY+14701&hl=en"
CHAUTAUQUA COUNTY SHERIFF'S DEPARTMENT,WESTFIELD FAMILY PHYSICIANS,138 E. MAIN ST.,WESTFIELD,NY,14787,"http://maps.google.com/maps?q=138 E. MAIN ST.,+WESTFIELD,+NY+14787&hl=en"
CHEEKTOWAGA POLICE DEPARTMENT,ST. JOSEPH'S HOSPITAL,2605 HARLEM RD.,BUFFALO,NY,14227,"http://maps.google.com/maps?q=2605 HARLEM RD.,+BUFFALO,+NY+14227&hl=en"
CHESTER POLICE DEPT,CHESTER POLICE DEPT,600 INDIANA AVE,CHESTER,WV,26034,"http://maps.google.com/maps?q=600 INDIANA AVE,+CHESTER,+WV+26034&hl=en"
CITY OF ERIE BUREAU OF POLICE,CITY OF ERIE MUNICIPAL BUILDING,626 STATE STREET,ERIE,PA,16501,"http://maps.google.com/maps?q=626 STATE STREET,+ERIE,+PA+16501&hl=en"
CITY OF MONESSEN,CITY OF MONESSEN PD,239 DONNER AVE,MONESSEN,PA,15062,"http://maps.google.com/maps?q=239 DONNER AVE,+MONESSEN,+PA+15062&hl=en"
CITY OF WARREN POLICE DEPARTMENT,WARREN POLICE DEPARTMENT,318 W. THIRD AVENUE,WARREN,PA,16365,"http://maps.google.com/maps?q=318 W. THIRD AVENUE,+WARREN,+PA+16365&hl=en"
CITY OF WASHINGTON POLICE DEPT,CITY OF WASHINGTON POLICE DEPT,56 WEST STRAWBERRY AVE,WASHINGTON,PA,15301,"http://maps.google.com/maps?q=56 WEST STRAWBERRY AVE,+WASHINGTON,+PA+15301&hl=en"
CLAIRTON POLICE DEPARTMENT,LIVINGSTON PHARMACY,550 MILLER AVE,CLAIRTON,PA,15025,"http://maps.google.com/maps?q=550 MILLER AVE,+CLAIRTON,+PA+15025&hl=en"
COAL TOWNSHIP POLICE DEPARTMENT,COAL TOWNSHIP POLICE DEPARTMENT,805 W. LYNN STREET,COAL TOWNSHIP,PA,17866,"http://maps.google.com/maps?q=805 W. LYNN STREET,+COAL TOWNSHIP,+PA+17866&hl=en"
COLUMBIANA COUNTY DRUG TASK FORCE,EAST LIVERPOOL CITY HOSPITAL,425 W. 5TH STREET,EAST LIVERPOOL,OH,43920,"http://maps.google.com/maps?q=425 W. 5TH STREET,+EAST LIVERPOOL,+OH+43920&hl=en"
COLUMBIANA COUNTY DRUG TASK FORCE,SALEM REGIONAL MEDICAL CENTER,1995 E. STATE STREET,SALEM,OH,44460,"http://maps.google.com/maps?q=1995 E. STATE STREET,+SALEM,+OH+44460&hl=en"
CONNEAUT POLICE DEPARTMENT,CONNEAUT POLICE DEPARTMENT,294 MAIN ST,CONNEAUT,OH,44030,"http://maps.google.com/maps?q=294 MAIN ST,+CONNEAUT,+OH+44030&hl=en"
CORTLAND POLICE DEPARTMENT,CORTLAND POLICE DEPARTMENT,400 N. HIGH STREET,CORTLAND,OH,44410,"http://maps.google.com/maps?q=400 N. HIGH STREET,+CORTLAND,+OH+44410&hl=en"
CRANBERRY TWP POLICE DEPT,CRANBERRY TWP POLICE DEPT,2525 ROCHESTER RD,CRANBERRY TOWNSHIP,PA,16066,"http://maps.google.com/maps?q=2525 ROCHESTER RD,+CRANBERRY TOWNSHIP,+PA+16066&hl=en"
DANVILLE POLICE DEPARTMENT,DANVILLE POLICE DEPARTMENT,453 MILL STREET,DANVILLE,PA,17821,"http://maps.google.com/maps?q=453 MILL STREET,+DANVILLE,+PA+17821&hl=en"
DERRY TOWNSHIP POLICE DEPARTMENT,"PENN STATE HERSHEY MEDICAL CENTER 
												
													ACADEMIC SUPPORT BUILDING",90 HOPE DR.,HERSHEY,PA,17033,"http://maps.google.com/maps?q=90 HOPE DR.,+HERSHEY,+PA+17033&hl=en"
DORMONT POLICE DEPARTMENT,CVS PHARMACY,3075 WEST LIBERTY AVENUE,PITTSBURGH,PA,15216,"http://maps.google.com/maps?q=3075 WEST LIBERTY AVENUE,+PITTSBURGH,+PA+15216&hl=en"
DUQUESNE UNIVERSITY PUBLIC SAFETY,BAYER SCHOOL,MCNAULTY DR,PITTSBURGH,PA,15282,"http://maps.google.com/maps?q=MCNAULTY DR,+PITTSBURGH,+PA+15282&hl=en"
EAST PITTSBURGH POLICE,LANIGAN''S FUNERAL HOME,700 LINDEN AVENUE,EAST PITTSBURGH,PA,15112,"http://maps.google.com/maps?q=700 LINDEN AVENUE,+EAST PITTSBURGH,+PA+15112&hl=en"
EAST TAYLOR TWP POLICE DEPT,MARTELLA'S PHARMACY,1932 WILLIAM PENN AVE,JOHNSTOWN,PA,15909,"http://maps.google.com/maps?q=1932 WILLIAM PENN AVE,+JOHNSTOWN,+PA+15909&hl=en"
ELLWOOD CITY POLICE DEPARTMENT,ELLWOOD CITY MUNICIPAL BUILDING,525 LAWRENCE AVENUE,ELLWOOD CITY,PA,16117,"http://maps.google.com/maps?q=525 LAWRENCE AVENUE,+ELLWOOD CITY,+PA+16117&hl=en"
ERIE COUNTY SHERIFF'S OFFICE,BERTRAND CHAFFEE HOSPITAL,224 E. MAIN STREET,SPRINGVILLE,NY,14141,"http://maps.google.com/maps?q=224 E. MAIN STREET,+SPRINGVILLE,+NY+14141&hl=en"
EVANS POLICE DEPARTMENT,EVANS MUNICIPAL CENTER,8787 ERIE RD. RT. #5,ANGOLA,NY,14006,"http://maps.google.com/maps?q=8787 ERIE RD. RT. #5,+ANGOLA,+NY+14006&hl=en"
FAIRMONT POLICE DEPARTMENT,"FAIRMONT POLICE DEPARTMENT 
												
													PUBLIC SAFETY BUILDING",500 QUINCY STREET,FAIRMONT,WV,26554,"http://maps.google.com/maps?q=500 QUINCY STREET,+FAIRMONT,+WV+26554&hl=en"
FINDLAY TOWNSHIP POLICE DEPARTMENT,FINDLAY TOWNSHIP POLICE DEPARTMENT,1271 ROUTE 30,CLINTON,PA,15026,"http://maps.google.com/maps?q=1271 ROUTE 30,+CLINTON,+PA+15026&hl=en"
FOLLANSBEE POLICE DEPARTMENT,FOLLANSBEE POLICE DEPARTMENT,872 MAIN STREET,FOLLANSBEE,WV,26037,"http://maps.google.com/maps?q=872 MAIN STREET,+FOLLANSBEE,+WV+26037&hl=en"
FREDERICK COUNTY SHERIFF'S OFFICE,FREDERICK COUNTY PUBLIC SAFETY BUILDING,1080 COVERSTONE DRIVE,WINCHESTER,VA,22602,"http://maps.google.com/maps?q=1080 COVERSTONE DRIVE,+WINCHESTER,+VA+22602&hl=en"
FREDERICK COUNTY SHERIFF'S OFFICE,WALGREENS,131 VALLEY MILL ROAD,WINCHESTER,VA,22602,"http://maps.google.com/maps?q=131 VALLEY MILL ROAD,+WINCHESTER,+VA+22602&hl=en"
GARRETT COUNTY SHERIFF'S OFFICE,"GARRETT COUNTY SHERIFF'S OFFICE 
												
													POC MIKE BITTINGER",311 EAST ALDER STREET,OAKLAND,MD,21550,"http://maps.google.com/maps?q=311 EAST ALDER STREET,+OAKLAND,+MD+21550&hl=en"
GENESEE COUNTY SHERIFF'S DEPARTMENT,PEMBROKE TOWN HIGWAY BARNS,ROUTES 5 & 77,EAST PEMBROKE,NY,14056,"http://maps.google.com/maps?q=ROUTES 5 & 77,+EAST PEMBROKE,+NY+14056&hl=en"
GRAFTON POLICE DEPARTMENT,GRAFTON POLICE DEPARTMENT,1 WEST MAIN ST,GRAFTON,WV,26354,"http://maps.google.com/maps?q=1 WEST MAIN ST,+GRAFTON,+WV+26354&hl=en"
GRAND ISLAND POLICE DEPARTMENT,GRAND ISLAND POLICE DEPT,2255 BASELINE ROAD,GRAND ISLAND,NY,14072,"http://maps.google.com/maps?q=2255 BASELINE ROAD,+GRAND ISLAND,+NY+14072&hl=en"
GREEN TREE BOROUGH POLICE DEPARTMENT,GREEN TREE MUNICIPAL BUILDING,10 WEST MANILLA AVE.,PITTSBURGH,PA,15220,"http://maps.google.com/maps?q=10 WEST MANILLA AVE.,+PITTSBURGH,+PA+15220&hl=en"
HAMBURG POLICE DEPARTMENT,"TOWN OF HAMBURG DEPT. OF YOUTH 
												
													RECREATION & SENIOR SERVICES",4540 SOUTHWESTERN BLVD.,HAMBURG,NY,14075,"http://maps.google.com/maps?q=4540 SOUTHWESTERN BLVD.,+HAMBURG,+NY+14075&hl=en"
HAMPSHIRE COUNTY SHERIFF'S OFFICE,HAMPSHIRE COUNTY SD,66 N HIGH STREET,ROMNEY,WV,26757,"http://maps.google.com/maps?q=66 N HIGH STREET,+ROMNEY,+WV+26757&hl=en"
HANCOCK COUNTY SHERIFF'S OFFICE,HANCOCK COUNTY SHERIFF'S OFFICE,102 NORTH COURT STREET,NEW CUMBERLAND,WV,26047,"http://maps.google.com/maps?q=102 NORTH COURT STREET,+NEW CUMBERLAND,+WV+26047&hl=en"
HEIDELBERG POLICE DEPARTMENT,WALGREENS,2055 WASHINGTON PIKE,CARNEGIE,PA,15106,"http://maps.google.com/maps?q=2055 WASHINGTON PIKE,+CARNEGIE,+PA+15106&hl=en"
HIGHSPIRE BOROUGH POLICE DEPARTMENT,HIGHSPIRE BOROUGH BUILDING,640 ESHELMAN ST.,HIGHSPIRE,PA,17034,"http://maps.google.com/maps?q=640 ESHELMAN ST.,+HIGHSPIRE,+PA+17034&hl=en"
HUBBARD CITY POLICE DEPARTMENT,HUBBARD CITY POLICE DEPARTMENT,233 SCHOOL STREET,HUBBARD,OH,44425,"http://maps.google.com/maps?q=233 SCHOOL STREET,+HUBBARD,+OH+44425&hl=en"
ITHACA POLICE DEPARTMENT,KINNEY DRUGS,513 N CAYUGA ST.,ITHACA,NY,14850,"http://maps.google.com/maps?q=513 N CAYUGA ST.,+ITHACA,+NY+14850&hl=en"
JAMESTOWN POLICE DEPARTMENT,JAMESTOWN PHARMACY,121 LIBERTY STREET,JAMESTOWN,PA,16134,"http://maps.google.com/maps?q=121 LIBERTY STREET,+JAMESTOWN,+PA+16134&hl=en"
KULPMONT POLICE DEPARTMENT,KULPMONT POLICE DEPARTMENT,9 NORTH 8TH STREET,KULPMONT,PA,17834,"http://maps.google.com/maps?q=9 NORTH 8TH STREET,+KULPMONT,+PA+17834&hl=en"
LACKAWANNA POLICE DEPARTMENT,LACKAWANNA POLICE DEPARTMENT,714 RIDGE ROAD,BUFFALO,NY,14218,"http://maps.google.com/maps?q=714 RIDGE ROAD,+BUFFALO,+NY+14218&hl=en"
LANCASTER POLICE DEPARTMENT,TWIN DISTRICT FIRE DEPARTMENT,4999 WILLIAM STREET,LANCASTER,NY,14086,"http://maps.google.com/maps?q=4999 WILLIAM STREET,+LANCASTER,+NY+14086&hl=en"
LATIMORE TOWNSHIP POLICE,BERMUDIAN SPRINGS SCHOOL DISTRICT,7335 CARLISLE PIKE,YORK SPRINGS,PA,17372,"http://maps.google.com/maps?q=7335 CARLISLE PIKE,+YORK SPRINGS,+PA+17372&hl=en"
LEROY POLICE DEPARTMENT,"LEROY POLICE DEPARTMENT 
												
													VILLAGE HALL",3 WEST MAIN STREETRTS 5 & 19,LE ROY,NY,14482,"http://maps.google.com/maps?q=3 WEST MAIN STREET,+LE ROY,+NY+14482&hl=en"
LIBERTY TOWNSHIP POLICE DEPARTMENT,LIBERTY TOWNSHIP GOVERNMENT BUILDING,1315 CHURCHILL-HUBBARD ROAD,YOUNGSTOWN,OH,44505,"http://maps.google.com/maps?q=1315 CHURCHILL-HUBBARD ROAD,+YOUNGSTOWN,+OH+44505&hl=en"
LOWER PAXTON TOWNSHIP POLICE DEPARTMENT,LOWER PAXTON TOWNSHIP POLICE DEPARTMENT,425 PRINCE STREET,HARRISBURG,PA,17109,"http://maps.google.com/maps?q=425 PRINCE STREET,+HARRISBURG,+PA+17109&hl=en"
MANSFIELD BOROUGH POLICE DEPARTMENT,MANSFIELD BOROUGH POLICE DEPARTMENT,14 SOUTH MAIN STREET,MANSFIELD,PA,16933,"http://maps.google.com/maps?q=14 SOUTH MAIN STREET,+MANSFIELD,+PA+16933&hl=en"
MARYLAND STATE POLICE,"MSP CUMBERLAND BARRACK 
												
													POC:  LT. MICHAEL FLUHARTY",1125 NATIONAL HIGHWAY,CUMBERLAND,MD,21502,"http://maps.google.com/maps?q=1125 NATIONAL HIGHWAY,+CUMBERLAND,+MD+21502&hl=en"
MARYLAND STATE POLICE,"MSP HAGERSTOWN BARRACK 
												
													POC- LT. WOODWARD",18345 COL. HENRY K. DOUGLAS DR.,HAGERSTOWN,MD,21740,"http://maps.google.com/maps?q=18345 COL. HENRY K. DOUGLAS DR.,+HAGERSTOWN,+MD+21740&hl=en"
MARYLAND STATE POLICE,"MSP MCHENRY BARRACK 
												
													POC:  SGT. VINCE UPOLE",67 FRIENDSVILLE ROAD,MC HENRY,MD,21541,"http://maps.google.com/maps?q=67 FRIENDSVILLE ROAD,+MC HENRY,+MD+21541&hl=en"
MCCANDLESS POLICE DEPARTMENT,MCCANDLESS POLICE STATION,9955 GRUBBS ROAD,WEXFORD,PA,15090,"http://maps.google.com/maps?q=9955 GRUBBS ROAD,+WEXFORD,+PA+15090&hl=en"
MCDONALD POLICE DEPARTMENT,BURGETTSTOWN BOROUGH BUILDING,1509 MAIN STREET,BURGETTSTOWN,PA,15021,"http://maps.google.com/maps?q=1509 MAIN STREET,+BURGETTSTOWN,+PA+15021&hl=en"
MCDONALD POLICE DEPARTMENT,MCDONALD POLICE DEPARTMENT,151 SCHOOL STREET,MC DONALD,PA,15057,"http://maps.google.com/maps?q=151 SCHOOL STREET,+MC DONALD,+PA+15057&hl=en"
MEYERSDALE BOROUGH POLICE,THOMAS DRUG STORE,327 MAIN STREET,MEYERSDALE,PA,15552,"http://maps.google.com/maps?q=327 MAIN STREET,+MEYERSDALE,+PA+15552&hl=en"
MIDDLETOWN POLICE,GIANT PHARMACY,450 EAST MAINT STREET,MIDDLETOWN,PA,17057,"http://maps.google.com/maps?q=450 EAST MAINT STREET,+MIDDLETOWN,+PA+17057&hl=en"
MILLCREEK TOWNSHIP POLICE DEPARTMENT,MILLCREEK TOWNSHIP,3608 WEST 26TH STREET,ERIE,PA,16506,"http://maps.google.com/maps?q=3608 WEST 26TH STREET,+ERIE,+PA+16506&hl=en"
MILLVALE POLICE DEPARTMENT,MILLVALE BOROUGH BUILDING,501 LINCOLN AVENUE,PITTSBURGH,PA,15209,"http://maps.google.com/maps?q=501 LINCOLN AVENUE,+PITTSBURGH,+PA+15209&hl=en"
MILTON TOWNSHIP POLICE DISTRICT,MILTON TOWNSHIP POLICE DEPARTMENT,15992 MILTON AVE.,LAKE MILTON,OH,44429,"http://maps.google.com/maps?q=15992 MILTON AVE.,+LAKE MILTON,+OH+44429&hl=en"
MINERAL COUNTY SHERIFF'S OFFICE,"MINERAL COUNTY DETENTION CENTER 
												
													ACROSS STREET FROM COURTHOUSE",100 EAST STREET,KEYSER,WV,26726,"http://maps.google.com/maps?q=100 EAST STREET,+KEYSER,+WV+26726&hl=en"
MONONGAH POLICE DEPT,MONONGAH PD,430 BRIDGE ST,FAIRMONT,WV,26554,"http://maps.google.com/maps?q=430 BRIDGE ST,+FAIRMONT,+WV+26554&hl=en"
MONONGALIA COUNTY SHERIFF'S OFFICE,KROGER @ SUNCREST TOWN CNTR,500 SUNCREST TOWN CENTER DR,MORGANTOWN,WV,26506,"http://maps.google.com/maps?q=500 SUNCREST TOWN CENTER DR,+MORGANTOWN,+WV+26506&hl=en"
MONONGALIA COUNTY SHERIFF'S OFFICE,MONONGALIA COUNTY SHERIFF'S OFFICE,116 WALNUT STREET,MORGANTOWN,WV,26505,"http://maps.google.com/maps?q=116 WALNUT STREET,+MORGANTOWN,+WV+26505&hl=en"
MONONGALIA COUNTY SHERIFF'S OFFICE,PIERPONT LANDING PHARMACY,7000 MID ATLANTIC RD,MORGANTOWN,WV,26508,"http://maps.google.com/maps?q=7000 MID ATLANTIC RD,+MORGANTOWN,+WV+26508&hl=en"
MONROEVILLE POLICE DEPT,MONROEVILLE POLICE DEPT,2700 MONROEVILLE BLVD,MONROEVILLE,PA,15146,"http://maps.google.com/maps?q=2700 MONROEVILLE BLVD,+MONROEVILLE,+PA+15146&hl=en"
MONTOUR COUNTY SHERIFF'S OFFICE,MONTOUR COUNTY COURTHOUSE,253 MILL ST,DANVILLE,PA,17821,"http://maps.google.com/maps?q=253 MILL ST,+DANVILLE,+PA+17821&hl=en"
MOOREFIELD POLICE DEPARTMENT,MOOREFIELD POLICE DEPT/TOWN OFFICE,206 WINCHESTER AVE,MOOREFIELD,WV,26836,"http://maps.google.com/maps?q=206 WINCHESTER AVE,+MOOREFIELD,+WV+26836&hl=en"
MORGANTOWN POLICE DEPARTMENT,KROGER,1851 EARL L. CORE ROAD,MORGANTOWN,WV,26505,"http://maps.google.com/maps?q=1851 EARL L. CORE ROAD,+MORGANTOWN,+WV+26505&hl=en"
MORGANTOWN POLICE DEPARTMENT,KROGER,350 PATTERSON DRIVE,MORGANTOWN,WV,26505,"http://maps.google.com/maps?q=350 PATTERSON DRIVE,+MORGANTOWN,+WV+26505&hl=en"
MOUNT CARMEL BOROUGH POLICE,MOUNT CARMEL BOROUGH POLICE DEPARTMENT,137 WEST FOURTH STREET,MOUNT CARMEL,PA,17851,"http://maps.google.com/maps?q=137 WEST FOURTH STREET,+MOUNT CARMEL,+PA+17851&hl=en"
MOUNT CARMEL TWP POLICE DEPARTMENT,MOUNT CARMEL BOROUGH POLICE DEPARTMENT,300 LAUREL STREET,MOUNT CARMEL,PA,17851,"http://maps.google.com/maps?q=300 LAUREL STREET,+MOUNT CARMEL,+PA+17851&hl=en"
MT. LEBANON POLICE DEPARTMENT,MEDIC RESCUE TEAM SOUTH AUTHORITY,315 CYPRESS WAY,PITTSBURGH,PA,15228,"http://maps.google.com/maps?q=315 CYPRESS WAY,+PITTSBURGH,+PA+15228&hl=en"
MT. PLEASANT TWP. POLICE DEPARTMENT,MT. PLEASANT TWP. MUNICIPAL BUILDING,31 MCCARRELL RD.,HICKORY,PA,15340,"http://maps.google.com/maps?q=31 MCCARRELL RD.,+HICKORY,+PA+15340&hl=en"
NESHANNOCK TWP POLICE DEPARTMENT,NESHANNOCK TWP. POLICE DEPARTMETN,3131 MERCER ROAD,NEW CASTLE,PA,16105,"http://maps.google.com/maps?q=3131 MERCER ROAD,+NEW CASTLE,+PA+16105&hl=en"
NEW CASTLE POLICE DEPARTMENT,NEW CASTLE POLICE DEPARTMENT,303 EAST NORTH STREET,NEW CASTLE,PA,16101,"http://maps.google.com/maps?q=303 EAST NORTH STREET,+NEW CASTLE,+PA+16101&hl=en"
NEW MIDDLETOWN POLICE DEPT,NEW MIDDLETOWN MUNICIPAL BUILDING,10711 MAIN STREET,NEW MIDDLETOWN,OH,44442,"http://maps.google.com/maps?q=10711 MAIN STREET,+NEW MIDDLETOWN,+OH+44442&hl=en"
NORTH COLLINS POLICE DEPARTMENT,NORTH COLLINS POLICE DEPARTMENT,10543 MAIN STREET,NORTH COLLINS,NY,14111,"http://maps.google.com/maps?q=10543 MAIN STREET,+NORTH COLLINS,+NY+14111&hl=en"
NORTH HUNTINGDON TWP. POLICE DEPARTMENT,"NORTH HUNTINGDON TWP. TOWNHOUSE 
												
													NHT MUNICIPAL BUILDING - POLICE DEPT.",11279 CENTER HIGHWAY,NORTH HUNTINGDON,PA,15642,"http://maps.google.com/maps?q=11279 CENTER HIGHWAY,+NORTH HUNTINGDON,+PA+15642&hl=en"
NORTHEASTERN REGIONAL POLICE,GIANT FOODS,205 GLEN DR,MANCHESTER,PA,17345,"http://maps.google.com/maps?q=205 GLEN DR,+MANCHESTER,+PA+17345&hl=en"
NORTHUMBERLAND COUNTY SHERIFF'S OFFICE,NORTHUMBERLAND COUNTY COURT HOUSE,201 MARKET STREET,SUNBURY,PA,17801,"http://maps.google.com/maps?q=201 MARKET STREET,+SUNBURY,+PA+17801&hl=en"
NORTHUMBERLAND POLICE DEPT,NORRY PHARMACY,125 DUKE ST,NORTHUMBERLAND,PA,17857,"http://maps.google.com/maps?q=125 DUKE ST,+NORTHUMBERLAND,+PA+17857&hl=en"
NORTHWEST LANCASTER CO REGIONAL POLICE DEPT,GIANT FOOD STORE,1278 N MARKET ST,ELIZABETHTOWN,PA,17022,"http://maps.google.com/maps?q=1278 N MARKET ST,+ELIZABETHTOWN,+PA+17022&hl=en"
OAKLAND CITY POLICE,OAKLAND CITY HALL,15 SOUTH THIRD STREET,OAKLAND,MD,21550,"http://maps.google.com/maps?q=15 SOUTH THIRD STREET,+OAKLAND,+MD+21550&hl=en"
OAKMONT BOROUGH POLICE,RITE-AID,109 ALLEGHENY RIVER BLVD,OAKMONT,PA,15139,"http://maps.google.com/maps?q=109 ALLEGHENY RIVER BLVD,+OAKMONT,+PA+15139&hl=en"
OHIO COUNTY SHERIFF'S OFFICE,ELTON GROVE PHARMACY,102 E BETHLEHEM BLVD,WHEELING,WV,26003,"http://maps.google.com/maps?q=102 E BETHLEHEM BLVD,+WHEELING,+WV+26003&hl=en"
ONTARIO COUNTY OFFICE OF SHERIFF,"WEGMANS FOOD MARKET 
												
													EVENT ON  APRIL 28, 2018",345 EASTERN BLVD,CANANDAIGUA,NY,14424,"http://maps.google.com/maps?q=345 EASTERN BLVD,+CANANDAIGUA,+NY+14424&hl=en"
ORCHARD PARK POLICE DEPARTMENT,MERCY AMBULATORY CENTER,3669 SOUTHWESTERN BLVD.,ORCHARD PARK,NY,14127,"http://maps.google.com/maps?q=3669 SOUTHWESTERN BLVD.,+ORCHARD PARK,+NY+14127&hl=en"
PA STATE POLICE,BOSWELL PRESCRIPTION CENTER,210 OHIO ST,BOSWELL,PA,15531,"http://maps.google.com/maps?q=210 OHIO ST,+BOSWELL,+PA+15531&hl=en"
PA STATE POLICE - PITTSBURGH,PA STATE POLICE - PITTSBURGH,449 MCCORMICK ROAD,CORAOPOLIS,PA,15108,"http://maps.google.com/maps?q=449 MCCORMICK ROAD,+CORAOPOLIS,+PA+15108&hl=en"
"PENNSYLVANIA STATE POLICE, LYKENS STATION","PENNSYLVANIA STATE POLICE 
												
													LYKENS STATION",301 STATE DR,ELIZABETHVILLE,PA,17023,"http://maps.google.com/maps?q=301 STATE DR,+ELIZABETHVILLE,+PA+17023&hl=en"
PETERS TOWNSHIP POLICE DEPARTMENT,BIBLE CHAPEL,300 GALLERY DRIVE,MCMURRAY,PA,15317,"http://maps.google.com/maps?q=300 GALLERY DRIVE,+MCMURRAY,+PA+15317&hl=en"
PETERS TOWNSHIP POLICE DEPARTMENT,GIANT EAGLE,4017 WASHINGTON ROAD,MCMURRAY,PA,15317,"http://maps.google.com/maps?q=4017 WASHINGTON ROAD,+MCMURRAY,+PA+15317&hl=en"
PETERS TOWNSHIP POLICE DEPARTMENT,HEISLER'S MARKET,601 E. MCMURRAY ROAD,MCMURRAY,PA,15317,"http://maps.google.com/maps?q=601 E. MCMURRAY ROAD,+MCMURRAY,+PA+15317&hl=en"
PETERS TOWNSHIP POLICE DEPARTMENT,RITE AID PHARMACY,4185 WASHINGTON RD,MCMURRAY,PA,15317,"http://maps.google.com/maps?q=4185 WASHINGTON RD,+MCMURRAY,+PA+15317&hl=en"
PITTSBURGH BUREAU OF POLICE,PHILLIPS RECREATION CENTER,201 PARKFIELD ST,PITTSBURGH,PA,15210,"http://maps.google.com/maps?q=201 PARKFIELD ST,+PITTSBURGH,+PA+15210&hl=en"
PITTSBURGH BUREAU OF POLICE,PITTSBURGH POLICE HEADQUARTERS,1203 WESTERN AVE.,PITTSBURGH,PA,15233,"http://maps.google.com/maps?q=1203 WESTERN AVE.,+PITTSBURGH,+PA+15233&hl=en"
PITTSBURGH BUREAU OF POLICE,"ZONE #1 PITTSBURGH POLICE STATION 
												
													COMMANDER CHRIS RAGLAND",1501 BRIGHTON RD.,PITTSBURGH,PA,15212,"http://maps.google.com/maps?q=1501 BRIGHTON RD.,+PITTSBURGH,+PA+15212&hl=en"
PITTSBURGH BUREAU OF POLICE,"ZONE #2 PITTSBURGH POLICE STATION 
												
													COMMANDER CRISTYN ZETT",2002 CENTRE AVENUE,PITTSBURGH,PA,15219,"http://maps.google.com/maps?q=2002 CENTRE AVENUE,+PITTSBURGH,+PA+15219&hl=en"
PITTSBURGH BUREAU OF POLICE,"ZONE #3 PITTSBURGH POLICE STATION 
												
													COMMANDER KAREN DIXON",830 EAST WARRINGTON AVE.,PITTSBURGH,PA,15210,"http://maps.google.com/maps?q=830 EAST WARRINGTON AVE.,+PITTSBURGH,+PA+15210&hl=en"
PITTSBURGH BUREAU OF POLICE,"ZONE #4 PITTSBURGH POLICE STATION 
												
													COMMANDER DAN HERRMANN",5858 NORTHUMBERLAND STREET,PITTSBURGH,PA,15217,"http://maps.google.com/maps?q=5858 NORTHUMBERLAND STREET,+PITTSBURGH,+PA+15217&hl=en"
PITTSBURGH BUREAU OF POLICE,"ZONE #5 PITTSBURGH POLICE STATION 
												
													COMMANDER JASON LANDO",1401 WASHINGTON BLVD.,PITTSBURGH,PA,15206,"http://maps.google.com/maps?q=1401 WASHINGTON BLVD.,+PITTSBURGH,+PA+15206&hl=en"
PITTSBURGH BUREAU OF POLICE,"ZONE #6 PITTSBURGH POLICE STATION 
												
													COMMANDER STEVEN VINANSKY",312 SOUTH MAIN STREET,PITTSBURGH,PA,15220,"http://maps.google.com/maps?q=312 SOUTH MAIN STREET,+PITTSBURGH,+PA+15220&hl=en"
PLEASANT HILLS POLICE DEPARTMENT,PLEASANT HILLS BOROUGH BUILDING,410 EAST BRUCETON RD,PITTSBURGH,PA,15236,"http://maps.google.com/maps?q=410 EAST BRUCETON RD,+PITTSBURGH,+PA+15236&hl=en"
PLUM BOROUGH POLICE DEPARTMENT,BILL'S HOMETOWN PHARMACY,1095 UNITY CENTER ROAD,PITTSBURGH,PA,15239,"http://maps.google.com/maps?q=1095 UNITY CENTER ROAD,+PITTSBURGH,+PA+15239&hl=en"
PLUM BOROUGH POLICE DEPARTMENT,BILL'S HOMETOWN PHARMACY,2362 GOLDEN MILE HWY,PITTSBURGH,PA,15239,"http://maps.google.com/maps?q=2362 GOLDEN MILE HWY,+PITTSBURGH,+PA+15239&hl=en"
PRESTON COUNTY SHERIFF,BELLDINA'S PHARMACY,107 S MAIN ST,MASONTOWN,WV,26542,"http://maps.google.com/maps?q=107 S MAIN ST,+MASONTOWN,+WV+26542&hl=en"
PRESTON COUNTY SHERIFF,BRUCETON PHARMACY,198 MORGANTOWN ST,BRUCETON MILLS,WV,26525,"http://maps.google.com/maps?q=198 MORGANTOWN ST,+BRUCETON MILLS,+WV+26525&hl=en"
PRESTON COUNTY SHERIFF,TERRA ALTA TOWN HALL,701-A EAST STATE AVENUE,TERRA ALTA,WV,26764,"http://maps.google.com/maps?q=701-A EAST STATE AVENUE,+TERRA ALTA,+WV+26764&hl=en"
PUNXSUTAWNEY BOROUGH POLICE DEPARTMENT,PUNXSY HOMETOWN PHARMACY,203 HAMPTON ROAD,PUNXSUTAWNEY,PA,15767,"http://maps.google.com/maps?q=203 HAMPTON ROAD,+PUNXSUTAWNEY,+PA+15767&hl=en"
ROBINSON TWP. POLICE DEPARTMENT,"THE MALL AT ROBINSON 
												
													PARKING LOT NEAR DICK'S & GOLDEN CORRAL",1000 ROBINSON CENTRE DRIVE,PITTSBURGH,PA,15205,"http://maps.google.com/maps?q=1000 ROBINSON CENTRE DRIVE,+PITTSBURGH,+PA+15205&hl=en"
SCHUYLER COUNTY SHERIFF'S OFFICE,"ODESSA FIRE DEPARTMENT 
												
													28 APRIL 2018",300 EAST MAIN STREET,ODESSA,NY,14869,"http://maps.google.com/maps?q=300 EAST MAIN STREET,+ODESSA,+NY+14869&hl=en"
SCHUYLER COUNTY SHERIFF'S OFFICE,SCHUYLER COUNTY HUMAN SERVICES COMPLEX,323 OWEGO STREET,MONTOUR FALLS,NY,14865,"http://maps.google.com/maps?q=323 OWEGO STREET,+MONTOUR FALLS,+NY+14865&hl=en"
SCHUYLER COUNTY SHERIFF'S OFFICE,"TYRONE FIRE DEPARTMENT 
												
													28 APRIL 2018",3600 STATE RTE 226,TYRONE,NY,14887,"http://maps.google.com/maps?q=3600 STATE RTE 226,+TYRONE,+NY+14887&hl=en"
SCHUYLKILL COUNTY SHERIFF'S OFFICE,ASHLAND POLICE DEPARTMENT,401 SOUTH 18TH STREET,ASHLAND,PA,17921,"http://maps.google.com/maps?q=401 SOUTH 18TH STREET,+ASHLAND,+PA+17921&hl=en"
SCHUYLKILL COUNTY SHERIFF'S OFFICE,BUTLER TOWNSHIP POLICE DEPARTMENT,211 BROAD STREET,ASHLAND,PA,17921,"http://maps.google.com/maps?q=211 BROAD STREET,+ASHLAND,+PA+17921&hl=en"
SCHUYLKILL COUNTY SHERIFF'S OFFICE,CASS TOWNSHIP POLICE DEPARTMENT,1209 VALLEY ROAD,POTTSVILLE,PA,17901,"http://maps.google.com/maps?q=1209 VALLEY ROAD,+POTTSVILLE,+PA+17901&hl=en"
SCHUYLKILL COUNTY SHERIFF'S OFFICE,FRACKVILLE POLICE DEPARTMENT,42 SOUTH CENTER STREET,FRACKVILLE,PA,17931,"http://maps.google.com/maps?q=42 SOUTH CENTER STREET,+FRACKVILLE,+PA+17931&hl=en"
SCHUYLKILL COUNTY SHERIFF'S OFFICE,GIRARDVILLE POLICE DEPARTMENT,4TH & B. STREET,GIRARDVILLE,PA,17935,"http://maps.google.com/maps?q=4TH & B. STREET,+GIRARDVILLE,+PA+17935&hl=en"
SCHUYLKILL COUNTY SHERIFF'S OFFICE,HEGINS POLICE DEPARTMENT,417 GAP STREET,VALLEY VIEW,PA,17983,"http://maps.google.com/maps?q=417 GAP STREET,+VALLEY VIEW,+PA+17983&hl=en"
SCHUYLKILL COUNTY SHERIFF'S OFFICE,MAHANOY CITY POLICE DEPARTMENT,239 EAST PINE STREET,MAHANOY CITY,PA,17948,"http://maps.google.com/maps?q=239 EAST PINE STREET,+MAHANOY CITY,+PA+17948&hl=en"
SCHUYLKILL COUNTY SHERIFF'S OFFICE,MINERSVILLE POLICE DEPARTMENT,15 NORTH DELAWARE AVENUE,MINERSVILLE,PA,17954,"http://maps.google.com/maps?q=15 NORTH DELAWARE AVENUE,+MINERSVILLE,+PA+17954&hl=en"
SCHUYLKILL COUNTY SHERIFF'S OFFICE,PINE GROVE POLICE DEPARTMENT,ONE SNYDER DRIVE,PINE GROVE,PA,17963,"http://maps.google.com/maps?q=ONE SNYDER DRIVE,+PINE GROVE,+PA+17963&hl=en"
SCHUYLKILL COUNTY SHERIFF'S OFFICE,PORT CARBON POLICE DEPARTMENT,90 WASHINGTON STREET,PORT CARBON,PA,17965,"http://maps.google.com/maps?q=90 WASHINGTON STREET,+PORT CARBON,+PA+17965&hl=en"
SCHUYLKILL COUNTY SHERIFF'S OFFICE,SAINT CLAIR POLICE DEPARTMENT,24 NORTH 2ND STREET,SAINT CLAIR,PA,17970,"http://maps.google.com/maps?q=24 NORTH 2ND STREET,+SAINT CLAIR,+PA+17970&hl=en"
SCHUYLKILL COUNTY SHERIFF'S OFFICE,"SCHUYLKILL COUNTY COURT HOUSE (SECURITY ENTRANCE) 
												
													SECURITY ENTRANCE",401 NORTH 2ND STREET,POTTSVILLE,PA,17901,"http://maps.google.com/maps?q=401 NORTH 2ND STREET,+POTTSVILLE,+PA+17901&hl=en"
SCHUYLKILL COUNTY SHERIFF'S OFFICE,SCHUYLKILL HAVEN POLICE DEPARTMENT,220 PARKWAY AVENUE,SCHUYLKILL HAVEN,PA,17972,"http://maps.google.com/maps?q=220 PARKWAY AVENUE,+SCHUYLKILL HAVEN,+PA+17972&hl=en"
SCHUYLKILL COUNTY SHERIFF'S OFFICE,SHENANDOAH POLICE DEPARTMENT,15 WEST WASHINGTON STREET,SHENANDOAH,PA,17976,"http://maps.google.com/maps?q=15 WEST WASHINGTON STREET,+SHENANDOAH,+PA+17976&hl=en"
SCHUYLKILL COUNTY SHERIFF'S OFFICE,TREMONT POLICE DEPARTMENT,19 NORTH PINE STREET,TREMONT,PA,17981,"http://maps.google.com/maps?q=19 NORTH PINE STREET,+TREMONT,+PA+17981&hl=en"
SEWARD BORO POLICE DEPT,ROADWAY PHARMACY,6858 RT 711,SEWARD,PA,15954,"http://maps.google.com/maps?q=6858 RT 711,+SEWARD,+PA+15954&hl=en"
SEWICKLEY  POLICE DEPARTMENT,SEWICKLEY BOROUGH BUILDING,601 THORN STREET,SEWICKLEY,PA,15143,"http://maps.google.com/maps?q=601 THORN STREET,+SEWICKLEY,+PA+15143&hl=en"
SHADE TOWNSHIP POLICE,PENN LAUREL PHARMACY,112 SUNSHINE AVE,CENTRAL CITY,PA,15926,"http://maps.google.com/maps?q=112 SUNSHINE AVE,+CENTRAL CITY,+PA+15926&hl=en"
SHALER POLICE DEPARTMENT,SHALER NORTH HILLS LIBRARY,1822 MT. ROYAL BLVD.,GLENSHAW,PA,15116,"http://maps.google.com/maps?q=1822 MT. ROYAL BLVD.,+GLENSHAW,+PA+15116&hl=en"
SHAMOKIN POLICE DEPARTMENT,SHAMOKIN POLICE DEPARTMENT,511 NORTH FRANKLIN STREET,SHAMOKIN,PA,17872,"http://maps.google.com/maps?q=511 NORTH FRANKLIN STREET,+SHAMOKIN,+PA+17872&hl=en"
SHAWNEE STATE PARK,SHAWNEE STATE PARK: PAVILLION #2,132 STATE PARK ROAD,SCHELLSBURG,PA,15559,"http://maps.google.com/maps?q=132 STATE PARK ROAD,+SCHELLSBURG,+PA+15559&hl=en"
SHENANDOAH COUNTY SHERIFF'S OFFICE,"CVS PHARMACY 
												
													PARKING LOT FACING RESERVOIR RD.",221 WEST RESERVOIR ROAD,WOODSTOCK,VA,22664,"http://maps.google.com/maps?q=221 WEST RESERVOIR ROAD,+WOODSTOCK,+VA+22664&hl=en"
STEUBENVILLE POLICE DEPARTMENT,KROGER,264 S. HOLLYWOOD PLAZA,STEUBENVILLE,OH,43952,"http://maps.google.com/maps?q=264 S. HOLLYWOOD PLAZA,+STEUBENVILLE,+OH+43952&hl=en"
SULLIVAN COUNTY SHERIFF'S OFFICE,SULLIVAN COUNTY SHERIFF'S OFFICE,245 MUNCY ST,LAPORTE,PA,18626,"http://maps.google.com/maps?q=245 MUNCY ST,+LAPORTE,+PA+18626&hl=en"
SUNBURY POLICE DEPARTMENT,SUNBURY POLICE DEPARTMENT,440 MARKET STREET,SUNBURY,PA,17801,"http://maps.google.com/maps?q=440 MARKET STREET,+SUNBURY,+PA+17801&hl=en"
SUSQUEHANNA TOWNSHIP POLICE DEPARTMENT,GIANT FOOD STORE,2300 LINGLESTOWN RD.,HARRISBURG,PA,17110,"http://maps.google.com/maps?q=2300 LINGLESTOWN RD.,+HARRISBURG,+PA+17110&hl=en"
TAYLOR COUNTY SHERIFF'S OFFICE,WALMART,1 WALMART LANE,GRAFTON,WV,26354,"http://maps.google.com/maps?q=1 WALMART LANE,+GRAFTON,+WV+26354&hl=en"
TIOGA COUNTY SHERIFF'S OFFICE,"TIOGA COUNTY SHERIFF'S OFFICE 
												
													TRINITY-CASA OF TIOGA",ACROSS FROM AGWAY6 MCMASTER ST.,OWEGO,NY,13827,"http://maps.google.com/maps?q=ACROSS FROM AGWAY,+OWEGO,+NY+13827&hl=en"
TOMPKINS COUNTY SHERIFF'S OFFICE,SHERIFF'S HQ,779 WARREN ROAD,ITHACA,NY,14850,"http://maps.google.com/maps?q=779 WARREN ROAD,+ITHACA,+NY+14850&hl=en"
TOMPKINS COUNTY SHERIFF'S OFFICE,SLATERVILLE FIRE STATION,2681 SLATERVILLE RD.,SLATERVILLE SPRINGS,NY,14881,"http://maps.google.com/maps?q=2681 SLATERVILLE RD.,+SLATERVILLE SPRINGS,+NY+14881&hl=en"
TONAWANDA POLICE DEPARTMENT,KENMORE MERCY HOSPITAL,2950 ELMWOOD AVENUE,KENMORE,NY,14217,"http://maps.google.com/maps?q=2950 ELMWOOD AVENUE,+KENMORE,+NY+14217&hl=en"
TOWN OF BATH POLICE DEPARTMENT,"MORGAN COUNTY HEALTH DEPARTMENT 
												
													POC: BILL KEARNS",137 WAR MEMORIAL DR.,BERKELEY SPRINGS,WV,25411,"http://maps.google.com/maps?q=137 WAR MEMORIAL DR.,+BERKELEY SPRINGS,+WV+25411&hl=en"
UNIVERSITY OF PITTSBURGH,UNIVERSITY OF PITTSBURGH PHARMACY,103 UNIVERSITY PLACE,PITTSBURGH,PA,15260,"http://maps.google.com/maps?q=103 UNIVERSITY PLACE,+PITTSBURGH,+PA+15260&hl=en"
UNIVERSITY OF PITTSBURGH MED CTR,"CHILDREN'S HOSPITAL OF PITTSBURGH OF UPMC 
												
													OUTPATIENT PHARMACY LOBBY",4401 PENN AVE,PITTSBURGH,PA,15224,"http://maps.google.com/maps?q=4401 PENN AVE,+PITTSBURGH,+PA+15224&hl=en"
UNIVERSITY OF PITTSBURGH MED CTR,"FALK PHARMACY: FALK MEDICAL BDG 
												
													2ND FLOOR LOBBY",3601 FIFTH AVE.,PITTSBURGH,PA,15213,"http://maps.google.com/maps?q=3601 FIFTH AVE.,+PITTSBURGH,+PA+15213&hl=en"
UNIVERSITY OF PITTSBURGH MED CTR,"FORBES PHARMACY OF WPIC: OXFORD BUILDING 
												
													7TH FLOOR",3501 FORBES AVE.,PITTSBURGH,PA,15213,"http://maps.google.com/maps?q=3501 FORBES AVE.,+PITTSBURGH,+PA+15213&hl=en"
UNIVERSITY OF PITTSBURGH MED CTR,FORBES TOWER MAIN LOBBY,4028 FORBES AVENUE,PITTSBURGH,PA,15260,"http://maps.google.com/maps?q=4028 FORBES AVENUE,+PITTSBURGH,+PA+15260&hl=en"
UNIVERSITY OF PITTSBURGH MED CTR,"HILLMAN CANCER CENTER 
												
													GROUND FLOOR ATRIUM",5115 CENTRE AVE.,PITTSBURGH,PA,15232,"http://maps.google.com/maps?q=5115 CENTRE AVE.,+PITTSBURGH,+PA+15232&hl=en"
UNIVERSITY OF PITTSBURGH MED CTR,"MAGEE-WOMENS HOSPITAL OF UPMC 
												
													MAIN LOBBY, 1ST FLOOR",300 HALKET STREET,PITTSBURGH,PA,15213,"http://maps.google.com/maps?q=300 HALKET STREET,+PITTSBURGH,+PA+15213&hl=en"
UNIVERSITY OF PITTSBURGH MED CTR,"U.S. STEEL TOWER-FRI. 
												
													MYHEALTH@WORK, FLOOR 12",600 GRANT STREET,PITTSBURGH,PA,15219,"http://maps.google.com/maps?q=600 GRANT STREET,+PITTSBURGH,+PA+15219&hl=en"
UNIVERSITY OF PITTSBURGH MED CTR,"UPMC EAST 
												
													MAIN LOBBY",2775 MOSSIDE BLVD,MONROEVILLE,PA,15146,"http://maps.google.com/maps?q=2775 MOSSIDE BLVD,+MONROEVILLE,+PA+15146&hl=en"
UNIVERSITY OF PITTSBURGH MED CTR,UPMC HAMOT WOMEN'S HOSPITAL LOBBY,201 STATE STREET,ERIE,PA,16550,"http://maps.google.com/maps?q=201 STATE STREET,+ERIE,+PA+16550&hl=en"
UNIVERSITY OF PITTSBURGH MED CTR,"UPMC MCKEESPORT 
												
													1-CRAWFORD PATIENT DISCHARGE LOUNGE",1500 FIFTH AVE,MCKEESPORT,PA,15132,"http://maps.google.com/maps?q=1500 FIFTH AVE,+MCKEESPORT,+PA+15132&hl=en"
UNIVERSITY OF PITTSBURGH MED CTR,"UPMC MERCY, SOUTH SIDE 
												
													MAIN LOBBY",2000 MARY STREET,PITTSBURGH,PA,15203,"http://maps.google.com/maps?q=2000 MARY STREET,+PITTSBURGH,+PA+15203&hl=en"
UNIVERSITY OF PITTSBURGH MED CTR,"UPMC MERCY: CAFETERIA 
												
													2ND FLOOR",1400 LOCUST STREET,PITTSBURGH,PA,15219,"http://maps.google.com/maps?q=1400 LOCUST STREET,+PITTSBURGH,+PA+15219&hl=en"
UNIVERSITY OF PITTSBURGH MED CTR,"UPMC PASSAVANT 
												
													MAIN LOBBY, MCCANDLESS CAMPUS",9100 BABCOCK BLVD,PITTSBURGH,PA,15237,"http://maps.google.com/maps?q=9100 BABCOCK BLVD,+PITTSBURGH,+PA+15237&hl=en"
UNIVERSITY OF PITTSBURGH MED CTR,"UPMC PRESBYTERIAN, PRESCRIPTION SHOP",200 LOTHROP STREET,PITTSBURGH,PA,15213,"http://maps.google.com/maps?q=200 LOTHROP STREET,+PITTSBURGH,+PA+15213&hl=en"
UNIVERSITY OF PITTSBURGH MED CTR,UPMC SHERWOOD OAKS,100 NORMAN DRIVE,CRANBERRY TOWNSHIP,PA,16066,"http://maps.google.com/maps?q=100 NORMAN DRIVE,+CRANBERRY TOWNSHIP,+PA+16066&hl=en"
UPMC HAMOT POLICE,HAMOT WOMEN'S HOSPITAL,104 2ND STREET,ERIE,PA,16550,"http://maps.google.com/maps?q=104 2ND STREET,+ERIE,+PA+16550&hl=en"
UPPER ST. CLAIR POLICE DEPARTMENT,UPPER ST. CLAIR POLICE DEPARTMENT,1820 MCLAUGHLIN RUN ROAD,PITTSBURGH,PA,15241,"http://maps.google.com/maps?q=1820 MCLAUGHLIN RUN ROAD,+PITTSBURGH,+PA+15241&hl=en"
VILLAGE OF WESTFIELD POLICE DEPT,VILLAGE OF WESTFIELD PD,23 ELM STREET,WESTFIELD,NY,14787,"http://maps.google.com/maps?q=23 ELM STREET,+WESTFIELD,+NY+14787&hl=en"
WARREN COUNTY SHERIFF'S OFFICE,WARREN COUNTY SHERIFF'S OFFICE,407 MARKET STREET,WARREN,PA,16365,"http://maps.google.com/maps?q=407 MARKET STREET,+WARREN,+PA+16365&hl=en"
WEIRTON PD,WEIRTON POLICE DEPT,200 MUNICIPAL PLAZA,WEIRTON,WV,26062,"http://maps.google.com/maps?q=200 MUNICIPAL PLAZA,+WEIRTON,+WV+26062&hl=en"
WELLSBORO POLICE DEPARTMENT,WELLSBORO POLICE DEPARTMENT,28 CRAFTON STREET,WELLSBORO,PA,16901,"http://maps.google.com/maps?q=28 CRAFTON STREET,+WELLSBORO,+PA+16901&hl=en"
WEST MANCHESTER TOWNSHIP POLICE DEPT,GIANT,1255 CARLISLE RD,YORK,PA,17404,"http://maps.google.com/maps?q=1255 CARLISLE RD,+YORK,+PA+17404&hl=en"
WEST MIFFLIN POLICE DEPARTMENT,"WEST MIFFLIN POLICE DEPARTMENT LOBBY 
												
													LOBBY",1020 LEBANON ROAD,WEST MIFFLIN,PA,15122,"http://maps.google.com/maps?q=1020 LEBANON ROAD,+WEST MIFFLIN,+PA+15122&hl=en"
WEST SENECA POLICE DEPARTMENT,WEST SENECA SENIOR CENTER,4620 SENECA STREET,WEST SENECA,NY,14224,"http://maps.google.com/maps?q=4620 SENECA STREET,+WEST SENECA,+NY+14224&hl=en"
WEST VIRGINIA STATE POLICE,"WEST VIRGINIA STATE POLICE 
												
													SGT J.R FLETCHER/3048223561",525 DEPOT STREET,ROMNEY,WV,26757,"http://maps.google.com/maps?q=525 DEPOT STREET,+ROMNEY,+WV+26757&hl=en"
WEST VIRGINIA STATE POLICE,"WVSP-KEYSER 
												
													SGT. S.B. HUFFMAN/3047881101","730 FORT ASHBY RDRT 1, BOX 172D",KEYSER,WV,26726,"http://maps.google.com/maps?q=730 FORT ASHBY RD,+KEYSER,+WV+26726&hl=en"
WEST VIRGINIA STATE POLICE,"WVSP-MARTINSBURG 
												
													SGT M.A. COLE/3042670001",14 TROOPER DR,MARTINSBURG,WV,25404,"http://maps.google.com/maps?q=14 TROOPER DR,+MARTINSBURG,+WV+25404&hl=en"
WHEELING POLICE DEPT,MT DECHANTAL KROGER,200 MT DECHANTAL RD,WHEELING,WV,26003,"http://maps.google.com/maps?q=200 MT DECHANTAL RD,+WHEELING,+WV+26003&hl=en"
WINCHESTER CITY SHERIFF'S OFFICE,COURTHOUSE,5 NORTH KENT ST,WINCHESTER,VA,22601,"http://maps.google.com/maps?q=5 NORTH KENT ST,+WINCHESTER,+VA+22601&hl=en"
WINDBER BOROUGH POLICE DEPT,MARTELLA'S PHARMACY,901 CORAHAM AVE,WINDBER,PA,15963,"http://maps.google.com/maps?q=901 CORAHAM AVE,+WINDBER,+PA+15963&hl=en"
WINTERSVILLE POLICE DEPARTMENT,RIESBECK'S FOOD MART,100 MAIN STREET,STEUBENVILLE,OH,43953,"http://maps.google.com/maps?q=100 MAIN STREET,+STEUBENVILLE,+OH+43953&hl=en"
WOODSTOCK POLICE DEPARTMENT,"WALMART 
												
													NEAR FRONT ENTRANCE",461 W. RESERVOIR RD,WOODSTOCK,VA,22664,"http://maps.google.com/maps?q=461 W. RESERVOIR RD,+WOODSTOCK,+VA+22664&hl=en"
WYOMING COUNTY SHERIFF'S DEPARTMENT,ATTICA POLICE DEPARTMENT,43 EXCHNAGE STREET,ATTICA,NY,14011,"http://maps.google.com/maps?q=43 EXCHNAGE STREET,+ATTICA,+NY+14011&hl=en"
WYOMING COUNTY SHERIFF'S DEPARTMENT,PERRY POLICE DEPARTMENT,46 NORTH MAIN STREET,PERRY,NY,14530,"http://maps.google.com/maps?q=46 NORTH MAIN STREET,+PERRY,+NY+14530&hl=en"
WYOMING COUNTY SHERIFF'S DEPARTMENT,WYOMING COUNTY SHERIFF'S OFFICE,151 N. MAIN STREET,WARSAW,NY,14569,"http://maps.google.com/maps?q=151 N. MAIN STREET,+WARSAW,+NY+14569&hl=en"
YOUNGSTOWN STATE UNIVERSITY,YOUNGSTOWN STATE UNIVERSITY POLICE,266 WEST WOOD STREET,YOUNGSTOWN,OH,44555,"http://maps.google.com/maps?q=266 WEST WOOD STREET,+YOUNGSTOWN,+OH+44555&hl=en"
YOUNGSVILLE BOROUGH POLICE DEPARTMENT,YOUNGSVILLE MUNICIPAL BUILDING,40 RAILROAD STREET,YOUNGSVILLE,PA,16371,"http://maps.google.com/maps?q=40 RAILROAD STREET,+YOUNGSVILLE,+PA+16371&hl=en"
