Participant,CollectionSite,Address,City,State,Zip,MapURL
ALBANY COUNTY SHERIFF,ALBANY COUNTY SHERIFF,58 VERDA AVENUE,CLARKSVILLE,NY,12041,"http://maps.google.com/maps?q=58 VERDA AVENUE,+CLARKSVILLE,+NY+12041&hl=en"
ALBANY COUNTY SHERIFF,RCS COMMUNITY LIBRARY,95 MAIN ST,RAVENA,NY,12143,"http://maps.google.com/maps?q=95 MAIN ST,+RAVENA,+NY+12143&hl=en"
ALBANY NY POLICE DEPARTMENT,"ALBANY COLLEGE OF PHARMACY 
												
													CAR PORT (DRIVE UP DROP OFF)",106 NEW SCOTLAND AVE.,ALBANY,NY,12208,"http://maps.google.com/maps?q=106 NEW SCOTLAND AVE.,+ALBANY,+NY+12208&hl=en"
ALBANY NY POLICE DEPARTMENT,ALBANY POLICE DEPT. SOUTH STATION,126 ARCH STREET,ALBANY,NY,12202,"http://maps.google.com/maps?q=126 ARCH STREET,+ALBANY,+NY+12202&hl=en"
ALBANY NY POLICE DEPARTMENT,CVS PHARMACY,885 CENTRAL AVE.,ALBANY,NY,12205,"http://maps.google.com/maps?q=885 CENTRAL AVE.,+ALBANY,+NY+12205&hl=en"
ALLEGANY COUNTY SHERIFF'S OFFICE,BOLIVAR VOL. FIRE DEPARTMENT,460 MAIN ST,BOLIVAR,NY,14715,"http://maps.google.com/maps?q=460 MAIN ST,+BOLIVAR,+NY+14715&hl=en"
ALLEGANY COUNTY SHERIFF'S OFFICE,RIVERWALK PLAZA,STATE ROUTE 417,WELLSVILLE,NY,14895,"http://maps.google.com/maps?q=STATE ROUTE 417,+WELLSVILLE,+NY+14895&hl=en"
ALLENDALE POLICE DEPARTMENT,"ALLENDALE POLICE DEPARTMENT 
												
													201-825-1900",290 FRANKLIN TURNPIKE,ALLENDALE,NJ,07401,"http://maps.google.com/maps?q=290 FRANKLIN TURNPIKE,+ALLENDALE,+NJ+07401&hl=en"
ALLENTOWN POLICE DEPARTMENT,GIANT FOOD STORE #6074,3015 W. EMMAUS AVENUE,ALLENTOWN,PA,18103,"http://maps.google.com/maps?q=3015 W. EMMAUS AVENUE,+ALLENTOWN,+PA+18103&hl=en"
ALLENTOWN POLICE DEPARTMENT,REDNER'S MARKET,1201 AIRPORT ROAD,ALLENTOWN,PA,18109,"http://maps.google.com/maps?q=1201 AIRPORT ROAD,+ALLENTOWN,+PA+18109&hl=en"
ALLENTOWN POLICE DEPARTMENT,ST LUKES ALLENTOWN HOSPITAL,1736 HAMILTON ST,ALLENTOWN,PA,18104,"http://maps.google.com/maps?q=1736 HAMILTON ST,+ALLENTOWN,+PA+18104&hl=en"
ANDOVER POLICE DEPARTMENT,"ANDOVER POLICE STATION 
												
													973-383-5544",145 LAKE ILIFF RD.,NEWTON,NJ,07860,"http://maps.google.com/maps?q=145 LAKE ILIFF RD.,+NEWTON,+NJ+07860&hl=en"
ASHFIELD PD,ASHFIELD PD,412 MAIN STREET,ASHFIELD,MA,01330,"http://maps.google.com/maps?q=412 MAIN STREET,+ASHFIELD,+MA+01330&hl=en"
AUBURN POLICE DEPARTMENT,"AUBURN POLICE DEPARTMENT 
												
													HQ",46 NORTH STREET,AUBURN,NY,13021,"http://maps.google.com/maps?q=46 NORTH STREET,+AUBURN,+NY+13021&hl=en"
AUBURN POLICE DEPARTMENT,KINNEY DRUGS,62 OWASCO ST.,AUBURN,NY,13021,"http://maps.google.com/maps?q=62 OWASCO ST.,+AUBURN,+NY+13021&hl=en"
BALDWINSVILLE POLICE DEPARTMENT,KINNEY DRUGS,21 E. GENESEE STREET,BALDWINSVILLE,NY,13027,"http://maps.google.com/maps?q=21 E. GENESEE STREET,+BALDWINSVILLE,+NY+13027&hl=en"
BATAVIA POLICE DEPARTMENT,BATAVIA POLICE DEPARTMENT,10 W. MAIN STREET,BATAVIA,NY,14020,"http://maps.google.com/maps?q=10 W. MAIN STREET,+BATAVIA,+NY+14020&hl=en"
BENNINGTON POLICE DEPARTMENT,"BENNINGTON COUNTY SHERIFF'S DEPT 
												
													FRONT LOBBY",811 US RT 7 SOUTH,BENNINGTON,VT,05201,"http://maps.google.com/maps?q=811 US RT 7 SOUTH,+BENNINGTON,+VT+05201&hl=en"
BENNINGTON POLICE DEPARTMENT,"BENNINGTON POLICE DEPARTMENT 
												
													FRONT LOBBY",118 SOUTH STREET,BENNINGTON,VT,05201,"http://maps.google.com/maps?q=118 SOUTH STREET,+BENNINGTON,+VT+05201&hl=en"
BENNINGTON POLICE DEPARTMENT,"CVS DRUG STORE 
												
													APRIL 28, 2018 FROM 10AM TO 2PM ONLY",8 KOCHER DRIVE,BENNINGTON,VT,05201,"http://maps.google.com/maps?q=8 KOCHER DRIVE,+BENNINGTON,+VT+05201&hl=en"
BENNINGTON POLICE DEPARTMENT,"MANCHESTER VT POLICE DEPARTMENT 
												
													FRONT LOBBY",6041 MAIN STREET,MANCHESTER CENTER,VT,05255,"http://maps.google.com/maps?q=6041 MAIN STREET,+MANCHESTER CENTER,+VT+05255&hl=en"
BENNINGTON POLICE DEPARTMENT,"SOUTHWESTERN VT MEDICAL CENTER 
												
													FRONT LOBBY",100 HOSPITAL DRIVE,BENNINGTON,VT,05201,"http://maps.google.com/maps?q=100 HOSPITAL DRIVE,+BENNINGTON,+VT+05201&hl=en"
BENNINGTON POLICE DEPARTMENT,"WINHALL POLICE DEPARTMENT 
												
													FRONT LOBBY",113 VT RT 30,BONDVILLE,VT,05340,"http://maps.google.com/maps?q=113 VT RT 30,+BONDVILLE,+VT+05340&hl=en"
BENTON BOROUGH POLICE DEPT,BENTON VOL FIRE STATION,150 COLLEY ST,BENTON,PA,17814,"http://maps.google.com/maps?q=150 COLLEY ST,+BENTON,+PA+17814&hl=en"
BERNARDSVILLE POLICE DEPARTMENT,BERNARDSVILLE POLICE DEPARTMENT,166 MINE BROOK ROAD,BERNARDSVILLE,NJ,07924,"http://maps.google.com/maps?q=166 MINE BROOK ROAD,+BERNARDSVILLE,+NJ+07924&hl=en"
BERWICK PD,BERWICK PD,1800 N MARKET ST,BERWICK,PA,18603,"http://maps.google.com/maps?q=1800 N MARKET ST,+BERWICK,+PA+18603&hl=en"
BETHLEHEM POLICE DEPARTMENT,"BETHLEHEM TOWN PARK 
												
													FRONT PARKING LOT",249 ELM AVE.,DELMAR,NY,12054,"http://maps.google.com/maps?q=249 ELM AVE.,+DELMAR,+NY+12054&hl=en"
BETHLEHEM POLICE DEPARTMENT,WESTGATE MALL,2285 SCHOENERSVILLE ROAD,BETHLEHEM,PA,18017,"http://maps.google.com/maps?q=2285 SCHOENERSVILLE ROAD,+BETHLEHEM,+PA+18017&hl=en"
BETHLEHEM TWNSHP POLICE DEPARTMENT,CVS PHARMACY,4950 FREEMANSBURG AVENUE,EASTON,PA,18045,"http://maps.google.com/maps?q=4950 FREEMANSBURG AVENUE,+EASTON,+PA+18045&hl=en"
BETHLEHEM TWNSHP POLICE DEPARTMENT,GIANT PHARMACY #6366,3926 NAZARETH PIKE,BETHLEHEM,PA,18020,"http://maps.google.com/maps?q=3926 NAZARETH PIKE,+BETHLEHEM,+PA+18020&hl=en"
BETHLEHEM TWNSHP POLICE DEPARTMENT,"ST. LUKES HOSPITAL, ANDERSON CAMPUS",1872 ST LUKES BLVD,EASTON,PA,18045,"http://maps.google.com/maps?q=1872 ST LUKES BLVD,+EASTON,+PA+18045&hl=en"
BETHLEHEM TWNSHP POLICE DEPARTMENT,YOUNG'S PHARMACY,3708 FREEMANSBURG AVENUE,EASTON,PA,18045,"http://maps.google.com/maps?q=3708 FREEMANSBURG AVENUE,+EASTON,+PA+18045&hl=en"
BRADFORD COUNTY SHERIFF'S OFFICE,MILLER'S PHARMACY,ROUTE 6,WYALUSING,PA,18853,"http://maps.google.com/maps?q=ROUTE 6,+WYALUSING,+PA+18853&hl=en"
BRISTOL POLICE DEPARTMENT,BRISTOL POLICE DEPARTMENT,72 MUNSILL AVENUE,BRISTOL,VT,05443,"http://maps.google.com/maps?q=72 MUNSILL AVENUE,+BRISTOL,+VT+05443&hl=en"
BROOME COUNTY SHERIFF'S DEPARTMENT,AMERICAN LEGION POST 1700,305 MAPLE STREET,ENDICOTT,NY,13760,"http://maps.google.com/maps?q=305 MAPLE STREET,+ENDICOTT,+NY+13760&hl=en"
BROOME COUNTY SHERIFF'S DEPARTMENT,BROOME COUNTY SHERIFF'S OFFICE,155 LT. VANWINKLE DR.,BINGHAMTON,NY,13905,"http://maps.google.com/maps?q=155 LT. VANWINKLE DR.,+BINGHAMTON,+NY+13905&hl=en"
BROOME COUNTY SHERIFF'S DEPARTMENT,JOHNSON CITY ELKS,4212 WATSON BLVD.,JOHNSON CITY,NY,13790,"http://maps.google.com/maps?q=4212 WATSON BLVD.,+JOHNSON CITY,+NY+13790&hl=en"
BROOME COUNTY SHERIFF'S DEPARTMENT,VESTAL FIRE STATION 4,3341 VESTAL PKWY EAST,VESTAL,NY,13850,"http://maps.google.com/maps?q=3341 VESTAL PKWY EAST,+VESTAL,+NY+13850&hl=en"
BROOME COUNTY SHERIFF'S DEPARTMENT,WINDSOR COMMUNITY CENTER,107 MAIN STREET,WINDSOR,NY,13865,"http://maps.google.com/maps?q=107 MAIN STREET,+WINDSOR,+NY+13865&hl=en"
BURLINGTON POLICE DEPARTMENT,"BURLINGTON POLICE DEPARTMENT 
												
													NORTH LOBBY",1 NORTH AVE,BURLINGTON,VT,05401,"http://maps.google.com/maps?q=1 NORTH AVE,+BURLINGTON,+VT+05401&hl=en"
BYRAM TWP. POLICE DEPARTMENT,CVS PHARMACY,77 RT. 206,STANHOPE,NJ,07874,"http://maps.google.com/maps?q=77 RT. 206,+STANHOPE,+NJ+07874&hl=en"
BYRAM TWP. POLICE DEPARTMENT,SHOP RITE,90 ROUTE 206,STANHOPE,NJ,07874,"http://maps.google.com/maps?q=90 ROUTE 206,+STANHOPE,+NJ+07874&hl=en"
CAIRO POLICE DEPARTMENT,CVS PHARMACY,7600 ROUTE 32,CAIRO,NY,12413,"http://maps.google.com/maps?q=7600 ROUTE 32,+CAIRO,+NY+12413&hl=en"
CAIRO POLICE DEPARTMENT,CVS PHARMACY,7600 SR 32 CAIRO,CAIRO,NY,12413,"http://maps.google.com/maps?q=7600 SR 32 CAIRO,+CAIRO,+NY+12413&hl=en"
CALIFON BOROUGH POLICE DEPARTMENT,CALIFON MUNICIPAL BUILDING,39 ACADEMY STREET,CALIFON,NJ,07830,"http://maps.google.com/maps?q=39 ACADEMY STREET,+CALIFON,+NJ+07830&hl=en"
CAMILLUS POLICE DEPARTEMENT,POLICE HQ DROP BOX,4600 WEST GENESEE ST.,SYRACUSE,NY,13219,"http://maps.google.com/maps?q=4600 WEST GENESEE ST.,+SYRACUSE,+NY+13219&hl=en"
CANTON POLICE DEPARTMENT,KINNEY DRUGS,40 STATE HIGHWAY 310,CANTON,NY,13617,"http://maps.google.com/maps?q=40 STATE HIGHWAY 310,+CANTON,+NY+13617&hl=en"
CARTHAGE POLICE DEPARTMENT,KINNEY DRUGS,401 STATE STREET,CARTHAGE,NY,13619,"http://maps.google.com/maps?q=401 STATE STREET,+CARTHAGE,+NY+13619&hl=en"
CASTLETON POLICE DEPARTMENT,CASTLETON POLICE DEPARTMENT,263 VT ROUTE 30,CASTLETON,VT,05735,"http://maps.google.com/maps?q=263 VT ROUTE 30,+CASTLETON,+VT+05735&hl=en"
CATASAUQUA POLICE DEPARTMENT,CATASAUQUA POLICE DEPARTMENT,90 BRIDGE ST.,CATASAUQUA,PA,18032,"http://maps.google.com/maps?q=90 BRIDGE ST.,+CATASAUQUA,+PA+18032&hl=en"
CATAWISSA BOROUGH POLICE DEPT,CATAWISSA BOROUGH PD,118 N 3RD ST,CATAWISSA,PA,17820,"http://maps.google.com/maps?q=118 N 3RD ST,+CATAWISSA,+PA+17820&hl=en"
CAZENOVIA POLICE DEPARTMENT,KINNEY DRUGS PARKING LOT,41 ALBANY STREET,CAZENOVIA,NY,13035,"http://maps.google.com/maps?q=41 ALBANY STREET,+CAZENOVIA,+NY+13035&hl=en"
CHENANGO COUNTY SHERIFF'S OFFICE,GREENE FIRE DEPARTMENT,NORTH CANAL STREET,GREENE,NY,13778,"http://maps.google.com/maps?q=NORTH CANAL STREET,+GREENE,+NY+13778&hl=en"
CHENANGO COUNTY SHERIFF'S OFFICE,NORTH NORWICH FIRE DEPARTMENT,108 BEACH LANE,NORTH NORWICH,NY,13814,"http://maps.google.com/maps?q=108 BEACH LANE,+NORTH NORWICH,+NY+13814&hl=en"
CHESTER TOWNSHIP,CHESTER TWP. POLICE HEADQUARTERS,1 PARKER ROAD,CHESTER,NJ,07930,"http://maps.google.com/maps?q=1 PARKER ROAD,+CHESTER,+NJ+07930&hl=en"
CHITTENANGO POLICE DEPARTMENT,KINNEY DRUGS,540 GENESEE ST.,CHITTENANGO,NY,13037,"http://maps.google.com/maps?q=540 GENESEE ST.,+CHITTENANGO,+NY+13037&hl=en"
CHITTENANGO POLICE DEPARTMENT,MEDICINE SHOPPE,1315 W GENESEE STREET,CHITTENANGO,NY,13037,"http://maps.google.com/maps?q=1315 W GENESEE STREET,+CHITTENANGO,+NY+13037&hl=en"
CHITTENANGO POLICE DEPARTMENT,POLICE HQS,222 GENESEE STREET,CHITTENANGO,NY,13037,"http://maps.google.com/maps?q=222 GENESEE STREET,+CHITTENANGO,+NY+13037&hl=en"
CHITTENDEN COUNTY SHERIFF'S DEPARTMENT,PRICE CHOPPER PARKING LOT,595 SHELBURNE ROAD,BURLINGTON,VT,05401,"http://maps.google.com/maps?q=595 SHELBURNE ROAD,+BURLINGTON,+VT+05401&hl=en"
CICERO POLICE DEPARTMENT,KINNEY DRUGS,8150 THOMPSON RD.,CICERO,NY,13039,"http://maps.google.com/maps?q=8150 THOMPSON RD.,+CICERO,+NY+13039&hl=en"
CICERO POLICE DEPARTMENT,WALGREEN'S PARKING LOT,6189 ROUTE 31,CICERO,NY,13039,"http://maps.google.com/maps?q=6189 ROUTE 31,+CICERO,+NY+13039&hl=en"
CITY OF EASTON POLICE DEPT,CITY OF EASTON POLICE DEPT,48 N 4TH ST,EASTON,PA,18042,"http://maps.google.com/maps?q=48 N 4TH ST,+EASTON,+PA+18042&hl=en"
CLARKSTOWN POLICE,CVS PHARMACY,280 SOUTH MAIN ST,NEW CITY,NY,10956,"http://maps.google.com/maps?q=280 SOUTH MAIN ST,+NEW CITY,+NY+10956&hl=en"
CLARKSTOWN POLICE,CVS PHARMACY,330 ROUTE 304,BARDONIA,NY,10954,"http://maps.google.com/maps?q=330 ROUTE 304,+BARDONIA,+NY+10954&hl=en"
CLINTON COUNTY SHERIFFS OFFICE,ROUSES POINT FIRE STATION,48 LAKE STREET,ROUSES POINT,NY,12979,"http://maps.google.com/maps?q=48 LAKE STREET,+ROUSES POINT,+NY+12979&hl=en"
CLINTON TOWNSHIP POLICE DEPARTMENT,CLINTON TOWNSHIP PUBLIC SAFETY BUILDING,1370 ROUTE 31 NORTH,ANNANDALE,NJ,08801,"http://maps.google.com/maps?q=1370 ROUTE 31 NORTH,+ANNANDALE,+NJ+08801&hl=en"
COAL TOWNSHIP POLICE DEPARTMENT,COAL TOWNSHIP POLICE DEPARTMENT,805 W. LYNN STREET,COAL TOWNSHIP,PA,17866,"http://maps.google.com/maps?q=805 W. LYNN STREET,+COAL TOWNSHIP,+PA+17866&hl=en"
COLONIE POLICE DEPARTMENT,"THE CROSSINGS OF COLONIE PARK 
												
													TOWN OF COLONIE",580 ALBANY SHAKER ROAD,LOUDONVILLE,NY,12211,"http://maps.google.com/maps?q=580 ALBANY SHAKER ROAD,+LOUDONVILLE,+NY+12211&hl=en"
COXSACKIE POLICE DEPARTMENT,COXSACKIE POLICE DEPARTMENT,119 MANSION STREET,COXSACKIE,NY,12051,"http://maps.google.com/maps?q=119 MANSION STREET,+COXSACKIE,+NY+12051&hl=en"
CT STATE POLICE - TROOP B,"CSP - TROOP B BARRACKS 
												
													FRONT ENTRANCE",463 ASHLEY FALLS RD.,NORTH CANAAN,CT,06018,"http://maps.google.com/maps?q=463 ASHLEY FALLS RD.,+NORTH CANAAN,+CT+06018&hl=en"
CUMMINGTON POLICE,"CUMMINGTON POLICE DEPARTMENT 
												
													CUMMINGTON PUBLIC SAFETY COMPLEX",8 FAIRGROUNDS ROADBOX 98,CUMMINGTON,MA,01026,"http://maps.google.com/maps?q=8 FAIRGROUNDS ROAD,+CUMMINGTON,+MA+01026&hl=en"
DANVILLE POLICE DEPARTMENT,DANVILLE POLICE DEPARTMENT,453 MILL STREET,DANVILLE,PA,17821,"http://maps.google.com/maps?q=453 MILL STREET,+DANVILLE,+PA+17821&hl=en"
DEA NEW YORK DIVISION,"DEPARTMENT OF FAMILY SERVICES ROBERT TRAVIS BLDG 
												
													SUSAN CLARK",16 COMMUNITY LANE,LIBERTY,NY,12754,"http://maps.google.com/maps?q=16 COMMUNITY LANE,+LIBERTY,+NY+12754&hl=en"
DEA NEW YORK DIVISION,"FALLSBURG POLICE STATION 
												
													ALETA M. GOMEZ 845.794.8080  X170",19 RAILROAD PLAZA,SOUTH FALLSBURG,NY,12779,"http://maps.google.com/maps?q=19 RAILROAD PLAZA,+SOUTH FALLSBURG,+NY+12779&hl=en"
DEA NEW YORK DIVISION,"JEFFERSON PHARMACY 
												
													SUSAN CLARK",4892 MAIN STREET,JEFFERSONVILLE,NY,12748,"http://maps.google.com/maps?q=4892 MAIN STREET,+JEFFERSONVILLE,+NY+12748&hl=en"
DEA NEW YORK DIVISION,"LIBERTY POLICE DEPARTMENT 
												
													ALETA M. GOMEZ  845.794.8080  X170",159 NORTH MAIN STREET,LIBERTY,NY,12754,"http://maps.google.com/maps?q=159 NORTH MAIN STREET,+LIBERTY,+NY+12754&hl=en"
DEA NEW YORK DIVISION,"RIVRESIDE REMEDIES 
												
													SUSAN CLARK",39 LOWER MAIN STREET,CALLICOON,NY,12723,"http://maps.google.com/maps?q=39 LOWER MAIN STREET,+CALLICOON,+NY+12723&hl=en"
DEA NEW YORK DIVISION,"TUSTEN TOWN 
												
													SUSAN CLARK",210 BRIDGE STREET,NARROWSBURG,NY,12764,"http://maps.google.com/maps?q=210 BRIDGE STREET,+NARROWSBURG,+NY+12764&hl=en"
DEWITT POLICE DEPARTMENT,KINNEY DRUGS,307 NOTTINGHAM ROAD,SYRACUSE,NY,13210,"http://maps.google.com/maps?q=307 NOTTINGHAM ROAD,+SYRACUSE,+NY+13210&hl=en"
DURYEA POLICE DEPARTMENT,DURYEA BOROUGH  TOWN HALL BUILDING,315 MAIN STREET,DURYEA,PA,18642,"http://maps.google.com/maps?q=315 MAIN STREET,+DURYEA,+PA+18642&hl=en"
DUTCHESS COUNTY SHERIFF'S OFFICE,VASSAR BROTHERS MEDICAL HOSPITAL,45 READE PLACE,POUGHKEEPSIE,NY,12601,"http://maps.google.com/maps?q=45 READE PLACE,+POUGHKEEPSIE,+NY+12601&hl=en"
EAST GREENBUSH POLICE DEPARTMENT,EAST GREENBUSH POLICE DEPARTMENT,225 COLUMBIA TURNPIKE,RENSSELAER,NY,12144,"http://maps.google.com/maps?q=225 COLUMBIA TURNPIKE,+RENSSELAER,+NY+12144&hl=en"
EMMAUS POLICE DEPARTMENT,EMMAUS POLICE DEPARTMENT,400  JUBILEE STREET,EMMAUS,PA,18049,"http://maps.google.com/maps?q=400  JUBILEE STREET,+EMMAUS,+PA+18049&hl=en"
ESSEX COUNTY SHERIFF,ESSEX COUNTY SHERIFF'S OFFICE,702 STOWERSVILLE RD.,LEWIS,NY,12950,"http://maps.google.com/maps?q=702 STOWERSVILLE RD.,+LEWIS,+NY+12950&hl=en"
ESSEX POLICE DEPARTMENT,ESSEX POLICE DEPARTMENT,145 MAPLE STREET,ESSEX JUNCTION,VT,05452,"http://maps.google.com/maps?q=145 MAPLE STREET,+ESSEX JUNCTION,+VT+05452&hl=en"
ESSEX POLICE DEPARTMENT,KINNEY DRUGS PHARMACY,82 PEARL STREET,ESSEX JUNCTION,VT,05452,"http://maps.google.com/maps?q=82 PEARL STREET,+ESSEX JUNCTION,+VT+05452&hl=en"
FAIR HAVEN POLICE DEPARTMENT,FAIR HAVEN POLICE DEPARTMENT,3 NORTH PARK PLACE,FAIR HAVEN,VT,05743,"http://maps.google.com/maps?q=3 NORTH PARK PLACE,+FAIR HAVEN,+VT+05743&hl=en"
FAR HILLS PD,FAR HILLS PD,6 PROSPECT STREET,FAR HILLS,NJ,07931,"http://maps.google.com/maps?q=6 PROSPECT STREET,+FAR HILLS,+NJ+07931&hl=en"
FLEMINGTON BOROUGH POLICE DEPARTMENT,FLEMINGTON BOROUGH POLICE DEPARTMENT,100 MAIN STREET,FLEMINGTON,NJ,08822,"http://maps.google.com/maps?q=100 MAIN STREET,+FLEMINGTON,+NJ+08822&hl=en"
FLORHAM PARK POLICE DEPARTMENT,"RIDGEDALE MIDDLE SCHOOL 
												
													973-377-2200",71 RIDGEDALE AVE.,FLORHAM PARK,NJ,07932,"http://maps.google.com/maps?q=71 RIDGEDALE AVE.,+FLORHAM PARK,+NJ+07932&hl=en"
FOREST CITY POLICE,FOREST CITY AREA EMERGENCY SERVICES,380 RAILROAD STREET,FOREST CITY,PA,18421,"http://maps.google.com/maps?q=380 RAILROAD STREET,+FOREST CITY,+PA+18421&hl=en"
FOUNTAIN HILL POLICE DEPARTMENT,FOUNTAIN HILL POLICE DEPARTMENT,941 LONG STREET,FOUNTAIN HILL,PA,18015,"http://maps.google.com/maps?q=941 LONG STREET,+FOUNTAIN HILL,+PA+18015&hl=en"
FOUNTAIN HILL POLICE DEPARTMENT,"ST LUKES HOSPITAL MEDICAL BLDG 
												
													PARKING LOT",801 OSTRUM ST,FOUNTAIN HILL,PA,18015,"http://maps.google.com/maps?q=801 OSTRUM ST,+FOUNTAIN HILL,+PA+18015&hl=en"
FRANKLIN TOWNSHIP POLICE DEPARTMENT,HUNTERDON COUNTY PROSECUTOR,65 PARK AVENUE,FLEMINGTON,NJ,08822,"http://maps.google.com/maps?q=65 PARK AVENUE,+FLEMINGTON,+NJ+08822&hl=en"
FULTON COUNTY SHERIFF'S OFFICE,"FULTON COUNTY SHERIFF OFFICE 
												
													DAVID TOWNE",2712 STATE HIGHWAY 29,JOHNSTOWN,NY,12095,"http://maps.google.com/maps?q=2712 STATE HIGHWAY 29,+JOHNSTOWN,+NY+12095&hl=en"
FULTON COUNTY SHERIFF'S OFFICE,FULTON COUNTY SHERIFF'S OFFICE,2712 STATE HWY 29,JOHNSTOWN,NY,12095,"http://maps.google.com/maps?q=2712 STATE HWY 29,+JOHNSTOWN,+NY+12095&hl=en"
GLOVERSVILLE POLICE DEPARTMENT,GLOVERSVILLE POLICE DEPARTMENT,3 FRONTAGE ROAD,GLOVERSVILLE,NY,12078,"http://maps.google.com/maps?q=3 FRONTAGE ROAD,+GLOVERSVILLE,+NY+12078&hl=en"
GOSHEN POLICE DEPARTMENT,GOSHEN POLICE DEPARTMENT,40 A MAIN ST,GOSHEN,MA,01032,"http://maps.google.com/maps?q=40 A MAIN ST,+GOSHEN,+MA+01032&hl=en"
GOUVERNEUR POLICE DEPARTMENT,KINNEY DRUGS,371 MAIN STREET,GOUVERNEUR,NY,13642,"http://maps.google.com/maps?q=371 MAIN STREET,+GOUVERNEUR,+NY+13642&hl=en"
GRAND ISLE COUNTY SHERIFF'S DEPARTMENT,ALBURGH FIRE DEPARTMENT,60 FIREHOUSE ROAD,ALBURGH,VT,05440,"http://maps.google.com/maps?q=60 FIREHOUSE ROAD,+ALBURGH,+VT+05440&hl=en"
GRAND ISLE COUNTY SHERIFF'S DEPARTMENT,GRAND ISLE COUNTY SHERIFF'S DEPARTMENT,3677 US RT 2,NORTH HERO,VT,05474,"http://maps.google.com/maps?q=3677 US RT 2,+NORTH HERO,+VT+05474&hl=en"
GRAND ISLE COUNTY SHERIFF'S DEPARTMENT,SOUTH HERO RESCUE BUILDING,329 US RT 2,SOUTH HERO,VT,05486,"http://maps.google.com/maps?q=329 US RT 2,+SOUTH HERO,+VT+05486&hl=en"
GREAT BEND POLICE DEPARTMENT,GREAT BEND POLICE STATION,335 WASHINGTON STREET,GREAT BEND,PA,18821,"http://maps.google.com/maps?q=335 WASHINGTON STREET,+GREAT BEND,+PA+18821&hl=en"
GUILDERLAND POLICE DEPARTMENT,"PUBLIC LIBRARY 
												
													AUXILIARY PARKING LOT",2228 WESTERN AVENUE,GUILDERLAND,NY,12084,"http://maps.google.com/maps?q=2228 WESTERN AVENUE,+GUILDERLAND,+NY+12084&hl=en"
HAMILTON COLLEGE CAMPUS SAFETY,HAMILTON COLLEGE CAMPUS SAFETY,198 COLLEGE HILL ROAD,CLINTON,NY,13323,"http://maps.google.com/maps?q=198 COLLEGE HILL ROAD,+CLINTON,+NY+13323&hl=en"
HAMILTON COUNTY SHERIFF'S OFFICE,HAMILTON COUNTY JAIL,102 COUNTY VIEW DRIVE,LAKE PLEASANT,NY,12108,"http://maps.google.com/maps?q=102 COUNTY VIEW DRIVE,+LAKE PLEASANT,+NY+12108&hl=en"
HARDING TOWNSHIP POLICE DEPARTMENT,HARDING TOWNSHIP POLICE DEPARTMENT,21 BLUE MILL ROAD,NEW VERNON,NJ,07976,"http://maps.google.com/maps?q=21 BLUE MILL ROAD,+NEW VERNON,+NJ+07976&hl=en"
HAVERSTRAW POLICE DEPARTMENT,CVS,12 WEST RAMAPO ROAD,GARNERVILLE,NY,10923,"http://maps.google.com/maps?q=12 WEST RAMAPO ROAD,+GARNERVILLE,+NY+10923&hl=en"
HERKIMER COUNTY SHERIFF'S OFFICE,HERKIMER COUNTY SHERIFF'S OFFICE,320 NORTH MAIN STREETSUITE 2900,HERKIMER,NY,13350,"http://maps.google.com/maps?q=320 NORTH MAIN STREET,+HERKIMER,+NY+13350&hl=en"
HIGH BRIDGE POLICE,HIGH BRIDGE POLICE DEPARTMENT,99 WEST MAIN STREET,HIGH BRIDGE,NJ,08829,"http://maps.google.com/maps?q=99 WEST MAIN STREET,+HIGH BRIDGE,+NJ+08829&hl=en"
HINESBURG COMMUNITY POLICE,KINNEY DRUGS PHARMACY,10212 VERMONT ROUTE 116,HINESBURG,VT,05461,"http://maps.google.com/maps?q=10212 VERMONT ROUTE 116,+HINESBURG,+VT+05461&hl=en"
HOLLAND TWP. POLICE DEPARTMENT.,"HOLLAND TWP. POLICE DEPARTMENT 
												
													908-995-4670",61 CHURCH ROAD,MILFORD,NJ,08848,"http://maps.google.com/maps?q=61 CHURCH ROAD,+MILFORD,+NJ+08848&hl=en"
HOPATCONG BOROUGH POLICE DEPARTMENT,"HOPATCONG POLICE DEPARTMENT 
												
													973-398-5000",111 RIVER STYX RD,HOPATCONG,NJ,07843,"http://maps.google.com/maps?q=111 RIVER STYX RD,+HOPATCONG,+NJ+07843&hl=en"
ILION POLICE DEPARTMENT,KINNEY DRUGS,40 1ST  STREET,ILION,NY,13357,"http://maps.google.com/maps?q=40 1ST  STREET,+ILION,+NY+13357&hl=en"
ITHACA POLICE DEPARTMENT,KINNEY DRUGS,513 N CAYUGA ST.,ITHACA,NY,14850,"http://maps.google.com/maps?q=513 N CAYUGA ST.,+ITHACA,+NY+14850&hl=en"
JEFFERSON TWP. POLICE DEPARTMENT,"JEFFERSON TWP. MUNICIPAL BUILDING 
												
													973-697-1300",1033 WELDON ROAD,OAK RIDGE,NJ,07438,"http://maps.google.com/maps?q=1033 WELDON ROAD,+OAK RIDGE,+NJ+07438&hl=en"
KINGSTON TOWNSHIP POLICE DEPARTMENT,KINGSTON TOWNSHIP POLICE DEPARTMENT,180 EAST CENTER STREET,SHAVERTOWN,PA,18708,"http://maps.google.com/maps?q=180 EAST CENTER STREET,+SHAVERTOWN,+PA+18708&hl=en"
KIRKLAND POLICE DEPARTMENT,KINNEY DRUGS,12 FRANKLIN AVE.,CLINTON,NY,13323,"http://maps.google.com/maps?q=12 FRANKLIN AVE.,+CLINTON,+NY+13323&hl=en"
KULPMONT POLICE DEPARTMENT,KULPMONT POLICE DEPARTMENT,9 NORTH 8TH STREET,KULPMONT,PA,17834,"http://maps.google.com/maps?q=9 NORTH 8TH STREET,+KULPMONT,+PA+17834&hl=en"
LENOX POLICE DEPARTMENT,"LENOX TOWN HALL 
												
													AUDITORIUM",6 WALKER ST.,LENOX,MA,01240,"http://maps.google.com/maps?q=6 WALKER ST.,+LENOX,+MA+01240&hl=en"
LEROY POLICE DEPARTMENT,"LEROY POLICE DEPARTMENT 
												
													VILLAGE HALL",3 WEST MAIN STREETRTS 5 & 19,LE ROY,NY,14482,"http://maps.google.com/maps?q=3 WEST MAIN STREET,+LE ROY,+NY+14482&hl=en"
LOWER SAUCON TOWNSHIP POLICE DEPARTMENNT,GIANT FOOD STORE,1880 LEITHSVILLE RD,HELLERTOWN,PA,18055,"http://maps.google.com/maps?q=1880 LEITHSVILLE RD,+HELLERTOWN,+PA+18055&hl=en"
LOWER SAUCON TOWNSHIP POLICE DEPARTMENNT,LOWER SAUCON TOWNSHIP POLICE DEPARTMENT,3700 OLD PHILADELPHIA PIKE,BETHLEHEM,PA,18015,"http://maps.google.com/maps?q=3700 OLD PHILADELPHIA PIKE,+BETHLEHEM,+PA+18015&hl=en"
LOWVILLE POLICE DEPARTMENT,KINNEY DRUGS,7395 UTICA BLVD.,LOWVILLE,NY,13367,"http://maps.google.com/maps?q=7395 UTICA BLVD.,+LOWVILLE,+NY+13367&hl=en"
MANLIUS TOWN POLICE DEPARTMENT,POLICE HQ,1 ARKIE ALBANESE AVE,MANLIUS,NY,13104,"http://maps.google.com/maps?q=1 ARKIE ALBANESE AVE,+MANLIUS,+NY+13104&hl=en"
MANSFIELD BOROUGH POLICE DEPARTMENT,MANSFIELD BOROUGH POLICE DEPARTMENT,14 SOUTH MAIN STREET,MANSFIELD,PA,16933,"http://maps.google.com/maps?q=14 SOUTH MAIN STREET,+MANSFIELD,+PA+16933&hl=en"
MASSENA POLICE DEPARTMENT,MASSENA POLICE DEPARTMENT,60 MAIN STREET,MASSENA,NY,13662,"http://maps.google.com/maps?q=60 MAIN STREET,+MASSENA,+NY+13662&hl=en"
MASSENA POLICE DEPARTMENT,"MASSENA POLICE DEPARTMENT 
												
													MASSENA HOSPITAL",1 HOSPITAL DRIVE,MASSENA,NY,13662,"http://maps.google.com/maps?q=1 HOSPITAL DRIVE,+MASSENA,+NY+13662&hl=en"
MECHANICVILLE POLICE DEPARTMENT,"CVS PHARMACY 
												
													PARKING LOT",12 SOUTH CENTRAL AVENUE,MECHANICVILLE,NY,12118,"http://maps.google.com/maps?q=12 SOUTH CENTRAL AVENUE,+MECHANICVILLE,+NY+12118&hl=en"
MENDHAM TOWNSHIP,MENDHAM TWP. PD,3 CHERRY LANE,BROOKSIDE,NJ,07926,"http://maps.google.com/maps?q=3 CHERRY LANE,+BROOKSIDE,+NJ+07926&hl=en"
MIDDLEBURY POLICE DEPARTMENT,MIDDLEBURY POLICE DEPARTMENT,1 LUCIUS SHAW LN.,MIDDLEBURY,VT,05753,"http://maps.google.com/maps?q=1 LUCIUS SHAW LN.,+MIDDLEBURY,+VT+05753&hl=en"
MONTICELLO POLICE DEPARTMENT,"MONTICELLO POLICE DEPT 
												
													CHIEF MUIR",2 PLEASANT STREET,MONTICELLO,NY,12701,"http://maps.google.com/maps?q=2 PLEASANT STREET,+MONTICELLO,+NY+12701&hl=en"
MONTOUR COUNTY SHERIFF'S OFFICE,MONTOUR COUNTY COURTHOUSE,253 MILL ST,DANVILLE,PA,17821,"http://maps.google.com/maps?q=253 MILL ST,+DANVILLE,+PA+17821&hl=en"
MORRIS PLAINS PD,STOP & SHOP SUPERMARKET,245 US 202,MORRIS PLAINS,NJ,07950,"http://maps.google.com/maps?q=245 US 202,+MORRIS PLAINS,+NJ+07950&hl=en"
MORRIS TOWNSHIP PD,SHOPRITE,178 EAST HANOVER AVE.,CEDAR KNOLLS,NJ,07927,"http://maps.google.com/maps?q=178 EAST HANOVER AVE.,+CEDAR KNOLLS,+NJ+07927&hl=en"
MOSCOW BOROUGH POLICE DEPARTMENT,MOSCOW BOROUGH MUNICIPAL BUILDING,123 VAN BRUNT ST,MOSCOW,PA,18444,"http://maps.google.com/maps?q=123 VAN BRUNT ST,+MOSCOW,+PA+18444&hl=en"
MOUNT CARMEL BOROUGH POLICE,MOUNT CARMEL BOROUGH POLICE DEPARTMENT,137 WEST FOURTH STREET,MOUNT CARMEL,PA,17851,"http://maps.google.com/maps?q=137 WEST FOURTH STREET,+MOUNT CARMEL,+PA+17851&hl=en"
MOUNT CARMEL TWP POLICE DEPARTMENT,MOUNT CARMEL BOROUGH POLICE DEPARTMENT,300 LAUREL STREET,MOUNT CARMEL,PA,17851,"http://maps.google.com/maps?q=300 LAUREL STREET,+MOUNT CARMEL,+PA+17851&hl=en"
NEW HARTFORD POLICE DEPARTMENT,NEW HARTFORD POLICE DEPARTMENT,32 KELLOGG RD,NEW HARTFORD,NY,13413,"http://maps.google.com/maps?q=32 KELLOGG RD,+NEW HARTFORD,+NY+13413&hl=en"
NEW PALTZ POLICE DEPARTMENT,POLICE STATION,83 S. PUTT CORNERS RD.,NEW PALTZ,NY,12561,"http://maps.google.com/maps?q=83 S. PUTT CORNERS RD.,+NEW PALTZ,+NY+12561&hl=en"
NEW YORK STATE POLICE,"NEW YORK STATE POLICE 
												
													CLIFTON PARK",5 MUNICIPAL PLAZASTATE ROUTE 146,CLIFTON PARK,NY,12065,"http://maps.google.com/maps?q=5 MUNICIPAL PLAZA,+CLIFTON PARK,+NY+12065&hl=en"
NEW YORK STATE POLICE,"NEW YORK STATE POLICE 
												
													SCHODACK",1485 STATE RT 9,CASTLETON,NY,12033,"http://maps.google.com/maps?q=1485 STATE RT 9,+CASTLETON,+NY+12033&hl=en"
NEW YORK STATE POLICE TROOP G,NEW YORK STATE POLICE TROOP G,760 TROY SCHENECTADY AVENUE,LATHAM,NY,12110,"http://maps.google.com/maps?q=760 TROY SCHENECTADY AVENUE,+LATHAM,+NY+12110&hl=en"
NEWTON POLICE DEPARTMENT,NEWTON POLICE DEPARTMENT,39 TRINITY STREET,NEWTON,NJ,07860,"http://maps.google.com/maps?q=39 TRINITY STREET,+NEWTON,+NJ+07860&hl=en"
NORTH GREENBUSH POLICE DEPARTMENT,"NORTH GREENBUSH POLICE DEPARTMENT 
												
													CHIEF ROBERT DURIVAGE",133 BLOOMING GROVE DRIVE,TROY,NY,12180,"http://maps.google.com/maps?q=133 BLOOMING GROVE DRIVE,+TROY,+NY+12180&hl=en"
NORTHUMBERLAND COUNTY SHERIFF'S OFFICE,NORTHUMBERLAND COUNTY COURT HOUSE,201 MARKET STREET,SUNBURY,PA,17801,"http://maps.google.com/maps?q=201 MARKET STREET,+SUNBURY,+PA+17801&hl=en"
NORTHUMBERLAND POLICE DEPT,NORRY PHARMACY,125 DUKE ST,NORTHUMBERLAND,PA,17857,"http://maps.google.com/maps?q=125 DUKE ST,+NORTHUMBERLAND,+PA+17857&hl=en"
NORWICH POLICE DEPARTMENT,"NORWICH POLICE DEPARTMENT 
												
													POLICE HQ",18 E. MAIN STREET,NORWICH,NY,13815,"http://maps.google.com/maps?q=18 E. MAIN STREET,+NORWICH,+NY+13815&hl=en"
NYS UNIVERSITY POLICE @ ONEONTA,"NYS UNIVERSITY POLICE 
												
													SUNY ONEONTA",ALUMNI HALL51 SOUTH WEST DORM DRIVE,ONEONTA,NY,13820,"http://maps.google.com/maps?q=ALUMNI HALL,+ONEONTA,+NY+13820&hl=en"
OAKLAND POLICE DEPARTMENT,OAKLAND POLICE DEPARTMENT,295 RAMAPO VALLEY ROAD,OAKLAND,NJ,07436,"http://maps.google.com/maps?q=295 RAMAPO VALLEY ROAD,+OAKLAND,+NJ+07436&hl=en"
OGDENSBURG POLICE DEPARTMENT,KINNEY DRUGS,700 CANTON STREET,OGDENSBURG,NY,13669,"http://maps.google.com/maps?q=700 CANTON STREET,+OGDENSBURG,+NY+13669&hl=en"
OLD FORGE POLICE DEPARTMENT,CVS PHARMACY,101 S. MAIN STREET,OLD FORGE,PA,18518,"http://maps.google.com/maps?q=101 S. MAIN STREET,+OLD FORGE,+PA+18518&hl=en"
OLYPHANT POLICE DEPARTMENT,OLYPHANT BOROUGH POLICE STATION,604 EAST PARK STREET,OLYPHANT,PA,18447,"http://maps.google.com/maps?q=604 EAST PARK STREET,+OLYPHANT,+PA+18447&hl=en"
ONEIDA INDIAN NATION POLICE DEPARTMENT,TURNING STONE CASINO EVENT CENTER ENTRANCE,5218 PATRICK ROAD,VERONA,NY,13478,"http://maps.google.com/maps?q=5218 PATRICK ROAD,+VERONA,+NY+13478&hl=en"
ONEONTA POLICE DEPARTMENT,POLICE DEPARTMENT,79 MAIN STREET,ONEONTA,NY,13820,"http://maps.google.com/maps?q=79 MAIN STREET,+ONEONTA,+NY+13820&hl=en"
ONTARIO COUNTY OFFICE OF SHERIFF,"WEGMANS FOOD MARKET 
												
													EVENT ON  APRIL 28, 2018",345 EASTERN BLVD,CANANDAIGUA,NY,14424,"http://maps.google.com/maps?q=345 EASTERN BLVD,+CANANDAIGUA,+NY+14424&hl=en"
ORLEANS COUNTY SHERIFF'S OFFICE,HOLLEY FIRE DEPARTMENT,7 THOMAS STREET,HOLLEY,NY,14470,"http://maps.google.com/maps?q=7 THOMAS STREET,+HOLLEY,+NY+14470&hl=en"
ORLEANS COUNTY SHERIFF'S OFFICE,PUBLIC SAFETY BUILDING,13925 STATE ROUTE 31,ALBION,NY,14411,"http://maps.google.com/maps?q=13925 STATE ROUTE 31,+ALBION,+NY+14411&hl=en"
OSWEGO POLICE DEPARTMENT,KINNEY DRUGS,174 W. BRIDGE STREET,OSWEGO,NY,13126,"http://maps.google.com/maps?q=174 W. BRIDGE STREET,+OSWEGO,+NY+13126&hl=en"
OSWEGO POLICE DEPARTMENT,"OSWEGO POLICE DEPARTMENT 
												
													POLICE HQ",169 WEST 2ND STREET,OSWEGO,NY,13126,"http://maps.google.com/maps?q=169 WEST 2ND STREET,+OSWEGO,+NY+13126&hl=en"
OXFORD POLICE DEPARTMENT,"OXFORD POLICE DEPARTMENT 
												
													POLICE HQ",20 LAFAYETTE PARK,OXFORD,NY,13830,"http://maps.google.com/maps?q=20 LAFAYETTE PARK,+OXFORD,+NY+13830&hl=en"
PARSIPPANY-TROY HILLS PD,"MORRIS HILLS SHOPPING CENTER 
												
													IN FRONT OF HARMON'S",3035-3189 ROUTE 46,PARSIPPANY,NJ,07054,"http://maps.google.com/maps?q=3035-3189 ROUTE 46,+PARSIPPANY,+NJ+07054&hl=en"
PEAPACK & GLADSTONE POLICE DEPARTMENT,"PEAPACK & GLADSTONE POLICE DEPARTMENT 
												
													MUNICIPAL BUILDING",1 SCHOOL ST.,PEAPACK,NJ,07977,"http://maps.google.com/maps?q=1 SCHOOL ST.,+PEAPACK,+NJ+07977&hl=en"
PENNSYLVANIA STATE POLICE TROOP M BETHLEHEM,PA STATE POLICE,2960 AIRPORT RD,BETHLEHEM,PA,18017,"http://maps.google.com/maps?q=2960 AIRPORT RD,+BETHLEHEM,+PA+18017&hl=en"
PICATINNY ARSENAL POLICE DEPARTMENT,"PICATINNY ARSENAL POLICE DEPARTMENT 
												
													973-724-3817",173 BUFFINGTON RD.,PICATINNY ARSENAL,NJ,07806,"http://maps.google.com/maps?q=173 BUFFINGTON RD.,+PICATINNY ARSENAL,+NJ+07806&hl=en"
PITTSFIELD POLICE DEPARTMENT,PITTSFIELD POLICE DEPARTMENT,39 ALLEN STREET,PITTSFIELD,MA,01201,"http://maps.google.com/maps?q=39 ALLEN STREET,+PITTSFIELD,+MA+01201&hl=en"
PLAINS TWP POLICE DEPT,PLAINS TWP PD,126 NORTH MAIN ST,WILKES BARRE,PA,18705,"http://maps.google.com/maps?q=126 NORTH MAIN ST,+WILKES BARRE,+PA+18705&hl=en"
PLATTSBURGH POLICE DEPARTMENT,KINNEY DRUGS,288 CORNELIA ST,PLATTSBURGH,NY,12901,"http://maps.google.com/maps?q=288 CORNELIA ST,+PLATTSBURGH,+NY+12901&hl=en"
PLATTSBURGH POLICE DEPARTMENT,PLATTSBURGH PD,45 PINE STREET,PLATTSBURGH,NY,12901,"http://maps.google.com/maps?q=45 PINE STREET,+PLATTSBURGH,+NY+12901&hl=en"
POCONO MOUNTAIN REGIONAL POLICE DEPT.,POCONO MOUNTAIN REGIONAL POLICE DEPARTMENT,2454 ROUTE 940,POCONO SUMMIT,PA,18346,"http://maps.google.com/maps?q=2454 ROUTE 940,+POCONO SUMMIT,+PA+18346&hl=en"
POCONO MOUNTAIN REGIONAL POLICE DEPT.,"ST LUKES UNIVERSAL HEALTH NETWORK 
												
													MONROE CAMPUS",100 ST LUKES LN,STROUDSBURG,PA,18360,"http://maps.google.com/maps?q=100 ST LUKES LN,+STROUDSBURG,+PA+18360&hl=en"
PORT JERVIS CITY POLICE DEPARTMENT,PORT JERVIS POLICE DEPARTMENT,20 HAMMOND STREET,PORT JERVIS,NY,12771,"http://maps.google.com/maps?q=20 HAMMOND STREET,+PORT JERVIS,+NY+12771&hl=en"
POTSDAM POLICE DEPARTMENT,KINNEY DRUGS,48 MAPLE STREET,POTSDAM,NY,13699,"http://maps.google.com/maps?q=48 MAPLE STREET,+POTSDAM,+NY+13699&hl=en"
PULASKI POLICE DEPARTMENT,KINNEY DRUGS,3873 ROME ROAD,PULASKI,NY,13142,"http://maps.google.com/maps?q=3873 ROME ROAD,+PULASKI,+NY+13142&hl=en"
PUTNAM COMMUNITIES THAT CARE COALITION,PUTNAM HOSPITAL CENTER,670 STONELEIGH AVE,CARMEL,NY,10512,"http://maps.google.com/maps?q=670 STONELEIGH AVE,+CARMEL,+NY+10512&hl=en"
PUTNAM COUNTY SHERIFF'S OFFICE,PUTNAM HOSPITAL CENTER,670 STONLEIGH AVE,CARMEL,NY,10512,"http://maps.google.com/maps?q=670 STONLEIGH AVE,+CARMEL,+NY+10512&hl=en"
RANDOLPH POLICE DEPARTMENT,ACME SUPERMARKET,690 MILLBROOK AVE,RANDOLPH,NJ,07869,"http://maps.google.com/maps?q=690 MILLBROOK AVE,+RANDOLPH,+NJ+07869&hl=en"
RARITAN TOWNSHIP POLICE DEPARTMENT,RARITAN TOWNSHIP POLICE DEPARTMENT,2 MUNICIPAL DRIVE,FLEMINGTON,NJ,08822,"http://maps.google.com/maps?q=2 MUNICIPAL DRIVE,+FLEMINGTON,+NJ+08822&hl=en"
RENSSELAER  POLICE DEPARTMENT,NORTH END FIRE STATION,2 ST. FRANCIS PLACE,RENSSELAER,NY,12144,"http://maps.google.com/maps?q=2 ST. FRANCIS PLACE,+RENSSELAER,+NY+12144&hl=en"
RICHMOND POLICE DEPARTMENT,RICHMOND POLICE DEPARTMENT,203 BRIDGE STREET,RICHMOND,VT,05477,"http://maps.google.com/maps?q=203 BRIDGE STREET,+RICHMOND,+VT+05477&hl=en"
ROME POLICE DEPARTMENT,POLICE HQ,301 N. JAMES ST.,ROME,NY,13440,"http://maps.google.com/maps?q=301 N. JAMES ST.,+ROME,+NY+13440&hl=en"
ROTTERDAM POLICE DEPARTMENT,ROTTERDAM PD,101 PRINCETOWN ROAD,ROTTERDAM,NY,12306,"http://maps.google.com/maps?q=101 PRINCETOWN ROAD,+ROTTERDAM,+NY+12306&hl=en"
RUTLAND COUNTY SHERIFF'S DEPARTMENT,DIAMOND RUN MALL,46 DIAMOND RUN MALL PLACE,RUTLAND,VT,05701,"http://maps.google.com/maps?q=46 DIAMOND RUN MALL PLACE,+RUTLAND,+VT+05701&hl=en"
SAINT REGIS MOHAWK TRIBAL POLICE DEPT,MOHAWK TRIBAL POLICE DEPARTMENT,545 STATE ROUTE 37,HOGANSBURG,NY,13655,"http://maps.google.com/maps?q=545 STATE ROUTE 37,+HOGANSBURG,+NY+13655&hl=en"
SALISBURY TOWNSHIP POLICE DEPARTMENT,SOUTH MALL,3300 LEHIGH STREET,ALLENTOWN,PA,18103,"http://maps.google.com/maps?q=3300 LEHIGH STREET,+ALLENTOWN,+PA+18103&hl=en"
SARATOGA  POLICE DEPARTMENT,"SARATOGA HOSPITAL 
												
													EMERGENCY DEPT. PARKING LOT",211 CHURCH STREET,SARATOGA SPRINGS,NY,12866,"http://maps.google.com/maps?q=211 CHURCH STREET,+SARATOGA SPRINGS,+NY+12866&hl=en"
SARATOGA  POLICE DEPARTMENT,"SARATOGA POLICE DEPARTMENT 
												
													BEHIND CITY HALL",474 BROADWAY,SARATOGA SPRINGS,NY,12866,"http://maps.google.com/maps?q=474 BROADWAY,+SARATOGA SPRINGS,+NY+12866&hl=en"
SARATOGA COUNTY SHERIFF OFFICE,CLIFTON PARK-HALFMOON EMERGENCY SQUAD,15 CROSSING BLVD.,CLIFTON PARK,NY,12065,"http://maps.google.com/maps?q=15 CROSSING BLVD.,+CLIFTON PARK,+NY+12065&hl=en"
SARATOGA COUNTY SHERIFF OFFICE,MALTA FIRE DEPARTMENT,8 HEMPHILL PLACE,MALTA,NY,12020,"http://maps.google.com/maps?q=8 HEMPHILL PLACE,+MALTA,+NY+12020&hl=en"
SARATOGA COUNTY SHERIFF OFFICE,MOREAU EMERGENCY SQUAD,1583 ROUTE 9,FORT EDWARD,NY,12828,"http://maps.google.com/maps?q=1583 ROUTE 9,+FORT EDWARD,+NY+12828&hl=en"
SCHENECTADY COUNTY SHERIFF'S OFFICE,SCHENECTADY COUNTY SHERIFF'S SUBSTATION,130 PRINCETOWN PLAZA,SCHENECTADY,NY,12306,"http://maps.google.com/maps?q=130 PRINCETOWN PLAZA,+SCHENECTADY,+NY+12306&hl=en"
SCHENECTADY POLICE DEPARTMENT,SCHENECTADY POLICE DEPARTMENT,531 LIBERTY ST.,SCHENECTADY,NY,12305,"http://maps.google.com/maps?q=531 LIBERTY ST.,+SCHENECTADY,+NY+12305&hl=en"
SCHODACK POLICE DEPARTMENT,POLICE DEPARTMENT,1797 COLUMBIA TURNPIKE,CASTLETON,NY,12033,"http://maps.google.com/maps?q=1797 COLUMBIA TURNPIKE,+CASTLETON,+NY+12033&hl=en"
SCHOHARIE COUNTY SHERIFF'S DEPARTMENT,COUNTY EMERGENCY OPERATIONS CENTER,2783 STATE ROUTE 7,COBLESKILL,NY,12043,"http://maps.google.com/maps?q=2783 STATE ROUTE 7,+COBLESKILL,+NY+12043&hl=en"
SCHUYLER COUNTY SHERIFF'S OFFICE,"ODESSA FIRE DEPARTMENT 
												
													28 APRIL 2018",300 EAST MAIN STREET,ODESSA,NY,14869,"http://maps.google.com/maps?q=300 EAST MAIN STREET,+ODESSA,+NY+14869&hl=en"
SCHUYLER COUNTY SHERIFF'S OFFICE,SCHUYLER COUNTY HUMAN SERVICES COMPLEX,323 OWEGO STREET,MONTOUR FALLS,NY,14865,"http://maps.google.com/maps?q=323 OWEGO STREET,+MONTOUR FALLS,+NY+14865&hl=en"
SCHUYLER COUNTY SHERIFF'S OFFICE,"TYRONE FIRE DEPARTMENT 
												
													28 APRIL 2018",3600 STATE RTE 226,TYRONE,NY,14887,"http://maps.google.com/maps?q=3600 STATE RTE 226,+TYRONE,+NY+14887&hl=en"
SCHUYLKILL COUNTY SHERIFF'S OFFICE,ASHLAND POLICE DEPARTMENT,401 SOUTH 18TH STREET,ASHLAND,PA,17921,"http://maps.google.com/maps?q=401 SOUTH 18TH STREET,+ASHLAND,+PA+17921&hl=en"
SCHUYLKILL COUNTY SHERIFF'S OFFICE,BUTLER TOWNSHIP POLICE DEPARTMENT,211 BROAD STREET,ASHLAND,PA,17921,"http://maps.google.com/maps?q=211 BROAD STREET,+ASHLAND,+PA+17921&hl=en"
SCHUYLKILL COUNTY SHERIFF'S OFFICE,CASS TOWNSHIP POLICE DEPARTMENT,1209 VALLEY ROAD,POTTSVILLE,PA,17901,"http://maps.google.com/maps?q=1209 VALLEY ROAD,+POTTSVILLE,+PA+17901&hl=en"
SCHUYLKILL COUNTY SHERIFF'S OFFICE,COALDALE POLICE DEPARTMENT,221-223 3RD STREET,COALDALE,PA,18218,"http://maps.google.com/maps?q=221-223 3RD STREET,+COALDALE,+PA+18218&hl=en"
SCHUYLKILL COUNTY SHERIFF'S OFFICE,FRACKVILLE POLICE DEPARTMENT,42 SOUTH CENTER STREET,FRACKVILLE,PA,17931,"http://maps.google.com/maps?q=42 SOUTH CENTER STREET,+FRACKVILLE,+PA+17931&hl=en"
SCHUYLKILL COUNTY SHERIFF'S OFFICE,GIRARDVILLE POLICE DEPARTMENT,4TH & B. STREET,GIRARDVILLE,PA,17935,"http://maps.google.com/maps?q=4TH & B. STREET,+GIRARDVILLE,+PA+17935&hl=en"
SCHUYLKILL COUNTY SHERIFF'S OFFICE,HEGINS POLICE DEPARTMENT,417 GAP STREET,VALLEY VIEW,PA,17983,"http://maps.google.com/maps?q=417 GAP STREET,+VALLEY VIEW,+PA+17983&hl=en"
SCHUYLKILL COUNTY SHERIFF'S OFFICE,HOMETOWN AUCTION,125 MAHANOY AVE RT 54,TAMAQUA,PA,18252,"http://maps.google.com/maps?q=125 MAHANOY AVE RT 54,+TAMAQUA,+PA+18252&hl=en"
SCHUYLKILL COUNTY SHERIFF'S OFFICE,MAHANOY CITY POLICE DEPARTMENT,239 EAST PINE STREET,MAHANOY CITY,PA,17948,"http://maps.google.com/maps?q=239 EAST PINE STREET,+MAHANOY CITY,+PA+17948&hl=en"
SCHUYLKILL COUNTY SHERIFF'S OFFICE,MINERSVILLE POLICE DEPARTMENT,15 NORTH DELAWARE AVENUE,MINERSVILLE,PA,17954,"http://maps.google.com/maps?q=15 NORTH DELAWARE AVENUE,+MINERSVILLE,+PA+17954&hl=en"
SCHUYLKILL COUNTY SHERIFF'S OFFICE,ORWIGSBURG POLICE DEPARTMENT,209 NORTH WARREN STREET,ORWIGSBURG,PA,17961,"http://maps.google.com/maps?q=209 NORTH WARREN STREET,+ORWIGSBURG,+PA+17961&hl=en"
SCHUYLKILL COUNTY SHERIFF'S OFFICE,PORT CARBON POLICE DEPARTMENT,90 WASHINGTON STREET,PORT CARBON,PA,17965,"http://maps.google.com/maps?q=90 WASHINGTON STREET,+PORT CARBON,+PA+17965&hl=en"
SCHUYLKILL COUNTY SHERIFF'S OFFICE,RUSH TOWNSHIP POLICE DEPT,104 MAHANOY AVE,TAMAQUA,PA,18252,"http://maps.google.com/maps?q=104 MAHANOY AVE,+TAMAQUA,+PA+18252&hl=en"
SCHUYLKILL COUNTY SHERIFF'S OFFICE,SAINT CLAIR POLICE DEPARTMENT,24 NORTH 2ND STREET,SAINT CLAIR,PA,17970,"http://maps.google.com/maps?q=24 NORTH 2ND STREET,+SAINT CLAIR,+PA+17970&hl=en"
SCHUYLKILL COUNTY SHERIFF'S OFFICE,SAINT LUKES MINERS CAMPUS,360 WEST RUDDLE ST,COALDALE,PA,18218,"http://maps.google.com/maps?q=360 WEST RUDDLE ST,+COALDALE,+PA+18218&hl=en"
SCHUYLKILL COUNTY SHERIFF'S OFFICE,"SCHUYLKILL COUNTY COURT HOUSE (SECURITY ENTRANCE) 
												
													SECURITY ENTRANCE",401 NORTH 2ND STREET,POTTSVILLE,PA,17901,"http://maps.google.com/maps?q=401 NORTH 2ND STREET,+POTTSVILLE,+PA+17901&hl=en"
SCHUYLKILL COUNTY SHERIFF'S OFFICE,SCHUYLKILL HAVEN POLICE DEPARTMENT,220 PARKWAY AVENUE,SCHUYLKILL HAVEN,PA,17972,"http://maps.google.com/maps?q=220 PARKWAY AVENUE,+SCHUYLKILL HAVEN,+PA+17972&hl=en"
SCHUYLKILL COUNTY SHERIFF'S OFFICE,SHENANDOAH POLICE DEPARTMENT,15 WEST WASHINGTON STREET,SHENANDOAH,PA,17976,"http://maps.google.com/maps?q=15 WEST WASHINGTON STREET,+SHENANDOAH,+PA+17976&hl=en"
SCHUYLKILL COUNTY SHERIFF'S OFFICE,TAMAQUA POLICE DEPARTMENT,320 BROAD STREET,TAMAQUA,PA,18252,"http://maps.google.com/maps?q=320 BROAD STREET,+TAMAQUA,+PA+18252&hl=en"
SCHUYLKILL COUNTY SHERIFF'S OFFICE,TREMONT POLICE DEPARTMENT,19 NORTH PINE STREET,TREMONT,PA,17981,"http://maps.google.com/maps?q=19 NORTH PINE STREET,+TREMONT,+PA+17981&hl=en"
SCOTIA POLICE DEPARTMENT,SCOTIA POLICE DEPARTMENT,4 NORTH TEN BROECK STREET,SCOTIA,NY,12302,"http://maps.google.com/maps?q=4 NORTH TEN BROECK STREET,+SCOTIA,+NY+12302&hl=en"
SCRANTON POLICE DEPARTMENT,SCRANTON POLICE DEPARTMENT,100 S. WASHINGTON AVENUE,SCRANTON,PA,18503,"http://maps.google.com/maps?q=100 S. WASHINGTON AVENUE,+SCRANTON,+PA+18503&hl=en"
SHAMOKIN POLICE DEPARTMENT,SHAMOKIN POLICE DEPARTMENT,511 NORTH FRANKLIN STREET,SHAMOKIN,PA,17872,"http://maps.google.com/maps?q=511 NORTH FRANKLIN STREET,+SHAMOKIN,+PA+17872&hl=en"
SHELBURNE POLICE DEPARTMENT,SHELBURNE POLICE DEPARTMENT,5420 SHELBURNE ROAD,SHELBURNE,VT,05482,"http://maps.google.com/maps?q=5420 SHELBURNE ROAD,+SHELBURNE,+VT+05482&hl=en"
SHERRILL POLICE DEPARTMENT,"SHERRILL POLICE DEPARTMENT 
												
													POLICE HQ",373 SHERRILL ROAD,SHERRILL,NY,13461,"http://maps.google.com/maps?q=373 SHERRILL ROAD,+SHERRILL,+NY+13461&hl=en"
SIDNEY POLICE DEPARTMENT,SIDNEY POLICE DEPARTMENT,21 LIBERTY STREET,SIDNEY,NY,13838,"http://maps.google.com/maps?q=21 LIBERTY STREET,+SIDNEY,+NY+13838&hl=en"
SOUTH WHITEHALL TWP POLICE DEPT,SOUTH WHITEHALL TWP POLICE DEPT,4444 WALBERT AVENUE,ALLENTOWN,PA,18104,"http://maps.google.com/maps?q=4444 WALBERT AVENUE,+ALLENTOWN,+PA+18104&hl=en"
SPRING VALLEY POLICE,SPRING VALLEY POLICE DEPARTMENT,200 NORTH MAIN STREET,SPRING VALLEY,NY,10977,"http://maps.google.com/maps?q=200 NORTH MAIN STREET,+SPRING VALLEY,+NY+10977&hl=en"
SPRING VALLEY POLICE,WALGREENS,208 E ROUTE 59,SPRING VALLEY,NY,10977,"http://maps.google.com/maps?q=208 E ROUTE 59,+SPRING VALLEY,+NY+10977&hl=en"
ST. ALBANS POLICE DEPARTMENT,KINNEY DRUGS PHARMACY,164 SWANTON ROAD,SAINT ALBANS,VT,05478,"http://maps.google.com/maps?q=164 SWANTON ROAD,+SAINT ALBANS,+VT+05478&hl=en"
ST. LAWRENCE COUNTY SHERIFF'S OFFICE,ST. LAWRENCE COUNTY SHERIFF'S OFFICE,48 COURT STREET,CANTON,NY,13617,"http://maps.google.com/maps?q=48 COURT STREET,+CANTON,+NY+13617&hl=en"
SULLIVAN COUNTY SHERIFF'S OFFICE,SULLIVAN COUNTY SHERIFF'S OFFICE,245 MUNCY ST,LAPORTE,PA,18626,"http://maps.google.com/maps?q=245 MUNCY ST,+LAPORTE,+PA+18626&hl=en"
SUMMIT HILL POLICE DEPARTMENT,SUMMIT HILL POLICE DEPARTMENT,"40 W. AMIDON STREET, SUITE 1",SUMMIT HILL,PA,18250,"http://maps.google.com/maps?q=40 W. AMIDON STREET, SUITE 1,+SUMMIT HILL,+PA+18250&hl=en"
SUNBURY POLICE DEPARTMENT,SUNBURY POLICE DEPARTMENT,440 MARKET STREET,SUNBURY,PA,17801,"http://maps.google.com/maps?q=440 MARKET STREET,+SUNBURY,+PA+17801&hl=en"
SUSQUEHANNA BOROUGH POLICE,SCHNEIDER'S MARKET,171 ERIE BLVDSUITE 1,SUSQUEHANNA,PA,18847,"http://maps.google.com/maps?q=171 ERIE BLVD,+SUSQUEHANNA,+PA+18847&hl=en"
SUSQUEHANNA COUNTY SHERIFF'S OFFICE,SUSQUEHANNA COUNTY COURTHOUSE,31 LAKE AVENUE,MONTROSE,PA,18801,"http://maps.google.com/maps?q=31 LAKE AVENUE,+MONTROSE,+PA+18801&hl=en"
SWANTON VILLAGE POLICE,SWANTON REXALL DRUGS,44 MERCHANTS ROW,SWANTON,VT,05488,"http://maps.google.com/maps?q=44 MERCHANTS ROW,+SWANTON,+VT+05488&hl=en"
SYRACUSE POLICE DEPARTMENT,KINNEY DRUGS,104 LAFAYETTE RD.,SYRACUSE,NY,13205,"http://maps.google.com/maps?q=104 LAFAYETTE RD.,+SYRACUSE,+NY+13205&hl=en"
SYRACUSE POLICE DEPARTMENT,KINNEY DRUGS,2912 JAMES ST,SYRACUSE,NY,13206,"http://maps.google.com/maps?q=2912 JAMES ST,+SYRACUSE,+NY+13206&hl=en"
SYRACUSE POLICE DEPARTMENT,KINNEY DRUGS,406 BUTTERNUT STREET,SYRACUSE,NY,13208,"http://maps.google.com/maps?q=406 BUTTERNUT STREET,+SYRACUSE,+NY+13208&hl=en"
TIOGA COUNTY SHERIFF'S OFFICE,"TIOGA COUNTY SHERIFF'S OFFICE 
												
													TRINITY-CASA OF TIOGA",ACROSS FROM AGWAY6 MCMASTER ST.,OWEGO,NY,13827,"http://maps.google.com/maps?q=ACROSS FROM AGWAY,+OWEGO,+NY+13827&hl=en"
TOMPKINS COUNTY SHERIFF'S OFFICE,SHERIFF'S HQ,779 WARREN ROAD,ITHACA,NY,14850,"http://maps.google.com/maps?q=779 WARREN ROAD,+ITHACA,+NY+14850&hl=en"
TOMPKINS COUNTY SHERIFF'S OFFICE,SLATERVILLE FIRE STATION,2681 SLATERVILLE RD.,SLATERVILLE SPRINGS,NY,14881,"http://maps.google.com/maps?q=2681 SLATERVILLE RD.,+SLATERVILLE SPRINGS,+NY+14881&hl=en"
TOWN OF GLENVILLE,"GLENVILLE MUNICIPAL CENTER 
												
													POLICE ENTRANCE",18 GLENRIDGE RD.,GLENVILLE,NY,12302,"http://maps.google.com/maps?q=18 GLENRIDGE RD.,+GLENVILLE,+NY+12302&hl=en"
TOWN OF NISKAYUNA POLICE DEPARTMENT,NISKAYUNA TOWN HALL,1 NISKAYUNA CIRCLE,NISKAYUNA,NY,12309,"http://maps.google.com/maps?q=1 NISKAYUNA CIRCLE,+NISKAYUNA,+NY+12309&hl=en"
TROY POLICE DEPARTMENT,TROY POLICE DEPARTMENT,55 STATE STREET,TROY,NY,12180,"http://maps.google.com/maps?q=55 STATE STREET,+TROY,+NY+12180&hl=en"
UPPER MACUNGIE POLICE DEPT,UPPER MACUNGIE POLICE DEPT,37 GRIM RD,BREINIGSVILLE,PA,18031,"http://maps.google.com/maps?q=37 GRIM RD,+BREINIGSVILLE,+PA+18031&hl=en"
UPPER SADDLE RIVER POLICE DEPARTMENT,"UPPER SADDLE RIVER POLICE DEPARTMENT 
												
													201-327-2700",368 W. SADDLE RIVER RD.,SADDLE RIVER,NJ,07458,"http://maps.google.com/maps?q=368 W. SADDLE RIVER RD.,+SADDLE RIVER,+NJ+07458&hl=en"
UPPER SAUCON TWP POLICE DEPT,UPPER SAUCON PD,5500 CAMP MEETING RD,CENTER VALLEY,PA,18034,"http://maps.google.com/maps?q=5500 CAMP MEETING RD,+CENTER VALLEY,+PA+18034&hl=en"
UTICA POLICE DEPARTMENT,POLICE HQ,413 ORISKANY ST. W,UTICA,NY,13502,"http://maps.google.com/maps?q=413 ORISKANY ST. W,+UTICA,+NY+13502&hl=en"
VERMONT STATE POLICE,KINNEY DRUGS PHARMACY,155 SOUTH MAIN STREET,CAMBRIDGE,VT,05444,"http://maps.google.com/maps?q=155 SOUTH MAIN STREET,+CAMBRIDGE,+VT+05444&hl=en"
VERMONT STATE POLICE,VERMONT STATE POLICE - NEW HAVEN BARRACKS,2490 ETHAN ALLEN HIGHWAY,NEW HAVEN,VT,05472,"http://maps.google.com/maps?q=2490 ETHAN ALLEN HIGHWAY,+NEW HAVEN,+VT+05472&hl=en"
VERMONT STATE POLICE,VERMONT STATE POLICE - RUTLAND BARRACKS,124 STATE PLACE,RUTLAND,VT,05701,"http://maps.google.com/maps?q=124 STATE PLACE,+RUTLAND,+VT+05701&hl=en"
VERMONT STATE POLICE,VERMONT STATE POLICE - SHAFTSBURY BARRACKS,96 AIRPORT ROAD,SHAFTSBURY,VT,05262,"http://maps.google.com/maps?q=96 AIRPORT ROAD,+SHAFTSBURY,+VT+05262&hl=en"
VILLAGE OF MALONE POLICE DEPARTMENT,KINNEY DRUGS,485 E MAIN STREET,MALONE,NY,12953,"http://maps.google.com/maps?q=485 E MAIN STREET,+MALONE,+NY+12953&hl=en"
VILLAGE OF RHINEBECK POLICE,NORTHERN DUTCHESS HOSPITAL,6511 SPRINGBROOK AVE,RHINEBECK,NY,12572,"http://maps.google.com/maps?q=6511 SPRINGBROOK AVE,+RHINEBECK,+NY+12572&hl=en"
WARREN COUNTY SHERIFF'S OFFICE,WARREN COUNTY SHERIFF'S OFFICE,1400 STATE ROUTE 9,LAKE GEORGE,NY,12845,"http://maps.google.com/maps?q=1400 STATE ROUTE 9,+LAKE GEORGE,+NY+12845&hl=en"
WASHINGTON COUNTY SHERIFF'S OFFICE,WASHINGTON COUNTY LAW ENFORCEMENT CENTER,399 BROADWAY,FORT EDWARD,NY,12828,"http://maps.google.com/maps?q=399 BROADWAY,+FORT EDWARD,+NY+12828&hl=en"
WATERTOWN POLICE DEPARTMENT,KINNEY DRUGS,905 COFFEEN STREET,WATERTOWN,NY,13601,"http://maps.google.com/maps?q=905 COFFEEN STREET,+WATERTOWN,+NY+13601&hl=en"
WATERVLIET POLICE DEPARTMENT,WATERVLIET POLICE DEPARTMENT,2-15TH STREET,WATERVLIET,NY,12189,"http://maps.google.com/maps?q=2-15TH STREET,+WATERVLIET,+NY+12189&hl=en"
WAYNE TWP. POLICE DEPARTMENT,"WAYNE POLICE DEPARTMENT 
												
													973-633-3550",475 VALLEY ROAD,WAYNE,NJ,07470,"http://maps.google.com/maps?q=475 VALLEY ROAD,+WAYNE,+NJ+07470&hl=en"
WELLSBORO POLICE DEPARTMENT,WELLSBORO POLICE DEPARTMENT,28 CRAFTON STREET,WELLSBORO,PA,16901,"http://maps.google.com/maps?q=28 CRAFTON STREET,+WELLSBORO,+PA+16901&hl=en"
WILLIAMSBURG POLICE DEPT,WILLAIMSBURG PHARMACY,49 MAIN ST,WILLIAMSBURG,MA,01096,"http://maps.google.com/maps?q=49 MAIN ST,+WILLIAMSBURG,+MA+01096&hl=en"
WILLISTON POLICE DEPARTMENT,WILLISTON POLICE DEPARTMENT,7928 WILLISTON ROAD,WILLISTON,VT,05495,"http://maps.google.com/maps?q=7928 WILLISTON ROAD,+WILLISTON,+VT+05495&hl=en"
WINDSOR COUNTY SHERIFF'S DEPARTMENT,ROCHESTER CONSTABLE'S OFFICE,67 SCHOOL STREET,ROCHESTER,VT,05767,"http://maps.google.com/maps?q=67 SCHOOL STREET,+ROCHESTER,+VT+05767&hl=en"
WINOOSKI POLICE DEPARTMENT,WINOOSKI POLICE DEPARTMENT,27 WEST ALLEN STREET,WINOOSKI,VT,05404,"http://maps.google.com/maps?q=27 WEST ALLEN STREET,+WINOOSKI,+VT+05404&hl=en"
WRIGHT TOWNSHIP POLICE DEPARTMENT,WRIGHT TOWNSHIP POLICE DEPARTMENT,321 SOUTH MOUNTAIN. BLVD.,MOUNTAIN TOP,PA,18707,"http://maps.google.com/maps?q=321 SOUTH MOUNTAIN. BLVD.,+MOUNTAIN TOP,+PA+18707&hl=en"
WYOMING COUNTY DISTRICT ATTORNEYS OFFIC DETECTIVES,CVS PHARMACY,BUSINESS ROUTE 6 AND SR 29,TUNKHANNOCK,PA,18657,"http://maps.google.com/maps?q=BUSINESS ROUTE 6 AND SR 29,+TUNKHANNOCK,+PA+18657&hl=en"
WYOMING COUNTY DISTRICT ATTORNEYS OFFIC DETECTIVES,LECH'S PHARMACY,SR0006,TUNKHANNOCK,PA,18657,"http://maps.google.com/maps?q=SR0006,+TUNKHANNOCK,+PA+18657&hl=en"
WYOMING COUNTY DISTRICT ATTORNEYS OFFIC DETECTIVES,RITE AID,420 TIOGA PLZ,TUNKHANNOCK,PA,18657,"http://maps.google.com/maps?q=420 TIOGA PLZ,+TUNKHANNOCK,+PA+18657&hl=en"
WYOMING COUNTY SHERIFF'S DEPARTMENT,PERRY POLICE DEPARTMENT,46 NORTH MAIN STREET,PERRY,NY,14530,"http://maps.google.com/maps?q=46 NORTH MAIN STREET,+PERRY,+NY+14530&hl=en"
WYOMING COUNTY SHERIFF'S DEPARTMENT,WYOMING COUNTY SHERIFF'S OFFICE,151 N. MAIN STREET,WARSAW,NY,14569,"http://maps.google.com/maps?q=151 N. MAIN STREET,+WARSAW,+NY+14569&hl=en"
