Participant,CollectionSite,Address,City,State,Zip,MapURL
ACTON PD,ACTON POLICE DEPARTMENT,371 MAIN ST,ACTON,MA,01720,"http://maps.google.com/maps?q=371 MAIN ST,+ACTON,+MA+01720&hl=en"
ALLENSTOWN POLICE DEPARTMENT,ALLENSTOWN POLICE DEPARTMENT,40 ALLENSTOWN ROAD,ALLENSTOWN,NH,03275,"http://maps.google.com/maps?q=40 ALLENSTOWN ROAD,+ALLENSTOWN,+NH+03275&hl=en"
ALSTEAD POLICE DEPARTMENT,ALSTEAD POLICE DEPARTMENT,15 MECHANIC ST,ALSTEAD,NH,03602,"http://maps.google.com/maps?q=15 MECHANIC ST,+ALSTEAD,+NH+03602&hl=en"
AMESBURY PD,"AMESBURY POLICE STATION 
												
													OFFICER THOMAS HANSHAW",19 SCHOOL ST,AMESBURY,MA,01913,"http://maps.google.com/maps?q=19 SCHOOL ST,+AMESBURY,+MA+01913&hl=en"
ANDOVER POLICE DEPARTMENT,"ANDOVER WATER TREATMENT PLANT 
												
													10:00 AM-2:00 PM",397 LOWELL ST,ANDOVER,MA,01810,"http://maps.google.com/maps?q=397 LOWELL ST,+ANDOVER,+MA+01810&hl=en"
ANDOVER POLICE DEPARTMENT,CIRCLE K,718 MAIN ST,ANDOVER,NH,03216,"http://maps.google.com/maps?q=718 MAIN ST,+ANDOVER,+NH+03216&hl=en"
ANDROSCOGGIN SHERIFF'S DEPARTMENT,POLAND TOWN OFFICE COMPLEX,1231 MAINE ST,POLAND,ME,04274,"http://maps.google.com/maps?q=1231 MAINE ST,+POLAND,+ME+04274&hl=en"
ARLINGTON POLICE DEPARTMENT,ARLINGTON POLICE DEPARTMENT,112 MYSTIC STREET,ARLINGTON,MA,02474,"http://maps.google.com/maps?q=112 MYSTIC STREET,+ARLINGTON,+MA+02474&hl=en"
ASHBY PD,ASHBY POLICE DEPARTMENT,893 MAIN ST.,ASHBY,MA,01431,"http://maps.google.com/maps?q=893 MAIN ST.,+ASHBY,+MA+01431&hl=en"
ASHLAND POLICE DEPARTMENT,ASHLAND POLICE,20 HIGHLAND STREET,ASHLAND,NH,03217,"http://maps.google.com/maps?q=20 HIGHLAND STREET,+ASHLAND,+NH+03217&hl=en"
ASHLAND POLICE DEPARTMENT,ASHLAND POLICE DEPARTMENT,137 MAIN STREET,ASHLAND,MA,01721,"http://maps.google.com/maps?q=137 MAIN STREET,+ASHLAND,+MA+01721&hl=en"
AUBURN POLICE DEPARTMENT,"AUBURN POLICE DEPARTMENT 
												
													SAFETY COMPLEX",55 EATON HILL RD,AUBURN,NH,03032,"http://maps.google.com/maps?q=55 EATON HILL RD,+AUBURN,+NH+03032&hl=en"
AYER POLICE DEPARTMENT,WESTFORD PD,53 MAIN STREET,WESTFORD,MA,01886,"http://maps.google.com/maps?q=53 MAIN STREET,+WESTFORD,+MA+01886&hl=en"
BARNSTEAD POLICE DEPARTMENT,BARNSTEAD POLICE DEPARTMENT,119 SOUTH BARNSTEAD ROAD,CENTER BARNSTEAD,NH,03225,"http://maps.google.com/maps?q=119 SOUTH BARNSTEAD ROAD,+CENTER BARNSTEAD,+NH+03225&hl=en"
BARRINGTON POLICE DEPARTMENT,BARRINGTON POLICE DEPARTMENT,774 FRANKLIN PIERCE HWY,BARRINGTON,NH,03825,"http://maps.google.com/maps?q=774 FRANKLIN PIERCE HWY,+BARRINGTON,+NH+03825&hl=en"
BARTLETT POLICE DEPARTMENT,"BARTLETT POLICE DEPARTMENT 
												
													TOWN HALL LOBBY",56 TOWN HALL ROAD,INTERVALE,NH,03845,"http://maps.google.com/maps?q=56 TOWN HALL ROAD,+INTERVALE,+NH+03845&hl=en"
BEDFORD POLICE DEPARTMENT,"BEDFORD SAFETY COMPLEX 
												
													55 CONSTITUTION DR. BEDFORD, NH",55 CONSTITUTION DR.,BEDFORD,NH,03110,"http://maps.google.com/maps?q=55 CONSTITUTION DR.,+BEDFORD,+NH+03110&hl=en"
BELLINGHAM POLICE,"BELLINGHAM POLICE STATION 
												
													TRAINING ROOM",30 BLACKSTONE STREET,BELLINGHAM,MA,02019,"http://maps.google.com/maps?q=30 BLACKSTONE STREET,+BELLINGHAM,+MA+02019&hl=en"
BELMONT PD,BELMONT DEPARTMENT OF PUBLIC WORKS,39 C STREET,BELMONT,MA,02478,"http://maps.google.com/maps?q=39 C STREET,+BELMONT,+MA+02478&hl=en"
BELMONT POLICE DEPARTMENT,BELMONT POLICE STATION,16 FULLER STREET,BELMONT,NH,03220,"http://maps.google.com/maps?q=16 FULLER STREET,+BELMONT,+NH+03220&hl=en"
BENNINGTON POLICE DEPARTMENT,"MANCHESTER VT POLICE DEPARTMENT 
												
													FRONT LOBBY",6041 MAIN STREET,MANCHESTER CENTER,VT,05255,"http://maps.google.com/maps?q=6041 MAIN STREET,+MANCHESTER CENTER,+VT+05255&hl=en"
BENNINGTON POLICE DEPARTMENT,"WINHALL POLICE DEPARTMENT 
												
													FRONT LOBBY",113 VT RT 30,BONDVILLE,VT,05340,"http://maps.google.com/maps?q=113 VT RT 30,+BONDVILLE,+VT+05340&hl=en"
BERLIN POLICE DEPARTMENT,BERLIN POLICE DEPARTMENT,135 GREEN STREET,BERLIN,NH,03570,"http://maps.google.com/maps?q=135 GREEN STREET,+BERLIN,+NH+03570&hl=en"
BERWICK POLICE DEPARTMENT,BERWICK POLICE DEPARTMENT,20 WILSON STREET,BERWICK,ME,03901,"http://maps.google.com/maps?q=20 WILSON STREET,+BERWICK,+ME+03901&hl=en"
BETHLEHEM POLICE DEPARTMENT,BETHLEHEM POLICE DEPARTMENT,2155 MAIN ST,BETHLEHEM,NH,03574,"http://maps.google.com/maps?q=2155 MAIN ST,+BETHLEHEM,+NH+03574&hl=en"
BEVERLY POLICE DEPARTMENT,"NORTH BEVERLY CVS 
												
													PARKING LOT",19 DODGE ST,BEVERLY,MA,01915,"http://maps.google.com/maps?q=19 DODGE ST,+BEVERLY,+MA+01915&hl=en"
BIDDEFORD POLICE DEPARTMENT,BIDDEFORD PUBLIC WORKS,371 HILL ST.,BIDDEFORD,ME,04005,"http://maps.google.com/maps?q=371 HILL ST.,+BIDDEFORD,+ME+04005&hl=en"
BILLERICA POLICE,BILLERICA POLICE,250 BOSTON RD,BILLERICA,MA,01821,"http://maps.google.com/maps?q=250 BOSTON RD,+BILLERICA,+MA+01821&hl=en"
BLACKSTONE POLICE,BLACKSTONE POLICE DEPARTMENT,15 ST. PAUL STREET,BLACKSTONE,MA,01504,"http://maps.google.com/maps?q=15 ST. PAUL STREET,+BLACKSTONE,+MA+01504&hl=en"
BOSCAWEN POLICE DEPARTMENT,BOSCAWEN POLICE DEPARTMENT,116 NORTH MAIN STREET,BOSCAWEN,NH,03303,"http://maps.google.com/maps?q=116 NORTH MAIN STREET,+BOSCAWEN,+NH+03303&hl=en"
BOW POLICE DEPARTMENT,BOW POLICE DEPT.,7 KNOX ROAD,BOW,NH,03304,"http://maps.google.com/maps?q=7 KNOX ROAD,+BOW,+NH+03304&hl=en"
BOXBOROUGH PD,"BOXBOROUGH POLICE DEPARTMENT 
												
													OPEN 24/7",FRONT LOBBY520 MASSACHUSETTS AVENUE,BOXBOROUGH,MA,01719,"http://maps.google.com/maps?q=FRONT LOBBY,+BOXBOROUGH,+MA+01719&hl=en"
BRADFORD POLICE DEPARTMENT,BRADFORD POLICE DEPARTMENT,2217 STATE ROUTE 114,BRADFORD,NH,03221,"http://maps.google.com/maps?q=2217 STATE ROUTE 114,+BRADFORD,+NH+03221&hl=en"
BRENTWOOD POLICE DEPARTMENT,BRENTWOOD POLICE DEPARTMENT,1 DALTON ROAD,BRENTWOOD,NH,03833,"http://maps.google.com/maps?q=1 DALTON ROAD,+BRENTWOOD,+NH+03833&hl=en"
BRIDGTON POLICE DEPARTMENT,BRIDGTON COMMUNITY CENTER,15 DEPOT STREET,BRIDGTON,ME,04009,"http://maps.google.com/maps?q=15 DEPOT STREET,+BRIDGTON,+ME+04009&hl=en"
BRISTOL POLICE DEPARTMENT,BRISTOL POLICE DEPARTMENT,230 LAKE STREETLAKE STREET,BRISTOL,NH,03222,"http://maps.google.com/maps?q=230 LAKE STREET,+BRISTOL,+NH+03222&hl=en"
BRISTOL POLICE DEPARTMENT,BRISTOL POLICE DEPARTMENT,72 MUNSILL AVENUE,BRISTOL,VT,05443,"http://maps.google.com/maps?q=72 MUNSILL AVENUE,+BRISTOL,+VT+05443&hl=en"
BROOKLINE POLICE DEPARTMENT,BROOKLINE SAFETY COMPLEX,3 POST OFFICE DR,BROOKLINE,NH,03033,"http://maps.google.com/maps?q=3 POST OFFICE DR,+BROOKLINE,+NH+03033&hl=en"
BURRILLVILLE POLICE DEPARTMENT,BURRILLVILLE POLICE DEPARTMENT,1477 VICTORY HWY,HARRISVILLE,RI,02830,"http://maps.google.com/maps?q=1477 VICTORY HWY,+HARRISVILLE,+RI+02830&hl=en"
BUXTON POLICE DEPARTMENT,BUXTON POLICE DEPARTMENT,185 PORTLAND ROAD,BUXTON,ME,04093,"http://maps.google.com/maps?q=185 PORTLAND ROAD,+BUXTON,+ME+04093&hl=en"
BUXTON POLICE DEPARTMENT,"RITE AID PHARMACY 
												
													COLLECTION BY BUXTON PD OUTSIDE PHARMACY",226 PARKER FARM ROAD,BUXTON,ME,04093,"http://maps.google.com/maps?q=226 PARKER FARM ROAD,+BUXTON,+ME+04093&hl=en"
CALEDONIA COUNTY SHERIFF DEPT.,CALEDONIA COUNTY SHERIFF DEPT.,1126 MAIN ST SUITE #2,SAINT JOHNSBURY,VT,05819,"http://maps.google.com/maps?q=1126 MAIN ST SUITE #2,+SAINT JOHNSBURY,+VT+05819&hl=en"
CAMBRIDGE POLICE,CAMBRIDGE POLICE DEPARTMENT,125 SIXTH STREET,CAMBRIDGE,MA,02142,"http://maps.google.com/maps?q=125 SIXTH STREET,+CAMBRIDGE,+MA+02142&hl=en"
CANAAN POLICE DEPARTMENT,CANAAN POLICE DEPARTMENT,52 ROUTE 118,CANAAN,NH,03741,"http://maps.google.com/maps?q=52 ROUTE 118,+CANAAN,+NH+03741&hl=en"
CANDIA POLICE DEPARTMENT,CANDIA FIRE DEPARTMENT,11 DEERFIELD RD.,CANDIA,NH,03034,"http://maps.google.com/maps?q=11 DEERFIELD RD.,+CANDIA,+NH+03034&hl=en"
CANTERBURY POLICE DEPARTMENT,CANTERBURY POLICE DEPARTMENT,26 BAPTIST RD,CANTERBURY,NH,03224,"http://maps.google.com/maps?q=26 BAPTIST RD,+CANTERBURY,+NH+03224&hl=en"
CHELMSFORD PD,CHELMSFORD PD,2 OLDE NORTH RD,CHELMSFORD,MA,01824,"http://maps.google.com/maps?q=2 OLDE NORTH RD,+CHELMSFORD,+MA+01824&hl=en"
CHELSEA POLICE DEPARTMENT,CHELSEA POLICE DEPARTMENT,19 PARK STREET,CHELSEA,MA,02150,"http://maps.google.com/maps?q=19 PARK STREET,+CHELSEA,+MA+02150&hl=en"
CHESTER POLICE DEPARTMENT,"CHESTER POLICE DEPARTMENT 
												
													LOBBY",84 CHESTER STREET,CHESTER,NH,03036,"http://maps.google.com/maps?q=84 CHESTER STREET,+CHESTER,+NH+03036&hl=en"
CLAREMONT POLICE DEPARTMENT,"CVS PARKING LOT 
												
													CORNER OF WALL SST & BROAD ST",WALL STBROAD ST,CLAREMONT,NH,03743,"http://maps.google.com/maps?q=WALL ST,+CLAREMONT,+NH+03743&hl=en"
CLARKU,"CLARK UNIVERSITY 
												
													HIGGINS STUDENT CENTER",950 MAIN STREET,WORCESTER,MA,01610,"http://maps.google.com/maps?q=950 MAIN STREET,+WORCESTER,+MA+01610&hl=en"
COLEBROOK POLICE DEPARTMENT,COLEBROOK POLICE DEPARTMENT,17 BRIDGE STREET,COLEBROOK,NH,03576,"http://maps.google.com/maps?q=17 BRIDGE STREET,+COLEBROOK,+NH+03576&hl=en"
CONCORD POLICE DEPARTMENT,CONCORD POLICE DEPARTMENT,35 GREEN STREET,CONCORD,NH,03301,"http://maps.google.com/maps?q=35 GREEN STREET,+CONCORD,+NH+03301&hl=en"
CUMBERLAND COUNTY SHERIFF'S OFFICE,"RAYMOND FIRE DEPARTMENT 
												
													OPERATED BY CUMBERLAND COUNTY SHERIFF'S OFFICE",1443ROOSEVELT TRAIL,RAYMOND,ME,04071,"http://maps.google.com/maps?q=1443,+RAYMOND,+ME+04071&hl=en"
CUMBERLAND COUNTY SHERIFF'S OFFICE,"STANDISH TOWN HALL 
												
													OPERATED BY CUMBERLAND COUNTY SHERIFF'S OFFICE",175 NORTH EAST ROAD,STANDISH,ME,04084,"http://maps.google.com/maps?q=175 NORTH EAST ROAD,+STANDISH,+ME+04084&hl=en"
DANVILLE POLICE DEPARTMENT,DANVILLE POLICE DEPARTMENT,206 MAIN STREET,DANVILLE,NH,03819,"http://maps.google.com/maps?q=206 MAIN STREET,+DANVILLE,+NH+03819&hl=en"
DEDHAM POLICE,DEDHAM POLICE STATION,600 HIGH STREET,DEDHAM,MA,02026,"http://maps.google.com/maps?q=600 HIGH STREET,+DEDHAM,+MA+02026&hl=en"
DEERFIELD POLICE DEPARTMENT,DEERFIELD POLICE DEPARTMENT,8 RAYMOND ROAD,DEERFIELD,NH,03037,"http://maps.google.com/maps?q=8 RAYMOND ROAD,+DEERFIELD,+NH+03037&hl=en"
DERRY POLICE DEPARTMENT,"DERRY POLICE DEPARTMENT 
												
													FRONT PARKING LOT",1 MUNICIPAL DRIVE,DERRY,NH,03038,"http://maps.google.com/maps?q=1 MUNICIPAL DRIVE,+DERRY,+NH+03038&hl=en"
DOVER POLICE DEPARTMENT,DOVER POLICE DEPARTMENT,3 WALPOLE STREET,DOVER,MA,02030,"http://maps.google.com/maps?q=3 WALPOLE STREET,+DOVER,+MA+02030&hl=en"
DOVER POLICE DEPARTMENT,DOVER POLICE DEPARTMENT,46 CHESTNUT ST,DOVER,NH,03820,"http://maps.google.com/maps?q=46 CHESTNUT ST,+DOVER,+NH+03820&hl=en"
DOVER POLICE DEPT.,"DOVER POLICE DEPARTMENT 
												
													CHIEF RANDY JOHNSON",246 ROUTE 100,WEST DOVER,VT,05356,"http://maps.google.com/maps?q=246 ROUTE 100,+WEST DOVER,+VT+05356&hl=en"
DRACUT POLICE DEPARTMENT,DRACUT POLICE DEPARTMENT,110 LOON HILL ROAD,DRACUT,MA,01826,"http://maps.google.com/maps?q=110 LOON HILL ROAD,+DRACUT,+MA+01826&hl=en"
DUBLIN POLICE DEPARTMENT,DUBLIN POLICE DEPARTMENT,1122 MAIN STREET,DUBLIN,NH,03444,"http://maps.google.com/maps?q=1122 MAIN STREET,+DUBLIN,+NH+03444&hl=en"
DUDLEY POLICE DEPARTMENT,DUDLEY POLICE DEPARTMENT,71 WEST MAIN ST,DUDLEY,MA,01571,"http://maps.google.com/maps?q=71 WEST MAIN ST,+DUDLEY,+MA+01571&hl=en"
DUNBARTON POLICE DEPARTMENT,DUNBARTON POLICE DEPARTMENT,18 ROBERT ROGERS ROAD,DUNBARTON,NH,03046,"http://maps.google.com/maps?q=18 ROBERT ROGERS ROAD,+DUNBARTON,+NH+03046&hl=en"
ELIOT POLICE DEPARTMENT,ELIOT POLICE DEPARTMENT,27 DIXON ROAD,ELIOT,ME,03903,"http://maps.google.com/maps?q=27 DIXON ROAD,+ELIOT,+ME+03903&hl=en"
ENFIELD POLICE DEPARTMENT,ENFIELD TRANSFER STATION,39 LOCKEHAVEN ROAD,ENFIELD,NH,03748,"http://maps.google.com/maps?q=39 LOCKEHAVEN ROAD,+ENFIELD,+NH+03748&hl=en"
EPPING POLICE DEPARTMENT,EPPING POLICE DEPARTMENT,37 PLEASANT STREET,EPPING,NH,03042,"http://maps.google.com/maps?q=37 PLEASANT STREET,+EPPING,+NH+03042&hl=en"
EPSOM POLICE DEPARTMENT,EPSOM POLICE DEPARTMENT,980 SUNCOOK VALLEY HWY,EPSOM,NH,03234,"http://maps.google.com/maps?q=980 SUNCOOK VALLEY HWY,+EPSOM,+NH+03234&hl=en"
EVERETT POLICE DEPARTMENT,CITYHALL BOARD OF HEALTH,BROADWAY,EVERETT,MA,02149,"http://maps.google.com/maps?q=BROADWAY,+EVERETT,+MA+02149&hl=en"
EVERETT POLICE DEPARTMENT,EVERETT POLICE DEARTMENT,45 ELM ST,EVERETT,MA,02149,"http://maps.google.com/maps?q=45 ELM ST,+EVERETT,+MA+02149&hl=en"
EXETER POLICE DEPARTMENT,EXETER POLICE DEPARTMENT,20 COURT STREET,EXETER,NH,03833,"http://maps.google.com/maps?q=20 COURT STREET,+EXETER,+NH+03833&hl=en"
FARMINGTON POLICE DEPARTMENT,FARMINGTON POLICE DEPARTMENT,160 MAIN ST,FARMINGTON,NH,03835,"http://maps.google.com/maps?q=160 MAIN ST,+FARMINGTON,+NH+03835&hl=en"
FITZWILLIAM POLICE DEPARTMENT,FITZWILLIAM POLICE DEPARTMENT,6 CHURCH ST.,FITZWILLIAM,NH,03447,"http://maps.google.com/maps?q=6 CHURCH ST.,+FITZWILLIAM,+NH+03447&hl=en"
FRAMINGHAM PD,FRAMINGHAM POLICE DEPARTMENT,1 WILLIAM H. WELCH WAYFRAMINGHAM,FRAMINGHAM,MA,01702,"http://maps.google.com/maps?q=1 WILLIAM H. WELCH WAY,+FRAMINGHAM,+MA+01702&hl=en"
FRANKLIN & TILTON POLICE DEPARTMENT,"FRANKLIN POLICE AND TILTON POLICE 
												
													DRUG TAKE BACK COLLECTION SITE",861 CENTRAL STCVS PARKING LOT,FRANKLIN,NH,03235,"http://maps.google.com/maps?q=861 CENTRAL ST,+FRANKLIN,+NH+03235&hl=en"
FREMONT POLICE DEPARTMENT,FREMONT POLICE DEPARTMENT,425 MAIN STREET,FREMONT,NH,03044,"http://maps.google.com/maps?q=425 MAIN STREET,+FREMONT,+NH+03044&hl=en"
FRYEBURG POLICE DEPARTMENT,"RITE AID PHARMACY 
												
													OUTSIDE PARKING LOT",119 BRIDGTON ROAD AT 5 FRYEBURG PLAZA,FRYEBURG,ME,04037,"http://maps.google.com/maps?q=119 BRIDGTON ROAD AT 5 FRYEBURG PLAZA,+FRYEBURG,+ME+04037&hl=en"
GEORGETOWN POLICE DEPARTMENT,"GEORGETOWN POLICE DEPARTMENT 
												
													POLICE STATION LOBBY 24/7/365",47 CENTRAL ST.,GEORGETOWN,MA,01833,"http://maps.google.com/maps?q=47 CENTRAL ST.,+GEORGETOWN,+MA+01833&hl=en"
GILFORD POLICE DEPARTMENT,CVS  PHARMACY,1371 LAKESHORE ROAD,GILFORD,NH,03249,"http://maps.google.com/maps?q=1371 LAKESHORE ROAD,+GILFORD,+NH+03249&hl=en"
GILMANTON POLICE DEPARTMENT,GILMANTON POLICE / PUBLIC SAFETY BUILDING,297 NH ROUTE 140,GILMANTON,NH,03237,"http://maps.google.com/maps?q=297 NH ROUTE 140,+GILMANTON,+NH+03237&hl=en"
GOFFSTOWN POLICE DEPARTMENT,GOFFSTOWN POLICE DEPARTMENT,326 MAST ROAD,GOFFSTOWN,NH,03045,"http://maps.google.com/maps?q=326 MAST ROAD,+GOFFSTOWN,+NH+03045&hl=en"
GORHAM POLICE DEPARTMENT,GORHAM POLICE DEPARTMENT,20 PARK STREET,GORHAM,NH,03581,"http://maps.google.com/maps?q=20 PARK STREET,+GORHAM,+NH+03581&hl=en"
GORHAM POLICE DEPARTMENT,GORHAM POLICE DEPARTMENT,270 MAIN STREET,GORHAM,ME,04038,"http://maps.google.com/maps?q=270 MAIN STREET,+GORHAM,+ME+04038&hl=en"
GRAFTON POLICE DEPARTMENT,GRAFTON POLICE DEPARTMENT,28 PROVIDENCE ROAD,GRAFTON,MA,01519,"http://maps.google.com/maps?q=28 PROVIDENCE ROAD,+GRAFTON,+MA+01519&hl=en"
GRANTHAM POLICE DEPARTMENT,GRANTHAM POLICE DEPARTMENT,300 ROUTE 10 SOUTH,GRANTHAM,NH,03753,"http://maps.google.com/maps?q=300 ROUTE 10 SOUTH,+GRANTHAM,+NH+03753&hl=en"
GREENFIELD PD,GREENFIELD POLICE DEPARTMENT,321 HIGH STREET,GREENFIELD,MA,01301,"http://maps.google.com/maps?q=321 HIGH STREET,+GREENFIELD,+MA+01301&hl=en"
GROTON PD,GROTON POLICE DEPARTMENT,99 PLEASANT STREET,GROTON,MA,01450,"http://maps.google.com/maps?q=99 PLEASANT STREET,+GROTON,+MA+01450&hl=en"
GROVELAND POLICE DEPARTMENT,"GROVELAND POLICE DEPARTMENT 
												
													SGT.  ERIC C. RYAN",181 MAIN STREETSTATION LOBBY,GROVELAND,MA,01834,"http://maps.google.com/maps?q=181 MAIN STREET,+GROVELAND,+MA+01834&hl=en"
HAMILTON POLICE DEPARTMENT,HAMILTON PUBLIC SAFETY BUILDING,265  BAY ROAD,SOUTH HAMILTON,MA,01982,"http://maps.google.com/maps?q=265  BAY ROAD,+SOUTH HAMILTON,+MA+01982&hl=en"
HAMPSTEAD POLICE DEPARTMENT,HAMPSTEAD POLICE DEPARTMENT,30 VETERANS WAY,HAMPSTEAD,NH,03841,"http://maps.google.com/maps?q=30 VETERANS WAY,+HAMPSTEAD,+NH+03841&hl=en"
HANOVER POLICE DEPARTMENT,"HANOVER POLICE DEPARTMENT 
												
													DRUG TAKE BACK COLLECTION BOX",46 LYME RD,HANOVER,NH,03755,"http://maps.google.com/maps?q=46 LYME RD,+HANOVER,+NH+03755&hl=en"
HARVARD POLICE,"HARVARD PUBLIC SAFETY BUILDING 
												
													HARVARD POLICE",40 AYER ROAD,HARVARD,MA,01451,"http://maps.google.com/maps?q=40 AYER ROAD,+HARVARD,+MA+01451&hl=en"
HAVERHILL POLICE DEPARTMENT,HAVERHILL POLICE DEPARTMENT,2975 DARTMOUTH COLLEGE HIGHWAY,NORTH HAVERHILL,NH,03774,"http://maps.google.com/maps?q=2975 DARTMOUTH COLLEGE HIGHWAY,+NORTH HAVERHILL,+NH+03774&hl=en"
HENNIKER POLICE DEPARTMENT,HENNIKER POLICE DEPARTMENT,340 WESTERN AVENUE,HENNIKER,NH,03242,"http://maps.google.com/maps?q=340 WESTERN AVENUE,+HENNIKER,+NH+03242&hl=en"
HINSDALE POLICE DEPARTMENT,HINSDALE POLICE DEPARTMENT,10 MAIN STREETPO BOX 138,HINSDALE,NH,03451,"http://maps.google.com/maps?q=10 MAIN STREET,+HINSDALE,+NH+03451&hl=en"
HOLDERNESS POLICE DEPARTMENT,HOLDERNESS POLICE DEPARTMENT,926 US ROUTE 3,HOLDERNESS,NH,03245,"http://maps.google.com/maps?q=926 US ROUTE 3,+HOLDERNESS,+NH+03245&hl=en"
HOLLIS POLICE DEPARTMENT,HOLLIS PHARMACY,6 ASH STREET,HOLLIS,NH,03049,"http://maps.google.com/maps?q=6 ASH STREET,+HOLLIS,+NH+03049&hl=en"
HOLLISTON POLICE DEPARTMENT,HOLLISTON POLICE DEPARTMENT,550 WASHINGTON STREET,HOLLISTON,MA,01746,"http://maps.google.com/maps?q=550 WASHINGTON STREET,+HOLLISTON,+MA+01746&hl=en"
HOOKSETT POLICE DEPARTMENT,HOOKSETT POLICE DEPARTMENT,15 LEGENDS DRIVE,HOOKSETT,NH,03106,"http://maps.google.com/maps?q=15 LEGENDS DRIVE,+HOOKSETT,+NH+03106&hl=en"
HOPKINTON POLICE DEPARTMENT,HOPKINTON POLICE DEPARTMENT,1696 HOPKINTON ROAD,HOPKINTON,NH,03229,"http://maps.google.com/maps?q=1696 HOPKINTON ROAD,+HOPKINTON,+NH+03229&hl=en"
IPSWICH POLICE DEPARTMENT,DANVERS POLICE DEPARTMENT,120 ASH STREET,DANVERS,MA,01923,"http://maps.google.com/maps?q=120 ASH STREET,+DANVERS,+MA+01923&hl=en"
JACKSON POLICE DEPARTMENT,JACSKON GRAMMAR SCHOOL,10 BLACK MT. RD.,JACKSON,NH,03846,"http://maps.google.com/maps?q=10 BLACK MT. RD.,+JACKSON,+NH+03846&hl=en"
JAFFREY POLICE DEPARTMENT,JAFFREY POLICE DEPARTMENT,26 MAIN STREET,JAFFREY,NH,03452,"http://maps.google.com/maps?q=26 MAIN STREET,+JAFFREY,+NH+03452&hl=en"
KEENE POLICE DEPARTMENT,KEENE POLICE DEPARTMENT,400 MARLBORO STREET,KEENE,NH,03431,"http://maps.google.com/maps?q=400 MARLBORO STREET,+KEENE,+NH+03431&hl=en"
KENNEBUNK POLICE DEPARTMENT,"HANNAFORD SUPERMARKET 
												
													OPERATED BY KENNUBUNK PD",65 PORTLAND ROAD,KENNEBUNK,ME,04043,"http://maps.google.com/maps?q=65 PORTLAND ROAD,+KENNEBUNK,+ME+04043&hl=en"
KENNEBUNK POLICE DEPARTMENT,"KENNEBUNK POLICE DEPARTMENT 
												
													LOBBY",4 SUMMER STREET,KENNEBUNK,ME,04043,"http://maps.google.com/maps?q=4 SUMMER STREET,+KENNEBUNK,+ME+04043&hl=en"
KENNEBUNKPORT POLICE DEPARTMENT,KENNEBUNKPORT POLICE DEPARTMENT,101 MAIN STREET,KENNEBUNKPORT,ME,04046,"http://maps.google.com/maps?q=101 MAIN STREET,+KENNEBUNKPORT,+ME+04046&hl=en"
KINGSTON POLICE DEPARTMENT,"CARRIAGE TOWNE PLAZA 
												
													IN FRONT OF RITE AID",53 CHURCH ST.,KINGSTON,NH,03848,"http://maps.google.com/maps?q=53 CHURCH ST.,+KINGSTON,+NH+03848&hl=en"
KITTERY POLICE DEPARTMENT,KITTERY POLICE DEPARTMENT,200 ROGERS ROAD,KITTERY,ME,03904,"http://maps.google.com/maps?q=200 ROGERS ROAD,+KITTERY,+ME+03904&hl=en"
LACONIA POLICE DEPARTMENT,LACONIA POLICE DEPARTMENT,126 NEW SALEM ST,LACONIA,NH,03246,"http://maps.google.com/maps?q=126 NEW SALEM ST,+LACONIA,+NH+03246&hl=en"
LAMOILLE COUNTY SHERIFFS DEPT,HARDWICK POLICE DEPT,56 HIGH ST,HARDWICK,VT,05843,"http://maps.google.com/maps?q=56 HIGH ST,+HARDWICK,+VT+05843&hl=en"
LAMOILLE COUNTY SHERIFFS DEPT,KINNEY DRUGS,97 MORRISVILLE PLAZA,MORRISVILLE,VT,05661,"http://maps.google.com/maps?q=97 MORRISVILLE PLAZA,+MORRISVILLE,+VT+05661&hl=en"
LAMOILLE COUNTY SHERIFFS DEPT,LAMOILLE COUNTY SHERIFFS DEPT,162 COMMONWEALTH AVE,HYDE PARK,VT,05655,"http://maps.google.com/maps?q=162 COMMONWEALTH AVE,+HYDE PARK,+VT+05655&hl=en"
LAMOILLE COUNTY SHERIFFS DEPT,STOWE POLICE DEPARTMENT,350 SOUTH MAIN ST,STOWE,VT,05672,"http://maps.google.com/maps?q=350 SOUTH MAIN ST,+STOWE,+VT+05672&hl=en"
LANCASTER POLICE DEPARTMENT,LANCASTER POLICE DEPARTMENT,11 MECHANIC ST,LANCASTER,NH,03584,"http://maps.google.com/maps?q=11 MECHANIC ST,+LANCASTER,+NH+03584&hl=en"
LEBANON POLICE DEPARTMENT,LEBANON PD,36 POVERTY LN.,LEBANON,NH,03766,"http://maps.google.com/maps?q=36 POVERTY LN.,+LEBANON,+NH+03766&hl=en"
LEE POLICE DEPARTMENT,LEE POLICE DEPARTMENT,20 GEORGE BENNETT RD,LEE,NH,03861,"http://maps.google.com/maps?q=20 GEORGE BENNETT RD,+LEE,+NH+03861&hl=en"
LEICESTER POLICE DEPARTMENT,LEICESTER RECYCLING CENTER,200 MANNVILLE STREET,LEICESTER,MA,01524,"http://maps.google.com/maps?q=200 MANNVILLE STREET,+LEICESTER,+MA+01524&hl=en"
LEOMINSTER POLICE DEPARTMENT,LEOMINSTER POLICE DEPARTMENT,29 CHURCH ST,LEOMINSTER,MA,01453,"http://maps.google.com/maps?q=29 CHURCH ST,+LEOMINSTER,+MA+01453&hl=en"
LEVERETT POLICE DEPARTMENT,LEVERETT POLICE DEPARTMENT,95 MONTAGUE ROAD,LEVERETT,MA,01054,"http://maps.google.com/maps?q=95 MONTAGUE ROAD,+LEVERETT,+MA+01054&hl=en"
LINCOLN POLICE DEPARTMENT,LINCOLN POLICE DEPARTMENT,148 MAIN STREET,LINCOLN,NH,03251,"http://maps.google.com/maps?q=148 MAIN STREET,+LINCOLN,+NH+03251&hl=en"
LISBON POLICE DEPARTMENT,LISBON POLICE DEPARTMENT,46 SCHOOL ST.,LISBON,NH,03585,"http://maps.google.com/maps?q=46 SCHOOL ST.,+LISBON,+NH+03585&hl=en"
LITTLETON POLICE DEPARTMENT,LITTLETON POLICE DEPARTMENT,2 KITTRIDGE LANE,LITTLETON,NH,03561,"http://maps.google.com/maps?q=2 KITTRIDGE LANE,+LITTLETON,+NH+03561&hl=en"
LITTLETON POLICE DEPARTMENT,LITTLETON POLICE DEPARTMENT,500 GREAT RD,LITTLETON,MA,01460,"http://maps.google.com/maps?q=500 GREAT RD,+LITTLETON,+MA+01460&hl=en"
LOWELL POLICE DEPARTMENT,"LOWELL GENERAL HOSPITAL, SAINTS CAMPUS 
												
													PAIN MANAGEMENT CENTER",2 HOSPITAL DRIVE,LOWELL,MA,01852,"http://maps.google.com/maps?q=2 HOSPITAL DRIVE,+LOWELL,+MA+01852&hl=en"
LUNENBURG POLICE DEPARTMENT,LUNENBURG POLICE DEPARTMENT,655 MASSACHUSETTS AVE.,LUNENBURG,MA,01462,"http://maps.google.com/maps?q=655 MASSACHUSETTS AVE.,+LUNENBURG,+MA+01462&hl=en"
LYNNFIELD POLICE DEPARTMENT,LYNNFIELD POLICE DEPARTMENT,55 SUMMER ST,LYNNFIELD,MA,01940,"http://maps.google.com/maps?q=55 SUMMER ST,+LYNNFIELD,+MA+01940&hl=en"
MADISON POLICE DEPARTMENT,MADISON POLICE DEPARTMENT,1923 VILLAGE ROAD,MADISON,NH,03849,"http://maps.google.com/maps?q=1923 VILLAGE ROAD,+MADISON,+NH+03849&hl=en"
MAINE STATE POLICE - TROOP B,MAINE STATE POLICE - TROOP B,1 GAME FARM ROAD,GRAY,ME,04039,"http://maps.google.com/maps?q=1 GAME FARM ROAD,+GRAY,+ME+04039&hl=en"
MALDEN POLICE DEPARTMENT,MALDEN POLICE STATION,800 EASTERN AVE,MALDEN,MA,02148,"http://maps.google.com/maps?q=800 EASTERN AVE,+MALDEN,+MA+02148&hl=en"
MANCHESTER POLICE DEPARTMENT,"CATHOLIC MEDICAL CENTER 
												
													195 MCGREGOR STREET PARKING LOT ACROSS FROM MAIN HOSPITAL",100 MCGREGOR STREET,MANCHESTER,NH,03102,"http://maps.google.com/maps?q=100 MCGREGOR STREET,+MANCHESTER,+NH+03102&hl=en"
MANCHESTER POLICE DEPARTMENT,"ELLIOT AT RIVER'S EDGE 
												
													PHARMACY PARKING LOT",185 QUEEN CITY AVENUE,MANCHESTER,NH,03103,"http://maps.google.com/maps?q=185 QUEEN CITY AVENUE,+MANCHESTER,+NH+03103&hl=en"
MANCHESTER POLICE DEPARTMENT,"MANCHESTER, NH POLICE DEPARTMENT",405 VALLEY STREET,MANCHESTER,NH,03103,"http://maps.google.com/maps?q=405 VALLEY STREET,+MANCHESTER,+NH+03103&hl=en"
MARLBOROUGH POLICE DEPARTMENT,"MARLBOROUGH POLICE STATION 
												
													FRONT LOBBY",355 BOLTON ST,MARLBOROUGH,MA,01752,"http://maps.google.com/maps?q=355 BOLTON ST,+MARLBOROUGH,+MA+01752&hl=en"
MASON POLICE DEPARTMENT,MASON POLICE DEPARTMENT,38 DARLING HILL ROAD,MASON,NH,03048,"http://maps.google.com/maps?q=38 DARLING HILL ROAD,+MASON,+NH+03048&hl=en"
MECHANIC FALLS POLICE DEPARTMENT,MECHANIC FALLS POLICE DEPARTMENT,108 LEWISTON STREET,MECHANIC FALLS,ME,04256,"http://maps.google.com/maps?q=108 LEWISTON STREET,+MECHANIC FALLS,+ME+04256&hl=en"
MEDFIELD POLICE DEPARTMENT,"MEDFIELD POLICE DEPARTMENT 
												
													FRONT LOBBY",112 NORTH STREET,MEDFIELD,MA,02052,"http://maps.google.com/maps?q=112 NORTH STREET,+MEDFIELD,+MA+02052&hl=en"
MEDFORD PD,85 GEORGE P HASSETT DRIVE (REAR OF CITY HALL),85 GEORGE P HASSETT DRIVE,MEDFORD,MA,02155,"http://maps.google.com/maps?q=85 GEORGE P HASSETT DRIVE,+MEDFORD,+MA+02155&hl=en"
MELROSE POLICE DEPARTMENT,MELROSE POLICE DEPARTMENT,56 WEST FOSTER ST,MELROSE,MA,02176,"http://maps.google.com/maps?q=56 WEST FOSTER ST,+MELROSE,+MA+02176&hl=en"
MELROSE POLICE DEPARTMENT,"WALGREENS 
												
													RYAN HANLEY MGR 781-665-1329",897 MAIN ST,MELROSE,MA,02176,"http://maps.google.com/maps?q=897 MAIN ST,+MELROSE,+MA+02176&hl=en"
MEREDITH POLICE DEPARTMENT,MEREDITH POLICE DEPARTMENT,400 DANIEL WEBSTER HIGHWAY,MEREDITH,NH,03253,"http://maps.google.com/maps?q=400 DANIEL WEBSTER HIGHWAY,+MEREDITH,+NH+03253&hl=en"
MERRIMAC POLICE DEPARTMENT,MERRIMAC POLICE DEPARTMENT,16 EAST MAIN ST,MERRIMAC,MA,01860,"http://maps.google.com/maps?q=16 EAST MAIN ST,+MERRIMAC,+MA+01860&hl=en"
MERRIMACK POLICE DEPARTMENT,MERRIMACK POLICE DEPARTMENT,31 BABOOSIC LAKE ROAD,MERRIMACK,NH,03054,"http://maps.google.com/maps?q=31 BABOOSIC LAKE ROAD,+MERRIMACK,+NH+03054&hl=en"
METHUEN POLICE DEPARTMENT,METHUEN POLICE DEPARTMENT,90 HAMPSHIRE STREET,METHUEN,MA,01844,"http://maps.google.com/maps?q=90 HAMPSHIRE STREET,+METHUEN,+MA+01844&hl=en"
MIDDLEBURY POLICE DEPARTMENT,MIDDLEBURY POLICE DEPARTMENT,1 LUCIUS SHAW LN.,MIDDLEBURY,VT,05753,"http://maps.google.com/maps?q=1 LUCIUS SHAW LN.,+MIDDLEBURY,+VT+05753&hl=en"
MILFORD POLICE DEPARTMENT,MILFORD POLICE DEPARTMENT,19 GARDEN STREET,MILFORD,NH,03055,"http://maps.google.com/maps?q=19 GARDEN STREET,+MILFORD,+NH+03055&hl=en"
MILTON POLICE DEPARTMENT,MILTON POLICE DEPARTMENT,7 TOWNHOUSE RD,MILTON,NH,03851,"http://maps.google.com/maps?q=7 TOWNHOUSE RD,+MILTON,+NH+03851&hl=en"
MOULTONBOROUGH POLICE DEPARTMENT,MOULTONBOROUGH POLICE DEPARTMENT,1035 WHITTIER HWY,MOULTONBOROUGH,NH,03254,"http://maps.google.com/maps?q=1035 WHITTIER HWY,+MOULTONBOROUGH,+NH+03254&hl=en"
NASHUA POLICE DEPARTMENT,"DEPARTMENT OF PUBLIC WORKS (DPW) 
												
													LOCATED BEHIND CONWAY ICE ARENA",9 RIVERSIDE ST,NASHUA,NH,03062,"http://maps.google.com/maps?q=9 RIVERSIDE ST,+NASHUA,+NH+03062&hl=en"
NATICK POLICE DEPARTMENT,"NATICK POLICE DEPARTMENT 
												
													IN THE REAR",20 EAST CENTRAL ST,NATICK,MA,01760,"http://maps.google.com/maps?q=20 EAST CENTRAL ST,+NATICK,+MA+01760&hl=en"
NEEDHAM POLICE DEPARTMENT,"NEEDHAM TOWN HALL 
												
													DRIVE WAY IN FRONT OF TOWN HALL",1471 HIGHLAND AVE,NEEDHAM,MA,02492,"http://maps.google.com/maps?q=1471 HIGHLAND AVE,+NEEDHAM,+MA+02492&hl=en"
NEW BOSTON POLICE DEPARTMENT,NEW BOSTON POLICE DEPARTMENT,116 OLD COACH ROAD,NEW BOSTON,NH,03070,"http://maps.google.com/maps?q=116 OLD COACH ROAD,+NEW BOSTON,+NH+03070&hl=en"
NEW HAMPTON POLICE DEPARTMENT,NEW HAMPTON POLICE DEPARTMENT,24 INTERVALE DR,NEW HAMPTON,NH,03256,"http://maps.google.com/maps?q=24 INTERVALE DR,+NEW HAMPTON,+NH+03256&hl=en"
NEW LONDON POLICE DEPARTMENT,NEW LONDON POLICE DEPARTMENT,25 SEAMANS ROAD375 MAIN STREET,NEW LONDON,NH,03257,"http://maps.google.com/maps?q=25 SEAMANS ROAD,+NEW LONDON,+NH+03257&hl=en"
NEWBURYPORT POLICE,NEWBURYPORT POLICE,4 GREEN ST,NEWBURYPORT,MA,01950,"http://maps.google.com/maps?q=4 GREEN ST,+NEWBURYPORT,+MA+01950&hl=en"
NEWINGTON POLICE DEPARTMENT,NEWINGTON POLICE,71 FOX POINT RD,NEWINGTON,NH,03801,"http://maps.google.com/maps?q=71 FOX POINT RD,+NEWINGTON,+NH+03801&hl=en"
NEWMARKET POLICE DEPARTMENT,NEWMARKET POLICE DEPARTMENT,70 EXETER STREET,NEWMARKET,NH,03857,"http://maps.google.com/maps?q=70 EXETER STREET,+NEWMARKET,+NH+03857&hl=en"
NEWTON POLICE DEPARTMENT,NEWTON POLICE DEPARTMENT,1321 WASHINGTON ST.,WEST NEWTON,MA,02465,"http://maps.google.com/maps?q=1321 WASHINGTON ST.,+WEST NEWTON,+MA+02465&hl=en"
NEWTON POLICE DEPARTMENT,TRANSFER STATION,4 DUGWAY RD,NEWTON,NH,03858,"http://maps.google.com/maps?q=4 DUGWAY RD,+NEWTON,+NH+03858&hl=en"
NORTH ANDOVER PD,NORTH ANDOVER POLICE DEPARTMENT,1475 OSGOOD STREET,NORTH ANDOVER,MA,01845,"http://maps.google.com/maps?q=1475 OSGOOD STREET,+NORTH ANDOVER,+MA+01845&hl=en"
NORTH BERWICK POLICE DEPARTMENT,"NORTH BERWICK POLICE DEPARTMENT 
												
													CHIEF STEPHEN C. PEASLEY",21 MAIN STREET,NORTH BERWICK,ME,03906,"http://maps.google.com/maps?q=21 MAIN STREET,+NORTH BERWICK,+ME+03906&hl=en"
NORTH HAMPTON POLICE DEPARTMENT,NORTH HAMPTON POLICE DEPARTMENT,233 ATLANTIC AVE,NORTH HAMPTON,NH,03862,"http://maps.google.com/maps?q=233 ATLANTIC AVE,+NORTH HAMPTON,+NH+03862&hl=en"
NORTHBOROUGH POLICE DEPARTMENT,NORTHBOROUGH POLICE DEPARTMENT,211 MAIN ST.,NORTHBOROUGH,MA,01532,"http://maps.google.com/maps?q=211 MAIN ST.,+NORTHBOROUGH,+MA+01532&hl=en"
NORTHBRIDGE POLICE DEPARTMENT,NORTHBRIDGE POLICE DEPARTMENT,1 HOPE STREET,WHITINSVILLE,MA,01588,"http://maps.google.com/maps?q=1 HOPE STREET,+WHITINSVILLE,+MA+01588&hl=en"
NORWAY POLICE DEPARTMENT,"NORWAY POLICE DEPARTMENT 
												
													OFFICER JEFFREY CAMPBELL",19 DANFORTH STREET,NORWAY,ME,04268,"http://maps.google.com/maps?q=19 DANFORTH STREET,+NORWAY,+ME+04268&hl=en"
NOTTINGHAM POLICE DEPARTMENT,NOTTINGHAM POLICE DEPARTMENT,139 STAGE ROAD,NOTTINGHAM,NH,03290,"http://maps.google.com/maps?q=139 STAGE ROAD,+NOTTINGHAM,+NH+03290&hl=en"
OGUNQUIT POLICE DEPARTMENT,OGUNQUIT POLICE DEPARTMENT,20 COTTAGE STREET,OGUNQUIT,ME,03907,"http://maps.google.com/maps?q=20 COTTAGE STREET,+OGUNQUIT,+ME+03907&hl=en"
ORANGE COUNTY SHERIFF'S OFFICE,"FAIRLEE TOWN HALL 
												
													FAIRLEE POLICE DEPATMENT",75 TOWN COMMON ROAD,FAIRLEE,VT,05045,"http://maps.google.com/maps?q=75 TOWN COMMON ROAD,+FAIRLEE,+VT+05045&hl=en"
ORANGE COUNTY SHERIFF'S OFFICE,KINNEY DRUGS,151 VT-12,RANDOLPH,VT,05060,"http://maps.google.com/maps?q=151 VT-12,+RANDOLPH,+VT+05060&hl=en"
ORANGE COUNTY SHERIFF'S OFFICE,KINNEY DRUGS,901 LOWER PLAIN,BRADFORD,VT,05033,"http://maps.google.com/maps?q=901 LOWER PLAIN,+BRADFORD,+VT+05033&hl=en"
ORANGE COUNTY SHERIFF'S OFFICE,ORANGE COUNTY SHERIFF'S DEPARTMENT,11 VT ROUTE 113,CHELSEA,VT,05038,"http://maps.google.com/maps?q=11 VT ROUTE 113,+CHELSEA,+VT+05038&hl=en"
ORLEANS COUNTY SHERIFF'S DEPARTMENT,KINNEY DRUGS PHARMACY,55 SHATTUCK HILL ROAD,NEWPORT,VT,05855,"http://maps.google.com/maps?q=55 SHATTUCK HILL ROAD,+NEWPORT,+VT+05855&hl=en"
OSSIPEE POLICE DEPARTMENT,OSSIPEE POLICE DEPARTMENT,7 DORE STREET,CENTER OSSIPEE,NH,03814,"http://maps.google.com/maps?q=7 DORE STREET,+CENTER OSSIPEE,+NH+03814&hl=en"
OXFORD COUNTY SHERIFF'S OFFICE,OXFORD COUNTY SHERIFF'S OFFICE,26 WESTERN AVENUE,SOUTH PARIS,ME,04281,"http://maps.google.com/maps?q=26 WESTERN AVENUE,+SOUTH PARIS,+ME+04281&hl=en"
OXFORD COUNTY SHERIFF'S OFFICE,"OXFORD COUNTY SHERIFF'S OFFICE 
												
													BETHEL SUB-STATION",18 MAYVILLE ROAD,BETHEL,ME,04217,"http://maps.google.com/maps?q=18 MAYVILLE ROAD,+BETHEL,+ME+04217&hl=en"
OXFORD COUNTY SHERIFF'S OFFICE,"SACOPEE VALLEY HEALTH CENTER 
												
													OPERATED BY OXFORD COUNTY SHERIFF'S OFFICE",70 MAIN STREET,PORTER,ME,04068,"http://maps.google.com/maps?q=70 MAIN STREET,+PORTER,+ME+04068&hl=en"
OXFORD POLICE DEPARTMENT,"OXFORD  POLICE DEPARTMENT 
												
													OXFORD PUBLIC SAFETY BUILDING",701 MAIN ST,OXFORD,ME,04270,"http://maps.google.com/maps?q=701 MAIN ST,+OXFORD,+ME+04270&hl=en"
PARIS POLICE DEPARTMENT,PARIS POLICE DEPARTMENT,35 MARKET SQUARE,SOUTH PARIS,ME,04281,"http://maps.google.com/maps?q=35 MARKET SQUARE,+SOUTH PARIS,+ME+04281&hl=en"
PEABODY POLICE DEPARTMENT,PEABODY POLICE DEPARTMENT,6 ALLEN'S LANE,PEABODY,MA,01960,"http://maps.google.com/maps?q=6 ALLEN'S LANE,+PEABODY,+MA+01960&hl=en"
PELHAM POLICE DEPARTMENT,"PELHAM POLICE DEPT. 
												
													FRONT LOBBY",14 VILLAGE GREEN,PELHAM,NH,03076,"http://maps.google.com/maps?q=14 VILLAGE GREEN,+PELHAM,+NH+03076&hl=en"
PEMBROKE POLICE DEPARTMENT,PEMBROKE POLICE DEPARTMENT,247 PEMBROKE STREET,PEMBROKE,NH,03275,"http://maps.google.com/maps?q=247 PEMBROKE STREET,+PEMBROKE,+NH+03275&hl=en"
PEPPERELL POLICE DEPARTMENT,"PEPPERELL POLICE STATION 
												
													COLLECTION KIOSK IN MAIN LOBBY",59 MAIN STREET,PEPPERELL,MA,01463,"http://maps.google.com/maps?q=59 MAIN STREET,+PEPPERELL,+MA+01463&hl=en"
PETERBOROUGH POLICE DEPARTMENT,"PETERBOROUGH POLICE DEPARTMENT 
												
													CAPT ERNIE BELLETETE",73 GROVE STREET,PETERBOROUGH,NH,03458,"http://maps.google.com/maps?q=73 GROVE STREET,+PETERBOROUGH,+NH+03458&hl=en"
PLAINFIELD POLICE DEPARTMENT,PLAINFIELD POLICE DEPARTMENT,110 MAIN STREET,MERIDEN,NH,03770,"http://maps.google.com/maps?q=110 MAIN STREET,+MERIDEN,+NH+03770&hl=en"
PLAISTOW POLICE DEPARTMENT,RITE AID PHARMACY,31 GARDEN RD,PLAISTOW,NH,03865,"http://maps.google.com/maps?q=31 GARDEN RD,+PLAISTOW,+NH+03865&hl=en"
PLYMOUTH POLICE DEPARTMENT,PLYMOUTH POLICE DEPARTMENT,334 MAIN STREET,PLYMOUTH,NH,03264,"http://maps.google.com/maps?q=334 MAIN STREET,+PLYMOUTH,+NH+03264&hl=en"
PORTSMOUTH POLICE DEPARTMENT,"PORTSMOUTH POLICE DEPARTMENT 
												
													LT MARK NEWPORT/JIM GASKELL",3 JUNKINS AVE,PORTSMOUTH,NH,03801,"http://maps.google.com/maps?q=3 JUNKINS AVE,+PORTSMOUTH,+NH+03801&hl=en"
PUTNAM POLICE DEPT,FARMER'S MARKETPLACE PAVILLION,3 KENNEDY DR,PUTNAM,CT,06260,"http://maps.google.com/maps?q=3 KENNEDY DR,+PUTNAM,+CT+06260&hl=en"
RAYMOND POLICE DEPARTMENT,RAYMOND POLICE DEPARTMENT,1 SCRIBNER RD.,RAYMOND,NH,03077,"http://maps.google.com/maps?q=1 SCRIBNER RD.,+RAYMOND,+NH+03077&hl=en"
RINDGE POLICE DEPARTMENT,RINDGE POLICE DEPARTMENT,158 MAIN ST,RINDGE,NH,03461,"http://maps.google.com/maps?q=158 MAIN ST,+RINDGE,+NH+03461&hl=en"
ROCHESTER POLICE DEPARTMENT,ROCHESTER POLICE DEPARTMENT,23 WAKEFIELD ST,ROCHESTER,NH,03867,"http://maps.google.com/maps?q=23 WAKEFIELD ST,+ROCHESTER,+NH+03867&hl=en"
ROLLINSFORD POLICE DEPARTMENT,ROLLINSFORD POLICE DEPARTMENT,667 MAIN STREET,ROLLINSFORD,NH,03869,"http://maps.google.com/maps?q=667 MAIN STREET,+ROLLINSFORD,+NH+03869&hl=en"
ROWELY POLICE DEPARTMENT,"TOWN HALL ANNEX 
												
													COUNCIL ON AGING",39 CENTRAL STREET,ROWLEY,MA,01969,"http://maps.google.com/maps?q=39 CENTRAL STREET,+ROWLEY,+MA+01969&hl=en"
RUTLAND COUNTY SHERIFF'S DEPARTMENT,DIAMOND RUN MALL,46 DIAMOND RUN MALL PLACE,RUTLAND,VT,05701,"http://maps.google.com/maps?q=46 DIAMOND RUN MALL PLACE,+RUTLAND,+VT+05701&hl=en"
RUTLAND PD,RUTLAND PD,242 MAIN STREET,RUTLAND,MA,01543,"http://maps.google.com/maps?q=242 MAIN STREET,+RUTLAND,+MA+01543&hl=en"
SACO POLICE DEPARTMENT,"SACO COMMUNITY CENTER 
												
													OPERATED BY SACO PD",75 FRANKLIN STREET,SACO,ME,04072,"http://maps.google.com/maps?q=75 FRANKLIN STREET,+SACO,+ME+04072&hl=en"
SACO POLICE DEPARTMENT,"SACO POLICE DEPARTMENT 
												
													MEDICATION COLLECTION BOX IN LOBBY",20 STORER ST,SACO,ME,04072,"http://maps.google.com/maps?q=20 STORER ST,+SACO,+ME+04072&hl=en"
SALEM PD,SALEM POLICE DEPT,95 MARGIN ST,SALEM,MA,01970,"http://maps.google.com/maps?q=95 MARGIN ST,+SALEM,+MA+01970&hl=en"
SALEM POLICE DEPARTMENT,SALEM POLICE DEPARTMENT,9 VETERANS MEMORIAL PARKWAY,SALEM,NH,03079,"http://maps.google.com/maps?q=9 VETERANS MEMORIAL PARKWAY,+SALEM,+NH+03079&hl=en"
SALEM STATE POLICE,SALEM STATE POLICE DEPARTMENT,71 LORING AVENUE,SALEM,MA,01970,"http://maps.google.com/maps?q=71 LORING AVENUE,+SALEM,+MA+01970&hl=en"
SALISBURY POLICE DEPARTMENT,"SALISBURY POLICE DEPARTMENT 
												
													FRONT LOBBY SELF-SERVE COLLECTION BOX",181 BEACH ROAD,SALISBURY,MA,01952,"http://maps.google.com/maps?q=181 BEACH ROAD,+SALISBURY,+MA+01952&hl=en"
SANBORNTON POLICE DEPARTMENT,SANBORNTON POLICE DEPARTMENT,565 SANBORN ROAD,SANBORNTON,NH,03269,"http://maps.google.com/maps?q=565 SANBORN ROAD,+SANBORNTON,+NH+03269&hl=en"
SANDWICH POLICE DEPARTMENT,SANDWICH TRANSFER STATION,465 HOLDERNESS RD,CENTER SANDWICH,NH,03227,"http://maps.google.com/maps?q=465 HOLDERNESS RD,+CENTER SANDWICH,+NH+03227&hl=en"
SANFORD POLICE DEPARTMENT,SANFORD POLICE DEPARTMENT,935 MAIN STREET,SANFORD,ME,04073,"http://maps.google.com/maps?q=935 MAIN STREET,+SANFORD,+ME+04073&hl=en"
SAUGUS POLICE,SAUGUS POLICE DEPARTMENT,27 HAMILTON STREET,SAUGUS,MA,01906,"http://maps.google.com/maps?q=27 HAMILTON STREET,+SAUGUS,+MA+01906&hl=en"
SEABROOK POLICE DEPARTMENT,SEABROOK POLICE DEPARTMENT,7 LIBERTY LANE,SEABROOK,NH,03874,"http://maps.google.com/maps?q=7 LIBERTY LANE,+SEABROOK,+NH+03874&hl=en"
SHREWSBURY POLICE DEPARTMENT,SHREWSBURY SENIOR CENTER,98 MAPLE AVE,SHREWSBURY,MA,01545,"http://maps.google.com/maps?q=98 MAPLE AVE,+SHREWSBURY,+MA+01545&hl=en"
SOMERSWORTH POLICE DEPARTMENT,SOMERSWORTH POLICE DEPT.,12 LILAC LANE,SOMERSWORTH,NH,03878,"http://maps.google.com/maps?q=12 LILAC LANE,+SOMERSWORTH,+NH+03878&hl=en"
SOMERVILLE POLICE DEPARTMENT,SOMERVILLE FIRE DEPARTMENT,6 NEWBURY ST.,SOMERVILLE,MA,02144,"http://maps.google.com/maps?q=6 NEWBURY ST.,+SOMERVILLE,+MA+02144&hl=en"
SOMERVILLE POLICE DEPARTMENT,SOMERVILLE POLICE DEPARTMENT,220 WASHINGTON ST.,SOMERVILLE,MA,02143,"http://maps.google.com/maps?q=220 WASHINGTON ST.,+SOMERVILLE,+MA+02143&hl=en"
SOUTH BERWICK POLICE DEPARTMENT,"COMMUNITY CENTER 
												
													OPERATED BY SOUTH BERWICK PD",71 NORTON STREET,SOUTH BERWICK,ME,03908,"http://maps.google.com/maps?q=71 NORTON STREET,+SOUTH BERWICK,+ME+03908&hl=en"
SOUTHBRIDGE POLICE DEPARTMENT,SOUTHBRIDGE POLICE DEPARTMENT,1 MECHANIC STREET,SOUTHBRIDGE,MA,01550,"http://maps.google.com/maps?q=1 MECHANIC STREET,+SOUTHBRIDGE,+MA+01550&hl=en"
SPENCER POLICE DEPARTMENT,CVS PHARMACY,133 MAIN STREET,SPENCER,MA,01562,"http://maps.google.com/maps?q=133 MAIN STREET,+SPENCER,+MA+01562&hl=en"
ST. JOHNSBURY POLICE DEPARTMENT,ST. JOHNSBURY POLICE DEPARTMENT,1187 MAIN STREETSUITE 1,SAINT JOHNSBURY,VT,05819,"http://maps.google.com/maps?q=1187 MAIN STREET,+SAINT JOHNSBURY,+VT+05819&hl=en"
STONEHAM POLICE DEPT.,"STONEHAM POLICE DEPARTMENT 
												
													MAIN LOBBY",47 CENTRAL STREET,STONEHAM,MA,02180,"http://maps.google.com/maps?q=47 CENTRAL STREET,+STONEHAM,+MA+02180&hl=en"
STRATHAM POLICE DEPARTMENT,"STRATHAM POLICE DEPT. 
												
													FRONT LOBBY",76 PORTSMOUTH AVE.,STRATHAM,NH,03885,"http://maps.google.com/maps?q=76 PORTSMOUTH AVE.,+STRATHAM,+NH+03885&hl=en"
SULLIVAN COUNTY SHERIFF'S OFFICE,"SULLIVAN COUNTY MUNICIPAL COMPLEX 
												
													FRONT ENTRANCE",14 MAIN STREET,NEWPORT,NH,03773,"http://maps.google.com/maps?q=14 MAIN STREET,+NEWPORT,+NH+03773&hl=en"
SUNAPEE POLICE DEPARTMENT,SUNAPEE POLICE DEPARTMENT,9 SARGENT ROAD,SUNAPEE,NH,03782,"http://maps.google.com/maps?q=9 SARGENT ROAD,+SUNAPEE,+NH+03782&hl=en"
TAMWORTH POLICE DEPARTMENT,"TAMWORTH POLICE DEPARTMENT 
												
													LOBBY",100 TAMWORTH RD,TAMWORTH,NH,03886,"http://maps.google.com/maps?q=100 TAMWORTH RD,+TAMWORTH,+NH+03886&hl=en"
TEMPLETON PD,NARRAGANSETT REGIONAL MIDDLE SCHOOL,464 BALDWINVILLE ROAD,TEMPLETON,MA,01468,"http://maps.google.com/maps?q=464 BALDWINVILLE ROAD,+TEMPLETON,+MA+01468&hl=en"
TEWKSBURY POLICE DEPARTMENT,TEWKSBURY POLICE HEADQUARTERS,918 MAIN STREET,TEWKSBURY,MA,01876,"http://maps.google.com/maps?q=918 MAIN STREET,+TEWKSBURY,+MA+01876&hl=en"
THETFORD VT POLICE DEPARTMENT,"THETFORD RECYCLING CENTER 
												
													8:30 AM - NOON",4706 VT ROUTE 113,THETFORD CENTER,VT,05075,"http://maps.google.com/maps?q=4706 VT ROUTE 113,+THETFORD CENTER,+VT+05075&hl=en"
THORNTON POLICE DEPARTMENT,THORNTON POLICE DEPT.,16 MERRILL  ACCESS ROAD,THORNTON,NH,03285,"http://maps.google.com/maps?q=16 MERRILL  ACCESS ROAD,+THORNTON,+NH+03285&hl=en"
TOPSFIELD POLICE DEPARTMENT,TOPSFIELD POLICE DEPARTMENT,210 BOSTON STREET,TOPSFIELD,MA,01983,"http://maps.google.com/maps?q=210 BOSTON STREET,+TOPSFIELD,+MA+01983&hl=en"
TOWNSEND POLICE DEPARTMENT,TOWNSEND POLICE DEPARTMENT,70 BROOKLINE STREET,TOWNSEND,MA,01469,"http://maps.google.com/maps?q=70 BROOKLINE STREET,+TOWNSEND,+MA+01469&hl=en"
TROY POLICE DEPARTMENT,TROY POLICE DEPT,14 CENTRAL SQUARE,TROY,NH,03465,"http://maps.google.com/maps?q=14 CENTRAL SQUARE,+TROY,+NH+03465&hl=en"
TUFTONBORO POLICE DEPARTMENT,TUFTONBORO TRANSFER STATION,20 SARGENTS CROSSING,CENTER TUFTONBORO,NH,03816,"http://maps.google.com/maps?q=20 SARGENTS CROSSING,+CENTER TUFTONBORO,+NH+03816&hl=en"
TYNGSBOROUGH POLICE DEPARTMENT,TYNGSBOROUGH POLICE DEPARTMENT,20 WESTFORD ROAD,TYNGSBOROUGH,MA,01879,"http://maps.google.com/maps?q=20 WESTFORD ROAD,+TYNGSBOROUGH,+MA+01879&hl=en"
UNIVERSITY OF NEW HAMPSHIRE POLICE DEPARTMENT,UNH HEALTH SERVICES CLINIC,4 PETTEE BROOK LN,DURHAM,NH,03824,"http://maps.google.com/maps?q=4 PETTEE BROOK LN,+DURHAM,+NH+03824&hl=en"
UNIVERSITY OF NEW HAMPSHIRE POLICE DEPARTMENT,UNH POLICE DEPARTMENT,18 WATERWORKS RD,DURHAM,NH,03824,"http://maps.google.com/maps?q=18 WATERWORKS RD,+DURHAM,+NH+03824&hl=en"
VERMONT STATE POLICE,VERMONT STATE POLICE - ROYALTON BARRACKS,2011 VT RT 107,BETHEL,VT,05032,"http://maps.google.com/maps?q=2011 VT RT 107,+BETHEL,+VT+05032&hl=en"
VERMONT STATE POLICE,VERMONT STATE POLICE - RUTLAND BARRACKS,124 STATE PLACE,RUTLAND,VT,05701,"http://maps.google.com/maps?q=124 STATE PLACE,+RUTLAND,+VT+05701&hl=en"
VERMONT STATE POLICE,VERMONT STATE POLICE - WESTMINSTER BARRACKS,1330 WESTMINSTER HIGHTS ROAD,PUTNEY,VT,05346,"http://maps.google.com/maps?q=1330 WESTMINSTER HIGHTS ROAD,+PUTNEY,+VT+05346&hl=en"
WAKEFIELD POLICE DEPARTMENT,WAKEFIELD POLICE DEPARTMENT,1 UNION ST,WAKEFIELD,MA,01880,"http://maps.google.com/maps?q=1 UNION ST,+WAKEFIELD,+MA+01880&hl=en"
WAKEFIELD POLICE DEPARTMENT,WAKEFIELD PUBLIC SAFETY BUILDING,2017 WAKEFIELD ROAD,SANBORNVILLE,NH,03872,"http://maps.google.com/maps?q=2017 WAKEFIELD ROAD,+SANBORNVILLE,+NH+03872&hl=en"
WAKEFIELD POLICE DEPARTMENT,WALGREENS PHARMACY,572 MAIN ST,WAKEFIELD,MA,01880,"http://maps.google.com/maps?q=572 MAIN ST,+WAKEFIELD,+MA+01880&hl=en"
WALPOLE POLICE DEPARTMENT,WALPOLE RECYCLE CENTER,207 WHITCOMB ROAD,WALPOLE,NH,03608,"http://maps.google.com/maps?q=207 WHITCOMB ROAD,+WALPOLE,+NH+03608&hl=en"
WALTHAM POLICE DEPT,"WALTHAM POLICE DEPT 
												
													REAR OF THE POLICE STATION",155 LEXINGTON ST.,WALTHAM,MA,02452,"http://maps.google.com/maps?q=155 LEXINGTON ST.,+WALTHAM,+MA+02452&hl=en"
WASHINGTON COUNTY SHERIFF'S DEPARTMENT,BARRE CITY POLICE DEPARTMENT,15 FOURTH STREET,BARRE,VT,05641,"http://maps.google.com/maps?q=15 FOURTH STREET,+BARRE,+VT+05641&hl=en"
WASHINGTON COUNTY SHERIFF'S DEPARTMENT,"KINNEY DRUGS PHARMACY 
												
													BERLIN POLICE DEPARTMENT",800 US ROUTE 302,BARRE,VT,05641,"http://maps.google.com/maps?q=800 US ROUTE 302,+BARRE,+VT+05641&hl=en"
WASHINGTON COUNTY SHERIFF'S DEPARTMENT,MONTPELIER POLICE DEPARTMENT,1 PITKIN COURT,MONTPELIER,VT,05602,"http://maps.google.com/maps?q=1 PITKIN COURT,+MONTPELIER,+VT+05602&hl=en"
WASHINGTON COUNTY SHERIFF'S DEPARTMENT,NORTHFIELD POLICE DEPARTMENT,110 WALL STREET,NORTHFIELD,VT,05663,"http://maps.google.com/maps?q=110 WALL STREET,+NORTHFIELD,+VT+05663&hl=en"
WASHINGTON COUNTY SHERIFF'S DEPARTMENT,VERMONT STATE POLICE - MIDDLESEX BARRACKS,1080 US ROUTE 2,MIDDLESEX,VT,05602,"http://maps.google.com/maps?q=1080 US ROUTE 2,+MIDDLESEX,+VT+05602&hl=en"
WASHINGTON COUNTY SHERIFF'S DEPARTMENT,WASHINGTON COUNTY SHERIFF'S DEPARTMENT,10 ELM STREET,MONTPELIER,VT,05602,"http://maps.google.com/maps?q=10 ELM STREET,+MONTPELIER,+VT+05602&hl=en"
WASHINGTON POLICE DEPARTMENT,WASHINGTON POLICE DEPARTMENT,5 HALFMOON POND RD,WASHINGTON,NH,03280,"http://maps.google.com/maps?q=5 HALFMOON POND RD,+WASHINGTON,+NH+03280&hl=en"
WATERTOWN POLICE DEPARTMENT,WATERTOWN POLICE DEPARTMENT,552 MAIN STREET,WATERTOWN,MA,02472,"http://maps.google.com/maps?q=552 MAIN STREET,+WATERTOWN,+MA+02472&hl=en"
WATERVILLE VALLEY DEPT. OF PUBLIC SAFETY,TOWN OF WATERVILLE VALLEY POLICE DEPARTMENT,14 TAC LN,WATERVILLE VALLEY,NH,03215,"http://maps.google.com/maps?q=14 TAC LN,+WATERVILLE VALLEY,+NH+03215&hl=en"
WEBSTER PD,WEBSTER POLICE DEPT.,357 MAIN ST,WEBSTER,MA,01570,"http://maps.google.com/maps?q=357 MAIN ST,+WEBSTER,+MA+01570&hl=en"
WEBSTER POLICE DEPARTMENT,WEBSTER POLICE DEPARTMENT,851 BATTLE STREET,WEBSTER,NH,03303,"http://maps.google.com/maps?q=851 BATTLE STREET,+WEBSTER,+NH+03303&hl=en"
WELLESLEY POLICE DEPARTMENT,THE WELLESLEY POLICE DEPARTMENT,485 WASHINGTON STREET,WELLESLEY,MA,02482,"http://maps.google.com/maps?q=485 WASHINGTON STREET,+WELLESLEY,+MA+02482&hl=en"
WELLS POLICE DEPARTMENT,"YORK HOSPITAL AT WELLS URGENT CARE 
												
													OPERATED BY WELLS PD",114 SANFORD ROAD,WELLS,ME,04090,"http://maps.google.com/maps?q=114 SANFORD ROAD,+WELLS,+ME+04090&hl=en"
WEST NEWBURY POLICE DEPARTMENT,WEST NEWBURY POLICE DEPARTMENT,401 MAIN STREET,WEST NEWBURY,MA,01985,"http://maps.google.com/maps?q=401 MAIN STREET,+WEST NEWBURY,+MA+01985&hl=en"
WESTBROOK POLICE DEPARTMENT,WESTBROOK POLICE DEPARTMENT,570 MAIN STREET,WESTBROOK,ME,04092,"http://maps.google.com/maps?q=570 MAIN STREET,+WESTBROOK,+ME+04092&hl=en"
WESTFORD PD,WESTFORD POLICE DEPT,53 MAIN ST,WESTFORD,MA,01886,"http://maps.google.com/maps?q=53 MAIN ST,+WESTFORD,+MA+01886&hl=en"
WESTMINSTER POLICE DEPARTMENT,"WESTMINSTER PUBLIC SAFETY BUILDING 
												
													LOBBY - DROP BOX",7 SOUTH ST,WESTMINSTER,MA,01473,"http://maps.google.com/maps?q=7 SOUTH ST,+WESTMINSTER,+MA+01473&hl=en"
WESTWOOD POLICE DEPARTMENT,"WESTWOOD POLICE DEPARTMENT 
												
													CONTACT DET PAUL TOLAND",588 HIGH STREET,WESTWOOD,MA,02090,"http://maps.google.com/maps?q=588 HIGH STREET,+WESTWOOD,+MA+02090&hl=en"
WILMINGTON POLICE,WILMINGTON PUBLIC SAFETY BUILDING,1ADELAIDE ST,WILMINGTON,MA,01887,"http://maps.google.com/maps?q=1ADELAIDE ST,+WILMINGTON,+MA+01887&hl=en"
WILTON POLICE DEPARTMENT,WILTON POLICE DEPARTMENT,7 BURNS HILL ROAD,WILTON,NH,03086,"http://maps.google.com/maps?q=7 BURNS HILL ROAD,+WILTON,+NH+03086&hl=en"
WINCHESTER PD,"WINCHESTER TRANSFER STATION MAIN GATE 
												
													UNDER LARGE TENT",7 MCKAY AVENUE,WINCHESTER,MA,01890,"http://maps.google.com/maps?q=7 MCKAY AVENUE,+WINCHESTER,+MA+01890&hl=en"
WINCHESTER POLICE DEPARTMENT,WINCHESTER POLICE DEPARTMENT,6 PARKER STREET,WINCHESTER,NH,03470,"http://maps.google.com/maps?q=6 PARKER STREET,+WINCHESTER,+NH+03470&hl=en"
WINDHAM COUNTY SHERIFF'S OFFICE,BELLOWS FALLS POLICE DEPARTMENT,170 ROCKINGHAM STREET,BELLOWS FALLS,VT,05101,"http://maps.google.com/maps?q=170 ROCKINGHAM STREET,+BELLOWS FALLS,+VT+05101&hl=en"
WINDHAM COUNTY SHERIFF'S OFFICE,BRATTLEBORO POLICE DEPARTMENT,62 BLACK MOUNTAIN ROAD,BRATTLEBORO,VT,05301,"http://maps.google.com/maps?q=62 BLACK MOUNTAIN ROAD,+BRATTLEBORO,+VT+05301&hl=en"
WINDHAM COUNTY SHERIFF'S OFFICE,DOVER POLICE DEPARTMENT,246 VT RT 100,WEST DOVER,VT,05356,"http://maps.google.com/maps?q=246 VT RT 100,+WEST DOVER,+VT+05356&hl=en"
WINDHAM COUNTY SHERIFF'S OFFICE,WINDHAM COUNT SHERIFF'S OFFICE,11 JAIL STREET,NEWFANE,VT,05345,"http://maps.google.com/maps?q=11 JAIL STREET,+NEWFANE,+VT+05345&hl=en"
WINDHAM NH POLICE DEPARTMENT,WINDHAM POLICE DEPARTMMENT,4 FELLOWS ROAD,WINDHAM,NH,03087,"http://maps.google.com/maps?q=4 FELLOWS ROAD,+WINDHAM,+NH+03087&hl=en"
WINDHAM POLICE DEPARTMENT,WINDHAM PUBLIC SAFETY BUILDING,375 GRAY ROAD,WINDHAM,ME,04062,"http://maps.google.com/maps?q=375 GRAY ROAD,+WINDHAM,+ME+04062&hl=en"
WINDSOR COUNTY SHERIFF'S DEPARTMENT,CHESTER POLICE DEPARTMENT,556 ELM STREET,CHESTER,VT,05143,"http://maps.google.com/maps?q=556 ELM STREET,+CHESTER,+VT+05143&hl=en"
WINDSOR COUNTY SHERIFF'S DEPARTMENT,HARTFORD POLICE DEPARTMENT,812 VA CUTOFF ROAD,WHITE RIVER JUNCTION,VT,05001,"http://maps.google.com/maps?q=812 VA CUTOFF ROAD,+WHITE RIVER JUNCTION,+VT+05001&hl=en"
WINDSOR COUNTY SHERIFF'S DEPARTMENT,LUDLOW POLICE DEPARTMENT,19 WEST HILL ROAD,LUDLOW,VT,05149,"http://maps.google.com/maps?q=19 WEST HILL ROAD,+LUDLOW,+VT+05149&hl=en"
WINDSOR COUNTY SHERIFF'S DEPARTMENT,NORWICH POLICE DEPARTMENT,10 HAZEN STREET,NORWICH,VT,05055,"http://maps.google.com/maps?q=10 HAZEN STREET,+NORWICH,+VT+05055&hl=en"
WINDSOR COUNTY SHERIFF'S DEPARTMENT,ROCHESTER CONSTABLE'S OFFICE,67 SCHOOL STREET,ROCHESTER,VT,05767,"http://maps.google.com/maps?q=67 SCHOOL STREET,+ROCHESTER,+VT+05767&hl=en"
WINDSOR COUNTY SHERIFF'S DEPARTMENT,SPRINGFIELD POLICE DEPARTMENT,201 CLINTON STREET,SPRINGFIELD,VT,05156,"http://maps.google.com/maps?q=201 CLINTON STREET,+SPRINGFIELD,+VT+05156&hl=en"
WINDSOR COUNTY SHERIFF'S DEPARTMENT,"WEATHERSFIELD TRANSFER STATION 
												
													WEATHERSFIELD POLICE DEPARTMENT",5024 VT RT 106,PERKINSVILLE,VT,05151,"http://maps.google.com/maps?q=5024 VT RT 106,+PERKINSVILLE,+VT+05151&hl=en"
WINDSOR COUNTY SHERIFF'S DEPARTMENT,WINDSOR POLICE DEPARTMENT,29 UNION STREET,WINDSOR,VT,05089,"http://maps.google.com/maps?q=29 UNION STREET,+WINDSOR,+VT+05089&hl=en"
WINDSOR COUNTY SHERIFF'S DEPARTMENT,WOODSTOCK POLICE DEPARTMENT,454 WOODSTOCK ROAD,WOODSTOCK,VT,05091,"http://maps.google.com/maps?q=454 WOODSTOCK ROAD,+WOODSTOCK,+VT+05091&hl=en"
WOBURN POLICE DEPARTMENT,"WOBURN POLICE DEPARTMENT 
												
													FRONT LOBBY ENTRANCE",25 HARRISON AVE.,WOBURN,MA,01801,"http://maps.google.com/maps?q=25 HARRISON AVE.,+WOBURN,+MA+01801&hl=en"
WOLFEBORO POLICE DEPARTMENT,WOLFEBORO PD,251 SOUTH MAIN STREET,WOLFEBORO,NH,03894,"http://maps.google.com/maps?q=251 SOUTH MAIN STREET,+WOLFEBORO,+NH+03894&hl=en"
YORK COUNTY SHERIFF'S OFFICE,"GOODWIN MILLS FIRE STATION 
												
													OPERATED BY YORK COUNTY SHERIFF'S OFFICE",481 GOODWIN'S MILL ROAD,LYMAN,ME,04002,"http://maps.google.com/maps?q=481 GOODWIN'S MILL ROAD,+LYMAN,+ME+04002&hl=en"
YORK COUNTY SHERIFF'S OFFICE,"HANNAFORD SUPERMARKET 
												
													OPERATED BY YORK COUNTY SHERIFF'S OFFICE",20 SOKOKIS TRAIL,WATERBORO,ME,04087,"http://maps.google.com/maps?q=20 SOKOKIS TRAIL,+WATERBORO,+ME+04087&hl=en"
YORK COUNTY SHERIFF'S OFFICE,"RITE AID DRUG STORE 
												
													OPERATED BY YORK COUNTY SHERIFF'S OFFICE",151 MAPLE STREET,CORNISH,ME,04020,"http://maps.google.com/maps?q=151 MAPLE STREET,+CORNISH,+ME+04020&hl=en"
YORK POLICE DEPARTMENT,"DEERFIELD PLACE 
												
													OPERATED BY YORK POLICE DEPARTMENT",117 LONG SANDS ROAD,YORK,ME,03909,"http://maps.google.com/maps?q=117 LONG SANDS ROAD,+YORK,+ME+03909&hl=en"
YORK POLICE DEPARTMENT,"HANNAFORD SUPERMARKET 
												
													OPERATED BY YORK POLICE DEPARTMENT",9 HANNAFORD DRIVE,YORK,ME,03909,"http://maps.google.com/maps?q=9 HANNAFORD DRIVE,+YORK,+ME+03909&hl=en"
YORK POLICE DEPARTMENT,"SENTRY HILL ASSISTED LIVING 
												
													OPERATED BY YORK POLICE DEPARTMENT",2 VICTORIA COURT,YORK,ME,03909,"http://maps.google.com/maps?q=2 VICTORIA COURT,+YORK,+ME+03909&hl=en"
YORK POLICE DEPARTMENT,"YORKSHIRE COMMONS 
												
													OPERATED BY YORK POLICE DEPARTMENT",611 YORK STREET,YORK,ME,03909,"http://maps.google.com/maps?q=611 YORK STREET,+YORK,+ME+03909&hl=en"
