Participant,CollectionSite,Address,City,State,Zip,MapURL
ALBANY COUNTY SHERIFF,ALBANY COUNTY SHERIFF,58 VERDA AVENUE,CLARKSVILLE,NY,12041,"http://maps.google.com/maps?q=58 VERDA AVENUE,+CLARKSVILLE,+NY+12041&hl=en"
ALBANY COUNTY SHERIFF,RCS COMMUNITY LIBRARY,95 MAIN ST,RAVENA,NY,12143,"http://maps.google.com/maps?q=95 MAIN ST,+RAVENA,+NY+12143&hl=en"
ALBANY NY POLICE DEPARTMENT,"ALBANY COLLEGE OF PHARMACY 
												
													CAR PORT (DRIVE UP DROP OFF)",106 NEW SCOTLAND AVE.,ALBANY,NY,12208,"http://maps.google.com/maps?q=106 NEW SCOTLAND AVE.,+ALBANY,+NY+12208&hl=en"
ALBANY NY POLICE DEPARTMENT,ALBANY POLICE DEPT. SOUTH STATION,126 ARCH STREET,ALBANY,NY,12202,"http://maps.google.com/maps?q=126 ARCH STREET,+ALBANY,+NY+12202&hl=en"
ALBANY NY POLICE DEPARTMENT,CVS PHARMACY,885 CENTRAL AVE.,ALBANY,NY,12205,"http://maps.google.com/maps?q=885 CENTRAL AVE.,+ALBANY,+NY+12205&hl=en"
ALLENSTOWN POLICE DEPARTMENT,ALLENSTOWN POLICE DEPARTMENT,40 ALLENSTOWN ROAD,ALLENSTOWN,NH,03275,"http://maps.google.com/maps?q=40 ALLENSTOWN ROAD,+ALLENSTOWN,+NH+03275&hl=en"
ALSTEAD POLICE DEPARTMENT,ALSTEAD POLICE DEPARTMENT,15 MECHANIC ST,ALSTEAD,NH,03602,"http://maps.google.com/maps?q=15 MECHANIC ST,+ALSTEAD,+NH+03602&hl=en"
AMHERST POLICE DEPARTMENT,"WILDWOOD ELEMENTARY SCHOOL 
												
													PARKING AREA",71 STRONG STREET,AMHERST,MA,01002,"http://maps.google.com/maps?q=71 STRONG STREET,+AMHERST,+MA+01002&hl=en"
ANDOVER POLICE DEPARTMENT,CIRCLE K,718 MAIN ST,ANDOVER,NH,03216,"http://maps.google.com/maps?q=718 MAIN ST,+ANDOVER,+NH+03216&hl=en"
ANDROSCOGGIN SHERIFF'S DEPARTMENT,POLAND TOWN OFFICE COMPLEX,1231 MAINE ST,POLAND,ME,04274,"http://maps.google.com/maps?q=1231 MAINE ST,+POLAND,+ME+04274&hl=en"
ANDROSCOGGIN SHERIFF'S DEPARTMENT,TURNER FIRE & RESCUE STATION,19 GENERAL TURNER HILL ROAD,TURNER,ME,04282,"http://maps.google.com/maps?q=19 GENERAL TURNER HILL ROAD,+TURNER,+ME+04282&hl=en"
ASHFIELD PD,ASHFIELD PD,412 MAIN STREET,ASHFIELD,MA,01330,"http://maps.google.com/maps?q=412 MAIN STREET,+ASHFIELD,+MA+01330&hl=en"
ASHLAND POLICE DEPARTMENT,ASHLAND POLICE,20 HIGHLAND STREET,ASHLAND,NH,03217,"http://maps.google.com/maps?q=20 HIGHLAND STREET,+ASHLAND,+NH+03217&hl=en"
AUBURN POLICE DEPARTMENT,"AUBURN POLICE DEPARTMENT 
												
													COLLECTION BOX IN LOBBY",60 COURT STREET,AUBURN,ME,04210,"http://maps.google.com/maps?q=60 COURT STREET,+AUBURN,+ME+04210&hl=en"
AUBURN POLICE DEPARTMENT,"BEDARD PHARMACY 
												
													FRONT PARKING LOT",359 MINOT AVE,AUBURN,ME,04210,"http://maps.google.com/maps?q=359 MINOT AVE,+AUBURN,+ME+04210&hl=en"
AVON POLICE DEPARTMENT,AVON SENIOR CENTER,635 WEST AVON ROAD,AVON,CT,06001,"http://maps.google.com/maps?q=635 WEST AVON ROAD,+AVON,+CT+06001&hl=en"
BARNSTEAD POLICE DEPARTMENT,BARNSTEAD POLICE DEPARTMENT,119 SOUTH BARNSTEAD ROAD,CENTER BARNSTEAD,NH,03225,"http://maps.google.com/maps?q=119 SOUTH BARNSTEAD ROAD,+CENTER BARNSTEAD,+NH+03225&hl=en"
BARRINGTON POLICE DEPARTMENT,BARRINGTON PUBLIC SAFETY BUILDING,100 FEDERAL ROAD,BARRINGTON,RI,02806,"http://maps.google.com/maps?q=100 FEDERAL ROAD,+BARRINGTON,+RI+02806&hl=en"
BARTLETT POLICE DEPARTMENT,"BARTLETT POLICE DEPARTMENT 
												
													TOWN HALL LOBBY",56 TOWN HALL ROAD,INTERVALE,NH,03845,"http://maps.google.com/maps?q=56 TOWN HALL ROAD,+INTERVALE,+NH+03845&hl=en"
BELCHERTOWN POLICE DEPARTMENT,BELCHERTOWN CENTER PARKING LOT,3 PARK STREET,BELCHERTOWN,MA,01007,"http://maps.google.com/maps?q=3 PARK STREET,+BELCHERTOWN,+MA+01007&hl=en"
BELLINGHAM POLICE,"BELLINGHAM POLICE STATION 
												
													TRAINING ROOM",30 BLACKSTONE STREET,BELLINGHAM,MA,02019,"http://maps.google.com/maps?q=30 BLACKSTONE STREET,+BELLINGHAM,+MA+02019&hl=en"
BELMONT POLICE DEPARTMENT,BELMONT POLICE STATION,16 FULLER STREET,BELMONT,NH,03220,"http://maps.google.com/maps?q=16 FULLER STREET,+BELMONT,+NH+03220&hl=en"
BENNINGTON POLICE DEPARTMENT,"BENNINGTON COUNTY SHERIFF'S DEPT 
												
													FRONT LOBBY",811 US RT 7 SOUTH,BENNINGTON,VT,05201,"http://maps.google.com/maps?q=811 US RT 7 SOUTH,+BENNINGTON,+VT+05201&hl=en"
BENNINGTON POLICE DEPARTMENT,"BENNINGTON POLICE DEPARTMENT 
												
													FRONT LOBBY",118 SOUTH STREET,BENNINGTON,VT,05201,"http://maps.google.com/maps?q=118 SOUTH STREET,+BENNINGTON,+VT+05201&hl=en"
BENNINGTON POLICE DEPARTMENT,"CVS DRUG STORE 
												
													APRIL 28, 2018 FROM 10AM TO 2PM ONLY",8 KOCHER DRIVE,BENNINGTON,VT,05201,"http://maps.google.com/maps?q=8 KOCHER DRIVE,+BENNINGTON,+VT+05201&hl=en"
BENNINGTON POLICE DEPARTMENT,"MANCHESTER VT POLICE DEPARTMENT 
												
													FRONT LOBBY",6041 MAIN STREET,MANCHESTER CENTER,VT,05255,"http://maps.google.com/maps?q=6041 MAIN STREET,+MANCHESTER CENTER,+VT+05255&hl=en"
BENNINGTON POLICE DEPARTMENT,"SOUTHWESTERN VT MEDICAL CENTER 
												
													FRONT LOBBY",100 HOSPITAL DRIVE,BENNINGTON,VT,05201,"http://maps.google.com/maps?q=100 HOSPITAL DRIVE,+BENNINGTON,+VT+05201&hl=en"
BENNINGTON POLICE DEPARTMENT,"WINHALL POLICE DEPARTMENT 
												
													FRONT LOBBY",113 VT RT 30,BONDVILLE,VT,05340,"http://maps.google.com/maps?q=113 VT RT 30,+BONDVILLE,+VT+05340&hl=en"
BERLIN POLICE DEPARTMENT,BERLIN POLICE DEPARTMENT,135 GREEN STREET,BERLIN,NH,03570,"http://maps.google.com/maps?q=135 GREEN STREET,+BERLIN,+NH+03570&hl=en"
BERLIN POLICE DEPARTMENT,"BERLIN POLICE DEPARTMENT / TOWN HALL 
												
													PARKING CIRCLE FRONT OF TOWN HALL",240 KENSINGTON RD,BERLIN,CT,06037,"http://maps.google.com/maps?q=240 KENSINGTON RD,+BERLIN,+CT+06037&hl=en"
BETHLEHEM POLICE DEPARTMENT,BETHLEHEM POLICE DEPARTMENT,2155 MAIN ST,BETHLEHEM,NH,03574,"http://maps.google.com/maps?q=2155 MAIN ST,+BETHLEHEM,+NH+03574&hl=en"
BETHLEHEM POLICE DEPARTMENT,"BETHLEHEM TOWN PARK 
												
													FRONT PARKING LOT",249 ELM AVE.,DELMAR,NY,12054,"http://maps.google.com/maps?q=249 ELM AVE.,+DELMAR,+NY+12054&hl=en"
BETHLEHEM RESIDENT TROOPER,BETHLEHEM RESIDENT TROOPER'S OFFICE,36 MAIN ST. SOUTH,BETHLEHEM,CT,06751,"http://maps.google.com/maps?q=36 MAIN ST. SOUTH,+BETHLEHEM,+CT+06751&hl=en"
BLACKSTONE POLICE,BLACKSTONE POLICE DEPARTMENT,15 ST. PAUL STREET,BLACKSTONE,MA,01504,"http://maps.google.com/maps?q=15 ST. PAUL STREET,+BLACKSTONE,+MA+01504&hl=en"
BOSCAWEN POLICE DEPARTMENT,BOSCAWEN POLICE DEPARTMENT,116 NORTH MAIN STREET,BOSCAWEN,NH,03303,"http://maps.google.com/maps?q=116 NORTH MAIN STREET,+BOSCAWEN,+NH+03303&hl=en"
BOW POLICE DEPARTMENT,BOW POLICE DEPT.,7 KNOX ROAD,BOW,NH,03304,"http://maps.google.com/maps?q=7 KNOX ROAD,+BOW,+NH+03304&hl=en"
BRADFORD POLICE DEPARTMENT,BRADFORD POLICE DEPARTMENT,2217 STATE ROUTE 114,BRADFORD,NH,03221,"http://maps.google.com/maps?q=2217 STATE ROUTE 114,+BRADFORD,+NH+03221&hl=en"
BRANFORD POLICE DEPARTMENT,BRANFORD POLICE DEPARTMENT,33 LAUREL STREET,BRANFORD,CT,06405,"http://maps.google.com/maps?q=33 LAUREL STREET,+BRANFORD,+CT+06405&hl=en"
BRIDGTON POLICE DEPARTMENT,BRIDGTON COMMUNITY CENTER,15 DEPOT STREET,BRIDGTON,ME,04009,"http://maps.google.com/maps?q=15 DEPOT STREET,+BRIDGTON,+ME+04009&hl=en"
BRISTOL POLICE DEPARTMENT,BRISTOL POLICE DEPARTMENT,230 LAKE STREETLAKE STREET,BRISTOL,NH,03222,"http://maps.google.com/maps?q=230 LAKE STREET,+BRISTOL,+NH+03222&hl=en"
BRISTOL POLICE DEPARTMENT,BRISTOL POLICE DEPARTMENT,72 MUNSILL AVENUE,BRISTOL,VT,05443,"http://maps.google.com/maps?q=72 MUNSILL AVENUE,+BRISTOL,+VT+05443&hl=en"
BRISTOL POLICE DEPARTMENT,"BRISTOL WATER DEPARTMENT 
												
													FRONT LOBBY : ONLY UNTIL 1:00 PM",119 RIVERSIDE AVENUE,BRISTOL,CT,06010,"http://maps.google.com/maps?q=119 RIVERSIDE AVENUE,+BRISTOL,+CT+06010&hl=en"
BROOKFIELD POLICE DEPARTMENT,BROOKFIELD POLICE DEPARTMENT,63 SILVERMINE ROAD,BROOKFIELD,CT,06804,"http://maps.google.com/maps?q=63 SILVERMINE ROAD,+BROOKFIELD,+CT+06804&hl=en"
BURLINGTON POLICE DEPARTMENT,"BURLINGTON POLICE DEPARTMENT 
												
													NORTH LOBBY",1 NORTH AVE,BURLINGTON,VT,05401,"http://maps.google.com/maps?q=1 NORTH AVE,+BURLINGTON,+VT+05401&hl=en"
BURRILLVILLE POLICE DEPARTMENT,BURRILLVILLE POLICE DEPARTMENT,1477 VICTORY HWY,HARRISVILLE,RI,02830,"http://maps.google.com/maps?q=1477 VICTORY HWY,+HARRISVILLE,+RI+02830&hl=en"
CAIRO POLICE DEPARTMENT,CVS PHARMACY,7600 ROUTE 32,CAIRO,NY,12413,"http://maps.google.com/maps?q=7600 ROUTE 32,+CAIRO,+NY+12413&hl=en"
CAIRO POLICE DEPARTMENT,CVS PHARMACY,7600 SR 32 CAIRO,CAIRO,NY,12413,"http://maps.google.com/maps?q=7600 SR 32 CAIRO,+CAIRO,+NY+12413&hl=en"
CALEDONIA COUNTY SHERIFF DEPT.,CALEDONIA COUNTY SHERIFF DEPT.,1126 MAIN ST SUITE #2,SAINT JOHNSBURY,VT,05819,"http://maps.google.com/maps?q=1126 MAIN ST SUITE #2,+SAINT JOHNSBURY,+VT+05819&hl=en"
CANAAN POLICE DEPARTMENT,CANAAN POLICE DEPARTMENT,52 ROUTE 118,CANAAN,NH,03741,"http://maps.google.com/maps?q=52 ROUTE 118,+CANAAN,+NH+03741&hl=en"
CANTERBURY POLICE DEPARTMENT,CANTERBURY POLICE DEPARTMENT,26 BAPTIST RD,CANTERBURY,NH,03224,"http://maps.google.com/maps?q=26 BAPTIST RD,+CANTERBURY,+NH+03224&hl=en"
CASTLETON POLICE DEPARTMENT,CASTLETON POLICE DEPARTMENT,263 VT ROUTE 30,CASTLETON,VT,05735,"http://maps.google.com/maps?q=263 VT ROUTE 30,+CASTLETON,+VT+05735&hl=en"
CENTRAL FALLS POLICE,CENTRAL FALLS POLICE,160 ILLINOIS STREET,CENTRAL FALLS,RI,02863,"http://maps.google.com/maps?q=160 ILLINOIS STREET,+CENTRAL FALLS,+RI+02863&hl=en"
CHESHIRE PD,"CHESHIRE POLICE DEPARTMENT 
												
													(LOBBY)",CHESHIRE POLICE DEPARTMENT500 HIGHLAND AVENUE,CHESHIRE,CT,06410,"http://maps.google.com/maps?q=CHESHIRE POLICE DEPARTMENT,+CHESHIRE,+CT+06410&hl=en"
CHITTENDEN COUNTY SHERIFF'S DEPARTMENT,PRICE CHOPPER PARKING LOT,595 SHELBURNE ROAD,BURLINGTON,VT,05401,"http://maps.google.com/maps?q=595 SHELBURNE ROAD,+BURLINGTON,+VT+05401&hl=en"
CITY OF PROVIDENCE,THE MIRIAM HOSPITAL,164 SUMMIT AVE,PROVIDENCE,RI,02906,"http://maps.google.com/maps?q=164 SUMMIT AVE,+PROVIDENCE,+RI+02906&hl=en"
CITY OF PROVIDENCE,WALGREENS PHARMACY,1 POCASSET AVE,PROVIDENCE,RI,02909,"http://maps.google.com/maps?q=1 POCASSET AVE,+PROVIDENCE,+RI+02909&hl=en"
CITY OF PROVIDENCE,WALGREENS PHARMACY,533 ELMWOOD AVE,PROVIDENCE,RI,02907,"http://maps.google.com/maps?q=533 ELMWOOD AVE,+PROVIDENCE,+RI+02907&hl=en"
CLAREMONT POLICE DEPARTMENT,"CVS PARKING LOT 
												
													CORNER OF WALL SST & BROAD ST",WALL STBROAD ST,CLAREMONT,NH,03743,"http://maps.google.com/maps?q=WALL ST,+CLAREMONT,+NH+03743&hl=en"
CLARKU,"CLARK UNIVERSITY 
												
													HIGGINS STUDENT CENTER",950 MAIN STREET,WORCESTER,MA,01610,"http://maps.google.com/maps?q=950 MAIN STREET,+WORCESTER,+MA+01610&hl=en"
CLINTON COUNTY SHERIFFS OFFICE,ROUSES POINT FIRE STATION,48 LAKE STREET,ROUSES POINT,NY,12979,"http://maps.google.com/maps?q=48 LAKE STREET,+ROUSES POINT,+NY+12979&hl=en"
CLINTON POLICE DEPT,SHOP RITE,266 E MAIN ST.,CLINTON,CT,06413,"http://maps.google.com/maps?q=266 E MAIN ST.,+CLINTON,+CT+06413&hl=en"
COLEBROOK POLICE DEPARTMENT,COLEBROOK POLICE DEPARTMENT,17 BRIDGE STREET,COLEBROOK,NH,03576,"http://maps.google.com/maps?q=17 BRIDGE STREET,+COLEBROOK,+NH+03576&hl=en"
COLONIE POLICE DEPARTMENT,"THE CROSSINGS OF COLONIE PARK 
												
													TOWN OF COLONIE",580 ALBANY SHAKER ROAD,LOUDONVILLE,NY,12211,"http://maps.google.com/maps?q=580 ALBANY SHAKER ROAD,+LOUDONVILLE,+NY+12211&hl=en"
CONCORD POLICE DEPARTMENT,CONCORD POLICE DEPARTMENT,35 GREEN STREET,CONCORD,NH,03301,"http://maps.google.com/maps?q=35 GREEN STREET,+CONCORD,+NH+03301&hl=en"
CONNECTICUT STATE POLICE - BETHANY,"CSP BETHANY 
												
													SGT. BRENT AIKEN #189",631 AMITY RD,BETHANY,CT,06524,"http://maps.google.com/maps?q=631 AMITY RD,+BETHANY,+CT+06524&hl=en"
CONNECTICUT STATE POLICE TROOP E,GRISWOLD TOWN HALL,28 MAIN STREET,JEWETT CITY,CT,06351,"http://maps.google.com/maps?q=28 MAIN STREET,+JEWETT CITY,+CT+06351&hl=en"
COXSACKIE POLICE DEPARTMENT,COXSACKIE POLICE DEPARTMENT,119 MANSION STREET,COXSACKIE,NY,12051,"http://maps.google.com/maps?q=119 MANSION STREET,+COXSACKIE,+NY+12051&hl=en"
CRANSTON POLICE DEPT.,CRANSTON POLICE STATION,5 GARFIELD AVE,CRANSTON,RI,02920,"http://maps.google.com/maps?q=5 GARFIELD AVE,+CRANSTON,+RI+02920&hl=en"
CROMWELL POLICE DEPARTMENT,CROMWELL POLICE DEPARTMENT LOBBY,5 WEST STREET,CROMWELL,CT,06416,"http://maps.google.com/maps?q=5 WEST STREET,+CROMWELL,+CT+06416&hl=en"
CROTON ON HUDSON POLICE,CROTON COMMONS SHOPPING PLAZA,177 SOUTH RIVERSIDE AVENUE,CROTON ON HUDSON,NY,10520,"http://maps.google.com/maps?q=177 SOUTH RIVERSIDE AVENUE,+CROTON ON HUDSON,+NY+10520&hl=en"
CT STATE POLICE - TROOP B,"CSP - TROOP B BARRACKS 
												
													FRONT ENTRANCE",463 ASHLEY FALLS RD.,NORTH CANAAN,CT,06018,"http://maps.google.com/maps?q=463 ASHLEY FALLS RD.,+NORTH CANAAN,+CT+06018&hl=en"
CT STATE POLICE - TROOP B,"NEW HARTFORD RESIDENT TROOPER OFFICE 
												
													REAR OF TOWN HALL BUILDING",530 MAIN STREET,NEW HARTFORD,CT,06057,"http://maps.google.com/maps?q=530 MAIN STREET,+NEW HARTFORD,+CT+06057&hl=en"
CUMBERLAND COUNTY SHERIFF'S OFFICE,"RAYMOND FIRE DEPARTMENT 
												
													OPERATED BY CUMBERLAND COUNTY SHERIFF'S OFFICE",1443ROOSEVELT TRAIL,RAYMOND,ME,04071,"http://maps.google.com/maps?q=1443,+RAYMOND,+ME+04071&hl=en"
CUMBERLAND COUNTY SHERIFF'S OFFICE,"STANDISH TOWN HALL 
												
													OPERATED BY CUMBERLAND COUNTY SHERIFF'S OFFICE",175 NORTH EAST ROAD,STANDISH,ME,04084,"http://maps.google.com/maps?q=175 NORTH EAST ROAD,+STANDISH,+ME+04084&hl=en"
CUMBERLAND POLICE,CUMBERLAND POLICE STATION,1380 DIAMOND HILL ROAD,CUMBERLAND,RI,02864,"http://maps.google.com/maps?q=1380 DIAMOND HILL ROAD,+CUMBERLAND,+RI+02864&hl=en"
CUMMINGTON POLICE,"CUMMINGTON POLICE DEPARTMENT 
												
													CUMMINGTON PUBLIC SAFETY COMPLEX",8 FAIRGROUNDS ROADBOX 98,CUMMINGTON,MA,01026,"http://maps.google.com/maps?q=8 FAIRGROUNDS ROAD,+CUMMINGTON,+MA+01026&hl=en"
DANBURY POLICE DEPARTMENT,DANBURY POLICE DEPARTMENT,375 MAIN STREET,DANBURY,CT,06810,"http://maps.google.com/maps?q=375 MAIN STREET,+DANBURY,+CT+06810&hl=en"
DEERFIELD PD,DEERFIELD POLICE DEPARTMENT,8 CONWAY STREET,SOUTH DEERFIELD,MA,01373,"http://maps.google.com/maps?q=8 CONWAY STREET,+SOUTH DEERFIELD,+MA+01373&hl=en"
DIXFIELD POLICE DEPARTMENT,DIXFIELD POLICE DEPARTMENT,236 MAIN STREET,DIXFIELD,ME,04224,"http://maps.google.com/maps?q=236 MAIN STREET,+DIXFIELD,+ME+04224&hl=en"
DOVER POLICE DEPT.,"DOVER POLICE DEPARTMENT 
												
													CHIEF RANDY JOHNSON",246 ROUTE 100,WEST DOVER,VT,05356,"http://maps.google.com/maps?q=246 ROUTE 100,+WEST DOVER,+VT+05356&hl=en"
DUBLIN POLICE DEPARTMENT,DUBLIN POLICE DEPARTMENT,1122 MAIN STREET,DUBLIN,NH,03444,"http://maps.google.com/maps?q=1122 MAIN STREET,+DUBLIN,+NH+03444&hl=en"
DUDLEY POLICE DEPARTMENT,DUDLEY POLICE DEPARTMENT,71 WEST MAIN ST,DUDLEY,MA,01571,"http://maps.google.com/maps?q=71 WEST MAIN ST,+DUDLEY,+MA+01571&hl=en"
DUNBARTON POLICE DEPARTMENT,DUNBARTON POLICE DEPARTMENT,18 ROBERT ROGERS ROAD,DUNBARTON,NH,03046,"http://maps.google.com/maps?q=18 ROBERT ROGERS ROAD,+DUNBARTON,+NH+03046&hl=en"
DURHAM POLICE DEPARTMENT,DURHAM RESIDENT STATE TROOPERS OFFICE,24 TOWN HOUSE ROAD,DURHAM,CT,06422,"http://maps.google.com/maps?q=24 TOWN HOUSE ROAD,+DURHAM,+CT+06422&hl=en"
DUTCHESS COUNTY SHERIFF'S OFFICE,VASSAR BROTHERS MEDICAL HOSPITAL,45 READE PLACE,POUGHKEEPSIE,NY,12601,"http://maps.google.com/maps?q=45 READE PLACE,+POUGHKEEPSIE,+NY+12601&hl=en"
EAST GREENBUSH POLICE DEPARTMENT,EAST GREENBUSH POLICE DEPARTMENT,225 COLUMBIA TURNPIKE,RENSSELAER,NY,12144,"http://maps.google.com/maps?q=225 COLUMBIA TURNPIKE,+RENSSELAER,+NY+12144&hl=en"
EAST HADDAM POLICE DEPT/RESIDENT TROOPER,EAST HADDAM POLICE DEPT/RESIDENT TROOPER,1 PLAINS ROAD,MOODUS,CT,06469,"http://maps.google.com/maps?q=1 PLAINS ROAD,+MOODUS,+CT+06469&hl=en"
EAST HAMPTON POLICE DEPARTMENT,EAST HAMPTON POLICE DEPARTMENT,20 EAST HIGH STREET,EAST HAMPTON,CT,06424,"http://maps.google.com/maps?q=20 EAST HIGH STREET,+EAST HAMPTON,+CT+06424&hl=en"
EAST HARTFORD POLICE,"EAST HARTFORD POLICE HEADQUARTERS 
												
													EAST HARTFORD PUBLIC SAFETY COMPLEX",31 SCHOOL STREET,EAST HARTFORD,CT,06108,"http://maps.google.com/maps?q=31 SCHOOL STREET,+EAST HARTFORD,+CT+06108&hl=en"
EAST LONGMEADOW POLICE DEPARTMENT,EAST LONGMEADOW POLICE DEPARTMENT,160 SOMERS RD,EAST LONGMEADOW,MA,01028,"http://maps.google.com/maps?q=160 SOMERS RD,+EAST LONGMEADOW,+MA+01028&hl=en"
EAST PROVIDENCE POLICE DEPARTMENT,EAST PROVIDENCE POLICE,750 WATERMAN AVENUE,EAST PROVIDENCE,RI,02914,"http://maps.google.com/maps?q=750 WATERMAN AVENUE,+EAST PROVIDENCE,+RI+02914&hl=en"
EASTHAMPTON POLICE DEPARTMENT,EASTHAMPTON PUBLIC SAFETY COMPLEX,32 PAYSON AVENUE,EASTHAMPTON,MA,01027,"http://maps.google.com/maps?q=32 PAYSON AVENUE,+EASTHAMPTON,+MA+01027&hl=en"
EASTON POLICE DEPARTMENT,EASTON PUBLIC LIBRARY,691 MOREHOUSE ROAD,EASTON,CT,06612,"http://maps.google.com/maps?q=691 MOREHOUSE ROAD,+EASTON,+CT+06612&hl=en"
ELLINGTON RESIDENT TROOPERS OFFICE,ELLINGTON RESIDENT TROOPERS OFFICE,33 ARBOR WAY,ELLINGTON,CT,06029,"http://maps.google.com/maps?q=33 ARBOR WAY,+ELLINGTON,+CT+06029&hl=en"
ENFIELD POLICE DEPARTMENT,ENFIELD POLICE DEPARTMENT,293 ELM ST.,ENFIELD,CT,06082,"http://maps.google.com/maps?q=293 ELM ST.,+ENFIELD,+CT+06082&hl=en"
ENFIELD POLICE DEPARTMENT,ENFIELD TRANSFER STATION,39 LOCKEHAVEN ROAD,ENFIELD,NH,03748,"http://maps.google.com/maps?q=39 LOCKEHAVEN ROAD,+ENFIELD,+NH+03748&hl=en"
ESSEX COUNTY SHERIFF,ESSEX COUNTY SHERIFF'S OFFICE,702 STOWERSVILLE RD.,LEWIS,NY,12950,"http://maps.google.com/maps?q=702 STOWERSVILLE RD.,+LEWIS,+NY+12950&hl=en"
ESSEX POLICE DEPARTMENT,ESSEX POLICE DEPARTMENT,145 MAPLE STREET,ESSEX JUNCTION,VT,05452,"http://maps.google.com/maps?q=145 MAPLE STREET,+ESSEX JUNCTION,+VT+05452&hl=en"
ESSEX POLICE DEPARTMENT,KINNEY DRUGS PHARMACY,82 PEARL STREET,ESSEX JUNCTION,VT,05452,"http://maps.google.com/maps?q=82 PEARL STREET,+ESSEX JUNCTION,+VT+05452&hl=en"
FAIR HAVEN POLICE DEPARTMENT,FAIR HAVEN POLICE DEPARTMENT,3 NORTH PARK PLACE,FAIR HAVEN,VT,05743,"http://maps.google.com/maps?q=3 NORTH PARK PLACE,+FAIR HAVEN,+VT+05743&hl=en"
FAIRFIELD POLICE DEPARTMENT,FAIRFIELD POLICE DEPARTMENT,1 POLICE PLAZA,FAIRFIELD,ME,04937,"http://maps.google.com/maps?q=1 POLICE PLAZA,+FAIRFIELD,+ME+04937&hl=en"
FAIRFIELD POLICE DEPARTMENT,"FAIRFIELD POLICE HEADQUARTERS 
												
													MAIN LOBBY",100 REEF ROAD,FAIRFIELD,CT,06824,"http://maps.google.com/maps?q=100 REEF ROAD,+FAIRFIELD,+CT+06824&hl=en"
FARMINGTON POLICE DEPARTMENT,"FARMINGTON POLICE DEPARTMENT 
												
													MEDICATION COLLECTION BOX IN LOBBY",116 FRANKLIN AVENUE,FARMINGTON,ME,04938,"http://maps.google.com/maps?q=116 FRANKLIN AVENUE,+FARMINGTON,+ME+04938&hl=en"
FRANKLIN & TILTON POLICE DEPARTMENT,"FRANKLIN POLICE AND TILTON POLICE 
												
													DRUG TAKE BACK COLLECTION SITE",861 CENTRAL STCVS PARKING LOT,FRANKLIN,NH,03235,"http://maps.google.com/maps?q=861 CENTRAL ST,+FRANKLIN,+NH+03235&hl=en"
FRANKLIN COUNTY SHERIFF'S OFFICE,FRANKLIN COUNTY SHERIFF'S OFFICE,123 COUNTY WAY,FARMINGTON,ME,04938,"http://maps.google.com/maps?q=123 COUNTY WAY,+FARMINGTON,+ME+04938&hl=en"
FRYEBURG POLICE DEPARTMENT,"RITE AID PHARMACY 
												
													OUTSIDE PARKING LOT",119 BRIDGTON ROAD AT 5 FRYEBURG PLAZA,FRYEBURG,ME,04037,"http://maps.google.com/maps?q=119 BRIDGTON ROAD AT 5 FRYEBURG PLAZA,+FRYEBURG,+ME+04037&hl=en"
FULTON COUNTY SHERIFF'S OFFICE,"FULTON COUNTY SHERIFF OFFICE 
												
													DAVID TOWNE",2712 STATE HIGHWAY 29,JOHNSTOWN,NY,12095,"http://maps.google.com/maps?q=2712 STATE HIGHWAY 29,+JOHNSTOWN,+NY+12095&hl=en"
FULTON COUNTY SHERIFF'S OFFICE,FULTON COUNTY SHERIFF'S OFFICE,2712 STATE HWY 29,JOHNSTOWN,NY,12095,"http://maps.google.com/maps?q=2712 STATE HWY 29,+JOHNSTOWN,+NY+12095&hl=en"
GILFORD POLICE DEPARTMENT,CVS  PHARMACY,1371 LAKESHORE ROAD,GILFORD,NH,03249,"http://maps.google.com/maps?q=1371 LAKESHORE ROAD,+GILFORD,+NH+03249&hl=en"
GILMANTON POLICE DEPARTMENT,GILMANTON POLICE / PUBLIC SAFETY BUILDING,297 NH ROUTE 140,GILMANTON,NH,03237,"http://maps.google.com/maps?q=297 NH ROUTE 140,+GILMANTON,+NH+03237&hl=en"
GLASTONBURY POLICE DEPARTMENT,ACADEMY SCHOOL,2143 MAIN ST,GLASTONBURY,CT,06033,"http://maps.google.com/maps?q=2143 MAIN ST,+GLASTONBURY,+CT+06033&hl=en"
GLOCESTER POLICE DEPARTMENT,"GLOCESTER POLICE DEPARTMENT 
												
													FRONT LOBBY",162 CHOPMIST HILL ROAD,CHEPACHET,RI,02814,"http://maps.google.com/maps?q=162 CHOPMIST HILL ROAD,+CHEPACHET,+RI+02814&hl=en"
GLOVERSVILLE POLICE DEPARTMENT,GLOVERSVILLE POLICE DEPARTMENT,3 FRONTAGE ROAD,GLOVERSVILLE,NY,12078,"http://maps.google.com/maps?q=3 FRONTAGE ROAD,+GLOVERSVILLE,+NY+12078&hl=en"
GOFFSTOWN POLICE DEPARTMENT,GOFFSTOWN POLICE DEPARTMENT,326 MAST ROAD,GOFFSTOWN,NH,03045,"http://maps.google.com/maps?q=326 MAST ROAD,+GOFFSTOWN,+NH+03045&hl=en"
GORHAM POLICE DEPARTMENT,GORHAM POLICE DEPARTMENT,20 PARK STREET,GORHAM,NH,03581,"http://maps.google.com/maps?q=20 PARK STREET,+GORHAM,+NH+03581&hl=en"
GOSHEN POLICE DEPARTMENT,GOSHEN POLICE DEPARTMENT,40 A MAIN ST,GOSHEN,MA,01032,"http://maps.google.com/maps?q=40 A MAIN ST,+GOSHEN,+MA+01032&hl=en"
GRAFTON POLICE DEPARTMENT,GRAFTON POLICE DEPARTMENT,28 PROVIDENCE ROAD,GRAFTON,MA,01519,"http://maps.google.com/maps?q=28 PROVIDENCE ROAD,+GRAFTON,+MA+01519&hl=en"
GRANBY POLICE DEPARTMENT,GRANBY POLICE HQ,15 NORTH GRANBY ROAD,GRANBY,CT,06035,"http://maps.google.com/maps?q=15 NORTH GRANBY ROAD,+GRANBY,+CT+06035&hl=en"
GRAND ISLE COUNTY SHERIFF'S DEPARTMENT,ALBURGH FIRE DEPARTMENT,60 FIREHOUSE ROAD,ALBURGH,VT,05440,"http://maps.google.com/maps?q=60 FIREHOUSE ROAD,+ALBURGH,+VT+05440&hl=en"
GRAND ISLE COUNTY SHERIFF'S DEPARTMENT,GRAND ISLE COUNTY SHERIFF'S DEPARTMENT,3677 US RT 2,NORTH HERO,VT,05474,"http://maps.google.com/maps?q=3677 US RT 2,+NORTH HERO,+VT+05474&hl=en"
GRAND ISLE COUNTY SHERIFF'S DEPARTMENT,SOUTH HERO RESCUE BUILDING,329 US RT 2,SOUTH HERO,VT,05486,"http://maps.google.com/maps?q=329 US RT 2,+SOUTH HERO,+VT+05486&hl=en"
GRANTHAM POLICE DEPARTMENT,GRANTHAM POLICE DEPARTMENT,300 ROUTE 10 SOUTH,GRANTHAM,NH,03753,"http://maps.google.com/maps?q=300 ROUTE 10 SOUTH,+GRANTHAM,+NH+03753&hl=en"
GREENFIELD PD,GREENFIELD POLICE DEPARTMENT,321 HIGH STREET,GREENFIELD,MA,01301,"http://maps.google.com/maps?q=321 HIGH STREET,+GREENFIELD,+MA+01301&hl=en"
GREENWICH POLICE DEPARTMENT,PUBLIC SAFETY COMPLEX,11 BRUCE PLACE,GREENWICH,CT,06830,"http://maps.google.com/maps?q=11 BRUCE PLACE,+GREENWICH,+CT+06830&hl=en"
GROTON POLICE DEPARTMENT,GROTON SENIOR CENTER,102 NEWTOWN RD.,GROTON,CT,06340,"http://maps.google.com/maps?q=102 NEWTOWN RD.,+GROTON,+CT+06340&hl=en"
GUILDERLAND POLICE DEPARTMENT,"PUBLIC LIBRARY 
												
													AUXILIARY PARKING LOT",2228 WESTERN AVENUE,GUILDERLAND,NY,12084,"http://maps.google.com/maps?q=2228 WESTERN AVENUE,+GUILDERLAND,+NY+12084&hl=en"
HADDAM RESIDENT TROOPERS OFFICE,HIGGANUM PHARMACY,23 KILLINGWORTH ROAD,HIGGANUM,CT,06441,"http://maps.google.com/maps?q=23 KILLINGWORTH ROAD,+HIGGANUM,+CT+06441&hl=en"
HAMDEN POLICE DEPARTMENT,HAMDEN POLICE DEPARTMENT,2900 DIXWELL AVE,HAMDEN,CT,06518,"http://maps.google.com/maps?q=2900 DIXWELL AVE,+HAMDEN,+CT+06518&hl=en"
HAMILTON COUNTY SHERIFF'S OFFICE,HAMILTON COUNTY JAIL,102 COUNTY VIEW DRIVE,LAKE PLEASANT,NY,12108,"http://maps.google.com/maps?q=102 COUNTY VIEW DRIVE,+LAKE PLEASANT,+NY+12108&hl=en"
HANOVER POLICE DEPARTMENT,"HANOVER POLICE DEPARTMENT 
												
													DRUG TAKE BACK COLLECTION BOX",46 LYME RD,HANOVER,NH,03755,"http://maps.google.com/maps?q=46 LYME RD,+HANOVER,+NH+03755&hl=en"
HARTFORD POLICE DEPARTMENT,HARTFORD POLICE DEPARTMENT,253 HIGH ST.,HARTFORD,CT,06103,"http://maps.google.com/maps?q=253 HIGH ST.,+HARTFORD,+CT+06103&hl=en"
HAVERHILL POLICE DEPARTMENT,HAVERHILL POLICE DEPARTMENT,2975 DARTMOUTH COLLEGE HIGHWAY,NORTH HAVERHILL,NH,03774,"http://maps.google.com/maps?q=2975 DARTMOUTH COLLEGE HIGHWAY,+NORTH HAVERHILL,+NH+03774&hl=en"
HEBRON RESIDENT TROOPER'S OFFICE - CSP TROOP K,RHAM HIGH SCHOOL,85 WALL ST,HEBRON,CT,06248,"http://maps.google.com/maps?q=85 WALL ST,+HEBRON,+CT+06248&hl=en"
HENNIKER POLICE DEPARTMENT,HENNIKER POLICE DEPARTMENT,340 WESTERN AVENUE,HENNIKER,NH,03242,"http://maps.google.com/maps?q=340 WESTERN AVENUE,+HENNIKER,+NH+03242&hl=en"
HINESBURG COMMUNITY POLICE,KINNEY DRUGS PHARMACY,10212 VERMONT ROUTE 116,HINESBURG,VT,05461,"http://maps.google.com/maps?q=10212 VERMONT ROUTE 116,+HINESBURG,+VT+05461&hl=en"
HINSDALE POLICE DEPARTMENT,HINSDALE POLICE DEPARTMENT,10 MAIN STREETPO BOX 138,HINSDALE,NH,03451,"http://maps.google.com/maps?q=10 MAIN STREET,+HINSDALE,+NH+03451&hl=en"
HOLDERNESS POLICE DEPARTMENT,HOLDERNESS POLICE DEPARTMENT,926 US ROUTE 3,HOLDERNESS,NH,03245,"http://maps.google.com/maps?q=926 US ROUTE 3,+HOLDERNESS,+NH+03245&hl=en"
HOLLAND POLICE DEPARTMENT,HOLLAND POLICE DEPARTMENT,27 STURBRIDGE RD.,HOLLAND,MA,01521,"http://maps.google.com/maps?q=27 STURBRIDGE RD.,+HOLLAND,+MA+01521&hl=en"
HOLYOKE MA POLICE DEPARTMENT,"HOLYOKE POLICE DEPARTMENT 
												
													NARCOTICS/VICE DIVISION",138 APPLETON ST,HOLYOKE,MA,01040,"http://maps.google.com/maps?q=138 APPLETON ST,+HOLYOKE,+MA+01040&hl=en"
HOPKINTON POLICE DEPARTMENT,HOPKINTON POLICE DEPARTMENT,1696 HOPKINTON ROAD,HOPKINTON,NH,03229,"http://maps.google.com/maps?q=1696 HOPKINTON ROAD,+HOPKINTON,+NH+03229&hl=en"
JACKSON POLICE DEPARTMENT,JACSKON GRAMMAR SCHOOL,10 BLACK MT. RD.,JACKSON,NH,03846,"http://maps.google.com/maps?q=10 BLACK MT. RD.,+JACKSON,+NH+03846&hl=en"
JAY POLICE DEPARTMENT,JAY POLICE DEPARTMENT,340 MAIN STREET,JAY,ME,04239,"http://maps.google.com/maps?q=340 MAIN STREET,+JAY,+ME+04239&hl=en"
JOHNSTON POLICE,JOHNSTON POLICE,1651 ATWOOD AVENUE,JOHNSTON,RI,02919,"http://maps.google.com/maps?q=1651 ATWOOD AVENUE,+JOHNSTON,+RI+02919&hl=en"
KEENE POLICE DEPARTMENT,KEENE POLICE DEPARTMENT,400 MARLBORO STREET,KEENE,NH,03431,"http://maps.google.com/maps?q=400 MARLBORO STREET,+KEENE,+NH+03431&hl=en"
KENNEBEC COUNTY SHERIFF'S OFFICE,"BELGRADE TRANSFER STATION 
												
													OPERATED BY KENNEBEC COUNTY SHERIFF'S OFFICE",6 MANCHESTER ROAD,BELGRADE,ME,04917,"http://maps.google.com/maps?q=6 MANCHESTER ROAD,+BELGRADE,+ME+04917&hl=en"
KENNEBEC COUNTY SHERIFF'S OFFICE,"READFIELD/WAYNE TRANSFER STATION 
												
													OPERATED BY KENNEBEC COUNTY SHERIFF'S OFFICE",8 OLD KENTS HILL ROAD,READFIELD,ME,04355,"http://maps.google.com/maps?q=8 OLD KENTS HILL ROAD,+READFIELD,+ME+04355&hl=en"
KILLINGWORTH RESIDENT TROOPER,KILLINGWORTH PHARMACY,183 ROUTE 81,KILLINGWORTH,CT,06419,"http://maps.google.com/maps?q=183 ROUTE 81,+KILLINGWORTH,+CT+06419&hl=en"
LACONIA POLICE DEPARTMENT,LACONIA POLICE DEPARTMENT,126 NEW SALEM ST,LACONIA,NH,03246,"http://maps.google.com/maps?q=126 NEW SALEM ST,+LACONIA,+NH+03246&hl=en"
LAMOILLE COUNTY SHERIFFS DEPT,HARDWICK POLICE DEPT,56 HIGH ST,HARDWICK,VT,05843,"http://maps.google.com/maps?q=56 HIGH ST,+HARDWICK,+VT+05843&hl=en"
LAMOILLE COUNTY SHERIFFS DEPT,KINNEY DRUGS,97 MORRISVILLE PLAZA,MORRISVILLE,VT,05661,"http://maps.google.com/maps?q=97 MORRISVILLE PLAZA,+MORRISVILLE,+VT+05661&hl=en"
LAMOILLE COUNTY SHERIFFS DEPT,LAMOILLE COUNTY SHERIFFS DEPT,162 COMMONWEALTH AVE,HYDE PARK,VT,05655,"http://maps.google.com/maps?q=162 COMMONWEALTH AVE,+HYDE PARK,+VT+05655&hl=en"
LAMOILLE COUNTY SHERIFFS DEPT,STOWE POLICE DEPARTMENT,350 SOUTH MAIN ST,STOWE,VT,05672,"http://maps.google.com/maps?q=350 SOUTH MAIN ST,+STOWE,+VT+05672&hl=en"
LANCASTER POLICE DEPARTMENT,LANCASTER POLICE DEPARTMENT,11 MECHANIC ST,LANCASTER,NH,03584,"http://maps.google.com/maps?q=11 MECHANIC ST,+LANCASTER,+NH+03584&hl=en"
LEBANON POLICE DEPARTMENT,LEBANON PD,36 POVERTY LN.,LEBANON,NH,03766,"http://maps.google.com/maps?q=36 POVERTY LN.,+LEBANON,+NH+03766&hl=en"
LEICESTER POLICE DEPARTMENT,LEICESTER RECYCLING CENTER,200 MANNVILLE STREET,LEICESTER,MA,01524,"http://maps.google.com/maps?q=200 MANNVILLE STREET,+LEICESTER,+MA+01524&hl=en"
LENOX POLICE DEPARTMENT,"LENOX TOWN HALL 
												
													AUDITORIUM",6 WALKER ST.,LENOX,MA,01240,"http://maps.google.com/maps?q=6 WALKER ST.,+LENOX,+MA+01240&hl=en"
LEVERETT POLICE DEPARTMENT,LEVERETT POLICE DEPARTMENT,95 MONTAGUE ROAD,LEVERETT,MA,01054,"http://maps.google.com/maps?q=95 MONTAGUE ROAD,+LEVERETT,+MA+01054&hl=en"
LINCOLN POLICE DEPARTMENT,LINCOLN POLICE DEPARTMENT,100 OLD RIVER RD,LINCOLN,RI,02865,"http://maps.google.com/maps?q=100 OLD RIVER RD,+LINCOLN,+RI+02865&hl=en"
LINCOLN POLICE DEPARTMENT,LINCOLN POLICE DEPARTMENT,148 MAIN STREET,LINCOLN,NH,03251,"http://maps.google.com/maps?q=148 MAIN STREET,+LINCOLN,+NH+03251&hl=en"
LISBON POLICE DEPARTMENT,LISBON POLICE DEPARTMENT,46 SCHOOL ST.,LISBON,NH,03585,"http://maps.google.com/maps?q=46 SCHOOL ST.,+LISBON,+NH+03585&hl=en"
LITTLETON POLICE DEPARTMENT,LITTLETON POLICE DEPARTMENT,2 KITTRIDGE LANE,LITTLETON,NH,03561,"http://maps.google.com/maps?q=2 KITTRIDGE LANE,+LITTLETON,+NH+03561&hl=en"
LIVERMORE FALLS POLICE DEPARTMENT,LIVERMORE FALLS POLICE DEPARTMENT,2 MAIN STREET,LIVERMORE FALLS,ME,04254,"http://maps.google.com/maps?q=2 MAIN STREET,+LIVERMORE FALLS,+ME+04254&hl=en"
LUDLOW POLICE DEPARTMENT,LUDLOW POLICE DEPARTMENT,612 CHAPIN ST,LUDLOW,MA,01056,"http://maps.google.com/maps?q=612 CHAPIN ST,+LUDLOW,+MA+01056&hl=en"
MADISON POLICE DEPARTMENT,MADISON POLICE DEPARTMENT,1923 VILLAGE ROAD,MADISON,NH,03849,"http://maps.google.com/maps?q=1923 VILLAGE ROAD,+MADISON,+NH+03849&hl=en"
MADISON POLICE DEPARTMENT,MADISON POLICE DEPARTMENT,9 CAMPUS DRIVE,MADISON,CT,06443,"http://maps.google.com/maps?q=9 CAMPUS DRIVE,+MADISON,+CT+06443&hl=en"
MAINE STATE POLICE - TROOP C,MAINE STATE POLICE - TROOP C,162 WEST FRONT STREET,SKOWHEGAN,ME,04976,"http://maps.google.com/maps?q=162 WEST FRONT STREET,+SKOWHEGAN,+ME+04976&hl=en"
MECHANIC FALLS POLICE DEPARTMENT,MECHANIC FALLS POLICE DEPARTMENT,108 LEWISTON STREET,MECHANIC FALLS,ME,04256,"http://maps.google.com/maps?q=108 LEWISTON STREET,+MECHANIC FALLS,+ME+04256&hl=en"
MECHANICVILLE POLICE DEPARTMENT,"CVS PHARMACY 
												
													PARKING LOT",12 SOUTH CENTRAL AVENUE,MECHANICVILLE,NY,12118,"http://maps.google.com/maps?q=12 SOUTH CENTRAL AVENUE,+MECHANICVILLE,+NY+12118&hl=en"
MEREDITH POLICE DEPARTMENT,MEREDITH POLICE DEPARTMENT,400 DANIEL WEBSTER HIGHWAY,MEREDITH,NH,03253,"http://maps.google.com/maps?q=400 DANIEL WEBSTER HIGHWAY,+MEREDITH,+NH+03253&hl=en"
MEXICO POLICE DEPARTMENT,"MEXICO TOWN OFFICE 
												
													OPERATED BY MEXICO PD",134 MAIN STREET,MEXICO,ME,04257,"http://maps.google.com/maps?q=134 MAIN STREET,+MEXICO,+ME+04257&hl=en"
MIDDLEBURY POLICE DEPARTMENT,MIDDLEBURY POLICE DEPARTMENT,1 LUCIUS SHAW LN.,MIDDLEBURY,VT,05753,"http://maps.google.com/maps?q=1 LUCIUS SHAW LN.,+MIDDLEBURY,+VT+05753&hl=en"
MIDDLEFIELD PD,MIDDLEFIELD RESIDENT TROOPER OFFICE,405 MAIN ST,MIDDLEFIELD,CT,06455,"http://maps.google.com/maps?q=405 MAIN ST,+MIDDLEFIELD,+CT+06455&hl=en"
MIDDLETOWN POLICE,MIDDLETOWN POLICE DEPARTMENT,222 MAIN ST,MIDDLETOWN,CT,06457,"http://maps.google.com/maps?q=222 MAIN ST,+MIDDLETOWN,+CT+06457&hl=en"
MILFORD POLICE DEPT.,MILFORD SENIOR CENTER,9 JEPSON DR.,MILFORD,CT,06460,"http://maps.google.com/maps?q=9 JEPSON DR.,+MILFORD,+CT+06460&hl=en"
MONROE POLICE DEPARTMENT,MONROE SENIOR CITIZEN CENTER,235 CUTLER'S FARM ROAD,MONROE,CT,06468,"http://maps.google.com/maps?q=235 CUTLER'S FARM ROAD,+MONROE,+CT+06468&hl=en"
MOULTONBOROUGH POLICE DEPARTMENT,MOULTONBOROUGH POLICE DEPARTMENT,1035 WHITTIER HWY,MOULTONBOROUGH,NH,03254,"http://maps.google.com/maps?q=1035 WHITTIER HWY,+MOULTONBOROUGH,+NH+03254&hl=en"
NEW BOSTON POLICE DEPARTMENT,NEW BOSTON POLICE DEPARTMENT,116 OLD COACH ROAD,NEW BOSTON,NH,03070,"http://maps.google.com/maps?q=116 OLD COACH ROAD,+NEW BOSTON,+NH+03070&hl=en"
NEW BRITAIN POLICE DEPARTMENT,NEW BRITAIN POLICE DEPARTMENT,10 CHESTNUT STREET,NEW BRITAIN,CT,06051,"http://maps.google.com/maps?q=10 CHESTNUT STREET,+NEW BRITAIN,+CT+06051&hl=en"
NEW FAIRFIELD RESIDENT TROOPERS OFFICE CSP-A,NEW FAIRFIELD RESIDENT TROOPERS OFFICE,302 BALL POND ROAD,NEW FAIRFIELD,CT,06812,"http://maps.google.com/maps?q=302 BALL POND ROAD,+NEW FAIRFIELD,+CT+06812&hl=en"
NEW HAMPTON POLICE DEPARTMENT,NEW HAMPTON POLICE DEPARTMENT,24 INTERVALE DR,NEW HAMPTON,NH,03256,"http://maps.google.com/maps?q=24 INTERVALE DR,+NEW HAMPTON,+NH+03256&hl=en"
NEW LONDON POLICE DEPARTMENT,NEW LONDON POLICE DEPARTMENT,25 SEAMANS ROAD375 MAIN STREET,NEW LONDON,NH,03257,"http://maps.google.com/maps?q=25 SEAMANS ROAD,+NEW LONDON,+NH+03257&hl=en"
NEW PALTZ POLICE DEPARTMENT,POLICE STATION,83 S. PUTT CORNERS RD.,NEW PALTZ,NY,12561,"http://maps.google.com/maps?q=83 S. PUTT CORNERS RD.,+NEW PALTZ,+NY+12561&hl=en"
NEW YORK STATE POLICE,"NEW YORK STATE POLICE 
												
													CLIFTON PARK",5 MUNICIPAL PLAZASTATE ROUTE 146,CLIFTON PARK,NY,12065,"http://maps.google.com/maps?q=5 MUNICIPAL PLAZA,+CLIFTON PARK,+NY+12065&hl=en"
NEW YORK STATE POLICE,"NEW YORK STATE POLICE 
												
													PETER MCARDLE",7140 REPUBLIC AIRPORT,FARMINGDALE,NY,11735,"http://maps.google.com/maps?q=7140 REPUBLIC AIRPORT,+FARMINGDALE,+NY+11735&hl=en"
NEW YORK STATE POLICE,"NEW YORK STATE POLICE 
												
													SCHODACK",1485 STATE RT 9,CASTLETON,NY,12033,"http://maps.google.com/maps?q=1485 STATE RT 9,+CASTLETON,+NY+12033&hl=en"
NEW YORK STATE POLICE TROOP G,NEW YORK STATE POLICE TROOP G,760 TROY SCHENECTADY AVENUE,LATHAM,NY,12110,"http://maps.google.com/maps?q=760 TROY SCHENECTADY AVENUE,+LATHAM,+NY+12110&hl=en"
NEWTOWN POLICE DEPARTMENT,NEWTOWN POLICE DEPARTMENT,3 MAIN STREET,NEWTOWN,CT,06470,"http://maps.google.com/maps?q=3 MAIN STREET,+NEWTOWN,+CT+06470&hl=en"
NORTH CASTLE POLICE DEPARTMENT,"NORTH CASTLE TOWN HALL 
												
													POLICE DEPARTMENT",15 BEDFORD RD,ARMONK,NY,10504,"http://maps.google.com/maps?q=15 BEDFORD RD,+ARMONK,+NY+10504&hl=en"
NORTH GREENBUSH POLICE DEPARTMENT,"NORTH GREENBUSH POLICE DEPARTMENT 
												
													CHIEF ROBERT DURIVAGE",133 BLOOMING GROVE DRIVE,TROY,NY,12180,"http://maps.google.com/maps?q=133 BLOOMING GROVE DRIVE,+TROY,+NY+12180&hl=en"
NORTH HAVEN,NORTH HAVEN FIRE HQS,11 BROADWAY,NORTH HAVEN,CT,06473,"http://maps.google.com/maps?q=11 BROADWAY,+NORTH HAVEN,+CT+06473&hl=en"
NORTH KINGSTOWN POLICE DEPARTMENT,NORTH KINGSTOWN POLICE DEPARTMENT HQ,8166 POST ROAD,NORTH KINGSTOWN,RI,02852,"http://maps.google.com/maps?q=8166 POST ROAD,+NORTH KINGSTOWN,+RI+02852&hl=en"
NORTH PROVIDENCE POLICE,NORTH PROVIDENCE POLICE,1967 MINERAL SPRING AVE,PROVIDENCE,RI,02904,"http://maps.google.com/maps?q=1967 MINERAL SPRING AVE,+PROVIDENCE,+RI+02904&hl=en"
NORTH SHORE HEALTH LIJ HUNTINGTON HOSPITAL,"NORTH SHORE HEALTH LIJ HUNTINGTON 
												
													LOBBY",270 PARK AVENUE,HUNTINGTON,NY,11743,"http://maps.google.com/maps?q=270 PARK AVENUE,+HUNTINGTON,+NY+11743&hl=en"
NORTHAMPTON POLICE DEPARTMENT,JFK MIDDLE SCHOOL,100 BRIDGE RD,FLORENCE,MA,01062,"http://maps.google.com/maps?q=100 BRIDGE RD,+FLORENCE,+MA+01062&hl=en"
NORTHBRIDGE POLICE DEPARTMENT,NORTHBRIDGE POLICE DEPARTMENT,1 HOPE STREET,WHITINSVILLE,MA,01588,"http://maps.google.com/maps?q=1 HOPE STREET,+WHITINSVILLE,+MA+01588&hl=en"
NORTHPORT VA POLICE DEPARTMENT,NORTHPORT VA POLICE DEPARTMENT,79 MIDDLEVILLE ROAD,NORTHPORT,NY,11768,"http://maps.google.com/maps?q=79 MIDDLEVILLE ROAD,+NORTHPORT,+NY+11768&hl=en"
NORTHWELL SOUTHSIDE HOSPITAL,NORTHWELL SOUTHSIDE HOSPITAL,301 EAST MAIN STREET,BAY SHORE,NY,11706,"http://maps.google.com/maps?q=301 EAST MAIN STREET,+BAY SHORE,+NY+11706&hl=en"
NORWAY POLICE DEPARTMENT,"NORWAY POLICE DEPARTMENT 
												
													OFFICER JEFFREY CAMPBELL",19 DANFORTH STREET,NORWAY,ME,04268,"http://maps.google.com/maps?q=19 DANFORTH STREET,+NORWAY,+ME+04268&hl=en"
OAKLAND POLICE DEPARTMENT,OAKLAND POLICE DEPARTMENT,7 FAIRFIELD STREET,OAKLAND,ME,04963,"http://maps.google.com/maps?q=7 FAIRFIELD STREET,+OAKLAND,+ME+04963&hl=en"
OLD LYME,OLD LYME FIRE STATION,69 LYME ST,OLD LYME,CT,06371,"http://maps.google.com/maps?q=69 LYME ST,+OLD LYME,+CT+06371&hl=en"
ORANGE COUNTY SHERIFF'S OFFICE,"FAIRLEE TOWN HALL 
												
													FAIRLEE POLICE DEPATMENT",75 TOWN COMMON ROAD,FAIRLEE,VT,05045,"http://maps.google.com/maps?q=75 TOWN COMMON ROAD,+FAIRLEE,+VT+05045&hl=en"
ORANGE COUNTY SHERIFF'S OFFICE,KINNEY DRUGS,151 VT-12,RANDOLPH,VT,05060,"http://maps.google.com/maps?q=151 VT-12,+RANDOLPH,+VT+05060&hl=en"
ORANGE COUNTY SHERIFF'S OFFICE,KINNEY DRUGS,901 LOWER PLAIN,BRADFORD,VT,05033,"http://maps.google.com/maps?q=901 LOWER PLAIN,+BRADFORD,+VT+05033&hl=en"
ORANGE COUNTY SHERIFF'S OFFICE,ORANGE COUNTY SHERIFF'S DEPARTMENT,11 VT ROUTE 113,CHELSEA,VT,05038,"http://maps.google.com/maps?q=11 VT ROUTE 113,+CHELSEA,+VT+05038&hl=en"
ORANGE POLICE DEPT.,CVS,279 BOSTON POST ROAD,ORANGE,CT,06477,"http://maps.google.com/maps?q=279 BOSTON POST ROAD,+ORANGE,+CT+06477&hl=en"
ORLEANS COUNTY SHERIFF'S DEPARTMENT,KINNEY DRUGS PHARMACY,55 SHATTUCK HILL ROAD,NEWPORT,VT,05855,"http://maps.google.com/maps?q=55 SHATTUCK HILL ROAD,+NEWPORT,+VT+05855&hl=en"
OSSIPEE POLICE DEPARTMENT,OSSIPEE POLICE DEPARTMENT,7 DORE STREET,CENTER OSSIPEE,NH,03814,"http://maps.google.com/maps?q=7 DORE STREET,+CENTER OSSIPEE,+NH+03814&hl=en"
OXFORD COUNTY SHERIFF'S OFFICE,OXFORD COUNTY SHERIFF'S OFFICE,26 WESTERN AVENUE,SOUTH PARIS,ME,04281,"http://maps.google.com/maps?q=26 WESTERN AVENUE,+SOUTH PARIS,+ME+04281&hl=en"
OXFORD COUNTY SHERIFF'S OFFICE,"OXFORD COUNTY SHERIFF'S OFFICE 
												
													BETHEL SUB-STATION",18 MAYVILLE ROAD,BETHEL,ME,04217,"http://maps.google.com/maps?q=18 MAYVILLE ROAD,+BETHEL,+ME+04217&hl=en"
OXFORD COUNTY SHERIFF'S OFFICE,"SACOPEE VALLEY HEALTH CENTER 
												
													OPERATED BY OXFORD COUNTY SHERIFF'S OFFICE",70 MAIN STREET,PORTER,ME,04068,"http://maps.google.com/maps?q=70 MAIN STREET,+PORTER,+ME+04068&hl=en"
OXFORD POLICE DEPARTMENT,"OXFORD  POLICE DEPARTMENT 
												
													OXFORD PUBLIC SAFETY BUILDING",701 MAIN ST,OXFORD,ME,04270,"http://maps.google.com/maps?q=701 MAIN ST,+OXFORD,+ME+04270&hl=en"
PARIS POLICE DEPARTMENT,PARIS POLICE DEPARTMENT,35 MARKET SQUARE,SOUTH PARIS,ME,04281,"http://maps.google.com/maps?q=35 MARKET SQUARE,+SOUTH PARIS,+ME+04281&hl=en"
PAWTUCKET POLICE DEPT.,"PAWTUCKET POLICE DEPARTMENT 
												
													FRONT OFFICE",121 ROOSEVELT AVE.,PAWTUCKET,RI,02860,"http://maps.google.com/maps?q=121 ROOSEVELT AVE.,+PAWTUCKET,+RI+02860&hl=en"
PECONIC BAY MEDICAL CENTER,"PECONIC BAY MEDICAL CENTER 
												
													BRENDAN VAN SLYKE",1300 ROANOKE AVENUE,RIVERHEAD,NY,11901,"http://maps.google.com/maps?q=1300 ROANOKE AVENUE,+RIVERHEAD,+NY+11901&hl=en"
PEMBROKE POLICE DEPARTMENT,PEMBROKE POLICE DEPARTMENT,247 PEMBROKE STREET,PEMBROKE,NH,03275,"http://maps.google.com/maps?q=247 PEMBROKE STREET,+PEMBROKE,+NH+03275&hl=en"
PITTSFIELD POLICE DEPARTMENT,PITTSFIELD POLICE DEPARTMENT,39 ALLEN STREET,PITTSFIELD,MA,01201,"http://maps.google.com/maps?q=39 ALLEN STREET,+PITTSFIELD,+MA+01201&hl=en"
PLAINFIELD POLICE DEPARTMENT,PLAINFIELD POLICE DEPARTMENT,110 MAIN STREET,MERIDEN,NH,03770,"http://maps.google.com/maps?q=110 MAIN STREET,+MERIDEN,+NH+03770&hl=en"
PLATTSBURGH POLICE DEPARTMENT,KINNEY DRUGS,288 CORNELIA ST,PLATTSBURGH,NY,12901,"http://maps.google.com/maps?q=288 CORNELIA ST,+PLATTSBURGH,+NY+12901&hl=en"
PLATTSBURGH POLICE DEPARTMENT,PLATTSBURGH PD,45 PINE STREET,PLATTSBURGH,NY,12901,"http://maps.google.com/maps?q=45 PINE STREET,+PLATTSBURGH,+NY+12901&hl=en"
PLYMOUTH POLICE DEPARTMENT,PLYMOUTH POLICE DEPARTMENT,334 MAIN STREET,PLYMOUTH,NH,03264,"http://maps.google.com/maps?q=334 MAIN STREET,+PLYMOUTH,+NH+03264&hl=en"
PUTNAM COMMUNITIES THAT CARE COALITION,PUTNAM HOSPITAL CENTER,670 STONELEIGH AVE,CARMEL,NY,10512,"http://maps.google.com/maps?q=670 STONELEIGH AVE,+CARMEL,+NY+10512&hl=en"
PUTNAM COUNTY SHERIFF'S OFFICE,PUTNAM HOSPITAL CENTER,670 STONLEIGH AVE,CARMEL,NY,10512,"http://maps.google.com/maps?q=670 STONLEIGH AVE,+CARMEL,+NY+10512&hl=en"
PUTNAM POLICE DEPT,FARMER'S MARKETPLACE PAVILLION,3 KENNEDY DR,PUTNAM,CT,06260,"http://maps.google.com/maps?q=3 KENNEDY DR,+PUTNAM,+CT+06260&hl=en"
RANGELEY POLICE DEPARTMENT,"RANGELEY POLICE STATION 
												
													RANGELEY TOWN OFFICE BUILDING",15 SCHOOL ST,RANGELEY,ME,04970,"http://maps.google.com/maps?q=15 SCHOOL ST,+RANGELEY,+ME+04970&hl=en"
RENSSELAER  POLICE DEPARTMENT,NORTH END FIRE STATION,2 ST. FRANCIS PLACE,RENSSELAER,NY,12144,"http://maps.google.com/maps?q=2 ST. FRANCIS PLACE,+RENSSELAER,+NY+12144&hl=en"
RHODE ISLAND STATE POLICE,RHODE ISLAND STATE POLICE,1575 LOUISQUISSET PIKE,LINCOLN,RI,02865,"http://maps.google.com/maps?q=1575 LOUISQUISSET PIKE,+LINCOLN,+RI+02865&hl=en"
RHODE ISLAND STATE POLICE,RHODE ISLAND STATE POLICE,311 DANIELSON PIKE,NORTH SCITUATE,RI,02857,"http://maps.google.com/maps?q=311 DANIELSON PIKE,+NORTH SCITUATE,+RI+02857&hl=en"
RHODE ISLAND STATE POLICE,RHODE ISLAND STATE POLICE,54 NOOSENECK HILL RD,WYOMING,RI,02898,"http://maps.google.com/maps?q=54 NOOSENECK HILL RD,+WYOMING,+RI+02898&hl=en"
RHODE ISLAND STATE POLICE,RHODE ISLAND STATE POLICE,7875 POST ROAD,NORTH KINGSTOWN,RI,02852,"http://maps.google.com/maps?q=7875 POST ROAD,+NORTH KINGSTOWN,+RI+02852&hl=en"
RICHMOND POLICE DEPARTMENT,RICHMOND POLICE,1168 MAIN STREET,WYOMING,RI,02898,"http://maps.google.com/maps?q=1168 MAIN STREET,+WYOMING,+RI+02898&hl=en"
RICHMOND POLICE DEPARTMENT,RICHMOND POLICE DEPARTMENT,203 BRIDGE STREET,RICHMOND,VT,05477,"http://maps.google.com/maps?q=203 BRIDGE STREET,+RICHMOND,+VT+05477&hl=en"
RIDGEFIELD POLICE DEPARTMENT,BISSELL PHARMACY,23 GOVERNOR ST,RIDGEFIELD,CT,06877,"http://maps.google.com/maps?q=23 GOVERNOR ST,+RIDGEFIELD,+CT+06877&hl=en"
RIDGEFIELD POLICE DEPARTMENT,RIDGEFIELD POLICE DEPARTMENT,76 EAST RIDGE RD,RIDGEFIELD,CT,06877,"http://maps.google.com/maps?q=76 EAST RIDGE RD,+RIDGEFIELD,+CT+06877&hl=en"
ROCKY HILL POLICE DEPARTMENT,ROCKY HILL POLICE DEPARTMENT,699 OLD MAIN STREET,ROCKY HILL,CT,06067,"http://maps.google.com/maps?q=699 OLD MAIN STREET,+ROCKY HILL,+CT+06067&hl=en"
ROTTERDAM POLICE DEPARTMENT,ROTTERDAM PD,101 PRINCETOWN ROAD,ROTTERDAM,NY,12306,"http://maps.google.com/maps?q=101 PRINCETOWN ROAD,+ROTTERDAM,+NY+12306&hl=en"
RUMFORD POLICE DEPARTMENT,RUMFORD POLICE DEPARTMENT,150 RIVER STREET,RUMFORD,ME,04276,"http://maps.google.com/maps?q=150 RIVER STREET,+RUMFORD,+ME+04276&hl=en"
RUTLAND COUNTY SHERIFF'S DEPARTMENT,DIAMOND RUN MALL,46 DIAMOND RUN MALL PLACE,RUTLAND,VT,05701,"http://maps.google.com/maps?q=46 DIAMOND RUN MALL PLACE,+RUTLAND,+VT+05701&hl=en"
RUTLAND PD,RUTLAND PD,242 MAIN STREET,RUTLAND,MA,01543,"http://maps.google.com/maps?q=242 MAIN STREET,+RUTLAND,+MA+01543&hl=en"
SANBORNTON POLICE DEPARTMENT,SANBORNTON POLICE DEPARTMENT,565 SANBORN ROAD,SANBORNTON,NH,03269,"http://maps.google.com/maps?q=565 SANBORN ROAD,+SANBORNTON,+NH+03269&hl=en"
SANDWICH POLICE DEPARTMENT,SANDWICH TRANSFER STATION,465 HOLDERNESS RD,CENTER SANDWICH,NH,03227,"http://maps.google.com/maps?q=465 HOLDERNESS RD,+CENTER SANDWICH,+NH+03227&hl=en"
SARATOGA  POLICE DEPARTMENT,"SARATOGA HOSPITAL 
												
													EMERGENCY DEPT. PARKING LOT",211 CHURCH STREET,SARATOGA SPRINGS,NY,12866,"http://maps.google.com/maps?q=211 CHURCH STREET,+SARATOGA SPRINGS,+NY+12866&hl=en"
SARATOGA  POLICE DEPARTMENT,"SARATOGA POLICE DEPARTMENT 
												
													BEHIND CITY HALL",474 BROADWAY,SARATOGA SPRINGS,NY,12866,"http://maps.google.com/maps?q=474 BROADWAY,+SARATOGA SPRINGS,+NY+12866&hl=en"
SARATOGA COUNTY SHERIFF OFFICE,CLIFTON PARK-HALFMOON EMERGENCY SQUAD,15 CROSSING BLVD.,CLIFTON PARK,NY,12065,"http://maps.google.com/maps?q=15 CROSSING BLVD.,+CLIFTON PARK,+NY+12065&hl=en"
SARATOGA COUNTY SHERIFF OFFICE,MALTA FIRE DEPARTMENT,8 HEMPHILL PLACE,MALTA,NY,12020,"http://maps.google.com/maps?q=8 HEMPHILL PLACE,+MALTA,+NY+12020&hl=en"
SARATOGA COUNTY SHERIFF OFFICE,MOREAU EMERGENCY SQUAD,1583 ROUTE 9,FORT EDWARD,NY,12828,"http://maps.google.com/maps?q=1583 ROUTE 9,+FORT EDWARD,+NY+12828&hl=en"
SCHENECTADY COUNTY SHERIFF'S OFFICE,SCHENECTADY COUNTY SHERIFF'S SUBSTATION,130 PRINCETOWN PLAZA,SCHENECTADY,NY,12306,"http://maps.google.com/maps?q=130 PRINCETOWN PLAZA,+SCHENECTADY,+NY+12306&hl=en"
SCHENECTADY POLICE DEPARTMENT,SCHENECTADY POLICE DEPARTMENT,531 LIBERTY ST.,SCHENECTADY,NY,12305,"http://maps.google.com/maps?q=531 LIBERTY ST.,+SCHENECTADY,+NY+12305&hl=en"
SCHODACK POLICE DEPARTMENT,POLICE DEPARTMENT,1797 COLUMBIA TURNPIKE,CASTLETON,NY,12033,"http://maps.google.com/maps?q=1797 COLUMBIA TURNPIKE,+CASTLETON,+NY+12033&hl=en"
SCOTIA POLICE DEPARTMENT,SCOTIA POLICE DEPARTMENT,4 NORTH TEN BROECK STREET,SCOTIA,NY,12302,"http://maps.google.com/maps?q=4 NORTH TEN BROECK STREET,+SCOTIA,+NY+12302&hl=en"
SETAUKET FIRE HOUSE,"SETAUKET FIRE HOUSE 
												
													DAVE STONE",394 NICOLLS ROAD,EAST SETAUKET,NY,11733,"http://maps.google.com/maps?q=394 NICOLLS ROAD,+EAST SETAUKET,+NY+11733&hl=en"
SHELBURNE POLICE DEPARTMENT,SHELBURNE POLICE DEPARTMENT,5420 SHELBURNE ROAD,SHELBURNE,VT,05482,"http://maps.google.com/maps?q=5420 SHELBURNE ROAD,+SHELBURNE,+VT+05482&hl=en"
SHERMAN RESIDENT TROOPER,SHERMAN RESIDENT TROOPERS OFFICE,9 RT 38 NORTH,SHERMAN,CT,06784,"http://maps.google.com/maps?q=9 RT 38 NORTH,+SHERMAN,+CT+06784&hl=en"
SHREWSBURY POLICE DEPARTMENT,SHREWSBURY SENIOR CENTER,98 MAPLE AVE,SHREWSBURY,MA,01545,"http://maps.google.com/maps?q=98 MAPLE AVE,+SHREWSBURY,+MA+01545&hl=en"
SKOWHEGAN POLICE DEPARTMENT,SKOWHEGAN POLICE DEPARTMENT,225 WATER STREET,SKOWHEGAN,ME,04976,"http://maps.google.com/maps?q=225 WATER STREET,+SKOWHEGAN,+ME+04976&hl=en"
SMITHFIELD POLICE DEPARTMENT,SMITHFIELD POLICE,215 PLEASANT VIEW AVENUE,SMITHFIELD,RI,02917,"http://maps.google.com/maps?q=215 PLEASANT VIEW AVENUE,+SMITHFIELD,+RI+02917&hl=en"
SOMERSET COUNTY SHERIFF'S OFFICE,"SOMERSET COUNTY SHERIFF'S OFFICE 
												
													JACKMAN DIVISION",HEALD STREAM ROAD,JACKMAN,ME,04945,"http://maps.google.com/maps?q=HEALD STREAM ROAD,+JACKMAN,+ME+04945&hl=en"
SOMERSET COUNTY SHERIFF'S OFFICE,"SOMERSET COUNTY SHERIFF'S OFFICE 
												
													JAIL LOBBY",131 EAST MADISON ROAD,MADISON,ME,04950,"http://maps.google.com/maps?q=131 EAST MADISON ROAD,+MADISON,+ME+04950&hl=en"
SOMERSET COUNTY SHERIFF'S OFFICE,"SOMERSET COUNTY SHERIFF'S OFFICE 
												
													MADISON DIVISION",26 WESTON AVENUE,MADISON,ME,04950,"http://maps.google.com/maps?q=26 WESTON AVENUE,+MADISON,+ME+04950&hl=en"
SOUTH WINDSOR POLICE DEPARTMENT,SOUTH WINDSOR POLICE DEPARTMENT,151 SAND HILL ROAD,SOUTH WINDSOR,CT,06074,"http://maps.google.com/maps?q=151 SAND HILL ROAD,+SOUTH WINDSOR,+CT+06074&hl=en"
SOUTHAMPTON POLICE DEPARTMENT,SOUTHAMPTON FIRE/TOWN HALL PARKING LOT,210 COLLEGE HIGHWAY,SOUTHAMPTON,MA,01073,"http://maps.google.com/maps?q=210 COLLEGE HIGHWAY,+SOUTHAMPTON,+MA+01073&hl=en"
SOUTHBRIDGE POLICE DEPARTMENT,SOUTHBRIDGE POLICE DEPARTMENT,1 MECHANIC STREET,SOUTHBRIDGE,MA,01550,"http://maps.google.com/maps?q=1 MECHANIC STREET,+SOUTHBRIDGE,+MA+01550&hl=en"
SOUTHBURY POLICE,SOUTHBURY POLICE DEPARTMENT,421 MAIN STREET SOUTH,SOUTHBURY,CT,06488,"http://maps.google.com/maps?q=421 MAIN STREET SOUTH,+SOUTHBURY,+CT+06488&hl=en"
SOUTHHAMPTON TOWN POLICE DEPARTMENT,BRIDGEHAMPTON COMMONS,2044 MONTAUK HWY,BRIDGEHAMPTON,NY,11932,"http://maps.google.com/maps?q=2044 MONTAUK HWY,+BRIDGEHAMPTON,+NY+11932&hl=en"
SOUTHHAMPTON TOWN POLICE DEPARTMENT,FLANDERS COMMUNITY CENTER,655 FLANDERS ROAD,RIVERHEAD,NY,11901,"http://maps.google.com/maps?q=655 FLANDERS ROAD,+RIVERHEAD,+NY+11901&hl=en"
SOUTHHAMPTON TOWN POLICE DEPARTMENT,HAMPTON BAYS COMMUNITY CENTER,25 PONQUOGUE AVENUE,HAMPTON BAYS,NY,11946,"http://maps.google.com/maps?q=25 PONQUOGUE AVENUE,+HAMPTON BAYS,+NY+11946&hl=en"
SPENCER POLICE DEPARTMENT,CVS PHARMACY,133 MAIN STREET,SPENCER,MA,01562,"http://maps.google.com/maps?q=133 MAIN STREET,+SPENCER,+MA+01562&hl=en"
SPRINGFIELD POLICE DEPARTMENT,CENTRAL HIGH SCHOOL,1840 ROOSEVELT AVE,SPRINGFIELD,MA,01109,"http://maps.google.com/maps?q=1840 ROOSEVELT AVE,+SPRINGFIELD,+MA+01109&hl=en"
ST. ALBANS POLICE DEPARTMENT,KINNEY DRUGS PHARMACY,164 SWANTON ROAD,SAINT ALBANS,VT,05478,"http://maps.google.com/maps?q=164 SWANTON ROAD,+SAINT ALBANS,+VT+05478&hl=en"
ST. JOHNSBURY POLICE DEPARTMENT,ST. JOHNSBURY POLICE DEPARTMENT,1187 MAIN STREETSUITE 1,SAINT JOHNSBURY,VT,05819,"http://maps.google.com/maps?q=1187 MAIN STREET,+SAINT JOHNSBURY,+VT+05819&hl=en"
STAMFORD POLICE DEPARTMENT,STAMFORD POLICE DEPARTMENT,805 BEDFORD STREET,STAMFORD,CT,06901,"http://maps.google.com/maps?q=805 BEDFORD STREET,+STAMFORD,+CT+06901&hl=en"
STONINGTON POLICE DEPARTMENT,STONINGTON POLICE DEPARTMENT,173 SOUTH BROAD ST,PAWCATUCK,CT,06379,"http://maps.google.com/maps?q=173 SOUTH BROAD ST,+PAWCATUCK,+CT+06379&hl=en"
STRATFORD POLICE,"STRATFORD POLICE DEPARTMENT 
												
													LOBBY PRESCRIPTION LOCK BOX",900 LONGBROOK AVENUE,STRATFORD,CT,06614,"http://maps.google.com/maps?q=900 LONGBROOK AVENUE,+STRATFORD,+CT+06614&hl=en"
SUFFIELD POLICE DEPARTMENT,CVS PHARMACY PARKING LOT,163 MOUNTAIN RDSUFFIELD,SUFFIELD,CT,06078,"http://maps.google.com/maps?q=163 MOUNTAIN RD,+SUFFIELD,+CT+06078&hl=en"
SUFFOLK COUNTY POLICE DEPARTMENT,"HUNTINGTON HOSPITAL 
												
													ONLY COLLECTION SITE",270 PARK AVE,HUNTINGTON,NY,11743,"http://maps.google.com/maps?q=270 PARK AVE,+HUNTINGTON,+NY+11743&hl=en"
SULLIVAN COUNTY SHERIFF'S OFFICE,"SULLIVAN COUNTY MUNICIPAL COMPLEX 
												
													FRONT ENTRANCE",14 MAIN STREET,NEWPORT,NH,03773,"http://maps.google.com/maps?q=14 MAIN STREET,+NEWPORT,+NH+03773&hl=en"
SUNAPEE POLICE DEPARTMENT,SUNAPEE POLICE DEPARTMENT,9 SARGENT ROAD,SUNAPEE,NH,03782,"http://maps.google.com/maps?q=9 SARGENT ROAD,+SUNAPEE,+NH+03782&hl=en"
SUNDERLAND POLICE DEPARTMENT,TOWN OF SUNDERLAND POLICE DEPARTMENT,105 RIVER ROAD,SUNDERLAND,MA,01375,"http://maps.google.com/maps?q=105 RIVER ROAD,+SUNDERLAND,+MA+01375&hl=en"
SWANTON VILLAGE POLICE,SWANTON REXALL DRUGS,44 MERCHANTS ROW,SWANTON,VT,05488,"http://maps.google.com/maps?q=44 MERCHANTS ROW,+SWANTON,+VT+05488&hl=en"
TAMWORTH POLICE DEPARTMENT,"TAMWORTH POLICE DEPARTMENT 
												
													LOBBY",100 TAMWORTH RD,TAMWORTH,NH,03886,"http://maps.google.com/maps?q=100 TAMWORTH RD,+TAMWORTH,+NH+03886&hl=en"
TEMPLETON PD,NARRAGANSETT REGIONAL MIDDLE SCHOOL,464 BALDWINVILLE ROAD,TEMPLETON,MA,01468,"http://maps.google.com/maps?q=464 BALDWINVILLE ROAD,+TEMPLETON,+MA+01468&hl=en"
THETFORD VT POLICE DEPARTMENT,"THETFORD RECYCLING CENTER 
												
													8:30 AM - NOON",4706 VT ROUTE 113,THETFORD CENTER,VT,05075,"http://maps.google.com/maps?q=4706 VT ROUTE 113,+THETFORD CENTER,+VT+05075&hl=en"
THOMASTON POLICE DEPARTMENT,RITE AID,455 S. MAIN ST.,THOMASTON,CT,06787,"http://maps.google.com/maps?q=455 S. MAIN ST.,+THOMASTON,+CT+06787&hl=en"
THORNTON POLICE DEPARTMENT,THORNTON POLICE DEPT.,16 MERRILL  ACCESS ROAD,THORNTON,NH,03285,"http://maps.google.com/maps?q=16 MERRILL  ACCESS ROAD,+THORNTON,+NH+03285&hl=en"
TORRINGTON POLICE DEPARTMENT,"TORRINGTON POLICE DEPARTMENT 
												
													COLLECTION BOX IS AVAILABLE YEAR ROUND",576 MAIN STREET,TORRINGTON,CT,06790,"http://maps.google.com/maps?q=576 MAIN STREET,+TORRINGTON,+CT+06790&hl=en"
TOWN OF GLENVILLE,"GLENVILLE MUNICIPAL CENTER 
												
													POLICE ENTRANCE",18 GLENRIDGE RD.,GLENVILLE,NY,12302,"http://maps.google.com/maps?q=18 GLENRIDGE RD.,+GLENVILLE,+NY+12302&hl=en"
TOWN OF NISKAYUNA POLICE DEPARTMENT,NISKAYUNA TOWN HALL,1 NISKAYUNA CIRCLE,NISKAYUNA,NY,12309,"http://maps.google.com/maps?q=1 NISKAYUNA CIRCLE,+NISKAYUNA,+NY+12309&hl=en"
TROY POLICE DEPARTMENT,TROY POLICE DEPARTMENT,55 STATE STREET,TROY,NY,12180,"http://maps.google.com/maps?q=55 STATE STREET,+TROY,+NY+12180&hl=en"
TROY POLICE DEPARTMENT,TROY POLICE DEPT,14 CENTRAL SQUARE,TROY,NH,03465,"http://maps.google.com/maps?q=14 CENTRAL SQUARE,+TROY,+NH+03465&hl=en"
TRUMBULL POLICE DEPARTMENT,TRUMBULL EMS,250 MIDDLEBROOKS AVE,TRUMBULL,CT,06611,"http://maps.google.com/maps?q=250 MIDDLEBROOKS AVE,+TRUMBULL,+CT+06611&hl=en"
TUFTONBORO POLICE DEPARTMENT,TUFTONBORO TRANSFER STATION,20 SARGENTS CROSSING,CENTER TUFTONBORO,NH,03816,"http://maps.google.com/maps?q=20 SARGENTS CROSSING,+CENTER TUFTONBORO,+NH+03816&hl=en"
VERMONT STATE POLICE,KINNEY DRUGS PHARMACY,155 SOUTH MAIN STREET,CAMBRIDGE,VT,05444,"http://maps.google.com/maps?q=155 SOUTH MAIN STREET,+CAMBRIDGE,+VT+05444&hl=en"
VERMONT STATE POLICE,VERMONT STATE POLICE - NEW HAVEN BARRACKS,2490 ETHAN ALLEN HIGHWAY,NEW HAVEN,VT,05472,"http://maps.google.com/maps?q=2490 ETHAN ALLEN HIGHWAY,+NEW HAVEN,+VT+05472&hl=en"
VERMONT STATE POLICE,VERMONT STATE POLICE - ROYALTON BARRACKS,2011 VT RT 107,BETHEL,VT,05032,"http://maps.google.com/maps?q=2011 VT RT 107,+BETHEL,+VT+05032&hl=en"
VERMONT STATE POLICE,VERMONT STATE POLICE - RUTLAND BARRACKS,124 STATE PLACE,RUTLAND,VT,05701,"http://maps.google.com/maps?q=124 STATE PLACE,+RUTLAND,+VT+05701&hl=en"
VERMONT STATE POLICE,VERMONT STATE POLICE - SHAFTSBURY BARRACKS,96 AIRPORT ROAD,SHAFTSBURY,VT,05262,"http://maps.google.com/maps?q=96 AIRPORT ROAD,+SHAFTSBURY,+VT+05262&hl=en"
VERMONT STATE POLICE,VERMONT STATE POLICE - WESTMINSTER BARRACKS,1330 WESTMINSTER HIGHTS ROAD,PUTNEY,VT,05346,"http://maps.google.com/maps?q=1330 WESTMINSTER HIGHTS ROAD,+PUTNEY,+VT+05346&hl=en"
VERNON POLICE DEPARTMENT,WALGREENS PHARMACY,188 UNION STREET,VERNON ROCKVILLE,CT,06066,"http://maps.google.com/maps?q=188 UNION STREET,+VERNON ROCKVILLE,+CT+06066&hl=en"
VILLAGE OF MALONE POLICE DEPARTMENT,KINNEY DRUGS,485 E MAIN STREET,MALONE,NY,12953,"http://maps.google.com/maps?q=485 E MAIN STREET,+MALONE,+NY+12953&hl=en"
VILLAGE OF OSSINING POLICE DEPARTMENT,"BIRDSALL FAGAN POLICE/COURT FACILITY 
												
													COURT LOBBY",86-88 SPRING STREET,OSSINING,NY,10562,"http://maps.google.com/maps?q=86-88 SPRING STREET,+OSSINING,+NY+10562&hl=en"
VILLAGE OF RHINEBECK POLICE,NORTHERN DUTCHESS HOSPITAL,6511 SPRINGBROOK AVE,RHINEBECK,NY,12572,"http://maps.google.com/maps?q=6511 SPRINGBROOK AVE,+RHINEBECK,+NY+12572&hl=en"
WAKEFIELD POLICE DEPARTMENT,WAKEFIELD PUBLIC SAFETY BUILDING,2017 WAKEFIELD ROAD,SANBORNVILLE,NH,03872,"http://maps.google.com/maps?q=2017 WAKEFIELD ROAD,+SANBORNVILLE,+NH+03872&hl=en"
WALPOLE POLICE DEPARTMENT,WALPOLE RECYCLE CENTER,207 WHITCOMB ROAD,WALPOLE,NH,03608,"http://maps.google.com/maps?q=207 WHITCOMB ROAD,+WALPOLE,+NH+03608&hl=en"
WARREN COUNTY SHERIFF'S OFFICE,WARREN COUNTY SHERIFF'S OFFICE,1400 STATE ROUTE 9,LAKE GEORGE,NY,12845,"http://maps.google.com/maps?q=1400 STATE ROUTE 9,+LAKE GEORGE,+NY+12845&hl=en"
WASHINGTON COUNTY SHERIFF'S DEPARTMENT,BARRE CITY POLICE DEPARTMENT,15 FOURTH STREET,BARRE,VT,05641,"http://maps.google.com/maps?q=15 FOURTH STREET,+BARRE,+VT+05641&hl=en"
WASHINGTON COUNTY SHERIFF'S DEPARTMENT,"KINNEY DRUGS PHARMACY 
												
													BERLIN POLICE DEPARTMENT",800 US ROUTE 302,BARRE,VT,05641,"http://maps.google.com/maps?q=800 US ROUTE 302,+BARRE,+VT+05641&hl=en"
WASHINGTON COUNTY SHERIFF'S DEPARTMENT,MONTPELIER POLICE DEPARTMENT,1 PITKIN COURT,MONTPELIER,VT,05602,"http://maps.google.com/maps?q=1 PITKIN COURT,+MONTPELIER,+VT+05602&hl=en"
WASHINGTON COUNTY SHERIFF'S DEPARTMENT,NORTHFIELD POLICE DEPARTMENT,110 WALL STREET,NORTHFIELD,VT,05663,"http://maps.google.com/maps?q=110 WALL STREET,+NORTHFIELD,+VT+05663&hl=en"
WASHINGTON COUNTY SHERIFF'S DEPARTMENT,VERMONT STATE POLICE - MIDDLESEX BARRACKS,1080 US ROUTE 2,MIDDLESEX,VT,05602,"http://maps.google.com/maps?q=1080 US ROUTE 2,+MIDDLESEX,+VT+05602&hl=en"
WASHINGTON COUNTY SHERIFF'S DEPARTMENT,WASHINGTON COUNTY SHERIFF'S DEPARTMENT,10 ELM STREET,MONTPELIER,VT,05602,"http://maps.google.com/maps?q=10 ELM STREET,+MONTPELIER,+VT+05602&hl=en"
WASHINGTON COUNTY SHERIFF'S OFFICE,WASHINGTON COUNTY LAW ENFORCEMENT CENTER,399 BROADWAY,FORT EDWARD,NY,12828,"http://maps.google.com/maps?q=399 BROADWAY,+FORT EDWARD,+NY+12828&hl=en"
WASHINGTON POLICE DEPARTMENT,WASHINGTON POLICE DEPARTMENT,5 HALFMOON POND RD,WASHINGTON,NH,03280,"http://maps.google.com/maps?q=5 HALFMOON POND RD,+WASHINGTON,+NH+03280&hl=en"
WATERBURY POLICE DEPARTMENT,"WATERBURY POLICE DEPARTMENT 
												
													FRONT LOBBY SAFE DISPOSAL",255 EAST MAIN ST,WATERBURY,CT,06702,"http://maps.google.com/maps?q=255 EAST MAIN ST,+WATERBURY,+CT+06702&hl=en"
WATERVILLE VALLEY DEPT. OF PUBLIC SAFETY,TOWN OF WATERVILLE VALLEY POLICE DEPARTMENT,14 TAC LN,WATERVILLE VALLEY,NH,03215,"http://maps.google.com/maps?q=14 TAC LN,+WATERVILLE VALLEY,+NH+03215&hl=en"
WATERVLIET POLICE DEPARTMENT,WATERVLIET POLICE DEPARTMENT,2-15TH STREET,WATERVLIET,NY,12189,"http://maps.google.com/maps?q=2-15TH STREET,+WATERVLIET,+NY+12189&hl=en"
WEBSTER PD,WEBSTER POLICE DEPT.,357 MAIN ST,WEBSTER,MA,01570,"http://maps.google.com/maps?q=357 MAIN ST,+WEBSTER,+MA+01570&hl=en"
WEBSTER POLICE DEPARTMENT,WEBSTER POLICE DEPARTMENT,851 BATTLE STREET,WEBSTER,NH,03303,"http://maps.google.com/maps?q=851 BATTLE STREET,+WEBSTER,+NH+03303&hl=en"
WEST GREENWICH POLICE,WEST GREENWICH POLICE,280 VICTORY HIGHWAY,WEST GREENWICH,RI,02817,"http://maps.google.com/maps?q=280 VICTORY HIGHWAY,+WEST GREENWICH,+RI+02817&hl=en"
WEST HARTFORD POLICE DEPARTMENT,"WEST HARTFORD POLICE DEPARTMENT 
												
													LT SAM FERRUCCI",103 RAYMOND RD,WEST HARTFORD,CT,06107,"http://maps.google.com/maps?q=103 RAYMOND RD,+WEST HARTFORD,+CT+06107&hl=en"
WESTBROOK RESIDENT TOOPERS OFFICE,WESTBROOK RESIDENT TROOPERS OFFICE,315 SPENCER PLAIN RD,WESTBROOK,CT,06498,"http://maps.google.com/maps?q=315 SPENCER PLAIN RD,+WESTBROOK,+CT+06498&hl=en"
WESTCHESTER COUNTY POLICE,"NORTHERN WESTCHESTER HOSPITAL 
												
													MAIN LOBBY",400 MAIN ST.,MOUNT KISCO,NY,10549,"http://maps.google.com/maps?q=400 MAIN ST.,+MOUNT KISCO,+NY+10549&hl=en"
WESTERLY POLICE DEPARTMENT,WESTERLY POLICE,60 AIRPORT ROAD,WESTERLY,RI,02891,"http://maps.google.com/maps?q=60 AIRPORT ROAD,+WESTERLY,+RI+02891&hl=en"
WESTON POLICE DEPARTMENT,WESTON POLICE DEPARTMENT,56 NORFIELD ROAD,WESTON,CT,06883,"http://maps.google.com/maps?q=56 NORFIELD ROAD,+WESTON,+CT+06883&hl=en"
WESTPORT POLICE DEPARTMENT,WESTPORT-WESTON HEALTH DISTRICT,180 BAYBERYY LANE,WESTPORT,CT,06880,"http://maps.google.com/maps?q=180 BAYBERYY LANE,+WESTPORT,+CT+06880&hl=en"
WETHERSFIELD POLICE DEPARTMENT,"WETHERSFIELD POLICE DEPARTMENT 
												
													MAIN LOBBY",250 SILAS DEANE HWY.,WETHERSFIELD,CT,06109,"http://maps.google.com/maps?q=250 SILAS DEANE HWY.,+WETHERSFIELD,+CT+06109&hl=en"
WILLIAMSBURG POLICE DEPT,WILLAIMSBURG PHARMACY,49 MAIN ST,WILLIAMSBURG,MA,01096,"http://maps.google.com/maps?q=49 MAIN ST,+WILLIAMSBURG,+MA+01096&hl=en"
WILLIMANTIC POLICE DEPT,"JILSON SQUARE 
												
													IN THE PARKING LOT","600 BLOCK, MAIN STREET22 MEADOW STREET",WILLIMANTIC,CT,06226,"http://maps.google.com/maps?q=600 BLOCK, MAIN STREET,+WILLIMANTIC,+CT+06226&hl=en"
WILLISTON POLICE DEPARTMENT,WILLISTON POLICE DEPARTMENT,7928 WILLISTON ROAD,WILLISTON,VT,05495,"http://maps.google.com/maps?q=7928 WILLISTON ROAD,+WILLISTON,+VT+05495&hl=en"
WILTON POLICE DEPARTMENT,WILTON POLICE DEPARTMENT,874 MAIN STREET,WILTON,ME,04294,"http://maps.google.com/maps?q=874 MAIN STREET,+WILTON,+ME+04294&hl=en"
WINCHESTER POLICE DEPARTMENT,WINCHESTER POLICE DEPARTMENT,6 PARKER STREET,WINCHESTER,NH,03470,"http://maps.google.com/maps?q=6 PARKER STREET,+WINCHESTER,+NH+03470&hl=en"
WINDHAM COUNTY SHERIFF'S OFFICE,BELLOWS FALLS POLICE DEPARTMENT,170 ROCKINGHAM STREET,BELLOWS FALLS,VT,05101,"http://maps.google.com/maps?q=170 ROCKINGHAM STREET,+BELLOWS FALLS,+VT+05101&hl=en"
WINDHAM COUNTY SHERIFF'S OFFICE,BRATTLEBORO POLICE DEPARTMENT,62 BLACK MOUNTAIN ROAD,BRATTLEBORO,VT,05301,"http://maps.google.com/maps?q=62 BLACK MOUNTAIN ROAD,+BRATTLEBORO,+VT+05301&hl=en"
WINDHAM COUNTY SHERIFF'S OFFICE,DOVER POLICE DEPARTMENT,246 VT RT 100,WEST DOVER,VT,05356,"http://maps.google.com/maps?q=246 VT RT 100,+WEST DOVER,+VT+05356&hl=en"
WINDHAM COUNTY SHERIFF'S OFFICE,WILMINGTON POLICE DEPARTMENT,2 EAST MAIN STREET,WILMINGTON,VT,05363,"http://maps.google.com/maps?q=2 EAST MAIN STREET,+WILMINGTON,+VT+05363&hl=en"
WINDHAM COUNTY SHERIFF'S OFFICE,WINDHAM COUNT SHERIFF'S OFFICE,11 JAIL STREET,NEWFANE,VT,05345,"http://maps.google.com/maps?q=11 JAIL STREET,+NEWFANE,+VT+05345&hl=en"
WINDSOR COUNTY SHERIFF'S DEPARTMENT,CHESTER POLICE DEPARTMENT,556 ELM STREET,CHESTER,VT,05143,"http://maps.google.com/maps?q=556 ELM STREET,+CHESTER,+VT+05143&hl=en"
WINDSOR COUNTY SHERIFF'S DEPARTMENT,HARTFORD POLICE DEPARTMENT,812 VA CUTOFF ROAD,WHITE RIVER JUNCTION,VT,05001,"http://maps.google.com/maps?q=812 VA CUTOFF ROAD,+WHITE RIVER JUNCTION,+VT+05001&hl=en"
WINDSOR COUNTY SHERIFF'S DEPARTMENT,LUDLOW POLICE DEPARTMENT,19 WEST HILL ROAD,LUDLOW,VT,05149,"http://maps.google.com/maps?q=19 WEST HILL ROAD,+LUDLOW,+VT+05149&hl=en"
WINDSOR COUNTY SHERIFF'S DEPARTMENT,NORWICH POLICE DEPARTMENT,10 HAZEN STREET,NORWICH,VT,05055,"http://maps.google.com/maps?q=10 HAZEN STREET,+NORWICH,+VT+05055&hl=en"
WINDSOR COUNTY SHERIFF'S DEPARTMENT,ROCHESTER CONSTABLE'S OFFICE,67 SCHOOL STREET,ROCHESTER,VT,05767,"http://maps.google.com/maps?q=67 SCHOOL STREET,+ROCHESTER,+VT+05767&hl=en"
WINDSOR COUNTY SHERIFF'S DEPARTMENT,SPRINGFIELD POLICE DEPARTMENT,201 CLINTON STREET,SPRINGFIELD,VT,05156,"http://maps.google.com/maps?q=201 CLINTON STREET,+SPRINGFIELD,+VT+05156&hl=en"
WINDSOR COUNTY SHERIFF'S DEPARTMENT,"WEATHERSFIELD TRANSFER STATION 
												
													WEATHERSFIELD POLICE DEPARTMENT",5024 VT RT 106,PERKINSVILLE,VT,05151,"http://maps.google.com/maps?q=5024 VT RT 106,+PERKINSVILLE,+VT+05151&hl=en"
WINDSOR COUNTY SHERIFF'S DEPARTMENT,WINDSOR POLICE DEPARTMENT,29 UNION STREET,WINDSOR,VT,05089,"http://maps.google.com/maps?q=29 UNION STREET,+WINDSOR,+VT+05089&hl=en"
WINDSOR COUNTY SHERIFF'S DEPARTMENT,WOODSTOCK POLICE DEPARTMENT,454 WOODSTOCK ROAD,WOODSTOCK,VT,05091,"http://maps.google.com/maps?q=454 WOODSTOCK ROAD,+WOODSTOCK,+VT+05091&hl=en"
WINDSOR POLICE DEPARTMENT,"CVS 
												
													484 WINDSOR AVE, WINDSOR",484 WINDSOR AVE,WINDSOR,CT,06095,"http://maps.google.com/maps?q=484 WINDSOR AVE,+WINDSOR,+CT+06095&hl=en"
WINOOSKI POLICE DEPARTMENT,WINOOSKI POLICE DEPARTMENT,27 WEST ALLEN STREET,WINOOSKI,VT,05404,"http://maps.google.com/maps?q=27 WEST ALLEN STREET,+WINOOSKI,+VT+05404&hl=en"
WOLCOTT POLICE DEPT.,WOLCOTT POLICE DEPARTMENT,225 NICHOLS RD.,WOLCOTT,CT,06716,"http://maps.google.com/maps?q=225 NICHOLS RD.,+WOLCOTT,+CT+06716&hl=en"
WOLFEBORO POLICE DEPARTMENT,WOLFEBORO PD,251 SOUTH MAIN STREET,WOLFEBORO,NH,03894,"http://maps.google.com/maps?q=251 SOUTH MAIN STREET,+WOLFEBORO,+NH+03894&hl=en"
WOODBURY POLICE,WOODBURY POLICE,281 MAIN STREET SOUTH,WOODBURY,CT,06798,"http://maps.google.com/maps?q=281 MAIN STREET SOUTH,+WOODBURY,+CT+06798&hl=en"
WOONSOCKET POLICE DEPARTMENT,"CVS PHARMACY 
												
													PARKING LOT",1054 CASS AVE,WOONSOCKET,RI,02895,"http://maps.google.com/maps?q=1054 CASS AVE,+WOONSOCKET,+RI+02895&hl=en"
YORK COUNTY SHERIFF'S OFFICE,"HANNAFORD SUPERMARKET 
												
													OPERATED BY YORK COUNTY SHERIFF'S OFFICE",20 SOKOKIS TRAIL,WATERBORO,ME,04087,"http://maps.google.com/maps?q=20 SOKOKIS TRAIL,+WATERBORO,+ME+04087&hl=en"
YORK COUNTY SHERIFF'S OFFICE,"RITE AID DRUG STORE 
												
													OPERATED BY YORK COUNTY SHERIFF'S OFFICE",151 MAPLE STREET,CORNISH,ME,04020,"http://maps.google.com/maps?q=151 MAPLE STREET,+CORNISH,+ME+04020&hl=en"
