Participant,CollectionSite,Address,City,State,Zip,MapURL
ACTON PD,ACTON POLICE DEPARTMENT,371 MAIN ST,ACTON,MA,01720,"http://maps.google.com/maps?q=371 MAIN ST,+ACTON,+MA+01720&hl=en"
ALSTEAD POLICE DEPARTMENT,ALSTEAD POLICE DEPARTMENT,15 MECHANIC ST,ALSTEAD,NH,03602,"http://maps.google.com/maps?q=15 MECHANIC ST,+ALSTEAD,+NH+03602&hl=en"
AMESBURY PD,"AMESBURY POLICE STATION 
												
													OFFICER THOMAS HANSHAW",19 SCHOOL ST,AMESBURY,MA,01913,"http://maps.google.com/maps?q=19 SCHOOL ST,+AMESBURY,+MA+01913&hl=en"
AMHERST POLICE DEPARTMENT,"WILDWOOD ELEMENTARY SCHOOL 
												
													PARKING AREA",71 STRONG STREET,AMHERST,MA,01002,"http://maps.google.com/maps?q=71 STRONG STREET,+AMHERST,+MA+01002&hl=en"
ANDOVER POLICE DEPARTMENT,"ANDOVER WATER TREATMENT PLANT 
												
													10:00 AM-2:00 PM",397 LOWELL ST,ANDOVER,MA,01810,"http://maps.google.com/maps?q=397 LOWELL ST,+ANDOVER,+MA+01810&hl=en"
ARLINGTON POLICE DEPARTMENT,ARLINGTON POLICE DEPARTMENT,112 MYSTIC STREET,ARLINGTON,MA,02474,"http://maps.google.com/maps?q=112 MYSTIC STREET,+ARLINGTON,+MA+02474&hl=en"
ASHBY PD,ASHBY POLICE DEPARTMENT,893 MAIN ST.,ASHBY,MA,01431,"http://maps.google.com/maps?q=893 MAIN ST.,+ASHBY,+MA+01431&hl=en"
ASHFIELD PD,ASHFIELD PD,412 MAIN STREET,ASHFIELD,MA,01330,"http://maps.google.com/maps?q=412 MAIN STREET,+ASHFIELD,+MA+01330&hl=en"
ASHLAND POLICE DEPARTMENT,ASHLAND POLICE DEPARTMENT,137 MAIN STREET,ASHLAND,MA,01721,"http://maps.google.com/maps?q=137 MAIN STREET,+ASHLAND,+MA+01721&hl=en"
ATTLEBORO POLICE DEPARTMENT,ATTLEBORO POLICE DEPARTMENT,12 UNION ST,ATTLEBORO,MA,02703,"http://maps.google.com/maps?q=12 UNION ST,+ATTLEBORO,+MA+02703&hl=en"
AUBURN POLICE DEPARTMENT,"AUBURN POLICE DEPARTMENT 
												
													SAFETY COMPLEX",55 EATON HILL RD,AUBURN,NH,03032,"http://maps.google.com/maps?q=55 EATON HILL RD,+AUBURN,+NH+03032&hl=en"
AVON POLICE DEPARTMENT,AVON SENIOR CENTER,635 WEST AVON ROAD,AVON,CT,06001,"http://maps.google.com/maps?q=635 WEST AVON ROAD,+AVON,+CT+06001&hl=en"
AYER POLICE DEPARTMENT,WESTFORD PD,53 MAIN STREET,WESTFORD,MA,01886,"http://maps.google.com/maps?q=53 MAIN STREET,+WESTFORD,+MA+01886&hl=en"
BARRINGTON POLICE DEPARTMENT,BARRINGTON PUBLIC SAFETY BUILDING,100 FEDERAL ROAD,BARRINGTON,RI,02806,"http://maps.google.com/maps?q=100 FEDERAL ROAD,+BARRINGTON,+RI+02806&hl=en"
BEDFORD POLICE DEPARTMENT,"BEDFORD SAFETY COMPLEX 
												
													55 CONSTITUTION DR. BEDFORD, NH",55 CONSTITUTION DR.,BEDFORD,NH,03110,"http://maps.google.com/maps?q=55 CONSTITUTION DR.,+BEDFORD,+NH+03110&hl=en"
BELCHERTOWN POLICE DEPARTMENT,BELCHERTOWN CENTER PARKING LOT,3 PARK STREET,BELCHERTOWN,MA,01007,"http://maps.google.com/maps?q=3 PARK STREET,+BELCHERTOWN,+MA+01007&hl=en"
BELLINGHAM POLICE,"BELLINGHAM POLICE STATION 
												
													TRAINING ROOM",30 BLACKSTONE STREET,BELLINGHAM,MA,02019,"http://maps.google.com/maps?q=30 BLACKSTONE STREET,+BELLINGHAM,+MA+02019&hl=en"
BELMONT PD,BELMONT DEPARTMENT OF PUBLIC WORKS,39 C STREET,BELMONT,MA,02478,"http://maps.google.com/maps?q=39 C STREET,+BELMONT,+MA+02478&hl=en"
BEVERLY POLICE DEPARTMENT,"NORTH BEVERLY CVS 
												
													PARKING LOT",19 DODGE ST,BEVERLY,MA,01915,"http://maps.google.com/maps?q=19 DODGE ST,+BEVERLY,+MA+01915&hl=en"
BILLERICA POLICE,BILLERICA POLICE,250 BOSTON RD,BILLERICA,MA,01821,"http://maps.google.com/maps?q=250 BOSTON RD,+BILLERICA,+MA+01821&hl=en"
BLACKSTONE POLICE,BLACKSTONE POLICE DEPARTMENT,15 ST. PAUL STREET,BLACKSTONE,MA,01504,"http://maps.google.com/maps?q=15 ST. PAUL STREET,+BLACKSTONE,+MA+01504&hl=en"
BOW POLICE DEPARTMENT,BOW POLICE DEPT.,7 KNOX ROAD,BOW,NH,03304,"http://maps.google.com/maps?q=7 KNOX ROAD,+BOW,+NH+03304&hl=en"
BOXBOROUGH PD,"BOXBOROUGH POLICE DEPARTMENT 
												
													OPEN 24/7",FRONT LOBBY520 MASSACHUSETTS AVENUE,BOXBOROUGH,MA,01719,"http://maps.google.com/maps?q=FRONT LOBBY,+BOXBOROUGH,+MA+01719&hl=en"
BRADFORD POLICE DEPARTMENT,BRADFORD POLICE DEPARTMENT,2217 STATE ROUTE 114,BRADFORD,NH,03221,"http://maps.google.com/maps?q=2217 STATE ROUTE 114,+BRADFORD,+NH+03221&hl=en"
BRAINTREE POLICE DEPT.,MARGE CRISPIN CENTER,90 POND ST,BRAINTREE,MA,02184,"http://maps.google.com/maps?q=90 POND ST,+BRAINTREE,+MA+02184&hl=en"
BRENTWOOD POLICE DEPARTMENT,BRENTWOOD POLICE DEPARTMENT,1 DALTON ROAD,BRENTWOOD,NH,03833,"http://maps.google.com/maps?q=1 DALTON ROAD,+BRENTWOOD,+NH+03833&hl=en"
BRIDGEWATER POLICE DEPARTMENT,"BRIDGEWATER POLICE DEPARTMENT 
												
													LOBBY",220 PLEASANT ST,BRIDGEWATER,MA,02324,"http://maps.google.com/maps?q=220 PLEASANT ST,+BRIDGEWATER,+MA+02324&hl=en"
BRISTOL POLICE DEPARTMENT,BRISTOL POLICE DEPARTMENT,395 METACOM AVE,BRISTOL,RI,02809,"http://maps.google.com/maps?q=395 METACOM AVE,+BRISTOL,+RI+02809&hl=en"
BROCKTON POLICE DEPARTMENT,BROCKTON COUNCIL ON AGING,10 FATHER KENNY WAY,BROCKTON,MA,02301,"http://maps.google.com/maps?q=10 FATHER KENNY WAY,+BROCKTON,+MA+02301&hl=en"
BROOKLINE POLICE DEPARTMENT,BROOKLINE SAFETY COMPLEX,3 POST OFFICE DR,BROOKLINE,NH,03033,"http://maps.google.com/maps?q=3 POST OFFICE DR,+BROOKLINE,+NH+03033&hl=en"
BURRILLVILLE POLICE DEPARTMENT,BURRILLVILLE POLICE DEPARTMENT,1477 VICTORY HWY,HARRISVILLE,RI,02830,"http://maps.google.com/maps?q=1477 VICTORY HWY,+HARRISVILLE,+RI+02830&hl=en"
CAMBRIDGE POLICE,CAMBRIDGE POLICE DEPARTMENT,125 SIXTH STREET,CAMBRIDGE,MA,02142,"http://maps.google.com/maps?q=125 SIXTH STREET,+CAMBRIDGE,+MA+02142&hl=en"
CANDIA POLICE DEPARTMENT,CANDIA FIRE DEPARTMENT,11 DEERFIELD RD.,CANDIA,NH,03034,"http://maps.google.com/maps?q=11 DEERFIELD RD.,+CANDIA,+NH+03034&hl=en"
CENTRAL FALLS POLICE,CENTRAL FALLS POLICE,160 ILLINOIS STREET,CENTRAL FALLS,RI,02863,"http://maps.google.com/maps?q=160 ILLINOIS STREET,+CENTRAL FALLS,+RI+02863&hl=en"
CHELMSFORD PD,CHELMSFORD PD,2 OLDE NORTH RD,CHELMSFORD,MA,01824,"http://maps.google.com/maps?q=2 OLDE NORTH RD,+CHELMSFORD,+MA+01824&hl=en"
CHELSEA POLICE DEPARTMENT,CHELSEA POLICE DEPARTMENT,19 PARK STREET,CHELSEA,MA,02150,"http://maps.google.com/maps?q=19 PARK STREET,+CHELSEA,+MA+02150&hl=en"
CHESTER POLICE DEPARTMENT,"CHESTER POLICE DEPARTMENT 
												
													LOBBY",84 CHESTER STREET,CHESTER,NH,03036,"http://maps.google.com/maps?q=84 CHESTER STREET,+CHESTER,+NH+03036&hl=en"
CITY OF PROVIDENCE,THE MIRIAM HOSPITAL,164 SUMMIT AVE,PROVIDENCE,RI,02906,"http://maps.google.com/maps?q=164 SUMMIT AVE,+PROVIDENCE,+RI+02906&hl=en"
CITY OF PROVIDENCE,WALGREENS PHARMACY,1 POCASSET AVE,PROVIDENCE,RI,02909,"http://maps.google.com/maps?q=1 POCASSET AVE,+PROVIDENCE,+RI+02909&hl=en"
CITY OF PROVIDENCE,WALGREENS PHARMACY,533 ELMWOOD AVE,PROVIDENCE,RI,02907,"http://maps.google.com/maps?q=533 ELMWOOD AVE,+PROVIDENCE,+RI+02907&hl=en"
CLARKU,"CLARK UNIVERSITY 
												
													HIGGINS STUDENT CENTER",950 MAIN STREET,WORCESTER,MA,01610,"http://maps.google.com/maps?q=950 MAIN STREET,+WORCESTER,+MA+01610&hl=en"
COHASSET POLICE DEPARTMENT,"COHASSET POLICE DEPARTMENT HEADQUARTERS 
												
													IN POLICE STATION LOBBY",62 ELM STREET,COHASSET,MA,02025,"http://maps.google.com/maps?q=62 ELM STREET,+COHASSET,+MA+02025&hl=en"
CONNECTICUT STATE POLICE TROOP E,GRISWOLD TOWN HALL,28 MAIN STREET,JEWETT CITY,CT,06351,"http://maps.google.com/maps?q=28 MAIN STREET,+JEWETT CITY,+CT+06351&hl=en"
CRANSTON POLICE DEPT.,CRANSTON POLICE STATION,5 GARFIELD AVE,CRANSTON,RI,02920,"http://maps.google.com/maps?q=5 GARFIELD AVE,+CRANSTON,+RI+02920&hl=en"
CROMWELL POLICE DEPARTMENT,CROMWELL POLICE DEPARTMENT LOBBY,5 WEST STREET,CROMWELL,CT,06416,"http://maps.google.com/maps?q=5 WEST STREET,+CROMWELL,+CT+06416&hl=en"
CUMBERLAND POLICE,CUMBERLAND POLICE STATION,1380 DIAMOND HILL ROAD,CUMBERLAND,RI,02864,"http://maps.google.com/maps?q=1380 DIAMOND HILL ROAD,+CUMBERLAND,+RI+02864&hl=en"
CUMMINGTON POLICE,"CUMMINGTON POLICE DEPARTMENT 
												
													CUMMINGTON PUBLIC SAFETY COMPLEX",8 FAIRGROUNDS ROADBOX 98,CUMMINGTON,MA,01026,"http://maps.google.com/maps?q=8 FAIRGROUNDS ROAD,+CUMMINGTON,+MA+01026&hl=en"
DANVILLE POLICE DEPARTMENT,DANVILLE POLICE DEPARTMENT,206 MAIN STREET,DANVILLE,NH,03819,"http://maps.google.com/maps?q=206 MAIN STREET,+DANVILLE,+NH+03819&hl=en"
DEDHAM POLICE,DEDHAM POLICE STATION,600 HIGH STREET,DEDHAM,MA,02026,"http://maps.google.com/maps?q=600 HIGH STREET,+DEDHAM,+MA+02026&hl=en"
DEERFIELD PD,DEERFIELD POLICE DEPARTMENT,8 CONWAY STREET,SOUTH DEERFIELD,MA,01373,"http://maps.google.com/maps?q=8 CONWAY STREET,+SOUTH DEERFIELD,+MA+01373&hl=en"
DEERFIELD POLICE DEPARTMENT,DEERFIELD POLICE DEPARTMENT,8 RAYMOND ROAD,DEERFIELD,NH,03037,"http://maps.google.com/maps?q=8 RAYMOND ROAD,+DEERFIELD,+NH+03037&hl=en"
DERRY POLICE DEPARTMENT,"DERRY POLICE DEPARTMENT 
												
													FRONT PARKING LOT",1 MUNICIPAL DRIVE,DERRY,NH,03038,"http://maps.google.com/maps?q=1 MUNICIPAL DRIVE,+DERRY,+NH+03038&hl=en"
DOVER POLICE DEPARTMENT,DOVER POLICE DEPARTMENT,3 WALPOLE STREET,DOVER,MA,02030,"http://maps.google.com/maps?q=3 WALPOLE STREET,+DOVER,+MA+02030&hl=en"
DRACUT POLICE DEPARTMENT,DRACUT POLICE DEPARTMENT,110 LOON HILL ROAD,DRACUT,MA,01826,"http://maps.google.com/maps?q=110 LOON HILL ROAD,+DRACUT,+MA+01826&hl=en"
DUBLIN POLICE DEPARTMENT,DUBLIN POLICE DEPARTMENT,1122 MAIN STREET,DUBLIN,NH,03444,"http://maps.google.com/maps?q=1122 MAIN STREET,+DUBLIN,+NH+03444&hl=en"
DUDLEY POLICE DEPARTMENT,DUDLEY POLICE DEPARTMENT,71 WEST MAIN ST,DUDLEY,MA,01571,"http://maps.google.com/maps?q=71 WEST MAIN ST,+DUDLEY,+MA+01571&hl=en"
DUNBARTON POLICE DEPARTMENT,DUNBARTON POLICE DEPARTMENT,18 ROBERT ROGERS ROAD,DUNBARTON,NH,03046,"http://maps.google.com/maps?q=18 ROBERT ROGERS ROAD,+DUNBARTON,+NH+03046&hl=en"
EAST BRIDGEWATER PD,EAST BRIDGEWATER POLICE DEPARTMENT,153 CENTRAL ST,EAST BRIDGEWATER,MA,02333,"http://maps.google.com/maps?q=153 CENTRAL ST,+EAST BRIDGEWATER,+MA+02333&hl=en"
EAST HADDAM POLICE DEPT/RESIDENT TROOPER,EAST HADDAM POLICE DEPT/RESIDENT TROOPER,1 PLAINS ROAD,MOODUS,CT,06469,"http://maps.google.com/maps?q=1 PLAINS ROAD,+MOODUS,+CT+06469&hl=en"
EAST HAMPTON POLICE DEPARTMENT,EAST HAMPTON POLICE DEPARTMENT,20 EAST HIGH STREET,EAST HAMPTON,CT,06424,"http://maps.google.com/maps?q=20 EAST HIGH STREET,+EAST HAMPTON,+CT+06424&hl=en"
EAST HARTFORD POLICE,"EAST HARTFORD POLICE HEADQUARTERS 
												
													EAST HARTFORD PUBLIC SAFETY COMPLEX",31 SCHOOL STREET,EAST HARTFORD,CT,06108,"http://maps.google.com/maps?q=31 SCHOOL STREET,+EAST HARTFORD,+CT+06108&hl=en"
EAST LONGMEADOW POLICE DEPARTMENT,EAST LONGMEADOW POLICE DEPARTMENT,160 SOMERS RD,EAST LONGMEADOW,MA,01028,"http://maps.google.com/maps?q=160 SOMERS RD,+EAST LONGMEADOW,+MA+01028&hl=en"
EAST PROVIDENCE POLICE DEPARTMENT,EAST PROVIDENCE POLICE,750 WATERMAN AVENUE,EAST PROVIDENCE,RI,02914,"http://maps.google.com/maps?q=750 WATERMAN AVENUE,+EAST PROVIDENCE,+RI+02914&hl=en"
EASTHAMPTON POLICE DEPARTMENT,EASTHAMPTON PUBLIC SAFETY COMPLEX,32 PAYSON AVENUE,EASTHAMPTON,MA,01027,"http://maps.google.com/maps?q=32 PAYSON AVENUE,+EASTHAMPTON,+MA+01027&hl=en"
EASTON POLICE DEPARTMENT,EASTON POLICE DEPARTMENT,46 LOTHROP ST,NORTH EASTON,MA,02356,"http://maps.google.com/maps?q=46 LOTHROP ST,+NORTH EASTON,+MA+02356&hl=en"
ELLINGTON RESIDENT TROOPERS OFFICE,ELLINGTON RESIDENT TROOPERS OFFICE,33 ARBOR WAY,ELLINGTON,CT,06029,"http://maps.google.com/maps?q=33 ARBOR WAY,+ELLINGTON,+CT+06029&hl=en"
ENFIELD POLICE DEPARTMENT,ENFIELD POLICE DEPARTMENT,293 ELM ST.,ENFIELD,CT,06082,"http://maps.google.com/maps?q=293 ELM ST.,+ENFIELD,+CT+06082&hl=en"
EPPING POLICE DEPARTMENT,EPPING POLICE DEPARTMENT,37 PLEASANT STREET,EPPING,NH,03042,"http://maps.google.com/maps?q=37 PLEASANT STREET,+EPPING,+NH+03042&hl=en"
ESSEX POLICE DEPARTMENT,ESSEX POLICE DEPARTMENT,24 MARTIN ST.,ESSEX,MA,01929,"http://maps.google.com/maps?q=24 MARTIN ST.,+ESSEX,+MA+01929&hl=en"
EVERETT POLICE DEPARTMENT,CITYHALL BOARD OF HEALTH,BROADWAY,EVERETT,MA,02149,"http://maps.google.com/maps?q=BROADWAY,+EVERETT,+MA+02149&hl=en"
EVERETT POLICE DEPARTMENT,EVERETT POLICE DEARTMENT,45 ELM ST,EVERETT,MA,02149,"http://maps.google.com/maps?q=45 ELM ST,+EVERETT,+MA+02149&hl=en"
EXETER POLICE DEPARTMENT,EXETER POLICE DEPARTMENT,20 COURT STREET,EXETER,NH,03833,"http://maps.google.com/maps?q=20 COURT STREET,+EXETER,+NH+03833&hl=en"
FITZWILLIAM POLICE DEPARTMENT,FITZWILLIAM POLICE DEPARTMENT,6 CHURCH ST.,FITZWILLIAM,NH,03447,"http://maps.google.com/maps?q=6 CHURCH ST.,+FITZWILLIAM,+NH+03447&hl=en"
FOXBOROUGHPOLICE DEPARTMENT,"FOXBOROUGH POLICE DEPARTMENT 
												
													PUBLIC SAFETY BUILDING",8 CHESTNUT STREET,FOXBORO,MA,02035,"http://maps.google.com/maps?q=8 CHESTNUT STREET,+FOXBORO,+MA+02035&hl=en"
FRAMINGHAM PD,FRAMINGHAM POLICE DEPARTMENT,1 WILLIAM H. WELCH WAYFRAMINGHAM,FRAMINGHAM,MA,01702,"http://maps.google.com/maps?q=1 WILLIAM H. WELCH WAY,+FRAMINGHAM,+MA+01702&hl=en"
FREMONT POLICE DEPARTMENT,FREMONT POLICE DEPARTMENT,425 MAIN STREET,FREMONT,NH,03044,"http://maps.google.com/maps?q=425 MAIN STREET,+FREMONT,+NH+03044&hl=en"
GEORGETOWN POLICE DEPARTMENT,"GEORGETOWN POLICE DEPARTMENT 
												
													POLICE STATION LOBBY 24/7/365",47 CENTRAL ST.,GEORGETOWN,MA,01833,"http://maps.google.com/maps?q=47 CENTRAL ST.,+GEORGETOWN,+MA+01833&hl=en"
GLASTONBURY POLICE DEPARTMENT,ACADEMY SCHOOL,2143 MAIN ST,GLASTONBURY,CT,06033,"http://maps.google.com/maps?q=2143 MAIN ST,+GLASTONBURY,+CT+06033&hl=en"
GLOCESTER POLICE DEPARTMENT,"GLOCESTER POLICE DEPARTMENT 
												
													FRONT LOBBY",162 CHOPMIST HILL ROAD,CHEPACHET,RI,02814,"http://maps.google.com/maps?q=162 CHOPMIST HILL ROAD,+CHEPACHET,+RI+02814&hl=en"
GLOUCESTER POLICE DEPARTMENT,ROSE BAKER SENIOR CENTER PARKING LOT,6 MANUEL LEWIS STREET,GLOUCESTER,MA,01930,"http://maps.google.com/maps?q=6 MANUEL LEWIS STREET,+GLOUCESTER,+MA+01930&hl=en"
GOFFSTOWN POLICE DEPARTMENT,GOFFSTOWN POLICE DEPARTMENT,326 MAST ROAD,GOFFSTOWN,NH,03045,"http://maps.google.com/maps?q=326 MAST ROAD,+GOFFSTOWN,+NH+03045&hl=en"
GOSHEN POLICE DEPARTMENT,GOSHEN POLICE DEPARTMENT,40 A MAIN ST,GOSHEN,MA,01032,"http://maps.google.com/maps?q=40 A MAIN ST,+GOSHEN,+MA+01032&hl=en"
GRAFTON POLICE DEPARTMENT,GRAFTON POLICE DEPARTMENT,28 PROVIDENCE ROAD,GRAFTON,MA,01519,"http://maps.google.com/maps?q=28 PROVIDENCE ROAD,+GRAFTON,+MA+01519&hl=en"
GRANBY POLICE DEPARTMENT,GRANBY POLICE HQ,15 NORTH GRANBY ROAD,GRANBY,CT,06035,"http://maps.google.com/maps?q=15 NORTH GRANBY ROAD,+GRANBY,+CT+06035&hl=en"
GREENFIELD PD,GREENFIELD POLICE DEPARTMENT,321 HIGH STREET,GREENFIELD,MA,01301,"http://maps.google.com/maps?q=321 HIGH STREET,+GREENFIELD,+MA+01301&hl=en"
GROTON PD,GROTON POLICE DEPARTMENT,99 PLEASANT STREET,GROTON,MA,01450,"http://maps.google.com/maps?q=99 PLEASANT STREET,+GROTON,+MA+01450&hl=en"
GROTON POLICE DEPARTMENT,GROTON SENIOR CENTER,102 NEWTOWN RD.,GROTON,CT,06340,"http://maps.google.com/maps?q=102 NEWTOWN RD.,+GROTON,+CT+06340&hl=en"
GROVELAND POLICE DEPARTMENT,"GROVELAND POLICE DEPARTMENT 
												
													SGT.  ERIC C. RYAN",181 MAIN STREETSTATION LOBBY,GROVELAND,MA,01834,"http://maps.google.com/maps?q=181 MAIN STREET,+GROVELAND,+MA+01834&hl=en"
HADDAM RESIDENT TROOPERS OFFICE,HIGGANUM PHARMACY,23 KILLINGWORTH ROAD,HIGGANUM,CT,06441,"http://maps.google.com/maps?q=23 KILLINGWORTH ROAD,+HIGGANUM,+CT+06441&hl=en"
HAMILTON POLICE DEPARTMENT,HAMILTON PUBLIC SAFETY BUILDING,265  BAY ROAD,SOUTH HAMILTON,MA,01982,"http://maps.google.com/maps?q=265  BAY ROAD,+SOUTH HAMILTON,+MA+01982&hl=en"
HAMPSTEAD POLICE DEPARTMENT,HAMPSTEAD POLICE DEPARTMENT,30 VETERANS WAY,HAMPSTEAD,NH,03841,"http://maps.google.com/maps?q=30 VETERANS WAY,+HAMPSTEAD,+NH+03841&hl=en"
HANOVER PD,HANOVER PD,665 CENTER STREET,HANOVER,MA,02339,"http://maps.google.com/maps?q=665 CENTER STREET,+HANOVER,+MA+02339&hl=en"
HARTFORD POLICE DEPARTMENT,HARTFORD POLICE DEPARTMENT,253 HIGH ST.,HARTFORD,CT,06103,"http://maps.google.com/maps?q=253 HIGH ST.,+HARTFORD,+CT+06103&hl=en"
HARVARD POLICE,"HARVARD PUBLIC SAFETY BUILDING 
												
													HARVARD POLICE",40 AYER ROAD,HARVARD,MA,01451,"http://maps.google.com/maps?q=40 AYER ROAD,+HARVARD,+MA+01451&hl=en"
HEBRON RESIDENT TROOPER'S OFFICE - CSP TROOP K,RHAM HIGH SCHOOL,85 WALL ST,HEBRON,CT,06248,"http://maps.google.com/maps?q=85 WALL ST,+HEBRON,+CT+06248&hl=en"
HENNIKER POLICE DEPARTMENT,HENNIKER POLICE DEPARTMENT,340 WESTERN AVENUE,HENNIKER,NH,03242,"http://maps.google.com/maps?q=340 WESTERN AVENUE,+HENNIKER,+NH+03242&hl=en"
HINSDALE POLICE DEPARTMENT,HINSDALE POLICE DEPARTMENT,10 MAIN STREETPO BOX 138,HINSDALE,NH,03451,"http://maps.google.com/maps?q=10 MAIN STREET,+HINSDALE,+NH+03451&hl=en"
HOLBROOK POLICE DEPT,HOLBROOK POLICE DEPARTMENT,300 SOUTH FRANKLIN STREET,HOLBROOK,MA,02343,"http://maps.google.com/maps?q=300 SOUTH FRANKLIN STREET,+HOLBROOK,+MA+02343&hl=en"
HOLLAND POLICE DEPARTMENT,HOLLAND POLICE DEPARTMENT,27 STURBRIDGE RD.,HOLLAND,MA,01521,"http://maps.google.com/maps?q=27 STURBRIDGE RD.,+HOLLAND,+MA+01521&hl=en"
HOLLIS POLICE DEPARTMENT,HOLLIS PHARMACY,6 ASH STREET,HOLLIS,NH,03049,"http://maps.google.com/maps?q=6 ASH STREET,+HOLLIS,+NH+03049&hl=en"
HOLLISTON POLICE DEPARTMENT,HOLLISTON POLICE DEPARTMENT,550 WASHINGTON STREET,HOLLISTON,MA,01746,"http://maps.google.com/maps?q=550 WASHINGTON STREET,+HOLLISTON,+MA+01746&hl=en"
HOLYOKE MA POLICE DEPARTMENT,"HOLYOKE POLICE DEPARTMENT 
												
													NARCOTICS/VICE DIVISION",138 APPLETON ST,HOLYOKE,MA,01040,"http://maps.google.com/maps?q=138 APPLETON ST,+HOLYOKE,+MA+01040&hl=en"
HOOKSETT POLICE DEPARTMENT,HOOKSETT POLICE DEPARTMENT,15 LEGENDS DRIVE,HOOKSETT,NH,03106,"http://maps.google.com/maps?q=15 LEGENDS DRIVE,+HOOKSETT,+NH+03106&hl=en"
HOPKINTON POLICE DEPARTMENT,HOPKINTON POLICE DEPARTMENT,1696 HOPKINTON ROAD,HOPKINTON,NH,03229,"http://maps.google.com/maps?q=1696 HOPKINTON ROAD,+HOPKINTON,+NH+03229&hl=en"
IPSWICH POLICE DEPARTMENT,DANVERS POLICE DEPARTMENT,120 ASH STREET,DANVERS,MA,01923,"http://maps.google.com/maps?q=120 ASH STREET,+DANVERS,+MA+01923&hl=en"
JAFFREY POLICE DEPARTMENT,JAFFREY POLICE DEPARTMENT,26 MAIN STREET,JAFFREY,NH,03452,"http://maps.google.com/maps?q=26 MAIN STREET,+JAFFREY,+NH+03452&hl=en"
JAMESTOWN POLICE DEPARTMENT,JAMESTOWN POLICE,250 CONANICUS AVENUE,JAMESTOWN,RI,02835,"http://maps.google.com/maps?q=250 CONANICUS AVENUE,+JAMESTOWN,+RI+02835&hl=en"
JOHNSTON POLICE,JOHNSTON POLICE,1651 ATWOOD AVENUE,JOHNSTON,RI,02919,"http://maps.google.com/maps?q=1651 ATWOOD AVENUE,+JOHNSTON,+RI+02919&hl=en"
KEENE POLICE DEPARTMENT,KEENE POLICE DEPARTMENT,400 MARLBORO STREET,KEENE,NH,03431,"http://maps.google.com/maps?q=400 MARLBORO STREET,+KEENE,+NH+03431&hl=en"
KINGSTON POLICE DEPARTMENT,"CARRIAGE TOWNE PLAZA 
												
													IN FRONT OF RITE AID",53 CHURCH ST.,KINGSTON,NH,03848,"http://maps.google.com/maps?q=53 CHURCH ST.,+KINGSTON,+NH+03848&hl=en"
LEE POLICE DEPARTMENT,LEE POLICE DEPARTMENT,20 GEORGE BENNETT RD,LEE,NH,03861,"http://maps.google.com/maps?q=20 GEORGE BENNETT RD,+LEE,+NH+03861&hl=en"
LEICESTER POLICE DEPARTMENT,LEICESTER RECYCLING CENTER,200 MANNVILLE STREET,LEICESTER,MA,01524,"http://maps.google.com/maps?q=200 MANNVILLE STREET,+LEICESTER,+MA+01524&hl=en"
LEOMINSTER POLICE DEPARTMENT,LEOMINSTER POLICE DEPARTMENT,29 CHURCH ST,LEOMINSTER,MA,01453,"http://maps.google.com/maps?q=29 CHURCH ST,+LEOMINSTER,+MA+01453&hl=en"
LEVERETT POLICE DEPARTMENT,LEVERETT POLICE DEPARTMENT,95 MONTAGUE ROAD,LEVERETT,MA,01054,"http://maps.google.com/maps?q=95 MONTAGUE ROAD,+LEVERETT,+MA+01054&hl=en"
LINCOLN POLICE DEPARTMENT,LINCOLN POLICE DEPARTMENT,100 OLD RIVER RD,LINCOLN,RI,02865,"http://maps.google.com/maps?q=100 OLD RIVER RD,+LINCOLN,+RI+02865&hl=en"
LITTLETON POLICE DEPARTMENT,LITTLETON POLICE DEPARTMENT,500 GREAT RD,LITTLETON,MA,01460,"http://maps.google.com/maps?q=500 GREAT RD,+LITTLETON,+MA+01460&hl=en"
LOWELL POLICE DEPARTMENT,"LOWELL GENERAL HOSPITAL, SAINTS CAMPUS 
												
													PAIN MANAGEMENT CENTER",2 HOSPITAL DRIVE,LOWELL,MA,01852,"http://maps.google.com/maps?q=2 HOSPITAL DRIVE,+LOWELL,+MA+01852&hl=en"
LUDLOW POLICE DEPARTMENT,LUDLOW POLICE DEPARTMENT,612 CHAPIN ST,LUDLOW,MA,01056,"http://maps.google.com/maps?q=612 CHAPIN ST,+LUDLOW,+MA+01056&hl=en"
LUNENBURG POLICE DEPARTMENT,LUNENBURG POLICE DEPARTMENT,655 MASSACHUSETTS AVE.,LUNENBURG,MA,01462,"http://maps.google.com/maps?q=655 MASSACHUSETTS AVE.,+LUNENBURG,+MA+01462&hl=en"
LYNNFIELD POLICE DEPARTMENT,LYNNFIELD POLICE DEPARTMENT,55 SUMMER ST,LYNNFIELD,MA,01940,"http://maps.google.com/maps?q=55 SUMMER ST,+LYNNFIELD,+MA+01940&hl=en"
MALDEN POLICE DEPARTMENT,MALDEN POLICE STATION,800 EASTERN AVE,MALDEN,MA,02148,"http://maps.google.com/maps?q=800 EASTERN AVE,+MALDEN,+MA+02148&hl=en"
MANCHESTER BY THE SEA POLICE,"POLICE STATION 
												
													GARAGE",10 CENTRAL ST.,MANCHESTER,MA,01944,"http://maps.google.com/maps?q=10 CENTRAL ST.,+MANCHESTER,+MA+01944&hl=en"
MANCHESTER POLICE DEPARTMENT,"CATHOLIC MEDICAL CENTER 
												
													195 MCGREGOR STREET PARKING LOT ACROSS FROM MAIN HOSPITAL",100 MCGREGOR STREET,MANCHESTER,NH,03102,"http://maps.google.com/maps?q=100 MCGREGOR STREET,+MANCHESTER,+NH+03102&hl=en"
MANCHESTER POLICE DEPARTMENT,"ELLIOT AT RIVER'S EDGE 
												
													PHARMACY PARKING LOT",185 QUEEN CITY AVENUE,MANCHESTER,NH,03103,"http://maps.google.com/maps?q=185 QUEEN CITY AVENUE,+MANCHESTER,+NH+03103&hl=en"
MANCHESTER POLICE DEPARTMENT,"MANCHESTER, NH POLICE DEPARTMENT",405 VALLEY STREET,MANCHESTER,NH,03103,"http://maps.google.com/maps?q=405 VALLEY STREET,+MANCHESTER,+NH+03103&hl=en"
MANSFIELD PD,MANSFIELD POLICE DEPARTMENT,50 WEST STREET,MANSFIELD,MA,02048,"http://maps.google.com/maps?q=50 WEST STREET,+MANSFIELD,+MA+02048&hl=en"
MARLBOROUGH POLICE DEPARTMENT,"MARLBOROUGH POLICE STATION 
												
													FRONT LOBBY",355 BOLTON ST,MARLBOROUGH,MA,01752,"http://maps.google.com/maps?q=355 BOLTON ST,+MARLBOROUGH,+MA+01752&hl=en"
MASON POLICE DEPARTMENT,MASON POLICE DEPARTMENT,38 DARLING HILL ROAD,MASON,NH,03048,"http://maps.google.com/maps?q=38 DARLING HILL ROAD,+MASON,+NH+03048&hl=en"
MBTA TRANSIT POLICE,MBTA TRANSIT POLICE,240 SOUTHAMPTON ST,BOSTON,MA,02118,"http://maps.google.com/maps?q=240 SOUTHAMPTON ST,+BOSTON,+MA+02118&hl=en"
MEDFIELD POLICE DEPARTMENT,"MEDFIELD POLICE DEPARTMENT 
												
													FRONT LOBBY",112 NORTH STREET,MEDFIELD,MA,02052,"http://maps.google.com/maps?q=112 NORTH STREET,+MEDFIELD,+MA+02052&hl=en"
MEDFORD PD,85 GEORGE P HASSETT DRIVE (REAR OF CITY HALL),85 GEORGE P HASSETT DRIVE,MEDFORD,MA,02155,"http://maps.google.com/maps?q=85 GEORGE P HASSETT DRIVE,+MEDFORD,+MA+02155&hl=en"
MELROSE POLICE DEPARTMENT,MELROSE POLICE DEPARTMENT,56 WEST FOSTER ST,MELROSE,MA,02176,"http://maps.google.com/maps?q=56 WEST FOSTER ST,+MELROSE,+MA+02176&hl=en"
MELROSE POLICE DEPARTMENT,"WALGREENS 
												
													RYAN HANLEY MGR 781-665-1329",897 MAIN ST,MELROSE,MA,02176,"http://maps.google.com/maps?q=897 MAIN ST,+MELROSE,+MA+02176&hl=en"
MERRIMAC POLICE DEPARTMENT,MERRIMAC POLICE DEPARTMENT,16 EAST MAIN ST,MERRIMAC,MA,01860,"http://maps.google.com/maps?q=16 EAST MAIN ST,+MERRIMAC,+MA+01860&hl=en"
MERRIMACK POLICE DEPARTMENT,MERRIMACK POLICE DEPARTMENT,31 BABOOSIC LAKE ROAD,MERRIMACK,NH,03054,"http://maps.google.com/maps?q=31 BABOOSIC LAKE ROAD,+MERRIMACK,+NH+03054&hl=en"
METHUEN POLICE DEPARTMENT,METHUEN POLICE DEPARTMENT,90 HAMPSHIRE STREET,METHUEN,MA,01844,"http://maps.google.com/maps?q=90 HAMPSHIRE STREET,+METHUEN,+MA+01844&hl=en"
MIDDLETOWN POLICE,MIDDLETOWN POLICE DEPARTMENT,222 MAIN ST,MIDDLETOWN,CT,06457,"http://maps.google.com/maps?q=222 MAIN ST,+MIDDLETOWN,+CT+06457&hl=en"
MILFORD POLICE DEPARTMENT,MILFORD POLICE DEPARTMENT,19 GARDEN STREET,MILFORD,NH,03055,"http://maps.google.com/maps?q=19 GARDEN STREET,+MILFORD,+NH+03055&hl=en"
NASHUA POLICE DEPARTMENT,"DEPARTMENT OF PUBLIC WORKS (DPW) 
												
													LOCATED BEHIND CONWAY ICE ARENA",9 RIVERSIDE ST,NASHUA,NH,03062,"http://maps.google.com/maps?q=9 RIVERSIDE ST,+NASHUA,+NH+03062&hl=en"
NATICK POLICE DEPARTMENT,"NATICK POLICE DEPARTMENT 
												
													IN THE REAR",20 EAST CENTRAL ST,NATICK,MA,01760,"http://maps.google.com/maps?q=20 EAST CENTRAL ST,+NATICK,+MA+01760&hl=en"
NEEDHAM POLICE DEPARTMENT,"NEEDHAM TOWN HALL 
												
													DRIVE WAY IN FRONT OF TOWN HALL",1471 HIGHLAND AVE,NEEDHAM,MA,02492,"http://maps.google.com/maps?q=1471 HIGHLAND AVE,+NEEDHAM,+MA+02492&hl=en"
NEW BOSTON POLICE DEPARTMENT,NEW BOSTON POLICE DEPARTMENT,116 OLD COACH ROAD,NEW BOSTON,NH,03070,"http://maps.google.com/maps?q=116 OLD COACH ROAD,+NEW BOSTON,+NH+03070&hl=en"
NEW BRITAIN POLICE DEPARTMENT,NEW BRITAIN POLICE DEPARTMENT,10 CHESTNUT STREET,NEW BRITAIN,CT,06051,"http://maps.google.com/maps?q=10 CHESTNUT STREET,+NEW BRITAIN,+CT+06051&hl=en"
NEWBURYPORT POLICE,NEWBURYPORT POLICE,4 GREEN ST,NEWBURYPORT,MA,01950,"http://maps.google.com/maps?q=4 GREEN ST,+NEWBURYPORT,+MA+01950&hl=en"
NEWMARKET POLICE DEPARTMENT,NEWMARKET POLICE DEPARTMENT,70 EXETER STREET,NEWMARKET,NH,03857,"http://maps.google.com/maps?q=70 EXETER STREET,+NEWMARKET,+NH+03857&hl=en"
NEWPORT POLICE DEPARTMENT,NEWPORT POLICE,120 BROADWAY,NEWPORT,RI,02840,"http://maps.google.com/maps?q=120 BROADWAY,+NEWPORT,+RI+02840&hl=en"
NEWTON POLICE DEPARTMENT,NEWTON POLICE DEPARTMENT,1321 WASHINGTON ST.,WEST NEWTON,MA,02465,"http://maps.google.com/maps?q=1321 WASHINGTON ST.,+WEST NEWTON,+MA+02465&hl=en"
NEWTON POLICE DEPARTMENT,TRANSFER STATION,4 DUGWAY RD,NEWTON,NH,03858,"http://maps.google.com/maps?q=4 DUGWAY RD,+NEWTON,+NH+03858&hl=en"
NORTH ANDOVER PD,NORTH ANDOVER POLICE DEPARTMENT,1475 OSGOOD STREET,NORTH ANDOVER,MA,01845,"http://maps.google.com/maps?q=1475 OSGOOD STREET,+NORTH ANDOVER,+MA+01845&hl=en"
NORTH ATTLEBORO POLICE DEPARTMENT,NORTH ATTLEBORO POLICE DEPARTMENT,102 SOUTH WASHINGTON STREET,NORTH ATTLEBORO,MA,02760,"http://maps.google.com/maps?q=102 SOUTH WASHINGTON STREET,+NORTH ATTLEBORO,+MA+02760&hl=en"
NORTH KINGSTOWN POLICE DEPARTMENT,NORTH KINGSTOWN POLICE DEPARTMENT HQ,8166 POST ROAD,NORTH KINGSTOWN,RI,02852,"http://maps.google.com/maps?q=8166 POST ROAD,+NORTH KINGSTOWN,+RI+02852&hl=en"
NORTH PROVIDENCE POLICE,NORTH PROVIDENCE POLICE,1967 MINERAL SPRING AVE,PROVIDENCE,RI,02904,"http://maps.google.com/maps?q=1967 MINERAL SPRING AVE,+PROVIDENCE,+RI+02904&hl=en"
NORTHAMPTON POLICE DEPARTMENT,JFK MIDDLE SCHOOL,100 BRIDGE RD,FLORENCE,MA,01062,"http://maps.google.com/maps?q=100 BRIDGE RD,+FLORENCE,+MA+01062&hl=en"
NORTHBOROUGH POLICE DEPARTMENT,NORTHBOROUGH POLICE DEPARTMENT,211 MAIN ST.,NORTHBOROUGH,MA,01532,"http://maps.google.com/maps?q=211 MAIN ST.,+NORTHBOROUGH,+MA+01532&hl=en"
NORTHBRIDGE POLICE DEPARTMENT,NORTHBRIDGE POLICE DEPARTMENT,1 HOPE STREET,WHITINSVILLE,MA,01588,"http://maps.google.com/maps?q=1 HOPE STREET,+WHITINSVILLE,+MA+01588&hl=en"
NORTON POLICE DEPARTMENT,NORTON POLICE DEPARTMENT,82 EAST MAIN STREET,NORTON,MA,02766,"http://maps.google.com/maps?q=82 EAST MAIN STREET,+NORTON,+MA+02766&hl=en"
NORWELL PD,NORWELL POLICE DEPARTMENT,300A WASHINGTON STREET,NORWELL,MA,02061,"http://maps.google.com/maps?q=300A WASHINGTON STREET,+NORWELL,+MA+02061&hl=en"
NORWOOD POLICE DEPARTMENT,NORWOOD POLICE DEPT,137 NAHATAN ST,NORWOOD,MA,02062,"http://maps.google.com/maps?q=137 NAHATAN ST,+NORWOOD,+MA+02062&hl=en"
NOTTINGHAM POLICE DEPARTMENT,NOTTINGHAM POLICE DEPARTMENT,139 STAGE ROAD,NOTTINGHAM,NH,03290,"http://maps.google.com/maps?q=139 STAGE ROAD,+NOTTINGHAM,+NH+03290&hl=en"
OLD LYME,OLD LYME FIRE STATION,69 LYME ST,OLD LYME,CT,06371,"http://maps.google.com/maps?q=69 LYME ST,+OLD LYME,+CT+06371&hl=en"
PAWTUCKET POLICE DEPT.,"PAWTUCKET POLICE DEPARTMENT 
												
													FRONT OFFICE",121 ROOSEVELT AVE.,PAWTUCKET,RI,02860,"http://maps.google.com/maps?q=121 ROOSEVELT AVE.,+PAWTUCKET,+RI+02860&hl=en"
PEABODY POLICE DEPARTMENT,PEABODY POLICE DEPARTMENT,6 ALLEN'S LANE,PEABODY,MA,01960,"http://maps.google.com/maps?q=6 ALLEN'S LANE,+PEABODY,+MA+01960&hl=en"
PELHAM POLICE DEPARTMENT,"PELHAM POLICE DEPT. 
												
													FRONT LOBBY",14 VILLAGE GREEN,PELHAM,NH,03076,"http://maps.google.com/maps?q=14 VILLAGE GREEN,+PELHAM,+NH+03076&hl=en"
PEPPERELL POLICE DEPARTMENT,"PEPPERELL POLICE STATION 
												
													COLLECTION KIOSK IN MAIN LOBBY",59 MAIN STREET,PEPPERELL,MA,01463,"http://maps.google.com/maps?q=59 MAIN STREET,+PEPPERELL,+MA+01463&hl=en"
PETERBOROUGH POLICE DEPARTMENT,"PETERBOROUGH POLICE DEPARTMENT 
												
													CAPT ERNIE BELLETETE",73 GROVE STREET,PETERBOROUGH,NH,03458,"http://maps.google.com/maps?q=73 GROVE STREET,+PETERBOROUGH,+NH+03458&hl=en"
PLAINVILLE POLICE DEPARTMENT,PLAINVILLE POLICE DEPARTMENT,157 SOUTH STREET,PLAINVILLE,MA,02762,"http://maps.google.com/maps?q=157 SOUTH STREET,+PLAINVILLE,+MA+02762&hl=en"
PLAISTOW POLICE DEPARTMENT,RITE AID PHARMACY,31 GARDEN RD,PLAISTOW,NH,03865,"http://maps.google.com/maps?q=31 GARDEN RD,+PLAISTOW,+NH+03865&hl=en"
PUTNAM POLICE DEPT,FARMER'S MARKETPLACE PAVILLION,3 KENNEDY DR,PUTNAM,CT,06260,"http://maps.google.com/maps?q=3 KENNEDY DR,+PUTNAM,+CT+06260&hl=en"
QUINCY POLICE DEPARTMENT,QUINCY POLICE DEPARTMENT,1 SEA STREET,QUINCY,MA,02169,"http://maps.google.com/maps?q=1 SEA STREET,+QUINCY,+MA+02169&hl=en"
RANDOLPH POLICE DEPARTMENT,RANDOLPH POLICE DEPARTMENT,41 SOUTH MAIN STREET,RANDOLPH,MA,02368,"http://maps.google.com/maps?q=41 SOUTH MAIN STREET,+RANDOLPH,+MA+02368&hl=en"
RAYMOND POLICE DEPARTMENT,RAYMOND POLICE DEPARTMENT,1 SCRIBNER RD.,RAYMOND,NH,03077,"http://maps.google.com/maps?q=1 SCRIBNER RD.,+RAYMOND,+NH+03077&hl=en"
RAYNHAM PD,RAYNHAM PD,53 ORCHARD ST,RAYNHAM,MA,02767,"http://maps.google.com/maps?q=53 ORCHARD ST,+RAYNHAM,+MA+02767&hl=en"
RHODE ISLAND STATE POLICE,RHODE ISLAND STATE POLICE,1575 LOUISQUISSET PIKE,LINCOLN,RI,02865,"http://maps.google.com/maps?q=1575 LOUISQUISSET PIKE,+LINCOLN,+RI+02865&hl=en"
RHODE ISLAND STATE POLICE,RHODE ISLAND STATE POLICE,311 DANIELSON PIKE,NORTH SCITUATE,RI,02857,"http://maps.google.com/maps?q=311 DANIELSON PIKE,+NORTH SCITUATE,+RI+02857&hl=en"
RHODE ISLAND STATE POLICE,RHODE ISLAND STATE POLICE,54 NOOSENECK HILL RD,WYOMING,RI,02898,"http://maps.google.com/maps?q=54 NOOSENECK HILL RD,+WYOMING,+RI+02898&hl=en"
RHODE ISLAND STATE POLICE,RHODE ISLAND STATE POLICE,7875 POST ROAD,NORTH KINGSTOWN,RI,02852,"http://maps.google.com/maps?q=7875 POST ROAD,+NORTH KINGSTOWN,+RI+02852&hl=en"
RICHMOND POLICE DEPARTMENT,RICHMOND POLICE,1168 MAIN STREET,WYOMING,RI,02898,"http://maps.google.com/maps?q=1168 MAIN STREET,+WYOMING,+RI+02898&hl=en"
RINDGE POLICE DEPARTMENT,RINDGE POLICE DEPARTMENT,158 MAIN ST,RINDGE,NH,03461,"http://maps.google.com/maps?q=158 MAIN ST,+RINDGE,+NH+03461&hl=en"
ROCKLAND POLICE DEPARTMENT,ROCKLAND POLICE DEPARTMENT,490 MARKET ST,ROCKLAND,MA,02370,"http://maps.google.com/maps?q=490 MARKET ST,+ROCKLAND,+MA+02370&hl=en"
ROCKY HILL POLICE DEPARTMENT,ROCKY HILL POLICE DEPARTMENT,699 OLD MAIN STREET,ROCKY HILL,CT,06067,"http://maps.google.com/maps?q=699 OLD MAIN STREET,+ROCKY HILL,+CT+06067&hl=en"
ROWELY POLICE DEPARTMENT,"TOWN HALL ANNEX 
												
													COUNCIL ON AGING",39 CENTRAL STREET,ROWLEY,MA,01969,"http://maps.google.com/maps?q=39 CENTRAL STREET,+ROWLEY,+MA+01969&hl=en"
RUTLAND PD,RUTLAND PD,242 MAIN STREET,RUTLAND,MA,01543,"http://maps.google.com/maps?q=242 MAIN STREET,+RUTLAND,+MA+01543&hl=en"
SALEM PD,SALEM POLICE DEPT,95 MARGIN ST,SALEM,MA,01970,"http://maps.google.com/maps?q=95 MARGIN ST,+SALEM,+MA+01970&hl=en"
SALEM POLICE DEPARTMENT,SALEM POLICE DEPARTMENT,9 VETERANS MEMORIAL PARKWAY,SALEM,NH,03079,"http://maps.google.com/maps?q=9 VETERANS MEMORIAL PARKWAY,+SALEM,+NH+03079&hl=en"
SALEM STATE POLICE,SALEM STATE POLICE DEPARTMENT,71 LORING AVENUE,SALEM,MA,01970,"http://maps.google.com/maps?q=71 LORING AVENUE,+SALEM,+MA+01970&hl=en"
SALISBURY POLICE DEPARTMENT,"SALISBURY POLICE DEPARTMENT 
												
													FRONT LOBBY SELF-SERVE COLLECTION BOX",181 BEACH ROAD,SALISBURY,MA,01952,"http://maps.google.com/maps?q=181 BEACH ROAD,+SALISBURY,+MA+01952&hl=en"
SAUGUS POLICE,SAUGUS POLICE DEPARTMENT,27 HAMILTON STREET,SAUGUS,MA,01906,"http://maps.google.com/maps?q=27 HAMILTON STREET,+SAUGUS,+MA+01906&hl=en"
SEABROOK POLICE DEPARTMENT,SEABROOK POLICE DEPARTMENT,7 LIBERTY LANE,SEABROOK,NH,03874,"http://maps.google.com/maps?q=7 LIBERTY LANE,+SEABROOK,+NH+03874&hl=en"
SHARON POLICE DEPARTMENT,"SHARON PUBLIC SAFETY BUILDING 
												
													213 SOUTH MAIN STREET",213 SOUTH MAIN STREET,SHARON,MA,02067,"http://maps.google.com/maps?q=213 SOUTH MAIN STREET,+SHARON,+MA+02067&hl=en"
SHREWSBURY POLICE DEPARTMENT,SHREWSBURY SENIOR CENTER,98 MAPLE AVE,SHREWSBURY,MA,01545,"http://maps.google.com/maps?q=98 MAPLE AVE,+SHREWSBURY,+MA+01545&hl=en"
SMITHFIELD POLICE DEPARTMENT,SMITHFIELD POLICE,215 PLEASANT VIEW AVENUE,SMITHFIELD,RI,02917,"http://maps.google.com/maps?q=215 PLEASANT VIEW AVENUE,+SMITHFIELD,+RI+02917&hl=en"
SOMERSET POLICE DEPARTMENT,CVS PHARMACY,1587 BRAYTON POINT ROAD,SOMERSET,MA,02726,"http://maps.google.com/maps?q=1587 BRAYTON POINT ROAD,+SOMERSET,+MA+02726&hl=en"
SOMERVILLE POLICE DEPARTMENT,SOMERVILLE FIRE DEPARTMENT,6 NEWBURY ST.,SOMERVILLE,MA,02144,"http://maps.google.com/maps?q=6 NEWBURY ST.,+SOMERVILLE,+MA+02144&hl=en"
SOMERVILLE POLICE DEPARTMENT,SOMERVILLE POLICE DEPARTMENT,220 WASHINGTON ST.,SOMERVILLE,MA,02143,"http://maps.google.com/maps?q=220 WASHINGTON ST.,+SOMERVILLE,+MA+02143&hl=en"
SOUTH KINGSTOWN POLICE DEPARTMENT,SOUTH KINGSTOWN POLICE,1790 KINGSTOWN RD,WAKEFIELD,RI,02879,"http://maps.google.com/maps?q=1790 KINGSTOWN RD,+WAKEFIELD,+RI+02879&hl=en"
SOUTH WINDSOR POLICE DEPARTMENT,SOUTH WINDSOR POLICE DEPARTMENT,151 SAND HILL ROAD,SOUTH WINDSOR,CT,06074,"http://maps.google.com/maps?q=151 SAND HILL ROAD,+SOUTH WINDSOR,+CT+06074&hl=en"
SOUTHAMPTON POLICE DEPARTMENT,SOUTHAMPTON FIRE/TOWN HALL PARKING LOT,210 COLLEGE HIGHWAY,SOUTHAMPTON,MA,01073,"http://maps.google.com/maps?q=210 COLLEGE HIGHWAY,+SOUTHAMPTON,+MA+01073&hl=en"
SOUTHBRIDGE POLICE DEPARTMENT,SOUTHBRIDGE POLICE DEPARTMENT,1 MECHANIC STREET,SOUTHBRIDGE,MA,01550,"http://maps.google.com/maps?q=1 MECHANIC STREET,+SOUTHBRIDGE,+MA+01550&hl=en"
SPENCER POLICE DEPARTMENT,CVS PHARMACY,133 MAIN STREET,SPENCER,MA,01562,"http://maps.google.com/maps?q=133 MAIN STREET,+SPENCER,+MA+01562&hl=en"
SPRINGFIELD POLICE DEPARTMENT,CENTRAL HIGH SCHOOL,1840 ROOSEVELT AVE,SPRINGFIELD,MA,01109,"http://maps.google.com/maps?q=1840 ROOSEVELT AVE,+SPRINGFIELD,+MA+01109&hl=en"
STONEHAM POLICE DEPT.,"STONEHAM POLICE DEPARTMENT 
												
													MAIN LOBBY",47 CENTRAL STREET,STONEHAM,MA,02180,"http://maps.google.com/maps?q=47 CENTRAL STREET,+STONEHAM,+MA+02180&hl=en"
STONINGTON POLICE DEPARTMENT,STONINGTON POLICE DEPARTMENT,173 SOUTH BROAD ST,PAWCATUCK,CT,06379,"http://maps.google.com/maps?q=173 SOUTH BROAD ST,+PAWCATUCK,+CT+06379&hl=en"
STRATHAM POLICE DEPARTMENT,"STRATHAM POLICE DEPT. 
												
													FRONT LOBBY",76 PORTSMOUTH AVE.,STRATHAM,NH,03885,"http://maps.google.com/maps?q=76 PORTSMOUTH AVE.,+STRATHAM,+NH+03885&hl=en"
SUFFIELD POLICE DEPARTMENT,CVS PHARMACY PARKING LOT,163 MOUNTAIN RDSUFFIELD,SUFFIELD,CT,06078,"http://maps.google.com/maps?q=163 MOUNTAIN RD,+SUFFIELD,+CT+06078&hl=en"
SUNDERLAND POLICE DEPARTMENT,TOWN OF SUNDERLAND POLICE DEPARTMENT,105 RIVER ROAD,SUNDERLAND,MA,01375,"http://maps.google.com/maps?q=105 RIVER ROAD,+SUNDERLAND,+MA+01375&hl=en"
SWAMPSCOTT POLICE,SWAMPSCOTT POLICE HEADQUARTERS,531 HUMPHREY STREET,SWAMPSCOTT,MA,01907,"http://maps.google.com/maps?q=531 HUMPHREY STREET,+SWAMPSCOTT,+MA+01907&hl=en"
TAUNTON POLICE DEPT.,"TAUNTON POLICE DEPT. 
												
													MAIN LOBBY",23 SUMMER ST,TAUNTON,MA,02780,"http://maps.google.com/maps?q=23 SUMMER ST,+TAUNTON,+MA+02780&hl=en"
TEMPLETON PD,NARRAGANSETT REGIONAL MIDDLE SCHOOL,464 BALDWINVILLE ROAD,TEMPLETON,MA,01468,"http://maps.google.com/maps?q=464 BALDWINVILLE ROAD,+TEMPLETON,+MA+01468&hl=en"
TEWKSBURY POLICE DEPARTMENT,TEWKSBURY POLICE HEADQUARTERS,918 MAIN STREET,TEWKSBURY,MA,01876,"http://maps.google.com/maps?q=918 MAIN STREET,+TEWKSBURY,+MA+01876&hl=en"
TOPSFIELD POLICE DEPARTMENT,TOPSFIELD POLICE DEPARTMENT,210 BOSTON STREET,TOPSFIELD,MA,01983,"http://maps.google.com/maps?q=210 BOSTON STREET,+TOPSFIELD,+MA+01983&hl=en"
TOWNSEND POLICE DEPARTMENT,TOWNSEND POLICE DEPARTMENT,70 BROOKLINE STREET,TOWNSEND,MA,01469,"http://maps.google.com/maps?q=70 BROOKLINE STREET,+TOWNSEND,+MA+01469&hl=en"
TROY POLICE DEPARTMENT,TROY POLICE DEPT,14 CENTRAL SQUARE,TROY,NH,03465,"http://maps.google.com/maps?q=14 CENTRAL SQUARE,+TROY,+NH+03465&hl=en"
TYNGSBOROUGH POLICE DEPARTMENT,TYNGSBOROUGH POLICE DEPARTMENT,20 WESTFORD ROAD,TYNGSBOROUGH,MA,01879,"http://maps.google.com/maps?q=20 WESTFORD ROAD,+TYNGSBOROUGH,+MA+01879&hl=en"
VERNON POLICE DEPARTMENT,WALGREENS PHARMACY,188 UNION STREET,VERNON ROCKVILLE,CT,06066,"http://maps.google.com/maps?q=188 UNION STREET,+VERNON ROCKVILLE,+CT+06066&hl=en"
WAKEFIELD POLICE DEPARTMENT,WAKEFIELD POLICE DEPARTMENT,1 UNION ST,WAKEFIELD,MA,01880,"http://maps.google.com/maps?q=1 UNION ST,+WAKEFIELD,+MA+01880&hl=en"
WAKEFIELD POLICE DEPARTMENT,WALGREENS PHARMACY,572 MAIN ST,WAKEFIELD,MA,01880,"http://maps.google.com/maps?q=572 MAIN ST,+WAKEFIELD,+MA+01880&hl=en"
WALPOLE POLICE DEPARTMENT,WALPOLE RECYCLE CENTER,207 WHITCOMB ROAD,WALPOLE,NH,03608,"http://maps.google.com/maps?q=207 WHITCOMB ROAD,+WALPOLE,+NH+03608&hl=en"
WALTHAM POLICE DEPT,"WALTHAM POLICE DEPT 
												
													REAR OF THE POLICE STATION",155 LEXINGTON ST.,WALTHAM,MA,02452,"http://maps.google.com/maps?q=155 LEXINGTON ST.,+WALTHAM,+MA+02452&hl=en"
WARREN POLICE DEPARTMENT,WARREN POLICE DEPARTMENT,1 JOYCE STREET,WARREN,RI,02885,"http://maps.google.com/maps?q=1 JOYCE STREET,+WARREN,+RI+02885&hl=en"
WASHINGTON POLICE DEPARTMENT,WASHINGTON POLICE DEPARTMENT,5 HALFMOON POND RD,WASHINGTON,NH,03280,"http://maps.google.com/maps?q=5 HALFMOON POND RD,+WASHINGTON,+NH+03280&hl=en"
WATERTOWN POLICE DEPARTMENT,WATERTOWN POLICE DEPARTMENT,552 MAIN STREET,WATERTOWN,MA,02472,"http://maps.google.com/maps?q=552 MAIN STREET,+WATERTOWN,+MA+02472&hl=en"
WEBSTER PD,WEBSTER POLICE DEPT.,357 MAIN ST,WEBSTER,MA,01570,"http://maps.google.com/maps?q=357 MAIN ST,+WEBSTER,+MA+01570&hl=en"
WELLESLEY POLICE DEPARTMENT,THE WELLESLEY POLICE DEPARTMENT,485 WASHINGTON STREET,WELLESLEY,MA,02482,"http://maps.google.com/maps?q=485 WASHINGTON STREET,+WELLESLEY,+MA+02482&hl=en"
WEST GREENWICH POLICE,WEST GREENWICH POLICE,280 VICTORY HIGHWAY,WEST GREENWICH,RI,02817,"http://maps.google.com/maps?q=280 VICTORY HIGHWAY,+WEST GREENWICH,+RI+02817&hl=en"
WEST HARTFORD POLICE DEPARTMENT,"WEST HARTFORD POLICE DEPARTMENT 
												
													LT SAM FERRUCCI",103 RAYMOND RD,WEST HARTFORD,CT,06107,"http://maps.google.com/maps?q=103 RAYMOND RD,+WEST HARTFORD,+CT+06107&hl=en"
WEST NEWBURY POLICE DEPARTMENT,WEST NEWBURY POLICE DEPARTMENT,401 MAIN STREET,WEST NEWBURY,MA,01985,"http://maps.google.com/maps?q=401 MAIN STREET,+WEST NEWBURY,+MA+01985&hl=en"
WESTERLY POLICE DEPARTMENT,WESTERLY POLICE,60 AIRPORT ROAD,WESTERLY,RI,02891,"http://maps.google.com/maps?q=60 AIRPORT ROAD,+WESTERLY,+RI+02891&hl=en"
WESTFORD PD,WESTFORD POLICE DEPT,53 MAIN ST,WESTFORD,MA,01886,"http://maps.google.com/maps?q=53 MAIN ST,+WESTFORD,+MA+01886&hl=en"
WESTMINSTER POLICE DEPARTMENT,"WESTMINSTER PUBLIC SAFETY BUILDING 
												
													LOBBY - DROP BOX",7 SOUTH ST,WESTMINSTER,MA,01473,"http://maps.google.com/maps?q=7 SOUTH ST,+WESTMINSTER,+MA+01473&hl=en"
WESTWOOD POLICE DEPARTMENT,"WESTWOOD POLICE DEPARTMENT 
												
													CONTACT DET PAUL TOLAND",588 HIGH STREET,WESTWOOD,MA,02090,"http://maps.google.com/maps?q=588 HIGH STREET,+WESTWOOD,+MA+02090&hl=en"
WETHERSFIELD POLICE DEPARTMENT,"WETHERSFIELD POLICE DEPARTMENT 
												
													MAIN LOBBY",250 SILAS DEANE HWY.,WETHERSFIELD,CT,06109,"http://maps.google.com/maps?q=250 SILAS DEANE HWY.,+WETHERSFIELD,+CT+06109&hl=en"
WEYMOUTH POLICE DEPARTMENT,WEYMOUTH POLICE DEPARTMENT,140 WINTER ST,WEYMOUTH,MA,02188,"http://maps.google.com/maps?q=140 WINTER ST,+WEYMOUTH,+MA+02188&hl=en"
WILLIAMSBURG POLICE DEPT,WILLAIMSBURG PHARMACY,49 MAIN ST,WILLIAMSBURG,MA,01096,"http://maps.google.com/maps?q=49 MAIN ST,+WILLIAMSBURG,+MA+01096&hl=en"
WILLIMANTIC POLICE DEPT,"JILSON SQUARE 
												
													IN THE PARKING LOT","600 BLOCK, MAIN STREET22 MEADOW STREET",WILLIMANTIC,CT,06226,"http://maps.google.com/maps?q=600 BLOCK, MAIN STREET,+WILLIMANTIC,+CT+06226&hl=en"
WILMINGTON POLICE,WILMINGTON PUBLIC SAFETY BUILDING,1ADELAIDE ST,WILMINGTON,MA,01887,"http://maps.google.com/maps?q=1ADELAIDE ST,+WILMINGTON,+MA+01887&hl=en"
WILTON POLICE DEPARTMENT,WILTON POLICE DEPARTMENT,7 BURNS HILL ROAD,WILTON,NH,03086,"http://maps.google.com/maps?q=7 BURNS HILL ROAD,+WILTON,+NH+03086&hl=en"
WINCHESTER PD,"WINCHESTER TRANSFER STATION MAIN GATE 
												
													UNDER LARGE TENT",7 MCKAY AVENUE,WINCHESTER,MA,01890,"http://maps.google.com/maps?q=7 MCKAY AVENUE,+WINCHESTER,+MA+01890&hl=en"
WINCHESTER POLICE DEPARTMENT,WINCHESTER POLICE DEPARTMENT,6 PARKER STREET,WINCHESTER,NH,03470,"http://maps.google.com/maps?q=6 PARKER STREET,+WINCHESTER,+NH+03470&hl=en"
WINDHAM NH POLICE DEPARTMENT,WINDHAM POLICE DEPARTMMENT,4 FELLOWS ROAD,WINDHAM,NH,03087,"http://maps.google.com/maps?q=4 FELLOWS ROAD,+WINDHAM,+NH+03087&hl=en"
WINDSOR POLICE DEPARTMENT,"CVS 
												
													484 WINDSOR AVE, WINDSOR",484 WINDSOR AVE,WINDSOR,CT,06095,"http://maps.google.com/maps?q=484 WINDSOR AVE,+WINDSOR,+CT+06095&hl=en"
WINTHROP POLICE DEPARTMENT,WINTHROP POLICE DEPARTMENT,3 METCALF SQ.,WINTHROP,MA,02152,"http://maps.google.com/maps?q=3 METCALF SQ.,+WINTHROP,+MA+02152&hl=en"
WOBURN POLICE DEPARTMENT,"WOBURN POLICE DEPARTMENT 
												
													FRONT LOBBY ENTRANCE",25 HARRISON AVE.,WOBURN,MA,01801,"http://maps.google.com/maps?q=25 HARRISON AVE.,+WOBURN,+MA+01801&hl=en"
WOONSOCKET POLICE DEPARTMENT,"CVS PHARMACY 
												
													PARKING LOT",1054 CASS AVE,WOONSOCKET,RI,02895,"http://maps.google.com/maps?q=1054 CASS AVE,+WOONSOCKET,+RI+02895&hl=en"
