Participant,CollectionSite,Address,City,State,Zip,MapURL
ALBANY POLICE DEPARTMENT,"ALBANY POLICE DEPARTMENT 
												
													DROP BOX ONLY 24/7",206 N. WATER STREET,ALBANY,WI,53502,"http://maps.google.com/maps?q=206 N. WATER STREET,+ALBANY,+WI+53502&hl=en"
ALGONQUIN POLICE,ALGONQUIN POLICE DEPARTMENT,2200 HARNISH DRIVE,ALGONQUIN,IL,60102,"http://maps.google.com/maps?q=2200 HARNISH DRIVE,+ALGONQUIN,+IL+60102&hl=en"
APPLETON POLICE DEPARTMENT,APPLETON POLICE DEPARTMENT,222 S. WALNUT STREET,APPLETON,WI,54911,"http://maps.google.com/maps?q=222 S. WALNUT STREET,+APPLETON,+WI+54911&hl=en"
ARLINGTON HEIGHTS POLICE DEPARTMENT,ARLINGTON HEIGHTS VILLAGE HALL,33 S. ARLINGTON HEIGHTS ROAD,ARLINGTON HEIGHTS,IL,60005,"http://maps.google.com/maps?q=33 S. ARLINGTON HEIGHTS ROAD,+ARLINGTON HEIGHTS,+IL+60005&hl=en"
ASHWAUBENON POLICE DEPARTMENT,ASHWAUBENON PUBLIC SAFETY BUILDING,2155 HOLMGREN WAY,ASHWAUBENON,WI,54304,"http://maps.google.com/maps?q=2155 HOLMGREN WAY,+ASHWAUBENON,+WI+54304&hl=en"
AURORA POLICE HEADQUARTERS,AURORA POLICE HEADQUARTERS,1200 E INDIAN TRAIL RD,AURORA,IL,60505,"http://maps.google.com/maps?q=1200 E INDIAN TRAIL RD,+AURORA,+IL+60505&hl=en"
BARRINGTON POLICE DEPARTMENT,"BARRINGTON POLICE DEPARTMENT 
												
													PUBLIC SAFETY BUILDING",400 N. NORTHWEST HWY,BARRINGTON,IL,60010,"http://maps.google.com/maps?q=400 N. NORTHWEST HWY,+BARRINGTON,+IL+60010&hl=en"
BAYSIDE POLICE DEPARTMENT,BAYSIDE POLICE DEPARTMENT,9075 N REGENT ROAD,BAYSIDE,WI,53217,"http://maps.google.com/maps?q=9075 N REGENT ROAD,+BAYSIDE,+WI+53217&hl=en"
BEAVER DAM POLICE DEPARTMENT,BEAVER DAM POLICE DEPARTMENT,123 PARK AVENUE,BEAVER DAM,WI,53916,"http://maps.google.com/maps?q=123 PARK AVENUE,+BEAVER DAM,+WI+53916&hl=en"
BELOIT POLICE DEPARTMENT,"BELOIT POLICE DEPARTMENT 
												
													DROP BOX ONLY",100 STATE ST,BELOIT,WI,53511,"http://maps.google.com/maps?q=100 STATE ST,+BELOIT,+WI+53511&hl=en"
BELOIT TOWN POLICE DEPARTMENT,"TOWN OF BELOIT POLICE DEPARTMENT 
												
													EVENT 10:00 AM TO 2:00 PM",1133 INMAN PKWY,BELOIT,WI,53511,"http://maps.google.com/maps?q=1133 INMAN PKWY,+BELOIT,+WI+53511&hl=en"
BERLIN POLICE DEPARTMENT,"BERLIN POLICE DEPARTMENT 
												
													DROP BOX ONLY M-F 7:30 AM-4:30 PM",108 N. CAPRON STREET,BERLIN,WI,54923,"http://maps.google.com/maps?q=108 N. CAPRON STREET,+BERLIN,+WI+54923&hl=en"
BERWYN POLICE DEPARTMENT,BERWYN POLICE DEPARTMENT,6401 W 31ST,BERWYN,IL,60402,"http://maps.google.com/maps?q=6401 W 31ST,+BERWYN,+IL+60402&hl=en"
BRIDGEVIEW POLICE DEPARTMENT,BRIDGEVIEW POLICE DEPARTMENT,7500 S. OKETO AVE,BRIDGEVIEW,IL,60455,"http://maps.google.com/maps?q=7500 S. OKETO AVE,+BRIDGEVIEW,+IL+60455&hl=en"
BRILLION POLICE DEPARTMENT,BRILLION POLICE DEPARTMENT,130 CALUMENT ST,BRILLION,WI,54110,"http://maps.google.com/maps?q=130 CALUMENT ST,+BRILLION,+WI+54110&hl=en"
BROADVIEW POLICE DEPARTMENT,BROADVIEW POLICE DEPARTMENT,2350 S. 25TH AVE,BROADVIEW,IL,60155,"http://maps.google.com/maps?q=2350 S. 25TH AVE,+BROADVIEW,+IL+60155&hl=en"
BRODHEAD POLICE DEPARTMENT,"BRODHEAD POLICE DEPARTMENT 
												
													DROP BOX ONLY 24/7",1004 W. EXCHANGE ST,BRODHEAD,WI,53520,"http://maps.google.com/maps?q=1004 W. EXCHANGE ST,+BRODHEAD,+WI+53520&hl=en"
BROOKFIELD TOWN POLICE DEPARTMENT,"TOWN OF BROOKFIELD POLICE DEPARTMENT 
												
													EVEN 10:00AM-2:00PM",655 N. JANACEK RD,BROOKFIELD,WI,53045,"http://maps.google.com/maps?q=655 N. JANACEK RD,+BROOKFIELD,+WI+53045&hl=en"
BROWN COUNTY SHERIFF'S OFFICE,"ALLOUEZ VILLAGE HALL 
												
													EVENT 10:00 AM - 2:00 PM",1900 LIBAL STREET,GREEN BAY,WI,54301,"http://maps.google.com/maps?q=1900 LIBAL STREET,+GREEN BAY,+WI+54301&hl=en"
BROWN COUNTY SHERIFF'S OFFICE,"BELLEVUE VILLAGE HALL 
												
													EVENT 10:00 AM - 2:00 PM",3100 EATON ROAD,GREEN BAY,WI,54311,"http://maps.google.com/maps?q=3100 EATON ROAD,+GREEN BAY,+WI+54311&hl=en"
BROWN COUNTY SHERIFF'S OFFICE,"DENMARK VILLAGE HALL 
												
													EVENT 10:00 AM - 2:00 PM",118 EAST MAIN STREET,DENMARK,WI,54208,"http://maps.google.com/maps?q=118 EAST MAIN STREET,+DENMARK,+WI+54208&hl=en"
BROWN COUNTY SHERIFF'S OFFICE,"SUAMICO MUNICIPAL SERVICE CENTER 
												
													EVENT 10:00 AM - 2:00 PM",12781 VELP AVE,SUAMICO,WI,54313,"http://maps.google.com/maps?q=12781 VELP AVE,+SUAMICO,+WI+54313&hl=en"
BROWN DEER POLICE DEPARTMENT,"BROWN DEER POLICE DEPARTMENT 
												
													BOX M-F 8:00AM-4:30PM",4800 WEST GREEN BROOK DRIVE,BROWN DEER,WI,53223,"http://maps.google.com/maps?q=4800 WEST GREEN BROOK DRIVE,+BROWN DEER,+WI+53223&hl=en"
BUFFALO GROVE POLICE DEPARTMENT,BUFFALO GROVE POLICE,46 RAUPP BLV,BUFFALO GROVE,IL,60089,"http://maps.google.com/maps?q=46 RAUPP BLV,+BUFFALO GROVE,+IL+60089&hl=en"
BUFFALO GROVE POLICE DEPARTMENT,BUFFALO GROVE POLICE @ MARIANO'S,450 W. HALF DAY ROAD,BUFFALO GROVE,IL,60089,"http://maps.google.com/maps?q=450 W. HALF DAY ROAD,+BUFFALO GROVE,+IL+60089&hl=en"
BURLINGTON TOWN POLICE DEPARTMENT,"TOWN OF BURLINGTON POLICE DEPARTMENT 
												
													DROP BOX ONLY 24/7",32288 BUSHNELL ROAD,BURLINGTON,WI,53105,"http://maps.google.com/maps?q=32288 BUSHNELL ROAD,+BURLINGTON,+WI+53105&hl=en"
BUTLER POLICE DEPARTMENT,"BUTLER POLICE DEPARTMENT 
												
													EVENT 8:00AM-12:00PM",12621 W. HAMPTON AVE.,BUTLER,WI,53007,"http://maps.google.com/maps?q=12621 W. HAMPTON AVE.,+BUTLER,+WI+53007&hl=en"
CALEDONIA POLICE DEPARTMENT,"CALEDONIA POLICE DEPARTMENT 
												
													DROP BOX 24/7",6900 NICHOLSON RD,CALEDONIA,WI,53108,"http://maps.google.com/maps?q=6900 NICHOLSON RD,+CALEDONIA,+WI+53108&hl=en"
CALUMET COUNTY SHERIFF'S OFFICE,"CALUMET COUNTY SHERIFF'S OFFICE 
												
													DROP BOX ONLY 24/7",206 COURT STREET,CHILTON,WI,53014,"http://maps.google.com/maps?q=206 COURT STREET,+CHILTON,+WI+53014&hl=en"
CAMPBELLSPORT POLICE DEPARTMENT,"CAMPBELLSPORT POLICE DEPARTMENT 
												
													DROP BOX M-F 8:00 AM TO 4:00 PM",470 GRANDVIEW AVE,CAMPBELLSPORT,WI,53010,"http://maps.google.com/maps?q=470 GRANDVIEW AVE,+CAMPBELLSPORT,+WI+53010&hl=en"
CARY POLICE DEPARTMENT,CARY POLICE DEPARTMENT,654 VILLAGE HALL DRIVE,CARY,IL,60013,"http://maps.google.com/maps?q=654 VILLAGE HALL DRIVE,+CARY,+IL+60013&hl=en"
CEDARBURG POLICE DEPT,"CEDARBURG POLICE DEPT 
												
													DROP BOX ONLY 24/7",W75 N4444 WAUWATOSA RD,CEDARBURG,WI,53012,"http://maps.google.com/maps?q=W75 N4444 WAUWATOSA RD,+CEDARBURG,+WI+53012&hl=en"
CITY OF BURLINGTON POLICE DEPARATMENT,"CITY OF BURLINGTON DEPT OF PUBLIC WORKS 
												
													EVENT 8:00AM-12:00PM",2200 S PINE STREET,BURLINGTON,WI,53105,"http://maps.google.com/maps?q=2200 S PINE STREET,+BURLINGTON,+WI+53105&hl=en"
CITY OF DELAVAN POLICE DEPARTMENT,"CITY OF DELEVAN POLICE DEPARTMENT 
												
													EVENT 9:00AM-4:00PM",123 SOUTH 2ND STREET,DELAVAN,WI,53115,"http://maps.google.com/maps?q=123 SOUTH 2ND STREET,+DELAVAN,+WI+53115&hl=en"
CITY OF GILLETT POLICE DEPARTMENT,"GILLETT POLICE DEPARTMENT 
												
													DROP BOX ONLY M-TH 7:00AM-4:00PM",150 N. MCKENZIE AVE,GILLETT,WI,54124,"http://maps.google.com/maps?q=150 N. MCKENZIE AVE,+GILLETT,+WI+54124&hl=en"
CITY OF LODI POLICE DEPARTMENT,"CITY OF LODI POLICE DEPARTMENT 
												
													EVENT 7:00AM - 4:00PM",142 S MAIN ST,LODI,WI,53555,"http://maps.google.com/maps?q=142 S MAIN ST,+LODI,+WI+53555&hl=en"
"CITY OF SANDWICH, ILL POLICE DEPARTMENT",SANDWICH POLICE DEPARTMENT,308 EAST COLLEGE ST,SANDWICH,IL,60548,"http://maps.google.com/maps?q=308 EAST COLLEGE ST,+SANDWICH,+IL+60548&hl=en"
CITY OF WAUKESHA POLICE DEPARTMENT,"CITY OF WAUKESHA POLICE DEPARTMENT 
												
													EVENT 10:00AM-2:00PM",1901 DELAFIELD ST,WAUKESHA,WI,53188,"http://maps.google.com/maps?q=1901 DELAFIELD ST,+WAUKESHA,+WI+53188&hl=en"
CLINTONVILLE POLICE DEPARTMENT,"CLINTONVILLE POLICE DEPARTMENT 
												
													DROP BOX ONLY 24/7",35 S CLINTON AVE,CLINTONVILLE,WI,54929,"http://maps.google.com/maps?q=35 S CLINTON AVE,+CLINTONVILLE,+WI+54929&hl=en"
COLUMBUS POLICE DEPARTMENT,"COLUMBUS FIREMAN'S PARK PAVAILLION 
												
													EVENT 10:00AM-2:00PM",1049 PARK AVE,COLUMBUS,WI,53925,"http://maps.google.com/maps?q=1049 PARK AVE,+COLUMBUS,+WI+53925&hl=en"
CROSS PLAINS POLICE DEPARTMENT,"CROSS PLAINS POLICE DEPARTMENT 
												
													EVENT 7:00 AM TO 10:00 AM",2417 BREWERY RD,CROSS PLAINS,WI,53528,"http://maps.google.com/maps?q=2417 BREWERY RD,+CROSS PLAINS,+WI+53528&hl=en"
CRYSTAL LAKE POLICE DEPARTMENT,CRYSTAL LAKE POLICE DEPARTMENT,100 W WOODSTOCK STREET,CRYSTAL LAKE,IL,60014,"http://maps.google.com/maps?q=100 W WOODSTOCK STREET,+CRYSTAL LAKE,+IL+60014&hl=en"
CUDAHY POLICE DEPARTMENT,"CUDAHY POLICE DEPARTMENT 
												
													DROP BOX ONLY 24/7",5050 S. LAKE DRIVE,CUDAHY,WI,53110,"http://maps.google.com/maps?q=5050 S. LAKE DRIVE,+CUDAHY,+WI+53110&hl=en"
DANE COUNTY SHERIFF'S OFFICE,DANE COUNTY SHERIFF'S OFFICE,115 W DOTY STREET,MADISON,WI,53703,"http://maps.google.com/maps?q=115 W DOTY STREET,+MADISON,+WI+53703&hl=en"
DE PERE POLICE DEPARTMENT,"DE PERE POLICE DEPARTMENT 
												
													DROP BOX M-F 8:00 AM-4:30 PM",325 S BROADWAY ST,DE PERE,WI,54115,"http://maps.google.com/maps?q=325 S BROADWAY ST,+DE PERE,+WI+54115&hl=en"
DEFOREST POLICE DEPARTMENT,"DEFOREST POLICE DEPARTMENT 
												
													EVENT 10:00 AM - 2:00 PM",305 E HOLUM ST,DEFOREST,WI,53532,"http://maps.google.com/maps?q=305 E HOLUM ST,+DEFOREST,+WI+53532&hl=en"
DELAFIELD (CITY) POLICE DEPARTMENT,"WALGREENS 
												
													EVENT 10:00 AM - 2:00 PM",2901 GOLF ROAD,DELAFIELD,WI,53018,"http://maps.google.com/maps?q=2901 GOLF ROAD,+DELAFIELD,+WI+53018&hl=en"
DES PLAINES POLICE DEPARTMENT,"DES PLAINES POLICE DEPARTMENT 
												
													FRONT LOBBY",1418 MINER ST.,DES PLAINES,IL,60016,"http://maps.google.com/maps?q=1418 MINER ST.,+DES PLAINES,+IL+60016&hl=en"
DODGE COUNTY SHERIFF'S DEPT,"DODGE COUNTY SHERIFF'S OFFICE 
												
													DROP BOX ONLY 24/7",124 WEST ST,JUNEAU,WI,53039,"http://maps.google.com/maps?q=124 WEST ST,+JUNEAU,+WI+53039&hl=en"
EAST TROY VILLAGE POLICE DEPARTMENT,"EAST TROY VILLAGE POLICE DEPARTMENT 
												
													DROP BOX ONLY 24/7",2015 ENERGY DR,EAST TROY,WI,53120,"http://maps.google.com/maps?q=2015 ENERGY DR,+EAST TROY,+WI+53120&hl=en"
EDGERTON POLICE DEPARTMENT,"EDGERTON POLICE DEPARTMENT 
												
													EVENT 11:00AM-2:00PM",215 W FULTON ST,EDGERTON,WI,53534,"http://maps.google.com/maps?q=215 W FULTON ST,+EDGERTON,+WI+53534&hl=en"
ELK GROVE VILLAGE POLICE DEPARTMENT,ELK GROVE VIILAGE POLICE DEPARTMENT,901 WELLINGTON AVE,ELK GROVE VILLAGE,IL,60007,"http://maps.google.com/maps?q=901 WELLINGTON AVE,+ELK GROVE VILLAGE,+IL+60007&hl=en"
ELKHORN POLICE DEPARTMENT,"WALGREENS 
												
													EVENT 10:00AM-2:00PM",939 N WISCONSIN STREET,ELKHORN,WI,53121,"http://maps.google.com/maps?q=939 N WISCONSIN STREET,+ELKHORN,+WI+53121&hl=en"
ELM GROVE POLICE DEPARTMENT,"WALGREENS 
												
													EVENT 10:00AM-2:00PM",15350 WEST BLUEMOUND RD,ELM GROVE,WI,53122,"http://maps.google.com/maps?q=15350 WEST BLUEMOUND RD,+ELM GROVE,+WI+53122&hl=en"
ELMHURST POLICE DEPARTMENT,ELMHURST POLICE @ ELMHURST COLLEGE,190 S. PROSPECT125 E. FIRST,ELMHURST,IL,60126,"http://maps.google.com/maps?q=190 S. PROSPECT,+ELMHURST,+IL+60126&hl=en"
ELMWOOD PARK POLICE DEPARTMENT,ELMWOOD PARK PUBLIC SAFETY BUILDING,7420 W. FULLERTON AVENUE,ELMWOOD PARK,IL,60707,"http://maps.google.com/maps?q=7420 W. FULLERTON AVENUE,+ELMWOOD PARK,+IL+60707&hl=en"
ENDEAVOR POLICE DEPARTMENT,"ENDEAVOR POLICE DEPARTMENT 
												
													DROP BOX M-F 8:00AM-6:00PM SAT 11:00AM-1:00PM",400 CHURCH STREET,ENDEAVOR,WI,53930,"http://maps.google.com/maps?q=400 CHURCH STREET,+ENDEAVOR,+WI+53930&hl=en"
EVANSTON POLICE DEPARTMENT,EVANSTON POLICE DEPARTMENT,1454 ELMWOOD AVE.,EVANSTON,IL,60201,"http://maps.google.com/maps?q=1454 ELMWOOD AVE.,+EVANSTON,+IL+60201&hl=en"
EVANSVILLE POLICE DEPARTMENT,"EVANSVILLE POLICE DEPARTMENT 
												
													EVENT 8:00 AM TO 11:00 AM",10 WEST CHURCH STREET,EVANSVILLE,WI,53536,"http://maps.google.com/maps?q=10 WEST CHURCH STREET,+EVANSVILLE,+WI+53536&hl=en"
FITCHBURG POLICE DEPARTMENT,"FITCHBURG POLICE DEPARTMENT 
												
													DROP BOX M-F 7:30 AM TO 4:30 PM",5520 LACY ROAD,MADISON,WI,53711,"http://maps.google.com/maps?q=5520 LACY ROAD,+MADISON,+WI+53711&hl=en"
FOND DU LAC POLICE DEPARTMENT,"FOND DU LAC POLICE DEPARTMENT 
												
													DROP BOX M-F 8:00 AM - 4:00 PM",126 N MAIN ST,FOND DU LAC,WI,54935,"http://maps.google.com/maps?q=126 N MAIN ST,+FOND DU LAC,+WI+54935&hl=en"
FORT ATKINSON POLICE DEPARTMENT,"FORT ATKINSON POLICE DEPARTMENT 
												
													DROP BOX 24/7",101 S WATER STREET W,FORT ATKINSON,WI,53538,"http://maps.google.com/maps?q=101 S WATER STREET W,+FORT ATKINSON,+WI+53538&hl=en"
FOX LAKE POLICE DEPARTMENT,"FOX LAKE POLICE DEPARTMENT 
												
													EVENT 10:00AM-2:00PM",248 E STATE ST,FOX LAKE,WI,53933,"http://maps.google.com/maps?q=248 E STATE ST,+FOX LAKE,+WI+53933&hl=en"
FOX POINT POLICE DEPARTMENT,"FOX POINT POLICE DEPARTMENT 
												
													M-TH 8:00AM-4:00PM FR 8:00AM-12:00PM",7300 N SANTA MONICA BLVD,FOX POINT,WI,53217,"http://maps.google.com/maps?q=7300 N SANTA MONICA BLVD,+FOX POINT,+WI+53217&hl=en"
FOX VALLEY METRO POLICE DEPARTMENT,"KIMBERLY VILLAGE HALL 
												
													EVENT 11:00AM-2:00PM",515 W KIMBERLY AVE,KIMBERLY,WI,54136,"http://maps.google.com/maps?q=515 W KIMBERLY AVE,+KIMBERLY,+WI+54136&hl=en"
FRANKLIN POLICE DEPARTMENT,"FRANKLIN POLICE DEPARTMENT 
												
													DROP BOX ONLY 24/7",9455 W. LOOMIS RD,FRANKLIN,WI,53132,"http://maps.google.com/maps?q=9455 W. LOOMIS RD,+FRANKLIN,+WI+53132&hl=en"
FREEDOM POLICE DEPARTMENT,"FREEDOM TOWN HALL 
												
													EVENT 11:00 AM TO 6:00 PM",W2004 CNTY RD S,FREEDOM,WI,54131,"http://maps.google.com/maps?q=W2004 CNTY RD S,+FREEDOM,+WI+54131&hl=en"
GERMANTOWN POLICE DEPARTMENT,"GERMANTOWN POLICE DEPARTMENT 
												
													DROP BOX ONLY 24/7",N112W16877 MEQUON RD,GERMANTOWN,WI,53022,"http://maps.google.com/maps?q=N112W16877 MEQUON RD,+GERMANTOWN,+WI+53022&hl=en"
GLENDALE POLICE DEPARTMENT,"GLENDALE POLICE DEPARTMENT 
												
													DROP BOX ONLY 24/7",5909 N. MILWAUKEE RIVER PKWY,MILWAUKEE,WI,53209,"http://maps.google.com/maps?q=5909 N. MILWAUKEE RIVER PKWY,+MILWAUKEE,+WI+53209&hl=en"
GLENVIEW P.D.,"GLENVIEW P.D. 
												
													EAST PARKING LOT",2500 EAST LAKE AVE.,GLENVIEW,IL,60026,"http://maps.google.com/maps?q=2500 EAST LAKE AVE.,+GLENVIEW,+IL+60026&hl=en"
GRAFTON POLICE DEPARTMENT,"GRAFTON POLICE DEPARTMENT 
												
													DROP BOX ONLY 24/7",1981 WASHINGTON ST,GRAFTON,WI,53024,"http://maps.google.com/maps?q=1981 WASHINGTON ST,+GRAFTON,+WI+53024&hl=en"
GRAND CHUTE POLICE DEPARTMENT,"GRAND CHUTE POLICE DEPARTMENT 
												
													DROP BOX EVENT 11:00 AM - 1:00 PM",1900 W GRAND CHUTE BLVD,GRAND CHUTE,WI,54913,"http://maps.google.com/maps?q=1900 W GRAND CHUTE BLVD,+GRAND CHUTE,+WI+54913&hl=en"
GREEN BAY POLICE DEPARTMENT,"ST MARY'S HOSPITAL 
												
													EVENT 10:00AM-1:00PM",1726 SHAWANO AVE,GREEN BAY,WI,54303,"http://maps.google.com/maps?q=1726 SHAWANO AVE,+GREEN BAY,+WI+54303&hl=en"
GREEN COUNTY SHERIFF'S OFFICE,"GREEN COUNTY SHERIFF'S OFFICE 
												
													DROP BOX ONLY 24/7",2827 6TH ST,MONROE,WI,53566,"http://maps.google.com/maps?q=2827 6TH ST,+MONROE,+WI+53566&hl=en"
GREEN LAKE COUNTY SHERIFF'S OFFICE,"GREEN LAKE COUNTY SHERIFF'S OFFICE 
												
													DROP BOX ONLY 24/7",571 COUNTY RD A,GREEN LAKE,WI,54941,"http://maps.google.com/maps?q=571 COUNTY RD A,+GREEN LAKE,+WI+54941&hl=en"
GREENDALE POLICE DEPARTMENT,"GREENDALE POLICE DEPARTMENT 
												
													DROP BOX ONLY 24/7",5911 W. GRANGE AVE,GREENDALE,WI,53129,"http://maps.google.com/maps?q=5911 W. GRANGE AVE,+GREENDALE,+WI+53129&hl=en"
GREENFIELD POLICE DEPARTMENT,"GREENFIELD POLICE DEPARTMENT 
												
													EVENT 10:00AM-2:00PM",5300 W LAYTON AVE,GREENFIELD,WI,53220,"http://maps.google.com/maps?q=5300 W LAYTON AVE,+GREENFIELD,+WI+53220&hl=en"
HALES CORNERS POLICE DEPARTMENT,"HALES CORNERS POLICE DEPARTMENT 
												
													EVENT 8:00AM-5:00PM",5625 S NEW BERLIN ROAD,HALES CORNERS,WI,53130,"http://maps.google.com/maps?q=5625 S NEW BERLIN ROAD,+HALES CORNERS,+WI+53130&hl=en"
HARTFORD POLICE DEPARTMENT,"HARTFORD POLICE DEPARTMENT 
												
													DROP BOX 24/7",109 N MAIN STREET,HARTFORD,WI,53027,"http://maps.google.com/maps?q=109 N MAIN STREET,+HARTFORD,+WI+53027&hl=en"
HARTLAND POLICE DEPARTMENT,"HARTLAND POLICE DEPARTMENT 
												
													DROP BOX ONLY 24/7",210 COTTONWOOD AVE,HARTLAND,WI,53029,"http://maps.google.com/maps?q=210 COTTONWOOD AVE,+HARTLAND,+WI+53029&hl=en"
HOBART LAWRENCE POLICE DEPARTMENT,"HOBART LAWRENCE POLICE DEPARTMENT 
												
													EVENT AT PD 4/27/2018 1:00PM-4:00PM",2400 SHADY COURT,HOBART,WI,54115,"http://maps.google.com/maps?q=2400 SHADY COURT,+HOBART,+WI+54115&hl=en"
HORICON POLICE DEPARTMENT,"HORICON PUBLIC SAFETY BUILDING 
												
													EVENT 11:00 AM TO 2:00 PM",220 ELLISON ST,HORICON,WI,53032,"http://maps.google.com/maps?q=220 ELLISON ST,+HORICON,+WI+53032&hl=en"
HUNTLEY POLICE DEPARTMENT,HUNTLEY POLICE DEPARTMENT,10911 MAIN STREET,HUNTLEY,IL,60142,"http://maps.google.com/maps?q=10911 MAIN STREET,+HUNTLEY,+IL+60142&hl=en"
JACKSON POLICE DEPARTMENT,"JACKSON POLICE DEPARTMENT 
												
													DROP BOX M-F 8:00AM-4:30PM",N168W20733 MAIN STREET,JACKSON,WI,53037,"http://maps.google.com/maps?q=N168W20733 MAIN STREET,+JACKSON,+WI+53037&hl=en"
JANESVILLE POLICE DEPARTMENT,"JANESVILLE POLICE DEPARTMENT 
												
													DROP BOX ONLY 24/7",100 N. JACKSON ST,JANESVILLE,WI,53548,"http://maps.google.com/maps?q=100 N. JACKSON ST,+JANESVILLE,+WI+53548&hl=en"
JEFFERSON COUNTY SHERIFF'S OFFICE,"JEFFERSON COUNTY SHERIFF'S OFFICE 
												
													DROP BOX 24/7",411 S. CENTER AVE,JEFFERSON,WI,53549,"http://maps.google.com/maps?q=411 S. CENTER AVE,+JEFFERSON,+WI+53549&hl=en"
JEFFERSON POLICE DEPARTMENT,"JEFFERSON POLICE DEPARTMENT 
												
													DROP BOX M-F 7:00AM-11:00AM, S 8:00AM-3:00PM",425 COLLINS ROAD,JEFFERSON,WI,53549,"http://maps.google.com/maps?q=425 COLLINS ROAD,+JEFFERSON,+WI+53549&hl=en"
JOHNSBURG POLICE DEPARTMENT,JOHNSBURG POLICE DEPARTMENT,3600 CHAPEL HILL ROAD,MCHENRY,IL,60051,"http://maps.google.com/maps?q=3600 CHAPEL HILL ROAD,+MCHENRY,+IL+60051&hl=en"
JOHNSBURG POLICE DEPARTMENT,"JOHNSBURG POLICE DEPARTMENT 
												
													PUBLIC SAFETY BUILDING",3611 CHAPEL HILL ROADATTN: JOHNSBURG POLICE DEPARTMENT,JOHNSBURG,IL,60051,"http://maps.google.com/maps?q=3611 CHAPEL HILL ROAD,+JOHNSBURG,+IL+60051&hl=en"
JOHNSON CREEK POLICE DEPARTMENT,"JOHNSON CREK POLICE DEPARTMENT 
												
													EVENT 8:00AM-4:00PM",119 DEPOT STREET,JOHNSON CREEK,WI,53038,"http://maps.google.com/maps?q=119 DEPOT STREET,+JOHNSON CREEK,+WI+53038&hl=en"
JUNEAU POLICE DEPT,"JUNEAU PUBLIC SAFETY BLDG 
												
													EVENT 10:00 AM TO 2:00 PM",128 E CROSS ST,JUNEAU,WI,53039,"http://maps.google.com/maps?q=128 E CROSS ST,+JUNEAU,+WI+53039&hl=en"
KANE COUNTY CORONER OFFICE,KANE COUNTY CORONER OFFICE,719 S. BATAVIA AVE.BUILDING E,GENEVA,IL,60134,"http://maps.google.com/maps?q=719 S. BATAVIA AVE.,+GENEVA,+IL+60134&hl=en"
KANE COUNTY SHERIFF'S OFFICE,KANE COUNTY SHERIFF'S OFFICE,37W755 IL ROUTE 38,SAINT CHARLES,IL,60175,"http://maps.google.com/maps?q=37W755 IL ROUTE 38,+SAINT CHARLES,+IL+60175&hl=en"
KAUKAUNA POLICE DEPARTMENT,"KAUKAUNA POLICE DEPARTMENT 
												
													EVENT 12:00AM-3:00PM",144 W 2ND STREET,KAUKAUNA,WI,54130,"http://maps.google.com/maps?q=144 W 2ND STREET,+KAUKAUNA,+WI+54130&hl=en"
KENOSHA COUNTY SHERIFF'S OFFICE,"KENOSHA COUNTY SHERIFF'S OFFICE 
												
													DROP BOX ONLY 24/7",1000 55TH ST,KENOSHA,WI,53140,"http://maps.google.com/maps?q=1000 55TH ST,+KENOSHA,+WI+53140&hl=en"
KEWAUNEE COUNTY SHERIFF'S OFFICE,"KEWAUNEE COUNTY HIGHWAY DEPARTMENT 
												
													EVENT 4/21/18 8:00AM-12:00PM",E2180 STATE HIGHWAY 54,CASCO,WI,54205,"http://maps.google.com/maps?q=E2180 STATE HIGHWAY 54,+CASCO,+WI+54205&hl=en"
KEWAUSKUM POLICE DEPARTMENT,"KEWASKUM PD 
												
													DROP BOX ONLY 24/7",204 FIRST ST,KEWASKUM,WI,53040,"http://maps.google.com/maps?q=204 FIRST ST,+KEWASKUM,+WI+53040&hl=en"
KOHLER POLICE DEPARTMENT,"KOHLER POLICE DEPARTMENT 
												
													DROP BOX ONLY 24/7",319 HIGHLAND DRIVE,KOHLER,WI,53044,"http://maps.google.com/maps?q=319 HIGHLAND DRIVE,+KOHLER,+WI+53044&hl=en"
LA GRANGE POLICE DEPARTMENT,LA GRANGE POLICE DEPARTMENT,304 W BURLINGTONLA GRANGE,LA GRANGE,IL,60525,"http://maps.google.com/maps?q=304 W BURLINGTON,+LA GRANGE,+IL+60525&hl=en"
LAGRANGE PARK POLICE,LAGRANGE PARK POLICE,447 N. CATHERINE,LA GRANGE PARK,IL,60526,"http://maps.google.com/maps?q=447 N. CATHERINE,+LA GRANGE PARK,+IL+60526&hl=en"
LAKE COUNTY SHERIFF OFFICE,LONG GROVE FIRE DEPT,1165 OLD MCHENRY RD,LAKE ZURICH,IL,60047,"http://maps.google.com/maps?q=1165 OLD MCHENRY RD,+LAKE ZURICH,+IL+60047&hl=en"
LAKE COUNTY SHERIFF OFFICE,SAINT PETER CHURCH,27551 VOLO VILLAGE RD,ROUND LAKE,IL,60073,"http://maps.google.com/maps?q=27551 VOLO VILLAGE RD,+ROUND LAKE,+IL+60073&hl=en"
LAKE COUNTY SHERIFF OFFICE,VILLAGE OF BEACH PARK,11270 W. WADSORTH RD,ZION,IL,60099,"http://maps.google.com/maps?q=11270 W. WADSORTH RD,+ZION,+IL+60099&hl=en"
LAKE FOREST POLICE DEPARTMENT,LAKE FOREST POLICE DEPARTMENT,255 W DEERPATH,LAKE FOREST,IL,60045,"http://maps.google.com/maps?q=255 W DEERPATH,+LAKE FOREST,+IL+60045&hl=en"
LAKE GENEVA POLICE DEPARTMENT,"LAKE GENEVA POLICE DEPARTMENT 
												
													DROP BOX 24/7",626 GENEVA STREET,LAKE GENEVA,WI,53147,"http://maps.google.com/maps?q=626 GENEVA STREET,+LAKE GENEVA,+WI+53147&hl=en"
LAKE ZURICH POLICE DEPARTMENT,LAKE ZURICH POLICE DEPARTMENT,200 MOHAWK TRAIL,LAKE ZURICH,IL,60047,"http://maps.google.com/maps?q=200 MOHAWK TRAIL,+LAKE ZURICH,+IL+60047&hl=en"
LAKEWOOD POLICE DEPARTMENT,LAKEWOOD POLICE DEPARTMENT,2500 LAKE AVENUE,CRYSTAL LAKE,IL,60014,"http://maps.google.com/maps?q=2500 LAKE AVENUE,+CRYSTAL LAKE,+IL+60014&hl=en"
LOMIRA POLICE DEPARTMENT,"LOMIRA POLICE DEPARTMENT 
												
													DROP BOX ONLY M-F  8:00AM-4:30PM",425 WATER ST,LOMIRA,WI,53048,"http://maps.google.com/maps?q=425 WATER ST,+LOMIRA,+WI+53048&hl=en"
LOVES PARK POLICE DEPARTMENT,LOVES PARK POLICE @ WALGREENS,5900 N. 2ND ST.,LOVES PARK,IL,61111,"http://maps.google.com/maps?q=5900 N. 2ND ST.,+LOVES PARK,+IL+61111&hl=en"
LUXEMBURG POLICE DEPARTMENT,"LUXEMBURG POLICE DEPARTMENT 
												
													DROP BOX M-F 7:45AM-4:15PM",206 MAPLE STREET,LUXEMBURG,WI,54217,"http://maps.google.com/maps?q=206 MAPLE STREET,+LUXEMBURG,+WI+54217&hl=en"
MADISON POLICE DEPARTMENT,"MADISON POLICE EAST DISTRICT 
												
													DROP BOX ONLY M-F 8:00 AM- 4:00PM",809 S THOMPSON DR,MADISON,WI,53714,"http://maps.google.com/maps?q=809 S THOMPSON DR,+MADISON,+WI+53714&hl=en"
MADISON POLICE DEPARTMENT,"MADISON POLICE WEST DISTRICT 
												
													DROP BOX ONLY M-F 8:00 AM- 4:00PM",1710 MCKENNA BLVD,MADISON,WI,53711,"http://maps.google.com/maps?q=1710 MCKENNA BLVD,+MADISON,+WI+53711&hl=en"
MANAWA POLICE DEPARTMENT,"MANAWA POLICE DEPARTMENT 
												
													EVENT 10:00 AM TO 2:00 PM",500 S BRIDGE ST,MANAWA,WI,54949,"http://maps.google.com/maps?q=500 S BRIDGE ST,+MANAWA,+WI+54949&hl=en"
MANITOWOC COUNTY SHERIFF'S OFFICE,"MANITOWOC COUNTY SHERIFF'S OFFICE 
												
													DROP BOX AT SO M-F 8:00AM-4:30PM",1025 S 9TH STREET,MANITOWOC,WI,54220,"http://maps.google.com/maps?q=1025 S 9TH STREET,+MANITOWOC,+WI+54220&hl=en"
MAPLE BLUFF POLICE DEPARTMENT,"VILLAGE OF MAPLE BLUFF POLICE DEPARTMENT 
												
													EVENT 4/29/18 9:00AM-2:00PM",18 OXFORD PLACE,MADISON,WI,53704,"http://maps.google.com/maps?q=18 OXFORD PLACE,+MADISON,+WI+53704&hl=en"
MARENGO POLICE DEPARTMENT,MARENGO POLICE DEPARTMENT,142 E. PRAIRIE STREET,MARENGO,IL,60152,"http://maps.google.com/maps?q=142 E. PRAIRIE STREET,+MARENGO,+IL+60152&hl=en"
MARINETTE COUNTY SHERIFF'S OFFICE,"BAY AREA MEDICAL CENTER MOBILITY CENTER 
												
													EVENT FROM 9:00AM-1:00PM",3117 SHORE DRIVE,MARINETTE,WI,54143,"http://maps.google.com/maps?q=3117 SHORE DRIVE,+MARINETTE,+WI+54143&hl=en"
MARINETTE COUNTY SHERIFF'S OFFICE,"MARINETTE COUNTY SHERIFF'S OFFICE 
												
													EVENT FROM 9:00AM-1:00PM",2161 UNIVERSITY DR,MARINETTE,WI,54143,"http://maps.google.com/maps?q=2161 UNIVERSITY DR,+MARINETTE,+WI+54143&hl=en"
MARINETTE POLICE DEPARTMENT,"MARINETTE POLICE DEPARTMENT 
												
													DROP BOX 24/7",1905 HALL AVE.,MARINETTE,WI,54143,"http://maps.google.com/maps?q=1905 HALL AVE.,+MARINETTE,+WI+54143&hl=en"
MARION POLICE DEPARTMENT,"MARION POLICE DEPARTMENT 
												
													DROP BOX M-F 7:00AM-12:00AM, S 10:00AM-12:00AM, S 12:00PM-10",124 W GARFIELD AVE,MARION,WI,54950,"http://maps.google.com/maps?q=124 W GARFIELD AVE,+MARION,+WI+54950&hl=en"
MARKESAN POLICE DEPARTMENT,"MARKESAN POLICE DEPARTMENT 
												
													DROP BOX M-F 8:00AM-4:00PM",150 S BRIDGE STREET,MARKESAN,WI,53946,"http://maps.google.com/maps?q=150 S BRIDGE STREET,+MARKESAN,+WI+53946&hl=en"
MARQUETTE UNIVERSITY POLICE DEPARTMENT,"MARQUETTER UNIVERSITY POLICE DEPARTMENT 
												
													DROP BOX 24/7",749 N 16TH STREET,MILWAUKEE,WI,53233,"http://maps.google.com/maps?q=749 N 16TH STREET,+MILWAUKEE,+WI+53233&hl=en"
MARSHALL POLICE DEPARTMENT,"MARSHALL POLICE DEPARTMENT 
												
													EVENT APRIL 26TH 7:30AM-4:30PM, APRIL 27 7:30AM-1:30AM",130 S PARDEE STREET,MARSHALL,WI,53559,"http://maps.google.com/maps?q=130 S PARDEE STREET,+MARSHALL,+WI+53559&hl=en"
MCFARLAND POLICE DEPARTMENT,"MCFARLAND POLICE DEPARTMENT 
												
													DROP BOX ONLY M-F 7:00AM-5:00PM",5915 MILWAUKEE STREET,MC FARLAND,WI,53558,"http://maps.google.com/maps?q=5915 MILWAUKEE STREET,+MC FARLAND,+WI+53558&hl=en"
MENASHA POLICE DEPARTMENT,MENASHA POLICE DEPARTMENT,430 FIRST STREET,MENASHA,WI,54952,"http://maps.google.com/maps?q=430 FIRST STREET,+MENASHA,+WI+54952&hl=en"
MENOMINEE COUNTY SHERIFF'S OFFICE,"MENOMINEE COUNTY SHERIFF'S OFFICE 
												
													10:00AM-4:00PM",W3269 COURTHOUSE LANE,KESHENA,WI,54135,"http://maps.google.com/maps?q=W3269 COURTHOUSE LANE,+KESHENA,+WI+54135&hl=en"
MENOMONEE FALLS POLICE DEPARTMENT,"COMMUNITY MEMORIAL HOSPITAL 
												
													10:00AM-2:00PM",W180N085 TOWN HALL ROAD,MENOMONEE FALLS,WI,53051,"http://maps.google.com/maps?q=W180N085 TOWN HALL ROAD,+MENOMONEE FALLS,+WI+53051&hl=en"
MENOMONIEE TRIBAL POLICE DEPARTMENT,"MENOMONIEE TRIBAL POLICE DEPARTMENT 
												
													EVENT 10:00AM-2:00PM",W3293 WOLF RIVER DRIVE,KESHENA,WI,54135,"http://maps.google.com/maps?q=W3293 WOLF RIVER DRIVE,+KESHENA,+WI+54135&hl=en"
MEQUON POLICE DEPARTMENT,"CONCORDIA UNIVERSITY 
												
													EVENT 10:00 AM - 2:00 PM",12800 N LAKE SHORE DR,MEQUON,WI,53092,"http://maps.google.com/maps?q=12800 N LAKE SHORE DR,+MEQUON,+WI+53092&hl=en"
METROPOLITAN WATER RECLAMATION POLICE,METRO WATER RECLAMATION POLICE,3500 HOWARD ST,SKOKIE,IL,60076,"http://maps.google.com/maps?q=3500 HOWARD ST,+SKOKIE,+IL+60076&hl=en"
METROPOLITAN WATER RECLAMATION POLICE,METRO WATER RECLAMATION POLICE,6001 W. PERSHING RD,CICERO,IL,60804,"http://maps.google.com/maps?q=6001 W. PERSHING RD,+CICERO,+IL+60804&hl=en"
MIDDLETON POLICE DEPARTMENT,"MIDDLETON POLICE DEPARTMENT 
												
													DROP BOX ONLY 24/7",7341 DONNA DRIVE,MIDDLETON,WI,53562,"http://maps.google.com/maps?q=7341 DONNA DRIVE,+MIDDLETON,+WI+53562&hl=en"
MILTON POLICE DEPARTMENT,"MILTON POLICE DEPARTMENT 
												
													DROP BOX ONLY 24/7",609 S JANESVILLE ST,MILTON,WI,53563,"http://maps.google.com/maps?q=609 S JANESVILLE ST,+MILTON,+WI+53563&hl=en"
MILWAUKEE COUNTY SHERIFF'S DEPARTMENT,MILWAUKEE COUNTY JAIL LOBBY,949 N 9TH STREET,MILWAUKEE,WI,53233,"http://maps.google.com/maps?q=949 N 9TH STREET,+MILWAUKEE,+WI+53233&hl=en"
MILWAUKEE POLICE DEPARTMENT,"MILWAUKEE POLICE DEPARTMENT 
												
													DROP BOX ONLY 24/7",2620 W. WISCONSIN AVE,MILWAUKEE,WI,53233,"http://maps.google.com/maps?q=2620 W. WISCONSIN AVE,+MILWAUKEE,+WI+53233&hl=en"
MONONA POLICE DEPARTMENT,"THE MEDICINE SHOPPE PHARMACY 
												
													EVENT 9:00AM-1:00PM",4205 MONONA DR,MONONA,WI,53716,"http://maps.google.com/maps?q=4205 MONONA DR,+MONONA,+WI+53716&hl=en"
MONROE POLICE DEPARTMENT,"GREEN COUNTY SHERIFF'S OFFICE 
												
													BOX",2827 6TH STREET,MONROE,WI,53566,"http://maps.google.com/maps?q=2827 6TH STREET,+MONROE,+WI+53566&hl=en"
MONTELLO POLICE DEPARTMENT,"MONTELLO POLICE DEPARTMENT 
												
													DROP BOX ONLY M-F  8:00AM-4:30PM",20 UNDERWOOD AVE,MONTELLO,WI,53949,"http://maps.google.com/maps?q=20 UNDERWOOD AVE,+MONTELLO,+WI+53949&hl=en"
MONTICELLO POLICE DEPARTMENT,"MONTICELLO POLICE DEPARTMENT 
												
													DROP BOX M-F 7:30AM-3:30PM",140 N MAIN ST,MONTICELLO,WI,53570,"http://maps.google.com/maps?q=140 N MAIN ST,+MONTICELLO,+WI+53570&hl=en"
MOUNT PLEASANT POLICE DEPARTMENT,"MOUNT PLEASANT POLICE DEPARTMENT- MAIN LOBBY 
												
													EVENT 9:00AM-1:00PM",8811 CAMPUS DR,MOUNT PLEASANT,WI,53405,"http://maps.google.com/maps?q=8811 CAMPUS DR,+MOUNT PLEASANT,+WI+53405&hl=en"
MOUNT PROSPECT POLICE DEPARTMENT,POLICE DEPARTMENT LOBBY,112 E. NORTHWEST HWY,MOUNT PROSPECT,IL,60056,"http://maps.google.com/maps?q=112 E. NORTHWEST HWY,+MOUNT PROSPECT,+IL+60056&hl=en"
MUKWONAGO POLICE DEPARTMENT,"PROHEALTH DNG CENTER 
												
													EVENT 10:00AM-2:00PM",240 MAPLE AVE,MUKWONAGO,WI,53149,"http://maps.google.com/maps?q=240 MAPLE AVE,+MUKWONAGO,+WI+53149&hl=en"
MUSKEGO POLICE DEPARTMENT,"MUSKEGO POLICE DEPARTMENT 
												
													DROP BOX ONLY 24/7",W183 S8150 RACINE AVE,MUSKEGO,WI,53150,"http://maps.google.com/maps?q=W183 S8150 RACINE AVE,+MUSKEGO,+WI+53150&hl=en"
NAPERVILLE POLICE DEPARTMENT,NAPERVILLE POLICE DEPARTMENT,1350 AURORA AVE,NAPERVILLE,IL,60540,"http://maps.google.com/maps?q=1350 AURORA AVE,+NAPERVILLE,+IL+60540&hl=en"
NEENAH POLICE DEPARTMENT,"NEENAH POLICE DEPARTMENT 
												
													DROP BOX ONLY 24/7",2111 MARATHON AVE,NEENAH,WI,54956,"http://maps.google.com/maps?q=2111 MARATHON AVE,+NEENAH,+WI+54956&hl=en"
NEW BERLIN POLICE DEPARTMENT,"FROEDTERT MOORLAND RESERVE HEALTH CENTER 
												
													EVETN 10:00AM-2:00PM",4805 S MOORLAND ROAD,NEW BERLIN,WI,53151,"http://maps.google.com/maps?q=4805 S MOORLAND ROAD,+NEW BERLIN,+WI+53151&hl=en"
NEW HOLSTEIN POLICE DEPARTMENT,"NEW HOLSTEIN POLICE DEPARTMENT 
												
													EVENT 10:00 AM TO 12:00 PM",2110 WASHINGTON STREET,NEW HOLSTEIN,WI,53061,"http://maps.google.com/maps?q=2110 WASHINGTON STREET,+NEW HOLSTEIN,+WI+53061&hl=en"
NEW LONDON POLICE DEPARTMENT,"NEW LONDON POLICE DEPARTMENT 
												
													EVENT 10:00 AM TO 2:00 PM",700 SHIOCTON ST,NEW LONDON,WI,54961,"http://maps.google.com/maps?q=700 SHIOCTON ST,+NEW LONDON,+WI+54961&hl=en"
NORTH FOND DU LAC POLICE DEPARTMENT,"NORTH FOND DU LAC POLICE DEPARTMENT 
												
													DROP BOX ONLY M-F  8:00AM-4:30PM",16 GARFIELD STREET,FOND DU LAC,WI,54937,"http://maps.google.com/maps?q=16 GARFIELD STREET,+FOND DU LAC,+WI+54937&hl=en"
NORTH RIVERSIDE POLICE DEPARTMENT,NORTH RIVERSIDE POLICE STATION,2359 S. DESPLAINES AVE.,NORTH RIVERSIDE,IL,60546,"http://maps.google.com/maps?q=2359 S. DESPLAINES AVE.,+NORTH RIVERSIDE,+IL+60546&hl=en"
NORTHFIELD POLICE DEPARTMENT,NORTHFIELD POLICE DEPARTMENT,350 WALNUT AVE.,NORTHFIELD,IL,60093,"http://maps.google.com/maps?q=350 WALNUT AVE.,+NORTHFIELD,+IL+60093&hl=en"
OAK CREEK POLICE DEPARTMENT,"OAK CREEK POLICE DEPARTMENT 
												
													DROP BOX ONLY M-F 8:00AM-5:00PM",301 W RYAN RD,OAK CREEK,WI,53154,"http://maps.google.com/maps?q=301 W RYAN RD,+OAK CREEK,+WI+53154&hl=en"
OAKFIELD POLICE DEPARTMENT,"OAKFIELD VILLAGE OFFICE 
												
													DROP BOX M,W TH 9:00AM-7:00PM T&F 9:00AM-5:PM",130 N MAIN STREET,OAKFIELD,WI,53065,"http://maps.google.com/maps?q=130 N MAIN STREET,+OAKFIELD,+WI+53065&hl=en"
OCONOMOWOC POLICE DEPARTMENT,"OCONOMOWOC MEMORIAL HOSPITAL 
												
													EVENT 10:00AM-2:00PM",791 SUMMIT AVE,OCONOMOWOC,WI,53066,"http://maps.google.com/maps?q=791 SUMMIT AVE,+OCONOMOWOC,+WI+53066&hl=en"
OCONTO COUNTY SHERIFF'S OFFICE,"OCONTO COUNTY SHERIFF'S OFFICE 
												
													DROP BOX ONLY M-F 8:00AM-4:00PM",220 ARBUTUS AVE,OCONTO,WI,54153,"http://maps.google.com/maps?q=220 ARBUTUS AVE,+OCONTO,+WI+54153&hl=en"
OMRO POLICE DEPARTMENT,"OMRO POLICE DEPARTMENT 
												
													EVENT 8:00AM-12:00PM",205 S WEBSTER AVE,OMRO,WI,54963,"http://maps.google.com/maps?q=205 S WEBSTER AVE,+OMRO,+WI+54963&hl=en"
ONEIDA POLICE DEPARTMENT,"ONEIDA POLICE DEPARTMENT 
												
													DROP BOX ONLY 24/7",2783 FREEDOM RD,ONEIDA,WI,54155,"http://maps.google.com/maps?q=2783 FREEDOM RD,+ONEIDA,+WI+54155&hl=en"
OREGON POLICE DEPARTMENT,"OREGON POLICE DEPARTMENT 
												
													DROP BOX ONLY M 8:00AM05:00PM T-F 8:00AM-9:00PM",383 PARK STREET,OREGON,WI,53575,"http://maps.google.com/maps?q=383 PARK STREET,+OREGON,+WI+53575&hl=en"
ORLAND PARK POLICE DEPARTMENT,ORLAND PARK POLICE DEPARTMENT,15100 RAVINIA AVE,ORLAND PARK,IL,60462,"http://maps.google.com/maps?q=15100 RAVINIA AVE,+ORLAND PARK,+IL+60462&hl=en"
OSHKOSH POLICE DEPARTMENT,"OSHKOSH POLICE DEPARTMENT 
												
													DROP BOX 24/7",420 JACKSON STREET,OSHKOSH,WI,54901,"http://maps.google.com/maps?q=420 JACKSON STREET,+OSHKOSH,+WI+54901&hl=en"
OZAUKEE COUNTY SHERIFF'S OFFICE,"OZAUKEE COUNTY TRANSIT CENTER 
												
													EVENT 10:00 AM - 2:00 PM",741 N OAKLAND AVE,PORT WASHINGTON,WI,53074,"http://maps.google.com/maps?q=741 N OAKLAND AVE,+PORT WASHINGTON,+WI+53074&hl=en"
PALATINE POLICE DEPARTMENT,PALATINE POLICE DEPARTMENT,595 N. HICKS RD.,PALATINE,IL,60067,"http://maps.google.com/maps?q=595 N. HICKS RD.,+PALATINE,+IL+60067&hl=en"
PEWAUKEE (VILLAGE) POLICE DEPARTMENT,"VILLAGE OF PEWAUKEE POLICE DEPARTMENT 
												
													EVENT 10:00AM-2:00PM",235 HICKORY STREET,PEWAUKEE,WI,53072,"http://maps.google.com/maps?q=235 HICKORY STREET,+PEWAUKEE,+WI+53072&hl=en"
PLEASANT PRAIRIE POLICE DEPARTMENT,"PLEASANT PRAIRIE POLICE DEPARTMENT 
												
													DROP BOX M-F 24 HOURS",8600 GREEN BAY ROAD,PLEASANT PRAIRIE,WI,53158,"http://maps.google.com/maps?q=8600 GREEN BAY ROAD,+PLEASANT PRAIRIE,+WI+53158&hl=en"
PORTAGE COUNTY SHERIFF'S OFFICE,"COMMUNITY CENTER 
												
													APRIL 28TH 12:30PM-2:00PM",100 MAIN ST,ALMOND,WI,54909,"http://maps.google.com/maps?q=100 MAIN ST,+ALMOND,+WI+54909&hl=en"
PORTAGE POLICE DEPT,"WALGREENS 
												
													EVENT 8:00AM-12:00PM",2700 NEW PINERY ROAD,PORTAGE,WI,53901,"http://maps.google.com/maps?q=2700 NEW PINERY ROAD,+PORTAGE,+WI+53901&hl=en"
POYNETTE POLICE DEPARTMENT,"POYNETTE POLICE DEPARTMENT 
												
													EVENT 8:00AM-11:00AM",118 S MAIN STREET,POYNETTE,WI,53955,"http://maps.google.com/maps?q=118 S MAIN STREET,+POYNETTE,+WI+53955&hl=en"
PROSPECT HEIGHTS POLICE DEPARTMENT,PROSPECT HEIGHTS POLICE DEPARTMENT,14 E. CAMP MCDONALD ROAD,PROSPECT HEIGHTS,IL,60070,"http://maps.google.com/maps?q=14 E. CAMP MCDONALD ROAD,+PROSPECT HEIGHTS,+IL+60070&hl=en"
PULASKI POLICE DEPARTMENT,"PULASKI POLICE DEPARTMENT 
												
													EVENT  8:00AM-12:00PM",585 E GLENBROOK DRIVE,PULASKI,WI,54162,"http://maps.google.com/maps?q=585 E GLENBROOK DRIVE,+PULASKI,+WI+54162&hl=en"
RACINE COUNTY SHERIFF'S OFFICE,"RACINE COUNTY SHERIFF'S OFFICE 
												
													DROP BOX ONLY 24/7",717 WISCONSIN AVE,RACINE,WI,53403,"http://maps.google.com/maps?q=717 WISCONSIN AVE,+RACINE,+WI+53403&hl=en"
RACINE POLICE DEPARTMENT,"RACINE POLICE DEPARTMENT 
												
													DROP BOX ONLY M-F 7:00AM-6:00PM S/S 8:00AM-2:00PM",730 CENTER STREET,RACINE,WI,53403,"http://maps.google.com/maps?q=730 CENTER STREET,+RACINE,+WI+53403&hl=en"
RANDOLPH POLICE DEPARTMENT,"RANDOLPH POLICE DEPARTMENT 
												
													EVENT 11:00AM-1:00PM",136 W STROUD STREET,RANDOLPH,WI,53956,"http://maps.google.com/maps?q=136 W STROUD STREET,+RANDOLPH,+WI+53956&hl=en"
RIPON POLICE DEPT,"RIPON POLICE DEPT 
												
													DROP BOX ONLY 24/7",100 E JACKSON ST,RIPON,WI,54971,"http://maps.google.com/maps?q=100 E JACKSON ST,+RIPON,+WI+54971&hl=en"
RIVERSIDE POLICE DEPARTMENT,RIVERSIDE PD,31 RIVERSIDE RD,RIVERSIDE,IL,60546,"http://maps.google.com/maps?q=31 RIVERSIDE RD,+RIVERSIDE,+IL+60546&hl=en"
ROCK COUNTY SHERIFF'S OFFICE,"ROCK COUNTY SHERIFF'S OFFICE 
												
													DROP BOX 24/7",200 E USH 14,JANESVILLE,WI,53545,"http://maps.google.com/maps?q=200 E USH 14,+JANESVILLE,+WI+53545&hl=en"
ROLLING MEADOWS POLICE DEPARTMENT,ROLLING MEADOWS POLICE DEPARTMENT,3600 KIRCHOFF RD.,ROLLING MEADOWS,IL,60008,"http://maps.google.com/maps?q=3600 KIRCHOFF RD.,+ROLLING MEADOWS,+IL+60008&hl=en"
ROSENDALE POLICE DEPARTMENT,"ROSENDALE POLICE DEPARTMENT 
												
													DROP BOX ONLY M-F 8:00AM-4:00PM",211 NORTH GRANT STREET,ROSENDALE,WI,54974,"http://maps.google.com/maps?q=211 NORTH GRANT STREET,+ROSENDALE,+WI+54974&hl=en"
SANDWICH POLICE DEPARTMENT/NW MEDICINE/VALLEY WEST,NORTHWEST MEDICINE VALLEY WEST HOSPITAL,1302 N. MAIN STREET,SANDWICH,IL,60548,"http://maps.google.com/maps?q=1302 N. MAIN STREET,+SANDWICH,+IL+60548&hl=en"
SEYMOUR POLICE DEPARTMENT,"SEYMOUR POLICE DEPARTMENT 
												
													DROP BOX M-F 8:00AM-4:00PM",306 N MAIN STREET,SEYMOUR,WI,54165,"http://maps.google.com/maps?q=306 N MAIN STREET,+SEYMOUR,+WI+54165&hl=en"
SHARON VILLAGE POLICE DEPARTMENT,"SHARON VILLAGE POLICE DEPARTMENT 
												
													EVENT 9:00AM",125 PLAIN ST,SHARON,WI,53585,"http://maps.google.com/maps?q=125 PLAIN ST,+SHARON,+WI+53585&hl=en"
SHAWANO POLICE DEPARTMENT,"SHAWANO POLICE DEPARTMENT 
												
													DROP BOX 24/7",125 S. SAWYER ST,SHAWANO,WI,54166,"http://maps.google.com/maps?q=125 S. SAWYER ST,+SHAWANO,+WI+54166&hl=en"
SHEBOYGAN POLICE DEPARTMENT,"HOWARDS GROVE VILLAGE HALL 
												
													EVENT 10:00AM-1:00PM",913 S WISCONSIN DR,SHEBOYGAN,WI,53083,"http://maps.google.com/maps?q=913 S WISCONSIN DR,+SHEBOYGAN,+WI+53083&hl=en"
SHEBOYGAN POLICE DEPARTMENT,"OOSTBURG HIGH SCHOOL 
												
													EVENT 10:00AM-1:00PM",410 NEW YORK AVE,OOSTBURG,WI,53070,"http://maps.google.com/maps?q=410 NEW YORK AVE,+OOSTBURG,+WI+53070&hl=en"
SHEBOYGAN POLICE DEPARTMENT,"PLYMOUTH INTERGENERATIONAL CENTER 
												
													EVENT 10:00 AM TO 1:00 PM",1500 DOUGLAS DR.,PLYMOUTH,WI,53073,"http://maps.google.com/maps?q=1500 DOUGLAS DR.,+PLYMOUTH,+WI+53073&hl=en"
SHEBOYGAN POLICE DEPARTMENT,"RANDOM LAKE FIRE DEPARTMENT 
												
													EVENT 10:00AM-2:00PM",718 SPRING STREET,RANDOM LAKE,WI,53075,"http://maps.google.com/maps?q=718 SPRING STREET,+RANDOM LAKE,+WI+53075&hl=en"
SHEBOYGAN POLICE DEPARTMENT,"ST. NICHOLAS HOSPITAL 
												
													EVENT 10:00 AM TO 1:00 PM",3100 SUPERIOR AVE,SHEBOYGAN,WI,53081,"http://maps.google.com/maps?q=3100 SUPERIOR AVE,+SHEBOYGAN,+WI+53081&hl=en"
SHICOTON POLICE DEPARTMENT,"SHIOCTON POLICE DEPARTMENT 
												
													DROP BOX M-F 7:00AM-3:30PM",NN5605 ST RD 76,SHIOCTON,WI,54170,"http://maps.google.com/maps?q=NN5605 ST RD 76,+SHIOCTON,+WI+54170&hl=en"
SHOREWOOD POLICE DEPARTMENT,"SHOREWOOD POLICE DEPARTMENT 
												
													DROP BOX M-F 8:00AM-4:00PM",4057 N WILSON DR,SHOREWOOD,WI,53211,"http://maps.google.com/maps?q=4057 N WILSON DR,+SHOREWOOD,+WI+53211&hl=en"
SKOKIE POLICE DEPARTMENT,SKOKIE POLICE DEPARTMENT,7300 NILES CENTER,SKOKIE,IL,60077,"http://maps.google.com/maps?q=7300 NILES CENTER,+SKOKIE,+IL+60077&hl=en"
SOUTH MILWAUKEE POLICE DEPARTMENT,"SOUTH MILWAUKEE POLICE DEPARTMENT 
												
													DROP BOX 7:00AM-8:00PM",2424 15TH AVE,SOUTH MILWAUKEE,WI,53172,"http://maps.google.com/maps?q=2424 15TH AVE,+SOUTH MILWAUKEE,+WI+53172&hl=en"
ST. CHARLES POLICE DEPT,"NORTHWESTERN MEDICINE 
												
													WITH ST. CHARLES POLICE",2900 FOXFIELD ROAD,SAINT CHARLES,IL,60174,"http://maps.google.com/maps?q=2900 FOXFIELD ROAD,+SAINT CHARLES,+IL+60174&hl=en"
ST. FRANCIS POLICE DEPARTMENT,"ST. FRANCIS POLICE DEPARTMENT 
												
													DROP BOX ONLY 24/7",3400 E. HOWARD AVE,SAINT FRANCIS,WI,53235,"http://maps.google.com/maps?q=3400 E. HOWARD AVE,+SAINT FRANCIS,+WI+53235&hl=en"
STOUGHTON POLICE DEPARTMENT,"STOUGHTON FIRE DEPT 
												
													EVENT  9:00AM-11:00AM",381 E MAIN ST,STOUGHTON,WI,53589,"http://maps.google.com/maps?q=381 E MAIN ST,+STOUGHTON,+WI+53589&hl=en"
STREAMWOOD POLICE DEPARTMENT,VILLAGE OF STREAMWOOD POLICE DEPARTMENT,401 E. IRVING PARK RD,STREAMWOOD,IL,60107,"http://maps.google.com/maps?q=401 E. IRVING PARK RD,+STREAMWOOD,+IL+60107&hl=en"
STURTEVANT POLICE DEPARTMENT,"STURTEVANT POLICE DEPARTMENT 
												
													EVENT 10:00AM-2:00PM",2801 89TH STREET,STURTEVANT,WI,53177,"http://maps.google.com/maps?q=2801 89TH STREET,+STURTEVANT,+WI+53177&hl=en"
SUGAR GROVE PD,SUGAR GROVE POLICE DEPARTMENT,10 S. MUNICIPAL DR,SUGAR GROVE,IL,60554,"http://maps.google.com/maps?q=10 S. MUNICIPAL DR,+SUGAR GROVE,+IL+60554&hl=en"
SUN PRAIRIE POLICE DEPARTMENT,"SUN PRAIRIE POLICE DEPARTMENT 
												
													DROP BOX 24/7",300 E MAIN STREET,SUN PRAIRIE,WI,53590,"http://maps.google.com/maps?q=300 E MAIN STREET,+SUN PRAIRIE,+WI+53590&hl=en"
SURING POLICE DEPARTMENT,"SURING POLICE DEPARTMENT 
												
													EVENT 9:00AM-1:00PM",604 E MAIN STREET,SURING,WI,54174,"http://maps.google.com/maps?q=604 E MAIN STREET,+SURING,+WI+54174&hl=en"
THIENSVILLE POLICE DEPARTMENT,"PORT WASHINGTON STATE BANK 
												
													EVENT 10:00AM-2:00PM",197 S MAIN STREET,THIENSVILLE,WI,53092,"http://maps.google.com/maps?q=197 S MAIN STREET,+THIENSVILLE,+WI+53092&hl=en"
TOWN OF DELAVAN POLICE DEPARTMENT,"TOWN OF DELAVAN POLICE DEPARTMENT 
												
													DROP BOX ONLY M-F 8:00AM-5:00PM",5621 TOWN HALL ROAD,DELAVAN,WI,53115,"http://maps.google.com/maps?q=5621 TOWN HALL ROAD,+DELAVAN,+WI+53115&hl=en"
TOWN OF EAST TROY POLICE DEPARTMENT,"TOWN OF EAST TROY POLICE DEPARTMENT 
												
													EVENT 10:00AM-2:00PM",N9330 STEWART SCHOOL ROAD,EAGLE,WI,53119,"http://maps.google.com/maps?q=N9330 STEWART SCHOOL ROAD,+EAGLE,+WI+53119&hl=en"
TOWN OF OCONOMOWOC POLICE DEPARTMENT,"TOWN OF OCONOMOWOC POLICE DEPARTMENT 
												
													EVENT 10:00AM-2:00PM",W359 N6812 BROWN STREET,OCONOMOWOC,WI,53066,"http://maps.google.com/maps?q=W359 N6812 BROWN STREET,+OCONOMOWOC,+WI+53066&hl=en"
TWIN LAKES POLICE DEPARTMENT,"TWIN LAKES POLICE DEPARTMENT 
												
													DROP BOX 24/7",920 LANCE DR,TWIN LAKES,WI,53181,"http://maps.google.com/maps?q=920 LANCE DR,+TWIN LAKES,+WI+53181&hl=en"
UNIVERSITY OF WISCONSIN MILWAUKEE POLICE DEPARTMEN,"UNIVERSITY OF WISCONSIN MILWAUKEE POLICE DEPARTMEN 
												
													DROP BOX ONLY 24/7",3410 N. MARYLAND AVE,MILWAUKEE,WI,53211,"http://maps.google.com/maps?q=3410 N. MARYLAND AVE,+MILWAUKEE,+WI+53211&hl=en"
UNIVERSITY OF WISCONSIN PARKSIDE PUBLIC SAFETY,"UNIVERSITY OF WISCONSIN PARKSIDE PUBLIC SAFETY 
												
													DROP BOX ONLY 24/7",900 WOOD ROAD,KENOSHA,WI,53141,"http://maps.google.com/maps?q=900 WOOD ROAD,+KENOSHA,+WI+53141&hl=en"
UW MADISON POLICE DEPARTMENT,"UW MADISON POLICE DEPARTMENT 
												
													DROP BOX ONLY 24/7",1429 MONROE STREET,MADISON,WI,53711,"http://maps.google.com/maps?q=1429 MONROE STREET,+MADISON,+WI+53711&hl=en"
UW-WHITEWATER PD,"CONNOR UNIVERSITY CENTER-S ENTRANCE 
												
													DROP BOX 24/7",228 WYMAN MALL,WHITEWATER,WI,53190,"http://maps.google.com/maps?q=228 WYMAN MALL,+WHITEWATER,+WI+53190&hl=en"
UW-WHITEWATER PD,"UW WHITEWATER POLICE DEPARTMENT 
												
													DROP BOX 24/7",734 W STARIN ROAD,WHITEWATER,WI,53190,"http://maps.google.com/maps?q=734 W STARIN ROAD,+WHITEWATER,+WI+53190&hl=en"
VILLA PARK POLICE DEPARTMENT,VILLA PARK POLICE DEPARTMENT,40 S. ARDMORE,VILLA PARK,IL,60181,"http://maps.google.com/maps?q=40 S. ARDMORE,+VILLA PARK,+IL+60181&hl=en"
VILLAGE OF COTTAGE GROVE POLICE DEPARTMENT,"FORWARD PHARMACY 
												
													EVENT 10:00AM-12:00PM",429 W COTTAGE GROVE ROAD,COTTAGE GROVE,WI,53527,"http://maps.google.com/maps?q=429 W COTTAGE GROVE ROAD,+COTTAGE GROVE,+WI+53527&hl=en"
VILLAGE OF EAGLE POLICE DEPARTMENT,"EAGLE MUNICIPAL BUILDING 
												
													EVENT 11:00AM-2:00PM",820 E MAIN STREET,EAGLE,WI,53119,"http://maps.google.com/maps?q=820 E MAIN STREET,+EAGLE,+WI+53119&hl=en"
VILLAGE OF LINCOLNSHIRE POLICE DEPARTMENT,VILLAGE OF LINCOLNSHIRE POLICE DEPARTMENT,ONE OLDE HALF DAY RD.,LINCOLNSHIRE,IL,60069,"http://maps.google.com/maps?q=ONE OLDE HALF DAY RD.,+LINCOLNSHIRE,+IL+60069&hl=en"
VILLAGE OF PALMYRA POLICE DEPARTMENT,"VILLAGE OF PALMYRA PUBLIC SAFETY BUILDING 
												
													EVENT 10:00AM-2:00PM",126 N FIRST STREET,PALMYRA,WI,53156,"http://maps.google.com/maps?q=126 N FIRST STREET,+PALMYRA,+WI+53156&hl=en"
WALWORTH COUNTY SHERIFF'S OFFICE,"DARIEN TOWN HALL 
												
													EVENT 10:00 AM - 2:00 PM",N2826 FOUNDRY ROAD,DARIEN,WI,53114,"http://maps.google.com/maps?q=N2826 FOUNDRY ROAD,+DARIEN,+WI+53114&hl=en"
WALWORTH COUNTY SHERIFF'S OFFICE,"LYONS TOWN HALL 
												
													EVENT  10:00AM-2:00PM",6339 HOSPITAL ROAD,LYONS,WI,53148,"http://maps.google.com/maps?q=6339 HOSPITAL ROAD,+LYONS,+WI+53148&hl=en"
WALWORTH POLICE DEPARTMENT,"WALWORTH POLICE DEPARTMENT 
												
													EVENT 11:00AM-2:00PM",227 N MAIN ST,WALWORTH,WI,53184,"http://maps.google.com/maps?q=227 N MAIN ST,+WALWORTH,+WI+53184&hl=en"
WASHINGTON COUNTY SHERIFF'S OFFICE,"SLINGER HIGHWAY SHOP 
												
													EVENT MAY 5TH 8:00AM-12:00PM",314 W WASHINGTON ST,SLINGER,WI,53086,"http://maps.google.com/maps?q=314 W WASHINGTON ST,+SLINGER,+WI+53086&hl=en"
WATERFORD POLICE DEPT,"WATERFORD POLICE DEPT 
												
													DROP BOX ONLY 24/7",415 N MILWAUKEE ST,WATERFORD,WI,53185,"http://maps.google.com/maps?q=415 N MILWAUKEE ST,+WATERFORD,+WI+53185&hl=en"
WATERLOO POLICE DEPARTMENT,"WATERLOO POLICE DEPT 
												
													DROP BOX ONLY M-F 7:00 AM-3:30PM",136 N MONROE ST,WATERLOO,WI,53594,"http://maps.google.com/maps?q=136 N MONROE ST,+WATERLOO,+WI+53594&hl=en"
WATERTOWN POLICE DEPARTMENT,"WATERTOWN POLICE DEPARTMENT 
												
													DROP BOX ONLY 24/7",106 JONES ST,WATERTOWN,WI,53094,"http://maps.google.com/maps?q=106 JONES ST,+WATERTOWN,+WI+53094&hl=en"
WAUCONDA POLICE,WAUCONDA POLICE DEPARTMENT,311 S. MAIN STREET,WAUCONDA,IL,60084,"http://maps.google.com/maps?q=311 S. MAIN STREET,+WAUCONDA,+IL+60084&hl=en"
WAUKESHA COUNTY SHERIFF OFFICE,"PICK N SAVE 
												
													EVENT 10:00AM-2:00PM",N65 W24838 MAIN STREET,SUSSEX,WI,53089,"http://maps.google.com/maps?q=N65 W24838 MAIN STREET,+SUSSEX,+WI+53089&hl=en"
WAUKESHA COUNTY SHERIFF'S OFFICE,"ARROWHEAD HIGH SCHOOL 
												
													EVENT 10:00AM-2:00PM",800 NORTH AVE,HARTLAND,WI,53029,"http://maps.google.com/maps?q=800 NORTH AVE,+HARTLAND,+WI+53029&hl=en"
WAUNAKEE POLICE DEPARTMENT,"WAUNAKEE POLICE DEPARTMENT 
												
													EVENT 10:00AM-2:00PM",205 N KLEIN DRIVE,WAUNAKEE,WI,53597,"http://maps.google.com/maps?q=205 N KLEIN DRIVE,+WAUNAKEE,+WI+53597&hl=en"
WAUPACA COUNTY SHERIFF'S OFFICE,"WAUPACA COUNTY SHERIFF'S OFFICE 
												
													DROP BOX ONLY M-F 7:00AM-5:00PM",1402 E ROYALTON ST,WAUPACA,WI,54981,"http://maps.google.com/maps?q=1402 E ROYALTON ST,+WAUPACA,+WI+54981&hl=en"
WAUPACA POLICE DEPARTMENT,"WAUPACA POLICE DEPARTMENT 
												
													EVENT 10:00AM-2:00PM",124 S WASHINGTON ST,WAUPACA,WI,54981,"http://maps.google.com/maps?q=124 S WASHINGTON ST,+WAUPACA,+WI+54981&hl=en"
WAUPUN POLICE DEPARTMENT,"WAUPUN POLICE DEPARTMENT 
												
													DROP BOX ONLY M-F 8:00AM-4:00PM",16 E MAIN ST,WAUPUN,WI,53963,"http://maps.google.com/maps?q=16 E MAIN ST,+WAUPUN,+WI+53963&hl=en"
WAUSHARA COUNTY SHERIFF'S OFFICE,"REDGRANITE FIRE DEPARTMENT 
												
													EVENT 10:00AM-12:00PM",135 E BANNERMAN AVE,REDGRANITE,WI,54970,"http://maps.google.com/maps?q=135 E BANNERMAN AVE,+REDGRANITE,+WI+54970&hl=en"
WAUWATOSA  POLICE DEPARTMENT,"WAUWATOSA POLICE DEPARTMENT 
												
													DROP BOX ONLY M-F 7:00AM-11:00PM, SAT-SUN 3:00PM-11:00PM",1700 N 116TH STREET,WAUWATOSA,WI,53226,"http://maps.google.com/maps?q=1700 N 116TH STREET,+WAUWATOSA,+WI+53226&hl=en"
WEST ALLIS POLICE DEPARTMENT,"WEST ALLIS POLICE DEPARTMENT 
												
													EVENT 8:00AM-12:00PM",11301 W LINCOLN AVE,WEST ALLIS,WI,53227,"http://maps.google.com/maps?q=11301 W LINCOLN AVE,+WEST ALLIS,+WI+53227&hl=en"
WEST BEND POLICE DEPARTMENT,"WEST BEND POLICE DEPARTMENT 
												
													EVENT 9:00AM-1:00PM",350 VINE ST,WEST BEND,WI,53095,"http://maps.google.com/maps?q=350 VINE ST,+WEST BEND,+WI+53095&hl=en"
WEST MILWAUKEE  POLICE DEPARTMENT,"WEST MILWAUKEE  POLICE DEPARTMENT 
												
													DROP BOX ONLY 24/7",4755 W. BELOIT ROAD,MILWAUKEE,WI,53214,"http://maps.google.com/maps?q=4755 W. BELOIT ROAD,+MILWAUKEE,+WI+53214&hl=en"
WESTCHESTER POLICE,"WESTCHESTER POLICE @ MARIANO'S 
												
													ELIZABETH SEYBOLD",3020 WOLF RD,WESTCHESTER,IL,60154,"http://maps.google.com/maps?q=3020 WOLF RD,+WESTCHESTER,+IL+60154&hl=en"
WESTMONT POLICE DEPARTMENT,"WESTMONT POLICE DEPARTMENT 
												
													HEADQUARTERS",500 N. CASS AVE,WESTMONT,IL,60559,"http://maps.google.com/maps?q=500 N. CASS AVE,+WESTMONT,+IL+60559&hl=en"
WESTMONT POLICE DEPARTMENT,"WESTMONT POLICE DEPATMENT 
												
													2ND LOCATION - MARIANO'S OUTDOOR FOODCOURT",150 63RD STREET,WESTMONT,IL,60559,"http://maps.google.com/maps?q=150 63RD STREET,+WESTMONT,+IL+60559&hl=en"
WEYAUWEGA POLICE DEPARTMENT,"WEYAUWEGA POLICE DEPARTMENT 
												
													DROP BOX M-F 8:00AM-4:30PM",109 E MAIN ST,WEYAUWEGA,WI,54983,"http://maps.google.com/maps?q=109 E MAIN ST,+WEYAUWEGA,+WI+54983&hl=en"
WHITEFISH BAY POLICE DEPARTMENT,"WHITEFISH BAY POLICE DEPARTMENT 
												
													EVENT 10:00AM-2:00PM",5300 N. MARLBOROUGH DRIVE,WHITEFISH BAY,WI,53217,"http://maps.google.com/maps?q=5300 N. MARLBOROUGH DRIVE,+WHITEFISH BAY,+WI+53217&hl=en"
WHITEWATER POLICE DEPARTMENT,"WHITEWATER POLICE DEPARTMENT 
												
													DROP BOX ONLY 24/7",312 W. WHITEWATER ST,WHITEWATER,WI,53190,"http://maps.google.com/maps?q=312 W. WHITEWATER ST,+WHITEWATER,+WI+53190&hl=en"
WI DEPARTMENT OF JUSTICE,"WI DEPARTMENT OF JUSTICE 
												
													DROP BOX",17 WEST MAIN STREET,MADISON,WI,53703,"http://maps.google.com/maps?q=17 WEST MAIN STREET,+MADISON,+WI+53703&hl=en"
WILLIAMS BAY POLICE DEPARTMENT,"WILLIAMS BAY POLICE DEPARTMENT 
												
													EVENT 8:00AM-5:00PM",250 WILLIAMS ST,WILLIAMS BAY,WI,53191,"http://maps.google.com/maps?q=250 WILLIAMS ST,+WILLIAMS BAY,+WI+53191&hl=en"
WINNECONNE POLICE DEPARTMENT,"WINNECONNE POLICE DEPARTMENT 
												
													EVENT 8:00AM-12:00PM",30 S FIRST STREET,WINNECONNE,WI,54986,"http://maps.google.com/maps?q=30 S FIRST STREET,+WINNECONNE,+WI+54986&hl=en"
WINNETKA POLICE DEPARTMENT,WINNETKA POLICE DEPARTMENT,410 GREEN BAY ROAD,WINNETKA,IL,60093,"http://maps.google.com/maps?q=410 GREEN BAY ROAD,+WINNETKA,+IL+60093&hl=en"
WOODSTOCK POLICE DEPARTMENT,WOODSTOCK POLICE DEPARTMENT,656 LAKE AVENUE,WOODSTOCK,IL,60098,"http://maps.google.com/maps?q=656 LAKE AVENUE,+WOODSTOCK,+IL+60098&hl=en"
WRIGHTSTOWN POLICE DEPARTMENT,"WRIGHTSTOWN POLICE DEPARTMENT 
												
													EVENT 10:00AM-2:00PM",352 HIGH ST,WRIGHTSTOWN,WI,54180,"http://maps.google.com/maps?q=352 HIGH ST,+WRIGHTSTOWN,+WI+54180&hl=en"
