Participant,CollectionSite,Address,City,State,Zip,MapURL
10TH JUDICIAL DRUG TASK FORCE,PIGGLY WIGGLY,125 FIVE POINT DRIVE,DUCKTOWN,TN,37326,"http://maps.google.com/maps?q=125 FIVE POINT DRIVE,+DUCKTOWN,+TN+37326&hl=en"
10TH JUDICIAL DRUG TASK FORCE,POLK CITY SHERIFF OFFICE,164 INDUSTRIAL ACCESS CIRCLE,BENTON,TN,37307,"http://maps.google.com/maps?q=164 INDUSTRIAL ACCESS CIRCLE,+BENTON,+TN+37307&hl=en"
10TH JUDICIAL DRUG TASK FORCE,WALMART,1815 DECATUR PIKE,ATHENS,TN,37303,"http://maps.google.com/maps?q=1815 DECATUR PIKE,+ATHENS,+TN+37303&hl=en"
10TH JUDICIAL DRUG TASK FORCE,WALMART,4225 HIGHWAY 411,MADISONVILLE,TN,37354,"http://maps.google.com/maps?q=4225 HIGHWAY 411,+MADISONVILLE,+TN+37354&hl=en"
1ST JUDICIAL DISTRICT DRUG TASK FORCE,"1ST JUDICIAL DISTRICT DRUG TASK FORCE 
												
													PERMANENT DROP BOX",113 S. MAIN ST.,CLARENDON,AR,72029,"http://maps.google.com/maps?q=113 S. MAIN ST.,+CLARENDON,+AR+72029&hl=en"
2ND JUDICIAL DISTRICT DRUG TASK FORCE,"2ND JUDICIAL DISTRICT DRUG TASK FORCE 
												
													PERMANENT DROP BOX",401 WEST KEISER,OSCEOLA,AR,72370,"http://maps.google.com/maps?q=401 WEST KEISER,+OSCEOLA,+AR+72370&hl=en"
5TH JUDICIAL DRUG TASK FORCE,BLOUNT COUNTY JUSTICE CENTER,940 EAST LAMAR ALEXANDER PARKWAY,MARYVILLE,TN,37804,"http://maps.google.com/maps?q=940 EAST LAMAR ALEXANDER PARKWAY,+MARYVILLE,+TN+37804&hl=en"
ACWORTH POLICE DEPARTMENT,TARGET,3378 COBB PARKWAY,ACWORTH,GA,30101,"http://maps.google.com/maps?q=3378 COBB PARKWAY,+ACWORTH,+GA+30101&hl=en"
ACWORTH POLICE DEPARTMENT,WALGREENS,6090 LAKE ACWORTH DRIVE,ACWORTH,GA,30101,"http://maps.google.com/maps?q=6090 LAKE ACWORTH DRIVE,+ACWORTH,+GA+30101&hl=en"
ADAIR COUNTY SHERIFF'S OFFICE,"ADAIR COUNTY SHERIFF'S OFFICE 
												
													TACO BELL (PICK UP IN PARKING LOT)",899 JAMES TOWN STREET,COLUMBIA,KY,42728,"http://maps.google.com/maps?q=899 JAMES TOWN STREET,+COLUMBIA,+KY+42728&hl=en"
ALAMO POLICE DEPARTMENT,ALAMO POLICE DEPT.,31 W. MAIN ST.,ALAMO,TN,38001,"http://maps.google.com/maps?q=31 W. MAIN ST.,+ALAMO,+TN+38001&hl=en"
ALGOOD POLICE DEPT.,ALGOOD CITY HALL LOBBY,215 W. MAIN STREET,COOKEVILLE,TN,38506,"http://maps.google.com/maps?q=215 W. MAIN STREET,+COOKEVILLE,+TN+38506&hl=en"
ALPHARETTA DEPARTMENT OF PUBLIC SAFETY,ALPHARETTA FIRE STATION 81,2970 WEBB BRIDGE ROAD,ALPHARETTA,GA,30009,"http://maps.google.com/maps?q=2970 WEBB BRIDGE ROAD,+ALPHARETTA,+GA+30009&hl=en"
ALPHARETTA DEPARTMENT OF PUBLIC SAFETY,ALPHARETTA FIRE STATION 82,3070 MARKET PLACE,ALPHARETTA,GA,30009,"http://maps.google.com/maps?q=3070 MARKET PLACE,+ALPHARETTA,+GA+30009&hl=en"
ALPHARETTA DEPARTMENT OF PUBLIC SAFETY,ALPHARETTA FIRE STATION 83,9600 WEST SIDE PKWY,ALPHARETTA,GA,30009,"http://maps.google.com/maps?q=9600 WEST SIDE PKWY,+ALPHARETTA,+GA+30009&hl=en"
ALPHARETTA DEPARTMENT OF PUBLIC SAFETY,ALPHARETTA FIRE STATION 84,525 PARK BRIDGE PKWY,ALPHARETTA,GA,30009,"http://maps.google.com/maps?q=525 PARK BRIDGE PKWY,+ALPHARETTA,+GA+30009&hl=en"
ALPHARETTA DEPARTMENT OF PUBLIC SAFETY,ALPHARETTA FIRE STATION 85,1475 MID BROADWELL ROAD,ALPHARETTA,GA,30009,"http://maps.google.com/maps?q=1475 MID BROADWELL ROAD,+ALPHARETTA,+GA+30009&hl=en"
ALPHARETTA DEPARTMENT OF PUBLIC SAFETY,ALPHARETTA FIRE STATION 86,3275 KIMBALL BRIDGE ROAD,ALPHARETTA,GA,30009,"http://maps.google.com/maps?q=3275 KIMBALL BRIDGE ROAD,+ALPHARETTA,+GA+30009&hl=en"
ALPHARETTA DEPARTMENT OF PUBLIC SAFETY,ALPHARETTA PUBLIC SAFETY HEADQUARTERS,2565 OLD MILTON PKWY,ALPHARETTA,GA,30009,"http://maps.google.com/maps?q=2565 OLD MILTON PKWY,+ALPHARETTA,+GA+30009&hl=en"
"ANNISTON ARMY DEPOT, ASAP","ANNISTON ARMY DEPOT 
												
													BLDG 206 AND 422",7 FRANKFORD AVEASAP,ANNISTON,AL,36201,"http://maps.google.com/maps?q=7 FRANKFORD AVE,+ANNISTON,+AL+36201&hl=en"
ARKANSAS STATE UNIVERSITY POLICE,"ARKANSAS STATE UNIVERSITY POLICE 
												
													PERMANENT DROP BOX",503 ROBINSON ST.,JONESBORO,AR,72401,"http://maps.google.com/maps?q=503 ROBINSON ST.,+JONESBORO,+AR+72401&hl=en"
ATHENS TN POLICE DEPARTMENT,ATHENS POLICE DEPARTMENT,815 NORTH JACKSON STREET,ATHENS,TN,37303,"http://maps.google.com/maps?q=815 NORTH JACKSON STREET,+ATHENS,+TN+37303&hl=en"
ATLANTA POLICE DEPARTMENT,"ATLANTA POLICE DEPARTMENT 
												
													ZONE 1 PRECINCT",2315 DONALD LEE HOLLOWELL PKY. N.W.,ATLANTA,GA,30318,"http://maps.google.com/maps?q=2315 DONALD LEE HOLLOWELL PKY. N.W.,+ATLANTA,+GA+30318&hl=en"
ATLANTA POLICE DEPARTMENT,"ATLANTA POLICE DEPARTMENT 
												
													ZONE 2 PRECINCT",3120 MAPLE DRIVE N.E.,ATLANTA,GA,30305,"http://maps.google.com/maps?q=3120 MAPLE DRIVE N.E.,+ATLANTA,+GA+30305&hl=en"
ATLANTA POLICE DEPARTMENT,"ATLANTA POLICE DEPARTMENT 
												
													ZONE 4 PRECINCT",1125 CASCADE CR. S.W.,ATLANTA,GA,30311,"http://maps.google.com/maps?q=1125 CASCADE CR. S.W.,+ATLANTA,+GA+30311&hl=en"
ATLANTA POLICE DEPARTMENT,"ATLANTA POLICE DEPARTMENT 
												
													ZONE 5 PRECINCT",200 SPRING ST.,ATLANTA,GA,30303,"http://maps.google.com/maps?q=200 SPRING ST.,+ATLANTA,+GA+30303&hl=en"
ATOKA POLICE DEPT.,ATOKA PD,68 ATOKA-MCLAUGHLIN,ATOKA,TN,38004,"http://maps.google.com/maps?q=68 ATOKA-MCLAUGHLIN,+ATOKA,+TN+38004&hl=en"
BAILEYTON POLICE DEPT.,BAILEYTON POLICE DEPT.,6530 HORTON HWY,GREENEVILLE,TN,37745,"http://maps.google.com/maps?q=6530 HORTON HWY,+GREENEVILLE,+TN+37745&hl=en"
BARTLETT PD,"KROGER 
												
													HWY 70 / APPLING RD",7615 HWY 70,BARTLETT,TN,38133,"http://maps.google.com/maps?q=7615 HWY 70,+BARTLETT,+TN+38133&hl=en"
BATESVILLE POLICE DEPARTMENT,BATESVILLE POLICE DEPARTMENT,106 COLLEGE STREET,BATESVILLE,MS,38606,"http://maps.google.com/maps?q=106 COLLEGE STREET,+BATESVILLE,+MS+38606&hl=en"
BAY POLICE DEPARTMENT,"BAY POLICE DEPARTMENT 
												
													PERMANENT DROP BOX",220 ELDER ST,BAY,AR,72411,"http://maps.google.com/maps?q=220 ELDER ST,+BAY,+AR+72411&hl=en"
BECKLEY POLICE DEPARTMENT,RALEIGH COUNTY COMMISSION ON AGING,1614 SOUTH KANAWHA STREET,BECKLEY,WV,25801,"http://maps.google.com/maps?q=1614 SOUTH KANAWHA STREET,+BECKLEY,+WV+25801&hl=en"
BEDFORD COUNTY SHERIFF'S DEPT.,FIRST BAPTIST CHURCH,304 E. DEPOT ST,SHELBYVILLE,TN,37160,"http://maps.google.com/maps?q=304 E. DEPOT ST,+SHELBYVILLE,+TN+37160&hl=en"
BLACKSBURG POLICE DEPARTMENT,"BLACKSBURG RECREATION CENTER 
												
													PARKING LOT",725 PATRICK HENRY DRIVE,BLACKSBURG,VA,24060,"http://maps.google.com/maps?q=725 PATRICK HENRY DRIVE,+BLACKSBURG,+VA+24060&hl=en"
BLAND COUNTY SHERIFF'S OFFICE,BLAND COUNTY SHERIFFS OFFICE,612 MAIN ST. SUITE 203,BLAND,VA,24315,"http://maps.google.com/maps?q=612 MAIN ST. SUITE 203,+BLAND,+VA+24315&hl=en"
BLOUNT COUNTY DISTRICT ATTORNEY'S OFFICE,BLOUNTSVILLE TOWN HALL,10017 LEE ST,BLOUNTSVILLE,AL,35031,"http://maps.google.com/maps?q=10017 LEE ST,+BLOUNTSVILLE,+AL+35031&hl=en"
BLOUNT COUNTY DISTRICT ATTORNEY'S OFFICE,HIGHLAND LAKE TOWN HALL,612 LAKESHORE DRIVE,ONEONTA,AL,35121,"http://maps.google.com/maps?q=612 LAKESHORE DRIVE,+ONEONTA,+AL+35121&hl=en"
BLOUNT COUNTY DISTRICT ATTORNEY'S OFFICE,ONEONTA WAL-MART,2453 2ND AVENUE EAST,ONEONTA,AL,35121,"http://maps.google.com/maps?q=2453 2ND AVENUE EAST,+ONEONTA,+AL+35121&hl=en"
BLOUNT COUNTY DISTRICT ATTORNEY'S OFFICE,SNEAD TOWN HALL,87169 US HIGHWAY 278,ALTOONA,AL,35952,"http://maps.google.com/maps?q=87169 US HIGHWAY 278,+ALTOONA,+AL+35952&hl=en"
BLYTHEVILLE POLICE DEPARTMENT,"BLYTHEVILLE POLICE DEPARTMENT 
												
													PERMANENT DROP BOX",201 W. WALNUT STREET,BLYTHEVILLE,AR,72315,"http://maps.google.com/maps?q=201 W. WALNUT STREET,+BLYTHEVILLE,+AR+72315&hl=en"
BOONE COUNTY SHERIFF'S OFFICE,"BOONE COUNTY SHERIFF'S OFFICE 
												
													COUNTY COURTHOUSE",200 STATE STREET,MADISON,WV,25130,"http://maps.google.com/maps?q=200 STATE STREET,+MADISON,+WV+25130&hl=en"
BOWLING GREEN- WARREN CO DRUG TASK FORCE,BOWLING GREEN POLICE DEPARTMENT,911 KENTUCKY STREET,BOWLING GREEN,KY,42101,"http://maps.google.com/maps?q=911 KENTUCKY STREET,+BOWLING GREEN,+KY+42101&hl=en"
BOWLING GREEN- WARREN CO DRUG TASK FORCE,"KENTUCKY STATE POLICE 
												
													POST 3",3119 NASHVILLE ROAD,BOWLING GREEN,KY,42101,"http://maps.google.com/maps?q=3119 NASHVILLE ROAD,+BOWLING GREEN,+KY+42101&hl=en"
BOWLING GREEN- WARREN CO DRUG TASK FORCE,"SAFETY CITY 
												
													IN FRONT OF GREENWOOD HIGH SCHOOL",5065 SCOTTSVILLE ROAD,BOWLING GREEN,KY,42104,"http://maps.google.com/maps?q=5065 SCOTTSVILLE ROAD,+BOWLING GREEN,+KY+42104&hl=en"
BRADLEY COUNTY SHERIFF'S OFFICE,BCSO CID ENTRANCE,2290 BLYTHE AVE SE,CLEVELAND,TN,37311,"http://maps.google.com/maps?q=2290 BLYTHE AVE SE,+CLEVELAND,+TN+37311&hl=en"
BRISTOL SHERIFF'S OFFICE,"FOOD CITY 
												
													NEAR FRONT ENTRANCE",1320 EUCLID AVE,BRISTOL,VA,24201,"http://maps.google.com/maps?q=1320 EUCLID AVE,+BRISTOL,+VA+24201&hl=en"
BRISTOL TENNESSEE POLICE DEPARTMENT,BRISTOL POLICE DEPARTMENT,801 ANDERSON STREET,BRISTOL,TN,37620,"http://maps.google.com/maps?q=801 ANDERSON STREET,+BRISTOL,+TN+37620&hl=en"
BROWNSVILLE POLICE DEPARTMENT,BROWNSVILLE POLICE DEPARTMENT,118 N.LAFAYETTE ST.,BROWNSVILLE,TN,38012,"http://maps.google.com/maps?q=118 N.LAFAYETTE ST.,+BROWNSVILLE,+TN+38012&hl=en"
BUCHANAN COUNTY SHERIFF'S OFFICE,"FOOD CITY PHARMACY 
												
													VANSANT FOOD CITY",18765 RIVERSIDE DRIVE,VANSANT,VA,24656,"http://maps.google.com/maps?q=18765 RIVERSIDE DRIVE,+VANSANT,+VA+24656&hl=en"
BUNCOMBE COUNTY SHERIFF'S OFFICE,ASHEVILLE REGIONAL AIRPORT,61 TERMINAL DRIVE,FLETCHER,NC,28732,"http://maps.google.com/maps?q=61 TERMINAL DRIVE,+FLETCHER,+NC+28732&hl=en"
BUNCOMBE COUNTY SHERIFF'S OFFICE,CVS PHARMACY,425 W. STATE STREET,BLACK MOUNTAIN,NC,28711,"http://maps.google.com/maps?q=425 W. STATE STREET,+BLACK MOUNTAIN,+NC+28711&hl=en"
BUNCOMBE COUNTY SHERIFF'S OFFICE,CVS PHARMACY,505 SMOKEY PARK HIGHWAY,ASHEVILLE,NC,28806,"http://maps.google.com/maps?q=505 SMOKEY PARK HIGHWAY,+ASHEVILLE,+NC+28806&hl=en"
BUNCOMBE COUNTY SHERIFF'S OFFICE,SONA PHARMACY,805 FAIRVIEW RD,ASHEVILLE,NC,28803,"http://maps.google.com/maps?q=805 FAIRVIEW RD,+ASHEVILLE,+NC+28803&hl=en"
BUNCOMBE COUNTY SHERIFF'S OFFICE,WALGREEN'S,1124 PATTON AVE,ASHEVILLE,NC,28806,"http://maps.google.com/maps?q=1124 PATTON AVE,+ASHEVILLE,+NC+28806&hl=en"
BUNCOMBE COUNTY SHERIFF'S OFFICE,WALGREEN'S,1835 HENDERSONVILLE RD,ASHEVILLE,NC,28803,"http://maps.google.com/maps?q=1835 HENDERSONVILLE RD,+ASHEVILLE,+NC+28803&hl=en"
BUNCOMBE COUNTY SHERIFF'S OFFICE,WALGREEN'S,841 MERRIMON AVE,ASHEVILLE,NC,28804,"http://maps.google.com/maps?q=841 MERRIMON AVE,+ASHEVILLE,+NC+28804&hl=en"
BUNCOMBE COUNTY SHERIFF'S OFFICE,WALGREEN'S,91 S. TUNNEL RD,ASHEVILLE,NC,28805,"http://maps.google.com/maps?q=91 S. TUNNEL RD,+ASHEVILLE,+NC+28805&hl=en"
CALHOUN COUNTY SHERIFF'S OFFFICE,CALHOUN COUNTY SHERIFF'S OFFICE,178 S. MURPHREE ST.,PITTSBORO,MS,38951,"http://maps.google.com/maps?q=178 S. MURPHREE ST.,+PITTSBORO,+MS+38951&hl=en"
CANNON PHARMACY,CANNON PHARMACY,1706 S CANNON BLVD,KANNAPOLIS,NC,28083,"http://maps.google.com/maps?q=1706 S CANNON BLVD,+KANNAPOLIS,+NC+28083&hl=en"
CANNON PHARMACY,WEST CABARRUS YMCA,5325 LANGFORD AVE NW,CONCORD,NC,28027,"http://maps.google.com/maps?q=5325 LANGFORD AVE NW,+CONCORD,+NC+28027&hl=en"
CARLISLE POLICE DEPARTMENT,"CARLISLE POLICE DEPARTMENT 
												
													PERMANENT DROP BOX",120 W. MAIN STREET,CARLISLE,AR,72024,"http://maps.google.com/maps?q=120 W. MAIN STREET,+CARLISLE,+AR+72024&hl=en"
CARROLL COUNTY SHERIFF'S OFFICE,CARROLL COUNTY SHERIFF'S OFFICE,200 NORANDAL DRIVE,HUNTINGDON,TN,38344,"http://maps.google.com/maps?q=200 NORANDAL DRIVE,+HUNTINGDON,+TN+38344&hl=en"
CARROLL COUNTY SHERIFF'S OFFICE,CVS PHARMACY - HILLSVILLE,915 WEST STUART DRIVE,HILLSVILLE,VA,24343,"http://maps.google.com/maps?q=915 WEST STUART DRIVE,+HILLSVILLE,+VA+24343&hl=en"
CARTER COUNTY SO,"CARTER COUNTY DETENTION CENTER 
												
													INSIDE LOBBY AREA. OPEN 24HRS PER DAY.",900 3RD ST.,ELIZABETHTON,TN,37643,"http://maps.google.com/maps?q=900 3RD ST.,+ELIZABETHTON,+TN+37643&hl=en"
CARTERSVILLE POLICE DEPARTMENT,CARTERSVILLE POLICE DEPARTMENT,195 CASSVILLE ROAD,CARTERSVILLE,GA,30120,"http://maps.google.com/maps?q=195 CASSVILLE ROAD,+CARTERSVILLE,+GA+30120&hl=en"
CARTHAGE POLICE DEPARTMENT,CARTHAGE CITY HALL,314 SPRING ST.,CARTHAGE,TN,37030,"http://maps.google.com/maps?q=314 SPRING ST.,+CARTHAGE,+TN+37030&hl=en"
CATOOSA CO. SHERIFF'S OFFICE,CATOOSA CO. SHERIFF'S OFFICE,5842 HIGHWAY 41,RINGGOLD,GA,30736,"http://maps.google.com/maps?q=5842 HIGHWAY 41,+RINGGOLD,+GA+30736&hl=en"
CAVE CITY POLICE DEPARTMENT,"CAVE CITY POLICE DEPARTMENT 
												
													PERMANENT DROP BOX",120 E. SPRING STREET,CAVE CITY,AR,72521,"http://maps.google.com/maps?q=120 E. SPRING STREET,+CAVE CITY,+AR+72521&hl=en"
CAVE SPRINGS POLICE DEPARTMENT,CAVE CITY POLICE DEPARTMENT,120 EAST SPRING ST,CAVE CITY,AR,72521,"http://maps.google.com/maps?q=120 EAST SPRING ST,+CAVE CITY,+AR+72521&hl=en"
CHAPEL HILL POLICE DEPT.,CHAPEL HILL POLICE DEPT.,119 N. HORTON PKWY,CHAPEL HILL,TN,37034,"http://maps.google.com/maps?q=119 N. HORTON PKWY,+CHAPEL HILL,+TN+37034&hl=en"
CHEROKEE COUNTY SHERIFF'S OFFICE,"CHEROKEE CO. SHERIFF'S OFFICE 
												
													LAW ENFORCEMENT CENTER",312 EAST FREDERICK ST.(10AM-1PM ONLY!),GAFFNEY,SC,29340,"http://maps.google.com/maps?q=312 EAST FREDERICK ST.,+GAFFNEY,+SC+29340&hl=en"
CHEROKEE VILLAGE POLICE DEPARTMENT,CHEROKEE VILLAGE POLICE DEPARTMENT,#2 SONTEE DRIVE,CHEROKEE VILLAGE,AR,72529,"http://maps.google.com/maps?q=#2 SONTEE DRIVE,+CHEROKEE VILLAGE,+AR+72529&hl=en"
CHESTER COUNTY SHERIFFS OFFICE,CRIMINAL JUSTICE COMPLEX,333 ERIC BELL DR.,HENDERSON,TN,38340,"http://maps.google.com/maps?q=333 ERIC BELL DR.,+HENDERSON,+TN+38340&hl=en"
CHESTER POLICE DEPARTMENT,WAL-MART,1691 JA COCHRAN BYPASS,CHESTER,SC,29706,"http://maps.google.com/maps?q=1691 JA COCHRAN BYPASS,+CHESTER,+SC+29706&hl=en"
CHRISTIANSBURG POLICE DEPARTMENT,"CVS PHARMACY 
												
													PARKING LOT NEAR ENTRANCE",550 NORTH FRANKLIN ST,CHRISTIANSBURG,VA,24073,"http://maps.google.com/maps?q=550 NORTH FRANKLIN ST,+CHRISTIANSBURG,+VA+24073&hl=en"
CITY OF COOKEVILLE POLICE DEPT.,ANDY'S PHARMACY,305 W. SPRING STREET,COOKEVILLE,TN,38501,"http://maps.google.com/maps?q=305 W. SPRING STREET,+COOKEVILLE,+TN+38501&hl=en"
CITY OF COOKEVILLE POLICE DEPT.,WALGREENS,950 N. WASHINGTON AVE.,COOKEVILLE,TN,38501,"http://maps.google.com/maps?q=950 N. WASHINGTON AVE.,+COOKEVILLE,+TN+38501&hl=en"
CLAY COUNTY SHERIFF'S OFFICE,CLAY COUNTY SHERIFF'S OFFICE,400 WEST LAKE AVE,CELINA,TN,38551,"http://maps.google.com/maps?q=400 WEST LAKE AVE,+CELINA,+TN+38551&hl=en"
CLINTON POLICE DEPT.,CLINTON POLICE DEPT.,125 W. BROAD ST.,CLINTON,TN,37716,"http://maps.google.com/maps?q=125 W. BROAD ST.,+CLINTON,+TN+37716&hl=en"
COBB COUNTY POLICE DEPARTMENT,PRECINCT 1,2380 COBB PKWY,MARIETTA,GA,30060,"http://maps.google.com/maps?q=2380 COBB PKWY,+MARIETTA,+GA+30060&hl=en"
COEBURN POLICE DEPARTMENT,"COEBURN FOOD CITY 
												
													MARTY SHOPPING CENTER",517 FRONT ST W,COEBURN,VA,24230,"http://maps.google.com/maps?q=517 FRONT ST W,+COEBURN,+VA+24230&hl=en"
COFFEE COUNTY SHERIFF DEPARTMENT,FIRST VISION BANK,2134 HILLSBORO HWY.,MANCHESTER,TN,37355,"http://maps.google.com/maps?q=2134 HILLSBORO HWY.,+MANCHESTER,+TN+37355&hl=en"
COLLIERVILLE POLICE DEPARTMENT,COLLIERVILLE POLICE DEPARTMENT,156 N. ROWLETT COLLIERVILLE,COLLIERVILLE,TN,38017,"http://maps.google.com/maps?q=156 N. ROWLETT COLLIERVILLE,+COLLIERVILLE,+TN+38017&hl=en"
COLUMBUS POLICE DEPARTMENT,CVS PHARMACY,333 W. MILLS STREET,COLUMBUS,NC,28722,"http://maps.google.com/maps?q=333 W. MILLS STREET,+COLUMBUS,+NC+28722&hl=en"
CRITTENDEN COUNTY SHERIFF'S OFFICE,"CRITTENDEN COUNTY SHERIFF'S OFFICE 
												
													PERMANENT DROP BOX",350 AFCO ROAD,WEST MEMPHIS,AR,72301,"http://maps.google.com/maps?q=350 AFCO ROAD,+WEST MEMPHIS,+AR+72301&hl=en"
CROSS COUNTY SHERIFF'S OFFICE,"CROSS COUNTY SHERIFF'S OFFICE 
												
													PERMANENT DROP BOX",704 EAST CANAL ST.,WYNNE,AR,72396,"http://maps.google.com/maps?q=704 EAST CANAL ST.,+WYNNE,+AR+72396&hl=en"
CROSSVILLE POLICE DEPT.,CROSSVILLE POLICE DEPT.,115 HENRY ST.,CROSSVILLE,TN,38555,"http://maps.google.com/maps?q=115 HENRY ST.,+CROSSVILLE,+TN+38555&hl=en"
CUMBERLAND CO. SHERIFF'S DEPARTMENT,CUMBERLAND COUNTY SHERIFF,90 JUSTICE CENTER DR,CROSSVILLE,TN,38555,"http://maps.google.com/maps?q=90 JUSTICE CENTER DR,+CROSSVILLE,+TN+38555&hl=en"
DAMASCUS POLICE DEPARTMENT,DAMASCUS TOWN PARK,104 S BEAVER DAM AVE,DAMASCUS,VA,24236,"http://maps.google.com/maps?q=104 S BEAVER DAM AVE,+DAMASCUS,+VA+24236&hl=en"
DANDRIDGE POLICE DEPARTMENT,FOOD CITY,123 WEST HWY 25/70,DANDRIDGE,TN,37725,"http://maps.google.com/maps?q=123 WEST HWY 25/70,+DANDRIDGE,+TN+37725&hl=en"
DANVILLE POLICE DEPARTMENT,DANVILLE POLICE DEPARTMENT/CITY HALL,445 W MAIN STREET,DANVILLE,KY,40422,"http://maps.google.com/maps?q=445 W MAIN STREET,+DANVILLE,+KY+40422&hl=en"
DE WITT POLICE DEPARTMENT,"DE WITT POLICE DEPARTMENT 
												
													PERMANENT DROP BOX",120 COURT SQUARE,DE WITT,AR,72042,"http://maps.google.com/maps?q=120 COURT SQUARE,+DE WITT,+AR+72042&hl=en"
DEKALB COUNTY POLICE,NORTH DEKALB HEALTH CENTER,"3807 CLAIRMONT RD., NE",CHAMBLEE,GA,30341,"http://maps.google.com/maps?q=3807 CLAIRMONT RD., NE,+CHAMBLEE,+GA+30341&hl=en"
DES ARC POLICE DEPARTMENT,"DES ARC CITY HALL 
												
													PERMANENT DROP BOX",107 SOUTH THIRD STREET,DES ARC,AR,72040,"http://maps.google.com/maps?q=107 SOUTH THIRD STREET,+DES ARC,+AR+72040&hl=en"
DESOTO COUNTY SHERIFF'S DEPARTMENT,KROEGER,2380 MOUNT PLEASANT ROAD,HERNANDO,MS,38632,"http://maps.google.com/maps?q=2380 MOUNT PLEASANT ROAD,+HERNANDO,+MS+38632&hl=en"
DESOTO COUNTY SHERIFF'S DEPARTMENT,KROGER/HERNANDO,2380 MOUNT PLEASANT RD.,HERNANDO,MS,38632,"http://maps.google.com/maps?q=2380 MOUNT PLEASANT RD.,+HERNANDO,+MS+38632&hl=en"
DESOTO COUNTY SHERIFF'S DEPARTMENT,WALGREENS-HERNANDO,950 E. COMMERCE ST.,HERNANDO,MS,38632,"http://maps.google.com/maps?q=950 E. COMMERCE ST.,+HERNANDO,+MS+38632&hl=en"
DICKENSON COUNTY SHERIFF'S OFFICE,"FOOD CITY 
												
													NEAR THE FRONT ENTRANCE",410 CHASE STREET,CLINTWOOD,VA,24228,"http://maps.google.com/maps?q=410 CHASE STREET,+CLINTWOOD,+VA+24228&hl=en"
DUBLIN POLICE DEPARTMENT,CVS PHARMACY #7658,100 GILES AVENUE,DUBLIN,VA,24084,"http://maps.google.com/maps?q=100 GILES AVENUE,+DUBLIN,+VA+24084&hl=en"
DUMAS POLICE DEPARTMENT,"DUMAS POLICE DEPARTMENT 
												
													PERMANENT DROP BOX",149 E WATERMAN,DUMAS,AR,71639,"http://maps.google.com/maps?q=149 E WATERMAN,+DUMAS,+AR+71639&hl=en"
DUNLAP POLICE DEPT,DUNLAP POLICE DEPT,119 CHURCH ST,DUNLAP,TN,37327,"http://maps.google.com/maps?q=119 CHURCH ST,+DUNLAP,+TN+37327&hl=en"
DYER COUNTY SHERIFF'S DEPT.,DYER CO. HEALTH DEPT.,1755 PARR AVE.,DYERSBURG,TN,38024,"http://maps.google.com/maps?q=1755 PARR AVE.,+DYERSBURG,+TN+38024&hl=en"
DYER COUNTY SHERIFF'S OFFICE,"DYER COUNTY JAIL 
												
													LOBBY",401 EAST CEDAR STREET,DYERSBURG,TN,38024,"http://maps.google.com/maps?q=401 EAST CEDAR STREET,+DYERSBURG,+TN+38024&hl=en"
EAST POINT POLICE DEPARTMENT,EAST POINT POLICE DEPARTMENT,2727 EAST POINT STREET,ATLANTA,GA,30344,"http://maps.google.com/maps?q=2727 EAST POINT STREET,+ATLANTA,+GA+30344&hl=en"
EAST RIDGE POLICE DEPARTMENT,WALGREENS,5301 RINGGOLD RD,EAST RIDGE,TN,37412,"http://maps.google.com/maps?q=5301 RINGGOLD RD,+EAST RIDGE,+TN+37412&hl=en"
ELIZABETHTON TN POLICE DEPARTMENT,ELIZABETHTON POLICE DEPARTMENT,525 EAST F STREET,ELIZABETHTON,TN,37643,"http://maps.google.com/maps?q=525 EAST F STREET,+ELIZABETHTON,+TN+37643&hl=en"
ELKIN POLICE DEPARTMENT,"WAL-MART 
												
													COLLECTION WILL BE IN THE PARKING LOT",548 CC CAMP RD,ELKIN,NC,28621,"http://maps.google.com/maps?q=548 CC CAMP RD,+ELKIN,+NC+28621&hl=en"
ERWIN POLICE DEPARTMENT,CITY HALL,211 N. MAIN AVENUE,ERWIN,TN,37650,"http://maps.google.com/maps?q=211 N. MAIN AVENUE,+ERWIN,+TN+37650&hl=en"
ETOWAH COUNTY DRUG ENFORCEMENT UNIT,WALMART,340 E. MEIGHAN BLVD.,GADSDEN,AL,35903,"http://maps.google.com/maps?q=340 E. MEIGHAN BLVD.,+GADSDEN,+AL+35903&hl=en"
FAIRFIELD GLADE POLICE DEPARTMENT,FAIRFIELD GLADE POLICE DEPT,7258 PEAVINE RD,CROSSVILLE,TN,38558,"http://maps.google.com/maps?q=7258 PEAVINE RD,+CROSSVILLE,+TN+38558&hl=en"
FANNIN COUNTY SHERIFF'S OFFICE,FANNIN COUNTY SHERIFF'S OFFICE,645 WEST FIRST STREET,BLUE RIDGE,GA,30513,"http://maps.google.com/maps?q=645 WEST FIRST STREET,+BLUE RIDGE,+GA+30513&hl=en"
FLETCHER POLICE DEPARTMENT,FLETCHER TOWN HALL,300 OLD CANE CREEK RD,FLETCHER,NC,28732,"http://maps.google.com/maps?q=300 OLD CANE CREEK RD,+FLETCHER,+NC+28732&hl=en"
FLOYD COUNTY SHERIFF'S OFFICE,"FLOYD COUNTY SHERIFF'S OFFICE 
												
													MAIN ENTRANCE",100 MAIN STREET,FLOYD,VA,24091,"http://maps.google.com/maps?q=100 MAIN STREET,+FLOYD,+VA+24091&hl=en"
FORREST CITY POLICE DEPARTMENT,"FORREST CITY POLICE DEPARTMENT 
												
													WAL-MART SUPERCENTER",205 DEADRICK ROAD,FORREST CITY,AR,72335,"http://maps.google.com/maps?q=205 DEADRICK ROAD,+FORREST CITY,+AR+72335&hl=en"
FOUNTAIN INN POLICE DEPT.,FOUNTAIN INN POLICE DEPT.,300 N. MAIN STREET,FOUNTAIN INN,SC,29644,"http://maps.google.com/maps?q=300 N. MAIN STREET,+FOUNTAIN INN,+SC+29644&hl=en"
FRANKLIN COUNTY SHERIFF'S OFFICE,FERRUM COLLEGE PD OFFICE,10021 FRANKLIN STREET,FERRUM,VA,24088,"http://maps.google.com/maps?q=10021 FRANKLIN STREET,+FERRUM,+VA+24088&hl=en"
FRANKLIN COUNTY SHERIFF'S OFFICE,FRANKLIN COUNTY SHERIFF CID,159 A. T. MAULDIN DRIVE,CARNESVILLE,GA,30521,"http://maps.google.com/maps?q=159 A. T. MAULDIN DRIVE,+CARNESVILLE,+GA+30521&hl=en"
FRANKLIN COUNTY SHERIFF'S OFFICE,FRANKLIN COUNTY SHERIFF'S OFFICE,494 GEORGE FRALEY PKWY,WINCHESTER,TN,37398,"http://maps.google.com/maps?q=494 GEORGE FRALEY PKWY,+WINCHESTER,+TN+37398&hl=en"
FULTON POLICE DEPARTMENT,WAL MART SUPERCENTER,101 INTERCHANGE DR.1409 S. ADAMS ST.,FULTON,MS,38843,"http://maps.google.com/maps?q=101 INTERCHANGE DR.,+FULTON,+MS+38843&hl=en"
GALAX POLICE DEPARTMENT,"GALAX POLICE DEPARTMENT 
												
													POLICE DEPARTMENT PARKING LOT",353 N. MAIN STREET,GALAX,VA,24333,"http://maps.google.com/maps?q=353 N. MAIN STREET,+GALAX,+VA+24333&hl=en"
GATLINBURG POLICE DEPT.,GATLINBURG PD,1230 E. PKWY,GATLINBURG,TN,37738,"http://maps.google.com/maps?q=1230 E. PKWY,+GATLINBURG,+TN+37738&hl=en"
GERMANTOWN POLICE,KROGER,7735 FARMINGTON BLVD.,GERMANTOWN,TN,38138,"http://maps.google.com/maps?q=7735 FARMINGTON BLVD.,+GERMANTOWN,+TN+38138&hl=en"
GERMANTOWN POLICE,"TARGET 
												
													AT VILLAGE SHOPS",9235 POPLAR AVENUE,GERMANTOWN,TN,38139,"http://maps.google.com/maps?q=9235 POPLAR AVENUE,+GERMANTOWN,+TN+38139&hl=en"
GIBSON COUNTY SHERIFF'S OFFICE,GIBSON COUNTY SHERIFF'S OFFICE,401 N. COLLEGE STREET,TRENTON,TN,38382,"http://maps.google.com/maps?q=401 N. COLLEGE STREET,+TRENTON,+TN+38382&hl=en"
GILES COUNTY SHERIFF'S DEPT.,CVS PHARMACY,709 W COLLEGE ST.,PULASKI,TN,38478,"http://maps.google.com/maps?q=709 W COLLEGE ST.,+PULASKI,+TN+38478&hl=en"
GILES COUNTY SHERIFF'S OFFICE,GILES COUNTY SHERIFF'S OFFICE,1 TAYLOR AVENUE SUITE 3,PEARISBURG,VA,24134,"http://maps.google.com/maps?q=1 TAYLOR AVENUE SUITE 3,+PEARISBURG,+VA+24134&hl=en"
GLASGOW POLICE DEPARTMENT,WALMART,2345 HAPPY VALLEY RD.,GLASGOW,KY,42141,"http://maps.google.com/maps?q=2345 HAPPY VALLEY RD.,+GLASGOW,+KY+42141&hl=en"
GRAINGER COUNTY SHERIFF'S DEPARTMENT,OKIES PHARMACY,1050 RUTLEDGE PIKE,BLAINE,TN,37709,"http://maps.google.com/maps?q=1050 RUTLEDGE PIKE,+BLAINE,+TN+37709&hl=en"
GRAYSON COUNTY SHERIFF'S OFFICE,CORNER CAFE & MARKET,4013 TROUTDALE HIGHWAY,MOUTH OF WILSON,VA,24363,"http://maps.google.com/maps?q=4013 TROUTDALE HIGHWAY,+MOUTH OF WILSON,+VA+24363&hl=en"
GRAYSON COUNTY SHERIFF'S OFFICE,FRIES FIRE DEPARTMENT,832 EAST MAIN STREET,FRIES,VA,24330,"http://maps.google.com/maps?q=832 EAST MAIN STREET,+FRIES,+VA+24330&hl=en"
GREENE COUNTY SHERIFF'S DEPT.,"CHUCKEY DOAK MIDDLE SCHOOL 
												
													PARKING LOT",120 CHUCKEY DOAK RD.,AFTON,TN,37616,"http://maps.google.com/maps?q=120 CHUCKEY DOAK RD.,+AFTON,+TN+37616&hl=en"
GREENE COUNTY SHERIFF'S DEPT.,"WEST GREENE HIGH SCHOOL 
												
													PARKING LOT",275 W. GREENE DR.,MOSHEIM,TN,37818,"http://maps.google.com/maps?q=275 W. GREENE DR.,+MOSHEIM,+TN+37818&hl=en"
GREENE COUNTY SHERIFF'S OFFICE,"GREENE COUNTY SHERIFF'S OFFICE 
												
													PERMANENT DROP BOX",1809 ROCKINGCHAIR RD,PARAGOULD,AR,72450,"http://maps.google.com/maps?q=1809 ROCKINGCHAIR RD,+PARAGOULD,+AR+72450&hl=en"
GREENE COUNTY SHERIFF'S OFFICE,WAL-MART,2802 W. KINGS HWY,PARAGOULD,AR,72450,"http://maps.google.com/maps?q=2802 W. KINGS HWY,+PARAGOULD,+AR+72450&hl=en"
GREENVILLE HEALTH SYSTEM PD,GREENVILLE MEMORIAL HOSPITAL,701 GROVE RD,GREENVILLE,SC,29605,"http://maps.google.com/maps?q=701 GROVE RD,+GREENVILLE,+SC+29605&hl=en"
GREENVILLE HEALTH SYSTEM PD,GREER MEMORIAL HOSPITAL,830 S. BUNCOMBE RD.,GREER,SC,29650,"http://maps.google.com/maps?q=830 S. BUNCOMBE RD.,+GREER,+SC+29650&hl=en"
GREENVILLE HEALTH SYSTEM PD,HILLCREST MEMORIAL HOSPITAL,729 SE MAIN STREET,SIMPSONVILLE,SC,29681,"http://maps.google.com/maps?q=729 SE MAIN STREET,+SIMPSONVILLE,+SC+29681&hl=en"
GREENVILLE HEALTH SYSTEM PD,OCONEE MEMORIAL HOSPITAL,298 MEMORIAL DR,SENECA,SC,29672,"http://maps.google.com/maps?q=298 MEMORIAL DR,+SENECA,+SC+29672&hl=en"
GREENVILLE POLICE DEPARTMENT,GREENEVILLE POLICE DEPARTMENT,200 N. COLLEGE STREET,GREENEVILLE,TN,37745,"http://maps.google.com/maps?q=200 N. COLLEGE STREET,+GREENEVILLE,+TN+37745&hl=en"
GREER POLICE DEPARTMENT,ACE ENVIRONMENTAL,315 BUNCOMBE ST.,GREER,SC,29651,"http://maps.google.com/maps?q=315 BUNCOMBE ST.,+GREER,+SC+29651&hl=en"
GRUNDY COUNTY SHERIFF'S OFFICE,"COALMONT 
												
													BESIDE L & L HARDWARE",38 S. INDUSTRIAL PARK RD.,COALMONT,TN,37313,"http://maps.google.com/maps?q=38 S. INDUSTRIAL PARK RD.,+COALMONT,+TN+37313&hl=en"
GWINNETT COUNTY POLICE DEPARTMENT,CITY OF PEACHTREE CORNERS CITY HALL,310 TECHNOLOGY PARKWAY,PEACHTREE CORNERS,GA,30092,"http://maps.google.com/maps?q=310 TECHNOLOGY PARKWAY,+PEACHTREE CORNERS,+GA+30092&hl=en"
HAMILTON COUNTY SHERIFF'S OFFICE,ELKS LODGE,1069 GRAYSVILLE RD,CHATTANOOGA,TN,37421,"http://maps.google.com/maps?q=1069 GRAYSVILLE RD,+CHATTANOOGA,+TN+37421&hl=en"
HARLAN POLICE DEPARTMENT,HARLAN POLICE DEPARTMENT,218 SOUTH MAIN,HARLAN,KY,40831,"http://maps.google.com/maps?q=218 SOUTH MAIN,+HARLAN,+KY+40831&hl=en"
HARRIMAN POLICE DEPT.,WALGREENS,1797 ROANE STATE HWY,HARRIMAN,TN,37748,"http://maps.google.com/maps?q=1797 ROANE STATE HWY,+HARRIMAN,+TN+37748&hl=en"
HARRISBURG POLICE DEPARTMENT,"HARRISBURG POLICE DEPARTMENT 
												
													PERMANENT DROP BOX",202 N. EAST STREET,HARRISBURG,AR,72432,"http://maps.google.com/maps?q=202 N. EAST STREET,+HARRISBURG,+AR+72432&hl=en"
HAWKINS COUNTY SHERIFF'S OFFICE,HAWKINS COUNTY SHERIFF'S OFFICE,117 JUSTIC CENTER DR,ROGERSVILLE,TN,37857,"http://maps.google.com/maps?q=117 JUSTIC CENTER DR,+ROGERSVILLE,+TN+37857&hl=en"
HELENA-WEST HELENA POLICE DEPARTMENT,"HELENA - WEST HELENA POLICE DEPARMENT 
												
													PERMANENT DROP BOX",98 EAST PLAZA,WEST HELENA,AR,72390,"http://maps.google.com/maps?q=98 EAST PLAZA,+WEST HELENA,+AR+72390&hl=en"
HENDERSONVILLE POLICE DEPT.,HENDERSONVILLE PD,#3 EXECUTIVE PARK DR.,HENDERSONVILLE,TN,37075,"http://maps.google.com/maps?q=#3 EXECUTIVE PARK DR.,+HENDERSONVILLE,+TN+37075&hl=en"
HINTON POLICE DEPARTMENT,"KROGER 
												
													PARKING LOT",308 STOKES DRIVE,HINTON,WV,25951,"http://maps.google.com/maps?q=308 STOKES DRIVE,+HINTON,+WV+25951&hl=en"
HUMBOLDT POLICE DEPARTMENT,HUMBOLDT PD,1421 OSBORNE ST.,HUMBOLDT,TN,38343,"http://maps.google.com/maps?q=1421 OSBORNE ST.,+HUMBOLDT,+TN+38343&hl=en"
HUNTINGDON POLICE DEPT.,HUNTINGDON PUBLIC SAFETY BLDG.,12740 LEXINGTON ST.,HUNTINGDON,TN,38344,"http://maps.google.com/maps?q=12740 LEXINGTON ST.,+HUNTINGDON,+TN+38344&hl=en"
INDEPENDENCE COUNTY SHERIFF'S DEPARTMENT,"INDEPENDENCE COUNTY SHERIFF'S OFFICE 
												
													PERMANENT DROP BOX",1750 MYERS STREET,BATESVILLE,AR,72501,"http://maps.google.com/maps?q=1750 MYERS STREET,+BATESVILLE,+AR+72501&hl=en"
IZARD COUNTY SHERIFF'S DEPARTMENT,"HORSESHOE BEND STATION 
												
													PERMANENT DROP BOX",204 COMMERCE ST,HORSESHOE BEND,AR,72512,"http://maps.google.com/maps?q=204 COMMERCE ST,+HORSESHOE BEND,+AR+72512&hl=en"
JACKSON COUNTY SHERIFF'S OFFICE,"JACKSON COUNTY SO 
												
													PERMANENT DROP BOX",615 SECOND ST,NEWPORT,AR,72112,"http://maps.google.com/maps?q=615 SECOND ST,+NEWPORT,+AR+72112&hl=en"
JACKSON COUNTY SHERIFF'S OFFICE,UNITY HEALTH CLINIC,1117 MCLAIN ST,NEWPORT,AR,72112,"http://maps.google.com/maps?q=1117 MCLAIN ST,+NEWPORT,+AR+72112&hl=en"
JACKSON COUNTY SHERIFFS OFFICE,JACKSON COUNTY COURT HOUSE,102 EAST LAUREL STREET,SCOTTSBORO,AL,35768,"http://maps.google.com/maps?q=102 EAST LAUREL STREET,+SCOTTSBORO,+AL+35768&hl=en"
JACKSON-MADISON COUNTY METRO NARCOTICS,CVS PHARMACY,1405 N. HIGHLAND,JACKSON,TN,38301,"http://maps.google.com/maps?q=1405 N. HIGHLAND,+JACKSON,+TN+38301&hl=en"
JACKSON-MADISON COUNTY METRO NARCOTICS,KROGER PHARMACY,41 STONEBROOK PLACE,JACKSON,TN,38301,"http://maps.google.com/maps?q=41 STONEBROOK PLACE,+JACKSON,+TN+38301&hl=en"
JACKSON-MADISON COUNTY METRO NARCOTICS,"WAL-GREENS 
												
													BEMIS",1405 S HIGHLAND AVE,JACKSON,TN,38301,"http://maps.google.com/maps?q=1405 S HIGHLAND AVE,+JACKSON,+TN+38301&hl=en"
JOHNS CREEK POLICE DEPARTMENT,EMORY JOHNS CREEK HOSPITAL,6325 HOSPITAL PARKWAY,JOHNS CREEK,GA,30097,"http://maps.google.com/maps?q=6325 HOSPITAL PARKWAY,+JOHNS CREEK,+GA+30097&hl=en"
JOHNSON COUNTY SHERIFF'S OFFICE,BUTLER FIRE DEPARTMENT,PIERCE TOWN ROAD,BUTLER,TN,37640,"http://maps.google.com/maps?q=PIERCE TOWN ROAD,+BUTLER,+TN+37640&hl=en"
JOHNSON COUNTY SHERIFF'S OFFICE,MOUNTAIN CITY POLICE DEPARTMENT,210 SOUTH CHURCH STREET,MOUNTAIN CITY,TN,37683,"http://maps.google.com/maps?q=210 SOUTH CHURCH STREET,+MOUNTAIN CITY,+TN+37683&hl=en"
JOHNSON COUNTY SHERIFF'S OFFICE,SHADY VALLEY FIRE DEPT.,10114 US 421 N,SHADY VALLEY,TN,37688,"http://maps.google.com/maps?q=10114 US 421 N,+SHADY VALLEY,+TN+37688&hl=en"
JONESBORO POLICE DEPARTMENT,"JONESBORO POLICE DEPARTMENT 
												
													PERMANENT DROP BOX",1001 S. CARAWAY RD,JONESBORO,AR,72401,"http://maps.google.com/maps?q=1001 S. CARAWAY RD,+JONESBORO,+AR+72401&hl=en"
JONESBOROUGH DEPT. OF PUBLIC SAFETY,JONESBOROUGH FIRE DEPT.,123 BOONE STREET,JONESBOROUGH,TN,37659,"http://maps.google.com/maps?q=123 BOONE STREET,+JONESBOROUGH,+TN+37659&hl=en"
KANNAPOLIS YMCA,KANNAPOLIS YMCA,101 YMCA DRIVE,KANNAPOLIS,NC,28081,"http://maps.google.com/maps?q=101 YMCA DRIVE,+KANNAPOLIS,+NC+28081&hl=en"
KENNESAW POLICE DEPARTMENT,CVS PHARMACY,2782 COBB PKWY.,KENNESAW,GA,30144,"http://maps.google.com/maps?q=2782 COBB PKWY.,+KENNESAW,+GA+30144&hl=en"
KENNETT POLICE DEPT,KENNETT POLICE DEPT,200 CEDAR,KENNETT,MO,63857,"http://maps.google.com/maps?q=200 CEDAR,+KENNETT,+MO+63857&hl=en"
KENTUCKY STATE POLICE POST 10,KENTUCKY STATE POLICE,3319 SOUTH US 421,HARLAN,KY,40831,"http://maps.google.com/maps?q=3319 SOUTH US 421,+HARLAN,+KY+40831&hl=en"
KENTUCKY STATE POLICE POST 11,LAUREL COUNTY HEALTH DEPARTMENT,525 WHITLEY STREET,LONDON,KY,40741,"http://maps.google.com/maps?q=525 WHITLEY STREET,+LONDON,+KY+40741&hl=en"
KENTUCKY STATE POLICE POST 13,KENTUCKY STATE POLICE,100 JUSTICE DRIVE,HAZARD,KY,41701,"http://maps.google.com/maps?q=100 JUSTICE DRIVE,+HAZARD,+KY+41701&hl=en"
KENTUCKY STATE POLICE POST 15,KENTUCKY STATE POLICE POST 15,1118 JAMESTOWN STREET,COLUMBIA,KY,42728,"http://maps.google.com/maps?q=1118 JAMESTOWN STREET,+COLUMBIA,+KY+42728&hl=en"
KENTUCKY STATE POLICE POST 3,"KENTUCKY STATE POLICE 
												
													POST 3",3119NASHVILLE RD.,BOWLING GREEN,KY,42101,"http://maps.google.com/maps?q=3119,+BOWLING GREEN,+KY+42101&hl=en"
KENTUCKY STATE POLICE POST 7,KENTUCKY STATE POLICE POST 7,"699 EASTERN BYPASS, RICHMOND, KY",RICHMOND,KY,40475,"http://maps.google.com/maps?q=699 EASTERN BYPASS, RICHMOND, KY,+RICHMOND,+KY+40475&hl=en"
KENTUCKY STATE POLICE POST 9 PIKEVILLE,KENTUCKY STATE POLICE POST 9 PIKEVILLE,3499 N MAYO TRAIL,PIKEVILLE,KY,41501,"http://maps.google.com/maps?q=3499 N MAYO TRAIL,+PIKEVILLE,+KY+41501&hl=en"
KINGSPORT POLICE DEPARTMENT,KINGSPORT JUSTICE CENTER,200 SHELBY ST,KINGSPORT,TN,37660,"http://maps.google.com/maps?q=200 SHELBY ST,+KINGSPORT,+TN+37660&hl=en"
KINGSPORT POLICE DEPARTMENT,V.O. DOBBINS COMPLEX,301 LOUIS ST,KINGSPORT,TN,37660,"http://maps.google.com/maps?q=301 LOUIS ST,+KINGSPORT,+TN+37660&hl=en"
KINGSTON POLICE DEPT.,FOOD CITY,1000 LADD LANDING BLVD.,KINGSTON,TN,37763,"http://maps.google.com/maps?q=1000 LADD LANDING BLVD.,+KINGSTON,+TN+37763&hl=en"
KNOXVILLE POLICE DEPARTMENT,KROGER,9225 KINGSTON PIKE,KNOXVILLE,TN,37922,"http://maps.google.com/maps?q=9225 KINGSTON PIKE,+KNOXVILLE,+TN+37922&hl=en"
LAVERGNE POLICE DEPARTMENT,KROGER,5145 MURFREESBORO RD,LA VERGNE,TN,37086,"http://maps.google.com/maps?q=5145 MURFREESBORO RD,+LA VERGNE,+TN+37086&hl=en"
LAWRENCE COUNTY SHERIFF'S DEPARTMENT,"LAWRENCE COUNTY SHERIFF'S OFFICE 
												
													PERMANENT DROP BOX",315 W MAIN STREET,WALNUT RIDGE,AR,72476,"http://maps.google.com/maps?q=315 W MAIN STREET,+WALNUT RIDGE,+AR+72476&hl=en"
LEBANON POLICE DEPARTMENT,WALGREENS,606 S. CUMBERLAND ST.,LEBANON,TN,37087,"http://maps.google.com/maps?q=606 S. CUMBERLAND ST.,+LEBANON,+TN+37087&hl=en"
LEBANON POLICE DEPARTMENT,WALMART,1050 REGIONAL PARK ROAD,LEBANON,VA,24266,"http://maps.google.com/maps?q=1050 REGIONAL PARK ROAD,+LEBANON,+VA+24266&hl=en"
LEE COUNTY SHERIFF'S DEPARTMENT,"LEE COUNTY SHERIFF'S DEPARTMENT 
												
													FRIDAY, APRIL 27, 2018 - NTBI XV",510 NORTH COMMERCE ST.,TUPELO,MS,38804,"http://maps.google.com/maps?q=510 NORTH COMMERCE ST.,+TUPELO,+MS+38804&hl=en"
LEE COUNTY SHERIFF'S OFFICE,"FOOD CITY STORE 
												
													NEAR FRONT ENTRANCE",205 RIVER BEND ROAD,PENNINGTON GAP,VA,24277,"http://maps.google.com/maps?q=205 RIVER BEND ROAD,+PENNINGTON GAP,+VA+24277&hl=en"
LEITCHFIELD POLICE DEPARTMENT,LEITCHFIELD POLICE DEPT,117 SOUTH MAIN STREET,LEITCHFIELD,KY,42754,"http://maps.google.com/maps?q=117 SOUTH MAIN STREET,+LEITCHFIELD,+KY+42754&hl=en"
LENOIR POLICE DEPARTMENT,"CVS PHARMACY 
												
													10:00AM ---2:00 PM",875 BLOWING ROCK BLVD,LENOIR,NC,28645,"http://maps.google.com/maps?q=875 BLOWING ROCK BLVD,+LENOIR,+NC+28645&hl=en"
LEXINGTON POLICE DEPARTMENT,FAMILY PHARMACY,6 HOSPITAL DRIVE,LEXINGTON,TN,38351,"http://maps.google.com/maps?q=6 HOSPITAL DRIVE,+LEXINGTON,+TN+38351&hl=en"
LEXINGTON POLICE DEPARTMENT,KENTUCKY AMERICAN WATER COMPANY,2300 RICHMOND RD,LEXINGTON,KY,40502,"http://maps.google.com/maps?q=2300 RICHMOND RD,+LEXINGTON,+KY+40502&hl=en"
LEXINGTON POLICE DEPARTMENT,WALGREENS PHARMACY,603 WEST CHURCH STREET,LEXINGTON,TN,38351,"http://maps.google.com/maps?q=603 WEST CHURCH STREET,+LEXINGTON,+TN+38351&hl=en"
LINCOLN CO. SHERIFF'S DEPT,LINCOLN COUNTY HIGH SCHOOL,1233 HUNTSVILLE HWY,FAYETTEVILLE,TN,37334,"http://maps.google.com/maps?q=1233 HUNTSVILLE HWY,+FAYETTEVILLE,+TN+37334&hl=en"
LIVINGSTON POLICE DEPARTMENT,LIVINGSTON POLICE DEPARTMENT,900 N. CHURCH ST,LIVINGSTON,TN,38570,"http://maps.google.com/maps?q=900 N. CHURCH ST,+LIVINGSTON,+TN+38570&hl=en"
LOGAN COUNTY SHERIFF'S DEPARTMENT,"WAL-MART SUPER CENTER 
												
													FOUNTAIN PLACE MALL",U.S.  119/WV 73,LOGAN,WV,25601,"http://maps.google.com/maps?q=U.S.  119/WV 73,+LOGAN,+WV+25601&hl=en"
MACON COUNTY SHERIFF'S DEPT,MACON COUNTY SHERIFF'S DEPT,902 HWY 52 BY-PASS E,LAFAYETTE,TN,37083,"http://maps.google.com/maps?q=902 HWY 52 BY-PASS E,+LAFAYETTE,+TN+37083&hl=en"
MADISONVILLE POLICE DEPT.,MADISONVILLE POLICE DEPARTMENT,315 ENGLEWOOD RD.,MADISONVILLE,TN,37354,"http://maps.google.com/maps?q=315 ENGLEWOOD RD.,+MADISONVILLE,+TN+37354&hl=en"
MALDEN POLICE DEPARTMENT,MALDEN POLICE DEPT.,112 E LACLEDE,MALDEN,MO,63863,"http://maps.google.com/maps?q=112 E LACLEDE,+MALDEN,+MO+63863&hl=en"
MANCHESTER POLICE DEPARTMENT,"MANCHESTER POLICE DEPARTMENT 
												
													DRUG TAKE BACK DROP BOX",200 WEST FORT STREET,MANCHESTER,TN,37355,"http://maps.google.com/maps?q=200 WEST FORT STREET,+MANCHESTER,+TN+37355&hl=en"
MARION POLICE DEPARTMENT,"MARION POLICE DEPARTMENT 
												
													PERMANENT DROP BOX",3477 HWY 77,MARION,AR,72364,"http://maps.google.com/maps?q=3477 HWY 77,+MARION,+AR+72364&hl=en"
MARSHALL COUNTY SHERIFF'S OFFICE,MARSHALL COUNTY SHERIFF'S OFFICE,209 1ST AVE N.,LEWISBURG,TN,37091,"http://maps.google.com/maps?q=209 1ST AVE N.,+LEWISBURG,+TN+37091&hl=en"
MATEWAN WV PD,MATEWAN POLICE DEPARTMENT,ROUTE 65 MCCOY ALLEY,MATEWAN,WV,25678,"http://maps.google.com/maps?q=ROUTE 65 MCCOY ALLEY,+MATEWAN,+WV+25678&hl=en"
MCCRORY POLICE DEPARTMENT,"MCCRORY POLICE DEPARTMENT 
												
													PERMANENT DROP BOX",109 N. JACKSON,MC CRORY,AR,72101,"http://maps.google.com/maps?q=109 N. JACKSON,+MC CRORY,+AR+72101&hl=en"
MCCRORY POLICE DEPARTMENT,THE MAD BUTCHER,721 NORTH EDMONDS,MC CRORY,AR,72101,"http://maps.google.com/maps?q=721 NORTH EDMONDS,+MC CRORY,+AR+72101&hl=en"
MCDOWELL COUNTY SHERIFF DEPARTMENT,MAGIC MART,COAL HERITAGE RD,WELCH,WV,24801,"http://maps.google.com/maps?q=COAL HERITAGE RD,+WELCH,+WV+24801&hl=en"
MCMINN COUNTY SHERIFF,CVS,928 DECATUR PIKE,ATHENS,TN,37303,"http://maps.google.com/maps?q=928 DECATUR PIKE,+ATHENS,+TN+37303&hl=en"
MCMINNVILLE POLICE DEPT.,MCMINNVILLE POLICE DEPARTMENT,204 RED ROAD,MCMINNVILLE,TN,37110,"http://maps.google.com/maps?q=204 RED ROAD,+MCMINNVILLE,+TN+37110&hl=en"
MCNAIRY COUNTY SHERIFF'S OFFICE,MCNAIRY COUNTY SHERIFF'S OFFICE,300 INDUSTRIAL PARK DR,SELMER,TN,38375,"http://maps.google.com/maps?q=300 INDUSTRIAL PARK DR,+SELMER,+TN+38375&hl=en"
MEIGS COUNTY SHERIFF'S OFFICE,MEIGS COUNTY JAIL,410 RIVER ROAD,DECATUR,TN,37322,"http://maps.google.com/maps?q=410 RIVER ROAD,+DECATUR,+TN+37322&hl=en"
MEMPHIS POLICE DEPT.,KROGER,2835 KIRBY PKWY,MEMPHIS,TN,38119,"http://maps.google.com/maps?q=2835 KIRBY PKWY,+MEMPHIS,+TN+38119&hl=en"
MEMPHIS POLICE DEPT.,KROGER,3444 PLAZA DRIVE,MEMPHIS,TN,38111,"http://maps.google.com/maps?q=3444 PLAZA DRIVE,+MEMPHIS,+TN+38111&hl=en"
MEMPHIS POLICE DEPT.,KROGER,6660 POPLAR AVENUE,GERMANTOWN,TN,38138,"http://maps.google.com/maps?q=6660 POPLAR AVENUE,+GERMANTOWN,+TN+38138&hl=en"
MEMPHIS POLICE DEPT.,"MEMPHIS POLICE DEPT 
												
													ORGANIZED CRIME UNIT",225 CHANNEL 3 DR,MEMPHIS,TN,38108,"http://maps.google.com/maps?q=225 CHANNEL 3 DR,+MEMPHIS,+TN+38108&hl=en"
MEMPHIS POLICE DEPT.,"OVERTON PARK- EAST PARKWAY PAVILLION 
												
													ENTRY NEXT TO THE FIRE STATION",1914 POPLAR AVE.,MEMPHIS,TN,38104,"http://maps.google.com/maps?q=1914 POPLAR AVE.,+MEMPHIS,+TN+38104&hl=en"
MEMPHIS POLICE DEPT.,THE HOUSE MEMPHIS,3683 AUSTIN PEAY HIGHWAY,MEMPHIS,TN,38128,"http://maps.google.com/maps?q=3683 AUSTIN PEAY HIGHWAY,+MEMPHIS,+TN+38128&hl=en"
MERCER COUNTY SHERIFF'S DEPARTMENT,MERCER COUNTY SD GARAGE,1501 WEST MAIN STREET,PRINCETON,WV,24740,"http://maps.google.com/maps?q=1501 WEST MAIN STREET,+PRINCETON,+WV+24740&hl=en"
"MERCER COUNTY, KY SHERIFFS OFFICE",MERCER COUNTY SHERIFFS OFFICE,207 WEST LEXINGTON ST,HARRODSBURG,KY,40330,"http://maps.google.com/maps?q=207 WEST LEXINGTON ST,+HARRODSBURG,+KY+40330&hl=en"
MERCER UNIVERSITY POLICE DEPARTMENT,"MERCER UNIVERSITY 
												
													PHARMACY ADMINISTRATION & CAFETERIA BLDG.",3001 MERCER UNIVERSITY DRIVE,ATLANTA,GA,30341,"http://maps.google.com/maps?q=3001 MERCER UNIVERSITY DRIVE,+ATLANTA,+GA+30341&hl=en"
METRO NASHVILLE POLICE DEPARTMENT,KROGER,5544 OLD HICKORY BLVD.,HERMITAGE,TN,37076,"http://maps.google.com/maps?q=5544 OLD HICKORY BLVD.,+HERMITAGE,+TN+37076&hl=en"
MIDDLE TN STATE UNIVERSITY POLICE DEPARTMENT,MTSU HEALTH SERVICES,1848 BLUE RAIDER DRIVE,MURFREESBORO,TN,37132,"http://maps.google.com/maps?q=1848 BLUE RAIDER DRIVE,+MURFREESBORO,+TN+37132&hl=en"
MILAN POLICE DEPARTMENT,MILAN HEALTH DEPT.,6501 TELECOM DRIVE,MILAN,TN,38358,"http://maps.google.com/maps?q=6501 TELECOM DRIVE,+MILAN,+TN+38358&hl=en"
MILAN POLICE DEPARTMENT,"MILAN PUBLIC SAFETY BUILDING 
												
													DROP BOX IN LOBBY",7029 TELECOM DRIVE,MILAN,TN,38358,"http://maps.google.com/maps?q=7029 TELECOM DRIVE,+MILAN,+TN+38358&hl=en"
MILTON POLICE DEPARTMENT,TARGET,13055 HIGHWAY 9,ALPHARETTA,GA,30004,"http://maps.google.com/maps?q=13055 HIGHWAY 9,+ALPHARETTA,+GA+30004&hl=en"
MISSISSIPPI COUNTY SHERIFF'S OFFICE,"MISSISSIPPI COUNTY SHERIFF'S OFFICE 
												
													PERMANENT DROP BOX",685 NCR 599,LUXORA,AR,72358,"http://maps.google.com/maps?q=685 NCR 599,+LUXORA,+AR+72358&hl=en"
MONROE COUNTY SHERIFF'S OFFICE,WALGREENS,4440 US 411,MADISONVILLE,TN,37354,"http://maps.google.com/maps?q=4440 US 411,+MADISONVILLE,+TN+37354&hl=en"
MONROE COUNTY SHERIFF'S OFFICE,WALGREENS,929 NEW HWY 68,SWEETWATER,TN,37874,"http://maps.google.com/maps?q=929 NEW HWY 68,+SWEETWATER,+TN+37874&hl=en"
MONTEREY POLICE DEPARTMENT,FRED'S PHARMACY,104 S. HOLLY STREET,MONTEREY,TN,38574,"http://maps.google.com/maps?q=104 S. HOLLY STREET,+MONTEREY,+TN+38574&hl=en"
MONTEREY POLICE DEPARTMENT,MONTEREY DRUGS,201F NORTH ELMORE ST.,MONTEREY,TN,38574,"http://maps.google.com/maps?q=201F NORTH ELMORE ST.,+MONTEREY,+TN+38574&hl=en"
MONTEREY POLICE DEPARTMENT,MONTEREY POLICE DEPARTMENT,711 E. COMMERCIAL AVE.,MONTEREY,TN,38574,"http://maps.google.com/maps?q=711 E. COMMERCIAL AVE.,+MONTEREY,+TN+38574&hl=en"
MOORESVILLE POLICE DEPARTMENT,"WALMART 
												
													CONSUMER SQUARE SHOPPING CENTER",169 NORMAN STATION BOULEVARD,MOORESVILLE,NC,28117,"http://maps.google.com/maps?q=169 NORMAN STATION BOULEVARD,+MOORESVILLE,+NC+28117&hl=en"
MORGAN COUNTY SHERIFF'S OFFICE,MORGAN COUNTY SHERIFF'S OFFICE,414 MAIN ST.,WARTBURG,TN,37887,"http://maps.google.com/maps?q=414 MAIN ST.,+WARTBURG,+TN+37887&hl=en"
MOUNT AIRY POLICE DEPARTMENT,"MOUNT AIRY POLICE DEPARTMENT 
												
													FRONT LOBBY",150 ROCKFORD STREET,MOUNT AIRY,NC,27030,"http://maps.google.com/maps?q=150 ROCKFORD STREET,+MOUNT AIRY,+NC+27030&hl=en"
MOUNT CARMEL POLICE DEPT.,PUBLIC SAFETY DEPT.,213 HAMMOND AVENUE,MOUNT CARMEL,TN,37645,"http://maps.google.com/maps?q=213 HAMMOND AVENUE,+MOUNT CARMEL,+TN+37645&hl=en"
MT. JULIET POLICE DEPT.,MT. JULIET POLICE DEPT.,1019 CHARLIE DANIELS PKWY,MOUNT JULIET,TN,37122,"http://maps.google.com/maps?q=1019 CHARLIE DANIELS PKWY,+MOUNT JULIET,+TN+37122&hl=en"
MUNFORD POLICE DEPARTMENT,MUNFORD POLICE DEPARTMENT,79 COLLEGE STREET,MUNFORD,TN,38058,"http://maps.google.com/maps?q=79 COLLEGE STREET,+MUNFORD,+TN+38058&hl=en"
NEWBERN POLICE DEPT.,NEWBERN POLICE DEPT.,121 EAST MAIN ST.,NEWBERN,TN,38059,"http://maps.google.com/maps?q=121 EAST MAIN ST.,+NEWBERN,+TN+38059&hl=en"
NEWPORT POLICE DEPARTMENT,"NEWPORT POLICE DEPARTMENT 
												
													PERMANENT DROP BOX",615 THIRD ST.,NEWPORT,AR,72112,"http://maps.google.com/maps?q=615 THIRD ST.,+NEWPORT,+AR+72112&hl=en"
NEWPORT POLICE DEPT.,FOOD CITY EAST,416 EASTERN PLAZA,NEWPORT,TN,37821,"http://maps.google.com/maps?q=416 EASTERN PLAZA,+NEWPORT,+TN+37821&hl=en"
NICHOLASVILLE POLICE DEPARTMENT,WAL-MART,1032 NORTH MAIN,NICHOLASVILLE,KY,40356,"http://maps.google.com/maps?q=1032 NORTH MAIN,+NICHOLASVILLE,+KY+40356&hl=en"
NORCROSS POLICE DEPARTMENT,NORCROSS POLICE DEPARTMENT,65 LAWRENCEVILLE STREET,NORCROSS,GA,30071,"http://maps.google.com/maps?q=65 LAWRENCEVILLE STREET,+NORCROSS,+GA+30071&hl=en"
NORTON POLICE DEPARTMENT,"CVS PHARMACY 
												
													PARKING LOT",1128 PARK AVENUE,NORTON,VA,24273,"http://maps.google.com/maps?q=1128 PARK AVENUE,+NORTON,+VA+24273&hl=en"
OAK HILL WV POLICE DEPARTMENT,OAK HILL PD,691 VIRGINIA ST,OAK HILL,WV,25901,"http://maps.google.com/maps?q=691 VIRGINIA ST,+OAK HILL,+WV+25901&hl=en"
OAK RIDGE POLICE DEPT.,OAK RIDGE POLICE DEPT.,200 S. TULANE AVE,OAK RIDGE,TN,37830,"http://maps.google.com/maps?q=200 S. TULANE AVE,+OAK RIDGE,+TN+37830&hl=en"
OAKLAND POLICE DEPT.,CITY HALL,170 DOSS CIRCLE,OAKLAND,TN,38060,"http://maps.google.com/maps?q=170 DOSS CIRCLE,+OAKLAND,+TN+38060&hl=en"
OCONEE COUNTY SHERIFF'S OFFICE,OCSO,300 S. CHURCH ST.,WALHALLA,SC,29691,"http://maps.google.com/maps?q=300 S. CHURCH ST.,+WALHALLA,+SC+29691&hl=en"
OCONEE COUNTY SHERIFF'S OFFICE,OCSO SUBSTATION,302 MEMORIAL DRIVE,SENECA,SC,29678,"http://maps.google.com/maps?q=302 MEMORIAL DRIVE,+SENECA,+SC+29678&hl=en"
OLIVE BRANCH POLICE DEPARTMENT,"OLIVE BRANCH POLICE DEPARTMENT 
												
													LT. JASON OLIVERIA",10470 HIGHWAY 178,OLIVE BRANCH,MS,38654,"http://maps.google.com/maps?q=10470 HIGHWAY 178,+OLIVE BRANCH,+MS+38654&hl=en"
OSCEOLA POLICE DEPARTMENT,"OSCEOLA POLICE DEPARTMENT 
												
													PERMANENT DROP BOX",401 W. KEISER,OSCEOLA,AR,72370,"http://maps.google.com/maps?q=401 W. KEISER,+OSCEOLA,+AR+72370&hl=en"
OVERTON COUNTY SHERIFF'S DEPT.,R & M PHARMACY,1970 BRADFORD HICKS DR,LIVINGSTON,TN,38570,"http://maps.google.com/maps?q=1970 BRADFORD HICKS DR,+LIVINGSTON,+TN+38570&hl=en"
OXFORD POLICE DEPARTMENT,"OXFORD SQUARE AREA - DOUBLE DECKER ARTS FESTIVAL 
												
													CORNER-JACKSON AVE. & 9TH ST. BY ST. PETERS EPISCOPAL CHURCH",JACKSON AVE. & 9TH STREETNEAR ST. PETERS EPISCOPAL CHURCH,OXFORD,MS,38655,"http://maps.google.com/maps?q=JACKSON AVE. & 9TH STREET,+OXFORD,+MS+38655&hl=en"
PANGBURN POLICE DEPARTMENT,"PANGBURN POLICE DEPARTMENT 
												
													PERMANENT DROP BOX",508 MAIN ST.,PANGBURN,AR,72121,"http://maps.google.com/maps?q=508 MAIN ST.,+PANGBURN,+AR+72121&hl=en"
PARAGOULD POLICE DEPARTEMENT,"PARAGOULD POLICE DEPARTMENT 
												
													PERMANENT DROP BOX",101 N. 3 1/2 STREET,PARAGOULD,AR,72450,"http://maps.google.com/maps?q=101 N. 3 1/2 STREET,+PARAGOULD,+AR+72450&hl=en"
PATRICK COUNTY SHERIFF'S OFFICE,PATRICK COUNTY SHERIFF'S OFFICE,742 COMMERCE STREET,STUART,VA,24171,"http://maps.google.com/maps?q=742 COMMERCE STREET,+STUART,+VA+24171&hl=en"
PICKENS COUNTY SHERIFF'S OFFICE,BAPTIST EASLEY HOSPITAL,200 FLEET DR,EASLEY,SC,29640,"http://maps.google.com/maps?q=200 FLEET DR,+EASLEY,+SC+29640&hl=en"
PICKENS COUNTY SHERIFF'S OFFICE,CANNON HOSPITAL,123 W G ACKER DR,PICKENS,SC,29671,"http://maps.google.com/maps?q=123 W G ACKER DR,+PICKENS,+SC+29671&hl=en"
PICKENS COUNTY SHERIFF'S OFFICE,CLEMSON FREE CLINIC,1200 CLEMSON,CLEMSON,SC,29631,"http://maps.google.com/maps?q=1200 CLEMSON,+CLEMSON,+SC+29631&hl=en"
PIGEON FORGE POLICE DEPARTMENT,KRISPY KREME DONUTS,4074 PARKWAY,PIGEON FORGE,TN,37863,"http://maps.google.com/maps?q=4074 PARKWAY,+PIGEON FORGE,+TN+37863&hl=en"
PIGGOTT POLICE DEPARTMENT,PIGGOTT POLICE DEPARTMENT,194 WEST COURT STREET,PIGGOTT,AR,72454,"http://maps.google.com/maps?q=194 WEST COURT STREET,+PIGGOTT,+AR+72454&hl=en"
POCAHONTAS POLICE DEPARTMENT,"POCAHONTAS CITY HALL 
												
													PERMANENT DROP BOX",410 N. MARR,POCAHONTAS,AR,72455,"http://maps.google.com/maps?q=410 N. MARR,+POCAHONTAS,+AR+72455&hl=en"
POINSETT COUNTY SHERIFF'S OFFICE,"POINSETT COUNTY DETENTION CENTER 
												
													PERMANENT DROP BOX",1500 JUSTICE DRIVE,HARRISBURG,AR,72432,"http://maps.google.com/maps?q=1500 JUSTICE DRIVE,+HARRISBURG,+AR+72432&hl=en"
PORTLAND POLICE DEPARTMENT,PORTLAND POLICE DEPT.,433 N. BROADWAY,PORTLAND,TN,37148,"http://maps.google.com/maps?q=433 N. BROADWAY,+PORTLAND,+TN+37148&hl=en"
PULASKI (TOWN OF) POLICE DEPARTMENT,"FOOD CITY 
												
													PARKING LOT NEAR ENTRANCE TO STORE",1400 BOB WHITE BLVD,PULASKI,VA,24301,"http://maps.google.com/maps?q=1400 BOB WHITE BLVD,+PULASKI,+VA+24301&hl=en"
PULASKI SHERIFF'S OFFICE,"FAIRLAWN WALMART 
												
													APRIL 28, 2018 LOCATION",7373 PEPPERS FERRY BLVD,RADFORD,VA,24141,"http://maps.google.com/maps?q=7373 PEPPERS FERRY BLVD,+RADFORD,+VA+24141&hl=en"
PUTNAM COUNTY SHERIFF DEPT.,NUNALLY DRUG STORE,226 WEST MAIN STREET,BAXTER,TN,38544,"http://maps.google.com/maps?q=226 WEST MAIN STREET,+BAXTER,+TN+38544&hl=en"
PUTNAM COUNTY SHERIFF DEPT.,WALGREENS 5474,500 SOUTH WILLOW AVENUE,COOKEVILLE,TN,38501,"http://maps.google.com/maps?q=500 SOUTH WILLOW AVENUE,+COOKEVILLE,+TN+38501&hl=en"
RADFORD CITY POLICE DEPARTMENT,"RADFORD FIRE DEPARTMENT 
												
													PARKING LOT",1500 WADSWORTH STREET,RADFORD,VA,24141,"http://maps.google.com/maps?q=1500 WADSWORTH STREET,+RADFORD,+VA+24141&hl=en"
RADFORD UNIVERSITY POLICE DEPARTMENT,BONNIE HURLBURT STUDENT CENTER,700 CLEMENT ST.,RADFORD,VA,24141,"http://maps.google.com/maps?q=700 CLEMENT ST.,+RADFORD,+VA+24141&hl=en"
RALEIGH COUNTY SD,CRAB ORCHARD PHARMACY,1299 ROBERT C. BYRD DRIVE,CRAB ORCHARD,WV,25827,"http://maps.google.com/maps?q=1299 ROBERT C. BYRD DRIVE,+CRAB ORCHARD,+WV+25827&hl=en"
RANDOLPH COUNTY SHERIFF'S DEPARTMENT,"RANDOLPH COUNTY SHERIFF'S DEPARTMENT 
												
													PERMANENT DROP BOX",1510 PACE ROAD,POCAHONTAS,AR,72455,"http://maps.google.com/maps?q=1510 PACE ROAD,+POCAHONTAS,+AR+72455&hl=en"
RHEA COUNTY SHERIFF'S DEPT.,"SPRING CITY,  CITY HALL 
												
													TENT LOCATED IN THE FRONT PARKING LOT",229 FRONT STREET,SPRING CITY,TN,37381,"http://maps.google.com/maps?q=229 FRONT STREET,+SPRING CITY,+TN+37381&hl=en"
RHEA COUNTY SHERIFF'S DEPT.,"WALMART SUPERCENTER 
												
													TENT LOCATED AT THE PARKING LOT ENTRANCE",3034 RHEA COUNTY HWY,DAYTON,TN,37321,"http://maps.google.com/maps?q=3034 RHEA COUNTY HWY,+DAYTON,+TN+37321&hl=en"
RICHLANDS POLICE DEPARTMENT,"RICHLANDS POLICE DEPARTMENT 
												
													FRONT LOBBY",1851 CRANWELL DRIVE,RICHLANDS,VA,24641,"http://maps.google.com/maps?q=1851 CRANWELL DRIVE,+RICHLANDS,+VA+24641&hl=en"
ROCKWOOD POLICE DEPT,ROCKWOOD POLICE DEPT,115 N FRONT ST,ROCKWOOD,TN,37854,"http://maps.google.com/maps?q=115 N FRONT ST,+ROCKWOOD,+TN+37854&hl=en"
ROSWELL POLICE DEPARTMENT,ROSWELL RECYCLING CENTER,11570 MAXWELL RD,ALPHARETTA,GA,30009,"http://maps.google.com/maps?q=11570 MAXWELL RD,+ALPHARETTA,+GA+30009&hl=en"
ROYSTON POLICE DEPARTMENT,ROYSTON POLICE DEPARTMENT,830 CHURCH STREET,ROYSTON,GA,30662,"http://maps.google.com/maps?q=830 CHURCH STREET,+ROYSTON,+GA+30662&hl=en"
RUSSELL COUNTY SHERIFF'S OFFICE,BLUE DEVIL DRUG,19408 HWY 58,CASTLEWOOD,VA,24224,"http://maps.google.com/maps?q=19408 HWY 58,+CASTLEWOOD,+VA+24224&hl=en"
RUSSELL COUNTY SHERIFF'S OFFICE,FOOD CITY,159 PITTSTON RD,LEBANON,VA,24266,"http://maps.google.com/maps?q=159 PITTSTON RD,+LEBANON,+VA+24266&hl=en"
RUSSELL COUNTY SHERIFF'S OFFICE,NEW GARDEN PHARMACY,5300 REDBUD HWY,HONAKER,VA,24260,"http://maps.google.com/maps?q=5300 REDBUD HWY,+HONAKER,+VA+24260&hl=en"
RUSSELL COUNTY SHERIFF'S OFFICE,RUSSELL COUNTY SHERIFF'S OFFICE,410 MONUMENT SQUARE #109,JAMESTOWN,KY,42629,"http://maps.google.com/maps?q=410 MONUMENT SQUARE #109,+JAMESTOWN,+KY+42629&hl=en"
RUTHERFORD COUNTY SHERIFF'S OFFICE,CRUSH THE CRISIS,200 STONECREST BLVD.,SMYRNA,TN,37167,"http://maps.google.com/maps?q=200 STONECREST BLVD.,+SMYRNA,+TN+37167&hl=en"
RUTHERFORD COUNTY SHERIFF'S OFFICE,RUTHERFORD COUNTY SHERIFF'S OFFICE,940 NEW SALEM HIGHWAY,MURFREESBORO,TN,37129,"http://maps.google.com/maps?q=940 NEW SALEM HIGHWAY,+MURFREESBORO,+TN+37129&hl=en"
RUTLEDGE POLICE DEPT.,RUTLEDGE CITY HALL,8028 RUTLEDGE PIKE,RUTLEDGE,TN,37861,"http://maps.google.com/maps?q=8028 RUTLEDGE PIKE,+RUTLEDGE,+TN+37861&hl=en"
SAFE KIDS CHARLOTTE MECKLENBURG,CPCC MERANCAS CAMPUS,11930 VERHOEFF,HUNTERSVILLE,NC,28078,"http://maps.google.com/maps?q=11930 VERHOEFF,+HUNTERSVILLE,+NC+28078&hl=en"
SAFE KIDS CHARLOTTE MECKLENBURG,"HARRIS TEETER 
												
													IN FRONT OF STORE",1704 CENTRAL AVENUE,CHARLOTTE,NC,28205,"http://maps.google.com/maps?q=1704 CENTRAL AVENUE,+CHARLOTTE,+NC+28205&hl=en"
SAFE KIDS CHARLOTTE MECKLENBURG,HARRIS TEETER- STEELECROFT,13000 S TRYON,CHARLOTTE,NC,28278,"http://maps.google.com/maps?q=13000 S TRYON,+CHARLOTTE,+NC+28278&hl=en"
SAFE KIDS CHARLOTTE MECKLENBURG,"HARRIS TETEER 
												
													IN FRONT OF STORE",2717 SOUTH BLVD,CHARLOTTE,NC,28209,"http://maps.google.com/maps?q=2717 SOUTH BLVD,+CHARLOTTE,+NC+28209&hl=en"
SCOTT COUNTY SHERIFF'S OFFICE,"FOOD COUNTRY 
												
													OUTSIDE NEAR MAIN ENTRANCE",42158 US 58,DUFFIELD,VA,24244,"http://maps.google.com/maps?q=42158 US 58,+DUFFIELD,+VA+24244&hl=en"
SCOTT COUNTY SHERIFF'S OFFICE,SCOTT COUNTY SHERIFF'S OFFICE,575 SCOTT HIGH DRIVE,HUNTSVILLE,TN,37756,"http://maps.google.com/maps?q=575 SCOTT HIGH DRIVE,+HUNTSVILLE,+TN+37756&hl=en"
SCOTT COUNTY SHERIFF'S OFFICE,"SCOTT COUNTY SHERIFF'S OFFICE 
												
													NEAR MAIN ENTRANCE",336 WATER  STREET,GATE CITY,VA,24251,"http://maps.google.com/maps?q=336 WATER  STREET,+GATE CITY,+VA+24251&hl=en"
SEVIER COUNTY SHERIFF'S OFFICE,SCSO SPECIAL OPERATIONS CENTER,735 MIDDLE CREEK ROAD,SEVIERVILLE,TN,37862,"http://maps.google.com/maps?q=735 MIDDLE CREEK ROAD,+SEVIERVILLE,+TN+37862&hl=en"
SEVIER COUNTY SHERIFF'S OFFICE,SEYMOUR FIRST BAPTIST CHURCH,11621 CHAPMAN HWY,SEYMOUR,TN,37865,"http://maps.google.com/maps?q=11621 CHAPMAN HWY,+SEYMOUR,+TN+37865&hl=en"
SIGNAL MOUNTAIN POLICE DEPARTMENT,SIGNAL MOUNTAIN POLICE DEPARTMENT,1111 RIDGEWAY AVENUE,SIGNAL MOUNTAIN,TN,37377,"http://maps.google.com/maps?q=1111 RIDGEWAY AVENUE,+SIGNAL MOUNTAIN,+TN+37377&hl=en"
SMYRNA POLICE DEPARTMENT,SMYRNA PD,400 ENON SPRINGS RD EAST,SMYRNA,TN,37167,"http://maps.google.com/maps?q=400 ENON SPRINGS RD EAST,+SMYRNA,+TN+37167&hl=en"
SMYTH COUNTY SHERIFF'S OFFICE,MARION VA WALGREENS,1102 NORTH MAIN ST,MARION,VA,24354,"http://maps.google.com/maps?q=1102 NORTH MAIN ST,+MARION,+VA+24354&hl=en"
SODDY DAISY POLICE DEPT.,SODDY DAISY POLICE DEPT,9835 DAYTON,SODDY DAISY,TN,37379,"http://maps.google.com/maps?q=9835 DAYTON,+SODDY DAISY,+TN+37379&hl=en"
SOUTH FULTON POLICE DEPARTMENT,SOUTH FULTON POLICE DEPARTMENT,700 MILTON COUNCE DR.,SOUTH FULTON,TN,38257,"http://maps.google.com/maps?q=700 MILTON COUNCE DR.,+SOUTH FULTON,+TN+38257&hl=en"
SPARTA POLICE DEPARTMENT,WALGREEN DRUG STORE,483 WEST BOCKMAN WAY,SPARTA,TN,38583,"http://maps.google.com/maps?q=483 WEST BOCKMAN WAY,+SPARTA,+TN+38583&hl=en"
SPARTANBURG POLICE DEPARTMENT,BI-LO,2199 SOUTHPORT RD.,SPARTANBURG,SC,29306,"http://maps.google.com/maps?q=2199 SOUTHPORT RD.,+SPARTANBURG,+SC+29306&hl=en"
SPARTANBURG POLICE DEPARTMENT,CVS PHARMACY,87 GARNER RD.,SPARTANBURG,SC,29303,"http://maps.google.com/maps?q=87 GARNER RD.,+SPARTANBURG,+SC+29303&hl=en"
SPRING HILL POLICE DEPARTMENT,B & B PHARMACY,5407 MAIN STREET,SPRING HILL,TN,37174,"http://maps.google.com/maps?q=5407 MAIN STREET,+SPRING HILL,+TN+37174&hl=en"
SPRING HILL POLICE DEPARTMENT,"SPRING HILL POLICE DEPARTMENT 
												
													24/7 ACCESS",199 TOWN CENTER PKWY - LOWER LEVEL,SPRING HILL,TN,37174,"http://maps.google.com/maps?q=199 TOWN CENTER PKWY - LOWER LEVEL,+SPRING HILL,+TN+37174&hl=en"
STEELE POLICE DEPARTMENT,STEELE POLICE DEPARTMENT,115 S WALNUT,STEELE,MO,63877,"http://maps.google.com/maps?q=115 S WALNUT,+STEELE,+MO+63877&hl=en"
STUTTGART POLICE DEPARTMENT,COKER-HAMPTON DRUG CO,2187 SOUTH MAIN STREET,STUTTGART,AR,72160,"http://maps.google.com/maps?q=2187 SOUTH MAIN STREET,+STUTTGART,+AR+72160&hl=en"
STUTTGART POLICE DEPARTMENT,"STUTTGART POLICE DEPARTMENT 
												
													LOBBY",514 SOUTH MAIN ST.,STUTTGART,AR,72160,"http://maps.google.com/maps?q=514 SOUTH MAIN ST.,+STUTTGART,+AR+72160&hl=en"
SULLIVAN COUNTY SHERIFFS OFFICE,SULLIVAN COUNTY SHERIFF'S OFFICE,140 BLOUNTSVILLE BYPASS,BLOUNTVILLE,TN,37617,"http://maps.google.com/maps?q=140 BLOUNTSVILLE BYPASS,+BLOUNTVILLE,+TN+37617&hl=en"
SUMNER COUNTY SHERIFF`S OFFICE,FREDS PHARMACY,5305 HWY 31E,WESTMORELAND,TN,37186,"http://maps.google.com/maps?q=5305 HWY 31E,+WESTMORELAND,+TN+37186&hl=en"
SUMNER COUNTY SHERIFF`S OFFICE,PERKINS DRUG STORE,532 HARTSVILLE PIKE,GALLATIN,TN,37066,"http://maps.google.com/maps?q=532 HARTSVILLE PIKE,+GALLATIN,+TN+37066&hl=en"
SUMNER COUNTY SHERIFF`S OFFICE,WALGREENS,104 HWY 52,PORTLAND,TN,37148,"http://maps.google.com/maps?q=104 HWY 52,+PORTLAND,+TN+37148&hl=en"
SUMNER COUNTY SHERIFF`S OFFICE,WALGREENS,198 E MAIN ST,HENDERSONVILLE,TN,37075,"http://maps.google.com/maps?q=198 E MAIN ST,+HENDERSONVILLE,+TN+37075&hl=en"
SUMNER COUNTY SHERIFF`S OFFICE,WALGREENS,365 NEW SHACKLE ISLAND,HENDERSONVILLE,TN,37075,"http://maps.google.com/maps?q=365 NEW SHACKLE ISLAND,+HENDERSONVILLE,+TN+37075&hl=en"
SUMNER COUNTY SHERIFF`S OFFICE,WALGREENS,585 HASHVILLE PIKE,GALLATIN,TN,37066,"http://maps.google.com/maps?q=585 HASHVILLE PIKE,+GALLATIN,+TN+37066&hl=en"
SUMNER COUNTY SHERIFF`S OFFICE,WALGREENS,914 GREENLEA BLVD,GALLATIN,TN,37066,"http://maps.google.com/maps?q=914 GREENLEA BLVD,+GALLATIN,+TN+37066&hl=en"
SWEETWATER POLICE DEPT.,SWEETWATER POLICE DEPT.,208 MONROE ST.,SWEETWATER,TN,37874,"http://maps.google.com/maps?q=208 MONROE ST.,+SWEETWATER,+TN+37874&hl=en"
TAZEWELL (TOWN OF) POLICE DEPARTMENT,TAZEWELL POLICE DEPARTMENT,211 CENTRAL AVE,TAZEWELL,VA,24651,"http://maps.google.com/maps?q=211 CENTRAL AVE,+TAZEWELL,+VA+24651&hl=en"
THAYER POLICE DEPARTMENT,THAYER POLICE DEPARTMENT,102 FRONT ST.,THAYER,MO,65791,"http://maps.google.com/maps?q=102 FRONT ST.,+THAYER,+MO+65791&hl=en"
TIPTON COUNTY SHERIFF'S OFFICE,"TIPTON COUNTY SHERIFF'S OFFICE 
												
													CRIMINAL JUSTICE COMPLEX",1801 S. COLLEGE STSUITE 106,COVINGTON,TN,38019,"http://maps.google.com/maps?q=1801 S. COLLEGE ST,+COVINGTON,+TN+38019&hl=en"
TRAVELERS REST PD,TRAVELERS REST POLICE DEPT,6711 STATE PARK RD.,TRAVELERS REST,SC,29690,"http://maps.google.com/maps?q=6711 STATE PARK RD.,+TRAVELERS REST,+SC+29690&hl=en"
TROUSDALE COUNTY SHERIFF'S OFFICE,SHERIFF'S STATION,210 BROADWAY,HARTSVILLE,TN,37074,"http://maps.google.com/maps?q=210 BROADWAY,+HARTSVILLE,+TN+37074&hl=en"
TRUMANN POLICE DEPARTMENT,"TRUMANN POLICE DEPARTMENT 
												
													PERMANENT DROP BOX",221 MELTON AVE.,TRUMANN,AR,72472,"http://maps.google.com/maps?q=221 MELTON AVE.,+TRUMANN,+AR+72472&hl=en"
TULLAHOMA POLICE DEPT,WALGREENS,700 NORTH JACKSON STREET,TULLAHOMA,TN,37388,"http://maps.google.com/maps?q=700 NORTH JACKSON STREET,+TULLAHOMA,+TN+37388&hl=en"
TUNICA COUNTY SHERIFF'S OFFICE,TUNICA COUNTY SHERIFF'S OFFICE,5126 COUNTY SHERIFF'S OFFICE,TUNICA,MS,38676,"http://maps.google.com/maps?q=5126 COUNTY SHERIFF'S OFFICE,+TUNICA,+MS+38676&hl=en"
TUPELO POLICE DEPARTMENT,TUPELO POLICE DEPARTMENT,400 NORTH FRONT STREET,TUPELO,MS,38804,"http://maps.google.com/maps?q=400 NORTH FRONT STREET,+TUPELO,+MS+38804&hl=en"
TUSCULUM POLICE DEPARTMENT,TUSCULUM CITY HALL,145 ALEXANDER STREET,GREENEVILLE,TN,37745,"http://maps.google.com/maps?q=145 ALEXANDER STREET,+GREENEVILLE,+TN+37745&hl=en"
UNION CITY POLICE DEPARTMENT,BAPTIST MEMORIAL HOSPITAL,1201 BISHOP STREET,UNION CITY,TN,38261,"http://maps.google.com/maps?q=1201 BISHOP STREET,+UNION CITY,+TN+38261&hl=en"
UNION COUNTY SHERIFF'S OFFICE,UNION COUNTY SHERIFFS OFFICE,130 VETERANS STREET,MAYNARDVILLE,TN,37807,"http://maps.google.com/maps?q=130 VETERANS STREET,+MAYNARDVILLE,+TN+37807&hl=en"
UNION PUBLIC SAFETY DEPARTMENT,UNION PUBLIC SAFETY DEPT.,215 THOMPSON BLVD.,UNION,SC,29379,"http://maps.google.com/maps?q=215 THOMPSON BLVD.,+UNION,+SC+29379&hl=en"
UNITE TASK FORCE,UNITE TASK FORCE,350 CAP DRIVE,LONDON,KY,40744,"http://maps.google.com/maps?q=350 CAP DRIVE,+LONDON,+KY+40744&hl=en"
US FEDERAL PROTECTIVE SERVICES,"US ENVIRONMENTAL PROTECTIN AGENCY (EPA) 
												
													COLLECTION IS APRIL 25-27, WEDNESDAY THRU FRIDAY","61 FORSYTH STREET SWATLANTA FEDERAL CENTER, SAM NUNN TOWER",ATLANTA,GA,30303,"http://maps.google.com/maps?q=61 FORSYTH STREET SW,+ATLANTA,+GA+30303&hl=en"
VAN BUREN COUNTY SHERIFF DEPARTMENT,VAN BUREN COUNTY JAIL,17 VETERANS SQ.,SPENCER,TN,38585,"http://maps.google.com/maps?q=17 VETERANS SQ.,+SPENCER,+TN+38585&hl=en"
VIRGINIA STATE POLICE,"VIRGINIA STATE POLICE DIVISION IV HQS 
												
													POC: LT PATRICK KIRTNER",1186 EAST LEE HIGHWAY,WYTHEVILLE,VA,24382,"http://maps.google.com/maps?q=1186 EAST LEE HIGHWAY,+WYTHEVILLE,+VA+24382&hl=en"
WALNUT RIDGE POLICE DEPARTMNET,"WALNUT RIDGE POLICE DEPARTMENT 
												
													PERMANENT DROP BOX",317 NW FOURTH STREET,WALNUT RIDGE,AR,72476,"http://maps.google.com/maps?q=317 NW FOURTH STREET,+WALNUT RIDGE,+AR+72476&hl=en"
WASHINGTON COUNTY TENNESSEE SHERIFFS OFFICE,GRAY COMMUNITY CHEST,113 GRAY RURITAN DRIVE,GRAY,TN,37615,"http://maps.google.com/maps?q=113 GRAY RURITAN DRIVE,+GRAY,+TN+37615&hl=en"
WATAUGA COUNTY SHERIFF'S OFFICE,FOOD LION BLOWING ROCK,7533 VALLEY BLVD,BLOWING ROCK,NC,28605,"http://maps.google.com/maps?q=7533 VALLEY BLVD,+BLOWING ROCK,+NC+28605&hl=en"
WATAUGA COUNTY SHERIFF'S OFFICE,FOOD LION WATAUGA VILLAGE SHOPPING  CENTER,350 VILLAGE DRIVE,BOONE,NC,28607,"http://maps.google.com/maps?q=350 VILLAGE DRIVE,+BOONE,+NC+28607&hl=en"
WATAUGA COUNTY SHERIFF'S OFFICE,FOOD LOION HWY 421 SOUTH,1864 OLD US 421 SOUTH,BOONE,NC,28607,"http://maps.google.com/maps?q=1864 OLD US 421 SOUTH,+BOONE,+NC+28607&hl=en"
WATAUGA COUNTY SHERIFF'S OFFICE,FOSCOE FIRE DEPT.,9230 HWY 105 SOUTH,BANNER ELK,NC,28604,"http://maps.google.com/maps?q=9230 HWY 105 SOUTH,+BANNER ELK,+NC+28604&hl=en"
WEAKLEY COUNTY SHERIFF DEPARTMENT,FRED'S PHARMACY,1207 S MERIDIAN ST #1,GREENFIELD,TN,38230,"http://maps.google.com/maps?q=1207 S MERIDIAN ST #1,+GREENFIELD,+TN+38230&hl=en"
WEAKLEY COUNTY SHERIFF DEPARTMENT,FRED'S PHARMACY,8487 TN-22 #1,DRESDEN,TN,38225,"http://maps.google.com/maps?q=8487 TN-22 #1,+DRESDEN,+TN+38225&hl=en"
WEAKLEY COUNTY SHERIFF DEPARTMENT,TENNOVA HEALTHCARE- VOLUNTEER MARTIN HOSPITAL,161 MT. PELIA RD,MARTIN,TN,38237,"http://maps.google.com/maps?q=161 MT. PELIA RD,+MARTIN,+TN+38237&hl=en"
WEBER CITY POLICE DEPARTMENT,"FOOD CITY - WEBER CITY 
												
													NEAR FRONT ENTRANCE",FRANK B. SMITH LN,WEBER CITY,VA,24290,"http://maps.google.com/maps?q=FRANK B. SMITH LN,+WEBER CITY,+VA+24290&hl=en"
WEST MEMPHIS POLICE DEPARTMENT,"WEST MEMPHIS POLICE DEPARTMENT 
												
													PERMANENT DROP BOX",626 E. BROADWAY,WEST MEMPHIS,AR,72301,"http://maps.google.com/maps?q=626 E. BROADWAY,+WEST MEMPHIS,+AR+72301&hl=en"
WEST VIRGINIA STATE POLICE,"WEST VIRGINIA STATE POLICE 
												
													SGT R.L. FRYE/3047927200",735 RIVERVIEW AVENUE,LOGAN,WV,25601,"http://maps.google.com/maps?q=735 RIVERVIEW AVENUE,+LOGAN,+WV+25601&hl=en"
WEST VIRGINIA STATE POLICE,"WVSP-BECKLEY 
												
													SGT G.D. WILLIAMS/3042566700",105 PINECREST DR,BECKLEY,WV,25801,"http://maps.google.com/maps?q=105 PINECREST DR,+BECKLEY,+WV+25801&hl=en"
WEST VIRGINIA STATE POLICE,"WVSP-OAK HILL 
												
													SGT. J.L. MILAM/3044692915",3057 MAIN ST,OAK HILL,WV,25901,"http://maps.google.com/maps?q=3057 MAIN ST,+OAK HILL,+WV+25901&hl=en"
WEST VIRGINIA STATE POLICE,"WVSP-PRINCETON 
												
													SGT. D.W. MILLER/3044252101",910 OAKVALE RD,PRINCETON,WV,24740,"http://maps.google.com/maps?q=910 OAKVALE RD,+PRINCETON,+WV+24740&hl=en"
WESTMORELAND POLICE DEPT.,WESTMORELAND PD,1044 PLEASANT GROVE RD,WESTMORELAND,TN,37186,"http://maps.google.com/maps?q=1044 PLEASANT GROVE RD,+WESTMORELAND,+TN+37186&hl=en"
WHITE COUNTY SHERIFF  DEPARTMENT,WHITE COUNTY SHERIFF'S DEPARTMENT,111 DEPOT STREET,SPARTA,TN,38583,"http://maps.google.com/maps?q=111 DEPOT STREET,+SPARTA,+TN+38583&hl=en"
WHITE COUNTY SHERIFF'S OFFICE,"WHITE COUNTY SHERIFF'S OFFICE 
												
													PERMANENT DROP BOX",1600 E BOOTH ROAD,SEARCY,AR,72143,"http://maps.google.com/maps?q=1600 E BOOTH ROAD,+SEARCY,+AR+72143&hl=en"
WHITE PINE POLICE DEPT.,WHITE PINE PD,1548 MAIN ST.,WHITE PINE,TN,37890,"http://maps.google.com/maps?q=1548 MAIN ST.,+WHITE PINE,+TN+37890&hl=en"
"WILLIAMSON, WV POLICE DEPARTMENT","WILLIAMSON, WV PD",108 EAST 4TH AVE,WILLIAMSON,WV,25661,"http://maps.google.com/maps?q=108 EAST 4TH AVE,+WILLIAMSON,+WV+25661&hl=en"
WILSON COUNTY SHERIFF'S DEPARTMENT,GIBBS PHARMACY,1427 W. BADDOUR PKWY #B,LEBANON,TN,37087,"http://maps.google.com/maps?q=1427 W. BADDOUR PKWY #B,+LEBANON,+TN+37087&hl=en"
WINCHESTER POLICE DEPARTMENT,WINCHESTER POLICE DEPARTMENT,16 SOUTH MAPLE STREET,WINCHESTER,KY,40391,"http://maps.google.com/maps?q=16 SOUTH MAPLE STREET,+WINCHESTER,+KY+40391&hl=en"
WISE COUNTY SHERIFF'S OFFICE,FOOD CITY,16410 WISE ST,SAINT PAUL,VA,24283,"http://maps.google.com/maps?q=16410 WISE ST,+SAINT PAUL,+VA+24283&hl=en"
WISE POLICE DEPARTMENT,"FOOD CITY 
												
													NEAR FRONT ENTRANCE",207 WOODLAND DRIVE,WISE,VA,24293,"http://maps.google.com/maps?q=207 WOODLAND DRIVE,+WISE,+VA+24293&hl=en"
WOODFORD COUNTY SHERIFF DEPT,KROGER,KROGER WAY,VERSAILLES,KY,40383,"http://maps.google.com/maps?q=KROGER WAY,+VERSAILLES,+KY+40383&hl=en"
WYNNE POLICE DEPARTMENT,"WYNNE POLICE DEPARTMENT 
												
													PERMANENT DROP BOX",206 S. FALLS,WYNNE,AR,72396,"http://maps.google.com/maps?q=206 S. FALLS,+WYNNE,+AR+72396&hl=en"
WYOMING COUNTY SHERIFF'S,MAGIC MART,759 OCEANA SQUARE/RTE 971,OCEANA,WV,24870,"http://maps.google.com/maps?q=759 OCEANA SQUARE/RTE 971,+OCEANA,+WV+24870&hl=en"
WYOMING COUNTY SHERIFF'S,RITE AID,401 MORAN AVE,MULLENS,WV,25882,"http://maps.google.com/maps?q=401 MORAN AVE,+MULLENS,+WV+25882&hl=en"
WYOMING COUNTY SHERIFF'S,RITE AID,448 APPALACHIAN HWY,PINEVILLE,WV,24874,"http://maps.google.com/maps?q=448 APPALACHIAN HWY,+PINEVILLE,+WV+24874&hl=en"
WYTHE COUNTY SHERIFF'S OFFICE,"WYTHE COUNTY SHERIFF'S OFFICE 
												
													SALLY PORT AREA FOR COLLECTION",245 S 4TH STREET,WYTHEVILLE,VA,24382,"http://maps.google.com/maps?q=245 S 4TH STREET,+WYTHEVILLE,+VA+24382&hl=en"
