Participant,CollectionSite,Address,City,State,Zip,MapURL
ACCOMACK COUNTY SHERIFF'S OFFICE,ACCOMACK COUNTY SHERIFF'S OFFICE,23323 WISE COURT,ACCOMAC,VA,23301,"http://maps.google.com/maps?q=23323 WISE COURT,+ACCOMAC,+VA+23301&hl=en"
ALBEMARLE COUNTY POLICE DEPARTMENT,"MARTHA JEFFERSON HOSPITAL 
												
													BACKSIDE OF MAIN HOSPITAL",500 MARTHA JEFFERSON DRIVE,CHARLOTTESVILLE,VA,22911,"http://maps.google.com/maps?q=500 MARTHA JEFFERSON DRIVE,+CHARLOTTESVILLE,+VA+22911&hl=en"
ALEXANDRIA POLICE DEPARTMENT,ALEXANDRIA FIRE STATION 210,5525 EISENHOWER AVE,ALEXANDRIA,VA,22304,"http://maps.google.com/maps?q=5525 EISENHOWER AVE,+ALEXANDRIA,+VA+22304&hl=en"
ALEXANDRIA POLICE DEPARTMENT,"ALEXANDRIA POLICE HEADQUARTERS 
												
													FRONT ENTRANCE",3600 WHEELER AVENUE,ALEXANDRIA,VA,22304,"http://maps.google.com/maps?q=3600 WHEELER AVENUE,+ALEXANDRIA,+VA+22304&hl=en"
ALEXANDRIA POLICE DEPARTMENT,"FIRST BAPTIST CHURCH 
												
													FRONT ENTRANCE",2932 KING STREET,ALEXANDRIA,VA,22302,"http://maps.google.com/maps?q=2932 KING STREET,+ALEXANDRIA,+VA+22302&hl=en"
ALEXANDRIA SHERIFF'S OFFICE,"NEIGHBORHOOD PHARMACY 
												
													FRONT OF THE BUILDING",2204 MT. VERNON AVENUE,ALEXANDRIA,VA,22301,"http://maps.google.com/maps?q=2204 MT. VERNON AVENUE,+ALEXANDRIA,+VA+22301&hl=en"
ALTAVISTA POLICE DEPARTMENT,"YMCA 
												
													SPORTS CENTER",718 7TH ST,ALTAVISTA,VA,24517,"http://maps.google.com/maps?q=718 7TH ST,+ALTAVISTA,+VA+24517&hl=en"
AMELIA COUNTY SHERFF'S OFFICE,"AMELIA PHARMACY INC. 
												
													FRONT SIDEWALK BY STORE ENTRANCE",15412 PATRICK HENRY HWY.,AMELIA,VA,23002,"http://maps.google.com/maps?q=15412 PATRICK HENRY HWY.,+AMELIA,+VA+23002&hl=en"
AMELIA COUNTY SHERFF'S OFFICE,"RITE AID PHARMACY 
												
													FRONT SIDEWALK BY STORE ENTRANCE",15105 PATRICK HENRY HWY,AMELIA,VA,23002,"http://maps.google.com/maps?q=15105 PATRICK HENRY HWY,+AMELIA,+VA+23002&hl=en"
ANNE ARUNDEL CO,EASTERN DISTRICT,204 PASADENA ROAD,PASADENA,MD,21122,"http://maps.google.com/maps?q=204 PASADENA ROAD,+PASADENA,+MD+21122&hl=en"
ANNE ARUNDEL CO,HEADQUARTERS,8495 VETERAN'S HIGHWAY,MILLERSVILLE,MD,21108,"http://maps.google.com/maps?q=8495 VETERAN'S HIGHWAY,+MILLERSVILLE,+MD+21108&hl=en"
ANNE ARUNDEL CO,NORTHERN DISTRICT,939 HAMMONDS LANE,BALTIMORE,MD,21225,"http://maps.google.com/maps?q=939 HAMMONDS LANE,+BALTIMORE,+MD+21225&hl=en"
ANNE ARUNDEL CO,SOUTHERN DISTRICT,35 STEPNEY'S LANE,EDGEWATER,MD,21037,"http://maps.google.com/maps?q=35 STEPNEY'S LANE,+EDGEWATER,+MD+21037&hl=en"
ANNE ARUNDEL CO,WESTERN DISTRICT,8273 TELEGRAPH ROAD,ODENTON,MD,21113,"http://maps.google.com/maps?q=8273 TELEGRAPH ROAD,+ODENTON,+MD+21113&hl=en"
APPOMATTOX COUNTY SHERIFF'S OFFICE,KROGER,7851 RICHMOND HWY,APPOMATTOX,VA,24522,"http://maps.google.com/maps?q=7851 RICHMOND HWY,+APPOMATTOX,+VA+24522&hl=en"
ARLINGTON COUNTY POLICE DEPARTMENT,"ARLINGTON FIRE STATION #9 
												
													MAIN LEVEL COMMUNITY ROOM",1900 SOUTH WALTER REED DRIVE,ARLINGTON,VA,22204,"http://maps.google.com/maps?q=1900 SOUTH WALTER REED DRIVE,+ARLINGTON,+VA+22204&hl=en"
ARLINGTON COUNTY POLICE DEPARTMENT,GUNSTON COMMUNITY CENTER,2700 SOUTH LANG STREET,ARLINGTON,VA,22206,"http://maps.google.com/maps?q=2700 SOUTH LANG STREET,+ARLINGTON,+VA+22206&hl=en"
ARLINGTON COUNTY POLICE DEPARTMENT,LANGSTON COMMUNITY CENTER,2121 NORTH CULPEPER STREET,ARLINGTON,VA,22207,"http://maps.google.com/maps?q=2121 NORTH CULPEPER STREET,+ARLINGTON,+VA+22207&hl=en"
ASHLAND POLICE DEPARTMENT,"ASHLAND POLICE DEPARTMENT 
												
													VISITOR PARKING LOT",601 ENGLAND STREET,ASHLAND,VA,23005,"http://maps.google.com/maps?q=601 ENGLAND STREET,+ASHLAND,+VA+23005&hl=en"
AUGUSTA COUNTY SHERIIF'S OFFICE,AUGUSTA COUNTY SHERIFF'S OFFICE,127 LEE HIGHWAY,VERONA,VA,24482,"http://maps.google.com/maps?q=127 LEE HIGHWAY,+VERONA,+VA+24482&hl=en"
BALTIMORE CITY POLICE DEPARTMENT,"BALTIMORE CITY PD 
												
													SOUTHEASTERN DISTRICT",5710 EASTERN AVENUE,BALTIMORE,MD,21224,"http://maps.google.com/maps?q=5710 EASTERN AVENUE,+BALTIMORE,+MD+21224&hl=en"
BALTIMORE CITY POLICE DEPARTMENT,"BALTIMORE CITY PD 
												
													SOUTHERN DISTRICT",10 CHERRY HILL ROAD,BROOKLYN,MD,21225,"http://maps.google.com/maps?q=10 CHERRY HILL ROAD,+BROOKLYN,+MD+21225&hl=en"
BALTIMORE COUNTY POLICE DEPARTMENT,"PRECINCT 11 
												
													ESSEX",216 N. MARLYN AVE.,ESSEX,MD,21221,"http://maps.google.com/maps?q=216 N. MARLYN AVE.,+ESSEX,+MD+21221&hl=en"
BALTIMORE COUNTY POLICE DEPARTMENT,"PRECINCT 12 
												
													DUNDALK",428 WESTHAM WAY,BALTIMORE,MD,21224,"http://maps.google.com/maps?q=428 WESTHAM WAY,+BALTIMORE,+MD+21224&hl=en"
BOWIE POLICE DEPARTMENT,BOWIE POLICE STATION,15901 EXCALIBUR ROAD,BOWIE,MD,20716,"http://maps.google.com/maps?q=15901 EXCALIBUR ROAD,+BOWIE,+MD+20716&hl=en"
BUENA VISTA POLICE DEPARTMENT,"CVS PHARMACY 
												
													EXTERIOR BREEZEWAY",2148 E. MIDLAND TRAIL,BUENA VISTA,VA,24416,"http://maps.google.com/maps?q=2148 E. MIDLAND TRAIL,+BUENA VISTA,+VA+24416&hl=en"
CALVERT COUNTY SHERIFF'S OFFICE,MT. HOPE COMMUNITY CENTER,104 PUSHAW STATION RD.,SUNDERLAND,MD,20689,"http://maps.google.com/maps?q=104 PUSHAW STATION RD.,+SUNDERLAND,+MD+20689&hl=en"
CALVERT COUNTY SHERIFF'S OFFICE,NORTHEAST COMMUNITY CENTER,4075 GORDON STINNETT AVE.,CHESAPEAKE BEACH,MD,20732,"http://maps.google.com/maps?q=4075 GORDON STINNETT AVE.,+CHESAPEAKE BEACH,+MD+20732&hl=en"
CALVERT COUNTY SHERIFF'S OFFICE,SOUTHERN COMMUNITY CENTER,20 APPEAL LANE,LUSBY,MD,20657,"http://maps.google.com/maps?q=20 APPEAL LANE,+LUSBY,+MD+20657&hl=en"
CAMDEN POLICE DEPARTMENT,CAMDEN POLICE DEPARTMENT,1783 FRIENDS WAY,CAMDEN WYOMING,DE,19934,"http://maps.google.com/maps?q=1783 FRIENDS WAY,+CAMDEN WYOMING,+DE+19934&hl=en"
CAROLINE COUNTY SHERIFF'S OFFICE,"CAROLINE SQUARE SHOPPING CENTER PARKING LOT 
												
													PARKING LOT NEAR RITE AID PHARMACY ENTRANCE",104 W. BROADDUS AVENUE,BOWLING GREEN,VA,22427,"http://maps.google.com/maps?q=104 W. BROADDUS AVENUE,+BOWLING GREEN,+VA+22427&hl=en"
CAROLINE COUNTY SHERIFF'S OFFICE,"CVS PHARMACY 
												
													PARKING LOT",18048 JEFFERSON DAVIS HIGHWAY,RUTHER GLEN,VA,22546,"http://maps.google.com/maps?q=18048 JEFFERSON DAVIS HIGHWAY,+RUTHER GLEN,+VA+22546&hl=en"
"CAROLINE COUNTY SHERIFF'S OFFICE, DENTON",CAROLINE COUNTY SHERIFF'S OFFICE,101 GAY STREET,DENTON,MD,21629,"http://maps.google.com/maps?q=101 GAY STREET,+DENTON,+MD+21629&hl=en"
"CAROLINE COUNTY SHERIFF'S OFFICE, DENTON",DENTON WALMART,610 LEGION ROAD,DENTON,MD,21629,"http://maps.google.com/maps?q=610 LEGION ROAD,+DENTON,+MD+21629&hl=en"
CHARLES COUNTY GOVERNMENT,"CHARLES COUNTY GOVERNMENT 
												
													MAIN ENTRANCE PARKING LOT",200 BALTIMORE STREET,LA PLATA,MD,20646,"http://maps.google.com/maps?q=200 BALTIMORE STREET,+LA PLATA,+MD+20646&hl=en"
CHESAPEAKE POLICE DEPARTMENT,CHESAPEAKE POLICE 2ND PRECINCT,1209 20TH STREET,CHESAPEAKE,VA,23324,"http://maps.google.com/maps?q=1209 20TH STREET,+CHESAPEAKE,+VA+23324&hl=en"
CHESAPEAKE POLICE DEPARTMENT,CHESAPEAKE POLICE 3RD PRECINCT,949 N. GEORGE WASHINGTON HIGHWAY,CHESAPEAKE,VA,23323,"http://maps.google.com/maps?q=949 N. GEORGE WASHINGTON HIGHWAY,+CHESAPEAKE,+VA+23323&hl=en"
CHESAPEAKE POLICE DEPARTMENT,CHESAPEAKE POLICE 4TH PRECINCT,4764 STATION HOUSE ROAD,CHESAPEAKE,VA,23321,"http://maps.google.com/maps?q=4764 STATION HOUSE ROAD,+CHESAPEAKE,+VA+23321&hl=en"
CHESAPEAKE SHERIFF'S OFFICE,"CHESAPEAKE SHERIFF'S OFFICE 
												
													ADMIN BUILDING ACROSS FROM CORRECTIONAL CENTER",401 ALBEMARLE DRIVE,CHESAPEAKE,VA,23322,"http://maps.google.com/maps?q=401 ALBEMARLE DRIVE,+CHESAPEAKE,+VA+23322&hl=en"
CHESTERFIELD COUNTY POLICE DEPARTMENT,"MANCHESTER HIGH SCHOOL 
												
													FRONT LOOP",12601 BAILEY BRIDGE RD,MIDLOTHIAN,VA,23112,"http://maps.google.com/maps?q=12601 BAILEY BRIDGE RD,+MIDLOTHIAN,+VA+23112&hl=en"
CHESWOLD POLICE DEPARTMENT,CHESWOLD POLICE DEPT,691 MAIN ST,DOVER,DE,19904,"http://maps.google.com/maps?q=691 MAIN ST,+DOVER,+DE+19904&hl=en"
CHEVY CHASE VILLAGE POLICE DEPARTMENT,CHEVY CHASE VILLAGE POLICE DEPARTMENT,5906 CONNECTICUT AVENUE,CHEVY CHASE,MD,20815,"http://maps.google.com/maps?q=5906 CONNECTICUT AVENUE,+CHEVY CHASE,+MD+20815&hl=en"
COLONIAL HEIGHTS POLICE DEPARTMENT,TOYS R. US PARKING LOT,1869 SOUTHPARK BLVD,COLONIAL HEIGHTS,VA,23834,"http://maps.google.com/maps?q=1869 SOUTHPARK BLVD,+COLONIAL HEIGHTS,+VA+23834&hl=en"
CURRITUCK COUNTY SHERIFF'S OFFICE,MOYOCK FOOD LION,101 LARK DR,MOYOCK,NC,27958,"http://maps.google.com/maps?q=101 LARK DR,+MOYOCK,+NC+27958&hl=en"
DAGSBORO POLICE DEPARTMENT,DAGSBORO POLICE DEPARTMENT,33134 MAIN STREET,DAGSBORO,DE,19939,"http://maps.google.com/maps?q=33134 MAIN STREET,+DAGSBORO,+DE+19939&hl=en"
DEA / MONTCLAIR LIONS CLUB,"MONTCLAIR SHOPPING CENTER 
												
													IN FRONT OF FRAMING OUTLET",5183 WATERWAY DRIVE,DUMFRIES,VA,22025,"http://maps.google.com/maps?q=5183 WATERWAY DRIVE,+DUMFRIES,+VA+22025&hl=en"
DEA HQ_TESTING,DEA HEADQUARTERS,700 ARMY NAVY DRIVE,ARLINGTON,VA,22202,"http://maps.google.com/maps?q=700 ARMY NAVY DRIVE,+ARLINGTON,+VA+22202&hl=en"
DELAWARE RIVER & BAY AUTHORITY,"CAPE MAY FERRY TERMINAL 
												
													609-889-7260",1200 SANDMAN BLVD.,CAPE MAY,NJ,08204,"http://maps.google.com/maps?q=1200 SANDMAN BLVD.,+CAPE MAY,+NJ+08204&hl=en"
DELAWARE RIVER & BAY AUTHORITY,LEWES FERRY TERMINAL,43 CAPE HENLOPEN DRIVE,LEWES,DE,19958,"http://maps.google.com/maps?q=43 CAPE HENLOPEN DRIVE,+LEWES,+DE+19958&hl=en"
DELAWARE STATE POLICE,DELAWARE STATE POLICE - TROOP 3,3759 SOUTH STATE STREET,CAMDEN WYOMING,DE,19934,"http://maps.google.com/maps?q=3759 SOUTH STATE STREET,+CAMDEN WYOMING,+DE+19934&hl=en"
DELAWARE STATE POLICE,DELAWARE STATE POLICE - TROOP 7,18006 COASTAL HIGHWAY,LEWES,DE,19958,"http://maps.google.com/maps?q=18006 COASTAL HIGHWAY,+LEWES,+DE+19958&hl=en"
DELMAR POLICE DEPARTMENT,DELMAR POLICE DEPARTMENT,102 SOUTH PENNSYLVANIA AVENUE,DELMAR,MD,21875,"http://maps.google.com/maps?q=102 SOUTH PENNSYLVANIA AVENUE,+DELMAR,+MD+21875&hl=en"
FAIRFAX CITY POLICE DEPARTMENT,"FAIRFAX CITY POLICE DEPARTMENT 
												
													FRONT LOBBY",3730 OLD LEE HIGHWAY,FAIRFAX,VA,22030,"http://maps.google.com/maps?q=3730 OLD LEE HIGHWAY,+FAIRFAX,+VA+22030&hl=en"
FAIRFAX COUNTY POLICE DEPARTMENT,"FAIR OAKS DISTRICT STATION 
												
													PARKING LOT -OPERATING 10 AM TO 2 PM-",12300 LEE JACKSON MEMORIAL HIGHWAY,FAIRFAX,VA,22033,"http://maps.google.com/maps?q=12300 LEE JACKSON MEMORIAL HIGHWAY,+FAIRFAX,+VA+22033&hl=en"
FAIRFAX COUNTY POLICE DEPARTMENT,"FRANCONIA DISTRICT STATION 
												
													FRONT PARKING LOT -OPERATING 10 AM TO 2 PM-",6121 FRANCONIA ROAD,ALEXANDRIA,VA,22310,"http://maps.google.com/maps?q=6121 FRANCONIA ROAD,+ALEXANDRIA,+VA+22310&hl=en"
FAIRFAX COUNTY POLICE DEPARTMENT,"MASON DISTRICT STATION 
												
													FRONT PARKING LOT -OPERATING 10 AM TO 2 PM-",6507 COLUMBIA PIKE,ANNANDALE,VA,22003,"http://maps.google.com/maps?q=6507 COLUMBIA PIKE,+ANNANDALE,+VA+22003&hl=en"
FAIRFAX COUNTY POLICE DEPARTMENT,"MCLEAN DISTRICT POLICE STATION 
												
													FRONT PARKING LOT -OPERATING 10 AM TO 2 PM-",1437 BALLS HILL ROAD,MCLEAN,VA,22101,"http://maps.google.com/maps?q=1437 BALLS HILL ROAD,+MCLEAN,+VA+22101&hl=en"
FAIRFAX COUNTY POLICE DEPARTMENT,"MOUNT VERNON DISTRICT POLICE STATION 
												
													FRONT PARKING LOT -OPERATING 10 AM TO 2 PM-",2511 PARKERS LANE,ALEXANDRIA,VA,22306,"http://maps.google.com/maps?q=2511 PARKERS LANE,+ALEXANDRIA,+VA+22306&hl=en"
FAIRFAX COUNTY POLICE DEPARTMENT,"RESTON DISTRICT STATION 
												
													PARKING LOT -OPERATING 10 AM TO 2 PM-",12000 BOWMAN TOWNE DRIVE,RESTON,VA,20190,"http://maps.google.com/maps?q=12000 BOWMAN TOWNE DRIVE,+RESTON,+VA+20190&hl=en"
FAIRFAX COUNTY POLICE DEPARTMENT,"SULLY DISTRICT POLICE STATION 
												
													FRONT PARKING LOT -OPERATING 10 AM TO 2 PM-",4900 STONECROFT BOULEVARD,CHANTILLY,VA,20151,"http://maps.google.com/maps?q=4900 STONECROFT BOULEVARD,+CHANTILLY,+VA+20151&hl=en"
FAIRFAX COUNTY POLICE DEPARTMENT,"WEST SPRINGFIELD DISTRICT STATION 
												
													PARKING LOT -OPERATING 10 AM TO 2 PM-",6140 ROLLING ROAD,SPRINGFIELD,VA,22152,"http://maps.google.com/maps?q=6140 ROLLING ROAD,+SPRINGFIELD,+VA+22152&hl=en"
FALLS CHURCH POLICE DEPARTMENT,"FALLS CHURCH CITY HALL 
												
													EXTERIOR",300 PARK AVE,FALLS CHURCH,VA,22046,"http://maps.google.com/maps?q=300 PARK AVE,+FALLS CHURCH,+VA+22046&hl=en"
FARMVILLE POLICE DEPARTMENT/LONGWOOD UNIVERSITY PD,"MIDTOWN SQUARE 
												
													IN FRONT OF CHICK-FIL-A",156 S. SOUTH STREET,FARMVILLE,VA,23901,"http://maps.google.com/maps?q=156 S. SOUTH STREET,+FARMVILLE,+VA+23901&hl=en"
FELTON POLICE DEPARTMENT,FELTON POLICE DEPARTMENT,24 EAST SEWELL STREET,FELTON,DE,19943,"http://maps.google.com/maps?q=24 EAST SEWELL STREET,+FELTON,+DE+19943&hl=en"
FLUVANNA COUNTY SHERIFF'S OFFICE,CVS PHARMACY,28 ABBY ROAD,PALMYRA,VA,22963,"http://maps.google.com/maps?q=28 ABBY ROAD,+PALMYRA,+VA+22963&hl=en"
FREDERICK COUNTY SHERIFF'S OFFICE,FREDERICK COUNTY PUBLIC SAFETY BUILDING,1080 COVERSTONE DRIVE,WINCHESTER,VA,22602,"http://maps.google.com/maps?q=1080 COVERSTONE DRIVE,+WINCHESTER,+VA+22602&hl=en"
FREDERICK COUNTY SHERIFF'S OFFICE,WALGREENS,131 VALLEY MILL ROAD,WINCHESTER,VA,22602,"http://maps.google.com/maps?q=131 VALLEY MILL ROAD,+WINCHESTER,+VA+22602&hl=en"
FREDERICKSBURG POLICE DEPARTMENT,"MARY WASHINGTON HOSPITAL 
												
													TOMPKINS-MARTIN MEDICAL PLAZA",1101 SAM PERRY BLVD,FREDERICKSBURG,VA,22401,"http://maps.google.com/maps?q=1101 SAM PERRY BLVD,+FREDERICKSBURG,+VA+22401&hl=en"
GARNER POLICE DEPARTMENT,"GARNER POLICE DEPARTMENT 
												
													MONDAY - FRIDAY 8A - 5P",912 SEVENTH AVE,GARNER,NC,27529,"http://maps.google.com/maps?q=912 SEVENTH AVE,+GARNER,+NC+27529&hl=en"
GEORGE MASON UNIVERSITY POLICE DEPARTMENT,GEORGE MASON UNIVERSITY POLICE STATION,4393 UNIVERSITY DRIVE,FAIRFAX,VA,22030,"http://maps.google.com/maps?q=4393 UNIVERSITY DRIVE,+FAIRFAX,+VA+22030&hl=en"
GLOUCESTER COUNTY SHERIFF'S OFFICE,GLOUCESTER PHARMACY,7453 HARGETT BLVD,GLOUCESTER,VA,23061,"http://maps.google.com/maps?q=7453 HARGETT BLVD,+GLOUCESTER,+VA+23061&hl=en"
GLOUCESTER COUNTY SHERIFF'S OFFICE,"WALGREEN'S PHARMACY 
												
													FRONT ENTRANCE",2418 GEORGE WASHINGTON MEMORIAL HIGHWAY,HAYES,VA,23072,"http://maps.google.com/maps?q=2418 GEORGE WASHINGTON MEMORIAL HIGHWAY,+HAYES,+VA+23072&hl=en"
GOOCHLAND COUNTY SHERIFF'S OFFICE,GOOCHLAND FIRE/RESCUE COMPANY 5,2710 FAIRGROUNDS ROAD,GOOCHLAND,VA,23063,"http://maps.google.com/maps?q=2710 FAIRGROUNDS ROAD,+GOOCHLAND,+VA+23063&hl=en"
GOOCHLAND COUNTY SHERIFF'S OFFICE,WEST CREEK EMERGENCY CENTER,12720 TUCKAHOE CREEK PKWY,HENRICO,VA,23238,"http://maps.google.com/maps?q=12720 TUCKAHOE CREEK PKWY,+HENRICO,+VA+23238&hl=en"
GORDONSVILLE POLICE DEPARTMENT,FOOD LION,408 GORDON AVE,GORDONSVILLE,VA,22942,"http://maps.google.com/maps?q=408 GORDON AVE,+GORDONSVILLE,+VA+22942&hl=en"
GREENBELT POLICE DEPARTMENT,GREENBELT CITY OFFICES,25 CRESCENT ROAD,GREENBELT,MD,20770,"http://maps.google.com/maps?q=25 CRESCENT ROAD,+GREENBELT,+MD+20770&hl=en"
HAMPTON POLICE DIVISION,"SENTARA CAREPLEX HOSPITAL 
												
													NEAR EMERGENCY ROOM ENTRANCE",3000 COLISEUM DRIVE,HAMPTON,VA,23666,"http://maps.google.com/maps?q=3000 COLISEUM DRIVE,+HAMPTON,+VA+23666&hl=en"
HANOVER COUNTY SHERIFF'S OFFICE,MECHANICSVILLE CONVENIENCE CENTER,7427 VERDI LANE,MECHANICSVILLE,VA,23116,"http://maps.google.com/maps?q=7427 VERDI LANE,+MECHANICSVILLE,+VA+23116&hl=en"
HENRICO POLICE DEPARTMENT,EASTERN HENRICO RECREATION CENTER,1440 N. LABURNUM AVENUE,RICHMOND,VA,23223,"http://maps.google.com/maps?q=1440 N. LABURNUM AVENUE,+RICHMOND,+VA+23223&hl=en"
HENRICO POLICE DEPARTMENT,"HENRICO TRAINING CENTER 
												
													ENTRANCE IS ON SHRADER ROAD",7721 E. PARHAM ROAD,HENRICO,VA,23294,"http://maps.google.com/maps?q=7721 E. PARHAM ROAD,+HENRICO,+VA+23294&hl=en"
HENRICO POLICE DEPARTMENT,VARINA PUBLIC LIBRARY,1875 NEW MARKET ROAD,HENRICO,VA,23231,"http://maps.google.com/maps?q=1875 NEW MARKET ROAD,+HENRICO,+VA+23231&hl=en"
HERNDON POLICE DEPARTMENT,"HERNDON POLICE DEPARTMENT 
												
													LOBBY AREA",397 HERNDON PARKWAY,HERNDON,VA,20170,"http://maps.google.com/maps?q=397 HERNDON PARKWAY,+HERNDON,+VA+20170&hl=en"
HOPEWELL POLICE DEPARTMENT,"HOPEWELL POLICE DEPARTMENT 
												
													PARKING LOT BY MAIN ENTRANCE",300 N. MAIN STREET,HOPEWELL,VA,23860,"http://maps.google.com/maps?q=300 N. MAIN STREET,+HOPEWELL,+VA+23860&hl=en"
HYATTSVILLE CITY POLICE,HYATTSVILLE CITY POLICE DEPARTMENT,4310 GALLATIN STREET,HYATTSVILLE,MD,20781,"http://maps.google.com/maps?q=4310 GALLATIN STREET,+HYATTSVILLE,+MD+20781&hl=en"
JAMES CITY COUNTY POLICE DEPARTMENT,"JAMES CITY COUNTY POLICE DEPARTMENT 
												
													LAW ENFORCEMENT CENTER",4600 OPPORTUNITY WAY,WILLIAMSBURG,VA,23188,"http://maps.google.com/maps?q=4600 OPPORTUNITY WAY,+WILLIAMSBURG,+VA+23188&hl=en"
JEFFERSON COUNTY SHERIFF'S OFFICE,CHARLES TOWN WALMART,96 PATRICK HENRY WAY,CHARLES TOWN,WV,25414,"http://maps.google.com/maps?q=96 PATRICK HENRY WAY,+CHARLES TOWN,+WV+25414&hl=en"
JEFFERSON COUNTY SHERIFF'S OFFICE,JEFFERSON COUNTY SHERIFF,102 INDUSTRIAL BOULEVARD,KEARNEYSVILLE,WV,25430,"http://maps.google.com/maps?q=102 INDUSTRIAL BOULEVARD,+KEARNEYSVILLE,+WV+25430&hl=en"
KING AND QUEEN SHERIFF'S OFFICE,"NICK'S RESTAURANT 
												
													SIDE PARKING LOT",3483 LEWIS B. PULLER HWY,SHACKLEFORDS,VA,23156,"http://maps.google.com/maps?q=3483 LEWIS B. PULLER HWY,+SHACKLEFORDS,+VA+23156&hl=en"
KING AND QUEEN SHERIFF'S OFFICE,"PUMONKEY REGIONAL LIBRARY 
												
													FRONT PARKING LOT",396 NEWTOWN ROAD,SAINT STEPHENS CHURCH,VA,23148,"http://maps.google.com/maps?q=396 NEWTOWN ROAD,+SAINT STEPHENS CHURCH,+VA+23148&hl=en"
KING GEORGE SHERIFF'S OFFICE,KING GEORGE SHERIFF'S  FRONT PARKING LOT,10445 GOVERNMENT CENTER BLVD.,KING GEORGE,VA,22485,"http://maps.google.com/maps?q=10445 GOVERNMENT CENTER BLVD.,+KING GEORGE,+VA+22485&hl=en"
KING WILLIAM COUNTY SHERIFF'S OFFICE,"CENTRAL CROSSING FOOD LION 
												
													PARKING LOT AREA NEAR FRONT OF STORE",4915 RICHMOND TAPPAHANNOCK HIGHWAY,AYLETT,VA,23009,"http://maps.google.com/maps?q=4915 RICHMOND TAPPAHANNOCK HIGHWAY,+AYLETT,+VA+23009&hl=en"
LANCASTER COUNTY SHERIFF'S DEPARTMENT,LANCASTER SHERIFF'S OFFICE,8293 MARY BALL ROAD,LANCASTER,VA,22503,"http://maps.google.com/maps?q=8293 MARY BALL ROAD,+LANCASTER,+VA+22503&hl=en"
LAUREL POLICE DEPARTMENT,LAUREL POLICE DEPARTMENT,205 MECHANIC STREET,LAUREL,DE,19956,"http://maps.google.com/maps?q=205 MECHANIC STREET,+LAUREL,+DE+19956&hl=en"
LAUREL POLICE DEPARTMENT,LAUREL POLICE DEPARTMENT,811 FIFTH STREET,LAUREL,MD,20707,"http://maps.google.com/maps?q=811 FIFTH STREET,+LAUREL,+MD+20707&hl=en"
LAWRENCEVILLE POLICE DEPARTMENT,"LAWRENCEVILLE MUNICIPAL BUILDING 
												
													AT THE ENTRANCE TO THE POLICE DEPARTMENT",400 N. MAIN STREET,LAWRENCEVILLE,VA,23868,"http://maps.google.com/maps?q=400 N. MAIN STREET,+LAWRENCEVILLE,+VA+23868&hl=en"
LEWES POLICE DEPARTMENT,CITY OF LEWES BOARD OF PUBLIC WORKS,129 SCHLEY AVENUE,LEWES,DE,19958,"http://maps.google.com/maps?q=129 SCHLEY AVENUE,+LEWES,+DE+19958&hl=en"
LEXINGTON POLICE DEPARTMENT,CVS PHARMACY,506 E NELSON STREET,LEXINGTON,VA,24450,"http://maps.google.com/maps?q=506 E NELSON STREET,+LEXINGTON,+VA+24450&hl=en"
LOUDOUN COUNTY SHERIFF'S OFFICE,"DULLES SOUTH PUBLIC SAFETY CENTER 
												
													FRONT LOBBY AREA",25216 LOUDOUN PARKWAY,CHANTILLY,VA,20152,"http://maps.google.com/maps?q=25216 LOUDOUN PARKWAY,+CHANTILLY,+VA+20152&hl=en"
LOUDOUN COUNTY SHERIFF'S OFFICE,"EASTERN LOUDOUN STATION 
												
													FRONT LOBBY AREA",46620 EAST FREDERICK DRIVE,STERLING,VA,20164,"http://maps.google.com/maps?q=46620 EAST FREDERICK DRIVE,+STERLING,+VA+20164&hl=en"
LOUDOUN COUNTY SHERIFF'S OFFICE,"LANDSDOWNE PUBLIC SAFETY CENTER 
												
													FRONT LOBBY/ENTRANCE AREA",19485 SANDRIDGE WAY,LEESBURG,VA,20176,"http://maps.google.com/maps?q=19485 SANDRIDGE WAY,+LEESBURG,+VA+20176&hl=en"
LOUDOUN COUNTY SHERIFF'S OFFICE,LOVETTSVILLE TOWN HALL,6 E PENNSYLVANIA AVE,LOVETTSVILLE,VA,20180,"http://maps.google.com/maps?q=6 E PENNSYLVANIA AVE,+LOVETTSVILLE,+VA+20180&hl=en"
LOUISA COUNTY SHERIFF'S OFFICE,LOUISA COUNTY SHERIFF'S OFFICE,1 WOOLFOLK AVE,LOUISA,VA,23093,"http://maps.google.com/maps?q=1 WOOLFOLK AVE,+LOUISA,+VA+23093&hl=en"
LYNCHBURG POLICE DEPARTMENT,"LYNCHBURG POLICE DEPARTMENT 
												
													LOBBY",905 COURT STREET,LYNCHBURG,VA,24504,"http://maps.google.com/maps?q=905 COURT STREET,+LYNCHBURG,+VA+24504&hl=en"
MADISON COUNTY SHERIFF'S OFFICE,MADISON COUNTY SHERIFF'S OFFICE,115 CHURCH ST,MADISON,VA,22727,"http://maps.google.com/maps?q=115 CHURCH ST,+MADISON,+VA+22727&hl=en"
MANASSAS CITY POLICE DEPARTMENT,"NOVANT HEALTH - PRINCE WILLIAM MEDICAL CENTER 
												
													ENTRANCE TO WOMEN'S CENTER - OB/GYN",8700 SUDLEY ROAD,MANASSAS,VA,20110,"http://maps.google.com/maps?q=8700 SUDLEY ROAD,+MANASSAS,+VA+20110&hl=en"
MANASSAS PARK POLICE DEPARTMENT,MPPD COMMUNITY ROOM,329 MANASSAS DR,MANASSAS,VA,20111,"http://maps.google.com/maps?q=329 MANASSAS DR,+MANASSAS,+VA+20111&hl=en"
MARYLAND STATE POLICE,"MSP BERLIN BARRACK 
												
													POC:  D/SGT. RICK KLEBON",9758 OCEAN GATEWAY,BERLIN,MD,21811,"http://maps.google.com/maps?q=9758 OCEAN GATEWAY,+BERLIN,+MD+21811&hl=en"
MARYLAND STATE POLICE,"MSP CENTREVILLE BARRACK 
												
													POC:  LT. DWAYNE BOARDMAN",311 SAFETY DRIVE,CENTREVILLE,MD,21617,"http://maps.google.com/maps?q=311 SAFETY DRIVE,+CENTREVILLE,+MD+21617&hl=en"
MARYLAND STATE POLICE,"MSP COLLEGE PARK BARRACK Q 
												
													POC:  LT. SEAN MORRIS",10100 RHODE ISLAND AVENUE,COLLEGE PARK,MD,20740,"http://maps.google.com/maps?q=10100 RHODE ISLAND AVENUE,+COLLEGE PARK,+MD+20740&hl=en"
MARYLAND STATE POLICE,"MSP EASTON BARRACK 
												
													POC:  D/SGT. MITCH PARKE",7053 OCEAN GATEWAY,EASTON,MD,21601,"http://maps.google.com/maps?q=7053 OCEAN GATEWAY,+EASTON,+MD+21601&hl=en"
MARYLAND STATE POLICE,"MSP FORESTVILLE BARRACK 
												
													POC:  LT. ROLAND BUTLER",3500 FORESTVILLE ROAD,FORESTVILLE,MD,20747,"http://maps.google.com/maps?q=3500 FORESTVILLE ROAD,+FORESTVILLE,+MD+20747&hl=en"
MARYLAND STATE POLICE,"MSP GLEN BURNIE BARRACK 
												
													POC:  SGT. EDWARD EICHER",6800 AVIATION BLVD.,GLEN BURNIE,MD,21061,"http://maps.google.com/maps?q=6800 AVIATION BLVD.,+GLEN BURNIE,+MD+21061&hl=en"
MARYLAND STATE POLICE,"MSP GOLDEN RING BARRACK 
												
													POC:  D/SGT. CLARK",8908 KELSO DRIVE,ESSEX,MD,21221,"http://maps.google.com/maps?q=8908 KELSO DRIVE,+ESSEX,+MD+21221&hl=en"
MARYLAND STATE POLICE,"MSP LA PLATA BARRACK 
												
													POC:  D/SGT. KEVIN BEAUCHAMP",9500 MITCHELL ROAD,LA PLATA,MD,20646,"http://maps.google.com/maps?q=9500 MITCHELL ROAD,+LA PLATA,+MD+20646&hl=en"
MARYLAND STATE POLICE,"MSP LEONARDTOWN BARRACK 
												
													POC:  D/SGT. WILLIAM ROSADO",23200 LEONARD HALL DRIVE,LEONARDTOWN,MD,20650,"http://maps.google.com/maps?q=23200 LEONARD HALL DRIVE,+LEONARDTOWN,+MD+20650&hl=en"
MARYLAND STATE POLICE,"MSP PRINCESS ANNE BARRACK 
												
													POC:  D/SGT. KEEN",30581 PERRY ROAD,PRINCESS ANNE,MD,21853,"http://maps.google.com/maps?q=30581 PERRY ROAD,+PRINCESS ANNE,+MD+21853&hl=en"
MARYLAND STATE POLICE,"MSP ROCKVILLE BARRACK 
												
													POC:  LT. H.B. MARTZ",7915 MONTROSE ROAD,ROCKVILLE,MD,20854,"http://maps.google.com/maps?q=7915 MONTROSE ROAD,+ROCKVILLE,+MD+20854&hl=en"
MARYLAND STATE POLICE,"MSP SALISBURY BARRACK 
												
													POC:  D/SGT. ROBERT PHILLIPS",2765 NORTH SALISBURY BLVD.,SALISBURY,MD,21801,"http://maps.google.com/maps?q=2765 NORTH SALISBURY BLVD.,+SALISBURY,+MD+21801&hl=en"
MARYLAND STATE POLICE,"MSP WATERLOO BARRACK 
												
													POC:  D/SGT. MYERS",7777 WASHINGTON BLVD,JESSUP,MD,20794,"http://maps.google.com/maps?q=7777 WASHINGTON BLVD,+JESSUP,+MD+20794&hl=en"
MARYLAND STATE POLICE,"PRINCE FREDERICK BARRACK 
												
													POC:  RANDY STEVENS",210 MAIN STREET,PRINCE FREDERICK,MD,20678,"http://maps.google.com/maps?q=210 MAIN STREET,+PRINCE FREDERICK,+MD+20678&hl=en"
MILFORD POLICE DEPARTMENT,MILFORD POLICE DEPARTMENT,400 NE FRONT STREET,MILFORD,DE,19963,"http://maps.google.com/maps?q=400 NE FRONT STREET,+MILFORD,+DE+19963&hl=en"
MILTON POLICE DEPARTMENT,MILTON POLICE DEPARTMENT,101 FEDERAL STREET,MILTON,DE,19968,"http://maps.google.com/maps?q=101 FEDERAL STREET,+MILTON,+DE+19968&hl=en"
MONTGOMERY COUNTY DEPARTMENT OF POLICE,2ND DISTRICT POLICE STATION,4823 RUGBY AVENUE,BETHESDA,MD,20814,"http://maps.google.com/maps?q=4823 RUGBY AVENUE,+BETHESDA,+MD+20814&hl=en"
MONTGOMERY COUNTY DEPARTMENT OF POLICE,3RD DISTRICT POLICE STATION,1001 MILESTONE DRIVE,SILVER SPRING,MD,20904,"http://maps.google.com/maps?q=1001 MILESTONE DRIVE,+SILVER SPRING,+MD+20904&hl=en"
MONTGOMERY COUNTY DEPARTMENT OF POLICE,4TH DISTRICT POLICE STATION,2300 RANDOLPH ROAD,WHEATON,MD,20902,"http://maps.google.com/maps?q=2300 RANDOLPH ROAD,+WHEATON,+MD+20902&hl=en"
MONTGOMERY COUNTY DEPARTMENT OF POLICE,5TH DISTRICT POLICE STATION,20000 AIRCRAFT DRIVE,GERMANTOWN,MD,20874,"http://maps.google.com/maps?q=20000 AIRCRAFT DRIVE,+GERMANTOWN,+MD+20874&hl=en"
MONTGOMERY COUNTY DEPARTMENT OF POLICE,FIRE STATION 1,8110 GEORGIA AVE.,SILVER SPRING,MD,20910,"http://maps.google.com/maps?q=8110 GEORGIA AVE.,+SILVER SPRING,+MD+20910&hl=en"
MONTGOMERY COUNTY DEPARTMENT OF POLICE,JEWISH COMMUNITY CENTER,6125 MONTROSE RD.,ROCKVILLE,MD,20852,"http://maps.google.com/maps?q=6125 MONTROSE RD.,+ROCKVILLE,+MD+20852&hl=en"
MONTGOMERY COUNTY DEPARTMENT OF POLICE,KENTLANDS MANOR,217 BOOTH ST.,GAITHERSBURG,MD,20878,"http://maps.google.com/maps?q=217 BOOTH ST.,+GAITHERSBURG,+MD+20878&hl=en"
MONTGOMERY COUNTY DEPARTMENT OF POLICE,LEISURE WORLD,3305 N. LEISURE WORLD BLVD.,SILVER SPRING,MD,20906,"http://maps.google.com/maps?q=3305 N. LEISURE WORLD BLVD.,+SILVER SPRING,+MD+20906&hl=en"
MONTGOMERY COUNTY DEPARTMENT OF POLICE,"VILLAGE OF FRIENDSHIP HEIGHTS 
												
													COMMUNITY CENTER",4433 SOUTH PARK AVENUE,CHEVY CHASE,MD,20815,"http://maps.google.com/maps?q=4433 SOUTH PARK AVENUE,+CHEVY CHASE,+MD+20815&hl=en"
NEW KENT COUNTY SHERIFF'S OFFICE,NEW KENT SHERIFF'S OFFICE,11995 COURTHOUSE CIRCLE,NEW KENT,VA,23124,"http://maps.google.com/maps?q=11995 COURTHOUSE CIRCLE,+NEW KENT,+VA+23124&hl=en"
NEWPORT NEWS POLICE DEPARTMENT,NEWPORT NEWS PD CENTRAL PRECINCT,611 DRESDEN DR.,NEWPORT NEWS,VA,23601,"http://maps.google.com/maps?q=611 DRESDEN DR.,+NEWPORT NEWS,+VA+23601&hl=en"
NEWPORT NEWS POLICE DEPARTMENT,"NEWPORT NEWS PD NORTH PRECINCT 
												
													LOT BETWEEN POLICE AND FIRE DEPARTMENTS",368 DESHAZOR DRIVE,NEWPORT NEWS,VA,23608,"http://maps.google.com/maps?q=368 DESHAZOR DRIVE,+NEWPORT NEWS,+VA+23608&hl=en"
NEWPORT NEWS POLICE DEPARTMENT,NEWPORT NEWS PD SOUTH PRECINCT,3303 JEFFERSON AVENUE,NEWPORT NEWS,VA,23607,"http://maps.google.com/maps?q=3303 JEFFERSON AVENUE,+NEWPORT NEWS,+VA+23607&hl=en"
NORFOLK POLICE DEPARTMENT,"NORFOLK POLICE 3RD DIVISION 
												
													FRONT ENTRANCE",901 ASBURY AVENUE,NORFOLK,VA,23513,"http://maps.google.com/maps?q=901 ASBURY AVENUE,+NORFOLK,+VA+23513&hl=en"
NORFOLK POLICE DEPARTMENT,"NORFOLK POLICE OPERATIONS CENTER 
												
													FRONT ENTRANCE",3661 E. VIRGINIA BEACH BLVD,NORFOLK,VA,23502,"http://maps.google.com/maps?q=3661 E. VIRGINIA BEACH BLVD,+NORFOLK,+VA+23502&hl=en"
NORFOLK POLICE DEPARTMENT,"NORFOLK POLICE TRAINING CENTER 
												
													FRONT ENTRANCE",2500 N. MILITARY HWY,NORFOLK,VA,23502,"http://maps.google.com/maps?q=2500 N. MILITARY HWY,+NORFOLK,+VA+23502&hl=en"
NORFOLK STATE UNIVERSITY POLICE DEPARTMENT,"NORFOLK STATE UNIVERSITY PD 
												
													LOBBY AREA",2501 CORPREW AVE,NORFOLK,VA,23504,"http://maps.google.com/maps?q=2501 CORPREW AVE,+NORFOLK,+VA+23504&hl=en"
NORTH WILDWOOD POLICE DEPARTMENT,"NORTH WILDWOOD POLICE DEPARTMENT 
												
													609-522-2411",901 ATLANTIC AVE.,WILDWOOD,NJ,08260,"http://maps.google.com/maps?q=901 ATLANTIC AVE.,+WILDWOOD,+NJ+08260&hl=en"
NORTHAMPTON COUNTY SHERIFF'S OFFICE,"NORTHAMPTON COUNTY SHERIFF'S OFFICE 
												
													FRONT LOBBY",5211 THE HORNES,EASTVILLE,VA,23347,"http://maps.google.com/maps?q=5211 THE HORNES,+EASTVILLE,+VA+23347&hl=en"
NORTHUMBERLAND COUNTY SHERIFF'S OFFICE,NORTHUMBERLAND COUNTY SHERIFF'S OFFICE,195 JUDICIAL PLACE,HEATHSVILLE,VA,22473,"http://maps.google.com/maps?q=195 JUDICIAL PLACE,+HEATHSVILLE,+VA+22473&hl=en"
NOVA COMMUNITY COLLEGE POLICE DEPARTMENT,"NOVA COMMUNITY COLLEGE 
												
													WOODBRIDGE CAMPUS",2645 COLLEGE DR.WRC BUILDING,WOODBRIDGE,VA,22191,"http://maps.google.com/maps?q=2645 COLLEGE DR.,+WOODBRIDGE,+VA+22191&hl=en"
NOVA COMMUNITY COLLEGE POLICE DEPARTMENT,"NOVA COMMUNITY COLLEGE - ANNANDALE 
												
													CA BUILDING FRONT ENTRANCE",8333 LITTLE RIVER TURNPIKE,ANNANDALE,VA,22003,"http://maps.google.com/maps?q=8333 LITTLE RIVER TURNPIKE,+ANNANDALE,+VA+22003&hl=en"
OCEAN VIEW POLICE DEPARTMENT,OCEAN VIEW POLICE DEPARTMENT,201 CENTRAL AVENUE,OCEAN VIEW,DE,19970,"http://maps.google.com/maps?q=201 CENTRAL AVENUE,+OCEAN VIEW,+DE+19970&hl=en"
ORANGE (TOWN OF) POLICE DEPARTMENT,"CVS PHARMACY 
												
													FRONT SIDEWALK",308 RADNEY ROAD,ORANGE,VA,22960,"http://maps.google.com/maps?q=308 RADNEY ROAD,+ORANGE,+VA+22960&hl=en"
ORANGE (TOWN OF) POLICE DEPARTMENT,"ORANGE PHARMACY 
												
													FRONT SIDEWALK",130 WEST MAIN STREET,ORANGE,VA,22960,"http://maps.google.com/maps?q=130 WEST MAIN STREET,+ORANGE,+VA+22960&hl=en"
PETERSBURG POLICE DEPARTMENT,CVS PHARMACY,2100 SOUTH CRATER RD,PETERSBURG,VA,23805,"http://maps.google.com/maps?q=2100 SOUTH CRATER RD,+PETERSBURG,+VA+23805&hl=en"
PITTSYLVANIA COUNTY SHERIFF'S OFFICE,"FOOD LION 
												
													PARKING LOT",100 VADEN STREET,GRETNA,VA,24557,"http://maps.google.com/maps?q=100 VADEN STREET,+GRETNA,+VA+24557&hl=en"
POQUOSON POLICE DEPARTMENT,"POQUOSON PHARMACY 
												
													PARKING LOT",498 WYTHE CREEK ROAD,POQUOSON,VA,23662,"http://maps.google.com/maps?q=498 WYTHE CREEK ROAD,+POQUOSON,+VA+23662&hl=en"
PORTSMOUTH POLICE DEPARTMENT,"PORTSMOUTH FIRE STATION #3 
												
													FRONT DOOR",4001 RIVERSHORE ROAD,PORTSMOUTH,VA,23703,"http://maps.google.com/maps?q=4001 RIVERSHORE ROAD,+PORTSMOUTH,+VA+23703&hl=en"
PORTSMOUTH POLICE DEPARTMENT,PORTSMOUTH POLICE DEPARTMENT HEADQUARTERS,801 WATER ST,PORTSMOUTH,VA,23704,"http://maps.google.com/maps?q=801 WATER ST,+PORTSMOUTH,+VA+23704&hl=en"
PORTSMOUTH POLICE DEPARTMENT,"PORTSMOUTH SAFETY TOWN 
												
													OUTSIDE FRONT DOOR",4404 DEEP CREEK BLVD,PORTSMOUTH,VA,23702,"http://maps.google.com/maps?q=4404 DEEP CREEK BLVD,+PORTSMOUTH,+VA+23702&hl=en"
POWHATAN COUNTY SHERIFF'S OFFICE,POWHATAN COUNTY COURTHOUSE,3880 OLD BUCKINGHAM ROAD,POWHATAN,VA,23139,"http://maps.google.com/maps?q=3880 OLD BUCKINGHAM ROAD,+POWHATAN,+VA+23139&hl=en"
PRINCE GEORGE COUNTY POLICE,"PRINCE GEORGE COUNTY POLICE DEPARTMENT 
												
													SIDE PARKING LOT",6600 COURTHOUSE ROAD,PRINCE GEORGE,VA,23875,"http://maps.google.com/maps?q=6600 COURTHOUSE ROAD,+PRINCE GEORGE,+VA+23875&hl=en"
PRINCE GEORGE'S COUNTY POLICE DEPARTMENT,"CENTRAL COLLECTION SITE 
												
													DISTRICT III, PGPD",7600 BARLOWE ROAD,PALMER PARK,MD,20785,"http://maps.google.com/maps?q=7600 BARLOWE ROAD,+PALMER PARK,+MD+20785&hl=en"
PRINCE GEORGE'S COUNTY POLICE DEPARTMENT,DISTRICT 4 STATION - OXON HILL,5135 INDIAN HEAD HIGHWAY,OXON HILL,MD,20745,"http://maps.google.com/maps?q=5135 INDIAN HEAD HIGHWAY,+OXON HILL,+MD+20745&hl=en"
PRINCE GEORGE'S COUNTY POLICE DEPARTMENT,"NORTHERN COLLECTION SITE 
												
													DISTRICT I, PGPD",5000 RHODE ISLAND AVENUE,HYATTSVILLE,MD,20784,"http://maps.google.com/maps?q=5000 RHODE ISLAND AVENUE,+HYATTSVILLE,+MD+20784&hl=en"
PRINCE WILLIAM  CO. PD,"NOVANT HEALTH  HAYMARKET MEDICAL CENTER 
												
													FRONT PARKING LOT",15225 HEATHCOTE BLVD,HAYMARKET,VA,20169,"http://maps.google.com/maps?q=15225 HEATHCOTE BLVD,+HAYMARKET,+VA+20169&hl=en"
PRINCE WILLIAM  CO. PD,"SENTARA LAKE RIDGE HOSPITAL 
												
													FRONT PARKING LOT",12825 MINNIEVILLE ROAD,LAKE RIDGE,VA,22192,"http://maps.google.com/maps?q=12825 MINNIEVILLE ROAD,+LAKE RIDGE,+VA+22192&hl=en"
PRINCESS ANNE POLICE DEPARTMENT,PRINCESS ANNE POLICE DEPARTMENT,11780 BECKFORD AVENUE,PRINCESS ANNE,MD,21853,"http://maps.google.com/maps?q=11780 BECKFORD AVENUE,+PRINCESS ANNE,+MD+21853&hl=en"
QUEEN ANNE'S COUNTY SHERIFF'S OFFICE,QUEEN ANNE'S COUNTY SHERIFF'S OFFICE,505 RAILROAD AVENUE,CENTREVILLE,MD,21617,"http://maps.google.com/maps?q=505 RAILROAD AVENUE,+CENTREVILLE,+MD+21617&hl=en"
RALEIGH POLICE DEPARTMENT,FALLS RIVER PHARMACY,10930 RAVEN RIDGE RD,RALEIGH,NC,27614,"http://maps.google.com/maps?q=10930 RAVEN RIDGE RD,+RALEIGH,+NC+27614&hl=en"
RALEIGH POLICE DEPARTMENT,HAYES BARTON PHARMACY,2000 FAIRVIEW RD,RALEIGH,NC,27608,"http://maps.google.com/maps?q=2000 FAIRVIEW RD,+RALEIGH,+NC+27608&hl=en"
RALEIGH POLICE DEPARTMENT,JOSEF'S PHARMACY,2100 NEW BERN AVE,RALEIGH,NC,27610,"http://maps.google.com/maps?q=2100 NEW BERN AVE,+RALEIGH,+NC+27610&hl=en"
RANSON POLICE DEPARTMENT,RANSON POLICE DEPARTMENT,700 N. PRESTON ST,RANSON,WV,25438,"http://maps.google.com/maps?q=700 N. PRESTON ST,+RANSON,+WV+25438&hl=en"
REHOBOTH BEACH POLICE DEPT,REHOBOTH BEACH POLICE DEPT,229 REHOBOTH AVE,REHOBOTH BEACH,DE,19971,"http://maps.google.com/maps?q=229 REHOBOTH AVE,+REHOBOTH BEACH,+DE+19971&hl=en"
ROCKINGHAM COUNTY SHERIFF'S OFFICE,SENTARA RMH FUNKHOUSER WOMEN'S CENTER,2275 HEALTH CAMPUS DRIVE,ROCKINGHAM,VA,22801,"http://maps.google.com/maps?q=2275 HEALTH CAMPUS DRIVE,+ROCKINGHAM,+VA+22801&hl=en"
ROCKVILLE CITY POLICE DEPARTMENT,ROCKVILLE CITY POLICE DEPARTMENT,#2 W. MONTGOMERY AVENUE,ROCKVILLE,MD,20850,"http://maps.google.com/maps?q=#2 W. MONTGOMERY AVENUE,+ROCKVILLE,+MD+20850&hl=en"
SEA ISLE CITY,"SEA ISLE CITY POLICE DEPARTMENT 
												
													1ST FLOOR",233 JOHN F. KENNEDY BLVD.,SEA ISLE CITY,NJ,08243,"http://maps.google.com/maps?q=233 JOHN F. KENNEDY BLVD.,+SEA ISLE CITY,+NJ+08243&hl=en"
SELBYVILLE POLICE DEPT,CVS,36252 LIGHTHOUSE RD,SELBYVILLE,DE,19975,"http://maps.google.com/maps?q=36252 LIGHTHOUSE RD,+SELBYVILLE,+DE+19975&hl=en"
SELBYVILLE POLICE DEPT,SELBYVILLE TOWN HALL,68 W CHURCH ST,SELBYVILLE,DE,19975,"http://maps.google.com/maps?q=68 W CHURCH ST,+SELBYVILLE,+DE+19975&hl=en"
SHENANDOAH COUNTY SHERIFF'S OFFICE,"CVS PHARMACY 
												
													PARKING LOT FACING RESERVOIR RD.",221 WEST RESERVOIR ROAD,WOODSTOCK,VA,22664,"http://maps.google.com/maps?q=221 WEST RESERVOIR ROAD,+WOODSTOCK,+VA+22664&hl=en"
SHEPERDSTOWN POLICE DEPARTMENT,SHEPERDSTOWN POLICE DEPARTMENT,104 N. KING ST.,SHEPHERDSTOWN,WV,25443,"http://maps.google.com/maps?q=104 N. KING ST.,+SHEPHERDSTOWN,+WV+25443&hl=en"
SMYRNA POLICE DEPARTMENT,ATLANTIC APOTHECARY,103 S. DUPONT BLVD.SUITE #2,SMYRNA,DE,19977,"http://maps.google.com/maps?q=103 S. DUPONT BLVD.,+SMYRNA,+DE+19977&hl=en"
SPOTSYLVANIA COUNTY SHERIFF'S OFFICE,"CHANCELLOR VOL. FIRE AND RESCUE 
												
													OLD ENGINE COMPANY 5",5992 PLANK ROAD,FREDERICKSBURG,VA,22407,"http://maps.google.com/maps?q=5992 PLANK ROAD,+FREDERICKSBURG,+VA+22407&hl=en"
SPOTSYLVANIA COUNTY SHERIFF'S OFFICE,"CVS COURTLAND COMMONS 
												
													PARKING LOT",9767 COURTHOUSE ROAD,SPOTSYLVANIA,VA,22553,"http://maps.google.com/maps?q=9767 COURTHOUSE ROAD,+SPOTSYLVANIA,+VA+22553&hl=en"
SPOTSYLVANIA COUNTY SHERIFF'S OFFICE,"MARY WASHINGTON HEALTHCARE 
												
													EMERGENCY AND OUTPATIENT CENTER - LEES HILL",10401 SPOTSYLVANIA AVENUEUNDER THE AWNING,FREDERICKSBURG,VA,22408,"http://maps.google.com/maps?q=10401 SPOTSYLVANIA AVENUE,+FREDERICKSBURG,+VA+22408&hl=en"
SPOTSYLVANIA COUNTY SHERIFF'S OFFICE,"SPOTSYLVANIA REGIONAL MEDICAL CENTER 
												
													UNDER MAIN ENTRANCE AWNING",4600 SPOTSYLVANIA PARKWAY,FREDERICKSBURG,VA,22408,"http://maps.google.com/maps?q=4600 SPOTSYLVANIA PARKWAY,+FREDERICKSBURG,+VA+22408&hl=en"
ST. MARY'S COUNTY SHERIFF'S OFFICE,ST. MARY'S COUNTY SHERIFF'S OFFICE HQ,23150 LEONARD HALL DRIVE,LEONARDTOWN,MD,20650,"http://maps.google.com/maps?q=23150 LEONARD HALL DRIVE,+LEONARDTOWN,+MD+20650&hl=en"
ST. MARY'S COUNTY SHERIFF'S OFFICE,"ST. MARY'S SHERIFF'S OFFICE 
												
													DISTRICT ONE STATION",37575 CHARLOTTE HALL SCHOOL ROAD,CHARLOTTE HALL,MD,20622,"http://maps.google.com/maps?q=37575 CHARLOTTE HALL SCHOOL ROAD,+CHARLOTTE HALL,+MD+20622&hl=en"
ST. MARY'S COUNTY SHERIFF'S OFFICE,ST. MARY'S SQUARE,21600 GREAT MILLS ROAD,LEXINGTON PARK,MD,20653,"http://maps.google.com/maps?q=21600 GREAT MILLS ROAD,+LEXINGTON PARK,+MD+20653&hl=en"
STAFFORD COUNTY SHERIFF'S OFFICE,"STAFFORD HOSPITAL CENTER 
												
													SOUTH SIDE OF HOSPITAL NEAR ER",101 HOSPITAL CENTER BLVD,STAFFORD,VA,22554,"http://maps.google.com/maps?q=101 HOSPITAL CENTER BLVD,+STAFFORD,+VA+22554&hl=en"
STAUNTON POLICE DEPARTMENT,"AUGUSTA HEALTH STAUNTON URGENT CARE 
												
													FISHER AUTO PARKING LEFT OF URGENT CARE BUILDING",795 STATLER BLVD,STAUNTON,VA,24401,"http://maps.google.com/maps?q=795 STATLER BLVD,+STAUNTON,+VA+24401&hl=en"
STRASBURG POLICE DEPARTMENT,"STRASBURG TOWN HALL 
												
													SIDE PARKING LOT",174 EAST KING STREET,STRASBURG,VA,22657,"http://maps.google.com/maps?q=174 EAST KING STREET,+STRASBURG,+VA+22657&hl=en"
SURRY COUNTY SHERIFF'S OFFICE,SURRY COUNTY  CIRCUIT COURT HOUSE PARKING LOT,28 COLONIAL TRAIL EAST,SURRY,VA,23883,"http://maps.google.com/maps?q=28 COLONIAL TRAIL EAST,+SURRY,+VA+23883&hl=en"
TAKOMA PARK POLICE DEPARTMENT,"TAKOMA PARK POLICE DEPARTMENT 
												
													LOBBY",7500 MAPLE AVENUE,TAKOMA PARK,MD,20912,"http://maps.google.com/maps?q=7500 MAPLE AVENUE,+TAKOMA PARK,+MD+20912&hl=en"
TAPPAHANNOCK PD / ESSEX COUNTY SO,"WAL-MART PARKING LOT 
												
													OUTSIDE BETWEEN TWO ENTRANCES",1660 TAPPAHANNOCK BLVD,TAPPAHANNOCK,VA,22560,"http://maps.google.com/maps?q=1660 TAPPAHANNOCK BLVD,+TAPPAHANNOCK,+VA+22560&hl=en"
TOWNSHIP OF LOWER,"ACME MARKETS 
												
													BAYSHORE MALL",3845 BAYSHORE RD.,NORTH CAPE MAY,NJ,08204,"http://maps.google.com/maps?q=3845 BAYSHORE RD.,+NORTH CAPE MAY,+NJ+08204&hl=en"
UNIVERSITY OF MD POLICE DEPT OF PUBLIC SAFETY,UNIVERSITY OF MD POLICE DEPT OF PUBLIC SAFETY,7569 BALTIMORE AVENUE,COLLEGE PARK,MD,20742,"http://maps.google.com/maps?q=7569 BALTIMORE AVENUE,+COLLEGE PARK,+MD+20742&hl=en"
VIENNA POLICE DEPARTMENT,VIENNA POLICE DEPARTMENT,215 CENTER STREET SOUTH,VIENNA,VA,22180,"http://maps.google.com/maps?q=215 CENTER STREET SOUTH,+VIENNA,+VA+22180&hl=en"
VIRGINIA STATE POLICE,"VIRGINIA STATE POLICE - AREA 47 STATION 
												
													POC: SGT ANDREA FISCHER",1557 S. MILITARY HIGHWAY,CHESAPEAKE,VA,23320,"http://maps.google.com/maps?q=1557 S. MILITARY HIGHWAY,+CHESAPEAKE,+VA+23320&hl=en"
VIRGINIA STATE POLICE,"VIRGINIA STATE POLICE DIVISION I HQS 
												
													POC: SGT MELANIE MCKENNEY",9300 BROOK ROAD,GLEN ALLEN,VA,23060,"http://maps.google.com/maps?q=9300 BROOK ROAD,+GLEN ALLEN,+VA+23060&hl=en"
VIRGINIA STATE POLICE,"VIRGINIA STATE POLICE DIVISION II HQS 
												
													POC: LT. JEFFREY LANE",15148 STATE POLICE ROAD,CULPEPER,VA,22701,"http://maps.google.com/maps?q=15148 STATE POLICE ROAD,+CULPEPER,+VA+22701&hl=en"
VIRGINIA STATE POLICE,"VIRGINIA STATE POLICE DIVISION III HQS 
												
													POC: SGT DREW MCCORMICK",240 THIRD DIVISION LOOP,APPOMATTOX,VA,24522,"http://maps.google.com/maps?q=240 THIRD DIVISION LOOP,+APPOMATTOX,+VA+24522&hl=en"
VIRGINIA STATE POLICE,"VIRGINIA STATE POLICE DIVISION VII HQS 
												
													POC: SGT BILL JOYNER",4977 ALLIANCE DRIVE,FAIRFAX,VA,22030,"http://maps.google.com/maps?q=4977 ALLIANCE DRIVE,+FAIRFAX,+VA+22030&hl=en"
WARREN COUNTY SHERIFF'S OFFICE,VALLEY HEALTH REHABILITATION SERVICES,120 NORTH COMMERCE AVE,FRONT ROYAL,VA,22630,"http://maps.google.com/maps?q=120 NORTH COMMERCE AVE,+FRONT ROYAL,+VA+22630&hl=en"
WASHINGTON METROPOLITAN POLICE DEPT,FIFTH POLICE DISTRICT,"1805 BLADENSBURG ROAD, NE",WASHINGTON,DC,20002,"http://maps.google.com/maps?q=1805 BLADENSBURG ROAD, NE,+WASHINGTON,+DC+20002&hl=en"
WASHINGTON METROPOLITAN POLICE DEPT,FIRST POLICE DISTRICT,"101 M STREET, SW",WASHINGTON,DC,20024,"http://maps.google.com/maps?q=101 M STREET, SW,+WASHINGTON,+DC+20024&hl=en"
WASHINGTON METROPOLITAN POLICE DEPT,FOURTH POLICE DISTRICT,"6001 GEORGIA AVENUE, NW",WASHINGTON,DC,20011,"http://maps.google.com/maps?q=6001 GEORGIA AVENUE, NW,+WASHINGTON,+DC+20011&hl=en"
WASHINGTON METROPOLITAN POLICE DEPT,SECOND POLICE DISTRICT,"3320 IDAHO AVENUE, NW",WASHINGTON,DC,20016,"http://maps.google.com/maps?q=3320 IDAHO AVENUE, NW,+WASHINGTON,+DC+20016&hl=en"
WASHINGTON METROPOLITAN POLICE DEPT,SEVENTH POLICE DISTRICT,"2455 ALABAMA AVENUE, SE",WASHINGTON,DC,20020,"http://maps.google.com/maps?q=2455 ALABAMA AVENUE, SE,+WASHINGTON,+DC+20020&hl=en"
WASHINGTON METROPOLITAN POLICE DEPT,SIXTH POLICE DISTRICT,5002 HAYES STREET NE,WASHINGTON,DC,20019,"http://maps.google.com/maps?q=5002 HAYES STREET NE,+WASHINGTON,+DC+20019&hl=en"
WASHINGTON METROPOLITAN POLICE DEPT,THIRD POLICE DISTRIST,"1620 V STREET, NW",WASHINGTON,DC,20009,"http://maps.google.com/maps?q=1620 V STREET, NW,+WASHINGTON,+DC+20009&hl=en"
WASHINGTON SUBURBAN SANITARY COMMISSION,WSSC POLICE DEPARTMENT,14501 SWEITZER LANE,LAUREL,MD,20707,"http://maps.google.com/maps?q=14501 SWEITZER LANE,+LAUREL,+MD+20707&hl=en"
WAYNESBORO POLICE DEPARTMENT,"NEIGHBORHOOD MARKET 
												
													PARKING LOT",1211 WEST BROAD STREET,WAYNESBORO,VA,22980,"http://maps.google.com/maps?q=1211 WEST BROAD STREET,+WAYNESBORO,+VA+22980&hl=en"
WEST VIRGINIA STATE POLICE,"WVSP-CHARLES TOWN 
												
													SGT J.S. CHUMLEY/304-725-9779",409 INDUSTRIAL BLVD.,KEARNEYSVILLE,WV,25430,"http://maps.google.com/maps?q=409 INDUSTRIAL BLVD.,+KEARNEYSVILLE,+WV+25430&hl=en"
WEST VIRGINIA STATE POLICE,"WVSP-MARTINSBURG 
												
													SGT M.A. COLE/3042670001",14 TROOPER DR,MARTINSBURG,WV,25404,"http://maps.google.com/maps?q=14 TROOPER DR,+MARTINSBURG,+WV+25404&hl=en"
WILDWOOD CREST POLICE DEPT.,WILDWOOD CREST POLICE DEPT.,6101 PACIFIC AVE.,WILDWOOD CREST,NJ,08260,"http://maps.google.com/maps?q=6101 PACIFIC AVE.,+WILDWOOD CREST,+NJ+08260&hl=en"
WILLIAMSBURG POLICE DEPARTMENT,WILLIAMSBURG FIRE DEPARTMENT,WILLIAMSBURG FIRE DEPARTMENT440 N BOUNDARY STREET,WILLIAMSBURG,VA,23185,"http://maps.google.com/maps?q=WILLIAMSBURG FIRE DEPARTMENT,+WILLIAMSBURG,+VA+23185&hl=en"
WINCHESTER CITY SHERIFF'S OFFICE,COURTHOUSE,5 NORTH KENT ST,WINCHESTER,VA,22601,"http://maps.google.com/maps?q=5 NORTH KENT ST,+WINCHESTER,+VA+22601&hl=en"
WINCHESTER CITY SHERIFF'S OFFICE,CVS PHARMACY,840 BERRYVILLE AV,WINCHESTER,VA,22601,"http://maps.google.com/maps?q=840 BERRYVILLE AV,+WINCHESTER,+VA+22601&hl=en"
WINCHESTER CITY SHERIFF'S OFFICE,ROTZ PHARMACY,1338 AMHERST ST,WINCHESTER,VA,22601,"http://maps.google.com/maps?q=1338 AMHERST ST,+WINCHESTER,+VA+22601&hl=en"
WOODSTOCK POLICE DEPARTMENT,"WALMART 
												
													NEAR FRONT ENTRANCE",461 W. RESERVOIR RD,WOODSTOCK,VA,22664,"http://maps.google.com/maps?q=461 W. RESERVOIR RD,+WOODSTOCK,+VA+22664&hl=en"
YORK-POQUOSON SHERIFF'S OFFICE,"YORK-POQUOSON SHERIFF'S OFFICE 
												
													D.A.R.E. OFFICE NEXT TO SUBWAY",5338-D GEORGE WASHINGTON MEMORIAL HWY,YORKTOWN,VA,23692,"http://maps.google.com/maps?q=5338-D GEORGE WASHINGTON MEMORIAL HWY,+YORKTOWN,+VA+23692&hl=en"
