Participant,CollectionSite,Address,City,State,Zip,MapURL
ADAMS COUNTY SHERIFF'S OFFICE,ADAMS COUNTY SHERIFF'S OFFICE,301 ADAMS STREET,FRIENDSHIP,WI,53934,"http://maps.google.com/maps?q=301 ADAMS STREET,+FRIENDSHIP,+WI+53934&hl=en"
ADAMS POLICE DEPARTMENT,"ADAMS POLICE DEPARTMENT 
												
													DROP BOX ONLY M-F 8:00AM-4:30PM",105 N MAIN STREET,ADAMS,WI,53910,"http://maps.google.com/maps?q=105 N MAIN STREET,+ADAMS,+WI+53910&hl=en"
ALTOONA POLICE DEPARTMENT,"ALTOONA POLICE DEPARTMENT 
												
													EVENT 8:00AM-8:00PM",1904 SPOONER AVE,ALTOONA,WI,54720,"http://maps.google.com/maps?q=1904 SPOONER AVE,+ALTOONA,+WI+54720&hl=en"
ANTIGO POLICE DEPARTMENT,"ANTIGO POLICE DEPARTMENT 
												
													EVENT 8:00 AM TO 5:00 PM",840 CLERMONT ST,ANTIGO,WI,54409,"http://maps.google.com/maps?q=840 CLERMONT ST,+ANTIGO,+WI+54409&hl=en"
APPLETON POLICE DEPARTMENT,APPLETON POLICE DEPARTMENT,222 S. WALNUT STREET,APPLETON,WI,54911,"http://maps.google.com/maps?q=222 S. WALNUT STREET,+APPLETON,+WI+54911&hl=en"
ASHLAND COUNTY SHERIFF'S OFFICE,"ASHLAND COUNTY SHERIFF'S OFFICE 
												
													DROP BOX ONLY 24/7",220 6TH STREET E,ASHLAND,WI,54806,"http://maps.google.com/maps?q=220 6TH STREET E,+ASHLAND,+WI+54806&hl=en"
ASHLAND POLICE DEPARTMENT,ASHLAND POLICE DEPARATMENT,601 W MAIN STREET,ASHLAND,WI,54806,"http://maps.google.com/maps?q=601 W MAIN STREET,+ASHLAND,+WI+54806&hl=en"
ASHWAUBENON POLICE DEPARTMENT,ASHWAUBENON PUBLIC SAFETY BUILDING,2155 HOLMGREN WAY,ASHWAUBENON,WI,54304,"http://maps.google.com/maps?q=2155 HOLMGREN WAY,+ASHWAUBENON,+WI+54304&hl=en"
BALDWIN POLICE DEPARTMENT,"BALDWIN POLICE DEPARTMENT 
												
													DROP BOX ONLY M-F, 8:00AM - 4:30PM",400 CEDAR STREET,BALDWIN,WI,54002,"http://maps.google.com/maps?q=400 CEDAR STREET,+BALDWIN,+WI+54002&hl=en"
BARABOO POLICE DEPARTMENT,"BARABOO POLICE DEPARTMENT 
												
													BOX M-F 7:30AM-4:30PM",135 4TH ST,BARABOO,WI,53913,"http://maps.google.com/maps?q=135 4TH ST,+BARABOO,+WI+53913&hl=en"
BARAGA COUNTY SHERIFF'S OFFICE,BARAGA COUNTY SHERIFF'S OFFICE,940 HIGHWAY US 41,LANSE,MI,49946,"http://maps.google.com/maps?q=940 HIGHWAY US 41,+LANSE,+MI+49946&hl=en"
BAYFIELD POLICE DEPARTMENT,"BAYFIELD POLICE DEPARTMENT 
												
													DROP BOX M-F 8:00AM-4:00PM",125 S FIRST STREET,BAYFIELD,WI,54814,"http://maps.google.com/maps?q=125 S FIRST STREET,+BAYFIELD,+WI+54814&hl=en"
BEAVER DAM POLICE DEPARTMENT,BEAVER DAM POLICE DEPARTMENT,123 PARK AVENUE,BEAVER DAM,WI,53916,"http://maps.google.com/maps?q=123 PARK AVENUE,+BEAVER DAM,+WI+53916&hl=en"
BELLEVILLE POLICE DEPARTMENT,"BELLEVILLE POLICE DEPARTMENT 
												
													EVENT 10:00AM-2:00PM",121 FIFTH AVE,BELLEVILLE,WI,53508,"http://maps.google.com/maps?q=121 FIFTH AVE,+BELLEVILLE,+WI+53508&hl=en"
BERLIN POLICE DEPARTMENT,"BERLIN POLICE DEPARTMENT 
												
													DROP BOX ONLY M-F 7:30 AM-4:30 PM",108 N. CAPRON STREET,BERLIN,WI,54923,"http://maps.google.com/maps?q=108 N. CAPRON STREET,+BERLIN,+WI+54923&hl=en"
BIRCHWOOD POLICE DEPARTMENT,"BIRCHWOOD VILLAGE HALL 
												
													BOX ONLY M-T 8:00AM-5:00PM",101 N MAIN ST,BIRCHWOOD,WI,54817,"http://maps.google.com/maps?q=101 N MAIN ST,+BIRCHWOOD,+WI+54817&hl=en"
BLACK RIVER FALLS POLICE DEPARTMENT,"THEISEN'S PARKING LOT 
												
													EVENT 10:00AM-2:00PM",616 E HWY 54,BLACK RIVER FALLS,WI,54615,"http://maps.google.com/maps?q=616 E HWY 54,+BLACK RIVER FALLS,+WI+54615&hl=en"
BLAIR POLICE DEPARTMENT,"BLAIR POLICE DEPARTMENT 
												
													BOX M-F 7:30AM-4:00PM",122 S. URBERG AVE,BLAIR,WI,54616,"http://maps.google.com/maps?q=122 S. URBERG AVE,+BLAIR,+WI+54616&hl=en"
BLOOMER POLICE DEPARTMENT,"BLOOMER POLICE DEPARTMENT 
												
													DROP BOX ONLY 24/7",1200 5TH AVE,BLOOMER,WI,54724,"http://maps.google.com/maps?q=1200 5TH AVE,+BLOOMER,+WI+54724&hl=en"
BLUE MOUNDS POLICE DEPARTMENT,"BLUE MOUNDS POLICE DEPARTMENT 
												
													EVENT 9:00AM-4:00PM",11011 BRIGHAM AVE,BLUE MOUNDS,WI,53517,"http://maps.google.com/maps?q=11011 BRIGHAM AVE,+BLUE MOUNDS,+WI+53517&hl=en"
BOSCOBEL POLICE DEPARTMENT,"BOSCOBEL POLICE DEPARTMENT 
												
													DROP BOX ONLY 7:00 AM - 4:00 PM",1006 WISCONSIN AVE,BOSCOBEL,WI,53805,"http://maps.google.com/maps?q=1006 WISCONSIN AVE,+BOSCOBEL,+WI+53805&hl=en"
BOYCEVILLE POLICE DEPARTMENT,"BOYCEVILLE COMMUNITY DISTRICT 
												
													EVENT 10:00AM-2:00PM",1233 CHARLOTTE STREET,BOYCEVILLE,WI,54725,"http://maps.google.com/maps?q=1233 CHARLOTTE STREET,+BOYCEVILLE,+WI+54725&hl=en"
BRILLION POLICE DEPARTMENT,BRILLION POLICE DEPARTMENT,130 CALUMENT ST,BRILLION,WI,54110,"http://maps.google.com/maps?q=130 CALUMENT ST,+BRILLION,+WI+54110&hl=en"
BROWN COUNTY SHERIFF'S OFFICE,"ALLOUEZ VILLAGE HALL 
												
													EVENT 10:00 AM - 2:00 PM",1900 LIBAL STREET,GREEN BAY,WI,54301,"http://maps.google.com/maps?q=1900 LIBAL STREET,+GREEN BAY,+WI+54301&hl=en"
BROWN COUNTY SHERIFF'S OFFICE,"BELLEVUE VILLAGE HALL 
												
													EVENT 10:00 AM - 2:00 PM",3100 EATON ROAD,GREEN BAY,WI,54311,"http://maps.google.com/maps?q=3100 EATON ROAD,+GREEN BAY,+WI+54311&hl=en"
BROWN COUNTY SHERIFF'S OFFICE,"DENMARK VILLAGE HALL 
												
													EVENT 10:00 AM - 2:00 PM",118 EAST MAIN STREET,DENMARK,WI,54208,"http://maps.google.com/maps?q=118 EAST MAIN STREET,+DENMARK,+WI+54208&hl=en"
BROWN COUNTY SHERIFF'S OFFICE,"SUAMICO MUNICIPAL SERVICE CENTER 
												
													EVENT 10:00 AM - 2:00 PM",12781 VELP AVE,SUAMICO,WI,54313,"http://maps.google.com/maps?q=12781 VELP AVE,+SUAMICO,+WI+54313&hl=en"
BUFFALO COUNTY SHERIFF'S OFFICE,"BUFFALO COUNTY SHERIFF'S OFFICE 
												
													BOX AT SO M-F 8:00-4:30PM",407 S 2ND STREET,ALMA,WI,54610,"http://maps.google.com/maps?q=407 S 2ND STREET,+ALMA,+WI+54610&hl=en"
BURNETT COUNTY SHERIFF'S OFFICE,"BURNETT COUNTY SHERIFF'S OFFICE 
												
													BOX 24/7",7410 COUNTY ROAD K,SIREN,WI,54872,"http://maps.google.com/maps?q=7410 COUNTY ROAD K,+SIREN,+WI+54872&hl=en"
CADOTT POLICE DEPARTMENT,"CADOTT POLICE DEPARTMENT 
												
													EVENT 7:00AM-11:00PM",110 CENTRAL STREET,CADOTT,WI,54727,"http://maps.google.com/maps?q=110 CENTRAL STREET,+CADOTT,+WI+54727&hl=en"
CALUMET COUNTY SHERIFF'S OFFICE,"CALUMET COUNTY SHERIFF'S OFFICE 
												
													DROP BOX ONLY 24/7",206 COURT STREET,CHILTON,WI,53014,"http://maps.google.com/maps?q=206 COURT STREET,+CHILTON,+WI+53014&hl=en"
CAMPBELL POLICE DEPARTMENT,"CAMPBELL POLICE DEPARTMENT 
												
													EVENT 10:00AM-2:00PM",2219 BAINBRIDGE ST,LA CROSSE,WI,54603,"http://maps.google.com/maps?q=2219 BAINBRIDGE ST,+LA CROSSE,+WI+54603&hl=en"
CARLTON COUNTY SO,"CARLTON COUNTY SHERIFF'S OFFICE 
												
													MAIN FLOOR LOBBY",317 WALNUT AVENUE,CARLTON,MN,55718,"http://maps.google.com/maps?q=317 WALNUT AVENUE,+CARLTON,+MN+55718&hl=en"
CARLTON COUNTY SO,"CLOQUET POLICE DEPARTMENT 
												
													MAIN LOBBY",508 CLOQUET AVENUE,CLOQUET,MN,55720,"http://maps.google.com/maps?q=508 CLOQUET AVENUE,+CLOQUET,+MN+55720&hl=en"
CARLTON COUNTY SO,"FON DU LAC POLICE DEPARTMENT 
												
													MAIN LOBBY",930 TRETTEL LANE,CLOQUET,MN,55720,"http://maps.google.com/maps?q=930 TRETTEL LANE,+CLOQUET,+MN+55720&hl=en"
CARLTON COUNTY SO,"MOOSE LAKE POLICE DEPARTMENT 
												
													MAIN LOBBY",600 HIGHWAY 73,MOOSE LAKE,MN,55767,"http://maps.google.com/maps?q=600 HIGHWAY 73,+MOOSE LAKE,+MN+55767&hl=en"
CARLTON COUNTY SO,"THOMSON TOWNSHIP TOWN HALL 
												
													MAIN LOBBY",25 EAST HARNEY ROAD,ESKO,MN,55733,"http://maps.google.com/maps?q=25 EAST HARNEY ROAD,+ESKO,+MN+55733&hl=en"
CHIPPEWA COUNTY SHERIFF'S OFFICE,"CHIPPEWA COUNTY SHERIFF'S OFFICE 
												
													DROP BOX ONLY 24/7",32 E SPRUCE STREET,CHIPPEWA FALLS,WI,54729,"http://maps.google.com/maps?q=32 E SPRUCE STREET,+CHIPPEWA FALLS,+WI+54729&hl=en"
CHIPPEWA FALLS POLICE DEPARTMENT,"CHIPPEWA FALLS POLICE DEPARTMENT 
												
													DROP BOX ONLY M-F 7:30 AM TO 4:00 PM",210 ISLAND STREET,CHIPPEWA FALLS,WI,54729,"http://maps.google.com/maps?q=210 ISLAND STREET,+CHIPPEWA FALLS,+WI+54729&hl=en"
CHOCOLAY POLICE DEPARTMENT,CHOCOLAY POLICE DEPARTMENT,5010 US 41 SOUTH,MARQUETTE,MI,49855,"http://maps.google.com/maps?q=5010 US 41 SOUTH,+MARQUETTE,+MI+49855&hl=en"
CITY OF GILLETT POLICE DEPARTMENT,"GILLETT POLICE DEPARTMENT 
												
													DROP BOX ONLY M-TH 7:00AM-4:00PM",150 N. MCKENZIE AVE,GILLETT,WI,54124,"http://maps.google.com/maps?q=150 N. MCKENZIE AVE,+GILLETT,+WI+54124&hl=en"
CITY OF LODI POLICE DEPARTMENT,"CITY OF LODI POLICE DEPARTMENT 
												
													EVENT 7:00AM - 4:00PM",142 S MAIN ST,LODI,WI,53555,"http://maps.google.com/maps?q=142 S MAIN ST,+LODI,+WI+53555&hl=en"
CLARK COUNTY SHERIFF'S OFFICE,"CLARK COUNTY SHERIFF'S OFFICE 
												
													DROP BOX ONLY 24/7",517 COURT ST,NEILLSVILLE,WI,54456,"http://maps.google.com/maps?q=517 COURT ST,+NEILLSVILLE,+WI+54456&hl=en"
CLINTONVILLE POLICE DEPARTMENT,"CLINTONVILLE POLICE DEPARTMENT 
												
													DROP BOX ONLY 24/7",35 S CLINTON AVE,CLINTONVILLE,WI,54929,"http://maps.google.com/maps?q=35 S CLINTON AVE,+CLINTONVILLE,+WI+54929&hl=en"
COLUMBUS POLICE DEPARTMENT,"COLUMBUS FIREMAN'S PARK PAVAILLION 
												
													EVENT 10:00AM-2:00PM",1049 PARK AVE,COLUMBUS,WI,53925,"http://maps.google.com/maps?q=1049 PARK AVE,+COLUMBUS,+WI+53925&hl=en"
CORNELL POLICE DEPARTMENT,"CORNELL POLICE DEPARTMENT 
												
													DROP BOX ONLY M-F 8:00 AM - 12:00 PM",221 MAIN STREET,CORNELL,WI,54732,"http://maps.google.com/maps?q=221 MAIN STREET,+CORNELL,+WI+54732&hl=en"
CROSS PLAINS POLICE DEPARTMENT,"CROSS PLAINS POLICE DEPARTMENT 
												
													EVENT 7:00 AM TO 10:00 AM",2417 BREWERY RD,CROSS PLAINS,WI,53528,"http://maps.google.com/maps?q=2417 BREWERY RD,+CROSS PLAINS,+WI+53528&hl=en"
DANE COUNTY SHERIFF'S OFFICE,DANE COUNTY SHERIFF'S OFFICE,115 W DOTY STREET,MADISON,WI,53703,"http://maps.google.com/maps?q=115 W DOTY STREET,+MADISON,+WI+53703&hl=en"
DE PERE POLICE DEPARTMENT,"DE PERE POLICE DEPARTMENT 
												
													DROP BOX M-F 8:00 AM-4:30 PM",325 S BROADWAY ST,DE PERE,WI,54115,"http://maps.google.com/maps?q=325 S BROADWAY ST,+DE PERE,+WI+54115&hl=en"
DEFOREST POLICE DEPARTMENT,"DEFOREST POLICE DEPARTMENT 
												
													EVENT 10:00 AM - 2:00 PM",305 E HOLUM ST,DEFOREST,WI,53532,"http://maps.google.com/maps?q=305 E HOLUM ST,+DEFOREST,+WI+53532&hl=en"
DODGE COUNTY SHERIFF'S DEPT,"DODGE COUNTY SHERIFF'S OFFICE 
												
													DROP BOX ONLY 24/7",124 WEST ST,JUNEAU,WI,53039,"http://maps.google.com/maps?q=124 WEST ST,+JUNEAU,+WI+53039&hl=en"
DULUTH PD,DULUTH PD,2030 N ARLINGTON AVENUE,DULUTH,MN,55811,"http://maps.google.com/maps?q=2030 N ARLINGTON AVENUE,+DULUTH,+MN+55811&hl=en"
DUNN COUNTY SHERIFF'S OFFICE,"DUNN COUNTY SHERIFF'S OFFICE 
												
													DROP BOX ONLY M-F 8:00 AM TO 4:30 PM",615 STOKKE PKWY STE G300,MENOMONIE,WI,54751,"http://maps.google.com/maps?q=615 STOKKE PKWY STE G300,+MENOMONIE,+WI+54751&hl=en"
EAGLE RIVER POLICE DEPARTMENT,"EAGLE RIVER POLICE DEPARTMENT 
												
													DROP BOX ONLY M-F 8:00AM-4:30PM",525 E MAPLE ST,EAGLE RIVER,WI,54521,"http://maps.google.com/maps?q=525 E MAPLE ST,+EAGLE RIVER,+WI+54521&hl=en"
EAU CLAIRE COUNTY SHERIFF'S OFFICE,"MARSHFIELD CLINIC-EAU CLAIRE CENTER 
												
													EVENT 10:00AM-2:00PM",2216 CRAIG ROAD,EAU CLAIRE,WI,54701,"http://maps.google.com/maps?q=2216 CRAIG ROAD,+EAU CLAIRE,+WI+54701&hl=en"
EDGAR POLICE DEPARTMENT,"EDGAR POLICE DEPARTMENT 
												
													EVENT 8:00AM-11:00AM",224 S. THIRD AVE,EDGAR,WI,54426,"http://maps.google.com/maps?q=224 S. THIRD AVE,+EDGAR,+WI+54426&hl=en"
ELROY POLICE DEPARTMENT,"ELROY POLICE DEPARTMENT 
												
													EVENT 9:00AM-1:00PM",1717 OMAHA STREET,ELROY,WI,53929,"http://maps.google.com/maps?q=1717 OMAHA STREET,+ELROY,+WI+53929&hl=en"
ENDEAVOR POLICE DEPARTMENT,"ENDEAVOR POLICE DEPARTMENT 
												
													DROP BOX M-F 8:00AM-6:00PM SAT 11:00AM-1:00PM",400 CHURCH STREET,ENDEAVOR,WI,53930,"http://maps.google.com/maps?q=400 CHURCH STREET,+ENDEAVOR,+WI+53930&hl=en"
ESCANABA DEPARTMENT OF PUBLIC SAFETY,ESCANABA DEPARTMENT OF PUBLIC SAFETY,1900 THIRD AVENUE N,ESCANABA,MI,49829,"http://maps.google.com/maps?q=1900 THIRD AVENUE N,+ESCANABA,+MI+49829&hl=en"
EVELETH PD,EVELETH POLICE DEPARTMENT,413 PIERCE STREET,EVELETH,MN,55734,"http://maps.google.com/maps?q=413 PIERCE STREET,+EVELETH,+MN+55734&hl=en"
EVEREST METRO POLICE DEPARTMENT,"EVEREST METRO POLICE DEPARTMENT 
												
													DROP BOX M-F 8:00 AM - 5:00 PM",5303 MESKER ST,WESTON,WI,54476,"http://maps.google.com/maps?q=5303 MESKER ST,+WESTON,+WI+54476&hl=en"
FENNIMORE POLICE DEPARTMENT,"FENNIMORE MUNICIPAL BUILDING 
												
													DROP BOX M-F 8:30AM-4:30PM",860 LINCOLN AVE,FENNIMORE,WI,53809,"http://maps.google.com/maps?q=860 LINCOLN AVE,+FENNIMORE,+WI+53809&hl=en"
FILLMORE COUNTY SO,MABEL CITY HALL,201 SOUTH MAIN STREET,MABEL,MN,55954,"http://maps.google.com/maps?q=201 SOUTH MAIN STREET,+MABEL,+MN+55954&hl=en"
FILLMORE COUNTY SO,RUSHFORD POLICE DEPARTMENT,405 ELM STREET SOUTH,RUSHFORD,MN,55971,"http://maps.google.com/maps?q=405 ELM STREET SOUTH,+RUSHFORD,+MN+55971&hl=en"
FITCHBURG POLICE DEPARTMENT,"FITCHBURG POLICE DEPARTMENT 
												
													DROP BOX M-F 7:30 AM TO 4:30 PM",5520 LACY ROAD,MADISON,WI,53711,"http://maps.google.com/maps?q=5520 LACY ROAD,+MADISON,+WI+53711&hl=en"
FOND DU LAC POLICE DEPARTMENT,"FOND DU LAC POLICE DEPARTMENT 
												
													DROP BOX M-F 8:00 AM - 4:00 PM",126 N MAIN ST,FOND DU LAC,WI,54935,"http://maps.google.com/maps?q=126 N MAIN ST,+FOND DU LAC,+WI+54935&hl=en"
FOREST COUNTY SHERIFF'S OFFICE,"FOREST COUNTY SHERIFF'S OFFICE 
												
													EVENT 10:00AM-2:00PM",100 S. PARK,CRANDON,WI,54520,"http://maps.google.com/maps?q=100 S. PARK,+CRANDON,+WI+54520&hl=en"
FORSYTH TOWNSHIP POLICE DEPARTMENT,FORSYTH TOWNSHIP POLICE DEPARTMENT,99 NORTH PINE STREET,GWINN,MI,49841,"http://maps.google.com/maps?q=99 NORTH PINE STREET,+GWINN,+MI+49841&hl=en"
FOX LAKE POLICE DEPARTMENT,"FOX LAKE POLICE DEPARTMENT 
												
													EVENT 10:00AM-2:00PM",248 E STATE ST,FOX LAKE,WI,53933,"http://maps.google.com/maps?q=248 E STATE ST,+FOX LAKE,+WI+53933&hl=en"
FOX VALLEY METRO POLICE DEPARTMENT,"KIMBERLY VILLAGE HALL 
												
													EVENT 11:00AM-2:00PM",515 W KIMBERLY AVE,KIMBERLY,WI,54136,"http://maps.google.com/maps?q=515 W KIMBERLY AVE,+KIMBERLY,+WI+54136&hl=en"
FREEDOM POLICE DEPARTMENT,"FREEDOM TOWN HALL 
												
													EVENT 11:00 AM TO 6:00 PM",W2004 CNTY RD S,FREEDOM,WI,54131,"http://maps.google.com/maps?q=W2004 CNTY RD S,+FREEDOM,+WI+54131&hl=en"
GALESVILLE POLICE DEPARTMENT,"GALESVILLE LTC PHARMACY 
												
													EVENT 8:00AM-12:00PM",16811 S MAIN STREET,GALESVILLE,WI,54630,"http://maps.google.com/maps?q=16811 S MAIN STREET,+GALESVILLE,+WI+54630&hl=en"
GRAND CHUTE POLICE DEPARTMENT,"GRAND CHUTE POLICE DEPARTMENT 
												
													DROP BOX EVENT 11:00 AM - 1:00 PM",1900 W GRAND CHUTE BLVD,GRAND CHUTE,WI,54913,"http://maps.google.com/maps?q=1900 W GRAND CHUTE BLVD,+GRAND CHUTE,+WI+54913&hl=en"
GRAND RAPIDS POLICE DEPARTMENT,"GRAND RAPIDS POLICE DEPARTMENT 
												
													DROP BOX M-TH 8:00 AM - 4:30 PM F 8:00 AM - NOON",2410 48TH ST,WISCONSIN RAPIDS,WI,54494,"http://maps.google.com/maps?q=2410 48TH ST,+WISCONSIN RAPIDS,+WI+54494&hl=en"
GREEN BAY POLICE DEPARTMENT,"ST MARY'S HOSPITAL 
												
													EVENT 10:00AM-1:00PM",1726 SHAWANO AVE,GREEN BAY,WI,54303,"http://maps.google.com/maps?q=1726 SHAWANO AVE,+GREEN BAY,+WI+54303&hl=en"
GREEN LAKE COUNTY SHERIFF'S OFFICE,"GREEN LAKE COUNTY SHERIFF'S OFFICE 
												
													DROP BOX ONLY 24/7",571 COUNTY RD A,GREEN LAKE,WI,54941,"http://maps.google.com/maps?q=571 COUNTY RD A,+GREEN LAKE,+WI+54941&hl=en"
HAMMOND POLICE DEPARTMENT,"HAMMOND POLICE DEPARTMENT 
												
													DROP BOX M-F 8:00AM-4:30PM",455 DAVIS STREET,HAMMOND,WI,54015,"http://maps.google.com/maps?q=455 DAVIS STREET,+HAMMOND,+WI+54015&hl=en"
HANNAHVILLE TRIBAL POLICE DEPARTMENT,"HANNAHVILLE TRIBAL POLICE DEPARTMENT 
												
													LOCATED BEHIND THE ISLAND RESORT AND CASINO",W399 U.S. 2 & 41,HARRIS,MI,49845,"http://maps.google.com/maps?q=W399 U.S. 2 & 41,+HARRIS,+MI+49845&hl=en"
HAYWARD POLICE DEPARTMENT,"HAYWARD POLICE DEPARTMENT 
												
													EVENT 9:00 AM TO NOON",15889 W THIRD ST,HAYWARD,WI,54843,"http://maps.google.com/maps?q=15889 W THIRD ST,+HAYWARD,+WI+54843&hl=en"
HIGHLAND POLICE DEPARTMENT,"HIGHLAND POLICE DEPARTMENT 
												
													EVENT 10:00 AM TO 2:00 PM",530 MAIN STREET,HIGHLAND,WI,53543,"http://maps.google.com/maps?q=530 MAIN STREET,+HIGHLAND,+WI+53543&hl=en"
HILLSBORO POLICE DEPARTMENT,"HILLSBORO POLICE DEPARTMENT 
												
													DROP BOX M-F 8:00AM-4:30PM",836 PRAIRIE AVE,HILLSBORO,WI,54634,"http://maps.google.com/maps?q=836 PRAIRIE AVE,+HILLSBORO,+WI+54634&hl=en"
HOBART LAWRENCE POLICE DEPARTMENT,"HOBART LAWRENCE POLICE DEPARTMENT 
												
													EVENT AT PD 4/27/2018 1:00PM-4:00PM",2400 SHADY COURT,HOBART,WI,54115,"http://maps.google.com/maps?q=2400 SHADY COURT,+HOBART,+WI+54115&hl=en"
HOLMEN POLICE DEPARTMENT,"HOLMEN POLICE DEPARTMENT 
												
													DROP BOX ONLY M-F 8:00 AM-4:30 PM",119 WALL STREET WEST,HOLMEN,WI,54636,"http://maps.google.com/maps?q=119 WALL STREET WEST,+HOLMEN,+WI+54636&hl=en"
HORICON POLICE DEPARTMENT,"HORICON PUBLIC SAFETY BUILDING 
												
													EVENT 11:00 AM TO 2:00 PM",220 ELLISON ST,HORICON,WI,53032,"http://maps.google.com/maps?q=220 ELLISON ST,+HORICON,+WI+53032&hl=en"
HOUGHTON COUNTY SHERIFF'S OFFICE,HOUGHTON COUNTY SHERIFF'S OFFICE,403 E HOUGHTON AVENUE,HOUGHTON,MI,49931,"http://maps.google.com/maps?q=403 E HOUGHTON AVENUE,+HOUGHTON,+MI+49931&hl=en"
HUDSON POLICE DEPARTMENT,"FAMILY FRESH 
												
													EVENT 10:00 AM - 2:00 PM",2351 COULEE ROAD,HUDSON,WI,54016,"http://maps.google.com/maps?q=2351 COULEE ROAD,+HUDSON,+WI+54016&hl=en"
IOWA COUNTY SHERIFF'S OFFICE,"IOWA COUNTY SHERIFF'S OFFICE 
												
													DROP BOX ONLY 24/7",1205 N. BEQUETTE ST,DODGEVILLE,WI,53533,"http://maps.google.com/maps?q=1205 N. BEQUETTE ST,+DODGEVILLE,+WI+53533&hl=en"
IRON  COUNTY SHERIFF'S OFFICE,IRON COUNTY SHERIFF'S OFFICE,2 SOUTH SIXTH STREET,CRYSTAL FALLS,MI,49920,"http://maps.google.com/maps?q=2 SOUTH SIXTH STREET,+CRYSTAL FALLS,+MI+49920&hl=en"
IRON COUNTY SHERIFF'S OFFICE,"IRON COUNTY SHERIFF'S OFFICE 
												
													DROP BOX ONLY 24/7",300 TACONITE STREET STE 226,HURLEY,WI,54534,"http://maps.google.com/maps?q=300 TACONITE STREET STE 226,+HURLEY,+WI+54534&hl=en"
ISHPEMING CITY POLICE DEPARTMENT,ISHPEMING CITY POLICE DEPARTMENT,100 S. LAKE ST,ISHPEMING,MI,49849,"http://maps.google.com/maps?q=100 S. LAKE ST,+ISHPEMING,+MI+49849&hl=en"
JACKSON COUNTY SHERIFF'S OFFICE,"BUILDING NEXT TO JACKSON COUNTY RECYCLING 
												
													EVENT 8:00 AM TO 2:00 PM",115 HARRISON STREET,BLACK RIVER FALLS,WI,54615,"http://maps.google.com/maps?q=115 HARRISON STREET,+BLACK RIVER FALLS,+WI+54615&hl=en"
JUNEAU COUNTY SHERIFF'S OFFICE,"JUNEAU COUNTY SHERIFF'S OFFICE 
												
													DROP BOX ONLY M-F 8:00AM-4:30PM",200 OAK ST,MAUSTON,WI,53948,"http://maps.google.com/maps?q=200 OAK ST,+MAUSTON,+WI+53948&hl=en"
JUNEAU POLICE DEPT,"JUNEAU PUBLIC SAFETY BLDG 
												
													EVENT 10:00 AM TO 2:00 PM",128 E CROSS ST,JUNEAU,WI,53039,"http://maps.google.com/maps?q=128 E CROSS ST,+JUNEAU,+WI+53039&hl=en"
KAUKAUNA POLICE DEPARTMENT,"KAUKAUNA POLICE DEPARTMENT 
												
													EVENT 12:00AM-3:00PM",144 W 2ND STREET,KAUKAUNA,WI,54130,"http://maps.google.com/maps?q=144 W 2ND STREET,+KAUKAUNA,+WI+54130&hl=en"
KEWAUNEE COUNTY SHERIFF'S OFFICE,"KEWAUNEE COUNTY HIGHWAY DEPARTMENT 
												
													EVENT 4/21/18 8:00AM-12:00PM",E2180 STATE HIGHWAY 54,CASCO,WI,54205,"http://maps.google.com/maps?q=E2180 STATE HIGHWAY 54,+CASCO,+WI+54205&hl=en"
KRONENWETTER POLICE DEPARTMENT,"KRONENWETTER POLICE DEPARTMENT 
												
													DROP BOX ONLY 24/7",1582 KRONENWETTER DR,KRONENWETTER,WI,54455,"http://maps.google.com/maps?q=1582 KRONENWETTER DR,+KRONENWETTER,+WI+54455&hl=en"
LA CRESCENT PD,LA CRESCENT CITY HALL,315 MAIN STREET,LA CRESCENT,MN,55947,"http://maps.google.com/maps?q=315 MAIN STREET,+LA CRESCENT,+MN+55947&hl=en"
LA CROSSE COUNTY SHERIFF'S OFFICE,"LA CROSSE COUNTY SHERIFF'S DEPARTMENT 
												
													DROP BOX ONLY M-F 8:00 AM TO 4:30 PM",333 VINE ST,LA CROSSE,WI,54601,"http://maps.google.com/maps?q=333 VINE ST,+LA CROSSE,+WI+54601&hl=en"
LA CROSSE POLICE DEPARTMENT,"LA CROSSE POLICE DEPARTMENT 
												
													DROP BOX ONLY M-F 8:30AM-5:00PM",400 LA CROSSE ST,LA CROSSE,WI,54601,"http://maps.google.com/maps?q=400 LA CROSSE ST,+LA CROSSE,+WI+54601&hl=en"
LA FARGE POLICE DEPARTMENT,"LA FARGE POLICE DEPARTMENT 
												
													EVENT 8:00AM-5:00PM",201 S CHERRY STREET,LA FARGE,WI,54639,"http://maps.google.com/maps?q=201 S CHERRY STREET,+LA FARGE,+WI+54639&hl=en"
LAC COURTE OREILLES TRIBAL POLICE DEPARTMENT,"LAC COURTE OREILLES TRIBAL POLICE DEPARTMENT 
												
													EVENT 10:00AM-2:00PM",13394 W TREPANIA ROAD,HAYWARD,WI,54843,"http://maps.google.com/maps?q=13394 W TREPANIA ROAD,+HAYWARD,+WI+54843&hl=en"
LAC DU FLAMBEU TRIBAL POLICE DEPARTMENT,"LAC DU FLAMBEAU TRIBAL POLICE DEPARTMENT 
												
													EVENT 10:00 AM - 2:00 PM",623 PEACE PIPE RD,LAC DU FLAMBEAU,WI,54538,"http://maps.google.com/maps?q=623 PEACE PIPE RD,+LAC DU FLAMBEAU,+WI+54538&hl=en"
LAC VIEUX DESERT TRIBAL POLICE DEPARTMENT,LAC VIEUX DESERT TRIBAL POLICE DEPARTMENT,E23924 POW WOW TRAIL,WATERSMEET,MI,49969,"http://maps.google.com/maps?q=E23924 POW WOW TRAIL,+WATERSMEET,+MI+49969&hl=en"
LAKE DELTON POLICE DEPARTMENT,"LAKE DELTON POLICE DEPARTMENT 
												
													DROP BOX ONLY 24/7",50 WI DELLS PKWY SOUTH,LAKE DELTON,WI,53940,"http://maps.google.com/maps?q=50 WI DELLS PKWY SOUTH,+LAKE DELTON,+WI+53940&hl=en"
LUXEMBURG POLICE DEPARTMENT,"LUXEMBURG POLICE DEPARTMENT 
												
													DROP BOX M-F 7:45AM-4:15PM",206 MAPLE STREET,LUXEMBURG,WI,54217,"http://maps.google.com/maps?q=206 MAPLE STREET,+LUXEMBURG,+WI+54217&hl=en"
MADISON POLICE DEPARTMENT,"MADISON POLICE EAST DISTRICT 
												
													DROP BOX ONLY M-F 8:00 AM- 4:00PM",809 S THOMPSON DR,MADISON,WI,53714,"http://maps.google.com/maps?q=809 S THOMPSON DR,+MADISON,+WI+53714&hl=en"
MADISON POLICE DEPARTMENT,"MADISON POLICE WEST DISTRICT 
												
													DROP BOX ONLY M-F 8:00 AM- 4:00PM",1710 MCKENNA BLVD,MADISON,WI,53711,"http://maps.google.com/maps?q=1710 MCKENNA BLVD,+MADISON,+WI+53711&hl=en"
MANAWA POLICE DEPARTMENT,"MANAWA POLICE DEPARTMENT 
												
													EVENT 10:00 AM TO 2:00 PM",500 S BRIDGE ST,MANAWA,WI,54949,"http://maps.google.com/maps?q=500 S BRIDGE ST,+MANAWA,+WI+54949&hl=en"
MANITOWOC COUNTY SHERIFF'S OFFICE,"MANITOWOC COUNTY SHERIFF'S OFFICE 
												
													DROP BOX AT SO M-F 8:00AM-4:30PM",1025 S 9TH STREET,MANITOWOC,WI,54220,"http://maps.google.com/maps?q=1025 S 9TH STREET,+MANITOWOC,+WI+54220&hl=en"
MAPLE BLUFF POLICE DEPARTMENT,"VILLAGE OF MAPLE BLUFF POLICE DEPARTMENT 
												
													EVENT 4/29/18 9:00AM-2:00PM",18 OXFORD PLACE,MADISON,WI,53704,"http://maps.google.com/maps?q=18 OXFORD PLACE,+MADISON,+WI+53704&hl=en"
MARATHON CITY POLICE DEPARTMENT,"MARATHON CITY POLICE DEPARTMENT 
												
													DROP BOX M-F 7:00AM-4:00PM",311 WALNUT STREET,MARATHON,WI,54448,"http://maps.google.com/maps?q=311 WALNUT STREET,+MARATHON,+WI+54448&hl=en"
MARINETTE COUNTY SHERIFF'S OFFICE,"AMBERG COMMUNITY CENTER 
												
													EVENT FROM 9:00AM-1:00PM",N15035 GRANT STREET/COUNTY HWY V,AMBERG,WI,54102,"http://maps.google.com/maps?q=N15035 GRANT STREET/COUNTY HWY V,+AMBERG,+WI+54102&hl=en"
MARINETTE COUNTY SHERIFF'S OFFICE,"BAY AREA MEDICAL CENTER CRIVITZ 
												
													EVENT FROM 9:00AM-1:00PM",112 N US HWY 141,CRIVITZ,WI,54114,"http://maps.google.com/maps?q=112 N US HWY 141,+CRIVITZ,+WI+54114&hl=en"
MARINETTE COUNTY SHERIFF'S OFFICE,"BAY AREA MEDICAL CENTER MOBILITY CENTER 
												
													EVENT FROM 9:00AM-1:00PM",3117 SHORE DRIVE,MARINETTE,WI,54143,"http://maps.google.com/maps?q=3117 SHORE DRIVE,+MARINETTE,+WI+54143&hl=en"
MARINETTE COUNTY SHERIFF'S OFFICE,"MARINETTE COUNTY SHERIFF'S OFFICE 
												
													EVENT FROM 9:00AM-1:00PM",2161 UNIVERSITY DR,MARINETTE,WI,54143,"http://maps.google.com/maps?q=2161 UNIVERSITY DR,+MARINETTE,+WI+54143&hl=en"
MARINETTE POLICE DEPARTMENT,"MARINETTE POLICE DEPARTMENT 
												
													DROP BOX 24/7",1905 HALL AVE.,MARINETTE,WI,54143,"http://maps.google.com/maps?q=1905 HALL AVE.,+MARINETTE,+WI+54143&hl=en"
MARION POLICE DEPARTMENT,"MARION POLICE DEPARTMENT 
												
													DROP BOX M-F 7:00AM-12:00AM, S 10:00AM-12:00AM, S 12:00PM-10",124 W GARFIELD AVE,MARION,WI,54950,"http://maps.google.com/maps?q=124 W GARFIELD AVE,+MARION,+WI+54950&hl=en"
MARKESAN POLICE DEPARTMENT,"MARKESAN POLICE DEPARTMENT 
												
													DROP BOX M-F 8:00AM-4:00PM",150 S BRIDGE STREET,MARKESAN,WI,53946,"http://maps.google.com/maps?q=150 S BRIDGE STREET,+MARKESAN,+WI+53946&hl=en"
MARQUETTE POLICE DEPARTMENT,MARQUETTE POLICE DEPARTMENT,300 W BARAGA,MARQUETTE,MI,49855,"http://maps.google.com/maps?q=300 W BARAGA,+MARQUETTE,+MI+49855&hl=en"
MARSHFIELD POLICE DEPARTMENT,"SHOPKO 
												
													EVENT 10:00 AM - 2:00 PM",1306 N CENTRAL AVE,MARSHFIELD,WI,54449,"http://maps.google.com/maps?q=1306 N CENTRAL AVE,+MARSHFIELD,+WI+54449&hl=en"
MAUSTON POLICE DEPARTMENT,"OLD MILL PARK 
												
													EVENT 2:00PM-4:00PM",N MAIN STREET,NECEDAH,WI,54646,"http://maps.google.com/maps?q=N MAIN STREET,+NECEDAH,+WI+54646&hl=en"
MENASHA POLICE DEPARTMENT,MENASHA POLICE DEPARTMENT,430 FIRST STREET,MENASHA,WI,54952,"http://maps.google.com/maps?q=430 FIRST STREET,+MENASHA,+WI+54952&hl=en"
MENOMINEE COUNTY SHERIFF'S OFFICE,"MENOMINEE COUNTY SHERIFF'S OFFICE 
												
													10:00AM-4:00PM",W3269 COURTHOUSE LANE,KESHENA,WI,54135,"http://maps.google.com/maps?q=W3269 COURTHOUSE LANE,+KESHENA,+WI+54135&hl=en"
MENOMONIEE TRIBAL POLICE DEPARTMENT,"MENOMONIEE TRIBAL POLICE DEPARTMENT 
												
													EVENT 10:00AM-2:00PM",W3293 WOLF RIVER DRIVE,KESHENA,WI,54135,"http://maps.google.com/maps?q=W3293 WOLF RIVER DRIVE,+KESHENA,+WI+54135&hl=en"
MERRILL POLICE DEPARTMENT,"MERRILL POLICE DEPARTMENT 
												
													DROP BOX ONLY 24/7",1004 E 1ST ST,MERRILL,WI,54452,"http://maps.google.com/maps?q=1004 E 1ST ST,+MERRILL,+WI+54452&hl=en"
MICHIGAN STATE POLICE,MICHIGAN STATE POLICE CALUMET POST,55195 NORTH U.S. HIGHWAY 41,CALUMET,MI,49913,"http://maps.google.com/maps?q=55195 NORTH U.S. HIGHWAY 41,+CALUMET,+MI+49913&hl=en"
MICHIGAN STATE POLICE,MICHIGAN STATE POLICE GLADSTONE POST,922 LAKE SHORE DRIVE,GLADSTONE,MI,49837,"http://maps.google.com/maps?q=922 LAKE SHORE DRIVE,+GLADSTONE,+MI+49837&hl=en"
MICHIGAN STATE POLICE,MICHIGAN STATE POLICE IRON MOUNTAIN POST,1916 NORTH STEPHENSON,IRON MOUNTAIN,MI,49801,"http://maps.google.com/maps?q=1916 NORTH STEPHENSON,+IRON MOUNTAIN,+MI+49801&hl=en"
MICHIGAN STATE POLICE,MICHIGAN STATE POLICE NEGAUNEE POST,180 U.S. 41 EAST,NEGAUNEE,MI,49866,"http://maps.google.com/maps?q=180 U.S. 41 EAST,+NEGAUNEE,+MI+49866&hl=en"
MICHIGAN STATE POLICE,MICHIGAN STATE POLICE WAKEFIELD POST,100 SUNDAY LAKE STREET,WAKEFIELD,MI,49968,"http://maps.google.com/maps?q=100 SUNDAY LAKE STREET,+WAKEFIELD,+MI+49968&hl=en"
MICHIGAN TECH PUBLIC SAFETY & POLICE SERVICES,MICHIGAN TECH PUBLIC SAFETY,206 MACINNES DRIVE,HOUGHTON,MI,49931,"http://maps.google.com/maps?q=206 MACINNES DRIVE,+HOUGHTON,+MI+49931&hl=en"
MIDDLETON POLICE DEPARTMENT,"MIDDLETON POLICE DEPARTMENT 
												
													DROP BOX ONLY 24/7",7341 DONNA DRIVE,MIDDLETON,WI,53562,"http://maps.google.com/maps?q=7341 DONNA DRIVE,+MIDDLETON,+WI+53562&hl=en"
MINOCQUA POLICE DEPARTMENT,"MINOCQUA POLICE DEPARTMENT 
												
													EVENT 10:00 AM TO 2:00 PM",418 E CHICAGO AVE,MINOCQUA,WI,54548,"http://maps.google.com/maps?q=418 E CHICAGO AVE,+MINOCQUA,+WI+54548&hl=en"
MONDOVI POLICE DEPARTMENT,"MONDOVI POLICE DEPARTMENT 
												
													DROP BOX ONLY M-F 8:00 AM TO 5:00 PM",225 E MAIN ST,MONDOVI,WI,54755,"http://maps.google.com/maps?q=225 E MAIN ST,+MONDOVI,+WI+54755&hl=en"
MONONA POLICE DEPARTMENT,"THE MEDICINE SHOPPE PHARMACY 
												
													EVENT 9:00AM-1:00PM",4205 MONONA DR,MONONA,WI,53716,"http://maps.google.com/maps?q=4205 MONONA DR,+MONONA,+WI+53716&hl=en"
MONROE COUNTY SHERIFF'S OFFICE,"MONROE COUNTY SHERIFF'S OFFICE 
												
													DROP BOX ONLY M-F 8:00AM-4:30PM",112 S COURT STREET #500,SPARTA,WI,54656,"http://maps.google.com/maps?q=112 S COURT STREET #500,+SPARTA,+WI+54656&hl=en"
MONTELLO POLICE DEPARTMENT,"MONTELLO POLICE DEPARTMENT 
												
													DROP BOX ONLY M-F  8:00AM-4:30PM",20 UNDERWOOD AVE,MONTELLO,WI,53949,"http://maps.google.com/maps?q=20 UNDERWOOD AVE,+MONTELLO,+WI+53949&hl=en"
MOSINEE POLICE DEPARTMENT,"MOSINEE POLICE DEPARTMENT 
												
													EVENT 9:00AM-12:00PM",225 MAIN STREET,MOSINEE,WI,54455,"http://maps.google.com/maps?q=225 MAIN STREET,+MOSINEE,+WI+54455&hl=en"
MUSCODA POLICE DEPARTMENT,"MUSCODA POLICE DEPT 
												
													DROP BOX ONLY M-F 8:00AM-4:30PM",206 N WISCONSIN AVE,MUSCODA,WI,53573,"http://maps.google.com/maps?q=206 N WISCONSIN AVE,+MUSCODA,+WI+53573&hl=en"
NEENAH POLICE DEPARTMENT,"NEENAH POLICE DEPARTMENT 
												
													DROP BOX ONLY 24/7",2111 MARATHON AVE,NEENAH,WI,54956,"http://maps.google.com/maps?q=2111 MARATHON AVE,+NEENAH,+WI+54956&hl=en"
NEKOOSA POLICE DEPARTMENT,"NEKOOSA POLICE DEPARTMENT 
												
													EVENT  8:00AM-12:00PM",951 MARKET ST,NEKOOSA,WI,54457,"http://maps.google.com/maps?q=951 MARKET ST,+NEKOOSA,+WI+54457&hl=en"
NEW GLARUS POLICE DEPARTMENT,"NEW GLARUS POLICE DEPARTMENT 
												
													DROP BOX ONLY M-F 7:30AM-4:00PM",313 2ND STREET,NEW GLARUS,WI,53574,"http://maps.google.com/maps?q=313 2ND STREET,+NEW GLARUS,+WI+53574&hl=en"
NEW HOLSTEIN POLICE DEPARTMENT,"NEW HOLSTEIN POLICE DEPARTMENT 
												
													EVENT 10:00 AM TO 12:00 PM",2110 WASHINGTON STREET,NEW HOLSTEIN,WI,53061,"http://maps.google.com/maps?q=2110 WASHINGTON STREET,+NEW HOLSTEIN,+WI+53061&hl=en"
NEW LONDON POLICE DEPARTMENT,"NEW LONDON POLICE DEPARTMENT 
												
													EVENT 10:00 AM TO 2:00 PM",700 SHIOCTON ST,NEW LONDON,WI,54961,"http://maps.google.com/maps?q=700 SHIOCTON ST,+NEW LONDON,+WI+54961&hl=en"
NORTH BRANCH PD,"NORTH BRANCH CITY HALL 
												
													OPEN FROM 10 A.M. UNTIL 2 P.M.",6408 ELM STREET,NORTH BRANCH,MN,55056,"http://maps.google.com/maps?q=6408 ELM STREET,+NORTH BRANCH,+MN+55056&hl=en"
NORTH FOND DU LAC POLICE DEPARTMENT,"NORTH FOND DU LAC POLICE DEPARTMENT 
												
													DROP BOX ONLY M-F  8:00AM-4:30PM",16 GARFIELD STREET,FOND DU LAC,WI,54937,"http://maps.google.com/maps?q=16 GARFIELD STREET,+FOND DU LAC,+WI+54937&hl=en"
NORTH HUDSON POLICE DEPARMENT,"NORTH HUDSON POLICE DEPARTMENT 
												
													DROP BOX M-F 8:00AM-4:30PM",400 7TH STREET NORTH,HUDSON,WI,54016,"http://maps.google.com/maps?q=400 7TH STREET NORTH,+HUDSON,+WI+54016&hl=en"
NORTHEAST IOWA DRUG TASK FORCE,CITY OF LANSING CITY HALL,201 JOHN ST,LANSING,IA,52151,"http://maps.google.com/maps?q=201 JOHN ST,+LANSING,+IA+52151&hl=en"
NORTHEAST IOWA DRUG TASK FORCE,LANSING FIRE DEPT.,51 NORTH FRONT ST.,LANSING,IA,52151,"http://maps.google.com/maps?q=51 NORTH FRONT ST.,+LANSING,+IA+52151&hl=en"
NORTHEAST IOWA DRUG TASK FORCE,WAUKON POLICE DEPT.,104 1ST STREET,WAUKON,IA,52172,"http://maps.google.com/maps?q=104 1ST STREET,+WAUKON,+IA+52172&hl=en"
NORWALK POLICE DEPARTMENT,"NORWALK POLICE DEPARTMENT 
												
													EVENT 10:00AM-2:00PM",208 S CHURCH STREET,NORWALK,WI,54648,"http://maps.google.com/maps?q=208 S CHURCH STREET,+NORWALK,+WI+54648&hl=en"
OAK PARK HEIGHTS PD,"BOUTWELLS SENIOR COMPLEX 
												
													10:00 AM - 12:00 PM",5600 NORWICH PARKWAY,OAK PARK HEIGHTS,MN,55082,"http://maps.google.com/maps?q=5600 NORWICH PARKWAY,+OAK PARK HEIGHTS,+MN+55082&hl=en"
OAK PARK HEIGHTS PD,"RAMEY JOHNSON COMPLEX 
												
													12:30 PM - 2:30 PM",14830 58TH STREET NORTH,OAK PARK HEIGHTS,MN,55082,"http://maps.google.com/maps?q=14830 58TH STREET NORTH,+OAK PARK HEIGHTS,+MN+55082&hl=en"
OAKFIELD POLICE DEPARTMENT,"OAKFIELD VILLAGE OFFICE 
												
													DROP BOX M,W TH 9:00AM-7:00PM T&F 9:00AM-5:PM",130 N MAIN STREET,OAKFIELD,WI,53065,"http://maps.google.com/maps?q=130 N MAIN STREET,+OAKFIELD,+WI+53065&hl=en"
OCONTO COUNTY SHERIFF'S OFFICE,"OCONTO COUNTY SHERIFF'S OFFICE 
												
													DROP BOX ONLY M-F 8:00AM-4:00PM",220 ARBUTUS AVE,OCONTO,WI,54153,"http://maps.google.com/maps?q=220 ARBUTUS AVE,+OCONTO,+WI+54153&hl=en"
OMRO POLICE DEPARTMENT,"OMRO POLICE DEPARTMENT 
												
													EVENT 8:00AM-12:00PM",205 S WEBSTER AVE,OMRO,WI,54963,"http://maps.google.com/maps?q=205 S WEBSTER AVE,+OMRO,+WI+54963&hl=en"
ONALASKA POLICE DEPARTMENT,"ONALASKA POLICE DEPARTMENT 
												
													DROP BOX ONLY M-F 8:00AM-5:00PM",415 MAIN ST,ONALASKA,WI,54650,"http://maps.google.com/maps?q=415 MAIN ST,+ONALASKA,+WI+54650&hl=en"
ONEIDA COUNTY SHERIFF'S OFFICE,"ONEIDA COUNTY LANDFILL 
												
													EVENT 10:00AM-2:00PM",7450 COUNTY HIGHWAY K,RHINELANDER,WI,54501,"http://maps.google.com/maps?q=7450 COUNTY HIGHWAY K,+RHINELANDER,+WI+54501&hl=en"
ONEIDA POLICE DEPARTMENT,"ONEIDA POLICE DEPARTMENT 
												
													DROP BOX ONLY 24/7",2783 FREEDOM RD,ONEIDA,WI,54155,"http://maps.google.com/maps?q=2783 FREEDOM RD,+ONEIDA,+WI+54155&hl=en"
ONTONAGON COUNTY SHERIFF OFFICE,ONTONAGON COUNTY SHERIFF OFFICE,620 CONGLOMERATE STREET,ONTONAGON,MI,49953,"http://maps.google.com/maps?q=620 CONGLOMERATE STREET,+ONTONAGON,+MI+49953&hl=en"
OSHKOSH POLICE DEPARTMENT,"OSHKOSH POLICE DEPARTMENT 
												
													DROP BOX 24/7",420 JACKSON STREET,OSHKOSH,WI,54901,"http://maps.google.com/maps?q=420 JACKSON STREET,+OSHKOSH,+WI+54901&hl=en"
PARK FALLS POLICE DEPARTMENT,"PARK FALLS POLICE DEPARTMENT 
												
													EVENT 9:00AM-1:00PM",400 4TH AVE SOUTH,PARK FALLS,WI,54552,"http://maps.google.com/maps?q=400 4TH AVE SOUTH,+PARK FALLS,+WI+54552&hl=en"
PEPIN COUNTY SHERIFF'S OFFICE,"DURAND FIRE HALL 
												
													EVENT 10:00AM-2:00PM",205 E MONTGOMERY STREET,DURAND,WI,54736,"http://maps.google.com/maps?q=205 E MONTGOMERY STREET,+DURAND,+WI+54736&hl=en"
PEPIN POLICE DEPARTMENT,"PEPIN POLICE DEPARTMENT 
												
													EVENT APRIL 27TH 8:00AM-4:00PM",508 2ND STREET,PEPIN,WI,54759,"http://maps.google.com/maps?q=508 2ND STREET,+PEPIN,+WI+54759&hl=en"
PIERCE COUNTY SHERIFF'S OFFICE,"PIERCE COUNTY RECYCLING 
												
													EVENT 8:00AM 12:00PM",707 NORTH MAPLE ST,ELLSWORTH,WI,54011,"http://maps.google.com/maps?q=707 NORTH MAPLE ST,+ELLSWORTH,+WI+54011&hl=en"
PITTSVILLE POLICE DEPARTMENT,"PITTSVILLE POLICE DEPARTMENT 
												
													EVENT 10:00AM-2:00PM",5318 1ST AVE,PITTSVILLE,WI,54466,"http://maps.google.com/maps?q=5318 1ST AVE,+PITTSVILLE,+WI+54466&hl=en"
POLK COUNTY SHERIFF'S OFFICE,"POLK COUNTY SHERIFF'S OFFICE 
												
													DROP BOX M-F 8:00AM-9:00PM",1005 WEST MAIN STE 900,BALSAM LAKE,WI,54810,"http://maps.google.com/maps?q=1005 WEST MAIN STE 900,+BALSAM LAKE,+WI+54810&hl=en"
PORT EDWARDS POLICE DEPARTMENT,"PORT EDWARDS POLICE DEPARTMENT 
												
													EVENT 1:00PM-3:00PM",201 MARKET AVE,PORT EDWARDS,WI,54469,"http://maps.google.com/maps?q=201 MARKET AVE,+PORT EDWARDS,+WI+54469&hl=en"
PORTAGE COUNTY SHERIFF'S OFFICE,"COMMUNITY CENTER 
												
													APRIL 28TH 12:30PM-2:00PM",100 MAIN ST,ALMOND,WI,54909,"http://maps.google.com/maps?q=100 MAIN ST,+ALMOND,+WI+54909&hl=en"
PORTAGE COUNTY SHERIFF'S OFFICE,"FAITH LUTHERAN CHURCH 
												
													EVENT APRIL 24TH 11:30AM-12:30PM",253 S MAIN ST,ROSHOLT,WI,54473,"http://maps.google.com/maps?q=253 S MAIN ST,+ROSHOLT,+WI+54473&hl=en"
PORTAGE COUNTY SHERIFF'S OFFICE,"JENSEN CENTER 
												
													EVENT APRIL 27TH 11:30 AM-1:00PM",487 N MAIN ST,AMHERST,WI,54406,"http://maps.google.com/maps?q=487 N MAIN ST,+AMHERST,+WI+54406&hl=en"
PORTAGE COUNTY SHERIFF'S OFFICE,"LINCOLN CENTER 
												
													EVENT APRIL 28TH 8:00AM-12:00PM",1519 WATER ST,STEVENS POINT,WI,54481,"http://maps.google.com/maps?q=1519 WATER ST,+STEVENS POINT,+WI+54481&hl=en"
PORTAGE COUNTY SHERIFF'S OFFICE,"VILLAGE PARK LODGE JUNCTION CITY 
												
													APRIL 26TH 11:00 AM - 12:30PM",1001 MAIN STREET,JUNCTION CITY,WI,54443,"http://maps.google.com/maps?q=1001 MAIN STREET,+JUNCTION CITY,+WI+54443&hl=en"
PORTAGE POLICE DEPT,"WALGREENS 
												
													EVENT 8:00AM-12:00PM",2700 NEW PINERY ROAD,PORTAGE,WI,53901,"http://maps.google.com/maps?q=2700 NEW PINERY ROAD,+PORTAGE,+WI+53901&hl=en"
POYNETTE POLICE DEPARTMENT,"POYNETTE POLICE DEPARTMENT 
												
													EVENT 8:00AM-11:00AM",118 S MAIN STREET,POYNETTE,WI,53955,"http://maps.google.com/maps?q=118 S MAIN STREET,+POYNETTE,+WI+53955&hl=en"
PRICE COUNTY SHERIFF'S OFFICE,"PRICE COUNTY SHERIFF'S OFFICE 
												
													DROP BOX ONLY 24/7",164 CHERRY ST,PHILLIPS,WI,54555,"http://maps.google.com/maps?q=164 CHERRY ST,+PHILLIPS,+WI+54555&hl=en"
PROCTOR PD,PROCTOR POLICE DEPARTMENT,100 PIONK DRIVE,PROCTOR,MN,55810,"http://maps.google.com/maps?q=100 PIONK DRIVE,+PROCTOR,+MN+55810&hl=en"
PULASKI POLICE DEPARTMENT,"PULASKI POLICE DEPARTMENT 
												
													EVENT  8:00AM-12:00PM",585 E GLENBROOK DRIVE,PULASKI,WI,54162,"http://maps.google.com/maps?q=585 E GLENBROOK DRIVE,+PULASKI,+WI+54162&hl=en"
RANDOLPH POLICE DEPARTMENT,"RANDOLPH POLICE DEPARTMENT 
												
													EVENT 11:00AM-1:00PM",136 W STROUD STREET,RANDOLPH,WI,53956,"http://maps.google.com/maps?q=136 W STROUD STREET,+RANDOLPH,+WI+53956&hl=en"
RED WING PD,RED WING POLICE DEPARTMENT,430 WEST 6TH STREET,RED WING,MN,55066,"http://maps.google.com/maps?q=430 WEST 6TH STREET,+RED WING,+MN+55066&hl=en"
REEDSBURG POLICE DEPARTMENT,"REEDSBURG POLICE DEPARTMENT 
												
													DROP BOX ONLY 24/7",200 S PARK ST,REEDSBURG,WI,53959,"http://maps.google.com/maps?q=200 S PARK ST,+REEDSBURG,+WI+53959&hl=en"
RHINELANDER POLICE DEPARTMENT,"RHINELANDER POLICE DEPARTMENT 
												
													EVENT 10:00AM-2:00PM",201 N BROWN ST,RHINELANDER,WI,54501,"http://maps.google.com/maps?q=201 N BROWN ST,+RHINELANDER,+WI+54501&hl=en"
RICE LAKE POLICE DEPARTMENT,"RICE LAKE POLICE DEPARTMENT 
												
													DROP BOX 24/7",34 SOUTH WILSON AVE,RICE LAKE,WI,54868,"http://maps.google.com/maps?q=34 SOUTH WILSON AVE,+RICE LAKE,+WI+54868&hl=en"
RICHLAND CENTER POLICE DEPT,"RICHLAND CENTER POLICE DEPT 
												
													EVENT 10:00AM-2:00PM",470 S MAIN ST,RICHLAND CENTER,WI,53581,"http://maps.google.com/maps?q=470 S MAIN ST,+RICHLAND CENTER,+WI+53581&hl=en"
RICHLAND COUNTY SHERIFF'S OFFICE,"RICHLAND COUNTY SHERIFF'S OFFICE 
												
													DROP BOX 24/7",181 W SEMINARY ST,RICHLAND CENTER,WI,53581,"http://maps.google.com/maps?q=181 W SEMINARY ST,+RICHLAND CENTER,+WI+53581&hl=en"
RIPON POLICE DEPT,"RIPON POLICE DEPT 
												
													DROP BOX ONLY 24/7",100 E JACKSON ST,RIPON,WI,54971,"http://maps.google.com/maps?q=100 E JACKSON ST,+RIPON,+WI+54971&hl=en"
RIVER FALLS POLICE DEPARTMENT,"RIVER FALLS POLICE DEPARTMENT 
												
													EVENT APRIL 27TH, 9:00AM-5:00PM",125 E. ELM STREET,RIVER FALLS,WI,54022,"http://maps.google.com/maps?q=125 E. ELM STREET,+RIVER FALLS,+WI+54022&hl=en"
ROSENDALE POLICE DEPARTMENT,"ROSENDALE POLICE DEPARTMENT 
												
													DROP BOX ONLY M-F 8:00AM-4:00PM",211 NORTH GRANT STREET,ROSENDALE,WI,54974,"http://maps.google.com/maps?q=211 NORTH GRANT STREET,+ROSENDALE,+WI+54974&hl=en"
ROTHSCHILD POLICE DEPARTMENT,"ROTHSCHILD POLICE DEPARTMENT 
												
													DROP BOX ONLY 24/7",211 GRAND AVE,ROTHSCHILD,WI,54474,"http://maps.google.com/maps?q=211 GRAND AVE,+ROTHSCHILD,+WI+54474&hl=en"
RUSK COUNTY SHERIFF'S OFFICE,"RUSK COUNTY SHERIFF'S OFFICE 
												
													DROP BOX 24/7","311 E. MINER AVE, SUITE L100",LADYSMITH,WI,54848,"http://maps.google.com/maps?q=311 E. MINER AVE, SUITE L100,+LADYSMITH,+WI+54848&hl=en"
SAUK COUNTY SHERIFF'S OFFICE,"SAUK COUNTY SHERIFF'S OFFICE 
												
													DROP BOX M-F 8:00AM-4:00PM",1300 LANGE COURT,BARABOO,WI,53913,"http://maps.google.com/maps?q=1300 LANGE COURT,+BARABOO,+WI+53913&hl=en"
SAUK PRAIRIE POLICE DEPARTMENT,"SAUK PRAIRIE HOSPITAL 
												
													EVENT 9:00AM-12:00PM",260 26TH STREET,PRAIRIE DU SAC,WI,53578,"http://maps.google.com/maps?q=260 26TH STREET,+PRAIRIE DU SAC,+WI+53578&hl=en"
SAWYER COUNTY SHERIFF'S OFFICE,"WINTER CO-OP 
												
													EVENT 10:00AM-1:00PM",5159 N SOUTH MAIN ST,WINTER,WI,54896,"http://maps.google.com/maps?q=5159 N SOUTH MAIN ST,+WINTER,+WI+54896&hl=en"
SEYMOUR POLICE DEPARTMENT,"SEYMOUR POLICE DEPARTMENT 
												
													DROP BOX M-F 8:00AM-4:00PM",306 N MAIN STREET,SEYMOUR,WI,54165,"http://maps.google.com/maps?q=306 N MAIN STREET,+SEYMOUR,+WI+54165&hl=en"
SHAWANO POLICE DEPARTMENT,"SHAWANO POLICE DEPARTMENT 
												
													DROP BOX 24/7",125 S. SAWYER ST,SHAWANO,WI,54166,"http://maps.google.com/maps?q=125 S. SAWYER ST,+SHAWANO,+WI+54166&hl=en"
SHEBOYGAN POLICE DEPARTMENT,"HOWARDS GROVE VILLAGE HALL 
												
													EVENT 10:00AM-1:00PM",913 S WISCONSIN DR,SHEBOYGAN,WI,53083,"http://maps.google.com/maps?q=913 S WISCONSIN DR,+SHEBOYGAN,+WI+53083&hl=en"
SHICOTON POLICE DEPARTMENT,"SHIOCTON POLICE DEPARTMENT 
												
													DROP BOX M-F 7:00AM-3:30PM",NN5605 ST RD 76,SHIOCTON,WI,54170,"http://maps.google.com/maps?q=NN5605 ST RD 76,+SHIOCTON,+WI+54170&hl=en"
SPARTA POLICE DEPT,"SPARTA POLICE DEPT 
												
													EVENT 10:00AM-2:00PM",121 E OAK ST,SPARTA,WI,54656,"http://maps.google.com/maps?q=121 E OAK ST,+SPARTA,+WI+54656&hl=en"
SPENCER POLICE DEPARTMENT,"SPENCER POLICE DEPARTMENT 
												
													EVENT 10:00AM-2:00PM",105 S PARK STREET,SPENCER,WI,54479,"http://maps.google.com/maps?q=105 S PARK STREET,+SPENCER,+WI+54479&hl=en"
SPRING GREEN POLICE DEPARTMENT,"SPRING GREEN POLICE DEPARTMENT 
												
													DROP BOX ONLY M-F  8:00AM-4:30PM",112 WEST MONROE STREET,SPRING GREEN,WI,53588,"http://maps.google.com/maps?q=112 WEST MONROE STREET,+SPRING GREEN,+WI+53588&hl=en"
SPRING VALLEY POLICE DEPARTMENT,"SPRING VALLEY VILLAGE HALL 
												
													DROP BOX ONLY M-F 8:00AM-4:30PM",EAST 121 S SECOND ST,SPRING VALLEY,WI,54767,"http://maps.google.com/maps?q=EAST 121 S SECOND ST,+SPRING VALLEY,+WI+54767&hl=en"
ST. CROIX COUNTY SHERIFF'S OFFICE,"ST. CROIX COUNTY SHERIFF'S OFFICE 
												
													DROP BOX 24/7",1101 CARMICHAEL RD,NORTH HUDSON,WI,54016,"http://maps.google.com/maps?q=1101 CARMICHAEL RD,+NORTH HUDSON,+WI+54016&hl=en"
STANLEY POLICE DEPARTMENT,"STANLEY POLICE DEPARTMENT 
												
													EVENT 10:00AM-2:00PM",353 SOUTH BROADWAY STREET,STANLEY,WI,54768,"http://maps.google.com/maps?q=353 SOUTH BROADWAY STREET,+STANLEY,+WI+54768&hl=en"
STEVENS POINT POLICE DEPARTMENT,"LINCOLN CENTER 
												
													EVENT 7:30 AM - 4:00 PM",1519 WATER STREET,STEVENS POINT,WI,54481,"http://maps.google.com/maps?q=1519 WATER STREET,+STEVENS POINT,+WI+54481&hl=en"
SUN PRAIRIE POLICE DEPARTMENT,"SUN PRAIRIE POLICE DEPARTMENT 
												
													DROP BOX 24/7",300 E MAIN STREET,SUN PRAIRIE,WI,53590,"http://maps.google.com/maps?q=300 E MAIN STREET,+SUN PRAIRIE,+WI+53590&hl=en"
SUPERIOR POLICE DEPARTMENT,"SUPERIOR POLICE DEPARTMENT 
												
													DROP BOX",1316 N 14TH STREETSUITE 150,SUPERIOR,WI,54880,"http://maps.google.com/maps?q=1316 N 14TH STREET,+SUPERIOR,+WI+54880&hl=en"
SURING POLICE DEPARTMENT,"SURING POLICE DEPARTMENT 
												
													EVENT 9:00AM-1:00PM",604 E MAIN STREET,SURING,WI,54174,"http://maps.google.com/maps?q=604 E MAIN STREET,+SURING,+WI+54174&hl=en"
TAYLOR COUNTY SHERIFF'S OFFICE,"TAYLOR COUNTY SHERIFF'S OFFICE 
												
													DROP BOX M-F 8:30AM-4:30PM",224 SOUTH 2ND STREET,MEDFORD,WI,54451,"http://maps.google.com/maps?q=224 SOUTH 2ND STREET,+MEDFORD,+WI+54451&hl=en"
THORP POLICE DEPARTMENT,"THORP POLICE DEPARTMENT 
												
													DROP BOX M-F 8:00AM-5:00PM",300 W PROSPECT ST,THORP,WI,54771,"http://maps.google.com/maps?q=300 W PROSPECT ST,+THORP,+WI+54771&hl=en"
THREE LAKES POLICE DEPARTMENT,"THREE LAKES POLICE DEPARTMENT 
												
													EVENT 10:00AM-2:00PM",1733 SUPERIOR STREET,THREE LAKES,WI,54562,"http://maps.google.com/maps?q=1733 SUPERIOR STREET,+THREE LAKES,+WI+54562&hl=en"
TOMAH POLICE DEPARTMENT,"TOMAH POLICE DEPARTMENT 
												
													DROP BOX ONLY M-F 8:00AM-5:30PM",805 SUPERIOR AVE,TOMAH,WI,54660,"http://maps.google.com/maps?q=805 SUPERIOR AVE,+TOMAH,+WI+54660&hl=en"
TOMAHAWK POLICE DEPT,"TOMAHAWK POLICE DEPT 
												
													7:00AM-11:00PM",219 W SOMO AVE,TOMAHAWK,WI,54487,"http://maps.google.com/maps?q=219 W SOMO AVE,+TOMAHAWK,+WI+54487&hl=en"
TOWN OF ROME POLICE DEPARTMENT,"TOWN OF ROME POLICE DEPARTMENT 
												
													EVENT 10:00 AM -2:00 PM",1156 ALPINE DRIVE,NEKOOSA,WI,54457,"http://maps.google.com/maps?q=1156 ALPINE DRIVE,+NEKOOSA,+WI+54457&hl=en"
TREMPEALEAU POLICE DEPARTMENT,"TREMPEALEAU POLICE DEPARTMENT 
												
													EVENT 8:00AM-12:00PM",24455 3RD STREET,TREMPEALEAU,WI,54661,"http://maps.google.com/maps?q=24455 3RD STREET,+TREMPEALEAU,+WI+54661&hl=en"
TREMPELEAU COUNTY SHERIFF'S OFFICE,"TREMPELEAU COUNTY SHERIFF'S OFFICE 
												
													DROP BOX ONLY M-F 8:00AM-4:30PM",36245 MAIN ST,WHITEHALL,WI,54773,"http://maps.google.com/maps?q=36245 MAIN ST,+WHITEHALL,+WI+54773&hl=en"
UW MADISON POLICE DEPARTMENT,"UW MADISON POLICE DEPARTMENT 
												
													DROP BOX ONLY 24/7",1429 MONROE STREET,MADISON,WI,53711,"http://maps.google.com/maps?q=1429 MONROE STREET,+MADISON,+WI+53711&hl=en"
VERNON COUNTY SHERIFF'S OFFICE,"STODDARD VILLAGE HALL 
												
													EENT 10:00AM-2:00PM",180 N MAIN STREET,STODDARD,WI,54658,"http://maps.google.com/maps?q=180 N MAIN STREET,+STODDARD,+WI+54658&hl=en"
VERONA POLICE DEPARTMENT,"VERONA POLICE DEPARTMENT 
												
													EVENT 10:00AM-2:00PM",111 LINCOLN STREET,VERONA,WI,53593,"http://maps.google.com/maps?q=111 LINCOLN STREET,+VERONA,+WI+53593&hl=en"
VILAS COUNTY SHERIFF'S OFFICE,"VILAS CONTY SHERIFF'S OFFICE 
												
													EVENT 10:00AM-3:30PM",330 COURT STREET,EAGLE RIVER,WI,54521,"http://maps.google.com/maps?q=330 COURT STREET,+EAGLE RIVER,+WI+54521&hl=en"
VILLAGE OF COTTAGE GROVE POLICE DEPARTMENT,"FORWARD PHARMACY 
												
													EVENT 10:00AM-12:00PM",429 W COTTAGE GROVE ROAD,COTTAGE GROVE,WI,53527,"http://maps.google.com/maps?q=429 W COTTAGE GROVE ROAD,+COTTAGE GROVE,+WI+53527&hl=en"
VILLAGE OF FALL CREEK POLICE DEPARTMENT,"VILLAGE OF FALL CREEK 
												
													DROP BOX M-F 8:0AM-4:30PM (CLOSED 12-1)",122 E LINCOLN AVENUE,FALL CREEK,WI,54742,"http://maps.google.com/maps?q=122 E LINCOLN AVENUE,+FALL CREEK,+WI+54742&hl=en"
VILLAGE OF LAKE HALLIE POLICE DEPARTMENT,"VILLAGE OF LAKE HALLIE POLICE DEPARTMENT 
												
													DROP BOX M-F 8:00AM-4:00PM",13138 30TH AVENUE,CHIPPEWA FALLS,WI,54729,"http://maps.google.com/maps?q=13138 30TH AVENUE,+CHIPPEWA FALLS,+WI+54729&hl=en"
VILLAGE OF WESTFIELD POLICE DEPARTMENT,"VILLAGE OF WESTFILED POLICE DEPARTMENT 
												
													DROP BOX M-F 8:00AM-4:00PM",129 E 3RD STREET,WESTFIELD,WI,53964,"http://maps.google.com/maps?q=129 E 3RD STREET,+WESTFIELD,+WI+53964&hl=en"
VIROQUA POLICE DEPARTMENT,"VIROQUA POLICE DEPARTMENT 
												
													EVENT 10:00AM-2:00PM",702 EAST BROADWAY,VIROQUA,WI,54665,"http://maps.google.com/maps?q=702 EAST BROADWAY,+VIROQUA,+WI+54665&hl=en"
WASHBURN COUNTY SHERIFF'S OFFICE,"WASHBURN COUNTY SHERIFF'S OFFICE 
												
													EVENT 10:00AM-2:00PM",421 HWY 63,SHELL LAKE,WI,54871,"http://maps.google.com/maps?q=421 HWY 63,+SHELL LAKE,+WI+54871&hl=en"
WASHINGTON COUNTY SO,MAHTOMEDI SCHOOL DISTRICT EDUCATION CENTER,1520 MAHTOMEDI AVENUE,MAHTOMEDI,MN,55115,"http://maps.google.com/maps?q=1520 MAHTOMEDI AVENUE,+MAHTOMEDI,+MN+55115&hl=en"
WASHINGTON ISLAND POLICE DEPARTMENT,"WASHINGTON ISLAND POLICE DEPARTMENT 
												
													EVENT 10:00AM-12:00PM",1045 MAIN ROAD,WASHINGTON ISLAND,WI,54246,"http://maps.google.com/maps?q=1045 MAIN ROAD,+WASHINGTON ISLAND,+WI+54246&hl=en"
WAUNAKEE POLICE DEPARTMENT,"WAUNAKEE POLICE DEPARTMENT 
												
													EVENT 10:00AM-2:00PM",205 N KLEIN DRIVE,WAUNAKEE,WI,53597,"http://maps.google.com/maps?q=205 N KLEIN DRIVE,+WAUNAKEE,+WI+53597&hl=en"
WAUPACA COUNTY SHERIFF'S OFFICE,"WAUPACA COUNTY SHERIFF'S OFFICE 
												
													DROP BOX ONLY M-F 7:00AM-5:00PM",1402 E ROYALTON ST,WAUPACA,WI,54981,"http://maps.google.com/maps?q=1402 E ROYALTON ST,+WAUPACA,+WI+54981&hl=en"
WAUPACA POLICE DEPARTMENT,"WAUPACA POLICE DEPARTMENT 
												
													EVENT 10:00AM-2:00PM",124 S WASHINGTON ST,WAUPACA,WI,54981,"http://maps.google.com/maps?q=124 S WASHINGTON ST,+WAUPACA,+WI+54981&hl=en"
WAUPUN POLICE DEPARTMENT,"WAUPUN POLICE DEPARTMENT 
												
													DROP BOX ONLY M-F 8:00AM-4:00PM",16 E MAIN ST,WAUPUN,WI,53963,"http://maps.google.com/maps?q=16 E MAIN ST,+WAUPUN,+WI+53963&hl=en"
WAUSAU POLICE DEPARTMENT,"WAUSAU POLICE DEPARTMENT 
												
													EVENT 10:00AM-2:00PM",515 GRAND AVE,WAUSAU,WI,54403,"http://maps.google.com/maps?q=515 GRAND AVE,+WAUSAU,+WI+54403&hl=en"
WAUSHARA COUNTY SHERIFF'S OFFICE,"REDGRANITE FIRE DEPARTMENT 
												
													EVENT 10:00AM-12:00PM",135 E BANNERMAN AVE,REDGRANITE,WI,54970,"http://maps.google.com/maps?q=135 E BANNERMAN AVE,+REDGRANITE,+WI+54970&hl=en"
WEST SALEM POLICE DEPARTMENT,"WEST SALEM POLICE DEPARTMENT 
												
													DROP BOX ONLY M-F  8:00AM-4:30PM",175 SOUTH LEONARD STREET,WEST SALEM,WI,54669,"http://maps.google.com/maps?q=175 SOUTH LEONARD STREET,+WEST SALEM,+WI+54669&hl=en"
WEYAUWEGA POLICE DEPARTMENT,"WEYAUWEGA POLICE DEPARTMENT 
												
													DROP BOX M-F 8:00AM-4:30PM",109 E MAIN ST,WEYAUWEGA,WI,54983,"http://maps.google.com/maps?q=109 E MAIN ST,+WEYAUWEGA,+WI+54983&hl=en"
WI DEPARTMENT OF JUSTICE,"WI DEPARTMENT OF JUSTICE 
												
													DROP BOX",17 WEST MAIN STREET,MADISON,WI,53703,"http://maps.google.com/maps?q=17 WEST MAIN STREET,+MADISON,+WI+53703&hl=en"
WINNECONNE POLICE DEPARTMENT,"WINNECONNE POLICE DEPARTMENT 
												
													EVENT 8:00AM-12:00PM",30 S FIRST STREET,WINNECONNE,WI,54986,"http://maps.google.com/maps?q=30 S FIRST STREET,+WINNECONNE,+WI+54986&hl=en"
WINONA COUNTY ASAP,"WINONA COUNTY ASAP 
												
													WALGREENS PARKING LOT",750 MANKATO AVENUE,WINONA,MN,55987,"http://maps.google.com/maps?q=750 MANKATO AVENUE,+WINONA,+MN+55987&hl=en"
WISCONSIN DELLS POLICE DEPARTMENT,"WISCONSIN DELLS POLICE DEPARTMENT 
												
													DROP BOX 24/7",712 OAK ST,WISCONSIN DELLS,WI,53965,"http://maps.google.com/maps?q=712 OAK ST,+WISCONSIN DELLS,+WI+53965&hl=en"
WISCONSIN RAPIDS POLICE DEPARTMENT,"COPPS FOOD CENTER 
												
													EVENT APRIL 20TH 10:00AM-2:00PM",900 E RIVERVIEW EXPRESSWAY,WISCONSIN RAPIDS,WI,54494,"http://maps.google.com/maps?q=900 E RIVERVIEW EXPRESSWAY,+WISCONSIN RAPIDS,+WI+54494&hl=en"
WOOD COUNTY SHERIFF'S OFFICE,"WOOD COUNTY SHERIFF'S OFFICE 
												
													DROP BOX ONLY M-F 8:00AM-4:30PM",400 MARKET STREET,WISCONSIN RAPIDS,WI,54494,"http://maps.google.com/maps?q=400 MARKET STREET,+WISCONSIN RAPIDS,+WI+54494&hl=en"
WRIGHTSTOWN POLICE DEPARTMENT,"WRIGHTSTOWN POLICE DEPARTMENT 
												
													EVENT 10:00AM-2:00PM",352 HIGH ST,WRIGHTSTOWN,WI,54180,"http://maps.google.com/maps?q=352 HIGH ST,+WRIGHTSTOWN,+WI+54180&hl=en"
