Participant,CollectionSite,Address,City,State,Zip,MapURL
10TH JUDICIAL DRUG TASK FORCE,WALMART,4225 HIGHWAY 411,MADISONVILLE,TN,37354,"http://maps.google.com/maps?q=4225 HIGHWAY 411,+MADISONVILLE,+TN+37354&hl=en"
5TH JUDICIAL DRUG TASK FORCE,BLOUNT COUNTY JUSTICE CENTER,940 EAST LAMAR ALEXANDER PARKWAY,MARYVILLE,TN,37804,"http://maps.google.com/maps?q=940 EAST LAMAR ALEXANDER PARKWAY,+MARYVILLE,+TN+37804&hl=en"
ADAIR COUNTY SHERIFF'S OFFICE,"ADAIR COUNTY SHERIFF'S OFFICE 
												
													TACO BELL (PICK UP IN PARKING LOT)",899 JAMES TOWN STREET,COLUMBIA,KY,42728,"http://maps.google.com/maps?q=899 JAMES TOWN STREET,+COLUMBIA,+KY+42728&hl=en"
ALAMO POLICE DEPARTMENT,ALAMO POLICE DEPT.,31 W. MAIN ST.,ALAMO,TN,38001,"http://maps.google.com/maps?q=31 W. MAIN ST.,+ALAMO,+TN+38001&hl=en"
ALGOOD POLICE DEPT.,ALGOOD CITY HALL LOBBY,215 W. MAIN STREET,COOKEVILLE,TN,38506,"http://maps.google.com/maps?q=215 W. MAIN STREET,+COOKEVILLE,+TN+38506&hl=en"
ASHLAND KY POLICE,ASHLAND KY POLICE,201 17TH STREET,ASHLAND,KY,41101,"http://maps.google.com/maps?q=201 17TH STREET,+ASHLAND,+KY+41101&hl=en"
BAILEYTON POLICE DEPT.,BAILEYTON POLICE DEPT.,6530 HORTON HWY,GREENEVILLE,TN,37745,"http://maps.google.com/maps?q=6530 HORTON HWY,+GREENEVILLE,+TN+37745&hl=en"
BEDFORD COUNTY SHERIFF'S DEPT.,FIRST BAPTIST CHURCH,304 E. DEPOT ST,SHELBYVILLE,TN,37160,"http://maps.google.com/maps?q=304 E. DEPOT ST,+SHELBYVILLE,+TN+37160&hl=en"
BELLE MEADE POLICE DEPT.,BELLE MEADE POLICE DEPARTMENT,4705 HARDING PIKE,NASHVILLE,TN,37205,"http://maps.google.com/maps?q=4705 HARDING PIKE,+NASHVILLE,+TN+37205&hl=en"
BICKNELL POLICE DEPARTMENT,BICKNELL POLICE DEPARTMENT,119 EAST 2ND STREET,BICKNELL,IN,47512,"http://maps.google.com/maps?q=119 EAST 2ND STREET,+BICKNELL,+IN+47512&hl=en"
BLOOMINGTON POLICE DEPARTMENT,"KROGER PHARMACY 
												
													PARKING LOT",1175 COLLEGE MALL RD.,BLOOMINGTON,IN,47401,"http://maps.google.com/maps?q=1175 COLLEGE MALL RD.,+BLOOMINGTON,+IN+47401&hl=en"
BOWLING GREEN- WARREN CO DRUG TASK FORCE,BOWLING GREEN POLICE DEPARTMENT,911 KENTUCKY STREET,BOWLING GREEN,KY,42101,"http://maps.google.com/maps?q=911 KENTUCKY STREET,+BOWLING GREEN,+KY+42101&hl=en"
BOWLING GREEN- WARREN CO DRUG TASK FORCE,"KENTUCKY STATE POLICE 
												
													POST 3",3119 NASHVILLE ROAD,BOWLING GREEN,KY,42101,"http://maps.google.com/maps?q=3119 NASHVILLE ROAD,+BOWLING GREEN,+KY+42101&hl=en"
BOWLING GREEN- WARREN CO DRUG TASK FORCE,"SAFETY CITY 
												
													IN FRONT OF GREENWOOD HIGH SCHOOL",5065 SCOTTSVILLE ROAD,BOWLING GREEN,KY,42104,"http://maps.google.com/maps?q=5065 SCOTTSVILLE ROAD,+BOWLING GREEN,+KY+42104&hl=en"
BRACKEN COUNTY SHERIFF OFFICE,BRACKEN COUNTY FISCAL COURTHOUSE,116 W MIAMI STREET,BROOKSVILLE,KY,41004,"http://maps.google.com/maps?q=116 W MIAMI STREET,+BROOKSVILLE,+KY+41004&hl=en"
BREESE POLICE DEPT.,BREESE POLICE DEPT.,500 N. 1ST STREET,BREESE,IL,62230,"http://maps.google.com/maps?q=500 N. 1ST STREET,+BREESE,+IL+62230&hl=en"
BRENTWOOD POLICE DEPARTMENT,BRENTWOOD POLICE DEPARTMENT,5211 MARYLAND WAY,BRENTWOOD,TN,37027,"http://maps.google.com/maps?q=5211 MARYLAND WAY,+BRENTWOOD,+TN+37027&hl=en"
BUNCOMBE COUNTY SHERIFF'S OFFICE,CVS PHARMACY,505 SMOKEY PARK HIGHWAY,ASHEVILLE,NC,28806,"http://maps.google.com/maps?q=505 SMOKEY PARK HIGHWAY,+ASHEVILLE,+NC+28806&hl=en"
BUNCOMBE COUNTY SHERIFF'S OFFICE,WALGREEN'S,1124 PATTON AVE,ASHEVILLE,NC,28806,"http://maps.google.com/maps?q=1124 PATTON AVE,+ASHEVILLE,+NC+28806&hl=en"
CALDWELL COUNTY SHERIFF'S OFFICE,CALDWELL COUNTY SHERIFF,100 E MARKET ST,PRINCETON,KY,42445,"http://maps.google.com/maps?q=100 E MARKET ST,+PRINCETON,+KY+42445&hl=en"
CAMDEN POLICE DEPT.,CAMDEN POLICE DEPT.,119 W. MAIN ST.,CAMDEN,TN,38320,"http://maps.google.com/maps?q=119 W. MAIN ST.,+CAMDEN,+TN+38320&hl=en"
CAPE GIRARDEAU POLICE DEPT.,CAPE GIRARDEAU POLICE DEPARTMENT,2530 MARIA LOUISE,CAPE GIRARDEAU,MO,63701,"http://maps.google.com/maps?q=2530 MARIA LOUISE,+CAPE GIRARDEAU,+MO+63701&hl=en"
CARBONDALE POLICE DEPARTMENT,CARBONDALE POLICE DEPARTMENT,501 SOUTH WASHINGTON STREET,CARBONDALE,IL,62901,"http://maps.google.com/maps?q=501 SOUTH WASHINGTON STREET,+CARBONDALE,+IL+62901&hl=en"
CARROLL COUNTY SHERIFF'S OFFICE,CARROLL COUNTY SHERIFF'S OFFICE,200 NORANDAL DRIVE,HUNTINGDON,TN,38344,"http://maps.google.com/maps?q=200 NORANDAL DRIVE,+HUNTINGDON,+TN+38344&hl=en"
CARTHAGE POLICE DEPARTMENT,CARTHAGE CITY HALL,314 SPRING ST.,CARTHAGE,TN,37030,"http://maps.google.com/maps?q=314 SPRING ST.,+CARTHAGE,+TN+37030&hl=en"
CHAPEL HILL POLICE DEPT.,CHAPEL HILL POLICE DEPT.,119 N. HORTON PKWY,CHAPEL HILL,TN,37034,"http://maps.google.com/maps?q=119 N. HORTON PKWY,+CHAPEL HILL,+TN+37034&hl=en"
CHARLESTON DEPARTMENT OF PUBLIC SAFETY,"CHARLESTON DEPT PUBLIC SAFETY 
												
													HEADQUARTERS",204 N MAIN,CHARLESTON,MO,63834,"http://maps.google.com/maps?q=204 N MAIN,+CHARLESTON,+MO+63834&hl=en"
CHESTER COUNTY SHERIFFS OFFICE,CRIMINAL JUSTICE COMPLEX,333 ERIC BELL DR.,HENDERSON,TN,38340,"http://maps.google.com/maps?q=333 ERIC BELL DR.,+HENDERSON,+TN+38340&hl=en"
CHESTER POLICE DEPARTMENT,"CHESTER POLICE DEPARTMENT 
												
													FRONT LOBBY",1330 SWANWICK ST.,CHESTER,IL,62233,"http://maps.google.com/maps?q=1330 SWANWICK ST.,+CHESTER,+IL+62233&hl=en"
CITY OF COOKEVILLE POLICE DEPT.,ANDY'S PHARMACY,305 W. SPRING STREET,COOKEVILLE,TN,38501,"http://maps.google.com/maps?q=305 W. SPRING STREET,+COOKEVILLE,+TN+38501&hl=en"
CITY OF COOKEVILLE POLICE DEPT.,WALGREENS,950 N. WASHINGTON AVE.,COOKEVILLE,TN,38501,"http://maps.google.com/maps?q=950 N. WASHINGTON AVE.,+COOKEVILLE,+TN+38501&hl=en"
CLAY COUNTY SHERIFF'S DEPARTMENT,CLAY COUNTY SHERIFF'S OFFICE,300 BROADWAY,LOUISVILLE,IL,62858,"http://maps.google.com/maps?q=300 BROADWAY,+LOUISVILLE,+IL+62858&hl=en"
CLAY COUNTY SHERIFF'S OFFICE,CLAY COUNTY SHERIFF'S OFFICE,400 WEST LAKE AVE,CELINA,TN,38551,"http://maps.google.com/maps?q=400 WEST LAKE AVE,+CELINA,+TN+38551&hl=en"
CLINTON COUNTY SHERIFF'S DEPARTMENT,CLINTON COUNTY SHERIFF'S OFFICE,810 FRANKLIN ST.,CARLYLE,IL,62231,"http://maps.google.com/maps?q=810 FRANKLIN ST.,+CARLYLE,+IL+62231&hl=en"
CLINTON POLICE DEPT.,CLINTON POLICE DEPT.,125 W. BROAD ST.,CLINTON,TN,37716,"http://maps.google.com/maps?q=125 W. BROAD ST.,+CLINTON,+TN+37716&hl=en"
COBDEN POLICE DEPARTMENT,COBDEN POLICE DEPARTMENT,112 EAST MAPLE,COBDEN,IL,62920,"http://maps.google.com/maps?q=112 EAST MAPLE,+COBDEN,+IL+62920&hl=en"
COFFEE COUNTY SHERIFF DEPARTMENT,FIRST VISION BANK,2134 HILLSBORO HWY.,MANCHESTER,TN,37355,"http://maps.google.com/maps?q=2134 HILLSBORO HWY.,+MANCHESTER,+TN+37355&hl=en"
COULTERVILLE POLICE DEPARTMENT,CHESTER POLICE DEPT.,1330 SWANWICK ST.,CHESTER,IL,62233,"http://maps.google.com/maps?q=1330 SWANWICK ST.,+CHESTER,+IL+62233&hl=en"
COULTERVILLE POLICE DEPARTMENT,COULTERVILLE POLICE DEPT.,114 N 4TH ST.,COULTERVILLE,IL,62237,"http://maps.google.com/maps?q=114 N 4TH ST.,+COULTERVILLE,+IL+62237&hl=en"
COULTERVILLE POLICE DEPARTMENT,SPARTA POLICE DEPT.,114 W JACKSON ST.,SPARTA,IL,62286,"http://maps.google.com/maps?q=114 W JACKSON ST.,+SPARTA,+IL+62286&hl=en"
CROSSVILLE POLICE DEPT.,CROSSVILLE POLICE DEPT.,115 HENRY ST.,CROSSVILLE,TN,38555,"http://maps.google.com/maps?q=115 HENRY ST.,+CROSSVILLE,+TN+38555&hl=en"
CUMBERLAND CO. SHERIFF'S DEPARTMENT,CUMBERLAND COUNTY SHERIFF,90 JUSTICE CENTER DR,CROSSVILLE,TN,38555,"http://maps.google.com/maps?q=90 JUSTICE CENTER DR,+CROSSVILLE,+TN+38555&hl=en"
DANDRIDGE POLICE DEPARTMENT,FOOD CITY,123 WEST HWY 25/70,DANDRIDGE,TN,37725,"http://maps.google.com/maps?q=123 WEST HWY 25/70,+DANDRIDGE,+TN+37725&hl=en"
DANVILLE POLICE DEPARTMENT,DANVILLE POLICE DEPARTMENT/CITY HALL,445 W MAIN STREET,DANVILLE,KY,40422,"http://maps.google.com/maps?q=445 W MAIN STREET,+DANVILLE,+KY+40422&hl=en"
DICKSON POLICE DEPARTMENT,FIRST BANK,345 HWY 46 SOUTH,DICKSON,TN,37055,"http://maps.google.com/maps?q=345 HWY 46 SOUTH,+DICKSON,+TN+37055&hl=en"
DUBOIS CO. SHERIFF DEPT.,DUBOIS FIRE DEPT.,4579 N 2ND ST,DUBOIS,IN,47527,"http://maps.google.com/maps?q=4579 N 2ND ST,+DUBOIS,+IN+47527&hl=en"
DUBOIS CO. SHERIFF DEPT.,ST HENRY FIRE DEPT.,"1211 W 1100 S,",FERDINAND,IN,47532,"http://maps.google.com/maps?q=1211 W 1100 S,,+FERDINAND,+IN+47532&hl=en"
DUQUOIN POLICE DEPARTMENT,"DUQUOIN POLICE DEPARTMENT 
												
													LOBBY",304 E. POPLAR ST,DU QUOIN,IL,62832,"http://maps.google.com/maps?q=304 E. POPLAR ST,+DU QUOIN,+IL+62832&hl=en"
DYER COUNTY SHERIFF'S DEPT.,DYER CO. HEALTH DEPT.,1755 PARR AVE.,DYERSBURG,TN,38024,"http://maps.google.com/maps?q=1755 PARR AVE.,+DYERSBURG,+TN+38024&hl=en"
DYER COUNTY SHERIFF'S OFFICE,"DYER COUNTY JAIL 
												
													LOBBY",401 EAST CEDAR STREET,DYERSBURG,TN,38024,"http://maps.google.com/maps?q=401 EAST CEDAR STREET,+DYERSBURG,+TN+38024&hl=en"
EAST PRAIRIE POLICE DEPARTMENT,"EAST PRAIRIE POLICE DEPARTMENT 
												
													MARK HIGGINS",219 N. WASHINGTON,EAST PRAIRIE,MO,63845,"http://maps.google.com/maps?q=219 N. WASHINGTON,+EAST PRAIRIE,+MO+63845&hl=en"
EFFINGHAM COUNTY SHERIFF'S OFFICE,EFFINGHAM COUNTY SHERIFF'S OFFICE,101 N. 4TH STREET,EFFINGHAM,IL,62401,"http://maps.google.com/maps?q=101 N. 4TH STREET,+EFFINGHAM,+IL+62401&hl=en"
EMINENCE POLICE DEPARTMENT,EMINENCE POLICE DEPARTMENT,45 DEPOT AVE,EMINENCE,KY,40019,"http://maps.google.com/maps?q=45 DEPOT AVE,+EMINENCE,+KY+40019&hl=en"
FAIRFIELD GLADE POLICE DEPARTMENT,FAIRFIELD GLADE POLICE DEPT,7258 PEAVINE RD,CROSSVILLE,TN,38558,"http://maps.google.com/maps?q=7258 PEAVINE RD,+CROSSVILLE,+TN+38558&hl=en"
FAIRVIEW POLICE DEPARTMENT,FRED'S PHARMACY,2415 FAIRVIEW BLVD,FAIRVIEW,TN,37062,"http://maps.google.com/maps?q=2415 FAIRVIEW BLVD,+FAIRVIEW,+TN+37062&hl=en"
FELICITY POLICE DEPARTMENT,FELICITY POLICE DEPARTMENT,415 WALNUT STREET,FELICITY,OH,45120,"http://maps.google.com/maps?q=415 WALNUT STREET,+FELICITY,+OH+45120&hl=en"
FLEMINGSBURG POLICE DEPARTMENT,FLEMINGSBURG POLICE DEPARTMENT,116 S MAIN CROSS STREET,FLEMINGSBURG,KY,41041,"http://maps.google.com/maps?q=116 S MAIN CROSS STREET,+FLEMINGSBURG,+KY+41041&hl=en"
FRANKFORT POLICE DEPARTMENT,"FRANKLIN COUNTY HEALTH DEPARTMENT 
												
													EAST WEST CONNECTOR ROAD",851 EAST WEST CONNECTOR ROAD,FRANKFORT,KY,40601,"http://maps.google.com/maps?q=851 EAST WEST CONNECTOR ROAD,+FRANKFORT,+KY+40601&hl=en"
GATLINBURG POLICE DEPT.,GATLINBURG PD,1230 E. PKWY,GATLINBURG,TN,37738,"http://maps.google.com/maps?q=1230 E. PKWY,+GATLINBURG,+TN+37738&hl=en"
GIBSON COUNTY SHERIFF'S OFFICE,GIBSON COUNTY SHERIFF'S OFFICE,401 N. COLLEGE STREET,TRENTON,TN,38382,"http://maps.google.com/maps?q=401 N. COLLEGE STREET,+TRENTON,+TN+38382&hl=en"
GLASGOW POLICE DEPARTMENT,WALMART,2345 HAPPY VALLEY RD.,GLASGOW,KY,42141,"http://maps.google.com/maps?q=2345 HAPPY VALLEY RD.,+GLASGOW,+KY+42141&hl=en"
GOODLETTSVILLE POLICE DEPARTMENT,GOODLETTSVILLE POLICE DEPARTMENT,105 SOUTH MAIN STREET,GOODLETTSVILLE,TN,37072,"http://maps.google.com/maps?q=105 SOUTH MAIN STREET,+GOODLETTSVILLE,+TN+37072&hl=en"
GRAINGER COUNTY SHERIFF'S DEPARTMENT,OKIES PHARMACY,1050 RUTLEDGE PIKE,BLAINE,TN,37709,"http://maps.google.com/maps?q=1050 RUTLEDGE PIKE,+BLAINE,+TN+37709&hl=en"
GRAYMOOR-DEVONDALE POLICE DEPARTMENT,GRAYMOOR-DEVONDALE POLICE DEPARTMENT,1500 LYNN WAY,LOUISVILLE,KY,40222,"http://maps.google.com/maps?q=1500 LYNN WAY,+LOUISVILLE,+KY+40222&hl=en"
GREENBRIER POLICE DEPARTMENT,GREENBRIER PHARMACY,2239 HWY 41 S,GREENBRIER,TN,37073,"http://maps.google.com/maps?q=2239 HWY 41 S,+GREENBRIER,+TN+37073&hl=en"
GREENE COUNTY SHERIFF OFFICE,"GREENE COUNTY GENERAL HOSPITAL 
												
													NONE",1185 N 1000 W,LINTON,IN,47441,"http://maps.google.com/maps?q=1185 N 1000 W,+LINTON,+IN+47441&hl=en"
GREENE COUNTY SHERIFF OFFICE,"GREENE COUNTY SHERIFF OFFICE 
												
													NONE",204 S 70 E,BLOOMFIELD,IN,47424,"http://maps.google.com/maps?q=204 S 70 E,+BLOOMFIELD,+IN+47424&hl=en"
GREENE COUNTY SHERIFF'S DEPT.,"CHUCKEY DOAK MIDDLE SCHOOL 
												
													PARKING LOT",120 CHUCKEY DOAK RD.,AFTON,TN,37616,"http://maps.google.com/maps?q=120 CHUCKEY DOAK RD.,+AFTON,+TN+37616&hl=en"
GREENE COUNTY SHERIFF'S DEPT.,"WEST GREENE HIGH SCHOOL 
												
													PARKING LOT",275 W. GREENE DR.,MOSHEIM,TN,37818,"http://maps.google.com/maps?q=275 W. GREENE DR.,+MOSHEIM,+TN+37818&hl=en"
GREENVILLE POLICE DEPARTMENT,BOND COUNTY SHERIFF'S DEPARTMENT,403 S. SECOND ST,GREENVILLE,IL,62246,"http://maps.google.com/maps?q=403 S. SECOND ST,+GREENVILLE,+IL+62246&hl=en"
GREENVILLE POLICE DEPARTMENT,GREENEVILLE POLICE DEPARTMENT,200 N. COLLEGE STREET,GREENEVILLE,TN,37745,"http://maps.google.com/maps?q=200 N. COLLEGE STREET,+GREENEVILLE,+TN+37745&hl=en"
GREENVILLE POLICE DEPARTMENT,GREENVILLE POLICE DEPARTMENT,404 S. THIRD ST,GREENVILLE,IL,62246,"http://maps.google.com/maps?q=404 S. THIRD ST,+GREENVILLE,+IL+62246&hl=en"
GRUNDY COUNTY SHERIFF'S OFFICE,"COALMONT 
												
													BESIDE L & L HARDWARE",38 S. INDUSTRIAL PARK RD.,COALMONT,TN,37313,"http://maps.google.com/maps?q=38 S. INDUSTRIAL PARK RD.,+COALMONT,+TN+37313&hl=en"
HANCOCK COUNTY SHERIFF'S OFFICE,LEWISPORT FIRE DEPARTMENT,4TH STREET,LEWISPORT,KY,42351,"http://maps.google.com/maps?q=4TH STREET,+LEWISPORT,+KY+42351&hl=en"
HARLAN POLICE DEPARTMENT,HARLAN POLICE DEPARTMENT,218 SOUTH MAIN,HARLAN,KY,40831,"http://maps.google.com/maps?q=218 SOUTH MAIN,+HARLAN,+KY+40831&hl=en"
HARRIMAN POLICE DEPT.,WALGREENS,1797 ROANE STATE HWY,HARRIMAN,TN,37748,"http://maps.google.com/maps?q=1797 ROANE STATE HWY,+HARRIMAN,+TN+37748&hl=en"
HARRISON COUNTY SHERIFF'S OFFICE,HARRISON COUNTY SHERIFF'S OFFICE,113 W. PIKE ST.,CYNTHIANA,KY,41031,"http://maps.google.com/maps?q=113 W. PIKE ST.,+CYNTHIANA,+KY+41031&hl=en"
HAWKINS COUNTY SHERIFF'S OFFICE,HAWKINS COUNTY SHERIFF'S OFFICE,117 JUSTIC CENTER DR,ROGERSVILLE,TN,37857,"http://maps.google.com/maps?q=117 JUSTIC CENTER DR,+ROGERSVILLE,+TN+37857&hl=en"
HENDERSONVILLE POLICE DEPT.,HENDERSONVILLE PD,#3 EXECUTIVE PARK DR.,HENDERSONVILLE,TN,37075,"http://maps.google.com/maps?q=#3 EXECUTIVE PARK DR.,+HENDERSONVILLE,+TN+37075&hl=en"
HIGHLAND POLICE DEPARTMENT,"HIGHLAND POLICE DEPARTMENT 
												
													FRONT LOBBY",820 MULBERRY ST,HIGHLAND,IL,62249,"http://maps.google.com/maps?q=820 MULBERRY ST,+HIGHLAND,+IL+62249&hl=en"
HILLSBORO POLICE DEPARTMENT,HILLSBORO POLICE DEPARTMENT,447 SOUTH MAIN STREETSUITE 5,HILLSBORO,IL,62049,"http://maps.google.com/maps?q=447 SOUTH MAIN STREET,+HILLSBORO,+IL+62049&hl=en"
HUMBOLDT POLICE DEPARTMENT,HUMBOLDT PD,1421 OSBORNE ST.,HUMBOLDT,TN,38343,"http://maps.google.com/maps?q=1421 OSBORNE ST.,+HUMBOLDT,+TN+38343&hl=en"
HUMPHREYS SHERIFF'S OFFICE,"CASE DRUG 
												
													1: 30 P.M. - 3:30 P.M.",990 BROADWAY AVE.,NEW JOHNSONVILLE,TN,37134,"http://maps.google.com/maps?q=990 BROADWAY AVE.,+NEW JOHNSONVILLE,+TN+37134&hl=en"
HUMPHREYS SHERIFF'S OFFICE,"CVS 
												
													11:00 A.M. - 1:00 P.M.",408 W. MAIN ST.,WAVERLY,TN,37185,"http://maps.google.com/maps?q=408 W. MAIN ST.,+WAVERLY,+TN+37185&hl=en"
HUMPHREYS SHERIFF'S OFFICE,"MCEWEN PRESCRIPTION SHOP 
												
													8:30 A.M. - 10:30 A.M.",10033 HWY 70 E,MC EWEN,TN,37101,"http://maps.google.com/maps?q=10033 HWY 70 E,+MC EWEN,+TN+37101&hl=en"
HUNTINGDON POLICE DEPT.,HUNTINGDON PUBLIC SAFETY BLDG.,12740 LEXINGTON ST.,HUNTINGDON,TN,38344,"http://maps.google.com/maps?q=12740 LEXINGTON ST.,+HUNTINGDON,+TN+38344&hl=en"
INDIANA STATE POLICE,"INDIANA STATE POLICE 
												
													DISTRICT 33",1500 N. PACKINGHOUSE RD. #200,BLOOMINGTON,IN,47404,"http://maps.google.com/maps?q=1500 N. PACKINGHOUSE RD. #200,+BLOOMINGTON,+IN+47404&hl=en"
INDIANA STATE POLICE,"INDIANA STATE POLICE 
												
													DISTRICT 34",2209 NEWTON STREET,JASPER,IN,47546,"http://maps.google.com/maps?q=2209 NEWTON STREET,+JASPER,+IN+47546&hl=en"
INDIANA STATE POLICE,"INDIANA STATE POLICE 
												
													DISTRICT 35",19411 HIGHWAY 41 NORTH,EVANSVILLE,IN,47725,"http://maps.google.com/maps?q=19411 HIGHWAY 41 NORTH,+EVANSVILLE,+IN+47725&hl=en"
INDIANA STATE POLICE,"INDIANA STATE POLICE 
												
													DISTRICT 42",902 SOUTH ADAMS STREET,VERSAILLES,IN,47042,"http://maps.google.com/maps?q=902 SOUTH ADAMS STREET,+VERSAILLES,+IN+47042&hl=en"
INDIANA STATE POLICE,"INDIANA STATE POLICE 
												
													DISTRICT 45",8014 HIGHWAY 311,SELLERSBURG,IN,47172,"http://maps.google.com/maps?q=8014 HIGHWAY 311,+SELLERSBURG,+IN+47172&hl=en"
JACKSON POLICE DEPARTMENT,JACKSON POLICE / FIRE COMPLEX,525 S. HOPE ST.,JACKSON,MO,63755,"http://maps.google.com/maps?q=525 S. HOPE ST.,+JACKSON,+MO+63755&hl=en"
JACKSON-MADISON COUNTY METRO NARCOTICS,CVS PHARMACY,1405 N. HIGHLAND,JACKSON,TN,38301,"http://maps.google.com/maps?q=1405 N. HIGHLAND,+JACKSON,+TN+38301&hl=en"
JACKSON-MADISON COUNTY METRO NARCOTICS,KROGER PHARMACY,41 STONEBROOK PLACE,JACKSON,TN,38301,"http://maps.google.com/maps?q=41 STONEBROOK PLACE,+JACKSON,+TN+38301&hl=en"
JACKSON-MADISON COUNTY METRO NARCOTICS,"WAL-GREENS 
												
													BEMIS",1405 S HIGHLAND AVE,JACKSON,TN,38301,"http://maps.google.com/maps?q=1405 S HIGHLAND AVE,+JACKSON,+TN+38301&hl=en"
JEFFERSON COUNTY SHERIFF'S OFFICE,JEFFERSON COUNTY SHERIFF'S OFFICE,531 COURT PLACE SUITE 600,LOUISVILLE,KY,40202,"http://maps.google.com/maps?q=531 COURT PLACE SUITE 600,+LOUISVILLE,+KY+40202&hl=en"
KENTUCKY STATE POLICE POST 10,KENTUCKY STATE POLICE,3319 SOUTH US 421,HARLAN,KY,40831,"http://maps.google.com/maps?q=3319 SOUTH US 421,+HARLAN,+KY+40831&hl=en"
KENTUCKY STATE POLICE POST 11,LAUREL COUNTY HEALTH DEPARTMENT,525 WHITLEY STREET,LONDON,KY,40741,"http://maps.google.com/maps?q=525 WHITLEY STREET,+LONDON,+KY+40741&hl=en"
KENTUCKY STATE POLICE POST 13,KENTUCKY STATE POLICE,100 JUSTICE DRIVE,HAZARD,KY,41701,"http://maps.google.com/maps?q=100 JUSTICE DRIVE,+HAZARD,+KY+41701&hl=en"
KENTUCKY STATE POLICE POST 14,KENTUCKY STATE POLICE,5975 STATE ROUTE US 60,ASHLAND,KY,41102,"http://maps.google.com/maps?q=5975 STATE ROUTE US 60,+ASHLAND,+KY+41102&hl=en"
KENTUCKY STATE POLICE POST 15,KENTUCKY STATE POLICE POST 15,1118 JAMESTOWN STREET,COLUMBIA,KY,42728,"http://maps.google.com/maps?q=1118 JAMESTOWN STREET,+COLUMBIA,+KY+42728&hl=en"
KENTUCKY STATE POLICE POST 16,KSP POST 16,8298 KEACH DRIVE,HENDERSON,KY,42420,"http://maps.google.com/maps?q=8298 KEACH DRIVE,+HENDERSON,+KY+42420&hl=en"
KENTUCKY STATE POLICE POST 2,KENTUCKY STATE POLICE POST 2,1000 WESTERN KENTUCKY PARKWAY,NORTONVILLE,KY,42442,"http://maps.google.com/maps?q=1000 WESTERN KENTUCKY PARKWAY,+NORTONVILLE,+KY+42442&hl=en"
KENTUCKY STATE POLICE POST 3,"KENTUCKY STATE POLICE 
												
													POST 3",3119NASHVILLE RD.,BOWLING GREEN,KY,42101,"http://maps.google.com/maps?q=3119,+BOWLING GREEN,+KY+42101&hl=en"
KENTUCKY STATE POLICE POST 5,KENTUCKY STATE POLICE,160 CITATION LANE,CAMPBELLSBURG,KY,40011,"http://maps.google.com/maps?q=160 CITATION LANE,+CAMPBELLSBURG,+KY+40011&hl=en"
KENTUCKY STATE POLICE POST 6,KSP POST 6,4265 DIXIE HIGHWAY,DRY RIDGE,KY,41035,"http://maps.google.com/maps?q=4265 DIXIE HIGHWAY,+DRY RIDGE,+KY+41035&hl=en"
KENTUCKY STATE POLICE POST 7,KENTUCKY STATE POLICE POST 7,"699 EASTERN BYPASS, RICHMOND, KY",RICHMOND,KY,40475,"http://maps.google.com/maps?q=699 EASTERN BYPASS, RICHMOND, KY,+RICHMOND,+KY+40475&hl=en"
KENTUCKY STATE POLICE POST 8,MOREHEAD POLICE DEPARTMENT,105 E MAIN STREET,MOREHEAD,KY,40351,"http://maps.google.com/maps?q=105 E MAIN STREET,+MOREHEAD,+KY+40351&hl=en"
KINGSTON POLICE DEPT.,FOOD CITY,1000 LADD LANDING BLVD.,KINGSTON,TN,37763,"http://maps.google.com/maps?q=1000 LADD LANDING BLVD.,+KINGSTON,+TN+37763&hl=en"
KNOX COUNTY SHERIFF OFFICE,"KNOX COUNTY SHERIFF'S OFFICE 
												
													24/7 DROP BOX",2375 S. OLD DECKER RD.,VINCENNES,IN,47591,"http://maps.google.com/maps?q=2375 S. OLD DECKER RD.,+VINCENNES,+IN+47591&hl=en"
KNOXVILLE POLICE DEPARTMENT,KROGER,9225 KINGSTON PIKE,KNOXVILLE,TN,37922,"http://maps.google.com/maps?q=9225 KINGSTON PIKE,+KNOXVILLE,+TN+37922&hl=en"
LAVERGNE POLICE DEPARTMENT,KROGER,5145 MURFREESBORO RD,LA VERGNE,TN,37086,"http://maps.google.com/maps?q=5145 MURFREESBORO RD,+LA VERGNE,+TN+37086&hl=en"
LEBANON POLICE DEPARTMENT,WALGREENS,606 S. CUMBERLAND ST.,LEBANON,TN,37087,"http://maps.google.com/maps?q=606 S. CUMBERLAND ST.,+LEBANON,+TN+37087&hl=en"
LEE COUNTY SHERIFF'S OFFICE,"FOOD CITY STORE 
												
													NEAR FRONT ENTRANCE",205 RIVER BEND ROAD,PENNINGTON GAP,VA,24277,"http://maps.google.com/maps?q=205 RIVER BEND ROAD,+PENNINGTON GAP,+VA+24277&hl=en"
LEITCHFIELD POLICE DEPARTMENT,LEITCHFIELD POLICE DEPT,117 SOUTH MAIN STREET,LEITCHFIELD,KY,42754,"http://maps.google.com/maps?q=117 SOUTH MAIN STREET,+LEITCHFIELD,+KY+42754&hl=en"
LEXINGTON POLICE DEPARTMENT,FAMILY PHARMACY,6 HOSPITAL DRIVE,LEXINGTON,TN,38351,"http://maps.google.com/maps?q=6 HOSPITAL DRIVE,+LEXINGTON,+TN+38351&hl=en"
LEXINGTON POLICE DEPARTMENT,KENTUCKY AMERICAN WATER COMPANY,2300 RICHMOND RD,LEXINGTON,KY,40502,"http://maps.google.com/maps?q=2300 RICHMOND RD,+LEXINGTON,+KY+40502&hl=en"
LEXINGTON POLICE DEPARTMENT,WALGREENS PHARMACY,603 WEST CHURCH STREET,LEXINGTON,TN,38351,"http://maps.google.com/maps?q=603 WEST CHURCH STREET,+LEXINGTON,+TN+38351&hl=en"
LITCHFIELD POLICE DEPARTMENT,"LITCHFIELD POLICE DEPARTMENT 
												
													LOBBY DROP BOX",120 E. RYDER STREET,LITCHFIELD,IL,62056,"http://maps.google.com/maps?q=120 E. RYDER STREET,+LITCHFIELD,+IL+62056&hl=en"
LIVINGSTON POLICE DEPARTMENT,LIVINGSTON POLICE DEPARTMENT,900 N. CHURCH ST,LIVINGSTON,TN,38570,"http://maps.google.com/maps?q=900 N. CHURCH ST,+LIVINGSTON,+TN+38570&hl=en"
LOUISVILLE METRO POLICE DEPARTMENT,"CVS 
												
													PARKING LOT",3130 PORTLAND AVE,LOUISVILLE,KY,40212,"http://maps.google.com/maps?q=3130 PORTLAND AVE,+LOUISVILLE,+KY+40212&hl=en"
LOUISVILLE METRO POLICE DEPARTMENT,"KROGER 
												
													PARKING LOT",291 N HUBBARD'S LN,LOUISVILLE,KY,40207,"http://maps.google.com/maps?q=291 N HUBBARD'S LN,+LOUISVILLE,+KY+40207&hl=en"
LOUISVILLE METRO POLICE DEPARTMENT,"WALGREEN'S 
												
													PARKING LOT",11930 STANDIFORD PLAZA DR,LOUISVILLE,KY,40229,"http://maps.google.com/maps?q=11930 STANDIFORD PLAZA DR,+LOUISVILLE,+KY+40229&hl=en"
LOUISVILLE METRO POLICE DEPARTMENT,"WALGREENS 
												
													PARKING LOT",12101 DIXIE HIGHWAY,LOUISVILLE,KY,40272,"http://maps.google.com/maps?q=12101 DIXIE HIGHWAY,+LOUISVILLE,+KY+40272&hl=en"
LOUISVILLE METRO POLICE DEPARTMENT,"WALGREENS 
												
													PARKING LOT",4025 TAYLORSVILLE RD,LOUISVILLE,KY,40220,"http://maps.google.com/maps?q=4025 TAYLORSVILLE RD,+LOUISVILLE,+KY+40220&hl=en"
MACON COUNTY SHERIFF'S DEPT,MACON COUNTY SHERIFF'S DEPT,902 HWY 52 BY-PASS E,LAFAYETTE,TN,37083,"http://maps.google.com/maps?q=902 HWY 52 BY-PASS E,+LAFAYETTE,+TN+37083&hl=en"
MADISONVILLE POLICE DEPT.,MADISONVILLE POLICE DEPARTMENT,315 ENGLEWOOD RD.,MADISONVILLE,TN,37354,"http://maps.google.com/maps?q=315 ENGLEWOOD RD.,+MADISONVILLE,+TN+37354&hl=en"
MANCHESTER POLICE DEPARTMENT,"MANCHESTER POLICE DEPARTMENT 
												
													DRUG TAKE BACK DROP BOX",200 WEST FORT STREET,MANCHESTER,TN,37355,"http://maps.google.com/maps?q=200 WEST FORT STREET,+MANCHESTER,+TN+37355&hl=en"
MARION COUNTY SHERIFF'S DEPT,MARION COUNTY SHERIFF'S DEPT,204 N. WASHINGTON STREET,SALEM,IL,62881,"http://maps.google.com/maps?q=204 N. WASHINGTON STREET,+SALEM,+IL+62881&hl=en"
MARION POLICE DEPARTMENT,"MARION POLICE DEPARTMENT 
												
													CHIEF RAY O'NEAL",217 SOUTH MAIN STREET,MARION,KY,42064,"http://maps.google.com/maps?q=217 SOUTH MAIN STREET,+MARION,+KY+42064&hl=en"
MARSHALL COUNTY SHERIFF'S OFFICE,MARSHALL COUNTY SHERIFF'S OFFICE,209 1ST AVE N.,LEWISBURG,TN,37091,"http://maps.google.com/maps?q=209 1ST AVE N.,+LEWISBURG,+TN+37091&hl=en"
MASSAC COUNTY SHERIFF'S DEPT,"MASSAC COUNTY SHERIFF'S DEPT 
												
													LOCATED IN THE LOBBY",515 MARKET ST,METROPOLIS,IL,62960,"http://maps.google.com/maps?q=515 MARKET ST,+METROPOLIS,+IL+62960&hl=en"
MCLEANSBORO POLICE DEPARTMENT,MCLEANSBORO FIRE DEPARTMENT,108 SOUTH MARSHALL AVE,MCLEANSBORO,IL,62859,"http://maps.google.com/maps?q=108 SOUTH MARSHALL AVE,+MCLEANSBORO,+IL+62859&hl=en"
MCMINNVILLE POLICE DEPT.,MCMINNVILLE POLICE DEPARTMENT,204 RED ROAD,MCMINNVILLE,TN,37110,"http://maps.google.com/maps?q=204 RED ROAD,+MCMINNVILLE,+TN+37110&hl=en"
MEIGS COUNTY SHERIFF'S OFFICE,MEIGS COUNTY JAIL,410 RIVER ROAD,DECATUR,TN,37322,"http://maps.google.com/maps?q=410 RIVER ROAD,+DECATUR,+TN+37322&hl=en"
"MERCER COUNTY, KY SHERIFFS OFFICE",MERCER COUNTY SHERIFFS OFFICE,207 WEST LEXINGTON ST,HARRODSBURG,KY,40330,"http://maps.google.com/maps?q=207 WEST LEXINGTON ST,+HARRODSBURG,+KY+40330&hl=en"
METRO NASHVILLE POLICE DEPARTMENT,KROGER,5544 OLD HICKORY BLVD.,HERMITAGE,TN,37076,"http://maps.google.com/maps?q=5544 OLD HICKORY BLVD.,+HERMITAGE,+TN+37076&hl=en"
METRO NASHVILLE POLICE DEPARTMENT,KROGER,6690 NOLENSVILLE RD.,BRENTWOOD,TN,37027,"http://maps.google.com/maps?q=6690 NOLENSVILLE RD.,+BRENTWOOD,+TN+37027&hl=en"
MIDDLE TN STATE UNIVERSITY POLICE DEPARTMENT,MTSU HEALTH SERVICES,1848 BLUE RAIDER DRIVE,MURFREESBORO,TN,37132,"http://maps.google.com/maps?q=1848 BLUE RAIDER DRIVE,+MURFREESBORO,+TN+37132&hl=en"
MILAN POLICE DEPARTMENT,MILAN HEALTH DEPT.,6501 TELECOM DRIVE,MILAN,TN,38358,"http://maps.google.com/maps?q=6501 TELECOM DRIVE,+MILAN,+TN+38358&hl=en"
MILAN POLICE DEPARTMENT,"MILAN PUBLIC SAFETY BUILDING 
												
													DROP BOX IN LOBBY",7029 TELECOM DRIVE,MILAN,TN,38358,"http://maps.google.com/maps?q=7029 TELECOM DRIVE,+MILAN,+TN+38358&hl=en"
MONROE COUNTY SHERIFF'S OFFICE,WALGREENS,4440 US 411,MADISONVILLE,TN,37354,"http://maps.google.com/maps?q=4440 US 411,+MADISONVILLE,+TN+37354&hl=en"
MONROE COUNTY SHERIFF'S OFFICE,WALGREENS,929 NEW HWY 68,SWEETWATER,TN,37874,"http://maps.google.com/maps?q=929 NEW HWY 68,+SWEETWATER,+TN+37874&hl=en"
MONTEREY POLICE DEPARTMENT,FRED'S PHARMACY,104 S. HOLLY STREET,MONTEREY,TN,38574,"http://maps.google.com/maps?q=104 S. HOLLY STREET,+MONTEREY,+TN+38574&hl=en"
MONTEREY POLICE DEPARTMENT,MONTEREY DRUGS,201F NORTH ELMORE ST.,MONTEREY,TN,38574,"http://maps.google.com/maps?q=201F NORTH ELMORE ST.,+MONTEREY,+TN+38574&hl=en"
MONTEREY POLICE DEPARTMENT,MONTEREY POLICE DEPARTMENT,711 E. COMMERCIAL AVE.,MONTEREY,TN,38574,"http://maps.google.com/maps?q=711 E. COMMERCIAL AVE.,+MONTEREY,+TN+38574&hl=en"
MONTGOMERY COUNTY SHERIFF'S OFFICE,MONTGOMERY COUNTY SHERIFF'S OFFICE,140 N. MAIN STREET,HILLSBORO,IL,62049,"http://maps.google.com/maps?q=140 N. MAIN STREET,+HILLSBORO,+IL+62049&hl=en"
MOREHEAD POLICE DEPARTMENT,CARL D. PERKINS COMMUNITY CENTER,CRAYTON JACKSON LANE,MOREHEAD,KY,40351,"http://maps.google.com/maps?q=CRAYTON JACKSON LANE,+MOREHEAD,+KY+40351&hl=en"
MORGAN COUNTY SHERIFF'S OFFICE,MORGAN COUNTY SHERIFF'S OFFICE,414 MAIN ST.,WARTBURG,TN,37887,"http://maps.google.com/maps?q=414 MAIN ST.,+WARTBURG,+TN+37887&hl=en"
MOUNT CARMEL POLICE DEPT.,PUBLIC SAFETY DEPT.,213 HAMMOND AVENUE,MOUNT CARMEL,TN,37645,"http://maps.google.com/maps?q=213 HAMMOND AVENUE,+MOUNT CARMEL,+TN+37645&hl=en"
MOUNT STERLING POLICE DEPARTMENT,MT. STERLING PLICE DEPT.,35 SOUTH BANK,MOUNT STERLING,KY,40353,"http://maps.google.com/maps?q=35 SOUTH BANK,+MOUNT STERLING,+KY+40353&hl=en"
MT. JULIET POLICE DEPT.,MT. JULIET POLICE DEPT.,1019 CHARLIE DANIELS PKWY,MOUNT JULIET,TN,37122,"http://maps.google.com/maps?q=1019 CHARLIE DANIELS PKWY,+MOUNT JULIET,+TN+37122&hl=en"
MT. VERNON POLICE DEPARTMENT,MT. VERNON POLICE DEPARTMENT,211 N. 10TH ST,MOUNT VERNON,IL,62864,"http://maps.google.com/maps?q=211 N. 10TH ST,+MOUNT VERNON,+IL+62864&hl=en"
NEW JOHNSONVILLE POLICE DEPARTMENT,NEW JOHNSONVILLE CITY HALL,323 LONG ST.,NEW JOHNSONVILLE,TN,37134,"http://maps.google.com/maps?q=323 LONG ST.,+NEW JOHNSONVILLE,+TN+37134&hl=en"
NEWBERN POLICE DEPT.,NEWBERN POLICE DEPT.,121 EAST MAIN ST.,NEWBERN,TN,38059,"http://maps.google.com/maps?q=121 EAST MAIN ST.,+NEWBERN,+TN+38059&hl=en"
NEWPORT POLICE DEPT.,FOOD CITY EAST,416 EASTERN PLAZA,NEWPORT,TN,37821,"http://maps.google.com/maps?q=416 EASTERN PLAZA,+NEWPORT,+TN+37821&hl=en"
NICHOLASVILLE POLICE DEPARTMENT,WAL-MART,1032 NORTH MAIN,NICHOLASVILLE,KY,40356,"http://maps.google.com/maps?q=1032 NORTH MAIN,+NICHOLASVILLE,+KY+40356&hl=en"
NORTON POLICE DEPARTMENT,"CVS PHARMACY 
												
													PARKING LOT",1128 PARK AVENUE,NORTON,VA,24273,"http://maps.google.com/maps?q=1128 PARK AVENUE,+NORTON,+VA+24273&hl=en"
OAK RIDGE POLICE DEPT.,OAK RIDGE POLICE DEPT.,200 S. TULANE AVE,OAK RIDGE,TN,37830,"http://maps.google.com/maps?q=200 S. TULANE AVE,+OAK RIDGE,+TN+37830&hl=en"
OLDHAM COUNTY SHERIFF'S OFFICE,LAGRANGE FIRE DEPARTMENT STATION 2,3637 W HWY 146,BUCKNER,KY,40010,"http://maps.google.com/maps?q=3637 W HWY 146,+BUCKNER,+KY+40010&hl=en"
OLDHAM COUNTY SHERIFF'S OFFICE,OLDHAM COUNTY POLICE DEPARTMENT,1855 NORTH HIGHWAY 393,LA GRANGE,KY,40031,"http://maps.google.com/maps?q=1855 NORTH HIGHWAY 393,+LA GRANGE,+KY+40031&hl=en"
OVERTON COUNTY SHERIFF'S DEPT.,R & M PHARMACY,1970 BRADFORD HICKS DR,LIVINGSTON,TN,38570,"http://maps.google.com/maps?q=1970 BRADFORD HICKS DR,+LIVINGSTON,+TN+38570&hl=en"
OWENSBORO POLICE DEPARTMENT,"OWENSBORO POLICE DEPARTMENT 
												
													FRONT LOBBY",222 E 9TH ST,OWENSBORO,KY,42303,"http://maps.google.com/maps?q=222 E 9TH ST,+OWENSBORO,+KY+42303&hl=en"
PARIS POLICE DEPARTMENT,WALMART,305 LETTON DRIVE,PARIS,KY,40361,"http://maps.google.com/maps?q=305 LETTON DRIVE,+PARIS,+KY+40361&hl=en"
PARTNERSHIPS FOR SUCCESS/SCOTT COUNTY PARTNERSHIP,"AUSTIN POLICE DEPARTMENT LOBBY 
												
													24/7 CONTROLLED AND NON-CONTROLLED MEDICATION DROP BOX",127 S. HIGHWAY 31,AUSTIN,IN,47102,"http://maps.google.com/maps?q=127 S. HIGHWAY 31,+AUSTIN,+IN+47102&hl=en"
PARTNERSHIPS FOR SUCCESS/SCOTT COUNTY PARTNERSHIP,"SCOTT COUNTY SHERIFF'S DEPARTMENT LOBBY 
												
													24/7 CONTROLLED AND NON-CONTROLLED MEDICATION DROP",111 S. FIRST ST.,SCOTTSBURG,IN,47170,"http://maps.google.com/maps?q=111 S. FIRST ST.,+SCOTTSBURG,+IN+47170&hl=en"
PARTNERSHIPS FOR SUCCESS/SCOTT COUNTY PARTNERSHIP,"SCOTTSBURG WALMART 
												
													DEA DRUG TAKE BACK APRIL 28, 2018, 10 AM - 2 PM",1618 W. MCCLAIN AVE.,SCOTTSBURG,IN,47170,"http://maps.google.com/maps?q=1618 W. MCCLAIN AVE.,+SCOTTSBURG,+IN+47170&hl=en"
PENDLETON COUNTY SHERIFF'S OFFICE,PENDLETON COUNTY SHERIFF'S OFFICE,202 CHAPEL STREET,FALMOUTH,KY,41040,"http://maps.google.com/maps?q=202 CHAPEL STREET,+FALMOUTH,+KY+41040&hl=en"
PERRY COUNTY RECYCLING MANGEMENT DISTIRCT,PERRY COUNTY FAMILY PRACTICE,18485 IN-37,LEOPOLD,IN,47551,"http://maps.google.com/maps?q=18485 IN-37,+LEOPOLD,+IN+47551&hl=en"
PERRY COUNTY RECYCLING MANGEMENT DISTIRCT,TELL CITY FIRE STATION,707 MOZART STREET,TELL CITY,IN,47586,"http://maps.google.com/maps?q=707 MOZART STREET,+TELL CITY,+IN+47586&hl=en"
PERRY COUNTY SHERIFF'S OFFICE,PERRY COUNTY SHERIFF'S OFFICE,12 E. WATER STREET,PINCKNEYVILLE,IL,62274,"http://maps.google.com/maps?q=12 E. WATER STREET,+PINCKNEYVILLE,+IL+62274&hl=en"
PIGEON FORGE POLICE DEPARTMENT,KRISPY KREME DONUTS,4074 PARKWAY,PIGEON FORGE,TN,37863,"http://maps.google.com/maps?q=4074 PARKWAY,+PIGEON FORGE,+TN+37863&hl=en"
PINCKNEYVILLE POLICE DEPARTMEN,PINCKNEYVILLE POLICE DEPARTMENT,104 S. WALNUT ST,PINCKNEYVILLE,IL,62274,"http://maps.google.com/maps?q=104 S. WALNUT ST,+PINCKNEYVILLE,+IL+62274&hl=en"
PORTLAND POLICE DEPARTMENT,PORTLAND POLICE DEPT.,433 N. BROADWAY,PORTLAND,TN,37148,"http://maps.google.com/maps?q=433 N. BROADWAY,+PORTLAND,+TN+37148&hl=en"
PUTNAM COUNTY SHERIFF DEPT.,NUNALLY DRUG STORE,226 WEST MAIN STREET,BAXTER,TN,38544,"http://maps.google.com/maps?q=226 WEST MAIN STREET,+BAXTER,+TN+38544&hl=en"
PUTNAM COUNTY SHERIFF DEPT.,WALGREENS 5474,500 SOUTH WILLOW AVENUE,COOKEVILLE,TN,38501,"http://maps.google.com/maps?q=500 SOUTH WILLOW AVENUE,+COOKEVILLE,+TN+38501&hl=en"
RHEA COUNTY SHERIFF'S DEPT.,"SPRING CITY,  CITY HALL 
												
													TENT LOCATED IN THE FRONT PARKING LOT",229 FRONT STREET,SPRING CITY,TN,37381,"http://maps.google.com/maps?q=229 FRONT STREET,+SPRING CITY,+TN+37381&hl=en"
RHEA COUNTY SHERIFF'S DEPT.,"WALMART SUPERCENTER 
												
													TENT LOCATED AT THE PARKING LOT ENTRANCE",3034 RHEA COUNTY HWY,DAYTON,TN,37321,"http://maps.google.com/maps?q=3034 RHEA COUNTY HWY,+DAYTON,+TN+37321&hl=en"
ROBERTSON COUNTY SHERIFF'S OFFICE,CVS,903 MEMORIAL BLVD.,SPRINGFIELD,TN,37172,"http://maps.google.com/maps?q=903 MEMORIAL BLVD.,+SPRINGFIELD,+TN+37172&hl=en"
ROBINSON POLICE DEPARTMENT,"CRAWFORD MEMORIAL HOSPITAL 
												
													SOUTH DRIVE THRU ENTRANCE",1000 NORTH ALLEN STREET,ROBINSON,IL,62454,"http://maps.google.com/maps?q=1000 NORTH ALLEN STREET,+ROBINSON,+IL+62454&hl=en"
ROCKWOOD POLICE DEPT,ROCKWOOD POLICE DEPT,115 N FRONT ST,ROCKWOOD,TN,37854,"http://maps.google.com/maps?q=115 N FRONT ST,+ROCKWOOD,+TN+37854&hl=en"
ROWAN COUNTY SHERIFF'S OFFICE,KSP POST 8 MOREHEAD,1595 FLEMINGSBURG ROAD,MOREHEAD,KY,40351,"http://maps.google.com/maps?q=1595 FLEMINGSBURG ROAD,+MOREHEAD,+KY+40351&hl=en"
RUSSELL COUNTY SHERIFF'S OFFICE,RUSSELL COUNTY SHERIFF'S OFFICE,410 MONUMENT SQUARE #109,JAMESTOWN,KY,42629,"http://maps.google.com/maps?q=410 MONUMENT SQUARE #109,+JAMESTOWN,+KY+42629&hl=en"
RUTHERFORD COUNTY SHERIFF'S OFFICE,CRUSH THE CRISIS,200 STONECREST BLVD.,SMYRNA,TN,37167,"http://maps.google.com/maps?q=200 STONECREST BLVD.,+SMYRNA,+TN+37167&hl=en"
RUTHERFORD COUNTY SHERIFF'S OFFICE,RUTHERFORD COUNTY SHERIFF'S OFFICE,940 NEW SALEM HIGHWAY,MURFREESBORO,TN,37129,"http://maps.google.com/maps?q=940 NEW SALEM HIGHWAY,+MURFREESBORO,+TN+37129&hl=en"
RUTLEDGE POLICE DEPT.,RUTLEDGE CITY HALL,8028 RUTLEDGE PIKE,RUTLEDGE,TN,37861,"http://maps.google.com/maps?q=8028 RUTLEDGE PIKE,+RUTLEDGE,+TN+37861&hl=en"
SALEM POLICE DEPARTMENT,SALEM POLICE DEPARTMENT,201 S. ROTAN AVE.,SALEM,IL,62881,"http://maps.google.com/maps?q=201 S. ROTAN AVE.,+SALEM,+IL+62881&hl=en"
SALINE COUNTY SHERIFF'S OFFICE,SALINE COUNTY COURTHOUSE,15 E POPLAR ST,HARRISBURG,IL,62946,"http://maps.google.com/maps?q=15 E POPLAR ST,+HARRISBURG,+IL+62946&hl=en"
SCOTT CITY POLICE DEPARTMENT,SCOTT CITY POLICE DEPARTMENT,618 MAIN ST,SCOTT CITY,MO,63780,"http://maps.google.com/maps?q=618 MAIN ST,+SCOTT CITY,+MO+63780&hl=en"
SCOTT COUNTY SHERIFF'S OFFICE,"FOOD COUNTRY 
												
													OUTSIDE NEAR MAIN ENTRANCE",42158 US 58,DUFFIELD,VA,24244,"http://maps.google.com/maps?q=42158 US 58,+DUFFIELD,+VA+24244&hl=en"
SCOTT COUNTY SHERIFF'S OFFICE,SCOTT COUNTY SHERIFF'S OFFICE,575 SCOTT HIGH DRIVE,HUNTSVILLE,TN,37756,"http://maps.google.com/maps?q=575 SCOTT HIGH DRIVE,+HUNTSVILLE,+TN+37756&hl=en"
SCOTT COUNTY SHERIFF'S OFFICE,"SCOTT COUNTY SHERIFF'S OFFICE 
												
													NEAR MAIN ENTRANCE",336 WATER  STREET,GATE CITY,VA,24251,"http://maps.google.com/maps?q=336 WATER  STREET,+GATE CITY,+VA+24251&hl=en"
SEVIER COUNTY SHERIFF'S OFFICE,SCSO SPECIAL OPERATIONS CENTER,735 MIDDLE CREEK ROAD,SEVIERVILLE,TN,37862,"http://maps.google.com/maps?q=735 MIDDLE CREEK ROAD,+SEVIERVILLE,+TN+37862&hl=en"
SEVIER COUNTY SHERIFF'S OFFICE,SEYMOUR FIRST BAPTIST CHURCH,11621 CHAPMAN HWY,SEYMOUR,TN,37865,"http://maps.google.com/maps?q=11621 CHAPMAN HWY,+SEYMOUR,+TN+37865&hl=en"
SEYMOUR POLICE DEPARTMENT,"BROWNSTOWN SENIOR CENTER 
												
													11:30 AM TO 1:30 PM",124 S MAIN ST,BROWNSTOWN,IN,47220,"http://maps.google.com/maps?q=124 S MAIN ST,+BROWNSTOWN,+IN+47220&hl=en"
SEYMOUR POLICE DEPARTMENT,"CROTHERSVILLE SENIOR CENTER 
												
													9-11 AM",114 E MAIN ST,CROTHERSVILLE,IN,47229,"http://maps.google.com/maps?q=114 E MAIN ST,+CROTHERSVILLE,+IN+47229&hl=en"
SEYMOUR POLICE DEPARTMENT,"FREETOWN COMMUNITY CENTER 
												
													4:30 -6:30 PM",6789 N UNION ST,FREETOWN,IN,47235,"http://maps.google.com/maps?q=6789 N UNION ST,+FREETOWN,+IN+47235&hl=en"
SEYMOUR POLICE DEPARTMENT,"JACKSON COUNTY HEALTH DEPARTMENT 
												
													10:00 AM TO 2:00 PM",801 W 2ND ST,SEYMOUR,IN,47274,"http://maps.google.com/maps?q=801 W 2ND ST,+SEYMOUR,+IN+47274&hl=en"
SEYMOUR POLICE DEPARTMENT,"MEDORA SENIOR CENTER 
												
													2-4 PM",52 W MAIN ST,MEDORA,IN,47260,"http://maps.google.com/maps?q=52 W MAIN ST,+MEDORA,+IN+47260&hl=en"
SEYMOUR POLICE DEPARTMENT,"SEYMOUR POLICE DEPARTMENT 
												
													OPEN 24 HOURS A DAY FOR TAKE BACKS",205 NORTH EWING STREET,SEYMOUR,IN,47274,"http://maps.google.com/maps?q=205 NORTH EWING STREET,+SEYMOUR,+IN+47274&hl=en"
SHAWNEETOWN POLICE DEPARTMENT,CITY HALL,330 N. LINCOLN BLVD,SHAWNEETOWN,IL,62984,"http://maps.google.com/maps?q=330 N. LINCOLN BLVD,+SHAWNEETOWN,+IL+62984&hl=en"
SHELBY COUNTY CORONER OFFICE,SHELBY COUNTY CORONER'S OFFICE,419 WASHINGTON STREET,SHELBYVILLE,KY,40065,"http://maps.google.com/maps?q=419 WASHINGTON STREET,+SHELBYVILLE,+KY+40065&hl=en"
SIKESTON DEPARTMENT OF PUBLIC SAFETY,SIKESTON DEPARTMENT OF PUBLIC SAFETY,201 NORTH KINGSHIGHWAY,SIKESTON,MO,63801,"http://maps.google.com/maps?q=201 NORTH KINGSHIGHWAY,+SIKESTON,+MO+63801&hl=en"
SMYRNA POLICE DEPARTMENT,SMYRNA PD,400 ENON SPRINGS RD EAST,SMYRNA,TN,37167,"http://maps.google.com/maps?q=400 ENON SPRINGS RD EAST,+SMYRNA,+TN+37167&hl=en"
SOUTH FULTON POLICE DEPARTMENT,SOUTH FULTON POLICE DEPARTMENT,700 MILTON COUNCE DR.,SOUTH FULTON,TN,38257,"http://maps.google.com/maps?q=700 MILTON COUNCE DR.,+SOUTH FULTON,+TN+38257&hl=en"
SPARTA POLICE DEPARTMENT,WALGREEN DRUG STORE,483 WEST BOCKMAN WAY,SPARTA,TN,38583,"http://maps.google.com/maps?q=483 WEST BOCKMAN WAY,+SPARTA,+TN+38583&hl=en"
SPENCER POLICE DEPARTMENT,GOSPORT TOWN HALL,13 SOUTH 3RD ST.,GOSPORT,IN,47433,"http://maps.google.com/maps?q=13 SOUTH 3RD ST.,+GOSPORT,+IN+47433&hl=en"
SPENCER POLICE DEPARTMENT,SPENCER POLICE DEPT.,"80 N WEST ST, 80 N. WEST STREET",SPENCER,IN,47460,"http://maps.google.com/maps?q=80 N WEST ST, 80 N. WEST STREET,+SPENCER,+IN+47460&hl=en"
SPRING HILL POLICE DEPARTMENT,B & B PHARMACY,5407 MAIN STREET,SPRING HILL,TN,37174,"http://maps.google.com/maps?q=5407 MAIN STREET,+SPRING HILL,+TN+37174&hl=en"
SPRING HILL POLICE DEPARTMENT,"SPRING HILL POLICE DEPARTMENT 
												
													24/7 ACCESS",199 TOWN CENTER PKWY - LOWER LEVEL,SPRING HILL,TN,37174,"http://maps.google.com/maps?q=199 TOWN CENTER PKWY - LOWER LEVEL,+SPRING HILL,+TN+37174&hl=en"
STEELE POLICE DEPARTMENT,STEELE POLICE DEPARTMENT,115 S WALNUT,STEELE,MO,63877,"http://maps.google.com/maps?q=115 S WALNUT,+STEELE,+MO+63877&hl=en"
SULLIVAN CO. SWCD,SULLIVAN CITY PARK,611 S. MAIN ST.,SULLIVAN,IN,47882,"http://maps.google.com/maps?q=611 S. MAIN ST.,+SULLIVAN,+IN+47882&hl=en"
SUMNER COUNTY SHERIFF`S OFFICE,FREDS PHARMACY,5305 HWY 31E,WESTMORELAND,TN,37186,"http://maps.google.com/maps?q=5305 HWY 31E,+WESTMORELAND,+TN+37186&hl=en"
SUMNER COUNTY SHERIFF`S OFFICE,PERKINS DRUG STORE,532 HARTSVILLE PIKE,GALLATIN,TN,37066,"http://maps.google.com/maps?q=532 HARTSVILLE PIKE,+GALLATIN,+TN+37066&hl=en"
SUMNER COUNTY SHERIFF`S OFFICE,WALGREENS,104 HWY 52,PORTLAND,TN,37148,"http://maps.google.com/maps?q=104 HWY 52,+PORTLAND,+TN+37148&hl=en"
SUMNER COUNTY SHERIFF`S OFFICE,WALGREENS,198 E MAIN ST,HENDERSONVILLE,TN,37075,"http://maps.google.com/maps?q=198 E MAIN ST,+HENDERSONVILLE,+TN+37075&hl=en"
SUMNER COUNTY SHERIFF`S OFFICE,WALGREENS,365 NEW SHACKLE ISLAND,HENDERSONVILLE,TN,37075,"http://maps.google.com/maps?q=365 NEW SHACKLE ISLAND,+HENDERSONVILLE,+TN+37075&hl=en"
SUMNER COUNTY SHERIFF`S OFFICE,WALGREENS,455 LONG HOLLOW PIKE,GOODLETTSVILLE,TN,37072,"http://maps.google.com/maps?q=455 LONG HOLLOW PIKE,+GOODLETTSVILLE,+TN+37072&hl=en"
SUMNER COUNTY SHERIFF`S OFFICE,WALGREENS,585 HASHVILLE PIKE,GALLATIN,TN,37066,"http://maps.google.com/maps?q=585 HASHVILLE PIKE,+GALLATIN,+TN+37066&hl=en"
SUMNER COUNTY SHERIFF`S OFFICE,WALGREENS,914 GREENLEA BLVD,GALLATIN,TN,37066,"http://maps.google.com/maps?q=914 GREENLEA BLVD,+GALLATIN,+TN+37066&hl=en"
SWEETWATER POLICE DEPT.,SWEETWATER POLICE DEPT.,208 MONROE ST.,SWEETWATER,TN,37874,"http://maps.google.com/maps?q=208 MONROE ST.,+SWEETWATER,+TN+37874&hl=en"
TBI,TBI HQ,901 R.S. GASS BLVD,NASHVILLE,TN,37216,"http://maps.google.com/maps?q=901 R.S. GASS BLVD,+NASHVILLE,+TN+37216&hl=en"
TRENTON POLICE DEPARTMENT,TRENTON POLICE DEPARTMENT,25 W. INDIANA STREET,TRENTON,IL,62293,"http://maps.google.com/maps?q=25 W. INDIANA STREET,+TRENTON,+IL+62293&hl=en"
TRIGG COUNTY SHERIFF'S OFFICE,TRIGG COUNTY SHERIFF'S OFFICE,134 COMMERCE STREET,CADIZ,KY,42211,"http://maps.google.com/maps?q=134 COMMERCE STREET,+CADIZ,+KY+42211&hl=en"
TROUSDALE COUNTY SHERIFF'S OFFICE,SHERIFF'S STATION,210 BROADWAY,HARTSVILLE,TN,37074,"http://maps.google.com/maps?q=210 BROADWAY,+HARTSVILLE,+TN+37074&hl=en"
TULLAHOMA POLICE DEPT,WALGREENS,700 NORTH JACKSON STREET,TULLAHOMA,TN,37388,"http://maps.google.com/maps?q=700 NORTH JACKSON STREET,+TULLAHOMA,+TN+37388&hl=en"
TUSCULUM POLICE DEPARTMENT,TUSCULUM CITY HALL,145 ALEXANDER STREET,GREENEVILLE,TN,37745,"http://maps.google.com/maps?q=145 ALEXANDER STREET,+GREENEVILLE,+TN+37745&hl=en"
UNION CITY POLICE DEPARTMENT,BAPTIST MEMORIAL HOSPITAL,1201 BISHOP STREET,UNION CITY,TN,38261,"http://maps.google.com/maps?q=1201 BISHOP STREET,+UNION CITY,+TN+38261&hl=en"
UNION COUNTY SHERIFF'S OFFICE,UNION COUNTY SHERIFFS OFFICE,130 VETERANS STREET,MAYNARDVILLE,TN,37807,"http://maps.google.com/maps?q=130 VETERANS STREET,+MAYNARDVILLE,+TN+37807&hl=en"
UNITE TASK FORCE,UNITE TASK FORCE,350 CAP DRIVE,LONDON,KY,40744,"http://maps.google.com/maps?q=350 CAP DRIVE,+LONDON,+KY+40744&hl=en"
VAN BUREN COUNTY SHERIFF DEPARTMENT,VAN BUREN COUNTY JAIL,17 VETERANS SQ.,SPENCER,TN,38585,"http://maps.google.com/maps?q=17 VETERANS SQ.,+SPENCER,+TN+38585&hl=en"
VANDALIA POLICE DEPARTMENT,VANDALIA POLICE DEPARTMENT,219 SOUTH 5TH STREET,VANDALIA,IL,62471,"http://maps.google.com/maps?q=219 SOUTH 5TH STREET,+VANDALIA,+IL+62471&hl=en"
VINCENNES POLICE DEPARTMENT,"VINCENNES POLICE DEPARTMENT 
												
													AVAILABLE 24 HOURS",501 BUSSERON STREET,VINCENNES,IN,47591,"http://maps.google.com/maps?q=501 BUSSERON STREET,+VINCENNES,+IN+47591&hl=en"
VINCENNES UNIVERSITY POICE DEPARTMENT,VINCENNES UNIVERSITY CAMPUS POLICE,1201 N. 2ND STREET,VINCENNES,IN,47591,"http://maps.google.com/maps?q=1201 N. 2ND STREET,+VINCENNES,+IN+47591&hl=en"
WABASH COUNTY SHERIFF'S OFFICE,WABASH COUNTY SHERIFF'S OFFICE,120 E. 4TH STREET,MOUNT CARMEL,IL,62863,"http://maps.google.com/maps?q=120 E. 4TH STREET,+MOUNT CARMEL,+IL+62863&hl=en"
WAYNE COUNTY SHERIFF'S OFFICE,WAYNE COUNTY SHERIFF,1016 ANDREW JACKSON DR.,WAYNESBORO,TN,38485,"http://maps.google.com/maps?q=1016 ANDREW JACKSON DR.,+WAYNESBORO,+TN+38485&hl=en"
WAYNE COUNTY SHERIFF'S OFFICE,WAYNE COUNTY SHERIFF'S OFFICE,305 EAST COURT,FAIRFIELD,IL,62837,"http://maps.google.com/maps?q=305 EAST COURT,+FAIRFIELD,+IL+62837&hl=en"
WEAKLEY COUNTY SHERIFF DEPARTMENT,FRED'S PHARMACY,1207 S MERIDIAN ST #1,GREENFIELD,TN,38230,"http://maps.google.com/maps?q=1207 S MERIDIAN ST #1,+GREENFIELD,+TN+38230&hl=en"
WEAKLEY COUNTY SHERIFF DEPARTMENT,FRED'S PHARMACY,8487 TN-22 #1,DRESDEN,TN,38225,"http://maps.google.com/maps?q=8487 TN-22 #1,+DRESDEN,+TN+38225&hl=en"
WEAKLEY COUNTY SHERIFF DEPARTMENT,TENNOVA HEALTHCARE- VOLUNTEER MARTIN HOSPITAL,161 MT. PELIA RD,MARTIN,TN,38237,"http://maps.google.com/maps?q=161 MT. PELIA RD,+MARTIN,+TN+38237&hl=en"
WEBSTER COUNTY SHERIFF'S OFFICE,WEBSTER COUNTY SHERIFF'S OFFICE,25 US HWY 41 A SOUTH,DIXON,KY,42409,"http://maps.google.com/maps?q=25 US HWY 41 A SOUTH,+DIXON,+KY+42409&hl=en"
WEST CITY POLICE DEPT,WEST CITY POLICE DEPT.,201 S. BROWNING ST,WEST CITY,IL,62812,"http://maps.google.com/maps?q=201 S. BROWNING ST,+WEST CITY,+IL+62812&hl=en"
WEST FRANKFORT POLICE DEPT,WEST FRANKFORT POLICE DEPARTMENT,201 EAST NOLEN STREET,WEST FRANKFORT,IL,62896,"http://maps.google.com/maps?q=201 EAST NOLEN STREET,+WEST FRANKFORT,+IL+62896&hl=en"
WESTMORELAND POLICE DEPT.,WESTMORELAND PD,1044 PLEASANT GROVE RD,WESTMORELAND,TN,37186,"http://maps.google.com/maps?q=1044 PLEASANT GROVE RD,+WESTMORELAND,+TN+37186&hl=en"
WHITE BLUFF POLICE DEPARTMENT,FRED'S PHARMACY,4928 HWY 70 EAST,WHITE BLUFF,TN,37187,"http://maps.google.com/maps?q=4928 HWY 70 EAST,+WHITE BLUFF,+TN+37187&hl=en"
WHITE COUNTY SHERIFF  DEPARTMENT,WHITE COUNTY SHERIFF'S DEPARTMENT,111 DEPOT STREET,SPARTA,TN,38583,"http://maps.google.com/maps?q=111 DEPOT STREET,+SPARTA,+TN+38583&hl=en"
WHITE COUNTY SHERIFF OFFICE,WHITE COUNTY SHERIFF OFFICE,108 N MAIN CROSS,CARMI,IL,62821,"http://maps.google.com/maps?q=108 N MAIN CROSS,+CARMI,+IL+62821&hl=en"
WHITE HOUSE POLICE DEPARTMENT,KROGERS,510 HWY 76,WHITE HOUSE,TN,37188,"http://maps.google.com/maps?q=510 HWY 76,+WHITE HOUSE,+TN+37188&hl=en"
WHITE PINE POLICE DEPT.,WHITE PINE PD,1548 MAIN ST.,WHITE PINE,TN,37890,"http://maps.google.com/maps?q=1548 MAIN ST.,+WHITE PINE,+TN+37890&hl=en"
WILLIAMSON COUNTY SHERIFF'S OFFICE,WALGREENS PHARMACY,1509 MURFREESBORO RD,FRANKLIN,TN,37067,"http://maps.google.com/maps?q=1509 MURFREESBORO RD,+FRANKLIN,+TN+37067&hl=en"
WILLIAMSON COUNTY SHERIFF'S OFFICE,WILLIAMSON COUNTY ADMINISTRATIVE BUILDING,407 N. MONROE,MARION,IL,62959,"http://maps.google.com/maps?q=407 N. MONROE,+MARION,+IL+62959&hl=en"
WILSON COUNTY SHERIFF'S DEPARTMENT,GIBBS PHARMACY,1427 W. BADDOUR PKWY #B,LEBANON,TN,37087,"http://maps.google.com/maps?q=1427 W. BADDOUR PKWY #B,+LEBANON,+TN+37087&hl=en"
WINCHESTER POLICE DEPARTMENT,WINCHESTER POLICE DEPARTMENT,16 SOUTH MAPLE STREET,WINCHESTER,KY,40391,"http://maps.google.com/maps?q=16 SOUTH MAPLE STREET,+WINCHESTER,+KY+40391&hl=en"
WISE POLICE DEPARTMENT,"FOOD CITY 
												
													NEAR FRONT ENTRANCE",207 WOODLAND DRIVE,WISE,VA,24293,"http://maps.google.com/maps?q=207 WOODLAND DRIVE,+WISE,+VA+24293&hl=en"
WOODFORD COUNTY SHERIFF DEPT,KROGER,KROGER WAY,VERSAILLES,KY,40383,"http://maps.google.com/maps?q=KROGER WAY,+VERSAILLES,+KY+40383&hl=en"
WOODFORD COUNTY SHERIFF DEPT,MIDWAY CITY HALL,MAIN ST,MIDWAY,KY,40347,"http://maps.google.com/maps?q=MAIN ST,+MIDWAY,+KY+40347&hl=en"
