Participant,CollectionSite,Address,City,State,Zip,MapURL
ABERDEEN POLICE DEPARTMENT,ABERDEEN POLICE DEPARTMENT,114 SE 2ND AVE,ABERDEEN,SD,57401,"http://maps.google.com/maps?q=114 SE 2ND AVE,+ABERDEEN,+SD+57401&hl=en"
ADA PD,ADA PD,410 WEST MAIN STREET,ADA,MN,56510,"http://maps.google.com/maps?q=410 WEST MAIN STREET,+ADA,+MN+56510&hl=en"
AITKIN COUNTY SO,AITKIN COUNTY SHERIFF'S OFFICE,217 2ND STREET NW ROOM #185,AITKIN,MN,56431,"http://maps.google.com/maps?q=217 2ND STREET NW ROOM #185,+AITKIN,+MN+56431&hl=en"
ANTELOPE COUNTY SHERIFF'S OFFICE,ANTELOPE COUNTY SHERIFF'S OFFICE,1102 L STREET,NELIGH,NE,68756,"http://maps.google.com/maps?q=1102 L STREET,+NELIGH,+NE+68756&hl=en"
BATTLE LAKE PD,BATTLE LAKE PD,108 EAST MAIN STREET,BATTLE LAKE,MN,56515,"http://maps.google.com/maps?q=108 EAST MAIN STREET,+BATTLE LAKE,+MN+56515&hl=en"
BECKER PD,"BECKER POLICE DEPARTMENT 
												
													DROPBOX",12060 SHERBURNE AVENUE,BECKER,MN,55308,"http://maps.google.com/maps?q=12060 SHERBURNE AVENUE,+BECKER,+MN+55308&hl=en"
BENSON PD,BENSON PD,1410 KANSAS AVENUE,BENSON,MN,56215,"http://maps.google.com/maps?q=1410 KANSAS AVENUE,+BENSON,+MN+56215&hl=en"
BOX BUTTE COUNTY SHERIFF'S OFFICE,"BOX BUTTE GENERAL HOSPITAL 
												
													SAND HILLS ROOM - (DOUBLE BOXES)",2101 BOX BUTTE AVE,ALLIANCE,NE,69301,"http://maps.google.com/maps?q=2101 BOX BUTTE AVE,+ALLIANCE,+NE+69301&hl=en"
BRANDON POLICE DEPARTMENT,BRANDON POLICE DEPT.,304 S MAIN AVE.,BRANDON,SD,57005,"http://maps.google.com/maps?q=304 S MAIN AVE.,+BRANDON,+SD+57005&hl=en"
BROWN COUNTY SHERIFF'S OFFICE,BROWN COUNTY SHERIFF'S OFFICE,142 WEST 4TH STREET,AINSWORTH,NE,69210,"http://maps.google.com/maps?q=142 WEST 4TH STREET,+AINSWORTH,+NE+69210&hl=en"
BUFFALO COUNTY SHERIFF'S OFFICE,KEARNEY GOOD SAMARITAN HOSPITAL,10 E 31ST STREETNORTH PARKING LOT,KEARNEY,NE,68847,"http://maps.google.com/maps?q=10 E 31ST STREET,+KEARNEY,+NE+68847&hl=en"
BUFFALO LAKE PD,BUFFALO LAKE POLICE DEPARTMENT,301 MAIN STREET NORTH,BUFFALO LAKE,MN,55314,"http://maps.google.com/maps?q=301 MAIN STREET NORTH,+BUFFALO LAKE,+MN+55314&hl=en"
CAMPBELL COUNTY SHERIFF'S OFFICE,CAMPBELL COUNTY PUBLIC HEALTH,2301 S. 4J ROAD,GILLETTE,WY,82718,"http://maps.google.com/maps?q=2301 S. 4J ROAD,+GILLETTE,+WY+82718&hl=en"
CARLTON COUNTY SO,"CARLTON COUNTY SHERIFF'S OFFICE 
												
													MAIN FLOOR LOBBY",317 WALNUT AVENUE,CARLTON,MN,55718,"http://maps.google.com/maps?q=317 WALNUT AVENUE,+CARLTON,+MN+55718&hl=en"
CARLTON COUNTY SO,"CLOQUET POLICE DEPARTMENT 
												
													MAIN LOBBY",508 CLOQUET AVENUE,CLOQUET,MN,55720,"http://maps.google.com/maps?q=508 CLOQUET AVENUE,+CLOQUET,+MN+55720&hl=en"
CARLTON COUNTY SO,"FON DU LAC POLICE DEPARTMENT 
												
													MAIN LOBBY",930 TRETTEL LANE,CLOQUET,MN,55720,"http://maps.google.com/maps?q=930 TRETTEL LANE,+CLOQUET,+MN+55720&hl=en"
CARLTON COUNTY SO,"MOOSE LAKE POLICE DEPARTMENT 
												
													MAIN LOBBY",600 HIGHWAY 73,MOOSE LAKE,MN,55767,"http://maps.google.com/maps?q=600 HIGHWAY 73,+MOOSE LAKE,+MN+55767&hl=en"
CARLTON COUNTY SO,"THOMSON TOWNSHIP TOWN HALL 
												
													MAIN LOBBY",25 EAST HARNEY ROAD,ESKO,MN,55733,"http://maps.google.com/maps?q=25 EAST HARNEY ROAD,+ESKO,+MN+55733&hl=en"
CARVER COUNTY SHERIFF'S OFFICE,"CITY OF NEW GERMANY 
												
													CITY HALL",300 BROADWAY STREET EAST,NEW GERMANY,MN,55367,"http://maps.google.com/maps?q=300 BROADWAY STREET EAST,+NEW GERMANY,+MN+55367&hl=en"
CARVER COUNTY SHERIFF'S OFFICE,"CITY OF WATERTOWN 
												
													CITY HALL",309 LEWIS AVENUE SOUTH,WATERTOWN,MN,55388,"http://maps.google.com/maps?q=309 LEWIS AVENUE SOUTH,+WATERTOWN,+MN+55388&hl=en"
CHERRY COUNTY S.O. VALENTINE P.D.,CHERRY CO S.O./ VALENTINE POLICE DEPT,365 N. MAIN ST.,VALENTINE,NE,69201,"http://maps.google.com/maps?q=365 N. MAIN ST.,+VALENTINE,+NE+69201&hl=en"
CHERRY COUNTY S.O. VALENTINE P.D.,CHERRY COUNTY S.O. - VALENTINE POLICE DEPT,365 N. MAIN STREET,VALENTINE,NE,69201,"http://maps.google.com/maps?q=365 N. MAIN STREET,+VALENTINE,+NE+69201&hl=en"
CODINGTON COUNTY SHERIFFS OFFICE,CODINGTON COUNTY SHERIFF'S OFFICE,14 1ST AVE SE,WATERTOWN,SD,57201,"http://maps.google.com/maps?q=14 1ST AVE SE,+WATERTOWN,+SD+57201&hl=en"
CODY POLICE DEPARTMENT,CODY LAW ENFORCEMENT CENTER,1402 RIVER VIEW DRIVE,CODY,WY,82414,"http://maps.google.com/maps?q=1402 RIVER VIEW DRIVE,+CODY,+WY+82414&hl=en"
COLORADO STATE UNIVERSITY POLICE DEPARTMENT,COLORADO STATE UNIVERSITY POLICE DEPARTMENT,750 MERIDIAN AVE,FORT COLLINS,CO,80523,"http://maps.google.com/maps?q=750 MERIDIAN AVE,+FORT COLLINS,+CO+80523&hl=en"
COLUMBUS POLICE DEPARTMENT,WALGREENS,2320 23RD ST,COLUMBUS,NE,68601,"http://maps.google.com/maps?q=2320 23RD ST,+COLUMBUS,+NE+68601&hl=en"
COTTONWOOD COUNTY SHERIFF'S OFFICE,COTTONWOOD COUNTY SHERIFFS OFFICE,902 5TH AVENUE,WINDOM,MN,56101,"http://maps.google.com/maps?q=902 5TH AVENUE,+WINDOM,+MN+56101&hl=en"
CROFTON POLICE DEPARTMENT,CROFTON POLICE DEPARTMENT,1210 W 2ND STREET,CROFTON,NE,68730,"http://maps.google.com/maps?q=1210 W 2ND STREET,+CROFTON,+NE+68730&hl=en"
DOUGLAS POLICE DEPARTMENT,DOUGLAS POLICE DEPARTMENT,101 NORTH 4TH STREET,DOUGLAS,WY,82633,"http://maps.google.com/maps?q=101 NORTH 4TH STREET,+DOUGLAS,+WY+82633&hl=en"
DRUG ENFORCEMENT ADMINISTRATION,ELKS LODGE PARKING LOT,934 LEWIS AVENUE,BILLINGS,MT,59101,"http://maps.google.com/maps?q=934 LEWIS AVENUE,+BILLINGS,+MT+59101&hl=en"
DULUTH PD,DULUTH PD,2030 N ARLINGTON AVENUE,DULUTH,MN,55811,"http://maps.google.com/maps?q=2030 N ARLINGTON AVENUE,+DULUTH,+MN+55811&hl=en"
EAGLE BUTTE POLICE DEPT,EAGLE BUTTE POLICE DEPARTMENT,209 MAIN ST,EAGLE BUTTE,SD,57625,"http://maps.google.com/maps?q=209 MAIN ST,+EAGLE BUTTE,+SD+57625&hl=en"
EATON POLICE DEPARTMENT,HERITAGE MARKET,180 S. ELM AVE,EATON,CO,80615,"http://maps.google.com/maps?q=180 S. ELM AVE,+EATON,+CO+80615&hl=en"
ERIE POLICE DEPARTMENT,ERIE POLICE DEPARTMENT,1000 TELLEEN AVE,ERIE,CO,80516,"http://maps.google.com/maps?q=1000 TELLEEN AVE,+ERIE,+CO+80516&hl=en"
ESTES PARK POLICE DEPARTMENT,"SHOPPING CENTER PARKING LOT 
												
													UPPER STANLEY VILLAGE",455 EAST WONDERVIEW AVENUE,ESTES PARK,CO,80517,"http://maps.google.com/maps?q=455 EAST WONDERVIEW AVENUE,+ESTES PARK,+CO+80517&hl=en"
EVANS POLICE DEPARTMENT,SAM'S CLUB PARKING LOT,3247 23 AVENUE,EVANS,CO,80620,"http://maps.google.com/maps?q=3247 23 AVENUE,+EVANS,+CO+80620&hl=en"
EVELETH PD,EVELETH POLICE DEPARTMENT,413 PIERCE STREET,EVELETH,MN,55734,"http://maps.google.com/maps?q=413 PIERCE STREET,+EVELETH,+MN+55734&hl=en"
FAULK COUNTY SHERIFF'S OFFICE,FAULK COUNTY SHERIFF'S OFFICE,924 LAFOON AVE,FAULKTON,SD,57438,"http://maps.google.com/maps?q=924 LAFOON AVE,+FAULKTON,+SD+57438&hl=en"
FORT COLLINS POLICE,"FORT COLLINS POLICE SERVICES 
												
													NORTH PARKING LOT",2221 S. TIMBERLINE RD.,FORT COLLINS,CO,80525,"http://maps.google.com/maps?q=2221 S. TIMBERLINE RD.,+FORT COLLINS,+CO+80525&hl=en"
FRANKLIN COUNTY SHERIFF'S OFFICE,"FRANKLIN COUNTY COURHOUSE 
												
													NO BOXES",405 15TH AVE.,FRANKLIN,NE,68939,"http://maps.google.com/maps?q=405 15TH AVE.,+FRANKLIN,+NE+68939&hl=en"
GALLATIN COUNTY SHERIFF'S OFFICE/ BOZEMAN CITY POL,GALLATIN COUNTY LAW AND JUSTICE CENTER,615 SOUTH 16TH AVE,BOZEMAN,MT,59715,"http://maps.google.com/maps?q=615 SOUTH 16TH AVE,+BOZEMAN,+MT+59715&hl=en"
GLENDIVE POLICE DEPARTMENT,GLENDIVE POLICE DEPARTMENT,440 COLORADO BLVD,GLENDIVE,MT,59330,"http://maps.google.com/maps?q=440 COLORADO BLVD,+GLENDIVE,+MT+59330&hl=en"
GRANITE FALLS PD,"YELLOW MEDICINE COUNTY JUSTICE CENTER 
												
													GRANITE FALLS POLICE DEPARTMENT",415 9TH AVENUE,GRANITE FALLS,MN,56241,"http://maps.google.com/maps?q=415 9TH AVENUE,+GRANITE FALLS,+MN+56241&hl=en"
GRANT COUNTY SO,GRANT COUNTY SO,"10 2ND STREET, NE",ELBOW LAKE,MN,56531,"http://maps.google.com/maps?q=10 2ND STREET, NE,+ELBOW LAKE,+MN+56531&hl=en"
GREELEY POLICE DEPARTMENT,GREELEY POLICE DEPARTMENT,2875 W. 10TH ST,GREELEY,CO,80634,"http://maps.google.com/maps?q=2875 W. 10TH ST,+GREELEY,+CO+80634&hl=en"
HASTINGS POLICE DEPARTMENT,"HEALTH DEPARTMENT 
												
													DOUBLE BOXES",606 N. MINNESOTA AVENUE,HASTINGS,NE,68901,"http://maps.google.com/maps?q=606 N. MINNESOTA AVENUE,+HASTINGS,+NE+68901&hl=en"
HAWLEY PD,HAWLEY POLICE DEPARTMENT,818 FRONT STREET,HAWLEY,MN,56549,"http://maps.google.com/maps?q=818 FRONT STREET,+HAWLEY,+MN+56549&hl=en"
HOLDREGE POLICE DEPARTMENT,HOLDREGE MIDDLE SCHOOL,600 14TH AVENUE,HOLDREGE,NE,68949,"http://maps.google.com/maps?q=600 14TH AVENUE,+HOLDREGE,+NE+68949&hl=en"
HURON POLICE DEPARTMENT,"CITY HALL 
												
													SOUTH SIDE OF THE BUILDING",239 WISCONSIN AVE SW,HURON,SD,57350,"http://maps.google.com/maps?q=239 WISCONSIN AVE SW,+HURON,+SD+57350&hl=en"
HUTCHINSON PD,HUTCHINSON POLICE DEPARTMENT,10 FRANKLIN STREET SW,HUTCHINSON,MN,55350,"http://maps.google.com/maps?q=10 FRANKLIN STREET SW,+HUTCHINSON,+MN+55350&hl=en"
IMPERIAL POLICE DEPARTMENT,"IMPERIAL POLICE DEPARTMENT 
												
													LOBBY",637 BROADWAY STREET,IMPERIAL,NE,69033,"http://maps.google.com/maps?q=637 BROADWAY STREET,+IMPERIAL,+NE+69033&hl=en"
ISANTI COUNTY SO / CAMBRIDGE PD,ISANTI COUNTY SHERIFF'S OFFICE,2440 MAIN STREET SOUTH,CAMBRIDGE,MN,55008,"http://maps.google.com/maps?q=2440 MAIN STREET SOUTH,+CAMBRIDGE,+MN+55008&hl=en"
ITASCA COUNTY SO,ITASCA COUNTY SHERIFF'S OFFICE,440 NE 1ST AVENUE,GRAND RAPIDS,MN,55744,"http://maps.google.com/maps?q=440 NE 1ST AVENUE,+GRAND RAPIDS,+MN+55744&hl=en"
JOHNSON COUNTY SHERIFF'S OFFICE,JOHNSON COUNTY JUSTICE CENTER,639 FORT STREET,BUFFALO,WY,82834,"http://maps.google.com/maps?q=639 FORT STREET,+BUFFALO,+WY+82834&hl=en"
JOHNSTOWN POLICE DEPARTMENT,JOHNSTOWN POLICE DEPARTMENT,430 S. PARISH AVE.,JOHNSTOWN,CO,80534,"http://maps.google.com/maps?q=430 S. PARISH AVE.,+JOHNSTOWN,+CO+80534&hl=en"
KANABEC COUNTY SHERIFF'S OFFICE,COBORNS,710 FRANKIE LANE,MORA,MN,55051,"http://maps.google.com/maps?q=710 FRANKIE LANE,+MORA,+MN+55051&hl=en"
KANDIYOHI COUNTY SO,KANDIYOHI COUNTY SO,2201 NE 23RD STREET SUITE 101,WILLMAR,MN,56201,"http://maps.google.com/maps?q=2201 NE 23RD STREET SUITE 101,+WILLMAR,+MN+56201&hl=en"
KIMBALL COUNTY SHERIFF'S OFFICE,KIMBALL COUNTY SHERIFF'S OFFICE,114 E. 3RD STREET,KIMBALL,NE,69145,"http://maps.google.com/maps?q=114 E. 3RD STREET,+KIMBALL,+NE+69145&hl=en"
KITTSON COUNTY SO,KITTSON COUNTY SHERIFF'S OFFICE,410 5TH STREET SOUTHSUITE #102,HALLOCK,MN,56728,"http://maps.google.com/maps?q=410 5TH STREET SOUTH,+HALLOCK,+MN+56728&hl=en"
LAKE COUNTY SHERIFF'S OFFICE,LAKE COUNTY SHERIFF'S OFFICE,219 NE 1ST STREET,MADISON,SD,57042,"http://maps.google.com/maps?q=219 NE 1ST STREET,+MADISON,+SD+57042&hl=en"
LARAMIE COUNTY SHERIFF'S DEPARTMENT,LARAMIE COUNTY FIRE DISTRICT #2,5800 N COLLEGE DRIVE,CHEYENNE,WY,82009,"http://maps.google.com/maps?q=5800 N COLLEGE DRIVE,+CHEYENNE,+WY+82009&hl=en"
LARAMIE COUNTY SHERIFF'S DEPARTMENT,SAFEWAY GROCERY STORE AND PHARMACY,700 SOUTH GREELEY HIGHWAY,CHEYENNE,WY,82007,"http://maps.google.com/maps?q=700 SOUTH GREELEY HIGHWAY,+CHEYENNE,+WY+82007&hl=en"
LARIMER COUNTY SHERIFF'S OFFICE,BERTHOUD TOWN HALL,807 MOUNTAIN AVENUE,BERTHOUD,CO,80513,"http://maps.google.com/maps?q=807 MOUNTAIN AVENUE,+BERTHOUD,+CO+80513&hl=en"
LARIMER COUNTY SHERIFF'S OFFICE,"FAMILY DOLLAR 
												
													PARKING LOT SOUTH OF FAMILY DOLLAR",8099 6TH ST,WELLINGTON,CO,80549,"http://maps.google.com/maps?q=8099 6TH ST,+WELLINGTON,+CO+80549&hl=en"
LARIMER COUNTY SHERIFF'S OFFICE,GLACIER VIEW FIRE STATION,1414 GREEN MOUNTAIN DRIVE,LIVERMORE,CO,80536,"http://maps.google.com/maps?q=1414 GREEN MOUNTAIN DRIVE,+LIVERMORE,+CO+80536&hl=en"
LAWRENCE COUNTY SHERIFF'S OFFICE,LAWRENCE COUNTY SHERIFF'S OFFICE,80 SHERMAN STREET,DEADWOOD,SD,57732,"http://maps.google.com/maps?q=80 SHERMAN STREET,+DEADWOOD,+SD+57732&hl=en"
LEWIS AND CLARK COUNTY SHERIFF'S OFFICE,LINCOLN POST OFFICE,237 MAIN STREET,LINCOLN,MT,59639,"http://maps.google.com/maps?q=237 MAIN STREET,+LINCOLN,+MT+59639&hl=en"
LEWIS AND CLARK COUNTY SHERIFF'S OFFICE,SHOPKO,3101 N MONTANA AVENUE,HELENA,MT,59602,"http://maps.google.com/maps?q=3101 N MONTANA AVENUE,+HELENA,+MT+59602&hl=en"
LINCOLN COUNTY SHERIFF'S OFFICE,HARRISBURG CITY HALL,301 E. WILLOW STREET,HARRISBURG,SD,57032,"http://maps.google.com/maps?q=301 E. WILLOW STREET,+HARRISBURG,+SD+57032&hl=en"
LINCOLN COUNTY SO,LINCOLN COUNTY SHERIFF'S OFFICE,322 NORTH WALLACE STREET,IVANHOE,MN,56142,"http://maps.google.com/maps?q=322 NORTH WALLACE STREET,+IVANHOE,+MN+56142&hl=en"
LITTLE FALLS PD,LITTLE FALLS PD,207 1ST STREET NE,LITTLE FALLS,MN,56345,"http://maps.google.com/maps?q=207 1ST STREET NE,+LITTLE FALLS,+MN+56345&hl=en"
LIVINGSTON POLICE DEPARTMENT AND ELKS CLUB,ELKS LODGE #246,130 SOUTH 2ND STREET,LIVINGSTON,MT,59047,"http://maps.google.com/maps?q=130 SOUTH 2ND STREET,+LIVINGSTON,+MT+59047&hl=en"
LOGAN COUNTY SHERIFF'S OFFICE,LOGAN COUNTY SHERIFF'S OFFICE,317 MAIN STREET,STAPLETON,NE,69163,"http://maps.google.com/maps?q=317 MAIN STREET,+STAPLETON,+NE+69163&hl=en"
LONG PRAIRIE POLICE DEPARTMENT,LONG PRAIRIE POLICE DEPARTMENT,615 LAKE ST S,LONG PRAIRIE,MN,56347,"http://maps.google.com/maps?q=615 LAKE ST S,+LONG PRAIRIE,+MN+56347&hl=en"
LONGMONT DEPARTMENT OF PUBLIC SAFETY,LONGMONT UNITED HOSPITAL,1950 MOUNTAIN VIEW AVE,LONGMONT,CO,80501,"http://maps.google.com/maps?q=1950 MOUNTAIN VIEW AVE,+LONGMONT,+CO+80501&hl=en"
LOVELAND POLICE DEPARTMENT,LOVELAND POLICE DEPARTMENT,810 E 10TH STREET,LOVELAND,CO,80537,"http://maps.google.com/maps?q=810 E 10TH STREET,+LOVELAND,+CO+80537&hl=en"
LOVELL POLICE DEPARTMENT,RED APPLE SUPERMARKET,9 E. MAIN ST.,LOVELL,WY,82431,"http://maps.google.com/maps?q=9 E. MAIN ST.,+LOVELL,+WY+82431&hl=en"
LYON COUNTY SHERIFF'S OFFICE,LYON COUNTY SHERIFF'S OFFICE,410 SOUTH BOONE,ROCK RAPIDS,IA,51246,"http://maps.google.com/maps?q=410 SOUTH BOONE,+ROCK RAPIDS,+IA+51246&hl=en"
LYON COUNTY SO,LYON COUNTY SHERIFF'S OFFICE,611 WEST MAIN STREET,MARSHALL,MN,56258,"http://maps.google.com/maps?q=611 WEST MAIN STREET,+MARSHALL,+MN+56258&hl=en"
MCPHERSON COUNTY SHERIFF'S OFFICE,"EUREKA MUNICIPAL BUILDING 
												
													MCPHERSON COUNTY SHERIFF SATELLITE OFFICE",613 7TH STREET,EUREKA,SD,57437,"http://maps.google.com/maps?q=613 7TH STREET,+EUREKA,+SD+57437&hl=en"
MCPHERSON COUNTY SHERIFF'S OFFICE,"MCPHERSON COUNTY COURTHOUSE 
												
													MCPHERSON COUNTY SHERIFF'S OFFICE",706 MAIN STREETPO BOX 158,LEOLA,SD,57456,"http://maps.google.com/maps?q=706 MAIN STREET,+LEOLA,+SD+57456&hl=en"
MEDINA PD,MEDINA POLICE DEPARTMENT,600 CLYDESDALE TRAIL,MEDINA,MN,55340,"http://maps.google.com/maps?q=600 CLYDESDALE TRAIL,+MEDINA,+MN+55340&hl=en"
MEEKER COUNTY SO,COSMOS,233 MILKY WAY STREET SOUTH,COSMOS,MN,56228,"http://maps.google.com/maps?q=233 MILKY WAY STREET SOUTH,+COSMOS,+MN+56228&hl=en"
MEEKER COUNTY SO,DASSEL,485 3RD STREET SOUTH,DASSEL,MN,55325,"http://maps.google.com/maps?q=485 3RD STREET SOUTH,+DASSEL,+MN+55325&hl=en"
MEEKER COUNTY SO,GROVE CITY,210 ATLANTIC AVENUE WEST,GROVE CITY,MN,56243,"http://maps.google.com/maps?q=210 ATLANTIC AVENUE WEST,+GROVE CITY,+MN+56243&hl=en"
MEEKER COUNTY SO,LITCHFIELD,326 NORTH RAMSEY AVENUE,LITCHFIELD,MN,55355,"http://maps.google.com/maps?q=326 NORTH RAMSEY AVENUE,+LITCHFIELD,+MN+55355&hl=en"
MEEKER COUNTY SO,WATKINS,111 CENTRAL AVENUE,WATKINS,MN,55389,"http://maps.google.com/maps?q=111 CENTRAL AVENUE,+WATKINS,+MN+55389&hl=en"
MELLETTE COUNTY SHERIFF'S OFFICE,"COURT HOUSE 
												
													PARKING LOT",321 E 4TH,WHITE RIVER,SD,57579,"http://maps.google.com/maps?q=321 E 4TH,+WHITE RIVER,+SD+57579&hl=en"
MILLIKEN POLICE DEPARTMENT,MILLIKEN POLICE DEPARTMENT,1201 BROAD STREET,MILLIKEN,CO,80543,"http://maps.google.com/maps?q=1201 BROAD STREET,+MILLIKEN,+CO+80543&hl=en"
MINDEN POLICE DEPARTMENT,MINDEN POLICE DEPARTMENT,246 N. COLORADO,MINDEN,NE,68959,"http://maps.google.com/maps?q=246 N. COLORADO,+MINDEN,+NE+68959&hl=en"
MONTANA HIGHWAY PATROL,MONTANA HIGHWAY PATROL,812 - 14TH STREET NORTH,GREAT FALLS,MT,59401,"http://maps.google.com/maps?q=812 - 14TH STREET NORTH,+GREAT FALLS,+MT+59401&hl=en"
MOORHEAD POLICE DEPARTMENT,WALGREENS PARKING LOT,700 30 AVENUE SOUTH,MOORHEAD,MN,56560,"http://maps.google.com/maps?q=700 30 AVENUE SOUTH,+MOORHEAD,+MN+56560&hl=en"
MOORHEAD POLICE DEPARTMENT,WALGREENS PARKING LOT,900 MAIN AVENUE,MOORHEAD,MN,56560,"http://maps.google.com/maps?q=900 MAIN AVENUE,+MOORHEAD,+MN+56560&hl=en"
MT DCI,HOLY ROSARY HEALTHCARE,2600 WILSON STREET,MILES CITY,MT,59301,"http://maps.google.com/maps?q=2600 WILSON STREET,+MILES CITY,+MT+59301&hl=en"
MUSSELSHELL COUNTY SHERIFF'S DEPT.,MUSSELSHELL COUNTY SHERIFF DEPARTMENT,820 MAIN STREET,ROUNDUP,MT,59072,"http://maps.google.com/maps?q=820 MAIN STREET,+ROUNDUP,+MT+59072&hl=en"
NEBRASKA STATE PATROL,"CHI HEALTH ST. FRANCIS 
												
													SOUTH PATIENT LOBBY ENTRANCE",2620 W. FAIDLEY AVENUE,GRAND ISLAND,NE,68803,"http://maps.google.com/maps?q=2620 W. FAIDLEY AVENUE,+GRAND ISLAND,+NE+68803&hl=en"
NEWCASTLE POLICE DEPT,NEWCASTLE POLICE DEPT,25 NORTH SUMNER AVE,NEWCASTLE,WY,82701,"http://maps.google.com/maps?q=25 NORTH SUMNER AVE,+NEWCASTLE,+WY+82701&hl=en"
NORMAN COUNTY SO,NORMAN COUNTY SO,15 2ND AVENUE E,ADA,MN,56510,"http://maps.google.com/maps?q=15 2ND AVENUE E,+ADA,+MN+56510&hl=en"
ONAMIA PD,ONAMIA PD,621 WEST MAIN STREET,ONAMIA,MN,56359,"http://maps.google.com/maps?q=621 WEST MAIN STREET,+ONAMIA,+MN+56359&hl=en"
ONEILL POLICE DEPARTMENT,ONEILL POLICE DEPARTMENT,401 E. FREEMONT,ONEILL,NE,68763,"http://maps.google.com/maps?q=401 E. FREEMONT,+ONEILL,+NE+68763&hl=en"
OSCEOLA COUNTY SHERIFF OFFICE,OSCEOLA COUNTY SHERIFF OFFICE,309 6TH STREET,SIBLEY,IA,51249,"http://maps.google.com/maps?q=309 6TH STREET,+SIBLEY,+IA+51249&hl=en"
PAUL BUNYAN DRUG TASK FORCE,BELTRAMI COUNTY LAW ENFORCEMENT CENTER,613 MN AVENUE NW,BEMIDJI,MN,56601,"http://maps.google.com/maps?q=613 MN AVENUE NW,+BEMIDJI,+MN+56601&hl=en"
PERKINS COUNTY SHERIFF'S OFFICE,PERKINS COUNTY SHERIFF'S OFFICE - BISON,100 E MAIN,BISON,SD,57620,"http://maps.google.com/maps?q=100 E MAIN,+BISON,+SD+57620&hl=en"
PERKINS COUNTY SHERIFF'S OFFICE,PERKINS COUNTY SHERIFF'S OFFICE - LEMMON,100 MAIN AVE,LEMMON,SD,57638,"http://maps.google.com/maps?q=100 MAIN AVE,+LEMMON,+SD+57638&hl=en"
PIERRE POLICE DEPARTMENT,"CITY HALL 
												
													COMMISSION ROOM",222 E. DAKOTA AVE.,PIERRE,SD,57501,"http://maps.google.com/maps?q=222 E. DAKOTA AVE.,+PIERRE,+SD+57501&hl=en"
PINE TO PRAIRIE DRUG TASK FORCE,EAST GRAND FORKS PD,520 DEMERS AVENUE,EAST GRAND FORKS,MN,56721,"http://maps.google.com/maps?q=520 DEMERS AVENUE,+EAST GRAND FORKS,+MN+56721&hl=en"
PIPESTONE COUNTY SO,PIPESTONE COUNTY SHERIFF'S OFFICE,416 SOUTH HIAWATHA AVENUE,PIPESTONE,MN,56164,"http://maps.google.com/maps?q=416 SOUTH HIAWATHA AVENUE,+PIPESTONE,+MN+56164&hl=en"
PLAINVIEW POLICE DEPARTMENT,"PLAINVIEW HEALTHMART PHARMACY 
												
													HOURS: 10AM - 12PM",103 S. MAIN STREET,PLAINVIEW,NE,68769,"http://maps.google.com/maps?q=103 S. MAIN STREET,+PLAINVIEW,+NE+68769&hl=en"
PLATTE COUNTY SHERIFF'S OFFICE,PLATTE COUNTY SHERIFF'S OFFICE,850 MAPLE ST.,WHEATLAND,WY,82201,"http://maps.google.com/maps?q=850 MAPLE ST.,+WHEATLAND,+WY+82201&hl=en"
POLK COUNTY SHERIFF'S OFFICE,"POLK COUNTY SHERIFF'S OFFICE 
												
													SHERIFF DWAINE W. LADWIG",251 NORTH MAIN STREET,OSCEOLA,NE,68651,"http://maps.google.com/maps?q=251 NORTH MAIN STREET,+OSCEOLA,+NE+68651&hl=en"
POWELL POLICE DEPARTMENT,POWELL POLICE DEPARTMENT,250 NORTH CLARK STREET,POWELL,WY,82435,"http://maps.google.com/maps?q=250 NORTH CLARK STREET,+POWELL,+WY+82435&hl=en"
PRINCETON PD,PRINCETON PD,305 21ST AVENUE SOUTH,PRINCETON,MN,55371,"http://maps.google.com/maps?q=305 21ST AVENUE SOUTH,+PRINCETON,+MN+55371&hl=en"
PROCTOR PD,PROCTOR POLICE DEPARTMENT,100 PIONK DRIVE,PROCTOR,MN,55810,"http://maps.google.com/maps?q=100 PIONK DRIVE,+PROCTOR,+MN+55810&hl=en"
RAPID CITY POLICE DEPARTMENT,"RAPID CITY POLICE DEPARTMENT 
												
													PUBLIC SAFETY BUILDING",300 KANSAS CITY STREET,RAPID CITY,SD,57701,"http://maps.google.com/maps?q=300 KANSAS CITY STREET,+RAPID CITY,+SD+57701&hl=en"
ROCK COUNTY SO,ROCK COUNTY SO,1000 NORTH BLUE MOUND AVENUE,LUVERNE,MN,56156,"http://maps.google.com/maps?q=1000 NORTH BLUE MOUND AVENUE,+LUVERNE,+MN+56156&hl=en"
SERGEANT BLUFF POLICE DEPARTMENT,SERGEANT BLUFF PHARMACY,105 GAUL DRIVE,SERGEANT BLUFF,IA,51054,"http://maps.google.com/maps?q=105 GAUL DRIVE,+SERGEANT BLUFF,+IA+51054&hl=en"
SHERIDAN POLICE DEPARTMENT,WALGREENS,1766 COFFEEN AVENUE,SHERIDAN,WY,82801,"http://maps.google.com/maps?q=1766 COFFEEN AVENUE,+SHERIDAN,+WY+82801&hl=en"
SIDNEY POLICE DEPARTMENT,SIDNEY POLICE DEPT.,1715 ILLINOIS STREET,SIDNEY,NE,69162,"http://maps.google.com/maps?q=1715 ILLINOIS STREET,+SIDNEY,+NE+69162&hl=en"
SIOUX CITY POLICE DEPARTMENT,DRILLING PHARMACY,4010 MORNINGSIDE AVE,SIOUX CITY,IA,51106,"http://maps.google.com/maps?q=4010 MORNINGSIDE AVE,+SIOUX CITY,+IA+51106&hl=en"
SIOUX CITY POLICE DEPARTMENT,FAREWAY GROCERY STORE,4040 WAR EAGLE DRIVE,SIOUX CITY,IA,51109,"http://maps.google.com/maps?q=4040 WAR EAGLE DRIVE,+SIOUX CITY,+IA+51109&hl=en"
SIOUX CITY POLICE DEPARTMENT,HY VEE FOOD STORES,2827 HAMILTON BLVD.,SIOUX CITY,IA,51103,"http://maps.google.com/maps?q=2827 HAMILTON BLVD.,+SIOUX CITY,+IA+51103&hl=en"
SIOUX CITY POLICE DEPARTMENT,HY-VEE,4500 SERGEANT ROAD,SIOUX CITY,IA,51106,"http://maps.google.com/maps?q=4500 SERGEANT ROAD,+SIOUX CITY,+IA+51106&hl=en"
SIOUX CITY POLICE DEPARTMENT,TARGET,5775 SUNNYBROOK DRIVE,SIOUX CITY,IA,51101,"http://maps.google.com/maps?q=5775 SUNNYBROOK DRIVE,+SIOUX CITY,+IA+51101&hl=en"
SIOUX CITY POLICE DEPARTMENT,WALGREENS,101 PIERCE STREET,SIOUX CITY,IA,51101,"http://maps.google.com/maps?q=101 PIERCE STREET,+SIOUX CITY,+IA+51101&hl=en"
SIOUX CITY POLICE DEPARTMENT,WALMART,3101 FLOYD BLVD.,SIOUX CITY,IA,51104,"http://maps.google.com/maps?q=3101 FLOYD BLVD.,+SIOUX CITY,+IA+51104&hl=en"
SIOUX COUNTY SHERIFF'S OFFICE,"SIOUX COUNTY SHERIFF'S OFFICE 
												
													LOBBY",4363 IRONWOOD AVE,ORANGE CITY,IA,51041,"http://maps.google.com/maps?q=4363 IRONWOOD AVE,+ORANGE CITY,+IA+51041&hl=en"
SOUTH SIOUX CITY POLICE DEPARTMENT,SOUTH SIOUX CITY POLICE DEPARTMENT,701 WEST 29TH STREET,SOUTH SIOUX CITY,NE,68776,"http://maps.google.com/maps?q=701 WEST 29TH STREET,+SOUTH SIOUX CITY,+NE+68776&hl=en"
SPEARFISH POLICE DEPARTMENT,SPEARFISH POLICE DEPT.,625 5TH STREET,SPEARFISH,SD,57783,"http://maps.google.com/maps?q=625 5TH STREET,+SPEARFISH,+SD+57783&hl=en"
ST. FRANCIS PD,"GOODRICH PHARMACY 
												
													LOCATED IN KINGS COUNTY MARKET",23122 ST. FRANCIS BLVD NW,SAINT FRANCIS,MN,55070,"http://maps.google.com/maps?q=23122 ST. FRANCIS BLVD NW,+SAINT FRANCIS,+MN+55070&hl=en"
ST. FRANCIS PD,ST. FRANCIS PD,4058 ST. FRANCIS BLVD NW,SAINT FRANCIS,MN,55070,"http://maps.google.com/maps?q=4058 ST. FRANCIS BLVD NW,+SAINT FRANCIS,+MN+55070&hl=en"
STERLING POLICE DEPARTMENT,STERLING POLICE DEPARTMENT,421 N. 4TH STREET,STERLING,CO,80751,"http://maps.google.com/maps?q=421 N. 4TH STREET,+STERLING,+CO+80751&hl=en"
SUPERIOR POLICE DEPARTMENT,"SUPERIOR POLICE DEPARTMENT 
												
													DROP BOX",1316 N 14TH STREETSUITE 150,SUPERIOR,WI,54880,"http://maps.google.com/maps?q=1316 N 14TH STREET,+SUPERIOR,+WI+54880&hl=en"
WEST FARGO PD,WEST FARGO PD,800 4TH AVENUE EAST,WEST FARGO,ND,58078,"http://maps.google.com/maps?q=800 4TH AVENUE EAST,+WEST FARGO,+ND+58078&hl=en"
WHEATLAND COUNTY SHERIFF'S OFFICE,WHEATLAND COUNTY SHERIFF'S OFFICE,203 A AVENUE NW,HARLOWTON,MT,59036,"http://maps.google.com/maps?q=203 A AVENUE NW,+HARLOWTON,+MT+59036&hl=en"
WHITE EARTH POLICE DEPARTMENT,"WHITE EARTH POLICE DEPARTMENT 
												
													WHITE EARTH PD GARAGE",35550 EAGLE VIEW ROAD,WHITE EARTH,MN,56591,"http://maps.google.com/maps?q=35550 EAGLE VIEW ROAD,+WHITE EARTH,+MN+56591&hl=en"
WILKIN COUNTY SHERIFF'S OFFICE,WILKIN COUNTY SHERIFF'S OFFICE,515 DACOTAH AVENUE,BRECKENRIDGE,MN,56520,"http://maps.google.com/maps?q=515 DACOTAH AVENUE,+BRECKENRIDGE,+MN+56520&hl=en"
WINDSOR POLICE DEPARTMENT,WINDSOR POLICE DEPARTMENT,200 NORTH 11TH,WINDSOR,CO,80550,"http://maps.google.com/maps?q=200 NORTH 11TH,+WINDSOR,+CO+80550&hl=en"
WINNER POLICE DEPT,"WINNER POLICE DEPARTMENT 
												
													NO BOXES NEEDED, PER PAUL SCHUETH",217 EAST 3RD ST,WINNER,SD,57580,"http://maps.google.com/maps?q=217 EAST 3RD ST,+WINNER,+SD+57580&hl=en"
YANKTON POLICE DEPARTMENT,YANKTON POLICE DEPARTMENT,"410 WALNUT, SUITE 102",YANKTON,SD,57078,"http://maps.google.com/maps?q=410 WALNUT, SUITE 102,+YANKTON,+SD+57078&hl=en"
