Participant,CollectionSite,Address,City,State,Zip,MapURL
ALTAVISTA POLICE DEPARTMENT,"YMCA 
												
													SPORTS CENTER",718 7TH ST,ALTAVISTA,VA,24517,"http://maps.google.com/maps?q=718 7TH ST,+ALTAVISTA,+VA+24517&hl=en"
AMELIA COUNTY SHERFF'S OFFICE,"AMELIA PHARMACY INC. 
												
													FRONT SIDEWALK BY STORE ENTRANCE",15412 PATRICK HENRY HWY.,AMELIA,VA,23002,"http://maps.google.com/maps?q=15412 PATRICK HENRY HWY.,+AMELIA,+VA+23002&hl=en"
AMELIA COUNTY SHERFF'S OFFICE,"RITE AID PHARMACY 
												
													FRONT SIDEWALK BY STORE ENTRANCE",15105 PATRICK HENRY HWY,AMELIA,VA,23002,"http://maps.google.com/maps?q=15105 PATRICK HENRY HWY,+AMELIA,+VA+23002&hl=en"
APPOMATTOX COUNTY SHERIFF'S OFFICE,KROGER,7851 RICHMOND HWY,APPOMATTOX,VA,24522,"http://maps.google.com/maps?q=7851 RICHMOND HWY,+APPOMATTOX,+VA+24522&hl=en"
ASHLAND POLICE DEPARTMENT,"ASHLAND POLICE DEPARTMENT 
												
													VISITOR PARKING LOT",601 ENGLAND STREET,ASHLAND,VA,23005,"http://maps.google.com/maps?q=601 ENGLAND STREET,+ASHLAND,+VA+23005&hl=en"
BISHOPVILLE POLICE DEPT,BISHOPVILLE CITY POLICE DEPT.,112 E. COUNCIL ST.,BISHOPVILLE,SC,29010,"http://maps.google.com/maps?q=112 E. COUNCIL ST.,+BISHOPVILLE,+SC+29010&hl=en"
BLACKSBURG POLICE DEPARTMENT,"BLACKSBURG RECREATION CENTER 
												
													PARKING LOT",725 PATRICK HENRY DRIVE,BLACKSBURG,VA,24060,"http://maps.google.com/maps?q=725 PATRICK HENRY DRIVE,+BLACKSBURG,+VA+24060&hl=en"
BOTETOURT COUNTY SHERIFF'S OFFICE,BOTETOURT PHYSICAL THERAPY,104 KINGSTON DRIVE,DALEVILLE,VA,24083,"http://maps.google.com/maps?q=104 KINGSTON DRIVE,+DALEVILLE,+VA+24083&hl=en"
BRUNSWICK COUNTY SHERIFF'S OFFICE,NOVANT HEALTH BRUNSWICK MEDICAL CENTER,240 HOSPITAL DRIVE NE,BOLIVIA,NC,28422,"http://maps.google.com/maps?q=240 HOSPITAL DRIVE NE,+BOLIVIA,+NC+28422&hl=en"
BUENA VISTA POLICE DEPARTMENT,"CVS PHARMACY 
												
													EXTERIOR BREEZEWAY",2148 E. MIDLAND TRAIL,BUENA VISTA,VA,24416,"http://maps.google.com/maps?q=2148 E. MIDLAND TRAIL,+BUENA VISTA,+VA+24416&hl=en"
CAMDEN POLICE DEPARTMENT,CAMDEN POLICE DEPARTMENT,816 W. DEKALB ST.,CAMDEN,SC,29020,"http://maps.google.com/maps?q=816 W. DEKALB ST.,+CAMDEN,+SC+29020&hl=en"
CANNON PHARMACY,CANNON PHARMACY,1706 S CANNON BLVD,KANNAPOLIS,NC,28083,"http://maps.google.com/maps?q=1706 S CANNON BLVD,+KANNAPOLIS,+NC+28083&hl=en"
CANNON PHARMACY,CANNON PHARMACY,760 CABARRUS AVE W,CONCORD,NC,28025,"http://maps.google.com/maps?q=760 CABARRUS AVE W,+CONCORD,+NC+28025&hl=en"
CANNON PHARMACY,CONCORD PHARMACY AND SURGICAL SUPPLIES,3497 HWY 601 S.,CONCORD,NC,28025,"http://maps.google.com/maps?q=3497 HWY 601 S.,+CONCORD,+NC+28025&hl=en"
CANNON PHARMACY,HARRISBURG'S HOMETOWN PHARMACY,5006 NC HIGHWAY 49 S,HARRISBURG,NC,28075,"http://maps.google.com/maps?q=5006 NC HIGHWAY 49 S,+HARRISBURG,+NC+28075&hl=en"
CANNON PHARMACY,MOOSE DRUG COMPANY,8374 FRANKLIN ST. W.,MOUNT PLEASANT,NC,28124,"http://maps.google.com/maps?q=8374 FRANKLIN ST. W.,+MOUNT PLEASANT,+NC+28124&hl=en"
CANNON PHARMACY,MOOSE PROFESSIONAL PHARMACY,270 COPPERFIELD BLVD NE #101,CONCORD,NC,28025,"http://maps.google.com/maps?q=270 COPPERFIELD BLVD NE #101,+CONCORD,+NC+28025&hl=en"
CANNON PHARMACY,WEST CABARRUS YMCA,5325 LANGFORD AVE NW,CONCORD,NC,28027,"http://maps.google.com/maps?q=5325 LANGFORD AVE NW,+CONCORD,+NC+28027&hl=en"
CAROLINE COUNTY SHERIFF'S OFFICE,"CVS PHARMACY 
												
													PARKING LOT",18048 JEFFERSON DAVIS HIGHWAY,RUTHER GLEN,VA,22546,"http://maps.google.com/maps?q=18048 JEFFERSON DAVIS HIGHWAY,+RUTHER GLEN,+VA+22546&hl=en"
CARROLL COUNTY SHERIFF'S OFFICE,CVS PHARMACY - HILLSVILLE,915 WEST STUART DRIVE,HILLSVILLE,VA,24343,"http://maps.google.com/maps?q=915 WEST STUART DRIVE,+HILLSVILLE,+VA+24343&hl=en"
CHESAPEAKE POLICE DEPARTMENT,CHESAPEAKE POLICE 2ND PRECINCT,1209 20TH STREET,CHESAPEAKE,VA,23324,"http://maps.google.com/maps?q=1209 20TH STREET,+CHESAPEAKE,+VA+23324&hl=en"
CHESAPEAKE POLICE DEPARTMENT,CHESAPEAKE POLICE 3RD PRECINCT,949 N. GEORGE WASHINGTON HIGHWAY,CHESAPEAKE,VA,23323,"http://maps.google.com/maps?q=949 N. GEORGE WASHINGTON HIGHWAY,+CHESAPEAKE,+VA+23323&hl=en"
CHESAPEAKE POLICE DEPARTMENT,CHESAPEAKE POLICE 4TH PRECINCT,4764 STATION HOUSE ROAD,CHESAPEAKE,VA,23321,"http://maps.google.com/maps?q=4764 STATION HOUSE ROAD,+CHESAPEAKE,+VA+23321&hl=en"
CHESAPEAKE SHERIFF'S OFFICE,"CHESAPEAKE SHERIFF'S OFFICE 
												
													ADMIN BUILDING ACROSS FROM CORRECTIONAL CENTER",401 ALBEMARLE DRIVE,CHESAPEAKE,VA,23322,"http://maps.google.com/maps?q=401 ALBEMARLE DRIVE,+CHESAPEAKE,+VA+23322&hl=en"
CHESTERFIELD COUNTY POLICE DEPARTMENT,"MANCHESTER HIGH SCHOOL 
												
													FRONT LOOP",12601 BAILEY BRIDGE RD,MIDLOTHIAN,VA,23112,"http://maps.google.com/maps?q=12601 BAILEY BRIDGE RD,+MIDLOTHIAN,+VA+23112&hl=en"
CHRISTIANSBURG POLICE DEPARTMENT,"CVS PHARMACY 
												
													PARKING LOT NEAR ENTRANCE",550 NORTH FRANKLIN ST,CHRISTIANSBURG,VA,24073,"http://maps.google.com/maps?q=550 NORTH FRANKLIN ST,+CHRISTIANSBURG,+VA+24073&hl=en"
COLONIAL HEIGHTS POLICE DEPARTMENT,TOYS R. US PARKING LOT,1869 SOUTHPARK BLVD,COLONIAL HEIGHTS,VA,23834,"http://maps.google.com/maps?q=1869 SOUTHPARK BLVD,+COLONIAL HEIGHTS,+VA+23834&hl=en"
CRAIG COUNTY SHERIFF'S OFFICE,"MARKET STREET PHARMACY 
												
													PARKING LOT",317 MARKET ST,NEW CASTLE,VA,24127,"http://maps.google.com/maps?q=317 MARKET ST,+NEW CASTLE,+VA+24127&hl=en"
CURRITUCK COUNTY SHERIFF'S OFFICE,MOYOCK FOOD LION,101 LARK DR,MOYOCK,NC,27958,"http://maps.google.com/maps?q=101 LARK DR,+MOYOCK,+NC+27958&hl=en"
DANVILLE POLICE DEPARTMENT,"CENTRA MEDICAL GROUP DANVILLE 
												
													PARKING LOT - WEST END OF THE BUILDING",414 PARK AVE,DANVILLE,VA,24541,"http://maps.google.com/maps?q=414 PARK AVE,+DANVILLE,+VA+24541&hl=en"
DILLON COUNTY SHERIFF'S OFFICE,DILLON COUNTY JUDICIAL CENTER,1033 OLD LATTA HWY,DILLON,SC,29536,"http://maps.google.com/maps?q=1033 OLD LATTA HWY,+DILLON,+SC+29536&hl=en"
DUBLIN POLICE DEPARTMENT,CVS PHARMACY #7658,100 GILES AVENUE,DUBLIN,VA,24084,"http://maps.google.com/maps?q=100 GILES AVENUE,+DUBLIN,+VA+24084&hl=en"
DURHAM POLICE DEPARTMENT,KROGER,202 W NC HIGHWAY 54,DURHAM,NC,27713,"http://maps.google.com/maps?q=202 W NC HIGHWAY 54,+DURHAM,+NC+27713&hl=en"
DURHAM POLICE DEPARTMENT,KROGER,3457 HILLSBOROUGH ROAD,DURHAM,NC,27705,"http://maps.google.com/maps?q=3457 HILLSBOROUGH ROAD,+DURHAM,+NC+27705&hl=en"
DURHAM POLICE DEPARTMENT,TRIANGLE PHARMACY,1700 E NC HIGHWAY 54,DURHAM,NC,27713,"http://maps.google.com/maps?q=1700 E NC HIGHWAY 54,+DURHAM,+NC+27713&hl=en"
DURHAM POLICE DEPARTMENT,WALGREENS,1812 HOLLOWAY STREET,DURHAM,NC,27701,"http://maps.google.com/maps?q=1812 HOLLOWAY STREET,+DURHAM,+NC+27701&hl=en"
FARMVILLE POLICE DEPARTMENT/LONGWOOD UNIVERSITY PD,"MIDTOWN SQUARE 
												
													IN FRONT OF CHICK-FIL-A",156 S. SOUTH STREET,FARMVILLE,VA,23901,"http://maps.google.com/maps?q=156 S. SOUTH STREET,+FARMVILLE,+VA+23901&hl=en"
FAYETTEVILLE POLICE DEPARTMENT,"CAMPBELLTON DISTRICT FAYETTEVILLE POLICE DEPARTMEN 
												
													MON-FRI  9-4PM  SATURDAY 9-1",467 HAY ST.,FAYETTEVILLE,NC,28301,"http://maps.google.com/maps?q=467 HAY ST.,+FAYETTEVILLE,+NC+28301&hl=en"
FAYETTEVILLE POLICE DEPARTMENT,"CENTRAL DISTRICT FAYETTEVILLE POLICE DEPT 
												
													MON-FRI  9-4PM",3811 SYCAMORE DAIRY RD,FAYETTEVILLE,NC,28303,"http://maps.google.com/maps?q=3811 SYCAMORE DAIRY RD,+FAYETTEVILLE,+NC+28303&hl=en"
FAYETTEVILLE POLICE DEPARTMENT,"CROSS CREEK DIVISION FAYETTEVILLE POLICE DEPT 
												
													MON-FRI  9-4PM",6147 RAEFORD RD,FAYETTEVILLE,NC,28304,"http://maps.google.com/maps?q=6147 RAEFORD RD,+FAYETTEVILLE,+NC+28304&hl=en"
FLORENCE POLICE DEPARTMENT,FIRST BAPTIST CHURCH,300 S. IRBY STREET,FLORENCE,SC,29501,"http://maps.google.com/maps?q=300 S. IRBY STREET,+FLORENCE,+SC+29501&hl=en"
FLORENCE POLICE DEPARTMENT,WEST FLORENCE HIGH SCHOOL,221 BELTLINE DR.,FLORENCE,SC,29505,"http://maps.google.com/maps?q=221 BELTLINE DR.,+FLORENCE,+SC+29505&hl=en"
FLOYD COUNTY SHERIFF'S OFFICE,"FLOYD COUNTY SHERIFF'S OFFICE 
												
													MAIN ENTRANCE",100 MAIN STREET,FLOYD,VA,24091,"http://maps.google.com/maps?q=100 MAIN STREET,+FLOYD,+VA+24091&hl=en"
FLUVANNA COUNTY SHERIFF'S OFFICE,CVS PHARMACY,28 ABBY ROAD,PALMYRA,VA,22963,"http://maps.google.com/maps?q=28 ABBY ROAD,+PALMYRA,+VA+22963&hl=en"
FRANKLIN COUNTY SHERIFF'S OFFICE,FERRUM COLLEGE PD OFFICE,10021 FRANKLIN STREET,FERRUM,VA,24088,"http://maps.google.com/maps?q=10021 FRANKLIN STREET,+FERRUM,+VA+24088&hl=en"
FRANKLIN COUNTY SHERIFF'S OFFICE,FRANKLIN COUNTY SHERIFF'S  WESTLAKE SUBSTATION,13205 BOOKER T. WASHINGTON HWY,HARDY,VA,24101,"http://maps.google.com/maps?q=13205 BOOKER T. WASHINGTON HWY,+HARDY,+VA+24101&hl=en"
GARNER POLICE DEPARTMENT,"GARNER POLICE DEPARTMENT 
												
													MONDAY - FRIDAY 8A - 5P",912 SEVENTH AVE,GARNER,NC,27529,"http://maps.google.com/maps?q=912 SEVENTH AVE,+GARNER,+NC+27529&hl=en"
GILES COUNTY SHERIFF'S OFFICE,GILES COUNTY SHERIFF'S OFFICE,1 TAYLOR AVENUE SUITE 3,PEARISBURG,VA,24134,"http://maps.google.com/maps?q=1 TAYLOR AVENUE SUITE 3,+PEARISBURG,+VA+24134&hl=en"
GLOUCESTER COUNTY SHERIFF'S OFFICE,GLOUCESTER PHARMACY,7453 HARGETT BLVD,GLOUCESTER,VA,23061,"http://maps.google.com/maps?q=7453 HARGETT BLVD,+GLOUCESTER,+VA+23061&hl=en"
GLOUCESTER COUNTY SHERIFF'S OFFICE,"WALGREEN'S PHARMACY 
												
													FRONT ENTRANCE",2418 GEORGE WASHINGTON MEMORIAL HIGHWAY,HAYES,VA,23072,"http://maps.google.com/maps?q=2418 GEORGE WASHINGTON MEMORIAL HIGHWAY,+HAYES,+VA+23072&hl=en"
GOOCHLAND COUNTY SHERIFF'S OFFICE,GOOCHLAND FIRE/RESCUE COMPANY 5,2710 FAIRGROUNDS ROAD,GOOCHLAND,VA,23063,"http://maps.google.com/maps?q=2710 FAIRGROUNDS ROAD,+GOOCHLAND,+VA+23063&hl=en"
GOOCHLAND COUNTY SHERIFF'S OFFICE,WEST CREEK EMERGENCY CENTER,12720 TUCKAHOE CREEK PKWY,HENRICO,VA,23238,"http://maps.google.com/maps?q=12720 TUCKAHOE CREEK PKWY,+HENRICO,+VA+23238&hl=en"
HAMPTON POLICE DIVISION,"SENTARA CAREPLEX HOSPITAL 
												
													NEAR EMERGENCY ROOM ENTRANCE",3000 COLISEUM DRIVE,HAMPTON,VA,23666,"http://maps.google.com/maps?q=3000 COLISEUM DRIVE,+HAMPTON,+VA+23666&hl=en"
HANOVER COUNTY SHERIFF'S OFFICE,MECHANICSVILLE CONVENIENCE CENTER,7427 VERDI LANE,MECHANICSVILLE,VA,23116,"http://maps.google.com/maps?q=7427 VERDI LANE,+MECHANICSVILLE,+VA+23116&hl=en"
HAVELOCK POLICE DEPARTMENT,"HAVELOCK POLICE DEPARTMENT 
												
													252-463-7104",2 GOVERNMENTAL AVE,HAVELOCK,NC,28532,"http://maps.google.com/maps?q=2 GOVERNMENTAL AVE,+HAVELOCK,+NC+28532&hl=en"
HENRICO POLICE DEPARTMENT,EASTERN HENRICO RECREATION CENTER,1440 N. LABURNUM AVENUE,RICHMOND,VA,23223,"http://maps.google.com/maps?q=1440 N. LABURNUM AVENUE,+RICHMOND,+VA+23223&hl=en"
HENRICO POLICE DEPARTMENT,"HENRICO TRAINING CENTER 
												
													ENTRANCE IS ON SHRADER ROAD",7721 E. PARHAM ROAD,HENRICO,VA,23294,"http://maps.google.com/maps?q=7721 E. PARHAM ROAD,+HENRICO,+VA+23294&hl=en"
HENRICO POLICE DEPARTMENT,VARINA PUBLIC LIBRARY,1875 NEW MARKET ROAD,HENRICO,VA,23231,"http://maps.google.com/maps?q=1875 NEW MARKET ROAD,+HENRICO,+VA+23231&hl=en"
HIGH POINT POLICE DEPARTMENT,"ARCHDALE DRUG 
												
													10AM.-2PM",11220 N MAIN STREET,HIGH POINT,NC,27263,"http://maps.google.com/maps?q=11220 N MAIN STREET,+HIGH POINT,+NC+27263&hl=en"
HOLLY RIDGE POLICE DEPARTMENT,"HOLLY RIDGE POLICE DEPARTMENT 
												
													LT. EWAN S RICHARDS",313SOUND ROAD,HOLLY RIDGE,NC,28445,"http://maps.google.com/maps?q=313,+HOLLY RIDGE,+NC+28445&hl=en"
HOPEWELL POLICE DEPARTMENT,"HOPEWELL POLICE DEPARTMENT 
												
													PARKING LOT BY MAIN ENTRANCE",300 N. MAIN STREET,HOPEWELL,VA,23860,"http://maps.google.com/maps?q=300 N. MAIN STREET,+HOPEWELL,+VA+23860&hl=en"
JACKSONVILLE POLICE DEPARTMENT,ONSLOW MEMORIAL HOSPITAL,317 WESTERN BLVD,JACKSONVILLE,NC,28546,"http://maps.google.com/maps?q=317 WESTERN BLVD,+JACKSONVILLE,+NC+28546&hl=en"
JACKSONVILLE POLICE DEPARTMENT,WALGREENS,1600 GUM BRANCH RD.,JACKSONVILLE,NC,28540,"http://maps.google.com/maps?q=1600 GUM BRANCH RD.,+JACKSONVILLE,+NC+28540&hl=en"
JACKSONVILLE POLICE DEPARTMENT,WALGREENS,359 WESTERN BLVD.,JACKSONVILLE,NC,28546,"http://maps.google.com/maps?q=359 WESTERN BLVD.,+JACKSONVILLE,+NC+28546&hl=en"
JAMES CITY COUNTY POLICE DEPARTMENT,"JAMES CITY COUNTY POLICE DEPARTMENT 
												
													LAW ENFORCEMENT CENTER",4600 OPPORTUNITY WAY,WILLIAMSBURG,VA,23188,"http://maps.google.com/maps?q=4600 OPPORTUNITY WAY,+WILLIAMSBURG,+VA+23188&hl=en"
JASON BROCK,VIDANT DUPLIN HOSTIPAL,411 N. MAIN ST,KENANSVILLE,NC,28349,"http://maps.google.com/maps?q=411 N. MAIN ST,+KENANSVILLE,+NC+28349&hl=en"
KANNAPOLIS YMCA,KANNAPOLIS YMCA,101 YMCA DRIVE,KANNAPOLIS,NC,28081,"http://maps.google.com/maps?q=101 YMCA DRIVE,+KANNAPOLIS,+NC+28081&hl=en"
KERSHAW COUNTY SHERIFF'S OFFICE,KERSHAW CO. SHERIFF'S OFFICE,821 RIDGEWAY RD.,LUGOFF,SC,29078,"http://maps.google.com/maps?q=821 RIDGEWAY RD.,+LUGOFF,+SC+29078&hl=en"
KING AND QUEEN SHERIFF'S OFFICE,"NICK'S RESTAURANT 
												
													SIDE PARKING LOT",3483 LEWIS B. PULLER HWY,SHACKLEFORDS,VA,23156,"http://maps.google.com/maps?q=3483 LEWIS B. PULLER HWY,+SHACKLEFORDS,+VA+23156&hl=en"
KING AND QUEEN SHERIFF'S OFFICE,"PUMONKEY REGIONAL LIBRARY 
												
													FRONT PARKING LOT",396 NEWTOWN ROAD,SAINT STEPHENS CHURCH,VA,23148,"http://maps.google.com/maps?q=396 NEWTOWN ROAD,+SAINT STEPHENS CHURCH,+VA+23148&hl=en"
KING WILLIAM COUNTY SHERIFF'S OFFICE,"CENTRAL CROSSING FOOD LION 
												
													PARKING LOT AREA NEAR FRONT OF STORE",4915 RICHMOND TAPPAHANNOCK HIGHWAY,AYLETT,VA,23009,"http://maps.google.com/maps?q=4915 RICHMOND TAPPAHANNOCK HIGHWAY,+AYLETT,+VA+23009&hl=en"
KINSTON POLICE DEPARTMENT,WAL-MART,4101 W. VERNON AVE.,KINSTON,NC,28504,"http://maps.google.com/maps?q=4101 W. VERNON AVE.,+KINSTON,+NC+28504&hl=en"
LANCASTER COUNTY SHERIFF'S DEPARTMENT,LANCASTER SHERIFF'S OFFICE,8293 MARY BALL ROAD,LANCASTER,VA,22503,"http://maps.google.com/maps?q=8293 MARY BALL ROAD,+LANCASTER,+VA+22503&hl=en"
LAWRENCEVILLE POLICE DEPARTMENT,"LAWRENCEVILLE MUNICIPAL BUILDING 
												
													AT THE ENTRANCE TO THE POLICE DEPARTMENT",400 N. MAIN STREET,LAWRENCEVILLE,VA,23868,"http://maps.google.com/maps?q=400 N. MAIN STREET,+LAWRENCEVILLE,+VA+23868&hl=en"
LAZARO RAMOS,VILLAGE PHARMACY AT THE BEACON,14057 US HWY 17 SUITE 100,HAMPSTEAD,NC,28443,"http://maps.google.com/maps?q=14057 US HWY 17 SUITE 100,+HAMPSTEAD,+NC+28443&hl=en"
LEXINGTON POLICE DEPARTMENT,CVS PHARMACY,506 E NELSON STREET,LEXINGTON,VA,24450,"http://maps.google.com/maps?q=506 E NELSON STREET,+LEXINGTON,+VA+24450&hl=en"
LYNCHBURG POLICE DEPARTMENT,"LYNCHBURG POLICE DEPARTMENT 
												
													LOBBY",905 COURT STREET,LYNCHBURG,VA,24504,"http://maps.google.com/maps?q=905 COURT STREET,+LYNCHBURG,+VA+24504&hl=en"
MARTINSVILLE POLICE DEPARTMENT,"MARTINSVILLE FIRE DEPARTMENT 
												
													FRONT ENTRANCE",65 WEST CHURCH ST.,MARTINSVILLE,VA,24112,"http://maps.google.com/maps?q=65 WEST CHURCH ST.,+MARTINSVILLE,+VA+24112&hl=en"
MOUNT AIRY POLICE DEPARTMENT,"MOUNT AIRY POLICE DEPARTMENT 
												
													FRONT LOBBY",150 ROCKFORD STREET,MOUNT AIRY,NC,27030,"http://maps.google.com/maps?q=150 ROCKFORD STREET,+MOUNT AIRY,+NC+27030&hl=en"
NC STATE UNIVERSITY POLICE DEPT.,"NC STATE UNIVERSITY POLICE DEPARTMENT 
												
													FRONT LOBBY",2610 WOLF VILLAGE WAYCAMPUS BOX 7220,RALEIGH,NC,27695,"http://maps.google.com/maps?q=2610 WOLF VILLAGE WAY,+RALEIGH,+NC+27695&hl=en"
NEW BERN POLICE DEPARTMENT,REALO DISCOUNT DRUG STORE,1301 COMMERCE DR,NEW BERN,NC,28562,"http://maps.google.com/maps?q=1301 COMMERCE DR,+NEW BERN,+NC+28562&hl=en"
NEW HANOVER REGIONAL MEDICAL CENTER,NHRMC ATLANTIC SURGICENTER,9104 MARKET STREET,WILMINGTON,NC,28411,"http://maps.google.com/maps?q=9104 MARKET STREET,+WILMINGTON,+NC+28411&hl=en"
NEW HANOVER REGIONAL MEDICAL CENTER,NHRMC BRUNSWICK FOREST,1333 S. DICKINSON DRIVE,LELAND,NC,28451,"http://maps.google.com/maps?q=1333 S. DICKINSON DRIVE,+LELAND,+NC+28451&hl=en"
NEW HANOVER REGIONAL MEDICAL CENTER,NHRMC MEDICAL MALL,2243 S. 17TH STREET,WILMINGTON,NC,28402,"http://maps.google.com/maps?q=2243 S. 17TH STREET,+WILMINGTON,+NC+28402&hl=en"
NEW HANOVER REGIONAL MEDICAL CENTER,NHRMC URGENT CARE,112 MEDICAL VILLAGE DRIVE,WALLACE,NC,28466,"http://maps.google.com/maps?q=112 MEDICAL VILLAGE DRIVE,+WALLACE,+NC+28466&hl=en"
NEW HANOVER REGIONAL MEDICAL CENTER,NHRMC URGENT CARE,1135 MILITARY CUTOFF ROAD SUITE #103,WILMINGTON,NC,28405,"http://maps.google.com/maps?q=1135 MILITARY CUTOFF ROAD SUITE #103,+WILMINGTON,+NC+28405&hl=en"
NEW HANOVER REGIONAL MEDICAL CENTER,PENDER MEMORIAL HOSPITAL,507 E. FREMONT STREET,BURGAW,NC,28425,"http://maps.google.com/maps?q=507 E. FREMONT STREET,+BURGAW,+NC+28425&hl=en"
NEW KENT COUNTY SHERIFF'S OFFICE,NEW KENT SHERIFF'S OFFICE,11995 COURTHOUSE CIRCLE,NEW KENT,VA,23124,"http://maps.google.com/maps?q=11995 COURTHOUSE CIRCLE,+NEW KENT,+VA+23124&hl=en"
NEWPORT NEWS POLICE DEPARTMENT,NEWPORT NEWS PD CENTRAL PRECINCT,611 DRESDEN DR.,NEWPORT NEWS,VA,23601,"http://maps.google.com/maps?q=611 DRESDEN DR.,+NEWPORT NEWS,+VA+23601&hl=en"
NEWPORT NEWS POLICE DEPARTMENT,"NEWPORT NEWS PD NORTH PRECINCT 
												
													LOT BETWEEN POLICE AND FIRE DEPARTMENTS",368 DESHAZOR DRIVE,NEWPORT NEWS,VA,23608,"http://maps.google.com/maps?q=368 DESHAZOR DRIVE,+NEWPORT NEWS,+VA+23608&hl=en"
NEWPORT NEWS POLICE DEPARTMENT,NEWPORT NEWS PD SOUTH PRECINCT,3303 JEFFERSON AVENUE,NEWPORT NEWS,VA,23607,"http://maps.google.com/maps?q=3303 JEFFERSON AVENUE,+NEWPORT NEWS,+VA+23607&hl=en"
NORFOLK POLICE DEPARTMENT,"NORFOLK POLICE 3RD DIVISION 
												
													FRONT ENTRANCE",901 ASBURY AVENUE,NORFOLK,VA,23513,"http://maps.google.com/maps?q=901 ASBURY AVENUE,+NORFOLK,+VA+23513&hl=en"
NORFOLK POLICE DEPARTMENT,"NORFOLK POLICE OPERATIONS CENTER 
												
													FRONT ENTRANCE",3661 E. VIRGINIA BEACH BLVD,NORFOLK,VA,23502,"http://maps.google.com/maps?q=3661 E. VIRGINIA BEACH BLVD,+NORFOLK,+VA+23502&hl=en"
NORFOLK POLICE DEPARTMENT,"NORFOLK POLICE TRAINING CENTER 
												
													FRONT ENTRANCE",2500 N. MILITARY HWY,NORFOLK,VA,23502,"http://maps.google.com/maps?q=2500 N. MILITARY HWY,+NORFOLK,+VA+23502&hl=en"
NORFOLK STATE UNIVERSITY POLICE DEPARTMENT,"NORFOLK STATE UNIVERSITY PD 
												
													LOBBY AREA",2501 CORPREW AVE,NORFOLK,VA,23504,"http://maps.google.com/maps?q=2501 CORPREW AVE,+NORFOLK,+VA+23504&hl=en"
NORTHAMPTON COUNTY SHERIFF'S OFFICE,"NORTHAMPTON COUNTY SHERIFF'S OFFICE 
												
													FRONT LOBBY",5211 THE HORNES,EASTVILLE,VA,23347,"http://maps.google.com/maps?q=5211 THE HORNES,+EASTVILLE,+VA+23347&hl=en"
NORTHUMBERLAND COUNTY SHERIFF'S OFFICE,NORTHUMBERLAND COUNTY SHERIFF'S OFFICE,195 JUDICIAL PLACE,HEATHSVILLE,VA,22473,"http://maps.google.com/maps?q=195 JUDICIAL PLACE,+HEATHSVILLE,+VA+22473&hl=en"
ONSLOW COUNTY SHERIFF OFFICE,CVS PHARMACY,1309 NC HWY 210,SNEADS FERRY,NC,28460,"http://maps.google.com/maps?q=1309 NC HWY 210,+SNEADS FERRY,+NC+28460&hl=en"
ONSLOW COUNTY SHERIFF OFFICE,"WAL GREENS PHARMACY 
												
													910-219-0490",3069 RICHLANDS HWY,JACKSONVILLE,NC,28540,"http://maps.google.com/maps?q=3069 RICHLANDS HWY,+JACKSONVILLE,+NC+28540&hl=en"
PATRICK COUNTY SHERIFF'S OFFICE,PATRICK COUNTY SHERIFF'S OFFICE,742 COMMERCE STREET,STUART,VA,24171,"http://maps.google.com/maps?q=742 COMMERCE STREET,+STUART,+VA+24171&hl=en"
PETERSBURG POLICE DEPARTMENT,CVS PHARMACY,2100 SOUTH CRATER RD,PETERSBURG,VA,23805,"http://maps.google.com/maps?q=2100 SOUTH CRATER RD,+PETERSBURG,+VA+23805&hl=en"
PITTSYLVANIA COUNTY SHERIFF'S OFFICE,"FOOD LION 
												
													PARKING LOT",100 VADEN STREET,GRETNA,VA,24557,"http://maps.google.com/maps?q=100 VADEN STREET,+GRETNA,+VA+24557&hl=en"
PITTSYLVANIA COUNTY SHERIFF'S OFFICE,"MT. HERMON SHOPPING CENTER 
												
													FOOD LION PARKING LOT",4048 FRANKLIN TURNPIKE,DANVILLE,VA,24540,"http://maps.google.com/maps?q=4048 FRANKLIN TURNPIKE,+DANVILLE,+VA+24540&hl=en"
PITTSYLVANIA COUNTY SHERIFF'S OFFICE,"PITTSYLVANIA COUNTY SHERIFF'S OFFICE 
												
													IN FRONT OF SHERIFF'S OFFICE",21 NORTH MAIN STREET,CHATHAM,VA,24531,"http://maps.google.com/maps?q=21 NORTH MAIN STREET,+CHATHAM,+VA+24531&hl=en"
POQUOSON POLICE DEPARTMENT,"POQUOSON PHARMACY 
												
													PARKING LOT",498 WYTHE CREEK ROAD,POQUOSON,VA,23662,"http://maps.google.com/maps?q=498 WYTHE CREEK ROAD,+POQUOSON,+VA+23662&hl=en"
PORTSMOUTH POLICE DEPARTMENT,"PORTSMOUTH FIRE STATION #3 
												
													FRONT DOOR",4001 RIVERSHORE ROAD,PORTSMOUTH,VA,23703,"http://maps.google.com/maps?q=4001 RIVERSHORE ROAD,+PORTSMOUTH,+VA+23703&hl=en"
PORTSMOUTH POLICE DEPARTMENT,PORTSMOUTH POLICE DEPARTMENT HEADQUARTERS,801 WATER ST,PORTSMOUTH,VA,23704,"http://maps.google.com/maps?q=801 WATER ST,+PORTSMOUTH,+VA+23704&hl=en"
PORTSMOUTH POLICE DEPARTMENT,"PORTSMOUTH SAFETY TOWN 
												
													OUTSIDE FRONT DOOR",4404 DEEP CREEK BLVD,PORTSMOUTH,VA,23702,"http://maps.google.com/maps?q=4404 DEEP CREEK BLVD,+PORTSMOUTH,+VA+23702&hl=en"
POWHATAN COUNTY SHERIFF'S OFFICE,POWHATAN COUNTY COURTHOUSE,3880 OLD BUCKINGHAM ROAD,POWHATAN,VA,23139,"http://maps.google.com/maps?q=3880 OLD BUCKINGHAM ROAD,+POWHATAN,+VA+23139&hl=en"
PRINCE GEORGE COUNTY POLICE,"PRINCE GEORGE COUNTY POLICE DEPARTMENT 
												
													SIDE PARKING LOT",6600 COURTHOUSE ROAD,PRINCE GEORGE,VA,23875,"http://maps.google.com/maps?q=6600 COURTHOUSE ROAD,+PRINCE GEORGE,+VA+23875&hl=en"
PULASKI (TOWN OF) POLICE DEPARTMENT,"FOOD CITY 
												
													PARKING LOT NEAR ENTRANCE TO STORE",1400 BOB WHITE BLVD,PULASKI,VA,24301,"http://maps.google.com/maps?q=1400 BOB WHITE BLVD,+PULASKI,+VA+24301&hl=en"
PULASKI SHERIFF'S OFFICE,"FAIRLAWN WALMART 
												
													APRIL 28, 2018 LOCATION",7373 PEPPERS FERRY BLVD,RADFORD,VA,24141,"http://maps.google.com/maps?q=7373 PEPPERS FERRY BLVD,+RADFORD,+VA+24141&hl=en"
RADFORD CITY POLICE DEPARTMENT,"RADFORD FIRE DEPARTMENT 
												
													PARKING LOT",1500 WADSWORTH STREET,RADFORD,VA,24141,"http://maps.google.com/maps?q=1500 WADSWORTH STREET,+RADFORD,+VA+24141&hl=en"
RADFORD UNIVERSITY POLICE DEPARTMENT,BONNIE HURLBURT STUDENT CENTER,700 CLEMENT ST.,RADFORD,VA,24141,"http://maps.google.com/maps?q=700 CLEMENT ST.,+RADFORD,+VA+24141&hl=en"
RALEIGH POLICE DEPARTMENT,FALLS RIVER PHARMACY,10930 RAVEN RIDGE RD,RALEIGH,NC,27614,"http://maps.google.com/maps?q=10930 RAVEN RIDGE RD,+RALEIGH,+NC+27614&hl=en"
RALEIGH POLICE DEPARTMENT,HAYES BARTON PHARMACY,2000 FAIRVIEW RD,RALEIGH,NC,27608,"http://maps.google.com/maps?q=2000 FAIRVIEW RD,+RALEIGH,+NC+27608&hl=en"
RALEIGH POLICE DEPARTMENT,JOSEF'S PHARMACY,2100 NEW BERN AVE,RALEIGH,NC,27610,"http://maps.google.com/maps?q=2100 NEW BERN AVE,+RALEIGH,+NC+27610&hl=en"
RALEIGH POLICE DEPARTMENT,WELLNESS PHARMACY AND COMPOUNDING CENTER,2601 BLUE RIDGE RD,RALEIGH,NC,27607,"http://maps.google.com/maps?q=2601 BLUE RIDGE RD,+RALEIGH,+NC+27607&hl=en"
RANDOLPH COUNTY SHERIFF'S OFFICE,"RANDOLPH MALL 
												
													PARKING LOT BESIDE DUNHAM'S",1437 EAST DIXIE DR,ASHEBORO,NC,27203,"http://maps.google.com/maps?q=1437 EAST DIXIE DR,+ASHEBORO,+NC+27203&hl=en"
ROANOKE CITY POLICE DEPARTMENT,CVS 9TH STREET SE,702 9TH STREET SE,ROANOKE,VA,24013,"http://maps.google.com/maps?q=702 9TH STREET SE,+ROANOKE,+VA+24013&hl=en"
ROANOKE CITY POLICE DEPARTMENT,CVS AT TARGET,4737 VALLEY VIEW BLVD,ROANOKE,VA,24012,"http://maps.google.com/maps?q=4737 VALLEY VIEW BLVD,+ROANOKE,+VA+24012&hl=en"
ROANOKE CITY POLICE DEPARTMENT,CVS AT TOWERS SHOPPING CENTER,2001 COLONIAL AVE SW,ROANOKE,VA,24015,"http://maps.google.com/maps?q=2001 COLONIAL AVE SW,+ROANOKE,+VA+24015&hl=en"
ROANOKE COUNTY POLICE DEPARTMENT,"KROGER @ TANGLEWOOD MALL 
												
													FRONT PARKING LOT",4488 ELECTRIC ROAD,ROANOKE,VA,24015,"http://maps.google.com/maps?q=4488 ELECTRIC ROAD,+ROANOKE,+VA+24015&hl=en"
ROANOKE COUNTY POLICE DEPARTMENT,"KROGER AT VALLEY GATEWAY 
												
													NEAR FRONT ENTRANCE",3970 VALLEY GATEWAY BLVD,ROANOKE,VA,24012,"http://maps.google.com/maps?q=3970 VALLEY GATEWAY BLVD,+ROANOKE,+VA+24012&hl=en"
ROANOKE COUNTY POLICE DEPARTMENT,"WALGREENS 
												
													CORNER OF ELECTRIC ROAD & BRAMBLETON AVE",4049 BRAMBLETON AVE,ROANOKE,VA,24018,"http://maps.google.com/maps?q=4049 BRAMBLETON AVE,+ROANOKE,+VA+24018&hl=en"
ROANOKE COUNTY SHERIFF'S OFFICE,"ROANOKE COUNTY FIRE STATION #1 
												
													PARKING LOT",150 HERSHBERGER ROAD,ROANOKE,VA,24019,"http://maps.google.com/maps?q=150 HERSHBERGER ROAD,+ROANOKE,+VA+24019&hl=en"
SAFE KIDS CHARLOTTE MECKLENBURG,"HARRIS TEETER 
												
													IN FRONT OF STORE",1704 CENTRAL AVENUE,CHARLOTTE,NC,28205,"http://maps.google.com/maps?q=1704 CENTRAL AVENUE,+CHARLOTTE,+NC+28205&hl=en"
SAFE KIDS CHARLOTTE MECKLENBURG,HARRIS TEETER - STONECREST,7852 REA RD,CHARLOTTE,NC,28277,"http://maps.google.com/maps?q=7852 REA RD,+CHARLOTTE,+NC+28277&hl=en"
SAFE KIDS UNION COUNTY,MARSHVILLE POLICE DEPARTMENT,113 W. MAIN STREET,MARSHVILLE,NC,28103,"http://maps.google.com/maps?q=113 W. MAIN STREET,+MARSHVILLE,+NC+28103&hl=en"
SAFE KIDS UNION COUNTY,UNION COUNTY MAIN SHERIFF'S OFFICE-WINGATE,3344 PRESSON ROAD,MONROE,NC,28112,"http://maps.google.com/maps?q=3344 PRESSON ROAD,+MONROE,+NC+28112&hl=en"
SAFE KIDS UNION COUNTY,"UNION COUNTY SHERIFF'S OFFICE 
												
													SATELLITE FACILITY- WESLEY CHAPEL FIRE DEPARTMENT #26",315 WAXHAW-INDIAN TRAIL RD,WAXHAW,NC,28173,"http://maps.google.com/maps?q=315 WAXHAW-INDIAN TRAIL RD,+WAXHAW,+NC+28173&hl=en"
SAFE KIDS UNION COUNTY,"UNION COUNTY SHERIFF'S OFFICE 
												
													SATELLITE FACILITY-INDIAN TRAIL",109 NAVAJO TRAIL,INDIAN TRAIL,NC,28079,"http://maps.google.com/maps?q=109 NAVAJO TRAIL,+INDIAN TRAIL,+NC+28079&hl=en"
SAFE KIDS UNION COUNTY,WAXHAW POLICE DEPARTMENT,3620 PROVIDENCE ROAD SOUTH,WAXHAW,NC,28173,"http://maps.google.com/maps?q=3620 PROVIDENCE ROAD SOUTH,+WAXHAW,+NC+28173&hl=en"
SALEM POLICE DEPARTMENT,"SUPER SHOES 
												
													FRONT PARKING LOT",1838 W. MAIN STREET,SALEM,VA,24153,"http://maps.google.com/maps?q=1838 W. MAIN STREET,+SALEM,+VA+24153&hl=en"
SURRY COUNTY SHERIFF'S OFFICE,SURRY COUNTY  CIRCUIT COURT HOUSE PARKING LOT,28 COLONIAL TRAIL EAST,SURRY,VA,23883,"http://maps.google.com/maps?q=28 COLONIAL TRAIL EAST,+SURRY,+VA+23883&hl=en"
TAPPAHANNOCK PD / ESSEX COUNTY SO,"WAL-MART PARKING LOT 
												
													OUTSIDE BETWEEN TWO ENTRANCES",1660 TAPPAHANNOCK BLVD,TAPPAHANNOCK,VA,22560,"http://maps.google.com/maps?q=1660 TAPPAHANNOCK BLVD,+TAPPAHANNOCK,+VA+22560&hl=en"
UNC POLICE COMMUNITY SERVICES,"UNC MEMORIAL HOSPITAL 
												
													VALET LANE",101 MANNING DR.,CHAPEL HILL,NC,27514,"http://maps.google.com/maps?q=101 MANNING DR.,+CHAPEL HILL,+NC+27514&hl=en"
UNCW POLICE,UNCW POLICE DEPARTMENT,5126 LIONFISH DR,WILMINGTON,NC,28403,"http://maps.google.com/maps?q=5126 LIONFISH DR,+WILMINGTON,+NC+28403&hl=en"
US DEPARTMENT OF VETERANS AFFAIRS POLICE- SALEM,"DEPARTMENT OF VETERANS AFFAIRS 
												
													ENTRANCE TO BUILDING 143; MAIN HOSPITAL",1970 ROANOKE BOULEVARD,SALEM,VA,24153,"http://maps.google.com/maps?q=1970 ROANOKE BOULEVARD,+SALEM,+VA+24153&hl=en"
VINTON POLICE DEPARTMENT,"KROGER PARKING LOT 
												
													LAKE DRIVE PLAZA",915 HARDY ROAD,VINTON,VA,24179,"http://maps.google.com/maps?q=915 HARDY ROAD,+VINTON,+VA+24179&hl=en"
VIRGINIA STATE POLICE,"VIRGINIA STATE POLICE - AREA 47 STATION 
												
													POC: SGT ANDREA FISCHER",1557 S. MILITARY HIGHWAY,CHESAPEAKE,VA,23320,"http://maps.google.com/maps?q=1557 S. MILITARY HIGHWAY,+CHESAPEAKE,+VA+23320&hl=en"
VIRGINIA STATE POLICE,"VIRGINIA STATE POLICE DIVISION I HQS 
												
													POC: SGT MELANIE MCKENNEY",9300 BROOK ROAD,GLEN ALLEN,VA,23060,"http://maps.google.com/maps?q=9300 BROOK ROAD,+GLEN ALLEN,+VA+23060&hl=en"
VIRGINIA STATE POLICE,"VIRGINIA STATE POLICE DIVISION III HQS 
												
													POC: SGT DREW MCCORMICK",240 THIRD DIVISION LOOP,APPOMATTOX,VA,24522,"http://maps.google.com/maps?q=240 THIRD DIVISION LOOP,+APPOMATTOX,+VA+24522&hl=en"
VIRGINIA STATE POLICE,"VIRGINIA STATE POLICE DIVISION VI HQS 
												
													POC: SGT. GLENN ARMSTRONG",3775 W. MAIN STREET,SALEM,VA,24153,"http://maps.google.com/maps?q=3775 W. MAIN STREET,+SALEM,+VA+24153&hl=en"
WEST VIRGINIA STATE POLICE,"WVSP-LEWISBURG 
												
													SGT D.A EVANS/3046477600",381 GREENBRIAR RD,LEWISBURG,WV,24901,"http://maps.google.com/maps?q=381 GREENBRIAR RD,+LEWISBURG,+WV+24901&hl=en"
WHITEVILLE POLICE DEPARTMENT,"COLUMBUS REGIONAL HEALTHCARE 
												
													500 JEFFERSON STREET",500 JEFFERSON STREET,WHITEVILLE,NC,28472,"http://maps.google.com/maps?q=500 JEFFERSON STREET,+WHITEVILLE,+NC+28472&hl=en"
WHITEVILLE POLICE DEPARTMENT,WHITEVILLE POLICE DEPARTMENT,117 E. COLUMBUS ST,WHITEVILLE,NC,28472,"http://maps.google.com/maps?q=117 E. COLUMBUS ST,+WHITEVILLE,+NC+28472&hl=en"
WILLIAMSBURG POLICE DEPARTMENT,WILLIAMSBURG FIRE DEPARTMENT,WILLIAMSBURG FIRE DEPARTMENT440 N BOUNDARY STREET,WILLIAMSBURG,VA,23185,"http://maps.google.com/maps?q=WILLIAMSBURG FIRE DEPARTMENT,+WILLIAMSBURG,+VA+23185&hl=en"
YORK-POQUOSON SHERIFF'S OFFICE,"YORK-POQUOSON SHERIFF'S OFFICE 
												
													D.A.R.E. OFFICE NEXT TO SUBWAY",5338-D GEORGE WASHINGTON MEMORIAL HWY,YORKTOWN,VA,23692,"http://maps.google.com/maps?q=5338-D GEORGE WASHINGTON MEMORIAL HWY,+YORKTOWN,+VA+23692&hl=en"
