Participant,CollectionSite,Address,City,State,Zip,MapURL
ADAIR COUNTY SHERIFF'S OFFICE,ADAIR COUNTY SHERIFF'S OFFICE,215 N. FRANKLIN,KIRKSVILLE,MO,63501,"http://maps.google.com/maps?q=215 N. FRANKLIN,+KIRKSVILLE,+MO+63501&hl=en"
ADAMS COUNTY SHERIFF'S OFFICE,ADAMS COUNTY HEALTH DEPARTMENT,330 VERMONT,QUINCY,IL,62301,"http://maps.google.com/maps?q=330 VERMONT,+QUINCY,+IL+62301&hl=en"
ALBIA POLICE DEPARTMENT,MONROE COUNTY LAW ENFORCEMENT CENTER,114 19TH AVE WEST,ALBIA,IA,52531,"http://maps.google.com/maps?q=114 19TH AVE WEST,+ALBIA,+IA+52531&hl=en"
ALTOONA POLICE,ALTOONA FIRE DEPT,950 VENBURY DRIVE,ALTOONA,IA,50009,"http://maps.google.com/maps?q=950 VENBURY DRIVE,+ALTOONA,+IA+50009&hl=en"
ANDERSON COUNTY SHERIFF,ANDERSON COUNTY SHERIFF,135 E 85TH AVE,GARNETT,KS,66032,"http://maps.google.com/maps?q=135 E 85TH AVE,+GARNETT,+KS+66032&hl=en"
ANKENY POLICE DEPARTMENT,WALGREENS,2702 SE DELAWARE AVE.,ANKENY,IA,50021,"http://maps.google.com/maps?q=2702 SE DELAWARE AVE.,+ANKENY,+IA+50021&hl=en"
APPANOOSE COUNTY SHERIFF,APPANOOSE COUNTY SHERIFF'S OFFICE,1125 W. VAN BUREN ST.,CENTERVILLE,IA,52544,"http://maps.google.com/maps?q=1125 W. VAN BUREN ST.,+CENTERVILLE,+IA+52544&hl=en"
ATCHISON COUNTY SHERIFF OFFICE,CVS,400 SOUTH 10TH STREET,ATCHISON,KS,66002,"http://maps.google.com/maps?q=400 SOUTH 10TH STREET,+ATCHISON,+KS+66002&hl=en"
AUXVASSE POLICE DEPARTMENT,GRAND PRAIRIE BAPTIST CHURCH,108 N. MAIN STREET,AUXVASSE,MO,65231,"http://maps.google.com/maps?q=108 N. MAIN STREET,+AUXVASSE,+MO+65231&hl=en"
BALDWIN CITY POLICE DEPARTMENT,BALDWIN CITY POLICE DEPARTMENT,811 8TH STREET,BALDWIN CITY,KS,66006,"http://maps.google.com/maps?q=811 8TH STREET,+BALDWIN CITY,+KS+66006&hl=en"
BARTLESVILLE OKLAHOMA PD,FIRE STATION NO. 4,3501 SE PRICE RD,BARTLESVILLE,OK,74006,"http://maps.google.com/maps?q=3501 SE PRICE RD,+BARTLESVILLE,+OK+74006&hl=en"
BASEHOR POLICE DEPT.,"BASEHOR LIBRARY 
												
													DIANA WEAVER - CONTACT PERSON",1400 158TH ST.,BASEHOR,KS,66007,"http://maps.google.com/maps?q=1400 158TH ST.,+BASEHOR,+KS+66007&hl=en"
BELLA VISTA POLICE DEPARTMENT,"BELLA VISTA POLICE DEPARTMENT 
												
													PERMANENT DROP BOX",105 TOWN CENTER,BELLA VISTA,AR,72714,"http://maps.google.com/maps?q=105 TOWN CENTER,+BELLA VISTA,+AR+72714&hl=en"
BELLEVUE POLICE DEPARTMENT,BELLEVUE POLICE DEPARTMENT HQ,1510 WALL STREET,BELLEVUE,NE,68005,"http://maps.google.com/maps?q=1510 WALL STREET,+BELLEVUE,+NE+68005&hl=en"
BELTON POLICE DEPARTMENT,"BELTON POLICE DEPARTMENT 
												
													FRONT PARKING LOT",7001 E 163RD ST,BELTON,MO,64012,"http://maps.google.com/maps?q=7001 E 163RD ST,+BELTON,+MO+64012&hl=en"
BELTON POLICE DEPARTMENT,PRICE CHOPPER,109 N CEDAR,BELTON,MO,64012,"http://maps.google.com/maps?q=109 N CEDAR,+BELTON,+MO+64012&hl=en"
BENTON COUNTY SHERIFF'S OFFICE,"BENTON COUNTY SHERIFF'S OFFICE 
												
													PERMANENT DROP BOX",1300 SW 14TH STREET,BENTONVILLE,AR,72712,"http://maps.google.com/maps?q=1300 SW 14TH STREET,+BENTONVILLE,+AR+72712&hl=en"
BLAIR POLICE DEPT.,BLAIR POLICE DEPT.,1730 LINCOLN STREET,BLAIR,NE,68008,"http://maps.google.com/maps?q=1730 LINCOLN STREET,+BLAIR,+NE+68008&hl=en"
BLUE SPRINGS POLICE DEPARTMENT,BLUE SPRINGS POLICE DEPARTMENT,1100 SW SMITH STREET,BLUE SPRINGS,MO,64015,"http://maps.google.com/maps?q=1100 SW SMITH STREET,+BLUE SPRINGS,+MO+64015&hl=en"
BLUE SPRINGS POLICE DEPARTMENT,"PRICE CHOPPER 
												
													AT PHARMACY",1100 SW 7 HIGHWAY,BLUE SPRINGS,MO,64014,"http://maps.google.com/maps?q=1100 SW 7 HIGHWAY,+BLUE SPRINGS,+MO+64014&hl=en"
BLUE SPRINGS POLICE DEPARTMENT,"PRICE CHOPPER 
												
													AT PHARMACY",1305 NW 7 HIGHWAY,BLUE SPRINGS,MO,64015,"http://maps.google.com/maps?q=1305 NW 7 HIGHWAY,+BLUE SPRINGS,+MO+64015&hl=en"
BOLIVAR POLICE DEPARTMENT,"PUBLIC SAFETY BUILDING 
												
													BOLIVAR POLICE DEPARTMENT",211 W WALNUT ST,BOLIVAR,MO,65613,"http://maps.google.com/maps?q=211 W WALNUT ST,+BOLIVAR,+MO+65613&hl=en"
BONNER SPRINGS POLICE DEPARTMENT,BONNER SPRINGS PRICE CHOPPER,501 COMMERCIAL DRIVE,BONNER SPRINGS,KS,66012,"http://maps.google.com/maps?q=501 COMMERCIAL DRIVE,+BONNER SPRINGS,+KS+66012&hl=en"
BOONE COUNTY SHERIFF'S DEPT.,ASHLAND POLICE DEPARTMENT,109 E. BROADWAY,ASHLAND,MO,65010,"http://maps.google.com/maps?q=109 E. BROADWAY,+ASHLAND,+MO+65010&hl=en"
BOONE COUNTY SHERIFF'S DEPT.,CENTRALIA POLICE DEPT. LOBBY,114 S. ROLLINS,CENTRALIA,MO,65240,"http://maps.google.com/maps?q=114 S. ROLLINS,+CENTRALIA,+MO+65240&hl=en"
BOONE COUNTY SHERIFF'S DEPT.,HALLSVILLE POLICE DEPARTMENT,202 HIGHWAY 124 EAST,HALLSVILLE,MO,65255,"http://maps.google.com/maps?q=202 HIGHWAY 124 EAST,+HALLSVILLE,+MO+65255&hl=en"
BOONE COUNTY SHERIFF'S DEPT.,HARRY S. TRUMAN VA HOSPITAL,800 HOSPITAL DRIVE,COLUMBIA,MO,65201,"http://maps.google.com/maps?q=800 HOSPITAL DRIVE,+COLUMBIA,+MO+65201&hl=en"
BOONE COUNTY SHERIFF'S DEPT.,HICKMAN HIGH SCHOOL,1104 N. PROVIDENCE RD.,COLUMBIA,MO,65203,"http://maps.google.com/maps?q=1104 N. PROVIDENCE RD.,+COLUMBIA,+MO+65203&hl=en"
BOONE COUNTY SHERIFF'S DEPT.,"MU STUDENT CENTER 
												
													UNIVERSITY OF MISSOURI - COLUMBIA",2500 MU STUDENT CENTER,COLUMBIA,MO,65211,"http://maps.google.com/maps?q=2500 MU STUDENT CENTER,+COLUMBIA,+MO+65211&hl=en"
BOONE COUNTY SHERIFF'S DEPT.,ROCK BRIDGE HIGH SCHOOL,4303 S. PROVIDENCE RD.,COLUMBIA,MO,65203,"http://maps.google.com/maps?q=4303 S. PROVIDENCE RD.,+COLUMBIA,+MO+65203&hl=en"
BOONE COUNTY SHERIFF'S OFFICE,"BOONE COUNTY SHERIFF'S OFFICE 
												
													PERMANENT DROP BOX",5800 LAW DRIVE,HARRISON,AR,72601,"http://maps.google.com/maps?q=5800 LAW DRIVE,+HARRISON,+AR+72601&hl=en"
BOONVILLE POLICE DEPARTMENT,BOONVILLE FIRE DEPT.,500 BINGHAM ROAD,BOONVILLE,MO,65233,"http://maps.google.com/maps?q=500 BINGHAM ROAD,+BOONVILLE,+MO+65233&hl=en"
BOURBON COUNTY SHERIFF'S OFFICE,MERCY CONVENIENT CARE,1624 S. NATIONAL,FORT SCOTT,KS,66701,"http://maps.google.com/maps?q=1624 S. NATIONAL,+FORT SCOTT,+KS+66701&hl=en"
BRANSON POLICE DEPARTMENT,LAKELAND PHARMACY,1232 BRANSON HILLS PKWY#205,BRANSON,MO,65616,"http://maps.google.com/maps?q=1232 BRANSON HILLS PKWY,+BRANSON,+MO+65616&hl=en"
BROWN COUNTY SHERIFF'S OFFICE,"BROWN COUNTY SHERIFFS OFFICE 
												
													NO BOXES",709 UTAH STREET,HIAWATHA,KS,66434,"http://maps.google.com/maps?q=709 UTAH STREET,+HIAWATHA,+KS+66434&hl=en"
BUCKNER POLICE DEPARTMENT,"BUCKNER ELEMENTARY 
												
													INSIDE THE SCHOOL",13 S. CIBLEY,BUCKNER,MO,64016,"http://maps.google.com/maps?q=13 S. CIBLEY,+BUCKNER,+MO+64016&hl=en"
BUTLER POLICE DEPARTMENT,BATES COUNTY HEALTH DEPARTMENT,501 N ORANGE,BUTLER,MO,64730,"http://maps.google.com/maps?q=501 N ORANGE,+BUTLER,+MO+64730&hl=en"
CALLAWAY COUNTY SHERIFF'S OFFICE,CALLAWAY 2 WATER DISTRICT,2610 N. WESTMINSTER AVE,FULTON,MO,65251,"http://maps.google.com/maps?q=2610 N. WESTMINSTER AVE,+FULTON,+MO+65251&hl=en"
CAMDEN COUNTY SHERIFF'S OFFICE,CAMDEN COUNTY SHERIFF'S OFFICE,1 COURT CIR STE 13,CAMDENTON,MO,65020,"http://maps.google.com/maps?q=1 COURT CIR STE 13,+CAMDENTON,+MO+65020&hl=en"
CARL JUNCTION POLICE DEPARTMENT,CARL JUNCTION POLICE DEPARTMENT,302 N MAIN,CARL JUNCTION,MO,64834,"http://maps.google.com/maps?q=302 N MAIN,+CARL JUNCTION,+MO+64834&hl=en"
CARLISLE POLICE DEPARTMENT,CARLISLE FIRE DEPARTMENT,135 N. 2ND STREET,CARLISLE,IA,50047,"http://maps.google.com/maps?q=135 N. 2ND STREET,+CARLISLE,+IA+50047&hl=en"
CARROLL COUNTY SHERIFF'S OFFICE,"CARROLL COUNTY SHERIFF'S OFFICE 
												
													PERMANENT DROP BOX",205 HAILEY ROAD,BERRYVILLE,AR,72616,"http://maps.google.com/maps?q=205 HAILEY ROAD,+BERRYVILLE,+AR+72616&hl=en"
CARTER LAKE POLICE DEPARTMENT,CARTER LAKE CITY HALL,950 LOCUST STREET,CARTER LAKE,IA,51510,"http://maps.google.com/maps?q=950 LOCUST STREET,+CARTER LAKE,+IA+51510&hl=en"
CASSVILLE POLICE DEPARTMENT,CITY HALL/CASSVILLE POLICE DEPT,300 MAIN STREET,CASSVILLE,MO,65625,"http://maps.google.com/maps?q=300 MAIN STREET,+CASSVILLE,+MO+65625&hl=en"
CEDAR COUNTY SHERIFF'S OFFICE,ZUMWALT PHARMACY,19 PUBLIC SQUARE,STOCKTON,MO,65785,"http://maps.google.com/maps?q=19 PUBLIC SQUARE,+STOCKTON,+MO+65785&hl=en"
CEDAR RAPIDS POLICE DEPT.,CEDAR RAPIDS POLICE DEPARTMENT,505 1ST ST SW,CEDAR RAPIDS,IA,52404,"http://maps.google.com/maps?q=505 1ST ST SW,+CEDAR RAPIDS,+IA+52404&hl=en"
CENTERTON POLICE DEPARTMENT,"CENTERTON POLICE DEPARTMENT 
												
													PERMANENT DROP BOX",220 MUNICIPAL DR,CENTERTON,AR,72719,"http://maps.google.com/maps?q=220 MUNICIPAL DR,+CENTERTON,+AR+72719&hl=en"
CHANUTE POLICE DEPT,MEDICINE SHOPPE,421 W. MAIN,CHANUTE,KS,66720,"http://maps.google.com/maps?q=421 W. MAIN,+CHANUTE,+KS+66720&hl=en"
CHEROKEE COUNTY SHERIFF'S OFFICE,APPLE MARKET,103 NORTH EAST AVENUE,COLUMBUS,KS,66725,"http://maps.google.com/maps?q=103 NORTH EAST AVENUE,+COLUMBUS,+KS+66725&hl=en"
CHEROKEE COUNTY SHERIFF'S OFFICE,GALENA CITY HALL,211 WEST 7TH STREET,GALENA,KS,66739,"http://maps.google.com/maps?q=211 WEST 7TH STREET,+GALENA,+KS+66739&hl=en"
CHEROKEE COUNTY SHERIFF'S OFFICE,MARVINS IGA,1400 MILITARY AVENUE,BAXTER SPRINGS,KS,66713,"http://maps.google.com/maps?q=1400 MILITARY AVENUE,+BAXTER SPRINGS,+KS+66713&hl=en"
CHEROKEE NATION MARSHAL SERVICE,CHEROKEE NATION MARSHAL SERVICE,22114 S BALDHILL RD,TAHLEQUAH,OK,74465,"http://maps.google.com/maps?q=22114 S BALDHILL RD,+TAHLEQUAH,+OK+74465&hl=en"
CLAY CENTER POLICE DEPARTMENT,CLAY COUNTY HEALTH DEPARTMENT,820 SPELLMAN CIRCLE,CLAY CENTER,KS,67432,"http://maps.google.com/maps?q=820 SPELLMAN CIRCLE,+CLAY CENTER,+KS+67432&hl=en"
COLUMBUS POLICE DEPARTMENT,WALGREENS,2320 23RD ST,COLUMBUS,NE,68601,"http://maps.google.com/maps?q=2320 23RD ST,+COLUMBUS,+NE+68601&hl=en"
CORALVILLE POLICE DEPARTMENT,CORALVILLE POLICE DEPARTMENT,1503 5TH STREET,CORALVILLE,IA,52241,"http://maps.google.com/maps?q=1503 5TH STREET,+CORALVILLE,+IA+52241&hl=en"
COUNCIL BLUFFS POLICE DEPARTMENT,WALGREENS,535 EAST BROADWAY,COUNCIL BLUFFS,IA,51503,"http://maps.google.com/maps?q=535 EAST BROADWAY,+COUNCIL BLUFFS,+IA+51503&hl=en"
CRAIG COUNTY SO,CRAIG COUNTY SHERIFFS OFFICE,210 W. DELAWARE AVE #101,VINITA,OK,74301,"http://maps.google.com/maps?q=210 W. DELAWARE AVE #101,+VINITA,+OK+74301&hl=en"
CROCKER POLICE DEPARTMENT,"CROCKER POLICE DEPARTMENT 
												
													CITY HALL",108 S COMMERCIAL ST.PO,CROCKER,MO,65452,"http://maps.google.com/maps?q=108 S COMMERCIAL ST.,+CROCKER,+MO+65452&hl=en"
DADE COUNTY SHERIFF,GREENFIELD PHARMACY,105 SOUTH GRANDE,GREENFIELD,MO,65661,"http://maps.google.com/maps?q=105 SOUTH GRANDE,+GREENFIELD,+MO+65661&hl=en"
DADE COUNTY SHERIFF,MFA OIL,401 MAIN STREET,LOCKWOOD,MO,65682,"http://maps.google.com/maps?q=401 MAIN STREET,+LOCKWOOD,+MO+65682&hl=en"
DOUGLAS COUNTY SHERIFF'S OFFICE,"DOUGLAS COUNTY SHERIFF'S OFFICE 
												
													GARAGE PARKING LOT ON EAST SIDE OF BUILDING",111 E. 11TH STREET,LAWRENCE,KS,66044,"http://maps.google.com/maps?q=111 E. 11TH STREET,+LAWRENCE,+KS+66044&hl=en"
DOUGLAS COUNTY SHERIFF'S OFFICE,HY-VEE,1000 S. 178TH STREET,OMAHA,NE,68118,"http://maps.google.com/maps?q=1000 S. 178TH STREET,+OMAHA,+NE+68118&hl=en"
DOUGLAS COUNTY SHERIFF'S OFFICE,HY-VEE,3410 N 156TH STREET,OMAHA,NE,68116,"http://maps.google.com/maps?q=3410 N 156TH STREET,+OMAHA,+NE+68116&hl=en"
DOUGLAS COUNTY SHERIFF'S OFFICE,HY-VEE,4000 W 6TH ST,LAWRENCE,KS,66049,"http://maps.google.com/maps?q=4000 W 6TH ST,+LAWRENCE,+KS+66049&hl=en"
DOUGLAS COUNTY SHERIFF'S OFFICE,WALGREENS,13155 W CENTER RD,OMAHA,NE,68144,"http://maps.google.com/maps?q=13155 W CENTER RD,+OMAHA,+NE+68144&hl=en"
DOUGLAS COUNTY SHERIFFS OFFICE,DOUGLAS COUNTY SHERIFF'S OFFICE,209 SE 2ND AVE209 SE LINCOLN AVE,AVA,MO,65608,"http://maps.google.com/maps?q=209 SE 2ND AVE,+AVA,+MO+65608&hl=en"
EL DORADO SPRINGS POLICE DEPARTMENT,"EL DORADO SPRINGS POLICE  DEPT 
												
													POLICE STATION",1207 SOUTH MAIN STREET,EL DORADO SPRINGS,MO,64744,"http://maps.google.com/maps?q=1207 SOUTH MAIN STREET,+EL DORADO SPRINGS,+MO+64744&hl=en"
ELKINS POLICE DEPARTMENT,"ELKINS POLICE DEPARTMENT 
												
													PERMANENT DROP BOX",1874 STOKENBURY ROAD,ELKINS,AR,72727,"http://maps.google.com/maps?q=1874 STOKENBURY ROAD,+ELKINS,+AR+72727&hl=en"
EUREKA SPRINGS POLICE DEPARTMENT,"EUREKA SPRINGS POLICE DEPARTMENT 
												
													PERMANENT DROP BOX",147 PASSION PLAY ROAD,EUREKA SPRINGS,AR,72632,"http://maps.google.com/maps?q=147 PASSION PLAY ROAD,+EUREKA SPRINGS,+AR+72632&hl=en"
EXCELSIOR SPRING POLICE DEPARTMENT,"EXCELSIOR SPRINGS POLICE DEPARTMENT 
												
													LOBBY",301 S. MAIN STREET,EXCELSIOR SPRINGS,MO,64024,"http://maps.google.com/maps?q=301 S. MAIN STREET,+EXCELSIOR SPRINGS,+MO+64024&hl=en"
FAIR GROVE POLICE DEPARTMENT,FAMILY PHARMACY,49 E. OLD MILL RD,FAIR GROVE,MO,65648,"http://maps.google.com/maps?q=49 E. OLD MILL RD,+FAIR GROVE,+MO+65648&hl=en"
FAIRWAY POLICE DEPT.,"HEN HOUSE GROCERY 
												
													PHARMACY SITE",2724 W. 53RD STREET,FAIRWAY,KS,66205,"http://maps.google.com/maps?q=2724 W. 53RD STREET,+FAIRWAY,+KS+66205&hl=en"
FARMINGTON POLICE DEPARTMENT,"FARMINGTON POLICE DEPARTMENT 
												
													PERMANENT DROP BOX",354 WEST MAIN,FARMINGTON,AR,72730,"http://maps.google.com/maps?q=354 WEST MAIN,+FARMINGTON,+AR+72730&hl=en"
FAYETTE POLICE DEPARTMENT,FIRST CHRISTIAN CHURCH,307 N CHURCH ST,FAYETTE,MO,65248,"http://maps.google.com/maps?q=307 N CHURCH ST,+FAYETTE,+MO+65248&hl=en"
FAYETTEVILLE POLICE DEPARTMENT,HARPS MARKETPLACE #124,1274 N. COLORADO DR,FAYETTEVILLE,AR,72704,"http://maps.google.com/maps?q=1274 N. COLORADO DR,+FAYETTEVILLE,+AR+72704&hl=en"
FORSYTH POLICE DEPARTMENT,COUNTRY MART,15720 US HWY 160,FORSYTH,MO,65653,"http://maps.google.com/maps?q=15720 US HWY 160,+FORSYTH,+MO+65653&hl=en"
FREMONT POLICE DEPARTMENT,"FREMONT POLICE DEPARTMENT 
												
													LOBBY",725 N. PARK AVE,FREMONT,NE,68025,"http://maps.google.com/maps?q=725 N. PARK AVE,+FREMONT,+NE+68025&hl=en"
FULTON POLICE DEPARTMENT,FULTON FIRE DEPARTMENT,151 W. TENNYSON ROAD,FULTON,MO,65251,"http://maps.google.com/maps?q=151 W. TENNYSON ROAD,+FULTON,+MO+65251&hl=en"
GAGE COUNTY SHERIFF,CAGE COUNTY SHERIFF,612 LINCOLN ST,BEATRICE,NE,68310,"http://maps.google.com/maps?q=612 LINCOLN ST,+BEATRICE,+NE+68310&hl=en"
GALLATIN POLICE DEPARTMENT,GALLATIN POLICE DEPARTMENT,112 E GRAND,GALLATIN,MO,64640,"http://maps.google.com/maps?q=112 E GRAND,+GALLATIN,+MO+64640&hl=en"
GARDEN CITY POLICE DEPARTMENT,GARDEN CITY POLICE DEPARTMENT,106 N. 3RD,GARDEN CITY,MO,64747,"http://maps.google.com/maps?q=106 N. 3RD,+GARDEN CITY,+MO+64747&hl=en"
GARDNER POLICE DEPT.,PRICE CHOPPER,830 E. MAIN STREET,GARDNER,KS,66030,"http://maps.google.com/maps?q=830 E. MAIN STREET,+GARDNER,+KS+66030&hl=en"
GENTRY POLICE DEPARTMENT,"GENTRY POLICE DEPARTMENT 
												
													PERMANENT DROP BOX",628 E. THIRD ST.,GENTRY,AR,72734,"http://maps.google.com/maps?q=628 E. THIRD ST.,+GENTRY,+AR+72734&hl=en"
GLENWOOD POLICE DEPARTMENT,GLENWOOD POLICE DEPARTMENT,3 N. VINE ST.,GLENWOOD,IA,51534,"http://maps.google.com/maps?q=3 N. VINE ST.,+GLENWOOD,+IA+51534&hl=en"
GOWER POLICE DEPARTMENT,GOWER CITY HALL,97 NORTH 4TH STREET,GOWER,MO,64454,"http://maps.google.com/maps?q=97 NORTH 4TH STREET,+GOWER,+MO+64454&hl=en"
GRAIN VALLEY POLICE DEPARTMENT,"CITY HALL 
												
													PARKING LOT",711 MAIN STREET,GRAIN VALLEY,MO,64029,"http://maps.google.com/maps?q=711 MAIN STREET,+GRAIN VALLEY,+MO+64029&hl=en"
GRANBY POLICE DEPARTMENT,GRANBY COMMUNITY BUILDING,147 E. CHURCH ST,GRANBY,MO,64844,"http://maps.google.com/maps?q=147 E. CHURCH ST,+GRANBY,+MO+64844&hl=en"
GRANDVIEW POLICE DEPT.,PRICE CHOPPER,12220 SOUTH US 71 HWY,GRANDVIEW,MO,64030,"http://maps.google.com/maps?q=12220 SOUTH US 71 HWY,+GRANDVIEW,+MO+64030&hl=en"
GRAVETTE POLICE DEPARTMENT,"GRAVETTE POLICE DEPARTMENT 
												
													PERMANENT DROP BOX",606 1ST AVE SE,GRAVETTE,AR,72736,"http://maps.google.com/maps?q=606 1ST AVE SE,+GRAVETTE,+AR+72736&hl=en"
GREENE COUNTY SHERIFF'S OFFICE,ALPS PHARMACY,2650 W. KEARNEY ST,SPRINGFIELD,MO,65803,"http://maps.google.com/maps?q=2650 W. KEARNEY ST,+SPRINGFIELD,+MO+65803&hl=en"
GREENE COUNTY SHERIFF'S OFFICE,GEORGE'S PHARMACY,3650 E. SUNSHINE ST,SPRINGFIELD,MO,65809,"http://maps.google.com/maps?q=3650 E. SUNSHINE ST,+SPRINGFIELD,+MO+65809&hl=en"
GREENE COUNTY SHERIFF'S OFFICE,LAWRENCE DRUG,1454 E. REPUBLIC ROAD,SPRINGFIELD,MO,65804,"http://maps.google.com/maps?q=1454 E. REPUBLIC ROAD,+SPRINGFIELD,+MO+65804&hl=en"
GREENE COUNTY SHERIFF'S OFFICE,MEDICINE STORE,1302 E. SUNSHINE ST,SPRINGFIELD,MO,65804,"http://maps.google.com/maps?q=1302 E. SUNSHINE ST,+SPRINGFIELD,+MO+65804&hl=en"
GREENE COUNTY SHERIFF'S OFFICE,MERCY PHARMACY,3231 S. NATIONAL AVE,SPRINGFIELD,MO,65807,"http://maps.google.com/maps?q=3231 S. NATIONAL AVE,+SPRINGFIELD,+MO+65807&hl=en"
GREENE COUNTY SHERIFF'S OFFICE,WALGREENS,2681 W. REPUBLIC ROAD,SPRINGFIELD,MO,65807,"http://maps.google.com/maps?q=2681 W. REPUBLIC ROAD,+SPRINGFIELD,+MO+65807&hl=en"
GRUNDY COUNTY LAW ENFORCEMENT CENTER,GRUNDY COUNTY LAW ENFORCEMENT CENTER,610  MAIN STREET,TRENTON,MO,64683,"http://maps.google.com/maps?q=610  MAIN STREET,+TRENTON,+MO+64683&hl=en"
HANCOCK COUNTY SHERIFF'S OFFICE,"DALLAS CITY HALL 
												
													DALLAS CITY POLICE DEPARTMENT",120 W. 1ST STREET,DALLAS CITY,IL,62330,"http://maps.google.com/maps?q=120 W. 1ST STREET,+DALLAS CITY,+IL+62330&hl=en"
HANCOCK COUNTY SHERIFF'S OFFICE,HAMILTON POLICE DEPARTMENT,1010 BROADWAY ST,HAMILTON,IL,62341,"http://maps.google.com/maps?q=1010 BROADWAY ST,+HAMILTON,+IL+62341&hl=en"
HANCOCK COUNTY SHERIFF'S OFFICE,HANCOCK COUNTY SHERIFF'S OFFICE,98 BUCHANAN ST,CARTHAGE,IL,62321,"http://maps.google.com/maps?q=98 BUCHANAN ST,+CARTHAGE,+IL+62321&hl=en"
HANCOCK COUNTY SHERIFF'S OFFICE,JIFFI STOP,101 S. WORRELL STREET,BOWEN,IL,62316,"http://maps.google.com/maps?q=101 S. WORRELL STREET,+BOWEN,+IL+62316&hl=en"
HANCOCK COUNTY SHERIFF'S OFFICE,NAUVOO POLICE DEPARTMENT,60 N BLUFF ST,NAUVOO,IL,62354,"http://maps.google.com/maps?q=60 N BLUFF ST,+NAUVOO,+IL+62354&hl=en"
HANCOCK COUNTY SHERIFF'S OFFICE,"WARSAW CITY HALL 
												
													WARSAW POLICE DEPARTMENT",210 N 4TH ST,WARSAW,IL,62379,"http://maps.google.com/maps?q=210 N 4TH ST,+WARSAW,+IL+62379&hl=en"
HARRISON COUNTY SHERIFF'S OFFICE,"HARRISON COUNTY SHERIFF'S OFFICE 
												
													LOBBY",111 S. FIRST AVE,LOGAN,IA,51546,"http://maps.google.com/maps?q=111 S. FIRST AVE,+LOGAN,+IA+51546&hl=en"
HARRISON POLICE DEPARTMENT,HARRISON POLICE DEPARTMENT,116 SOUTH SPRING STREET,HARRISON,AR,72601,"http://maps.google.com/maps?q=116 SOUTH SPRING STREET,+HARRISON,+AR+72601&hl=en"
HARRISONVILLE POLICE DEPARTMENT,CVS PHARMACY,300 S. COMMERICAL ST.,HARRISONVILLE,MO,64701,"http://maps.google.com/maps?q=300 S. COMMERICAL ST.,+HARRISONVILLE,+MO+64701&hl=en"
HARRISONVILLE POLICE DEPARTMENT,HARRISONVILLE POLICE DEPARTMENT,205 N. LEXINGTON,HARRISONVILLE,MO,64701,"http://maps.google.com/maps?q=205 N. LEXINGTON,+HARRISONVILLE,+MO+64701&hl=en"
HENRY COUNTY SHERIFF'S OFFICE,MARYFIELD PHARMACY,200 WEST BENTON,WINDSOR,MO,65360,"http://maps.google.com/maps?q=200 WEST BENTON,+WINDSOR,+MO+65360&hl=en"
HENRY COUNTY SHERIFF'S OFFICE,"SUMMERS PHARMACY 
												
													OUT FRONT",605 PAWNEE,CLINTON,MO,64735,"http://maps.google.com/maps?q=605 PAWNEE,+CLINTON,+MO+64735&hl=en"
HHICKORY COUNTY SHERIFF'S OFFICE,"HHICKORY COUNTY JAIL - (TRIPLE BOXES) 
												
													SOUTH SIDE OF THE BLDG",18682 JACKSON STREET,HERMITAGE,MO,65668,"http://maps.google.com/maps?q=18682 JACKSON STREET,+HERMITAGE,+MO+65668&hl=en"
HIGGINSVILLE POLICE DEPARTMENT,"WALMART 
												
													PARKING LOT",1180  W.  19TH ST.,HIGGINSVILLE,MO,64037,"http://maps.google.com/maps?q=1180  W.  19TH ST.,+HIGGINSVILLE,+MO+64037&hl=en"
HOLT COUNTY SHERIFF OFFICE,HOLT COUNTY SHERIFF OFFICE,107 S MAIN,OREGON,MO,64473,"http://maps.google.com/maps?q=107 S MAIN,+OREGON,+MO+64473&hl=en"
HOLTS SUMMIT POLICE DEPARTMENT,HOLTS SUMMIT CITY HALL PARKING LOT,245 SOUTH SUMMIT DRIVE,HOLTS SUMMIT,MO,65043,"http://maps.google.com/maps?q=245 SOUTH SUMMIT DRIVE,+HOLTS SUMMIT,+MO+65043&hl=en"
INDEPENDENCE POLICE DEPT.,"INDEPENDENCE MISSOURI CITY HALL 
												
													ACROSS THE STREET FROM THE POLICE DEPT IN THE PARKING LOT",111 E. MAPLE,INDEPENDENCE,MO,64050,"http://maps.google.com/maps?q=111 E. MAPLE,+INDEPENDENCE,+MO+64050&hl=en"
INDIANOLA POLICE DEPARTMENT,INDIANOLA POLICE DEPARTMENT,110 N. 1ST STREET,INDIANOLA,IA,50125,"http://maps.google.com/maps?q=110 N. 1ST STREET,+INDIANOLA,+IA+50125&hl=en"
IOWA CITY POLICE DEPARTMENT,EAST SIDE RECYCLING CENTER,2401 SCOTT BLVD SE,IOWA CITY,IA,52240,"http://maps.google.com/maps?q=2401 SCOTT BLVD SE,+IOWA CITY,+IA+52240&hl=en"
IOWA COUNTY SHERIFF'S OFFICE,IOWA COUNTY SHERIFF'S OFFICE,960 FRANKLYN AVE.,MARENGO,IA,52301,"http://maps.google.com/maps?q=960 FRANKLYN AVE.,+MARENGO,+IA+52301&hl=en"
JACKSON COUNTY SHERIFF'S OFFICE,JACKSON COUNTY SHERIFF'S OFFICE,210  US HWY 75,HOLTON,KS,66436,"http://maps.google.com/maps?q=210  US HWY 75,+HOLTON,+KS+66436&hl=en"
JACKSON COUNTY SHERIFF'S OFFICE,"JACKSON COUNTY SHERIFF'S OFFICE 
												
													LOBBY",4001 NE LAKEWOOD CT,LEES SUMMIT,MO,64064,"http://maps.google.com/maps?q=4001 NE LAKEWOOD CT,+LEES SUMMIT,+MO+64064&hl=en"
JACKSON COUNTY SHERIFF'S OFFICE,"JOHN KNOX VILLAGE 
												
													PLACES RESTAURANT",1001 NW CHIPMAN ROAD,LEES SUMMIT,MO,64081,"http://maps.google.com/maps?q=1001 NW CHIPMAN ROAD,+LEES SUMMIT,+MO+64081&hl=en"
JACKSON COUNTY SHERIFF'S OFFICE,"LEE'S SUMMIT MEDICAL CENTER 
												
													EMERGENCY ROOM ENTRANCE",2100 SE BLUE PARKWAY,LEES SUMMIT,MO,64063,"http://maps.google.com/maps?q=2100 SE BLUE PARKWAY,+LEES SUMMIT,+MO+64063&hl=en"
JACKSON COUNTY SHERIFF'S OFFICE,"LEE'S SUMMIT POLICE DEPARTMENT 
												
													LOBBY",10 NE TUDOR ROAD,LEES SUMMIT,MO,64086,"http://maps.google.com/maps?q=10 NE TUDOR ROAD,+LEES SUMMIT,+MO+64086&hl=en"
JACKSON COUNTY SHERIFF'S OFFICE,"ST. LUKE'S EAST HOSPITAL 
												
													DIAGNOSTIC CENTER",100 NE ST. LUKE'S BLVD,LEES SUMMIT,MO,64086,"http://maps.google.com/maps?q=100 NE ST. LUKE'S BLVD,+LEES SUMMIT,+MO+64086&hl=en"
JASPER COUNTY SHERIFF'S OFFICE,COLFAX FIRE DEPT.,113 W. STATE ST.,COLFAX,IA,50054,"http://maps.google.com/maps?q=113 W. STATE ST.,+COLFAX,+IA+50054&hl=en"
JASPER COUNTY SHERIFF'S OFFICE,JASPER COUNTY COURTHOUSE,601 PEARL AVE,JOPLIN,MO,64801,"http://maps.google.com/maps?q=601 PEARL AVE,+JOPLIN,+MO+64801&hl=en"
JASPER COUNTY SHERIFF'S OFFICE,NEWTON FIRE DEPT,410 S.2ND. AVE. W.,NEWTON,IA,50208,"http://maps.google.com/maps?q=410 S.2ND. AVE. W.,+NEWTON,+IA+50208&hl=en"
JEFFERSON CITY MISSOURI POLICE DEPARTMENT,"JEFFERSON CITY POLICE HEADQUARTERS 
												
													TRAINING ROOM ENTRANCE - SOUTHSIDE OF BUILDING",401 MONROE ST,JEFFERSON CITY,MO,65101,"http://maps.google.com/maps?q=401 MONROE ST,+JEFFERSON CITY,+MO+65101&hl=en"
JEFFERSON COUNTY SHERIFF,"JEFFERSON COUNTY LAW ENFOCEMENT CENTER 
												
													EAST PARKING LOT",606 3RD STREET,FAIRBURY,NE,68352,"http://maps.google.com/maps?q=606 3RD STREET,+FAIRBURY,+NE+68352&hl=en"
JEFFERSON COUNTY SHERIFF'S OFFICE,HY-VEE PHARMACY,1300 W. BURLINGTON,FAIRFIELD,IA,52556,"http://maps.google.com/maps?q=1300 W. BURLINGTON,+FAIRFIELD,+IA+52556&hl=en"
JOHNSON CO COMM COLLEGE POLICE DEPT,"JCCC CARLSEN CENTER NORTH MAIN ENTRANCE 
												
													INTERSECTION OF COLLEGE BLVD & QUIVIRA",12345 COLLEGE BLVD,OVERLAND PARK,KS,66210,"http://maps.google.com/maps?q=12345 COLLEGE BLVD,+OVERLAND PARK,+KS+66210&hl=en"
JOHNSON COUNTY SHERIFF'S OFFICE,HARP'S FOOD STORE,34040 COMMERCE DRIVE,DE SOTO,KS,66018,"http://maps.google.com/maps?q=34040 COMMERCE DRIVE,+DE SOTO,+KS+66018&hl=en"
JOHNSON COUNTY SHERIFF'S OFFICE,JOHNSON COUNTY FIRE DISTRICT 2,19120 METCALF AVE,STILWELL,KS,66085,"http://maps.google.com/maps?q=19120 METCALF AVE,+STILWELL,+KS+66085&hl=en"
JOHNSON POLICE DEPARTMENT,JOHNSON POLICE DEPARTMENT,2904 MAIN DRIVE,JOHNSON,AR,72741,"http://maps.google.com/maps?q=2904 MAIN DRIVE,+JOHNSON,+AR+72741&hl=en"
JOHNSTON POLICE DEPARTMENT,"JOHNSTON POLICE DEPARTMENT 
												
													PUBLIC SAFETY BUILDING",6373 MERLE HAY RD,JOHNSTON,IA,50131,"http://maps.google.com/maps?q=6373 MERLE HAY RD,+JOHNSTON,+IA+50131&hl=en"
JOPLIN POLICE DEPARTMENT,"MEDICINE SHOP 
												
													PARKING LOT",2131 E. 32ND STREET,JOPLIN,MO,64804,"http://maps.google.com/maps?q=2131 E. 32ND STREET,+JOPLIN,+MO+64804&hl=en"
JUNCTION CITY POLICE DEPARTMENT,"JUNCTION CITY POLICE DEPARTMENT 
												
													LOBBY AREA",210 E. 9TH STREET,JUNCTION CITY,KS,66441,"http://maps.google.com/maps?q=210 E. 9TH STREET,+JUNCTION CITY,+KS+66441&hl=en"
KANSAS CITY KANSAS POLICE,ARGENTINE LIBRARY,3104 STRONG AVE,KANSAS CITY,KS,66106,"http://maps.google.com/maps?q=3104 STRONG AVE,+KANSAS CITY,+KS+66106&hl=en"
KANSAS CITY KANSAS POLICE,CVS,4645 SHAWNEE DR,KANSAS CITY,KS,66106,"http://maps.google.com/maps?q=4645 SHAWNEE DR,+KANSAS CITY,+KS+66106&hl=en"
KANSAS CITY MISSOURI POLICE DEPT.,CHILDREN'S MERCY EAST CAMPUS,20300 E. VALLEY VIEW PKWY,INDEPENDENCE,MO,64057,"http://maps.google.com/maps?q=20300 E. VALLEY VIEW PKWY,+INDEPENDENCE,+MO+64057&hl=en"
KANSAS CITY MISSOURI POLICE DEPT.,CHILDREN'S MERCY KC,2401 GILLHAM ROAD,KANSAS CITY,MO,64108,"http://maps.google.com/maps?q=2401 GILLHAM ROAD,+KANSAS CITY,+MO+64108&hl=en"
KANSAS CITY MISSOURI POLICE DEPT.,CHILDREN'S MERCY NORTH CAMPUS,501 NW BARRY RD,KANSAS CITY,MO,64155,"http://maps.google.com/maps?q=501 NW BARRY RD,+KANSAS CITY,+MO+64155&hl=en"
KANSAS CITY MISSOURI POLICE DEPT.,CVS,4750 LEES SUMMIT RD,KANSAS CITY,MO,64136,"http://maps.google.com/maps?q=4750 LEES SUMMIT RD,+KANSAS CITY,+MO+64136&hl=en"
KANSAS CITY MISSOURI POLICE DEPT.,"KCMO PD NORTH PATROL STATION 
												
													BRAD STOTT",11000 NW PRAIRIE VIEW RD,KANSAS CITY,MO,64153,"http://maps.google.com/maps?q=11000 NW PRAIRIE VIEW RD,+KANSAS CITY,+MO+64153&hl=en"
KANSAS CITY MISSOURI POLICE DEPT.,KCMO PD SHOAL CREEK STATION,6801 PLEASANT VALLEY ROAD,KANSAS CITY,MO,64119,"http://maps.google.com/maps?q=6801 PLEASANT VALLEY ROAD,+KANSAS CITY,+MO+64119&hl=en"
KANSAS CITY MISSOURI POLICE DEPT.,KCMO PD SOUTH PATROL STATION,9701 MARION PARK,KANSAS CITY,MO,64137,"http://maps.google.com/maps?q=9701 MARION PARK,+KANSAS CITY,+MO+64137&hl=en"
KANSAS CITY MISSOURI POLICE DEPT.,LIBERTY HOSPITAL,2525 GLENN HENDREN DR.,LIBERTY,MO,64068,"http://maps.google.com/maps?q=2525 GLENN HENDREN DR.,+LIBERTY,+MO+64068&hl=en"
KANSAS CITY MISSOURI POLICE DEPT.,MAIN CORP PARKING LOT,3215 MAIN ST.,KANSAS CITY,MO,64110,"http://maps.google.com/maps?q=3215 MAIN ST.,+KANSAS CITY,+MO+64110&hl=en"
KANSAS CITY MISSOURI POLICE DEPT.,"PRICE CHOPPER 
												
													KCPD WITH FIRST CALL",8430 WORNALL RD,KANSAS CITY,MO,64114,"http://maps.google.com/maps?q=8430 WORNALL RD,+KANSAS CITY,+MO+64114&hl=en"
KANSAS CITY MISSOURI POLICE DEPT.,"RESEARCH MEDICAL CENTER 
												
													BROOKSIDE CAMPUS LOCATION",6601 ROCKHILL RD,KANSAS CITY,MO,64131,"http://maps.google.com/maps?q=6601 ROCKHILL RD,+KANSAS CITY,+MO+64131&hl=en"
KEARNEY MO POLICE DEPARTMENT,KEARNEY POLICE STATION,725 WEST MO-92 HIGHWAY,KEARNEY,MO,64060,"http://maps.google.com/maps?q=725 WEST MO-92 HIGHWAY,+KEARNEY,+MO+64060&hl=en"
KNOB NOSTER POLICE DEPARTMENT,KNOB NOSTER POLICE DEPARTMENT,201 N. STATE ST.,KNOB NOSTER,MO,65336,"http://maps.google.com/maps?q=201 N. STATE ST.,+KNOB NOSTER,+MO+65336&hl=en"
KNOX COUNTY SHERIFFS OFFICE,KNOX COUNTY SHERIFF'S OFFICE,107 NORTH 4TH STREET,EDINA,MO,63537,"http://maps.google.com/maps?q=107 NORTH 4TH STREET,+EDINA,+MO+63537&hl=en"
LA CYGNE POLICE DEPARTMENT,CITY HALL,206 N. COMMERCIAL ST,LACYGNE,KS,66040,"http://maps.google.com/maps?q=206 N. COMMERCIAL ST,+LACYGNE,+KS+66040&hl=en"
LA VISTA POLICE DEPARTMENT,LA VISTA POLICE DEPARTMENT,7701 S 96TH STREET,LA VISTA,NE,68128,"http://maps.google.com/maps?q=7701 S 96TH STREET,+LA VISTA,+NE+68128&hl=en"
LAFAYETTE COUNTY MISSOURI SHERIFF OFFICE,"LAFAYETTE COUNTY SHERIFF'S OFFICE 
												
													ODESSA DIVISION -STATION",310 S. 1ST STREET,ODESSA,MO,64076,"http://maps.google.com/maps?q=310 S. 1ST STREET,+ODESSA,+MO+64076&hl=en"
LAKE WAUKOMIS POLICE DEPT.,LAKE WAUKOMIS CITY HALL COMPLEX,1147 NW SOUTH SHORE DRIVE,LAKE WAUKOMIS,MO,64151,"http://maps.google.com/maps?q=1147 NW SOUTH SHORE DRIVE,+LAKE WAUKOMIS,+MO+64151&hl=en"
LANSING POLICE DEPT.,LANSING CITY HALL,800 1ST TERRACE,LANSING,KS,66043,"http://maps.google.com/maps?q=800 1ST TERRACE,+LANSING,+KS+66043&hl=en"
LAURIE POLICE DEPARTMENT,LAURIE POLICE DEPARTMENT,147 S. MAIN,LAURIE,MO,65038,"http://maps.google.com/maps?q=147 S. MAIN,+LAURIE,+MO+65038&hl=en"
LEAVENWORTH COUNTY SHERIFFS OFFICE,CVS PHARMACY,390 LIMIT ST,LEAVENWORTH,KS,66048,"http://maps.google.com/maps?q=390 LIMIT ST,+LEAVENWORTH,+KS+66048&hl=en"
LEAVENWORTH POLICE DEPARTMENT,PRICE  CHOPPER,2107 S. 4TH ST.,LEAVENWORTH,KS,66048,"http://maps.google.com/maps?q=2107 S. 4TH ST.,+LEAVENWORTH,+KS+66048&hl=en"
LEAWOOD POLICE DEPARTMENT,LEAWOOD POLICE DEPARTMENT,4201 TOWN CENTER DR.,LEAWOOD,KS,66211,"http://maps.google.com/maps?q=4201 TOWN CENTER DR.,+LEAWOOD,+KS+66211&hl=en"
LEBANON POLICE DEPARTMENT,"LEBANON POLICE DEPARTMENT 
												
													PARKING LOT",401 S. JEFFERSON AVENUE,LEBANON,MO,65536,"http://maps.google.com/maps?q=401 S. JEFFERSON AVENUE,+LEBANON,+MO+65536&hl=en"
LEE COUNTY SHERIFF'S OFFICE,LEE COUNTY SHERIFF'S OFFICE,2530 255TH ST,MONTROSE,IA,52639,"http://maps.google.com/maps?q=2530 255TH ST,+MONTROSE,+IA+52639&hl=en"
LENEXA POLICE DEPARTMENT,LENEXA POLICE DEPARTMENT,12500 W 87TH ST PKWY,LENEXA,KS,66215,"http://maps.google.com/maps?q=12500 W 87TH ST PKWY,+LENEXA,+KS+66215&hl=en"
LEXINGTON POLICE DEPARTMENT,LAFAYETTE REGIONAL HEALTH CENTER,1500 STATE AVENUE,LEXINGTON,MO,64067,"http://maps.google.com/maps?q=1500 STATE AVENUE,+LEXINGTON,+MO+64067&hl=en"
LIBERTY POLICE DEPT.,LIBERTY POLICE DEPT.,101 E. KANSAS STREET,LIBERTY,MO,64068,"http://maps.google.com/maps?q=101 E. KANSAS STREET,+LIBERTY,+MO+64068&hl=en"
LINN COUNTY SHERIFF'S OFFICE,ELY FIRE STATION,1300 MAIN ST,ELY,IA,52227,"http://maps.google.com/maps?q=1300 MAIN ST,+ELY,+IA+52227&hl=en"
LINN COUNTY SHERIFF'S OFFICE,LINN COUNTY SHERIFF'S OFFICE,310 2ND AVE SW,CEDAR RAPIDS,IA,52404,"http://maps.google.com/maps?q=310 2ND AVE SW,+CEDAR RAPIDS,+IA+52404&hl=en"
LINN POLICE DEPARTMENT,LINN CITY HALL,1200 EAST MAIN STREET,LINN,MO,65051,"http://maps.google.com/maps?q=1200 EAST MAIN STREET,+LINN,+MO+65051&hl=en"
LITTLE FLOCK POLICE DEPARTMENT,"LITTLE FLOCK POLICE DEPARTMENT 
												
													PERMANENT DROP BOX",1500 LITTLE FLOCK DR.,ROGERS,AR,72756,"http://maps.google.com/maps?q=1500 LITTLE FLOCK DR.,+ROGERS,+AR+72756&hl=en"
LOUISBURG POLICE DEPARTMENT,LOUISBURG POLICE DEPARTMENT,209 S. METCALF,LOUISBURG,KS,66053,"http://maps.google.com/maps?q=209 S. METCALF,+LOUISBURG,+KS+66053&hl=en"
LOWELL POLICE DEPARTMENT,LOWELL POLICE DEPARTMENT,216 NORTH LINCOLN STREETPERMANENT DROP BOX,LOWELL,AR,72745,"http://maps.google.com/maps?q=216 NORTH LINCOLN STREET,+LOWELL,+AR+72745&hl=en"
MACON POLICE DEPARTMENT,C&R SUPERMARKET PARKING LOT,703 E BRIGGS DRIVE,MACON,MO,63552,"http://maps.google.com/maps?q=703 E BRIGGS DRIVE,+MACON,+MO+63552&hl=en"
MADISON COUNTY SHERIFF'S DEPARTMENT,"MADISON COUNTY SHERIFF'S OFFICE 
												
													PERMANENT DROP BOX",201 WEST MAIN STREET,HUNTSVILLE,AR,72740,"http://maps.google.com/maps?q=201 WEST MAIN STREET,+HUNTSVILLE,+AR+72740&hl=en"
MADRID POLICE DEPARTMENT,MADRID CITY HALL,304 S WATER STREET,MADRID,IA,50156,"http://maps.google.com/maps?q=304 S WATER STREET,+MADRID,+IA+50156&hl=en"
MARION COUNTY SHERIFFS OFFICE,MARION COUNTY SHERIFF'S OFFICE,211 N. GODFREY LN,KNOXVILLE,IA,50138,"http://maps.google.com/maps?q=211 N. GODFREY LN,+KNOXVILLE,+IA+50138&hl=en"
MARSHALL COUNTY HEALTH DEPARTMENT/SHERIFF'S OFFICE,MARSHALL COUNTY HEALTH DEPARTMENT,600 BROADWAY,MARYSVILLE,KS,66508,"http://maps.google.com/maps?q=600 BROADWAY,+MARYSVILLE,+KS+66508&hl=en"
MARSHALL POLICE DEPARTMENT,MARSHALL MUNICIPAL COURT BUILDING,5 EAST EASTWOOD ST,MARSHALL,MO,65340,"http://maps.google.com/maps?q=5 EAST EASTWOOD ST,+MARSHALL,+MO+65340&hl=en"
MARYVILLE DEPARTMENT OF PUBLIC SAFETY,MARYVILLE DEPARTMENT OF PUBLIC SAFETY,222 E. 3RD ST.,MARYVILLE,MO,64468,"http://maps.google.com/maps?q=222 E. 3RD ST.,+MARYVILLE,+MO+64468&hl=en"
MELCHER-DALLAS POLICE DEPARTMENT,CITY HALL,305 EAST D. MAIN STREET,MELCHER DALLAS,IA,50062,"http://maps.google.com/maps?q=305 EAST D. MAIN STREET,+MELCHER DALLAS,+IA+50062&hl=en"
MERCER COUNTY SHERIFF'S OFFICE,MERCER COUNTY SHERIFF'S OFFICE,802 EAST MAIN STREET,PRINCETON,MO,64673,"http://maps.google.com/maps?q=802 EAST MAIN STREET,+PRINCETON,+MO+64673&hl=en"
MERRIAM POLICE DEPARTMENT,HEN HOUSE,5800 ANTIOCH,MERRIAM,KS,66202,"http://maps.google.com/maps?q=5800 ANTIOCH,+MERRIAM,+KS+66202&hl=en"
MESKWAKI NATION POLICE DEPARTMENT,MESKWAKI TRIBAL SENIOR CENTER,301 MESKWAKI ROAD,TAMA,IA,52339,"http://maps.google.com/maps?q=301 MESKWAKI ROAD,+TAMA,+IA+52339&hl=en"
MEXICO DEPT OF PUBLIC SAFETY,CITY HALL/FIRE DEPARTMENT,300 N. COAL,MEXICO,MO,65265,"http://maps.google.com/maps?q=300 N. COAL,+MEXICO,+MO+65265&hl=en"
MIAMI COUNTY SHERIFF OFFICE,"MIAMI COUNTY SHERIFF'S OFFICE 
												
													COMMUNITY ROOM",209 S. PEARL,PAOLA,KS,66071,"http://maps.google.com/maps?q=209 S. PEARL,+PAOLA,+KS+66071&hl=en"
MISSION POLICE DEPARTMENT,HY-VEE,6655 MARTWAY,MISSION,KS,66202,"http://maps.google.com/maps?q=6655 MARTWAY,+MISSION,+KS+66202&hl=en"
MISSOURI SOUTHERN STATE UNIV POLICE DEPT,MSSU PD,726 N. MISSION HILLS DRIVE,JOPLIN,MO,64801,"http://maps.google.com/maps?q=726 N. MISSION HILLS DRIVE,+JOPLIN,+MO+64801&hl=en"
MISSOURI VALLEY POLICE DEPARTMENT,RAND COMMUNITY CENTER,100 S. 4TH ST,MISSOURI VALLEY,IA,51555,"http://maps.google.com/maps?q=100 S. 4TH ST,+MISSOURI VALLEY,+IA+51555&hl=en"
MOBERLY POLICE DEPARTMENT,MOBERLY POLICE DEPARTMENT,300 N. CLARK,MOBERLY,MO,65270,"http://maps.google.com/maps?q=300 N. CLARK,+MOBERLY,+MO+65270&hl=en"
MOBERLY POLICE DEPARTMENT,SAM'S HEALTH MART PHARMACY,530 E. HIGHWAY 24,MOBERLY,MO,65270,"http://maps.google.com/maps?q=530 E. HIGHWAY 24,+MOBERLY,+MO+65270&hl=en"
MONETT POLICE DEPARTMENT,BRUNER'S PHARMACY,321 EAST BROADWAY,MONETT,MO,65708,"http://maps.google.com/maps?q=321 EAST BROADWAY,+MONETT,+MO+65708&hl=en"
MONETT POLICE DEPARTMENT,MONETT POLICE DEPARTMENT,1901 EAST CLEVELAND AVE,MONETT,MO,65708,"http://maps.google.com/maps?q=1901 EAST CLEVELAND AVE,+MONETT,+MO+65708&hl=en"
MONROE POLICE DEPARTMENT,MONROE CITY HALL,206 W. SHERMAN STREET,MONROE,IA,50170,"http://maps.google.com/maps?q=206 W. SHERMAN STREET,+MONROE,+IA+50170&hl=en"
MOUND CITY POLICE DEPARTMENT,MOUND CITY POLICE DEPARTMENT,205 EAST SIXTH STREET,MOUND CITY,MO,64470,"http://maps.google.com/maps?q=205 EAST SIXTH STREET,+MOUND CITY,+MO+64470&hl=en"
MOUNT PLEASANT POLICE DEPT.,MOUNT PLEASANT POLICE DEPT.,204 E. WASHINGTON ST.,MOUNT PLEASANT,IA,52641,"http://maps.google.com/maps?q=204 E. WASHINGTON ST.,+MOUNT PLEASANT,+IA+52641&hl=en"
MOUNT VERNON POLICE DEPARTMENT,CITY OF MOUNT VERNON,319 EAST DALLAS,MOUNT VERNON,MO,65712,"http://maps.google.com/maps?q=319 EAST DALLAS,+MOUNT VERNON,+MO+65712&hl=en"
MOUNT VERNON POLICE DEPARTMENT,MOUNT VERNON POLICE DEPARTMENT,213 1ST STREET NW,MOUNT VERNON,IA,52314,"http://maps.google.com/maps?q=213 1ST STREET NW,+MOUNT VERNON,+IA+52314&hl=en"
MOUNTAIN GROVE POLICE DEPT.,MOUNTAIN GROVE POLICE DEPT.,102 E. STATE,MOUNTAIN GROVE,MO,65711,"http://maps.google.com/maps?q=102 E. STATE,+MOUNTAIN GROVE,+MO+65711&hl=en"
NEMAHA CO. SHERIFF'S OFFICE,NEMAHA CO. SHERIFF'S OFFICE,212 N. 6TH ST,SENECA,KS,66538,"http://maps.google.com/maps?q=212 N. 6TH ST,+SENECA,+KS+66538&hl=en"
NEOSHO POLICE DEPARTMENT,WILDCAT CORNER,817 S NEOSHO BLVD,NEOSHO,MO,64850,"http://maps.google.com/maps?q=817 S NEOSHO BLVD,+NEOSHO,+MO+64850&hl=en"
NEVADA POLICE DEPT,NEVADA POLICE DEPT,120 SOUTH ASH STEEET,NEVADA,MO,64772,"http://maps.google.com/maps?q=120 SOUTH ASH STEEET,+NEVADA,+MO+64772&hl=en"
NEWTON COUNTY SHERIFF'S OFFICE,NEWTON COUNTY SHERIFF'S OFFICE,208 W. COLER ST.,NEOSHO,MO,64850,"http://maps.google.com/maps?q=208 W. COLER ST.,+NEOSHO,+MO+64850&hl=en"
NEWTON COUNTY SHERIFF'S OFFICE,"NEWTON COUNTY SHERIFF'S OFFICE 
												
													PERMANENT DROP BOX",401 N. SPRING,JASPER,AR,72641,"http://maps.google.com/maps?q=401 N. SPRING,+JASPER,+AR+72641&hl=en"
NIXA POLICE DEPARTMENT,FAMILY PHARMACY,105 RIDGECREST AVE.#2,NIXA,MO,65714,"http://maps.google.com/maps?q=105 RIDGECREST AVE.,+NIXA,+MO+65714&hl=en"
NORTH KANSAS CITY POLICE DEPARTMENT,"NORTH KANSAS CITY POLICE DEPARTMENT 
												
													PD LOBBY",2020 HOWELL,NORTH KANSAS CITY,MO,64116,"http://maps.google.com/maps?q=2020 HOWELL,+NORTH KANSAS CITY,+MO+64116&hl=en"
NORTH LIBERTY IOWA POLICE DEPARTMENT,NORTH LIBERTY POLICE DEPT.,5 E. CHERRY ST.,NORTH LIBERTY,IA,52317,"http://maps.google.com/maps?q=5 E. CHERRY ST.,+NORTH LIBERTY,+IA+52317&hl=en"
NORTHEAST MISSOURI NARCOTICS TASK FORCE,C & R SUPERMARKET,201 N CENTER ST.,SHELBINA,MO,63468,"http://maps.google.com/maps?q=201 N CENTER ST.,+SHELBINA,+MO+63468&hl=en"
NORTHEAST MISSOURI NARCOTICS TASK FORCE,COUNTY MARKET,1805 ELM ST,CANTON,MO,63435,"http://maps.google.com/maps?q=1805 ELM ST,+CANTON,+MO+63435&hl=en"
NORTHEASTERN STATE UNIVERSITY POLICE,NORTHEASTERN HEALTH SYSTEMS TAHLEQUAH,1400 EAST DOWNING,TAHLEQUAH,OK,74464,"http://maps.google.com/maps?q=1400 EAST DOWNING,+TAHLEQUAH,+OK+74464&hl=en"
NORWALK POLICE DEPARTMENT,NORWALK POLICE DEPARTMENT,1100 CHATHAM AVE,NORWALK,IA,50211,"http://maps.google.com/maps?q=1100 CHATHAM AVE,+NORWALK,+IA+50211&hl=en"
OAK GROVE POLICE DEPARTMENT,OAK GROVE POLICE DEPARTMENT,1903 S. BROADWAY,OAK GROVE,MO,64075,"http://maps.google.com/maps?q=1903 S. BROADWAY,+OAK GROVE,+MO+64075&hl=en"
ODESSA POLICE DEPARTMENT,"NUTS AND BOLTS HARWARE 
												
													PARKING LOT",204 OLD US HWY 40,ODESSA,MO,64076,"http://maps.google.com/maps?q=204 OLD US HWY 40,+ODESSA,+MO+64076&hl=en"
OLATHE POLICE DEPARTMENT,OLATHE POLICE DEPARTMENT,501 E OLD 56 HWY,OLATHE,KS,66061,"http://maps.google.com/maps?q=501 E OLD 56 HWY,+OLATHE,+KS+66061&hl=en"
OMAHA POLICE DEPT.-NW PRECINCT,ELMWOOD PHARMACY,808 S. 52ND ST,OMAHA,NE,68106,"http://maps.google.com/maps?q=808 S. 52ND ST,+OMAHA,+NE+68106&hl=en"
OMAHA POLICE DEPT.-NW PRECINCT,HY-VEE,747 NORTH 132ND STREET,OMAHA,NE,68154,"http://maps.google.com/maps?q=747 NORTH 132ND STREET,+OMAHA,+NE+68154&hl=en"
OMAHA POLICE DEPT.-NW PRECINCT,HY-VEE,8809 W CENTER ROAD,OMAHA,NE,68124,"http://maps.google.com/maps?q=8809 W CENTER ROAD,+OMAHA,+NE+68124&hl=en"
OMAHA POLICE DEPT.-NW PRECINCT,WALGREENS,3005 LAKE STREET,OMAHA,NE,68111,"http://maps.google.com/maps?q=3005 LAKE STREET,+OMAHA,+NE+68111&hl=en"
OMAHA POLICE DEPT.-NW PRECINCT,WALGREENS,3121 S 24TH STREET,OMAHA,NE,68108,"http://maps.google.com/maps?q=3121 S 24TH STREET,+OMAHA,+NE+68108&hl=en"
OSAGE BEACH POLICE DEPARTMENT,SCHOOL OF THE OSAGE MIDDLE  SCHOOL,635 HWY 42,OSAGE BEACH,MO,65065,"http://maps.google.com/maps?q=635 HWY 42,+OSAGE BEACH,+MO+65065&hl=en"
OSAGE COUNTY SHERIFF'S OFFICE,OSAGE COUNTY SHERIFF'S OFFICE,131 W. 14TH,LYNDON,KS,66451,"http://maps.google.com/maps?q=131 W. 14TH,+LYNDON,+KS+66451&hl=en"
OSKALOOSA IA POLICE DEPARTMENT,MAHASKA DRUG PHARMACY,207 NORTH E STREET,OSKALOOSA,IA,52577,"http://maps.google.com/maps?q=207 NORTH E STREET,+OSKALOOSA,+IA+52577&hl=en"
OVERLAND PARK PD,CHILDREN'S MERCY HOSPITAL,5808 W 110TH STREET,OVERLAND PARK,KS,66211,"http://maps.google.com/maps?q=5808 W 110TH STREET,+OVERLAND PARK,+KS+66211&hl=en"
OVERLAND PARK PD,HEN HOUSE MARKET,6900 W. 135TH STREET,OVERLAND PARK,KS,66213,"http://maps.google.com/maps?q=6900 W. 135TH STREET,+OVERLAND PARK,+KS+66213&hl=en"
OVERLAND PARK PD,MYRON E. SCAFE JUSTICE CENTER,8500 ANTIOCH,OVERLAND PARK,KS,66213,"http://maps.google.com/maps?q=8500 ANTIOCH,+OVERLAND PARK,+KS+66213&hl=en"
OVERLAND PARK PD,PRICE CHOPPER,11700 W. 135TH STREET,OVERLAND PARK,KS,66213,"http://maps.google.com/maps?q=11700 W. 135TH STREET,+OVERLAND PARK,+KS+66213&hl=en"
OVERLAND PARK PD,PRICE CHOPPER,7000 W. 75TH STREET,OVERLAND PARK,KS,66212,"http://maps.google.com/maps?q=7000 W. 75TH STREET,+OVERLAND PARK,+KS+66212&hl=en"
OVERLAND PARK PD,PRICE CHOPPER,7201 W. 151ST STREET,OVERLAND PARK,KS,66213,"http://maps.google.com/maps?q=7201 W. 151ST STREET,+OVERLAND PARK,+KS+66213&hl=en"
OVERLAND PARK PD,PRICE CHOPPER,7418 W. 119TH STREET,OVERLAND PARK,KS,66213,"http://maps.google.com/maps?q=7418 W. 119TH STREET,+OVERLAND PARK,+KS+66213&hl=en"
OVERLAND PARK PD,W. JACK SANDERS JUSTICE CENTER,12400 FOSTER,OVERLAND PARK,KS,66213,"http://maps.google.com/maps?q=12400 FOSTER,+OVERLAND PARK,+KS+66213&hl=en"
OZARK POLICE DEPARTMENT,CHRSITINA COUNTY JUDICIAL CENTER,110 W. ELM ST,OZARK,MO,65721,"http://maps.google.com/maps?q=110 W. ELM ST,+OZARK,+MO+65721&hl=en"
PAOLA POLICE DEPARTMENT,"PAOLA POLICE DEPARTMENT 
												
													DROP BOX LOCATED IN LOBBY OF POLICE STATION",805 N PEARL,PAOLA,KS,66071,"http://maps.google.com/maps?q=805 N PEARL,+PAOLA,+KS+66071&hl=en"
PEA RIDGE POLICE DEPARTMENT,"PEA RIDGE POLICE DEPARTMENT 
												
													PERMANENT DROP BOX",187 SLACK ST.,PEA RIDGE,AR,72751,"http://maps.google.com/maps?q=187 SLACK ST.,+PEA RIDGE,+AR+72751&hl=en"
PECULIAR POLICE DEPARTMENT,PECULIAR POLICE DEPARTMENT,224 N. MAIN STREET,PECULIAR,MO,64078,"http://maps.google.com/maps?q=224 N. MAIN STREET,+PECULIAR,+MO+64078&hl=en"
PELLA POLICE DEPARTMENT,"PELLA POLICE DEPARTMENT 
												
													FRONT LOBBY",614 MAIN ST.,PELLA,IA,50219,"http://maps.google.com/maps?q=614 MAIN ST.,+PELLA,+IA+50219&hl=en"
PERRY POLICE DEPARTMENT,HY-VEE STORE,1215 HWY. 141,PERRY,IA,50220,"http://maps.google.com/maps?q=1215 HWY. 141,+PERRY,+IA+50220&hl=en"
PILOT GROVE POLICE DEPARTMENT,"PILOT GROVE CITY HALL 
												
													10AM-12:00 (NO BOXES)",213 COLLEGE ST.,PILOT GROVE,MO,65276,"http://maps.google.com/maps?q=213 COLLEGE ST.,+PILOT GROVE,+MO+65276&hl=en"
PITTSBURG KANSAS POLICE DEPT.,PITTSBURG POLICE DEPARTMENT,201 N. PINE ST.,PITTSBURG,KS,66762,"http://maps.google.com/maps?q=201 N. PINE ST.,+PITTSBURG,+KS+66762&hl=en"
PLATTE CITY POLICE DEPARTMENT,COSENTINO'S PRICE CHOPPER,2600 ENSIGN HILL DR.,PLATTE CITY,MO,64079,"http://maps.google.com/maps?q=2600 ENSIGN HILL DR.,+PLATTE CITY,+MO+64079&hl=en"
PLATTSMOUTH POLICE DEPARTMENT,PLATTSMOUTH SENIOR CENTER,308 S. 18TH ST.,PLATTSMOUTH,NE,68048,"http://maps.google.com/maps?q=308 S. 18TH ST.,+PLATTSMOUTH,+NE+68048&hl=en"
PLEASANT HILL POLICE DEPARTMENT,COSENTINO'S PRICE CHOPPER,2101 N. STATE ROUTE 7,PLEASANT HILL,MO,64080,"http://maps.google.com/maps?q=2101 N. STATE ROUTE 7,+PLEASANT HILL,+MO+64080&hl=en"
POLK COUNTY SHERIFF'S OFFICE,CVS,104 E 1ST STREET,ANKENY,IA,50021,"http://maps.google.com/maps?q=104 E 1ST STREET,+ANKENY,+IA+50021&hl=en"
POLK COUNTY SHERIFF'S OFFICE,CVS,215 EUCLID AVE,DES MOINES,IA,50310,"http://maps.google.com/maps?q=215 EUCLID AVE,+DES MOINES,+IA+50310&hl=en"
POLK COUNTY SHERIFF'S OFFICE,WALGREENS,2702 SE DELAWARE AVE,ANKENY,IA,50021,"http://maps.google.com/maps?q=2702 SE DELAWARE AVE,+ANKENY,+IA+50021&hl=en"
POTTAWATTAMIE  COUNTY SHERIFF'S OFFICE,POTTAWATTAMIE COUNTY SHERIFF'S OFFICE,1400 BIG LAKE RD,COUNCIL BLUFFS,IA,51501,"http://maps.google.com/maps?q=1400 BIG LAKE RD,+COUNCIL BLUFFS,+IA+51501&hl=en"
PRAIRIE VILLAGE POLICE DEPARTMENT,PRAIRIE VILLAGE POLICE DEPT.,7710 MISSION ROAD,PRAIRIE VILLAGE,KS,66208,"http://maps.google.com/maps?q=7710 MISSION ROAD,+PRAIRIE VILLAGE,+KS+66208&hl=en"
PUTNAM COUNTY SHERIFF'S OFFICE,PUTNAM SHERIFF'S OFFICE,"1601 MAIN STREET, COURTHOUSE RM:0101 (BASEMENT)",UNIONVILLE,MO,63565,"http://maps.google.com/maps?q=1601 MAIN STREET, COURTHOUSE RM:0101 (BASEMENT),+UNIONVILLE,+MO+63565&hl=en"
RALSTON POLICE DEPARTMENT,"WALGREENS 
												
													84TH & HARRISON",8380 HARRISON STREET,RALSTON,NE,68127,"http://maps.google.com/maps?q=8380 HARRISON STREET,+RALSTON,+NE+68127&hl=en"
RAYMORE POLICE DEPT.,PRICE CHOPPER,900 W. FOXWOOD DR.,RAYMORE,MO,64083,"http://maps.google.com/maps?q=900 W. FOXWOOD DR.,+RAYMORE,+MO+64083&hl=en"
RAYMORE POLICE DEPT.,"RAYMORE POLICE DEPARTMENT 
												
													LOBBY",100 MUNICIPAL CIR,RAYMORE,MO,64083,"http://maps.google.com/maps?q=100 MUNICIPAL CIR,+RAYMORE,+MO+64083&hl=en"
REPUBLIC POLICE DEPARTMENT,WALGREENS,1050 E. US 60 HWY,REPUBLIC,MO,65738,"http://maps.google.com/maps?q=1050 E. US 60 HWY,+REPUBLIC,+MO+65738&hl=en"
RICHMOND POLICE DEPARTMENT,RICHMOND POLICE DEPARTMENT,207 SUMMIT ST.,RICHMOND,MO,64085,"http://maps.google.com/maps?q=207 SUMMIT ST.,+RICHMOND,+MO+64085&hl=en"
RILEY COUNTY POLICE DEPARTMENT,MANHATTAN TOWN CENTER,100 MANHATTAN TOWN CENTER,MANHATTAN,KS,66502,"http://maps.google.com/maps?q=100 MANHATTAN TOWN CENTER,+MANHATTAN,+KS+66502&hl=en"
RILEY COUNTY POLICE DEPARTMENT,RILEY COUNTY POLICE DEPARTMENT,1001 S. SETH CHILD ROAD,MANHATTAN,KS,66502,"http://maps.google.com/maps?q=1001 S. SETH CHILD ROAD,+MANHATTAN,+KS+66502&hl=en"
RINGGOLD COUNTY SHERIFF'S OFFICE,"RINGGOLD CO SHERIFF'S OFFICE 
												
													NO BOXES",801 W. SOUTH ST.,MOUNT AYR,IA,50854,"http://maps.google.com/maps?q=801 W. SOUTH ST.,+MOUNT AYR,+IA+50854&hl=en"
RIVERSIDE POLICE DEPARTMENT,RIVERSIDE POLICE DEPT.,2990 NW VIVION ROAD,RIVERSIDE,MO,64150,"http://maps.google.com/maps?q=2990 NW VIVION ROAD,+RIVERSIDE,+MO+64150&hl=en"
ROELAND PARK POLICE DEPARTMENT,"PRICE CHOPPER GROCERY STORE 
												
													ROELAND PARK LOCATION",4950 ROE AVENUE,ROELAND PARK,KS,66205,"http://maps.google.com/maps?q=4950 ROE AVENUE,+ROELAND PARK,+KS+66205&hl=en"
ROGERS POLICE DEPARTMENT,MERCY CLINIC,3101 SE 14TH STREET,BENTONVILLE,AR,72712,"http://maps.google.com/maps?q=3101 SE 14TH STREET,+BENTONVILLE,+AR+72712&hl=en"
ROGERS POLICE DEPARTMENT,"ROGERS POLICE DEPARTMENT 
												
													PERMANENT DROP BOX",1905 S. DIXIELAND,ROGERS,AR,72758,"http://maps.google.com/maps?q=1905 S. DIXIELAND,+ROGERS,+AR+72758&hl=en"
SARPY COUNTY SHERIFF'S OFFICE,"HY-VEE GROCERY STORE (SHADOW LAKE) 
												
													NORTH PARKING LOT",11650 S. 73RD STREET,PAPILLION,NE,68046,"http://maps.google.com/maps?q=11650 S. 73RD STREET,+PAPILLION,+NE+68046&hl=en"
SAVANNAH POLICE DEPARTMENT,BROTHERS MARKET,402 EAST PRICE,SAVANNAH,MO,64485,"http://maps.google.com/maps?q=402 EAST PRICE,+SAVANNAH,+MO+64485&hl=en"
SCHUYLER COUNTY SHERIFF'S OFFICE,"SCHUYLER COUNTY SHERIFF'S OFFICE 
												
													SCHUYLER COUNTY COURTHOUSE BASEMENT",110 W WASHINGTON,LANCASTER,MO,63548,"http://maps.google.com/maps?q=110 W WASHINGTON,+LANCASTER,+MO+63548&hl=en"
SHAWNEE COUNTY SHERIFF'S OFFICE (NO BOXES),MISSION TOWNSHIP FIRE DEPARTMENT,3101 SW URISH ROAD,TOPEKA,KS,66614,"http://maps.google.com/maps?q=3101 SW URISH ROAD,+TOPEKA,+KS+66614&hl=en"
SHAWNEE COUNTY SHERIFF'S OFFICE (NO BOXES),SOLDIER TOWNSHIP FIRE DEPARTMENT,601 NW 46TH STREET,TOPEKA,KS,66617,"http://maps.google.com/maps?q=601 NW 46TH STREET,+TOPEKA,+KS+66617&hl=en"
SHAWNEE POLICE DEPARTMENT,SHAWNEE POLICE DEPARTMENT,5850 RENNER RD,SHAWNEE,KS,66217,"http://maps.google.com/maps?q=5850 RENNER RD,+SHAWNEE,+KS+66217&hl=en"
SHENANDOAH POLICE DEPARTMENT,SHENANDOAH POLICE DEPT.,400 W. SHERIDAN AVE.,SHENANDOAH,IA,51601,"http://maps.google.com/maps?q=400 W. SHERIDAN AVE.,+SHENANDOAH,+IA+51601&hl=en"
SIGOURNEY POLICE DEPARTMENT,SIGOURNEY POLICE DEPARTMENT,100 N. MAIN ST.,SIGOURNEY,IA,52591,"http://maps.google.com/maps?q=100 N. MAIN ST.,+SIGOURNEY,+IA+52591&hl=en"
SILOAM SPRINGS POLICE DEPARTMENT,"SILOAM SPRINGS POLICE DEPARTMENT 
												
													CRAFT FESTIVAL BOOTH",110 NORTH MT. OLIVE STREET,SILOAM SPRINGS,AR,72761,"http://maps.google.com/maps?q=110 NORTH MT. OLIVE STREET,+SILOAM SPRINGS,+AR+72761&hl=en"
SILOAM SPRINGS POLICE DEPARTMENT,"SILOAM SPRINGS POLICE DEPARTMENT 
												
													PERMANENT DROP BOX",100 US HIGHWAY 412 W.,SILOAM SPRINGS,AR,72761,"http://maps.google.com/maps?q=100 US HIGHWAY 412 W.,+SILOAM SPRINGS,+AR+72761&hl=en"
SPRING HILL POLICE DEPARTMENT,QUEENS PRICE CHOPPER,22350 S. HARRISON ST,SPRING HILL,KS,66083,"http://maps.google.com/maps?q=22350 S. HARRISON ST,+SPRING HILL,+KS+66083&hl=en"
SPRINGDALE POLICE DEPARTMENT,HARPS FOOD STORES,918 SOUTH GUTENSOHN ROAD,SPRINGDALE,AR,72764,"http://maps.google.com/maps?q=918 SOUTH GUTENSOHN ROAD,+SPRINGDALE,+AR+72764&hl=en"
SPRINGDALE POLICE DEPARTMENT,"SPRINGDALE POLICE DEPARTMENT 
												
													PERMANENT DROP BOX",201 N. SPRING ST.,SPRINGDALE,AR,72764,"http://maps.google.com/maps?q=201 N. SPRING ST.,+SPRINGDALE,+AR+72764&hl=en"
ST. CLAIR COUNTY JAIL,ST. CLAIR COUNTY JAIL,360 CHESTNUT ST,OSCEOLA,MO,64776,"http://maps.google.com/maps?q=360 CHESTNUT ST,+OSCEOLA,+MO+64776&hl=en"
ST. JOSEPH POLICE DEPARTMENT,"EAST HILLS MALL 
												
													EAST PARKING LOT NEAR DILLARDS DEPARTMENT STORE",3702 FREDERICK AVENUE,SAINT JOSEPH,MO,64506,"http://maps.google.com/maps?q=3702 FREDERICK AVENUE,+SAINT JOSEPH,+MO+64506&hl=en"
STEWARTSVILLE POLICE DEPARTMENT,STEWARTSVILLE POLICE DEPARTMENT,1307 MAIN,STEWARTSVILLE,MO,64490,"http://maps.google.com/maps?q=1307 MAIN,+STEWARTSVILLE,+MO+64490&hl=en"
TANEY COUNTY SHERIFF'S OFFICE,SCOOTER'S EXPRESS GAS & GROCERIES,13022 STATE HWY 76,FORSYTH,MO,65653,"http://maps.google.com/maps?q=13022 STATE HWY 76,+FORSYTH,+MO+65653&hl=en"
TARKIO POLICE DEPARTMENT,TARKIO POLICE DEPARTMENT,602 MAIN STREET,TARKIO,MO,64491,"http://maps.google.com/maps?q=602 MAIN STREET,+TARKIO,+MO+64491&hl=en"
UNIVERSITY OF ARKANSAS POLICE DEPARTMENT,UNIVERSITY OF ARKANSAS,155 S. RAZORBACK ROAD,FAYETTEVILLE,AR,72701,"http://maps.google.com/maps?q=155 S. RAZORBACK ROAD,+FAYETTEVILLE,+AR+72701&hl=en"
URBANA POLICE DEPARTMENT,URBANA POLICE DEPARTMENT,110 NORTH MAIN ST.,URBANA,MO,65767,"http://maps.google.com/maps?q=110 NORTH MAIN ST.,+URBANA,+MO+65767&hl=en"
URBANDALE POLICE DEPARTMENT,"URBANDALE POLICE DEPARTMENT 
												
													8AM-12PM",3740 86TH ST,URBANDALE,IA,50322,"http://maps.google.com/maps?q=3740 86TH ST,+URBANDALE,+IA+50322&hl=en"
VAN BUREN COUNTY SHERIFF'S OFFICE,"LAW CENTER 
												
													LOBBY",907 BROAD STREET,KEOSAUQUA,IA,52565,"http://maps.google.com/maps?q=907 BROAD STREET,+KEOSAUQUA,+IA+52565&hl=en"
WARREN COUNTY SHERIFF'S OFFICE,WARREN COUNTY SHERIFF'S OFFICE,115 N HOWARD ST.,INDIANOLA,IA,50125,"http://maps.google.com/maps?q=115 N HOWARD ST.,+INDIANOLA,+IA+50125&hl=en"
WARRENSBURG MO POLICE DEPARTMENT,BI-LO MARKET,410 E YOUNG ST,WARRENSBURG,MO,64093,"http://maps.google.com/maps?q=410 E YOUNG ST,+WARRENSBURG,+MO+64093&hl=en"
WASHINGTON COUNTY SHERIFF'S OFFICE,"VA MEDICAL CENTER 
												
													PERMANENT DROP BOX",1100 NORTH COLLEGE AVE.1100 NORTH COLLEGE AVE.,FAYETTEVILLE,AR,72701,"http://maps.google.com/maps?q=1100 NORTH COLLEGE AVE.,+FAYETTEVILLE,+AR+72701&hl=en"
WASHINGTON COUNTY SHERIFF'S OFFICE,"WASHINGTON COUNTY COURTHOUSE 
												
													PERMANENT DROP BOX  (MON-FRI ONLY)",280 NORTH COLLEGE AVE.,FAYETTEVILLE,AR,72701,"http://maps.google.com/maps?q=280 NORTH COLLEGE AVE.,+FAYETTEVILLE,+AR+72701&hl=en"
WASHINGTON COUNTY SHERIFF'S OFFICE,"WASHINGTON COUNTY SHERIFF'S DEPARTMENT 
												
													PERMANENT DROP BOX",1155 CLYDESDALE DR.,FAYETTEVILLE,AR,72701,"http://maps.google.com/maps?q=1155 CLYDESDALE DR.,+FAYETTEVILLE,+AR+72701&hl=en"
WASHINGTON COUNTY SHERIFF'S OFFICE,WASHINGTON COUNTY SHERIFF'S OFFICE,301 B. STREET,WASHINGTON,KS,66968,"http://maps.google.com/maps?q=301 B. STREET,+WASHINGTON,+KS+66968&hl=en"
WAUKEE POLICE DEPARTMENT,WAUKEE POLICE DEPARTMENT,1300 SE LA GRANT PKWY,WAUKEE,IA,50263,"http://maps.google.com/maps?q=1300 SE LA GRANT PKWY,+WAUKEE,+IA+50263&hl=en"
WEST BRANSON POLICE DEPARTMENT,LAKELAND PHARMACY,18565 BUSINESS 13,REEDS SPRING,MO,65737,"http://maps.google.com/maps?q=18565 BUSINESS 13,+REEDS SPRING,+MO+65737&hl=en"
WEST DES MOINES POLICE DEPARTMENT,WEST DES MOINES POLICE DEPARTMENT,250 MILLS CIVIC PKWY,WEST DES MOINES,IA,50265,"http://maps.google.com/maps?q=250 MILLS CIVIC PKWY,+WEST DES MOINES,+IA+50265&hl=en"
WEST POINT POLICE DEPARTMENT,WEST POINT POLICE,444 SOUTH MAIN,WEST POINT,NE,68788,"http://maps.google.com/maps?q=444 SOUTH MAIN,+WEST POINT,+NE+68788&hl=en"
WILLIAMSBURG POLICE DEPARTMENT,WILLIAMSBURG POLICE DEPARTMENT,210 STATE STREET,WILLIAMSBURG,IA,52361,"http://maps.google.com/maps?q=210 STATE STREET,+WILLIAMSBURG,+IA+52361&hl=en"
WILSON COUNTY SHERIFF'S OFFICE,WILSON COUNTY SHERIFF'S OFFICE,925 PIERCE STREET,FREDONIA,KS,66736,"http://maps.google.com/maps?q=925 PIERCE STREET,+FREDONIA,+KS+66736&hl=en"
WINDSOR HEIGHTS POLICE DEPARTMENT,WINDSOR HEIGHTS POLICE DEPARTMENT,1133 66TH STREET,WINDSOR HEIGHTS,IA,50324,"http://maps.google.com/maps?q=1133 66TH STREET,+WINDSOR HEIGHTS,+IA+50324&hl=en"
WYANDOTTE COUNTY SHERIFF,CVS,3750 STATE AVEKANSAS CITY,KANSAS CITY,KS,66102,"http://maps.google.com/maps?q=3750 STATE AVE,+KANSAS CITY,+KS+66102&hl=en"
WYANDOTTE COUNTY SHERIFF,CVS,4300 RAINBOW,KANSAS CITY,KS,66103,"http://maps.google.com/maps?q=4300 RAINBOW,+KANSAS CITY,+KS+66103&hl=en"
WYANDOTTE COUNTY SHERIFF,CVS,4645 SHAWNEE DRIVEKANSAS CITY,KANSAS CITY,KS,66106,"http://maps.google.com/maps?q=4645 SHAWNEE DRIVE,+KANSAS CITY,+KS+66106&hl=en"
WYANDOTTE COUNTY SHERIFF,CVS,950 MINNESOTAKANSAS CITY,KANSAS CITY,KS,66101,"http://maps.google.com/maps?q=950 MINNESOTA,+KANSAS CITY,+KS+66101&hl=en"
WYANDOTTE COUNTY SHERIFF,DEGOLER,2040 HUTTONKANSAS CITY,KANSAS CITY,KS,66109,"http://maps.google.com/maps?q=2040 HUTTON,+KANSAS CITY,+KS+66109&hl=en"
