Participant,CollectionSite,Address,City,State,Zip,MapURL
ALBANY COUNTY SHERIFF,ALBANY COUNTY SHERIFF,58 VERDA AVENUE,CLARKSVILLE,NY,12041,"http://maps.google.com/maps?q=58 VERDA AVENUE,+CLARKSVILLE,+NY+12041&hl=en"
ALLEGANY COUNTY SHERIFF'S OFFICE,BOLIVAR VOL. FIRE DEPARTMENT,460 MAIN ST,BOLIVAR,NY,14715,"http://maps.google.com/maps?q=460 MAIN ST,+BOLIVAR,+NY+14715&hl=en"
ALLEGANY COUNTY SHERIFF'S OFFICE,RIVERWALK PLAZA,STATE ROUTE 417,WELLSVILLE,NY,14895,"http://maps.google.com/maps?q=STATE ROUTE 417,+WELLSVILLE,+NY+14895&hl=en"
ALLENDALE POLICE DEPARTMENT,"ALLENDALE POLICE DEPARTMENT 
												
													201-825-1900",290 FRANKLIN TURNPIKE,ALLENDALE,NJ,07401,"http://maps.google.com/maps?q=290 FRANKLIN TURNPIKE,+ALLENDALE,+NJ+07401&hl=en"
ALLENTOWN POLICE DEPARTMENT,REDNER'S MARKET,1201 AIRPORT ROAD,ALLENTOWN,PA,18109,"http://maps.google.com/maps?q=1201 AIRPORT ROAD,+ALLENTOWN,+PA+18109&hl=en"
ALLENTOWN POLICE DEPARTMENT,ST LUKES ALLENTOWN HOSPITAL,1736 HAMILTON ST,ALLENTOWN,PA,18104,"http://maps.google.com/maps?q=1736 HAMILTON ST,+ALLENTOWN,+PA+18104&hl=en"
AMHERST POLICE DEPARTMENT,MILLARD FILLMORE HOSPITAL,1540 MAPLE RD.,WILLIAMSVILLE,NY,14221,"http://maps.google.com/maps?q=1540 MAPLE RD.,+WILLIAMSVILLE,+NY+14221&hl=en"
ANDOVER POLICE DEPARTMENT,ANDOVER POLICE DEPARTMENT,134 MAPLE ST,ANDOVER,OH,44003,"http://maps.google.com/maps?q=134 MAPLE ST,+ANDOVER,+OH+44003&hl=en"
ANDOVER POLICE DEPARTMENT,"ANDOVER POLICE STATION 
												
													973-383-5544",145 LAKE ILIFF RD.,NEWTON,NJ,07860,"http://maps.google.com/maps?q=145 LAKE ILIFF RD.,+NEWTON,+NJ+07860&hl=en"
ASHTABULA COUNTY SHERIFF'S OFFICE,ASHTABULA COUNTY SHERIFF'S OFFICE,25 W. JEFFERSON ST.,JEFFERSON,OH,44047,"http://maps.google.com/maps?q=25 W. JEFFERSON ST.,+JEFFERSON,+OH+44047&hl=en"
AUBURN POLICE DEPARTMENT,"AUBURN POLICE DEPARTMENT 
												
													HQ",46 NORTH STREET,AUBURN,NY,13021,"http://maps.google.com/maps?q=46 NORTH STREET,+AUBURN,+NY+13021&hl=en"
AUBURN POLICE DEPARTMENT,KINNEY DRUGS,62 OWASCO ST.,AUBURN,NY,13021,"http://maps.google.com/maps?q=62 OWASCO ST.,+AUBURN,+NY+13021&hl=en"
AUSTINTOWN POLICE DEPARTMENT,"AUSTINTOWN TOWNSHIP POLICE DISTRICT 
												
													OUTDOOR DRIVE-THRU COLLECTION",92 OHLTOWN RD.,YOUNGSTOWN,OH,44515,"http://maps.google.com/maps?q=92 OHLTOWN RD.,+YOUNGSTOWN,+OH+44515&hl=en"
BALDWINSVILLE POLICE DEPARTMENT,KINNEY DRUGS,21 E. GENESEE STREET,BALDWINSVILLE,NY,13027,"http://maps.google.com/maps?q=21 E. GENESEE STREET,+BALDWINSVILLE,+NY+13027&hl=en"
BATAVIA POLICE DEPARTMENT,BATAVIA POLICE DEPARTMENT,10 W. MAIN STREET,BATAVIA,NY,14020,"http://maps.google.com/maps?q=10 W. MAIN STREET,+BATAVIA,+NY+14020&hl=en"
BEAVER POLICE DEPARTMENT,"BEAVER POLICE DEPARTMENT 
												
													FRONT LOBBY",601 W SOUTH RANGE RD,NORTH LIMA,OH,44452,"http://maps.google.com/maps?q=601 W SOUTH RANGE RD,+NORTH LIMA,+OH+44452&hl=en"
BENTON BOROUGH POLICE DEPT,BENTON VOL FIRE STATION,150 COLLEY ST,BENTON,PA,17814,"http://maps.google.com/maps?q=150 COLLEY ST,+BENTON,+PA+17814&hl=en"
BERWICK PD,BERWICK PD,1800 N MARKET ST,BERWICK,PA,18603,"http://maps.google.com/maps?q=1800 N MARKET ST,+BERWICK,+PA+18603&hl=en"
BETHLEHEM POLICE DEPARTMENT,WESTGATE MALL,2285 SCHOENERSVILLE ROAD,BETHLEHEM,PA,18017,"http://maps.google.com/maps?q=2285 SCHOENERSVILLE ROAD,+BETHLEHEM,+PA+18017&hl=en"
BETHLEHEM TWNSHP POLICE DEPARTMENT,CVS PHARMACY,4950 FREEMANSBURG AVENUE,EASTON,PA,18045,"http://maps.google.com/maps?q=4950 FREEMANSBURG AVENUE,+EASTON,+PA+18045&hl=en"
BETHLEHEM TWNSHP POLICE DEPARTMENT,GIANT PHARMACY #6366,3926 NAZARETH PIKE,BETHLEHEM,PA,18020,"http://maps.google.com/maps?q=3926 NAZARETH PIKE,+BETHLEHEM,+PA+18020&hl=en"
BETHLEHEM TWNSHP POLICE DEPARTMENT,"ST. LUKES HOSPITAL, ANDERSON CAMPUS",1872 ST LUKES BLVD,EASTON,PA,18045,"http://maps.google.com/maps?q=1872 ST LUKES BLVD,+EASTON,+PA+18045&hl=en"
BETHLEHEM TWNSHP POLICE DEPARTMENT,YOUNG'S PHARMACY,3708 FREEMANSBURG AVENUE,EASTON,PA,18045,"http://maps.google.com/maps?q=3708 FREEMANSBURG AVENUE,+EASTON,+PA+18045&hl=en"
BOARDMAN POLICE DEPARTMENT,BOARDMAN POLICE DEPARTMENT,8299 MARKET STREET,BOARDMAN,OH,44512,"http://maps.google.com/maps?q=8299 MARKET STREET,+BOARDMAN,+OH+44512&hl=en"
BRADFORD COUNTY SHERIFF'S OFFICE,MILLER'S PHARMACY,ROUTE 6,WYALUSING,PA,18853,"http://maps.google.com/maps?q=ROUTE 6,+WYALUSING,+PA+18853&hl=en"
BROOME COUNTY SHERIFF'S DEPARTMENT,AMERICAN LEGION POST 1700,305 MAPLE STREET,ENDICOTT,NY,13760,"http://maps.google.com/maps?q=305 MAPLE STREET,+ENDICOTT,+NY+13760&hl=en"
BROOME COUNTY SHERIFF'S DEPARTMENT,BROOME COUNTY SHERIFF'S OFFICE,155 LT. VANWINKLE DR.,BINGHAMTON,NY,13905,"http://maps.google.com/maps?q=155 LT. VANWINKLE DR.,+BINGHAMTON,+NY+13905&hl=en"
BROOME COUNTY SHERIFF'S DEPARTMENT,JOHNSON CITY ELKS,4212 WATSON BLVD.,JOHNSON CITY,NY,13790,"http://maps.google.com/maps?q=4212 WATSON BLVD.,+JOHNSON CITY,+NY+13790&hl=en"
BROOME COUNTY SHERIFF'S DEPARTMENT,VESTAL FIRE STATION 4,3341 VESTAL PKWY EAST,VESTAL,NY,13850,"http://maps.google.com/maps?q=3341 VESTAL PKWY EAST,+VESTAL,+NY+13850&hl=en"
BROOME COUNTY SHERIFF'S DEPARTMENT,WINDSOR COMMUNITY CENTER,107 MAIN STREET,WINDSOR,NY,13865,"http://maps.google.com/maps?q=107 MAIN STREET,+WINDSOR,+NY+13865&hl=en"
BUFFALO POLICE DEPARTMENT,"BUFFALO STATE COLLEGE 
												
													CLEVELAND HALL",1300 ELMWOOD AVE.,BUFFALO,NY,14222,"http://maps.google.com/maps?q=1300 ELMWOOD AVE.,+BUFFALO,+NY+14222&hl=en"
BYRAM TWP. POLICE DEPARTMENT,CVS PHARMACY,77 RT. 206,STANHOPE,NJ,07874,"http://maps.google.com/maps?q=77 RT. 206,+STANHOPE,+NJ+07874&hl=en"
BYRAM TWP. POLICE DEPARTMENT,SHOP RITE,90 ROUTE 206,STANHOPE,NJ,07874,"http://maps.google.com/maps?q=90 ROUTE 206,+STANHOPE,+NJ+07874&hl=en"
CAIRO POLICE DEPARTMENT,CVS PHARMACY,7600 ROUTE 32,CAIRO,NY,12413,"http://maps.google.com/maps?q=7600 ROUTE 32,+CAIRO,+NY+12413&hl=en"
CAIRO POLICE DEPARTMENT,CVS PHARMACY,7600 SR 32 CAIRO,CAIRO,NY,12413,"http://maps.google.com/maps?q=7600 SR 32 CAIRO,+CAIRO,+NY+12413&hl=en"
CAMILLUS POLICE DEPARTEMENT,POLICE HQ DROP BOX,4600 WEST GENESEE ST.,SYRACUSE,NY,13219,"http://maps.google.com/maps?q=4600 WEST GENESEE ST.,+SYRACUSE,+NY+13219&hl=en"
CATASAUQUA POLICE DEPARTMENT,CATASAUQUA POLICE DEPARTMENT,90 BRIDGE ST.,CATASAUQUA,PA,18032,"http://maps.google.com/maps?q=90 BRIDGE ST.,+CATASAUQUA,+PA+18032&hl=en"
CATAWISSA BOROUGH POLICE DEPT,CATAWISSA BOROUGH PD,118 N 3RD ST,CATAWISSA,PA,17820,"http://maps.google.com/maps?q=118 N 3RD ST,+CATAWISSA,+PA+17820&hl=en"
CATTARAUGUS COUNTY SHERIFF'S DEPARTMENT,CATTARAUGUS COUNTY OFFICE BUILDING,1 LEO MOSS DRIVE,OLEAN,NY,14760,"http://maps.google.com/maps?q=1 LEO MOSS DRIVE,+OLEAN,+NY+14760&hl=en"
CATTARAUGUS COUNTY SHERIFF'S DEPARTMENT,CORNER DRUG STORE,1 WASHINGTON STREET,CATTARAUGUS,NY,14719,"http://maps.google.com/maps?q=1 WASHINGTON STREET,+CATTARAUGUS,+NY+14719&hl=en"
CATTARAUGUS COUNTY SHERIFF'S DEPARTMENT,DELEVAN HEALTH CENTER,38 N. MAIN ST.,DELEVAN,NY,14042,"http://maps.google.com/maps?q=38 N. MAIN ST.,+DELEVAN,+NY+14042&hl=en"
CATTARAUGUS COUNTY SHERIFF'S DEPARTMENT,GOWANDA VILLAGE MUNICIPAL BUILDING,27 EAST MAIN STREET,GOWANDA,NY,14070,"http://maps.google.com/maps?q=27 EAST MAIN STREET,+GOWANDA,+NY+14070&hl=en"
CATTARAUGUS COUNTY SHERIFF'S DEPARTMENT,"SALAMANCA CITY MUNICIPAL BUILDING 
												
													FIRE DEPARTMENT",225 WILDWOOD AVE,SALAMANCA,NY,14779,"http://maps.google.com/maps?q=225 WILDWOOD AVE,+SALAMANCA,+NY+14779&hl=en"
CAZENOVIA POLICE DEPARTMENT,KINNEY DRUGS PARKING LOT,41 ALBANY STREET,CAZENOVIA,NY,13035,"http://maps.google.com/maps?q=41 ALBANY STREET,+CAZENOVIA,+NY+13035&hl=en"
CENTRE CO SHERIFF'S OFFICE,BURKHOLDER'S COUNTRY MARKET,107 MARKET DRIVE,SPRING MILLS,PA,16875,"http://maps.google.com/maps?q=107 MARKET DRIVE,+SPRING MILLS,+PA+16875&hl=en"
CHAUTAUQUA COUNTY SHERIFF'S DEPARTMENT,ALSTAR HQS. NORTH,738 MONROE STREET,DUNKIRK,NY,14048,"http://maps.google.com/maps?q=738 MONROE STREET,+DUNKIRK,+NY+14048&hl=en"
CHAUTAUQUA COUNTY SHERIFF'S DEPARTMENT,CHAUTAUQUE MALL,318 EAST FAIRMOUNT AVE,LAKEWOOD,NY,14750,"http://maps.google.com/maps?q=318 EAST FAIRMOUNT AVE,+LAKEWOOD,+NY+14750&hl=en"
CHAUTAUQUA COUNTY SHERIFF'S DEPARTMENT,SOUTHSIDE PHARMACY,766 FOOTE AVE.,JAMESTOWN,NY,14701,"http://maps.google.com/maps?q=766 FOOTE AVE.,+JAMESTOWN,+NY+14701&hl=en"
CHAUTAUQUA COUNTY SHERIFF'S DEPARTMENT,WESTFIELD FAMILY PHYSICIANS,138 E. MAIN ST.,WESTFIELD,NY,14787,"http://maps.google.com/maps?q=138 E. MAIN ST.,+WESTFIELD,+NY+14787&hl=en"
CHEEKTOWAGA POLICE DEPARTMENT,ST. JOSEPH'S HOSPITAL,2605 HARLEM RD.,BUFFALO,NY,14227,"http://maps.google.com/maps?q=2605 HARLEM RD.,+BUFFALO,+NY+14227&hl=en"
CHENANGO COUNTY SHERIFF'S OFFICE,GREENE FIRE DEPARTMENT,NORTH CANAL STREET,GREENE,NY,13778,"http://maps.google.com/maps?q=NORTH CANAL STREET,+GREENE,+NY+13778&hl=en"
CHENANGO COUNTY SHERIFF'S OFFICE,NORTH NORWICH FIRE DEPARTMENT,108 BEACH LANE,NORTH NORWICH,NY,13814,"http://maps.google.com/maps?q=108 BEACH LANE,+NORTH NORWICH,+NY+13814&hl=en"
CHITTENANGO POLICE DEPARTMENT,KINNEY DRUGS,540 GENESEE ST.,CHITTENANGO,NY,13037,"http://maps.google.com/maps?q=540 GENESEE ST.,+CHITTENANGO,+NY+13037&hl=en"
CHITTENANGO POLICE DEPARTMENT,MEDICINE SHOPPE,1315 W GENESEE STREET,CHITTENANGO,NY,13037,"http://maps.google.com/maps?q=1315 W GENESEE STREET,+CHITTENANGO,+NY+13037&hl=en"
CHITTENANGO POLICE DEPARTMENT,POLICE HQS,222 GENESEE STREET,CHITTENANGO,NY,13037,"http://maps.google.com/maps?q=222 GENESEE STREET,+CHITTENANGO,+NY+13037&hl=en"
CICERO POLICE DEPARTMENT,KINNEY DRUGS,8150 THOMPSON RD.,CICERO,NY,13039,"http://maps.google.com/maps?q=8150 THOMPSON RD.,+CICERO,+NY+13039&hl=en"
CICERO POLICE DEPARTMENT,WALGREEN'S PARKING LOT,6189 ROUTE 31,CICERO,NY,13039,"http://maps.google.com/maps?q=6189 ROUTE 31,+CICERO,+NY+13039&hl=en"
CITY OF EASTON POLICE DEPT,CITY OF EASTON POLICE DEPT,48 N 4TH ST,EASTON,PA,18042,"http://maps.google.com/maps?q=48 N 4TH ST,+EASTON,+PA+18042&hl=en"
CITY OF ERIE BUREAU OF POLICE,CITY OF ERIE MUNICIPAL BUILDING,626 STATE STREET,ERIE,PA,16501,"http://maps.google.com/maps?q=626 STATE STREET,+ERIE,+PA+16501&hl=en"
CITY OF WARREN POLICE DEPARTMENT,WARREN POLICE DEPARTMENT,318 W. THIRD AVENUE,WARREN,PA,16365,"http://maps.google.com/maps?q=318 W. THIRD AVENUE,+WARREN,+PA+16365&hl=en"
COAL TOWNSHIP POLICE DEPARTMENT,COAL TOWNSHIP POLICE DEPARTMENT,805 W. LYNN STREET,COAL TOWNSHIP,PA,17866,"http://maps.google.com/maps?q=805 W. LYNN STREET,+COAL TOWNSHIP,+PA+17866&hl=en"
CONNEAUT POLICE DEPARTMENT,CONNEAUT POLICE DEPARTMENT,294 MAIN ST,CONNEAUT,OH,44030,"http://maps.google.com/maps?q=294 MAIN ST,+CONNEAUT,+OH+44030&hl=en"
CORTLAND POLICE DEPARTMENT,CORTLAND POLICE DEPARTMENT,400 N. HIGH STREET,CORTLAND,OH,44410,"http://maps.google.com/maps?q=400 N. HIGH STREET,+CORTLAND,+OH+44410&hl=en"
DANVILLE POLICE DEPARTMENT,DANVILLE POLICE DEPARTMENT,453 MILL STREET,DANVILLE,PA,17821,"http://maps.google.com/maps?q=453 MILL STREET,+DANVILLE,+PA+17821&hl=en"
DEA NEW YORK DIVISION,"DEPARTMENT OF FAMILY SERVICES ROBERT TRAVIS BLDG 
												
													SUSAN CLARK",16 COMMUNITY LANE,LIBERTY,NY,12754,"http://maps.google.com/maps?q=16 COMMUNITY LANE,+LIBERTY,+NY+12754&hl=en"
DEA NEW YORK DIVISION,"FALLSBURG POLICE STATION 
												
													ALETA M. GOMEZ 845.794.8080  X170",19 RAILROAD PLAZA,SOUTH FALLSBURG,NY,12779,"http://maps.google.com/maps?q=19 RAILROAD PLAZA,+SOUTH FALLSBURG,+NY+12779&hl=en"
DEA NEW YORK DIVISION,"JEFFERSON PHARMACY 
												
													SUSAN CLARK",4892 MAIN STREET,JEFFERSONVILLE,NY,12748,"http://maps.google.com/maps?q=4892 MAIN STREET,+JEFFERSONVILLE,+NY+12748&hl=en"
DEA NEW YORK DIVISION,"LIBERTY POLICE DEPARTMENT 
												
													ALETA M. GOMEZ  845.794.8080  X170",159 NORTH MAIN STREET,LIBERTY,NY,12754,"http://maps.google.com/maps?q=159 NORTH MAIN STREET,+LIBERTY,+NY+12754&hl=en"
DEA NEW YORK DIVISION,"RIVRESIDE REMEDIES 
												
													SUSAN CLARK",39 LOWER MAIN STREET,CALLICOON,NY,12723,"http://maps.google.com/maps?q=39 LOWER MAIN STREET,+CALLICOON,+NY+12723&hl=en"
DEA NEW YORK DIVISION,"TUSTEN TOWN 
												
													SUSAN CLARK",210 BRIDGE STREET,NARROWSBURG,NY,12764,"http://maps.google.com/maps?q=210 BRIDGE STREET,+NARROWSBURG,+NY+12764&hl=en"
DEWITT POLICE DEPARTMENT,KINNEY DRUGS,307 NOTTINGHAM ROAD,SYRACUSE,NY,13210,"http://maps.google.com/maps?q=307 NOTTINGHAM ROAD,+SYRACUSE,+NY+13210&hl=en"
DURYEA POLICE DEPARTMENT,DURYEA BOROUGH  TOWN HALL BUILDING,315 MAIN STREET,DURYEA,PA,18642,"http://maps.google.com/maps?q=315 MAIN STREET,+DURYEA,+PA+18642&hl=en"
ERIE COUNTY SHERIFF'S OFFICE,BERTRAND CHAFFEE HOSPITAL,224 E. MAIN STREET,SPRINGVILLE,NY,14141,"http://maps.google.com/maps?q=224 E. MAIN STREET,+SPRINGVILLE,+NY+14141&hl=en"
EVANS POLICE DEPARTMENT,EVANS MUNICIPAL CENTER,8787 ERIE RD. RT. #5,ANGOLA,NY,14006,"http://maps.google.com/maps?q=8787 ERIE RD. RT. #5,+ANGOLA,+NY+14006&hl=en"
FOREST CITY POLICE,FOREST CITY AREA EMERGENCY SERVICES,380 RAILROAD STREET,FOREST CITY,PA,18421,"http://maps.google.com/maps?q=380 RAILROAD STREET,+FOREST CITY,+PA+18421&hl=en"
FULTON COUNTY SHERIFF'S OFFICE,"FULTON COUNTY SHERIFF OFFICE 
												
													DAVID TOWNE",2712 STATE HIGHWAY 29,JOHNSTOWN,NY,12095,"http://maps.google.com/maps?q=2712 STATE HIGHWAY 29,+JOHNSTOWN,+NY+12095&hl=en"
FULTON COUNTY SHERIFF'S OFFICE,FULTON COUNTY SHERIFF'S OFFICE,2712 STATE HWY 29,JOHNSTOWN,NY,12095,"http://maps.google.com/maps?q=2712 STATE HWY 29,+JOHNSTOWN,+NY+12095&hl=en"
GEAUGA COUNTY SHERIFF'S OFFICE,CHARDON POLICE DEPARTMENT,111 WATER STREET,CHARDON,OH,44024,"http://maps.google.com/maps?q=111 WATER STREET,+CHARDON,+OH+44024&hl=en"
GEAUGA COUNTY SHERIFF'S OFFICE,MIDDLEFILED POLICE DEPARTMENT,14860 N. STATE AVE,MIDDLEFIELD,OH,44062,"http://maps.google.com/maps?q=14860 N. STATE AVE,+MIDDLEFIELD,+OH+44062&hl=en"
GENESEE COUNTY SHERIFF'S DEPARTMENT,PEMBROKE TOWN HIGWAY BARNS,ROUTES 5 & 77,EAST PEMBROKE,NY,14056,"http://maps.google.com/maps?q=ROUTES 5 & 77,+EAST PEMBROKE,+NY+14056&hl=en"
GLOVERSVILLE POLICE DEPARTMENT,GLOVERSVILLE POLICE DEPARTMENT,3 FRONTAGE ROAD,GLOVERSVILLE,NY,12078,"http://maps.google.com/maps?q=3 FRONTAGE ROAD,+GLOVERSVILLE,+NY+12078&hl=en"
GRAND ISLAND POLICE DEPARTMENT,GRAND ISLAND POLICE DEPT,2255 BASELINE ROAD,GRAND ISLAND,NY,14072,"http://maps.google.com/maps?q=2255 BASELINE ROAD,+GRAND ISLAND,+NY+14072&hl=en"
GREAT BEND POLICE DEPARTMENT,GREAT BEND POLICE STATION,335 WASHINGTON STREET,GREAT BEND,PA,18821,"http://maps.google.com/maps?q=335 WASHINGTON STREET,+GREAT BEND,+PA+18821&hl=en"
HAMBURG POLICE DEPARTMENT,"TOWN OF HAMBURG DEPT. OF YOUTH 
												
													RECREATION & SENIOR SERVICES",4540 SOUTHWESTERN BLVD.,HAMBURG,NY,14075,"http://maps.google.com/maps?q=4540 SOUTHWESTERN BLVD.,+HAMBURG,+NY+14075&hl=en"
HAMILTON COLLEGE CAMPUS SAFETY,HAMILTON COLLEGE CAMPUS SAFETY,198 COLLEGE HILL ROAD,CLINTON,NY,13323,"http://maps.google.com/maps?q=198 COLLEGE HILL ROAD,+CLINTON,+NY+13323&hl=en"
HAMILTON COUNTY SHERIFF'S OFFICE,HAMILTON COUNTY JAIL,102 COUNTY VIEW DRIVE,LAKE PLEASANT,NY,12108,"http://maps.google.com/maps?q=102 COUNTY VIEW DRIVE,+LAKE PLEASANT,+NY+12108&hl=en"
HAVERSTRAW POLICE DEPARTMENT,CVS,12 WEST RAMAPO ROAD,GARNERVILLE,NY,10923,"http://maps.google.com/maps?q=12 WEST RAMAPO ROAD,+GARNERVILLE,+NY+10923&hl=en"
HERKIMER COUNTY SHERIFF'S OFFICE,HERKIMER COUNTY SHERIFF'S OFFICE,320 NORTH MAIN STREETSUITE 2900,HERKIMER,NY,13350,"http://maps.google.com/maps?q=320 NORTH MAIN STREET,+HERKIMER,+NY+13350&hl=en"
HOPATCONG BOROUGH POLICE DEPARTMENT,"HOPATCONG POLICE DEPARTMENT 
												
													973-398-5000",111 RIVER STYX RD,HOPATCONG,NJ,07843,"http://maps.google.com/maps?q=111 RIVER STYX RD,+HOPATCONG,+NJ+07843&hl=en"
HUBBARD CITY POLICE DEPARTMENT,HUBBARD CITY POLICE DEPARTMENT,233 SCHOOL STREET,HUBBARD,OH,44425,"http://maps.google.com/maps?q=233 SCHOOL STREET,+HUBBARD,+OH+44425&hl=en"
ILION POLICE DEPARTMENT,KINNEY DRUGS,40 1ST  STREET,ILION,NY,13357,"http://maps.google.com/maps?q=40 1ST  STREET,+ILION,+NY+13357&hl=en"
ITHACA POLICE DEPARTMENT,KINNEY DRUGS,513 N CAYUGA ST.,ITHACA,NY,14850,"http://maps.google.com/maps?q=513 N CAYUGA ST.,+ITHACA,+NY+14850&hl=en"
JAMESTOWN POLICE DEPARTMENT,JAMESTOWN PHARMACY,121 LIBERTY STREET,JAMESTOWN,PA,16134,"http://maps.google.com/maps?q=121 LIBERTY STREET,+JAMESTOWN,+PA+16134&hl=en"
JEFFERSON TWP. POLICE DEPARTMENT,"JEFFERSON TWP. MUNICIPAL BUILDING 
												
													973-697-1300",1033 WELDON ROAD,OAK RIDGE,NJ,07438,"http://maps.google.com/maps?q=1033 WELDON ROAD,+OAK RIDGE,+NJ+07438&hl=en"
KINGSTON TOWNSHIP POLICE DEPARTMENT,KINGSTON TOWNSHIP POLICE DEPARTMENT,180 EAST CENTER STREET,SHAVERTOWN,PA,18708,"http://maps.google.com/maps?q=180 EAST CENTER STREET,+SHAVERTOWN,+PA+18708&hl=en"
KIRKLAND POLICE DEPARTMENT,KINNEY DRUGS,12 FRANKLIN AVE.,CLINTON,NY,13323,"http://maps.google.com/maps?q=12 FRANKLIN AVE.,+CLINTON,+NY+13323&hl=en"
KULPMONT POLICE DEPARTMENT,KULPMONT POLICE DEPARTMENT,9 NORTH 8TH STREET,KULPMONT,PA,17834,"http://maps.google.com/maps?q=9 NORTH 8TH STREET,+KULPMONT,+PA+17834&hl=en"
LACKAWANNA POLICE DEPARTMENT,LACKAWANNA POLICE DEPARTMENT,714 RIDGE ROAD,BUFFALO,NY,14218,"http://maps.google.com/maps?q=714 RIDGE ROAD,+BUFFALO,+NY+14218&hl=en"
LAKE COUNTY NARCOTICS AGENCY,LAKE COUNTY CRIME LABORATORY,235 FAIRGROUNDS ROAD,PAINESVILLE,OH,44077,"http://maps.google.com/maps?q=235 FAIRGROUNDS ROAD,+PAINESVILLE,+OH+44077&hl=en"
LAKE COUNTY NARCOTICS AGENCY,TRIPOINT MEDICAL CENTER,7590 AUBURN ROAD,PAINESVILLE,OH,44077,"http://maps.google.com/maps?q=7590 AUBURN ROAD,+PAINESVILLE,+OH+44077&hl=en"
LANCASTER POLICE DEPARTMENT,TWIN DISTRICT FIRE DEPARTMENT,4999 WILLIAM STREET,LANCASTER,NY,14086,"http://maps.google.com/maps?q=4999 WILLIAM STREET,+LANCASTER,+NY+14086&hl=en"
LEROY POLICE DEPARTMENT,"LEROY POLICE DEPARTMENT 
												
													VILLAGE HALL",3 WEST MAIN STREETRTS 5 & 19,LE ROY,NY,14482,"http://maps.google.com/maps?q=3 WEST MAIN STREET,+LE ROY,+NY+14482&hl=en"
LIBERTY TOWNSHIP POLICE DEPARTMENT,LIBERTY TOWNSHIP GOVERNMENT BUILDING,1315 CHURCHILL-HUBBARD ROAD,YOUNGSTOWN,OH,44505,"http://maps.google.com/maps?q=1315 CHURCHILL-HUBBARD ROAD,+YOUNGSTOWN,+OH+44505&hl=en"
LOWVILLE POLICE DEPARTMENT,KINNEY DRUGS,7395 UTICA BLVD.,LOWVILLE,NY,13367,"http://maps.google.com/maps?q=7395 UTICA BLVD.,+LOWVILLE,+NY+13367&hl=en"
MANLIUS TOWN POLICE DEPARTMENT,POLICE HQ,1 ARKIE ALBANESE AVE,MANLIUS,NY,13104,"http://maps.google.com/maps?q=1 ARKIE ALBANESE AVE,+MANLIUS,+NY+13104&hl=en"
MANSFIELD BOROUGH POLICE DEPARTMENT,MANSFIELD BOROUGH POLICE DEPARTMENT,14 SOUTH MAIN STREET,MANSFIELD,PA,16933,"http://maps.google.com/maps?q=14 SOUTH MAIN STREET,+MANSFIELD,+PA+16933&hl=en"
MILLCREEK TOWNSHIP POLICE DEPARTMENT,MILLCREEK TOWNSHIP,3608 WEST 26TH STREET,ERIE,PA,16506,"http://maps.google.com/maps?q=3608 WEST 26TH STREET,+ERIE,+PA+16506&hl=en"
MILTON TOWNSHIP POLICE DISTRICT,MILTON TOWNSHIP POLICE DEPARTMENT,15992 MILTON AVE.,LAKE MILTON,OH,44429,"http://maps.google.com/maps?q=15992 MILTON AVE.,+LAKE MILTON,+OH+44429&hl=en"
MONTICELLO POLICE DEPARTMENT,"MONTICELLO POLICE DEPT 
												
													CHIEF MUIR",2 PLEASANT STREET,MONTICELLO,NY,12701,"http://maps.google.com/maps?q=2 PLEASANT STREET,+MONTICELLO,+NY+12701&hl=en"
MONTOUR COUNTY SHERIFF'S OFFICE,MONTOUR COUNTY COURTHOUSE,253 MILL ST,DANVILLE,PA,17821,"http://maps.google.com/maps?q=253 MILL ST,+DANVILLE,+PA+17821&hl=en"
MOSCOW BOROUGH POLICE DEPARTMENT,MOSCOW BOROUGH MUNICIPAL BUILDING,123 VAN BRUNT ST,MOSCOW,PA,18444,"http://maps.google.com/maps?q=123 VAN BRUNT ST,+MOSCOW,+PA+18444&hl=en"
MOUNT CARMEL BOROUGH POLICE,MOUNT CARMEL BOROUGH POLICE DEPARTMENT,137 WEST FOURTH STREET,MOUNT CARMEL,PA,17851,"http://maps.google.com/maps?q=137 WEST FOURTH STREET,+MOUNT CARMEL,+PA+17851&hl=en"
MOUNT CARMEL TWP POLICE DEPARTMENT,MOUNT CARMEL BOROUGH POLICE DEPARTMENT,300 LAUREL STREET,MOUNT CARMEL,PA,17851,"http://maps.google.com/maps?q=300 LAUREL STREET,+MOUNT CARMEL,+PA+17851&hl=en"
NESHANNOCK TWP POLICE DEPARTMENT,NESHANNOCK TWP. POLICE DEPARTMETN,3131 MERCER ROAD,NEW CASTLE,PA,16105,"http://maps.google.com/maps?q=3131 MERCER ROAD,+NEW CASTLE,+PA+16105&hl=en"
NEW CASTLE POLICE DEPARTMENT,NEW CASTLE POLICE DEPARTMENT,303 EAST NORTH STREET,NEW CASTLE,PA,16101,"http://maps.google.com/maps?q=303 EAST NORTH STREET,+NEW CASTLE,+PA+16101&hl=en"
NEW HARTFORD POLICE DEPARTMENT,NEW HARTFORD POLICE DEPARTMENT,32 KELLOGG RD,NEW HARTFORD,NY,13413,"http://maps.google.com/maps?q=32 KELLOGG RD,+NEW HARTFORD,+NY+13413&hl=en"
NEW MIDDLETOWN POLICE DEPT,NEW MIDDLETOWN MUNICIPAL BUILDING,10711 MAIN STREET,NEW MIDDLETOWN,OH,44442,"http://maps.google.com/maps?q=10711 MAIN STREET,+NEW MIDDLETOWN,+OH+44442&hl=en"
NEW PALTZ POLICE DEPARTMENT,POLICE STATION,83 S. PUTT CORNERS RD.,NEW PALTZ,NY,12561,"http://maps.google.com/maps?q=83 S. PUTT CORNERS RD.,+NEW PALTZ,+NY+12561&hl=en"
NEWTON POLICE DEPARTMENT,NEWTON POLICE DEPARTMENT,39 TRINITY STREET,NEWTON,NJ,07860,"http://maps.google.com/maps?q=39 TRINITY STREET,+NEWTON,+NJ+07860&hl=en"
NIAGARA COUNTY NY SHERIFF'S OFFICE,MT. ST. MARY'S HOSPITAL,5300 MILITARY ROAD,LEWISTON,NY,14092,"http://maps.google.com/maps?q=5300 MILITARY ROAD,+LEWISTON,+NY+14092&hl=en"
NORTH COLLINS POLICE DEPARTMENT,NORTH COLLINS POLICE DEPARTMENT,10543 MAIN STREET,NORTH COLLINS,NY,14111,"http://maps.google.com/maps?q=10543 MAIN STREET,+NORTH COLLINS,+NY+14111&hl=en"
NORTH TONAWANDA POLICE DEPARTMENT,DEGRAFF MEMORIAL HOSPITAL,445 TREMONT STREET,NORTH TONAWANDA,NY,14120,"http://maps.google.com/maps?q=445 TREMONT STREET,+NORTH TONAWANDA,+NY+14120&hl=en"
NORTHUMBERLAND POLICE DEPT,NORRY PHARMACY,125 DUKE ST,NORTHUMBERLAND,PA,17857,"http://maps.google.com/maps?q=125 DUKE ST,+NORTHUMBERLAND,+PA+17857&hl=en"
NORWICH POLICE DEPARTMENT,"NORWICH POLICE DEPARTMENT 
												
													POLICE HQ",18 E. MAIN STREET,NORWICH,NY,13815,"http://maps.google.com/maps?q=18 E. MAIN STREET,+NORWICH,+NY+13815&hl=en"
NYS UNIVERSITY POLICE @ ONEONTA,"NYS UNIVERSITY POLICE 
												
													SUNY ONEONTA",ALUMNI HALL51 SOUTH WEST DORM DRIVE,ONEONTA,NY,13820,"http://maps.google.com/maps?q=ALUMNI HALL,+ONEONTA,+NY+13820&hl=en"
OAKLAND POLICE DEPARTMENT,OAKLAND POLICE DEPARTMENT,295 RAMAPO VALLEY ROAD,OAKLAND,NJ,07436,"http://maps.google.com/maps?q=295 RAMAPO VALLEY ROAD,+OAKLAND,+NJ+07436&hl=en"
OLD FORGE POLICE DEPARTMENT,CVS PHARMACY,101 S. MAIN STREET,OLD FORGE,PA,18518,"http://maps.google.com/maps?q=101 S. MAIN STREET,+OLD FORGE,+PA+18518&hl=en"
OLYPHANT POLICE DEPARTMENT,OLYPHANT BOROUGH POLICE STATION,604 EAST PARK STREET,OLYPHANT,PA,18447,"http://maps.google.com/maps?q=604 EAST PARK STREET,+OLYPHANT,+PA+18447&hl=en"
ONEIDA INDIAN NATION POLICE DEPARTMENT,TURNING STONE CASINO EVENT CENTER ENTRANCE,5218 PATRICK ROAD,VERONA,NY,13478,"http://maps.google.com/maps?q=5218 PATRICK ROAD,+VERONA,+NY+13478&hl=en"
ONEONTA POLICE DEPARTMENT,POLICE DEPARTMENT,79 MAIN STREET,ONEONTA,NY,13820,"http://maps.google.com/maps?q=79 MAIN STREET,+ONEONTA,+NY+13820&hl=en"
ONTARIO COUNTY OFFICE OF SHERIFF,"WEGMANS FOOD MARKET 
												
													EVENT ON  APRIL 28, 2018",345 EASTERN BLVD,CANANDAIGUA,NY,14424,"http://maps.google.com/maps?q=345 EASTERN BLVD,+CANANDAIGUA,+NY+14424&hl=en"
ORCHARD PARK POLICE DEPARTMENT,MERCY AMBULATORY CENTER,3669 SOUTHWESTERN BLVD.,ORCHARD PARK,NY,14127,"http://maps.google.com/maps?q=3669 SOUTHWESTERN BLVD.,+ORCHARD PARK,+NY+14127&hl=en"
ORLEANS COUNTY SHERIFF'S OFFICE,HOLLEY FIRE DEPARTMENT,7 THOMAS STREET,HOLLEY,NY,14470,"http://maps.google.com/maps?q=7 THOMAS STREET,+HOLLEY,+NY+14470&hl=en"
ORLEANS COUNTY SHERIFF'S OFFICE,MEDINA FIRE DEPARTMENT,600 MAIN STREET,MEDINA,NY,14103,"http://maps.google.com/maps?q=600 MAIN STREET,+MEDINA,+NY+14103&hl=en"
ORLEANS COUNTY SHERIFF'S OFFICE,PUBLIC SAFETY BUILDING,13925 STATE ROUTE 31,ALBION,NY,14411,"http://maps.google.com/maps?q=13925 STATE ROUTE 31,+ALBION,+NY+14411&hl=en"
OSWEGO POLICE DEPARTMENT,KINNEY DRUGS,174 W. BRIDGE STREET,OSWEGO,NY,13126,"http://maps.google.com/maps?q=174 W. BRIDGE STREET,+OSWEGO,+NY+13126&hl=en"
OSWEGO POLICE DEPARTMENT,"OSWEGO POLICE DEPARTMENT 
												
													POLICE HQ",169 WEST 2ND STREET,OSWEGO,NY,13126,"http://maps.google.com/maps?q=169 WEST 2ND STREET,+OSWEGO,+NY+13126&hl=en"
OXFORD POLICE DEPARTMENT,"OXFORD POLICE DEPARTMENT 
												
													POLICE HQ",20 LAFAYETTE PARK,OXFORD,NY,13830,"http://maps.google.com/maps?q=20 LAFAYETTE PARK,+OXFORD,+NY+13830&hl=en"
PENNSYLVANIA STATE POLICE TROOP M BETHLEHEM,PA STATE POLICE,2960 AIRPORT RD,BETHLEHEM,PA,18017,"http://maps.google.com/maps?q=2960 AIRPORT RD,+BETHLEHEM,+PA+18017&hl=en"
PERRY VILLAGE PD (LAKE CO),"PERRY VILLAGE POLICE DEPARTMENT 
												
													CHIEF TROY HAGER",3758 CENTER RD.PERRY,PERRY,OH,44081,"http://maps.google.com/maps?q=3758 CENTER RD.,+PERRY,+OH+44081&hl=en"
PLAINS TWP POLICE DEPT,PLAINS TWP PD,126 NORTH MAIN ST,WILKES BARRE,PA,18705,"http://maps.google.com/maps?q=126 NORTH MAIN ST,+WILKES BARRE,+PA+18705&hl=en"
POCONO MOUNTAIN REGIONAL POLICE DEPT.,POCONO MOUNTAIN REGIONAL POLICE DEPARTMENT,2454 ROUTE 940,POCONO SUMMIT,PA,18346,"http://maps.google.com/maps?q=2454 ROUTE 940,+POCONO SUMMIT,+PA+18346&hl=en"
POCONO MOUNTAIN REGIONAL POLICE DEPT.,"ST LUKES UNIVERSAL HEALTH NETWORK 
												
													MONROE CAMPUS",100 ST LUKES LN,STROUDSBURG,PA,18360,"http://maps.google.com/maps?q=100 ST LUKES LN,+STROUDSBURG,+PA+18360&hl=en"
PORT JERVIS CITY POLICE DEPARTMENT,PORT JERVIS POLICE DEPARTMENT,20 HAMMOND STREET,PORT JERVIS,NY,12771,"http://maps.google.com/maps?q=20 HAMMOND STREET,+PORT JERVIS,+NY+12771&hl=en"
PULASKI POLICE DEPARTMENT,KINNEY DRUGS,3873 ROME ROAD,PULASKI,NY,13142,"http://maps.google.com/maps?q=3873 ROME ROAD,+PULASKI,+NY+13142&hl=en"
PUNXSUTAWNEY BOROUGH POLICE DEPARTMENT,PUNXSY HOMETOWN PHARMACY,203 HAMPTON ROAD,PUNXSUTAWNEY,PA,15767,"http://maps.google.com/maps?q=203 HAMPTON ROAD,+PUNXSUTAWNEY,+PA+15767&hl=en"
ROME POLICE DEPARTMENT,POLICE HQ,301 N. JAMES ST.,ROME,NY,13440,"http://maps.google.com/maps?q=301 N. JAMES ST.,+ROME,+NY+13440&hl=en"
ROTTERDAM POLICE DEPARTMENT,ROTTERDAM PD,101 PRINCETOWN ROAD,ROTTERDAM,NY,12306,"http://maps.google.com/maps?q=101 PRINCETOWN ROAD,+ROTTERDAM,+NY+12306&hl=en"
SCHENECTADY COUNTY SHERIFF'S OFFICE,SCHENECTADY COUNTY SHERIFF'S SUBSTATION,130 PRINCETOWN PLAZA,SCHENECTADY,NY,12306,"http://maps.google.com/maps?q=130 PRINCETOWN PLAZA,+SCHENECTADY,+NY+12306&hl=en"
SCHENECTADY POLICE DEPARTMENT,SCHENECTADY POLICE DEPARTMENT,531 LIBERTY ST.,SCHENECTADY,NY,12305,"http://maps.google.com/maps?q=531 LIBERTY ST.,+SCHENECTADY,+NY+12305&hl=en"
SCHOHARIE COUNTY SHERIFF'S DEPARTMENT,COUNTY EMERGENCY OPERATIONS CENTER,2783 STATE ROUTE 7,COBLESKILL,NY,12043,"http://maps.google.com/maps?q=2783 STATE ROUTE 7,+COBLESKILL,+NY+12043&hl=en"
SCHUYLER COUNTY SHERIFF'S OFFICE,"ODESSA FIRE DEPARTMENT 
												
													28 APRIL 2018",300 EAST MAIN STREET,ODESSA,NY,14869,"http://maps.google.com/maps?q=300 EAST MAIN STREET,+ODESSA,+NY+14869&hl=en"
SCHUYLER COUNTY SHERIFF'S OFFICE,SCHUYLER COUNTY HUMAN SERVICES COMPLEX,323 OWEGO STREET,MONTOUR FALLS,NY,14865,"http://maps.google.com/maps?q=323 OWEGO STREET,+MONTOUR FALLS,+NY+14865&hl=en"
SCHUYLER COUNTY SHERIFF'S OFFICE,"TYRONE FIRE DEPARTMENT 
												
													28 APRIL 2018",3600 STATE RTE 226,TYRONE,NY,14887,"http://maps.google.com/maps?q=3600 STATE RTE 226,+TYRONE,+NY+14887&hl=en"
SCHUYLKILL COUNTY SHERIFF'S OFFICE,ASHLAND POLICE DEPARTMENT,401 SOUTH 18TH STREET,ASHLAND,PA,17921,"http://maps.google.com/maps?q=401 SOUTH 18TH STREET,+ASHLAND,+PA+17921&hl=en"
SCHUYLKILL COUNTY SHERIFF'S OFFICE,BUTLER TOWNSHIP POLICE DEPARTMENT,211 BROAD STREET,ASHLAND,PA,17921,"http://maps.google.com/maps?q=211 BROAD STREET,+ASHLAND,+PA+17921&hl=en"
SCHUYLKILL COUNTY SHERIFF'S OFFICE,CASS TOWNSHIP POLICE DEPARTMENT,1209 VALLEY ROAD,POTTSVILLE,PA,17901,"http://maps.google.com/maps?q=1209 VALLEY ROAD,+POTTSVILLE,+PA+17901&hl=en"
SCHUYLKILL COUNTY SHERIFF'S OFFICE,COALDALE POLICE DEPARTMENT,221-223 3RD STREET,COALDALE,PA,18218,"http://maps.google.com/maps?q=221-223 3RD STREET,+COALDALE,+PA+18218&hl=en"
SCHUYLKILL COUNTY SHERIFF'S OFFICE,FRACKVILLE POLICE DEPARTMENT,42 SOUTH CENTER STREET,FRACKVILLE,PA,17931,"http://maps.google.com/maps?q=42 SOUTH CENTER STREET,+FRACKVILLE,+PA+17931&hl=en"
SCHUYLKILL COUNTY SHERIFF'S OFFICE,GIRARDVILLE POLICE DEPARTMENT,4TH & B. STREET,GIRARDVILLE,PA,17935,"http://maps.google.com/maps?q=4TH & B. STREET,+GIRARDVILLE,+PA+17935&hl=en"
SCHUYLKILL COUNTY SHERIFF'S OFFICE,HOMETOWN AUCTION,125 MAHANOY AVE RT 54,TAMAQUA,PA,18252,"http://maps.google.com/maps?q=125 MAHANOY AVE RT 54,+TAMAQUA,+PA+18252&hl=en"
SCHUYLKILL COUNTY SHERIFF'S OFFICE,MAHANOY CITY POLICE DEPARTMENT,239 EAST PINE STREET,MAHANOY CITY,PA,17948,"http://maps.google.com/maps?q=239 EAST PINE STREET,+MAHANOY CITY,+PA+17948&hl=en"
SCHUYLKILL COUNTY SHERIFF'S OFFICE,MINERSVILLE POLICE DEPARTMENT,15 NORTH DELAWARE AVENUE,MINERSVILLE,PA,17954,"http://maps.google.com/maps?q=15 NORTH DELAWARE AVENUE,+MINERSVILLE,+PA+17954&hl=en"
SCHUYLKILL COUNTY SHERIFF'S OFFICE,ORWIGSBURG POLICE DEPARTMENT,209 NORTH WARREN STREET,ORWIGSBURG,PA,17961,"http://maps.google.com/maps?q=209 NORTH WARREN STREET,+ORWIGSBURG,+PA+17961&hl=en"
SCHUYLKILL COUNTY SHERIFF'S OFFICE,PORT CARBON POLICE DEPARTMENT,90 WASHINGTON STREET,PORT CARBON,PA,17965,"http://maps.google.com/maps?q=90 WASHINGTON STREET,+PORT CARBON,+PA+17965&hl=en"
SCHUYLKILL COUNTY SHERIFF'S OFFICE,RUSH TOWNSHIP POLICE DEPT,104 MAHANOY AVE,TAMAQUA,PA,18252,"http://maps.google.com/maps?q=104 MAHANOY AVE,+TAMAQUA,+PA+18252&hl=en"
SCHUYLKILL COUNTY SHERIFF'S OFFICE,SAINT CLAIR POLICE DEPARTMENT,24 NORTH 2ND STREET,SAINT CLAIR,PA,17970,"http://maps.google.com/maps?q=24 NORTH 2ND STREET,+SAINT CLAIR,+PA+17970&hl=en"
SCHUYLKILL COUNTY SHERIFF'S OFFICE,SAINT LUKES MINERS CAMPUS,360 WEST RUDDLE ST,COALDALE,PA,18218,"http://maps.google.com/maps?q=360 WEST RUDDLE ST,+COALDALE,+PA+18218&hl=en"
SCHUYLKILL COUNTY SHERIFF'S OFFICE,"SCHUYLKILL COUNTY COURT HOUSE (SECURITY ENTRANCE) 
												
													SECURITY ENTRANCE",401 NORTH 2ND STREET,POTTSVILLE,PA,17901,"http://maps.google.com/maps?q=401 NORTH 2ND STREET,+POTTSVILLE,+PA+17901&hl=en"
SCHUYLKILL COUNTY SHERIFF'S OFFICE,SHENANDOAH POLICE DEPARTMENT,15 WEST WASHINGTON STREET,SHENANDOAH,PA,17976,"http://maps.google.com/maps?q=15 WEST WASHINGTON STREET,+SHENANDOAH,+PA+17976&hl=en"
SCHUYLKILL COUNTY SHERIFF'S OFFICE,TAMAQUA POLICE DEPARTMENT,320 BROAD STREET,TAMAQUA,PA,18252,"http://maps.google.com/maps?q=320 BROAD STREET,+TAMAQUA,+PA+18252&hl=en"
SCOTIA POLICE DEPARTMENT,SCOTIA POLICE DEPARTMENT,4 NORTH TEN BROECK STREET,SCOTIA,NY,12302,"http://maps.google.com/maps?q=4 NORTH TEN BROECK STREET,+SCOTIA,+NY+12302&hl=en"
SCRANTON POLICE DEPARTMENT,SCRANTON POLICE DEPARTMENT,100 S. WASHINGTON AVENUE,SCRANTON,PA,18503,"http://maps.google.com/maps?q=100 S. WASHINGTON AVENUE,+SCRANTON,+PA+18503&hl=en"
SHAMOKIN POLICE DEPARTMENT,SHAMOKIN POLICE DEPARTMENT,511 NORTH FRANKLIN STREET,SHAMOKIN,PA,17872,"http://maps.google.com/maps?q=511 NORTH FRANKLIN STREET,+SHAMOKIN,+PA+17872&hl=en"
SHERRILL POLICE DEPARTMENT,"SHERRILL POLICE DEPARTMENT 
												
													POLICE HQ",373 SHERRILL ROAD,SHERRILL,NY,13461,"http://maps.google.com/maps?q=373 SHERRILL ROAD,+SHERRILL,+NY+13461&hl=en"
SIDNEY POLICE DEPARTMENT,SIDNEY POLICE DEPARTMENT,21 LIBERTY STREET,SIDNEY,NY,13838,"http://maps.google.com/maps?q=21 LIBERTY STREET,+SIDNEY,+NY+13838&hl=en"
SOUTH WHITEHALL TWP POLICE DEPT,SOUTH WHITEHALL TWP POLICE DEPT,4444 WALBERT AVENUE,ALLENTOWN,PA,18104,"http://maps.google.com/maps?q=4444 WALBERT AVENUE,+ALLENTOWN,+PA+18104&hl=en"
SPRING VALLEY POLICE,SPRING VALLEY POLICE DEPARTMENT,200 NORTH MAIN STREET,SPRING VALLEY,NY,10977,"http://maps.google.com/maps?q=200 NORTH MAIN STREET,+SPRING VALLEY,+NY+10977&hl=en"
SPRING VALLEY POLICE,WALGREENS,208 E ROUTE 59,SPRING VALLEY,NY,10977,"http://maps.google.com/maps?q=208 E ROUTE 59,+SPRING VALLEY,+NY+10977&hl=en"
SULLIVAN COUNTY SHERIFF'S OFFICE,SULLIVAN COUNTY SHERIFF'S OFFICE,245 MUNCY ST,LAPORTE,PA,18626,"http://maps.google.com/maps?q=245 MUNCY ST,+LAPORTE,+PA+18626&hl=en"
SUMMIT HILL POLICE DEPARTMENT,SUMMIT HILL POLICE DEPARTMENT,"40 W. AMIDON STREET, SUITE 1",SUMMIT HILL,PA,18250,"http://maps.google.com/maps?q=40 W. AMIDON STREET, SUITE 1,+SUMMIT HILL,+PA+18250&hl=en"
SUSQUEHANNA BOROUGH POLICE,SCHNEIDER'S MARKET,171 ERIE BLVDSUITE 1,SUSQUEHANNA,PA,18847,"http://maps.google.com/maps?q=171 ERIE BLVD,+SUSQUEHANNA,+PA+18847&hl=en"
SUSQUEHANNA COUNTY SHERIFF'S OFFICE,SUSQUEHANNA COUNTY COURTHOUSE,31 LAKE AVENUE,MONTROSE,PA,18801,"http://maps.google.com/maps?q=31 LAKE AVENUE,+MONTROSE,+PA+18801&hl=en"
SYRACUSE POLICE DEPARTMENT,KINNEY DRUGS,104 LAFAYETTE RD.,SYRACUSE,NY,13205,"http://maps.google.com/maps?q=104 LAFAYETTE RD.,+SYRACUSE,+NY+13205&hl=en"
SYRACUSE POLICE DEPARTMENT,KINNEY DRUGS,2912 JAMES ST,SYRACUSE,NY,13206,"http://maps.google.com/maps?q=2912 JAMES ST,+SYRACUSE,+NY+13206&hl=en"
SYRACUSE POLICE DEPARTMENT,KINNEY DRUGS,406 BUTTERNUT STREET,SYRACUSE,NY,13208,"http://maps.google.com/maps?q=406 BUTTERNUT STREET,+SYRACUSE,+NY+13208&hl=en"
TIOGA COUNTY SHERIFF'S OFFICE,"TIOGA COUNTY SHERIFF'S OFFICE 
												
													TRINITY-CASA OF TIOGA",ACROSS FROM AGWAY6 MCMASTER ST.,OWEGO,NY,13827,"http://maps.google.com/maps?q=ACROSS FROM AGWAY,+OWEGO,+NY+13827&hl=en"
TOMPKINS COUNTY SHERIFF'S OFFICE,SHERIFF'S HQ,779 WARREN ROAD,ITHACA,NY,14850,"http://maps.google.com/maps?q=779 WARREN ROAD,+ITHACA,+NY+14850&hl=en"
TOMPKINS COUNTY SHERIFF'S OFFICE,SLATERVILLE FIRE STATION,2681 SLATERVILLE RD.,SLATERVILLE SPRINGS,NY,14881,"http://maps.google.com/maps?q=2681 SLATERVILLE RD.,+SLATERVILLE SPRINGS,+NY+14881&hl=en"
TONAWANDA POLICE DEPARTMENT,KENMORE MERCY HOSPITAL,2950 ELMWOOD AVENUE,KENMORE,NY,14217,"http://maps.google.com/maps?q=2950 ELMWOOD AVENUE,+KENMORE,+NY+14217&hl=en"
TOWN OF GLENVILLE,"GLENVILLE MUNICIPAL CENTER 
												
													POLICE ENTRANCE",18 GLENRIDGE RD.,GLENVILLE,NY,12302,"http://maps.google.com/maps?q=18 GLENRIDGE RD.,+GLENVILLE,+NY+12302&hl=en"
UH PORTAGE MEDICAL CENTER,UH PORTAGE MEDICAL CENTER,6847 N. CHESTNUT ST.,RAVENNA,OH,44266,"http://maps.google.com/maps?q=6847 N. CHESTNUT ST.,+RAVENNA,+OH+44266&hl=en"
UNIVERSITY OF PITTSBURGH MED CTR,UPMC HAMOT WOMEN'S HOSPITAL LOBBY,201 STATE STREET,ERIE,PA,16550,"http://maps.google.com/maps?q=201 STATE STREET,+ERIE,+PA+16550&hl=en"
UPMC HAMOT POLICE,HAMOT WOMEN'S HOSPITAL,104 2ND STREET,ERIE,PA,16550,"http://maps.google.com/maps?q=104 2ND STREET,+ERIE,+PA+16550&hl=en"
UTICA POLICE DEPARTMENT,POLICE HQ,413 ORISKANY ST. W,UTICA,NY,13502,"http://maps.google.com/maps?q=413 ORISKANY ST. W,+UTICA,+NY+13502&hl=en"
VILLAGE OF WESTFIELD POLICE DEPT,VILLAGE OF WESTFIELD PD,23 ELM STREET,WESTFIELD,NY,14787,"http://maps.google.com/maps?q=23 ELM STREET,+WESTFIELD,+NY+14787&hl=en"
WARREN COUNTY SHERIFF'S OFFICE,WARREN COUNTY SHERIFF'S OFFICE,407 MARKET STREET,WARREN,PA,16365,"http://maps.google.com/maps?q=407 MARKET STREET,+WARREN,+PA+16365&hl=en"
WELLSBORO POLICE DEPARTMENT,WELLSBORO POLICE DEPARTMENT,28 CRAFTON STREET,WELLSBORO,PA,16901,"http://maps.google.com/maps?q=28 CRAFTON STREET,+WELLSBORO,+PA+16901&hl=en"
WEST SENECA POLICE DEPARTMENT,WEST SENECA SENIOR CENTER,4620 SENECA STREET,WEST SENECA,NY,14224,"http://maps.google.com/maps?q=4620 SENECA STREET,+WEST SENECA,+NY+14224&hl=en"
WRIGHT TOWNSHIP POLICE DEPARTMENT,WRIGHT TOWNSHIP POLICE DEPARTMENT,321 SOUTH MOUNTAIN. BLVD.,MOUNTAIN TOP,PA,18707,"http://maps.google.com/maps?q=321 SOUTH MOUNTAIN. BLVD.,+MOUNTAIN TOP,+PA+18707&hl=en"
WYOMING COUNTY DISTRICT ATTORNEYS OFFIC DETECTIVES,CVS PHARMACY,BUSINESS ROUTE 6 AND SR 29,TUNKHANNOCK,PA,18657,"http://maps.google.com/maps?q=BUSINESS ROUTE 6 AND SR 29,+TUNKHANNOCK,+PA+18657&hl=en"
WYOMING COUNTY DISTRICT ATTORNEYS OFFIC DETECTIVES,LECH'S PHARMACY,SR0006,TUNKHANNOCK,PA,18657,"http://maps.google.com/maps?q=SR0006,+TUNKHANNOCK,+PA+18657&hl=en"
WYOMING COUNTY DISTRICT ATTORNEYS OFFIC DETECTIVES,RITE AID,420 TIOGA PLZ,TUNKHANNOCK,PA,18657,"http://maps.google.com/maps?q=420 TIOGA PLZ,+TUNKHANNOCK,+PA+18657&hl=en"
WYOMING COUNTY SHERIFF'S DEPARTMENT,ATTICA POLICE DEPARTMENT,43 EXCHNAGE STREET,ATTICA,NY,14011,"http://maps.google.com/maps?q=43 EXCHNAGE STREET,+ATTICA,+NY+14011&hl=en"
WYOMING COUNTY SHERIFF'S DEPARTMENT,PERRY POLICE DEPARTMENT,46 NORTH MAIN STREET,PERRY,NY,14530,"http://maps.google.com/maps?q=46 NORTH MAIN STREET,+PERRY,+NY+14530&hl=en"
WYOMING COUNTY SHERIFF'S DEPARTMENT,WYOMING COUNTY SHERIFF'S OFFICE,151 N. MAIN STREET,WARSAW,NY,14569,"http://maps.google.com/maps?q=151 N. MAIN STREET,+WARSAW,+NY+14569&hl=en"
YOUNGSTOWN STATE UNIVERSITY,YOUNGSTOWN STATE UNIVERSITY POLICE,266 WEST WOOD STREET,YOUNGSTOWN,OH,44555,"http://maps.google.com/maps?q=266 WEST WOOD STREET,+YOUNGSTOWN,+OH+44555&hl=en"
YOUNGSVILLE BOROUGH POLICE DEPARTMENT,YOUNGSVILLE MUNICIPAL BUILDING,40 RAILROAD STREET,YOUNGSVILLE,PA,16371,"http://maps.google.com/maps?q=40 RAILROAD STREET,+YOUNGSVILLE,+PA+16371&hl=en"
