Participant,CollectionSite,Address,City,State,Zip,MapURL
BAKER CITY POLICE DEPT,BAKER CITY POLICE DEPT,1768 AUBURN AVE,BAKER CITY,OR,97814,"http://maps.google.com/maps?q=1768 AUBURN AVE,+BAKER CITY,+OR+97814&hl=en"
BATTLE GROUND POLICE DEPARTMENT,BATTLE GROUND POLICE DEPARTMENT,507 SW 1ST STREET,BATTLE GROUND,WA,98604,"http://maps.google.com/maps?q=507 SW 1ST STREET,+BATTLE GROUND,+WA+98604&hl=en"
BEAVERTON POLICE DEPARTMENT,BEAVERTON POLICE STATION,4755 SW GRIFFITH DR,BEAVERTON,OR,97076,"http://maps.google.com/maps?q=4755 SW GRIFFITH DR,+BEAVERTON,+OR+97076&hl=en"
BEND POLICE DEPARTMENT,SHOPKO BEND,60 NE BEND RIVER MALL DRIVE,BEND,OR,97701,"http://maps.google.com/maps?q=60 NE BEND RIVER MALL DRIVE,+BEND,+OR+97701&hl=en"
BEND POLICE DEPARTMENT,WALGREENS,2727 NE HWY 20,BEND,OR,97701,"http://maps.google.com/maps?q=2727 NE HWY 20,+BEND,+OR+97701&hl=en"
BENTON COUNTY SHERIFF'S OFFICE,BENTON COUNTY FAIRGROUNDS,110 SW 53RD ST.,CORVALLIS,OR,97330,"http://maps.google.com/maps?q=110 SW 53RD ST.,+CORVALLIS,+OR+97330&hl=en"
BINGEN-WHITE SALMON POLICE DEPARTMENT,SKYLINE HOSPITAL,211 NE SKYLINE DRIVE,WHITE SALMON,WA,98672,"http://maps.google.com/maps?q=211 NE SKYLINE DRIVE,+WHITE SALMON,+WA+98672&hl=en"
BOARDMAN POLICE DEPARTMENT,BOARDMAN POLICE DEPARTMENT,200 CITY CENTER CIRCLE,BOARDMAN,OR,97818,"http://maps.google.com/maps?q=200 CITY CENTER CIRCLE,+BOARDMAN,+OR+97818&hl=en"
CALDWELL POLICE DEPARTMENT,CALDWELL POLICE DEPT,110 S 5TH AVE,CALDWELL,ID,83605,"http://maps.google.com/maps?q=110 S 5TH AVE,+CALDWELL,+ID+83605&hl=en"
CANBY POLICE DEPARTMENT,CANBY POLICE DEPT,1175 NW 3RD AVE,CANBY,OR,97013,"http://maps.google.com/maps?q=1175 NW 3RD AVE,+CANBY,+OR+97013&hl=en"
CLACKAMAS COUNTY SHERIFF'S OFFICE,CITY OF HAPPY VALLEY CITY HALL,16000 SE MISTY DRIVE,HAPPY VALLEY,OR,97086,"http://maps.google.com/maps?q=16000 SE MISTY DRIVE,+HAPPY VALLEY,+OR+97086&hl=en"
CLACKAMAS COUNTY SHERIFF'S OFFICE,PUBLIC SAFETY TRAINING CENTER,12700 SE 82ND AVE,CLACKAMAS,OR,97015,"http://maps.google.com/maps?q=12700 SE 82ND AVE,+CLACKAMAS,+OR+97015&hl=en"
COBURG POLICE DEPARTMENT,COBURG CITY HALL,91136 N WILLAMETTE ST,COBURG,OR,97408,"http://maps.google.com/maps?q=91136 N WILLAMETTE ST,+COBURG,+OR+97408&hl=en"
COLLEGE PLACE POLICE DEPARTMENT,WALMART SE CORNER OF PARKING LOT,1700 SE MEADOWBROOK BLVDALSO COLLECTING ON APRIL 29TH,COLLEGE PLACE,WA,99324,"http://maps.google.com/maps?q=1700 SE MEADOWBROOK BLVD,+COLLEGE PLACE,+WA+99324&hl=en"
"CONFEDERATED TRIBES OF COOS, UMPQUA, & SIUSLAW",CTCLUSI GOVERNMENT OFFICE,1245 FULTON AVE.,COOS BAY,OR,97420,"http://maps.google.com/maps?q=1245 FULTON AVE.,+COOS BAY,+OR+97420&hl=en"
COQUILLE POLICE DEPARTMENT,COQUILLE POLICE DEPT 10AM - 12PM,851 N CENTRAL BLVD,COQUILLE,OR,97423,"http://maps.google.com/maps?q=851 N CENTRAL BLVD,+COQUILLE,+OR+97423&hl=en"
CURRY COUNTY SHERIFF'S OFFICE,CURRY COUNTY SHERIFF'S OFFICE,29808 COLVIN ST,GOLD BEACH,OR,97444,"http://maps.google.com/maps?q=29808 COLVIN ST,+GOLD BEACH,+OR+97444&hl=en"
DEL NORTE COUNTY SHERIFF'S OFFICE,DEL NORTE COUNTY SHERIFF'S OFFICE,650 5TH STREET,CRESCENT CITY,CA,95531,"http://maps.google.com/maps?q=650 5TH STREET,+CRESCENT CITY,+CA+95531&hl=en"
DOUGLAS INTERAGENCY NARCOTICS TEAM,MYRTLE CREEK PUBLIC WORKS,400 SW HURST ST,MYRTLE CREEK,OR,97457,"http://maps.google.com/maps?q=400 SW HURST ST,+MYRTLE CREEK,+OR+97457&hl=en"
DRUG FREE IDAHO,ADA COUNTY SHERIFF'S OFFICE,7200 BARRISTER DRIVE,BOISE,ID,83704,"http://maps.google.com/maps?q=7200 BARRISTER DRIVE,+BOISE,+ID+83704&hl=en"
DRUG FREE IDAHO,BERNIE FISHER PARK (BY WATCHTOWER),201 W. MAIN STREET,KUNA,ID,83634,"http://maps.google.com/maps?q=201 W. MAIN STREET,+KUNA,+ID+83634&hl=en"
DRUG FREE IDAHO,FRED MEYER GARDEN CITY OF BOISE,5425 W. CHINDEN BLVD,GARDEN CITY,ID,83714,"http://maps.google.com/maps?q=5425 W. CHINDEN BLVD,+GARDEN CITY,+ID+83714&hl=en"
EAGLE POINT POLICE DEPT,EAGLE POINT POLICE STATION,17 BUCHANAN AVE S,EAGLE POINT,OR,97524,"http://maps.google.com/maps?q=17 BUCHANAN AVE S,+EAGLE POINT,+OR+97524&hl=en"
EMMETT POLICE DEPT,EMMETT POLICE DEPT (INSIDE POLICE LOBBY),501 E MAIN ST,EMMETT,ID,83617,"http://maps.google.com/maps?q=501 E MAIN ST,+EMMETT,+ID+83617&hl=en"
FRUITLAND POLICE DEPT,ST. LUKES MEDICAL EMERGENCY ROOM,1210 NW 16TH ST,FRUITLAND,ID,83619,"http://maps.google.com/maps?q=1210 NW 16TH ST,+FRUITLAND,+ID+83619&hl=en"
GILLIAM COUNTY SHERIFF'S OFFICE,ARLINGTON REGIONAL OFFICE,1320 LOCUST ST.,CONDON,OR,97823,"http://maps.google.com/maps?q=1320 LOCUST ST.,+CONDON,+OR+97823&hl=en"
GOLD BEACH POLICE DEPT,GOLD BEACH POLICE DEPT,29592 ELLENSBURG AVE,GOLD BEACH,OR,97444,"http://maps.google.com/maps?q=29592 ELLENSBURG AVE,+GOLD BEACH,+OR+97444&hl=en"
GRANTS PASS DEPT OF PUBLIC SAFETY,CITY HALL PARKING LOT,101 NW A ST,GRANTS PASS,OR,97526,"http://maps.google.com/maps?q=101 NW A ST,+GRANTS PASS,+OR+97526&hl=en"
HERMISTON POLICE DEPT,HERMISTON POLICE DEPT LOBBY,"330 S, 1ST ST",HERMISTON,OR,97838,"http://maps.google.com/maps?q=330 S, 1ST ST,+HERMISTON,+OR+97838&hl=en"
HILLSBORO POLICE DEPARTMENT,HILLSBORO POLICE DEPARTMENT,250 SE 10TH AVE,HILLSBORO,OR,97123,"http://maps.google.com/maps?q=250 SE 10TH AVE,+HILLSBORO,+OR+97123&hl=en"
JOSEPHINE COUNTY SHERIFF'S OFFICE,JOSEPHINE COUNTY JAIL/SHERIFF'S OFFICE LOBBY,1901 NE F ST.,GRANTS PASS,OR,97526,"http://maps.google.com/maps?q=1901 NE F ST.,+GRANTS PASS,+OR+97526&hl=en"
KEIZER POLICE DEPT,SCHOOLHOUSE SQUARE,5013 RIVER RD N,SALEM,OR,97303,"http://maps.google.com/maps?q=5013 RIVER RD N,+SALEM,+OR+97303&hl=en"
KENNEWICK POLICE DEPARTMENT,KENNEWICK POLICE DEPARTMENT,211 WEST 6TH AVENUE,KENNEWICK,WA,99336,"http://maps.google.com/maps?q=211 WEST 6TH AVENUE,+KENNEWICK,+WA+99336&hl=en"
KING CITY POLICE DEPARTMENT,KING CITY CITY HALL,15300 SW 116TH AVE,KING CITY,OR,97224,"http://maps.google.com/maps?q=15300 SW 116TH AVE,+KING CITY,+OR+97224&hl=en"
KLAMATH FALLS POLICE DEPT,KLAMATH FALLS POLICE DEPT PARKING LOT,2501 SHASTA WAY,KLAMATH FALLS,OR,97601,"http://maps.google.com/maps?q=2501 SHASTA WAY,+KLAMATH FALLS,+OR+97601&hl=en"
LA GRANDE PD,LA GRANDE PD PARKING LOT,1109 K AVENUE,LA GRANDE,OR,97850,"http://maps.google.com/maps?q=1109 K AVENUE,+LA GRANDE,+OR+97850&hl=en"
LAKE COUNTY SHERIFF'S DEPT,SHERIFF'S SUBSTATION NORTH LAKE COUNTY,872127 CHRISTMAS VALLEY HWY #104,CHRISTMAS VALLEY,OR,97641,"http://maps.google.com/maps?q=872127 CHRISTMAS VALLEY HWY #104,+CHRISTMAS VALLEY,+OR+97641&hl=en"
LAKE OSWEGO POLICE DEPARTMENT,LAKE OSWEGO ADULT COMMUNITY CENTER,505 G AVE,LAKE OSWEGO,OR,97034,"http://maps.google.com/maps?q=505 G AVE,+LAKE OSWEGO,+OR+97034&hl=en"
LAKEVIEW TOWN POLICE,LAKEVIEW TOWN POLICE IN FOYER,245 NORTH F ST.,LAKEVIEW,OR,97630,"http://maps.google.com/maps?q=245 NORTH F ST.,+LAKEVIEW,+OR+97630&hl=en"
LANE COMMUNITY COLLEGE PUBLIC SAFETY,CENTER FOR MEETING AND LEARNING @ LCC FRONT OF BUILDING 19,4000 E 30TH AVE,EUGENE,OR,97405,"http://maps.google.com/maps?q=4000 E 30TH AVE,+EUGENE,+OR+97405&hl=en"
LANE COMMUNITY COLLEGE PUBLIC SAFETY,LCC DOWNTOWN CAMPUS MAIN ENTRANCE,101 W 10TH AVE,EUGENE,OR,97401,"http://maps.google.com/maps?q=101 W 10TH AVE,+EUGENE,+OR+97401&hl=en"
LANE COUNTY SHERIFF'S OFFICE,EUGENE/SPRINGFIELD FIRE STATION 16,6853 MAIN ST,SPRINGFIELD,OR,97478,"http://maps.google.com/maps?q=6853 MAIN ST,+SPRINGFIELD,+OR+97478&hl=en"
LATAH COUNTY SHERIFF'S OFFICE,CITY PARK,MAIN ST. & 6TH ST.,KENDRICK,ID,83537,"http://maps.google.com/maps?q=MAIN ST. & 6TH ST.,+KENDRICK,+ID+83537&hl=en"
LATAH COUNTY SHERIFF'S OFFICE,GENESEE FOOD CENTER PARKING LOT,216 WEST CHESTNUT ST,GENESEE,ID,83832,"http://maps.google.com/maps?q=216 WEST CHESTNUT ST,+GENESEE,+ID+83832&hl=en"
LATAH COUNTY SHERIFF'S OFFICE,HARVEST FOOD PARKING LOG,150 6TH ST.,POTLATCH,ID,83855,"http://maps.google.com/maps?q=150 6TH ST.,+POTLATCH,+ID+83855&hl=en"
LATAH COUNTY SHERIFF'S OFFICE,LIONS CLUB PARKING LOT,415 MAIN ST.,TROY,ID,83871,"http://maps.google.com/maps?q=415 MAIN ST.,+TROY,+ID+83871&hl=en"
LEBANON POLICE DEPARTMENT,LEBANON POLICE DEPARTMENT,40 N. 2ND ST,LEBANON,OR,97355,"http://maps.google.com/maps?q=40 N. 2ND ST,+LEBANON,+OR+97355&hl=en"
LEWISTON POLICE DEPARTMENT,LEWISTON POLICE DEPT,1224 F ST,LEWISTON,ID,83501,"http://maps.google.com/maps?q=1224 F ST,+LEWISTON,+ID+83501&hl=en"
LINN COUNTY SHERIFF'S OFFICE,BROWNSVILL CITY HALL 12:30 - 1:30,255 N MAIN ST,BROWNSVILLE,OR,97327,"http://maps.google.com/maps?q=255 N MAIN ST,+BROWNSVILLE,+OR+97327&hl=en"
LINN COUNTY SHERIFF'S OFFICE,HARRISBURG CITY HALL 2PM - 3PM,120 SMITH ST,HARRISBURG,OR,97446,"http://maps.google.com/maps?q=120 SMITH ST,+HARRISBURG,+OR+97446&hl=en"
LINN COUNTY SHERIFF'S OFFICE,MILL CITY CITY HALL 9AM - 10AM,444 S 1ST AVE,MILL CITY,OR,97360,"http://maps.google.com/maps?q=444 S 1ST AVE,+MILL CITY,+OR+97360&hl=en"
LINN COUNTY SHERIFF'S OFFICE,SCIO FIRE HALL 10:30AM - 11:30AM,38975 SW 6TH AVE,SCIO,OR,97374,"http://maps.google.com/maps?q=38975 SW 6TH AVE,+SCIO,+OR+97374&hl=en"
MALHEUR COUNTY SHERIFF'S OFFICE,MALHEUR COUNTY SHERIFF'S OFFICE,151 B ST. WEST,VALE,OR,97918,"http://maps.google.com/maps?q=151 B ST. WEST,+VALE,+OR+97918&hl=en"
MARION COUNTY SHERIFF'S OFFICE,ROTH'S MARKET - PARKING LOT,702 LANCASTER DRIVE NE,SALEM,OR,97301,"http://maps.google.com/maps?q=702 LANCASTER DRIVE NE,+SALEM,+OR+97301&hl=en"
MCCALL POLICE DEPT,ALBERTSONS PARKING LOT,132 E. LAKE ST,MCCALL,ID,83638,"http://maps.google.com/maps?q=132 E. LAKE ST,+MCCALL,+ID+83638&hl=en"
MERIDIAN POLICE DEPARTMENT,ST. LUKE'S MEDICAL CENTER,520 S EAGLE RD,MERIDIAN,ID,83642,"http://maps.google.com/maps?q=520 S EAGLE RD,+MERIDIAN,+ID+83642&hl=en"
MILWAUKIE POLICE DEPARTMENT,PUBLIC SAFETY BUILDING,3200 SE HARRISON ST,MILWAUKIE,OR,97222,"http://maps.google.com/maps?q=3200 SE HARRISON ST,+MILWAUKIE,+OR+97222&hl=en"
MT ANGEL POLICE,KENNEDY HIGH SCHOOL,890 E. MARQUAM ST,MOUNT ANGEL,OR,97362,"http://maps.google.com/maps?q=890 E. MARQUAM ST,+MOUNT ANGEL,+OR+97362&hl=en"
NAMPA POLICE DEPARTMENT,LAKEVIEW PARK 9AM TO 2PM,E AMERICANA DRIVE,NAMPA,ID,83687,"http://maps.google.com/maps?q=E AMERICANA DRIVE,+NAMPA,+ID+83687&hl=en"
NAMPA POLICE DEPT,NAMPA CIVIC CENTER,311 3RD ST S,NAMPA,ID,83651,"http://maps.google.com/maps?q=311 3RD ST S,+NAMPA,+ID+83651&hl=en"
NORTH PLAINS POLICE DEPARTMENT,CITY OF NORTH PLAINS - CITY HALL,31360 NW COMMERCIAL STREET,NORTH PLAINS,OR,97133,"http://maps.google.com/maps?q=31360 NW COMMERCIAL STREET,+NORTH PLAINS,+OR+97133&hl=en"
OHSU POLICE DEPARTMENT,OHSU OHSU ED DEPARTMENT PARKING LOT,3251 SW SAM JACKSON PARK ROAD,PORTLAND,OR,97239,"http://maps.google.com/maps?q=3251 SW SAM JACKSON PARK ROAD,+PORTLAND,+OR+97239&hl=en"
ONTARIO POLICE DEPARTMENT,ONTARIO CITY HALL,444 SW 4TH ST,ONTARIO,OR,97914,"http://maps.google.com/maps?q=444 SW 4TH ST,+ONTARIO,+OR+97914&hl=en"
OREGON CITY POLICE DEPARTMENT,OCPD COMMUNITY SHRED EVENT & DRUG TAKE BACK,1726 WASHINGTON STREET,OREGON CITY,OR,97045,"http://maps.google.com/maps?q=1726 WASHINGTON STREET,+OREGON CITY,+OR+97045&hl=en"
PASCO POLICE DEPARTMENT,WALMART,4820 N ROAD 68,PASCO,WA,99301,"http://maps.google.com/maps?q=4820 N ROAD 68,+PASCO,+WA+99301&hl=en"
PILOT ROCK POLICE DEPARTMENT,PILOT ROCK POLICE DEPARTMENT,143 W. MAIN ST,PILOT ROCK,OR,97868,"http://maps.google.com/maps?q=143 W. MAIN ST,+PILOT ROCK,+OR+97868&hl=en"
PORTLAND POLICE BUREAU,PORTLAND POLICE - SOUTHEAST PRECINCT,4747 E BURNSIDE,PORTLAND,OR,97215,"http://maps.google.com/maps?q=4747 E BURNSIDE,+PORTLAND,+OR+97215&hl=en"
PULLMAN POLICE DEPARTMENT,PULLMAN POLICE DEPARTMENT,260 SE KAMIAKEN STREET,PULLMAN,WA,99163,"http://maps.google.com/maps?q=260 SE KAMIAKEN STREET,+PULLMAN,+WA+99163&hl=en"
REDMOND POLICE DEPARTMENT,REDMOND POLICE DEPARTMENT,777 SW DESCHUTES AVE,REDMOND,OR,97756,"http://maps.google.com/maps?q=777 SW DESCHUTES AVE,+REDMOND,+OR+97756&hl=en"
RICHLAND POLICE DEPARTMENT,RICHLAND POLICE DEPARTMENT,871 GEORGE WASHINGTON WAY,RICHLAND,WA,99352,"http://maps.google.com/maps?q=871 GEORGE WASHINGTON WAY,+RICHLAND,+WA+99352&hl=en"
SHERWOOD POLICE DEPARTMENT,SHERWOOD POLICE DEPT,20495 SW BORCHERS DR,SHERWOOD,OR,97140,"http://maps.google.com/maps?q=20495 SW BORCHERS DR,+SHERWOOD,+OR+97140&hl=en"
SISKIYOU COUNTY SHERIFF'S OFFICE,HAPPY CAMP SHERIFF SUBSTATION,30 4TH AVENUE,HAPPY CAMP,CA,96039,"http://maps.google.com/maps?q=30  4TH AVENUE,+HAPPY CAMP,+CA+96039&hl=en"
SISKIYOU COUNTY SHERIFF'S OFFICE,MT SHASHA POLICE DEPARTMENT,303 N. MT SHASHA BLVD,MOUNT SHASTA,CA,96067,"http://maps.google.com/maps?q=303 N. MT SHASHA BLVD,+MOUNT SHASTA,+CA+96067&hl=en"
SISKIYOU COUNTY SHERIFF'S OFFICE,SISKIYOU COUNTY SHERIFF DEPT HEADQUARTERS,305 BUTTE STREET,YREKA,CA,96097,"http://maps.google.com/maps?q=305 BUTTE STREET,+YREKA,+CA+96097&hl=en"
SISKIYOU COUNTY SHERIFF'S OFFICE,TULELAKE POLICE DEPARTMENT,470 C STREET,TULELAKE,CA,96134,"http://maps.google.com/maps?q=470 C STREET,+TULELAKE,+CA+96134&hl=en"
SISKIYOU COUNTY SHERIFF'S OFFICE,WEED POLICE DEPARTMENT,550 MAIN ST,WEED,CA,96094,"http://maps.google.com/maps?q=550 MAIN ST,+WEED,+CA+96094&hl=en"
SISKIYOU COUNTY SHERIFF'S OFFICE,YREKA POLICE DEPARTMENT,412 W. MINER STREET,YREKA,CA,96097,"http://maps.google.com/maps?q=412 W. MINER STREET,+YREKA,+CA+96097&hl=en"
SPRINGFIELD POLICE DEPT,SPRINGFIELD POLICE DEPT,230 4TH ST,SPRINGFIELD,OR,97477,"http://maps.google.com/maps?q=230 4TH ST,+SPRINGFIELD,+OR+97477&hl=en"
TIGARD POLICE DEPT,TIGARD CITY HALL,13125 SW HALL BLVD,TIGARD,OR,97223,"http://maps.google.com/maps?q=13125 SW HALL BLVD,+TIGARD,+OR+97223&hl=en"
TUALATIN POLICE DEPARTMENT,OLD HAGGEN BUILDING PARKING LOT,8515 SW TUALATIN-SHERWOOD RD,TUALATIN,OR,97062,"http://maps.google.com/maps?q=8515 SW TUALATIN-SHERWOOD RD,+TUALATIN,+OR+97062&hl=en"
VANCOUVER POLICE DEPARTMENT,KAISER PERMANENTE CASCADE PARK,12607 SE MILL PLAIN BLVD,VANCOUVER,WA,98684,"http://maps.google.com/maps?q=12607 SE MILL PLAIN BLVD,+VANCOUVER,+WA+98684&hl=en"
VANCOUVER POLICE DEPARTMENT,PEACEHEALTH MEMORIAL CAMPUS,100 EAST 33RD STREET,VANCOUVER,WA,98663,"http://maps.google.com/maps?q=100 EAST 33RD STREET,+VANCOUVER,+WA+98663&hl=en"
WALLA WALLA COUNTY SHERIFF,WAITSBURG FIRE STATION,234 MAIN ST,WAITSBURG,WA,99361,"http://maps.google.com/maps?q=234 MAIN ST,+WAITSBURG,+WA+99361&hl=en"
WALLA WALLA POLICE DEPARTMENT,WALLA WALLA POLICE DEPARTMENT,54 EAST MOORE STREET,WALLA WALLA,WA,99362,"http://maps.google.com/maps?q=54 EAST MOORE STREET,+WALLA WALLA,+WA+99362&hl=en"
WASHINGTON COUNTY SHERIFF'S OFFICE,BALES CEDAR MILL MARKET PLACE,12675 NW CORNELL RD,PORTLAND,OR,97229,"http://maps.google.com/maps?q=12675 NW CORNELL RD,+PORTLAND,+OR+97229&hl=en"
WASHINGTON COUNTY SHERIFF'S OFFICE,CORNELIUS POLICE DEPARTMENT,1311 N. BARLOW ST.,CORNELIUS,OR,97113,"http://maps.google.com/maps?q=1311 N. BARLOW ST.,+CORNELIUS,+OR+97113&hl=en"
WASHINGTON COUNTY SHERIFF'S OFFICE,RALEIGH HILLS FRED MEYER,7700 SW BEAVERTON HILLSDALE HWY,PORTLAND,OR,97225,"http://maps.google.com/maps?q=7700 SW BEAVERTON HILLSDALE HWY,+PORTLAND,+OR+97225&hl=en"
WASHOUGAL POLICE DEPARTMENT,SILVER STAR SEARCH AND RESCUE,1220 A STREET,WASHOUGAL,WA,98671,"http://maps.google.com/maps?q=1220 A STREET,+WASHOUGAL,+WA+98671&hl=en"
WEISER POLICE DEPT,WEISER MEMORIAL HOSPITAL,645 E 5TH ST,WEISER,ID,83672,"http://maps.google.com/maps?q=645 E 5TH ST,+WEISER,+ID+83672&hl=en"
WEST RICHLAND POLICE DEPARTMENT,WEST RICHLAND POLICE DEPARTMENT,3805 WEST VAN GIESEN,WEST RICHLAND,WA,99353,"http://maps.google.com/maps?q=3805 WEST VAN GIESEN,+WEST RICHLAND,+WA+99353&hl=en"
WINNEMUCCA POLICE DEPT.,RIDLEY'S MARKET PARKING LOT,1125 W. WINNEMUCCA BL.,WINNEMUCCA,NV,89445,"http://maps.google.com/maps?q=1125 W. WINNEMUCCA  BL.,+WINNEMUCCA,+NV+89445&hl=en"
YAKIMA COUNTY CRIME STOPPERS,SOLARITY CREDIT UNION,110 N 5TH AVE.,YAKIMA,WA,98902,"http://maps.google.com/maps?q=110 N 5TH AVE.,+YAKIMA,+WA+98902&hl=en"
YAKIMA POLICE DEPARTMENT,CORNERSTONE MEDICAL CLINIC/VIRGINIA MASON MEMORIAL,4003 CREEKSIDE LOOP,YAKIMA,WA,98908,"http://maps.google.com/maps?q=4003 CREEKSIDE LOOP,+YAKIMA,+WA+98908&hl=en"
