Participant,CollectionSite,Address,City,State,Zip,MapURL
ADELPHI UNIVERSITY,ADELPHI UNIVERSITY,"ONE SOUTH AVE, U.C. LOBBY",GARDEN CITY,NY,11530,"http://maps.google.com/maps?q=ONE SOUTH AVE, U.C. LOBBY,+GARDEN CITY,+NY+11530&hl=en"
ADELPHI UNIVERSITY,"ADELPHI UNIVERSITY 
												
													GRETA TIBERIA","ONE SOUTH AVE, U.C. ROOMM 310GARDEN CITY",GARDEN CITY,NY,11530,"http://maps.google.com/maps?q=ONE SOUTH AVE, U.C. ROOMM 310,+GARDEN CITY,+NY+11530&hl=en"
ALBANY COUNTY SHERIFF,ALBANY COUNTY SHERIFF,58 VERDA AVENUE,CLARKSVILLE,NY,12041,"http://maps.google.com/maps?q=58 VERDA AVENUE,+CLARKSVILLE,+NY+12041&hl=en"
ALBANY COUNTY SHERIFF,RCS COMMUNITY LIBRARY,95 MAIN ST,RAVENA,NY,12143,"http://maps.google.com/maps?q=95 MAIN ST,+RAVENA,+NY+12143&hl=en"
ALBANY NY POLICE DEPARTMENT,"ALBANY COLLEGE OF PHARMACY 
												
													CAR PORT (DRIVE UP DROP OFF)",106 NEW SCOTLAND AVE.,ALBANY,NY,12208,"http://maps.google.com/maps?q=106 NEW SCOTLAND AVE.,+ALBANY,+NY+12208&hl=en"
ALBANY NY POLICE DEPARTMENT,ALBANY POLICE DEPT. SOUTH STATION,126 ARCH STREET,ALBANY,NY,12202,"http://maps.google.com/maps?q=126 ARCH STREET,+ALBANY,+NY+12202&hl=en"
ALBANY NY POLICE DEPARTMENT,CVS PHARMACY,885 CENTRAL AVE.,ALBANY,NY,12205,"http://maps.google.com/maps?q=885 CENTRAL AVE.,+ALBANY,+NY+12205&hl=en"
ALLENDALE POLICE DEPARTMENT,"ALLENDALE POLICE DEPARTMENT 
												
													201-825-1900",290 FRANKLIN TURNPIKE,ALLENDALE,NJ,07401,"http://maps.google.com/maps?q=290 FRANKLIN TURNPIKE,+ALLENDALE,+NJ+07401&hl=en"
ANDOVER POLICE DEPARTMENT,"ANDOVER POLICE STATION 
												
													973-383-5544",145 LAKE ILIFF RD.,NEWTON,NJ,07860,"http://maps.google.com/maps?q=145 LAKE ILIFF RD.,+NEWTON,+NJ+07860&hl=en"
ARDSLEY SAYF COALITION,ARDSLEY VILLAGE HALL,507 ASHFORD HALL,ARDSLEY,NY,10502,"http://maps.google.com/maps?q=507 ASHFORD HALL,+ARDSLEY,+NY+10502&hl=en"
ASHFIELD PD,ASHFIELD PD,412 MAIN STREET,ASHFIELD,MA,01330,"http://maps.google.com/maps?q=412 MAIN STREET,+ASHFIELD,+MA+01330&hl=en"
AVON POLICE DEPARTMENT,AVON SENIOR CENTER,635 WEST AVON ROAD,AVON,CT,06001,"http://maps.google.com/maps?q=635 WEST AVON ROAD,+AVON,+CT+06001&hl=en"
BELCHERTOWN POLICE DEPARTMENT,BELCHERTOWN CENTER PARKING LOT,3 PARK STREET,BELCHERTOWN,MA,01007,"http://maps.google.com/maps?q=3 PARK STREET,+BELCHERTOWN,+MA+01007&hl=en"
BENNINGTON POLICE DEPARTMENT,"BENNINGTON COUNTY SHERIFF'S DEPT 
												
													FRONT LOBBY",811 US RT 7 SOUTH,BENNINGTON,VT,05201,"http://maps.google.com/maps?q=811 US RT 7 SOUTH,+BENNINGTON,+VT+05201&hl=en"
BENNINGTON POLICE DEPARTMENT,"BENNINGTON POLICE DEPARTMENT 
												
													FRONT LOBBY",118 SOUTH STREET,BENNINGTON,VT,05201,"http://maps.google.com/maps?q=118 SOUTH STREET,+BENNINGTON,+VT+05201&hl=en"
BENNINGTON POLICE DEPARTMENT,"CVS DRUG STORE 
												
													APRIL 28, 2018 FROM 10AM TO 2PM ONLY",8 KOCHER DRIVE,BENNINGTON,VT,05201,"http://maps.google.com/maps?q=8 KOCHER DRIVE,+BENNINGTON,+VT+05201&hl=en"
BENNINGTON POLICE DEPARTMENT,"SOUTHWESTERN VT MEDICAL CENTER 
												
													FRONT LOBBY",100 HOSPITAL DRIVE,BENNINGTON,VT,05201,"http://maps.google.com/maps?q=100 HOSPITAL DRIVE,+BENNINGTON,+VT+05201&hl=en"
BERKELEY HEIGHTS POLICE DEPARTMENT,"BERKELEY HEIGHTS POLICE DEPARTMENT 
												
													908-464-1111",29 PARK AVE.,BERKELEY HEIGHTS,NJ,07922,"http://maps.google.com/maps?q=29 PARK AVE.,+BERKELEY HEIGHTS,+NJ+07922&hl=en"
BERLIN POLICE DEPARTMENT,"BERLIN POLICE DEPARTMENT / TOWN HALL 
												
													PARKING CIRCLE FRONT OF TOWN HALL",240 KENSINGTON RD,BERLIN,CT,06037,"http://maps.google.com/maps?q=240 KENSINGTON RD,+BERLIN,+CT+06037&hl=en"
BERNARDS TOWNSHIP POLICE DEPARTMENT,BERNARDS TOWNSHIP POLICE DEPARTMENT,1 COLLYER LANE,BASKING RIDGE,NJ,07920,"http://maps.google.com/maps?q=1 COLLYER LANE,+BASKING RIDGE,+NJ+07920&hl=en"
BERNARDSVILLE POLICE DEPARTMENT,BERNARDSVILLE POLICE DEPARTMENT,166 MINE BROOK ROAD,BERNARDSVILLE,NJ,07924,"http://maps.google.com/maps?q=166 MINE BROOK ROAD,+BERNARDSVILLE,+NJ+07924&hl=en"
BETHLEHEM POLICE DEPARTMENT,"BETHLEHEM TOWN PARK 
												
													FRONT PARKING LOT",249 ELM AVE.,DELMAR,NY,12054,"http://maps.google.com/maps?q=249 ELM AVE.,+DELMAR,+NY+12054&hl=en"
BETHLEHEM RESIDENT TROOPER,BETHLEHEM RESIDENT TROOPER'S OFFICE,36 MAIN ST. SOUTH,BETHLEHEM,CT,06751,"http://maps.google.com/maps?q=36 MAIN ST. SOUTH,+BETHLEHEM,+CT+06751&hl=en"
BOROUGH OF FAIRVIEW,"FAIRVIEW POLICE DEPARTMENT 
												
													201-943-2100",59 ANDERSON AVE.,FAIRVIEW,NJ,07022,"http://maps.google.com/maps?q=59 ANDERSON AVE.,+FAIRVIEW,+NJ+07022&hl=en"
BRANCHBURG TOWNSHIP POLICE DEPARTMENT,BRANCHBURG TOWNSHIP POLICE DEPARTMENT,590 OLD YORK ROAD,BRANCHBURG,NJ,08876,"http://maps.google.com/maps?q=590 OLD YORK ROAD,+BRANCHBURG,+NJ+08876&hl=en"
BRIDGEWATER TWP. POLICE,BRIDGEWATER POLICE HQ,100 COMMONS WAY,BRIDGEWATER,NJ,08807,"http://maps.google.com/maps?q=100 COMMONS WAY,+BRIDGEWATER,+NJ+08807&hl=en"
BRISTOL POLICE DEPARTMENT,"BRISTOL WATER DEPARTMENT 
												
													FRONT LOBBY : ONLY UNTIL 1:00 PM",119 RIVERSIDE AVENUE,BRISTOL,CT,06010,"http://maps.google.com/maps?q=119 RIVERSIDE AVENUE,+BRISTOL,+CT+06010&hl=en"
BROOKFIELD POLICE DEPARTMENT,BROOKFIELD POLICE DEPARTMENT,63 SILVERMINE ROAD,BROOKFIELD,CT,06804,"http://maps.google.com/maps?q=63 SILVERMINE ROAD,+BROOKFIELD,+CT+06804&hl=en"
BROOME COUNTY SHERIFF'S DEPARTMENT,AMERICAN LEGION POST 1700,305 MAPLE STREET,ENDICOTT,NY,13760,"http://maps.google.com/maps?q=305 MAPLE STREET,+ENDICOTT,+NY+13760&hl=en"
BROOME COUNTY SHERIFF'S DEPARTMENT,BROOME COUNTY SHERIFF'S OFFICE,155 LT. VANWINKLE DR.,BINGHAMTON,NY,13905,"http://maps.google.com/maps?q=155 LT. VANWINKLE DR.,+BINGHAMTON,+NY+13905&hl=en"
BROOME COUNTY SHERIFF'S DEPARTMENT,JOHNSON CITY ELKS,4212 WATSON BLVD.,JOHNSON CITY,NY,13790,"http://maps.google.com/maps?q=4212 WATSON BLVD.,+JOHNSON CITY,+NY+13790&hl=en"
BROOME COUNTY SHERIFF'S DEPARTMENT,VESTAL FIRE STATION 4,3341 VESTAL PKWY EAST,VESTAL,NY,13850,"http://maps.google.com/maps?q=3341 VESTAL PKWY EAST,+VESTAL,+NY+13850&hl=en"
BROOME COUNTY SHERIFF'S DEPARTMENT,WINDSOR COMMUNITY CENTER,107 MAIN STREET,WINDSOR,NY,13865,"http://maps.google.com/maps?q=107 MAIN STREET,+WINDSOR,+NY+13865&hl=en"
BYRAM TWP. POLICE DEPARTMENT,CVS PHARMACY,77 RT. 206,STANHOPE,NJ,07874,"http://maps.google.com/maps?q=77 RT. 206,+STANHOPE,+NJ+07874&hl=en"
BYRAM TWP. POLICE DEPARTMENT,SHOP RITE,90 ROUTE 206,STANHOPE,NJ,07874,"http://maps.google.com/maps?q=90 ROUTE 206,+STANHOPE,+NJ+07874&hl=en"
CAIRO POLICE DEPARTMENT,CVS PHARMACY,7600 ROUTE 32,CAIRO,NY,12413,"http://maps.google.com/maps?q=7600 ROUTE 32,+CAIRO,+NY+12413&hl=en"
CAIRO POLICE DEPARTMENT,CVS PHARMACY,7600 SR 32 CAIRO,CAIRO,NY,12413,"http://maps.google.com/maps?q=7600 SR 32 CAIRO,+CAIRO,+NY+12413&hl=en"
CALIFON BOROUGH POLICE DEPARTMENT,CALIFON MUNICIPAL BUILDING,39 ACADEMY STREET,CALIFON,NJ,07830,"http://maps.google.com/maps?q=39 ACADEMY STREET,+CALIFON,+NJ+07830&hl=en"
CEDAR GROVE POLICE DEPARTMENT,"CEDAR GROVE POLICE DEPARTMENT 
												
													973-239-4100",525 ROUTE 23,CEDAR GROVE,NJ,07009,"http://maps.google.com/maps?q=525 ROUTE 23,+CEDAR GROVE,+NJ+07009&hl=en"
CHATHAM BOROUGH POLICE DEPARTMENT,CVS PHARMACY,471 MAIN STREET,CHATHAM,NJ,07928,"http://maps.google.com/maps?q=471 MAIN STREET,+CHATHAM,+NJ+07928&hl=en"
CHATHAM TOWNSHIP,CHATHAM TWP PD,401 SOUTHERN BLVD.,CHATHAM,NJ,07928,"http://maps.google.com/maps?q=401 SOUTHERN BLVD.,+CHATHAM,+NJ+07928&hl=en"
CHATHAM TOWNSHIP,SHOPRITE,631 SHUNPIKE ROAD,CHATHAM,NJ,07928,"http://maps.google.com/maps?q=631 SHUNPIKE ROAD,+CHATHAM,+NJ+07928&hl=en"
CHENANGO COUNTY SHERIFF'S OFFICE,GREENE FIRE DEPARTMENT,NORTH CANAL STREET,GREENE,NY,13778,"http://maps.google.com/maps?q=NORTH CANAL STREET,+GREENE,+NY+13778&hl=en"
CHENANGO COUNTY SHERIFF'S OFFICE,NORTH NORWICH FIRE DEPARTMENT,108 BEACH LANE,NORTH NORWICH,NY,13814,"http://maps.google.com/maps?q=108 BEACH LANE,+NORTH NORWICH,+NY+13814&hl=en"
CHESHIRE PD,"CHESHIRE POLICE DEPARTMENT 
												
													(LOBBY)",CHESHIRE POLICE DEPARTMENT500 HIGHLAND AVENUE,CHESHIRE,CT,06410,"http://maps.google.com/maps?q=CHESHIRE POLICE DEPARTMENT,+CHESHIRE,+CT+06410&hl=en"
CHESTER TOWNSHIP,CHESTER TWP. POLICE HEADQUARTERS,1 PARKER ROAD,CHESTER,NJ,07930,"http://maps.google.com/maps?q=1 PARKER ROAD,+CHESTER,+NJ+07930&hl=en"
CITY OF ORANGE TOWNSHIP,FRONT DESK- ORANGE POLICE DEPT.,29 PARK STREET,ORANGE,NJ,07050,"http://maps.google.com/maps?q=29 PARK STREET,+ORANGE,+NJ+07050&hl=en"
CLARKSTOWN POLICE,CVS PHARMACY,280 SOUTH MAIN ST,NEW CITY,NY,10956,"http://maps.google.com/maps?q=280 SOUTH MAIN ST,+NEW CITY,+NY+10956&hl=en"
CLARKSTOWN POLICE,CVS PHARMACY,330 ROUTE 304,BARDONIA,NY,10954,"http://maps.google.com/maps?q=330 ROUTE 304,+BARDONIA,+NY+10954&hl=en"
CLOSTER POLICE DEPARTMENT,"CLOSTER POLICE GARAGE 
												
													201-768-5000",295 CLOSTER  DOCK ROAD,CLOSTER,NJ,07624,"http://maps.google.com/maps?q=295 CLOSTER  DOCK ROAD,+CLOSTER,+NJ+07624&hl=en"
COLONIE POLICE DEPARTMENT,"THE CROSSINGS OF COLONIE PARK 
												
													TOWN OF COLONIE",580 ALBANY SHAKER ROAD,LOUDONVILLE,NY,12211,"http://maps.google.com/maps?q=580 ALBANY SHAKER ROAD,+LOUDONVILLE,+NY+12211&hl=en"
CONNECTICUT STATE POLICE - BETHANY,"CSP BETHANY 
												
													SGT. BRENT AIKEN #189",631 AMITY RD,BETHANY,CT,06524,"http://maps.google.com/maps?q=631 AMITY RD,+BETHANY,+CT+06524&hl=en"
COXSACKIE POLICE DEPARTMENT,COXSACKIE POLICE DEPARTMENT,119 MANSION STREET,COXSACKIE,NY,12051,"http://maps.google.com/maps?q=119 MANSION STREET,+COXSACKIE,+NY+12051&hl=en"
CRESSKILL POLICE DEPARTMENT,CRESSKILL POLICE DEPARTMENT,67 UNION AVENUE,CRESSKILL,NJ,07626,"http://maps.google.com/maps?q=67 UNION AVENUE,+CRESSKILL,+NJ+07626&hl=en"
CROMWELL POLICE DEPARTMENT,CROMWELL POLICE DEPARTMENT LOBBY,5 WEST STREET,CROMWELL,CT,06416,"http://maps.google.com/maps?q=5 WEST STREET,+CROMWELL,+CT+06416&hl=en"
CROTON ON HUDSON POLICE,CROTON COMMONS SHOPPING PLAZA,177 SOUTH RIVERSIDE AVENUE,CROTON ON HUDSON,NY,10520,"http://maps.google.com/maps?q=177 SOUTH RIVERSIDE AVENUE,+CROTON ON HUDSON,+NY+10520&hl=en"
CT STATE POLICE - TROOP B,"CSP - TROOP B BARRACKS 
												
													FRONT ENTRANCE",463 ASHLEY FALLS RD.,NORTH CANAAN,CT,06018,"http://maps.google.com/maps?q=463 ASHLEY FALLS RD.,+NORTH CANAAN,+CT+06018&hl=en"
CT STATE POLICE - TROOP B,"NEW HARTFORD RESIDENT TROOPER OFFICE 
												
													REAR OF TOWN HALL BUILDING",530 MAIN STREET,NEW HARTFORD,CT,06057,"http://maps.google.com/maps?q=530 MAIN STREET,+NEW HARTFORD,+CT+06057&hl=en"
CUMMINGTON POLICE,"CUMMINGTON POLICE DEPARTMENT 
												
													CUMMINGTON PUBLIC SAFETY COMPLEX",8 FAIRGROUNDS ROADBOX 98,CUMMINGTON,MA,01026,"http://maps.google.com/maps?q=8 FAIRGROUNDS ROAD,+CUMMINGTON,+MA+01026&hl=en"
DANBURY POLICE DEPARTMENT,DANBURY POLICE DEPARTMENT,375 MAIN STREET,DANBURY,CT,06810,"http://maps.google.com/maps?q=375 MAIN STREET,+DANBURY,+CT+06810&hl=en"
DEA NEW YORK DIVISION,"DEPARTMENT OF FAMILY SERVICES ROBERT TRAVIS BLDG 
												
													SUSAN CLARK",16 COMMUNITY LANE,LIBERTY,NY,12754,"http://maps.google.com/maps?q=16 COMMUNITY LANE,+LIBERTY,+NY+12754&hl=en"
DEA NEW YORK DIVISION,"FALLSBURG POLICE STATION 
												
													ALETA M. GOMEZ 845.794.8080  X170",19 RAILROAD PLAZA,SOUTH FALLSBURG,NY,12779,"http://maps.google.com/maps?q=19 RAILROAD PLAZA,+SOUTH FALLSBURG,+NY+12779&hl=en"
DEA NEW YORK DIVISION,"JEFFERSON PHARMACY 
												
													SUSAN CLARK",4892 MAIN STREET,JEFFERSONVILLE,NY,12748,"http://maps.google.com/maps?q=4892 MAIN STREET,+JEFFERSONVILLE,+NY+12748&hl=en"
DEA NEW YORK DIVISION,"LIBERTY POLICE DEPARTMENT 
												
													ALETA M. GOMEZ  845.794.8080  X170",159 NORTH MAIN STREET,LIBERTY,NY,12754,"http://maps.google.com/maps?q=159 NORTH MAIN STREET,+LIBERTY,+NY+12754&hl=en"
DEA NEW YORK DIVISION,"NEW YORK CITY POLICE DEPARTMENT  BRONX 
												
													42 PRECINCT",830 WASHINGTON AVENUE MORRISANIA,BRONX,NY,10451,"http://maps.google.com/maps?q=830 WASHINGTON AVENUE MORRISANIA,+BRONX,+NY+10451&hl=en"
DEA NEW YORK DIVISION,"NEW YORK CITY POLICE DEPARTMENT BRONX 
												
													45 PRECINCT",2877 BARKLEY AVENUE (SCHUYLERVILLE),BRONX,NY,10465,"http://maps.google.com/maps?q=2877 BARKLEY AVENUE (SCHUYLERVILLE),+BRONX,+NY+10465&hl=en"
DEA NEW YORK DIVISION,"NEW YORK CITY POLICE DEPARTMENT BRONX 
												
													46 PRECINCT",2120 RYER AVENUE (FORDHAM),BRONX,NY,10457,"http://maps.google.com/maps?q=2120 RYER AVENUE (FORDHAM),+BRONX,+NY+10457&hl=en"
DEA NEW YORK DIVISION,"NEW YORK CITY POLICE DEPARTMENT BRONX 
												
													48 PRECINCT",450 CROSS BRONX EXPRESSWAY (EAST TREMONT),BRONX,NY,10457,"http://maps.google.com/maps?q=450 CROSS BRONX EXPRESSWAY (EAST TREMONT),+BRONX,+NY+10457&hl=en"
DEA NEW YORK DIVISION,"NEW YORK CITY POLICE DEPARTMENT BRONX 
												
													50TH  PRECINCT",3450 KINGSBRIDGE AVENUE (KINGSBRIDGE),BRONX,NY,10463,"http://maps.google.com/maps?q=3450 KINGSBRIDGE AVENUE (KINGSBRIDGE),+BRONX,+NY+10463&hl=en"
DEA NEW YORK DIVISION,"NEW YORK CITY POLICE DEPARTMENT BROOKLYN 
												
													61 PRECINCT",2575 CONEY ISLAND AVENUE (HOMECREST),BROOKLYN,NY,11223,"http://maps.google.com/maps?q=2575 CONEY ISLAND AVENUE (HOMECREST),+BROOKLYN,+NY+11223&hl=en"
DEA NEW YORK DIVISION,"NEW YORK CITY POLICE DEPARTMENT BROOKLYN 
												
													68 PRECINCT",333 65TH STREET (BAY RIDGE),BROOKLYN,NY,11220,"http://maps.google.com/maps?q=333 65TH STREET (BAY RIDGE),+BROOKLYN,+NY+11220&hl=en"
DEA NEW YORK DIVISION,"NEW YORK CITY POLICE DEPARTMENT BROOKLYN 
												
													78 PRECINCT",65 SIXTH AVENUE (FLATBUSH),BROOKLYN,NY,11217,"http://maps.google.com/maps?q=65 SIXTH AVENUE (FLATBUSH),+BROOKLYN,+NY+11217&hl=en"
DEA NEW YORK DIVISION,"NEW YORK CITY POLICE DEPARTMENT BROOKLYN 
												
													84 PRECINCT",301 GOLD STREET,BROOKLYN,NY,11201,"http://maps.google.com/maps?q=301 GOLD STREET,+BROOKLYN,+NY+11201&hl=en"
DEA NEW YORK DIVISION,"NEW YORK CITY POLICE DEPARTMENT BROOKLYN 
												
													90TH PRECINCT",211 UNION AVENUE (WILLIAMSBURG),BROOKLYN,NY,11206,"http://maps.google.com/maps?q=211 UNION AVENUE (WILLIAMSBURG),+BROOKLYN,+NY+11206&hl=en"
DEA NEW YORK DIVISION,"NEW YORK CITY POLICE DEPARTMENT MANHATTAN 
												
													10 PRECINCT",230 WEST 20TH STREET CHELSEA,NEW YORK,NY,10011,"http://maps.google.com/maps?q=230 WEST 20TH STREET CHELSEA,+NEW YORK,+NY+10011&hl=en"
DEA NEW YORK DIVISION,"NEW YORK CITY POLICE DEPARTMENT MANHATTAN 
												
													13 PRECINCT",230 EAST 21ST STREET STUYVESTANT TOWN,NEW YORK,NY,10010,"http://maps.google.com/maps?q=230 EAST 21ST STREET STUYVESTANT TOWN,+NEW YORK,+NY+10010&hl=en"
DEA NEW YORK DIVISION,"NEW YORK CITY POLICE DEPARTMENT MANHATTAN 
												
													20 PRECINCT",120 WEST 82ND STREET,NEW YORK,NY,10024,"http://maps.google.com/maps?q=120 WEST 82ND STREET,+NEW YORK,+NY+10024&hl=en"
DEA NEW YORK DIVISION,"NEW YORK CITY POLICE DEPARTMENT MANHATTAN 
												
													25 PRECINCT",120 EAST 119TH STREET,NEW YORK,NY,10035,"http://maps.google.com/maps?q=120 EAST 119TH STREET,+NEW YORK,+NY+10035&hl=en"
DEA NEW YORK DIVISION,"NEW YORK CITY POLICE DEPARTMENT MANHATTAN 
												
													7 PRECINCT",19 1/2 PITT STREET LOWER EAST SIDE,NEW YORK,NY,10002,"http://maps.google.com/maps?q=19 1/2 PITT STREET LOWER EAST SIDE,+NEW YORK,+NY+10002&hl=en"
DEA NEW YORK DIVISION,"NEW YORK CITY POLICE DEPARTMENT QUEENS 
												
													100TH PRECINCT",92-24 ROCKAWAY BEACH BOULEVARD (ROCKAWAY),FAR ROCKAWAY,NY,11693,"http://maps.google.com/maps?q=92-24 ROCKAWAY BEACH BOULEVARD (ROCKAWAY),+FAR ROCKAWAY,+NY+11693&hl=en"
DEA NEW YORK DIVISION,"NEW YORK CITY POLICE DEPARTMENT QUEENS 
												
													103RD PRECINCT",168-02 PO EDWARD BYRNE AVENUE (JAMAICA),JAMAICA,NY,11432,"http://maps.google.com/maps?q=168-02 PO EDWARD BYRNE AVENUE (JAMAICA),+JAMAICA,+NY+11432&hl=en"
DEA NEW YORK DIVISION,"NEW YORK CITY POLICE DEPARTMENT QUEENS 
												
													111 PRECINCT",45-06 215TH STREET (BAYSIDE),BAYSIDE,NY,11361,"http://maps.google.com/maps?q=45-06 215TH STREET (BAYSIDE),+BAYSIDE,+NY+11361&hl=en"
DEA NEW YORK DIVISION,"NEW YORK CITY POLICE DEPARTMENT QUEENS 
												
													112TH PRECINCT",68-04 AUSTIN STREET (FOREST HILLS),FOREST HILLS,NY,11375,"http://maps.google.com/maps?q=68-04 AUSTIN STREET (FOREST HILLS),+FOREST HILLS,+NY+11375&hl=en"
DEA NEW YORK DIVISION,"NEW YORK CITY POLICE DEPARTMENT STATEN ISLAND 
												
													120TH PRECINCT",78 RICHMOND TERRACE (STGEORGE),STATEN ISLAND,NY,10301,"http://maps.google.com/maps?q=78 RICHMOND TERRACE (STGEORGE),+STATEN ISLAND,+NY+10301&hl=en"
DEA NEW YORK DIVISION,"RIVRESIDE REMEDIES 
												
													SUSAN CLARK",39 LOWER MAIN STREET,CALLICOON,NY,12723,"http://maps.google.com/maps?q=39 LOWER MAIN STREET,+CALLICOON,+NY+12723&hl=en"
DEA NEW YORK DIVISION,"TUSTEN TOWN 
												
													SUSAN CLARK",210 BRIDGE STREET,NARROWSBURG,NY,12764,"http://maps.google.com/maps?q=210 BRIDGE STREET,+NARROWSBURG,+NY+12764&hl=en"
DEERFIELD PD,DEERFIELD POLICE DEPARTMENT,8 CONWAY STREET,SOUTH DEERFIELD,MA,01373,"http://maps.google.com/maps?q=8 CONWAY STREET,+SOUTH DEERFIELD,+MA+01373&hl=en"
DUTCHESS COUNTY SHERIFF'S OFFICE,VASSAR BROTHERS MEDICAL HOSPITAL,45 READE PLACE,POUGHKEEPSIE,NY,12601,"http://maps.google.com/maps?q=45 READE PLACE,+POUGHKEEPSIE,+NY+12601&hl=en"
EAST GREENBUSH POLICE DEPARTMENT,EAST GREENBUSH POLICE DEPARTMENT,225 COLUMBIA TURNPIKE,RENSSELAER,NY,12144,"http://maps.google.com/maps?q=225 COLUMBIA TURNPIKE,+RENSSELAER,+NY+12144&hl=en"
EAST HARTFORD POLICE,"EAST HARTFORD POLICE HEADQUARTERS 
												
													EAST HARTFORD PUBLIC SAFETY COMPLEX",31 SCHOOL STREET,EAST HARTFORD,CT,06108,"http://maps.google.com/maps?q=31 SCHOOL STREET,+EAST HARTFORD,+CT+06108&hl=en"
EAST LONGMEADOW POLICE DEPARTMENT,EAST LONGMEADOW POLICE DEPARTMENT,160 SOMERS RD,EAST LONGMEADOW,MA,01028,"http://maps.google.com/maps?q=160 SOMERS RD,+EAST LONGMEADOW,+MA+01028&hl=en"
EASTHAMPTON POLICE DEPARTMENT,EASTHAMPTON PUBLIC SAFETY COMPLEX,32 PAYSON AVENUE,EASTHAMPTON,MA,01027,"http://maps.google.com/maps?q=32 PAYSON AVENUE,+EASTHAMPTON,+MA+01027&hl=en"
EASTON POLICE DEPARTMENT,EASTON PUBLIC LIBRARY,691 MOREHOUSE ROAD,EASTON,CT,06612,"http://maps.google.com/maps?q=691 MOREHOUSE ROAD,+EASTON,+CT+06612&hl=en"
EDISON POLICE DEPARTMENT,"EDISON POLICE DEPARTMENT 
												
													732-248-6442",100 MUNICIPAL BLVD.,EDISON,NJ,08817,"http://maps.google.com/maps?q=100 MUNICIPAL BLVD.,+EDISON,+NJ+08817&hl=en"
ELMWOOD PARK POLICE DEPARTMENT,ELMWOOK PARK PD,182 MARKET ST,ELMWOOD PARK,NJ,07407,"http://maps.google.com/maps?q=182 MARKET ST,+ELMWOOD PARK,+NJ+07407&hl=en"
EMERSON P.D.,EMERSON POLICE HQ,1 MUNICIPAL PLACE,EMERSON,NJ,07630,"http://maps.google.com/maps?q=1 MUNICIPAL PLACE,+EMERSON,+NJ+07630&hl=en"
ENFIELD POLICE DEPARTMENT,ENFIELD POLICE DEPARTMENT,293 ELM ST.,ENFIELD,CT,06082,"http://maps.google.com/maps?q=293 ELM ST.,+ENFIELD,+CT+06082&hl=en"
ESSEX COUNTY SHERIFF'S OFFICE,"ESSEX COUNTY SHERIFF'S OFFICE 
												
													973-621-4111",525 WEST MARKET STPATROL HQ,NEWARK,NJ,07105,"http://maps.google.com/maps?q=525 WEST MARKET ST,+NEWARK,+NJ+07105&hl=en"
ESSEX FELLS POLICE DEPARTMENT,ESSEX FELLS POLICE DEPARTMENT,255 ROSELAND AVENUE,ESSEX FELLS,NJ,07021,"http://maps.google.com/maps?q=255 ROSELAND AVENUE,+ESSEX FELLS,+NJ+07021&hl=en"
FAIRFIELD POLICE DEPARTMENT,"FAIRFIELD POLICE HEADQUARTERS 
												
													MAIN LOBBY",100 REEF ROAD,FAIRFIELD,CT,06824,"http://maps.google.com/maps?q=100 REEF ROAD,+FAIRFIELD,+CT+06824&hl=en"
FAR HILLS PD,FAR HILLS PD,6 PROSPECT STREET,FAR HILLS,NJ,07931,"http://maps.google.com/maps?q=6 PROSPECT STREET,+FAR HILLS,+NJ+07931&hl=en"
FLORAL PARK POLICE DEPARTMENT,FLORAL PARK POLICE DEPARTMENT,1 FLORAL BLVD,GREAT NECK,NY,11022,"http://maps.google.com/maps?q=1 FLORAL BLVD,+GREAT NECK,+NY+11022&hl=en"
FLORHAM PARK POLICE DEPARTMENT,"RIDGEDALE MIDDLE SCHOOL 
												
													973-377-2200",71 RIDGEDALE AVE.,FLORHAM PARK,NJ,07932,"http://maps.google.com/maps?q=71 RIDGEDALE AVE.,+FLORHAM PARK,+NJ+07932&hl=en"
FOREST CITY POLICE,FOREST CITY AREA EMERGENCY SERVICES,380 RAILROAD STREET,FOREST CITY,PA,18421,"http://maps.google.com/maps?q=380 RAILROAD STREET,+FOREST CITY,+PA+18421&hl=en"
FORT LEE POLICE DEPARTMENT,"FORT LEE POLICE DEPARTMENT 
												
													201-592-3524",1327 16TH ST.,FORT LEE,NJ,07024,"http://maps.google.com/maps?q=1327 16TH ST.,+FORT LEE,+NJ+07024&hl=en"
FRANKLIN TOWNSHIP,FRANKLIN TWP. P.D.,495 DEMOTT LANE,SOMERSET,NJ,08873,"http://maps.google.com/maps?q=495 DEMOTT LANE,+SOMERSET,+NJ+08873&hl=en"
FREEPORT POLICE DEPARTMENT,"FREEPORT POLICE DEPARTMENT 
												
													DET/LT. WAYNE GIGLIO         516 377-2414",40 N. OCEAN AVENUE,FREEPORT,NY,11520,"http://maps.google.com/maps?q=40 N. OCEAN AVENUE,+FREEPORT,+NY+11520&hl=en"
FULTON COUNTY SHERIFF'S OFFICE,"FULTON COUNTY SHERIFF OFFICE 
												
													DAVID TOWNE",2712 STATE HIGHWAY 29,JOHNSTOWN,NY,12095,"http://maps.google.com/maps?q=2712 STATE HIGHWAY 29,+JOHNSTOWN,+NY+12095&hl=en"
FULTON COUNTY SHERIFF'S OFFICE,FULTON COUNTY SHERIFF'S OFFICE,2712 STATE HWY 29,JOHNSTOWN,NY,12095,"http://maps.google.com/maps?q=2712 STATE HWY 29,+JOHNSTOWN,+NY+12095&hl=en"
GARDEN CITY POLICE DEPARTMENT,GARDEN CITY POLICE DEPARTMENT,349 STEWART AVENUE,GARDEN CITY,NY,11530,"http://maps.google.com/maps?q=349 STEWART AVENUE,+GARDEN CITY,+NY+11530&hl=en"
GARFIELD POLICE DEPARTMENT,"GARFIELD POLICE DEPARTMENT 
												
													973-478-8500",160 BELMONT AVE.,GARFIELD,NJ,07026,"http://maps.google.com/maps?q=160 BELMONT AVE.,+GARFIELD,+NJ+07026&hl=en"
GARWOOD POLICE DEPARTMENT,"GARWOOD POLICE DEPARTMENT 
												
													908-789-1500",403 SOUTH AVE.,GARWOOD,NJ,07027,"http://maps.google.com/maps?q=403 SOUTH AVE.,+GARWOOD,+NJ+07027&hl=en"
GLASTONBURY POLICE DEPARTMENT,ACADEMY SCHOOL,2143 MAIN ST,GLASTONBURY,CT,06033,"http://maps.google.com/maps?q=2143 MAIN ST,+GLASTONBURY,+CT+06033&hl=en"
GLOVERSVILLE POLICE DEPARTMENT,GLOVERSVILLE POLICE DEPARTMENT,3 FRONTAGE ROAD,GLOVERSVILLE,NY,12078,"http://maps.google.com/maps?q=3 FRONTAGE ROAD,+GLOVERSVILLE,+NY+12078&hl=en"
GOSHEN POLICE DEPARTMENT,GOSHEN POLICE DEPARTMENT,40 A MAIN ST,GOSHEN,MA,01032,"http://maps.google.com/maps?q=40 A MAIN ST,+GOSHEN,+MA+01032&hl=en"
GRANBY POLICE DEPARTMENT,GRANBY POLICE HQ,15 NORTH GRANBY ROAD,GRANBY,CT,06035,"http://maps.google.com/maps?q=15 NORTH GRANBY ROAD,+GRANBY,+CT+06035&hl=en"
GREAT BEND POLICE DEPARTMENT,GREAT BEND POLICE STATION,335 WASHINGTON STREET,GREAT BEND,PA,18821,"http://maps.google.com/maps?q=335 WASHINGTON STREET,+GREAT BEND,+PA+18821&hl=en"
GREEN BROOK,GREEN BROOK POLICE DEPT.,109 GREENBROOK ROAD,GREEN BROOK,NJ,08812,"http://maps.google.com/maps?q=109 GREENBROOK ROAD,+GREEN BROOK,+NJ+08812&hl=en"
GREENWICH POLICE DEPARTMENT,PUBLIC SAFETY COMPLEX,11 BRUCE PLACE,GREENWICH,CT,06830,"http://maps.google.com/maps?q=11 BRUCE PLACE,+GREENWICH,+CT+06830&hl=en"
GUILDERLAND POLICE DEPARTMENT,"PUBLIC LIBRARY 
												
													AUXILIARY PARKING LOT",2228 WESTERN AVENUE,GUILDERLAND,NY,12084,"http://maps.google.com/maps?q=2228 WESTERN AVENUE,+GUILDERLAND,+NY+12084&hl=en"
HAMDEN POLICE DEPARTMENT,HAMDEN POLICE DEPARTMENT,2900 DIXWELL AVE,HAMDEN,CT,06518,"http://maps.google.com/maps?q=2900 DIXWELL AVE,+HAMDEN,+CT+06518&hl=en"
HAMILTON COLLEGE CAMPUS SAFETY,HAMILTON COLLEGE CAMPUS SAFETY,198 COLLEGE HILL ROAD,CLINTON,NY,13323,"http://maps.google.com/maps?q=198 COLLEGE HILL ROAD,+CLINTON,+NY+13323&hl=en"
HAMILTON COUNTY SHERIFF'S OFFICE,HAMILTON COUNTY JAIL,102 COUNTY VIEW DRIVE,LAKE PLEASANT,NY,12108,"http://maps.google.com/maps?q=102 COUNTY VIEW DRIVE,+LAKE PLEASANT,+NY+12108&hl=en"
HARDING TOWNSHIP POLICE DEPARTMENT,HARDING TOWNSHIP POLICE DEPARTMENT,21 BLUE MILL ROAD,NEW VERNON,NJ,07976,"http://maps.google.com/maps?q=21 BLUE MILL ROAD,+NEW VERNON,+NJ+07976&hl=en"
HARTFORD POLICE DEPARTMENT,HARTFORD POLICE DEPARTMENT,253 HIGH ST.,HARTFORD,CT,06103,"http://maps.google.com/maps?q=253 HIGH ST.,+HARTFORD,+CT+06103&hl=en"
HASBROUCK HEIGHTS POLICE DEPARTMENT,"HASBROUCK HEIGHTS POLICE DEPARTMENT 
												
													201-288-1000",248 HAMILTON AVE.,HASBROUCK HEIGHTS,NJ,07604,"http://maps.google.com/maps?q=248 HAMILTON AVE.,+HASBROUCK HEIGHTS,+NJ+07604&hl=en"
HAVERSTRAW POLICE DEPARTMENT,CVS,12 WEST RAMAPO ROAD,GARNERVILLE,NY,10923,"http://maps.google.com/maps?q=12 WEST RAMAPO ROAD,+GARNERVILLE,+NY+10923&hl=en"
HEMPSTEAD POLICE DEPARTMENT,HEMPSTEAD POLICE DEPARTMENT,99 NICHOLAS COURTS,HEMPSTEAD,NY,11550,"http://maps.google.com/maps?q=99 NICHOLAS COURTS,+HEMPSTEAD,+NY+11550&hl=en"
HERKIMER COUNTY SHERIFF'S OFFICE,HERKIMER COUNTY SHERIFF'S OFFICE,320 NORTH MAIN STREETSUITE 2900,HERKIMER,NY,13350,"http://maps.google.com/maps?q=320 NORTH MAIN STREET,+HERKIMER,+NY+13350&hl=en"
HIGHLAND PARK POLICE DEPARTMENT,"HIGHLAND PARK COMMUNITY YOUTH CENTER 
												
													732-572-3800",222 SOUTH 6TH AVE.,HIGHLAND PARK,NJ,08904,"http://maps.google.com/maps?q=222 SOUTH 6TH AVE.,+HIGHLAND PARK,+NJ+08904&hl=en"
HOBOKEN POLICE DEPARTMENT,HOBOKEN POLICE DEPARTMENT,106 HUDSON STREET,HOBOKEN,NJ,07030,"http://maps.google.com/maps?q=106 HUDSON STREET,+HOBOKEN,+NJ+07030&hl=en"
HOLYOKE MA POLICE DEPARTMENT,"HOLYOKE POLICE DEPARTMENT 
												
													NARCOTICS/VICE DIVISION",138 APPLETON ST,HOLYOKE,MA,01040,"http://maps.google.com/maps?q=138 APPLETON ST,+HOLYOKE,+MA+01040&hl=en"
HOPATCONG BOROUGH POLICE DEPARTMENT,"HOPATCONG POLICE DEPARTMENT 
												
													973-398-5000",111 RIVER STYX RD,HOPATCONG,NJ,07843,"http://maps.google.com/maps?q=111 RIVER STYX RD,+HOPATCONG,+NJ+07843&hl=en"
ILION POLICE DEPARTMENT,KINNEY DRUGS,40 1ST  STREET,ILION,NY,13357,"http://maps.google.com/maps?q=40 1ST  STREET,+ILION,+NY+13357&hl=en"
JEFFERSON TWP. POLICE DEPARTMENT,"JEFFERSON TWP. MUNICIPAL BUILDING 
												
													973-697-1300",1033 WELDON ROAD,OAK RIDGE,NJ,07438,"http://maps.google.com/maps?q=1033 WELDON ROAD,+OAK RIDGE,+NJ+07438&hl=en"
KENILWORTH POLICE DEPARTMENT,KENILWORTH POLICE DEPARTMENT,567 BOULEVARD,KENILWORTH,NJ,07033,"http://maps.google.com/maps?q=567 BOULEVARD,+KENILWORTH,+NJ+07033&hl=en"
KINGS POINT POLICE DEPARTMENT,"KINGS POINT POLICE DEPARTMENT 
												
													GEORGE J. BANVILLE 516 482-1000",32 STEPPINGSTONE LANE,KINGS POINT,NY,11024,"http://maps.google.com/maps?q=32 STEPPINGSTONE LANE,+KINGS POINT,+NY+11024&hl=en"
KIRKLAND POLICE DEPARTMENT,KINNEY DRUGS,12 FRANKLIN AVE.,CLINTON,NY,13323,"http://maps.google.com/maps?q=12 FRANKLIN AVE.,+CLINTON,+NY+13323&hl=en"
LENOX HEALTH GREENWICH VILLAGE,LENOX HILL HEALTHPLEX,30 7TH AVENUE,NEW YORK,NY,10011,"http://maps.google.com/maps?q=30 7TH AVENUE,+NEW YORK,+NY+10011&hl=en"
LENOX HILL HOSPITAL,"LENOX HILL HOSPITAL 
												
													MICHAEL LOMBARDI",100 EAST 77TH STREET,NEW YORK,NY,10075,"http://maps.google.com/maps?q=100 EAST 77TH STREET,+NEW YORK,+NY+10075&hl=en"
LENOX POLICE DEPARTMENT,"LENOX TOWN HALL 
												
													AUDITORIUM",6 WALKER ST.,LENOX,MA,01240,"http://maps.google.com/maps?q=6 WALKER ST.,+LENOX,+MA+01240&hl=en"
LIVINGSTON TWP. POLICE DEPARTMENT,"LIVINGSTON TWP. POLICE DEPARTMENT 
												
													973-992-3000",333 SOUTH LIVINGSTON AVE.,LIVINGSTON,NJ,07039,"http://maps.google.com/maps?q=333 SOUTH LIVINGSTON AVE.,+LIVINGSTON,+NJ+07039&hl=en"
LONG HILL TOWNSHIP POLICE DEPARTMENT,LONG HILL TOWNSHIP POLICE DEPARTMENT,264 MERCER STREET,STIRLING,NJ,07980,"http://maps.google.com/maps?q=264 MERCER STREET,+STIRLING,+NJ+07980&hl=en"
LONG ISLAND JEWISH MEDICAL CENTER,"LONG ISLAND JEWISH MEDICAL CENTER 
												
													LOBBY",270-05 76ST AVENUE,NEW HYDE PARK,NY,11040,"http://maps.google.com/maps?q=270-05 76ST AVENUE,+NEW HYDE PARK,+NY+11040&hl=en"
LUDLOW POLICE DEPARTMENT,LUDLOW POLICE DEPARTMENT,612 CHAPIN ST,LUDLOW,MA,01056,"http://maps.google.com/maps?q=612 CHAPIN ST,+LUDLOW,+MA+01056&hl=en"
LYNBROOK POLICE DEPARTMENT,"LYNBROOK POLICE DEPARTMENT 
												
													SGT SEAN MURPHY",1 COLUMBUS DR AVENUE,LYNBROOK,NY,11563,"http://maps.google.com/maps?q=1 COLUMBUS DR AVENUE,+LYNBROOK,+NY+11563&hl=en"
MANVILLE POLICE DEPARTMENT,"MANVILLE POLICE DEPARTMENT 
												
													908-725-1900",2 NORTH MAIN ST.,MANVILLE,NJ,08835,"http://maps.google.com/maps?q=2 NORTH MAIN ST.,+MANVILLE,+NJ+08835&hl=en"
MECHANICVILLE POLICE DEPARTMENT,"CVS PHARMACY 
												
													PARKING LOT",12 SOUTH CENTRAL AVENUE,MECHANICVILLE,NY,12118,"http://maps.google.com/maps?q=12 SOUTH CENTRAL AVENUE,+MECHANICVILLE,+NY+12118&hl=en"
MENDHAM TOWNSHIP,MENDHAM TWP. PD,3 CHERRY LANE,BROOKSIDE,NJ,07926,"http://maps.google.com/maps?q=3 CHERRY LANE,+BROOKSIDE,+NJ+07926&hl=en"
METUCHEN POLICE DEPARTMENT,METUCHEN POLICE DEPARTMENT,500 MAIN STREET,METUCHEN,NJ,08840,"http://maps.google.com/maps?q=500 MAIN STREET,+METUCHEN,+NJ+08840&hl=en"
MIDDLEFIELD PD,MIDDLEFIELD RESIDENT TROOPER OFFICE,405 MAIN ST,MIDDLEFIELD,CT,06455,"http://maps.google.com/maps?q=405 MAIN ST,+MIDDLEFIELD,+CT+06455&hl=en"
MIDDLESEX BOROUGH POLICE DEPARTMENT,"MIDDLESEX POLICE DEPARTMENT 
												
													732-356-1900",1101 MOUNTAIN AVE.,MIDDLESEX,NJ,08846,"http://maps.google.com/maps?q=1101 MOUNTAIN AVE.,+MIDDLESEX,+NJ+08846&hl=en"
MIDDLETOWN POLICE,MIDDLETOWN POLICE DEPARTMENT,222 MAIN ST,MIDDLETOWN,CT,06457,"http://maps.google.com/maps?q=222 MAIN ST,+MIDDLETOWN,+CT+06457&hl=en"
MILFORD POLICE DEPT.,MILFORD SENIOR CENTER,9 JEPSON DR.,MILFORD,CT,06460,"http://maps.google.com/maps?q=9 JEPSON DR.,+MILFORD,+CT+06460&hl=en"
MONROE POLICE DEPARTMENT,MONROE SENIOR CITIZEN CENTER,235 CUTLER'S FARM ROAD,MONROE,CT,06468,"http://maps.google.com/maps?q=235 CUTLER'S FARM ROAD,+MONROE,+CT+06468&hl=en"
MONTICELLO POLICE DEPARTMENT,"MONTICELLO POLICE DEPT 
												
													CHIEF MUIR",2 PLEASANT STREET,MONTICELLO,NY,12701,"http://maps.google.com/maps?q=2 PLEASANT STREET,+MONTICELLO,+NY+12701&hl=en"
MORRIS PLAINS PD,STOP & SHOP SUPERMARKET,245 US 202,MORRIS PLAINS,NJ,07950,"http://maps.google.com/maps?q=245 US 202,+MORRIS PLAINS,+NJ+07950&hl=en"
MORRIS TOWNSHIP PD,SHOPRITE,178 EAST HANOVER AVE.,CEDAR KNOLLS,NJ,07927,"http://maps.google.com/maps?q=178 EAST HANOVER AVE.,+CEDAR KNOLLS,+NJ+07927&hl=en"
MOSCOW BOROUGH POLICE DEPARTMENT,MOSCOW BOROUGH MUNICIPAL BUILDING,123 VAN BRUNT ST,MOSCOW,PA,18444,"http://maps.google.com/maps?q=123 VAN BRUNT ST,+MOSCOW,+PA+18444&hl=en"
MOUNTAINSIDE PD,MOUNTAINSIDE POLICE DEPT.,1385 ROUTE 22 EAST,MOUNTAINSIDE,NJ,07092,"http://maps.google.com/maps?q=1385 ROUTE 22 EAST,+MOUNTAINSIDE,+NJ+07092&hl=en"
NEW BRITAIN POLICE DEPARTMENT,NEW BRITAIN POLICE DEPARTMENT,10 CHESTNUT STREET,NEW BRITAIN,CT,06051,"http://maps.google.com/maps?q=10 CHESTNUT STREET,+NEW BRITAIN,+CT+06051&hl=en"
NEW BRUNSWICK POLICE DEPARTMENT,"NEW BRUNSWICK POLICE DEPARTMENT 
												
													732-745-5200",25 KIRKPATRICK ST.,NEW BRUNSWICK,NJ,08901,"http://maps.google.com/maps?q=25 KIRKPATRICK ST.,+NEW BRUNSWICK,+NJ+08901&hl=en"
NEW FAIRFIELD RESIDENT TROOPERS OFFICE CSP-A,NEW FAIRFIELD RESIDENT TROOPERS OFFICE,302 BALL POND ROAD,NEW FAIRFIELD,CT,06812,"http://maps.google.com/maps?q=302 BALL POND ROAD,+NEW FAIRFIELD,+CT+06812&hl=en"
NEW HARTFORD POLICE DEPARTMENT,NEW HARTFORD POLICE DEPARTMENT,32 KELLOGG RD,NEW HARTFORD,NY,13413,"http://maps.google.com/maps?q=32 KELLOGG RD,+NEW HARTFORD,+NY+13413&hl=en"
NEW MILFORD BORO P.D.,NEW MILFOR BORO P.D.,930 RIVER ROAD,NEW MILFORD,NJ,07646,"http://maps.google.com/maps?q=930 RIVER ROAD,+NEW MILFORD,+NJ+07646&hl=en"
NEW PALTZ POLICE DEPARTMENT,POLICE STATION,83 S. PUTT CORNERS RD.,NEW PALTZ,NY,12561,"http://maps.google.com/maps?q=83 S. PUTT CORNERS RD.,+NEW PALTZ,+NY+12561&hl=en"
NEW PROVIDENCE PD,NEW PROVIDENCE PD,360 ELKWOOD AVE.,NEW PROVIDENCE,NJ,07974,"http://maps.google.com/maps?q=360 ELKWOOD AVE.,+NEW PROVIDENCE,+NJ+07974&hl=en"
NEW YORK STATE POLICE,"NEW YORK STATE POLICE 
												
													CLIFTON PARK",5 MUNICIPAL PLAZASTATE ROUTE 146,CLIFTON PARK,NY,12065,"http://maps.google.com/maps?q=5 MUNICIPAL PLAZA,+CLIFTON PARK,+NY+12065&hl=en"
NEW YORK STATE POLICE,"NEW YORK STATE POLICE 
												
													SCHODACK",1485 STATE RT 9,CASTLETON,NY,12033,"http://maps.google.com/maps?q=1485 STATE RT 9,+CASTLETON,+NY+12033&hl=en"
NEW YORK STATE POLICE TROOP G,NEW YORK STATE POLICE TROOP G,760 TROY SCHENECTADY AVENUE,LATHAM,NY,12110,"http://maps.google.com/maps?q=760 TROY SCHENECTADY AVENUE,+LATHAM,+NY+12110&hl=en"
NEWARK POLICE DEPT.,1ST PRECINCT,10  17TH AVE.,NEWARK,NJ,07108,"http://maps.google.com/maps?q=10  17TH AVE.,+NEWARK,+NJ+07108&hl=en"
NEWARK POLICE DEPT.,2ND PRECINCT,1 LINCOLN AVE.,NEWARK,NJ,07108,"http://maps.google.com/maps?q=1 LINCOLN AVE.,+NEWARK,+NJ+07108&hl=en"
NEWARK POLICE DEPT.,3RD PRECINCT,649 MARKET ST.,NEWARK,NJ,07102,"http://maps.google.com/maps?q=649 MARKET ST.,+NEWARK,+NJ+07102&hl=en"
NEWARK POLICE DEPT.,4TH PRECINCT,247 16TH AVE.,NEWARK,NJ,07108,"http://maps.google.com/maps?q=247 16TH AVE.,+NEWARK,+NJ+07108&hl=en"
NEWARK POLICE DEPT.,5TH PRECINCT,480 CLINTON AVE.,NEWARK,NJ,07108,"http://maps.google.com/maps?q=480 CLINTON AVE.,+NEWARK,+NJ+07108&hl=en"
NEWARK POLICE DEPT.,6TH PRECINCT,491 IRVINGTON AVENUE,NEWARK,NJ,07106,"http://maps.google.com/maps?q=491 IRVINGTON AVENUE,+NEWARK,+NJ+07106&hl=en"
NEWARK POLICE DEPT.,POLICE MAIN DESK,22 FRANKLIN ST.,NEWARK,NJ,07108,"http://maps.google.com/maps?q=22 FRANKLIN ST.,+NEWARK,+NJ+07108&hl=en"
NEWARK POLICE DEPT.,SPECIAL OPERATIONS DIVISION,472 ORANGE ST.,NEWARK,NJ,07108,"http://maps.google.com/maps?q=472 ORANGE ST.,+NEWARK,+NJ+07108&hl=en"
NEWARK POLICE DEPT.,YOUTH AID SECTION/ CJAPU,43 DICKERSON ST.,NEWARK,NJ,07108,"http://maps.google.com/maps?q=43 DICKERSON ST.,+NEWARK,+NJ+07108&hl=en"
NEWTON POLICE DEPARTMENT,NEWTON POLICE DEPARTMENT,39 TRINITY STREET,NEWTON,NJ,07860,"http://maps.google.com/maps?q=39 TRINITY STREET,+NEWTON,+NJ+07860&hl=en"
NEWTOWN POLICE DEPARTMENT,NEWTOWN POLICE DEPARTMENT,3 MAIN STREET,NEWTOWN,CT,06470,"http://maps.google.com/maps?q=3 MAIN STREET,+NEWTOWN,+CT+06470&hl=en"
NORTH BERGEN P.D.,NORTH BERGEN P.D.,4233 KENNEDY BLVD.,NORTH BERGEN,NJ,07047,"http://maps.google.com/maps?q=4233 KENNEDY BLVD.,+NORTH BERGEN,+NJ+07047&hl=en"
NORTH CASTLE POLICE DEPARTMENT,"NORTH CASTLE TOWN HALL 
												
													POLICE DEPARTMENT",15 BEDFORD RD,ARMONK,NY,10504,"http://maps.google.com/maps?q=15 BEDFORD RD,+ARMONK,+NY+10504&hl=en"
NORTH GREENBUSH POLICE DEPARTMENT,"NORTH GREENBUSH POLICE DEPARTMENT 
												
													CHIEF ROBERT DURIVAGE",133 BLOOMING GROVE DRIVE,TROY,NY,12180,"http://maps.google.com/maps?q=133 BLOOMING GROVE DRIVE,+TROY,+NY+12180&hl=en"
NORTH HAVEN,NORTH HAVEN FIRE HQS,11 BROADWAY,NORTH HAVEN,CT,06473,"http://maps.google.com/maps?q=11 BROADWAY,+NORTH HAVEN,+CT+06473&hl=en"
NORTH PLAINFIELD POLICE DEPT.,NORTH PLAINFIELD P D FRONT LOBBY,263 SOMERSET STREET,PLAINFIELD,NJ,07060,"http://maps.google.com/maps?q=263 SOMERSET STREET,+PLAINFIELD,+NJ+07060&hl=en"
NORTH SHORE HEALTH LIJ HUNTINGTON HOSPITAL,"NORTH SHORE HEALTH LIJ HUNTINGTON 
												
													LOBBY",270 PARK AVENUE,HUNTINGTON,NY,11743,"http://maps.google.com/maps?q=270 PARK AVENUE,+HUNTINGTON,+NY+11743&hl=en"
NORTH SHORE UNIVERSITY HOSPITAL,NORTH SHORE UNIVERSITY HOSPITAL,300 COMMUNITY DRIVE,MANHASSET,NY,11030,"http://maps.google.com/maps?q=300 COMMUNITY DRIVE,+MANHASSET,+NY+11030&hl=en"
NORTHAMPTON POLICE DEPARTMENT,JFK MIDDLE SCHOOL,100 BRIDGE RD,FLORENCE,MA,01062,"http://maps.google.com/maps?q=100 BRIDGE RD,+FLORENCE,+MA+01062&hl=en"
NORTHPORT VA POLICE DEPARTMENT,NORTHPORT VA POLICE DEPARTMENT,79 MIDDLEVILLE ROAD,NORTHPORT,NY,11768,"http://maps.google.com/maps?q=79 MIDDLEVILLE ROAD,+NORTHPORT,+NY+11768&hl=en"
NORTHVALE POLICE DEPARTMENT,"NORTHVALE POLICE DEPARTMENT 
												
													201-768-5900",116 PARIS AVE.,NORTHVALE,NJ,07647,"http://maps.google.com/maps?q=116 PARIS AVE.,+NORTHVALE,+NJ+07647&hl=en"
NORWICH POLICE DEPARTMENT,"NORWICH POLICE DEPARTMENT 
												
													POLICE HQ",18 E. MAIN STREET,NORWICH,NY,13815,"http://maps.google.com/maps?q=18 E. MAIN STREET,+NORWICH,+NY+13815&hl=en"
NORWOOD POLICE DEPT.,NORWOOD BOROUGH COMMUNITY CENTER,453 BROADWAY,NORWOOD,NJ,07648,"http://maps.google.com/maps?q=453 BROADWAY,+NORWOOD,+NJ+07648&hl=en"
NUTLEY POLICE DEPARTMENT,NUTLEY POLICE DEPARTMENT,228 CHESTNUT STREET,NUTLEY,NJ,07110,"http://maps.google.com/maps?q=228 CHESTNUT STREET,+NUTLEY,+NJ+07110&hl=en"
NYPD 26TH PRECINCT,"COLUMBIA UNIVERSITY 
												
													SIDEWALK",WEST 116TH STREET AND BROADWAY,NEW YORK,NY,10027,"http://maps.google.com/maps?q=WEST 116TH STREET AND BROADWAY,+NEW YORK,+NY+10027&hl=en"
NYPD 33 PCT./ COLUMBIA UNIVERSITY,COLUMBIA UNIVERSITY,560 W 168 STREET,NEW YORK,NY,10032,"http://maps.google.com/maps?q=560 W 168 STREET,+NEW YORK,+NY+10032&hl=en"
NYS UNIVERSITY POLICE @ ONEONTA,"NYS UNIVERSITY POLICE 
												
													SUNY ONEONTA",ALUMNI HALL51 SOUTH WEST DORM DRIVE,ONEONTA,NY,13820,"http://maps.google.com/maps?q=ALUMNI HALL,+ONEONTA,+NY+13820&hl=en"
OAKLAND POLICE DEPARTMENT,OAKLAND POLICE DEPARTMENT,295 RAMAPO VALLEY ROAD,OAKLAND,NJ,07436,"http://maps.google.com/maps?q=295 RAMAPO VALLEY ROAD,+OAKLAND,+NJ+07436&hl=en"
OLYPHANT POLICE DEPARTMENT,OLYPHANT BOROUGH POLICE STATION,604 EAST PARK STREET,OLYPHANT,PA,18447,"http://maps.google.com/maps?q=604 EAST PARK STREET,+OLYPHANT,+PA+18447&hl=en"
ONEONTA POLICE DEPARTMENT,POLICE DEPARTMENT,79 MAIN STREET,ONEONTA,NY,13820,"http://maps.google.com/maps?q=79 MAIN STREET,+ONEONTA,+NY+13820&hl=en"
ORANGE POLICE DEPT.,CVS,279 BOSTON POST ROAD,ORANGE,CT,06477,"http://maps.google.com/maps?q=279 BOSTON POST ROAD,+ORANGE,+CT+06477&hl=en"
OXFORD POLICE DEPARTMENT,"OXFORD POLICE DEPARTMENT 
												
													POLICE HQ",20 LAFAYETTE PARK,OXFORD,NY,13830,"http://maps.google.com/maps?q=20 LAFAYETTE PARK,+OXFORD,+NY+13830&hl=en"
PARSIPPANY-TROY HILLS PD,"MORRIS HILLS SHOPPING CENTER 
												
													IN FRONT OF HARMON'S",3035-3189 ROUTE 46,PARSIPPANY,NJ,07054,"http://maps.google.com/maps?q=3035-3189 ROUTE 46,+PARSIPPANY,+NJ+07054&hl=en"
PEAPACK & GLADSTONE POLICE DEPARTMENT,"PEAPACK & GLADSTONE POLICE DEPARTMENT 
												
													MUNICIPAL BUILDING",1 SCHOOL ST.,PEAPACK,NJ,07977,"http://maps.google.com/maps?q=1 SCHOOL ST.,+PEAPACK,+NJ+07977&hl=en"
PICATINNY ARSENAL POLICE DEPARTMENT,"PICATINNY ARSENAL POLICE DEPARTMENT 
												
													973-724-3817",173 BUFFINGTON RD.,PICATINNY ARSENAL,NJ,07806,"http://maps.google.com/maps?q=173 BUFFINGTON RD.,+PICATINNY ARSENAL,+NJ+07806&hl=en"
PISCATAWAY POLICE DEPARTMENT,"PISCATAWAY POLICE DEPARTMENT 
												
													732-562-2300",555 SIDNEY ROAD,PISCATAWAY,NJ,08854,"http://maps.google.com/maps?q=555 SIDNEY ROAD,+PISCATAWAY,+NJ+08854&hl=en"
PITTSFIELD POLICE DEPARTMENT,PITTSFIELD POLICE DEPARTMENT,39 ALLEN STREET,PITTSFIELD,MA,01201,"http://maps.google.com/maps?q=39 ALLEN STREET,+PITTSFIELD,+MA+01201&hl=en"
PORT JERVIS CITY POLICE DEPARTMENT,PORT JERVIS POLICE DEPARTMENT,20 HAMMOND STREET,PORT JERVIS,NY,12771,"http://maps.google.com/maps?q=20 HAMMOND STREET,+PORT JERVIS,+NY+12771&hl=en"
PORT WASHINGTON POLICE DEPARTMENT,"PORT WASHINGTON POLICE DEPARTMENT 
												
													DET THOMAS MCCARTY",500 PORT WASHINGTON BLVD,PORT WASHINGTON,NY,11050,"http://maps.google.com/maps?q=500 PORT WASHINGTON BLVD,+PORT WASHINGTON,+NY+11050&hl=en"
PUTNAM COMMUNITIES THAT CARE COALITION,PUTNAM HOSPITAL CENTER,670 STONELEIGH AVE,CARMEL,NY,10512,"http://maps.google.com/maps?q=670 STONELEIGH AVE,+CARMEL,+NY+10512&hl=en"
PUTNAM COUNTY SHERIFF'S OFFICE,PUTNAM HOSPITAL CENTER,670 STONLEIGH AVE,CARMEL,NY,10512,"http://maps.google.com/maps?q=670 STONLEIGH AVE,+CARMEL,+NY+10512&hl=en"
RAHWAY POLICE DEPARTMENT,RAHWAY POLICE DEPARTMENT,1 CITY HALL PLAZA,RAHWAY,NJ,07065,"http://maps.google.com/maps?q=1 CITY HALL PLAZA,+RAHWAY,+NJ+07065&hl=en"
RANDOLPH POLICE DEPARTMENT,ACME SUPERMARKET,690 MILLBROOK AVE,RANDOLPH,NJ,07869,"http://maps.google.com/maps?q=690 MILLBROOK AVE,+RANDOLPH,+NJ+07869&hl=en"
RARITAN BORO POLICE DEPARTMENT,RARITAN PD,20 FIRST ST.,RARITAN,NJ,08869,"http://maps.google.com/maps?q=20 FIRST ST.,+RARITAN,+NJ+08869&hl=en"
RENSSELAER  POLICE DEPARTMENT,NORTH END FIRE STATION,2 ST. FRANCIS PLACE,RENSSELAER,NY,12144,"http://maps.google.com/maps?q=2 ST. FRANCIS PLACE,+RENSSELAER,+NY+12144&hl=en"
RIDGEFIELD PARK POLICE DEPARTMENT,"RIDGEFIELD PARK POLICE DEPARTMENT 
												
													201-641-6400",234 MAIN ST.,RIDGEFIELD PARK,NJ,07660,"http://maps.google.com/maps?q=234 MAIN ST.,+RIDGEFIELD PARK,+NJ+07660&hl=en"
RIDGEFIELD POLICE DEPARTMENT,BISSELL PHARMACY,23 GOVERNOR ST,RIDGEFIELD,CT,06877,"http://maps.google.com/maps?q=23 GOVERNOR ST,+RIDGEFIELD,+CT+06877&hl=en"
RIDGEFIELD POLICE DEPARTMENT,RIDGEFIELD POLICE DEPARTMENT,76 EAST RIDGE RD,RIDGEFIELD,CT,06877,"http://maps.google.com/maps?q=76 EAST RIDGE RD,+RIDGEFIELD,+CT+06877&hl=en"
ROCKLAND COUNTY SHERIFFS OFFICE,"ROCKLAND COUNTY SHERIFF OFFICE 
												
													WALGREENS PARKING LOT",16 ROUTE 59,NYACK,NY,10960,"http://maps.google.com/maps?q=16 ROUTE 59,+NYACK,+NY+10960&hl=en"
ROCKY HILL POLICE DEPARTMENT,ROCKY HILL POLICE DEPARTMENT,699 OLD MAIN STREET,ROCKY HILL,CT,06067,"http://maps.google.com/maps?q=699 OLD MAIN STREET,+ROCKY HILL,+CT+06067&hl=en"
ROME POLICE DEPARTMENT,POLICE HQ,301 N. JAMES ST.,ROME,NY,13440,"http://maps.google.com/maps?q=301 N. JAMES ST.,+ROME,+NY+13440&hl=en"
ROSELAND POLICE DEPARTMENT,ROSELAND POLICE DEPARTMENT,15 HARRISON AVENUE,ROSELAND,NJ,07068,"http://maps.google.com/maps?q=15 HARRISON AVENUE,+ROSELAND,+NJ+07068&hl=en"
ROTTERDAM POLICE DEPARTMENT,ROTTERDAM PD,101 PRINCETOWN ROAD,ROTTERDAM,NY,12306,"http://maps.google.com/maps?q=101 PRINCETOWN ROAD,+ROTTERDAM,+NY+12306&hl=en"
RUTGERS POLICE DEPARTMENT,RUTGERS UNIVERSITY,55 COMMERCIAL AVE.,NEW BRUNSWICK,NJ,08901,"http://maps.google.com/maps?q=55 COMMERCIAL AVE.,+NEW BRUNSWICK,+NJ+08901&hl=en"
SANDS POINT POLICE DEPARTMENT,SANDS POINT POLICE DEPARTMENT,26 TIBBITS LANE,PORT WASHINGTON,NY,11050,"http://maps.google.com/maps?q=26 TIBBITS LANE,+PORT WASHINGTON,+NY+11050&hl=en"
SARATOGA  POLICE DEPARTMENT,"SARATOGA HOSPITAL 
												
													EMERGENCY DEPT. PARKING LOT",211 CHURCH STREET,SARATOGA SPRINGS,NY,12866,"http://maps.google.com/maps?q=211 CHURCH STREET,+SARATOGA SPRINGS,+NY+12866&hl=en"
SARATOGA  POLICE DEPARTMENT,"SARATOGA POLICE DEPARTMENT 
												
													BEHIND CITY HALL",474 BROADWAY,SARATOGA SPRINGS,NY,12866,"http://maps.google.com/maps?q=474 BROADWAY,+SARATOGA SPRINGS,+NY+12866&hl=en"
SARATOGA COUNTY SHERIFF OFFICE,CLIFTON PARK-HALFMOON EMERGENCY SQUAD,15 CROSSING BLVD.,CLIFTON PARK,NY,12065,"http://maps.google.com/maps?q=15 CROSSING BLVD.,+CLIFTON PARK,+NY+12065&hl=en"
SARATOGA COUNTY SHERIFF OFFICE,MALTA FIRE DEPARTMENT,8 HEMPHILL PLACE,MALTA,NY,12020,"http://maps.google.com/maps?q=8 HEMPHILL PLACE,+MALTA,+NY+12020&hl=en"
SARATOGA COUNTY SHERIFF OFFICE,MOREAU EMERGENCY SQUAD,1583 ROUTE 9,FORT EDWARD,NY,12828,"http://maps.google.com/maps?q=1583 ROUTE 9,+FORT EDWARD,+NY+12828&hl=en"
SCHENECTADY COUNTY SHERIFF'S OFFICE,SCHENECTADY COUNTY SHERIFF'S SUBSTATION,130 PRINCETOWN PLAZA,SCHENECTADY,NY,12306,"http://maps.google.com/maps?q=130 PRINCETOWN PLAZA,+SCHENECTADY,+NY+12306&hl=en"
SCHENECTADY POLICE DEPARTMENT,SCHENECTADY POLICE DEPARTMENT,531 LIBERTY ST.,SCHENECTADY,NY,12305,"http://maps.google.com/maps?q=531 LIBERTY ST.,+SCHENECTADY,+NY+12305&hl=en"
SCHODACK POLICE DEPARTMENT,POLICE DEPARTMENT,1797 COLUMBIA TURNPIKE,CASTLETON,NY,12033,"http://maps.google.com/maps?q=1797 COLUMBIA TURNPIKE,+CASTLETON,+NY+12033&hl=en"
SCHOHARIE COUNTY SHERIFF'S DEPARTMENT,COUNTY EMERGENCY OPERATIONS CENTER,2783 STATE ROUTE 7,COBLESKILL,NY,12043,"http://maps.google.com/maps?q=2783 STATE ROUTE 7,+COBLESKILL,+NY+12043&hl=en"
SCOTIA POLICE DEPARTMENT,SCOTIA POLICE DEPARTMENT,4 NORTH TEN BROECK STREET,SCOTIA,NY,12302,"http://maps.google.com/maps?q=4 NORTH TEN BROECK STREET,+SCOTIA,+NY+12302&hl=en"
SHERMAN RESIDENT TROOPER,SHERMAN RESIDENT TROOPERS OFFICE,9 RT 38 NORTH,SHERMAN,CT,06784,"http://maps.google.com/maps?q=9 RT 38 NORTH,+SHERMAN,+CT+06784&hl=en"
SHERRILL POLICE DEPARTMENT,"SHERRILL POLICE DEPARTMENT 
												
													POLICE HQ",373 SHERRILL ROAD,SHERRILL,NY,13461,"http://maps.google.com/maps?q=373 SHERRILL ROAD,+SHERRILL,+NY+13461&hl=en"
SIDNEY POLICE DEPARTMENT,SIDNEY POLICE DEPARTMENT,21 LIBERTY STREET,SIDNEY,NY,13838,"http://maps.google.com/maps?q=21 LIBERTY STREET,+SIDNEY,+NY+13838&hl=en"
SLEEPYHOLLOW POLICE DEPARTMENT,PHELPS HOSPITAL NORTHWELL HEALTH,777 NORTH BROADWAY,SLEEPY HOLLOW,NY,10591,"http://maps.google.com/maps?q=777 NORTH BROADWAY,+SLEEPY HOLLOW,+NY+10591&hl=en"
SLEEPYHOLLOW POLICE DEPARTMENT,SLEEPYHOLLOW POLICE DEPARTMENT,28 BEEKMAN AVENUE,TARRYTOWN,NY,10591,"http://maps.google.com/maps?q=28 BEEKMAN AVENUE,+TARRYTOWN,+NY+10591&hl=en"
SOMERVILLE POLICE DEPT.,SOMERVILLE POLICE DEPT.,24 SOUTH BRIDGE ST.,SOMERVILLE,NJ,08876,"http://maps.google.com/maps?q=24 SOUTH BRIDGE ST.,+SOMERVILLE,+NJ+08876&hl=en"
SOUTH BOUND BROOK,SOUTH BOUND BROOK POLICE DEPARTMENT,12 MAIN STREET,SOUTH BOUND BROOK,NJ,08880,"http://maps.google.com/maps?q=12 MAIN STREET,+SOUTH BOUND BROOK,+NJ+08880&hl=en"
SOUTH HACKENSACK POLICE DEPARTMENT,"SOUTH HACKENSACK POLICE DEPARTMENT 
												
													201-440-0042",227 PHILLIPS AVE.,SOUTH HACKENSACK,NJ,07606,"http://maps.google.com/maps?q=227 PHILLIPS AVE.,+SOUTH HACKENSACK,+NJ+07606&hl=en"
SOUTH ORANGE POLICE DEPARTMENT,SOUTH ORANGE POLICE DEPARTMENT,201 SOUTH ORANGE AVENUE,SOUTH ORANGE,NJ,07079,"http://maps.google.com/maps?q=201 SOUTH ORANGE AVENUE,+SOUTH ORANGE,+NJ+07079&hl=en"
SOUTH PLAINFIELD POLICE DEPARTMENT,"SOUTH PLAINFIELD MUNICIPAL 
												
													9087550700",2480 PLAINFIELD AVE.,SOUTH PLAINFIELD,NJ,07080,"http://maps.google.com/maps?q=2480 PLAINFIELD AVE.,+SOUTH PLAINFIELD,+NJ+07080&hl=en"
SOUTH WINDSOR POLICE DEPARTMENT,SOUTH WINDSOR POLICE DEPARTMENT,151 SAND HILL ROAD,SOUTH WINDSOR,CT,06074,"http://maps.google.com/maps?q=151 SAND HILL ROAD,+SOUTH WINDSOR,+CT+06074&hl=en"
SOUTHAMPTON POLICE DEPARTMENT,SOUTHAMPTON FIRE/TOWN HALL PARKING LOT,210 COLLEGE HIGHWAY,SOUTHAMPTON,MA,01073,"http://maps.google.com/maps?q=210 COLLEGE HIGHWAY,+SOUTHAMPTON,+MA+01073&hl=en"
SOUTHBURY POLICE,SOUTHBURY POLICE DEPARTMENT,421 MAIN STREET SOUTH,SOUTHBURY,CT,06488,"http://maps.google.com/maps?q=421 MAIN STREET SOUTH,+SOUTHBURY,+CT+06488&hl=en"
SPRING VALLEY POLICE,SPRING VALLEY POLICE DEPARTMENT,200 NORTH MAIN STREET,SPRING VALLEY,NY,10977,"http://maps.google.com/maps?q=200 NORTH MAIN STREET,+SPRING VALLEY,+NY+10977&hl=en"
SPRING VALLEY POLICE,WALGREENS,208 E ROUTE 59,SPRING VALLEY,NY,10977,"http://maps.google.com/maps?q=208 E ROUTE 59,+SPRING VALLEY,+NY+10977&hl=en"
SPRINGFIELD POLICE DEPARTMENT,CENTRAL HIGH SCHOOL,1840 ROOSEVELT AVE,SPRINGFIELD,MA,01109,"http://maps.google.com/maps?q=1840 ROOSEVELT AVE,+SPRINGFIELD,+MA+01109&hl=en"
STAMFORD POLICE DEPARTMENT,STAMFORD POLICE DEPARTMENT,805 BEDFORD STREET,STAMFORD,CT,06901,"http://maps.google.com/maps?q=805 BEDFORD STREET,+STAMFORD,+CT+06901&hl=en"
STRATFORD POLICE,"STRATFORD POLICE DEPARTMENT 
												
													LOBBY PRESCRIPTION LOCK BOX",900 LONGBROOK AVENUE,STRATFORD,CT,06614,"http://maps.google.com/maps?q=900 LONGBROOK AVENUE,+STRATFORD,+CT+06614&hl=en"
SUFFIELD POLICE DEPARTMENT,CVS PHARMACY PARKING LOT,163 MOUNTAIN RDSUFFIELD,SUFFIELD,CT,06078,"http://maps.google.com/maps?q=163 MOUNTAIN RD,+SUFFIELD,+CT+06078&hl=en"
SUFFOLK COUNTY POLICE DEPARTMENT,"HUNTINGTON HOSPITAL 
												
													ONLY COLLECTION SITE",270 PARK AVE,HUNTINGTON,NY,11743,"http://maps.google.com/maps?q=270 PARK AVE,+HUNTINGTON,+NY+11743&hl=en"
SUNDERLAND POLICE DEPARTMENT,TOWN OF SUNDERLAND POLICE DEPARTMENT,105 RIVER ROAD,SUNDERLAND,MA,01375,"http://maps.google.com/maps?q=105 RIVER ROAD,+SUNDERLAND,+MA+01375&hl=en"
SUNY OLD WESTBURY,"SUNY OLD WESTBURY 
												
													CAMPUS POLICE STATION",223 STOREHILL ROAD,OLD WESTBURY,NY,11568,"http://maps.google.com/maps?q=223 STOREHILL ROAD,+OLD WESTBURY,+NY+11568&hl=en"
SUSQUEHANNA BOROUGH POLICE,SCHNEIDER'S MARKET,171 ERIE BLVDSUITE 1,SUSQUEHANNA,PA,18847,"http://maps.google.com/maps?q=171 ERIE BLVD,+SUSQUEHANNA,+PA+18847&hl=en"
SUSQUEHANNA COUNTY SHERIFF'S OFFICE,SUSQUEHANNA COUNTY COURTHOUSE,31 LAKE AVENUE,MONTROSE,PA,18801,"http://maps.google.com/maps?q=31 LAKE AVENUE,+MONTROSE,+PA+18801&hl=en"
THOMASTON POLICE DEPARTMENT,RITE AID,455 S. MAIN ST.,THOMASTON,CT,06787,"http://maps.google.com/maps?q=455 S. MAIN ST.,+THOMASTON,+CT+06787&hl=en"
TIOGA COUNTY SHERIFF'S OFFICE,"TIOGA COUNTY SHERIFF'S OFFICE 
												
													TRINITY-CASA OF TIOGA",ACROSS FROM AGWAY6 MCMASTER ST.,OWEGO,NY,13827,"http://maps.google.com/maps?q=ACROSS FROM AGWAY,+OWEGO,+NY+13827&hl=en"
TORRINGTON POLICE DEPARTMENT,"TORRINGTON POLICE DEPARTMENT 
												
													COLLECTION BOX IS AVAILABLE YEAR ROUND",576 MAIN STREET,TORRINGTON,CT,06790,"http://maps.google.com/maps?q=576 MAIN STREET,+TORRINGTON,+CT+06790&hl=en"
TOWN OF GLENVILLE,"GLENVILLE MUNICIPAL CENTER 
												
													POLICE ENTRANCE",18 GLENRIDGE RD.,GLENVILLE,NY,12302,"http://maps.google.com/maps?q=18 GLENRIDGE RD.,+GLENVILLE,+NY+12302&hl=en"
TOWN OF KEARNY POLICE DEPARTMENT,TOWN OF KEARNY POLICE DEPARTMENT,237 LAUREL AVENUE(FOREST STREET SIDE),KEARNY,NJ,07032,"http://maps.google.com/maps?q=237 LAUREL AVENUE,+KEARNY,+NJ+07032&hl=en"
TOWN OF NISKAYUNA POLICE DEPARTMENT,NISKAYUNA TOWN HALL,1 NISKAYUNA CIRCLE,NISKAYUNA,NY,12309,"http://maps.google.com/maps?q=1 NISKAYUNA CIRCLE,+NISKAYUNA,+NY+12309&hl=en"
TOWNSHIP OF MAPLEWOOD,MAPLEWOOD POLICE DEPARTMENT,1618 SPRINGFIELD AVENUE,MAPLEWOOD,NJ,07040,"http://maps.google.com/maps?q=1618 SPRINGFIELD AVENUE,+MAPLEWOOD,+NJ+07040&hl=en"
TROY POLICE DEPARTMENT,TROY POLICE DEPARTMENT,55 STATE STREET,TROY,NY,12180,"http://maps.google.com/maps?q=55 STATE STREET,+TROY,+NY+12180&hl=en"
TRUMBULL POLICE DEPARTMENT,TRUMBULL EMS,250 MIDDLEBROOKS AVE,TRUMBULL,CT,06611,"http://maps.google.com/maps?q=250 MIDDLEBROOKS AVE,+TRUMBULL,+CT+06611&hl=en"
UNION CITY POLICE DEPARTMENT,BELLA VISTA,522 22ND STREET,UNION CITY,NJ,07087,"http://maps.google.com/maps?q=522 22ND STREET,+UNION CITY,+NJ+07087&hl=en"
UNION CITY POLICE DEPARTMENT,UNION PLAZA APARTMENTS,300 45TH STREET,UNION CITY,NJ,07087,"http://maps.google.com/maps?q=300 45TH STREET,+UNION CITY,+NJ+07087&hl=en"
UPPER SADDLE RIVER POLICE DEPARTMENT,"UPPER SADDLE RIVER POLICE DEPARTMENT 
												
													201-327-2700",368 W. SADDLE RIVER RD.,SADDLE RIVER,NJ,07458,"http://maps.google.com/maps?q=368 W. SADDLE RIVER RD.,+SADDLE RIVER,+NJ+07458&hl=en"
UTICA POLICE DEPARTMENT,POLICE HQ,413 ORISKANY ST. W,UTICA,NY,13502,"http://maps.google.com/maps?q=413 ORISKANY ST. W,+UTICA,+NY+13502&hl=en"
VERMONT STATE POLICE,VERMONT STATE POLICE - SHAFTSBURY BARRACKS,96 AIRPORT ROAD,SHAFTSBURY,VT,05262,"http://maps.google.com/maps?q=96 AIRPORT ROAD,+SHAFTSBURY,+VT+05262&hl=en"
VERNON POLICE DEPARTMENT,WALGREENS PHARMACY,188 UNION STREET,VERNON ROCKVILLE,CT,06066,"http://maps.google.com/maps?q=188 UNION STREET,+VERNON ROCKVILLE,+CT+06066&hl=en"
VILLAGE OF DOBBS FERRY POLICE DEPARTMENT,VILLAGE OF DOBBS FERRY,112 MAIN STREET,DOBBS FERRY,NY,10522,"http://maps.google.com/maps?q=112 MAIN STREET,+DOBBS FERRY,+NY+10522&hl=en"
VILLAGE OF OSSINING POLICE DEPARTMENT,"BIRDSALL FAGAN POLICE/COURT FACILITY 
												
													COURT LOBBY",86-88 SPRING STREET,OSSINING,NY,10562,"http://maps.google.com/maps?q=86-88 SPRING STREET,+OSSINING,+NY+10562&hl=en"
VILLAGE OF RHINEBECK POLICE,NORTHERN DUTCHESS HOSPITAL,6511 SPRINGBROOK AVE,RHINEBECK,NY,12572,"http://maps.google.com/maps?q=6511 SPRINGBROOK AVE,+RHINEBECK,+NY+12572&hl=en"
WARREN COUNTY SHERIFF'S OFFICE,WARREN COUNTY SHERIFF'S OFFICE,1400 STATE ROUTE 9,LAKE GEORGE,NY,12845,"http://maps.google.com/maps?q=1400 STATE ROUTE 9,+LAKE GEORGE,+NY+12845&hl=en"
WASHINGTON COUNTY SHERIFF'S OFFICE,WASHINGTON COUNTY LAW ENFORCEMENT CENTER,399 BROADWAY,FORT EDWARD,NY,12828,"http://maps.google.com/maps?q=399 BROADWAY,+FORT EDWARD,+NY+12828&hl=en"
WATCHUNG POLICE DEPARTMENT,"WATCHUNG POLICE DEPARTMENT 
												
													908-756-3663",840 SOMERSET ST.,WATCHUNG,NJ,07069,"http://maps.google.com/maps?q=840 SOMERSET ST.,+WATCHUNG,+NJ+07069&hl=en"
WATERBURY POLICE DEPARTMENT,"WATERBURY POLICE DEPARTMENT 
												
													FRONT LOBBY SAFE DISPOSAL",255 EAST MAIN ST,WATERBURY,CT,06702,"http://maps.google.com/maps?q=255 EAST MAIN ST,+WATERBURY,+CT+06702&hl=en"
WATERVLIET POLICE DEPARTMENT,WATERVLIET POLICE DEPARTMENT,2-15TH STREET,WATERVLIET,NY,12189,"http://maps.google.com/maps?q=2-15TH STREET,+WATERVLIET,+NY+12189&hl=en"
WAYNE TWP. POLICE DEPARTMENT,"WAYNE POLICE DEPARTMENT 
												
													973-633-3550",475 VALLEY ROAD,WAYNE,NJ,07470,"http://maps.google.com/maps?q=475 VALLEY ROAD,+WAYNE,+NJ+07470&hl=en"
WEST CALDWELL POLICE,WEST CALDWELL PD,21 CLINTON ROAD,WEST CALDWELL,NJ,07006,"http://maps.google.com/maps?q=21 CLINTON ROAD,+WEST CALDWELL,+NJ+07006&hl=en"
WEST HARTFORD POLICE DEPARTMENT,"WEST HARTFORD POLICE DEPARTMENT 
												
													LT SAM FERRUCCI",103 RAYMOND RD,WEST HARTFORD,CT,06107,"http://maps.google.com/maps?q=103 RAYMOND RD,+WEST HARTFORD,+CT+06107&hl=en"
WESTCHESTER COUNTY POLICE,"NORTHERN WESTCHESTER HOSPITAL 
												
													MAIN LOBBY",400 MAIN ST.,MOUNT KISCO,NY,10549,"http://maps.google.com/maps?q=400 MAIN ST.,+MOUNT KISCO,+NY+10549&hl=en"
WESTON POLICE DEPARTMENT,WESTON POLICE DEPARTMENT,56 NORFIELD ROAD,WESTON,CT,06883,"http://maps.google.com/maps?q=56 NORFIELD ROAD,+WESTON,+CT+06883&hl=en"
WESTPORT POLICE DEPARTMENT,WESTPORT-WESTON HEALTH DISTRICT,180 BAYBERYY LANE,WESTPORT,CT,06880,"http://maps.google.com/maps?q=180 BAYBERYY LANE,+WESTPORT,+CT+06880&hl=en"
WETHERSFIELD POLICE DEPARTMENT,"WETHERSFIELD POLICE DEPARTMENT 
												
													MAIN LOBBY",250 SILAS DEANE HWY.,WETHERSFIELD,CT,06109,"http://maps.google.com/maps?q=250 SILAS DEANE HWY.,+WETHERSFIELD,+CT+06109&hl=en"
WILLIAMSBURG POLICE DEPT,WILLAIMSBURG PHARMACY,49 MAIN ST,WILLIAMSBURG,MA,01096,"http://maps.google.com/maps?q=49 MAIN ST,+WILLIAMSBURG,+MA+01096&hl=en"
WINDSOR POLICE DEPARTMENT,"CVS 
												
													484 WINDSOR AVE, WINDSOR",484 WINDSOR AVE,WINDSOR,CT,06095,"http://maps.google.com/maps?q=484 WINDSOR AVE,+WINDSOR,+CT+06095&hl=en"
WOLCOTT POLICE DEPT.,WOLCOTT POLICE DEPARTMENT,225 NICHOLS RD.,WOLCOTT,CT,06716,"http://maps.google.com/maps?q=225 NICHOLS RD.,+WOLCOTT,+CT+06716&hl=en"
WOOD RIDGE  PD,WOOD RIDGE POLICE HQ,85 HUMBOLDT ST,WOOD RIDGE,NJ,07075,"http://maps.google.com/maps?q=85 HUMBOLDT ST,+WOOD RIDGE,+NJ+07075&hl=en"
WOODBRIDGE POLICE DEPARTMENT,"WOODBRIDGE POLICE DEPARTMENT 
												
													732-634-7700",1 MAIN STREET,WOODBRIDGE,NJ,07095,"http://maps.google.com/maps?q=1 MAIN STREET,+WOODBRIDGE,+NJ+07095&hl=en"
WOODBURY POLICE,WOODBURY POLICE,281 MAIN STREET SOUTH,WOODBURY,CT,06798,"http://maps.google.com/maps?q=281 MAIN STREET SOUTH,+WOODBURY,+CT+06798&hl=en"
