Participant,CollectionSite,Address,City,State,Zip,MapURL
BAILEYTON POLICE DEPT.,BAILEYTON POLICE DEPT.,6530 HORTON HWY,GREENEVILLE,TN,37745,"http://maps.google.com/maps?q=6530 HORTON HWY,+GREENEVILLE,+TN+37745&hl=en"
BECKLEY POLICE DEPARTMENT,RALEIGH COUNTY COMMISSION ON AGING,1614 SOUTH KANAWHA STREET,BECKLEY,WV,25801,"http://maps.google.com/maps?q=1614 SOUTH KANAWHA STREET,+BECKLEY,+WV+25801&hl=en"
BISHOPVILLE POLICE DEPT,BISHOPVILLE CITY POLICE DEPT.,112 E. COUNCIL ST.,BISHOPVILLE,SC,29010,"http://maps.google.com/maps?q=112 E. COUNCIL ST.,+BISHOPVILLE,+SC+29010&hl=en"
BLACKSBURG POLICE DEPARTMENT,"BLACKSBURG RECREATION CENTER 
												
													PARKING LOT",725 PATRICK HENRY DRIVE,BLACKSBURG,VA,24060,"http://maps.google.com/maps?q=725 PATRICK HENRY DRIVE,+BLACKSBURG,+VA+24060&hl=en"
BLAND COUNTY SHERIFF'S OFFICE,BLAND COUNTY SHERIFFS OFFICE,612 MAIN ST. SUITE 203,BLAND,VA,24315,"http://maps.google.com/maps?q=612 MAIN ST. SUITE 203,+BLAND,+VA+24315&hl=en"
BOTETOURT COUNTY SHERIFF'S OFFICE,BOTETOURT PHYSICAL THERAPY,104 KINGSTON DRIVE,DALEVILLE,VA,24083,"http://maps.google.com/maps?q=104 KINGSTON DRIVE,+DALEVILLE,+VA+24083&hl=en"
BRISTOL SHERIFF'S OFFICE,"FOOD CITY 
												
													NEAR FRONT ENTRANCE",1320 EUCLID AVE,BRISTOL,VA,24201,"http://maps.google.com/maps?q=1320 EUCLID AVE,+BRISTOL,+VA+24201&hl=en"
BRISTOL TENNESSEE POLICE DEPARTMENT,BRISTOL POLICE DEPARTMENT,801 ANDERSON STREET,BRISTOL,TN,37620,"http://maps.google.com/maps?q=801 ANDERSON STREET,+BRISTOL,+TN+37620&hl=en"
BRUNSWICK COUNTY SHERIFF'S OFFICE,NOVANT HEALTH BRUNSWICK MEDICAL CENTER,240 HOSPITAL DRIVE NE,BOLIVIA,NC,28422,"http://maps.google.com/maps?q=240 HOSPITAL DRIVE NE,+BOLIVIA,+NC+28422&hl=en"
BUCHANAN COUNTY SHERIFF'S OFFICE,"FOOD CITY PHARMACY 
												
													VANSANT FOOD CITY",18765 RIVERSIDE DRIVE,VANSANT,VA,24656,"http://maps.google.com/maps?q=18765 RIVERSIDE DRIVE,+VANSANT,+VA+24656&hl=en"
BUNCOMBE COUNTY SHERIFF'S OFFICE,ASHEVILLE REGIONAL AIRPORT,61 TERMINAL DRIVE,FLETCHER,NC,28732,"http://maps.google.com/maps?q=61 TERMINAL DRIVE,+FLETCHER,+NC+28732&hl=en"
BUNCOMBE COUNTY SHERIFF'S OFFICE,CVS PHARMACY,425 W. STATE STREET,BLACK MOUNTAIN,NC,28711,"http://maps.google.com/maps?q=425 W. STATE STREET,+BLACK MOUNTAIN,+NC+28711&hl=en"
BUNCOMBE COUNTY SHERIFF'S OFFICE,CVS PHARMACY,505 SMOKEY PARK HIGHWAY,ASHEVILLE,NC,28806,"http://maps.google.com/maps?q=505 SMOKEY PARK HIGHWAY,+ASHEVILLE,+NC+28806&hl=en"
BUNCOMBE COUNTY SHERIFF'S OFFICE,SONA PHARMACY,805 FAIRVIEW RD,ASHEVILLE,NC,28803,"http://maps.google.com/maps?q=805 FAIRVIEW RD,+ASHEVILLE,+NC+28803&hl=en"
BUNCOMBE COUNTY SHERIFF'S OFFICE,WALGREEN'S,1124 PATTON AVE,ASHEVILLE,NC,28806,"http://maps.google.com/maps?q=1124 PATTON AVE,+ASHEVILLE,+NC+28806&hl=en"
BUNCOMBE COUNTY SHERIFF'S OFFICE,WALGREEN'S,1835 HENDERSONVILLE RD,ASHEVILLE,NC,28803,"http://maps.google.com/maps?q=1835 HENDERSONVILLE RD,+ASHEVILLE,+NC+28803&hl=en"
BUNCOMBE COUNTY SHERIFF'S OFFICE,WALGREEN'S,841 MERRIMON AVE,ASHEVILLE,NC,28804,"http://maps.google.com/maps?q=841 MERRIMON AVE,+ASHEVILLE,+NC+28804&hl=en"
BUNCOMBE COUNTY SHERIFF'S OFFICE,WALGREEN'S,91 S. TUNNEL RD,ASHEVILLE,NC,28805,"http://maps.google.com/maps?q=91 S. TUNNEL RD,+ASHEVILLE,+NC+28805&hl=en"
CAMDEN POLICE DEPARTMENT,CAMDEN POLICE DEPARTMENT,816 W. DEKALB ST.,CAMDEN,SC,29020,"http://maps.google.com/maps?q=816 W. DEKALB ST.,+CAMDEN,+SC+29020&hl=en"
CANNON PHARMACY,CANNON PHARMACY,1706 S CANNON BLVD,KANNAPOLIS,NC,28083,"http://maps.google.com/maps?q=1706 S CANNON BLVD,+KANNAPOLIS,+NC+28083&hl=en"
CANNON PHARMACY,CANNON PHARMACY,760 CABARRUS AVE W,CONCORD,NC,28025,"http://maps.google.com/maps?q=760 CABARRUS AVE W,+CONCORD,+NC+28025&hl=en"
CANNON PHARMACY,CONCORD PHARMACY AND SURGICAL SUPPLIES,3497 HWY 601 S.,CONCORD,NC,28025,"http://maps.google.com/maps?q=3497 HWY 601 S.,+CONCORD,+NC+28025&hl=en"
CANNON PHARMACY,HARRISBURG'S HOMETOWN PHARMACY,5006 NC HIGHWAY 49 S,HARRISBURG,NC,28075,"http://maps.google.com/maps?q=5006 NC HIGHWAY 49 S,+HARRISBURG,+NC+28075&hl=en"
CANNON PHARMACY,MOOSE DRUG COMPANY,8374 FRANKLIN ST. W.,MOUNT PLEASANT,NC,28124,"http://maps.google.com/maps?q=8374 FRANKLIN ST. W.,+MOUNT PLEASANT,+NC+28124&hl=en"
CANNON PHARMACY,MOOSE PROFESSIONAL PHARMACY,270 COPPERFIELD BLVD NE #101,CONCORD,NC,28025,"http://maps.google.com/maps?q=270 COPPERFIELD BLVD NE #101,+CONCORD,+NC+28025&hl=en"
CANNON PHARMACY,WEST CABARRUS YMCA,5325 LANGFORD AVE NW,CONCORD,NC,28027,"http://maps.google.com/maps?q=5325 LANGFORD AVE NW,+CONCORD,+NC+28027&hl=en"
CARROLL COUNTY SHERIFF'S OFFICE,CVS PHARMACY - HILLSVILLE,915 WEST STUART DRIVE,HILLSVILLE,VA,24343,"http://maps.google.com/maps?q=915 WEST STUART DRIVE,+HILLSVILLE,+VA+24343&hl=en"
CARTER COUNTY SO,"CARTER COUNTY DETENTION CENTER 
												
													INSIDE LOBBY AREA. OPEN 24HRS PER DAY.",900 3RD ST.,ELIZABETHTON,TN,37643,"http://maps.google.com/maps?q=900 3RD ST.,+ELIZABETHTON,+TN+37643&hl=en"
CHAPIN POLICE DEPARTMENT,CHAPIN TOWN HALL,157 NW COLUMBIA AVE,CHAPIN,SC,29036,"http://maps.google.com/maps?q=157 NW COLUMBIA AVE,+CHAPIN,+SC+29036&hl=en"
CHEROKEE COUNTY SHERIFF'S OFFICE,"CHEROKEE CO. SHERIFF'S OFFICE 
												
													LAW ENFORCEMENT CENTER",312 EAST FREDERICK ST.(10AM-1PM ONLY!),GAFFNEY,SC,29340,"http://maps.google.com/maps?q=312 EAST FREDERICK ST.,+GAFFNEY,+SC+29340&hl=en"
CHESAPEAKE POLICE DEPARTMENT,CHESAPEAKE POLICE 2ND PRECINCT,1209 20TH STREET,CHESAPEAKE,VA,23324,"http://maps.google.com/maps?q=1209 20TH STREET,+CHESAPEAKE,+VA+23324&hl=en"
CHESAPEAKE POLICE DEPARTMENT,CHESAPEAKE POLICE 3RD PRECINCT,949 N. GEORGE WASHINGTON HIGHWAY,CHESAPEAKE,VA,23323,"http://maps.google.com/maps?q=949 N. GEORGE WASHINGTON HIGHWAY,+CHESAPEAKE,+VA+23323&hl=en"
CHESAPEAKE POLICE DEPARTMENT,CHESAPEAKE POLICE 4TH PRECINCT,4764 STATION HOUSE ROAD,CHESAPEAKE,VA,23321,"http://maps.google.com/maps?q=4764 STATION HOUSE ROAD,+CHESAPEAKE,+VA+23321&hl=en"
CHESAPEAKE SHERIFF'S OFFICE,"CHESAPEAKE SHERIFF'S OFFICE 
												
													ADMIN BUILDING ACROSS FROM CORRECTIONAL CENTER",401 ALBEMARLE DRIVE,CHESAPEAKE,VA,23322,"http://maps.google.com/maps?q=401 ALBEMARLE DRIVE,+CHESAPEAKE,+VA+23322&hl=en"
CHESTER POLICE DEPARTMENT,WAL-MART,1691 JA COCHRAN BYPASS,CHESTER,SC,29706,"http://maps.google.com/maps?q=1691 JA COCHRAN BYPASS,+CHESTER,+SC+29706&hl=en"
CHRISTIANSBURG POLICE DEPARTMENT,"CVS PHARMACY 
												
													PARKING LOT NEAR ENTRANCE",550 NORTH FRANKLIN ST,CHRISTIANSBURG,VA,24073,"http://maps.google.com/maps?q=550 NORTH FRANKLIN ST,+CHRISTIANSBURG,+VA+24073&hl=en"
COEBURN POLICE DEPARTMENT,"COEBURN FOOD CITY 
												
													MARTY SHOPPING CENTER",517 FRONT ST W,COEBURN,VA,24230,"http://maps.google.com/maps?q=517 FRONT ST W,+COEBURN,+VA+24230&hl=en"
COLUMBUS POLICE DEPARTMENT,CVS PHARMACY,333 W. MILLS STREET,COLUMBUS,NC,28722,"http://maps.google.com/maps?q=333 W. MILLS STREET,+COLUMBUS,+NC+28722&hl=en"
CRAIG COUNTY SHERIFF'S OFFICE,"MARKET STREET PHARMACY 
												
													PARKING LOT",317 MARKET ST,NEW CASTLE,VA,24127,"http://maps.google.com/maps?q=317 MARKET ST,+NEW CASTLE,+VA+24127&hl=en"
CURRITUCK COUNTY SHERIFF'S OFFICE,MOYOCK FOOD LION,101 LARK DR,MOYOCK,NC,27958,"http://maps.google.com/maps?q=101 LARK DR,+MOYOCK,+NC+27958&hl=en"
DAMASCUS POLICE DEPARTMENT,DAMASCUS TOWN PARK,104 S BEAVER DAM AVE,DAMASCUS,VA,24236,"http://maps.google.com/maps?q=104 S BEAVER DAM AVE,+DAMASCUS,+VA+24236&hl=en"
DANDRIDGE POLICE DEPARTMENT,FOOD CITY,123 WEST HWY 25/70,DANDRIDGE,TN,37725,"http://maps.google.com/maps?q=123 WEST HWY 25/70,+DANDRIDGE,+TN+37725&hl=en"
DANVILLE POLICE DEPARTMENT,"CENTRA MEDICAL GROUP DANVILLE 
												
													PARKING LOT - WEST END OF THE BUILDING",414 PARK AVE,DANVILLE,VA,24541,"http://maps.google.com/maps?q=414 PARK AVE,+DANVILLE,+VA+24541&hl=en"
DICKENSON COUNTY SHERIFF'S OFFICE,"FOOD CITY 
												
													NEAR THE FRONT ENTRANCE",410 CHASE STREET,CLINTWOOD,VA,24228,"http://maps.google.com/maps?q=410 CHASE STREET,+CLINTWOOD,+VA+24228&hl=en"
DILLON COUNTY SHERIFF'S OFFICE,DILLON COUNTY JUDICIAL CENTER,1033 OLD LATTA HWY,DILLON,SC,29536,"http://maps.google.com/maps?q=1033 OLD LATTA HWY,+DILLON,+SC+29536&hl=en"
DUBLIN POLICE DEPARTMENT,CVS PHARMACY #7658,100 GILES AVENUE,DUBLIN,VA,24084,"http://maps.google.com/maps?q=100 GILES AVENUE,+DUBLIN,+VA+24084&hl=en"
DURHAM POLICE DEPARTMENT,KROGER,202 W NC HIGHWAY 54,DURHAM,NC,27713,"http://maps.google.com/maps?q=202 W NC HIGHWAY 54,+DURHAM,+NC+27713&hl=en"
DURHAM POLICE DEPARTMENT,KROGER,3457 HILLSBOROUGH ROAD,DURHAM,NC,27705,"http://maps.google.com/maps?q=3457 HILLSBOROUGH ROAD,+DURHAM,+NC+27705&hl=en"
DURHAM POLICE DEPARTMENT,TRIANGLE PHARMACY,1700 E NC HIGHWAY 54,DURHAM,NC,27713,"http://maps.google.com/maps?q=1700 E NC HIGHWAY 54,+DURHAM,+NC+27713&hl=en"
DURHAM POLICE DEPARTMENT,WALGREENS,1812 HOLLOWAY STREET,DURHAM,NC,27701,"http://maps.google.com/maps?q=1812 HOLLOWAY STREET,+DURHAM,+NC+27701&hl=en"
ELGIN POLICE DEPARTMENT,ELGIN TOWN HALL,2469 MAIN STREET,ELGIN,SC,29045,"http://maps.google.com/maps?q=2469 MAIN STREET,+ELGIN,+SC+29045&hl=en"
ELIZABETHTON TN POLICE DEPARTMENT,ELIZABETHTON POLICE DEPARTMENT,525 EAST F STREET,ELIZABETHTON,TN,37643,"http://maps.google.com/maps?q=525 EAST F STREET,+ELIZABETHTON,+TN+37643&hl=en"
ELKIN POLICE DEPARTMENT,"WAL-MART 
												
													COLLECTION WILL BE IN THE PARKING LOT",548 CC CAMP RD,ELKIN,NC,28621,"http://maps.google.com/maps?q=548 CC CAMP RD,+ELKIN,+NC+28621&hl=en"
ERWIN POLICE DEPARTMENT,CITY HALL,211 N. MAIN AVENUE,ERWIN,TN,37650,"http://maps.google.com/maps?q=211 N. MAIN AVENUE,+ERWIN,+TN+37650&hl=en"
FAYETTEVILLE POLICE DEPARTMENT,"CAMPBELLTON DISTRICT FAYETTEVILLE POLICE DEPARTMEN 
												
													MON-FRI  9-4PM  SATURDAY 9-1",467 HAY ST.,FAYETTEVILLE,NC,28301,"http://maps.google.com/maps?q=467 HAY ST.,+FAYETTEVILLE,+NC+28301&hl=en"
FAYETTEVILLE POLICE DEPARTMENT,"CENTRAL DISTRICT FAYETTEVILLE POLICE DEPT 
												
													MON-FRI  9-4PM",3811 SYCAMORE DAIRY RD,FAYETTEVILLE,NC,28303,"http://maps.google.com/maps?q=3811 SYCAMORE DAIRY RD,+FAYETTEVILLE,+NC+28303&hl=en"
FAYETTEVILLE POLICE DEPARTMENT,"CROSS CREEK DIVISION FAYETTEVILLE POLICE DEPT 
												
													MON-FRI  9-4PM",6147 RAEFORD RD,FAYETTEVILLE,NC,28304,"http://maps.google.com/maps?q=6147 RAEFORD RD,+FAYETTEVILLE,+NC+28304&hl=en"
FLETCHER POLICE DEPARTMENT,FLETCHER TOWN HALL,300 OLD CANE CREEK RD,FLETCHER,NC,28732,"http://maps.google.com/maps?q=300 OLD CANE CREEK RD,+FLETCHER,+NC+28732&hl=en"
FLORENCE POLICE DEPARTMENT,FIRST BAPTIST CHURCH,300 S. IRBY STREET,FLORENCE,SC,29501,"http://maps.google.com/maps?q=300 S. IRBY STREET,+FLORENCE,+SC+29501&hl=en"
FLOYD COUNTY SHERIFF'S OFFICE,"FLOYD COUNTY SHERIFF'S OFFICE 
												
													MAIN ENTRANCE",100 MAIN STREET,FLOYD,VA,24091,"http://maps.google.com/maps?q=100 MAIN STREET,+FLOYD,+VA+24091&hl=en"
FOUNTAIN INN POLICE DEPT.,FOUNTAIN INN POLICE DEPT.,300 N. MAIN STREET,FOUNTAIN INN,SC,29644,"http://maps.google.com/maps?q=300 N. MAIN STREET,+FOUNTAIN INN,+SC+29644&hl=en"
FRANKLIN COUNTY SHERIFF'S OFFICE,FERRUM COLLEGE PD OFFICE,10021 FRANKLIN STREET,FERRUM,VA,24088,"http://maps.google.com/maps?q=10021 FRANKLIN STREET,+FERRUM,+VA+24088&hl=en"
FRANKLIN COUNTY SHERIFF'S OFFICE,FRANKLIN COUNTY SHERIFF'S  WESTLAKE SUBSTATION,13205 BOOKER T. WASHINGTON HWY,HARDY,VA,24101,"http://maps.google.com/maps?q=13205 BOOKER T. WASHINGTON HWY,+HARDY,+VA+24101&hl=en"
GALAX POLICE DEPARTMENT,"GALAX POLICE DEPARTMENT 
												
													POLICE DEPARTMENT PARKING LOT",353 N. MAIN STREET,GALAX,VA,24333,"http://maps.google.com/maps?q=353 N. MAIN STREET,+GALAX,+VA+24333&hl=en"
GARNER POLICE DEPARTMENT,"GARNER POLICE DEPARTMENT 
												
													MONDAY - FRIDAY 8A - 5P",912 SEVENTH AVE,GARNER,NC,27529,"http://maps.google.com/maps?q=912 SEVENTH AVE,+GARNER,+NC+27529&hl=en"
GATLINBURG POLICE DEPT.,GATLINBURG PD,1230 E. PKWY,GATLINBURG,TN,37738,"http://maps.google.com/maps?q=1230 E. PKWY,+GATLINBURG,+TN+37738&hl=en"
GILES COUNTY SHERIFF'S OFFICE,GILES COUNTY SHERIFF'S OFFICE,1 TAYLOR AVENUE SUITE 3,PEARISBURG,VA,24134,"http://maps.google.com/maps?q=1 TAYLOR AVENUE SUITE 3,+PEARISBURG,+VA+24134&hl=en"
GRAINGER COUNTY SHERIFF'S DEPARTMENT,OKIES PHARMACY,1050 RUTLEDGE PIKE,BLAINE,TN,37709,"http://maps.google.com/maps?q=1050 RUTLEDGE PIKE,+BLAINE,+TN+37709&hl=en"
GRAYSON COUNTY SHERIFF'S OFFICE,CORNER CAFE & MARKET,4013 TROUTDALE HIGHWAY,MOUTH OF WILSON,VA,24363,"http://maps.google.com/maps?q=4013 TROUTDALE HIGHWAY,+MOUTH OF WILSON,+VA+24363&hl=en"
GRAYSON COUNTY SHERIFF'S OFFICE,FRIES FIRE DEPARTMENT,832 EAST MAIN STREET,FRIES,VA,24330,"http://maps.google.com/maps?q=832 EAST MAIN STREET,+FRIES,+VA+24330&hl=en"
GREENE COUNTY SHERIFF'S DEPT.,"CHUCKEY DOAK MIDDLE SCHOOL 
												
													PARKING LOT",120 CHUCKEY DOAK RD.,AFTON,TN,37616,"http://maps.google.com/maps?q=120 CHUCKEY DOAK RD.,+AFTON,+TN+37616&hl=en"
GREENE COUNTY SHERIFF'S DEPT.,"WEST GREENE HIGH SCHOOL 
												
													PARKING LOT",275 W. GREENE DR.,MOSHEIM,TN,37818,"http://maps.google.com/maps?q=275 W. GREENE DR.,+MOSHEIM,+TN+37818&hl=en"
GREENVILLE HEALTH SYSTEM PD,GREENVILLE MEMORIAL HOSPITAL,701 GROVE RD,GREENVILLE,SC,29605,"http://maps.google.com/maps?q=701 GROVE RD,+GREENVILLE,+SC+29605&hl=en"
GREENVILLE HEALTH SYSTEM PD,GREER MEMORIAL HOSPITAL,830 S. BUNCOMBE RD.,GREER,SC,29650,"http://maps.google.com/maps?q=830 S. BUNCOMBE RD.,+GREER,+SC+29650&hl=en"
GREENVILLE HEALTH SYSTEM PD,HILLCREST MEMORIAL HOSPITAL,729 SE MAIN STREET,SIMPSONVILLE,SC,29681,"http://maps.google.com/maps?q=729 SE MAIN STREET,+SIMPSONVILLE,+SC+29681&hl=en"
GREENVILLE HEALTH SYSTEM PD,OCONEE MEMORIAL HOSPITAL,298 MEMORIAL DR,SENECA,SC,29672,"http://maps.google.com/maps?q=298 MEMORIAL DR,+SENECA,+SC+29672&hl=en"
GREENVILLE POLICE DEPARTMENT,GREENEVILLE POLICE DEPARTMENT,200 N. COLLEGE STREET,GREENEVILLE,TN,37745,"http://maps.google.com/maps?q=200 N. COLLEGE STREET,+GREENEVILLE,+TN+37745&hl=en"
GREENWOOD COUNTY SHERIFF'S OFFICE,GREENWOOD COUNTY SHERIFF'S OFFICE,528 EDGEFIELD STREET,GREENWOOD,SC,29646,"http://maps.google.com/maps?q=528 EDGEFIELD STREET,+GREENWOOD,+SC+29646&hl=en"
GREER POLICE DEPARTMENT,ACE ENVIRONMENTAL,315 BUNCOMBE ST.,GREER,SC,29651,"http://maps.google.com/maps?q=315 BUNCOMBE ST.,+GREER,+SC+29651&hl=en"
HARLAN POLICE DEPARTMENT,HARLAN POLICE DEPARTMENT,218 SOUTH MAIN,HARLAN,KY,40831,"http://maps.google.com/maps?q=218 SOUTH MAIN,+HARLAN,+KY+40831&hl=en"
HAVELOCK POLICE DEPARTMENT,"HAVELOCK POLICE DEPARTMENT 
												
													252-463-7104",2 GOVERNMENTAL AVE,HAVELOCK,NC,28532,"http://maps.google.com/maps?q=2 GOVERNMENTAL AVE,+HAVELOCK,+NC+28532&hl=en"
HAWKINS COUNTY SHERIFF'S OFFICE,HAWKINS COUNTY SHERIFF'S OFFICE,117 JUSTIC CENTER DR,ROGERSVILLE,TN,37857,"http://maps.google.com/maps?q=117 JUSTIC CENTER DR,+ROGERSVILLE,+TN+37857&hl=en"
HIGH POINT POLICE DEPARTMENT,"ARCHDALE DRUG 
												
													10AM.-2PM",11220 N MAIN STREET,HIGH POINT,NC,27263,"http://maps.google.com/maps?q=11220 N MAIN STREET,+HIGH POINT,+NC+27263&hl=en"
HINTON POLICE DEPARTMENT,"KROGER 
												
													PARKING LOT",308 STOKES DRIVE,HINTON,WV,25951,"http://maps.google.com/maps?q=308 STOKES DRIVE,+HINTON,+WV+25951&hl=en"
HOLLY RIDGE POLICE DEPARTMENT,"HOLLY RIDGE POLICE DEPARTMENT 
												
													LT. EWAN S RICHARDS",313SOUND ROAD,HOLLY RIDGE,NC,28445,"http://maps.google.com/maps?q=313,+HOLLY RIDGE,+NC+28445&hl=en"
IRMO POLICE DEPARTMENT,IRMO POLICE DEPARTMENT,1230 COLUMBIA AVE.,IRMO,SC,29063,"http://maps.google.com/maps?q=1230 COLUMBIA AVE.,+IRMO,+SC+29063&hl=en"
JACKSONVILLE POLICE DEPARTMENT,ONSLOW MEMORIAL HOSPITAL,317 WESTERN BLVD,JACKSONVILLE,NC,28546,"http://maps.google.com/maps?q=317 WESTERN BLVD,+JACKSONVILLE,+NC+28546&hl=en"
JACKSONVILLE POLICE DEPARTMENT,WALGREENS,1600 GUM BRANCH RD.,JACKSONVILLE,NC,28540,"http://maps.google.com/maps?q=1600 GUM BRANCH RD.,+JACKSONVILLE,+NC+28540&hl=en"
JACKSONVILLE POLICE DEPARTMENT,WALGREENS,359 WESTERN BLVD.,JACKSONVILLE,NC,28546,"http://maps.google.com/maps?q=359 WESTERN BLVD.,+JACKSONVILLE,+NC+28546&hl=en"
JASON BROCK,VIDANT DUPLIN HOSTIPAL,411 N. MAIN ST,KENANSVILLE,NC,28349,"http://maps.google.com/maps?q=411 N. MAIN ST,+KENANSVILLE,+NC+28349&hl=en"
JOHNSON COUNTY SHERIFF'S OFFICE,BUTLER FIRE DEPARTMENT,PIERCE TOWN ROAD,BUTLER,TN,37640,"http://maps.google.com/maps?q=PIERCE TOWN ROAD,+BUTLER,+TN+37640&hl=en"
JOHNSON COUNTY SHERIFF'S OFFICE,MOUNTAIN CITY POLICE DEPARTMENT,210 SOUTH CHURCH STREET,MOUNTAIN CITY,TN,37683,"http://maps.google.com/maps?q=210 SOUTH CHURCH STREET,+MOUNTAIN CITY,+TN+37683&hl=en"
JOHNSON COUNTY SHERIFF'S OFFICE,SHADY VALLEY FIRE DEPT.,10114 US 421 N,SHADY VALLEY,TN,37688,"http://maps.google.com/maps?q=10114 US 421 N,+SHADY VALLEY,+TN+37688&hl=en"
JONESBOROUGH DEPT. OF PUBLIC SAFETY,JONESBOROUGH FIRE DEPT.,123 BOONE STREET,JONESBOROUGH,TN,37659,"http://maps.google.com/maps?q=123 BOONE STREET,+JONESBOROUGH,+TN+37659&hl=en"
KANNAPOLIS YMCA,KANNAPOLIS YMCA,101 YMCA DRIVE,KANNAPOLIS,NC,28081,"http://maps.google.com/maps?q=101 YMCA DRIVE,+KANNAPOLIS,+NC+28081&hl=en"
KENTUCKY STATE POLICE POST 10,KENTUCKY STATE POLICE,3319 SOUTH US 421,HARLAN,KY,40831,"http://maps.google.com/maps?q=3319 SOUTH US 421,+HARLAN,+KY+40831&hl=en"
KENTUCKY STATE POLICE POST 9 PIKEVILLE,KENTUCKY STATE POLICE POST 9 PIKEVILLE,3499 N MAYO TRAIL,PIKEVILLE,KY,41501,"http://maps.google.com/maps?q=3499 N MAYO TRAIL,+PIKEVILLE,+KY+41501&hl=en"
KERSHAW COUNTY SHERIFF'S OFFICE,KERSHAW CO. SHERIFF'S OFFICE,821 RIDGEWAY RD.,LUGOFF,SC,29078,"http://maps.google.com/maps?q=821 RIDGEWAY RD.,+LUGOFF,+SC+29078&hl=en"
KINGSPORT POLICE DEPARTMENT,KINGSPORT JUSTICE CENTER,200 SHELBY ST,KINGSPORT,TN,37660,"http://maps.google.com/maps?q=200 SHELBY ST,+KINGSPORT,+TN+37660&hl=en"
KINGSPORT POLICE DEPARTMENT,V.O. DOBBINS COMPLEX,301 LOUIS ST,KINGSPORT,TN,37660,"http://maps.google.com/maps?q=301 LOUIS ST,+KINGSPORT,+TN+37660&hl=en"
KINSTON POLICE DEPARTMENT,WAL-MART,4101 W. VERNON AVE.,KINSTON,NC,28504,"http://maps.google.com/maps?q=4101 W. VERNON AVE.,+KINSTON,+NC+28504&hl=en"
LAWRENCEVILLE POLICE DEPARTMENT,"LAWRENCEVILLE MUNICIPAL BUILDING 
												
													AT THE ENTRANCE TO THE POLICE DEPARTMENT",400 N. MAIN STREET,LAWRENCEVILLE,VA,23868,"http://maps.google.com/maps?q=400 N. MAIN STREET,+LAWRENCEVILLE,+VA+23868&hl=en"
LAZARO RAMOS,VILLAGE PHARMACY AT THE BEACON,14057 US HWY 17 SUITE 100,HAMPSTEAD,NC,28443,"http://maps.google.com/maps?q=14057 US HWY 17 SUITE 100,+HAMPSTEAD,+NC+28443&hl=en"
LEBANON POLICE DEPARTMENT,WALMART,1050 REGIONAL PARK ROAD,LEBANON,VA,24266,"http://maps.google.com/maps?q=1050 REGIONAL PARK ROAD,+LEBANON,+VA+24266&hl=en"
LEE COUNTY SHERIFF'S OFFICE,"FOOD CITY STORE 
												
													NEAR FRONT ENTRANCE",205 RIVER BEND ROAD,PENNINGTON GAP,VA,24277,"http://maps.google.com/maps?q=205 RIVER BEND ROAD,+PENNINGTON GAP,+VA+24277&hl=en"
LENOIR POLICE DEPARTMENT,"CVS PHARMACY 
												
													10:00AM ---2:00 PM",875 BLOWING ROCK BLVD,LENOIR,NC,28645,"http://maps.google.com/maps?q=875 BLOWING ROCK BLVD,+LENOIR,+NC+28645&hl=en"
LOGAN COUNTY SHERIFF'S DEPARTMENT,"WAL-MART SUPER CENTER 
												
													FOUNTAIN PLACE MALL",U.S.  119/WV 73,LOGAN,WV,25601,"http://maps.google.com/maps?q=U.S.  119/WV 73,+LOGAN,+WV+25601&hl=en"
MARTINSVILLE POLICE DEPARTMENT,"MARTINSVILLE FIRE DEPARTMENT 
												
													FRONT ENTRANCE",65 WEST CHURCH ST.,MARTINSVILLE,VA,24112,"http://maps.google.com/maps?q=65 WEST CHURCH ST.,+MARTINSVILLE,+VA+24112&hl=en"
MATEWAN WV PD,MATEWAN POLICE DEPARTMENT,ROUTE 65 MCCOY ALLEY,MATEWAN,WV,25678,"http://maps.google.com/maps?q=ROUTE 65 MCCOY ALLEY,+MATEWAN,+WV+25678&hl=en"
MCDOWELL COUNTY SHERIFF DEPARTMENT,MAGIC MART,COAL HERITAGE RD,WELCH,WV,24801,"http://maps.google.com/maps?q=COAL HERITAGE RD,+WELCH,+WV+24801&hl=en"
MERCER COUNTY SHERIFF'S DEPARTMENT,MERCER COUNTY SD GARAGE,1501 WEST MAIN STREET,PRINCETON,WV,24740,"http://maps.google.com/maps?q=1501 WEST MAIN STREET,+PRINCETON,+WV+24740&hl=en"
MOORESVILLE POLICE DEPARTMENT,"WALMART 
												
													CONSUMER SQUARE SHOPPING CENTER",169 NORMAN STATION BOULEVARD,MOORESVILLE,NC,28117,"http://maps.google.com/maps?q=169 NORMAN STATION BOULEVARD,+MOORESVILLE,+NC+28117&hl=en"
MOUNT AIRY POLICE DEPARTMENT,"MOUNT AIRY POLICE DEPARTMENT 
												
													FRONT LOBBY",150 ROCKFORD STREET,MOUNT AIRY,NC,27030,"http://maps.google.com/maps?q=150 ROCKFORD STREET,+MOUNT AIRY,+NC+27030&hl=en"
MOUNT CARMEL POLICE DEPT.,PUBLIC SAFETY DEPT.,213 HAMMOND AVENUE,MOUNT CARMEL,TN,37645,"http://maps.google.com/maps?q=213 HAMMOND AVENUE,+MOUNT CARMEL,+TN+37645&hl=en"
NC STATE UNIVERSITY POLICE DEPT.,"NC STATE UNIVERSITY POLICE DEPARTMENT 
												
													FRONT LOBBY",2610 WOLF VILLAGE WAYCAMPUS BOX 7220,RALEIGH,NC,27695,"http://maps.google.com/maps?q=2610 WOLF VILLAGE WAY,+RALEIGH,+NC+27695&hl=en"
NEW BERN POLICE DEPARTMENT,REALO DISCOUNT DRUG STORE,1301 COMMERCE DR,NEW BERN,NC,28562,"http://maps.google.com/maps?q=1301 COMMERCE DR,+NEW BERN,+NC+28562&hl=en"
NEW HANOVER REGIONAL MEDICAL CENTER,NHRMC ATLANTIC SURGICENTER,9104 MARKET STREET,WILMINGTON,NC,28411,"http://maps.google.com/maps?q=9104 MARKET STREET,+WILMINGTON,+NC+28411&hl=en"
NEW HANOVER REGIONAL MEDICAL CENTER,NHRMC BRUNSWICK FOREST,1333 S. DICKINSON DRIVE,LELAND,NC,28451,"http://maps.google.com/maps?q=1333 S. DICKINSON DRIVE,+LELAND,+NC+28451&hl=en"
NEW HANOVER REGIONAL MEDICAL CENTER,NHRMC MEDICAL MALL,2243 S. 17TH STREET,WILMINGTON,NC,28402,"http://maps.google.com/maps?q=2243 S. 17TH STREET,+WILMINGTON,+NC+28402&hl=en"
NEW HANOVER REGIONAL MEDICAL CENTER,NHRMC URGENT CARE,112 MEDICAL VILLAGE DRIVE,WALLACE,NC,28466,"http://maps.google.com/maps?q=112 MEDICAL VILLAGE DRIVE,+WALLACE,+NC+28466&hl=en"
NEW HANOVER REGIONAL MEDICAL CENTER,NHRMC URGENT CARE,1135 MILITARY CUTOFF ROAD SUITE #103,WILMINGTON,NC,28405,"http://maps.google.com/maps?q=1135 MILITARY CUTOFF ROAD SUITE #103,+WILMINGTON,+NC+28405&hl=en"
NEW HANOVER REGIONAL MEDICAL CENTER,PENDER MEMORIAL HOSPITAL,507 E. FREMONT STREET,BURGAW,NC,28425,"http://maps.google.com/maps?q=507 E. FREMONT STREET,+BURGAW,+NC+28425&hl=en"
NEWBERRY COUNTY SHERIFF'S OFFICE,NEWBERRY COUNTY SHERIFF'S OFFICE,550 WILSON RD.,NEWBERRY,SC,29108,"http://maps.google.com/maps?q=550 WILSON RD.,+NEWBERRY,+SC+29108&hl=en"
NEWPORT POLICE DEPT.,FOOD CITY EAST,416 EASTERN PLAZA,NEWPORT,TN,37821,"http://maps.google.com/maps?q=416 EASTERN PLAZA,+NEWPORT,+TN+37821&hl=en"
NORFOLK POLICE DEPARTMENT,"NORFOLK POLICE 3RD DIVISION 
												
													FRONT ENTRANCE",901 ASBURY AVENUE,NORFOLK,VA,23513,"http://maps.google.com/maps?q=901 ASBURY AVENUE,+NORFOLK,+VA+23513&hl=en"
NORFOLK POLICE DEPARTMENT,"NORFOLK POLICE OPERATIONS CENTER 
												
													FRONT ENTRANCE",3661 E. VIRGINIA BEACH BLVD,NORFOLK,VA,23502,"http://maps.google.com/maps?q=3661 E. VIRGINIA BEACH BLVD,+NORFOLK,+VA+23502&hl=en"
NORFOLK POLICE DEPARTMENT,"NORFOLK POLICE TRAINING CENTER 
												
													FRONT ENTRANCE",2500 N. MILITARY HWY,NORFOLK,VA,23502,"http://maps.google.com/maps?q=2500 N. MILITARY HWY,+NORFOLK,+VA+23502&hl=en"
NORFOLK STATE UNIVERSITY POLICE DEPARTMENT,"NORFOLK STATE UNIVERSITY PD 
												
													LOBBY AREA",2501 CORPREW AVE,NORFOLK,VA,23504,"http://maps.google.com/maps?q=2501 CORPREW AVE,+NORFOLK,+VA+23504&hl=en"
NORTH MYRTLE BEACH DEPT OF PUBLIC SAFETY,NORTH MYRTLE BEACH DPS,1015 2ND AVE S,NORTH MYRTLE BEACH,SC,29582,"http://maps.google.com/maps?q=1015 2ND AVE S,+NORTH MYRTLE BEACH,+SC+29582&hl=en"
NORTON POLICE DEPARTMENT,"CVS PHARMACY 
												
													PARKING LOT",1128 PARK AVENUE,NORTON,VA,24273,"http://maps.google.com/maps?q=1128 PARK AVENUE,+NORTON,+VA+24273&hl=en"
OAK HILL WV POLICE DEPARTMENT,OAK HILL PD,691 VIRGINIA ST,OAK HILL,WV,25901,"http://maps.google.com/maps?q=691 VIRGINIA ST,+OAK HILL,+WV+25901&hl=en"
OCONEE COUNTY SHERIFF'S OFFICE,OCSO,300 S. CHURCH ST.,WALHALLA,SC,29691,"http://maps.google.com/maps?q=300 S. CHURCH ST.,+WALHALLA,+SC+29691&hl=en"
ONSLOW COUNTY SHERIFF OFFICE,CVS PHARMACY,1309 NC HWY 210,SNEADS FERRY,NC,28460,"http://maps.google.com/maps?q=1309 NC HWY 210,+SNEADS FERRY,+NC+28460&hl=en"
ONSLOW COUNTY SHERIFF OFFICE,"WAL GREENS PHARMACY 
												
													910-219-0490",3069 RICHLANDS HWY,JACKSONVILLE,NC,28540,"http://maps.google.com/maps?q=3069 RICHLANDS HWY,+JACKSONVILLE,+NC+28540&hl=en"
PATRICK COUNTY SHERIFF'S OFFICE,PATRICK COUNTY SHERIFF'S OFFICE,742 COMMERCE STREET,STUART,VA,24171,"http://maps.google.com/maps?q=742 COMMERCE STREET,+STUART,+VA+24171&hl=en"
PICKENS COUNTY SHERIFF'S OFFICE,BAPTIST EASLEY HOSPITAL,200 FLEET DR,EASLEY,SC,29640,"http://maps.google.com/maps?q=200 FLEET DR,+EASLEY,+SC+29640&hl=en"
PICKENS COUNTY SHERIFF'S OFFICE,CANNON HOSPITAL,123 W G ACKER DR,PICKENS,SC,29671,"http://maps.google.com/maps?q=123 W G ACKER DR,+PICKENS,+SC+29671&hl=en"
PICKENS COUNTY SHERIFF'S OFFICE,CLEMSON FREE CLINIC,1200 CLEMSON,CLEMSON,SC,29631,"http://maps.google.com/maps?q=1200 CLEMSON,+CLEMSON,+SC+29631&hl=en"
PIGEON FORGE POLICE DEPARTMENT,KRISPY KREME DONUTS,4074 PARKWAY,PIGEON FORGE,TN,37863,"http://maps.google.com/maps?q=4074 PARKWAY,+PIGEON FORGE,+TN+37863&hl=en"
PITTSYLVANIA COUNTY SHERIFF'S OFFICE,"FOOD LION 
												
													PARKING LOT",100 VADEN STREET,GRETNA,VA,24557,"http://maps.google.com/maps?q=100 VADEN STREET,+GRETNA,+VA+24557&hl=en"
PITTSYLVANIA COUNTY SHERIFF'S OFFICE,"MT. HERMON SHOPPING CENTER 
												
													FOOD LION PARKING LOT",4048 FRANKLIN TURNPIKE,DANVILLE,VA,24540,"http://maps.google.com/maps?q=4048 FRANKLIN TURNPIKE,+DANVILLE,+VA+24540&hl=en"
PITTSYLVANIA COUNTY SHERIFF'S OFFICE,"PITTSYLVANIA COUNTY SHERIFF'S OFFICE 
												
													IN FRONT OF SHERIFF'S OFFICE",21 NORTH MAIN STREET,CHATHAM,VA,24531,"http://maps.google.com/maps?q=21 NORTH MAIN STREET,+CHATHAM,+VA+24531&hl=en"
PORTSMOUTH POLICE DEPARTMENT,"PORTSMOUTH FIRE STATION #3 
												
													FRONT DOOR",4001 RIVERSHORE ROAD,PORTSMOUTH,VA,23703,"http://maps.google.com/maps?q=4001 RIVERSHORE ROAD,+PORTSMOUTH,+VA+23703&hl=en"
PORTSMOUTH POLICE DEPARTMENT,PORTSMOUTH POLICE DEPARTMENT HEADQUARTERS,801 WATER ST,PORTSMOUTH,VA,23704,"http://maps.google.com/maps?q=801 WATER ST,+PORTSMOUTH,+VA+23704&hl=en"
PORTSMOUTH POLICE DEPARTMENT,"PORTSMOUTH SAFETY TOWN 
												
													OUTSIDE FRONT DOOR",4404 DEEP CREEK BLVD,PORTSMOUTH,VA,23702,"http://maps.google.com/maps?q=4404 DEEP CREEK BLVD,+PORTSMOUTH,+VA+23702&hl=en"
PULASKI (TOWN OF) POLICE DEPARTMENT,"FOOD CITY 
												
													PARKING LOT NEAR ENTRANCE TO STORE",1400 BOB WHITE BLVD,PULASKI,VA,24301,"http://maps.google.com/maps?q=1400 BOB WHITE BLVD,+PULASKI,+VA+24301&hl=en"
PULASKI SHERIFF'S OFFICE,"FAIRLAWN WALMART 
												
													APRIL 28, 2018 LOCATION",7373 PEPPERS FERRY BLVD,RADFORD,VA,24141,"http://maps.google.com/maps?q=7373 PEPPERS FERRY BLVD,+RADFORD,+VA+24141&hl=en"
RADFORD CITY POLICE DEPARTMENT,"RADFORD FIRE DEPARTMENT 
												
													PARKING LOT",1500 WADSWORTH STREET,RADFORD,VA,24141,"http://maps.google.com/maps?q=1500 WADSWORTH STREET,+RADFORD,+VA+24141&hl=en"
RADFORD UNIVERSITY POLICE DEPARTMENT,BONNIE HURLBURT STUDENT CENTER,700 CLEMENT ST.,RADFORD,VA,24141,"http://maps.google.com/maps?q=700 CLEMENT ST.,+RADFORD,+VA+24141&hl=en"
RALEIGH COUNTY SD,CRAB ORCHARD PHARMACY,1299 ROBERT C. BYRD DRIVE,CRAB ORCHARD,WV,25827,"http://maps.google.com/maps?q=1299 ROBERT C. BYRD DRIVE,+CRAB ORCHARD,+WV+25827&hl=en"
RALEIGH POLICE DEPARTMENT,FALLS RIVER PHARMACY,10930 RAVEN RIDGE RD,RALEIGH,NC,27614,"http://maps.google.com/maps?q=10930 RAVEN RIDGE RD,+RALEIGH,+NC+27614&hl=en"
RALEIGH POLICE DEPARTMENT,HAYES BARTON PHARMACY,2000 FAIRVIEW RD,RALEIGH,NC,27608,"http://maps.google.com/maps?q=2000 FAIRVIEW RD,+RALEIGH,+NC+27608&hl=en"
RALEIGH POLICE DEPARTMENT,JOSEF'S PHARMACY,2100 NEW BERN AVE,RALEIGH,NC,27610,"http://maps.google.com/maps?q=2100 NEW BERN AVE,+RALEIGH,+NC+27610&hl=en"
RALEIGH POLICE DEPARTMENT,WELLNESS PHARMACY AND COMPOUNDING CENTER,2601 BLUE RIDGE RD,RALEIGH,NC,27607,"http://maps.google.com/maps?q=2601 BLUE RIDGE RD,+RALEIGH,+NC+27607&hl=en"
RANDOLPH COUNTY SHERIFF'S OFFICE,"RANDOLPH MALL 
												
													PARKING LOT BESIDE DUNHAM'S",1437 EAST DIXIE DR,ASHEBORO,NC,27203,"http://maps.google.com/maps?q=1437 EAST DIXIE DR,+ASHEBORO,+NC+27203&hl=en"
RICHLANDS POLICE DEPARTMENT,"RICHLANDS POLICE DEPARTMENT 
												
													FRONT LOBBY",1851 CRANWELL DRIVE,RICHLANDS,VA,24641,"http://maps.google.com/maps?q=1851 CRANWELL DRIVE,+RICHLANDS,+VA+24641&hl=en"
ROANOKE CITY POLICE DEPARTMENT,CVS 9TH STREET SE,702 9TH STREET SE,ROANOKE,VA,24013,"http://maps.google.com/maps?q=702 9TH STREET SE,+ROANOKE,+VA+24013&hl=en"
ROANOKE CITY POLICE DEPARTMENT,CVS AT TARGET,4737 VALLEY VIEW BLVD,ROANOKE,VA,24012,"http://maps.google.com/maps?q=4737 VALLEY VIEW BLVD,+ROANOKE,+VA+24012&hl=en"
ROANOKE CITY POLICE DEPARTMENT,CVS AT TOWERS SHOPPING CENTER,2001 COLONIAL AVE SW,ROANOKE,VA,24015,"http://maps.google.com/maps?q=2001 COLONIAL AVE SW,+ROANOKE,+VA+24015&hl=en"
ROANOKE COUNTY POLICE DEPARTMENT,"KROGER @ TANGLEWOOD MALL 
												
													FRONT PARKING LOT",4488 ELECTRIC ROAD,ROANOKE,VA,24015,"http://maps.google.com/maps?q=4488 ELECTRIC ROAD,+ROANOKE,+VA+24015&hl=en"
ROANOKE COUNTY POLICE DEPARTMENT,"KROGER AT VALLEY GATEWAY 
												
													NEAR FRONT ENTRANCE",3970 VALLEY GATEWAY BLVD,ROANOKE,VA,24012,"http://maps.google.com/maps?q=3970 VALLEY GATEWAY BLVD,+ROANOKE,+VA+24012&hl=en"
ROANOKE COUNTY POLICE DEPARTMENT,"WALGREENS 
												
													CORNER OF ELECTRIC ROAD & BRAMBLETON AVE",4049 BRAMBLETON AVE,ROANOKE,VA,24018,"http://maps.google.com/maps?q=4049 BRAMBLETON AVE,+ROANOKE,+VA+24018&hl=en"
ROANOKE COUNTY SHERIFF'S OFFICE,"ROANOKE COUNTY FIRE STATION #1 
												
													PARKING LOT",150 HERSHBERGER ROAD,ROANOKE,VA,24019,"http://maps.google.com/maps?q=150 HERSHBERGER ROAD,+ROANOKE,+VA+24019&hl=en"
RUSSELL COUNTY SHERIFF'S OFFICE,BLUE DEVIL DRUG,19408 HWY 58,CASTLEWOOD,VA,24224,"http://maps.google.com/maps?q=19408 HWY 58,+CASTLEWOOD,+VA+24224&hl=en"
RUSSELL COUNTY SHERIFF'S OFFICE,FOOD CITY,159 PITTSTON RD,LEBANON,VA,24266,"http://maps.google.com/maps?q=159 PITTSTON RD,+LEBANON,+VA+24266&hl=en"
RUSSELL COUNTY SHERIFF'S OFFICE,NEW GARDEN PHARMACY,5300 REDBUD HWY,HONAKER,VA,24260,"http://maps.google.com/maps?q=5300 REDBUD HWY,+HONAKER,+VA+24260&hl=en"
RUTLEDGE POLICE DEPT.,RUTLEDGE CITY HALL,8028 RUTLEDGE PIKE,RUTLEDGE,TN,37861,"http://maps.google.com/maps?q=8028 RUTLEDGE PIKE,+RUTLEDGE,+TN+37861&hl=en"
SAFE KIDS CHARLOTTE MECKLENBURG,CPCC MERANCAS CAMPUS,11930 VERHOEFF,HUNTERSVILLE,NC,28078,"http://maps.google.com/maps?q=11930 VERHOEFF,+HUNTERSVILLE,+NC+28078&hl=en"
SAFE KIDS CHARLOTTE MECKLENBURG,"HARRIS TEETER 
												
													IN FRONT OF STORE",1704 CENTRAL AVENUE,CHARLOTTE,NC,28205,"http://maps.google.com/maps?q=1704 CENTRAL AVENUE,+CHARLOTTE,+NC+28205&hl=en"
SAFE KIDS CHARLOTTE MECKLENBURG,HARRIS TEETER - STONECREST,7852 REA RD,CHARLOTTE,NC,28277,"http://maps.google.com/maps?q=7852 REA RD,+CHARLOTTE,+NC+28277&hl=en"
SAFE KIDS CHARLOTTE MECKLENBURG,HARRIS TEETER- STEELECROFT,13000 S TRYON,CHARLOTTE,NC,28278,"http://maps.google.com/maps?q=13000 S TRYON,+CHARLOTTE,+NC+28278&hl=en"
SAFE KIDS CHARLOTTE MECKLENBURG,"HARRIS TETEER 
												
													IN FRONT OF STORE",2717 SOUTH BLVD,CHARLOTTE,NC,28209,"http://maps.google.com/maps?q=2717 SOUTH BLVD,+CHARLOTTE,+NC+28209&hl=en"
SAFE KIDS UNION COUNTY,MARSHVILLE POLICE DEPARTMENT,113 W. MAIN STREET,MARSHVILLE,NC,28103,"http://maps.google.com/maps?q=113 W. MAIN STREET,+MARSHVILLE,+NC+28103&hl=en"
SAFE KIDS UNION COUNTY,UNION COUNTY MAIN SHERIFF'S OFFICE-WINGATE,3344 PRESSON ROAD,MONROE,NC,28112,"http://maps.google.com/maps?q=3344 PRESSON ROAD,+MONROE,+NC+28112&hl=en"
SAFE KIDS UNION COUNTY,"UNION COUNTY SHERIFF'S OFFICE 
												
													SATELLITE FACILITY- WESLEY CHAPEL FIRE DEPARTMENT #26",315 WAXHAW-INDIAN TRAIL RD,WAXHAW,NC,28173,"http://maps.google.com/maps?q=315 WAXHAW-INDIAN TRAIL RD,+WAXHAW,+NC+28173&hl=en"
SAFE KIDS UNION COUNTY,"UNION COUNTY SHERIFF'S OFFICE 
												
													SATELLITE FACILITY-INDIAN TRAIL",109 NAVAJO TRAIL,INDIAN TRAIL,NC,28079,"http://maps.google.com/maps?q=109 NAVAJO TRAIL,+INDIAN TRAIL,+NC+28079&hl=en"
SAFE KIDS UNION COUNTY,WAXHAW POLICE DEPARTMENT,3620 PROVIDENCE ROAD SOUTH,WAXHAW,NC,28173,"http://maps.google.com/maps?q=3620 PROVIDENCE ROAD SOUTH,+WAXHAW,+NC+28173&hl=en"
SALEM POLICE DEPARTMENT,"SUPER SHOES 
												
													FRONT PARKING LOT",1838 W. MAIN STREET,SALEM,VA,24153,"http://maps.google.com/maps?q=1838 W. MAIN STREET,+SALEM,+VA+24153&hl=en"
SCOTT COUNTY SHERIFF'S OFFICE,"FOOD COUNTRY 
												
													OUTSIDE NEAR MAIN ENTRANCE",42158 US 58,DUFFIELD,VA,24244,"http://maps.google.com/maps?q=42158 US 58,+DUFFIELD,+VA+24244&hl=en"
SCOTT COUNTY SHERIFF'S OFFICE,"SCOTT COUNTY SHERIFF'S OFFICE 
												
													NEAR MAIN ENTRANCE",336 WATER  STREET,GATE CITY,VA,24251,"http://maps.google.com/maps?q=336 WATER  STREET,+GATE CITY,+VA+24251&hl=en"
SEVIER COUNTY SHERIFF'S OFFICE,SCSO SPECIAL OPERATIONS CENTER,735 MIDDLE CREEK ROAD,SEVIERVILLE,TN,37862,"http://maps.google.com/maps?q=735 MIDDLE CREEK ROAD,+SEVIERVILLE,+TN+37862&hl=en"
SEVIER COUNTY SHERIFF'S OFFICE,SEYMOUR FIRST BAPTIST CHURCH,11621 CHAPMAN HWY,SEYMOUR,TN,37865,"http://maps.google.com/maps?q=11621 CHAPMAN HWY,+SEYMOUR,+TN+37865&hl=en"
SMYTH COUNTY SHERIFF'S OFFICE,MARION VA WALGREENS,1102 NORTH MAIN ST,MARION,VA,24354,"http://maps.google.com/maps?q=1102 NORTH MAIN ST,+MARION,+VA+24354&hl=en"
SPARTANBURG POLICE DEPARTMENT,BI-LO,2199 SOUTHPORT RD.,SPARTANBURG,SC,29306,"http://maps.google.com/maps?q=2199 SOUTHPORT RD.,+SPARTANBURG,+SC+29306&hl=en"
SPARTANBURG POLICE DEPARTMENT,CVS PHARMACY,87 GARNER RD.,SPARTANBURG,SC,29303,"http://maps.google.com/maps?q=87 GARNER RD.,+SPARTANBURG,+SC+29303&hl=en"
SULLIVAN COUNTY SHERIFFS OFFICE,SULLIVAN COUNTY SHERIFF'S OFFICE,140 BLOUNTSVILLE BYPASS,BLOUNTVILLE,TN,37617,"http://maps.google.com/maps?q=140 BLOUNTSVILLE BYPASS,+BLOUNTVILLE,+TN+37617&hl=en"
TAZEWELL (TOWN OF) POLICE DEPARTMENT,TAZEWELL POLICE DEPARTMENT,211 CENTRAL AVE,TAZEWELL,VA,24651,"http://maps.google.com/maps?q=211 CENTRAL AVE,+TAZEWELL,+VA+24651&hl=en"
TRAVELERS REST PD,TRAVELERS REST POLICE DEPT,6711 STATE PARK RD.,TRAVELERS REST,SC,29690,"http://maps.google.com/maps?q=6711 STATE PARK RD.,+TRAVELERS REST,+SC+29690&hl=en"
TUSCULUM POLICE DEPARTMENT,TUSCULUM CITY HALL,145 ALEXANDER STREET,GREENEVILLE,TN,37745,"http://maps.google.com/maps?q=145 ALEXANDER STREET,+GREENEVILLE,+TN+37745&hl=en"
UNC POLICE COMMUNITY SERVICES,"UNC MEMORIAL HOSPITAL 
												
													VALET LANE",101 MANNING DR.,CHAPEL HILL,NC,27514,"http://maps.google.com/maps?q=101 MANNING DR.,+CHAPEL HILL,+NC+27514&hl=en"
UNCW POLICE,UNCW POLICE DEPARTMENT,5126 LIONFISH DR,WILMINGTON,NC,28403,"http://maps.google.com/maps?q=5126 LIONFISH DR,+WILMINGTON,+NC+28403&hl=en"
UNION PUBLIC SAFETY DEPARTMENT,UNION PUBLIC SAFETY DEPT.,215 THOMPSON BLVD.,UNION,SC,29379,"http://maps.google.com/maps?q=215 THOMPSON BLVD.,+UNION,+SC+29379&hl=en"
US DEPARTMENT OF VETERANS AFFAIRS POLICE- SALEM,"DEPARTMENT OF VETERANS AFFAIRS 
												
													ENTRANCE TO BUILDING 143; MAIN HOSPITAL",1970 ROANOKE BOULEVARD,SALEM,VA,24153,"http://maps.google.com/maps?q=1970 ROANOKE BOULEVARD,+SALEM,+VA+24153&hl=en"
VINTON POLICE DEPARTMENT,"KROGER PARKING LOT 
												
													LAKE DRIVE PLAZA",915 HARDY ROAD,VINTON,VA,24179,"http://maps.google.com/maps?q=915 HARDY ROAD,+VINTON,+VA+24179&hl=en"
VIRGINIA STATE POLICE,"VIRGINIA STATE POLICE - AREA 47 STATION 
												
													POC: SGT ANDREA FISCHER",1557 S. MILITARY HIGHWAY,CHESAPEAKE,VA,23320,"http://maps.google.com/maps?q=1557 S. MILITARY HIGHWAY,+CHESAPEAKE,+VA+23320&hl=en"
VIRGINIA STATE POLICE,"VIRGINIA STATE POLICE DIVISION IV HQS 
												
													POC: LT PATRICK KIRTNER",1186 EAST LEE HIGHWAY,WYTHEVILLE,VA,24382,"http://maps.google.com/maps?q=1186 EAST LEE HIGHWAY,+WYTHEVILLE,+VA+24382&hl=en"
VIRGINIA STATE POLICE,"VIRGINIA STATE POLICE DIVISION VI HQS 
												
													POC: SGT. GLENN ARMSTRONG",3775 W. MAIN STREET,SALEM,VA,24153,"http://maps.google.com/maps?q=3775 W. MAIN STREET,+SALEM,+VA+24153&hl=en"
WASHINGTON COUNTY TENNESSEE SHERIFFS OFFICE,GRAY COMMUNITY CHEST,113 GRAY RURITAN DRIVE,GRAY,TN,37615,"http://maps.google.com/maps?q=113 GRAY RURITAN DRIVE,+GRAY,+TN+37615&hl=en"
WATAUGA COUNTY SHERIFF'S OFFICE,FOOD LION BLOWING ROCK,7533 VALLEY BLVD,BLOWING ROCK,NC,28605,"http://maps.google.com/maps?q=7533 VALLEY BLVD,+BLOWING ROCK,+NC+28605&hl=en"
WATAUGA COUNTY SHERIFF'S OFFICE,FOOD LION WATAUGA VILLAGE SHOPPING  CENTER,350 VILLAGE DRIVE,BOONE,NC,28607,"http://maps.google.com/maps?q=350 VILLAGE DRIVE,+BOONE,+NC+28607&hl=en"
WATAUGA COUNTY SHERIFF'S OFFICE,FOOD LOION HWY 421 SOUTH,1864 OLD US 421 SOUTH,BOONE,NC,28607,"http://maps.google.com/maps?q=1864 OLD US 421 SOUTH,+BOONE,+NC+28607&hl=en"
WATAUGA COUNTY SHERIFF'S OFFICE,FOSCOE FIRE DEPT.,9230 HWY 105 SOUTH,BANNER ELK,NC,28604,"http://maps.google.com/maps?q=9230 HWY 105 SOUTH,+BANNER ELK,+NC+28604&hl=en"
WEBER CITY POLICE DEPARTMENT,"FOOD CITY - WEBER CITY 
												
													NEAR FRONT ENTRANCE",FRANK B. SMITH LN,WEBER CITY,VA,24290,"http://maps.google.com/maps?q=FRANK B. SMITH LN,+WEBER CITY,+VA+24290&hl=en"
WEST VIRGINIA STATE POLICE,"WEST VIRGINIA STATE POLICE 
												
													SGT R.L. FRYE/3047927200",735 RIVERVIEW AVENUE,LOGAN,WV,25601,"http://maps.google.com/maps?q=735 RIVERVIEW AVENUE,+LOGAN,+WV+25601&hl=en"
WEST VIRGINIA STATE POLICE,"WVSP-BECKLEY 
												
													SGT G.D. WILLIAMS/3042566700",105 PINECREST DR,BECKLEY,WV,25801,"http://maps.google.com/maps?q=105 PINECREST DR,+BECKLEY,+WV+25801&hl=en"
WEST VIRGINIA STATE POLICE,"WVSP-LEWISBURG 
												
													SGT D.A EVANS/3046477600",381 GREENBRIAR RD,LEWISBURG,WV,24901,"http://maps.google.com/maps?q=381 GREENBRIAR RD,+LEWISBURG,+WV+24901&hl=en"
WEST VIRGINIA STATE POLICE,"WVSP-OAK HILL 
												
													SGT. J.L. MILAM/3044692915",3057 MAIN ST,OAK HILL,WV,25901,"http://maps.google.com/maps?q=3057 MAIN ST,+OAK HILL,+WV+25901&hl=en"
WEST VIRGINIA STATE POLICE,"WVSP-PRINCETON 
												
													SGT. D.W. MILLER/3044252101",910 OAKVALE RD,PRINCETON,WV,24740,"http://maps.google.com/maps?q=910 OAKVALE RD,+PRINCETON,+WV+24740&hl=en"
WHITE PINE POLICE DEPT.,WHITE PINE PD,1548 MAIN ST.,WHITE PINE,TN,37890,"http://maps.google.com/maps?q=1548 MAIN ST.,+WHITE PINE,+TN+37890&hl=en"
WHITEVILLE POLICE DEPARTMENT,"COLUMBUS REGIONAL HEALTHCARE 
												
													500 JEFFERSON STREET",500 JEFFERSON STREET,WHITEVILLE,NC,28472,"http://maps.google.com/maps?q=500 JEFFERSON STREET,+WHITEVILLE,+NC+28472&hl=en"
WHITEVILLE POLICE DEPARTMENT,WHITEVILLE POLICE DEPARTMENT,117 E. COLUMBUS ST,WHITEVILLE,NC,28472,"http://maps.google.com/maps?q=117 E. COLUMBUS ST,+WHITEVILLE,+NC+28472&hl=en"
"WILLIAMSON, WV POLICE DEPARTMENT","WILLIAMSON, WV PD",108 EAST 4TH AVE,WILLIAMSON,WV,25661,"http://maps.google.com/maps?q=108 EAST 4TH AVE,+WILLIAMSON,+WV+25661&hl=en"
WISE COUNTY SHERIFF'S OFFICE,FOOD CITY,16410 WISE ST,SAINT PAUL,VA,24283,"http://maps.google.com/maps?q=16410 WISE ST,+SAINT PAUL,+VA+24283&hl=en"
WISE POLICE DEPARTMENT,"FOOD CITY 
												
													NEAR FRONT ENTRANCE",207 WOODLAND DRIVE,WISE,VA,24293,"http://maps.google.com/maps?q=207 WOODLAND DRIVE,+WISE,+VA+24293&hl=en"
WYOMING COUNTY SHERIFF'S,MAGIC MART,759 OCEANA SQUARE/RTE 971,OCEANA,WV,24870,"http://maps.google.com/maps?q=759 OCEANA SQUARE/RTE 971,+OCEANA,+WV+24870&hl=en"
WYOMING COUNTY SHERIFF'S,RITE AID,401 MORAN AVE,MULLENS,WV,25882,"http://maps.google.com/maps?q=401 MORAN AVE,+MULLENS,+WV+25882&hl=en"
WYOMING COUNTY SHERIFF'S,RITE AID,448 APPALACHIAN HWY,PINEVILLE,WV,24874,"http://maps.google.com/maps?q=448 APPALACHIAN HWY,+PINEVILLE,+WV+24874&hl=en"
WYTHE COUNTY SHERIFF'S OFFICE,"WYTHE COUNTY SHERIFF'S OFFICE 
												
													SALLY PORT AREA FOR COLLECTION",245 S 4TH STREET,WYTHEVILLE,VA,24382,"http://maps.google.com/maps?q=245 S 4TH STREET,+WYTHEVILLE,+VA+24382&hl=en"
