Participant,CollectionSite,Address,City,State,Zip,MapURL
193 SPECIAL OPERATIONS WING,"193 SPECIAL OPERATIONS WING 
												
													MILITARY MEMBERS ONLY !!! NOT A PUBLIC DROP OFF SITE",CONSTELLATION COURT** FOR MILITARY ONLY***,HARRISBURG,PA,17112,"http://maps.google.com/maps?q=CONSTELLATION COURT,+HARRISBURG,+PA+17112&hl=en"
ABINGTON TOWNSHIP POLICE DEPARTMENT,ABINGTON TOWNSHIP POLICE DEPARTMENT,1166 OLD YORK ROAD,ABINGTON,PA,19001,"http://maps.google.com/maps?q=1166 OLD YORK ROAD,+ABINGTON,+PA+19001&hl=en"
AKRON BOROUGH POLICE DEPT,ROYER PHARMACY,113 S 7TH ST,AKRON,PA,17501,"http://maps.google.com/maps?q=113 S 7TH ST,+AKRON,+PA+17501&hl=en"
ALDAN POLICE DEPARTMENT,ALDAN MUNICIPAL BUILDING,ONE WEST PROVIDENCE ROAD,ALDAN,PA,19018,"http://maps.google.com/maps?q=ONE WEST PROVIDENCE ROAD,+ALDAN,+PA+19018&hl=en"
ALEXANDRIA POLICE DEPARTMENT,ALEXANDRIA FIRE STATION 210,5525 EISENHOWER AVE,ALEXANDRIA,VA,22304,"http://maps.google.com/maps?q=5525 EISENHOWER AVE,+ALEXANDRIA,+VA+22304&hl=en"
ALEXANDRIA POLICE DEPARTMENT,"ALEXANDRIA POLICE HEADQUARTERS 
												
													FRONT ENTRANCE",3600 WHEELER AVENUE,ALEXANDRIA,VA,22304,"http://maps.google.com/maps?q=3600 WHEELER AVENUE,+ALEXANDRIA,+VA+22304&hl=en"
ALEXANDRIA POLICE DEPARTMENT,"FIRST BAPTIST CHURCH 
												
													FRONT ENTRANCE",2932 KING STREET,ALEXANDRIA,VA,22302,"http://maps.google.com/maps?q=2932 KING STREET,+ALEXANDRIA,+VA+22302&hl=en"
ALEXANDRIA SHERIFF'S OFFICE,"NEIGHBORHOOD PHARMACY 
												
													FRONT OF THE BUILDING",2204 MT. VERNON AVENUE,ALEXANDRIA,VA,22301,"http://maps.google.com/maps?q=2204 MT. VERNON AVENUE,+ALEXANDRIA,+VA+22301&hl=en"
ALLEGANY COUNTY SHERIFF'S OFFICE,BOLIVAR VOL. FIRE DEPARTMENT,460 MAIN ST,BOLIVAR,NY,14715,"http://maps.google.com/maps?q=460 MAIN ST,+BOLIVAR,+NY+14715&hl=en"
ALLEGANY COUNTY SHERIFF'S OFFICE,RIVERWALK PLAZA,STATE ROUTE 417,WELLSVILLE,NY,14895,"http://maps.google.com/maps?q=STATE ROUTE 417,+WELLSVILLE,+NY+14895&hl=en"
ALLENTOWN POLICE DEPARTMENT,GIANT FOOD STORE #6074,3015 W. EMMAUS AVENUE,ALLENTOWN,PA,18103,"http://maps.google.com/maps?q=3015 W. EMMAUS AVENUE,+ALLENTOWN,+PA+18103&hl=en"
ALLENTOWN POLICE DEPARTMENT,REDNER'S MARKET,1201 AIRPORT ROAD,ALLENTOWN,PA,18109,"http://maps.google.com/maps?q=1201 AIRPORT ROAD,+ALLENTOWN,+PA+18109&hl=en"
ALLENTOWN POLICE DEPARTMENT,ST LUKES ALLENTOWN HOSPITAL,1736 HAMILTON ST,ALLENTOWN,PA,18104,"http://maps.google.com/maps?q=1736 HAMILTON ST,+ALLENTOWN,+PA+18104&hl=en"
ALTOONA POLICE DEPT,THOMPSONS PHARMACY,600 E CHESTNUT AVE,ALTOONA,PA,16601,"http://maps.google.com/maps?q=600 E CHESTNUT AVE,+ALTOONA,+PA+16601&hl=en"
ANNE ARUNDEL CO,EASTERN DISTRICT,204 PASADENA ROAD,PASADENA,MD,21122,"http://maps.google.com/maps?q=204 PASADENA ROAD,+PASADENA,+MD+21122&hl=en"
ANNE ARUNDEL CO,HEADQUARTERS,8495 VETERAN'S HIGHWAY,MILLERSVILLE,MD,21108,"http://maps.google.com/maps?q=8495 VETERAN'S HIGHWAY,+MILLERSVILLE,+MD+21108&hl=en"
ANNE ARUNDEL CO,NORTHERN DISTRICT,939 HAMMONDS LANE,BALTIMORE,MD,21225,"http://maps.google.com/maps?q=939 HAMMONDS LANE,+BALTIMORE,+MD+21225&hl=en"
ANNE ARUNDEL CO,SOUTHERN DISTRICT,35 STEPNEY'S LANE,EDGEWATER,MD,21037,"http://maps.google.com/maps?q=35 STEPNEY'S LANE,+EDGEWATER,+MD+21037&hl=en"
ANNE ARUNDEL CO,WESTERN DISTRICT,8273 TELEGRAPH ROAD,ODENTON,MD,21113,"http://maps.google.com/maps?q=8273 TELEGRAPH ROAD,+ODENTON,+MD+21113&hl=en"
ARLINGTON COUNTY POLICE DEPARTMENT,"ARLINGTON FIRE STATION #9 
												
													MAIN LEVEL COMMUNITY ROOM",1900 SOUTH WALTER REED DRIVE,ARLINGTON,VA,22204,"http://maps.google.com/maps?q=1900 SOUTH WALTER REED DRIVE,+ARLINGTON,+VA+22204&hl=en"
ARLINGTON COUNTY POLICE DEPARTMENT,GUNSTON COMMUNITY CENTER,2700 SOUTH LANG STREET,ARLINGTON,VA,22206,"http://maps.google.com/maps?q=2700 SOUTH LANG STREET,+ARLINGTON,+VA+22206&hl=en"
ARLINGTON COUNTY POLICE DEPARTMENT,LANGSTON COMMUNITY CENTER,2121 NORTH CULPEPER STREET,ARLINGTON,VA,22207,"http://maps.google.com/maps?q=2121 NORTH CULPEPER STREET,+ARLINGTON,+VA+22207&hl=en"
AUBURN POLICE DEPARTMENT,"AUBURN POLICE DEPARTMENT 
												
													HQ",46 NORTH STREET,AUBURN,NY,13021,"http://maps.google.com/maps?q=46 NORTH STREET,+AUBURN,+NY+13021&hl=en"
AUBURN POLICE DEPARTMENT,KINNEY DRUGS,62 OWASCO ST.,AUBURN,NY,13021,"http://maps.google.com/maps?q=62 OWASCO ST.,+AUBURN,+NY+13021&hl=en"
BALTIMORE CITY POLICE DEPARTMENT,"BALTIMORE CITY PD 
												
													CENTRAL DISTRICT",500 E. BALTIMORE STREET,BALTIMORE,MD,21202,"http://maps.google.com/maps?q=500 E. BALTIMORE STREET,+BALTIMORE,+MD+21202&hl=en"
BALTIMORE CITY POLICE DEPARTMENT,"BALTIMORE CITY PD 
												
													EASTERN DISTRICT",1620 EDISON HIGHWAY,BALTIMORE,MD,21213,"http://maps.google.com/maps?q=1620 EDISON HIGHWAY,+BALTIMORE,+MD+21213&hl=en"
BALTIMORE CITY POLICE DEPARTMENT,"BALTIMORE CITY PD 
												
													NORTHEASTERN DISTRICT",1900 ARGONNE DRIVE,BALTIMORE,MD,21218,"http://maps.google.com/maps?q=1900 ARGONNE DRIVE,+BALTIMORE,+MD+21218&hl=en"
BALTIMORE CITY POLICE DEPARTMENT,"BALTIMORE CITY PD 
												
													NORTHERN DISTRICT",2201 W. COLDSPRING LANE,BALTIMORE,MD,21215,"http://maps.google.com/maps?q=2201 W. COLDSPRING LANE,+BALTIMORE,+MD+21215&hl=en"
BALTIMORE CITY POLICE DEPARTMENT,"BALTIMORE CITY PD 
												
													NORTHWESTERN DISTRICT",5271 REISTERSTOWN ROAD,BALTIMORE,MD,21215,"http://maps.google.com/maps?q=5271 REISTERSTOWN ROAD,+BALTIMORE,+MD+21215&hl=en"
BALTIMORE CITY POLICE DEPARTMENT,"BALTIMORE CITY PD 
												
													SOUTHEASTERN DISTRICT",5710 EASTERN AVENUE,BALTIMORE,MD,21224,"http://maps.google.com/maps?q=5710 EASTERN AVENUE,+BALTIMORE,+MD+21224&hl=en"
BALTIMORE CITY POLICE DEPARTMENT,"BALTIMORE CITY PD 
												
													SOUTHERN DISTRICT",10 CHERRY HILL ROAD,BROOKLYN,MD,21225,"http://maps.google.com/maps?q=10 CHERRY HILL ROAD,+BROOKLYN,+MD+21225&hl=en"
BALTIMORE CITY POLICE DEPARTMENT,"BALTIMORE CITY PD 
												
													SOUTHWESTERN DISTRICT",424 FONT HILL AVENUE,BALTIMORE,MD,21223,"http://maps.google.com/maps?q=424 FONT HILL AVENUE,+BALTIMORE,+MD+21223&hl=en"
BALTIMORE CITY POLICE DEPARTMENT,"BALTIMORE CITY PD 
												
													WESTERN DISTRICT",1034 N. MOUNT STREET,BALTIMORE,MD,21217,"http://maps.google.com/maps?q=1034 N. MOUNT STREET,+BALTIMORE,+MD+21217&hl=en"
BALTIMORE COUNTY POLICE DEPARTMENT,"PRECINCT 1 
												
													WILKENS",901 WALKER AVE.,CATONSVILLE,MD,21228,"http://maps.google.com/maps?q=901 WALKER AVE.,+CATONSVILLE,+MD+21228&hl=en"
BALTIMORE COUNTY POLICE DEPARTMENT,"PRECINCT 11 
												
													ESSEX",216 N. MARLYN AVE.,ESSEX,MD,21221,"http://maps.google.com/maps?q=216 N. MARLYN AVE.,+ESSEX,+MD+21221&hl=en"
BALTIMORE COUNTY POLICE DEPARTMENT,"PRECINCT 12 
												
													DUNDALK",428 WESTHAM WAY,BALTIMORE,MD,21224,"http://maps.google.com/maps?q=428 WESTHAM WAY,+BALTIMORE,+MD+21224&hl=en"
BALTIMORE COUNTY POLICE DEPARTMENT,"PRECINCT 2 
												
													WOODLAWN",6424 WINDSOR MILL RD.,GWYNN OAK,MD,21207,"http://maps.google.com/maps?q=6424 WINDSOR MILL RD.,+GWYNN OAK,+MD+21207&hl=en"
BALTIMORE COUNTY POLICE DEPARTMENT,"PRECINCT 3 
												
													FRANKLIN",606 NICODEMUS RD.,REISTERSTOWN,MD,21136,"http://maps.google.com/maps?q=606 NICODEMUS RD.,+REISTERSTOWN,+MD+21136&hl=en"
BALTIMORE COUNTY POLICE DEPARTMENT,"PRECINCT 4 
												
													PIKESVILLE",215 MILFORD MILL RD.,PIKESVILLE,MD,21208,"http://maps.google.com/maps?q=215 MILFORD MILL RD.,+PIKESVILLE,+MD+21208&hl=en"
BALTIMORE COUNTY POLICE DEPARTMENT,"PRECINCT 6 
												
													TOWSON",115 W. SUSQUEHANNA AVE.,TOWSON,MD,21204,"http://maps.google.com/maps?q=115 W. SUSQUEHANNA AVE.,+TOWSON,+MD+21204&hl=en"
BALTIMORE COUNTY POLICE DEPARTMENT,"PRECINCT 7 
												
													COCKEYSVILLE",111 WIGHT AVE.,COCKEYSVILLE,MD,21030,"http://maps.google.com/maps?q=111 WIGHT AVE.,+COCKEYSVILLE,+MD+21030&hl=en"
BALTIMORE COUNTY POLICE DEPARTMENT,"PRECINCT 8 
												
													PARKVILLE",8532 OLD HARFORD RD.,PARKVILLE,MD,21234,"http://maps.google.com/maps?q=8532 OLD HARFORD RD.,+PARKVILLE,+MD+21234&hl=en"
BALTIMORE COUNTY POLICE DEPARTMENT,"PRECINCT 9 
												
													WHITE MARSH",8220 PERRY HALL BLVD.,NOTTINGHAM,MD,21236,"http://maps.google.com/maps?q=8220 PERRY HALL BLVD.,+NOTTINGHAM,+MD+21236&hl=en"
BENTON BOROUGH POLICE DEPT,BENTON VOL FIRE STATION,150 COLLEY ST,BENTON,PA,17814,"http://maps.google.com/maps?q=150 COLLEY ST,+BENTON,+PA+17814&hl=en"
BERWICK PD,BERWICK PD,1800 N MARKET ST,BERWICK,PA,18603,"http://maps.google.com/maps?q=1800 N MARKET ST,+BERWICK,+PA+18603&hl=en"
BETHLEHEM POLICE DEPARTMENT,WESTGATE MALL,2285 SCHOENERSVILLE ROAD,BETHLEHEM,PA,18017,"http://maps.google.com/maps?q=2285 SCHOENERSVILLE ROAD,+BETHLEHEM,+PA+18017&hl=en"
BIGLERVILLE BOROUGH POLICE DEPARTMENT,BIGLERVILLE FIRE DEPARTMENT,111 SOUTH MAIN STREET,BIGLERVILLE,PA,17307,"http://maps.google.com/maps?q=111 SOUTH MAIN STREET,+BIGLERVILLE,+PA+17307&hl=en"
BOROUGH OF WESTVILLE,WESTVILLE POLICE DEPARTMENT,167 BROADWAY,WESTVILLE,NJ,08093,"http://maps.google.com/maps?q=167 BROADWAY,+WESTVILLE,+NJ+08093&hl=en"
BOWIE POLICE DEPARTMENT,BOWIE POLICE STATION,15901 EXCALIBUR ROAD,BOWIE,MD,20716,"http://maps.google.com/maps?q=15901 EXCALIBUR ROAD,+BOWIE,+MD+20716&hl=en"
BRADFORD COUNTY SHERIFF'S OFFICE,MILLER'S PHARMACY,ROUTE 6,WYALUSING,PA,18853,"http://maps.google.com/maps?q=ROUTE 6,+WYALUSING,+PA+18853&hl=en"
BROOKHAVEN POLICE DEPT,GIANT SUPERMARKET,4930 EDGMONT AVE,BROOKHAVEN,PA,19015,"http://maps.google.com/maps?q=4930 EDGMONT AVE,+BROOKHAVEN,+PA+19015&hl=en"
BROOME COUNTY SHERIFF'S DEPARTMENT,AMERICAN LEGION POST 1700,305 MAPLE STREET,ENDICOTT,NY,13760,"http://maps.google.com/maps?q=305 MAPLE STREET,+ENDICOTT,+NY+13760&hl=en"
BROOME COUNTY SHERIFF'S DEPARTMENT,BROOME COUNTY SHERIFF'S OFFICE,155 LT. VANWINKLE DR.,BINGHAMTON,NY,13905,"http://maps.google.com/maps?q=155 LT. VANWINKLE DR.,+BINGHAMTON,+NY+13905&hl=en"
BROOME COUNTY SHERIFF'S DEPARTMENT,JOHNSON CITY ELKS,4212 WATSON BLVD.,JOHNSON CITY,NY,13790,"http://maps.google.com/maps?q=4212 WATSON BLVD.,+JOHNSON CITY,+NY+13790&hl=en"
BROOME COUNTY SHERIFF'S DEPARTMENT,VESTAL FIRE STATION 4,3341 VESTAL PKWY EAST,VESTAL,NY,13850,"http://maps.google.com/maps?q=3341 VESTAL PKWY EAST,+VESTAL,+NY+13850&hl=en"
BROOME COUNTY SHERIFF'S DEPARTMENT,WINDSOR COMMUNITY CENTER,107 MAIN STREET,WINDSOR,NY,13865,"http://maps.google.com/maps?q=107 MAIN STREET,+WINDSOR,+NY+13865&hl=en"
CALN TOWNSHIP POLICE DEPARTMENT,CVS,101 REECEVILLE ROAD,COATESVILLE,PA,19320,"http://maps.google.com/maps?q=101 REECEVILLE ROAD,+COATESVILLE,+PA+19320&hl=en"
CAMILLUS POLICE DEPARTEMENT,POLICE HQ DROP BOX,4600 WEST GENESEE ST.,SYRACUSE,NY,13219,"http://maps.google.com/maps?q=4600 WEST GENESEE ST.,+SYRACUSE,+NY+13219&hl=en"
CARROLL COUNTY SHERIFF'S OFFICE,CARROL COUNTY SHERIFF'S OFFICE,100 NORTH COURT STREET,WESTMINSTER,MD,21157,"http://maps.google.com/maps?q=100 NORTH COURT STREET,+WESTMINSTER,+MD+21157&hl=en"
CARROLL COUNTY SHERIFF'S OFFICE,HAMPSTEAD POLICE DEPARTMENT,1112 MAIN STREET,HAMPSTEAD,MD,21074,"http://maps.google.com/maps?q=1112 MAIN STREET,+HAMPSTEAD,+MD+21074&hl=en"
CARROLL COUNTY SHERIFF'S OFFICE,MOUNT AIRY POLICE DEPARTMENT,"205 CENTER STREET,SUITE 203",MOUNT AIRY,MD,21771,"http://maps.google.com/maps?q=205 CENTER STREET,,+MOUNT AIRY,+MD+21771&hl=en"
CARROLL COUNTY SHERIFF'S OFFICE,SYKESVILLE POLICE DEPARTMENT,7547 MAIN STREET,SYKESVILLE,MD,21784,"http://maps.google.com/maps?q=7547 MAIN STREET,+SYKESVILLE,+MD+21784&hl=en"
CARROLL COUNTY SHERIFF'S OFFICE,WESTMINSTER POLICE DEPARTMENT,36 LOCUST STREET,WESTMINSTER,MD,21157,"http://maps.google.com/maps?q=36 LOCUST STREET,+WESTMINSTER,+MD+21157&hl=en"
CARROLL VALLEY BOROUGH POLICE DEPARTMENT,CARROLL VALLEY BOROUGH OFFICE,5685 FAIRFIELD ROAD,FAIRFIELD,PA,17320,"http://maps.google.com/maps?q=5685 FAIRFIELD ROAD,+FAIRFIELD,+PA+17320&hl=en"
CATASAUQUA POLICE DEPARTMENT,CATASAUQUA POLICE DEPARTMENT,90 BRIDGE ST.,CATASAUQUA,PA,18032,"http://maps.google.com/maps?q=90 BRIDGE ST.,+CATASAUQUA,+PA+18032&hl=en"
CATAWISSA BOROUGH POLICE DEPT,CATAWISSA BOROUGH PD,118 N 3RD ST,CATAWISSA,PA,17820,"http://maps.google.com/maps?q=118 N 3RD ST,+CATAWISSA,+PA+17820&hl=en"
CATTARAUGUS COUNTY SHERIFF'S DEPARTMENT,CATTARAUGUS COUNTY OFFICE BUILDING,1 LEO MOSS DRIVE,OLEAN,NY,14760,"http://maps.google.com/maps?q=1 LEO MOSS DRIVE,+OLEAN,+NY+14760&hl=en"
CATTARAUGUS COUNTY SHERIFF'S DEPARTMENT,CORNER DRUG STORE,1 WASHINGTON STREET,CATTARAUGUS,NY,14719,"http://maps.google.com/maps?q=1 WASHINGTON STREET,+CATTARAUGUS,+NY+14719&hl=en"
CATTARAUGUS COUNTY SHERIFF'S DEPARTMENT,DELEVAN HEALTH CENTER,38 N. MAIN ST.,DELEVAN,NY,14042,"http://maps.google.com/maps?q=38 N. MAIN ST.,+DELEVAN,+NY+14042&hl=en"
CATTARAUGUS COUNTY SHERIFF'S DEPARTMENT,GOWANDA VILLAGE MUNICIPAL BUILDING,27 EAST MAIN STREET,GOWANDA,NY,14070,"http://maps.google.com/maps?q=27 EAST MAIN STREET,+GOWANDA,+NY+14070&hl=en"
CATTARAUGUS COUNTY SHERIFF'S DEPARTMENT,"SALAMANCA CITY MUNICIPAL BUILDING 
												
													FIRE DEPARTMENT",225 WILDWOOD AVE,SALAMANCA,NY,14779,"http://maps.google.com/maps?q=225 WILDWOOD AVE,+SALAMANCA,+NY+14779&hl=en"
CAZENOVIA POLICE DEPARTMENT,KINNEY DRUGS PARKING LOT,41 ALBANY STREET,CAZENOVIA,NY,13035,"http://maps.google.com/maps?q=41 ALBANY STREET,+CAZENOVIA,+NY+13035&hl=en"
CENTRE CO SHERIFF'S OFFICE,BURKHOLDER'S COUNTRY MARKET,107 MARKET DRIVE,SPRING MILLS,PA,16875,"http://maps.google.com/maps?q=107 MARKET DRIVE,+SPRING MILLS,+PA+16875&hl=en"
CENTRE CO SHERIFF'S OFFICE,WEIS MARKET,501 N 3RD ST,PHILIPSBURG,PA,16866,"http://maps.google.com/maps?q=501 N 3RD ST,+PHILIPSBURG,+PA+16866&hl=en"
CHAUTAUQUA COUNTY SHERIFF'S DEPARTMENT,CHAUTAUQUE MALL,318 EAST FAIRMOUNT AVE,LAKEWOOD,NY,14750,"http://maps.google.com/maps?q=318 EAST FAIRMOUNT AVE,+LAKEWOOD,+NY+14750&hl=en"
CHAUTAUQUA COUNTY SHERIFF'S DEPARTMENT,SOUTHSIDE PHARMACY,766 FOOTE AVE.,JAMESTOWN,NY,14701,"http://maps.google.com/maps?q=766 FOOTE AVE.,+JAMESTOWN,+NY+14701&hl=en"
CHEEKTOWAGA POLICE DEPARTMENT,ST. JOSEPH'S HOSPITAL,2605 HARLEM RD.,BUFFALO,NY,14227,"http://maps.google.com/maps?q=2605 HARLEM RD.,+BUFFALO,+NY+14227&hl=en"
CHENANGO COUNTY SHERIFF'S OFFICE,GREENE FIRE DEPARTMENT,NORTH CANAL STREET,GREENE,NY,13778,"http://maps.google.com/maps?q=NORTH CANAL STREET,+GREENE,+NY+13778&hl=en"
CHENANGO COUNTY SHERIFF'S OFFICE,NORTH NORWICH FIRE DEPARTMENT,108 BEACH LANE,NORTH NORWICH,NY,13814,"http://maps.google.com/maps?q=108 BEACH LANE,+NORTH NORWICH,+NY+13814&hl=en"
CHEVY CHASE VILLAGE POLICE DEPARTMENT,CHEVY CHASE VILLAGE POLICE DEPARTMENT,5906 CONNECTICUT AVENUE,CHEVY CHASE,MD,20815,"http://maps.google.com/maps?q=5906 CONNECTICUT AVENUE,+CHEVY CHASE,+MD+20815&hl=en"
CITY OF COATESVILLE POLICE DEPARTMENT,COATESVILLE POLICE DEPARTMENT,1 CITY HALL PLACE,COATESVILLE,PA,19320,"http://maps.google.com/maps?q=1 CITY HALL PLACE,+COATESVILLE,+PA+19320&hl=en"
CITY OF WARREN POLICE DEPARTMENT,WARREN POLICE DEPARTMENT,318 W. THIRD AVENUE,WARREN,PA,16365,"http://maps.google.com/maps?q=318 W. THIRD AVENUE,+WARREN,+PA+16365&hl=en"
COAL TOWNSHIP POLICE DEPARTMENT,COAL TOWNSHIP POLICE DEPARTMENT,805 W. LYNN STREET,COAL TOWNSHIP,PA,17866,"http://maps.google.com/maps?q=805 W. LYNN STREET,+COAL TOWNSHIP,+PA+17866&hl=en"
COLLEGEVILLE POLICE DEPARTMENT,COLLEGEVILLE BOROUGH MUNICIPAL BUILDING,491 EAST MAIN ST,COLLEGEVILLE,PA,19426,"http://maps.google.com/maps?q=491 EAST MAIN ST,+COLLEGEVILLE,+PA+19426&hl=en"
COLLINGSWOOD POLICE DEPARTMENT,COLLINGSWOOD POLICE HQ,735 NORTH ATLANTIC AVENUE,COLLINGSWOOD,NJ,08108,"http://maps.google.com/maps?q=735 NORTH ATLANTIC AVENUE,+COLLINGSWOOD,+NJ+08108&hl=en"
CONEWAGO TOWNSHIP POLICE DEPARTMENT,CONEWAGO TOWNSHIP POLICE DEPARTMENT,541 OXFORD AVENUE,HANOVER,PA,17331,"http://maps.google.com/maps?q=541 OXFORD AVENUE,+HANOVER,+PA+17331&hl=en"
CONEWAGO TWP POLICE DEPT,CONEWAGO TWP POLICE DEPT,541 OXFORD AVE,HANOVER,PA,17331,"http://maps.google.com/maps?q=541 OXFORD AVE,+HANOVER,+PA+17331&hl=en"
CUMBERLAND TOWNSHIP POLICE,SAINT FRACIS XAVIER CENTER,465 TABLE ROCK ROAD,GETTYSBURG,PA,17325,"http://maps.google.com/maps?q=465 TABLE ROCK ROAD,+GETTYSBURG,+PA+17325&hl=en"
DANVILLE POLICE DEPARTMENT,DANVILLE POLICE DEPARTMENT,453 MILL STREET,DANVILLE,PA,17821,"http://maps.google.com/maps?q=453 MILL STREET,+DANVILLE,+PA+17821&hl=en"
DEA HQ_TESTING,DEA HEADQUARTERS,700 ARMY NAVY DRIVE,ARLINGTON,VA,22202,"http://maps.google.com/maps?q=700 ARMY NAVY DRIVE,+ARLINGTON,+VA+22202&hl=en"
DEA NEW YORK DIVISION,"RIVRESIDE REMEDIES 
												
													SUSAN CLARK",39 LOWER MAIN STREET,CALLICOON,NY,12723,"http://maps.google.com/maps?q=39 LOWER MAIN STREET,+CALLICOON,+NY+12723&hl=en"
DEA NEW YORK DIVISION,"TUSTEN TOWN 
												
													SUSAN CLARK",210 BRIDGE STREET,NARROWSBURG,NY,12764,"http://maps.google.com/maps?q=210 BRIDGE STREET,+NARROWSBURG,+NY+12764&hl=en"
DELAWARE CITY POLICE,DELAWARE CITY POLICE DEPARTMENT,407 CLINTON STREET,DELAWARE CITY,DE,19706,"http://maps.google.com/maps?q=407 CLINTON STREET,+DELAWARE CITY,+DE+19706&hl=en"
DELAWARE DEPARTMENT OF JUSTICE MFCU,SHIPLEY MANOR NURSING HOME,2723 SHIPLEY ROAD,WILMINGTON,DE,19801,"http://maps.google.com/maps?q=2723 SHIPLEY ROAD,+WILMINGTON,+DE+19801&hl=en"
DELAWARE RIVER AND BAY AUTHORITY POLICE,NEW CASTLE COUNTY AIRPORT,151 NORTH DUPONT HIGHWAY (RT. 13),NEW CASTLE,DE,19720,"http://maps.google.com/maps?q=151 NORTH DUPONT HIGHWAY (RT. 13),+NEW CASTLE,+DE+19720&hl=en"
DELAWARE STATE POLICE,CHRISTIANA CARE SURGI CENTER,4755 OGLETOWN STANTON ROAD,NEWARK,DE,19718,"http://maps.google.com/maps?q=4755 OGLETOWN STANTON ROAD,+NEWARK,+DE+19718&hl=en"
DELAWARE STATE POLICE,DELAWARE STATE POLICE - TROOP 2,100 LAGRANGE AVE,NEWARK,DE,19702,"http://maps.google.com/maps?q=100 LAGRANGE AVE,+NEWARK,+DE+19702&hl=en"
DERRY TOWNSHIP POLICE DEPARTMENT,"PENN STATE HERSHEY MEDICAL CENTER 
												
													ACADEMIC SUPPORT BUILDING",90 HOPE DR.,HERSHEY,PA,17033,"http://maps.google.com/maps?q=90 HOPE DR.,+HERSHEY,+PA+17033&hl=en"
DEWITT POLICE DEPARTMENT,KINNEY DRUGS,307 NOTTINGHAM ROAD,SYRACUSE,NY,13210,"http://maps.google.com/maps?q=307 NOTTINGHAM ROAD,+SYRACUSE,+NY+13210&hl=en"
DOUGLASS TOWNSHIP POLICE,GIANT,173 HOLLY RD,GILBERTSVILLE,PA,19525,"http://maps.google.com/maps?q=173 HOLLY RD,+GILBERTSVILLE,+PA+19525&hl=en"
DOWNINGTOWN POLICE DEPARTMENT,DOWNINGTOWN POLICE DEPARTMENT,10 WEST LANCASTER AVE.,DOWNINGTOWN,PA,19335,"http://maps.google.com/maps?q=10 WEST LANCASTER AVE.,+DOWNINGTOWN,+PA+19335&hl=en"
DURYEA POLICE DEPARTMENT,DURYEA BOROUGH  TOWN HALL BUILDING,315 MAIN STREET,DURYEA,PA,18642,"http://maps.google.com/maps?q=315 MAIN STREET,+DURYEA,+PA+18642&hl=en"
EAST GREENWICH TWP. POLICE DEPARTMENT,"EAST GREENWICH TWP. POLICE DEPARTMENT 
												
													856-423-4322",159 DEMOCRAT RD.,MICKLETON,NJ,08056,"http://maps.google.com/maps?q=159 DEMOCRAT RD.,+MICKLETON,+NJ+08056&hl=en"
EAST LAMPERTER TWP POLICE DEPT,ROYER PHARMACY,335 W MAIN ST,LEOLA,PA,17540,"http://maps.google.com/maps?q=335 W MAIN ST,+LEOLA,+PA+17540&hl=en"
EAST NORRITON POLICE DEPARTMENT,EAST NORRITON TOWNSHIP POLICE DEPARTMENT,2501 STANBRIDGE STREET,NORRISTOWN,PA,19401,"http://maps.google.com/maps?q=2501 STANBRIDGE STREET,+NORRISTOWN,+PA+19401&hl=en"
EAST TAYLOR TWP POLICE DEPT,MARTELLA'S PHARMACY,1932 WILLIAM PENN AVE,JOHNSTOWN,PA,15909,"http://maps.google.com/maps?q=1932 WILLIAM PENN AVE,+JOHNSTOWN,+PA+15909&hl=en"
EASTERN ADAMS REGIONAL POLICE DEPARTMENT,EASTERN ADAMS REGIONAL POLICE DEPARTMENT,110 N. BERLIN AVE,NEW OXFORD,PA,17350,"http://maps.google.com/maps?q=110 N. BERLIN AVE,+NEW OXFORD,+PA+17350&hl=en"
ELKTON POLICE DEPARTMENT,ELKTON POLICE DEPARTMENT,100 RAILROAD AVENUE,ELKTON,MD,21921,"http://maps.google.com/maps?q=100 RAILROAD AVENUE,+ELKTON,+MD+21921&hl=en"
EMMAUS POLICE DEPARTMENT,EMMAUS POLICE DEPARTMENT,400  JUBILEE STREET,EMMAUS,PA,18049,"http://maps.google.com/maps?q=400  JUBILEE STREET,+EMMAUS,+PA+18049&hl=en"
EPHRATA POLICE DEPT,ROYER PHARMACY,2 EAST MAIN ST,EPHRATA,PA,17522,"http://maps.google.com/maps?q=2 EAST MAIN ST,+EPHRATA,+PA+17522&hl=en"
ERIE COUNTY SHERIFF'S OFFICE,BERTRAND CHAFFEE HOSPITAL,224 E. MAIN STREET,SPRINGVILLE,NY,14141,"http://maps.google.com/maps?q=224 E. MAIN STREET,+SPRINGVILLE,+NY+14141&hl=en"
EVANS POLICE DEPARTMENT,EVANS MUNICIPAL CENTER,8787 ERIE RD. RT. #5,ANGOLA,NY,14006,"http://maps.google.com/maps?q=8787 ERIE RD. RT. #5,+ANGOLA,+NY+14006&hl=en"
FAIRFAX CITY POLICE DEPARTMENT,"FAIRFAX CITY POLICE DEPARTMENT 
												
													FRONT LOBBY",3730 OLD LEE HIGHWAY,FAIRFAX,VA,22030,"http://maps.google.com/maps?q=3730 OLD LEE HIGHWAY,+FAIRFAX,+VA+22030&hl=en"
FAIRFAX COUNTY POLICE DEPARTMENT,"FAIR OAKS DISTRICT STATION 
												
													PARKING LOT -OPERATING 10 AM TO 2 PM-",12300 LEE JACKSON MEMORIAL HIGHWAY,FAIRFAX,VA,22033,"http://maps.google.com/maps?q=12300 LEE JACKSON MEMORIAL HIGHWAY,+FAIRFAX,+VA+22033&hl=en"
FAIRFAX COUNTY POLICE DEPARTMENT,"MASON DISTRICT STATION 
												
													FRONT PARKING LOT -OPERATING 10 AM TO 2 PM-",6507 COLUMBIA PIKE,ANNANDALE,VA,22003,"http://maps.google.com/maps?q=6507 COLUMBIA PIKE,+ANNANDALE,+VA+22003&hl=en"
FAIRFAX COUNTY POLICE DEPARTMENT,"MCLEAN DISTRICT POLICE STATION 
												
													FRONT PARKING LOT -OPERATING 10 AM TO 2 PM-",1437 BALLS HILL ROAD,MCLEAN,VA,22101,"http://maps.google.com/maps?q=1437 BALLS HILL ROAD,+MCLEAN,+VA+22101&hl=en"
FAIRFAX COUNTY POLICE DEPARTMENT,"RESTON DISTRICT STATION 
												
													PARKING LOT -OPERATING 10 AM TO 2 PM-",12000 BOWMAN TOWNE DRIVE,RESTON,VA,20190,"http://maps.google.com/maps?q=12000 BOWMAN TOWNE DRIVE,+RESTON,+VA+20190&hl=en"
FAIRFAX COUNTY POLICE DEPARTMENT,"WEST SPRINGFIELD DISTRICT STATION 
												
													PARKING LOT -OPERATING 10 AM TO 2 PM-",6140 ROLLING ROAD,SPRINGFIELD,VA,22152,"http://maps.google.com/maps?q=6140 ROLLING ROAD,+SPRINGFIELD,+VA+22152&hl=en"
FALLS CHURCH POLICE DEPARTMENT,"FALLS CHURCH CITY HALL 
												
													EXTERIOR",300 PARK AVE,FALLS CHURCH,VA,22046,"http://maps.google.com/maps?q=300 PARK AVE,+FALLS CHURCH,+VA+22046&hl=en"
FOREST CITY POLICE,FOREST CITY AREA EMERGENCY SERVICES,380 RAILROAD STREET,FOREST CITY,PA,18421,"http://maps.google.com/maps?q=380 RAILROAD STREET,+FOREST CITY,+PA+18421&hl=en"
FORT DETRICK EMERGENCY SERVICES,"COMMISSARY BUILDING 1510 
												
													POC DET. LESTER MUMMERT",BUILDING # 1510,FORT DETRICK,MD,21702,"http://maps.google.com/maps?q=BUILDING # 1510,+FORT DETRICK,+MD+21702&hl=en"
FORT DETRICK EMERGENCY SERVICES,"DIRECTORATE OF EMERGENCY SERVICES 
												
													POC DET. LESTER MUMMERT",BUILDING # 1419,FORT DETRICK,MD,21702,"http://maps.google.com/maps?q=BUILDING # 1419,+FORT DETRICK,+MD+21702&hl=en"
FORT DETRICK EMERGENCY SERVICES,FOREST GLENN ANNEX,FOREST GLENN ANNEX,FREDERICK,MD,21702,"http://maps.google.com/maps?q=FOREST GLENN ANNEX,+FREDERICK,+MD+21702&hl=en"
FREDERICK POLICE DEPARTMENT,TRINITY SCHOOL,6040 NEW DESIGN ROAD,FREDERICK,MD,21703,"http://maps.google.com/maps?q=6040 NEW DESIGN ROAD,+FREDERICK,+MD+21703&hl=en"
GAITHERSBURG POLICE DEPARTMENT,GAITHERSBURG POLICE DEPARTMENT,14 FULKS CORNER AVENUE,GAITHERSBURG,MD,20877,"http://maps.google.com/maps?q=14 FULKS CORNER AVENUE,+GAITHERSBURG,+MD+20877&hl=en"
GEORGE MASON UNIVERSITY POLICE DEPARTMENT,GEORGE MASON UNIVERSITY POLICE STATION,4393 UNIVERSITY DRIVE,FAIRFAX,VA,22030,"http://maps.google.com/maps?q=4393 UNIVERSITY DRIVE,+FAIRFAX,+VA+22030&hl=en"
GETTYSBURG BOROUGH POLICE DEPARTMENT,ADAMS COUNTY HOUSING AUTHORITY,40 EAST HIGH STREET,GETTYSBURG,PA,17325,"http://maps.google.com/maps?q=40 EAST HIGH STREET,+GETTYSBURG,+PA+17325&hl=en"
GLOUCESTER CITY POLICE DEPARTMENT,GLOUCESTER CITY POLICE DEPT.,313 MONMOUTH ST.,GLOUCESTER,NJ,08030,"http://maps.google.com/maps?q=313 MONMOUTH ST.,+GLOUCESTER,+NJ+08030&hl=en"
GREAT BEND POLICE DEPARTMENT,GREAT BEND POLICE STATION,335 WASHINGTON STREET,GREAT BEND,PA,18821,"http://maps.google.com/maps?q=335 WASHINGTON STREET,+GREAT BEND,+PA+18821&hl=en"
GREENBELT POLICE DEPARTMENT,GREENBELT CITY OFFICES,25 CRESCENT ROAD,GREENBELT,MD,20770,"http://maps.google.com/maps?q=25 CRESCENT ROAD,+GREENBELT,+MD+20770&hl=en"
HAMBURG BOROUGH POLICE,HAMBURG BOROUGH POLICE DEPT,61 N 3RD ST,HAMBURG,PA,19526,"http://maps.google.com/maps?q=61 N 3RD ST,+HAMBURG,+PA+19526&hl=en"
HAMBURG POLICE DEPARTMENT,"TOWN OF HAMBURG DEPT. OF YOUTH 
												
													RECREATION & SENIOR SERVICES",4540 SOUTHWESTERN BLVD.,HAMBURG,NY,14075,"http://maps.google.com/maps?q=4540 SOUTHWESTERN BLVD.,+HAMBURG,+NY+14075&hl=en"
HARFORD COUNTY SHERIFF'S OFFICE,"COUNTY OFFICE BUILDING 
												
													PARKING LOT","220 SOUTH MAIN STREET,CORNER OF BUSINESS RT 1 AND MAIN ST.",BEL AIR,MD,21014,"http://maps.google.com/maps?q=220 SOUTH MAIN STREET,,+BEL AIR,+MD+21014&hl=en"
HARRISON TWP. POLICE DEPARTMENT,"HARRISON TWP. POLICE DEPARTMENT 
												
													856-478-6839",199 COLSON LANE,MULLICA HILL,NJ,08062,"http://maps.google.com/maps?q=199 COLSON LANE,+MULLICA HILL,+NJ+08062&hl=en"
HATBORO POLICE DEPARTMENT,HATBORO POLICE DEPARTMENT,120 EAST MONTGOMERY AVENUE,HATBORO,PA,19040,"http://maps.google.com/maps?q=120 EAST MONTGOMERY AVENUE,+HATBORO,+PA+19040&hl=en"
HATFIELD TOWNSHIP POLICE DEPARTMENT,HATFIELD TOWNSHIP ADMINISTRATIVE BUILDING,1950 SCHOOL ROAD,HATFIELD,PA,19440,"http://maps.google.com/maps?q=1950 SCHOOL ROAD,+HATFIELD,+PA+19440&hl=en"
HAVRE DE GRACE POLICE DEPARTMENT,HAVRE DE GRACE POLICE DEPARTMENT,715 PENNINGTON AVENUE,HAVRE DE GRACE,MD,21078,"http://maps.google.com/maps?q=715 PENNINGTON AVENUE,+HAVRE DE GRACE,+MD+21078&hl=en"
HERNDON POLICE DEPARTMENT,"HERNDON POLICE DEPARTMENT 
												
													LOBBY AREA",397 HERNDON PARKWAY,HERNDON,VA,20170,"http://maps.google.com/maps?q=397 HERNDON PARKWAY,+HERNDON,+VA+20170&hl=en"
HIGHSPIRE BOROUGH POLICE DEPARTMENT,HIGHSPIRE BOROUGH BUILDING,640 ESHELMAN ST.,HIGHSPIRE,PA,17034,"http://maps.google.com/maps?q=640 ESHELMAN ST.,+HIGHSPIRE,+PA+17034&hl=en"
HILLTOWN TOWNSHIP POLICE DEPARTMENT,HILLTOWN TOWNSHIP MUNICIPAL BUILDING,13 WEST CREAMERY ROAD,HILLTOWN,PA,18927,"http://maps.google.com/maps?q=13 WEST CREAMERY ROAD,+HILLTOWN,+PA+18927&hl=en"
HORSHAM TOWNSHIP POLICE DEPARTMENT,GIANT FOOD STORE,314 HORSHAM ROAD,HORSHAM,PA,19044,"http://maps.google.com/maps?q=314 HORSHAM ROAD,+HORSHAM,+PA+19044&hl=en"
HOWARD COUNTY POLICE DEPARTMENT,GARY ARTHUR COMMUNITY CENTER,2400 RT. 97,COOKSVILLE,MD,21723,"http://maps.google.com/maps?q=2400 RT. 97,+COOKSVILLE,+MD+21723&hl=en"
HOWARD COUNTY POLICE DEPARTMENT,HC DRUGFREE,10451 TWIN RIVERS ROAD,COLUMBIA,MD,21045,"http://maps.google.com/maps?q=10451 TWIN RIVERS ROAD,+COLUMBIA,+MD+21045&hl=en"
HOWARD COUNTY POLICE DEPARTMENT,"HOWARD COUNTY POLICE 
												
													NORTHERN DISTRICT",3410 COURTHOUSE DR.,ELLICOTT CITY,MD,21043,"http://maps.google.com/maps?q=3410 COURTHOUSE DR.,+ELLICOTT CITY,+MD+21043&hl=en"
HOWARD COUNTY POLICE DEPARTMENT,"HOWARD COUNTY POLICE 
												
													SOUTHERN DISTRICT",11226 SCAGGSVILLE RD.,LAUREL,MD,20723,"http://maps.google.com/maps?q=11226 SCAGGSVILLE RD.,+LAUREL,+MD+20723&hl=en"
HOWARD COUNTY POLICE DEPARTMENT,HOWARD COUNTY POLICE COMMUNITY OUTREACH,10785 LITTLE PATUXENT PARKWAY,COLUMBIA,MD,21044,"http://maps.google.com/maps?q=10785 LITTLE PATUXENT PARKWAY,+COLUMBIA,+MD+21044&hl=en"
HYATTSVILLE CITY POLICE,HYATTSVILLE CITY POLICE DEPARTMENT,4310 GALLATIN STREET,HYATTSVILLE,MD,20781,"http://maps.google.com/maps?q=4310 GALLATIN STREET,+HYATTSVILLE,+MD+20781&hl=en"
ITHACA POLICE DEPARTMENT,KINNEY DRUGS,513 N CAYUGA ST.,ITHACA,NY,14850,"http://maps.google.com/maps?q=513 N CAYUGA ST.,+ITHACA,+NY+14850&hl=en"
JENKINTOWN POLICE DEPARTMENT,JENKINTOWN POLICE DEPARTMENT,700 SUMMIT AVE,JENKINTOWN,PA,19046,"http://maps.google.com/maps?q=700 SUMMIT AVE,+JENKINTOWN,+PA+19046&hl=en"
KENNETT TWP POLICE DEPT.,KENNETT TWP POLICE DEPARTMENT,801 BURROWS RUN ROAD,CHADDS FORD,PA,19317,"http://maps.google.com/maps?q=801 BURROWS RUN ROAD,+CHADDS FORD,+PA+19317&hl=en"
KINGSTON TOWNSHIP POLICE DEPARTMENT,KINGSTON TOWNSHIP POLICE DEPARTMENT,180 EAST CENTER STREET,SHAVERTOWN,PA,18708,"http://maps.google.com/maps?q=180 EAST CENTER STREET,+SHAVERTOWN,+PA+18708&hl=en"
KULPMONT POLICE DEPARTMENT,KULPMONT POLICE DEPARTMENT,9 NORTH 8TH STREET,KULPMONT,PA,17834,"http://maps.google.com/maps?q=9 NORTH 8TH STREET,+KULPMONT,+PA+17834&hl=en"
LACKAWANNA POLICE DEPARTMENT,LACKAWANNA POLICE DEPARTMENT,714 RIDGE ROAD,BUFFALO,NY,14218,"http://maps.google.com/maps?q=714 RIDGE ROAD,+BUFFALO,+NY+14218&hl=en"
LANCASTER POLICE DEPARTMENT,TWIN DISTRICT FIRE DEPARTMENT,4999 WILLIAM STREET,LANCASTER,NY,14086,"http://maps.google.com/maps?q=4999 WILLIAM STREET,+LANCASTER,+NY+14086&hl=en"
LATIMORE TOWNSHIP POLICE,BERMUDIAN SPRINGS SCHOOL DISTRICT,7335 CARLISLE PIKE,YORK SPRINGS,PA,17372,"http://maps.google.com/maps?q=7335 CARLISLE PIKE,+YORK SPRINGS,+PA+17372&hl=en"
LAUREL POLICE DEPARTMENT,LAUREL POLICE DEPARTMENT,811 FIFTH STREET,LAUREL,MD,20707,"http://maps.google.com/maps?q=811 FIFTH STREET,+LAUREL,+MD+20707&hl=en"
LIMERICK TOWNSHIP POLICE DEPARTMENT,LIMERICK TOWNSHIP POLICE STATION,155 SOUTH LIMERICK ROAD,LIMERICK,PA,19468,"http://maps.google.com/maps?q=155 SOUTH LIMERICK ROAD,+LIMERICK,+PA+19468&hl=en"
LITTLESTOWN POLICE DEPARTMENT,MAPLE AVE MIDDLE SCHOOL,75 MAPLE AVE,LITTLESTOWN,PA,17340,"http://maps.google.com/maps?q=75 MAPLE AVE,+LITTLESTOWN,+PA+17340&hl=en"
LOGAN TOWNSHIP POLICE DEPARTMENT,"LOGAN TWP. POLICE DEPARTMENT 
												
													856-467-0061",125 MAIN ST.,BRIDGEPORT,NJ,08014,"http://maps.google.com/maps?q=125 MAIN ST.,+BRIDGEPORT,+NJ+08014&hl=en"
LOUDOUN COUNTY SHERIFF'S OFFICE,"EASTERN LOUDOUN STATION 
												
													FRONT LOBBY AREA",46620 EAST FREDERICK DRIVE,STERLING,VA,20164,"http://maps.google.com/maps?q=46620 EAST FREDERICK DRIVE,+STERLING,+VA+20164&hl=en"
LOUDOUN COUNTY SHERIFF'S OFFICE,"LANDSDOWNE PUBLIC SAFETY CENTER 
												
													FRONT LOBBY/ENTRANCE AREA",19485 SANDRIDGE WAY,LEESBURG,VA,20176,"http://maps.google.com/maps?q=19485 SANDRIDGE WAY,+LEESBURG,+VA+20176&hl=en"
LOUDOUN COUNTY SHERIFF'S OFFICE,LOVETTSVILLE TOWN HALL,6 E PENNSYLVANIA AVE,LOVETTSVILLE,VA,20180,"http://maps.google.com/maps?q=6 E PENNSYLVANIA AVE,+LOVETTSVILLE,+VA+20180&hl=en"
LOWER MERION TWP. POLICE DEPARTMENT,"LOWER MERION TWP. POLICE DEPARTMENT 
												
													LOBBY",71 E. LANCASTER AVE.,ARDMORE,PA,19003,"http://maps.google.com/maps?q=71 E. LANCASTER AVE.,+ARDMORE,+PA+19003&hl=en"
LOWER PAXTON TOWNSHIP POLICE DEPARTMENT,LOWER PAXTON TOWNSHIP POLICE DEPARTMENT,425 PRINCE STREET,HARRISBURG,PA,17109,"http://maps.google.com/maps?q=425 PRINCE STREET,+HARRISBURG,+PA+17109&hl=en"
LOWER PROVIDENCE POLICE DEPARTMENT,LOWER PROVIDENCE POLICE DEPARTMENT,100 PARKLANE DR,EAGLEVILLE,PA,19403,"http://maps.google.com/maps?q=100 PARKLANE DR,+EAGLEVILLE,+PA+19403&hl=en"
MACUNGIE BOROUGH POLICE DEPT,MACUNGIE POLICE DEPT,21 LOCUST ST,MACUNGIE,PA,18062,"http://maps.google.com/maps?q=21 LOCUST ST,+MACUNGIE,+PA+18062&hl=en"
MANLIUS TOWN POLICE DEPARTMENT,POLICE HQ,1 ARKIE ALBANESE AVE,MANLIUS,NY,13104,"http://maps.google.com/maps?q=1 ARKIE ALBANESE AVE,+MANLIUS,+NY+13104&hl=en"
MANSFIELD BOROUGH POLICE DEPARTMENT,MANSFIELD BOROUGH POLICE DEPARTMENT,14 SOUTH MAIN STREET,MANSFIELD,PA,16933,"http://maps.google.com/maps?q=14 SOUTH MAIN STREET,+MANSFIELD,+PA+16933&hl=en"
MARLBOROUGH TOWNSHIP POLICE DEPARTMENT,MARLBOROUGH TOWNSHIP POLICE DEPARTMENT,6040 UPPER RIDGE ROAD,GREEN LANE,PA,18054,"http://maps.google.com/maps?q=6040 UPPER RIDGE ROAD,+GREEN LANE,+PA+18054&hl=en"
MARPLE TOWNSHIP POLICE DEPARTMENT,GIANT FOOD STORE,2910 SPRINGFIELD ROAD,BROOMALL,PA,19008,"http://maps.google.com/maps?q=2910 SPRINGFIELD ROAD,+BROOMALL,+PA+19008&hl=en"
MARYLAND STATE POLICE,"MSP BEL AIR BARRACK D 
												
													POC: D/SGT. JEFF THOMAS",1401 BELAIR ROAD,BEL AIR,MD,21014,"http://maps.google.com/maps?q=1401 BELAIR ROAD,+BEL AIR,+MD+21014&hl=en"
MARYLAND STATE POLICE,"MSP CENTREVILLE BARRACK 
												
													POC:  LT. DWAYNE BOARDMAN",311 SAFETY DRIVE,CENTREVILLE,MD,21617,"http://maps.google.com/maps?q=311 SAFETY DRIVE,+CENTREVILLE,+MD+21617&hl=en"
MARYLAND STATE POLICE,"MSP COLLEGE PARK BARRACK Q 
												
													POC:  LT. SEAN MORRIS",10100 RHODE ISLAND AVENUE,COLLEGE PARK,MD,20740,"http://maps.google.com/maps?q=10100 RHODE ISLAND AVENUE,+COLLEGE PARK,+MD+20740&hl=en"
MARYLAND STATE POLICE,"MSP FORESTVILLE BARRACK 
												
													POC:  LT. ROLAND BUTLER",3500 FORESTVILLE ROAD,FORESTVILLE,MD,20747,"http://maps.google.com/maps?q=3500 FORESTVILLE ROAD,+FORESTVILLE,+MD+20747&hl=en"
MARYLAND STATE POLICE,"MSP FREDERICK BARRACK 
												
													POC:  LT. TODD MAY",110 AIRPORT DRIVE EAST,FREDERICK,MD,21701,"http://maps.google.com/maps?q=110 AIRPORT DRIVE EAST,+FREDERICK,+MD+21701&hl=en"
MARYLAND STATE POLICE,"MSP GLEN BURNIE BARRACK 
												
													POC:  SGT. EDWARD EICHER",6800 AVIATION BLVD.,GLEN BURNIE,MD,21061,"http://maps.google.com/maps?q=6800 AVIATION BLVD.,+GLEN BURNIE,+MD+21061&hl=en"
MARYLAND STATE POLICE,"MSP GOLDEN RING BARRACK 
												
													POC:  D/SGT. CLARK",8908 KELSO DRIVE,ESSEX,MD,21221,"http://maps.google.com/maps?q=8908 KELSO DRIVE,+ESSEX,+MD+21221&hl=en"
MARYLAND STATE POLICE,"MSP HAGERSTOWN BARRACK 
												
													POC- LT. WOODWARD",18345 COL. HENRY K. DOUGLAS DR.,HAGERSTOWN,MD,21740,"http://maps.google.com/maps?q=18345 COL. HENRY K. DOUGLAS DR.,+HAGERSTOWN,+MD+21740&hl=en"
MARYLAND STATE POLICE,"MSP JFK HIGHWAY BARRACK 
												
													POC:  D/SGT. SHAWN WARD",15 TURNPIKE DRIVE,PERRYVILLE,MD,21903,"http://maps.google.com/maps?q=15 TURNPIKE DRIVE,+PERRYVILLE,+MD+21903&hl=en"
MARYLAND STATE POLICE,"MSP NORTH EAST BARRACK 
												
													POC:  LT. STEPHEN KONOLD",2433 W. PULASKI HIGHWAY,NORTH EAST,MD,21901,"http://maps.google.com/maps?q=2433 W. PULASKI HIGHWAY,+NORTH EAST,+MD+21901&hl=en"
MARYLAND STATE POLICE,"MSP ROCKVILLE BARRACK 
												
													POC:  LT. H.B. MARTZ",7915 MONTROSE ROAD,ROCKVILLE,MD,20854,"http://maps.google.com/maps?q=7915 MONTROSE ROAD,+ROCKVILLE,+MD+20854&hl=en"
MARYLAND STATE POLICE,"MSP WATERLOO BARRACK 
												
													POC:  D/SGT. MYERS",7777 WASHINGTON BLVD,JESSUP,MD,20794,"http://maps.google.com/maps?q=7777 WASHINGTON BLVD,+JESSUP,+MD+20794&hl=en"
MARYLAND STATE POLICE,"MSP WESTMINSTER BARRACKS 
												
													POC:  LT.  PATRICK MCCRORY",1100 BALTIMORE BLVD.,WESTMINSTER,MD,21157,"http://maps.google.com/maps?q=1100 BALTIMORE BLVD.,+WESTMINSTER,+MD+21157&hl=en"
MERCHANTVILLE BORORUGH POLICE DEPARTMENT,CVS PHARMACY,18 W MAPLE AVE,MERCHANTVILLE,NJ,08109,"http://maps.google.com/maps?q=18 W MAPLE AVE,+MERCHANTVILLE,+NJ+08109&hl=en"
MIDDLETOWN POLICE,GIANT PHARMACY,450 EAST MAINT STREET,MIDDLETOWN,PA,17057,"http://maps.google.com/maps?q=450 EAST MAINT STREET,+MIDDLETOWN,+PA+17057&hl=en"
MIDDLETOWN POLICE DEPARTMENT,MIDDLETOWN POLICE DEPARTMENT,130 HAMPDEN ROAD,MIDDLETOWN,DE,19709,"http://maps.google.com/maps?q=130 HAMPDEN ROAD,+MIDDLETOWN,+DE+19709&hl=en"
MONTGOMERY COUNTY DEPARTMENT OF POLICE,2ND DISTRICT POLICE STATION,4823 RUGBY AVENUE,BETHESDA,MD,20814,"http://maps.google.com/maps?q=4823 RUGBY AVENUE,+BETHESDA,+MD+20814&hl=en"
MONTGOMERY COUNTY DEPARTMENT OF POLICE,3RD DISTRICT POLICE STATION,1001 MILESTONE DRIVE,SILVER SPRING,MD,20904,"http://maps.google.com/maps?q=1001 MILESTONE DRIVE,+SILVER SPRING,+MD+20904&hl=en"
MONTGOMERY COUNTY DEPARTMENT OF POLICE,4TH DISTRICT POLICE STATION,2300 RANDOLPH ROAD,WHEATON,MD,20902,"http://maps.google.com/maps?q=2300 RANDOLPH ROAD,+WHEATON,+MD+20902&hl=en"
MONTGOMERY COUNTY DEPARTMENT OF POLICE,5TH DISTRICT POLICE STATION,20000 AIRCRAFT DRIVE,GERMANTOWN,MD,20874,"http://maps.google.com/maps?q=20000 AIRCRAFT DRIVE,+GERMANTOWN,+MD+20874&hl=en"
MONTGOMERY COUNTY DEPARTMENT OF POLICE,"ASBURY METHODIST VILLAGE 
												
													BUILDING 405, APARTMENT CENTER LOBBY",301 ODENDHAL AVENUE,GAITHERSBURG,MD,20877,"http://maps.google.com/maps?q=301 ODENDHAL AVENUE,+GAITHERSBURG,+MD+20877&hl=en"
MONTGOMERY COUNTY DEPARTMENT OF POLICE,FIRE STATION 1,8110 GEORGIA AVE.,SILVER SPRING,MD,20910,"http://maps.google.com/maps?q=8110 GEORGIA AVE.,+SILVER SPRING,+MD+20910&hl=en"
MONTGOMERY COUNTY DEPARTMENT OF POLICE,JEWISH COMMUNITY CENTER,6125 MONTROSE RD.,ROCKVILLE,MD,20852,"http://maps.google.com/maps?q=6125 MONTROSE RD.,+ROCKVILLE,+MD+20852&hl=en"
MONTGOMERY COUNTY DEPARTMENT OF POLICE,KENTLANDS MANOR,217 BOOTH ST.,GAITHERSBURG,MD,20878,"http://maps.google.com/maps?q=217 BOOTH ST.,+GAITHERSBURG,+MD+20878&hl=en"
MONTGOMERY COUNTY DEPARTMENT OF POLICE,LEISURE WORLD,3305 N. LEISURE WORLD BLVD.,SILVER SPRING,MD,20906,"http://maps.google.com/maps?q=3305 N. LEISURE WORLD BLVD.,+SILVER SPRING,+MD+20906&hl=en"
MONTGOMERY COUNTY DEPARTMENT OF POLICE,"VILLAGE OF FRIENDSHIP HEIGHTS 
												
													COMMUNITY CENTER",4433 SOUTH PARK AVENUE,CHEVY CHASE,MD,20815,"http://maps.google.com/maps?q=4433 SOUTH PARK AVENUE,+CHEVY CHASE,+MD+20815&hl=en"
MONTGOMERY COUNTY DISTRICT ATTORNEY,UPPER MERION TOWNSHIP MUNICIPAL BUILDING,175 WEST VALLEY FORGE ROAD,KING OF PRUSSIA,PA,19406,"http://maps.google.com/maps?q=175 WEST VALLEY FORGE ROAD,+KING OF PRUSSIA,+PA+19406&hl=en"
MONTGOMERY TWP. POLICE DEPARTMENT,WEGMANS SUPERMARKET,1201 KNAPP ROAD,NORTH WALES,PA,19454,"http://maps.google.com/maps?q=1201 KNAPP ROAD,+NORTH WALES,+PA+19454&hl=en"
MONTOUR COUNTY SHERIFF'S OFFICE,MONTOUR COUNTY COURTHOUSE,253 MILL ST,DANVILLE,PA,17821,"http://maps.google.com/maps?q=253 MILL ST,+DANVILLE,+PA+17821&hl=en"
MOSCOW BOROUGH POLICE DEPARTMENT,MOSCOW BOROUGH MUNICIPAL BUILDING,123 VAN BRUNT ST,MOSCOW,PA,18444,"http://maps.google.com/maps?q=123 VAN BRUNT ST,+MOSCOW,+PA+18444&hl=en"
MOUNT CARMEL BOROUGH POLICE,MOUNT CARMEL BOROUGH POLICE DEPARTMENT,137 WEST FOURTH STREET,MOUNT CARMEL,PA,17851,"http://maps.google.com/maps?q=137 WEST FOURTH STREET,+MOUNT CARMEL,+PA+17851&hl=en"
MOUNT CARMEL TWP POLICE DEPARTMENT,MOUNT CARMEL BOROUGH POLICE DEPARTMENT,300 LAUREL STREET,MOUNT CARMEL,PA,17851,"http://maps.google.com/maps?q=300 LAUREL STREET,+MOUNT CARMEL,+PA+17851&hl=en"
NARCOTICS STRIKE FORCE,"UNIVERSITY OF THE SCIENCES 
												
													ROSENBERGER HALL",600 S 43RD STROOM 100,PHILADELPHIA,PA,19104,"http://maps.google.com/maps?q=600 S 43RD ST,+PHILADELPHIA,+PA+19104&hl=en"
NEW BRITAIN TOWNSHIP POLICE DEPARTMENT,GIANT,4275 COUNTY LINE ROAD,CHALFONT,PA,18914,"http://maps.google.com/maps?q=4275 COUNTY LINE ROAD,+CHALFONT,+PA+18914&hl=en"
NEW BRITAIN TOWNSHIP POLICE DEPARTMENT,NEW BRITAIN TOWNSHIP POLICE DEPARTMENT,207 PARK AVENUE,CHALFONT,PA,18914,"http://maps.google.com/maps?q=207 PARK AVENUE,+CHALFONT,+PA+18914&hl=en"
NEW CASTLE COUNTY POLICE DEPARTMENT,"NEW CASTLE COUNTY POLICE HEADQUARTERS 
												
													CPL. PAUL J, SWEENEY PUBLIC SAFETY BUILDING",3601 N. DUPONT HIGHWAY,NEW CASTLE,DE,19720,"http://maps.google.com/maps?q=3601 N. DUPONT HIGHWAY,+NEW CASTLE,+DE+19720&hl=en"
NEW HANOVER TOWNSHIP POLICE DEPARTMENT,NEW HANOVER TOWNSHIP POLICE DEPARMENT,2943 N. CHARLOTTE STREET,GILBERTSVILLE,PA,19525,"http://maps.google.com/maps?q=2943 N. CHARLOTTE STREET,+GILBERTSVILLE,+PA+19525&hl=en"
NEW HANOVER TOWNSHIP POLICE DEPT,NEW HANOVER TOWNSHIP POLICE DEPT,2943 N CHARLOTTE ST,GILBERTSVILLE,PA,19525,"http://maps.google.com/maps?q=2943 N CHARLOTTE ST,+GILBERTSVILLE,+PA+19525&hl=en"
NEW HOLLAND POLICE DEPT,GARDEN SPOT VILLAGE,433 SOUTH KINZER AVE,NEW HOLLAND,PA,17557,"http://maps.google.com/maps?q=433 SOUTH KINZER AVE,+NEW HOLLAND,+PA+17557&hl=en"
NORTH COLLINS POLICE DEPARTMENT,NORTH COLLINS POLICE DEPARTMENT,10543 MAIN STREET,NORTH COLLINS,NY,14111,"http://maps.google.com/maps?q=10543 MAIN STREET,+NORTH COLLINS,+NY+14111&hl=en"
NORTH WALES POLICE DEPARTMENT,NORTH WALES BOROUGH HALL,300 SCHOOL STREET,NORTH WALES,PA,19454,"http://maps.google.com/maps?q=300 SCHOOL STREET,+NORTH WALES,+PA+19454&hl=en"
NORTHEASTERN REGIONAL POLICE,GIANT FOODS,205 GLEN DR,MANCHESTER,PA,17345,"http://maps.google.com/maps?q=205 GLEN DR,+MANCHESTER,+PA+17345&hl=en"
NORTHERN LANCASTER COUNTY REGIONAL POLICE DEPT.,GIANT FOOD STORE,1008 LITITZ PIKE,LITITZ,PA,17543,"http://maps.google.com/maps?q=1008 LITITZ PIKE,+LITITZ,+PA+17543&hl=en"
NORTHUMBERLAND COUNTY SHERIFF'S OFFICE,NORTHUMBERLAND COUNTY COURT HOUSE,201 MARKET STREET,SUNBURY,PA,17801,"http://maps.google.com/maps?q=201 MARKET STREET,+SUNBURY,+PA+17801&hl=en"
NORTHUMBERLAND POLICE DEPT,NORRY PHARMACY,125 DUKE ST,NORTHUMBERLAND,PA,17857,"http://maps.google.com/maps?q=125 DUKE ST,+NORTHUMBERLAND,+PA+17857&hl=en"
NORTHWEST LANCASTER CO REGIONAL POLICE DEPT,GIANT FOOD STORE,1278 N MARKET ST,ELIZABETHTOWN,PA,17022,"http://maps.google.com/maps?q=1278 N MARKET ST,+ELIZABETHTOWN,+PA+17022&hl=en"
NORWICH POLICE DEPARTMENT,"NORWICH POLICE DEPARTMENT 
												
													POLICE HQ",18 E. MAIN STREET,NORWICH,NY,13815,"http://maps.google.com/maps?q=18 E. MAIN STREET,+NORWICH,+NY+13815&hl=en"
NOVA COMMUNITY COLLEGE POLICE DEPARTMENT,"NOVA COMMUNITY COLLEGE - ANNANDALE 
												
													CA BUILDING FRONT ENTRANCE",8333 LITTLE RIVER TURNPIKE,ANNANDALE,VA,22003,"http://maps.google.com/maps?q=8333 LITTLE RIVER TURNPIKE,+ANNANDALE,+VA+22003&hl=en"
OLD FORGE POLICE DEPARTMENT,CVS PHARMACY,101 S. MAIN STREET,OLD FORGE,PA,18518,"http://maps.google.com/maps?q=101 S. MAIN STREET,+OLD FORGE,+PA+18518&hl=en"
OLYPHANT POLICE DEPARTMENT,OLYPHANT BOROUGH POLICE STATION,604 EAST PARK STREET,OLYPHANT,PA,18447,"http://maps.google.com/maps?q=604 EAST PARK STREET,+OLYPHANT,+PA+18447&hl=en"
ONTARIO COUNTY OFFICE OF SHERIFF,"WEGMANS FOOD MARKET 
												
													EVENT ON  APRIL 28, 2018",345 EASTERN BLVD,CANANDAIGUA,NY,14424,"http://maps.google.com/maps?q=345 EASTERN BLVD,+CANANDAIGUA,+NY+14424&hl=en"
ORCHARD PARK POLICE DEPARTMENT,MERCY AMBULATORY CENTER,3669 SOUTHWESTERN BLVD.,ORCHARD PARK,NY,14127,"http://maps.google.com/maps?q=3669 SOUTHWESTERN BLVD.,+ORCHARD PARK,+NY+14127&hl=en"
OXFORD POLICE DEPARTMENT,"OXFORD POLICE DEPARTMENT 
												
													POLICE HQ",20 LAFAYETTE PARK,OXFORD,NY,13830,"http://maps.google.com/maps?q=20 LAFAYETTE PARK,+OXFORD,+NY+13830&hl=en"
PA STATE POLICE TROOP H/GETTYSBURG,PA STATE POLICE/TROOP H/GETTYSBURG,3033 OLD HARRISBURG RD,GETTYSBURG,PA,17325,"http://maps.google.com/maps?q=3033 OLD HARRISBURG RD,+GETTYSBURG,+PA+17325&hl=en"
PAULSBORO POLICE DEPT.,GLOUCESTER COUNTY PROSECUTOR'S OFFICE,7 HUNTER STREET,WOODBURY,NJ,08096,"http://maps.google.com/maps?q=7 HUNTER STREET,+WOODBURY,+NJ+08096&hl=en"
PENNRIDGE REGIONAL POLICE DEPARTMENT,PENNRIDGE POLICE DEPARTMENT HQ,200 RIDGE ROAD,SELLERSVILLE,PA,18960,"http://maps.google.com/maps?q=200 RIDGE ROAD,+SELLERSVILLE,+PA+18960&hl=en"
PENNSYLVANIA STATE POLICE,"PENNSYLVANIA STATE POLICE 
												
													MEDIA BARRACKS",1342 WEST BALTIMORE PIKE,MEDIA,PA,19063,"http://maps.google.com/maps?q=1342 WEST BALTIMORE PIKE,+MEDIA,+PA+19063&hl=en"
PENNSYLVANIA STATE POLICE TROOP M BETHLEHEM,PA STATE POLICE,2960 AIRPORT RD,BETHLEHEM,PA,18017,"http://maps.google.com/maps?q=2960 AIRPORT RD,+BETHLEHEM,+PA+18017&hl=en"
"PENNSYLVANIA STATE POLICE, LYKENS STATION","PENNSYLVANIA STATE POLICE 
												
													LYKENS STATION",301 STATE DR,ELIZABETHVILLE,PA,17023,"http://maps.google.com/maps?q=301 STATE DR,+ELIZABETHVILLE,+PA+17023&hl=en"
PENNSYLVANIA STATE POLICE- PHILADELPHIA,PSP PHILADELPHIA,2201 BELMONT AVENUE,PHILADELPHIA,PA,19131,"http://maps.google.com/maps?q=2201 BELMONT AVENUE,+PHILADELPHIA,+PA+19131&hl=en"
PERRYVILLE POLICE DEPARTMENT,PERRYVILLE POLICE DEPARTMENT,2 PERRYVILLE TOWN CENTER DRIVE,PERRYVILLE,MD,21903,"http://maps.google.com/maps?q=2 PERRYVILLE TOWN CENTER DRIVE,+PERRYVILLE,+MD+21903&hl=en"
PHILADELPHIA POLICE DEPARTMENT,FIRE DEPARTMENT ENGINE 19 / LADDER 8,300 E. CHELTEN AVENUE,PHILADELPHIA,PA,19120,"http://maps.google.com/maps?q=300 E. CHELTEN AVENUE,+PHILADELPHIA,+PA+19120&hl=en"
PHILADELPHIA POLICE DEPARTMENT,FIRE DEPARTMENT ENGINE 2 / LADDER 3,2426-32 N. 2ND ST.,PHILADELPHIA,PA,19133,"http://maps.google.com/maps?q=2426-32 N. 2ND ST.,+PHILADELPHIA,+PA+19133&hl=en"
PHILADELPHIA POLICE DEPARTMENT,FIRE DEPARTMENT ENGINE 33,4750 RICHMOND ST.,PHILADELPHIA,PA,19137,"http://maps.google.com/maps?q=4750 RICHMOND ST.,+PHILADELPHIA,+PA+19137&hl=en"
PHILADELPHIA POLICE DEPARTMENT,FIRE DEPARTMENT ENGINE 43 / LADDER 9,2108-14 MARKET ST.,PHILADELPHIA,PA,19103,"http://maps.google.com/maps?q=2108-14 MARKET ST.,+PHILADELPHIA,+PA+19103&hl=en"
PHILADELPHIA POLICE DEPARTMENT,FIRE DEPARTMENT ENGINE 45 / LADDER 14,2401 N. 26TH ST.,PHILADELPHIA,PA,19132,"http://maps.google.com/maps?q=2401 N. 26TH ST.,+PHILADELPHIA,+PA+19132&hl=en"
PHILADELPHIA POLICE DEPARTMENT,FIRE DEPARTMENT ENGINE 50 / LADDER 12,1325 W. CAMBRIA ST.,PHILADELPHIA,PA,19132,"http://maps.google.com/maps?q=1325 W. CAMBRIA ST.,+PHILADELPHIA,+PA+19132&hl=en"
PHILADELPHIA POLICE DEPARTMENT,FIRE DEPARTMENT ENGINE 51 / LADDER 29,5931 OLD YORK RD.,PHILADELPHIA,PA,19141,"http://maps.google.com/maps?q=5931 OLD YORK RD.,+PHILADELPHIA,+PA+19141&hl=en"
PHILADELPHIA POLICE DEPARTMENT,FIRE DEPARTMENT ENGINE 54,1913 N. 63RD ST.,PHILADELPHIA,PA,19151,"http://maps.google.com/maps?q=1913 N. 63RD ST.,+PHILADELPHIA,+PA+19151&hl=en"
PHILADELPHIA POLICE DEPARTMENT,FIRE DEPARTMENT ENGINE 57,5559 CHESTNUT ST.,PHILADELPHIA,PA,19139,"http://maps.google.com/maps?q=5559 CHESTNUT ST.,+PHILADELPHIA,+PA+19139&hl=en"
PHILADELPHIA POLICE DEPARTMENT,FIRE DEPARTMENT ENGINE 60 / LADDER 19,2301 S. 24TH ST.,PHILADELPHIA,PA,19145,"http://maps.google.com/maps?q=2301 S. 24TH ST.,+PHILADELPHIA,+PA+19145&hl=en"
PHILADELPHIA POLICE DEPARTMENT,FIRE DEPARTMENT ENGINE 68 / LADDER 13,801 S. 52ND ST.,PHILADELPHIA,PA,19143,"http://maps.google.com/maps?q=801 S. 52ND ST.,+PHILADELPHIA,+PA+19143&hl=en"
PHILADELPHIA POLICE DEPARTMENT,FIRE DEPARTMENT ENGINE 7 / LADDER 10,3798 KENSINGTON AVE.,PHILADELPHIA,PA,19124,"http://maps.google.com/maps?q=3798 KENSINGTON AVE.,+PHILADELPHIA,+PA+19124&hl=en"
PHILADELPHIA POLICE DEPARTMENT,FIRE DEPARTMENT ENGINE 73,7515 OGONTZ AVE.,PHILADELPHIA,PA,19150,"http://maps.google.com/maps?q=7515 OGONTZ AVE.,+PHILADELPHIA,+PA+19150&hl=en"
PHILADELPHIA POLICE DEPARTMENT,FIRE DEPARTMENT ENGING 9 / LADDER 21,6900 GERMANTOWN AVENUE,PHILADELPHIA,PA,19119,"http://maps.google.com/maps?q=6900 GERMANTOWN AVENUE,+PHILADELPHIA,+PA+19119&hl=en"
PHILADELPHIA POLICE DEPARTMENT,FIRE DEPARTMENT LADDER 2,101-15 N. 4TH ST.,PHILADELPHIA,PA,19106,"http://maps.google.com/maps?q=101-15 N. 4TH ST.,+PHILADELPHIA,+PA+19106&hl=en"
PHILADELPHIA POLICE DEPARTMENT,FIRE DEPARTMENT LADDER 30,6630 RIDGE AVE.,PHILADELPHIA,PA,19128,"http://maps.google.com/maps?q=6630 RIDGE AVE.,+PHILADELPHIA,+PA+19128&hl=en"
PHILADELPHIA POLICE DEPARTMENT,FIRST CLASS PHARMACY,7316 FRANKFORD AVENUE,PHILADELPHIA,PA,19149,"http://maps.google.com/maps?q=7316 FRANKFORD AVENUE,+PHILADELPHIA,+PA+19149&hl=en"
PHILADELPHIA SHERIFF'S OFFICE,18TH STREET APOTHECARY,113 SOUTH 18TH STREET,PHILADELPHIA,PA,19103,"http://maps.google.com/maps?q=113 SOUTH 18TH STREET,+PHILADELPHIA,+PA+19103&hl=en"
PHILADELPHIA SHERIFF'S OFFICE,STATE REPRESENTATIVES OFC OF ANGEL CRUZ,"3503 B STREET, #7",PHILADELPHIA,PA,19134,"http://maps.google.com/maps?q=3503 B STREET, #7,+PHILADELPHIA,+PA+19134&hl=en"
PHOENIXVILLE POLICE DEPARTMENT,PHOENIXVILLE BOROUGH HALL,351 BRIDGE STREET,PHOENIXVILLE,PA,19460,"http://maps.google.com/maps?q=351 BRIDGE STREET,+PHOENIXVILLE,+PA+19460&hl=en"
PITMAN POLICE DEPARTMENT,PITMAN POLICE DEPARTMENT,110 S. BROADWAY,PITMAN,NJ,08071,"http://maps.google.com/maps?q=110 S. BROADWAY,+PITMAN,+NJ+08071&hl=en"
PLAINS TWP POLICE DEPT,PLAINS TWP PD,126 NORTH MAIN ST,WILKES BARRE,PA,18705,"http://maps.google.com/maps?q=126 NORTH MAIN ST,+WILKES BARRE,+PA+18705&hl=en"
PLYMOUTH TOWNSHIP POLICE DEPARTMENT,PLYMOUTH TOWNSHIP POLICE DEPARTMENT,700 BELVOIR ROAD,PLYMOUTH MEETING,PA,19462,"http://maps.google.com/maps?q=700 BELVOIR ROAD,+PLYMOUTH MEETING,+PA+19462&hl=en"
POCONO MOUNTAIN REGIONAL POLICE DEPT.,POCONO MOUNTAIN REGIONAL POLICE DEPARTMENT,2454 ROUTE 940,POCONO SUMMIT,PA,18346,"http://maps.google.com/maps?q=2454 ROUTE 940,+POCONO SUMMIT,+PA+18346&hl=en"
POCONO MOUNTAIN REGIONAL POLICE DEPT.,"ST LUKES UNIVERSAL HEALTH NETWORK 
												
													MONROE CAMPUS",100 ST LUKES LN,STROUDSBURG,PA,18360,"http://maps.google.com/maps?q=100 ST LUKES LN,+STROUDSBURG,+PA+18360&hl=en"
POTTSTOWN POLICE DEPARTMENT,BOROUGH OF POTTSTOWN,100 EAST HIGH ST,POTTSTOWN,PA,19464,"http://maps.google.com/maps?q=100 EAST HIGH ST,+POTTSTOWN,+PA+19464&hl=en"
PRINCE GEORGE'S COUNTY POLICE DEPARTMENT,"CENTRAL COLLECTION SITE 
												
													DISTRICT III, PGPD",7600 BARLOWE ROAD,PALMER PARK,MD,20785,"http://maps.google.com/maps?q=7600 BARLOWE ROAD,+PALMER PARK,+MD+20785&hl=en"
PRINCE GEORGE'S COUNTY POLICE DEPARTMENT,"NORTHERN COLLECTION SITE 
												
													DISTRICT I, PGPD",5000 RHODE ISLAND AVENUE,HYATTSVILLE,MD,20784,"http://maps.google.com/maps?q=5000 RHODE ISLAND AVENUE,+HYATTSVILLE,+MD+20784&hl=en"
PUNXSUTAWNEY BOROUGH POLICE DEPARTMENT,PUNXSY HOMETOWN PHARMACY,203 HAMPTON ROAD,PUNXSUTAWNEY,PA,15767,"http://maps.google.com/maps?q=203 HAMPTON ROAD,+PUNXSUTAWNEY,+PA+15767&hl=en"
QUAKERTOWN POLICE DEPARTMENT,"QUAKERTOWN BOROUGH HALL 
												
													PARKING LOT",35 N. 3RD STREET,QUAKERTOWN,PA,18951,"http://maps.google.com/maps?q=35 N. 3RD STREET,+QUAKERTOWN,+PA+18951&hl=en"
QUAKERTOWN POLICE DEPARTMENT,"ST LUKES QUAKERTOWN HOSPITAL 
												
													MAIN ENTRANCE",1021 PARK AVE,QUAKERTOWN,PA,18951,"http://maps.google.com/maps?q=1021 PARK AVE,+QUAKERTOWN,+PA+18951&hl=en"
QUEEN ANNE'S COUNTY SHERIFF'S OFFICE,QUEEN ANNE'S COUNTY SHERIFF'S OFFICE,505 RAILROAD AVENUE,CENTREVILLE,MD,21617,"http://maps.google.com/maps?q=505 RAILROAD AVENUE,+CENTREVILLE,+MD+21617&hl=en"
RADNOR POLICE DEPARTMENT,RADNOR POLICE DEPARTMENT,301 IVEN AVENUE,WAYNE,PA,19087,"http://maps.google.com/maps?q=301 IVEN AVENUE,+WAYNE,+PA+19087&hl=en"
RICHLAND TOWNSHIP POLICE DEPARTMENT,RICHLAND TOWNSHIP POLICE DEPARTMENT,229 CALIFORNIA ROAD,QUAKERTOWN,PA,18951,"http://maps.google.com/maps?q=229 CALIFORNIA ROAD,+QUAKERTOWN,+PA+18951&hl=en"
RICHLAND TOWNSHIP POLICE DEPARTMENT,RICHLAND TWP POLICE DEPT,229 CALIFORNIA RD,QUAKERTOWN,PA,18951,"http://maps.google.com/maps?q=229 CALIFORNIA RD,+QUAKERTOWN,+PA+18951&hl=en"
ROCKLEDGE BOROUGH POLICE DEPARTMENT,ROCKLEDGE POLICE DEPARTMENT,1 PARK AVENUE,ROCKLEDGE,PA,19046,"http://maps.google.com/maps?q=1 PARK AVENUE,+ROCKLEDGE,+PA+19046&hl=en"
ROCKVILLE CITY POLICE DEPARTMENT,ROCKVILLE CITY POLICE DEPARTMENT,#2 W. MONTGOMERY AVENUE,ROCKVILLE,MD,20850,"http://maps.google.com/maps?q=#2 W. MONTGOMERY AVENUE,+ROCKVILLE,+MD+20850&hl=en"
ROYERSFORD POLICE DEPARTMENT,ROYERSFORD POLICE DEPARTMENT,300 MAIN STREET,ROYERSFORD,PA,19468,"http://maps.google.com/maps?q=300 MAIN STREET,+ROYERSFORD,+PA+19468&hl=en"
RUNNEMEDE POLICE DEPARTMENT,RUNNEMEDE POLICE DEPARTMENT,24 N. BLACK HORSE PIKE,RUNNEMEDE,NJ,08078,"http://maps.google.com/maps?q=24 N. BLACK HORSE PIKE,+RUNNEMEDE,+NJ+08078&hl=en"
SALEM CITY POLICE DEPARTMENT,SALEM CITY POLICE DEPARTMENT,129 WEST BROADWAY,SALEM,NJ,08079,"http://maps.google.com/maps?q=129 WEST BROADWAY,+SALEM,+NJ+08079&hl=en"
SALISBURY TOWNSHIP POLICE DEPARTMENT,SOUTH MALL,3300 LEHIGH STREET,ALLENTOWN,PA,18103,"http://maps.google.com/maps?q=3300 LEHIGH STREET,+ALLENTOWN,+PA+18103&hl=en"
SCHUYLER COUNTY SHERIFF'S OFFICE,"ODESSA FIRE DEPARTMENT 
												
													28 APRIL 2018",300 EAST MAIN STREET,ODESSA,NY,14869,"http://maps.google.com/maps?q=300 EAST MAIN STREET,+ODESSA,+NY+14869&hl=en"
SCHUYLER COUNTY SHERIFF'S OFFICE,SCHUYLER COUNTY HUMAN SERVICES COMPLEX,323 OWEGO STREET,MONTOUR FALLS,NY,14865,"http://maps.google.com/maps?q=323 OWEGO STREET,+MONTOUR FALLS,+NY+14865&hl=en"
SCHUYLER COUNTY SHERIFF'S OFFICE,"TYRONE FIRE DEPARTMENT 
												
													28 APRIL 2018",3600 STATE RTE 226,TYRONE,NY,14887,"http://maps.google.com/maps?q=3600 STATE RTE 226,+TYRONE,+NY+14887&hl=en"
SCHUYLKILL COUNTY SHERIFF'S OFFICE,ASHLAND POLICE DEPARTMENT,401 SOUTH 18TH STREET,ASHLAND,PA,17921,"http://maps.google.com/maps?q=401 SOUTH 18TH STREET,+ASHLAND,+PA+17921&hl=en"
SCHUYLKILL COUNTY SHERIFF'S OFFICE,BUTLER TOWNSHIP POLICE DEPARTMENT,211 BROAD STREET,ASHLAND,PA,17921,"http://maps.google.com/maps?q=211 BROAD STREET,+ASHLAND,+PA+17921&hl=en"
SCHUYLKILL COUNTY SHERIFF'S OFFICE,CASS TOWNSHIP POLICE DEPARTMENT,1209 VALLEY ROAD,POTTSVILLE,PA,17901,"http://maps.google.com/maps?q=1209 VALLEY ROAD,+POTTSVILLE,+PA+17901&hl=en"
SCHUYLKILL COUNTY SHERIFF'S OFFICE,COALDALE POLICE DEPARTMENT,221-223 3RD STREET,COALDALE,PA,18218,"http://maps.google.com/maps?q=221-223 3RD STREET,+COALDALE,+PA+18218&hl=en"
SCHUYLKILL COUNTY SHERIFF'S OFFICE,FRACKVILLE POLICE DEPARTMENT,42 SOUTH CENTER STREET,FRACKVILLE,PA,17931,"http://maps.google.com/maps?q=42 SOUTH CENTER STREET,+FRACKVILLE,+PA+17931&hl=en"
SCHUYLKILL COUNTY SHERIFF'S OFFICE,GIRARDVILLE POLICE DEPARTMENT,4TH & B. STREET,GIRARDVILLE,PA,17935,"http://maps.google.com/maps?q=4TH & B. STREET,+GIRARDVILLE,+PA+17935&hl=en"
SCHUYLKILL COUNTY SHERIFF'S OFFICE,HEGINS POLICE DEPARTMENT,417 GAP STREET,VALLEY VIEW,PA,17983,"http://maps.google.com/maps?q=417 GAP STREET,+VALLEY VIEW,+PA+17983&hl=en"
SCHUYLKILL COUNTY SHERIFF'S OFFICE,HOMETOWN AUCTION,125 MAHANOY AVE RT 54,TAMAQUA,PA,18252,"http://maps.google.com/maps?q=125 MAHANOY AVE RT 54,+TAMAQUA,+PA+18252&hl=en"
SCHUYLKILL COUNTY SHERIFF'S OFFICE,MAHANOY CITY POLICE DEPARTMENT,239 EAST PINE STREET,MAHANOY CITY,PA,17948,"http://maps.google.com/maps?q=239 EAST PINE STREET,+MAHANOY CITY,+PA+17948&hl=en"
SCHUYLKILL COUNTY SHERIFF'S OFFICE,MINERSVILLE POLICE DEPARTMENT,15 NORTH DELAWARE AVENUE,MINERSVILLE,PA,17954,"http://maps.google.com/maps?q=15 NORTH DELAWARE AVENUE,+MINERSVILLE,+PA+17954&hl=en"
SCHUYLKILL COUNTY SHERIFF'S OFFICE,ORWIGSBURG POLICE DEPARTMENT,209 NORTH WARREN STREET,ORWIGSBURG,PA,17961,"http://maps.google.com/maps?q=209 NORTH WARREN STREET,+ORWIGSBURG,+PA+17961&hl=en"
SCHUYLKILL COUNTY SHERIFF'S OFFICE,PINE GROVE POLICE DEPARTMENT,ONE SNYDER DRIVE,PINE GROVE,PA,17963,"http://maps.google.com/maps?q=ONE SNYDER DRIVE,+PINE GROVE,+PA+17963&hl=en"
SCHUYLKILL COUNTY SHERIFF'S OFFICE,PORT CARBON POLICE DEPARTMENT,90 WASHINGTON STREET,PORT CARBON,PA,17965,"http://maps.google.com/maps?q=90 WASHINGTON STREET,+PORT CARBON,+PA+17965&hl=en"
SCHUYLKILL COUNTY SHERIFF'S OFFICE,RUSH TOWNSHIP POLICE DEPT,104 MAHANOY AVE,TAMAQUA,PA,18252,"http://maps.google.com/maps?q=104 MAHANOY AVE,+TAMAQUA,+PA+18252&hl=en"
SCHUYLKILL COUNTY SHERIFF'S OFFICE,SAINT CLAIR POLICE DEPARTMENT,24 NORTH 2ND STREET,SAINT CLAIR,PA,17970,"http://maps.google.com/maps?q=24 NORTH 2ND STREET,+SAINT CLAIR,+PA+17970&hl=en"
SCHUYLKILL COUNTY SHERIFF'S OFFICE,SAINT LUKES MINERS CAMPUS,360 WEST RUDDLE ST,COALDALE,PA,18218,"http://maps.google.com/maps?q=360 WEST RUDDLE ST,+COALDALE,+PA+18218&hl=en"
SCHUYLKILL COUNTY SHERIFF'S OFFICE,"SCHUYLKILL COUNTY COURT HOUSE (SECURITY ENTRANCE) 
												
													SECURITY ENTRANCE",401 NORTH 2ND STREET,POTTSVILLE,PA,17901,"http://maps.google.com/maps?q=401 NORTH 2ND STREET,+POTTSVILLE,+PA+17901&hl=en"
SCHUYLKILL COUNTY SHERIFF'S OFFICE,SCHUYLKILL HAVEN POLICE DEPARTMENT,220 PARKWAY AVENUE,SCHUYLKILL HAVEN,PA,17972,"http://maps.google.com/maps?q=220 PARKWAY AVENUE,+SCHUYLKILL HAVEN,+PA+17972&hl=en"
SCHUYLKILL COUNTY SHERIFF'S OFFICE,SHENANDOAH POLICE DEPARTMENT,15 WEST WASHINGTON STREET,SHENANDOAH,PA,17976,"http://maps.google.com/maps?q=15 WEST WASHINGTON STREET,+SHENANDOAH,+PA+17976&hl=en"
SCHUYLKILL COUNTY SHERIFF'S OFFICE,TAMAQUA POLICE DEPARTMENT,320 BROAD STREET,TAMAQUA,PA,18252,"http://maps.google.com/maps?q=320 BROAD STREET,+TAMAQUA,+PA+18252&hl=en"
SCHUYLKILL COUNTY SHERIFF'S OFFICE,TREMONT POLICE DEPARTMENT,19 NORTH PINE STREET,TREMONT,PA,17981,"http://maps.google.com/maps?q=19 NORTH PINE STREET,+TREMONT,+PA+17981&hl=en"
SCRANTON POLICE DEPARTMENT,SCRANTON POLICE DEPARTMENT,100 S. WASHINGTON AVENUE,SCRANTON,PA,18503,"http://maps.google.com/maps?q=100 S. WASHINGTON AVENUE,+SCRANTON,+PA+18503&hl=en"
SEWARD BORO POLICE DEPT,ROADWAY PHARMACY,6858 RT 711,SEWARD,PA,15954,"http://maps.google.com/maps?q=6858 RT 711,+SEWARD,+PA+15954&hl=en"
SHADE TOWNSHIP POLICE,PENN LAUREL PHARMACY,112 SUNSHINE AVE,CENTRAL CITY,PA,15926,"http://maps.google.com/maps?q=112 SUNSHINE AVE,+CENTRAL CITY,+PA+15926&hl=en"
SHAMOKIN POLICE DEPARTMENT,SHAMOKIN POLICE DEPARTMENT,511 NORTH FRANKLIN STREET,SHAMOKIN,PA,17872,"http://maps.google.com/maps?q=511 NORTH FRANKLIN STREET,+SHAMOKIN,+PA+17872&hl=en"
SHAWNEE STATE PARK,SHAWNEE STATE PARK: PAVILLION #2,132 STATE PARK ROAD,SCHELLSBURG,PA,15559,"http://maps.google.com/maps?q=132 STATE PARK ROAD,+SCHELLSBURG,+PA+15559&hl=en"
SHEPERDSTOWN POLICE DEPARTMENT,SHEPERDSTOWN POLICE DEPARTMENT,104 N. KING ST.,SHEPHERDSTOWN,WV,25443,"http://maps.google.com/maps?q=104 N. KING ST.,+SHEPHERDSTOWN,+WV+25443&hl=en"
SIDNEY POLICE DEPARTMENT,SIDNEY POLICE DEPARTMENT,21 LIBERTY STREET,SIDNEY,NY,13838,"http://maps.google.com/maps?q=21 LIBERTY STREET,+SIDNEY,+NY+13838&hl=en"
SOUDERTON BOROUGH POLICE,SOUDERTON BOROUGH POLICE STATION,31 WEST SUMMIT ST,SOUDERTON,PA,18964,"http://maps.google.com/maps?q=31 WEST SUMMIT ST,+SOUDERTON,+PA+18964&hl=en"
SOUTH HARRISON TWP. POLICE DEPARTMENT,"SOUTH HARRISON TWP. MUNICIPAL BUILDING 
												
													856-769-3737",664 HARRISONVILLE RD.,MULLICA HILL,NJ,08062,"http://maps.google.com/maps?q=664 HARRISONVILLE RD.,+MULLICA HILL,+NJ+08062&hl=en"
SOUTH WHITEHALL TWP POLICE DEPT,SOUTH WHITEHALL TWP POLICE DEPT,4444 WALBERT AVENUE,ALLENTOWN,PA,18104,"http://maps.google.com/maps?q=4444 WALBERT AVENUE,+ALLENTOWN,+PA+18104&hl=en"
SOUTHERN CHESTER COUNTY REGIONAL POLICE DEPARTMENT,GIANT FOOD STORES,350 SCARLETT ROAD,KENNETT SQUARE,PA,19348,"http://maps.google.com/maps?q=350 SCARLETT ROAD,+KENNETT SQUARE,+PA+19348&hl=en"
SOUTHERN CHESTER COUNTY REGIONAL POLICE DEPARTMENT,"WEST GROVE BOROUGH BUILDING 
												
													SCCRPD LOBBY",117 ROSEHILL AVE,WEST GROVE,PA,19390,"http://maps.google.com/maps?q=117 ROSEHILL AVE,+WEST GROVE,+PA+19390&hl=en"
SULLIVAN COUNTY SHERIFF'S OFFICE,SULLIVAN COUNTY SHERIFF'S OFFICE,245 MUNCY ST,LAPORTE,PA,18626,"http://maps.google.com/maps?q=245 MUNCY ST,+LAPORTE,+PA+18626&hl=en"
SUMMIT HILL POLICE DEPARTMENT,SUMMIT HILL POLICE DEPARTMENT,"40 W. AMIDON STREET, SUITE 1",SUMMIT HILL,PA,18250,"http://maps.google.com/maps?q=40 W. AMIDON STREET, SUITE 1,+SUMMIT HILL,+PA+18250&hl=en"
SUNBURY POLICE DEPARTMENT,SUNBURY POLICE DEPARTMENT,440 MARKET STREET,SUNBURY,PA,17801,"http://maps.google.com/maps?q=440 MARKET STREET,+SUNBURY,+PA+17801&hl=en"
SUSQUEHANNA BOROUGH POLICE,SCHNEIDER'S MARKET,171 ERIE BLVDSUITE 1,SUSQUEHANNA,PA,18847,"http://maps.google.com/maps?q=171 ERIE BLVD,+SUSQUEHANNA,+PA+18847&hl=en"
SUSQUEHANNA COUNTY SHERIFF'S OFFICE,SUSQUEHANNA COUNTY COURTHOUSE,31 LAKE AVENUE,MONTROSE,PA,18801,"http://maps.google.com/maps?q=31 LAKE AVENUE,+MONTROSE,+PA+18801&hl=en"
SUSQUEHANNA TOWNSHIP POLICE DEPARTMENT,GIANT FOOD STORE,2300 LINGLESTOWN RD.,HARRISBURG,PA,17110,"http://maps.google.com/maps?q=2300 LINGLESTOWN RD.,+HARRISBURG,+PA+17110&hl=en"
SYRACUSE POLICE DEPARTMENT,KINNEY DRUGS,104 LAFAYETTE RD.,SYRACUSE,NY,13205,"http://maps.google.com/maps?q=104 LAFAYETTE RD.,+SYRACUSE,+NY+13205&hl=en"
SYRACUSE POLICE DEPARTMENT,KINNEY DRUGS,2912 JAMES ST,SYRACUSE,NY,13206,"http://maps.google.com/maps?q=2912 JAMES ST,+SYRACUSE,+NY+13206&hl=en"
SYRACUSE POLICE DEPARTMENT,KINNEY DRUGS,406 BUTTERNUT STREET,SYRACUSE,NY,13208,"http://maps.google.com/maps?q=406 BUTTERNUT STREET,+SYRACUSE,+NY+13208&hl=en"
TAKOMA PARK POLICE DEPARTMENT,"TAKOMA PARK POLICE DEPARTMENT 
												
													LOBBY",7500 MAPLE AVENUE,TAKOMA PARK,MD,20912,"http://maps.google.com/maps?q=7500 MAPLE AVENUE,+TAKOMA PARK,+MD+20912&hl=en"
TELFORD BOROUGH POLICE DEPARTMENT,INDIAN VALLEY PUBLIC LIBRARY,100 EAST CHURCH AVENUE,TELFORD,PA,18969,"http://maps.google.com/maps?q=100 EAST CHURCH AVENUE,+TELFORD,+PA+18969&hl=en"
TIOGA COUNTY SHERIFF'S OFFICE,"TIOGA COUNTY SHERIFF'S OFFICE 
												
													TRINITY-CASA OF TIOGA",ACROSS FROM AGWAY6 MCMASTER ST.,OWEGO,NY,13827,"http://maps.google.com/maps?q=ACROSS FROM AGWAY,+OWEGO,+NY+13827&hl=en"
TOMPKINS COUNTY SHERIFF'S OFFICE,SHERIFF'S HQ,779 WARREN ROAD,ITHACA,NY,14850,"http://maps.google.com/maps?q=779 WARREN ROAD,+ITHACA,+NY+14850&hl=en"
TOMPKINS COUNTY SHERIFF'S OFFICE,SLATERVILLE FIRE STATION,2681 SLATERVILLE RD.,SLATERVILLE SPRINGS,NY,14881,"http://maps.google.com/maps?q=2681 SLATERVILLE RD.,+SLATERVILLE SPRINGS,+NY+14881&hl=en"
TOWAMENCIN TOWNSHIP POLICE DEPARTMENT,TOWAMENCIN TOWNSHIP POLICE DEPARTMENT,1090 TROXEL ROAD,LANSDALE,PA,19446,"http://maps.google.com/maps?q=1090 TROXEL ROAD,+LANSDALE,+PA+19446&hl=en"
TOWNSHIP OF SPRING POLICE DEPARTMENT,GIANT FOOD STORE #6050,2641 SHILLINGTON RD.,READING,PA,19608,"http://maps.google.com/maps?q=2641 SHILLINGTON RD.,+READING,+PA+19608&hl=en"
TOWNSHIP OF SPRING POLICE DEPARTMENT,GIANT FOOD STORE 6289,2104 VAN REED RD.,READING,PA,19609,"http://maps.google.com/maps?q=2104 VAN REED RD.,+READING,+PA+19609&hl=en"
TREDYFFRIN TOWNSHIP POLICE DEPARTMENT,TREDYFFRIN TOWNSHIP POLICE DEPARTMENT,1100 DUPORTAIL ROAD,BERWYN,PA,19312,"http://maps.google.com/maps?q=1100 DUPORTAIL ROAD,+BERWYN,+PA+19312&hl=en"
UNIVERSITY OF MARYLAND BALTIMORE POLICE,SMC CAMPUS CENTER LOBBY,621 W. LOMBARD STREET,BALTIMORE,MD,21201,"http://maps.google.com/maps?q=621 W. LOMBARD STREET,+BALTIMORE,+MD+21201&hl=en"
UNIVERSITY OF MD BALTIMORE COUNTY POLICE,"UMBC POLICE DEPARTMENT 
												
													POLICE STATION","1000 HILLTOP CIRCLE,LOT 8",BALTIMORE,MD,21250,"http://maps.google.com/maps?q=1000 HILLTOP CIRCLE,,+BALTIMORE,+MD+21250&hl=en"
UNIVERSITY OF MD POLICE DEPT OF PUBLIC SAFETY,UNIVERSITY OF MD POLICE DEPT OF PUBLIC SAFETY,7569 BALTIMORE AVENUE,COLLEGE PARK,MD,20742,"http://maps.google.com/maps?q=7569 BALTIMORE AVENUE,+COLLEGE PARK,+MD+20742&hl=en"
UPPER DUBLIN TWP. POLICE DEPARTMENT,UPPER DUBLIN TOWNSHIP POLICE DEPT.,801 LOCH ALSH AVENUE,FORT WASHINGTON,PA,19034,"http://maps.google.com/maps?q=801 LOCH ALSH AVENUE,+FORT WASHINGTON,+PA+19034&hl=en"
UPPER GWYNEDD TOWNSHIP POLICE DEPARTMENT,UPPER GWYNEDD TOWNSHIP POLICE DEPARTMENT,1 PARKSIDE PLACE,WEST POINT,PA,19486,"http://maps.google.com/maps?q=1 PARKSIDE PLACE,+WEST POINT,+PA+19486&hl=en"
UPPER MACUNGIE POLICE DEPT,UPPER MACUNGIE POLICE DEPT,37 GRIM RD,BREINIGSVILLE,PA,18031,"http://maps.google.com/maps?q=37 GRIM RD,+BREINIGSVILLE,+PA+18031&hl=en"
UPPER MERION TOWNSHIP POLICE DEPARTMENT,UPPER MERION TOWNSHIP POLICE DEPARTMENT,175 WEST VALLEY FORGE ROAD,KING OF PRUSSIA,PA,19406,"http://maps.google.com/maps?q=175 WEST VALLEY FORGE ROAD,+KING OF PRUSSIA,+PA+19406&hl=en"
UPPER MORELAND TWP. POLICE DEPT.,GIANT FOOD STORE,315 N YORK RD,WILLOW GROVE,PA,19090,"http://maps.google.com/maps?q=315 N YORK RD,+WILLOW GROVE,+PA+19090&hl=en"
UPPER MORELAND TWP. POLICE DEPT.,UPPER MORELAND TOWNSHIP POLICE DEPARTMENT,117 PARK AVENUE,WILLOW GROVE,PA,19090,"http://maps.google.com/maps?q=117 PARK AVENUE,+WILLOW GROVE,+PA+19090&hl=en"
UPPER PERK POLICE DEPT,UPPER PERK POLICE STATION,88 W. 6TH STREET,PENNSBURG,PA,18073,"http://maps.google.com/maps?q=88 W. 6TH STREET,+PENNSBURG,+PA+18073&hl=en"
UPPER PROVIDENCE TWP POLICE DEPT.,UPPER PROVIDENCE TWP. POLICE DEPT.,1286 BLACK ROCK RD.,OAKS,PA,19456,"http://maps.google.com/maps?q=1286 BLACK ROCK RD.,+OAKS,+PA+19456&hl=en"
UPPER SAUCON TWP POLICE DEPT,UPPER SAUCON PD,5500 CAMP MEETING RD,CENTER VALLEY,PA,18034,"http://maps.google.com/maps?q=5500 CAMP MEETING RD,+CENTER VALLEY,+PA+18034&hl=en"
UPPER SOUTHAMPTON TOWNSHIP PD,RITE AID,1035 COUNTY LINE RD,HUNTINGDON VALLEY,PA,19006,"http://maps.google.com/maps?q=1035 COUNTY LINE RD,+HUNTINGDON VALLEY,+PA+19006&hl=en"
VIENNA POLICE DEPARTMENT,VIENNA POLICE DEPARTMENT,215 CENTER STREET SOUTH,VIENNA,VA,22180,"http://maps.google.com/maps?q=215 CENTER STREET SOUTH,+VIENNA,+VA+22180&hl=en"
VIRGINIA STATE POLICE,"VIRGINIA STATE POLICE DIVISION VII HQS 
												
													POC: SGT BILL JOYNER",4977 ALLIANCE DRIVE,FAIRFAX,VA,22030,"http://maps.google.com/maps?q=4977 ALLIANCE DRIVE,+FAIRFAX,+VA+22030&hl=en"
WARREN COUNTY SHERIFF'S OFFICE,WARREN COUNTY SHERIFF'S OFFICE,407 MARKET STREET,WARREN,PA,16365,"http://maps.google.com/maps?q=407 MARKET STREET,+WARREN,+PA+16365&hl=en"
WARRINGTON TOWNSHIP POLICE DEPARTMENT,"WARRINGTON TOWNSHIP MUNICIPAL BUILDING 
												
													LOBBY",852 EASTON ROAD,WARRINGTON,PA,18976,"http://maps.google.com/maps?q=852 EASTON ROAD,+WARRINGTON,+PA+18976&hl=en"
WASHINGTON METROPOLITAN POLICE DEPT,FIFTH POLICE DISTRICT,"1805 BLADENSBURG ROAD, NE",WASHINGTON,DC,20002,"http://maps.google.com/maps?q=1805 BLADENSBURG ROAD, NE,+WASHINGTON,+DC+20002&hl=en"
WASHINGTON METROPOLITAN POLICE DEPT,FIRST POLICE DISTRICT,"101 M STREET, SW",WASHINGTON,DC,20024,"http://maps.google.com/maps?q=101 M STREET, SW,+WASHINGTON,+DC+20024&hl=en"
WASHINGTON METROPOLITAN POLICE DEPT,FOURTH POLICE DISTRICT,"6001 GEORGIA AVENUE, NW",WASHINGTON,DC,20011,"http://maps.google.com/maps?q=6001 GEORGIA AVENUE, NW,+WASHINGTON,+DC+20011&hl=en"
WASHINGTON METROPOLITAN POLICE DEPT,SECOND POLICE DISTRICT,"3320 IDAHO AVENUE, NW",WASHINGTON,DC,20016,"http://maps.google.com/maps?q=3320 IDAHO AVENUE, NW,+WASHINGTON,+DC+20016&hl=en"
WASHINGTON METROPOLITAN POLICE DEPT,THIRD POLICE DISTRIST,"1620 V STREET, NW",WASHINGTON,DC,20009,"http://maps.google.com/maps?q=1620 V STREET, NW,+WASHINGTON,+DC+20009&hl=en"
WASHINGTON SUBURBAN SANITARY COMMISSION,WSSC POLICE DEPARTMENT,14501 SWEITZER LANE,LAUREL,MD,20707,"http://maps.google.com/maps?q=14501 SWEITZER LANE,+LAUREL,+MD+20707&hl=en"
WASHINGTON TOWNSHIP POLICE DEPARTMENT,WASHINGTON TOWNSHIP MUNICIPAL COURT ROOM,1 MCCLURE DRIVE,SEWELL,NJ,08080,"http://maps.google.com/maps?q=1 MCCLURE DRIVE,+SEWELL,+NJ+08080&hl=en"
WELLSBORO POLICE DEPARTMENT,WELLSBORO POLICE DEPARTMENT,28 CRAFTON STREET,WELLSBORO,PA,16901,"http://maps.google.com/maps?q=28 CRAFTON STREET,+WELLSBORO,+PA+16901&hl=en"
WEST CONSHOHOCKEN POLICE DEPARTMENT,WEST CONSHOHOCKEN BOROUGH HALL,112 FORD STREET,WEST CONSHOHOCKEN,PA,19428,"http://maps.google.com/maps?q=112 FORD STREET,+WEST CONSHOHOCKEN,+PA+19428&hl=en"
WEST MANCHESTER TOWNSHIP POLICE DEPT,GIANT,1255 CARLISLE RD,YORK,PA,17404,"http://maps.google.com/maps?q=1255 CARLISLE RD,+YORK,+PA+17404&hl=en"
WEST NORRITON TOWNSHIP POLICE DEPARTMENT,WEST NORRITON POLICE DEPARTMENT,1630 W. MARSHALL,NORRISTOWN,PA,19403,"http://maps.google.com/maps?q=1630 W. MARSHALL,+NORRISTOWN,+PA+19403&hl=en"
WEST POTTSGROVE TWP. POLICE DEPARTMENT,WEST POTTSGROVE TWP. POLICE DEPARTMENT,"980 N. GROSSTOWNSTOWE, A",POTTSTOWN,PA,19464,"http://maps.google.com/maps?q=980 N. GROSSTOWN,+POTTSTOWN,+PA+19464&hl=en"
WEST SENECA POLICE DEPARTMENT,WEST SENECA SENIOR CENTER,4620 SENECA STREET,WEST SENECA,NY,14224,"http://maps.google.com/maps?q=4620 SENECA STREET,+WEST SENECA,+NY+14224&hl=en"
WEST VIRGINIA STATE POLICE,"WVSP-MARTINSBURG 
												
													SGT M.A. COLE/3042670001",14 TROOPER DR,MARTINSBURG,WV,25404,"http://maps.google.com/maps?q=14 TROOPER DR,+MARTINSBURG,+WV+25404&hl=en"
WHITEMARSH POLICE DEPARTMENT,"WHITEMARSH TOWNSHIP POLICE STATION 
												
													(LOBBY)",616 EAST GERMANTOWN PIKE,LAFAYETTE HILL,PA,19444,"http://maps.google.com/maps?q=616 EAST GERMANTOWN PIKE,+LAFAYETTE HILL,+PA+19444&hl=en"
WILMINGTON VA MEDICAL CENTER,WILMINGTON VA MEDICAL CENTER,1601 KIRKWOOD HWY,WILMINGTON,DE,19805,"http://maps.google.com/maps?q=1601 KIRKWOOD HWY,+WILMINGTON,+DE+19805&hl=en"
WINDBER BOROUGH POLICE DEPT,MARTELLA'S PHARMACY,901 CORAHAM AVE,WINDBER,PA,15963,"http://maps.google.com/maps?q=901 CORAHAM AVE,+WINDBER,+PA+15963&hl=en"
WOODBURY CITY,WOODBURY CITY PD,220 S. BROAD ST.,WOODBURY,NJ,08096,"http://maps.google.com/maps?q=220 S. BROAD ST.,+WOODBURY,+NJ+08096&hl=en"
WOODBURY HEIGHTS POLICE DEPARTMENT,"WOODBURY HEIGHTS POLICE DEPARTMENT 
												
													856-848-6707",500 ELM AVE.,WOODBURY HEIGHTS,NJ,08097,"http://maps.google.com/maps?q=500 ELM AVE.,+WOODBURY HEIGHTS,+NJ+08097&hl=en"
WRIGHT TOWNSHIP POLICE DEPARTMENT,WRIGHT TOWNSHIP POLICE DEPARTMENT,321 SOUTH MOUNTAIN. BLVD.,MOUNTAIN TOP,PA,18707,"http://maps.google.com/maps?q=321 SOUTH MOUNTAIN. BLVD.,+MOUNTAIN TOP,+PA+18707&hl=en"
WYOMING COUNTY DISTRICT ATTORNEYS OFFIC DETECTIVES,CVS PHARMACY,BUSINESS ROUTE 6 AND SR 29,TUNKHANNOCK,PA,18657,"http://maps.google.com/maps?q=BUSINESS ROUTE 6 AND SR 29,+TUNKHANNOCK,+PA+18657&hl=en"
WYOMING COUNTY DISTRICT ATTORNEYS OFFIC DETECTIVES,LECH'S PHARMACY,SR0006,TUNKHANNOCK,PA,18657,"http://maps.google.com/maps?q=SR0006,+TUNKHANNOCK,+PA+18657&hl=en"
WYOMING COUNTY DISTRICT ATTORNEYS OFFIC DETECTIVES,RITE AID,420 TIOGA PLZ,TUNKHANNOCK,PA,18657,"http://maps.google.com/maps?q=420 TIOGA PLZ,+TUNKHANNOCK,+PA+18657&hl=en"
WYOMING COUNTY SHERIFF'S DEPARTMENT,ATTICA POLICE DEPARTMENT,43 EXCHNAGE STREET,ATTICA,NY,14011,"http://maps.google.com/maps?q=43 EXCHNAGE STREET,+ATTICA,+NY+14011&hl=en"
WYOMING COUNTY SHERIFF'S DEPARTMENT,PERRY POLICE DEPARTMENT,46 NORTH MAIN STREET,PERRY,NY,14530,"http://maps.google.com/maps?q=46 NORTH MAIN STREET,+PERRY,+NY+14530&hl=en"
WYOMING COUNTY SHERIFF'S DEPARTMENT,WYOMING COUNTY SHERIFF'S OFFICE,151 N. MAIN STREET,WARSAW,NY,14569,"http://maps.google.com/maps?q=151 N. MAIN STREET,+WARSAW,+NY+14569&hl=en"
YOUNGSVILLE BOROUGH POLICE DEPARTMENT,YOUNGSVILLE MUNICIPAL BUILDING,40 RAILROAD STREET,YOUNGSVILLE,PA,16371,"http://maps.google.com/maps?q=40 RAILROAD STREET,+YOUNGSVILLE,+PA+16371&hl=en"
