Participant,CollectionSite,Address,City,State,Zip,MapURL
ALBANY COUNTY SHERIFF,ALBANY COUNTY SHERIFF,58 VERDA AVENUE,CLARKSVILLE,NY,12041,"http://maps.google.com/maps?q=58 VERDA AVENUE,+CLARKSVILLE,+NY+12041&hl=en"
ALBANY COUNTY SHERIFF,RCS COMMUNITY LIBRARY,95 MAIN ST,RAVENA,NY,12143,"http://maps.google.com/maps?q=95 MAIN ST,+RAVENA,+NY+12143&hl=en"
ALBANY NY POLICE DEPARTMENT,"ALBANY COLLEGE OF PHARMACY 
												
													CAR PORT (DRIVE UP DROP OFF)",106 NEW SCOTLAND AVE.,ALBANY,NY,12208,"http://maps.google.com/maps?q=106 NEW SCOTLAND AVE.,+ALBANY,+NY+12208&hl=en"
ALBANY NY POLICE DEPARTMENT,ALBANY POLICE DEPT. SOUTH STATION,126 ARCH STREET,ALBANY,NY,12202,"http://maps.google.com/maps?q=126 ARCH STREET,+ALBANY,+NY+12202&hl=en"
ALBANY NY POLICE DEPARTMENT,CVS PHARMACY,885 CENTRAL AVE.,ALBANY,NY,12205,"http://maps.google.com/maps?q=885 CENTRAL AVE.,+ALBANY,+NY+12205&hl=en"
ALLENDALE POLICE DEPARTMENT,"ALLENDALE POLICE DEPARTMENT 
												
													201-825-1900",290 FRANKLIN TURNPIKE,ALLENDALE,NJ,07401,"http://maps.google.com/maps?q=290 FRANKLIN TURNPIKE,+ALLENDALE,+NJ+07401&hl=en"
ALSTEAD POLICE DEPARTMENT,ALSTEAD POLICE DEPARTMENT,15 MECHANIC ST,ALSTEAD,NH,03602,"http://maps.google.com/maps?q=15 MECHANIC ST,+ALSTEAD,+NH+03602&hl=en"
ANDOVER POLICE DEPARTMENT,"ANDOVER POLICE STATION 
												
													973-383-5544",145 LAKE ILIFF RD.,NEWTON,NJ,07860,"http://maps.google.com/maps?q=145 LAKE ILIFF RD.,+NEWTON,+NJ+07860&hl=en"
ANDOVER POLICE DEPARTMENT,CIRCLE K,718 MAIN ST,ANDOVER,NH,03216,"http://maps.google.com/maps?q=718 MAIN ST,+ANDOVER,+NH+03216&hl=en"
ASHFIELD PD,ASHFIELD PD,412 MAIN STREET,ASHFIELD,MA,01330,"http://maps.google.com/maps?q=412 MAIN STREET,+ASHFIELD,+MA+01330&hl=en"
ASHLAND POLICE DEPARTMENT,ASHLAND POLICE,20 HIGHLAND STREET,ASHLAND,NH,03217,"http://maps.google.com/maps?q=20 HIGHLAND STREET,+ASHLAND,+NH+03217&hl=en"
AUBURN POLICE DEPARTMENT,"AUBURN POLICE DEPARTMENT 
												
													HQ",46 NORTH STREET,AUBURN,NY,13021,"http://maps.google.com/maps?q=46 NORTH STREET,+AUBURN,+NY+13021&hl=en"
AUBURN POLICE DEPARTMENT,KINNEY DRUGS,62 OWASCO ST.,AUBURN,NY,13021,"http://maps.google.com/maps?q=62 OWASCO ST.,+AUBURN,+NY+13021&hl=en"
BALDWINSVILLE POLICE DEPARTMENT,KINNEY DRUGS,21 E. GENESEE STREET,BALDWINSVILLE,NY,13027,"http://maps.google.com/maps?q=21 E. GENESEE STREET,+BALDWINSVILLE,+NY+13027&hl=en"
BELMONT POLICE DEPARTMENT,BELMONT POLICE STATION,16 FULLER STREET,BELMONT,NH,03220,"http://maps.google.com/maps?q=16 FULLER STREET,+BELMONT,+NH+03220&hl=en"
BENNINGTON POLICE DEPARTMENT,"BENNINGTON COUNTY SHERIFF'S DEPT 
												
													FRONT LOBBY",811 US RT 7 SOUTH,BENNINGTON,VT,05201,"http://maps.google.com/maps?q=811 US RT 7 SOUTH,+BENNINGTON,+VT+05201&hl=en"
BENNINGTON POLICE DEPARTMENT,"BENNINGTON POLICE DEPARTMENT 
												
													FRONT LOBBY",118 SOUTH STREET,BENNINGTON,VT,05201,"http://maps.google.com/maps?q=118 SOUTH STREET,+BENNINGTON,+VT+05201&hl=en"
BENNINGTON POLICE DEPARTMENT,"CVS DRUG STORE 
												
													APRIL 28, 2018 FROM 10AM TO 2PM ONLY",8 KOCHER DRIVE,BENNINGTON,VT,05201,"http://maps.google.com/maps?q=8 KOCHER DRIVE,+BENNINGTON,+VT+05201&hl=en"
BENNINGTON POLICE DEPARTMENT,"MANCHESTER VT POLICE DEPARTMENT 
												
													FRONT LOBBY",6041 MAIN STREET,MANCHESTER CENTER,VT,05255,"http://maps.google.com/maps?q=6041 MAIN STREET,+MANCHESTER CENTER,+VT+05255&hl=en"
BENNINGTON POLICE DEPARTMENT,"SOUTHWESTERN VT MEDICAL CENTER 
												
													FRONT LOBBY",100 HOSPITAL DRIVE,BENNINGTON,VT,05201,"http://maps.google.com/maps?q=100 HOSPITAL DRIVE,+BENNINGTON,+VT+05201&hl=en"
BENNINGTON POLICE DEPARTMENT,"WINHALL POLICE DEPARTMENT 
												
													FRONT LOBBY",113 VT RT 30,BONDVILLE,VT,05340,"http://maps.google.com/maps?q=113 VT RT 30,+BONDVILLE,+VT+05340&hl=en"
BERKELEY HEIGHTS POLICE DEPARTMENT,"BERKELEY HEIGHTS POLICE DEPARTMENT 
												
													908-464-1111",29 PARK AVE.,BERKELEY HEIGHTS,NJ,07922,"http://maps.google.com/maps?q=29 PARK AVE.,+BERKELEY HEIGHTS,+NJ+07922&hl=en"
BERNARDS TOWNSHIP POLICE DEPARTMENT,BERNARDS TOWNSHIP POLICE DEPARTMENT,1 COLLYER LANE,BASKING RIDGE,NJ,07920,"http://maps.google.com/maps?q=1 COLLYER LANE,+BASKING RIDGE,+NJ+07920&hl=en"
BERNARDSVILLE POLICE DEPARTMENT,BERNARDSVILLE POLICE DEPARTMENT,166 MINE BROOK ROAD,BERNARDSVILLE,NJ,07924,"http://maps.google.com/maps?q=166 MINE BROOK ROAD,+BERNARDSVILLE,+NJ+07924&hl=en"
BETHLEHEM POLICE DEPARTMENT,BETHLEHEM POLICE DEPARTMENT,2155 MAIN ST,BETHLEHEM,NH,03574,"http://maps.google.com/maps?q=2155 MAIN ST,+BETHLEHEM,+NH+03574&hl=en"
BETHLEHEM POLICE DEPARTMENT,"BETHLEHEM TOWN PARK 
												
													FRONT PARKING LOT",249 ELM AVE.,DELMAR,NY,12054,"http://maps.google.com/maps?q=249 ELM AVE.,+DELMAR,+NY+12054&hl=en"
BETHLEHEM TWNSHP POLICE DEPARTMENT,CVS PHARMACY,4950 FREEMANSBURG AVENUE,EASTON,PA,18045,"http://maps.google.com/maps?q=4950 FREEMANSBURG AVENUE,+EASTON,+PA+18045&hl=en"
BETHLEHEM TWNSHP POLICE DEPARTMENT,GIANT PHARMACY #6366,3926 NAZARETH PIKE,BETHLEHEM,PA,18020,"http://maps.google.com/maps?q=3926 NAZARETH PIKE,+BETHLEHEM,+PA+18020&hl=en"
BETHLEHEM TWNSHP POLICE DEPARTMENT,"ST. LUKES HOSPITAL, ANDERSON CAMPUS",1872 ST LUKES BLVD,EASTON,PA,18045,"http://maps.google.com/maps?q=1872 ST LUKES BLVD,+EASTON,+PA+18045&hl=en"
BETHLEHEM TWNSHP POLICE DEPARTMENT,YOUNG'S PHARMACY,3708 FREEMANSBURG AVENUE,EASTON,PA,18045,"http://maps.google.com/maps?q=3708 FREEMANSBURG AVENUE,+EASTON,+PA+18045&hl=en"
BOSCAWEN POLICE DEPARTMENT,BOSCAWEN POLICE DEPARTMENT,116 NORTH MAIN STREET,BOSCAWEN,NH,03303,"http://maps.google.com/maps?q=116 NORTH MAIN STREET,+BOSCAWEN,+NH+03303&hl=en"
BRADFORD COUNTY SHERIFF'S OFFICE,MILLER'S PHARMACY,ROUTE 6,WYALUSING,PA,18853,"http://maps.google.com/maps?q=ROUTE 6,+WYALUSING,+PA+18853&hl=en"
BRADFORD POLICE DEPARTMENT,BRADFORD POLICE DEPARTMENT,2217 STATE ROUTE 114,BRADFORD,NH,03221,"http://maps.google.com/maps?q=2217 STATE ROUTE 114,+BRADFORD,+NH+03221&hl=en"
BRANCHBURG TOWNSHIP POLICE DEPARTMENT,BRANCHBURG TOWNSHIP POLICE DEPARTMENT,590 OLD YORK ROAD,BRANCHBURG,NJ,08876,"http://maps.google.com/maps?q=590 OLD YORK ROAD,+BRANCHBURG,+NJ+08876&hl=en"
BRIDGEWATER TWP. POLICE,BRIDGEWATER POLICE HQ,100 COMMONS WAY,BRIDGEWATER,NJ,08807,"http://maps.google.com/maps?q=100 COMMONS WAY,+BRIDGEWATER,+NJ+08807&hl=en"
BRISTOL POLICE DEPARTMENT,BRISTOL POLICE DEPARTMENT,230 LAKE STREETLAKE STREET,BRISTOL,NH,03222,"http://maps.google.com/maps?q=230 LAKE STREET,+BRISTOL,+NH+03222&hl=en"
BRISTOL POLICE DEPARTMENT,BRISTOL POLICE DEPARTMENT,72 MUNSILL AVENUE,BRISTOL,VT,05443,"http://maps.google.com/maps?q=72 MUNSILL AVENUE,+BRISTOL,+VT+05443&hl=en"
BROOME COUNTY SHERIFF'S DEPARTMENT,AMERICAN LEGION POST 1700,305 MAPLE STREET,ENDICOTT,NY,13760,"http://maps.google.com/maps?q=305 MAPLE STREET,+ENDICOTT,+NY+13760&hl=en"
BROOME COUNTY SHERIFF'S DEPARTMENT,BROOME COUNTY SHERIFF'S OFFICE,155 LT. VANWINKLE DR.,BINGHAMTON,NY,13905,"http://maps.google.com/maps?q=155 LT. VANWINKLE DR.,+BINGHAMTON,+NY+13905&hl=en"
BROOME COUNTY SHERIFF'S DEPARTMENT,JOHNSON CITY ELKS,4212 WATSON BLVD.,JOHNSON CITY,NY,13790,"http://maps.google.com/maps?q=4212 WATSON BLVD.,+JOHNSON CITY,+NY+13790&hl=en"
BROOME COUNTY SHERIFF'S DEPARTMENT,VESTAL FIRE STATION 4,3341 VESTAL PKWY EAST,VESTAL,NY,13850,"http://maps.google.com/maps?q=3341 VESTAL PKWY EAST,+VESTAL,+NY+13850&hl=en"
BROOME COUNTY SHERIFF'S DEPARTMENT,WINDSOR COMMUNITY CENTER,107 MAIN STREET,WINDSOR,NY,13865,"http://maps.google.com/maps?q=107 MAIN STREET,+WINDSOR,+NY+13865&hl=en"
BURLINGTON POLICE DEPARTMENT,"BURLINGTON POLICE DEPARTMENT 
												
													NORTH LOBBY",1 NORTH AVE,BURLINGTON,VT,05401,"http://maps.google.com/maps?q=1 NORTH AVE,+BURLINGTON,+VT+05401&hl=en"
BYRAM TWP. POLICE DEPARTMENT,CVS PHARMACY,77 RT. 206,STANHOPE,NJ,07874,"http://maps.google.com/maps?q=77 RT. 206,+STANHOPE,+NJ+07874&hl=en"
BYRAM TWP. POLICE DEPARTMENT,SHOP RITE,90 ROUTE 206,STANHOPE,NJ,07874,"http://maps.google.com/maps?q=90 ROUTE 206,+STANHOPE,+NJ+07874&hl=en"
CAIRO POLICE DEPARTMENT,CVS PHARMACY,7600 ROUTE 32,CAIRO,NY,12413,"http://maps.google.com/maps?q=7600 ROUTE 32,+CAIRO,+NY+12413&hl=en"
CAIRO POLICE DEPARTMENT,CVS PHARMACY,7600 SR 32 CAIRO,CAIRO,NY,12413,"http://maps.google.com/maps?q=7600 SR 32 CAIRO,+CAIRO,+NY+12413&hl=en"
CALEDONIA COUNTY SHERIFF DEPT.,CALEDONIA COUNTY SHERIFF DEPT.,1126 MAIN ST SUITE #2,SAINT JOHNSBURY,VT,05819,"http://maps.google.com/maps?q=1126 MAIN ST SUITE #2,+SAINT JOHNSBURY,+VT+05819&hl=en"
CALIFON BOROUGH POLICE DEPARTMENT,CALIFON MUNICIPAL BUILDING,39 ACADEMY STREET,CALIFON,NJ,07830,"http://maps.google.com/maps?q=39 ACADEMY STREET,+CALIFON,+NJ+07830&hl=en"
CAMILLUS POLICE DEPARTEMENT,POLICE HQ DROP BOX,4600 WEST GENESEE ST.,SYRACUSE,NY,13219,"http://maps.google.com/maps?q=4600 WEST GENESEE ST.,+SYRACUSE,+NY+13219&hl=en"
CANAAN POLICE DEPARTMENT,CANAAN POLICE DEPARTMENT,52 ROUTE 118,CANAAN,NH,03741,"http://maps.google.com/maps?q=52 ROUTE 118,+CANAAN,+NH+03741&hl=en"
CANTERBURY POLICE DEPARTMENT,CANTERBURY POLICE DEPARTMENT,26 BAPTIST RD,CANTERBURY,NH,03224,"http://maps.google.com/maps?q=26 BAPTIST RD,+CANTERBURY,+NH+03224&hl=en"
CANTON POLICE DEPARTMENT,KINNEY DRUGS,40 STATE HIGHWAY 310,CANTON,NY,13617,"http://maps.google.com/maps?q=40 STATE HIGHWAY 310,+CANTON,+NY+13617&hl=en"
CARTHAGE POLICE DEPARTMENT,KINNEY DRUGS,401 STATE STREET,CARTHAGE,NY,13619,"http://maps.google.com/maps?q=401 STATE STREET,+CARTHAGE,+NY+13619&hl=en"
CASTLETON POLICE DEPARTMENT,CASTLETON POLICE DEPARTMENT,263 VT ROUTE 30,CASTLETON,VT,05735,"http://maps.google.com/maps?q=263 VT ROUTE 30,+CASTLETON,+VT+05735&hl=en"
CAZENOVIA POLICE DEPARTMENT,KINNEY DRUGS PARKING LOT,41 ALBANY STREET,CAZENOVIA,NY,13035,"http://maps.google.com/maps?q=41 ALBANY STREET,+CAZENOVIA,+NY+13035&hl=en"
CEDAR GROVE POLICE DEPARTMENT,"CEDAR GROVE POLICE DEPARTMENT 
												
													973-239-4100",525 ROUTE 23,CEDAR GROVE,NJ,07009,"http://maps.google.com/maps?q=525 ROUTE 23,+CEDAR GROVE,+NJ+07009&hl=en"
CHATHAM BOROUGH POLICE DEPARTMENT,CVS PHARMACY,471 MAIN STREET,CHATHAM,NJ,07928,"http://maps.google.com/maps?q=471 MAIN STREET,+CHATHAM,+NJ+07928&hl=en"
CHATHAM TOWNSHIP,CHATHAM TWP PD,401 SOUTHERN BLVD.,CHATHAM,NJ,07928,"http://maps.google.com/maps?q=401 SOUTHERN BLVD.,+CHATHAM,+NJ+07928&hl=en"
CHATHAM TOWNSHIP,SHOPRITE,631 SHUNPIKE ROAD,CHATHAM,NJ,07928,"http://maps.google.com/maps?q=631 SHUNPIKE ROAD,+CHATHAM,+NJ+07928&hl=en"
CHENANGO COUNTY SHERIFF'S OFFICE,GREENE FIRE DEPARTMENT,NORTH CANAL STREET,GREENE,NY,13778,"http://maps.google.com/maps?q=NORTH CANAL STREET,+GREENE,+NY+13778&hl=en"
CHENANGO COUNTY SHERIFF'S OFFICE,NORTH NORWICH FIRE DEPARTMENT,108 BEACH LANE,NORTH NORWICH,NY,13814,"http://maps.google.com/maps?q=108 BEACH LANE,+NORTH NORWICH,+NY+13814&hl=en"
CHESTER TOWNSHIP,CHESTER TWP. POLICE HEADQUARTERS,1 PARKER ROAD,CHESTER,NJ,07930,"http://maps.google.com/maps?q=1 PARKER ROAD,+CHESTER,+NJ+07930&hl=en"
CHITTENANGO POLICE DEPARTMENT,KINNEY DRUGS,540 GENESEE ST.,CHITTENANGO,NY,13037,"http://maps.google.com/maps?q=540 GENESEE ST.,+CHITTENANGO,+NY+13037&hl=en"
CHITTENANGO POLICE DEPARTMENT,MEDICINE SHOPPE,1315 W GENESEE STREET,CHITTENANGO,NY,13037,"http://maps.google.com/maps?q=1315 W GENESEE STREET,+CHITTENANGO,+NY+13037&hl=en"
CHITTENANGO POLICE DEPARTMENT,POLICE HQS,222 GENESEE STREET,CHITTENANGO,NY,13037,"http://maps.google.com/maps?q=222 GENESEE STREET,+CHITTENANGO,+NY+13037&hl=en"
CHITTENDEN COUNTY SHERIFF'S DEPARTMENT,PRICE CHOPPER PARKING LOT,595 SHELBURNE ROAD,BURLINGTON,VT,05401,"http://maps.google.com/maps?q=595 SHELBURNE ROAD,+BURLINGTON,+VT+05401&hl=en"
CICERO POLICE DEPARTMENT,KINNEY DRUGS,8150 THOMPSON RD.,CICERO,NY,13039,"http://maps.google.com/maps?q=8150 THOMPSON RD.,+CICERO,+NY+13039&hl=en"
CICERO POLICE DEPARTMENT,WALGREEN'S PARKING LOT,6189 ROUTE 31,CICERO,NY,13039,"http://maps.google.com/maps?q=6189 ROUTE 31,+CICERO,+NY+13039&hl=en"
CITY OF EASTON POLICE DEPT,CITY OF EASTON POLICE DEPT,48 N 4TH ST,EASTON,PA,18042,"http://maps.google.com/maps?q=48 N 4TH ST,+EASTON,+PA+18042&hl=en"
CITY OF ORANGE TOWNSHIP,FRONT DESK- ORANGE POLICE DEPT.,29 PARK STREET,ORANGE,NJ,07050,"http://maps.google.com/maps?q=29 PARK STREET,+ORANGE,+NJ+07050&hl=en"
CLAREMONT POLICE DEPARTMENT,"CVS PARKING LOT 
												
													CORNER OF WALL SST & BROAD ST",WALL STBROAD ST,CLAREMONT,NH,03743,"http://maps.google.com/maps?q=WALL ST,+CLAREMONT,+NH+03743&hl=en"
CLARKSTOWN POLICE,CVS PHARMACY,280 SOUTH MAIN ST,NEW CITY,NY,10956,"http://maps.google.com/maps?q=280 SOUTH MAIN ST,+NEW CITY,+NY+10956&hl=en"
CLARKSTOWN POLICE,CVS PHARMACY,330 ROUTE 304,BARDONIA,NY,10954,"http://maps.google.com/maps?q=330 ROUTE 304,+BARDONIA,+NY+10954&hl=en"
CLINTON COUNTY SHERIFFS OFFICE,ROUSES POINT FIRE STATION,48 LAKE STREET,ROUSES POINT,NY,12979,"http://maps.google.com/maps?q=48 LAKE STREET,+ROUSES POINT,+NY+12979&hl=en"
CLINTON TOWNSHIP POLICE DEPARTMENT,CLINTON TOWNSHIP PUBLIC SAFETY BUILDING,1370 ROUTE 31 NORTH,ANNANDALE,NJ,08801,"http://maps.google.com/maps?q=1370 ROUTE 31 NORTH,+ANNANDALE,+NJ+08801&hl=en"
CLOSTER POLICE DEPARTMENT,"CLOSTER POLICE GARAGE 
												
													201-768-5000",295 CLOSTER  DOCK ROAD,CLOSTER,NJ,07624,"http://maps.google.com/maps?q=295 CLOSTER  DOCK ROAD,+CLOSTER,+NJ+07624&hl=en"
COLEBROOK POLICE DEPARTMENT,COLEBROOK POLICE DEPARTMENT,17 BRIDGE STREET,COLEBROOK,NH,03576,"http://maps.google.com/maps?q=17 BRIDGE STREET,+COLEBROOK,+NH+03576&hl=en"
COLONIE POLICE DEPARTMENT,"THE CROSSINGS OF COLONIE PARK 
												
													TOWN OF COLONIE",580 ALBANY SHAKER ROAD,LOUDONVILLE,NY,12211,"http://maps.google.com/maps?q=580 ALBANY SHAKER ROAD,+LOUDONVILLE,+NY+12211&hl=en"
COXSACKIE POLICE DEPARTMENT,COXSACKIE POLICE DEPARTMENT,119 MANSION STREET,COXSACKIE,NY,12051,"http://maps.google.com/maps?q=119 MANSION STREET,+COXSACKIE,+NY+12051&hl=en"
CROTON ON HUDSON POLICE,CROTON COMMONS SHOPPING PLAZA,177 SOUTH RIVERSIDE AVENUE,CROTON ON HUDSON,NY,10520,"http://maps.google.com/maps?q=177 SOUTH RIVERSIDE AVENUE,+CROTON ON HUDSON,+NY+10520&hl=en"
CT STATE POLICE - TROOP B,"CSP - TROOP B BARRACKS 
												
													FRONT ENTRANCE",463 ASHLEY FALLS RD.,NORTH CANAAN,CT,06018,"http://maps.google.com/maps?q=463 ASHLEY FALLS RD.,+NORTH CANAAN,+CT+06018&hl=en"
CUMMINGTON POLICE,"CUMMINGTON POLICE DEPARTMENT 
												
													CUMMINGTON PUBLIC SAFETY COMPLEX",8 FAIRGROUNDS ROADBOX 98,CUMMINGTON,MA,01026,"http://maps.google.com/maps?q=8 FAIRGROUNDS ROAD,+CUMMINGTON,+MA+01026&hl=en"
DEA NEW YORK DIVISION,"DEPARTMENT OF FAMILY SERVICES ROBERT TRAVIS BLDG 
												
													SUSAN CLARK",16 COMMUNITY LANE,LIBERTY,NY,12754,"http://maps.google.com/maps?q=16 COMMUNITY LANE,+LIBERTY,+NY+12754&hl=en"
DEA NEW YORK DIVISION,"FALLSBURG POLICE STATION 
												
													ALETA M. GOMEZ 845.794.8080  X170",19 RAILROAD PLAZA,SOUTH FALLSBURG,NY,12779,"http://maps.google.com/maps?q=19 RAILROAD PLAZA,+SOUTH FALLSBURG,+NY+12779&hl=en"
DEA NEW YORK DIVISION,"JEFFERSON PHARMACY 
												
													SUSAN CLARK",4892 MAIN STREET,JEFFERSONVILLE,NY,12748,"http://maps.google.com/maps?q=4892 MAIN STREET,+JEFFERSONVILLE,+NY+12748&hl=en"
DEA NEW YORK DIVISION,"LIBERTY POLICE DEPARTMENT 
												
													ALETA M. GOMEZ  845.794.8080  X170",159 NORTH MAIN STREET,LIBERTY,NY,12754,"http://maps.google.com/maps?q=159 NORTH MAIN STREET,+LIBERTY,+NY+12754&hl=en"
DEA NEW YORK DIVISION,"RIVRESIDE REMEDIES 
												
													SUSAN CLARK",39 LOWER MAIN STREET,CALLICOON,NY,12723,"http://maps.google.com/maps?q=39 LOWER MAIN STREET,+CALLICOON,+NY+12723&hl=en"
DEA NEW YORK DIVISION,"TUSTEN TOWN 
												
													SUSAN CLARK",210 BRIDGE STREET,NARROWSBURG,NY,12764,"http://maps.google.com/maps?q=210 BRIDGE STREET,+NARROWSBURG,+NY+12764&hl=en"
DEERFIELD PD,DEERFIELD POLICE DEPARTMENT,8 CONWAY STREET,SOUTH DEERFIELD,MA,01373,"http://maps.google.com/maps?q=8 CONWAY STREET,+SOUTH DEERFIELD,+MA+01373&hl=en"
DELAWARE TOWNSHIP POLICE,DELAWARE TOWNSHIP POLICE HQ,816 SERGEANTSVILLE ROAD,STOCKTON,NJ,08559,"http://maps.google.com/maps?q=816 SERGEANTSVILLE ROAD,+STOCKTON,+NJ+08559&hl=en"
DEWITT POLICE DEPARTMENT,KINNEY DRUGS,307 NOTTINGHAM ROAD,SYRACUSE,NY,13210,"http://maps.google.com/maps?q=307 NOTTINGHAM ROAD,+SYRACUSE,+NY+13210&hl=en"
DOVER POLICE DEPT.,"DOVER POLICE DEPARTMENT 
												
													CHIEF RANDY JOHNSON",246 ROUTE 100,WEST DOVER,VT,05356,"http://maps.google.com/maps?q=246 ROUTE 100,+WEST DOVER,+VT+05356&hl=en"
DUBLIN POLICE DEPARTMENT,DUBLIN POLICE DEPARTMENT,1122 MAIN STREET,DUBLIN,NH,03444,"http://maps.google.com/maps?q=1122 MAIN STREET,+DUBLIN,+NH+03444&hl=en"
DURYEA POLICE DEPARTMENT,DURYEA BOROUGH  TOWN HALL BUILDING,315 MAIN STREET,DURYEA,PA,18642,"http://maps.google.com/maps?q=315 MAIN STREET,+DURYEA,+PA+18642&hl=en"
DUTCHESS COUNTY SHERIFF'S OFFICE,VASSAR BROTHERS MEDICAL HOSPITAL,45 READE PLACE,POUGHKEEPSIE,NY,12601,"http://maps.google.com/maps?q=45 READE PLACE,+POUGHKEEPSIE,+NY+12601&hl=en"
EAST GREENBUSH POLICE DEPARTMENT,EAST GREENBUSH POLICE DEPARTMENT,225 COLUMBIA TURNPIKE,RENSSELAER,NY,12144,"http://maps.google.com/maps?q=225 COLUMBIA TURNPIKE,+RENSSELAER,+NY+12144&hl=en"
EASTHAMPTON POLICE DEPARTMENT,EASTHAMPTON PUBLIC SAFETY COMPLEX,32 PAYSON AVENUE,EASTHAMPTON,MA,01027,"http://maps.google.com/maps?q=32 PAYSON AVENUE,+EASTHAMPTON,+MA+01027&hl=en"
EDISON POLICE DEPARTMENT,"EDISON POLICE DEPARTMENT 
												
													732-248-6442",100 MUNICIPAL BLVD.,EDISON,NJ,08817,"http://maps.google.com/maps?q=100 MUNICIPAL BLVD.,+EDISON,+NJ+08817&hl=en"
ELMWOOD PARK POLICE DEPARTMENT,ELMWOOK PARK PD,182 MARKET ST,ELMWOOD PARK,NJ,07407,"http://maps.google.com/maps?q=182 MARKET ST,+ELMWOOD PARK,+NJ+07407&hl=en"
EMERSON P.D.,EMERSON POLICE HQ,1 MUNICIPAL PLACE,EMERSON,NJ,07630,"http://maps.google.com/maps?q=1 MUNICIPAL PLACE,+EMERSON,+NJ+07630&hl=en"
ENFIELD POLICE DEPARTMENT,ENFIELD TRANSFER STATION,39 LOCKEHAVEN ROAD,ENFIELD,NH,03748,"http://maps.google.com/maps?q=39 LOCKEHAVEN ROAD,+ENFIELD,+NH+03748&hl=en"
ESSEX COUNTY SHERIFF,ESSEX COUNTY SHERIFF'S OFFICE,702 STOWERSVILLE RD.,LEWIS,NY,12950,"http://maps.google.com/maps?q=702 STOWERSVILLE RD.,+LEWIS,+NY+12950&hl=en"
ESSEX FELLS POLICE DEPARTMENT,ESSEX FELLS POLICE DEPARTMENT,255 ROSELAND AVENUE,ESSEX FELLS,NJ,07021,"http://maps.google.com/maps?q=255 ROSELAND AVENUE,+ESSEX FELLS,+NJ+07021&hl=en"
ESSEX POLICE DEPARTMENT,ESSEX POLICE DEPARTMENT,145 MAPLE STREET,ESSEX JUNCTION,VT,05452,"http://maps.google.com/maps?q=145 MAPLE STREET,+ESSEX JUNCTION,+VT+05452&hl=en"
ESSEX POLICE DEPARTMENT,KINNEY DRUGS PHARMACY,82 PEARL STREET,ESSEX JUNCTION,VT,05452,"http://maps.google.com/maps?q=82 PEARL STREET,+ESSEX JUNCTION,+VT+05452&hl=en"
EWING POLICE DEPARTMENT,"EWING TOWNSHIP MUNICIPAL BUILDING 
												
													609-882-1313",2 JAKE GARZIO DRIVE,EWING,NJ,08628,"http://maps.google.com/maps?q=2 JAKE GARZIO DRIVE,+EWING,+NJ+08628&hl=en"
FAIR HAVEN POLICE DEPARTMENT,FAIR HAVEN POLICE DEPARTMENT,3 NORTH PARK PLACE,FAIR HAVEN,VT,05743,"http://maps.google.com/maps?q=3 NORTH PARK PLACE,+FAIR HAVEN,+VT+05743&hl=en"
FAR HILLS PD,FAR HILLS PD,6 PROSPECT STREET,FAR HILLS,NJ,07931,"http://maps.google.com/maps?q=6 PROSPECT STREET,+FAR HILLS,+NJ+07931&hl=en"
FITZWILLIAM POLICE DEPARTMENT,FITZWILLIAM POLICE DEPARTMENT,6 CHURCH ST.,FITZWILLIAM,NH,03447,"http://maps.google.com/maps?q=6 CHURCH ST.,+FITZWILLIAM,+NH+03447&hl=en"
FLEMINGTON BOROUGH POLICE DEPARTMENT,FLEMINGTON BOROUGH POLICE DEPARTMENT,100 MAIN STREET,FLEMINGTON,NJ,08822,"http://maps.google.com/maps?q=100 MAIN STREET,+FLEMINGTON,+NJ+08822&hl=en"
FLORHAM PARK POLICE DEPARTMENT,"RIDGEDALE MIDDLE SCHOOL 
												
													973-377-2200",71 RIDGEDALE AVE.,FLORHAM PARK,NJ,07932,"http://maps.google.com/maps?q=71 RIDGEDALE AVE.,+FLORHAM PARK,+NJ+07932&hl=en"
FOREST CITY POLICE,FOREST CITY AREA EMERGENCY SERVICES,380 RAILROAD STREET,FOREST CITY,PA,18421,"http://maps.google.com/maps?q=380 RAILROAD STREET,+FOREST CITY,+PA+18421&hl=en"
FRANKLIN & TILTON POLICE DEPARTMENT,"FRANKLIN POLICE AND TILTON POLICE 
												
													DRUG TAKE BACK COLLECTION SITE",861 CENTRAL STCVS PARKING LOT,FRANKLIN,NH,03235,"http://maps.google.com/maps?q=861 CENTRAL ST,+FRANKLIN,+NH+03235&hl=en"
FRANKLIN TOWNSHIP,FRANKLIN TWP. P.D.,495 DEMOTT LANE,SOMERSET,NJ,08873,"http://maps.google.com/maps?q=495 DEMOTT LANE,+SOMERSET,+NJ+08873&hl=en"
FRANKLIN TOWNSHIP POLICE DEPARTMENT,HUNTERDON COUNTY PROSECUTOR,65 PARK AVENUE,FLEMINGTON,NJ,08822,"http://maps.google.com/maps?q=65 PARK AVENUE,+FLEMINGTON,+NJ+08822&hl=en"
FRENCHTOWN BOROUGH POLICE DEPARTMENT,FRENCHTOWN BOROUGH POLICE DEPARTMENT,27 SECOND STREET,FRENCHTOWN,NJ,08825,"http://maps.google.com/maps?q=27 SECOND STREET,+FRENCHTOWN,+NJ+08825&hl=en"
FULTON COUNTY SHERIFF'S OFFICE,"FULTON COUNTY SHERIFF OFFICE 
												
													DAVID TOWNE",2712 STATE HIGHWAY 29,JOHNSTOWN,NY,12095,"http://maps.google.com/maps?q=2712 STATE HIGHWAY 29,+JOHNSTOWN,+NY+12095&hl=en"
FULTON COUNTY SHERIFF'S OFFICE,FULTON COUNTY SHERIFF'S OFFICE,2712 STATE HWY 29,JOHNSTOWN,NY,12095,"http://maps.google.com/maps?q=2712 STATE HWY 29,+JOHNSTOWN,+NY+12095&hl=en"
GARFIELD POLICE DEPARTMENT,"GARFIELD POLICE DEPARTMENT 
												
													973-478-8500",160 BELMONT AVE.,GARFIELD,NJ,07026,"http://maps.google.com/maps?q=160 BELMONT AVE.,+GARFIELD,+NJ+07026&hl=en"
GARWOOD POLICE DEPARTMENT,"GARWOOD POLICE DEPARTMENT 
												
													908-789-1500",403 SOUTH AVE.,GARWOOD,NJ,07027,"http://maps.google.com/maps?q=403 SOUTH AVE.,+GARWOOD,+NJ+07027&hl=en"
GILMANTON POLICE DEPARTMENT,GILMANTON POLICE / PUBLIC SAFETY BUILDING,297 NH ROUTE 140,GILMANTON,NH,03237,"http://maps.google.com/maps?q=297 NH ROUTE 140,+GILMANTON,+NH+03237&hl=en"
GLOVERSVILLE POLICE DEPARTMENT,GLOVERSVILLE POLICE DEPARTMENT,3 FRONTAGE ROAD,GLOVERSVILLE,NY,12078,"http://maps.google.com/maps?q=3 FRONTAGE ROAD,+GLOVERSVILLE,+NY+12078&hl=en"
GOSHEN POLICE DEPARTMENT,GOSHEN POLICE DEPARTMENT,40 A MAIN ST,GOSHEN,MA,01032,"http://maps.google.com/maps?q=40 A MAIN ST,+GOSHEN,+MA+01032&hl=en"
GOUVERNEUR POLICE DEPARTMENT,KINNEY DRUGS,371 MAIN STREET,GOUVERNEUR,NY,13642,"http://maps.google.com/maps?q=371 MAIN STREET,+GOUVERNEUR,+NY+13642&hl=en"
GRAND ISLE COUNTY SHERIFF'S DEPARTMENT,ALBURGH FIRE DEPARTMENT,60 FIREHOUSE ROAD,ALBURGH,VT,05440,"http://maps.google.com/maps?q=60 FIREHOUSE ROAD,+ALBURGH,+VT+05440&hl=en"
GRAND ISLE COUNTY SHERIFF'S DEPARTMENT,GRAND ISLE COUNTY SHERIFF'S DEPARTMENT,3677 US RT 2,NORTH HERO,VT,05474,"http://maps.google.com/maps?q=3677 US RT 2,+NORTH HERO,+VT+05474&hl=en"
GRAND ISLE COUNTY SHERIFF'S DEPARTMENT,SOUTH HERO RESCUE BUILDING,329 US RT 2,SOUTH HERO,VT,05486,"http://maps.google.com/maps?q=329 US RT 2,+SOUTH HERO,+VT+05486&hl=en"
GRANTHAM POLICE DEPARTMENT,GRANTHAM POLICE DEPARTMENT,300 ROUTE 10 SOUTH,GRANTHAM,NH,03753,"http://maps.google.com/maps?q=300 ROUTE 10 SOUTH,+GRANTHAM,+NH+03753&hl=en"
GREAT BEND POLICE DEPARTMENT,GREAT BEND POLICE STATION,335 WASHINGTON STREET,GREAT BEND,PA,18821,"http://maps.google.com/maps?q=335 WASHINGTON STREET,+GREAT BEND,+PA+18821&hl=en"
GREEN BROOK,GREEN BROOK POLICE DEPT.,109 GREENBROOK ROAD,GREEN BROOK,NJ,08812,"http://maps.google.com/maps?q=109 GREENBROOK ROAD,+GREEN BROOK,+NJ+08812&hl=en"
GREENFIELD PD,GREENFIELD POLICE DEPARTMENT,321 HIGH STREET,GREENFIELD,MA,01301,"http://maps.google.com/maps?q=321 HIGH STREET,+GREENFIELD,+MA+01301&hl=en"
GUILDERLAND POLICE DEPARTMENT,"PUBLIC LIBRARY 
												
													AUXILIARY PARKING LOT",2228 WESTERN AVENUE,GUILDERLAND,NY,12084,"http://maps.google.com/maps?q=2228 WESTERN AVENUE,+GUILDERLAND,+NY+12084&hl=en"
HAMILTON COLLEGE CAMPUS SAFETY,HAMILTON COLLEGE CAMPUS SAFETY,198 COLLEGE HILL ROAD,CLINTON,NY,13323,"http://maps.google.com/maps?q=198 COLLEGE HILL ROAD,+CLINTON,+NY+13323&hl=en"
HAMILTON COUNTY SHERIFF'S OFFICE,HAMILTON COUNTY JAIL,102 COUNTY VIEW DRIVE,LAKE PLEASANT,NY,12108,"http://maps.google.com/maps?q=102 COUNTY VIEW DRIVE,+LAKE PLEASANT,+NY+12108&hl=en"
HANOVER POLICE DEPARTMENT,"HANOVER POLICE DEPARTMENT 
												
													DRUG TAKE BACK COLLECTION BOX",46 LYME RD,HANOVER,NH,03755,"http://maps.google.com/maps?q=46 LYME RD,+HANOVER,+NH+03755&hl=en"
HARDING TOWNSHIP POLICE DEPARTMENT,HARDING TOWNSHIP POLICE DEPARTMENT,21 BLUE MILL ROAD,NEW VERNON,NJ,07976,"http://maps.google.com/maps?q=21 BLUE MILL ROAD,+NEW VERNON,+NJ+07976&hl=en"
HASBROUCK HEIGHTS POLICE DEPARTMENT,"HASBROUCK HEIGHTS POLICE DEPARTMENT 
												
													201-288-1000",248 HAMILTON AVE.,HASBROUCK HEIGHTS,NJ,07604,"http://maps.google.com/maps?q=248 HAMILTON AVE.,+HASBROUCK HEIGHTS,+NJ+07604&hl=en"
HAVERHILL POLICE DEPARTMENT,HAVERHILL POLICE DEPARTMENT,2975 DARTMOUTH COLLEGE HIGHWAY,NORTH HAVERHILL,NH,03774,"http://maps.google.com/maps?q=2975 DARTMOUTH COLLEGE HIGHWAY,+NORTH HAVERHILL,+NH+03774&hl=en"
HAVERSTRAW POLICE DEPARTMENT,CVS,12 WEST RAMAPO ROAD,GARNERVILLE,NY,10923,"http://maps.google.com/maps?q=12 WEST RAMAPO ROAD,+GARNERVILLE,+NY+10923&hl=en"
HERKIMER COUNTY SHERIFF'S OFFICE,HERKIMER COUNTY SHERIFF'S OFFICE,320 NORTH MAIN STREETSUITE 2900,HERKIMER,NY,13350,"http://maps.google.com/maps?q=320 NORTH MAIN STREET,+HERKIMER,+NY+13350&hl=en"
HIGH BRIDGE POLICE,HIGH BRIDGE POLICE DEPARTMENT,99 WEST MAIN STREET,HIGH BRIDGE,NJ,08829,"http://maps.google.com/maps?q=99 WEST MAIN STREET,+HIGH BRIDGE,+NJ+08829&hl=en"
HIGHLAND PARK POLICE DEPARTMENT,"HIGHLAND PARK COMMUNITY YOUTH CENTER 
												
													732-572-3800",222 SOUTH 6TH AVE.,HIGHLAND PARK,NJ,08904,"http://maps.google.com/maps?q=222 SOUTH 6TH AVE.,+HIGHLAND PARK,+NJ+08904&hl=en"
HILLSBOROUGH TWP POLICE DEPT.,HILLSBOROUGH TWP POLICE DEPT.,379 S. BRANCH RD.,HILLSBOROUGH,NJ,08844,"http://maps.google.com/maps?q=379 S. BRANCH RD.,+HILLSBOROUGH,+NJ+08844&hl=en"
HINESBURG COMMUNITY POLICE,KINNEY DRUGS PHARMACY,10212 VERMONT ROUTE 116,HINESBURG,VT,05461,"http://maps.google.com/maps?q=10212 VERMONT ROUTE 116,+HINESBURG,+VT+05461&hl=en"
HINSDALE POLICE DEPARTMENT,HINSDALE POLICE DEPARTMENT,10 MAIN STREETPO BOX 138,HINSDALE,NH,03451,"http://maps.google.com/maps?q=10 MAIN STREET,+HINSDALE,+NH+03451&hl=en"
HOLDERNESS POLICE DEPARTMENT,HOLDERNESS POLICE DEPARTMENT,926 US ROUTE 3,HOLDERNESS,NH,03245,"http://maps.google.com/maps?q=926 US ROUTE 3,+HOLDERNESS,+NH+03245&hl=en"
HOLLAND TWP. POLICE DEPARTMENT.,"HOLLAND TWP. POLICE DEPARTMENT 
												
													908-995-4670",61 CHURCH ROAD,MILFORD,NJ,08848,"http://maps.google.com/maps?q=61 CHURCH ROAD,+MILFORD,+NJ+08848&hl=en"
HOPATCONG BOROUGH POLICE DEPARTMENT,"HOPATCONG POLICE DEPARTMENT 
												
													973-398-5000",111 RIVER STYX RD,HOPATCONG,NJ,07843,"http://maps.google.com/maps?q=111 RIVER STYX RD,+HOPATCONG,+NJ+07843&hl=en"
HOPEWELL TWP. POLICE DEPARTMENT,HOPEWELL TWP POLICE DEPT.,201 WISHINGTON CROSSING PENNINGTON ROAD,TITUSVILLE,NJ,08560,"http://maps.google.com/maps?q=201 WISHINGTON CROSSING PENNINGTON ROAD,+TITUSVILLE,+NJ+08560&hl=en"
ILION POLICE DEPARTMENT,KINNEY DRUGS,40 1ST  STREET,ILION,NY,13357,"http://maps.google.com/maps?q=40 1ST  STREET,+ILION,+NY+13357&hl=en"
JAFFREY POLICE DEPARTMENT,JAFFREY POLICE DEPARTMENT,26 MAIN STREET,JAFFREY,NH,03452,"http://maps.google.com/maps?q=26 MAIN STREET,+JAFFREY,+NH+03452&hl=en"
JEFFERSON TWP. POLICE DEPARTMENT,"JEFFERSON TWP. MUNICIPAL BUILDING 
												
													973-697-1300",1033 WELDON ROAD,OAK RIDGE,NJ,07438,"http://maps.google.com/maps?q=1033 WELDON ROAD,+OAK RIDGE,+NJ+07438&hl=en"
KEENE POLICE DEPARTMENT,KEENE POLICE DEPARTMENT,400 MARLBORO STREET,KEENE,NH,03431,"http://maps.google.com/maps?q=400 MARLBORO STREET,+KEENE,+NH+03431&hl=en"
KENILWORTH POLICE DEPARTMENT,KENILWORTH POLICE DEPARTMENT,567 BOULEVARD,KENILWORTH,NJ,07033,"http://maps.google.com/maps?q=567 BOULEVARD,+KENILWORTH,+NJ+07033&hl=en"
KINGSTON TOWNSHIP POLICE DEPARTMENT,KINGSTON TOWNSHIP POLICE DEPARTMENT,180 EAST CENTER STREET,SHAVERTOWN,PA,18708,"http://maps.google.com/maps?q=180 EAST CENTER STREET,+SHAVERTOWN,+PA+18708&hl=en"
KIRKLAND POLICE DEPARTMENT,KINNEY DRUGS,12 FRANKLIN AVE.,CLINTON,NY,13323,"http://maps.google.com/maps?q=12 FRANKLIN AVE.,+CLINTON,+NY+13323&hl=en"
LACONIA POLICE DEPARTMENT,LACONIA POLICE DEPARTMENT,126 NEW SALEM ST,LACONIA,NH,03246,"http://maps.google.com/maps?q=126 NEW SALEM ST,+LACONIA,+NH+03246&hl=en"
LAMBERTVILLE CITY POLICE DEPARTMENT,LAMBERTVILLE CITY POLICE DEPARTMENT,349 NORTH MAIN STREET,LAMBERTVILLE,NJ,08530,"http://maps.google.com/maps?q=349 NORTH MAIN STREET,+LAMBERTVILLE,+NJ+08530&hl=en"
LAMOILLE COUNTY SHERIFFS DEPT,HARDWICK POLICE DEPT,56 HIGH ST,HARDWICK,VT,05843,"http://maps.google.com/maps?q=56 HIGH ST,+HARDWICK,+VT+05843&hl=en"
LAMOILLE COUNTY SHERIFFS DEPT,KINNEY DRUGS,97 MORRISVILLE PLAZA,MORRISVILLE,VT,05661,"http://maps.google.com/maps?q=97 MORRISVILLE PLAZA,+MORRISVILLE,+VT+05661&hl=en"
LAMOILLE COUNTY SHERIFFS DEPT,LAMOILLE COUNTY SHERIFFS DEPT,162 COMMONWEALTH AVE,HYDE PARK,VT,05655,"http://maps.google.com/maps?q=162 COMMONWEALTH AVE,+HYDE PARK,+VT+05655&hl=en"
LAMOILLE COUNTY SHERIFFS DEPT,STOWE POLICE DEPARTMENT,350 SOUTH MAIN ST,STOWE,VT,05672,"http://maps.google.com/maps?q=350 SOUTH MAIN ST,+STOWE,+VT+05672&hl=en"
LANCASTER POLICE DEPARTMENT,LANCASTER POLICE DEPARTMENT,11 MECHANIC ST,LANCASTER,NH,03584,"http://maps.google.com/maps?q=11 MECHANIC ST,+LANCASTER,+NH+03584&hl=en"
LAWRENCE TWP. POLICE DEPARTMENT,"LAWRENCE TWP. POLICE DEPARTMENT 
												
													609-896-0225",2211 LAWRENCE RD.,LAWRENCE TOWNSHIP,NJ,08648,"http://maps.google.com/maps?q=2211 LAWRENCE RD.,+LAWRENCE TOWNSHIP,+NJ+08648&hl=en"
LEBANON POLICE DEPARTMENT,LEBANON PD,36 POVERTY LN.,LEBANON,NH,03766,"http://maps.google.com/maps?q=36 POVERTY LN.,+LEBANON,+NH+03766&hl=en"
LENOX POLICE DEPARTMENT,"LENOX TOWN HALL 
												
													AUDITORIUM",6 WALKER ST.,LENOX,MA,01240,"http://maps.google.com/maps?q=6 WALKER ST.,+LENOX,+MA+01240&hl=en"
LEVERETT POLICE DEPARTMENT,LEVERETT POLICE DEPARTMENT,95 MONTAGUE ROAD,LEVERETT,MA,01054,"http://maps.google.com/maps?q=95 MONTAGUE ROAD,+LEVERETT,+MA+01054&hl=en"
LINCOLN POLICE DEPARTMENT,LINCOLN POLICE DEPARTMENT,148 MAIN STREET,LINCOLN,NH,03251,"http://maps.google.com/maps?q=148 MAIN STREET,+LINCOLN,+NH+03251&hl=en"
LISBON POLICE DEPARTMENT,LISBON POLICE DEPARTMENT,46 SCHOOL ST.,LISBON,NH,03585,"http://maps.google.com/maps?q=46 SCHOOL ST.,+LISBON,+NH+03585&hl=en"
LITTLETON POLICE DEPARTMENT,LITTLETON POLICE DEPARTMENT,2 KITTRIDGE LANE,LITTLETON,NH,03561,"http://maps.google.com/maps?q=2 KITTRIDGE LANE,+LITTLETON,+NH+03561&hl=en"
LIVINGSTON TWP. POLICE DEPARTMENT,"LIVINGSTON TWP. POLICE DEPARTMENT 
												
													973-992-3000",333 SOUTH LIVINGSTON AVE.,LIVINGSTON,NJ,07039,"http://maps.google.com/maps?q=333 SOUTH LIVINGSTON AVE.,+LIVINGSTON,+NJ+07039&hl=en"
LONG HILL TOWNSHIP POLICE DEPARTMENT,LONG HILL TOWNSHIP POLICE DEPARTMENT,264 MERCER STREET,STIRLING,NJ,07980,"http://maps.google.com/maps?q=264 MERCER STREET,+STIRLING,+NJ+07980&hl=en"
LOWER SAUCON TOWNSHIP POLICE DEPARTMENNT,GIANT FOOD STORE,1880 LEITHSVILLE RD,HELLERTOWN,PA,18055,"http://maps.google.com/maps?q=1880 LEITHSVILLE RD,+HELLERTOWN,+PA+18055&hl=en"
LOWVILLE POLICE DEPARTMENT,KINNEY DRUGS,7395 UTICA BLVD.,LOWVILLE,NY,13367,"http://maps.google.com/maps?q=7395 UTICA BLVD.,+LOWVILLE,+NY+13367&hl=en"
MANLIUS TOWN POLICE DEPARTMENT,POLICE HQ,1 ARKIE ALBANESE AVE,MANLIUS,NY,13104,"http://maps.google.com/maps?q=1 ARKIE ALBANESE AVE,+MANLIUS,+NY+13104&hl=en"
MANVILLE POLICE DEPARTMENT,"MANVILLE POLICE DEPARTMENT 
												
													908-725-1900",2 NORTH MAIN ST.,MANVILLE,NJ,08835,"http://maps.google.com/maps?q=2 NORTH MAIN ST.,+MANVILLE,+NJ+08835&hl=en"
MASSENA POLICE DEPARTMENT,MASSENA POLICE DEPARTMENT,60 MAIN STREET,MASSENA,NY,13662,"http://maps.google.com/maps?q=60 MAIN STREET,+MASSENA,+NY+13662&hl=en"
MASSENA POLICE DEPARTMENT,"MASSENA POLICE DEPARTMENT 
												
													MASSENA HOSPITAL",1 HOSPITAL DRIVE,MASSENA,NY,13662,"http://maps.google.com/maps?q=1 HOSPITAL DRIVE,+MASSENA,+NY+13662&hl=en"
MECHANICVILLE POLICE DEPARTMENT,"CVS PHARMACY 
												
													PARKING LOT",12 SOUTH CENTRAL AVENUE,MECHANICVILLE,NY,12118,"http://maps.google.com/maps?q=12 SOUTH CENTRAL AVENUE,+MECHANICVILLE,+NY+12118&hl=en"
MENDHAM TOWNSHIP,MENDHAM TWP. PD,3 CHERRY LANE,BROOKSIDE,NJ,07926,"http://maps.google.com/maps?q=3 CHERRY LANE,+BROOKSIDE,+NJ+07926&hl=en"
MEREDITH POLICE DEPARTMENT,MEREDITH POLICE DEPARTMENT,400 DANIEL WEBSTER HIGHWAY,MEREDITH,NH,03253,"http://maps.google.com/maps?q=400 DANIEL WEBSTER HIGHWAY,+MEREDITH,+NH+03253&hl=en"
MIDDLEBURY POLICE DEPARTMENT,MIDDLEBURY POLICE DEPARTMENT,1 LUCIUS SHAW LN.,MIDDLEBURY,VT,05753,"http://maps.google.com/maps?q=1 LUCIUS SHAW LN.,+MIDDLEBURY,+VT+05753&hl=en"
MIDDLESEX BOROUGH POLICE DEPARTMENT,"MIDDLESEX POLICE DEPARTMENT 
												
													732-356-1900",1101 MOUNTAIN AVE.,MIDDLESEX,NJ,08846,"http://maps.google.com/maps?q=1101 MOUNTAIN AVE.,+MIDDLESEX,+NJ+08846&hl=en"
MONTICELLO POLICE DEPARTMENT,"MONTICELLO POLICE DEPT 
												
													CHIEF MUIR",2 PLEASANT STREET,MONTICELLO,NY,12701,"http://maps.google.com/maps?q=2 PLEASANT STREET,+MONTICELLO,+NY+12701&hl=en"
MORRIS PLAINS PD,STOP & SHOP SUPERMARKET,245 US 202,MORRIS PLAINS,NJ,07950,"http://maps.google.com/maps?q=245 US 202,+MORRIS PLAINS,+NJ+07950&hl=en"
MORRIS TOWNSHIP PD,SHOPRITE,178 EAST HANOVER AVE.,CEDAR KNOLLS,NJ,07927,"http://maps.google.com/maps?q=178 EAST HANOVER AVE.,+CEDAR KNOLLS,+NJ+07927&hl=en"
MOSCOW BOROUGH POLICE DEPARTMENT,MOSCOW BOROUGH MUNICIPAL BUILDING,123 VAN BRUNT ST,MOSCOW,PA,18444,"http://maps.google.com/maps?q=123 VAN BRUNT ST,+MOSCOW,+PA+18444&hl=en"
MOUNTAINSIDE PD,MOUNTAINSIDE POLICE DEPT.,1385 ROUTE 22 EAST,MOUNTAINSIDE,NJ,07092,"http://maps.google.com/maps?q=1385 ROUTE 22 EAST,+MOUNTAINSIDE,+NJ+07092&hl=en"
NEW BRUNSWICK POLICE DEPARTMENT,"NEW BRUNSWICK POLICE DEPARTMENT 
												
													732-745-5200",25 KIRKPATRICK ST.,NEW BRUNSWICK,NJ,08901,"http://maps.google.com/maps?q=25 KIRKPATRICK ST.,+NEW BRUNSWICK,+NJ+08901&hl=en"
NEW FAIRFIELD RESIDENT TROOPERS OFFICE CSP-A,NEW FAIRFIELD RESIDENT TROOPERS OFFICE,302 BALL POND ROAD,NEW FAIRFIELD,CT,06812,"http://maps.google.com/maps?q=302 BALL POND ROAD,+NEW FAIRFIELD,+CT+06812&hl=en"
NEW HAMPTON POLICE DEPARTMENT,NEW HAMPTON POLICE DEPARTMENT,24 INTERVALE DR,NEW HAMPTON,NH,03256,"http://maps.google.com/maps?q=24 INTERVALE DR,+NEW HAMPTON,+NH+03256&hl=en"
NEW HARTFORD POLICE DEPARTMENT,NEW HARTFORD POLICE DEPARTMENT,32 KELLOGG RD,NEW HARTFORD,NY,13413,"http://maps.google.com/maps?q=32 KELLOGG RD,+NEW HARTFORD,+NY+13413&hl=en"
NEW HOPE POLICE DEPARTMENT,CVS PHARMACY,302 WEST BRIDGE STREET,NEW HOPE,PA,18938,"http://maps.google.com/maps?q=302 WEST BRIDGE STREET,+NEW HOPE,+PA+18938&hl=en"
NEW JERSEY STATE POLICE KINGWOOD,NEW JERSEY STATE POLICE,945 RT. 12,FRENCHTOWN,NJ,08825,"http://maps.google.com/maps?q=945 RT. 12,+FRENCHTOWN,+NJ+08825&hl=en"
NEW LONDON POLICE DEPARTMENT,NEW LONDON POLICE DEPARTMENT,25 SEAMANS ROAD375 MAIN STREET,NEW LONDON,NH,03257,"http://maps.google.com/maps?q=25 SEAMANS ROAD,+NEW LONDON,+NH+03257&hl=en"
NEW MILFORD BORO P.D.,NEW MILFOR BORO P.D.,930 RIVER ROAD,NEW MILFORD,NJ,07646,"http://maps.google.com/maps?q=930 RIVER ROAD,+NEW MILFORD,+NJ+07646&hl=en"
NEW PALTZ POLICE DEPARTMENT,POLICE STATION,83 S. PUTT CORNERS RD.,NEW PALTZ,NY,12561,"http://maps.google.com/maps?q=83 S. PUTT CORNERS RD.,+NEW PALTZ,+NY+12561&hl=en"
NEW PROVIDENCE PD,NEW PROVIDENCE PD,360 ELKWOOD AVE.,NEW PROVIDENCE,NJ,07974,"http://maps.google.com/maps?q=360 ELKWOOD AVE.,+NEW PROVIDENCE,+NJ+07974&hl=en"
NEW YORK STATE POLICE,"NEW YORK STATE POLICE 
												
													CLIFTON PARK",5 MUNICIPAL PLAZASTATE ROUTE 146,CLIFTON PARK,NY,12065,"http://maps.google.com/maps?q=5 MUNICIPAL PLAZA,+CLIFTON PARK,+NY+12065&hl=en"
NEW YORK STATE POLICE,"NEW YORK STATE POLICE 
												
													SCHODACK",1485 STATE RT 9,CASTLETON,NY,12033,"http://maps.google.com/maps?q=1485 STATE RT 9,+CASTLETON,+NY+12033&hl=en"
NEW YORK STATE POLICE TROOP G,NEW YORK STATE POLICE TROOP G,760 TROY SCHENECTADY AVENUE,LATHAM,NY,12110,"http://maps.google.com/maps?q=760 TROY SCHENECTADY AVENUE,+LATHAM,+NY+12110&hl=en"
NEWARK POLICE DEPT.,1ST PRECINCT,10  17TH AVE.,NEWARK,NJ,07108,"http://maps.google.com/maps?q=10  17TH AVE.,+NEWARK,+NJ+07108&hl=en"
NEWARK POLICE DEPT.,2ND PRECINCT,1 LINCOLN AVE.,NEWARK,NJ,07108,"http://maps.google.com/maps?q=1 LINCOLN AVE.,+NEWARK,+NJ+07108&hl=en"
NEWARK POLICE DEPT.,4TH PRECINCT,247 16TH AVE.,NEWARK,NJ,07108,"http://maps.google.com/maps?q=247 16TH AVE.,+NEWARK,+NJ+07108&hl=en"
NEWARK POLICE DEPT.,5TH PRECINCT,480 CLINTON AVE.,NEWARK,NJ,07108,"http://maps.google.com/maps?q=480 CLINTON AVE.,+NEWARK,+NJ+07108&hl=en"
NEWARK POLICE DEPT.,6TH PRECINCT,491 IRVINGTON AVENUE,NEWARK,NJ,07106,"http://maps.google.com/maps?q=491 IRVINGTON AVENUE,+NEWARK,+NJ+07106&hl=en"
NEWARK POLICE DEPT.,POLICE MAIN DESK,22 FRANKLIN ST.,NEWARK,NJ,07108,"http://maps.google.com/maps?q=22 FRANKLIN ST.,+NEWARK,+NJ+07108&hl=en"
NEWARK POLICE DEPT.,SPECIAL OPERATIONS DIVISION,472 ORANGE ST.,NEWARK,NJ,07108,"http://maps.google.com/maps?q=472 ORANGE ST.,+NEWARK,+NJ+07108&hl=en"
NEWARK POLICE DEPT.,YOUTH AID SECTION/ CJAPU,43 DICKERSON ST.,NEWARK,NJ,07108,"http://maps.google.com/maps?q=43 DICKERSON ST.,+NEWARK,+NJ+07108&hl=en"
NEWTON POLICE DEPARTMENT,NEWTON POLICE DEPARTMENT,39 TRINITY STREET,NEWTON,NJ,07860,"http://maps.google.com/maps?q=39 TRINITY STREET,+NEWTON,+NJ+07860&hl=en"
NEWTOWN BOROUGH POLCE DEPT.,NEWTOWN FIRE ASSOCIATION BUILDING,14 LIBERTY STREET,NEWTOWN,PA,18940,"http://maps.google.com/maps?q=14 LIBERTY STREET,+NEWTOWN,+PA+18940&hl=en"
NEWTOWN TWP. POLICE DEPARTMENT,NEWTOWN ATHLETIC CLUB,120 PHEASANT RUN,NEWTOWN,PA,18940,"http://maps.google.com/maps?q=120 PHEASANT RUN,+NEWTOWN,+PA+18940&hl=en"
NEWTOWN TWP. POLICE DEPARTMENT,NEWTOWN TWP. MUNICIPAL BUILDING,100 MUNICIPAL DRIVE,NEWTOWN,PA,18940,"http://maps.google.com/maps?q=100 MUNICIPAL DRIVE,+NEWTOWN,+PA+18940&hl=en"
NORTH GREENBUSH POLICE DEPARTMENT,"NORTH GREENBUSH POLICE DEPARTMENT 
												
													CHIEF ROBERT DURIVAGE",133 BLOOMING GROVE DRIVE,TROY,NY,12180,"http://maps.google.com/maps?q=133 BLOOMING GROVE DRIVE,+TROY,+NY+12180&hl=en"
NORTH PLAINFIELD POLICE DEPT.,NORTH PLAINFIELD P D FRONT LOBBY,263 SOMERSET STREET,PLAINFIELD,NJ,07060,"http://maps.google.com/maps?q=263 SOMERSET STREET,+PLAINFIELD,+NJ+07060&hl=en"
NORTHAMPTON POLICE DEPARTMENT,JFK MIDDLE SCHOOL,100 BRIDGE RD,FLORENCE,MA,01062,"http://maps.google.com/maps?q=100 BRIDGE RD,+FLORENCE,+MA+01062&hl=en"
NORTHVALE POLICE DEPARTMENT,"NORTHVALE POLICE DEPARTMENT 
												
													201-768-5900",116 PARIS AVE.,NORTHVALE,NJ,07647,"http://maps.google.com/maps?q=116 PARIS AVE.,+NORTHVALE,+NJ+07647&hl=en"
NORWICH POLICE DEPARTMENT,"NORWICH POLICE DEPARTMENT 
												
													POLICE HQ",18 E. MAIN STREET,NORWICH,NY,13815,"http://maps.google.com/maps?q=18 E. MAIN STREET,+NORWICH,+NY+13815&hl=en"
NORWOOD POLICE DEPT.,NORWOOD BOROUGH COMMUNITY CENTER,453 BROADWAY,NORWOOD,NJ,07648,"http://maps.google.com/maps?q=453 BROADWAY,+NORWOOD,+NJ+07648&hl=en"
NUTLEY POLICE DEPARTMENT,NUTLEY POLICE DEPARTMENT,228 CHESTNUT STREET,NUTLEY,NJ,07110,"http://maps.google.com/maps?q=228 CHESTNUT STREET,+NUTLEY,+NJ+07110&hl=en"
NYS UNIVERSITY POLICE @ ONEONTA,"NYS UNIVERSITY POLICE 
												
													SUNY ONEONTA",ALUMNI HALL51 SOUTH WEST DORM DRIVE,ONEONTA,NY,13820,"http://maps.google.com/maps?q=ALUMNI HALL,+ONEONTA,+NY+13820&hl=en"
OAKLAND POLICE DEPARTMENT,OAKLAND POLICE DEPARTMENT,295 RAMAPO VALLEY ROAD,OAKLAND,NJ,07436,"http://maps.google.com/maps?q=295 RAMAPO VALLEY ROAD,+OAKLAND,+NJ+07436&hl=en"
OGDENSBURG POLICE DEPARTMENT,KINNEY DRUGS,700 CANTON STREET,OGDENSBURG,NY,13669,"http://maps.google.com/maps?q=700 CANTON STREET,+OGDENSBURG,+NY+13669&hl=en"
OLD FORGE POLICE DEPARTMENT,CVS PHARMACY,101 S. MAIN STREET,OLD FORGE,PA,18518,"http://maps.google.com/maps?q=101 S. MAIN STREET,+OLD FORGE,+PA+18518&hl=en"
OLYPHANT POLICE DEPARTMENT,OLYPHANT BOROUGH POLICE STATION,604 EAST PARK STREET,OLYPHANT,PA,18447,"http://maps.google.com/maps?q=604 EAST PARK STREET,+OLYPHANT,+PA+18447&hl=en"
ONEIDA INDIAN NATION POLICE DEPARTMENT,TURNING STONE CASINO EVENT CENTER ENTRANCE,5218 PATRICK ROAD,VERONA,NY,13478,"http://maps.google.com/maps?q=5218 PATRICK ROAD,+VERONA,+NY+13478&hl=en"
ONEONTA POLICE DEPARTMENT,POLICE DEPARTMENT,79 MAIN STREET,ONEONTA,NY,13820,"http://maps.google.com/maps?q=79 MAIN STREET,+ONEONTA,+NY+13820&hl=en"
ORANGE COUNTY SHERIFF'S OFFICE,"FAIRLEE TOWN HALL 
												
													FAIRLEE POLICE DEPATMENT",75 TOWN COMMON ROAD,FAIRLEE,VT,05045,"http://maps.google.com/maps?q=75 TOWN COMMON ROAD,+FAIRLEE,+VT+05045&hl=en"
ORANGE COUNTY SHERIFF'S OFFICE,KINNEY DRUGS,151 VT-12,RANDOLPH,VT,05060,"http://maps.google.com/maps?q=151 VT-12,+RANDOLPH,+VT+05060&hl=en"
ORANGE COUNTY SHERIFF'S OFFICE,KINNEY DRUGS,901 LOWER PLAIN,BRADFORD,VT,05033,"http://maps.google.com/maps?q=901 LOWER PLAIN,+BRADFORD,+VT+05033&hl=en"
ORANGE COUNTY SHERIFF'S OFFICE,ORANGE COUNTY SHERIFF'S DEPARTMENT,11 VT ROUTE 113,CHELSEA,VT,05038,"http://maps.google.com/maps?q=11 VT ROUTE 113,+CHELSEA,+VT+05038&hl=en"
ORLEANS COUNTY SHERIFF'S DEPARTMENT,KINNEY DRUGS PHARMACY,55 SHATTUCK HILL ROAD,NEWPORT,VT,05855,"http://maps.google.com/maps?q=55 SHATTUCK HILL ROAD,+NEWPORT,+VT+05855&hl=en"
OSWEGO POLICE DEPARTMENT,KINNEY DRUGS,174 W. BRIDGE STREET,OSWEGO,NY,13126,"http://maps.google.com/maps?q=174 W. BRIDGE STREET,+OSWEGO,+NY+13126&hl=en"
OSWEGO POLICE DEPARTMENT,"OSWEGO POLICE DEPARTMENT 
												
													POLICE HQ",169 WEST 2ND STREET,OSWEGO,NY,13126,"http://maps.google.com/maps?q=169 WEST 2ND STREET,+OSWEGO,+NY+13126&hl=en"
OXFORD POLICE DEPARTMENT,"OXFORD POLICE DEPARTMENT 
												
													POLICE HQ",20 LAFAYETTE PARK,OXFORD,NY,13830,"http://maps.google.com/maps?q=20 LAFAYETTE PARK,+OXFORD,+NY+13830&hl=en"
PARSIPPANY-TROY HILLS PD,"MORRIS HILLS SHOPPING CENTER 
												
													IN FRONT OF HARMON'S",3035-3189 ROUTE 46,PARSIPPANY,NJ,07054,"http://maps.google.com/maps?q=3035-3189 ROUTE 46,+PARSIPPANY,+NJ+07054&hl=en"
PEAPACK & GLADSTONE POLICE DEPARTMENT,"PEAPACK & GLADSTONE POLICE DEPARTMENT 
												
													MUNICIPAL BUILDING",1 SCHOOL ST.,PEAPACK,NJ,07977,"http://maps.google.com/maps?q=1 SCHOOL ST.,+PEAPACK,+NJ+07977&hl=en"
PENNSYLVANIA STATE POLICE TROOP M BETHLEHEM,PA STATE POLICE,2960 AIRPORT RD,BETHLEHEM,PA,18017,"http://maps.google.com/maps?q=2960 AIRPORT RD,+BETHLEHEM,+PA+18017&hl=en"
PICATINNY ARSENAL POLICE DEPARTMENT,"PICATINNY ARSENAL POLICE DEPARTMENT 
												
													973-724-3817",173 BUFFINGTON RD.,PICATINNY ARSENAL,NJ,07806,"http://maps.google.com/maps?q=173 BUFFINGTON RD.,+PICATINNY ARSENAL,+NJ+07806&hl=en"
PISCATAWAY POLICE DEPARTMENT,"PISCATAWAY POLICE DEPARTMENT 
												
													732-562-2300",555 SIDNEY ROAD,PISCATAWAY,NJ,08854,"http://maps.google.com/maps?q=555 SIDNEY ROAD,+PISCATAWAY,+NJ+08854&hl=en"
PITTSFIELD POLICE DEPARTMENT,PITTSFIELD POLICE DEPARTMENT,39 ALLEN STREET,PITTSFIELD,MA,01201,"http://maps.google.com/maps?q=39 ALLEN STREET,+PITTSFIELD,+MA+01201&hl=en"
PLAINFIELD POLICE DEPARTMENT,PLAINFIELD POLICE DEPARTMENT,110 MAIN STREET,MERIDEN,NH,03770,"http://maps.google.com/maps?q=110 MAIN STREET,+MERIDEN,+NH+03770&hl=en"
PLAINS TWP POLICE DEPT,PLAINS TWP PD,126 NORTH MAIN ST,WILKES BARRE,PA,18705,"http://maps.google.com/maps?q=126 NORTH MAIN ST,+WILKES BARRE,+PA+18705&hl=en"
PLATTSBURGH POLICE DEPARTMENT,KINNEY DRUGS,288 CORNELIA ST,PLATTSBURGH,NY,12901,"http://maps.google.com/maps?q=288 CORNELIA ST,+PLATTSBURGH,+NY+12901&hl=en"
PLATTSBURGH POLICE DEPARTMENT,PLATTSBURGH PD,45 PINE STREET,PLATTSBURGH,NY,12901,"http://maps.google.com/maps?q=45 PINE STREET,+PLATTSBURGH,+NY+12901&hl=en"
PLYMOUTH POLICE DEPARTMENT,PLYMOUTH POLICE DEPARTMENT,334 MAIN STREET,PLYMOUTH,NH,03264,"http://maps.google.com/maps?q=334 MAIN STREET,+PLYMOUTH,+NH+03264&hl=en"
POCONO MOUNTAIN REGIONAL POLICE DEPT.,POCONO MOUNTAIN REGIONAL POLICE DEPARTMENT,2454 ROUTE 940,POCONO SUMMIT,PA,18346,"http://maps.google.com/maps?q=2454 ROUTE 940,+POCONO SUMMIT,+PA+18346&hl=en"
POCONO MOUNTAIN REGIONAL POLICE DEPT.,"ST LUKES UNIVERSAL HEALTH NETWORK 
												
													MONROE CAMPUS",100 ST LUKES LN,STROUDSBURG,PA,18360,"http://maps.google.com/maps?q=100 ST LUKES LN,+STROUDSBURG,+PA+18360&hl=en"
PORT JERVIS CITY POLICE DEPARTMENT,PORT JERVIS POLICE DEPARTMENT,20 HAMMOND STREET,PORT JERVIS,NY,12771,"http://maps.google.com/maps?q=20 HAMMOND STREET,+PORT JERVIS,+NY+12771&hl=en"
POTSDAM POLICE DEPARTMENT,KINNEY DRUGS,48 MAPLE STREET,POTSDAM,NY,13699,"http://maps.google.com/maps?q=48 MAPLE STREET,+POTSDAM,+NY+13699&hl=en"
PULASKI POLICE DEPARTMENT,KINNEY DRUGS,3873 ROME ROAD,PULASKI,NY,13142,"http://maps.google.com/maps?q=3873 ROME ROAD,+PULASKI,+NY+13142&hl=en"
PUTNAM COMMUNITIES THAT CARE COALITION,PUTNAM HOSPITAL CENTER,670 STONELEIGH AVE,CARMEL,NY,10512,"http://maps.google.com/maps?q=670 STONELEIGH AVE,+CARMEL,+NY+10512&hl=en"
PUTNAM COUNTY SHERIFF'S OFFICE,PUTNAM HOSPITAL CENTER,670 STONLEIGH AVE,CARMEL,NY,10512,"http://maps.google.com/maps?q=670 STONLEIGH AVE,+CARMEL,+NY+10512&hl=en"
RANDOLPH POLICE DEPARTMENT,ACME SUPERMARKET,690 MILLBROOK AVE,RANDOLPH,NJ,07869,"http://maps.google.com/maps?q=690 MILLBROOK AVE,+RANDOLPH,+NJ+07869&hl=en"
RARITAN BORO POLICE DEPARTMENT,RARITAN PD,20 FIRST ST.,RARITAN,NJ,08869,"http://maps.google.com/maps?q=20 FIRST ST.,+RARITAN,+NJ+08869&hl=en"
RARITAN TOWNSHIP POLICE DEPARTMENT,RARITAN TOWNSHIP POLICE DEPARTMENT,2 MUNICIPAL DRIVE,FLEMINGTON,NJ,08822,"http://maps.google.com/maps?q=2 MUNICIPAL DRIVE,+FLEMINGTON,+NJ+08822&hl=en"
RENSSELAER  POLICE DEPARTMENT,NORTH END FIRE STATION,2 ST. FRANCIS PLACE,RENSSELAER,NY,12144,"http://maps.google.com/maps?q=2 ST. FRANCIS PLACE,+RENSSELAER,+NY+12144&hl=en"
RICHMOND POLICE DEPARTMENT,RICHMOND POLICE DEPARTMENT,203 BRIDGE STREET,RICHMOND,VT,05477,"http://maps.google.com/maps?q=203 BRIDGE STREET,+RICHMOND,+VT+05477&hl=en"
ROCKLAND COUNTY SHERIFFS OFFICE,"ROCKLAND COUNTY SHERIFF OFFICE 
												
													WALGREENS PARKING LOT",16 ROUTE 59,NYACK,NY,10960,"http://maps.google.com/maps?q=16 ROUTE 59,+NYACK,+NY+10960&hl=en"
ROME POLICE DEPARTMENT,POLICE HQ,301 N. JAMES ST.,ROME,NY,13440,"http://maps.google.com/maps?q=301 N. JAMES ST.,+ROME,+NY+13440&hl=en"
ROSELAND POLICE DEPARTMENT,ROSELAND POLICE DEPARTMENT,15 HARRISON AVENUE,ROSELAND,NJ,07068,"http://maps.google.com/maps?q=15 HARRISON AVENUE,+ROSELAND,+NJ+07068&hl=en"
ROTTERDAM POLICE DEPARTMENT,ROTTERDAM PD,101 PRINCETOWN ROAD,ROTTERDAM,NY,12306,"http://maps.google.com/maps?q=101 PRINCETOWN ROAD,+ROTTERDAM,+NY+12306&hl=en"
RUTGERS POLICE DEPARTMENT,RUTGERS UNIVERSITY,55 COMMERCIAL AVE.,NEW BRUNSWICK,NJ,08901,"http://maps.google.com/maps?q=55 COMMERCIAL AVE.,+NEW BRUNSWICK,+NJ+08901&hl=en"
RUTLAND COUNTY SHERIFF'S DEPARTMENT,DIAMOND RUN MALL,46 DIAMOND RUN MALL PLACE,RUTLAND,VT,05701,"http://maps.google.com/maps?q=46 DIAMOND RUN MALL PLACE,+RUTLAND,+VT+05701&hl=en"
SAINT REGIS MOHAWK TRIBAL POLICE DEPT,MOHAWK TRIBAL POLICE DEPARTMENT,545 STATE ROUTE 37,HOGANSBURG,NY,13655,"http://maps.google.com/maps?q=545 STATE ROUTE 37,+HOGANSBURG,+NY+13655&hl=en"
SANBORNTON POLICE DEPARTMENT,SANBORNTON POLICE DEPARTMENT,565 SANBORN ROAD,SANBORNTON,NH,03269,"http://maps.google.com/maps?q=565 SANBORN ROAD,+SANBORNTON,+NH+03269&hl=en"
SANDWICH POLICE DEPARTMENT,SANDWICH TRANSFER STATION,465 HOLDERNESS RD,CENTER SANDWICH,NH,03227,"http://maps.google.com/maps?q=465 HOLDERNESS RD,+CENTER SANDWICH,+NH+03227&hl=en"
SARATOGA  POLICE DEPARTMENT,"SARATOGA HOSPITAL 
												
													EMERGENCY DEPT. PARKING LOT",211 CHURCH STREET,SARATOGA SPRINGS,NY,12866,"http://maps.google.com/maps?q=211 CHURCH STREET,+SARATOGA SPRINGS,+NY+12866&hl=en"
SARATOGA  POLICE DEPARTMENT,"SARATOGA POLICE DEPARTMENT 
												
													BEHIND CITY HALL",474 BROADWAY,SARATOGA SPRINGS,NY,12866,"http://maps.google.com/maps?q=474 BROADWAY,+SARATOGA SPRINGS,+NY+12866&hl=en"
SARATOGA COUNTY SHERIFF OFFICE,CLIFTON PARK-HALFMOON EMERGENCY SQUAD,15 CROSSING BLVD.,CLIFTON PARK,NY,12065,"http://maps.google.com/maps?q=15 CROSSING BLVD.,+CLIFTON PARK,+NY+12065&hl=en"
SARATOGA COUNTY SHERIFF OFFICE,MALTA FIRE DEPARTMENT,8 HEMPHILL PLACE,MALTA,NY,12020,"http://maps.google.com/maps?q=8 HEMPHILL PLACE,+MALTA,+NY+12020&hl=en"
SARATOGA COUNTY SHERIFF OFFICE,MOREAU EMERGENCY SQUAD,1583 ROUTE 9,FORT EDWARD,NY,12828,"http://maps.google.com/maps?q=1583 ROUTE 9,+FORT EDWARD,+NY+12828&hl=en"
SCHENECTADY COUNTY SHERIFF'S OFFICE,SCHENECTADY COUNTY SHERIFF'S SUBSTATION,130 PRINCETOWN PLAZA,SCHENECTADY,NY,12306,"http://maps.google.com/maps?q=130 PRINCETOWN PLAZA,+SCHENECTADY,+NY+12306&hl=en"
SCHENECTADY POLICE DEPARTMENT,SCHENECTADY POLICE DEPARTMENT,531 LIBERTY ST.,SCHENECTADY,NY,12305,"http://maps.google.com/maps?q=531 LIBERTY ST.,+SCHENECTADY,+NY+12305&hl=en"
SCHODACK POLICE DEPARTMENT,POLICE DEPARTMENT,1797 COLUMBIA TURNPIKE,CASTLETON,NY,12033,"http://maps.google.com/maps?q=1797 COLUMBIA TURNPIKE,+CASTLETON,+NY+12033&hl=en"
SCHOHARIE COUNTY SHERIFF'S DEPARTMENT,COUNTY EMERGENCY OPERATIONS CENTER,2783 STATE ROUTE 7,COBLESKILL,NY,12043,"http://maps.google.com/maps?q=2783 STATE ROUTE 7,+COBLESKILL,+NY+12043&hl=en"
SCOTIA POLICE DEPARTMENT,SCOTIA POLICE DEPARTMENT,4 NORTH TEN BROECK STREET,SCOTIA,NY,12302,"http://maps.google.com/maps?q=4 NORTH TEN BROECK STREET,+SCOTIA,+NY+12302&hl=en"
SCRANTON POLICE DEPARTMENT,SCRANTON POLICE DEPARTMENT,100 S. WASHINGTON AVENUE,SCRANTON,PA,18503,"http://maps.google.com/maps?q=100 S. WASHINGTON AVENUE,+SCRANTON,+PA+18503&hl=en"
SHELBURNE POLICE DEPARTMENT,SHELBURNE POLICE DEPARTMENT,5420 SHELBURNE ROAD,SHELBURNE,VT,05482,"http://maps.google.com/maps?q=5420 SHELBURNE ROAD,+SHELBURNE,+VT+05482&hl=en"
SHERMAN RESIDENT TROOPER,SHERMAN RESIDENT TROOPERS OFFICE,9 RT 38 NORTH,SHERMAN,CT,06784,"http://maps.google.com/maps?q=9 RT 38 NORTH,+SHERMAN,+CT+06784&hl=en"
SHERRILL POLICE DEPARTMENT,"SHERRILL POLICE DEPARTMENT 
												
													POLICE HQ",373 SHERRILL ROAD,SHERRILL,NY,13461,"http://maps.google.com/maps?q=373 SHERRILL ROAD,+SHERRILL,+NY+13461&hl=en"
SIDNEY POLICE DEPARTMENT,SIDNEY POLICE DEPARTMENT,21 LIBERTY STREET,SIDNEY,NY,13838,"http://maps.google.com/maps?q=21 LIBERTY STREET,+SIDNEY,+NY+13838&hl=en"
SLEEPYHOLLOW POLICE DEPARTMENT,PHELPS HOSPITAL NORTHWELL HEALTH,777 NORTH BROADWAY,SLEEPY HOLLOW,NY,10591,"http://maps.google.com/maps?q=777 NORTH BROADWAY,+SLEEPY HOLLOW,+NY+10591&hl=en"
SLEEPYHOLLOW POLICE DEPARTMENT,SLEEPYHOLLOW POLICE DEPARTMENT,28 BEEKMAN AVENUE,TARRYTOWN,NY,10591,"http://maps.google.com/maps?q=28 BEEKMAN AVENUE,+TARRYTOWN,+NY+10591&hl=en"
SOLEBURY TOWNSHIP POLICE DEPARTMENT,GIANT FOOD STORE,6542 LOGAN SQUARE,NEW HOPE,PA,18938,"http://maps.google.com/maps?q=6542 LOGAN SQUARE,+NEW HOPE,+PA+18938&hl=en"
SOLEBURY TOWNSHIP POLICE DEPARTMENT,SOLEBURY TOWNSHIP POLICE DEPARTMENT,3092 SUGAN ROAD,NEW HOPE,PA,18938,"http://maps.google.com/maps?q=3092 SUGAN ROAD,+NEW HOPE,+PA+18938&hl=en"
SOMERVILLE POLICE DEPT.,SOMERVILLE POLICE DEPT.,24 SOUTH BRIDGE ST.,SOMERVILLE,NJ,08876,"http://maps.google.com/maps?q=24 SOUTH BRIDGE ST.,+SOMERVILLE,+NJ+08876&hl=en"
SOUTH BOUND BROOK,SOUTH BOUND BROOK POLICE DEPARTMENT,12 MAIN STREET,SOUTH BOUND BROOK,NJ,08880,"http://maps.google.com/maps?q=12 MAIN STREET,+SOUTH BOUND BROOK,+NJ+08880&hl=en"
SOUTH BRUNSWICK POLICE DEPARTMENT,"SOUTH BRUNSWICK POLICE DEPARTMENT 
												
													732-329-4000",540 RIDGE RD.,MONMOUTH JUNCTION,NJ,08852,"http://maps.google.com/maps?q=540 RIDGE RD.,+MONMOUTH JUNCTION,+NJ+08852&hl=en"
SOUTH HACKENSACK POLICE DEPARTMENT,"SOUTH HACKENSACK POLICE DEPARTMENT 
												
													201-440-0042",227 PHILLIPS AVE.,SOUTH HACKENSACK,NJ,07606,"http://maps.google.com/maps?q=227 PHILLIPS AVE.,+SOUTH HACKENSACK,+NJ+07606&hl=en"
SOUTH ORANGE POLICE DEPARTMENT,SOUTH ORANGE POLICE DEPARTMENT,201 SOUTH ORANGE AVENUE,SOUTH ORANGE,NJ,07079,"http://maps.google.com/maps?q=201 SOUTH ORANGE AVENUE,+SOUTH ORANGE,+NJ+07079&hl=en"
SOUTH PLAINFIELD POLICE DEPARTMENT,"SOUTH PLAINFIELD MUNICIPAL 
												
													9087550700",2480 PLAINFIELD AVE.,SOUTH PLAINFIELD,NJ,07080,"http://maps.google.com/maps?q=2480 PLAINFIELD AVE.,+SOUTH PLAINFIELD,+NJ+07080&hl=en"
SOUTHAMPTON POLICE DEPARTMENT,SOUTHAMPTON FIRE/TOWN HALL PARKING LOT,210 COLLEGE HIGHWAY,SOUTHAMPTON,MA,01073,"http://maps.google.com/maps?q=210 COLLEGE HIGHWAY,+SOUTHAMPTON,+MA+01073&hl=en"
SPRING VALLEY POLICE,SPRING VALLEY POLICE DEPARTMENT,200 NORTH MAIN STREET,SPRING VALLEY,NY,10977,"http://maps.google.com/maps?q=200 NORTH MAIN STREET,+SPRING VALLEY,+NY+10977&hl=en"
SPRING VALLEY POLICE,WALGREENS,208 E ROUTE 59,SPRING VALLEY,NY,10977,"http://maps.google.com/maps?q=208 E ROUTE 59,+SPRING VALLEY,+NY+10977&hl=en"
ST. ALBANS POLICE DEPARTMENT,KINNEY DRUGS PHARMACY,164 SWANTON ROAD,SAINT ALBANS,VT,05478,"http://maps.google.com/maps?q=164 SWANTON ROAD,+SAINT ALBANS,+VT+05478&hl=en"
ST. JOHNSBURY POLICE DEPARTMENT,ST. JOHNSBURY POLICE DEPARTMENT,1187 MAIN STREETSUITE 1,SAINT JOHNSBURY,VT,05819,"http://maps.google.com/maps?q=1187 MAIN STREET,+SAINT JOHNSBURY,+VT+05819&hl=en"
ST. LAWRENCE COUNTY SHERIFF'S OFFICE,ST. LAWRENCE COUNTY SHERIFF'S OFFICE,48 COURT STREET,CANTON,NY,13617,"http://maps.google.com/maps?q=48 COURT STREET,+CANTON,+NY+13617&hl=en"
SULLIVAN COUNTY SHERIFF'S OFFICE,"SULLIVAN COUNTY MUNICIPAL COMPLEX 
												
													FRONT ENTRANCE",14 MAIN STREET,NEWPORT,NH,03773,"http://maps.google.com/maps?q=14 MAIN STREET,+NEWPORT,+NH+03773&hl=en"
SUNAPEE POLICE DEPARTMENT,SUNAPEE POLICE DEPARTMENT,9 SARGENT ROAD,SUNAPEE,NH,03782,"http://maps.google.com/maps?q=9 SARGENT ROAD,+SUNAPEE,+NH+03782&hl=en"
SUNDERLAND POLICE DEPARTMENT,TOWN OF SUNDERLAND POLICE DEPARTMENT,105 RIVER ROAD,SUNDERLAND,MA,01375,"http://maps.google.com/maps?q=105 RIVER ROAD,+SUNDERLAND,+MA+01375&hl=en"
SUSQUEHANNA BOROUGH POLICE,SCHNEIDER'S MARKET,171 ERIE BLVDSUITE 1,SUSQUEHANNA,PA,18847,"http://maps.google.com/maps?q=171 ERIE BLVD,+SUSQUEHANNA,+PA+18847&hl=en"
SUSQUEHANNA COUNTY SHERIFF'S OFFICE,SUSQUEHANNA COUNTY COURTHOUSE,31 LAKE AVENUE,MONTROSE,PA,18801,"http://maps.google.com/maps?q=31 LAKE AVENUE,+MONTROSE,+PA+18801&hl=en"
SWANTON VILLAGE POLICE,SWANTON REXALL DRUGS,44 MERCHANTS ROW,SWANTON,VT,05488,"http://maps.google.com/maps?q=44 MERCHANTS ROW,+SWANTON,+VT+05488&hl=en"
SYRACUSE POLICE DEPARTMENT,KINNEY DRUGS,104 LAFAYETTE RD.,SYRACUSE,NY,13205,"http://maps.google.com/maps?q=104 LAFAYETTE RD.,+SYRACUSE,+NY+13205&hl=en"
SYRACUSE POLICE DEPARTMENT,KINNEY DRUGS,2912 JAMES ST,SYRACUSE,NY,13206,"http://maps.google.com/maps?q=2912 JAMES ST,+SYRACUSE,+NY+13206&hl=en"
SYRACUSE POLICE DEPARTMENT,KINNEY DRUGS,406 BUTTERNUT STREET,SYRACUSE,NY,13208,"http://maps.google.com/maps?q=406 BUTTERNUT STREET,+SYRACUSE,+NY+13208&hl=en"
THETFORD VT POLICE DEPARTMENT,"THETFORD RECYCLING CENTER 
												
													8:30 AM - NOON",4706 VT ROUTE 113,THETFORD CENTER,VT,05075,"http://maps.google.com/maps?q=4706 VT ROUTE 113,+THETFORD CENTER,+VT+05075&hl=en"
THORNTON POLICE DEPARTMENT,THORNTON POLICE DEPT.,16 MERRILL  ACCESS ROAD,THORNTON,NH,03285,"http://maps.google.com/maps?q=16 MERRILL  ACCESS ROAD,+THORNTON,+NH+03285&hl=en"
TINICUM TOWNSHIP POLICE DEPARTMENT,WEHRUNG'S FAMILY HOME CENTER,7711 EASTON ROAD,OTTSVILLE,PA,18942,"http://maps.google.com/maps?q=7711 EASTON ROAD,+OTTSVILLE,+PA+18942&hl=en"
TORRINGTON POLICE DEPARTMENT,"TORRINGTON POLICE DEPARTMENT 
												
													COLLECTION BOX IS AVAILABLE YEAR ROUND",576 MAIN STREET,TORRINGTON,CT,06790,"http://maps.google.com/maps?q=576 MAIN STREET,+TORRINGTON,+CT+06790&hl=en"
TOWN OF GLENVILLE,"GLENVILLE MUNICIPAL CENTER 
												
													POLICE ENTRANCE",18 GLENRIDGE RD.,GLENVILLE,NY,12302,"http://maps.google.com/maps?q=18 GLENRIDGE RD.,+GLENVILLE,+NY+12302&hl=en"
TOWN OF NISKAYUNA POLICE DEPARTMENT,NISKAYUNA TOWN HALL,1 NISKAYUNA CIRCLE,NISKAYUNA,NY,12309,"http://maps.google.com/maps?q=1 NISKAYUNA CIRCLE,+NISKAYUNA,+NY+12309&hl=en"
TOWNSHIP OF MAPLEWOOD,MAPLEWOOD POLICE DEPARTMENT,1618 SPRINGFIELD AVENUE,MAPLEWOOD,NJ,07040,"http://maps.google.com/maps?q=1618 SPRINGFIELD AVENUE,+MAPLEWOOD,+NJ+07040&hl=en"
TROY POLICE DEPARTMENT,TROY POLICE DEPARTMENT,55 STATE STREET,TROY,NY,12180,"http://maps.google.com/maps?q=55 STATE STREET,+TROY,+NY+12180&hl=en"
TROY POLICE DEPARTMENT,TROY POLICE DEPT,14 CENTRAL SQUARE,TROY,NH,03465,"http://maps.google.com/maps?q=14 CENTRAL SQUARE,+TROY,+NH+03465&hl=en"
UPPER MAKEFIELD TWP. POLICE DEPARTMENT,UPPER MAKEFIELD TWP. POLICE DEPARTMENT,1076 EAGLE ROAD,NEWTOWN,PA,18940,"http://maps.google.com/maps?q=1076 EAGLE ROAD,+NEWTOWN,+PA+18940&hl=en"
UPPER SADDLE RIVER POLICE DEPARTMENT,"UPPER SADDLE RIVER POLICE DEPARTMENT 
												
													201-327-2700",368 W. SADDLE RIVER RD.,SADDLE RIVER,NJ,07458,"http://maps.google.com/maps?q=368 W. SADDLE RIVER RD.,+SADDLE RIVER,+NJ+07458&hl=en"
UTICA POLICE DEPARTMENT,POLICE HQ,413 ORISKANY ST. W,UTICA,NY,13502,"http://maps.google.com/maps?q=413 ORISKANY ST. W,+UTICA,+NY+13502&hl=en"
VERMONT STATE POLICE,KINNEY DRUGS PHARMACY,155 SOUTH MAIN STREET,CAMBRIDGE,VT,05444,"http://maps.google.com/maps?q=155 SOUTH MAIN STREET,+CAMBRIDGE,+VT+05444&hl=en"
VERMONT STATE POLICE,VERMONT STATE POLICE - NEW HAVEN BARRACKS,2490 ETHAN ALLEN HIGHWAY,NEW HAVEN,VT,05472,"http://maps.google.com/maps?q=2490 ETHAN ALLEN HIGHWAY,+NEW HAVEN,+VT+05472&hl=en"
VERMONT STATE POLICE,VERMONT STATE POLICE - ROYALTON BARRACKS,2011 VT RT 107,BETHEL,VT,05032,"http://maps.google.com/maps?q=2011 VT RT 107,+BETHEL,+VT+05032&hl=en"
VERMONT STATE POLICE,VERMONT STATE POLICE - RUTLAND BARRACKS,124 STATE PLACE,RUTLAND,VT,05701,"http://maps.google.com/maps?q=124 STATE PLACE,+RUTLAND,+VT+05701&hl=en"
VERMONT STATE POLICE,VERMONT STATE POLICE - SHAFTSBURY BARRACKS,96 AIRPORT ROAD,SHAFTSBURY,VT,05262,"http://maps.google.com/maps?q=96 AIRPORT ROAD,+SHAFTSBURY,+VT+05262&hl=en"
VERMONT STATE POLICE,VERMONT STATE POLICE - WESTMINSTER BARRACKS,1330 WESTMINSTER HIGHTS ROAD,PUTNEY,VT,05346,"http://maps.google.com/maps?q=1330 WESTMINSTER HIGHTS ROAD,+PUTNEY,+VT+05346&hl=en"
VILLAGE OF MALONE POLICE DEPARTMENT,KINNEY DRUGS,485 E MAIN STREET,MALONE,NY,12953,"http://maps.google.com/maps?q=485 E MAIN STREET,+MALONE,+NY+12953&hl=en"
VILLAGE OF OSSINING POLICE DEPARTMENT,"BIRDSALL FAGAN POLICE/COURT FACILITY 
												
													COURT LOBBY",86-88 SPRING STREET,OSSINING,NY,10562,"http://maps.google.com/maps?q=86-88 SPRING STREET,+OSSINING,+NY+10562&hl=en"
VILLAGE OF RHINEBECK POLICE,NORTHERN DUTCHESS HOSPITAL,6511 SPRINGBROOK AVE,RHINEBECK,NY,12572,"http://maps.google.com/maps?q=6511 SPRINGBROOK AVE,+RHINEBECK,+NY+12572&hl=en"
WALPOLE POLICE DEPARTMENT,WALPOLE RECYCLE CENTER,207 WHITCOMB ROAD,WALPOLE,NH,03608,"http://maps.google.com/maps?q=207 WHITCOMB ROAD,+WALPOLE,+NH+03608&hl=en"
WARREN COUNTY SHERIFF'S OFFICE,WARREN COUNTY SHERIFF'S OFFICE,1400 STATE ROUTE 9,LAKE GEORGE,NY,12845,"http://maps.google.com/maps?q=1400 STATE ROUTE 9,+LAKE GEORGE,+NY+12845&hl=en"
WASHINGTON COUNTY SHERIFF'S DEPARTMENT,BARRE CITY POLICE DEPARTMENT,15 FOURTH STREET,BARRE,VT,05641,"http://maps.google.com/maps?q=15 FOURTH STREET,+BARRE,+VT+05641&hl=en"
WASHINGTON COUNTY SHERIFF'S DEPARTMENT,"KINNEY DRUGS PHARMACY 
												
													BERLIN POLICE DEPARTMENT",800 US ROUTE 302,BARRE,VT,05641,"http://maps.google.com/maps?q=800 US ROUTE 302,+BARRE,+VT+05641&hl=en"
WASHINGTON COUNTY SHERIFF'S DEPARTMENT,MONTPELIER POLICE DEPARTMENT,1 PITKIN COURT,MONTPELIER,VT,05602,"http://maps.google.com/maps?q=1 PITKIN COURT,+MONTPELIER,+VT+05602&hl=en"
WASHINGTON COUNTY SHERIFF'S DEPARTMENT,NORTHFIELD POLICE DEPARTMENT,110 WALL STREET,NORTHFIELD,VT,05663,"http://maps.google.com/maps?q=110 WALL STREET,+NORTHFIELD,+VT+05663&hl=en"
WASHINGTON COUNTY SHERIFF'S DEPARTMENT,VERMONT STATE POLICE - MIDDLESEX BARRACKS,1080 US ROUTE 2,MIDDLESEX,VT,05602,"http://maps.google.com/maps?q=1080 US ROUTE 2,+MIDDLESEX,+VT+05602&hl=en"
WASHINGTON COUNTY SHERIFF'S DEPARTMENT,WASHINGTON COUNTY SHERIFF'S DEPARTMENT,10 ELM STREET,MONTPELIER,VT,05602,"http://maps.google.com/maps?q=10 ELM STREET,+MONTPELIER,+VT+05602&hl=en"
WASHINGTON COUNTY SHERIFF'S OFFICE,WASHINGTON COUNTY LAW ENFORCEMENT CENTER,399 BROADWAY,FORT EDWARD,NY,12828,"http://maps.google.com/maps?q=399 BROADWAY,+FORT EDWARD,+NY+12828&hl=en"
WASHINGTON POLICE DEPARTMENT,WASHINGTON POLICE DEPARTMENT,5 HALFMOON POND RD,WASHINGTON,NH,03280,"http://maps.google.com/maps?q=5 HALFMOON POND RD,+WASHINGTON,+NH+03280&hl=en"
WATCHUNG POLICE DEPARTMENT,"WATCHUNG POLICE DEPARTMENT 
												
													908-756-3663",840 SOMERSET ST.,WATCHUNG,NJ,07069,"http://maps.google.com/maps?q=840 SOMERSET ST.,+WATCHUNG,+NJ+07069&hl=en"
WATERTOWN POLICE DEPARTMENT,KINNEY DRUGS,905 COFFEEN STREET,WATERTOWN,NY,13601,"http://maps.google.com/maps?q=905 COFFEEN STREET,+WATERTOWN,+NY+13601&hl=en"
WATERVILLE VALLEY DEPT. OF PUBLIC SAFETY,TOWN OF WATERVILLE VALLEY POLICE DEPARTMENT,14 TAC LN,WATERVILLE VALLEY,NH,03215,"http://maps.google.com/maps?q=14 TAC LN,+WATERVILLE VALLEY,+NH+03215&hl=en"
WATERVLIET POLICE DEPARTMENT,WATERVLIET POLICE DEPARTMENT,2-15TH STREET,WATERVLIET,NY,12189,"http://maps.google.com/maps?q=2-15TH STREET,+WATERVLIET,+NY+12189&hl=en"
WAYNE TWP. POLICE DEPARTMENT,"WAYNE POLICE DEPARTMENT 
												
													973-633-3550",475 VALLEY ROAD,WAYNE,NJ,07470,"http://maps.google.com/maps?q=475 VALLEY ROAD,+WAYNE,+NJ+07470&hl=en"
WEBSTER POLICE DEPARTMENT,WEBSTER POLICE DEPARTMENT,851 BATTLE STREET,WEBSTER,NH,03303,"http://maps.google.com/maps?q=851 BATTLE STREET,+WEBSTER,+NH+03303&hl=en"
WEST AMWELL TOWNSHIP POLICE DEPARTMENT,WEST AMWELL POLICE DEPARTMENT,24 MT. AIRY VILLAGE ROAD,LAMBERTVILLE,NJ,08530,"http://maps.google.com/maps?q=24 MT. AIRY VILLAGE ROAD,+LAMBERTVILLE,+NJ+08530&hl=en"
WEST CALDWELL POLICE,WEST CALDWELL PD,21 CLINTON ROAD,WEST CALDWELL,NJ,07006,"http://maps.google.com/maps?q=21 CLINTON ROAD,+WEST CALDWELL,+NJ+07006&hl=en"
WESTCHESTER COUNTY POLICE,"NORTHERN WESTCHESTER HOSPITAL 
												
													MAIN LOBBY",400 MAIN ST.,MOUNT KISCO,NY,10549,"http://maps.google.com/maps?q=400 MAIN ST.,+MOUNT KISCO,+NY+10549&hl=en"
WILLIAMSBURG POLICE DEPT,WILLAIMSBURG PHARMACY,49 MAIN ST,WILLIAMSBURG,MA,01096,"http://maps.google.com/maps?q=49 MAIN ST,+WILLIAMSBURG,+MA+01096&hl=en"
WILLISTON POLICE DEPARTMENT,WILLISTON POLICE DEPARTMENT,7928 WILLISTON ROAD,WILLISTON,VT,05495,"http://maps.google.com/maps?q=7928 WILLISTON ROAD,+WILLISTON,+VT+05495&hl=en"
WINCHESTER POLICE DEPARTMENT,WINCHESTER POLICE DEPARTMENT,6 PARKER STREET,WINCHESTER,NH,03470,"http://maps.google.com/maps?q=6 PARKER STREET,+WINCHESTER,+NH+03470&hl=en"
WINDHAM COUNTY SHERIFF'S OFFICE,BELLOWS FALLS POLICE DEPARTMENT,170 ROCKINGHAM STREET,BELLOWS FALLS,VT,05101,"http://maps.google.com/maps?q=170 ROCKINGHAM STREET,+BELLOWS FALLS,+VT+05101&hl=en"
WINDHAM COUNTY SHERIFF'S OFFICE,BRATTLEBORO POLICE DEPARTMENT,62 BLACK MOUNTAIN ROAD,BRATTLEBORO,VT,05301,"http://maps.google.com/maps?q=62 BLACK MOUNTAIN ROAD,+BRATTLEBORO,+VT+05301&hl=en"
WINDHAM COUNTY SHERIFF'S OFFICE,DOVER POLICE DEPARTMENT,246 VT RT 100,WEST DOVER,VT,05356,"http://maps.google.com/maps?q=246 VT RT 100,+WEST DOVER,+VT+05356&hl=en"
WINDHAM COUNTY SHERIFF'S OFFICE,WILMINGTON POLICE DEPARTMENT,2 EAST MAIN STREET,WILMINGTON,VT,05363,"http://maps.google.com/maps?q=2 EAST MAIN STREET,+WILMINGTON,+VT+05363&hl=en"
WINDHAM COUNTY SHERIFF'S OFFICE,WINDHAM COUNT SHERIFF'S OFFICE,11 JAIL STREET,NEWFANE,VT,05345,"http://maps.google.com/maps?q=11 JAIL STREET,+NEWFANE,+VT+05345&hl=en"
WINDSOR COUNTY SHERIFF'S DEPARTMENT,CHESTER POLICE DEPARTMENT,556 ELM STREET,CHESTER,VT,05143,"http://maps.google.com/maps?q=556 ELM STREET,+CHESTER,+VT+05143&hl=en"
WINDSOR COUNTY SHERIFF'S DEPARTMENT,HARTFORD POLICE DEPARTMENT,812 VA CUTOFF ROAD,WHITE RIVER JUNCTION,VT,05001,"http://maps.google.com/maps?q=812 VA CUTOFF ROAD,+WHITE RIVER JUNCTION,+VT+05001&hl=en"
WINDSOR COUNTY SHERIFF'S DEPARTMENT,LUDLOW POLICE DEPARTMENT,19 WEST HILL ROAD,LUDLOW,VT,05149,"http://maps.google.com/maps?q=19 WEST HILL ROAD,+LUDLOW,+VT+05149&hl=en"
WINDSOR COUNTY SHERIFF'S DEPARTMENT,NORWICH POLICE DEPARTMENT,10 HAZEN STREET,NORWICH,VT,05055,"http://maps.google.com/maps?q=10 HAZEN STREET,+NORWICH,+VT+05055&hl=en"
WINDSOR COUNTY SHERIFF'S DEPARTMENT,ROCHESTER CONSTABLE'S OFFICE,67 SCHOOL STREET,ROCHESTER,VT,05767,"http://maps.google.com/maps?q=67 SCHOOL STREET,+ROCHESTER,+VT+05767&hl=en"
WINDSOR COUNTY SHERIFF'S DEPARTMENT,SPRINGFIELD POLICE DEPARTMENT,201 CLINTON STREET,SPRINGFIELD,VT,05156,"http://maps.google.com/maps?q=201 CLINTON STREET,+SPRINGFIELD,+VT+05156&hl=en"
WINDSOR COUNTY SHERIFF'S DEPARTMENT,"WEATHERSFIELD TRANSFER STATION 
												
													WEATHERSFIELD POLICE DEPARTMENT",5024 VT RT 106,PERKINSVILLE,VT,05151,"http://maps.google.com/maps?q=5024 VT RT 106,+PERKINSVILLE,+VT+05151&hl=en"
WINDSOR COUNTY SHERIFF'S DEPARTMENT,WINDSOR POLICE DEPARTMENT,29 UNION STREET,WINDSOR,VT,05089,"http://maps.google.com/maps?q=29 UNION STREET,+WINDSOR,+VT+05089&hl=en"
WINDSOR COUNTY SHERIFF'S DEPARTMENT,WOODSTOCK POLICE DEPARTMENT,454 WOODSTOCK ROAD,WOODSTOCK,VT,05091,"http://maps.google.com/maps?q=454 WOODSTOCK ROAD,+WOODSTOCK,+VT+05091&hl=en"
WINOOSKI POLICE DEPARTMENT,WINOOSKI POLICE DEPARTMENT,27 WEST ALLEN STREET,WINOOSKI,VT,05404,"http://maps.google.com/maps?q=27 WEST ALLEN STREET,+WINOOSKI,+VT+05404&hl=en"
WOOD RIDGE  PD,WOOD RIDGE POLICE HQ,85 HUMBOLDT ST,WOOD RIDGE,NJ,07075,"http://maps.google.com/maps?q=85 HUMBOLDT ST,+WOOD RIDGE,+NJ+07075&hl=en"
WYOMING COUNTY DISTRICT ATTORNEYS OFFIC DETECTIVES,CVS PHARMACY,BUSINESS ROUTE 6 AND SR 29,TUNKHANNOCK,PA,18657,"http://maps.google.com/maps?q=BUSINESS ROUTE 6 AND SR 29,+TUNKHANNOCK,+PA+18657&hl=en"
WYOMING COUNTY DISTRICT ATTORNEYS OFFIC DETECTIVES,LECH'S PHARMACY,SR0006,TUNKHANNOCK,PA,18657,"http://maps.google.com/maps?q=SR0006,+TUNKHANNOCK,+PA+18657&hl=en"
WYOMING COUNTY DISTRICT ATTORNEYS OFFIC DETECTIVES,RITE AID,420 TIOGA PLZ,TUNKHANNOCK,PA,18657,"http://maps.google.com/maps?q=420 TIOGA PLZ,+TUNKHANNOCK,+PA+18657&hl=en"
