Participant,CollectionSite,Address,City,State,Zip,MapURL
15TH DRUG TASK FORCE,DANVILLE POLICE DEPARTMENT,1299 EAST 8TH STREET,DANVILLE,AR,72833,"http://maps.google.com/maps?q=1299 EAST 8TH STREET,+DANVILLE,+AR+72833&hl=en"
18TH WEST JUDICIAL DRUG TASK FORCE,MONTGOMERY COUNTY SHERIFF'S OFFICE PERMANENT DROP BOX,105 HWY 270 EAST#9,MOUNT IDA,AR,71957,"http://maps.google.com/maps?q=105 HWY 270 EAST,+MOUNT IDA,+AR+71957&hl=en"
18TH WEST JUDICIAL DRUG TASK FORCE,NORMAN FIRST BAPTIST CHURCH,205 GOLF COURSE ROAD,NORMAN,AR,71960,"http://maps.google.com/maps?q=205 GOLF COURSE ROAD,+NORMAN,+AR+71960&hl=en"
5TH DRUG TASK FORCE,PARTY IN THE PARK RIVER VALLEY ARTS CENTER,1001 EAST B STREET,RUSSELLVILLE,AR,72801,"http://maps.google.com/maps?q=1001 EAST B STREET,+RUSSELLVILLE,+AR+72801&hl=en"
ALMA POLICE DEPARTMENT,ALMA POLICE DEPARTMENT PERMANENT DROP BOX,804 FAYETTEVILLE AVE,ALMA,AR,72921,"http://maps.google.com/maps?q=804 FAYETTEVILLE AVE,+ALMA,+AR+72921&hl=en"
ANDERSON COUNTY SHERIFF,ANDERSON COUNTY SHERIFF,135 E 85TH AVE,GARNETT,KS,66032,"http://maps.google.com/maps?q=135 E 85TH AVE,+GARNETT,+KS+66032&hl=en"
ANDOVER POLICE DEPARTMENT,WALGREENS,440 N ANDOVER RD,ANDOVER,KS,67002,"http://maps.google.com/maps?q=440 N ANDOVER RD,+ANDOVER,+KS+67002&hl=en"
ASHDOWN POLICE DEPARTMENT,ASHDOWN POLICE DEPARTMENT PERMANENT DROP BOX,745 SOUTH LOCUST STREET,ASHDOWN,AR,71822,"http://maps.google.com/maps?q=745 SOUTH LOCUST STREET,+ASHDOWN,+AR+71822&hl=en"
AUGUSTA DEPT. OF PUBLIC SAFETY,AUGUSTA DEPT. OF PUBLIC SAFETY,2100 N. OHIO,AUGUSTA,KS,67010,"http://maps.google.com/maps?q=2100 N. OHIO,+AUGUSTA,+KS+67010&hl=en"
BARTLESVILLE OKLAHOMA PD,BARTLESVILLE PD,615 S JOHNSTONE AVE,BARTLESVILLE,OK,74003,"http://maps.google.com/maps?q=615 S JOHNSTONE AVE,+BARTLESVILLE,+OK+74003&hl=en"
BARTLESVILLE OKLAHOMA PD,FIRE STATION NO. 3,100 SE MADISON BLVD,BARTLESVILLE,OK,74006,"http://maps.google.com/maps?q=100 SE MADISON BLVD,+BARTLESVILLE,+OK+74006&hl=en"
BARTLESVILLE OKLAHOMA PD,FIRE STATION NO. 4,3501 SE PRICE RD,BARTLESVILLE,OK,74006,"http://maps.google.com/maps?q=3501 SE PRICE RD,+BARTLESVILLE,+OK+74006&hl=en"
BEGGS POLICE DEPARTMENT,BEGGS POLICE DEPARTMENT,108 N. BROADWAY,BEGGS,OK,74421,"http://maps.google.com/maps?q=108 N. BROADWAY,+BEGGS,+OK+74421&hl=en"
BELLA VISTA POLICE DEPARTMENT,BELLA VISTA POLICE DEPARTMENT PERMANENT DROP BOX,105 TOWN CENTER,BELLA VISTA,AR,72714,"http://maps.google.com/maps?q=105 TOWN CENTER,+BELLA VISTA,+AR+72714&hl=en"
BELLE PLAINE POLICE DEPARTMENT,BELLE PLAINE POLICE DEPARTMENT,419 N. LOGAN ST,CONWAY SPRINGS,KS,67031,"http://maps.google.com/maps?q=419 N. LOGAN ST,+CONWAY SPRINGS,+KS+67031&hl=en"
BELLE PLAINE POLICE DEPARTMENT,CONWAY SPRINGS POLICE DEPARTMENT,310 W SPRING AVE,CONWAY SPRINGS,KS,67031,"http://maps.google.com/maps?q=310 W SPRING AVE,+CONWAY SPRINGS,+KS+67031&hl=en"
BELLE PLAINE POLICE DEPARTMENT,OXFORD POLICE DEPARTMENT,121 S. SUMMER,OXFORD,KS,67119,"http://maps.google.com/maps?q=121 S. SUMMER,+OXFORD,+KS+67119&hl=en"
BELLE PLAINE POLICE DEPARTMENT,WELLINGTON POLICE DEPARTMENT,"200 N. C, STE 100",WELLINGTON,KS,67152,"http://maps.google.com/maps?q=200 N. C, STE 100,+WELLINGTON,+KS+67152&hl=en"
BENTON COUNTY SHERIFF'S OFFICE,BENTON COUNTY SHERIFF'S OFFICE PERMANENT DROP BOX,1300 SW 14TH STREET,BENTONVILLE,AR,72712,"http://maps.google.com/maps?q=1300 SW 14TH STREET,+BENTONVILLE,+AR+72712&hl=en"
BIA-OJS PAWNEE PONCA TRIBE OF OK,BIA POLICE DEPARTMENT,123 WHITE EAGLE DR,PONCA CITY,OK,74601,"http://maps.google.com/maps?q=123 WHITE EAGLE DR,+PONCA CITY,+OK+74601&hl=en"
BOLIVAR POLICE DEPARTMENT,PUBLIC SAFETY BUILDING BOLIVAR POLICE DEPARTMENT,211 W WALNUT ST,BOLIVAR,MO,65613,"http://maps.google.com/maps?q=211 W WALNUT ST,+BOLIVAR,+MO+65613&hl=en"
BOONE COUNTY SHERIFF'S OFFICE,BOONE COUNTY SHERIFF'S OFFICE PERMANENT DROP BOX,5800 LAW DRIVE,HARRISON,AR,72601,"http://maps.google.com/maps?q=5800 LAW DRIVE,+HARRISON,+AR+72601&hl=en"
BOONEVILLE POLICE DEPARTMENT,BOONEVILLE POLICE DEPARTMENT PERMANENT DROP BOX,497 EAST MAIN ST.,BOONEVILLE,AR,72927,"http://maps.google.com/maps?q=497 EAST MAIN ST.,+BOONEVILLE,+AR+72927&hl=en"
BOURBON COUNTY SHERIFF'S OFFICE,MERCY CONVENIENT CARE,1624 S. NATIONAL,FORT SCOTT,KS,66701,"http://maps.google.com/maps?q=1624 S. NATIONAL,+FORT SCOTT,+KS+66701&hl=en"
BRANSON POLICE DEPARTMENT,LAKELAND PHARMACY,1232 BRANSON HILLS PKWY#205,BRANSON,MO,65616,"http://maps.google.com/maps?q=1232 BRANSON HILLS PKWY,+BRANSON,+MO+65616&hl=en"
BUTLER POLICE DEPARTMENT,BATES COUNTY HEALTH DEPARTMENT,501 N ORANGE,BUTLER,MO,64730,"http://maps.google.com/maps?q=501 N ORANGE,+BUTLER,+MO+64730&hl=en"
CARL JUNCTION POLICE DEPARTMENT,CARL JUNCTION POLICE DEPARTMENT,302 N MAIN,CARL JUNCTION,MO,64834,"http://maps.google.com/maps?q=302 N MAIN,+CARL JUNCTION,+MO+64834&hl=en"
CARROLL COUNTY SHERIFF'S OFFICE,CARROLL COUNTY SHERIFF'S OFFICE PERMANENT DROP BOX,205 HAILEY ROAD,BERRYVILLE,AR,72616,"http://maps.google.com/maps?q=205 HAILEY ROAD,+BERRYVILLE,+AR+72616&hl=en"
CASSVILLE POLICE DEPARTMENT,CITY HALL/CASSVILLE POLICE DEPT,300 MAIN STREET,CASSVILLE,MO,65625,"http://maps.google.com/maps?q=300 MAIN STREET,+CASSVILLE,+MO+65625&hl=en"
CEDAR COUNTY SHERIFF'S OFFICE,ZUMWALT PHARMACY,19 PUBLIC SQUARE,STOCKTON,MO,65785,"http://maps.google.com/maps?q=19 PUBLIC SQUARE,+STOCKTON,+MO+65785&hl=en"
CENTERTON POLICE DEPARTMENT,CENTERTON POLICE DEPARTMENT PERMANENT DROP BOX,220 MUNICIPAL DR,CENTERTON,AR,72719,"http://maps.google.com/maps?q=220 MUNICIPAL DR,+CENTERTON,+AR+72719&hl=en"
CHANUTE POLICE DEPT,MEDICINE SHOPPE,421 W. MAIN,CHANUTE,KS,66720,"http://maps.google.com/maps?q=421 W. MAIN,+CHANUTE,+KS+66720&hl=en"
CHEROKEE COUNTY SHERIFF'S OFFICE,APPLE MARKET,103 NORTH EAST AVENUE,COLUMBUS,KS,66725,"http://maps.google.com/maps?q=103 NORTH EAST AVENUE,+COLUMBUS,+KS+66725&hl=en"
CHEROKEE COUNTY SHERIFF'S OFFICE,GALENA CITY HALL,211 WEST 7TH STREET,GALENA,KS,66739,"http://maps.google.com/maps?q=211 WEST 7TH STREET,+GALENA,+KS+66739&hl=en"
CHEROKEE COUNTY SHERIFF'S OFFICE,MARVINS IGA,1400 MILITARY AVENUE,BAXTER SPRINGS,KS,66713,"http://maps.google.com/maps?q=1400 MILITARY AVENUE,+BAXTER SPRINGS,+KS+66713&hl=en"
CHEROKEE NATION MARSHAL SERVICE,CHEROKEE NATION MARSHAL SERVICE,22114 S BALDHILL RD,TAHLEQUAH,OK,74465,"http://maps.google.com/maps?q=22114 S BALDHILL RD,+TAHLEQUAH,+OK+74465&hl=en"
CLARKSVILLE POLICE DEPARTMENT,CLARKSVILLE POLICE DEPARTMENT PERMANENT DROP BOX,1008 WEST MAIN STREET,CLARKSVILLE,AR,72830,"http://maps.google.com/maps?q=1008 WEST MAIN STREET,+CLARKSVILLE,+AR+72830&hl=en"
COWLEY COUNTY SHERIFF'S OFFICE,COWLEY COUNTY SHERIFF'S OFFICE,911 FULLER ST,WINFIELD,KS,67156,"http://maps.google.com/maps?q=911 FULLER ST,+WINFIELD,+KS+67156&hl=en"
CRAIG COUNTY SO,CRAIG COUNTY SHERIFFS OFFICE,210 W. DELAWARE AVE #101,VINITA,OK,74301,"http://maps.google.com/maps?q=210 W. DELAWARE AVE #101,+VINITA,+OK+74301&hl=en"
CRAWFORD COUNTY SHERIFF'S OFFICE,CRAWFORD COUNTY JUSTICE CENTER PERMANENT DROP BOX,4235 ALMA HWY,VAN BUREN,AR,72956,"http://maps.google.com/maps?q=4235 ALMA HWY,+VAN BUREN,+AR+72956&hl=en"
DADE COUNTY SHERIFF,GREENFIELD PHARMACY,105 SOUTH GRANDE,GREENFIELD,MO,65661,"http://maps.google.com/maps?q=105 SOUTH GRANDE,+GREENFIELD,+MO+65661&hl=en"
DADE COUNTY SHERIFF,MFA OIL,401 MAIN STREET,LOCKWOOD,MO,65682,"http://maps.google.com/maps?q=401 MAIN STREET,+LOCKWOOD,+MO+65682&hl=en"
DARDANELLE POLICE DEPARTMENT,DARDANELLE POLICE DEPARTMENT PERMANENT DROP BOX,2005 HIGHWAY 22,DARDANELLE,AR,72834,"http://maps.google.com/maps?q=2005 HIGHWAY 22,+DARDANELLE,+AR+72834&hl=en"
DEA TULSA RESIDENT OFFICE,NEWS ON 6,303 N. BOSTON AVENUE,TULSA,OK,74103,"http://maps.google.com/maps?q=303 N. BOSTON AVENUE,+TULSA,+OK+74103&hl=en"
DENISON POLICE DEPARTMENT,DENISON POLICE DEPARTMENT,108 W. MAIN ST.,DENISON,TX,75020,"http://maps.google.com/maps?q=108 W. MAIN ST.,+DENISON,+TX+75020&hl=en"
DERBY POLICE DEPARTMENT,DERBY POLICE DEPARTMENT,229 N. BALTIMORE,DERBY,KS,67037,"http://maps.google.com/maps?q=229 N. BALTIMORE,+DERBY,+KS+67037&hl=en"
EL DORADO POLICE DEPARTMENT,WALMART,301 S. VILLAGE RD,EL DORADO,KS,67042,"http://maps.google.com/maps?q=301 S. VILLAGE RD,+EL DORADO,+KS+67042&hl=en"
EL DORADO SPRINGS POLICE DEPARTMENT,EL DORADO SPRINGS POLICE DEPT POLICE STATION,1207 SOUTH MAIN STREET,EL DORADO SPRINGS,MO,64744,"http://maps.google.com/maps?q=1207 SOUTH MAIN STREET,+EL DORADO SPRINGS,+MO+64744&hl=en"
ELKINS POLICE DEPARTMENT,ELKINS POLICE DEPARTMENT PERMANENT DROP BOX,1874 STOKENBURY ROAD,ELKINS,AR,72727,"http://maps.google.com/maps?q=1874 STOKENBURY ROAD,+ELKINS,+AR+72727&hl=en"
EUREKA SPRINGS POLICE DEPARTMENT,EUREKA SPRINGS POLICE DEPARTMENT PERMANENT DROP BOX,147 PASSION PLAY ROAD,EUREKA SPRINGS,AR,72632,"http://maps.google.com/maps?q=147 PASSION PLAY ROAD,+EUREKA SPRINGS,+AR+72632&hl=en"
FAIR GROVE POLICE DEPARTMENT,FAMILY PHARMACY,49 E. OLD MILL RD,FAIR GROVE,MO,65648,"http://maps.google.com/maps?q=49 E. OLD MILL RD,+FAIR GROVE,+MO+65648&hl=en"
FARMINGTON POLICE DEPARTMENT,FARMINGTON POLICE DEPARTMENT PERMANENT DROP BOX,354 WEST MAIN,FARMINGTON,AR,72730,"http://maps.google.com/maps?q=354 WEST MAIN,+FARMINGTON,+AR+72730&hl=en"
FAYETTEVILLE POLICE DEPARTMENT,HARPS MARKETPLACE #124,1274 N. COLORADO DR,FAYETTEVILLE,AR,72704,"http://maps.google.com/maps?q=1274 N. COLORADO DR,+FAYETTEVILLE,+AR+72704&hl=en"
FORSYTH POLICE DEPARTMENT,COUNTRY MART,15720 US HWY 160,FORSYTH,MO,65653,"http://maps.google.com/maps?q=15720 US HWY 160,+FORSYTH,+MO+65653&hl=en"
FORT SMITH POLICE DEPARTMENT,FORT SMITH POLICE DEPARTMENT PERMANENT DROP BOX,100 SOUTH 10TH STREET,FORT SMITH,AR,72901,"http://maps.google.com/maps?q=100 SOUTH 10TH STREET,+FORT SMITH,+AR+72901&hl=en"
FRANKLIN COUNTY SHERIFF'S OFFICE,FRANKLIN COUNTY SHERIFF'S OFFICE PERMANENT DROP BOX,101 WEST MAIN STREET,OZARK,AR,72949,"http://maps.google.com/maps?q=101 WEST MAIN STREET,+OZARK,+AR+72949&hl=en"
GAINESVILLE POLICE DEPARTMENT,CHIEF STEVEN K. FLEMING PUBLIC SAFETY CENTER,201 SANTA FE STREET,GAINESVILLE,TX,76240,"http://maps.google.com/maps?q=201 SANTA FE STREET,+GAINESVILLE,+TX+76240&hl=en"
GENTRY POLICE DEPARTMENT,GENTRY POLICE DEPARTMENT PERMANENT DROP BOX,628 E. THIRD ST.,GENTRY,AR,72734,"http://maps.google.com/maps?q=628 E. THIRD ST.,+GENTRY,+AR+72734&hl=en"
GLENWOOD POLICE DEPARTMENT,GLENWOOD CITY HALL PERMANENT DROP BOX,210 NORTH 2ND STREET,GLENWOOD,AR,71943,"http://maps.google.com/maps?q=210 NORTH 2ND STREET,+GLENWOOD,+AR+71943&hl=en"
GODDARD POLICE DEPARTMENT,GODDARD CITY HALL/POLICE DEPARTMENT,118 N MAIN ST,GODDARD,KS,67052,"http://maps.google.com/maps?q=118 N MAIN ST,+GODDARD,+KS+67052&hl=en"
GRANBY POLICE DEPARTMENT,GRANBY COMMUNITY BUILDING,147 E. CHURCH ST,GRANBY,MO,64844,"http://maps.google.com/maps?q=147 E. CHURCH ST,+GRANBY,+MO+64844&hl=en"
GRAVETTE POLICE DEPARTMENT,GRAVETTE POLICE DEPARTMENT PERMANENT DROP BOX,606 1ST AVE SE,GRAVETTE,AR,72736,"http://maps.google.com/maps?q=606 1ST AVE SE,+GRAVETTE,+AR+72736&hl=en"
GREENE COUNTY SHERIFF'S OFFICE,ALPS PHARMACY,2650 W. KEARNEY ST,SPRINGFIELD,MO,65803,"http://maps.google.com/maps?q=2650 W. KEARNEY ST,+SPRINGFIELD,+MO+65803&hl=en"
GREENE COUNTY SHERIFF'S OFFICE,GEORGE'S PHARMACY,3650 E. SUNSHINE ST,SPRINGFIELD,MO,65809,"http://maps.google.com/maps?q=3650 E. SUNSHINE ST,+SPRINGFIELD,+MO+65809&hl=en"
GREENE COUNTY SHERIFF'S OFFICE,LAWRENCE DRUG,1454 E. REPUBLIC ROAD,SPRINGFIELD,MO,65804,"http://maps.google.com/maps?q=1454 E. REPUBLIC ROAD,+SPRINGFIELD,+MO+65804&hl=en"
GREENE COUNTY SHERIFF'S OFFICE,MEDICINE STORE,1302 E. SUNSHINE ST,SPRINGFIELD,MO,65804,"http://maps.google.com/maps?q=1302 E. SUNSHINE ST,+SPRINGFIELD,+MO+65804&hl=en"
GREENE COUNTY SHERIFF'S OFFICE,MERCY PHARMACY,3231 S. NATIONAL AVE,SPRINGFIELD,MO,65807,"http://maps.google.com/maps?q=3231 S. NATIONAL AVE,+SPRINGFIELD,+MO+65807&hl=en"
GREENE COUNTY SHERIFF'S OFFICE,WALGREENS,2681 W. REPUBLIC ROAD,SPRINGFIELD,MO,65807,"http://maps.google.com/maps?q=2681 W. REPUBLIC ROAD,+SPRINGFIELD,+MO+65807&hl=en"
GREENWOOD POLICE DEPARTMENT,GREENWOOD POLICE DEPARTMENT PERMANENT DROP BOX,250 OLD HACKETT RD,GREENWOOD,AR,72936,"http://maps.google.com/maps?q=250 OLD HACKETT RD,+GREENWOOD,+AR+72936&hl=en"
GREENWOOD POLICE DEPARTMENT,WAL-MART,551 LIBERTY DRIVE,GREENWOOD,AR,72936,"http://maps.google.com/maps?q=551 LIBERTY DRIVE,+GREENWOOD,+AR+72936&hl=en"
HARRISON POLICE DEPARTMENT,HARRISON POLICE DEPARTMENT,116 SOUTH SPRING STREET,HARRISON,AR,72601,"http://maps.google.com/maps?q=116 SOUTH SPRING STREET,+HARRISON,+AR+72601&hl=en"
HAYSVILLE POLICE DEPARTMENT,HAYSVILLE PD,200 W. GRAND,HAYSVILLE,KS,67060,"http://maps.google.com/maps?q=200 W. GRAND,+HAYSVILLE,+KS+67060&hl=en"
HENRY COUNTY SHERIFF'S OFFICE,SUMMERS PHARMACY OUT FRONT,605 PAWNEE,CLINTON,MO,64735,"http://maps.google.com/maps?q=605 PAWNEE,+CLINTON,+MO+64735&hl=en"
HHICKORY COUNTY SHERIFF'S OFFICE,HHICKORY COUNTY JAIL - (TRIPLE BOXES) SOUTH SIDE OF THE BLDG,18682 JACKSON STREET,HERMITAGE,MO,65668,"http://maps.google.com/maps?q=18682 JACKSON STREET,+HERMITAGE,+MO+65668&hl=en"
HOWARD COUNTY SHERIFF'S OFFICE,HOWARD COUNTY SHERIFF'S OFFICE PERMANENT DROP BOX,101 ISAAC PERKINS BLVD.,NASHVILLE,AR,71852,"http://maps.google.com/maps?q=101 ISAAC PERKINS BLVD.,+NASHVILLE,+AR+71852&hl=en"
JASPER COUNTY SHERIFF'S OFFICE,JASPER COUNTY COURTHOUSE,601 PEARL AVE,JOPLIN,MO,64801,"http://maps.google.com/maps?q=601 PEARL AVE,+JOPLIN,+MO+64801&hl=en"
JOHNSON COUNTY SHERIFF'S DEPARTMENT,JOHNSON COUNTY COURTHOUSE PERMANENT DROP BOX,215 W. MAIN ST.,CLARKSVILLE,AR,72830,"http://maps.google.com/maps?q=215 W. MAIN ST.,+CLARKSVILLE,+AR+72830&hl=en"
JOHNSON COUNTY SHERIFF'S DEPARTMENT,JOHNSON COUNTY SHERIFF'S OFFICE PERMANENT DROP BOX,P.O. BOX 39,CLARKSVILLE,AR,72830,"http://maps.google.com/maps?q=P.O. BOX 39,+CLARKSVILLE,+AR+72830&hl=en"
JOHNSON COUNTY SHERIFF'S DEPARTMENT,SENIOR ACTIVITY CENTER PERMANENT DROP BOX,1421 OAKLAND ST.,CLARKSVILLE,AR,72830,"http://maps.google.com/maps?q=1421 OAKLAND ST.,+CLARKSVILLE,+AR+72830&hl=en"
JOHNSON POLICE DEPARTMENT,JOHNSON POLICE DEPARTMENT,2904 MAIN DRIVE,JOHNSON,AR,72741,"http://maps.google.com/maps?q=2904 MAIN DRIVE,+JOHNSON,+AR+72741&hl=en"
JOPLIN POLICE DEPARTMENT,MEDICINE SHOP PARKING LOT,2131 E. 32ND STREET,JOPLIN,MO,64804,"http://maps.google.com/maps?q=2131 E. 32ND STREET,+JOPLIN,+MO+64804&hl=en"
LA CYGNE POLICE DEPARTMENT,CITY HALL,206 N. COMMERCIAL ST,LACYGNE,KS,66040,"http://maps.google.com/maps?q=206 N. COMMERCIAL ST,+LACYGNE,+KS+66040&hl=en"
LAMAR POLICE DEPARTMENT,LAMAR CITY HALL PERMANENT DROP BOX,437 W MAIN STREET,LAMAR,AR,72846,"http://maps.google.com/maps?q=437 W MAIN STREET,+LAMAR,+AR+72846&hl=en"
LAVACA POLICE DEPARTMENT,LAVACA POLICE DEPARTMENT PERMANENT DROP BOX,104 SOUTH DAVIS STREET,LAVACA,AR,72941,"http://maps.google.com/maps?q=104 SOUTH DAVIS STREET,+LAVACA,+AR+72941&hl=en"
LITTLE FLOCK POLICE DEPARTMENT,LITTLE FLOCK POLICE DEPARTMENT PERMANENT DROP BOX,1500 LITTLE FLOCK DR.,ROGERS,AR,72756,"http://maps.google.com/maps?q=1500 LITTLE FLOCK DR.,+ROGERS,+AR+72756&hl=en"
LITTLE RIVER COUNTY SHERIFF'S OFFICE,LITTLE RIVER COUNTY SHERIFF'S OFFICE PERMANENT DROP BOX,351 N. SECOND ST.,ASHDOWN,AR,71822,"http://maps.google.com/maps?q=351 N. SECOND ST.,+ASHDOWN,+AR+71822&hl=en"
LOGAN COUNTY SHERIFF'S OFFICE,LOGAN POLICE DEPARTMENT PERMANENT DROP BOX,508 W. GROBER ST,PARIS,AR,72855,"http://maps.google.com/maps?q=508 W. GROBER ST,+PARIS,+AR+72855&hl=en"
LOWELL POLICE DEPARTMENT,LOWELL POLICE DEPARTMENT,216 NORTH LINCOLN STREETPERMANENT DROP BOX,LOWELL,AR,72745,"http://maps.google.com/maps?q=216 NORTH LINCOLN STREET,+LOWELL,+AR+72745&hl=en"
MADISON COUNTY SHERIFF'S DEPARTMENT,MADISON COUNTY SHERIFF'S OFFICE PERMANENT DROP BOX,201 WEST MAIN STREET,HUNTSVILLE,AR,72740,"http://maps.google.com/maps?q=201 WEST MAIN STREET,+HUNTSVILLE,+AR+72740&hl=en"
MISSOURI SOUTHERN STATE UNIV POLICE DEPT,MSSU PD,726 N. MISSION HILLS DRIVE,JOPLIN,MO,64801,"http://maps.google.com/maps?q=726 N. MISSION HILLS DRIVE,+JOPLIN,+MO+64801&hl=en"
MONETT POLICE DEPARTMENT,BRUNER'S PHARMACY,321 EAST BROADWAY,MONETT,MO,65708,"http://maps.google.com/maps?q=321 EAST BROADWAY,+MONETT,+MO+65708&hl=en"
MONETT POLICE DEPARTMENT,MONETT POLICE DEPARTMENT,1901 EAST CLEVELAND AVE,MONETT,MO,65708,"http://maps.google.com/maps?q=1901 EAST CLEVELAND AVE,+MONETT,+MO+65708&hl=en"
MOUNDS PD,MOUNDS CITY HALL,1317 COMMERCIAL AVE,MOUNDS,OK,74047,"http://maps.google.com/maps?q=1317 COMMERCIAL AVE,+MOUNDS,+OK+74047&hl=en"
MOUNT VERNON POLICE DEPARTMENT,CITY OF MOUNT VERNON,319 EAST DALLAS,MOUNT VERNON,MO,65712,"http://maps.google.com/maps?q=319 EAST DALLAS,+MOUNT VERNON,+MO+65712&hl=en"
MOUNTAINBURG POLICE DEPARTMENT,MOUNTAINBURG POLICE DEPARTMENT PERMANENT DROP BOX,101 HWY 71 NW,MOUNTAINBURG,AR,72946,"http://maps.google.com/maps?q=101 HWY 71 NW,+MOUNTAINBURG,+AR+72946&hl=en"
MULBERRY POLICE DEPARTMENT,MULBERRY CITY COMPLEX PERMANENT DROP BOX,207 N. MAIN STREET,MULBERRY,AR,72947,"http://maps.google.com/maps?q=207 N. MAIN STREET,+MULBERRY,+AR+72947&hl=en"
NEOSHO POLICE DEPARTMENT,WILDCAT CORNER,817 S NEOSHO BLVD,NEOSHO,MO,64850,"http://maps.google.com/maps?q=817 S NEOSHO BLVD,+NEOSHO,+MO+64850&hl=en"
NEVADA POLICE DEPT,NEVADA POLICE DEPT,120 SOUTH ASH STEEET,NEVADA,MO,64772,"http://maps.google.com/maps?q=120 SOUTH ASH STEEET,+NEVADA,+MO+64772&hl=en"
NEWTON COUNTY SHERIFF'S OFFICE,NEWTON COUNTY SHERIFF'S OFFICE,208 W. COLER ST.,NEOSHO,MO,64850,"http://maps.google.com/maps?q=208 W. COLER ST.,+NEOSHO,+MO+64850&hl=en"
NEWTON COUNTY SHERIFF'S OFFICE,NEWTON COUNTY SHERIFF'S OFFICE PERMANENT DROP BOX,401 N. SPRING,JASPER,AR,72641,"http://maps.google.com/maps?q=401 N. SPRING,+JASPER,+AR+72641&hl=en"
NIXA POLICE DEPARTMENT,FAMILY PHARMACY,105 RIDGECREST AVE.#2,NIXA,MO,65714,"http://maps.google.com/maps?q=105 RIDGECREST AVE.,+NIXA,+MO+65714&hl=en"
NORTHEASTERN STATE UNIVERSITY POLICE,NORTHEASTERN HEALTH SYSTEMS TAHLEQUAH,1400 EAST DOWNING,TAHLEQUAH,OK,74464,"http://maps.google.com/maps?q=1400 EAST DOWNING,+TAHLEQUAH,+OK+74464&hl=en"
OKLAHOMA BAPTIST UNIVERSITY PD,OKLAHOMA BAPTIST UNIVERSITY,500 W. UNIVERSITY ST.,SHAWNEE,OK,74804,"http://maps.google.com/maps?q=500 W. UNIVERSITY ST.,+SHAWNEE,+OK+74804&hl=en"
OKLAHOMA BUREAU OF NARCOTICS/CARXE COALITION,CASH SAVER STORE,4129 SE 29TH STREET,DEL CITY,OK,73115,"http://maps.google.com/maps?q=4129 SE 29TH STREET,+DEL CITY,+OK+73115&hl=en"
OKLAHOMA BUREAU OF NARCOTICS/CARXE COALITION,HOMELAND STORE,1108 NW 18TH STREET,OKLAHOMA CITY,OK,73106,"http://maps.google.com/maps?q=1108 NW 18TH STREET,+OKLAHOMA CITY,+OK+73106&hl=en"
OKLAHOMA BUREAU OF NARCOTICS/CARXE COALITION,HOMELAND STORE,9225 NORTH MAY AVENUE,OKLAHOMA CITY,OK,73120,"http://maps.google.com/maps?q=9225 NORTH MAY AVENUE,+OKLAHOMA CITY,+OK+73120&hl=en"
OKLAHOMA COUNTY SO,MWC SUBSTATION,8029 SE 29TH,MIDWEST CITY,OK,73110,"http://maps.google.com/maps?q=8029 SE 29TH,+MIDWEST CITY,+OK+73110&hl=en"
OSAGE NATION PD,OSAGE NATION POLICE DEPARTMENT,1071 GRANDVIEW LANE,PAWHUSKA,OK,74056,"http://maps.google.com/maps?q=1071 GRANDVIEW LANE,+PAWHUSKA,+OK+74056&hl=en"
OTOE MISSOURIA TRIBAL PD,OTOE MISSOURIA POLICE DEPARTMENT,22915 OTOE CEMETERY RD,RED ROCK,OK,74651,"http://maps.google.com/maps?q=22915 OTOE CEMETERY RD,+RED ROCK,+OK+74651&hl=en"
OZARK POLICE DEPARTMENT,CHRSITINA COUNTY JUDICIAL CENTER,110 W. ELM ST,OZARK,MO,65721,"http://maps.google.com/maps?q=110 W. ELM ST,+OZARK,+MO+65721&hl=en"
OZARK POLICE DEPARTMENT,OZARK POLICE DEPARTMENT PERMANENT DROP BOX,200 SOUTH 4TH STREET,OZARK,AR,72949,"http://maps.google.com/maps?q=200 SOUTH 4TH STREET,+OZARK,+AR+72949&hl=en"
PARIS POLICE DEPARTMENT,PARIS POLICE DEPARTMENT PERMANENT DROP BOX,1810 EAST WALNUT STREET,PARIS,AR,72855,"http://maps.google.com/maps?q=1810 EAST WALNUT STREET,+PARIS,+AR+72855&hl=en"
PEA RIDGE POLICE DEPARTMENT,PEA RIDGE POLICE DEPARTMENT PERMANENT DROP BOX,187 SLACK ST.,PEA RIDGE,AR,72751,"http://maps.google.com/maps?q=187 SLACK ST.,+PEA RIDGE,+AR+72751&hl=en"
PITTSBURG KANSAS POLICE DEPT.,PITTSBURG POLICE DEPARTMENT,201 N. PINE ST.,PITTSBURG,KS,66762,"http://maps.google.com/maps?q=201 N. PINE ST.,+PITTSBURG,+KS+66762&hl=en"
POLK COUNTY SHERIFF'S OFFICE,POLK COUNTY SHERIFF'S OFFICE PERMANENT DROP BOX,507 CHURCH AVE,MENA,AR,71953,"http://maps.google.com/maps?q=507 CHURCH AVE,+MENA,+AR+71953&hl=en"
POTTSVILLE POLICE DEPARTMENT,DOLLAR GENERAL,6876 U.S. HWY 64,POTTSVILLE,AR,72858,"http://maps.google.com/maps?q=6876 U.S. HWY 64,+POTTSVILLE,+AR+72858&hl=en"
PRAIRIE GROVE POLICE DEPARTMENT,HARPS FOOD STORE #125,319 E. BUCHANAN ST.,PRAIRIE GROVE,AR,72753,"http://maps.google.com/maps?q=319 E. BUCHANAN ST.,+PRAIRIE GROVE,+AR+72753&hl=en"
PRAIRIE GROVE POLICE DEPARTMENT,PRAIRIE GROVE POLICE DEPARTMENT,955 E. DOUGLAS ST.#1,PRAIRIE GROVE,AR,72753,"http://maps.google.com/maps?q=955 E. DOUGLAS ST.,+PRAIRIE GROVE,+AR+72753&hl=en"
REPUBLIC POLICE DEPARTMENT,WALGREENS,1050 E. US 60 HWY,REPUBLIC,MO,65738,"http://maps.google.com/maps?q=1050 E. US 60 HWY,+REPUBLIC,+MO+65738&hl=en"
ROGERS POLICE DEPARTMENT,MERCY CLINIC,3101 SE 14TH STREET,BENTONVILLE,AR,72712,"http://maps.google.com/maps?q=3101 SE 14TH STREET,+BENTONVILLE,+AR+72712&hl=en"
ROGERS POLICE DEPARTMENT,ROGERS POLICE DEPARTMENT PERMANENT DROP BOX,1905 S. DIXIELAND,ROGERS,AR,72758,"http://maps.google.com/maps?q=1905 S. DIXIELAND,+ROGERS,+AR+72758&hl=en"
ROSE HILL POLICE DEPARTMENT,ROSE HILL POLICE DEPARTMENT,125 W ROSEWOOD ST,ROSE HILL,KS,67133,"http://maps.google.com/maps?q=125 W ROSEWOOD ST,+ROSE HILL,+KS+67133&hl=en"
RUSSELLVILLE POLICE DEPARTMENT,RUSSELLVILLE POLICE DEPARTMENT PERMANENT DROP BOX,115 WEST 'H' STREET,RUSSELLVILLE,AR,72802,"http://maps.google.com/maps?q=115 WEST 'H' STREET,+RUSSELLVILLE,+AR+72802&hl=en"
SAPULPA POLICE DEPARTMENT,SAPULPA POLICE DEPARTMENT,20 N. WALNUT ST.,SAPULPA,OK,74066,"http://maps.google.com/maps?q=20 N. WALNUT ST.,+SAPULPA,+OK+74066&hl=en"
SEBASTIAN COUNTY SHERIFF'S OFFICE,ECONOMY FEED & TRAILER,11318 HWY 71 S.,FORT SMITH,AR,72916,"http://maps.google.com/maps?q=11318 HWY 71 S.,+FORT SMITH,+AR+72916&hl=en"
SEBASTIAN COUNTY SHERIFF'S OFFICE,SEBASTIAN COUNTY SHERIFF'S OFFICE PERMANENT DROP BOX,800 SOUTH A STREET,FORT SMITH,AR,72901,"http://maps.google.com/maps?q=800 SOUTH A STREET,+FORT SMITH,+AR+72901&hl=en"
SEDGWICK COUNTY SHERIFF'S OFFICE,HOUSEHOLD HAZARDOUS WASTE,801 W. STILLWELL,WICHITA,KS,67213,"http://maps.google.com/maps?q=801 W. STILLWELL,+WICHITA,+KS+67213&hl=en"
SEVIER COUNTY SHERIFF'S OFFICE,SEVIER COUNTY SHERIFF'S OFFICE PERMANENT DROP BOX,137 W. ROBINSON RD,DE QUEEN,AR,71832,"http://maps.google.com/maps?q=137 W. ROBINSON RD,+DE QUEEN,+AR+71832&hl=en"
SHAWNEE PD,SHAWNEE SENIOR CENTER,401 N. BELL,SHAWNEE,OK,74801,"http://maps.google.com/maps?q=401 N. BELL,+SHAWNEE,+OK+74801&hl=en"
SILOAM SPRINGS POLICE DEPARTMENT,SILOAM SPRINGS POLICE DEPARTMENT CRAFT FESTIVAL BOOTH,110 NORTH MT. OLIVE STREET,SILOAM SPRINGS,AR,72761,"http://maps.google.com/maps?q=110 NORTH MT. OLIVE STREET,+SILOAM SPRINGS,+AR+72761&hl=en"
SILOAM SPRINGS POLICE DEPARTMENT,SILOAM SPRINGS POLICE DEPARTMENT PERMANENT DROP BOX,100 US HIGHWAY 412 W.,SILOAM SPRINGS,AR,72761,"http://maps.google.com/maps?q=100 US HIGHWAY 412 W.,+SILOAM SPRINGS,+AR+72761&hl=en"
SOUTH CENTRAL DRUG TASK FORCE,DEQUEEN WALMART,HWY 70 EAST,DE QUEEN,AR,71832,"http://maps.google.com/maps?q=HWY 70 EAST,+DE QUEEN,+AR+71832&hl=en"
SPRINGDALE POLICE DEPARTMENT,HARPS FOOD STORES,918 SOUTH GUTENSOHN ROAD,SPRINGDALE,AR,72764,"http://maps.google.com/maps?q=918 SOUTH GUTENSOHN ROAD,+SPRINGDALE,+AR+72764&hl=en"
SPRINGDALE POLICE DEPARTMENT,SPRINGDALE POLICE DEPARTMENT PERMANENT DROP BOX,201 N. SPRING ST.,SPRINGDALE,AR,72764,"http://maps.google.com/maps?q=201 N. SPRING ST.,+SPRINGDALE,+AR+72764&hl=en"
ST. CLAIR COUNTY JAIL,ST. CLAIR COUNTY JAIL,360 CHESTNUT ST,OSCEOLA,MO,64776,"http://maps.google.com/maps?q=360 CHESTNUT ST,+OSCEOLA,+MO+64776&hl=en"
TANEY COUNTY SHERIFF'S OFFICE,SCOOTER'S EXPRESS GAS & GROCERIES,13022 STATE HWY 76,FORSYTH,MO,65653,"http://maps.google.com/maps?q=13022 STATE HWY 76,+FORSYTH,+MO+65653&hl=en"
TULSA COUNTY SHERIFF'S OFFICE,TULSA CRIME STOPPERS PROMENADE MALL,"4107 S YALE AVE, SUITE 142",TULSA,OK,74135,"http://maps.google.com/maps?q=4107 S YALE AVE, SUITE 142,+TULSA,+OK+74135&hl=en"
TULSA PD,MET EAST TULSA,12466 E 21ST ST,TULSA,OK,74129,"http://maps.google.com/maps?q=12466 E 21ST ST,+TULSA,+OK+74129&hl=en"
TULSA PD,PATRICK HENRY ELEMENTARY,3820 E. 41ST ST,TULSA,OK,74135,"http://maps.google.com/maps?q=3820 E. 41ST ST,+TULSA,+OK+74135&hl=en"
UNIVERSITY OF ARKANSAS POLICE DEPARTMENT,UNIVERSITY OF ARKANSAS,155 S. RAZORBACK ROAD,FAYETTEVILLE,AR,72701,"http://maps.google.com/maps?q=155 S. RAZORBACK ROAD,+FAYETTEVILLE,+AR+72701&hl=en"
URBANA POLICE DEPARTMENT,URBANA POLICE DEPARTMENT,110 NORTH MAIN ST.,URBANA,MO,65767,"http://maps.google.com/maps?q=110 NORTH MAIN ST.,+URBANA,+MO+65767&hl=en"
VAN BUREN POLICE DEPARTMENT,VAN BUREN POLICE DEPARTMENT PERMANENT DROP BOX,111 S. 11TH ST.,VAN BUREN,AR,72956,"http://maps.google.com/maps?q=111 S. 11TH ST.,+VAN BUREN,+AR+72956&hl=en"
WALDRON POLICE DEPARTMENT,HARPS FOOD PARKING LOT,1350 6TH STREET,WALDRON,AR,72958,"http://maps.google.com/maps?q=1350 6TH STREET,+WALDRON,+AR+72958&hl=en"
WALDRON POLICE DEPARTMENT,WALDRON POLICE DEPARTMENT PERMANENT DROP BOX,323 WASHINGTON ST.,WALDRON,AR,72958,"http://maps.google.com/maps?q=323 WASHINGTON ST.,+WALDRON,+AR+72958&hl=en"
WASHINGTON COUNTY SHERIFF'S OFFICE,VA MEDICAL CENTER PERMANENT DROP BOX,1100 NORTH COLLEGE AVE.1100 NORTH COLLEGE AVE.,FAYETTEVILLE,AR,72701,"http://maps.google.com/maps?q=1100 NORTH COLLEGE AVE.,+FAYETTEVILLE,+AR+72701&hl=en"
WASHINGTON COUNTY SHERIFF'S OFFICE,WASHINGTON COUNTY COURTHOUSE PERMANENT DROP BOX (MON-FRI ONLY),280 NORTH COLLEGE AVE.,FAYETTEVILLE,AR,72701,"http://maps.google.com/maps?q=280 NORTH COLLEGE AVE.,+FAYETTEVILLE,+AR+72701&hl=en"
WASHINGTON COUNTY SHERIFF'S OFFICE,WASHINGTON COUNTY SHERIFF'S DEPARTMENT PERMANENT DROP BOX,1155 CLYDESDALE DR.,FAYETTEVILLE,AR,72701,"http://maps.google.com/maps?q=1155 CLYDESDALE DR.,+FAYETTEVILLE,+AR+72701&hl=en"
WEST BRANSON POLICE DEPARTMENT,LAKELAND PHARMACY,18565 BUSINESS 13,REEDS SPRING,MO,65737,"http://maps.google.com/maps?q=18565 BUSINESS 13,+REEDS SPRING,+MO+65737&hl=en"
WEST FORK POLICE DEPARTMENT,WEST FORK CITY ADMINISTRATION BUILDING PERMANENT DROP BOX,262 WEST MAIN STREET,WEST FORK,AR,72774,"http://maps.google.com/maps?q=262 WEST MAIN STREET,+WEST FORK,+AR+72774&hl=en"
WICHITA POLICE DEPARTMENT,DILLONS PARKING LOT,9450 E HARRY,WICHITA,KS,67207,"http://maps.google.com/maps?q=9450 E HARRY,+WICHITA,+KS+67207&hl=en"
WILSON COUNTY SHERIFF'S OFFICE,WILSON COUNTY SHERIFF'S OFFICE,925 PIERCE STREET,FREDONIA,KS,66736,"http://maps.google.com/maps?q=925 PIERCE STREET,+FREDONIA,+KS+66736&hl=en"
