Participant,CollectionSite,Address,City,State,Zip,MapURL
ALEDO ISD PD,VANDAGRIFF ELEMENTARY SCHOOL,408 FM 1187 S,ALEDO,TX,76008,"http://maps.google.com/maps?q=408  FM 1187 S,+ALEDO,+TX+76008&hl=en"
ARTESIA POLICE DEPARTMENT,ARTESIA PD ARTESIA PUBLIC LIBRARY,205 W QUAY,ARTESIA,NM,88210,"http://maps.google.com/maps?q=205 W QUAY,+ARTESIA,+NM+88210&hl=en"
BOYD POLICE DEPARTMENT,BOYD POLICE DEPARTMENT,731 EAST ROCK ISLAND AVE.,BOYD,TX,76023,"http://maps.google.com/maps?q=731 EAST ROCK ISLAND AVE.,+BOYD,+TX+76023&hl=en"
BRECKENRIDGE PD,PARKING LOT,500 WEST WALKER,BRECKENRIDGE,TX,76424,"http://maps.google.com/maps?q=500 WEST WALKER,+BRECKENRIDGE,+TX+76424&hl=en"
BRIDGEPORT PD,STAGECOACH REHAB. CENTER UNDER AWNING OF ENTRANCE,2108 15TH ST / HWY 380,BRIDGEPORT,TX,76426,"http://maps.google.com/maps?q=2108 15TH ST / HWY 380,+BRIDGEPORT,+TX+76426&hl=en"
BRISCOE COUNTY SHERIFF'S OFFICE,QUITAQUE EMS BUILDING,222 WEST MAIN ST.,QUITAQUE,TX,79255,"http://maps.google.com/maps?q=222 WEST MAIN ST.,+QUITAQUE,+TX+79255&hl=en"
BRISCOE COUNTY SHERIFF'S OFFICE,SILVERTON EMS BUILDING,502 PULITZER ST.,SILVERTON,TX,79257,"http://maps.google.com/maps?q=502 PULITZER ST.,+SILVERTON,+TX+79257&hl=en"
BURNET COUNTY COURTHOUSE,BURNET COUNTY SHERIFF'S OFFICE,1601 EAST POLK STREET,BURNET,TX,78611,"http://maps.google.com/maps?q=1601 EAST POLK STREET,+BURNET,+TX+78611&hl=en"
CARLSBAD PD,CARLSBAD PD,500 E. CHURCH,CARLSBAD,NM,88220,"http://maps.google.com/maps?q=500 E. CHURCH,+CARLSBAD,+NM+88220&hl=en"
COMANCHE NATION POLICE DEPT,COMANCHE NATION POLICE DEPT,8527 NW MADISCHE RD,LAWTON,OK,73502,"http://maps.google.com/maps?q=8527 NW MADISCHE RD,+LAWTON,+OK+73502&hl=en"
COMANCHE POLICE DEPARTMENT,BROOKSHIRE'S GROCERY,404 W. CENTRAL AVE.,COMANCHE,TX,76442,"http://maps.google.com/maps?q=404 W. CENTRAL AVE.,+COMANCHE,+TX+76442&hl=en"
COPPERAS COVE POLICE DEPARTMENT,COPPERAS COVE POLICE DEPARTMENT,302 E AVENUE E,COPPERAS COVE,TX,76522,"http://maps.google.com/maps?q=302 E AVENUE E,+COPPERAS COVE,+TX+76522&hl=en"
CORYELL COUNTY SHERIFF'S OFFICE,CORYELL COUNTY SHERIFF'S OFFICE,510 LEON STREET,GATESVILLE,TX,76528,"http://maps.google.com/maps?q=510 LEON STREET,+GATESVILLE,+TX+76528&hl=en"
DEA MIDLAND,PALMER DRUG ABUSE PROGRAM POLO PARK RETIREMENT CENTER,2100 CASTLEFORD RD.,MIDLAND,TX,79705,"http://maps.google.com/maps?q=2100 CASTLEFORD RD.,+MIDLAND,+TX+79705&hl=en"
DEA MIDLAND,PERMIAN BASIN REGIONAL COUNCIL (PBRCADA) LINCOLN TOWER RETIREMENT CENTER,311 W 4TH STREET,ODESSA,TX,79761,"http://maps.google.com/maps?q=311 W 4TH STREET,+ODESSA,+TX+79761&hl=en"
GATESVILLE POLICE DEPARTMENT,GATESVILLE POLICE DEPARTMENT,200 N. 8TH STREET,GATESVILLE,TX,76528,"http://maps.google.com/maps?q=200 N. 8TH STREET,+GATESVILLE,+TX+76528&hl=en"
HARKER HEIGHTS POLICE DEPARTMENT,HARKER HEIGHTS POLICE DEPARTMENT,402 INDIAN TRAIL,HARKER HEIGHTS,TX,76548,"http://maps.google.com/maps?q=402 INDIAN TRAIL,+HARKER HEIGHTS,+TX+76548&hl=en"
HOBBS POLICE DEPARTMENT,WALGREENS PARKING LOT,1401 N TURNER,HOBBS,NM,88240,"http://maps.google.com/maps?q=1401 N TURNER,+HOBBS,+NM+88240&hl=en"
HOBBS POLICE DEPARTMENT,WALGREENS PARKING LOT,801 W JOE HARVEY,HOBBS,NM,88240,"http://maps.google.com/maps?q=801 W JOE HARVEY,+HOBBS,+NM+88240&hl=en"
HOOD COUNTY SHERIFF'S OFFICE,HOOD COUNTY EOC,401 DEPUTY LARRY MILLER DR,GRANBURY,TX,76048,"http://maps.google.com/maps?q=401 DEPUTY LARRY MILLER DR,+GRANBURY,+TX+76048&hl=en"
JACKSBORO PD,JACK COUNTY COURT HOUSE N SIDE,100 N MAIN,JACKSBORO,TX,76458,"http://maps.google.com/maps?q=100 N MAIN,+JACKSBORO,+TX+76458&hl=en"
KILLEEN POLICE DEPARTMENT,KILLEEN POLICE DEPARTMENT,3304 COMMUNITY BLVD.,KILLEEN,TX,76542,"http://maps.google.com/maps?q=3304 COMMUNITY BLVD.,+KILLEEN,+TX+76542&hl=en"
LAMPASAS POLICE DEPARTMENT,LAMPASAS POLICE DEPARTMENT,301 EAST 4TH STREET,LAMPASAS,TX,76550,"http://maps.google.com/maps?q=301 EAST 4TH STREET,+LAMPASAS,+TX+76550&hl=en"
LEVELLAND PD,SOUTH PLAINS RURAL HEALTH PARKING LOT,1000 FM 300,LEVELLAND,TX,79336,"http://maps.google.com/maps?q=1000 FM 300,+LEVELLAND,+TX+79336&hl=en"
MARBLE FALLS POLICE DEPARTMENT,MARBLE FALLS POLICE DEPARTMENT,606 AVENUE N,MARBLE FALLS,TX,78654,"http://maps.google.com/maps?q=606 AVENUE N,+MARBLE FALLS,+TX+78654&hl=en"
MILLS COUNTY SHERIFF'S OFFICE,MILLS COUNTY LAW ENFORCEMENT CENTER,2111 PRIDY RD.,GOLDTHWAITE,TX,76844,"http://maps.google.com/maps?q=2111 PRIDY RD.,+GOLDTHWAITE,+TX+76844&hl=en"
MINERAL WELLS PD,MINERAL WELLS PD,212 SOUTH OAK AVE,MINERAL WELLS,TX,76067,"http://maps.google.com/maps?q=212 SOUTH OAK AVE,+MINERAL WELLS,+TX+76067&hl=en"
NOLANVILLE POLICE DEPARTMENT,NOLANVILLE POLICE DEPARTMENT,101 N. FIFTH STREET,NOLANVILLE,TX,76559,"http://maps.google.com/maps?q=101 N. FIFTH STREET,+NOLANVILLE,+TX+76559&hl=en"
RANDALL COUNTY SO,RANDALL COUNTY SO,9100 S. GEORGIA,AMARILLO,TX,79118,"http://maps.google.com/maps?q=9100 S. GEORGIA,+AMARILLO,+TX+79118&hl=en"
REEVES COUNTY SHERIFF'S OFFICE,REEVES COUNTY SO,1903 SOUTH CEDAR,PECOS,TX,79772,"http://maps.google.com/maps?q=1903 SOUTH CEDAR,+PECOS,+TX+79772&hl=en"
ROSWELL POLICE DEPT,NEIGHBORHOOD WATCH OFFICES,128 WEST 2ND ST,ROSWELL,NM,88201,"http://maps.google.com/maps?q=128 WEST 2ND ST,+ROSWELL,+NM+88201&hl=en"
SCHLEICHER COUNTY SHERIFF'S OFFICE,ELDORADO SERVICE CENTER,400 WEST MURCHISON,ELDORADO,TX,76936,"http://maps.google.com/maps?q=400 WEST MURCHISON,+ELDORADO,+TX+76936&hl=en"
WAYLAND BAPTIST UNIVERSITY POLICE DEPARTMENT,HARRAL AUDITORIUM,700 UTICA STREET,PLAINVIEW,TX,79072,"http://maps.google.com/maps?q=700 UTICA STREET,+PLAINVIEW,+TX+79072&hl=en"
WEATHERFORD COLLEGE PD,WEATHERFORD COLLEGE PD PARKING LOT IN FRONT OF CAMPUS PD,225 COLLEGE PARK DR,WEATHERFORD,TX,76086,"http://maps.google.com/maps?q=225 COLLEGE PARK DR,+WEATHERFORD,+TX+76086&hl=en"
WEATHERFORD POLICE DEPARTMENT,WEATHERFORD NINTH GRADE CENTER,1007 S. MAIN ST,WEATHERFORD,TX,76086,"http://maps.google.com/maps?q=1007 S. MAIN ST,+WEATHERFORD,+TX+76086&hl=en"
