Participant,CollectionSite,Address,City,State,Zip,MapURL
ALBEMARLE COUNTY POLICE DEPARTMENT,"MARTHA JEFFERSON HOSPITAL 
												
													BACKSIDE OF MAIN HOSPITAL",500 MARTHA JEFFERSON DRIVE,CHARLOTTESVILLE,VA,22911,"http://maps.google.com/maps?q=500 MARTHA JEFFERSON DRIVE,+CHARLOTTESVILLE,+VA+22911&hl=en"
ALEXANDRIA POLICE DEPARTMENT,ALEXANDRIA FIRE STATION 210,5525 EISENHOWER AVE,ALEXANDRIA,VA,22304,"http://maps.google.com/maps?q=5525 EISENHOWER AVE,+ALEXANDRIA,+VA+22304&hl=en"
ALEXANDRIA POLICE DEPARTMENT,"ALEXANDRIA POLICE HEADQUARTERS 
												
													FRONT ENTRANCE",3600 WHEELER AVENUE,ALEXANDRIA,VA,22304,"http://maps.google.com/maps?q=3600 WHEELER AVENUE,+ALEXANDRIA,+VA+22304&hl=en"
ALEXANDRIA POLICE DEPARTMENT,"FIRST BAPTIST CHURCH 
												
													FRONT ENTRANCE",2932 KING STREET,ALEXANDRIA,VA,22302,"http://maps.google.com/maps?q=2932 KING STREET,+ALEXANDRIA,+VA+22302&hl=en"
ALEXANDRIA SHERIFF'S OFFICE,"NEIGHBORHOOD PHARMACY 
												
													FRONT OF THE BUILDING",2204 MT. VERNON AVENUE,ALEXANDRIA,VA,22301,"http://maps.google.com/maps?q=2204 MT. VERNON AVENUE,+ALEXANDRIA,+VA+22301&hl=en"
ANNE ARUNDEL CO,EASTERN DISTRICT,204 PASADENA ROAD,PASADENA,MD,21122,"http://maps.google.com/maps?q=204 PASADENA ROAD,+PASADENA,+MD+21122&hl=en"
ANNE ARUNDEL CO,HEADQUARTERS,8495 VETERAN'S HIGHWAY,MILLERSVILLE,MD,21108,"http://maps.google.com/maps?q=8495 VETERAN'S HIGHWAY,+MILLERSVILLE,+MD+21108&hl=en"
ANNE ARUNDEL CO,NORTHERN DISTRICT,939 HAMMONDS LANE,BALTIMORE,MD,21225,"http://maps.google.com/maps?q=939 HAMMONDS LANE,+BALTIMORE,+MD+21225&hl=en"
ANNE ARUNDEL CO,SOUTHERN DISTRICT,35 STEPNEY'S LANE,EDGEWATER,MD,21037,"http://maps.google.com/maps?q=35 STEPNEY'S LANE,+EDGEWATER,+MD+21037&hl=en"
ANNE ARUNDEL CO,WESTERN DISTRICT,8273 TELEGRAPH ROAD,ODENTON,MD,21113,"http://maps.google.com/maps?q=8273 TELEGRAPH ROAD,+ODENTON,+MD+21113&hl=en"
ARLINGTON COUNTY POLICE DEPARTMENT,"ARLINGTON FIRE STATION #9 
												
													MAIN LEVEL COMMUNITY ROOM",1900 SOUTH WALTER REED DRIVE,ARLINGTON,VA,22204,"http://maps.google.com/maps?q=1900 SOUTH WALTER REED DRIVE,+ARLINGTON,+VA+22204&hl=en"
ARLINGTON COUNTY POLICE DEPARTMENT,GUNSTON COMMUNITY CENTER,2700 SOUTH LANG STREET,ARLINGTON,VA,22206,"http://maps.google.com/maps?q=2700 SOUTH LANG STREET,+ARLINGTON,+VA+22206&hl=en"
ARLINGTON COUNTY POLICE DEPARTMENT,LANGSTON COMMUNITY CENTER,2121 NORTH CULPEPER STREET,ARLINGTON,VA,22207,"http://maps.google.com/maps?q=2121 NORTH CULPEPER STREET,+ARLINGTON,+VA+22207&hl=en"
ASHLAND POLICE DEPARTMENT,"ASHLAND POLICE DEPARTMENT 
												
													VISITOR PARKING LOT",601 ENGLAND STREET,ASHLAND,VA,23005,"http://maps.google.com/maps?q=601 ENGLAND STREET,+ASHLAND,+VA+23005&hl=en"
BALTIMORE CITY POLICE DEPARTMENT,"BALTIMORE CITY PD 
												
													NORTHERN DISTRICT",2201 W. COLDSPRING LANE,BALTIMORE,MD,21215,"http://maps.google.com/maps?q=2201 W. COLDSPRING LANE,+BALTIMORE,+MD+21215&hl=en"
BALTIMORE CITY POLICE DEPARTMENT,"BALTIMORE CITY PD 
												
													NORTHWESTERN DISTRICT",5271 REISTERSTOWN ROAD,BALTIMORE,MD,21215,"http://maps.google.com/maps?q=5271 REISTERSTOWN ROAD,+BALTIMORE,+MD+21215&hl=en"
BALTIMORE CITY POLICE DEPARTMENT,"BALTIMORE CITY PD 
												
													SOUTHERN DISTRICT",10 CHERRY HILL ROAD,BROOKLYN,MD,21225,"http://maps.google.com/maps?q=10 CHERRY HILL ROAD,+BROOKLYN,+MD+21225&hl=en"
BALTIMORE CITY POLICE DEPARTMENT,"BALTIMORE CITY PD 
												
													SOUTHWESTERN DISTRICT",424 FONT HILL AVENUE,BALTIMORE,MD,21223,"http://maps.google.com/maps?q=424 FONT HILL AVENUE,+BALTIMORE,+MD+21223&hl=en"
BALTIMORE CITY POLICE DEPARTMENT,"BALTIMORE CITY PD 
												
													WESTERN DISTRICT",1034 N. MOUNT STREET,BALTIMORE,MD,21217,"http://maps.google.com/maps?q=1034 N. MOUNT STREET,+BALTIMORE,+MD+21217&hl=en"
BALTIMORE COUNTY POLICE DEPARTMENT,"PRECINCT 1 
												
													WILKENS",901 WALKER AVE.,CATONSVILLE,MD,21228,"http://maps.google.com/maps?q=901 WALKER AVE.,+CATONSVILLE,+MD+21228&hl=en"
BALTIMORE COUNTY POLICE DEPARTMENT,"PRECINCT 2 
												
													WOODLAWN",6424 WINDSOR MILL RD.,GWYNN OAK,MD,21207,"http://maps.google.com/maps?q=6424 WINDSOR MILL RD.,+GWYNN OAK,+MD+21207&hl=en"
BALTIMORE COUNTY POLICE DEPARTMENT,"PRECINCT 3 
												
													FRANKLIN",606 NICODEMUS RD.,REISTERSTOWN,MD,21136,"http://maps.google.com/maps?q=606 NICODEMUS RD.,+REISTERSTOWN,+MD+21136&hl=en"
BALTIMORE COUNTY POLICE DEPARTMENT,"PRECINCT 4 
												
													PIKESVILLE",215 MILFORD MILL RD.,PIKESVILLE,MD,21208,"http://maps.google.com/maps?q=215 MILFORD MILL RD.,+PIKESVILLE,+MD+21208&hl=en"
BIGLERVILLE BOROUGH POLICE DEPARTMENT,BIGLERVILLE FIRE DEPARTMENT,111 SOUTH MAIN STREET,BIGLERVILLE,PA,17307,"http://maps.google.com/maps?q=111 SOUTH MAIN STREET,+BIGLERVILLE,+PA+17307&hl=en"
BOWIE POLICE DEPARTMENT,BOWIE POLICE STATION,15901 EXCALIBUR ROAD,BOWIE,MD,20716,"http://maps.google.com/maps?q=15901 EXCALIBUR ROAD,+BOWIE,+MD+20716&hl=en"
CALVERT COUNTY SHERIFF'S OFFICE,MT. HOPE COMMUNITY CENTER,104 PUSHAW STATION RD.,SUNDERLAND,MD,20689,"http://maps.google.com/maps?q=104 PUSHAW STATION RD.,+SUNDERLAND,+MD+20689&hl=en"
CALVERT COUNTY SHERIFF'S OFFICE,NORTHEAST COMMUNITY CENTER,4075 GORDON STINNETT AVE.,CHESAPEAKE BEACH,MD,20732,"http://maps.google.com/maps?q=4075 GORDON STINNETT AVE.,+CHESAPEAKE BEACH,+MD+20732&hl=en"
CAROLINE COUNTY SHERIFF'S OFFICE,"CAROLINE SQUARE SHOPPING CENTER PARKING LOT 
												
													PARKING LOT NEAR RITE AID PHARMACY ENTRANCE",104 W. BROADDUS AVENUE,BOWLING GREEN,VA,22427,"http://maps.google.com/maps?q=104 W. BROADDUS AVENUE,+BOWLING GREEN,+VA+22427&hl=en"
CAROLINE COUNTY SHERIFF'S OFFICE,"CVS PHARMACY 
												
													PARKING LOT",18048 JEFFERSON DAVIS HIGHWAY,RUTHER GLEN,VA,22546,"http://maps.google.com/maps?q=18048 JEFFERSON DAVIS HIGHWAY,+RUTHER GLEN,+VA+22546&hl=en"
CARROLL COUNTY SHERIFF'S OFFICE,CARROL COUNTY SHERIFF'S OFFICE,100 NORTH COURT STREET,WESTMINSTER,MD,21157,"http://maps.google.com/maps?q=100 NORTH COURT STREET,+WESTMINSTER,+MD+21157&hl=en"
CARROLL COUNTY SHERIFF'S OFFICE,MOUNT AIRY POLICE DEPARTMENT,"205 CENTER STREET,SUITE 203",MOUNT AIRY,MD,21771,"http://maps.google.com/maps?q=205 CENTER STREET,,+MOUNT AIRY,+MD+21771&hl=en"
CARROLL COUNTY SHERIFF'S OFFICE,SYKESVILLE POLICE DEPARTMENT,7547 MAIN STREET,SYKESVILLE,MD,21784,"http://maps.google.com/maps?q=7547 MAIN STREET,+SYKESVILLE,+MD+21784&hl=en"
CARROLL COUNTY SHERIFF'S OFFICE,WESTMINSTER POLICE DEPARTMENT,36 LOCUST STREET,WESTMINSTER,MD,21157,"http://maps.google.com/maps?q=36 LOCUST STREET,+WESTMINSTER,+MD+21157&hl=en"
CARROLL VALLEY BOROUGH POLICE DEPARTMENT,CARROLL VALLEY BOROUGH OFFICE,5685 FAIRFIELD ROAD,FAIRFIELD,PA,17320,"http://maps.google.com/maps?q=5685 FAIRFIELD ROAD,+FAIRFIELD,+PA+17320&hl=en"
CHARLES COUNTY GOVERNMENT,"CHARLES COUNTY GOVERNMENT 
												
													MAIN ENTRANCE PARKING LOT",200 BALTIMORE STREET,LA PLATA,MD,20646,"http://maps.google.com/maps?q=200 BALTIMORE STREET,+LA PLATA,+MD+20646&hl=en"
CHEVY CHASE VILLAGE POLICE DEPARTMENT,CHEVY CHASE VILLAGE POLICE DEPARTMENT,5906 CONNECTICUT AVENUE,CHEVY CHASE,MD,20815,"http://maps.google.com/maps?q=5906 CONNECTICUT AVENUE,+CHEVY CHASE,+MD+20815&hl=en"
CUMBERLAND TOWNSHIP POLICE,SAINT FRACIS XAVIER CENTER,465 TABLE ROCK ROAD,GETTYSBURG,PA,17325,"http://maps.google.com/maps?q=465 TABLE ROCK ROAD,+GETTYSBURG,+PA+17325&hl=en"
DEA / MONTCLAIR LIONS CLUB,"MONTCLAIR SHOPPING CENTER 
												
													IN FRONT OF FRAMING OUTLET",5183 WATERWAY DRIVE,DUMFRIES,VA,22025,"http://maps.google.com/maps?q=5183 WATERWAY DRIVE,+DUMFRIES,+VA+22025&hl=en"
DEA HQ_TESTING,DEA HEADQUARTERS,700 ARMY NAVY DRIVE,ARLINGTON,VA,22202,"http://maps.google.com/maps?q=700 ARMY NAVY DRIVE,+ARLINGTON,+VA+22202&hl=en"
FAIRFAX CITY POLICE DEPARTMENT,"FAIRFAX CITY POLICE DEPARTMENT 
												
													FRONT LOBBY",3730 OLD LEE HIGHWAY,FAIRFAX,VA,22030,"http://maps.google.com/maps?q=3730 OLD LEE HIGHWAY,+FAIRFAX,+VA+22030&hl=en"
FAIRFAX COUNTY POLICE DEPARTMENT,"FAIR OAKS DISTRICT STATION 
												
													PARKING LOT -OPERATING 10 AM TO 2 PM-",12300 LEE JACKSON MEMORIAL HIGHWAY,FAIRFAX,VA,22033,"http://maps.google.com/maps?q=12300 LEE JACKSON MEMORIAL HIGHWAY,+FAIRFAX,+VA+22033&hl=en"
FAIRFAX COUNTY POLICE DEPARTMENT,"FRANCONIA DISTRICT STATION 
												
													FRONT PARKING LOT -OPERATING 10 AM TO 2 PM-",6121 FRANCONIA ROAD,ALEXANDRIA,VA,22310,"http://maps.google.com/maps?q=6121 FRANCONIA ROAD,+ALEXANDRIA,+VA+22310&hl=en"
FAIRFAX COUNTY POLICE DEPARTMENT,"MASON DISTRICT STATION 
												
													FRONT PARKING LOT -OPERATING 10 AM TO 2 PM-",6507 COLUMBIA PIKE,ANNANDALE,VA,22003,"http://maps.google.com/maps?q=6507 COLUMBIA PIKE,+ANNANDALE,+VA+22003&hl=en"
FAIRFAX COUNTY POLICE DEPARTMENT,"MCLEAN DISTRICT POLICE STATION 
												
													FRONT PARKING LOT -OPERATING 10 AM TO 2 PM-",1437 BALLS HILL ROAD,MCLEAN,VA,22101,"http://maps.google.com/maps?q=1437 BALLS HILL ROAD,+MCLEAN,+VA+22101&hl=en"
FAIRFAX COUNTY POLICE DEPARTMENT,"MOUNT VERNON DISTRICT POLICE STATION 
												
													FRONT PARKING LOT -OPERATING 10 AM TO 2 PM-",2511 PARKERS LANE,ALEXANDRIA,VA,22306,"http://maps.google.com/maps?q=2511 PARKERS LANE,+ALEXANDRIA,+VA+22306&hl=en"
FAIRFAX COUNTY POLICE DEPARTMENT,"RESTON DISTRICT STATION 
												
													PARKING LOT -OPERATING 10 AM TO 2 PM-",12000 BOWMAN TOWNE DRIVE,RESTON,VA,20190,"http://maps.google.com/maps?q=12000 BOWMAN TOWNE DRIVE,+RESTON,+VA+20190&hl=en"
FAIRFAX COUNTY POLICE DEPARTMENT,"SULLY DISTRICT POLICE STATION 
												
													FRONT PARKING LOT -OPERATING 10 AM TO 2 PM-",4900 STONECROFT BOULEVARD,CHANTILLY,VA,20151,"http://maps.google.com/maps?q=4900 STONECROFT BOULEVARD,+CHANTILLY,+VA+20151&hl=en"
FAIRFAX COUNTY POLICE DEPARTMENT,"WEST SPRINGFIELD DISTRICT STATION 
												
													PARKING LOT -OPERATING 10 AM TO 2 PM-",6140 ROLLING ROAD,SPRINGFIELD,VA,22152,"http://maps.google.com/maps?q=6140 ROLLING ROAD,+SPRINGFIELD,+VA+22152&hl=en"
FALLS CHURCH POLICE DEPARTMENT,"FALLS CHURCH CITY HALL 
												
													EXTERIOR",300 PARK AVE,FALLS CHURCH,VA,22046,"http://maps.google.com/maps?q=300 PARK AVE,+FALLS CHURCH,+VA+22046&hl=en"
FORT DETRICK EMERGENCY SERVICES,"COMMISSARY BUILDING 1510 
												
													POC DET. LESTER MUMMERT",BUILDING # 1510,FORT DETRICK,MD,21702,"http://maps.google.com/maps?q=BUILDING # 1510,+FORT DETRICK,+MD+21702&hl=en"
FORT DETRICK EMERGENCY SERVICES,"DIRECTORATE OF EMERGENCY SERVICES 
												
													POC DET. LESTER MUMMERT",BUILDING # 1419,FORT DETRICK,MD,21702,"http://maps.google.com/maps?q=BUILDING # 1419,+FORT DETRICK,+MD+21702&hl=en"
FORT DETRICK EMERGENCY SERVICES,FOREST GLENN ANNEX,FOREST GLENN ANNEX,FREDERICK,MD,21702,"http://maps.google.com/maps?q=FOREST GLENN ANNEX,+FREDERICK,+MD+21702&hl=en"
FREDERICK COUNTY SHERIFF'S OFFICE,FREDERICK COUNTY PUBLIC SAFETY BUILDING,1080 COVERSTONE DRIVE,WINCHESTER,VA,22602,"http://maps.google.com/maps?q=1080 COVERSTONE DRIVE,+WINCHESTER,+VA+22602&hl=en"
FREDERICK COUNTY SHERIFF'S OFFICE,WALGREENS,131 VALLEY MILL ROAD,WINCHESTER,VA,22602,"http://maps.google.com/maps?q=131 VALLEY MILL ROAD,+WINCHESTER,+VA+22602&hl=en"
FREDERICK POLICE DEPARTMENT,TRINITY SCHOOL,6040 NEW DESIGN ROAD,FREDERICK,MD,21703,"http://maps.google.com/maps?q=6040 NEW DESIGN ROAD,+FREDERICK,+MD+21703&hl=en"
FREDERICKSBURG POLICE DEPARTMENT,"MARY WASHINGTON HOSPITAL 
												
													TOMPKINS-MARTIN MEDICAL PLAZA",1101 SAM PERRY BLVD,FREDERICKSBURG,VA,22401,"http://maps.google.com/maps?q=1101 SAM PERRY BLVD,+FREDERICKSBURG,+VA+22401&hl=en"
GAITHERSBURG POLICE DEPARTMENT,GAITHERSBURG POLICE DEPARTMENT,14 FULKS CORNER AVENUE,GAITHERSBURG,MD,20877,"http://maps.google.com/maps?q=14 FULKS CORNER AVENUE,+GAITHERSBURG,+MD+20877&hl=en"
GEORGE MASON UNIVERSITY POLICE DEPARTMENT,GEORGE MASON UNIVERSITY POLICE STATION,4393 UNIVERSITY DRIVE,FAIRFAX,VA,22030,"http://maps.google.com/maps?q=4393 UNIVERSITY DRIVE,+FAIRFAX,+VA+22030&hl=en"
GETTYSBURG BOROUGH POLICE DEPARTMENT,ADAMS COUNTY HOUSING AUTHORITY,40 EAST HIGH STREET,GETTYSBURG,PA,17325,"http://maps.google.com/maps?q=40 EAST HIGH STREET,+GETTYSBURG,+PA+17325&hl=en"
GOOCHLAND COUNTY SHERIFF'S OFFICE,GOOCHLAND FIRE/RESCUE COMPANY 5,2710 FAIRGROUNDS ROAD,GOOCHLAND,VA,23063,"http://maps.google.com/maps?q=2710 FAIRGROUNDS ROAD,+GOOCHLAND,+VA+23063&hl=en"
GOOCHLAND COUNTY SHERIFF'S OFFICE,WEST CREEK EMERGENCY CENTER,12720 TUCKAHOE CREEK PKWY,HENRICO,VA,23238,"http://maps.google.com/maps?q=12720 TUCKAHOE CREEK PKWY,+HENRICO,+VA+23238&hl=en"
GORDONSVILLE POLICE DEPARTMENT,FOOD LION,408 GORDON AVE,GORDONSVILLE,VA,22942,"http://maps.google.com/maps?q=408 GORDON AVE,+GORDONSVILLE,+VA+22942&hl=en"
GREENBELT POLICE DEPARTMENT,GREENBELT CITY OFFICES,25 CRESCENT ROAD,GREENBELT,MD,20770,"http://maps.google.com/maps?q=25 CRESCENT ROAD,+GREENBELT,+MD+20770&hl=en"
HAMPSHIRE COUNTY SHERIFF'S OFFICE,HAMPSHIRE COUNTY SD,66 N HIGH STREET,ROMNEY,WV,26757,"http://maps.google.com/maps?q=66 N HIGH STREET,+ROMNEY,+WV+26757&hl=en"
HENRICO POLICE DEPARTMENT,"HENRICO TRAINING CENTER 
												
													ENTRANCE IS ON SHRADER ROAD",7721 E. PARHAM ROAD,HENRICO,VA,23294,"http://maps.google.com/maps?q=7721 E. PARHAM ROAD,+HENRICO,+VA+23294&hl=en"
HERNDON POLICE DEPARTMENT,"HERNDON POLICE DEPARTMENT 
												
													LOBBY AREA",397 HERNDON PARKWAY,HERNDON,VA,20170,"http://maps.google.com/maps?q=397 HERNDON PARKWAY,+HERNDON,+VA+20170&hl=en"
HOWARD COUNTY POLICE DEPARTMENT,GARY ARTHUR COMMUNITY CENTER,2400 RT. 97,COOKSVILLE,MD,21723,"http://maps.google.com/maps?q=2400 RT. 97,+COOKSVILLE,+MD+21723&hl=en"
HOWARD COUNTY POLICE DEPARTMENT,HC DRUGFREE,10451 TWIN RIVERS ROAD,COLUMBIA,MD,21045,"http://maps.google.com/maps?q=10451 TWIN RIVERS ROAD,+COLUMBIA,+MD+21045&hl=en"
HOWARD COUNTY POLICE DEPARTMENT,"HOWARD COUNTY POLICE 
												
													NORTHERN DISTRICT",3410 COURTHOUSE DR.,ELLICOTT CITY,MD,21043,"http://maps.google.com/maps?q=3410 COURTHOUSE DR.,+ELLICOTT CITY,+MD+21043&hl=en"
HOWARD COUNTY POLICE DEPARTMENT,"HOWARD COUNTY POLICE 
												
													SOUTHERN DISTRICT",11226 SCAGGSVILLE RD.,LAUREL,MD,20723,"http://maps.google.com/maps?q=11226 SCAGGSVILLE RD.,+LAUREL,+MD+20723&hl=en"
HOWARD COUNTY POLICE DEPARTMENT,HOWARD COUNTY POLICE COMMUNITY OUTREACH,10785 LITTLE PATUXENT PARKWAY,COLUMBIA,MD,21044,"http://maps.google.com/maps?q=10785 LITTLE PATUXENT PARKWAY,+COLUMBIA,+MD+21044&hl=en"
HYATTSVILLE CITY POLICE,HYATTSVILLE CITY POLICE DEPARTMENT,4310 GALLATIN STREET,HYATTSVILLE,MD,20781,"http://maps.google.com/maps?q=4310 GALLATIN STREET,+HYATTSVILLE,+MD+20781&hl=en"
JEFFERSON COUNTY SHERIFF'S OFFICE,CHARLES TOWN WALMART,96 PATRICK HENRY WAY,CHARLES TOWN,WV,25414,"http://maps.google.com/maps?q=96 PATRICK HENRY WAY,+CHARLES TOWN,+WV+25414&hl=en"
JEFFERSON COUNTY SHERIFF'S OFFICE,JEFFERSON COUNTY SHERIFF,102 INDUSTRIAL BOULEVARD,KEARNEYSVILLE,WV,25430,"http://maps.google.com/maps?q=102 INDUSTRIAL BOULEVARD,+KEARNEYSVILLE,+WV+25430&hl=en"
KING GEORGE SHERIFF'S OFFICE,KING GEORGE SHERIFF'S  FRONT PARKING LOT,10445 GOVERNMENT CENTER BLVD.,KING GEORGE,VA,22485,"http://maps.google.com/maps?q=10445 GOVERNMENT CENTER BLVD.,+KING GEORGE,+VA+22485&hl=en"
LAUREL POLICE DEPARTMENT,LAUREL POLICE DEPARTMENT,811 FIFTH STREET,LAUREL,MD,20707,"http://maps.google.com/maps?q=811 FIFTH STREET,+LAUREL,+MD+20707&hl=en"
LITTLESTOWN POLICE DEPARTMENT,MAPLE AVE MIDDLE SCHOOL,75 MAPLE AVE,LITTLESTOWN,PA,17340,"http://maps.google.com/maps?q=75 MAPLE AVE,+LITTLESTOWN,+PA+17340&hl=en"
LOUDOUN COUNTY SHERIFF'S OFFICE,"DULLES SOUTH PUBLIC SAFETY CENTER 
												
													FRONT LOBBY AREA",25216 LOUDOUN PARKWAY,CHANTILLY,VA,20152,"http://maps.google.com/maps?q=25216 LOUDOUN PARKWAY,+CHANTILLY,+VA+20152&hl=en"
LOUDOUN COUNTY SHERIFF'S OFFICE,"EASTERN LOUDOUN STATION 
												
													FRONT LOBBY AREA",46620 EAST FREDERICK DRIVE,STERLING,VA,20164,"http://maps.google.com/maps?q=46620 EAST FREDERICK DRIVE,+STERLING,+VA+20164&hl=en"
LOUDOUN COUNTY SHERIFF'S OFFICE,"LANDSDOWNE PUBLIC SAFETY CENTER 
												
													FRONT LOBBY/ENTRANCE AREA",19485 SANDRIDGE WAY,LEESBURG,VA,20176,"http://maps.google.com/maps?q=19485 SANDRIDGE WAY,+LEESBURG,+VA+20176&hl=en"
LOUDOUN COUNTY SHERIFF'S OFFICE,LOVETTSVILLE TOWN HALL,6 E PENNSYLVANIA AVE,LOVETTSVILLE,VA,20180,"http://maps.google.com/maps?q=6 E PENNSYLVANIA AVE,+LOVETTSVILLE,+VA+20180&hl=en"
LOUISA COUNTY SHERIFF'S OFFICE,LOUISA COUNTY SHERIFF'S OFFICE,1 WOOLFOLK AVE,LOUISA,VA,23093,"http://maps.google.com/maps?q=1 WOOLFOLK AVE,+LOUISA,+VA+23093&hl=en"
MADISON COUNTY SHERIFF'S OFFICE,MADISON COUNTY SHERIFF'S OFFICE,115 CHURCH ST,MADISON,VA,22727,"http://maps.google.com/maps?q=115 CHURCH ST,+MADISON,+VA+22727&hl=en"
MANASSAS CITY POLICE DEPARTMENT,"NOVANT HEALTH - PRINCE WILLIAM MEDICAL CENTER 
												
													ENTRANCE TO WOMEN'S CENTER - OB/GYN",8700 SUDLEY ROAD,MANASSAS,VA,20110,"http://maps.google.com/maps?q=8700 SUDLEY ROAD,+MANASSAS,+VA+20110&hl=en"
MANASSAS PARK POLICE DEPARTMENT,MPPD COMMUNITY ROOM,329 MANASSAS DR,MANASSAS,VA,20111,"http://maps.google.com/maps?q=329 MANASSAS DR,+MANASSAS,+VA+20111&hl=en"
MARYLAND STATE POLICE,"MSP COLLEGE PARK BARRACK Q 
												
													POC:  LT. SEAN MORRIS",10100 RHODE ISLAND AVENUE,COLLEGE PARK,MD,20740,"http://maps.google.com/maps?q=10100 RHODE ISLAND AVENUE,+COLLEGE PARK,+MD+20740&hl=en"
MARYLAND STATE POLICE,"MSP FORESTVILLE BARRACK 
												
													POC:  LT. ROLAND BUTLER",3500 FORESTVILLE ROAD,FORESTVILLE,MD,20747,"http://maps.google.com/maps?q=3500 FORESTVILLE ROAD,+FORESTVILLE,+MD+20747&hl=en"
MARYLAND STATE POLICE,"MSP FREDERICK BARRACK 
												
													POC:  LT. TODD MAY",110 AIRPORT DRIVE EAST,FREDERICK,MD,21701,"http://maps.google.com/maps?q=110 AIRPORT DRIVE EAST,+FREDERICK,+MD+21701&hl=en"
MARYLAND STATE POLICE,"MSP GLEN BURNIE BARRACK 
												
													POC:  SGT. EDWARD EICHER",6800 AVIATION BLVD.,GLEN BURNIE,MD,21061,"http://maps.google.com/maps?q=6800 AVIATION BLVD.,+GLEN BURNIE,+MD+21061&hl=en"
MARYLAND STATE POLICE,"MSP HAGERSTOWN BARRACK 
												
													POC- LT. WOODWARD",18345 COL. HENRY K. DOUGLAS DR.,HAGERSTOWN,MD,21740,"http://maps.google.com/maps?q=18345 COL. HENRY K. DOUGLAS DR.,+HAGERSTOWN,+MD+21740&hl=en"
MARYLAND STATE POLICE,"MSP LA PLATA BARRACK 
												
													POC:  D/SGT. KEVIN BEAUCHAMP",9500 MITCHELL ROAD,LA PLATA,MD,20646,"http://maps.google.com/maps?q=9500 MITCHELL ROAD,+LA PLATA,+MD+20646&hl=en"
MARYLAND STATE POLICE,"MSP ROCKVILLE BARRACK 
												
													POC:  LT. H.B. MARTZ",7915 MONTROSE ROAD,ROCKVILLE,MD,20854,"http://maps.google.com/maps?q=7915 MONTROSE ROAD,+ROCKVILLE,+MD+20854&hl=en"
MARYLAND STATE POLICE,"MSP WATERLOO BARRACK 
												
													POC:  D/SGT. MYERS",7777 WASHINGTON BLVD,JESSUP,MD,20794,"http://maps.google.com/maps?q=7777 WASHINGTON BLVD,+JESSUP,+MD+20794&hl=en"
MARYLAND STATE POLICE,"MSP WESTMINSTER BARRACKS 
												
													POC:  LT.  PATRICK MCCRORY",1100 BALTIMORE BLVD.,WESTMINSTER,MD,21157,"http://maps.google.com/maps?q=1100 BALTIMORE BLVD.,+WESTMINSTER,+MD+21157&hl=en"
MARYLAND STATE POLICE,"PRINCE FREDERICK BARRACK 
												
													POC:  RANDY STEVENS",210 MAIN STREET,PRINCE FREDERICK,MD,20678,"http://maps.google.com/maps?q=210 MAIN STREET,+PRINCE FREDERICK,+MD+20678&hl=en"
MONTGOMERY COUNTY DEPARTMENT OF POLICE,2ND DISTRICT POLICE STATION,4823 RUGBY AVENUE,BETHESDA,MD,20814,"http://maps.google.com/maps?q=4823 RUGBY AVENUE,+BETHESDA,+MD+20814&hl=en"
MONTGOMERY COUNTY DEPARTMENT OF POLICE,3RD DISTRICT POLICE STATION,1001 MILESTONE DRIVE,SILVER SPRING,MD,20904,"http://maps.google.com/maps?q=1001 MILESTONE DRIVE,+SILVER SPRING,+MD+20904&hl=en"
MONTGOMERY COUNTY DEPARTMENT OF POLICE,4TH DISTRICT POLICE STATION,2300 RANDOLPH ROAD,WHEATON,MD,20902,"http://maps.google.com/maps?q=2300 RANDOLPH ROAD,+WHEATON,+MD+20902&hl=en"
MONTGOMERY COUNTY DEPARTMENT OF POLICE,5TH DISTRICT POLICE STATION,20000 AIRCRAFT DRIVE,GERMANTOWN,MD,20874,"http://maps.google.com/maps?q=20000 AIRCRAFT DRIVE,+GERMANTOWN,+MD+20874&hl=en"
MONTGOMERY COUNTY DEPARTMENT OF POLICE,"ASBURY METHODIST VILLAGE 
												
													BUILDING 405, APARTMENT CENTER LOBBY",301 ODENDHAL AVENUE,GAITHERSBURG,MD,20877,"http://maps.google.com/maps?q=301 ODENDHAL AVENUE,+GAITHERSBURG,+MD+20877&hl=en"
MONTGOMERY COUNTY DEPARTMENT OF POLICE,FIRE STATION 1,8110 GEORGIA AVE.,SILVER SPRING,MD,20910,"http://maps.google.com/maps?q=8110 GEORGIA AVE.,+SILVER SPRING,+MD+20910&hl=en"
MONTGOMERY COUNTY DEPARTMENT OF POLICE,JEWISH COMMUNITY CENTER,6125 MONTROSE RD.,ROCKVILLE,MD,20852,"http://maps.google.com/maps?q=6125 MONTROSE RD.,+ROCKVILLE,+MD+20852&hl=en"
MONTGOMERY COUNTY DEPARTMENT OF POLICE,KENTLANDS MANOR,217 BOOTH ST.,GAITHERSBURG,MD,20878,"http://maps.google.com/maps?q=217 BOOTH ST.,+GAITHERSBURG,+MD+20878&hl=en"
MONTGOMERY COUNTY DEPARTMENT OF POLICE,LEISURE WORLD,3305 N. LEISURE WORLD BLVD.,SILVER SPRING,MD,20906,"http://maps.google.com/maps?q=3305 N. LEISURE WORLD BLVD.,+SILVER SPRING,+MD+20906&hl=en"
MONTGOMERY COUNTY DEPARTMENT OF POLICE,"VILLAGE OF FRIENDSHIP HEIGHTS 
												
													COMMUNITY CENTER",4433 SOUTH PARK AVENUE,CHEVY CHASE,MD,20815,"http://maps.google.com/maps?q=4433 SOUTH PARK AVENUE,+CHEVY CHASE,+MD+20815&hl=en"
MOOREFIELD POLICE DEPARTMENT,MOOREFIELD POLICE DEPT/TOWN OFFICE,206 WINCHESTER AVE,MOOREFIELD,WV,26836,"http://maps.google.com/maps?q=206 WINCHESTER AVE,+MOOREFIELD,+WV+26836&hl=en"
NOVA COMMUNITY COLLEGE POLICE DEPARTMENT,"NOVA COMMUNITY COLLEGE 
												
													WOODBRIDGE CAMPUS",2645 COLLEGE DR.WRC BUILDING,WOODBRIDGE,VA,22191,"http://maps.google.com/maps?q=2645 COLLEGE DR.,+WOODBRIDGE,+VA+22191&hl=en"
NOVA COMMUNITY COLLEGE POLICE DEPARTMENT,"NOVA COMMUNITY COLLEGE - ANNANDALE 
												
													CA BUILDING FRONT ENTRANCE",8333 LITTLE RIVER TURNPIKE,ANNANDALE,VA,22003,"http://maps.google.com/maps?q=8333 LITTLE RIVER TURNPIKE,+ANNANDALE,+VA+22003&hl=en"
ORANGE (TOWN OF) POLICE DEPARTMENT,"CVS PHARMACY 
												
													FRONT SIDEWALK",308 RADNEY ROAD,ORANGE,VA,22960,"http://maps.google.com/maps?q=308 RADNEY ROAD,+ORANGE,+VA+22960&hl=en"
ORANGE (TOWN OF) POLICE DEPARTMENT,"ORANGE PHARMACY 
												
													FRONT SIDEWALK",130 WEST MAIN STREET,ORANGE,VA,22960,"http://maps.google.com/maps?q=130 WEST MAIN STREET,+ORANGE,+VA+22960&hl=en"
PA STATE POLICE TROOP H/GETTYSBURG,PA STATE POLICE/TROOP H/GETTYSBURG,3033 OLD HARRISBURG RD,GETTYSBURG,PA,17325,"http://maps.google.com/maps?q=3033 OLD HARRISBURG RD,+GETTYSBURG,+PA+17325&hl=en"
PRINCE GEORGE'S COUNTY POLICE DEPARTMENT,"CENTRAL COLLECTION SITE 
												
													DISTRICT III, PGPD",7600 BARLOWE ROAD,PALMER PARK,MD,20785,"http://maps.google.com/maps?q=7600 BARLOWE ROAD,+PALMER PARK,+MD+20785&hl=en"
PRINCE GEORGE'S COUNTY POLICE DEPARTMENT,DISTRICT 4 STATION - OXON HILL,5135 INDIAN HEAD HIGHWAY,OXON HILL,MD,20745,"http://maps.google.com/maps?q=5135 INDIAN HEAD HIGHWAY,+OXON HILL,+MD+20745&hl=en"
PRINCE GEORGE'S COUNTY POLICE DEPARTMENT,"NORTHERN COLLECTION SITE 
												
													DISTRICT I, PGPD",5000 RHODE ISLAND AVENUE,HYATTSVILLE,MD,20784,"http://maps.google.com/maps?q=5000 RHODE ISLAND AVENUE,+HYATTSVILLE,+MD+20784&hl=en"
PRINCE WILLIAM  CO. PD,"NOVANT HEALTH  HAYMARKET MEDICAL CENTER 
												
													FRONT PARKING LOT",15225 HEATHCOTE BLVD,HAYMARKET,VA,20169,"http://maps.google.com/maps?q=15225 HEATHCOTE BLVD,+HAYMARKET,+VA+20169&hl=en"
PRINCE WILLIAM  CO. PD,"SENTARA LAKE RIDGE HOSPITAL 
												
													FRONT PARKING LOT",12825 MINNIEVILLE ROAD,LAKE RIDGE,VA,22192,"http://maps.google.com/maps?q=12825 MINNIEVILLE ROAD,+LAKE RIDGE,+VA+22192&hl=en"
RANSON POLICE DEPARTMENT,RANSON POLICE DEPARTMENT,700 N. PRESTON ST,RANSON,WV,25438,"http://maps.google.com/maps?q=700 N. PRESTON ST,+RANSON,+WV+25438&hl=en"
ROCKVILLE CITY POLICE DEPARTMENT,ROCKVILLE CITY POLICE DEPARTMENT,#2 W. MONTGOMERY AVENUE,ROCKVILLE,MD,20850,"http://maps.google.com/maps?q=#2 W. MONTGOMERY AVENUE,+ROCKVILLE,+MD+20850&hl=en"
SHENANDOAH COUNTY SHERIFF'S OFFICE,"CVS PHARMACY 
												
													PARKING LOT FACING RESERVOIR RD.",221 WEST RESERVOIR ROAD,WOODSTOCK,VA,22664,"http://maps.google.com/maps?q=221 WEST RESERVOIR ROAD,+WOODSTOCK,+VA+22664&hl=en"
SHEPERDSTOWN POLICE DEPARTMENT,SHEPERDSTOWN POLICE DEPARTMENT,104 N. KING ST.,SHEPHERDSTOWN,WV,25443,"http://maps.google.com/maps?q=104 N. KING ST.,+SHEPHERDSTOWN,+WV+25443&hl=en"
SPOTSYLVANIA COUNTY SHERIFF'S OFFICE,"CHANCELLOR VOL. FIRE AND RESCUE 
												
													OLD ENGINE COMPANY 5",5992 PLANK ROAD,FREDERICKSBURG,VA,22407,"http://maps.google.com/maps?q=5992 PLANK ROAD,+FREDERICKSBURG,+VA+22407&hl=en"
SPOTSYLVANIA COUNTY SHERIFF'S OFFICE,"CVS COURTLAND COMMONS 
												
													PARKING LOT",9767 COURTHOUSE ROAD,SPOTSYLVANIA,VA,22553,"http://maps.google.com/maps?q=9767 COURTHOUSE ROAD,+SPOTSYLVANIA,+VA+22553&hl=en"
SPOTSYLVANIA COUNTY SHERIFF'S OFFICE,"MARY WASHINGTON HEALTHCARE 
												
													EMERGENCY AND OUTPATIENT CENTER - LEES HILL",10401 SPOTSYLVANIA AVENUEUNDER THE AWNING,FREDERICKSBURG,VA,22408,"http://maps.google.com/maps?q=10401 SPOTSYLVANIA AVENUE,+FREDERICKSBURG,+VA+22408&hl=en"
SPOTSYLVANIA COUNTY SHERIFF'S OFFICE,"SPOTSYLVANIA REGIONAL MEDICAL CENTER 
												
													UNDER MAIN ENTRANCE AWNING",4600 SPOTSYLVANIA PARKWAY,FREDERICKSBURG,VA,22408,"http://maps.google.com/maps?q=4600 SPOTSYLVANIA PARKWAY,+FREDERICKSBURG,+VA+22408&hl=en"
ST. MARY'S COUNTY SHERIFF'S OFFICE,"ST. MARY'S SHERIFF'S OFFICE 
												
													DISTRICT ONE STATION",37575 CHARLOTTE HALL SCHOOL ROAD,CHARLOTTE HALL,MD,20622,"http://maps.google.com/maps?q=37575 CHARLOTTE HALL SCHOOL ROAD,+CHARLOTTE HALL,+MD+20622&hl=en"
STAFFORD COUNTY SHERIFF'S OFFICE,"STAFFORD HOSPITAL CENTER 
												
													SOUTH SIDE OF HOSPITAL NEAR ER",101 HOSPITAL CENTER BLVD,STAFFORD,VA,22554,"http://maps.google.com/maps?q=101 HOSPITAL CENTER BLVD,+STAFFORD,+VA+22554&hl=en"
STRASBURG POLICE DEPARTMENT,"STRASBURG TOWN HALL 
												
													SIDE PARKING LOT",174 EAST KING STREET,STRASBURG,VA,22657,"http://maps.google.com/maps?q=174 EAST KING STREET,+STRASBURG,+VA+22657&hl=en"
TAKOMA PARK POLICE DEPARTMENT,"TAKOMA PARK POLICE DEPARTMENT 
												
													LOBBY",7500 MAPLE AVENUE,TAKOMA PARK,MD,20912,"http://maps.google.com/maps?q=7500 MAPLE AVENUE,+TAKOMA PARK,+MD+20912&hl=en"
TOWN OF BATH POLICE DEPARTMENT,"MORGAN COUNTY HEALTH DEPARTMENT 
												
													POC: BILL KEARNS",137 WAR MEMORIAL DR.,BERKELEY SPRINGS,WV,25411,"http://maps.google.com/maps?q=137 WAR MEMORIAL DR.,+BERKELEY SPRINGS,+WV+25411&hl=en"
UNIVERSITY OF MARYLAND BALTIMORE POLICE,SMC CAMPUS CENTER LOBBY,621 W. LOMBARD STREET,BALTIMORE,MD,21201,"http://maps.google.com/maps?q=621 W. LOMBARD STREET,+BALTIMORE,+MD+21201&hl=en"
UNIVERSITY OF MD BALTIMORE COUNTY POLICE,"UMBC POLICE DEPARTMENT 
												
													POLICE STATION","1000 HILLTOP CIRCLE,LOT 8",BALTIMORE,MD,21250,"http://maps.google.com/maps?q=1000 HILLTOP CIRCLE,,+BALTIMORE,+MD+21250&hl=en"
UNIVERSITY OF MD POLICE DEPT OF PUBLIC SAFETY,UNIVERSITY OF MD POLICE DEPT OF PUBLIC SAFETY,7569 BALTIMORE AVENUE,COLLEGE PARK,MD,20742,"http://maps.google.com/maps?q=7569 BALTIMORE AVENUE,+COLLEGE PARK,+MD+20742&hl=en"
VIENNA POLICE DEPARTMENT,VIENNA POLICE DEPARTMENT,215 CENTER STREET SOUTH,VIENNA,VA,22180,"http://maps.google.com/maps?q=215 CENTER STREET SOUTH,+VIENNA,+VA+22180&hl=en"
VIRGINIA STATE POLICE,"VIRGINIA STATE POLICE DIVISION I HQS 
												
													POC: SGT MELANIE MCKENNEY",9300 BROOK ROAD,GLEN ALLEN,VA,23060,"http://maps.google.com/maps?q=9300 BROOK ROAD,+GLEN ALLEN,+VA+23060&hl=en"
VIRGINIA STATE POLICE,"VIRGINIA STATE POLICE DIVISION II HQS 
												
													POC: LT. JEFFREY LANE",15148 STATE POLICE ROAD,CULPEPER,VA,22701,"http://maps.google.com/maps?q=15148 STATE POLICE ROAD,+CULPEPER,+VA+22701&hl=en"
VIRGINIA STATE POLICE,"VIRGINIA STATE POLICE DIVISION VII HQS 
												
													POC: SGT BILL JOYNER",4977 ALLIANCE DRIVE,FAIRFAX,VA,22030,"http://maps.google.com/maps?q=4977 ALLIANCE DRIVE,+FAIRFAX,+VA+22030&hl=en"
WARREN COUNTY SHERIFF'S OFFICE,VALLEY HEALTH REHABILITATION SERVICES,120 NORTH COMMERCE AVE,FRONT ROYAL,VA,22630,"http://maps.google.com/maps?q=120 NORTH COMMERCE AVE,+FRONT ROYAL,+VA+22630&hl=en"
WASHINGTON METROPOLITAN POLICE DEPT,FIFTH POLICE DISTRICT,"1805 BLADENSBURG ROAD, NE",WASHINGTON,DC,20002,"http://maps.google.com/maps?q=1805 BLADENSBURG ROAD, NE,+WASHINGTON,+DC+20002&hl=en"
WASHINGTON METROPOLITAN POLICE DEPT,FIRST POLICE DISTRICT,"101 M STREET, SW",WASHINGTON,DC,20024,"http://maps.google.com/maps?q=101 M STREET, SW,+WASHINGTON,+DC+20024&hl=en"
WASHINGTON METROPOLITAN POLICE DEPT,FOURTH POLICE DISTRICT,"6001 GEORGIA AVENUE, NW",WASHINGTON,DC,20011,"http://maps.google.com/maps?q=6001 GEORGIA AVENUE, NW,+WASHINGTON,+DC+20011&hl=en"
WASHINGTON METROPOLITAN POLICE DEPT,SECOND POLICE DISTRICT,"3320 IDAHO AVENUE, NW",WASHINGTON,DC,20016,"http://maps.google.com/maps?q=3320 IDAHO AVENUE, NW,+WASHINGTON,+DC+20016&hl=en"
WASHINGTON METROPOLITAN POLICE DEPT,SEVENTH POLICE DISTRICT,"2455 ALABAMA AVENUE, SE",WASHINGTON,DC,20020,"http://maps.google.com/maps?q=2455 ALABAMA AVENUE, SE,+WASHINGTON,+DC+20020&hl=en"
WASHINGTON METROPOLITAN POLICE DEPT,SIXTH POLICE DISTRICT,5002 HAYES STREET NE,WASHINGTON,DC,20019,"http://maps.google.com/maps?q=5002 HAYES STREET NE,+WASHINGTON,+DC+20019&hl=en"
WASHINGTON METROPOLITAN POLICE DEPT,THIRD POLICE DISTRIST,"1620 V STREET, NW",WASHINGTON,DC,20009,"http://maps.google.com/maps?q=1620 V STREET, NW,+WASHINGTON,+DC+20009&hl=en"
WASHINGTON SUBURBAN SANITARY COMMISSION,WSSC POLICE DEPARTMENT,14501 SWEITZER LANE,LAUREL,MD,20707,"http://maps.google.com/maps?q=14501 SWEITZER LANE,+LAUREL,+MD+20707&hl=en"
WEST VIRGINIA STATE POLICE,"WEST VIRGINIA STATE POLICE 
												
													SGT J.R FLETCHER/3048223561",525 DEPOT STREET,ROMNEY,WV,26757,"http://maps.google.com/maps?q=525 DEPOT STREET,+ROMNEY,+WV+26757&hl=en"
WEST VIRGINIA STATE POLICE,"WVSP-CHARLES TOWN 
												
													SGT J.S. CHUMLEY/304-725-9779",409 INDUSTRIAL BLVD.,KEARNEYSVILLE,WV,25430,"http://maps.google.com/maps?q=409 INDUSTRIAL BLVD.,+KEARNEYSVILLE,+WV+25430&hl=en"
WEST VIRGINIA STATE POLICE,"WVSP-MARTINSBURG 
												
													SGT M.A. COLE/3042670001",14 TROOPER DR,MARTINSBURG,WV,25404,"http://maps.google.com/maps?q=14 TROOPER DR,+MARTINSBURG,+WV+25404&hl=en"
WINCHESTER CITY SHERIFF'S OFFICE,COURTHOUSE,5 NORTH KENT ST,WINCHESTER,VA,22601,"http://maps.google.com/maps?q=5 NORTH KENT ST,+WINCHESTER,+VA+22601&hl=en"
WINCHESTER CITY SHERIFF'S OFFICE,CVS PHARMACY,840 BERRYVILLE AV,WINCHESTER,VA,22601,"http://maps.google.com/maps?q=840 BERRYVILLE AV,+WINCHESTER,+VA+22601&hl=en"
WINCHESTER CITY SHERIFF'S OFFICE,ROTZ PHARMACY,1338 AMHERST ST,WINCHESTER,VA,22601,"http://maps.google.com/maps?q=1338 AMHERST ST,+WINCHESTER,+VA+22601&hl=en"
WOODSTOCK POLICE DEPARTMENT,"WALMART 
												
													NEAR FRONT ENTRANCE",461 W. RESERVOIR RD,WOODSTOCK,VA,22664,"http://maps.google.com/maps?q=461 W. RESERVOIR RD,+WOODSTOCK,+VA+22664&hl=en"
