Participant,CollectionSite,Address,City,State,Zip,MapURL
ALBUQUERQUE POLICE DEPARTMENT,APD CRIME LAB,5350 2ND STREET NW,ALBUQUERQUE,NM,87107,"http://maps.google.com/maps?q=5350 2ND STREET NW,+ALBUQUERQUE,+NM+87107&hl=en"
ANTHONY POLICE DEPARTMENT,ANTHONY PD,401 WILDCAT DRIVE,ANTHONY,TX,79821,"http://maps.google.com/maps?q=401 WILDCAT DRIVE,+ANTHONY,+TX+79821&hl=en"
ARMY NATIONAL GUARD,NM ARMY NG READINESS CENTER,600 WYOMING BLVD,ALBUQUERQUE,NM,87123,"http://maps.google.com/maps?q=600 WYOMING BLVD,+ALBUQUERQUE,+NM+87123&hl=en"
ARTESIA POLICE DEPARTMENT,ARTESIA PD ARTESIA PUBLIC LIBRARY,205 W QUAY,ARTESIA,NM,88210,"http://maps.google.com/maps?q=205 W QUAY,+ARTESIA,+NM+88210&hl=en"
BELEN POLICE DEPARTMENT,BELEN POLICE DEPARTMENT,607 BECKER AVENUE,BELEN,NM,87002,"http://maps.google.com/maps?q=607 BECKER AVENUE,+BELEN,+NM+87002&hl=en"
BERNALILLO COUNTY SHERIFF'S DEPARTMENT,BERNALILLO COUNTY SHERIFF'S DEPARTMENT EAST AREA COMMAND CENTER,48 PUBLIC SCHOOL ROAD,TIJERAS,NM,87059,"http://maps.google.com/maps?q=48 PUBLIC SCHOOL ROAD,+TIJERAS,+NM+87059&hl=en"
BERNALILLO COUNTY SHERIFF'S DEPARTMENT,BERNALILLO COUNTY SHERIFF'S DEPARTMENT NORTH AREA COMMAND CENTER,6900 4TH STREET NW,ALBUQUERQUE,NM,87105,"http://maps.google.com/maps?q=6900 4TH STREET NW,+ALBUQUERQUE,+NM+87105&hl=en"
BERNALILLO COUNTY SHERIFF'S DEPARTMENT,BERNALILLO COUNTY SHERIFF'S DEPARTMENT SOUTH AREA COMMAND CENTER,2039 ISLETA SW,ALBUQUERQUE,NM,87105,"http://maps.google.com/maps?q=2039 ISLETA SW,+ALBUQUERQUE,+NM+87105&hl=en"
BUREAU OF INDIAN AFFAIRS BIA,COCHITI PUEBLO,255 COCHITI STREET,COCHITI PUEBLO,NM,87072,"http://maps.google.com/maps?q=255 COCHITI STREET,+COCHITI PUEBLO,+NM+87072&hl=en"
BUREAU OF INDIAN AFFAIRS BIA,SAN FELIPE PUEBLO,127 HAGAN RD,ALGODONES,NM,87001,"http://maps.google.com/maps?q=127 HAGAN RD,+ALGODONES,+NM+87001&hl=en"
BUREAU OF INDIAN AFFAIRS BIA,SANTO DOMINGO PUEBLO,SANTO DOMINGO,SANTO DOMINGO PUEBLO,NM,87052,"http://maps.google.com/maps?q=SANTO DOMINGO,+SANTO DOMINGO PUEBLO,+NM+87052&hl=en"
BUREAU OF INDIAN AFFAIRS BIA,ZIA PUEBLO,135 CAPITOL SQUARE DR.,SAN YSIDRO,NM,87053,"http://maps.google.com/maps?q=135 CAPITOL SQUARE DR.,+SAN YSIDRO,+NM+87053&hl=en"
CARLSBAD PD,CARLSBAD PD,500 E. CHURCH,CARLSBAD,NM,88220,"http://maps.google.com/maps?q=500 E. CHURCH,+CARLSBAD,+NM+88220&hl=en"
CITY OF ANTHONY POLICE DEPARTMENT,CITY OF ANTHONY POLICE DEPARTMENT,820 HIGHWAY 478,ANTHONY,NM,88021,"http://maps.google.com/maps?q=820 HIGHWAY 478,+ANTHONY,+NM+88021&hl=en"
DEA ALPINE,JEFF DAVIS COUNTY SO,105 COURT STREET,FORT DAVIS,TX,79734,"http://maps.google.com/maps?q=105 COURT STREET,+FORT DAVIS,+TX+79734&hl=en"
DEA EL PASO DIVISION,CHAPIN HIGH SCHOOL PARKING LOT IN FRONT OF FINE ARTS BUILDING NEXT TO FLAG POLE,7000 DYER STREET,EL PASO,TX,79904,"http://maps.google.com/maps?q=7000 DYER STREET,+EL PASO,+TX+79904&hl=en"
DEA EL PASO DIVISION,EL PASO WATER UTILITIES,1154 HAWKINS BLVD,EL PASO,TX,79925,"http://maps.google.com/maps?q=1154 HAWKINS BLVD,+EL PASO,+TX+79925&hl=en"
DEA EL PASO DIVISION,EL PASO WATER UTILITIES,4100 DELTA DR.,EL PASO,TX,79905,"http://maps.google.com/maps?q=4100 DELTA DR.,+EL PASO,+TX+79905&hl=en"
DEA EL PASO DIVISION,ENVIRONMENTAL SERVICES,7968 SAN PAULO DR.,EL PASO,TX,79907,"http://maps.google.com/maps?q=7968 SAN PAULO DR.,+EL PASO,+TX+79907&hl=en"
DEA EL PASO DIVISION,FEDERAL JUSTICE CENTER,660 S. MESA HILLS DR,EL PASO,TX,79912,"http://maps.google.com/maps?q=660 S. MESA HILLS DR,+EL PASO,+TX+79912&hl=en"
DEA EL PASO DIVISION,FRANKLIN HIGH SCHOOL PARKING LOT IN FRONT OF SCHOOL,900 NORTH RESLER DR,EL PASO,TX,79912,"http://maps.google.com/maps?q=900 NORTH RESLER DR,+EL PASO,+TX+79912&hl=en"
DEA LAS CRUCES,BRANIGAN LIBRARY,200 E. PICACHO AVENUE,LAS CRUCES,NM,88001,"http://maps.google.com/maps?q=200 E. PICACHO AVENUE,+LAS CRUCES,+NM+88001&hl=en"
DEA LAS CRUCES,DUBLIN'S,1745 E UNIVERSITY AVE,LAS CRUCES,NM,88001,"http://maps.google.com/maps?q=1745 E UNIVERSITY AVE,+LAS CRUCES,+NM+88001&hl=en"
DEA LAS CRUCES,MESILLA TOWN MUNICIPAL COURT BLDG TOWN OF MESILLA,2231 AVENIDA DE MESILLA,MESILLA,NM,88046,"http://maps.google.com/maps?q=2231 AVENIDA DE MESILLA,+MESILLA,+NM+88046&hl=en"
DEA MIDLAND,PALMER DRUG ABUSE PROGRAM POLO PARK RETIREMENT CENTER,2100 CASTLEFORD RD.,MIDLAND,TX,79705,"http://maps.google.com/maps?q=2100 CASTLEFORD RD.,+MIDLAND,+TX+79705&hl=en"
DEA MIDLAND,PERMIAN BASIN REGIONAL COUNCIL (PBRCADA) LINCOLN TOWER RETIREMENT CENTER,311 W 4TH STREET,ODESSA,TX,79761,"http://maps.google.com/maps?q=311 W 4TH STREET,+ODESSA,+TX+79761&hl=en"
DOA ANA COUNTY SHERIFF'S OFFICE,ALBERTSONS,2551 E. LOHMAN AVE.,LAS CRUCES,NM,88011,"http://maps.google.com/maps?q=2551 E. LOHMAN AVE.,+LAS CRUCES,+NM+88011&hl=en"
DOA ANA COUNTY SHERIFF'S OFFICE,SAM'S CLUB,2711 N TELSHOR BLVD,LAS CRUCES,NM,88011,"http://maps.google.com/maps?q=2711 N TELSHOR BLVD,+LAS CRUCES,+NM+88011&hl=en"
DOA ANA COUNTY SHERIFF'S OFFICE,WALMART,1550 S. VALLEY DRIVE,LAS CRUCES,NM,88005,"http://maps.google.com/maps?q=1550 S. VALLEY DRIVE,+LAS CRUCES,+NM+88005&hl=en"
DONA ANA COUNTY SHERRIF'S,STIRES SUPER MARKET,304 MCCOMBS ROAD,CHAPARRAL,NM,88081,"http://maps.google.com/maps?q=304 MCCOMBS ROAD,+CHAPARRAL,+NM+88081&hl=en"
EDGEWOOD POLICE DEPARTMENT,SMITHS,22B STATE ROAD 44,EDGEWOOD,NM,87015,"http://maps.google.com/maps?q=22B STATE ROAD 44,+EDGEWOOD,+NM+87015&hl=en"
EL PASO COUNTY SHERIFF'S OFFICE,CLINT STATION,190 SAN ELIZARIO RD,CLINT,TX,79836,"http://maps.google.com/maps?q=190 SAN ELIZARIO RD,+CLINT,+TX+79836&hl=en"
EL PASO COUNTY SHERIFF'S OFFICE,MONTANA PATROL STATION,12501 MONTANA,EL PASO,TX,79936,"http://maps.google.com/maps?q=12501 MONTANA,+EL PASO,+TX+79936&hl=en"
EL PASO COUNTY SHERIFF'S OFFICE,NORTHWEST PATROL STATION,435 E. VINTON SUITE D,ANTHONY,TX,79821,"http://maps.google.com/maps?q=435 E. VINTON SUITE D,+ANTHONY,+TX+79821&hl=en"
EL PASO POLICE DEPT,EL PASO POLICE HEADQUARTERS,911 NORTH RAYNOR STREET,EL PASO,TX,79903,"http://maps.google.com/maps?q=911 NORTH RAYNOR STREET,+EL PASO,+TX+79903&hl=en"
EL PASO POLICE DEPT,MISSION VALLEY REGIONAL COMMAND,9011 ESCOBAR DR.,EL PASO,TX,79907,"http://maps.google.com/maps?q=9011 ESCOBAR DR.,+EL PASO,+TX+79907&hl=en"
EL PASO POLICE DEPT,NORTHEAST REGIONAL COMMAND CENTER,9600 DYER STREET,EL PASO,TX,79924,"http://maps.google.com/maps?q=9600 DYER STREET,+EL PASO,+TX+79924&hl=en"
EL PASO POLICE DEPT,PEBBLE HILLS REGIONAL COMMAND CENTER,10780 PEBBLE HILLS,EL PASO,TX,79935,"http://maps.google.com/maps?q=10780 PEBBLE HILLS,+EL PASO,+TX+79935&hl=en"
EL PASO POLICE DEPT,WESTSIDE REGIONAL COMMAND CENTER,4801 OSBORNE DR.,EL PASO,TX,79922,"http://maps.google.com/maps?q=4801 OSBORNE DR.,+EL PASO,+TX+79922&hl=en"
ESTANCIA POLICE DEPT,ESTANCIA POLICE DEPT,1000 HIGHLAND RD,ESTANCIA,NM,87016,"http://maps.google.com/maps?q=1000 HIGHLAND RD,+ESTANCIA,+NM+87016&hl=en"
FLORENCE POLICE DEPARTMENT,FLORENCE POLICE DEPARTMENT LT. SHANE PRICKETT,600 WEST 3RD STREET,FLORENCE,CO,81226,"http://maps.google.com/maps?q=600 WEST 3RD STREET,+FLORENCE,+CO+81226&hl=en"
HATCH POLICE DEPARTMENT,HATCH POLICE DEPARTMENT,#5 CHILE CAPITAL LANE,HATCH,NM,87937,"http://maps.google.com/maps?q=#5 CHILE CAPITAL LANE,+HATCH,+NM+87937&hl=en"
HOBBS POLICE DEPARTMENT,WALGREENS PARKING LOT,1401 N TURNER,HOBBS,NM,88240,"http://maps.google.com/maps?q=1401 N TURNER,+HOBBS,+NM+88240&hl=en"
HOBBS POLICE DEPARTMENT,WALGREENS PARKING LOT,801 W JOE HARVEY,HOBBS,NM,88240,"http://maps.google.com/maps?q=801 W JOE HARVEY,+HOBBS,+NM+88240&hl=en"
HOLLOMAN AFB 49TH SECURITY FORCES SQUADRON,BUILDING #33/SHOPPETTE,733 FIRST STREET,HOLLOMAN AIR FORCE BASE,NM,88330,"http://maps.google.com/maps?q=733 FIRST STREET,+HOLLOMAN AIR FORCE BASE,+NM+88330&hl=en"
HOLLOMAN AFB 49TH SECURITY FORCES SQUADRON,HOLLOMAN AFB BASE EXCHANGE,"551 4TH STREET, BUILDING 227",HOLLOMAN AFB,NM,88330,"http://maps.google.com/maps?q=551 4TH STREET, BUILDING 227,+HOLLOMAN AFB,+NM+88330&hl=en"
HORIZON POLICE DEPARTMENT,HORIZON POLICE DEPARTMENT,14999 DARRINGTON RD.,HORIZON CITY,TX,79928,"http://maps.google.com/maps?q=14999 DARRINGTON RD.,+HORIZON CITY,+TX+79928&hl=en"
ISLETA TRIBAL POLICE DEPARTMENT,ISLETA RECREATION CENTER,60 TRIBAL ROAD 60,ISLETA,NM,87022,"http://maps.google.com/maps?q=60 TRIBAL ROAD 60,+ISLETA,+NM+87022&hl=en"
ISLETA TRIBAL POLICE DEPARTMENT,ISLETA TRIBAL COMPLEX,3950 HWY 47,ALBUQUERQUE,NM,87106,"http://maps.google.com/maps?q=3950 HWY 47,+ALBUQUERQUE,+NM+87106&hl=en"
KIRTLAND AFB SECURITY FORCES SQUADRON,377TH MEDICAL GROUP LOBBY BUILDING #47,1501 SAN PEDRO SE,ALBUQUERQUE,NM,87108,"http://maps.google.com/maps?q=1501 SAN PEDRO SE,+ALBUQUERQUE,+NM+87108&hl=en"
KIRTLAND AFB SECURITY FORCES SQUADRON,KIRTLAND AFB BASE EXCHANGE,"7901 GIBSON BLVD SE, BLDG 20176",KIRTLAND AFB,NM,87117,"http://maps.google.com/maps?q=7901 GIBSON BLVD SE, BLDG 20176,+KIRTLAND AFB,+NM+87117&hl=en"
KIRTLAND AFB SECURITY FORCES SQUADRON,KIRTLAND AIR FORCE BASE COMMISSARY,"7801 GIBSON BLVD SE, BLDG 20180",ALBUQUERQUE,NM,87117,"http://maps.google.com/maps?q=7801 GIBSON BLVD SE, BLDG 20180,+ALBUQUERQUE,+NM+87117&hl=en"
KIRTLAND AFB SECURITY FORCES SQUADRON,KIRTLAND AIR FORCE BASE EXCHANGE,8001 GIBSON BLVD SE,ALBUQUERQUE,NM,87117,"http://maps.google.com/maps?q=8001 GIBSON BLVD SE,+ALBUQUERQUE,+NM+87117&hl=en"
LAGUNA POLICE DEPARTMENT,LAGUNA POLICE DEPARTMENT,"1 INDUSTRIAL PARKWAY LOOP, MESITA VILLAGE",LAGUNA,NM,87026,"http://maps.google.com/maps?q=1 INDUSTRIAL PARKWAY  LOOP, MESITA VILLAGE,+LAGUNA,+NM+87026&hl=en"
LAMAR POLICE DEPARTMENT,LAMAR CITY COMPLEX BUILDING FRONT OF BLDG.,505 SOUTH MAIN ST.,LAMAR,CO,81052,"http://maps.google.com/maps?q=505 SOUTH MAIN ST.,+LAMAR,+CO+81052&hl=en"
LAS CRUCES POLICE DEPARTMENT,ELKS LODGE,3000 ELKS DRIVE,LAS CRUCES,NM,88005,"http://maps.google.com/maps?q=3000 ELKS DRIVE,+LAS CRUCES,+NM+88005&hl=en"
LAS CRUCES POLICE DEPARTMENT,WALMART NEIGHBORHOOD MARKET,150 N SONOMA RANCH BLVD,LAS CRUCES,NM,88011,"http://maps.google.com/maps?q=150 N SONOMA RANCH BLVD,+LAS CRUCES,+NM+88011&hl=en"
LAS CRUCES POLICE DEPARTMENT,WALMART SUPERCENTER,3331 RINCONADA BLVD,LAS CRUCES,NM,88011,"http://maps.google.com/maps?q=3331 RINCONADA BLVD,+LAS CRUCES,+NM+88011&hl=en"
LEVELLAND PD,SOUTH PLAINS RURAL HEALTH PARKING LOT,1000 FM 300,LEVELLAND,TX,79336,"http://maps.google.com/maps?q=1000 FM 300,+LEVELLAND,+TX+79336&hl=en"
LOS ALAMOS POLICE DEPARTMENT,LOS ALAMOS PD,2500 TRINITY DR,LOS ALAMOS,NM,87544,"http://maps.google.com/maps?q=2500 TRINITY DR,+LOS ALAMOS,+NM+87544&hl=en"
LOS LUNAS POLICE DEPARTMENT,LOS LUNAS POLICE DEPARTMENT,660 MAIN ST NW,LOS LUNAS,NM,87031,"http://maps.google.com/maps?q=660 MAIN ST NW,+LOS LUNAS,+NM+87031&hl=en"
MORTON COUNTY LAW ENFORCEMENT CENTER,MORTON COUNTY LAW ENFORCEMENT CENTER,1026 RICHARD STREET,ELKHART,KS,67950,"http://maps.google.com/maps?q=1026 RICHARD STREET,+ELKHART,+KS+67950&hl=en"
NEW MEXICO BOARD OF PHARMACY,WALGREENS,2011 12TH ST NW,ALBUQUERQUE,NM,87104,"http://maps.google.com/maps?q=2011 12TH ST NW,+ALBUQUERQUE,+NM+87104&hl=en"
NEW MEXICO BOARD OF PHARMACY,WALGREENS,4051 SOUTHERN BLVD SE,RIO RANCHO,NM,87124,"http://maps.google.com/maps?q=4051 SOUTHERN BLVD SE,+RIO RANCHO,+NM+87124&hl=en"
NEW MEXICO BOARD OF PHARMACY,WALGREENS,8400 MONTGOMERY NE,ALBUQUERQUE,NM,87112,"http://maps.google.com/maps?q=8400 MONTGOMERY NE,+ALBUQUERQUE,+NM+87112&hl=en"
NEW MEXICO HIGHLANDS UNIVERSITY,NEW MEXICO HIGHLANDS UNIVERSITY,1103 NATIONAL AVENUE,LAS VEGAS,NM,87701,"http://maps.google.com/maps?q=1103 NATIONAL AVENUE,+LAS VEGAS,+NM+87701&hl=en"
NEW MEXICO STATE POLICE- LAS CRUCES,STATE POLICE BUILDING,4055 SONOMA RANCH BLVD,LAS CRUCES,NM,88011,"http://maps.google.com/maps?q=4055 SONOMA RANCH BLVD,+LAS CRUCES,+NM+88011&hl=en"
NM OFFICE OF THE ATTORNEY GENERAL,ALBUQUERQUE CIVIC PLAZA,401 2ND ST,ALBUQUERQUE,NM,87102,"http://maps.google.com/maps?q=401 2ND ST,+ALBUQUERQUE,+NM+87102&hl=en"
NM RURALWATER ASSOC,PENA BLANCA WATER & SANITATION DIVISION,827 HIGHWAY 22,PENA BLANCA,NM,87041,"http://maps.google.com/maps?q=827 HIGHWAY 22,+PENA BLANCA,+NM+87041&hl=en"
NMSU,NMSU,CORBETT CENTER STUDENT UNION,LAS CRUCES,NM,88003,"http://maps.google.com/maps?q=CORBETT CENTER STUDENT UNION,+LAS CRUCES,+NM+88003&hl=en"
POJOAQUE PUEBLO,POJOAQUE PUEBLO PD,58 CITIES OF GOLD RD,SANTA FE,NM,87506,"http://maps.google.com/maps?q=58 CITIES OF GOLD RD,+SANTA FE,+NM+87506&hl=en"
POTTER COUNTY SO,POTTER COUNTY SHERIFF'S OFFICE,608 S. PIERCE,AMARILLO,TX,79101,"http://maps.google.com/maps?q=608 S. PIERCE,+AMARILLO,+TX+79101&hl=en"
PUEBLO OF JEMEZ POLICE,PUEBLO OF JEMEZ POLICE,011 BEARHEAD CANYON RD,JEMEZ PUEBLO,NM,87024,"http://maps.google.com/maps?q=011 BEARHEAD CANYON RD,+JEMEZ PUEBLO,+NM+87024&hl=en"
PUEBLO POLICE DEPARTMENT,PUEBLO POLICE DEPARTMENT PARKING LOT,200 SOUTH MAIN ST.,PUEBLO,CO,81003,"http://maps.google.com/maps?q=200 SOUTH MAIN ST.,+PUEBLO,+CO+81003&hl=en"
PUEBLO SHERIFF'S OFFICE,PUEBLO COUNTY SHERIFF OFFICE WEST SUB STATION,320 JOE MARTINEZ BLVD,PUEBLO,CO,81003,"http://maps.google.com/maps?q=320 JOE MARTINEZ BLVD,+PUEBLO,+CO+81003&hl=en"
PUEBLO SHERIFF'S OFFICE,PUEBLO RURAL FIRE DEPARTMENT,29912 HIGHWAY 50 EAST,PUEBLO,CO,81001,"http://maps.google.com/maps?q=29912 HIGHWAY 50 EAST,+PUEBLO,+CO+81001&hl=en"
PUEBLO SHERIFF'S OFFICE,SOUTH COUNTY FIRE STATION,4495 BENT BROTHERS,PUEBLO,CO,81003,"http://maps.google.com/maps?q=4495 BENT BROTHERS,+PUEBLO,+CO+81003&hl=en"
RANDALL COUNTY SO,RANDALL COUNTY SO,9100 S. GEORGIA,AMARILLO,TX,79118,"http://maps.google.com/maps?q=9100 S. GEORGIA,+AMARILLO,+TX+79118&hl=en"
REEVES COUNTY SHERIFF'S OFFICE,REEVES COUNTY SO,1903 SOUTH CEDAR,PECOS,TX,79772,"http://maps.google.com/maps?q=1903 SOUTH CEDAR,+PECOS,+TX+79772&hl=en"
RIO ARRIBA SHERIFF'S OFFICE / RACSTOP,RIO ARRIBA SHERIFF'S OFFICE,1122 INDUSTRIAL PARK ROAD,ESPANOLA,NM,87532,"http://maps.google.com/maps?q=1122 INDUSTRIAL PARK ROAD,+ESPANOLA,+NM+87532&hl=en"
RIO RANCHO POLICE DEPARTMENT,RIO RANCHO POLICE DEPARTMENT HEADQUARTERS,500 QUANTUM ROAD,RIO RANCHO,NM,87124,"http://maps.google.com/maps?q=500 QUANTUM ROAD,+RIO RANCHO,+NM+87124&hl=en"
ROSWELL POLICE DEPT,NEIGHBORHOOD WATCH OFFICES,128 WEST 2ND ST,ROSWELL,NM,88201,"http://maps.google.com/maps?q=128 WEST 2ND ST,+ROSWELL,+NM+88201&hl=en"
RUIDOSO POLICE DEPARTMENT,RUIDOSO POLICE DEPARTMENT,1085 MECHEM DRIVE,RUIDOSO,NM,88345,"http://maps.google.com/maps?q=1085 MECHEM DRIVE,+RUIDOSO,+NM+88345&hl=en"
SANDIA PUEBLO POLICE DEPT,SANDIA PUEBL POLICE DEPT BEHIND PHILLIPS 66 GAS STATION,1660 ROY ROAD,ALBUQUERQUE,NM,87113,"http://maps.google.com/maps?q=1660 ROY ROAD,+ALBUQUERQUE,+NM+87113&hl=en"
SANDOVAL COUNTY SHERIFF'S OFFICE,SANDOVAL COUNTY JUDICIAL COMPLEX,1500 IDALIA ROAD,BERNALILLO,NM,87004,"http://maps.google.com/maps?q=1500 IDALIA ROAD,+BERNALILLO,+NM+87004&hl=en"
SANTA FE COUNTY SHERIFF'S OFFICE,AGORA PHARMACY/SHOPPING CENTER,7 AVENIDA VISTA GRANDE,SANTA FE,NM,87508,"http://maps.google.com/maps?q=7 AVENIDA VISTA GRANDE,+SANTA FE,+NM+87508&hl=en"
SANTA FE COUNTY SHERIFF'S OFFICE,RANCHO VIEJO VILLAGE MARKET,55 CANADA DEL RANCHO,SANTA FE,NM,87508,"http://maps.google.com/maps?q=55 CANADA DEL RANCHO,+SANTA FE,+NM+87508&hl=en"
SANTA FE POLICE DEPARTMENT,FIRE STATION 1 COLLECTION SITE 2,200 MURLALES ROAD,SANTA FE,NM,87501,"http://maps.google.com/maps?q=200 MURLALES ROAD,+SANTA FE,+NM+87501&hl=en"
SANTA FE POLICE DEPARTMENT,POLICE STATION COLLECTION SITE 1,2515 CAMINO ENTRADA,SANTA FE,NM,87507,"http://maps.google.com/maps?q=2515 CAMINO ENTRADA,+SANTA FE,+NM+87507&hl=en"
SANTA ROSA PD,SANTA ROSA PD,244 S 4TH ST,SANTA ROSA,NM,88435,"http://maps.google.com/maps?q=244 S 4TH ST,+SANTA ROSA,+NM+88435&hl=en"
SOCORRO POLICE DEPARTMENT,SOCORRO POLICE DEPARTMENT,407 CENTER ST,SOCORRO,NM,87801,"http://maps.google.com/maps?q=407 CENTER ST,+SOCORRO,+NM+87801&hl=en"
SOCORRO POLICE DEPARTMENT,SOCORRO POLICE DEPARTMENT,670 POONA ROAD,SOCORRO,TX,79927,"http://maps.google.com/maps?q=670 POONA ROAD,+SOCORRO,+TX+79927&hl=en"
SUNLAND PARK POLCE DEPARTMENT,SUNLAND PARK POLICE DEPARTMENT,1000 MCNUTT ROAD,SUNLAND PARK,NM,88063,"http://maps.google.com/maps?q=1000 MCNUTT ROAD,+SUNLAND PARK,+NM+88063&hl=en"
TAOS POLICE DEPARTMENT,TAOS POLICE DEPARTMENT ONLY COLLECTING SEPT 22-26 DURING BUSINESS HOURS,400 CAMINO DE LA PLACITA,TAOS,NM,87571,"http://maps.google.com/maps?q=400 CAMINO DE LA PLACITA,+TAOS,+NM+87571&hl=en"
TAOS PUEBLO DEPT. OF PUBLIC SAFETY,TAOS PUEBLO DEPARTMENT OF PUBLIC SAFETY COLLECTING THE 20TH AND 27TH,205 RIO LUCERO ROAD,TAOS,NM,87571,"http://maps.google.com/maps?q=205 RIO LUCERO ROAD,+TAOS,+NM+87571&hl=en"
TEXAS DEPARTMENT OF PUBLIC SAFETY,TEXAS DPS,11612 SCOTT SIMPSON,EL PASO,TX,79936,"http://maps.google.com/maps?q=11612 SCOTT SIMPSON,+EL PASO,+TX+79936&hl=en"
TOWN OF BERNALILLO PD,TOWN OF BERNALILLO PD,729 CAMINO DEL PUEBLO,BERNALILLO,NM,87004,"http://maps.google.com/maps?q=729 CAMINO DEL PUEBLO,+BERNALILLO,+NM+87004&hl=en"
TRUTH OR CONSEQUENCES POLICE DEPT,T OR C POLICE DEPARTMENT,507 MCADOO,TRUTH OR CONSEQUENCES,NM,87901,"http://maps.google.com/maps?q=507 MCADOO,+TRUTH OR CONSEQUENCES,+NM+87901&hl=en"
"UNIVERSITY OF TEXAS AT EL PASO, UNIVERSITY POLICE",UTEP - CAMPBELL BUILDING,1101 N. CAMPBELL STREET,EL PASO,TX,79902,"http://maps.google.com/maps?q=1101 N. CAMPBELL STREET,+EL PASO,+TX+79902&hl=en"
VILLAGE OF QUESTA POLICE DEPARTMENT,QUESTA POLICE DEPARTMENT,2500 SR 522,QUESTA,NM,87556,"http://maps.google.com/maps?q=2500 SR 522,+QUESTA,+NM+87556&hl=en"
WAYLAND BAPTIST UNIVERSITY POLICE DEPARTMENT,HARRAL AUDITORIUM,700 UTICA STREET,PLAINVIEW,TX,79072,"http://maps.google.com/maps?q=700 UTICA STREET,+PLAINVIEW,+TX+79072&hl=en"
WEST TEXAS POISON CONTROL,BOWLING FAMILY YMCA,5509 WILL RUTH,EL PASO,TX,79924,"http://maps.google.com/maps?q=5509 WILL RUTH,+EL PASO,+TX+79924&hl=en"
WEST TEXAS POISON CONTROL,CATHOLIC COMMUNITY OF CORPUS CHRISTI,9205 N. LOOP DR.,EL PASO,TX,79907,"http://maps.google.com/maps?q=9205 N. LOOP DR.,+EL PASO,+TX+79907&hl=en"
WEST TEXAS POISON CONTROL,EMPLOYEE PARKING GARAGE WEST TEXAS POISON CONTROL,4625 ALBERTA AVE,EL PASO,TX,79905,"http://maps.google.com/maps?q=4625 ALBERTA AVE,+EL PASO,+TX+79905&hl=en"
WEST TEXAS POISON CONTROL,LOYA FAMILY YMCA,2044 TRAWOOD DRIVE,EL PASO,TX,79935,"http://maps.google.com/maps?q=2044 TRAWOOD DRIVE,+EL PASO,+TX+79935&hl=en"
WEST TEXAS POISON CONTROL,WESTSIDE FAMILY YMCA,7145 N. MESA STREET,EL PASO,TX,79912,"http://maps.google.com/maps?q=7145 N. MESA STREET,+EL PASO,+TX+79912&hl=en"
YSLETA DEL SUR PUEBLO TRIBAL PD,YSLETA DEL SUR PUEBLO COMMUNITY HEALTH CENTER,9314 JUANCHIDO LANE,EL PASO,TX,79907,"http://maps.google.com/maps?q=9314 JUANCHIDO LANE,+EL PASO,+TX+79907&hl=en"
