Participant,CollectionSite,Address,City,State,Zip,MapURL
ADAIR COUNTY SHERIFF'S OFFICE,"ADAIR COUNTY SHERIFF'S OFFICE 
												
													TACO BELL (PICK UP IN PARKING LOT)",899 JAMES TOWN STREET,COLUMBIA,KY,42728,"http://maps.google.com/maps?q=899 JAMES TOWN STREET,+COLUMBIA,+KY+42728&hl=en"
ALEXANDRIA POLICE DEPARTMENT,ALEXANDRIA POLICE DEPARTMENT/COMMUNITY CENTER,8236 W. MAIN ST,ALEXANDRIA,KY,41001,"http://maps.google.com/maps?q=8236 W. MAIN ST,+ALEXANDRIA,+KY+41001&hl=en"
AMBERLEY VILLAGE,AMBERLEY VILLAGE FIRE DEPARTMENT,7149 RIDGE ROAD,CINCINNATI,OH,45237,"http://maps.google.com/maps?q=7149 RIDGE ROAD,+CINCINNATI,+OH+45237&hl=en"
AMELIA POLICE DEPARTMENT,AMELIA POLICE DEPARTMENT,44 W MAIN ST,AMELIA,OH,45102,"http://maps.google.com/maps?q=44 W MAIN ST,+AMELIA,+OH+45102&hl=en"
BICKNELL POLICE DEPARTMENT,BICKNELL POLICE DEPARTMENT,119 EAST 2ND STREET,BICKNELL,IN,47512,"http://maps.google.com/maps?q=119 EAST 2ND STREET,+BICKNELL,+IN+47512&hl=en"
BLOOMINGTON POLICE DEPARTMENT,"KROGER PHARMACY 
												
													PARKING LOT",1175 COLLEGE MALL RD.,BLOOMINGTON,IN,47401,"http://maps.google.com/maps?q=1175 COLLEGE MALL RD.,+BLOOMINGTON,+IN+47401&hl=en"
BLUE ASH POLICE DEPARTMENT,"BLUE ASH MUNICIPAL AND SAFETY CENTER 
												
													FRONT PARKING LOT",4343 COOPER RD,BLUE ASH,OH,45242,"http://maps.google.com/maps?q=4343 COOPER RD,+BLUE ASH,+OH+45242&hl=en"
BOONE COUNTY SHERIFFS OFFICE,"BOONE COUNTY SHERIFFS OFFICE 
												
													SIDE PARKING LOT",3000 CONRAD LANE,BURLINGTON,KY,41005,"http://maps.google.com/maps?q=3000 CONRAD LANE,+BURLINGTON,+KY+41005&hl=en"
BOONE COUNTY SHERIFFS OFFICE,"UNION CITY BUILDING 
												
													PARKING LOT",1843 MOUNT ZION RD,UNION,KY,41091,"http://maps.google.com/maps?q=1843 MOUNT ZION RD,+UNION,+KY+41091&hl=en"
BOONE COUNTY SHERIFFS OFFICE,"WALTON KENTUCKY CITY BUILDING 
												
													PARKING LOT",40 NORTH MAIN STREET,WALTON,KY,41094,"http://maps.google.com/maps?q=40 NORTH MAIN STREET,+WALTON,+KY+41094&hl=en"
BOWLING GREEN- WARREN CO DRUG TASK FORCE,BOWLING GREEN POLICE DEPARTMENT,911 KENTUCKY STREET,BOWLING GREEN,KY,42101,"http://maps.google.com/maps?q=911 KENTUCKY STREET,+BOWLING GREEN,+KY+42101&hl=en"
BOWLING GREEN- WARREN CO DRUG TASK FORCE,"KENTUCKY STATE POLICE 
												
													POST 3",3119 NASHVILLE ROAD,BOWLING GREEN,KY,42101,"http://maps.google.com/maps?q=3119 NASHVILLE ROAD,+BOWLING GREEN,+KY+42101&hl=en"
BOWLING GREEN- WARREN CO DRUG TASK FORCE,"SAFETY CITY 
												
													IN FRONT OF GREENWOOD HIGH SCHOOL",5065 SCOTTSVILLE ROAD,BOWLING GREEN,KY,42104,"http://maps.google.com/maps?q=5065 SCOTTSVILLE ROAD,+BOWLING GREEN,+KY+42104&hl=en"
BRACKEN COUNTY SHERIFF OFFICE,BRACKEN COUNTY FISCAL COURTHOUSE,116 W MIAMI STREET,BROOKSVILLE,KY,41004,"http://maps.google.com/maps?q=116 W MIAMI STREET,+BROOKSVILLE,+KY+41004&hl=en"
BROWN COUNTY SHERIFF OFFICE,"BROWN COUNTY SHERIFFS OFFICE 
												
													PARKING LOT",750 MOUNT ORAB PIKE,GEORGETOWN,OH,45121,"http://maps.google.com/maps?q=750 MOUNT ORAB PIKE,+GEORGETOWN,+OH+45121&hl=en"
BROWN COUNTY SHERIFF OFFICE,"ORSCHELN FARM & HOME 
												
													PARKING LOT",206 STERLING RUN BLVD,MOUNT ORAB,OH,45154,"http://maps.google.com/maps?q=206 STERLING RUN BLVD,+MOUNT ORAB,+OH+45154&hl=en"
BUTLER COUNTY SHERIFF'S OFFICE,KROGER,7300 YANKEE ROAD,MIDDLETOWN,OH,45044,"http://maps.google.com/maps?q=7300 YANKEE ROAD,+MIDDLETOWN,+OH+45044&hl=en"
BUTLER COUNTY SHERIFF'S OFFICE,LIBERTY TWP. PRINCETON GLENDALE FIRE STATION,6682 PRINCETON-GLENDALE RD.,HAMILTON,OH,45011,"http://maps.google.com/maps?q=6682 PRINCETON-GLENDALE RD.,+HAMILTON,+OH+45011&hl=en"
BUTLER TOWNSHIP POLICE DEPARTMENT,"BUTLER TOWNSHIP POLICE DEPARTMENT 
												
													MAIN LOBBY",3510 SUDACHI DR,DAYTON,OH,45414,"http://maps.google.com/maps?q=3510 SUDACHI DR,+DAYTON,+OH+45414&hl=en"
CALDWELL COUNTY SHERIFF'S OFFICE,CALDWELL COUNTY SHERIFF,100 E MARKET ST,PRINCETON,KY,42445,"http://maps.google.com/maps?q=100 E MARKET ST,+PRINCETON,+KY+42445&hl=en"
CINCINNATI POLICE,"CINCINNATI POLICE DISTRICT 3 
												
													SIDE LOT",2300 FERGUSON RD,CINCINNATI,OH,45238,"http://maps.google.com/maps?q=2300 FERGUSON RD,+CINCINNATI,+OH+45238&hl=en"
CINCINNATI POLICE,"CINCINNATI POLICE DISTRICT 4 
												
													PARKING LOT",7616 READING RD,CINCINNATI,OH,45229,"http://maps.google.com/maps?q=7616 READING RD,+CINCINNATI,+OH+45229&hl=en"
CINCINNATI POLICE,"KENARD KROGER 
												
													PARKING LOT BY STREET",4777 KENARD AVE,CINCINNATI,OH,45232,"http://maps.google.com/maps?q=4777 KENARD AVE,+CINCINNATI,+OH+45232&hl=en"
CINCINNATI VA HOSPITAL,"CINCINNATI VA HOSPITAL 
												
													OPC CIRCLE",3100 VINE STREET,CINCINNATI,OH,45220,"http://maps.google.com/maps?q=3100 VINE STREET,+CINCINNATI,+OH+45220&hl=en"
CITY OF DEERPARK,"CITY OF DEERPARK 
												
													24HR DROP BOX ONLY, LOCATED IN POLICE LOBBY.",7777 BLUE ASH RD,CINCINNATI,OH,45236,"http://maps.google.com/maps?q=7777 BLUE ASH RD,+CINCINNATI,+OH+45236&hl=en"
CITY OF OXFORD,"TALLAWANDA HIGH SCHOOL 
												
													IN FRONT OF SCHOOL",5301 UNIVERSITY PARK BLVD,OXFORD,OH,45056,"http://maps.google.com/maps?q=5301 UNIVERSITY PARK BLVD,+OXFORD,+OH+45056&hl=en"
CITY OF READING POLICE DEPARTMENT,"CITY OF READING POLICE DEPARTMENT 
												
													POLICE DEPARTMENT LOBBY",1000 MARKET STREETREADING,CINCINNATI,OH,45215,"http://maps.google.com/maps?q=1000 MARKET STREET,+CINCINNATI,+OH+45215&hl=en"
CLEARCREEK TOWNSHIP POLICE DEPARTMENT,CLEARCREEK TOWNSHIP POLICE DEPARTMENT,7593 BUNNELL HILL RD,SPRINGBORO,OH,45066,"http://maps.google.com/maps?q=7593 BUNNELL HILL RD,+SPRINGBORO,+OH+45066&hl=en"
CLERMONT COUNTY SHERIFF'S OFFICE,CENTRAL JOINT FIRE DEPARTMENT,2401 OLD SR 32,BATAVIA,OH,45103,"http://maps.google.com/maps?q=2401 OLD SR 32,+BATAVIA,+OH+45103&hl=en"
CLERMONT COUNTY SHERIFF'S OFFICE,CLERMONT COUNTY SHERIFF'S OFFICE,4470 SR 222,BATAVIA,OH,45103,"http://maps.google.com/maps?q=4470 SR 222,+BATAVIA,+OH+45103&hl=en"
CLERMONT COUNTY SHERIFF'S OFFICE,CLERMONT NORTHEASTERN HIGH SCHOOL,5347 NEWTONSVILLE HUTCHINSON RD,BATAVIA,OH,45103,"http://maps.google.com/maps?q=5347 NEWTONSVILLE HUTCHINSON RD,+BATAVIA,+OH+45103&hl=en"
CRAWFORDSVILLE POLICE DEPT.,MONTGOMERY COUNTY HEALTH DEPARTMENT,110 W. SOUTH BOULEVARD,CRAWFORDSVILLE,IN,47933,"http://maps.google.com/maps?q=110 W. SOUTH BOULEVARD,+CRAWFORDSVILLE,+IN+47933&hl=en"
DANVILLE POLICE DEPARTMENT,DANVILLE POLICE DEPARTMENT/CITY HALL,445 W MAIN STREET,DANVILLE,KY,40422,"http://maps.google.com/maps?q=445 W MAIN STREET,+DANVILLE,+KY+40422&hl=en"
DARKE COUNTY SHERIFF'S OFFICE,FAMILY HEALTH BUILDING,5735 MEEKER ROAD,GREENVILLE,OH,45331,"http://maps.google.com/maps?q=5735 MEEKER ROAD,+GREENVILLE,+OH+45331&hl=en"
DAYTON POLICE DEPARTMENT,DAYTON POLICE DEPARTMENT 1ST DISTRICT OFFICE,417 EAST HELENA STREET,DAYTON,OH,45420,"http://maps.google.com/maps?q=417 EAST HELENA STREET,+DAYTON,+OH+45420&hl=en"
DAYTON POLICE DEPARTMENT,DAYTON POLICE DEPARTMENT 2ND DISTRICT OFFICE,2721 WAYNE AVENUE,DAYTON,OH,45420,"http://maps.google.com/maps?q=2721 WAYNE AVENUE,+DAYTON,+OH+45420&hl=en"
DAYTON POLICE DEPARTMENT,DAYTON POLICE DEPARTMENT 3RD DISTRICT OFFICE,951 WASHINGTON STREET,DAYTON,OH,45402,"http://maps.google.com/maps?q=951 WASHINGTON STREET,+DAYTON,+OH+45402&hl=en"
DAYTON POLICE DEPARTMENT,DAYTON POLICE DEPARTMENT 5TH DISTRICT OFFICE,248 SALEM AVENUE,DAYTON,OH,45406,"http://maps.google.com/maps?q=248 SALEM AVENUE,+DAYTON,+OH+45406&hl=en"
DAYTON POLICE DEPARTMENT,DAYTON POLICE SAFETY BUILDING,335 W THIRD STREET,DAYTON,OH,45402,"http://maps.google.com/maps?q=335 W THIRD STREET,+DAYTON,+OH+45402&hl=en"
DEA / ST. VINCENT HOSPITAL,"ST. VINCENT HOSPITAL 
												
													FRONT ENTRANCE - DOOR 1",2001 W 86TH ST,INDIANAPOLIS,IN,46260,"http://maps.google.com/maps?q=2001 W 86TH ST,+INDIANAPOLIS,+IN+46260&hl=en"
DOUGLAS COUNTY SHERIFF'S DEPARTMENT,"DOUGLAS COUNTY SHERIFF'S DEPARTMENT 
												
													LOBBY",920 S. WASHINGTON,TUSCOLA,IL,61953,"http://maps.google.com/maps?q=920 S. WASHINGTON,+TUSCOLA,+IL+61953&hl=en"
DUBOIS CO. SHERIFF DEPT.,DUBOIS FIRE DEPT.,4579 N 2ND ST,DUBOIS,IN,47527,"http://maps.google.com/maps?q=4579 N 2ND ST,+DUBOIS,+IN+47527&hl=en"
DUBOIS CO. SHERIFF DEPT.,ST HENRY FIRE DEPT.,"1211 W 1100 S,",FERDINAND,IN,47532,"http://maps.google.com/maps?q=1211 W 1100 S,,+FERDINAND,+IN+47532&hl=en"
EDGEWOOD POLICE DEPARTMENT,EDGEWOOD POLICE DEPARTMENT,3405 NICHOL AVE,ANDERSON,IN,46011,"http://maps.google.com/maps?q=3405 NICHOL AVE,+ANDERSON,+IN+46011&hl=en"
EMINENCE POLICE DEPARTMENT,EMINENCE POLICE DEPARTMENT,45 DEPOT AVE,EMINENCE,KY,40019,"http://maps.google.com/maps?q=45 DEPOT AVE,+EMINENCE,+KY+40019&hl=en"
ENGLEWOOD POLICE DEPARTMENT,ENGLEWOOD GOVERNMENT CENTER,333 W NATIONAL ROAD,ENGLEWOOD,OH,45322,"http://maps.google.com/maps?q=333 W NATIONAL ROAD,+ENGLEWOOD,+OH+45322&hl=en"
FAIRFAX POLICE DEPARTMENT,FAIRFAX POLICE DEPARTMENT,5903 HAWTHORNE AVENUE,CINCINNATI,OH,45227,"http://maps.google.com/maps?q=5903 HAWTHORNE AVENUE,+CINCINNATI,+OH+45227&hl=en"
FAIRFIELD POLICE DEPARTMENT,FAIRFIELD POLICE DEPARTMENT,5230 PLEASANT AVE,FAIRFIELD,OH,45014,"http://maps.google.com/maps?q=5230 PLEASANT AVE,+FAIRFIELD,+OH+45014&hl=en"
FELICITY POLICE DEPARTMENT,FELICITY POLICE DEPARTMENT,415 WALNUT STREET,FELICITY,OH,45120,"http://maps.google.com/maps?q=415 WALNUT STREET,+FELICITY,+OH+45120&hl=en"
FISHERS POLICE DEPARTMENT,"FISHERS POLICE DEPARTMENT 
												
													DROP BOX",4 MUNICIPAL DRIVE,FISHERS,IN,46038,"http://maps.google.com/maps?q=4 MUNICIPAL DRIVE,+FISHERS,+IN+46038&hl=en"
FISHERS POLICE DEPARTMENT,"KROGER 
												
													NAT TAKE BACK DAY 4/28/2018",11700 OILO ROAD,FISHERS,IN,46037,"http://maps.google.com/maps?q=11700 OILO ROAD,+FISHERS,+IN+46037&hl=en"
FLORENCE POLICE DEPARTMENT,FLORENCE POLICE DEPARTMENT,8100 EWING BLVD,FLORENCE,KY,41042,"http://maps.google.com/maps?q=8100 EWING BLVD,+FLORENCE,+KY+41042&hl=en"
"FORT THOMAS, KENTUCKY POLICE DEPARTMENT",FT. THOMAS POLICE DEPARTMENT,130 N. FT. THOMAS AVE,FORT THOMAS,KY,41075,"http://maps.google.com/maps?q=130 N. FT. THOMAS AVE,+FORT THOMAS,+KY+41075&hl=en"
FRANKFORT POLICE DEPARTMENT,"FRANKLIN COUNTY HEALTH DEPARTMENT 
												
													EAST WEST CONNECTOR ROAD",851 EAST WEST CONNECTOR ROAD,FRANKFORT,KY,40601,"http://maps.google.com/maps?q=851 EAST WEST CONNECTOR ROAD,+FRANKFORT,+KY+40601&hl=en"
FRANKLIN POLICE DEPARTMENT (LOBBY),WAL-MART,1275 E. SECOND STREET,FRANKLIN,OH,45005,"http://maps.google.com/maps?q=1275 E. SECOND STREET,+FRANKLIN,+OH+45005&hl=en"
GLASGOW POLICE DEPARTMENT,WALMART,2345 HAPPY VALLEY RD.,GLASGOW,KY,42141,"http://maps.google.com/maps?q=2345 HAPPY VALLEY RD.,+GLASGOW,+KY+42141&hl=en"
GOSHEN TOWNSHIP POLICE DEPARTMENT,GOSHEN POLICE DEPARTMENT,6757 GOSHEN ROAD,GOSHEN,OH,45122,"http://maps.google.com/maps?q=6757 GOSHEN ROAD,+GOSHEN,+OH+45122&hl=en"
GRAYMOOR-DEVONDALE POLICE DEPARTMENT,GRAYMOOR-DEVONDALE POLICE DEPARTMENT,1500 LYNN WAY,LOUISVILLE,KY,40222,"http://maps.google.com/maps?q=1500 LYNN WAY,+LOUISVILLE,+KY+40222&hl=en"
GREEN TOWNSHIP POLICE DEPARTMENT,"GREEN TOWNSHIP POLICE 
												
													KIOSK IN THE LOBBY ONLY",6303 HARRISON AVE.,CINCINNATI,OH,45247,"http://maps.google.com/maps?q=6303 HARRISON AVE.,+CINCINNATI,+OH+45247&hl=en"
GREENCASTLE POLICE DEPARTMENT,"CLOVERDALE HIGH SCHOOL 
												
													9 AM TO NOON",205 E. MARKET ST.ATTN: MARSHAL STEVE HIBLER,CLOVERDALE,IN,46120,"http://maps.google.com/maps?q=205 E. MARKET ST.,+CLOVERDALE,+IN+46120&hl=en"
GREENCASTLE POLICE DEPARTMENT,"GREENCASTLE HIGH SCHOOL 
												
													9 AM TO NOON",910 E. WASHINGTON ST.,GREENCASTLE,IN,46135,"http://maps.google.com/maps?q=910 E. WASHINGTON ST.,+GREENCASTLE,+IN+46135&hl=en"
GREENCASTLE POLICE DEPARTMENT,"NORTH PUTNAM HIGH SCHOOL 
												
													ATTN: MARSHAL MIKE MAHOY",8869 N. CR 250 E.9 AM TO NOON,ROACHDALE,IN,46172,"http://maps.google.com/maps?q=8869 N. CR 250 E.,+ROACHDALE,+IN+46172&hl=en"
GREENCASTLE POLICE DEPARTMENT,"SOUTH PUTNAM HIGH SCHOOL 
												
													ATTN: CORPORAL JERROD BAUGH",1780 E. US HWY 409 AM TO NOON,GREENCASTLE,IN,46135,"http://maps.google.com/maps?q=1780 E. US HWY 40,+GREENCASTLE,+IN+46135&hl=en"
GREENE COUNTY SHERIFF OFFICE,"GREENE COUNTY GENERAL HOSPITAL 
												
													NONE",1185 N 1000 W,LINTON,IN,47441,"http://maps.google.com/maps?q=1185 N 1000 W,+LINTON,+IN+47441&hl=en"
GREENE COUNTY SHERIFF OFFICE,"GREENE COUNTY SHERIFF OFFICE 
												
													NONE",204 S 70 E,BLOOMFIELD,IN,47424,"http://maps.google.com/maps?q=204 S 70 E,+BLOOMFIELD,+IN+47424&hl=en"
GREENE COUNTY SHERIFF'S OFFICE,BEAVERCREEK POLICE DEPARTMENT,1388 RESEARCH PARK DRIVE,DAYTON,OH,45432,"http://maps.google.com/maps?q=1388 RESEARCH PARK DRIVE,+DAYTON,+OH+45432&hl=en"
GREENE COUNTY SHERIFF'S OFFICE,GREENE COUNTY SHERIFF'S OFFICE,120 E MAIN STREET,XENIA,OH,45385,"http://maps.google.com/maps?q=120 E MAIN STREET,+XENIA,+OH+45385&hl=en"
GREENE COUNTY SHERIFF'S OFFICE,SUGARCREEK TOWNSHIP POLICE DEPARTMENT,4398 CLYO ROAD,DAYTON,OH,45459,"http://maps.google.com/maps?q=4398 CLYO ROAD,+DAYTON,+OH+45459&hl=en"
GREENHILLS POLICE,GREENHILLS MUNCIPAL BUILDING,11000 WINTON RD,CINCINNATI,OH,45218,"http://maps.google.com/maps?q=11000 WINTON RD,+CINCINNATI,+OH+45218&hl=en"
HAMILTON COUNTY SHERIFF'S OFFICE,HARRISON TOWNSHIP,9940 NEW HAVEN ROAD,HARRISON,OH,45030,"http://maps.google.com/maps?q=9940 NEW HAVEN ROAD,+HARRISON,+OH+45030&hl=en"
HAMILTON COUNTY SHERIFF'S OFFICE,MIAMI TOWNSHIP,3780 SHADY LANE,NORTH BEND,OH,45052,"http://maps.google.com/maps?q=3780 SHADY LANE,+NORTH BEND,+OH+45052&hl=en"
HAMILTON POLICE DEPARTMENT,HAMILTON POLICE DEPARTMENT,331 SOUTH FRONT STREET,HAMILTON,OH,45011,"http://maps.google.com/maps?q=331 SOUTH FRONT STREET,+HAMILTON,+OH+45011&hl=en"
HAMILTON TOWNSHIP POLICE DEPARTMENT,HAMILTON TOWNSHIP POLICE DEPARTMENT,7780 SOUTH STATE ROUTE 48,MAINEVILLE,OH,45039,"http://maps.google.com/maps?q=7780 SOUTH STATE ROUTE 48,+MAINEVILLE,+OH+45039&hl=en"
HANCOCK COUNTY SHERIFF'S OFFICE,LEWISPORT FIRE DEPARTMENT,4TH STREET,LEWISPORT,KY,42351,"http://maps.google.com/maps?q=4TH STREET,+LEWISPORT,+KY+42351&hl=en"
HARRISON COUNTY SHERIFF'S OFFICE,HARRISON COUNTY SHERIFF'S OFFICE,113 W. PIKE ST.,CYNTHIANA,KY,41031,"http://maps.google.com/maps?q=113 W. PIKE ST.,+CYNTHIANA,+KY+41031&hl=en"
HIGHLAND HEIGHTS POLICE,HIGHLAND HEIGHTS POLICE,176 JOHNS HILL RD,HIGHLAND HEIGHTS,KY,41076,"http://maps.google.com/maps?q=176 JOHNS HILL RD,+HIGHLAND HEIGHTS,+KY+41076&hl=en"
HUBER HEIGHTS POLICE DEPARTMENT,HUBER HEIGHTS POLICE DEPARTMENT,6121 TAYLORSVILLE ROAD,DAYTON,OH,45424,"http://maps.google.com/maps?q=6121 TAYLORSVILLE ROAD,+DAYTON,+OH+45424&hl=en"
INDIANA BOARD OF PHARMACY,"COMMUNITY CANCER CENTER NORTH 
												
													COMMUNITY HOSPITAL POLICE/SECURITY",7979 SHADELAND AVE,INDIANAPOLIS,IN,46256,"http://maps.google.com/maps?q=7979 SHADELAND AVE,+INDIANAPOLIS,+IN+46256&hl=en"
INDIANA BOARD OF PHARMACY,"COMMUNITY CANCER CENTER SOUTH 
												
													COMMUNITY HOSPITAL POLICE/SECURITY",1440 E COUNTY LINE RD.,INDIANAPOLIS,IN,46227,"http://maps.google.com/maps?q=1440 E COUNTY LINE RD.,+INDIANAPOLIS,+IN+46227&hl=en"
INDIANA BOARD OF PHARMACY,"SAM'S CLUB 
												
													JOHNSON COUNTY SHERIFF DEPARTMENT",1101 WINDHORST WAY,GREENWOOD,IN,46143,"http://maps.google.com/maps?q=1101 WINDHORST WAY,+GREENWOOD,+IN+46143&hl=en"
INDIANA BOARD OF PHARMACY,"WALMART 
												
													MARION COUNTY SHERIFF DEPT",3221 W. 86TH ST,INDIANAPOLIS,IN,46268,"http://maps.google.com/maps?q=3221 W. 86TH ST,+INDIANAPOLIS,+IN+46268&hl=en"
INDIANA STATE POLICE,"INDIANA STATE POLICE 
												
													DISTRICT 33",1500 N. PACKINGHOUSE RD. #200,BLOOMINGTON,IN,47404,"http://maps.google.com/maps?q=1500 N. PACKINGHOUSE RD. #200,+BLOOMINGTON,+IN+47404&hl=en"
INDIANA STATE POLICE,"INDIANA STATE POLICE 
												
													DISTRICT 34",2209 NEWTON STREET,JASPER,IN,47546,"http://maps.google.com/maps?q=2209 NEWTON STREET,+JASPER,+IN+47546&hl=en"
INDIANA STATE POLICE,"INDIANA STATE POLICE 
												
													DISTRICT 35",19411 HIGHWAY 41 NORTH,EVANSVILLE,IN,47725,"http://maps.google.com/maps?q=19411 HIGHWAY 41 NORTH,+EVANSVILLE,+IN+47725&hl=en"
INDIANA STATE POLICE,"INDIANA STATE POLICE 
												
													DISTRICT 42",902 SOUTH ADAMS STREET,VERSAILLES,IN,47042,"http://maps.google.com/maps?q=902 SOUTH ADAMS STREET,+VERSAILLES,+IN+47042&hl=en"
INDIANA STATE POLICE,"INDIANA STATE POLICE 
												
													DISTRICT 45",8014 HIGHWAY 311,SELLERSBURG,IN,47172,"http://maps.google.com/maps?q=8014 HIGHWAY 311,+SELLERSBURG,+IN+47172&hl=en"
INDIANA STATE POLICE,"INDIANA STATE POLICE 
												
													DISTRICT 51",9022 SOUTH SR 67,PENDLETON,IN,46064,"http://maps.google.com/maps?q=9022 SOUTH SR 67,+PENDLETON,+IN+46064&hl=en"
INDIANA STATE POLICE,"INDIANA STATE POLICE 
												
													DISTRICT 52",8620 E. 21ST STREET,INDIANAPOLIS,IN,46219,"http://maps.google.com/maps?q=8620 E. 21ST STREET,+INDIANAPOLIS,+IN+46219&hl=en"
INDIANA STATE POLICE,"INDIANA STATE POLICE 
												
													DISTRICT 53",1927 WEST US 40,GREENCASTLE,IN,46135,"http://maps.google.com/maps?q=1927 WEST US 40,+GREENCASTLE,+IN+46135&hl=en"
INDIANAPOLIS FIRE DEPARTMENT,IFD FIRE STATION 1,1903 W 10TH ST,INDIANAPOLIS,IN,46222,"http://maps.google.com/maps?q=1903 W 10TH ST,+INDIANAPOLIS,+IN+46222&hl=en"
INDIANAPOLIS FIRE DEPARTMENT,IFD FIRE STATION 2,4120 MITTHOEFFER RD,INDIANAPOLIS,IN,46235,"http://maps.google.com/maps?q=4120 MITTHOEFFER RD,+INDIANAPOLIS,+IN+46235&hl=en"
INDIANAPOLIS FIRE DEPARTMENT,IFD FIRE STATION 23,1108 E THOMPSON RD,INDIANAPOLIS,IN,46227,"http://maps.google.com/maps?q=1108 E THOMPSON RD,+INDIANAPOLIS,+IN+46227&hl=en"
INDIANAPOLIS FIRE DEPARTMENT,IFD FIRE STATION 27,2918 E 10TH ST,INDIANAPOLIS,IN,46201,"http://maps.google.com/maps?q=2918 E 10TH ST,+INDIANAPOLIS,+IN+46201&hl=en"
INDIANAPOLIS FIRE DEPARTMENT,IFD FIRE STATION 4,8404 N DITCH RD,INDIANAPOLIS,IN,46260,"http://maps.google.com/maps?q=8404 N DITCH RD,+INDIANAPOLIS,+IN+46260&hl=en"
INGALLS POLICE DEPARTMENT,INGALLS POLICE DEPARTMENT,247 N MERIDIAN ST,INGALLS,IN,46048,"http://maps.google.com/maps?q=247 N MERIDIAN ST,+INGALLS,+IN+46048&hl=en"
JEFFERSON COUNTY SHERIFF'S OFFICE,JEFFERSON COUNTY SHERIFF'S OFFICE,531 COURT PLACE SUITE 600,LOUISVILLE,KY,40202,"http://maps.google.com/maps?q=531 COURT PLACE SUITE 600,+LOUISVILLE,+KY+40202&hl=en"
KENTUCKY STATE POLICE POST 15,KENTUCKY STATE POLICE POST 15,1118 JAMESTOWN STREET,COLUMBIA,KY,42728,"http://maps.google.com/maps?q=1118 JAMESTOWN STREET,+COLUMBIA,+KY+42728&hl=en"
KENTUCKY STATE POLICE POST 16,KSP POST 16,8298 KEACH DRIVE,HENDERSON,KY,42420,"http://maps.google.com/maps?q=8298 KEACH DRIVE,+HENDERSON,+KY+42420&hl=en"
KENTUCKY STATE POLICE POST 2,KENTUCKY STATE POLICE POST 2,1000 WESTERN KENTUCKY PARKWAY,NORTONVILLE,KY,42442,"http://maps.google.com/maps?q=1000 WESTERN KENTUCKY PARKWAY,+NORTONVILLE,+KY+42442&hl=en"
KENTUCKY STATE POLICE POST 3,"KENTUCKY STATE POLICE 
												
													POST 3",3119NASHVILLE RD.,BOWLING GREEN,KY,42101,"http://maps.google.com/maps?q=3119,+BOWLING GREEN,+KY+42101&hl=en"
KENTUCKY STATE POLICE POST 5,KENTUCKY STATE POLICE,160 CITATION LANE,CAMPBELLSBURG,KY,40011,"http://maps.google.com/maps?q=160 CITATION LANE,+CAMPBELLSBURG,+KY+40011&hl=en"
KENTUCKY STATE POLICE POST 6,KSP POST 6,4265 DIXIE HIGHWAY,DRY RIDGE,KY,41035,"http://maps.google.com/maps?q=4265 DIXIE HIGHWAY,+DRY RIDGE,+KY+41035&hl=en"
KENTUCKY STATE POLICE POST 7,KENTUCKY STATE POLICE POST 7,"699 EASTERN BYPASS, RICHMOND, KY",RICHMOND,KY,40475,"http://maps.google.com/maps?q=699 EASTERN BYPASS, RICHMOND, KY,+RICHMOND,+KY+40475&hl=en"
KETTERING POLICE DEPARTMENT,KETTERING POLICE DEPARTMENT,3600 SHROYER RD,KETTERING,OH,45429,"http://maps.google.com/maps?q=3600 SHROYER RD,+KETTERING,+OH+45429&hl=en"
KNOX COUNTY SHERIFF OFFICE,"KNOX COUNTY SHERIFF'S OFFICE 
												
													24/7 DROP BOX",2375 S. OLD DECKER RD.,VINCENNES,IN,47591,"http://maps.google.com/maps?q=2375 S. OLD DECKER RD.,+VINCENNES,+IN+47591&hl=en"
KROGER SPEEDWAY,KROGER SPEEDWAY,5718 CRAWFORDSVILLE ROAD,INDIANAPOLIS,IN,46224,"http://maps.google.com/maps?q=5718 CRAWFORDSVILLE ROAD,+INDIANAPOLIS,+IN+46224&hl=en"
LEBANON DIVISION OF POLICE,COUNTRYSIDE YMCA,1699 DEERFIELD RD.,LEBANON,OH,45036,"http://maps.google.com/maps?q=1699 DEERFIELD RD.,+LEBANON,+OH+45036&hl=en"
LEBANON DIVISION OF POLICE,KROGER (PARKING LOT),1425 COLUMBUS AVE,LEBANON,OH,45036,"http://maps.google.com/maps?q=1425 COLUMBUS AVE,+LEBANON,+OH+45036&hl=en"
LEITCHFIELD POLICE DEPARTMENT,LEITCHFIELD POLICE DEPT,117 SOUTH MAIN STREET,LEITCHFIELD,KY,42754,"http://maps.google.com/maps?q=117 SOUTH MAIN STREET,+LEITCHFIELD,+KY+42754&hl=en"
LEXINGTON POLICE DEPARTMENT,KENTUCKY AMERICAN WATER COMPANY,2300 RICHMOND RD,LEXINGTON,KY,40502,"http://maps.google.com/maps?q=2300 RICHMOND RD,+LEXINGTON,+KY+40502&hl=en"
LOCKLAND POLICE DEPARTMENT,LOCKLAND CHURCH OF NAZARENE,335 W WYOMING AV,LOCKLAND,OH,45215,"http://maps.google.com/maps?q=335 W WYOMING AV,+LOCKLAND,+OH+45215&hl=en"
LOUISVILLE METRO POLICE DEPARTMENT,"CVS 
												
													PARKING LOT",3130 PORTLAND AVE,LOUISVILLE,KY,40212,"http://maps.google.com/maps?q=3130 PORTLAND AVE,+LOUISVILLE,+KY+40212&hl=en"
LOUISVILLE METRO POLICE DEPARTMENT,"KROGER 
												
													PARKING LOT",291 N HUBBARD'S LN,LOUISVILLE,KY,40207,"http://maps.google.com/maps?q=291 N HUBBARD'S LN,+LOUISVILLE,+KY+40207&hl=en"
LOUISVILLE METRO POLICE DEPARTMENT,"WALGREEN'S 
												
													PARKING LOT",11930 STANDIFORD PLAZA DR,LOUISVILLE,KY,40229,"http://maps.google.com/maps?q=11930 STANDIFORD PLAZA DR,+LOUISVILLE,+KY+40229&hl=en"
LOUISVILLE METRO POLICE DEPARTMENT,"WALGREENS 
												
													PARKING LOT",12101 DIXIE HIGHWAY,LOUISVILLE,KY,40272,"http://maps.google.com/maps?q=12101 DIXIE HIGHWAY,+LOUISVILLE,+KY+40272&hl=en"
LOUISVILLE METRO POLICE DEPARTMENT,"WALGREENS 
												
													PARKING LOT",4025 TAYLORSVILLE RD,LOUISVILLE,KY,40220,"http://maps.google.com/maps?q=4025 TAYLORSVILLE RD,+LOUISVILLE,+KY+40220&hl=en"
LOVELAND POLICE DEPARTMENT,"LOVELAND ELEMENTARY AND PRIMARY SCHOOLS 
												
													DRIVE THROUGH DROP OFF",600 LOVELAND MADEIRA ROAD,LOVELAND,OH,45140,"http://maps.google.com/maps?q=600 LOVELAND MADEIRA ROAD,+LOVELAND,+OH+45140&hl=en"
LOVELAND POLICE DEPARTMENT,"LOVELAND POLICE DEPARTMENT 
												
													LOBBY DROP BOX",126 SOUTH LEBANON ROAD,LOVELAND,OH,45140,"http://maps.google.com/maps?q=126 SOUTH LEBANON ROAD,+LOVELAND,+OH+45140&hl=en"
LUDLOW POLICE DEPARTMENT,LUDLOW POLICE DEPARTMENT,51 ELM STREET,LUDLOW,KY,41016,"http://maps.google.com/maps?q=51 ELM STREET,+LUDLOW,+KY+41016&hl=en"
MARION COUNTY SHERIFF'S OFFICE,"MARION COUNTY SHERIFF'S OFFICE 
												
													DROP BOX 24/7",40 S. ALABAMA ST.,INDIANAPOLIS,IN,46204,"http://maps.google.com/maps?q=40 S. ALABAMA ST.,+INDIANAPOLIS,+IN+46204&hl=en"
MARION POLICE DEPARTMENT,"MARION POLICE DEPARTMENT 
												
													ALEX KENWORTHY",301 S. BRANSONMARION,MARION,IN,46952,"http://maps.google.com/maps?q=301 S. BRANSON,+MARION,+IN+46952&hl=en"
MARION POLICE DEPARTMENT,"MARION POLICE DEPARTMENT 
												
													CHIEF RAY O'NEAL",217 SOUTH MAIN STREET,MARION,KY,42064,"http://maps.google.com/maps?q=217 SOUTH MAIN STREET,+MARION,+KY+42064&hl=en"
MARKLEVILLE POLICE DEPARTMENT,MARKLEVILLE POLICE DEPARTMENT,10 SOUTH STATE ST,MARKLEVILLE,IN,46056,"http://maps.google.com/maps?q=10 SOUTH STATE ST,+MARKLEVILLE,+IN+46056&hl=en"
MARSHALL POLICE DEPARTMENT,"MARSHALL FIRE PROTECTION DISTRICT FIRE DEPARTMENT 
												
													CORNER OF ILLINOIS STATE HWY 1 AND ARCHER AVE",718 ARCHER AVE,MARSHALL,IL,62441,"http://maps.google.com/maps?q=718 ARCHER AVE,+MARSHALL,+IL+62441&hl=en"
MATTOON POLICE DEPARTMENT,WALGREENS,208 S. LOGAN,MATTOON,IL,61938,"http://maps.google.com/maps?q=208 S. LOGAN,+MATTOON,+IL+61938&hl=en"
"MERCER COUNTY, KY SHERIFFS OFFICE",MERCER COUNTY SHERIFFS OFFICE,207 WEST LEXINGTON ST,HARRODSBURG,KY,40330,"http://maps.google.com/maps?q=207 WEST LEXINGTON ST,+HARRODSBURG,+KY+40330&hl=en"
MIAMI TOWNSHIP POLICE DEPARTMENT,MIAMI TOWNSHIP POLICE DEPARTMENT,2660 LYONS ROAD,MIAMISBURG,OH,45342,"http://maps.google.com/maps?q=2660 LYONS ROAD,+MIAMISBURG,+OH+45342&hl=en"
MIAMI TOWNSHIP POLICE DEPT. - CLERMONT CO.,"MIAMI TOWNSHIP POLICE DEPT. - CLERMONT CO. 
												
													24HR DROP BOX LOCATED IN LOBBY",5900 MCPICKEN DRIVE,MILFORD,OH,45150,"http://maps.google.com/maps?q=5900 MCPICKEN DRIVE,+MILFORD,+OH+45150&hl=en"
MONTGOMERY COUNTY SHERIFF'S OFFICE,MONTGOMERY COUNTY SHERIFF'S OFFICE,345 W. SECOND ST.,DAYTON,OH,45422,"http://maps.google.com/maps?q=345 W. SECOND ST.,+DAYTON,+OH+45422&hl=en"
MONTGOMERY POLICE DEPARTMENT,MONTGOMERY SAFETY CENTER,10150 MONTGOMERY RD,CINCINNATI,OH,45242,"http://maps.google.com/maps?q=10150 MONTGOMERY RD,+CINCINNATI,+OH+45242&hl=en"
MORAINE POLICE DEPARTMENT,"MORAINE MUNICIPAL BUILDING 
												
													MORAINE POLICE DIVISION",4200 DRYDEN RD.,MORAINE,OH,45439,"http://maps.google.com/maps?q=4200 DRYDEN RD.,+MORAINE,+OH+45439&hl=en"
MOUNT STERLING POLICE DEPARTMENT,MT. STERLING PLICE DEPT.,35 SOUTH BANK,MOUNT STERLING,KY,40353,"http://maps.google.com/maps?q=35 SOUTH BANK,+MOUNT STERLING,+KY+40353&hl=en"
NICHOLASVILLE POLICE DEPARTMENT,WAL-MART,1032 NORTH MAIN,NICHOLASVILLE,KY,40356,"http://maps.google.com/maps?q=1032 NORTH MAIN,+NICHOLASVILLE,+KY+40356&hl=en"
NORTHERN KENTUCKY DRUG STRIKE FORCE,BELLEVUE POLICE DEPARTMENT,616 POPLAR ST.,BELLEVUE,KY,41073,"http://maps.google.com/maps?q=616 POPLAR ST.,+BELLEVUE,+KY+41073&hl=en"
NORTHERN KENTUCKY DRUG STRIKE FORCE,CAMPBELL COUNTY POLICE DEPARTMENT,8774 CONSTABLE DR.,ALEXANDRIA,KY,41001,"http://maps.google.com/maps?q=8774 CONSTABLE DR.,+ALEXANDRIA,+KY+41001&hl=en"
NORTHERN KENTUCKY DRUG STRIKE FORCE,COLD SPRING POLICE DEPARTMENT,5589 EAST ALEXANDRIA PIKE,COLD SPRING,KY,41076,"http://maps.google.com/maps?q=5589 EAST ALEXANDRIA PIKE,+COLD SPRING,+KY+41076&hl=en"
NORTHERN KENTUCKY DRUG STRIKE FORCE,COVINGTON POLICE DEPARTMENT,1 POLICE MEMORIAL DR.,COVINGTON,KY,41014,"http://maps.google.com/maps?q=1 POLICE MEMORIAL DR.,+COVINGTON,+KY+41014&hl=en"
NORTHERN KENTUCKY DRUG STRIKE FORCE,DAYTON POLICE DEPARTMENT,514 6TH AVE.,DAYTON,KY,41074,"http://maps.google.com/maps?q=514 6TH AVE.,+DAYTON,+KY+41074&hl=en"
NORTHERN KENTUCKY DRUG STRIKE FORCE,EDGEWOOD POLICE DEPARTMENT,385 DUDLEY PIKE,EDGEWOOD,KY,41017,"http://maps.google.com/maps?q=385 DUDLEY PIKE,+EDGEWOOD,+KY+41017&hl=en"
NORTHERN KENTUCKY DRUG STRIKE FORCE,ERLANGER POLICE DEPARTMENT,505 COMMONWEALTH AVE.,ERLANGER,KY,41018,"http://maps.google.com/maps?q=505 COMMONWEALTH AVE.,+ERLANGER,+KY+41018&hl=en"
NORTHERN KENTUCKY DRUG STRIKE FORCE,FT. WRIGHT POLICE DEPARTMENT,409 KYLES LN.,COVINGTON,KY,41011,"http://maps.google.com/maps?q=409 KYLES LN.,+COVINGTON,+KY+41011&hl=en"
NORTHERN KENTUCKY DRUG STRIKE FORCE,HIGHLAND HEIGHTS POLICE DEPARTMENT,176 JOHNS HILL RD.,HIGHLAND HEIGHTS,KY,41076,"http://maps.google.com/maps?q=176 JOHNS HILL RD.,+HIGHLAND HEIGHTS,+KY+41076&hl=en"
NORTHERN KENTUCKY DRUG STRIKE FORCE,KENTON COUNTY POLICE DEPARTMENT,11777 MADISON PIKE,INDEPENDENCE,KY,41051,"http://maps.google.com/maps?q=11777 MADISON PIKE,+INDEPENDENCE,+KY+41051&hl=en"
NORTHERN KENTUCKY DRUG STRIKE FORCE,NEWPORT POLICE DEPARTMENT,998 MONMOUTH ST.,NEWPORT,KY,41071,"http://maps.google.com/maps?q=998 MONMOUTH ST.,+NEWPORT,+KY+41071&hl=en"
NORTHERN KENTUCKY DRUG STRIKE FORCE,PARK HILLS POLICE DEPARTMENT,1106 AMSTERDAM RD.,PARK HILLS,KY,41011,"http://maps.google.com/maps?q=1106 AMSTERDAM RD.,+PARK HILLS,+KY+41011&hl=en"
NORTHERN KENTUCKY DRUG STRIKE FORCE,SOUTHGATE POLICE DEPARTMENT,301 W. WALNUT,SOUTHGATE,KY,41071,"http://maps.google.com/maps?q=301 W. WALNUT,+SOUTHGATE,+KY+41071&hl=en"
NORTHERN KENTUCKY DRUG STRIKE FORCE,VILLA HILLS POLICE DEPARTMENT,719 RODGERS RD.,VILLA HILLS,KY,41017,"http://maps.google.com/maps?q=719 RODGERS RD.,+VILLA HILLS,+KY+41017&hl=en"
NORTHERN KENTUCKY DRUG STRIKE FORCE,WILDER POLICE DEPARTMENT,520 LICKING PIKE,WILDER,KY,41071,"http://maps.google.com/maps?q=520 LICKING PIKE,+WILDER,+KY+41071&hl=en"
NORTHERN KENTUCKY UNIVERSITY POLICE,NKUPD,415 OLD JOHNS HILL ROAD,HIGHLAND HEIGHTS,KY,41099,"http://maps.google.com/maps?q=415 OLD JOHNS HILL ROAD,+HIGHLAND HEIGHTS,+KY+41099&hl=en"
OLDHAM COUNTY SHERIFF'S OFFICE,LAGRANGE FIRE DEPARTMENT STATION 2,3637 W HWY 146,BUCKNER,KY,40010,"http://maps.google.com/maps?q=3637 W HWY 146,+BUCKNER,+KY+40010&hl=en"
OLDHAM COUNTY SHERIFF'S OFFICE,OLDHAM COUNTY POLICE DEPARTMENT,1855 NORTH HIGHWAY 393,LA GRANGE,KY,40031,"http://maps.google.com/maps?q=1855 NORTH HIGHWAY 393,+LA GRANGE,+KY+40031&hl=en"
OWENSBORO POLICE DEPARTMENT,"OWENSBORO POLICE DEPARTMENT 
												
													FRONT LOBBY",222 E 9TH ST,OWENSBORO,KY,42303,"http://maps.google.com/maps?q=222 E 9TH ST,+OWENSBORO,+KY+42303&hl=en"
PARIS POLICE DEPARTMENT,WALMART,305 LETTON DRIVE,PARIS,KY,40361,"http://maps.google.com/maps?q=305 LETTON DRIVE,+PARIS,+KY+40361&hl=en"
PARTNERSHIPS FOR SUCCESS/SCOTT COUNTY PARTNERSHIP,"AUSTIN POLICE DEPARTMENT LOBBY 
												
													24/7 CONTROLLED AND NON-CONTROLLED MEDICATION DROP BOX",127 S. HIGHWAY 31,AUSTIN,IN,47102,"http://maps.google.com/maps?q=127 S. HIGHWAY 31,+AUSTIN,+IN+47102&hl=en"
PARTNERSHIPS FOR SUCCESS/SCOTT COUNTY PARTNERSHIP,"SCOTT COUNTY SHERIFF'S DEPARTMENT LOBBY 
												
													24/7 CONTROLLED AND NON-CONTROLLED MEDICATION DROP",111 S. FIRST ST.,SCOTTSBURG,IN,47170,"http://maps.google.com/maps?q=111 S. FIRST ST.,+SCOTTSBURG,+IN+47170&hl=en"
PARTNERSHIPS FOR SUCCESS/SCOTT COUNTY PARTNERSHIP,"SCOTTSBURG WALMART 
												
													DEA DRUG TAKE BACK APRIL 28, 2018, 10 AM - 2 PM",1618 W. MCCLAIN AVE.,SCOTTSBURG,IN,47170,"http://maps.google.com/maps?q=1618 W. MCCLAIN AVE.,+SCOTTSBURG,+IN+47170&hl=en"
PENDLETON COUNTY SHERIFF'S OFFICE,PENDLETON COUNTY SHERIFF'S OFFICE,202 CHAPEL STREET,FALMOUTH,KY,41040,"http://maps.google.com/maps?q=202 CHAPEL STREET,+FALMOUTH,+KY+41040&hl=en"
PENDLETON POLICE DEPARTMENT,"CVS, PENDLETON",620 E STATE STREET,PENDLETON,IN,46064,"http://maps.google.com/maps?q=620 E STATE STREET,+PENDLETON,+IN+46064&hl=en"
PERRY COUNTY RECYCLING MANGEMENT DISTIRCT,PERRY COUNTY FAMILY PRACTICE,18485 IN-37,LEOPOLD,IN,47551,"http://maps.google.com/maps?q=18485 IN-37,+LEOPOLD,+IN+47551&hl=en"
PERRY COUNTY RECYCLING MANGEMENT DISTIRCT,TELL CITY FIRE STATION,707 MOZART STREET,TELL CITY,IN,47586,"http://maps.google.com/maps?q=707 MOZART STREET,+TELL CITY,+IN+47586&hl=en"
PIERCE TOWNSHIP POLICE DEPARTMENT,PIERCE TOWNSHIP POLICE DEPARTMENT,950 LOCUST CORNER RD,CINCINNATI,OH,45245,"http://maps.google.com/maps?q=950 LOCUST CORNER RD,+CINCINNATI,+OH+45245&hl=en"
PREBLE COUNTY SHERIFF'S OFFICE,PREBLE COUNTY SHERIFF'S OFFICE,1139 PREBLE DRIVE,EATON,OH,45320,"http://maps.google.com/maps?q=1139 PREBLE DRIVE,+EATON,+OH+45320&hl=en"
RICHMOND POLICE DEPARTMENT,"RICHMOND POLICE DEPARTMENT 
												
													MSUTTON@RICHMONDINDIANA.GOV",50 NORTH 5TH STREET,RICHMOND,IN,47374,"http://maps.google.com/maps?q=50 NORTH 5TH STREET,+RICHMOND,+IN+47374&hl=en"
ROBINSON POLICE DEPARTMENT,"CRAWFORD MEMORIAL HOSPITAL 
												
													SOUTH DRIVE THRU ENTRANCE",1000 NORTH ALLEN STREET,ROBINSON,IL,62454,"http://maps.google.com/maps?q=1000 NORTH ALLEN STREET,+ROBINSON,+IL+62454&hl=en"
ROSS TWP POLICE DEPARTMNET,ROSS TWP. POLICE DEPARTMENT,4055 HAMILTON CLEVES RD,FAIRFIELD,OH,45014,"http://maps.google.com/maps?q=4055 HAMILTON CLEVES RD,+FAIRFIELD,+OH+45014&hl=en"
RUSH COUNTY SHERIFF DEPARTMENT,"RUSH MEMORIAL HOSPITAL 
												
													13TH STREET ENTRANCE",1300 N MAIN ST,RUSHVILLE,IN,46173,"http://maps.google.com/maps?q=1300 N MAIN ST,+RUSHVILLE,+IN+46173&hl=en"
RUSSELL COUNTY SHERIFF'S OFFICE,RUSSELL COUNTY SHERIFF'S OFFICE,410 MONUMENT SQUARE #109,JAMESTOWN,KY,42629,"http://maps.google.com/maps?q=410 MONUMENT SQUARE #109,+JAMESTOWN,+KY+42629&hl=en"
SEYMOUR POLICE DEPARTMENT,"BROWNSTOWN SENIOR CENTER 
												
													11:30 AM TO 1:30 PM",124 S MAIN ST,BROWNSTOWN,IN,47220,"http://maps.google.com/maps?q=124 S MAIN ST,+BROWNSTOWN,+IN+47220&hl=en"
SEYMOUR POLICE DEPARTMENT,"CROTHERSVILLE SENIOR CENTER 
												
													9-11 AM",114 E MAIN ST,CROTHERSVILLE,IN,47229,"http://maps.google.com/maps?q=114 E MAIN ST,+CROTHERSVILLE,+IN+47229&hl=en"
SEYMOUR POLICE DEPARTMENT,"FREETOWN COMMUNITY CENTER 
												
													4:30 -6:30 PM",6789 N UNION ST,FREETOWN,IN,47235,"http://maps.google.com/maps?q=6789 N UNION ST,+FREETOWN,+IN+47235&hl=en"
SEYMOUR POLICE DEPARTMENT,"JACKSON COUNTY HEALTH DEPARTMENT 
												
													10:00 AM TO 2:00 PM",801 W 2ND ST,SEYMOUR,IN,47274,"http://maps.google.com/maps?q=801 W 2ND ST,+SEYMOUR,+IN+47274&hl=en"
SEYMOUR POLICE DEPARTMENT,"MEDORA SENIOR CENTER 
												
													2-4 PM",52 W MAIN ST,MEDORA,IN,47260,"http://maps.google.com/maps?q=52 W MAIN ST,+MEDORA,+IN+47260&hl=en"
SEYMOUR POLICE DEPARTMENT,"SEYMOUR POLICE DEPARTMENT 
												
													OPEN 24 HOURS A DAY FOR TAKE BACKS",205 NORTH EWING STREET,SEYMOUR,IN,47274,"http://maps.google.com/maps?q=205 NORTH EWING STREET,+SEYMOUR,+IN+47274&hl=en"
SHARONVILLE POLICE DEPARTMENT,SHARONVILLE MUNICIPAL BUILDING,10900 READING ROAD,CINCINNATI,OH,45241,"http://maps.google.com/maps?q=10900 READING ROAD,+CINCINNATI,+OH+45241&hl=en"
SHAWNEETOWN POLICE DEPARTMENT,CITY HALL,330 N. LINCOLN BLVD,SHAWNEETOWN,IL,62984,"http://maps.google.com/maps?q=330 N. LINCOLN BLVD,+SHAWNEETOWN,+IL+62984&hl=en"
SHELBY COUNTY CORONER OFFICE,SHELBY COUNTY CORONER'S OFFICE,419 WASHINGTON STREET,SHELBYVILLE,KY,40065,"http://maps.google.com/maps?q=419 WASHINGTON STREET,+SHELBYVILLE,+KY+40065&hl=en"
SPENCER POLICE DEPARTMENT,GOSPORT TOWN HALL,13 SOUTH 3RD ST.,GOSPORT,IN,47433,"http://maps.google.com/maps?q=13 SOUTH 3RD ST.,+GOSPORT,+IN+47433&hl=en"
SPENCER POLICE DEPARTMENT,SPENCER POLICE DEPT.,"80 N WEST ST, 80 N. WEST STREET",SPENCER,IN,47460,"http://maps.google.com/maps?q=80 N WEST ST, 80 N. WEST STREET,+SPENCER,+IN+47460&hl=en"
SPRINGBORO POLICE DEPARTMENT,CITY OF SPRINGBORO MUNICIPAL BUILDING,320 W CENTRAL AVE.,SPRINGBORO,OH,45066,"http://maps.google.com/maps?q=320 W CENTRAL AVE.,+SPRINGBORO,+OH+45066&hl=en"
SPRINGDALE POLICE DEPARTMENT,SPRINGDALE POLICE DEPARTMENT,12105 LAWNVIEW AVE.,CINCINNATI,OH,45246,"http://maps.google.com/maps?q=12105 LAWNVIEW AVE.,+CINCINNATI,+OH+45246&hl=en"
SPRINGFIELD TOWNSHIP POLICE DEPARTMENT,SPRINGFIELD TOWNSHIP POLICE DEPARTMENT,1130 COMPTON ROAD,CINCINNATI,OH,45231,"http://maps.google.com/maps?q=1130 COMPTON ROAD,+CINCINNATI,+OH+45231&hl=en"
SULLIVAN CO. SWCD,SULLIVAN CITY PARK,611 S. MAIN ST.,SULLIVAN,IN,47882,"http://maps.google.com/maps?q=611 S. MAIN ST.,+SULLIVAN,+IN+47882&hl=en"
TRIGG COUNTY SHERIFF'S OFFICE,TRIGG COUNTY SHERIFF'S OFFICE,134 COMMERCE STREET,CADIZ,KY,42211,"http://maps.google.com/maps?q=134 COMMERCE STREET,+CADIZ,+KY+42211&hl=en"
TROTWOOD POLICE DEPARTMENT,TROTWOOD POLICE DEPARTMENT,3035 OLIVE ROAD,DAYTON,OH,45426,"http://maps.google.com/maps?q=3035 OLIVE ROAD,+DAYTON,+OH+45426&hl=en"
VANDALIA DIVISION OF POLICE,VANDALIA POLICE DEPARTMENT,245 JAMES BOHANAN DR.,VANDALIA,OH,45377,"http://maps.google.com/maps?q=245 JAMES BOHANAN DR.,+VANDALIA,+OH+45377&hl=en"
VINCENNES POLICE DEPARTMENT,"VINCENNES POLICE DEPARTMENT 
												
													AVAILABLE 24 HOURS",501 BUSSERON STREET,VINCENNES,IN,47591,"http://maps.google.com/maps?q=501 BUSSERON STREET,+VINCENNES,+IN+47591&hl=en"
VINCENNES UNIVERSITY POICE DEPARTMENT,VINCENNES UNIVERSITY CAMPUS POLICE,1201 N. 2ND STREET,VINCENNES,IN,47591,"http://maps.google.com/maps?q=1201 N. 2ND STREET,+VINCENNES,+IN+47591&hl=en"
WABASH COUNTY SHERIFF'S OFFICE,WABASH COUNTY SHERIFF'S OFFICE,120 E. 4TH STREET,MOUNT CARMEL,IL,62863,"http://maps.google.com/maps?q=120 E. 4TH STREET,+MOUNT CARMEL,+IL+62863&hl=en"
WARREN COUNTY DRUG TASK FORCE,KROGER,5100 TERRA FIRMA DR.,MASON,OH,45040,"http://maps.google.com/maps?q=5100 TERRA FIRMA DR.,+MASON,+OH+45040&hl=en"
WAYNE COUNTY SHERIFF'S OFFICE,WAYNE COUNTY SHERIFF'S OFFICE,305 EAST COURT,FAIRFIELD,IL,62837,"http://maps.google.com/maps?q=305 EAST COURT,+FAIRFIELD,+IL+62837&hl=en"
WAYNESVILLE POLICE DEPARTMENT,WAYNESVILLE HIGH SCHOOL (PARKING LOT),735 DAYTON ROAD,WAYNESVILLE,OH,45068,"http://maps.google.com/maps?q=735 DAYTON ROAD,+WAYNESVILLE,+OH+45068&hl=en"
WEBSTER COUNTY SHERIFF'S OFFICE,WEBSTER COUNTY SHERIFF'S OFFICE,25 US HWY 41 A SOUTH,DIXON,KY,42409,"http://maps.google.com/maps?q=25 US HWY 41 A SOUTH,+DIXON,+KY+42409&hl=en"
WEST CHESTER POLICE DEPARTMENT,WALGREENS PARKING LOT,7804 CINCINNATI-DAYTON ROAD,WEST CHESTER,OH,45069,"http://maps.google.com/maps?q=7804 CINCINNATI-DAYTON ROAD,+WEST CHESTER,+OH+45069&hl=en"
WHITE COUNTY SHERIFF OFFICE,WHITE COUNTY SHERIFF OFFICE,108 N MAIN CROSS,CARMI,IL,62821,"http://maps.google.com/maps?q=108 N MAIN CROSS,+CARMI,+IL+62821&hl=en"
WILMINGTON POLICE DEPARTMENT,FOSTER J. BOYD CANCER CENTER,31 FARQUHAR ST,WILMINGTON,OH,45177,"http://maps.google.com/maps?q=31 FARQUHAR ST,+WILMINGTON,+OH+45177&hl=en"
WINCHESTER POLICE DEPARTMENT,WINCHESTER POLICE DEPARTMENT,16 SOUTH MAPLE STREET,WINCHESTER,KY,40391,"http://maps.google.com/maps?q=16 SOUTH MAPLE STREET,+WINCHESTER,+KY+40391&hl=en"
WOODFORD COUNTY SHERIFF DEPT,KROGER,KROGER WAY,VERSAILLES,KY,40383,"http://maps.google.com/maps?q=KROGER WAY,+VERSAILLES,+KY+40383&hl=en"
WOODFORD COUNTY SHERIFF DEPT,MIDWAY CITY HALL,MAIN ST,MIDWAY,KY,40347,"http://maps.google.com/maps?q=MAIN ST,+MIDWAY,+KY+40347&hl=en"
