Participant,CollectionSite,Address,City,State,Zip,MapURL
ALEXANDRIA POLICE DEPARTMENT,ALEXANDRIA POLICE DEPARTMENT/COMMUNITY CENTER,8236 W. MAIN ST,ALEXANDRIA,KY,41001,"http://maps.google.com/maps?q=8236 W. MAIN ST,+ALEXANDRIA,+KY+41001&hl=en"
AMBERLEY VILLAGE,AMBERLEY VILLAGE FIRE DEPARTMENT,7149 RIDGE ROAD,CINCINNATI,OH,45237,"http://maps.google.com/maps?q=7149 RIDGE ROAD,+CINCINNATI,+OH+45237&hl=en"
AMELIA POLICE DEPARTMENT,AMELIA POLICE DEPARTMENT,44 W MAIN ST,AMELIA,OH,45102,"http://maps.google.com/maps?q=44 W MAIN ST,+AMELIA,+OH+45102&hl=en"
ASHLAND KY POLICE,ASHLAND KY POLICE,201 17TH STREET,ASHLAND,KY,41101,"http://maps.google.com/maps?q=201 17TH STREET,+ASHLAND,+KY+41101&hl=en"
BELLEFONTAINE POLICE DEPARTMENT,MARY RUTAN HOSPITAL (OUTSIDE MAIN ENTRANCE),205 PALMER AVE.,BELLEFONTAINE,OH,43311,"http://maps.google.com/maps?q=205 PALMER AVE.,+BELLEFONTAINE,+OH+43311&hl=en"
BEXLEY POLICE DEPARTMENT,"BEXLEY POLICE DEPARTMENT 
												
													DAWN OVERLY",559 NORTH CASSINGHAM ROADBEXLEY,COLUMBUS,OH,43209,"http://maps.google.com/maps?q=559 NORTH CASSINGHAM ROAD,+COLUMBUS,+OH+43209&hl=en"
BLENDON TWP POLICE,BLENDON TWP POLICE,6340 HEMPSTEAD RD,WESTERVILLE,OH,43081,"http://maps.google.com/maps?q=6340 HEMPSTEAD RD,+WESTERVILLE,+OH+43081&hl=en"
BLUE ASH POLICE DEPARTMENT,"BLUE ASH MUNICIPAL AND SAFETY CENTER 
												
													FRONT PARKING LOT",4343 COOPER RD,BLUE ASH,OH,45242,"http://maps.google.com/maps?q=4343 COOPER RD,+BLUE ASH,+OH+45242&hl=en"
BOONE COUNTY SHERIFFS OFFICE,"BOONE COUNTY SHERIFFS OFFICE 
												
													SIDE PARKING LOT",3000 CONRAD LANE,BURLINGTON,KY,41005,"http://maps.google.com/maps?q=3000 CONRAD LANE,+BURLINGTON,+KY+41005&hl=en"
BOONE COUNTY SHERIFFS OFFICE,"UNION CITY BUILDING 
												
													PARKING LOT",1843 MOUNT ZION RD,UNION,KY,41091,"http://maps.google.com/maps?q=1843 MOUNT ZION RD,+UNION,+KY+41091&hl=en"
BOONE COUNTY SHERIFFS OFFICE,"WALTON KENTUCKY CITY BUILDING 
												
													PARKING LOT",40 NORTH MAIN STREET,WALTON,KY,41094,"http://maps.google.com/maps?q=40 NORTH MAIN STREET,+WALTON,+KY+41094&hl=en"
BRACKEN COUNTY SHERIFF OFFICE,BRACKEN COUNTY FISCAL COURTHOUSE,116 W MIAMI STREET,BROOKSVILLE,KY,41004,"http://maps.google.com/maps?q=116 W MIAMI STREET,+BROOKSVILLE,+KY+41004&hl=en"
BROWN COUNTY SHERIFF OFFICE,"BROWN COUNTY SHERIFFS OFFICE 
												
													PARKING LOT",750 MOUNT ORAB PIKE,GEORGETOWN,OH,45121,"http://maps.google.com/maps?q=750 MOUNT ORAB PIKE,+GEORGETOWN,+OH+45121&hl=en"
BROWN COUNTY SHERIFF OFFICE,"ORSCHELN FARM & HOME 
												
													PARKING LOT",206 STERLING RUN BLVD,MOUNT ORAB,OH,45154,"http://maps.google.com/maps?q=206 STERLING RUN BLVD,+MOUNT ORAB,+OH+45154&hl=en"
BUTLER COUNTY SHERIFF'S OFFICE,KROGER,7300 YANKEE ROAD,MIDDLETOWN,OH,45044,"http://maps.google.com/maps?q=7300 YANKEE ROAD,+MIDDLETOWN,+OH+45044&hl=en"
BUTLER COUNTY SHERIFF'S OFFICE,LIBERTY TWP. PRINCETON GLENDALE FIRE STATION,6682 PRINCETON-GLENDALE RD.,HAMILTON,OH,45011,"http://maps.google.com/maps?q=6682 PRINCETON-GLENDALE RD.,+HAMILTON,+OH+45011&hl=en"
BUTLER TOWNSHIP POLICE DEPARTMENT,"BUTLER TOWNSHIP POLICE DEPARTMENT 
												
													MAIN LOBBY",3510 SUDACHI DR,DAYTON,OH,45414,"http://maps.google.com/maps?q=3510 SUDACHI DR,+DAYTON,+OH+45414&hl=en"
CEREDO WV POLICE DEPT,CEREDO PD,766 B STREET,CEREDO,WV,25507,"http://maps.google.com/maps?q=766 B STREET,+CEREDO,+WV+25507&hl=en"
CHILLICOTHE POLICE DEPARTMENT,"KROGER 
												
													PARKING LOT",887 N BRIDGE STREET,CHILLICOTHE,OH,45601,"http://maps.google.com/maps?q=887 N BRIDGE STREET,+CHILLICOTHE,+OH+45601&hl=en"
CINCINNATI POLICE,"CINCINNATI POLICE DISTRICT 3 
												
													SIDE LOT",2300 FERGUSON RD,CINCINNATI,OH,45238,"http://maps.google.com/maps?q=2300 FERGUSON RD,+CINCINNATI,+OH+45238&hl=en"
CINCINNATI POLICE,"CINCINNATI POLICE DISTRICT 4 
												
													PARKING LOT",7616 READING RD,CINCINNATI,OH,45229,"http://maps.google.com/maps?q=7616 READING RD,+CINCINNATI,+OH+45229&hl=en"
CINCINNATI POLICE,"KENARD KROGER 
												
													PARKING LOT BY STREET",4777 KENARD AVE,CINCINNATI,OH,45232,"http://maps.google.com/maps?q=4777 KENARD AVE,+CINCINNATI,+OH+45232&hl=en"
CINCINNATI VA HOSPITAL,"CINCINNATI VA HOSPITAL 
												
													OPC CIRCLE",3100 VINE STREET,CINCINNATI,OH,45220,"http://maps.google.com/maps?q=3100 VINE STREET,+CINCINNATI,+OH+45220&hl=en"
CITY OF DEERPARK,"CITY OF DEERPARK 
												
													24HR DROP BOX ONLY, LOCATED IN POLICE LOBBY.",7777 BLUE ASH RD,CINCINNATI,OH,45236,"http://maps.google.com/maps?q=7777 BLUE ASH RD,+CINCINNATI,+OH+45236&hl=en"
CITY OF OXFORD,"TALLAWANDA HIGH SCHOOL 
												
													IN FRONT OF SCHOOL",5301 UNIVERSITY PARK BLVD,OXFORD,OH,45056,"http://maps.google.com/maps?q=5301 UNIVERSITY PARK BLVD,+OXFORD,+OH+45056&hl=en"
CITY OF READING POLICE DEPARTMENT,"CITY OF READING POLICE DEPARTMENT 
												
													POLICE DEPARTMENT LOBBY",1000 MARKET STREETREADING,CINCINNATI,OH,45215,"http://maps.google.com/maps?q=1000 MARKET STREET,+CINCINNATI,+OH+45215&hl=en"
CLEARCREEK TOWNSHIP POLICE DEPARTMENT,CLEARCREEK TOWNSHIP POLICE DEPARTMENT,7593 BUNNELL HILL RD,SPRINGBORO,OH,45066,"http://maps.google.com/maps?q=7593 BUNNELL HILL RD,+SPRINGBORO,+OH+45066&hl=en"
CLERMONT COUNTY SHERIFF'S OFFICE,CENTRAL JOINT FIRE DEPARTMENT,2401 OLD SR 32,BATAVIA,OH,45103,"http://maps.google.com/maps?q=2401 OLD SR 32,+BATAVIA,+OH+45103&hl=en"
CLERMONT COUNTY SHERIFF'S OFFICE,CLERMONT COUNTY SHERIFF'S OFFICE,4470 SR 222,BATAVIA,OH,45103,"http://maps.google.com/maps?q=4470 SR 222,+BATAVIA,+OH+45103&hl=en"
CLERMONT COUNTY SHERIFF'S OFFICE,CLERMONT NORTHEASTERN HIGH SCHOOL,5347 NEWTONSVILLE HUTCHINSON RD,BATAVIA,OH,45103,"http://maps.google.com/maps?q=5347 NEWTONSVILLE HUTCHINSON RD,+BATAVIA,+OH+45103&hl=en"
COLUMBUS DIVISION OF POLICE,COLUMBUS HEALTH DEPARTMENT,240 PARSONS AVE,COLUMBUS,OH,43215,"http://maps.google.com/maps?q=240 PARSONS AVE,+COLUMBUS,+OH+43215&hl=en"
DARKE COUNTY SHERIFF'S OFFICE,FAMILY HEALTH BUILDING,5735 MEEKER ROAD,GREENVILLE,OH,45331,"http://maps.google.com/maps?q=5735 MEEKER ROAD,+GREENVILLE,+OH+45331&hl=en"
DAYTON POLICE DEPARTMENT,DAYTON POLICE DEPARTMENT 1ST DISTRICT OFFICE,417 EAST HELENA STREET,DAYTON,OH,45420,"http://maps.google.com/maps?q=417 EAST HELENA STREET,+DAYTON,+OH+45420&hl=en"
DAYTON POLICE DEPARTMENT,DAYTON POLICE DEPARTMENT 2ND DISTRICT OFFICE,2721 WAYNE AVENUE,DAYTON,OH,45420,"http://maps.google.com/maps?q=2721 WAYNE AVENUE,+DAYTON,+OH+45420&hl=en"
DAYTON POLICE DEPARTMENT,DAYTON POLICE DEPARTMENT 3RD DISTRICT OFFICE,951 WASHINGTON STREET,DAYTON,OH,45402,"http://maps.google.com/maps?q=951 WASHINGTON STREET,+DAYTON,+OH+45402&hl=en"
DAYTON POLICE DEPARTMENT,DAYTON POLICE DEPARTMENT 5TH DISTRICT OFFICE,248 SALEM AVENUE,DAYTON,OH,45406,"http://maps.google.com/maps?q=248 SALEM AVENUE,+DAYTON,+OH+45406&hl=en"
DAYTON POLICE DEPARTMENT,DAYTON POLICE SAFETY BUILDING,335 W THIRD STREET,DAYTON,OH,45402,"http://maps.google.com/maps?q=335 W THIRD STREET,+DAYTON,+OH+45402&hl=en"
DELAWARE COUNTY SHERIFF'S OFFICE,KROGER,3975W. POWELL RD,POWELL,OH,43065,"http://maps.google.com/maps?q=3975,+POWELL,+OH+43065&hl=en"
DUBLIN POLICE,"DUBLIN POLICE DEPARTMENT HEADQUARTERS 
												
													ENTER ON DRIVE WEST OF TRAFFIC CIRCLE.EXIT AT TRAFFIC CIRCLE",6565 COMMERCE PKWY,DUBLIN,OH,43017,"http://maps.google.com/maps?q=6565 COMMERCE PKWY,+DUBLIN,+OH+43017&hl=en"
EMINENCE POLICE DEPARTMENT,EMINENCE POLICE DEPARTMENT,45 DEPOT AVE,EMINENCE,KY,40019,"http://maps.google.com/maps?q=45 DEPOT AVE,+EMINENCE,+KY+40019&hl=en"
ENGLEWOOD POLICE DEPARTMENT,ENGLEWOOD GOVERNMENT CENTER,333 W NATIONAL ROAD,ENGLEWOOD,OH,45322,"http://maps.google.com/maps?q=333 W NATIONAL ROAD,+ENGLEWOOD,+OH+45322&hl=en"
FAIRFAX POLICE DEPARTMENT,FAIRFAX POLICE DEPARTMENT,5903 HAWTHORNE AVENUE,CINCINNATI,OH,45227,"http://maps.google.com/maps?q=5903 HAWTHORNE AVENUE,+CINCINNATI,+OH+45227&hl=en"
FAIRFIELD COUNTY SHERIFF'S OFFICE,"DILEY RIDGE MEDICAL CENTER 
												
													PARKING LOT",7911 DILEY ROAD,CANAL WINCHESTER,OH,43110,"http://maps.google.com/maps?q=7911 DILEY ROAD,+CANAL WINCHESTER,+OH+43110&hl=en"
FAIRFIELD COUNTY SHERIFF'S OFFICE,VIOLET TOWNSHIP MAINTENANCE GARAGE,490 N CENTER STCORNER OF N CENTER & STEMEN RD,PICKERINGTON,OH,43147,"http://maps.google.com/maps?q=490 N CENTER ST,+PICKERINGTON,+OH+43147&hl=en"
FAIRFIELD POLICE DEPARTMENT,FAIRFIELD POLICE DEPARTMENT,5230 PLEASANT AVE,FAIRFIELD,OH,45014,"http://maps.google.com/maps?q=5230 PLEASANT AVE,+FAIRFIELD,+OH+45014&hl=en"
FAIRFIELD-HOCKING-ATHENS MAJOR CRIMES UNIT,"KROGER 
												
													PARKING LOT",1735 N MEMEORIAL DR,LANCASTER,OH,43130,"http://maps.google.com/maps?q=1735 N MEMEORIAL DR,+LANCASTER,+OH+43130&hl=en"
FAYETTE COUNTY SHERIFF'S OFFICE,"COMMUNTY HEALTH FAIR 
												
													GRACE COMMUNITY CHURCH",525 GLENN AVE,WASHINGTON COURT HOUSE,OH,43160,"http://maps.google.com/maps?q=525 GLENN AVE,+WASHINGTON COURT HOUSE,+OH+43160&hl=en"
FAYETTE COUNTY SHERIFF'S OFFICE,SHERIFF'S ANNEX BUILDING,110 WEST MARKET STREET,WASHINGTON COURT HOUSE,OH,43160,"http://maps.google.com/maps?q=110 WEST MARKET STREET,+WASHINGTON COURT HOUSE,+OH+43160&hl=en"
FELICITY POLICE DEPARTMENT,FELICITY POLICE DEPARTMENT,415 WALNUT STREET,FELICITY,OH,45120,"http://maps.google.com/maps?q=415 WALNUT STREET,+FELICITY,+OH+45120&hl=en"
FLEMINGSBURG POLICE DEPARTMENT,FLEMINGSBURG POLICE DEPARTMENT,116 S MAIN CROSS STREET,FLEMINGSBURG,KY,41041,"http://maps.google.com/maps?q=116 S MAIN CROSS STREET,+FLEMINGSBURG,+KY+41041&hl=en"
FLORENCE POLICE DEPARTMENT,FLORENCE POLICE DEPARTMENT,8100 EWING BLVD,FLORENCE,KY,41042,"http://maps.google.com/maps?q=8100 EWING BLVD,+FLORENCE,+KY+41042&hl=en"
"FORT THOMAS, KENTUCKY POLICE DEPARTMENT",FT. THOMAS POLICE DEPARTMENT,130 N. FT. THOMAS AVE,FORT THOMAS,KY,41075,"http://maps.google.com/maps?q=130 N. FT. THOMAS AVE,+FORT THOMAS,+KY+41075&hl=en"
FRANKFORT POLICE DEPARTMENT,"FRANKLIN COUNTY HEALTH DEPARTMENT 
												
													EAST WEST CONNECTOR ROAD",851 EAST WEST CONNECTOR ROAD,FRANKFORT,KY,40601,"http://maps.google.com/maps?q=851 EAST WEST CONNECTOR ROAD,+FRANKFORT,+KY+40601&hl=en"
FRANKLIN COUNTY SHERIFF'S OFFICE,KROGER,300 S. HAMILTON RD,GAHANNA,OH,43230,"http://maps.google.com/maps?q=300 S. HAMILTON RD,+GAHANNA,+OH+43230&hl=en"
FRANKLIN COUNTY SHERIFF'S OFFICE,KROGER,3637 S. HIGH ST,COLUMBUS,OH,43207,"http://maps.google.com/maps?q=3637 S. HIGH ST,+COLUMBUS,+OH+43207&hl=en"
FRANKLIN COUNTY SHERIFF'S OFFICE,KROGER,4656 CEMETERY RD.,HILLIARD,OH,43026,"http://maps.google.com/maps?q=4656 CEMETERY RD.,+HILLIARD,+OH+43026&hl=en"
FRANKLIN COUNTY SHERIFF'S OFFICE,KROGER,55 W. SCHROCK RD.,WESTERVILLE,OH,43081,"http://maps.google.com/maps?q=55 W. SCHROCK RD.,+WESTERVILLE,+OH+43081&hl=en"
FRANKLIN COUNTY SHERIFF'S OFFICE,KROGER,6095 GENDER RD,CANAL WINCHESTER,OH,43110,"http://maps.google.com/maps?q=6095 GENDER RD,+CANAL WINCHESTER,+OH+43110&hl=en"
FRANKLIN COUNTY SHERIFF'S OFFICE,KROGER,7255 SAWMILL RD.,DUBLIN,OH,43016,"http://maps.google.com/maps?q=7255 SAWMILL RD.,+DUBLIN,+OH+43016&hl=en"
FRANKLIN POLICE DEPARTMENT (LOBBY),WAL-MART,1275 E. SECOND STREET,FRANKLIN,OH,45005,"http://maps.google.com/maps?q=1275 E. SECOND STREET,+FRANKLIN,+OH+45005&hl=en"
FRANKLIN TOWNSHIP POLICE DEPARTMENT,"FRANKLIN TOWNSHIP POLICE DEPT. 
												
													FRANKLIN TOWNSHIP FIRE DEPT.",2193 FRANK RD,COLUMBUS,OH,43223,"http://maps.google.com/maps?q=2193 FRANK RD,+COLUMBUS,+OH+43223&hl=en"
GOSHEN TOWNSHIP POLICE DEPARTMENT,GOSHEN POLICE DEPARTMENT,6757 GOSHEN ROAD,GOSHEN,OH,45122,"http://maps.google.com/maps?q=6757 GOSHEN ROAD,+GOSHEN,+OH+45122&hl=en"
GREEN TOWNSHIP POLICE DEPARTMENT,"GREEN TOWNSHIP POLICE 
												
													KIOSK IN THE LOBBY ONLY",6303 HARRISON AVE.,CINCINNATI,OH,45247,"http://maps.google.com/maps?q=6303 HARRISON AVE.,+CINCINNATI,+OH+45247&hl=en"
GREENE COUNTY SHERIFF'S OFFICE,BEAVERCREEK POLICE DEPARTMENT,1388 RESEARCH PARK DRIVE,DAYTON,OH,45432,"http://maps.google.com/maps?q=1388 RESEARCH PARK DRIVE,+DAYTON,+OH+45432&hl=en"
GREENE COUNTY SHERIFF'S OFFICE,FAIRBORN POLICE DEPARTMENT,70 W HEBBLE ROAD,FAIRBORN,OH,45324,"http://maps.google.com/maps?q=70 W HEBBLE ROAD,+FAIRBORN,+OH+45324&hl=en"
GREENE COUNTY SHERIFF'S OFFICE,GREENE COUNTY SHERIFF'S OFFICE,120 E MAIN STREET,XENIA,OH,45385,"http://maps.google.com/maps?q=120 E MAIN STREET,+XENIA,+OH+45385&hl=en"
GREENE COUNTY SHERIFF'S OFFICE,SUGARCREEK TOWNSHIP POLICE DEPARTMENT,4398 CLYO ROAD,DAYTON,OH,45459,"http://maps.google.com/maps?q=4398 CLYO ROAD,+DAYTON,+OH+45459&hl=en"
GREENHILLS POLICE,GREENHILLS MUNCIPAL BUILDING,11000 WINTON RD,CINCINNATI,OH,45218,"http://maps.google.com/maps?q=11000 WINTON RD,+CINCINNATI,+OH+45218&hl=en"
GROVE CITY POLICE,JACKSON TOWNSHIP STATION 202,3650 HOOVER ROAD,GROVE CITY,OH,43123,"http://maps.google.com/maps?q=3650 HOOVER ROAD,+GROVE CITY,+OH+43123&hl=en"
HAMILTON COUNTY SHERIFF'S OFFICE,HARRISON TOWNSHIP,9940 NEW HAVEN ROAD,HARRISON,OH,45030,"http://maps.google.com/maps?q=9940 NEW HAVEN ROAD,+HARRISON,+OH+45030&hl=en"
HAMILTON COUNTY SHERIFF'S OFFICE,MIAMI TOWNSHIP,3780 SHADY LANE,NORTH BEND,OH,45052,"http://maps.google.com/maps?q=3780 SHADY LANE,+NORTH BEND,+OH+45052&hl=en"
HAMILTON POLICE DEPARTMENT,HAMILTON POLICE DEPARTMENT,331 SOUTH FRONT STREET,HAMILTON,OH,45011,"http://maps.google.com/maps?q=331 SOUTH FRONT STREET,+HAMILTON,+OH+45011&hl=en"
HAMILTON TOWNSHIP POLICE DEPARTMENT,HAMILTON TOWNSHIP POLICE DEPARTMENT,7780 SOUTH STATE ROUTE 48,MAINEVILLE,OH,45039,"http://maps.google.com/maps?q=7780 SOUTH STATE ROUTE 48,+MAINEVILLE,+OH+45039&hl=en"
HARDIN COUNTY SHERIFF'S OFFICE,"HARDIN MEMORIAL HOSPITAL 
												
													NORTH PARKING AREA/MEDICAL OFFICE BUILDING",75 WASHINGTON BLVD @MEMORIAL AVE.,KENTON,OH,43326,"http://maps.google.com/maps?q=75 WASHINGTON BLVD @,+KENTON,+OH+43326&hl=en"
HARDIN COUNTY SHERIFF'S OFFICE,RIDGEMONT SCHOOL,560 W. TAYLOR ST.,MOUNT VICTORY,OH,43340,"http://maps.google.com/maps?q=560 W. TAYLOR ST.,+MOUNT VICTORY,+OH+43340&hl=en"
HARRISON COUNTY SHERIFF'S OFFICE,HARRISON COUNTY SHERIFF'S OFFICE,113 W. PIKE ST.,CYNTHIANA,KY,41031,"http://maps.google.com/maps?q=113 W. PIKE ST.,+CYNTHIANA,+KY+41031&hl=en"
HIGHLAND HEIGHTS POLICE,HIGHLAND HEIGHTS POLICE,176 JOHNS HILL RD,HIGHLAND HEIGHTS,KY,41076,"http://maps.google.com/maps?q=176 JOHNS HILL RD,+HIGHLAND HEIGHTS,+KY+41076&hl=en"
HILLIARD DIVISION OF POLICE,HILLIARD DIVISION OF POLICE,5171 NORTHWEST PARKWAY,HILLIARD,OH,43026,"http://maps.google.com/maps?q=5171 NORTHWEST PARKWAY,+HILLIARD,+OH+43026&hl=en"
HUBER HEIGHTS POLICE DEPARTMENT,HUBER HEIGHTS POLICE DEPARTMENT,6121 TAYLORSVILLE ROAD,DAYTON,OH,45424,"http://maps.google.com/maps?q=6121 TAYLORSVILLE ROAD,+DAYTON,+OH+45424&hl=en"
HUNTINGTON POLICE DEPARTMENT,CABELL HUNTINGTON HEALTH DEPARTMENT,703 7TH AVE HUNTINGTON,HUNTINGTON,WV,25701,"http://maps.google.com/maps?q=703 7TH AVE HUNTINGTON,+HUNTINGTON,+WV+25701&hl=en"
INDIANA STATE POLICE,"INDIANA STATE POLICE 
												
													DISTRICT 42",902 SOUTH ADAMS STREET,VERSAILLES,IN,47042,"http://maps.google.com/maps?q=902 SOUTH ADAMS STREET,+VERSAILLES,+IN+47042&hl=en"
KENTUCKY STATE POLICE POST 14,KENTUCKY STATE POLICE,5975 STATE ROUTE US 60,ASHLAND,KY,41102,"http://maps.google.com/maps?q=5975 STATE ROUTE US 60,+ASHLAND,+KY+41102&hl=en"
KENTUCKY STATE POLICE POST 5,KENTUCKY STATE POLICE,160 CITATION LANE,CAMPBELLSBURG,KY,40011,"http://maps.google.com/maps?q=160 CITATION LANE,+CAMPBELLSBURG,+KY+40011&hl=en"
KENTUCKY STATE POLICE POST 6,KSP POST 6,4265 DIXIE HIGHWAY,DRY RIDGE,KY,41035,"http://maps.google.com/maps?q=4265 DIXIE HIGHWAY,+DRY RIDGE,+KY+41035&hl=en"
KENTUCKY STATE POLICE POST 7,KENTUCKY STATE POLICE POST 7,"699 EASTERN BYPASS, RICHMOND, KY",RICHMOND,KY,40475,"http://maps.google.com/maps?q=699 EASTERN BYPASS, RICHMOND, KY,+RICHMOND,+KY+40475&hl=en"
KENTUCKY STATE POLICE POST 8,MOREHEAD POLICE DEPARTMENT,105 E MAIN STREET,MOREHEAD,KY,40351,"http://maps.google.com/maps?q=105 E MAIN STREET,+MOREHEAD,+KY+40351&hl=en"
KETTERING POLICE DEPARTMENT,KETTERING POLICE DEPARTMENT,3600 SHROYER RD,KETTERING,OH,45429,"http://maps.google.com/maps?q=3600 SHROYER RD,+KETTERING,+OH+45429&hl=en"
LANCASTER (OH) POLICE DEPARTMENT,OHIO UNIVERSITY LANCASTER CAMPUS,1570 GRANVILLE PIKE,LANCASTER,OH,43130,"http://maps.google.com/maps?q=1570 GRANVILLE PIKE,+LANCASTER,+OH+43130&hl=en"
LEBANON DIVISION OF POLICE,COUNTRYSIDE YMCA,1699 DEERFIELD RD.,LEBANON,OH,45036,"http://maps.google.com/maps?q=1699 DEERFIELD RD.,+LEBANON,+OH+45036&hl=en"
LEBANON DIVISION OF POLICE,KROGER (PARKING LOT),1425 COLUMBUS AVE,LEBANON,OH,45036,"http://maps.google.com/maps?q=1425 COLUMBUS AVE,+LEBANON,+OH+45036&hl=en"
LEXINGTON POLICE DEPARTMENT,KENTUCKY AMERICAN WATER COMPANY,2300 RICHMOND RD,LEXINGTON,KY,40502,"http://maps.google.com/maps?q=2300 RICHMOND RD,+LEXINGTON,+KY+40502&hl=en"
LOCKLAND POLICE DEPARTMENT,LOCKLAND CHURCH OF NAZARENE,335 W WYOMING AV,LOCKLAND,OH,45215,"http://maps.google.com/maps?q=335 W WYOMING AV,+LOCKLAND,+OH+45215&hl=en"
LOVELAND POLICE DEPARTMENT,"LOVELAND ELEMENTARY AND PRIMARY SCHOOLS 
												
													DRIVE THROUGH DROP OFF",600 LOVELAND MADEIRA ROAD,LOVELAND,OH,45140,"http://maps.google.com/maps?q=600 LOVELAND MADEIRA ROAD,+LOVELAND,+OH+45140&hl=en"
LOVELAND POLICE DEPARTMENT,"LOVELAND POLICE DEPARTMENT 
												
													LOBBY DROP BOX",126 SOUTH LEBANON ROAD,LOVELAND,OH,45140,"http://maps.google.com/maps?q=126 SOUTH LEBANON ROAD,+LOVELAND,+OH+45140&hl=en"
LUDLOW POLICE DEPARTMENT,LUDLOW POLICE DEPARTMENT,51 ELM STREET,LUDLOW,KY,41016,"http://maps.google.com/maps?q=51 ELM STREET,+LUDLOW,+KY+41016&hl=en"
MADISON COUNTY SHERIFF'S OFFICE,MADISON COUNTY SHERIFF OPERATION CENTER,222 GARFIELD STREET,LONDON,OH,43140,"http://maps.google.com/maps?q=222 GARFIELD STREET,+LONDON,+OH+43140&hl=en"
MARYSVILLE DIVISION OF POLICE,WALGREENS,180 COLEMANS CROSSING BLVD,MARYSVILLE,OH,43040,"http://maps.google.com/maps?q=180 COLEMANS CROSSING BLVD,+MARYSVILLE,+OH+43040&hl=en"
MECHANICSBURG POLICE DEPARTMENT,"MECHANICSBURG POLICE DEPARTMENT 
												
													MAIN OFFICE",18 N. MAIN ST.,MECHANICSBURG,OH,43044,"http://maps.google.com/maps?q=18 N. MAIN ST.,+MECHANICSBURG,+OH+43044&hl=en"
MECHANICSBURG POLICE DEPARTMENT,"MECHANICSBURG POLICE DEPARTMENT 
												
													NORTH LEWISBURG OFFICE",60 E. MAPLE ST.,NORTH LEWISBURG,OH,43060,"http://maps.google.com/maps?q=60 E. MAPLE ST.,+NORTH LEWISBURG,+OH+43060&hl=en"
MERCER COUNTY SHERIFF'S OFFICE,"CELINA POLICE DEPARTMENT 
												
													PARKING LOT",225 NORTH MAIN STREET,CELINA,OH,45822,"http://maps.google.com/maps?q=225 NORTH MAIN STREET,+CELINA,+OH+45822&hl=en"
MIAMI COUNTY SHERIFF'S OFFICE,MIAMI COUNTY TRANSFER STATION,2500 N COUNTY ROAD 25A,TROY,OH,45373,"http://maps.google.com/maps?q=2500 N COUNTY ROAD 25A,+TROY,+OH+45373&hl=en"
MIAMI TOWNSHIP POLICE DEPARTMENT,MIAMI TOWNSHIP POLICE DEPARTMENT,2660 LYONS ROAD,MIAMISBURG,OH,45342,"http://maps.google.com/maps?q=2660 LYONS ROAD,+MIAMISBURG,+OH+45342&hl=en"
MIAMI TOWNSHIP POLICE DEPT. - CLERMONT CO.,"MIAMI TOWNSHIP POLICE DEPT. - CLERMONT CO. 
												
													24HR DROP BOX LOCATED IN LOBBY",5900 MCPICKEN DRIVE,MILFORD,OH,45150,"http://maps.google.com/maps?q=5900 MCPICKEN DRIVE,+MILFORD,+OH+45150&hl=en"
MONTGOMERY COUNTY SHERIFF'S OFFICE,MONTGOMERY COUNTY SHERIFF'S OFFICE,345 W. SECOND ST.,DAYTON,OH,45422,"http://maps.google.com/maps?q=345 W. SECOND ST.,+DAYTON,+OH+45422&hl=en"
MONTGOMERY POLICE DEPARTMENT,MONTGOMERY SAFETY CENTER,10150 MONTGOMERY RD,CINCINNATI,OH,45242,"http://maps.google.com/maps?q=10150 MONTGOMERY RD,+CINCINNATI,+OH+45242&hl=en"
MORAINE POLICE DEPARTMENT,"MORAINE MUNICIPAL BUILDING 
												
													MORAINE POLICE DIVISION",4200 DRYDEN RD.,MORAINE,OH,45439,"http://maps.google.com/maps?q=4200 DRYDEN RD.,+MORAINE,+OH+45439&hl=en"
MOREHEAD POLICE DEPARTMENT,CARL D. PERKINS COMMUNITY CENTER,CRAYTON JACKSON LANE,MOREHEAD,KY,40351,"http://maps.google.com/maps?q=CRAYTON JACKSON LANE,+MOREHEAD,+KY+40351&hl=en"
MOUNT STERLING POLICE DEPARTMENT,MT. STERLING PLICE DEPT.,35 SOUTH BANK,MOUNT STERLING,KY,40353,"http://maps.google.com/maps?q=35 SOUTH BANK,+MOUNT STERLING,+KY+40353&hl=en"
NORTHERN KENTUCKY DRUG STRIKE FORCE,BELLEVUE POLICE DEPARTMENT,616 POPLAR ST.,BELLEVUE,KY,41073,"http://maps.google.com/maps?q=616 POPLAR ST.,+BELLEVUE,+KY+41073&hl=en"
NORTHERN KENTUCKY DRUG STRIKE FORCE,CAMPBELL COUNTY POLICE DEPARTMENT,8774 CONSTABLE DR.,ALEXANDRIA,KY,41001,"http://maps.google.com/maps?q=8774 CONSTABLE DR.,+ALEXANDRIA,+KY+41001&hl=en"
NORTHERN KENTUCKY DRUG STRIKE FORCE,COLD SPRING POLICE DEPARTMENT,5589 EAST ALEXANDRIA PIKE,COLD SPRING,KY,41076,"http://maps.google.com/maps?q=5589 EAST ALEXANDRIA PIKE,+COLD SPRING,+KY+41076&hl=en"
NORTHERN KENTUCKY DRUG STRIKE FORCE,COVINGTON POLICE DEPARTMENT,1 POLICE MEMORIAL DR.,COVINGTON,KY,41014,"http://maps.google.com/maps?q=1 POLICE MEMORIAL DR.,+COVINGTON,+KY+41014&hl=en"
NORTHERN KENTUCKY DRUG STRIKE FORCE,DAYTON POLICE DEPARTMENT,514 6TH AVE.,DAYTON,KY,41074,"http://maps.google.com/maps?q=514 6TH AVE.,+DAYTON,+KY+41074&hl=en"
NORTHERN KENTUCKY DRUG STRIKE FORCE,EDGEWOOD POLICE DEPARTMENT,385 DUDLEY PIKE,EDGEWOOD,KY,41017,"http://maps.google.com/maps?q=385 DUDLEY PIKE,+EDGEWOOD,+KY+41017&hl=en"
NORTHERN KENTUCKY DRUG STRIKE FORCE,ERLANGER POLICE DEPARTMENT,505 COMMONWEALTH AVE.,ERLANGER,KY,41018,"http://maps.google.com/maps?q=505 COMMONWEALTH AVE.,+ERLANGER,+KY+41018&hl=en"
NORTHERN KENTUCKY DRUG STRIKE FORCE,FT. WRIGHT POLICE DEPARTMENT,409 KYLES LN.,COVINGTON,KY,41011,"http://maps.google.com/maps?q=409 KYLES LN.,+COVINGTON,+KY+41011&hl=en"
NORTHERN KENTUCKY DRUG STRIKE FORCE,HIGHLAND HEIGHTS POLICE DEPARTMENT,176 JOHNS HILL RD.,HIGHLAND HEIGHTS,KY,41076,"http://maps.google.com/maps?q=176 JOHNS HILL RD.,+HIGHLAND HEIGHTS,+KY+41076&hl=en"
NORTHERN KENTUCKY DRUG STRIKE FORCE,KENTON COUNTY POLICE DEPARTMENT,11777 MADISON PIKE,INDEPENDENCE,KY,41051,"http://maps.google.com/maps?q=11777 MADISON PIKE,+INDEPENDENCE,+KY+41051&hl=en"
NORTHERN KENTUCKY DRUG STRIKE FORCE,NEWPORT POLICE DEPARTMENT,998 MONMOUTH ST.,NEWPORT,KY,41071,"http://maps.google.com/maps?q=998 MONMOUTH ST.,+NEWPORT,+KY+41071&hl=en"
NORTHERN KENTUCKY DRUG STRIKE FORCE,PARK HILLS POLICE DEPARTMENT,1106 AMSTERDAM RD.,PARK HILLS,KY,41011,"http://maps.google.com/maps?q=1106 AMSTERDAM RD.,+PARK HILLS,+KY+41011&hl=en"
NORTHERN KENTUCKY DRUG STRIKE FORCE,SOUTHGATE POLICE DEPARTMENT,301 W. WALNUT,SOUTHGATE,KY,41071,"http://maps.google.com/maps?q=301 W. WALNUT,+SOUTHGATE,+KY+41071&hl=en"
NORTHERN KENTUCKY DRUG STRIKE FORCE,VILLA HILLS POLICE DEPARTMENT,719 RODGERS RD.,VILLA HILLS,KY,41017,"http://maps.google.com/maps?q=719 RODGERS RD.,+VILLA HILLS,+KY+41017&hl=en"
NORTHERN KENTUCKY DRUG STRIKE FORCE,WILDER POLICE DEPARTMENT,520 LICKING PIKE,WILDER,KY,41071,"http://maps.google.com/maps?q=520 LICKING PIKE,+WILDER,+KY+41071&hl=en"
NORTHERN KENTUCKY UNIVERSITY POLICE,NKUPD,415 OLD JOHNS HILL ROAD,HIGHLAND HEIGHTS,KY,41099,"http://maps.google.com/maps?q=415 OLD JOHNS HILL ROAD,+HIGHLAND HEIGHTS,+KY+41099&hl=en"
PARIS POLICE DEPARTMENT,WALMART,305 LETTON DRIVE,PARIS,KY,40361,"http://maps.google.com/maps?q=305 LETTON DRIVE,+PARIS,+KY+40361&hl=en"
PENDLETON COUNTY SHERIFF'S OFFICE,PENDLETON COUNTY SHERIFF'S OFFICE,202 CHAPEL STREET,FALMOUTH,KY,41040,"http://maps.google.com/maps?q=202 CHAPEL STREET,+FALMOUTH,+KY+41040&hl=en"
PICKERINGTON POLICE DEPARTMENT,PICKERINGTON POLICE DEPARTMENT,1311 REFUGEE RD.,PICKERINGTON,OH,43147,"http://maps.google.com/maps?q=1311 REFUGEE RD.,+PICKERINGTON,+OH+43147&hl=en"
PIERCE TOWNSHIP POLICE DEPARTMENT,PIERCE TOWNSHIP POLICE DEPARTMENT,950 LOCUST CORNER RD,CINCINNATI,OH,45245,"http://maps.google.com/maps?q=950 LOCUST CORNER RD,+CINCINNATI,+OH+45245&hl=en"
PIQUA POLICE DEPARTMENT,PIQUA POLICE DEPARTMENT,100 N. WAYNE ST.,PIQUA,OH,45356,"http://maps.google.com/maps?q=100 N. WAYNE ST.,+PIQUA,+OH+45356&hl=en"
PREBLE COUNTY SHERIFF'S OFFICE,PREBLE COUNTY SHERIFF'S OFFICE,1139 PREBLE DRIVE,EATON,OH,45320,"http://maps.google.com/maps?q=1139 PREBLE DRIVE,+EATON,+OH+45320&hl=en"
REYNOLDSBURG POLICE DEPARTMENT,REYNOLDSBURG POLICE DEPARTMENT,7240 E. MAIN ST,REYNOLDSBURG,OH,43068,"http://maps.google.com/maps?q=7240 E. MAIN ST,+REYNOLDSBURG,+OH+43068&hl=en"
RICHMOND POLICE DEPARTMENT,"RICHMOND POLICE DEPARTMENT 
												
													MSUTTON@RICHMONDINDIANA.GOV",50 NORTH 5TH STREET,RICHMOND,IN,47374,"http://maps.google.com/maps?q=50 NORTH 5TH STREET,+RICHMOND,+IN+47374&hl=en"
ROSS COUNTY SHERIFF'S OFFICE,ROSS COUNTY LAW COMPLEX,28 N PAINT ST.,CHILLICOTHE,OH,45601,"http://maps.google.com/maps?q=28 N PAINT ST.,+CHILLICOTHE,+OH+45601&hl=en"
ROSS TWP POLICE DEPARTMNET,ROSS TWP. POLICE DEPARTMENT,4055 HAMILTON CLEVES RD,FAIRFIELD,OH,45014,"http://maps.google.com/maps?q=4055 HAMILTON CLEVES RD,+FAIRFIELD,+OH+45014&hl=en"
ROWAN COUNTY SHERIFF'S OFFICE,KSP POST 8 MOREHEAD,1595 FLEMINGSBURG ROAD,MOREHEAD,KY,40351,"http://maps.google.com/maps?q=1595 FLEMINGSBURG ROAD,+MOREHEAD,+KY+40351&hl=en"
RUSH COUNTY SHERIFF DEPARTMENT,"RUSH MEMORIAL HOSPITAL 
												
													13TH STREET ENTRANCE",1300 N MAIN ST,RUSHVILLE,IN,46173,"http://maps.google.com/maps?q=1300 N MAIN ST,+RUSHVILLE,+IN+46173&hl=en"
SHARON TOWNSHIP POLICE DEPARTMENT,SHARON TOWNSHIP POLICE DEPARTMENT,95 E. WILSON BRIDGE ROAD,WORTHINGTON,OH,43085,"http://maps.google.com/maps?q=95 E. WILSON BRIDGE ROAD,+WORTHINGTON,+OH+43085&hl=en"
SHARONVILLE POLICE DEPARTMENT,SHARONVILLE MUNICIPAL BUILDING,10900 READING ROAD,CINCINNATI,OH,45241,"http://maps.google.com/maps?q=10900 READING ROAD,+CINCINNATI,+OH+45241&hl=en"
SPRINGBORO POLICE DEPARTMENT,CITY OF SPRINGBORO MUNICIPAL BUILDING,320 W CENTRAL AVE.,SPRINGBORO,OH,45066,"http://maps.google.com/maps?q=320 W CENTRAL AVE.,+SPRINGBORO,+OH+45066&hl=en"
SPRINGDALE POLICE DEPARTMENT,SPRINGDALE POLICE DEPARTMENT,12105 LAWNVIEW AVE.,CINCINNATI,OH,45246,"http://maps.google.com/maps?q=12105 LAWNVIEW AVE.,+CINCINNATI,+OH+45246&hl=en"
SPRINGFIELD POLICE DEPARTMENT,SPRINGFIELD POLICE DEPARTMENT,130 N FOUNTAIN AVE,SPRINGFIELD,OH,45502,"http://maps.google.com/maps?q=130 N FOUNTAIN AVE,+SPRINGFIELD,+OH+45502&hl=en"
SPRINGFIELD TOWNSHIP POLICE DEPARTMENT,SPRINGFIELD TOWNSHIP POLICE DEPARTMENT,1130 COMPTON ROAD,CINCINNATI,OH,45231,"http://maps.google.com/maps?q=1130 COMPTON ROAD,+CINCINNATI,+OH+45231&hl=en"
TROTWOOD POLICE DEPARTMENT,TROTWOOD POLICE DEPARTMENT,3035 OLIVE ROAD,DAYTON,OH,45426,"http://maps.google.com/maps?q=3035 OLIVE ROAD,+DAYTON,+OH+45426&hl=en"
UNION COUNTY SHERIFF'S OFFICE,PLEASANT VALLEY FIRE DEPARTMENT,650 WEST MAIN STREET,PLAIN CITY,OH,43064,"http://maps.google.com/maps?q=650 WEST MAIN STREET,+PLAIN CITY,+OH+43064&hl=en"
UNION COUNTY SHERIFF'S OFFICE,PLEASANT VALLEY FIRE DEPT,650 W. MAIN STREET,PLAIN CITY,OH,43064,"http://maps.google.com/maps?q=650 W. MAIN STREET,+PLAIN CITY,+OH+43064&hl=en"
UNION COUNTY SHERIFF'S OFFICE,RICHWOOD POLICE DEPARTMENT,153 NORTH FRANKLIN ST,RICHWOOD,OH,43344,"http://maps.google.com/maps?q=153 NORTH FRANKLIN ST,+RICHWOOD,+OH+43344&hl=en"
UNION COUNTY SHERIFF'S OFFICE,RICHWOOD POLICE DEPARTMENT,153 NORTH FRANKLIN STREET,RICHWOOD,OH,43344,"http://maps.google.com/maps?q=153 NORTH FRANKLIN STREET,+RICHWOOD,+OH+43344&hl=en"
UNION COUNTY SHERIFF'S OFFICE,UNION COUNTY SHERIFF'S OFFICE,221 W FIFTH STREET,MARYSVILLE,OH,43040,"http://maps.google.com/maps?q=221 W FIFTH STREET,+MARYSVILLE,+OH+43040&hl=en"
UPPER ARLINGTON DIVISION OF POLICE,"UPPER ARLINGTON POLICE DIVISION 
												
													MUNICIPAL SERVICES CENTER",3600 TREMONT ROAD,UPPER ARLINGTON,OH,43221,"http://maps.google.com/maps?q=3600 TREMONT ROAD,+UPPER ARLINGTON,+OH+43221&hl=en"
"URBANA, OH POLICE DIVISION",KROGER PARKING LOT,1637 E. U.S. HWY. 36,URBANA,OH,43078,"http://maps.google.com/maps?q=1637 E. U.S. HWY. 36,+URBANA,+OH+43078&hl=en"
VANDALIA DIVISION OF POLICE,VANDALIA POLICE DEPARTMENT,245 JAMES BOHANAN DR.,VANDALIA,OH,45377,"http://maps.google.com/maps?q=245 JAMES BOHANAN DR.,+VANDALIA,+OH+45377&hl=en"
WAPAKONETA POLICE DEPARTMENT,WAPAKONETA POLICE DEPARTMENT,701 PARLETTE CT,WAPAKONETA,OH,45895,"http://maps.google.com/maps?q=701 PARLETTE CT,+WAPAKONETA,+OH+45895&hl=en"
WARREN COUNTY DRUG TASK FORCE,KROGER,5100 TERRA FIRMA DR.,MASON,OH,45040,"http://maps.google.com/maps?q=5100 TERRA FIRMA DR.,+MASON,+OH+45040&hl=en"
WAYNESVILLE POLICE DEPARTMENT,WAYNESVILLE HIGH SCHOOL (PARKING LOT),735 DAYTON ROAD,WAYNESVILLE,OH,45068,"http://maps.google.com/maps?q=735 DAYTON ROAD,+WAYNESVILLE,+OH+45068&hl=en"
WEST CHESTER POLICE DEPARTMENT,WALGREENS PARKING LOT,7804 CINCINNATI-DAYTON ROAD,WEST CHESTER,OH,45069,"http://maps.google.com/maps?q=7804 CINCINNATI-DAYTON ROAD,+WEST CHESTER,+OH+45069&hl=en"
WEST JEFFERSON POLICE DEPARTMENT,WEST JEFFERSON POLICE DEPARTMENT,28 EAST MAIN ST.,WEST JEFFERSON,OH,43162,"http://maps.google.com/maps?q=28 EAST MAIN ST.,+WEST JEFFERSON,+OH+43162&hl=en"
WEST VIRGINIA STATE POLICE,"WEST VIRGINIA STATE POLICE 
												
													SGT B K WELLMAN/3045285555",3339 US ROUTE 60 EAST,HUNTINGTON,WV,25705,"http://maps.google.com/maps?q=3339 US ROUTE 60 EAST,+HUNTINGTON,+WV+25705&hl=en"
WILMINGTON POLICE DEPARTMENT,FOSTER J. BOYD CANCER CENTER,31 FARQUHAR ST,WILMINGTON,OH,45177,"http://maps.google.com/maps?q=31 FARQUHAR ST,+WILMINGTON,+OH+45177&hl=en"
WILMINGTON POLICE DEPARTMENT,UHAL'S IGA MARKET,440 E WASHINGTON ST,SABINA,OH,45169,"http://maps.google.com/maps?q=440 E WASHINGTON ST,+SABINA,+OH+45169&hl=en"
WINCHESTER POLICE DEPARTMENT,WINCHESTER POLICE DEPARTMENT,16 SOUTH MAPLE STREET,WINCHESTER,KY,40391,"http://maps.google.com/maps?q=16 SOUTH MAPLE STREET,+WINCHESTER,+KY+40391&hl=en"
WOODFORD COUNTY SHERIFF DEPT,KROGER,KROGER WAY,VERSAILLES,KY,40383,"http://maps.google.com/maps?q=KROGER WAY,+VERSAILLES,+KY+40383&hl=en"
WOODFORD COUNTY SHERIFF DEPT,MIDWAY CITY HALL,MAIN ST,MIDWAY,KY,40347,"http://maps.google.com/maps?q=MAIN ST,+MIDWAY,+KY+40347&hl=en"
WORTHINGTON DIVISION OF POLICE,WORTHINGTON DIVISION OF POLICE,6555 WORTHINGTON GALLENA RD,COLUMBUS,OH,43085,"http://maps.google.com/maps?q=6555 WORTHINGTON GALLENA RD,+COLUMBUS,+OH+43085&hl=en"
