Participant,CollectionSite,Address,City,State,Zip,MapURL
BEAVERHEAD COUNTY SHERIFF OFFICE,BEAVERHEAD COUNTY SHERIFF OFFICE,2 SOUTH PACIFIC STREETSTE 16,DILLON,MT,59725,"http://maps.google.com/maps?q=2 SOUTH PACIFIC STREET,+DILLON,+MT+59725&hl=en"
BOUNDARY COUNTY SHERIFF,"SUPER 1 FOODMARKET 9AM - 5PM, * ALSO YEAR-ROUND DROPBOX AT SHERIFF'S OFFICE",6452 S. MAIN ST,BONNERS FERRY,ID,83805,"http://maps.google.com/maps?q=6452 S. MAIN ST,+BONNERS FERRY,+ID+83805&hl=en"
BUTTE_SILVER BOW LAW ENFORCEMENT,BUTTE PLAZA MALL,3100 HARRISON AVENUE,BUTTE,MT,59701,"http://maps.google.com/maps?q=3100 HARRISON AVENUE,+BUTTE,+MT+59701&hl=en"
CODY POLICE DEPARTMENT,CODY LAW ENFORCEMENT CENTER,1402 RIVER VIEW DRIVE,CODY,WY,82414,"http://maps.google.com/maps?q=1402 RIVER VIEW DRIVE,+CODY,+WY+82414&hl=en"
GALLATIN COUNTY SHERIFF'S OFFICE/ BOZEMAN CITY POL,GALLATIN COUNTY LAW AND JUSTICE CENTER,615 SOUTH 16TH AVE,BOZEMAN,MT,59715,"http://maps.google.com/maps?q=615 SOUTH 16TH AVE,+BOZEMAN,+MT+59715&hl=en"
GLACIER COUNTY SHERIFF'S OFFICE,CUT BANK ELK'S LODGE,18 S. CENTRAL AVE,CUT BANK,MT,59427,"http://maps.google.com/maps?q=18 S. CENTRAL AVE,+CUT BANK,+MT+59427&hl=en"
GLACIER COUNTY SHERIFF'S OFFICE,GLACIER PEAK'S CASINO,416 W CENTRAL AVEINTERSECTION US 2 &HWY 89N,BROWNING,MT,59417,"http://maps.google.com/maps?q=416 W CENTRAL AVE,+BROWNING,+MT+59417&hl=en"
KOOTENAI COUNTY SHERIFF'S OFFICE,ALBERTSON'S,161 W. PRAIRIE AVE,HAYDEN,ID,83835,"http://maps.google.com/maps?q=161 W. PRAIRIE AVE,+HAYDEN,+ID+83835&hl=en"
LATAH COUNTY SHERIFF'S OFFICE,CITY PARK,MAIN ST. & 6TH ST.,KENDRICK,ID,83537,"http://maps.google.com/maps?q=MAIN ST. & 6TH ST.,+KENDRICK,+ID+83537&hl=en"
LATAH COUNTY SHERIFF'S OFFICE,GENESEE FOOD CENTER PARKING LOT,216 WEST CHESTNUT ST,GENESEE,ID,83832,"http://maps.google.com/maps?q=216 WEST CHESTNUT ST,+GENESEE,+ID+83832&hl=en"
LATAH COUNTY SHERIFF'S OFFICE,HARVEST FOOD PARKING LOG,150 6TH ST.,POTLATCH,ID,83855,"http://maps.google.com/maps?q=150 6TH ST.,+POTLATCH,+ID+83855&hl=en"
LATAH COUNTY SHERIFF'S OFFICE,LIONS CLUB PARKING LOT,415 MAIN ST.,TROY,ID,83871,"http://maps.google.com/maps?q=415 MAIN ST.,+TROY,+ID+83871&hl=en"
LEMHI COUNTY SHERIFF'S OFFICE,STEELE MEMORIAL MEDICAL CENTER CLINIC,805 MAIN ST,SALMON,ID,83467,"http://maps.google.com/maps?q=805 MAIN ST,+SALMON,+ID+83467&hl=en"
LEWIS AND CLARK COUNTY SHERIFF'S OFFICE,LINCOLN POST OFFICE,237 MAIN STREET,LINCOLN,MT,59639,"http://maps.google.com/maps?q=237 MAIN STREET,+LINCOLN,+MT+59639&hl=en"
LEWIS AND CLARK COUNTY SHERIFF'S OFFICE,SHOPKO,3101 N MONTANA AVENUE,HELENA,MT,59602,"http://maps.google.com/maps?q=3101 N MONTANA AVENUE,+HELENA,+MT+59602&hl=en"
LEWIS AND CLARK COUNTY SHERIFF'S OFFICE,WALMART,2750 PROSPECT AVENUE,HELENA,MT,59601,"http://maps.google.com/maps?q=2750 PROSPECT AVENUE,+HELENA,+MT+59601&hl=en"
LEWISTON POLICE DEPARTMENT,LEWISTON POLICE DEPT,1224 F ST,LEWISTON,ID,83501,"http://maps.google.com/maps?q=1224 F ST,+LEWISTON,+ID+83501&hl=en"
LIVINGSTON POLICE DEPARTMENT AND ELKS CLUB,ELKS LODGE #246,130 SOUTH 2ND STREET,LIVINGSTON,MT,59047,"http://maps.google.com/maps?q=130 SOUTH 2ND STREET,+LIVINGSTON,+MT+59047&hl=en"
MCCALL POLICE DEPT,ALBERTSONS PARKING LOT,132 E. LAKE ST,MCCALL,ID,83638,"http://maps.google.com/maps?q=132 E. LAKE ST,+MCCALL,+ID+83638&hl=en"
MISSOULA POLICE DEPARTMENT,SOUTHGATE MALL,2901 BROOKS AVENUE,MISSOULA,MT,59801,"http://maps.google.com/maps?q=2901 BROOKS AVENUE,+MISSOULA,+MT+59801&hl=en"
MONTANA HIGHWAY PATROL,MONTANA HIGHWAY PATROL,812 - 14TH STREET NORTH,GREAT FALLS,MT,59401,"http://maps.google.com/maps?q=812 - 14TH STREET NORTH,+GREAT FALLS,+MT+59401&hl=en"
MONTANA HIGHWAY PATROL 2,HELENA FAMILY YMCA,1200 N LAST CHANCE GULCH,HELENA,MT,59601,"http://maps.google.com/maps?q=1200 N LAST CHANCE GULCH,+HELENA,+MT+59601&hl=en"
MONTANA HIGHWAY PATROL 2,HELENA SHOPKO,3101 N. MONTANA AVE.,HELENA,MT,59601,"http://maps.google.com/maps?q=3101 N. MONTANA AVE.,+HELENA,+MT+59601&hl=en"
MT DOJ - DIVISION OF CRIMINAL INVESTIGATIONS,VALLEY DRUG,301 MAIN STREET,STEVENSVILLE,MT,59870,"http://maps.google.com/maps?q=301 MAIN STREET,+STEVENSVILLE,+MT+59870&hl=en"
POST FALLS POLICE DEPARTMENT,CITY OF POST FALLS CITY HALL,408 N. SPOKANE ST.,POST FALLS,ID,83854,"http://maps.google.com/maps?q=408 N. SPOKANE ST.,+POST FALLS,+ID+83854&hl=en"
POWELL POLICE DEPARTMENT,POWELL POLICE DEPARTMENT,250 NORTH CLARK STREET,POWELL,WY,82435,"http://maps.google.com/maps?q=250 NORTH CLARK STREET,+POWELL,+WY+82435&hl=en"
PULLMAN POLICE DEPARTMENT,PULLMAN POLICE DEPARTMENT,260 SE KAMIAKEN STREET,PULLMAN,WA,99163,"http://maps.google.com/maps?q=260 SE KAMIAKEN STREET,+PULLMAN,+WA+99163&hl=en"
SANDPOINT POLICE DEPARTMENT,"SANDPOINT AREA SENIORS, INC.",820 MAIN STREET,SANDPOINT,ID,83864,"http://maps.google.com/maps?q=820 MAIN STREET,+SANDPOINT,+ID+83864&hl=en"
WHEATLAND COUNTY SHERIFF'S OFFICE,WHEATLAND COUNTY SHERIFF'S OFFICE,203 A AVENUE NW,HARLOWTON,MT,59036,"http://maps.google.com/maps?q=203 A AVENUE NW,+HARLOWTON,+MT+59036&hl=en"
WHITEFISH POLICE DEPARTMENT,THE ROCK BUILDING DRIVE UP,350 HERITAGE WAY,KALISPELL,MT,59901,"http://maps.google.com/maps?q=350 HERITAGE WAY,+KALISPELL,+MT+59901&hl=en"
WHITEFISH POLICE DEPARTMENT,WHITEFISH POLICE DEPARTMENT,275 FLATHEAD AVE,WHITEFISH,MT,59937,"http://maps.google.com/maps?q=275 FLATHEAD AVE,+WHITEFISH,+MT+59937&hl=en"
