Participant,CollectionSite,Address,City,State,Zip,MapURL
ADAIR COUNTY SHERIFF'S OFFICE,ADAIR COUNTY SHERIFF'S OFFICE,215 N. FRANKLIN,KIRKSVILLE,MO,63501,"http://maps.google.com/maps?q=215 N. FRANKLIN,+KIRKSVILLE,+MO+63501&hl=en"
ALBIA POLICE DEPARTMENT,MONROE COUNTY LAW ENFORCEMENT CENTER,114 19TH AVE WEST,ALBIA,IA,52531,"http://maps.google.com/maps?q=114 19TH AVE WEST,+ALBIA,+IA+52531&hl=en"
ALTOONA POLICE,ALTOONA FIRE DEPT,950 VENBURY DRIVE,ALTOONA,IA,50009,"http://maps.google.com/maps?q=950 VENBURY DRIVE,+ALTOONA,+IA+50009&hl=en"
ALTOONA POLICE DEPARTMENT,"ALTOONA POLICE DEPARTMENT 
												
													EVENT 8:00AM-8:00PM",1904 SPOONER AVE,ALTOONA,WI,54720,"http://maps.google.com/maps?q=1904 SPOONER AVE,+ALTOONA,+WI+54720&hl=en"
AMES IOWA POLICE DEPARMENT,"CITY HALL 
												
													1ST FLR WEST SIDE OF BLDG",515 CLARK AVE,AMES,IA,50010,"http://maps.google.com/maps?q=515 CLARK AVE,+AMES,+IA+50010&hl=en"
ANKENY POLICE DEPARTMENT,WALGREENS,2702 SE DELAWARE AVE.,ANKENY,IA,50021,"http://maps.google.com/maps?q=2702 SE DELAWARE AVE.,+ANKENY,+IA+50021&hl=en"
APPANOOSE COUNTY SHERIFF,APPANOOSE COUNTY SHERIFF'S OFFICE,1125 W. VAN BUREN ST.,CENTERVILLE,IA,52544,"http://maps.google.com/maps?q=1125 W. VAN BUREN ST.,+CENTERVILLE,+IA+52544&hl=en"
APPLE VALLEY PD,APPLE VALLEY PD,7100 147TH STREET WEST,APPLE VALLEY,MN,55124,"http://maps.google.com/maps?q=7100 147TH STREET WEST,+APPLE VALLEY,+MN+55124&hl=en"
BELLEVUE POLICE DEPARTMENT,BELLEVUE POLICE DEPARTMENT HQ,1510 WALL STREET,BELLEVUE,NE,68005,"http://maps.google.com/maps?q=1510 WALL STREET,+BELLEVUE,+NE+68005&hl=en"
BENTON COUNTY SHERIFF'S OFFICE,"BENTON COUNTY SHERIFF'S OFFICE 
												
													DETECTIVE MARK PHIPPEN",113 EAST THIRD STREET,VINTON,IA,52349,"http://maps.google.com/maps?q=113 EAST THIRD STREET,+VINTON,+IA+52349&hl=en"
BLACK RIVER FALLS POLICE DEPARTMENT,"THEISEN'S PARKING LOT 
												
													EVENT 10:00AM-2:00PM",616 E HWY 54,BLACK RIVER FALLS,WI,54615,"http://maps.google.com/maps?q=616 E HWY 54,+BLACK RIVER FALLS,+WI+54615&hl=en"
BLAIR POLICE DEPARTMENT,"BLAIR POLICE DEPARTMENT 
												
													BOX M-F 7:30AM-4:00PM",122 S. URBERG AVE,BLAIR,WI,54616,"http://maps.google.com/maps?q=122 S. URBERG AVE,+BLAIR,+WI+54616&hl=en"
BLAIR POLICE DEPT.,BLAIR POLICE DEPT.,1730 LINCOLN STREET,BLAIR,NE,68008,"http://maps.google.com/maps?q=1730 LINCOLN STREET,+BLAIR,+NE+68008&hl=en"
BLOOMINGTON PD,BLOOMINGTON PD,1800 W OLD SHAKOPEE ROAD,BLOOMINGTON,MN,55431,"http://maps.google.com/maps?q=1800 W OLD SHAKOPEE ROAD,+BLOOMINGTON,+MN+55431&hl=en"
BOONE IOWA POLICE DEPARTMENT,"BOONE POLICE DEPARTMENT 
												
													10:00 AM-12:00 PM.",525 STORY STREET,BOONE,IA,50036,"http://maps.google.com/maps?q=525 STORY STREET,+BOONE,+IA+50036&hl=en"
BOSCOBEL POLICE DEPARTMENT,"BOSCOBEL POLICE DEPARTMENT 
												
													DROP BOX ONLY 7:00 AM - 4:00 PM",1006 WISCONSIN AVE,BOSCOBEL,WI,53805,"http://maps.google.com/maps?q=1006 WISCONSIN AVE,+BOSCOBEL,+WI+53805&hl=en"
BREMER COUNTY SHERIFF'S OFFICE,AMERICAN LEGION,500 MAIN ST,JANESVILLE,IA,50647,"http://maps.google.com/maps?q=500 MAIN ST,+JANESVILLE,+IA+50647&hl=en"
BREMER COUNTY SHERIFF'S OFFICE,BREMER COUNTY SHERIFF'S OFFICE,"111 4TH STREET, NE",WAVERLY,IA,50677,"http://maps.google.com/maps?q=111 4TH STREET, NE,+WAVERLY,+IA+50677&hl=en"
BUCHANAN COUNTY SHERIFF'S OFFICE,BUCHANAN COUNTY SHERIFF'S OFFICE,210 5TH AVENUE NE,INDEPENDENCE,IA,50644,"http://maps.google.com/maps?q=210 5TH AVENUE NE,+INDEPENDENCE,+IA+50644&hl=en"
BUFFALO COUNTY SHERIFF'S OFFICE,"BUFFALO COUNTY SHERIFF'S OFFICE 
												
													BOX AT SO M-F 8:00-4:30PM",407 S 2ND STREET,ALMA,WI,54610,"http://maps.google.com/maps?q=407 S 2ND STREET,+ALMA,+WI+54610&hl=en"
BUFFALO LAKE PD,BUFFALO LAKE POLICE DEPARTMENT,301 MAIN STREET NORTH,BUFFALO LAKE,MN,55314,"http://maps.google.com/maps?q=301 MAIN STREET NORTH,+BUFFALO LAKE,+MN+55314&hl=en"
BURNSVILLE PD,BURNSVILLE POLICE DEPARTMENT,100 CIVIC CENTER PARKWAY,BURNSVILLE,MN,55337,"http://maps.google.com/maps?q=100 CIVIC CENTER PARKWAY,+BURNSVILLE,+MN+55337&hl=en"
CAMPBELL POLICE DEPARTMENT,"CAMPBELL POLICE DEPARTMENT 
												
													EVENT 10:00AM-2:00PM",2219 BAINBRIDGE ST,LA CROSSE,WI,54603,"http://maps.google.com/maps?q=2219 BAINBRIDGE ST,+LA CROSSE,+WI+54603&hl=en"
CARLISLE POLICE DEPARTMENT,CARLISLE FIRE DEPARTMENT,135 N. 2ND STREET,CARLISLE,IA,50047,"http://maps.google.com/maps?q=135 N. 2ND STREET,+CARLISLE,+IA+50047&hl=en"
CARROLL COUNTY SHERIFF OFFICE,CARROLL COUNTY SHERIFF OFFICE,114 E 6 STREET,CARROLL,IA,51401,"http://maps.google.com/maps?q=114 E 6 STREET,+CARROLL,+IA+51401&hl=en"
CARTER LAKE POLICE DEPARTMENT,CARTER LAKE CITY HALL,950 LOCUST STREET,CARTER LAKE,IA,51510,"http://maps.google.com/maps?q=950 LOCUST STREET,+CARTER LAKE,+IA+51510&hl=en"
CARVER COUNTY SHERIFF'S OFFICE,"CARVER COUNTY SHERIFF'S OFFICE 
												
													PERMANENT SITE",606 EAST 4TH STREET,CHASKA,MN,55318,"http://maps.google.com/maps?q=606 EAST 4TH STREET,+CHASKA,+MN+55318&hl=en"
CARVER COUNTY SHERIFF'S OFFICE,"CHANHASSEN CITY HALL 
												
													ONLY OPEN DURING CITY BUSINESS HOURS-PERMANENT SITE",7700 MARKET BOULEVARD,CHANHASSEN,MN,55317,"http://maps.google.com/maps?q=7700 MARKET BOULEVARD,+CHANHASSEN,+MN+55317&hl=en"
CARVER COUNTY SHERIFF'S OFFICE,"CITY OF NEW GERMANY 
												
													CITY HALL",300 BROADWAY STREET EAST,NEW GERMANY,MN,55367,"http://maps.google.com/maps?q=300 BROADWAY STREET EAST,+NEW GERMANY,+MN+55367&hl=en"
CARVER COUNTY SHERIFF'S OFFICE,"CITY OF NORWOOD-YOUNG AMERICA 
												
													NYA CITY HALL",310 ELM STREET WEST,NORWOOD YOUNG AMERICA,MN,55368,"http://maps.google.com/maps?q=310 ELM STREET WEST,+NORWOOD YOUNG AMERICA,+MN+55368&hl=en"
CARVER COUNTY SHERIFF'S OFFICE,"WACONIA CITY HALL 
												
													PERMANENT SITE",201 SOUTH VINE STREET,WACONIA,MN,55387,"http://maps.google.com/maps?q=201 SOUTH VINE STREET,+WACONIA,+MN+55387&hl=en"
CEDAR COUNTY SHERIFF'S OFFICE,CEDAR COUNTY SHERIFF'S OFFICE,711 E. SOUTH ST,TIPTON,IA,52772,"http://maps.google.com/maps?q=711 E. SOUTH ST,+TIPTON,+IA+52772&hl=en"
CEDAR FALLS POLICE DEPARTMENT,CEDAR FALLS POLICE DEPARTMENT,220 CLAY STREET,CEDAR FALLS,IA,50613,"http://maps.google.com/maps?q=220 CLAY STREET,+CEDAR FALLS,+IA+50613&hl=en"
CEDAR RAPIDS POLICE DEPT.,CEDAR RAPIDS POLICE DEPARTMENT,505 1ST ST SW,CEDAR RAPIDS,IA,52404,"http://maps.google.com/maps?q=505 1ST ST SW,+CEDAR RAPIDS,+IA+52404&hl=en"
CHARLES CITY POLICE DEPT.,CHARLES CITY POLICE DEPT.,105 MILWAUKEE MALL,CHARLES CITY,IA,50616,"http://maps.google.com/maps?q=105 MILWAUKEE MALL,+CHARLES CITY,+IA+50616&hl=en"
CHEROKEE COUNTY SHERIFF'S OFFICE,"CHEROKEE COUNTY LAW ENFORCEMENT CENTER 
												
													CHEROKEE COUNTY SHERIFF'S OFFICE",111 N 5TH ST.,CHEROKEE,IA,51012,"http://maps.google.com/maps?q=111 N 5TH ST.,+CHEROKEE,+IA+51012&hl=en"
CLARK COUNTY SHERIFF'S OFFICE,"CLARK COUNTY SHERIFF'S OFFICE 
												
													DROP BOX ONLY 24/7",517 COURT ST,NEILLSVILLE,WI,54456,"http://maps.google.com/maps?q=517 COURT ST,+NEILLSVILLE,+WI+54456&hl=en"
CORALVILLE POLICE DEPARTMENT,CORALVILLE POLICE DEPARTMENT,1503 5TH STREET,CORALVILLE,IA,52241,"http://maps.google.com/maps?q=1503 5TH STREET,+CORALVILLE,+IA+52241&hl=en"
COTTONWOOD COUNTY SHERIFF'S OFFICE,COTTONWOOD COUNTY SHERIFFS OFFICE,902 5TH AVENUE,WINDOM,MN,56101,"http://maps.google.com/maps?q=902 5TH AVENUE,+WINDOM,+MN+56101&hl=en"
COUNCIL BLUFFS POLICE DEPARTMENT,WALGREENS,535 EAST BROADWAY,COUNCIL BLUFFS,IA,51503,"http://maps.google.com/maps?q=535 EAST BROADWAY,+COUNCIL BLUFFS,+IA+51503&hl=en"
CRAWFORD COUNTY SHERIFF'S OFFICE,"CRAWFORD COUNTY SHERIFF'S OFICE 
												
													DROP BOX ONLY 24/7",224 N BEAUMONT RD,PRAIRIE DU CHIEN,WI,53821,"http://maps.google.com/maps?q=224 N BEAUMONT RD,+PRAIRIE DU CHIEN,+WI+53821&hl=en"
DICKEYVILLE POLICE DEPARTMENT,"DICKEYVILLE POLICE DEPARTMENT 
												
													EVENT 9:00AM-12:00PM",500 EAST AVENUE,DICKEYVILLE,WI,53808,"http://maps.google.com/maps?q=500 EAST AVENUE,+DICKEYVILLE,+WI+53808&hl=en"
DOUGLAS COUNTY SHERIFF'S OFFICE,HY-VEE,1000 S. 178TH STREET,OMAHA,NE,68118,"http://maps.google.com/maps?q=1000 S. 178TH STREET,+OMAHA,+NE+68118&hl=en"
DOUGLAS COUNTY SHERIFF'S OFFICE,HY-VEE,3410 N 156TH STREET,OMAHA,NE,68116,"http://maps.google.com/maps?q=3410 N 156TH STREET,+OMAHA,+NE+68116&hl=en"
DOUGLAS COUNTY SHERIFF'S OFFICE,WALGREENS,13155 W CENTER RD,OMAHA,NE,68144,"http://maps.google.com/maps?q=13155 W CENTER RD,+OMAHA,+NE+68144&hl=en"
DUBUQUE DRUG TASK FORCE,SAM'S CLUB,4400 ASBURY RD,DUBUQUE,IA,52002,"http://maps.google.com/maps?q=4400 ASBURY RD,+DUBUQUE,+IA+52002&hl=en"
DUNN COUNTY SHERIFF'S OFFICE,"DUNN COUNTY SHERIFF'S OFFICE 
												
													DROP BOX ONLY M-F 8:00 AM TO 4:30 PM",615 STOKKE PKWY STE G300,MENOMONIE,WI,54751,"http://maps.google.com/maps?q=615 STOKKE PKWY STE G300,+MENOMONIE,+WI+54751&hl=en"
EAU CLAIRE COUNTY SHERIFF'S OFFICE,"MARSHFIELD CLINIC-EAU CLAIRE CENTER 
												
													EVENT 10:00AM-2:00PM",2216 CRAIG ROAD,EAU CLAIRE,WI,54701,"http://maps.google.com/maps?q=2216 CRAIG ROAD,+EAU CLAIRE,+WI+54701&hl=en"
EDEN PRAIRIE PD,EDEN PRAIRIE SENIOR CENTER,8950 EDEN PRAIRIE ROAD,EDEN PRAIRIE,MN,55347,"http://maps.google.com/maps?q=8950 EDEN PRAIRIE ROAD,+EDEN PRAIRIE,+MN+55347&hl=en"
FENNIMORE POLICE DEPARTMENT,"FENNIMORE MUNICIPAL BUILDING 
												
													DROP BOX M-F 8:30AM-4:30PM",860 LINCOLN AVE,FENNIMORE,WI,53809,"http://maps.google.com/maps?q=860 LINCOLN AVE,+FENNIMORE,+WI+53809&hl=en"
FILLMORE COUNTY SO,FILLMORE COUNTY SHERIFF'S OFFICE,901 HOUSTON STREET NW,PRESTON,MN,55965,"http://maps.google.com/maps?q=901 HOUSTON STREET NW,+PRESTON,+MN+55965&hl=en"
FILLMORE COUNTY SO,LANESBORO CITY HALL,202 PARKWAY AVENUE NORTH,LANESBORO,MN,55949,"http://maps.google.com/maps?q=202 PARKWAY AVENUE NORTH,+LANESBORO,+MN+55949&hl=en"
FILLMORE COUNTY SO,MABEL CITY HALL,201 SOUTH MAIN STREET,MABEL,MN,55954,"http://maps.google.com/maps?q=201 SOUTH MAIN STREET,+MABEL,+MN+55954&hl=en"
FILLMORE COUNTY SO,RUSHFORD POLICE DEPARTMENT,405 ELM STREET SOUTH,RUSHFORD,MN,55971,"http://maps.google.com/maps?q=405 ELM STREET SOUTH,+RUSHFORD,+MN+55971&hl=en"
FILLMORE COUNTY SO,SPRING VALLEY FIRE DEPARTMENT,120 WEST COURTLAND STREET,SPRING VALLEY,MN,55975,"http://maps.google.com/maps?q=120 WEST COURTLAND STREET,+SPRING VALLEY,+MN+55975&hl=en"
FRANKLIN COUNTY SHERIFF'S OFFICE,FRANKLIN COUNTY SHERIFF'S OFFICE,105 5TH ST. SW,HAMPTON,IA,50441,"http://maps.google.com/maps?q=105 5TH ST. SW,+HAMPTON,+IA+50441&hl=en"
FREEBORN COUNTY SO/ALBERT LEA PD,FREEBORN COUNTY FAIRGROUNDS,1029 BRIDGE AVENUE,ALBERT LEA,MN,56007,"http://maps.google.com/maps?q=1029 BRIDGE AVENUE,+ALBERT LEA,+MN+56007&hl=en"
GALESVILLE POLICE DEPARTMENT,"GALESVILLE LTC PHARMACY 
												
													EVENT 8:00AM-12:00PM",16811 S MAIN STREET,GALESVILLE,WI,54630,"http://maps.google.com/maps?q=16811 S MAIN STREET,+GALESVILLE,+WI+54630&hl=en"
GLENWOOD POLICE DEPARTMENT,GLENWOOD POLICE DEPARTMENT,3 N. VINE ST.,GLENWOOD,IA,51534,"http://maps.google.com/maps?q=3 N. VINE ST.,+GLENWOOD,+IA+51534&hl=en"
GRANITE FALLS PD,"YELLOW MEDICINE COUNTY JUSTICE CENTER 
												
													GRANITE FALLS POLICE DEPARTMENT",415 9TH AVENUE,GRANITE FALLS,MN,56241,"http://maps.google.com/maps?q=415 9TH AVENUE,+GRANITE FALLS,+MN+56241&hl=en"
GREENE COUNTY SHERIFF'S OFFICE,GREENE COUNTY SHERIFF'S OFFICE,204 SOUTH CHESTNUT STREET,JEFFERSON,IA,50129,"http://maps.google.com/maps?q=204 SOUTH CHESTNUT STREET,+JEFFERSON,+IA+50129&hl=en"
GRUNDY COUNTY LAW ENFORCEMENT CENTER,GRUNDY COUNTY LAW ENFORCEMENT CENTER,610  MAIN STREET,TRENTON,MO,64683,"http://maps.google.com/maps?q=610  MAIN STREET,+TRENTON,+MO+64683&hl=en"
HAMILTON COUNTY SHERIFF'S OFFICE,"EJS POLICE DEPARTMENT 
												
													LOBBY",701 MAIN STREET,JEWELL,IA,50130,"http://maps.google.com/maps?q=701 MAIN STREET,+JEWELL,+IA+50130&hl=en"
HAMILTON COUNTY SHERIFF'S OFFICE,HY-VEE,823 2ND ST.,WEBSTER CITY,IA,50595,"http://maps.google.com/maps?q=823 2ND ST.,+WEBSTER CITY,+IA+50595&hl=en"
HAMILTON COUNTY SHERIFF'S OFFICE,"VAN DIEST MEDICAL CENTER 
												
													STRATFORD",817 SHAKESPEARE AVE,STRATFORD,IA,50249,"http://maps.google.com/maps?q=817 SHAKESPEARE AVE,+STRATFORD,+IA+50249&hl=en"
HARRISON COUNTY SHERIFF'S OFFICE,"HARRISON COUNTY SHERIFF'S OFFICE 
												
													LOBBY",111 S. FIRST AVE,LOGAN,IA,51546,"http://maps.google.com/maps?q=111 S. FIRST AVE,+LOGAN,+IA+51546&hl=en"
HIAWATHA POLICE DEPT,"HIAWATHA POLICE DEPT 
												
													LOBBY, SOUTH WALL",101 EMMONS ST,HIAWATHA,IA,52233,"http://maps.google.com/maps?q=101 EMMONS ST,+HIAWATHA,+IA+52233&hl=en"
HOLMEN POLICE DEPARTMENT,"HOLMEN POLICE DEPARTMENT 
												
													DROP BOX ONLY M-F 8:00 AM-4:30 PM",119 WALL STREET WEST,HOLMEN,WI,54636,"http://maps.google.com/maps?q=119 WALL STREET WEST,+HOLMEN,+WI+54636&hl=en"
HOPKINS PD,HOPKINS POLICE DEPARTMENT,1010 1ST STREET SOUTH,HOPKINS,MN,55343,"http://maps.google.com/maps?q=1010 1ST STREET SOUTH,+HOPKINS,+MN+55343&hl=en"
HUTCHINSON PD,HUTCHINSON POLICE DEPARTMENT,10 FRANKLIN STREET SW,HUTCHINSON,MN,55350,"http://maps.google.com/maps?q=10 FRANKLIN STREET SW,+HUTCHINSON,+MN+55350&hl=en"
INDIANOLA POLICE DEPARTMENT,INDIANOLA POLICE DEPARTMENT,110 N. 1ST STREET,INDIANOLA,IA,50125,"http://maps.google.com/maps?q=110 N. 1ST STREET,+INDIANOLA,+IA+50125&hl=en"
IOWA CITY POLICE DEPARTMENT,EAST SIDE RECYCLING CENTER,2401 SCOTT BLVD SE,IOWA CITY,IA,52240,"http://maps.google.com/maps?q=2401 SCOTT BLVD SE,+IOWA CITY,+IA+52240&hl=en"
IOWA COUNTY SHERIFF'S OFFICE,IOWA COUNTY SHERIFF'S OFFICE,960 FRANKLYN AVE.,MARENGO,IA,52301,"http://maps.google.com/maps?q=960 FRANKLYN AVE.,+MARENGO,+IA+52301&hl=en"
JACKSON COUNTY SHERIFF'S OFFICE,"BUILDING NEXT TO JACKSON COUNTY RECYCLING 
												
													EVENT 8:00 AM TO 2:00 PM",115 HARRISON STREET,BLACK RIVER FALLS,WI,54615,"http://maps.google.com/maps?q=115 HARRISON STREET,+BLACK RIVER FALLS,+WI+54615&hl=en"
JACKSON COUNTY SHERIFF'S OFFICE,MAQUOKETA POLICE DEPARTMENT,102 S NIAGARA ST,MAQUOKETA,IA,52060,"http://maps.google.com/maps?q=102 S NIAGARA ST,+MAQUOKETA,+IA+52060&hl=en"
JANESVILLE PD,JANESVILLE CITY HALL,101 N MOTT STREET,JANESVILLE,MN,56048,"http://maps.google.com/maps?q=101 N MOTT STREET,+JANESVILLE,+MN+56048&hl=en"
JASPER COUNTY SHERIFF'S OFFICE,COLFAX FIRE DEPT.,113 W. STATE ST.,COLFAX,IA,50054,"http://maps.google.com/maps?q=113 W. STATE ST.,+COLFAX,+IA+50054&hl=en"
JASPER COUNTY SHERIFF'S OFFICE,NEWTON FIRE DEPT,410 S.2ND. AVE. W.,NEWTON,IA,50208,"http://maps.google.com/maps?q=410 S.2ND. AVE. W.,+NEWTON,+IA+50208&hl=en"
JEFFERSON COUNTY SHERIFF'S OFFICE,HY-VEE PHARMACY,1300 W. BURLINGTON,FAIRFIELD,IA,52556,"http://maps.google.com/maps?q=1300 W. BURLINGTON,+FAIRFIELD,+IA+52556&hl=en"
JOHNSTON POLICE DEPARTMENT,"JOHNSTON POLICE DEPARTMENT 
												
													PUBLIC SAFETY BUILDING",6373 MERLE HAY RD,JOHNSTON,IA,50131,"http://maps.google.com/maps?q=6373 MERLE HAY RD,+JOHNSTON,+IA+50131&hl=en"
JORDAN PD,"JORDAN POLICE DEPARTMENT 
												
													LOBBY: OPEN DAILY FROM 8AM TO 8PM",705 SYNDICATE STREET,JORDAN,MN,55352,"http://maps.google.com/maps?q=705 SYNDICATE STREET,+JORDAN,+MN+55352&hl=en"
KNOX COUNTY SHERIFFS OFFICE,KNOX COUNTY SHERIFF'S OFFICE,107 NORTH 4TH STREET,EDINA,MO,63537,"http://maps.google.com/maps?q=107 NORTH 4TH STREET,+EDINA,+MO+63537&hl=en"
KOSSUTH COUNTY SHERIFF'S OFFICE,"HY VEE FOOD STORE 
												
													NO BOXES",1500 HYW.169 N.,ALGONA,IA,50511,"http://maps.google.com/maps?q=1500 HYW.169 N.,+ALGONA,+IA+50511&hl=en"
LA CRESCENT PD,LA CRESCENT CITY HALL,315 MAIN STREET,LA CRESCENT,MN,55947,"http://maps.google.com/maps?q=315 MAIN STREET,+LA CRESCENT,+MN+55947&hl=en"
LA CROSSE COUNTY SHERIFF'S OFFICE,"LA CROSSE COUNTY SHERIFF'S DEPARTMENT 
												
													DROP BOX ONLY M-F 8:00 AM TO 4:30 PM",333 VINE ST,LA CROSSE,WI,54601,"http://maps.google.com/maps?q=333 VINE ST,+LA CROSSE,+WI+54601&hl=en"
LA CROSSE POLICE DEPARTMENT,"LA CROSSE POLICE DEPARTMENT 
												
													DROP BOX ONLY M-F 8:30AM-5:00PM",400 LA CROSSE ST,LA CROSSE,WI,54601,"http://maps.google.com/maps?q=400 LA CROSSE ST,+LA CROSSE,+WI+54601&hl=en"
LA FARGE POLICE DEPARTMENT,"LA FARGE POLICE DEPARTMENT 
												
													EVENT 8:00AM-5:00PM",201 S CHERRY STREET,LA FARGE,WI,54639,"http://maps.google.com/maps?q=201 S CHERRY STREET,+LA FARGE,+WI+54639&hl=en"
LA VISTA POLICE DEPARTMENT,LA VISTA POLICE DEPARTMENT,7701 S 96TH STREET,LA VISTA,NE,68128,"http://maps.google.com/maps?q=7701 S 96TH STREET,+LA VISTA,+NE+68128&hl=en"
LAKE MILLS POLICE DEPARTMENT,LAKE MILLS POLICE DEPARTMENT,304 S. MILL STREET,LAKE MILLS,IA,50450,"http://maps.google.com/maps?q=304 S. MILL STREET,+LAKE MILLS,+IA+50450&hl=en"
LANCASTER POLICE DEPARTMENT,"LANCASTER POLICE DEPARTMENT 
												
													DROP BOX ONLY 24/7",222 S. MADISON ST,LANCASTER,WI,53813,"http://maps.google.com/maps?q=222 S. MADISON ST,+LANCASTER,+WI+53813&hl=en"
LINN COUNTY SHERIFF'S OFFICE,CENTER POINT AMBULANCE SERVICES,521 FRANKLIN ST,CENTER POINT,IA,52213,"http://maps.google.com/maps?q=521 FRANKLIN ST,+CENTER POINT,+IA+52213&hl=en"
LINN COUNTY SHERIFF'S OFFICE,ELY FIRE STATION,1300 MAIN ST,ELY,IA,52227,"http://maps.google.com/maps?q=1300 MAIN ST,+ELY,+IA+52227&hl=en"
LINN COUNTY SHERIFF'S OFFICE,LINN COUNTY SHERIFF'S OFFICE,310 2ND AVE SW,CEDAR RAPIDS,IA,52404,"http://maps.google.com/maps?q=310 2ND AVE SW,+CEDAR RAPIDS,+IA+52404&hl=en"
LYON COUNTY SO,LYON COUNTY SHERIFF'S OFFICE,611 WEST MAIN STREET,MARSHALL,MN,56258,"http://maps.google.com/maps?q=611 WEST MAIN STREET,+MARSHALL,+MN+56258&hl=en"
MADRID POLICE DEPARTMENT,MADRID CITY HALL,304 S WATER STREET,MADRID,IA,50156,"http://maps.google.com/maps?q=304 S WATER STREET,+MADRID,+IA+50156&hl=en"
MANCHESTER POLICE DEPARTMENT,BLAKESLEY DRUG,220 EAST MAIN ST.,MANCHESTER,IA,52057,"http://maps.google.com/maps?q=220 EAST MAIN ST.,+MANCHESTER,+IA+52057&hl=en"
MANSON POLICE DEPARTMENT,"MANSON POLICE DEPARTMENT 
												
													LOBBY",1015 13TH STREET,MANSON,IA,50563,"http://maps.google.com/maps?q=1015 13TH STREET,+MANSON,+IA+50563&hl=en"
MARION COUNTY SHERIFFS OFFICE,MARION COUNTY SHERIFF'S OFFICE,211 N. GODFREY LN,KNOXVILLE,IA,50138,"http://maps.google.com/maps?q=211 N. GODFREY LN,+KNOXVILLE,+IA+50138&hl=en"
MARION POLICE DEPARTMENT,"MARION POLICE DEPARTMENT 
												
													FRONT PARKING LOT",6315 HWY 151MARION,MARION,IA,52302,"http://maps.google.com/maps?q=6315 HWY 151,+MARION,+IA+52302&hl=en"
MARYVILLE DEPARTMENT OF PUBLIC SAFETY,MARYVILLE DEPARTMENT OF PUBLIC SAFETY,222 E. 3RD ST.,MARYVILLE,MO,64468,"http://maps.google.com/maps?q=222 E. 3RD ST.,+MARYVILLE,+MO+64468&hl=en"
MAYO CLINIC / OLMSTED COUNTY SO,MAYO CLINIC,200 FIRST STREET SW,ROCHESTER,MN,55905,"http://maps.google.com/maps?q=200 FIRST STREET SW,+ROCHESTER,+MN+55905&hl=en"
MELCHER-DALLAS POLICE DEPARTMENT,CITY HALL,305 EAST D. MAIN STREET,MELCHER DALLAS,IA,50062,"http://maps.google.com/maps?q=305 EAST D. MAIN STREET,+MELCHER DALLAS,+IA+50062&hl=en"
MERCER COUNTY SHERIFF'S OFFICE,MERCER COUNTY SHERIFF'S OFFICE,802 EAST MAIN STREET,PRINCETON,MO,64673,"http://maps.google.com/maps?q=802 EAST MAIN STREET,+PRINCETON,+MO+64673&hl=en"
MESKWAKI NATION POLICE DEPARTMENT,MESKWAKI TRIBAL SENIOR CENTER,301 MESKWAKI ROAD,TAMA,IA,52339,"http://maps.google.com/maps?q=301 MESKWAKI ROAD,+TAMA,+IA+52339&hl=en"
MISSOURI VALLEY POLICE DEPARTMENT,RAND COMMUNITY CENTER,100 S. 4TH ST,MISSOURI VALLEY,IA,51555,"http://maps.google.com/maps?q=100 S. 4TH ST,+MISSOURI VALLEY,+IA+51555&hl=en"
MONDOVI POLICE DEPARTMENT,"MONDOVI POLICE DEPARTMENT 
												
													DROP BOX ONLY M-F 8:00 AM TO 5:00 PM",225 E MAIN ST,MONDOVI,WI,54755,"http://maps.google.com/maps?q=225 E MAIN ST,+MONDOVI,+WI+54755&hl=en"
MONROE COUNTY SHERIFF'S OFFICE,"MONROE COUNTY SHERIFF'S OFFICE 
												
													DROP BOX ONLY M-F 8:00AM-4:30PM",112 S COURT STREET #500,SPARTA,WI,54656,"http://maps.google.com/maps?q=112 S COURT STREET #500,+SPARTA,+WI+54656&hl=en"
MONROE POLICE DEPARTMENT,MONROE CITY HALL,206 W. SHERMAN STREET,MONROE,IA,50170,"http://maps.google.com/maps?q=206 W. SHERMAN STREET,+MONROE,+IA+50170&hl=en"
MOUND CITY POLICE DEPARTMENT,MOUND CITY POLICE DEPARTMENT,205 EAST SIXTH STREET,MOUND CITY,MO,64470,"http://maps.google.com/maps?q=205 EAST SIXTH STREET,+MOUND CITY,+MO+64470&hl=en"
MOUNT PLEASANT POLICE DEPT.,MOUNT PLEASANT POLICE DEPT.,204 E. WASHINGTON ST.,MOUNT PLEASANT,IA,52641,"http://maps.google.com/maps?q=204 E. WASHINGTON ST.,+MOUNT PLEASANT,+IA+52641&hl=en"
MOUNT VERNON POLICE DEPARTMENT,MOUNT VERNON POLICE DEPARTMENT,213 1ST STREET NW,MOUNT VERNON,IA,52314,"http://maps.google.com/maps?q=213 1ST STREET NW,+MOUNT VERNON,+IA+52314&hl=en"
NORTH LIBERTY IOWA POLICE DEPARTMENT,NORTH LIBERTY POLICE DEPT.,5 E. CHERRY ST.,NORTH LIBERTY,IA,52317,"http://maps.google.com/maps?q=5 E. CHERRY ST.,+NORTH LIBERTY,+IA+52317&hl=en"
NORTHEAST IOWA DRUG TASK FORCE,CALMAR POLICE DEPT,101 WASHINGTON ST,CALMAR,IA,52132,"http://maps.google.com/maps?q=101 WASHINGTON ST,+CALMAR,+IA+52132&hl=en"
NORTHEAST IOWA DRUG TASK FORCE,CHICKASAW COUNTY COMMUNITY CENTER,260 EAST PROSPECT ST.,NEW HAMPTON,IA,50659,"http://maps.google.com/maps?q=260 EAST PROSPECT ST.,+NEW HAMPTON,+IA+50659&hl=en"
NORTHEAST IOWA DRUG TASK FORCE,CITY OF LANSING CITY HALL,201 JOHN ST,LANSING,IA,52151,"http://maps.google.com/maps?q=201 JOHN ST,+LANSING,+IA+52151&hl=en"
NORTHEAST IOWA DRUG TASK FORCE,CLAYTON COUNTY SHERIFF'S OFFICE,22680 230TH ST,SAINT OLAF,IA,52072,"http://maps.google.com/maps?q=22680 230TH ST,+SAINT OLAF,+IA+52072&hl=en"
NORTHEAST IOWA DRUG TASK FORCE,ELKADER OPERA HOUSE,207 NORTH MAIN ST.,ELKADER,IA,52043,"http://maps.google.com/maps?q=207 NORTH MAIN ST.,+ELKADER,+IA+52043&hl=en"
NORTHEAST IOWA DRUG TASK FORCE,HOWARD COUNTY SHERIFF'S OFFICE,124 S. PARK PLACE,CRESCO,IA,52136,"http://maps.google.com/maps?q=124 S. PARK PLACE,+CRESCO,+IA+52136&hl=en"
NORTHEAST IOWA DRUG TASK FORCE,LANSING FIRE DEPT.,51 NORTH FRONT ST.,LANSING,IA,52151,"http://maps.google.com/maps?q=51 NORTH FRONT ST.,+LANSING,+IA+52151&hl=en"
NORTHEAST IOWA DRUG TASK FORCE,MONONA POLICE DEPT.,104 EAST CENTER ST.,MONONA,IA,52159,"http://maps.google.com/maps?q=104 EAST CENTER ST.,+MONONA,+IA+52159&hl=en"
NORTHEAST IOWA DRUG TASK FORCE,POSTVILLE CITY HALL,147 N. LAWLWER ST.,POSTVILLE,IA,52162,"http://maps.google.com/maps?q=147 N. LAWLWER ST.,+POSTVILLE,+IA+52162&hl=en"
NORTHEAST IOWA DRUG TASK FORCE,THRIFTY WHITE PHARMACY,702 MONTGOMERY ST.,DECORAH,IA,52101,"http://maps.google.com/maps?q=702 MONTGOMERY ST.,+DECORAH,+IA+52101&hl=en"
NORTHEAST IOWA DRUG TASK FORCE,WAL-MART SUPER CENTER,1798 OLD STAGE ROAD,DECORAH,IA,52101,"http://maps.google.com/maps?q=1798 OLD STAGE ROAD,+DECORAH,+IA+52101&hl=en"
NORTHEAST IOWA DRUG TASK FORCE,WAUKON POLICE DEPT.,104 1ST STREET,WAUKON,IA,52172,"http://maps.google.com/maps?q=104 1ST STREET,+WAUKON,+IA+52172&hl=en"
NORTHEAST MISSOURI NARCOTICS TASK FORCE,COUNTY MARKET,1805 ELM ST,CANTON,MO,63435,"http://maps.google.com/maps?q=1805 ELM ST,+CANTON,+MO+63435&hl=en"
NORWALK POLICE DEPARTMENT,NORWALK POLICE DEPARTMENT,1100 CHATHAM AVE,NORWALK,IA,50211,"http://maps.google.com/maps?q=1100 CHATHAM AVE,+NORWALK,+IA+50211&hl=en"
NORWALK POLICE DEPARTMENT,"NORWALK POLICE DEPARTMENT 
												
													EVENT 10:00AM-2:00PM",208 S CHURCH STREET,NORWALK,WI,54648,"http://maps.google.com/maps?q=208 S CHURCH STREET,+NORWALK,+WI+54648&hl=en"
OMAHA POLICE DEPT.-NW PRECINCT,ELMWOOD PHARMACY,808 S. 52ND ST,OMAHA,NE,68106,"http://maps.google.com/maps?q=808 S. 52ND ST,+OMAHA,+NE+68106&hl=en"
OMAHA POLICE DEPT.-NW PRECINCT,HY-VEE,747 NORTH 132ND STREET,OMAHA,NE,68154,"http://maps.google.com/maps?q=747 NORTH 132ND STREET,+OMAHA,+NE+68154&hl=en"
OMAHA POLICE DEPT.-NW PRECINCT,HY-VEE,8809 W CENTER ROAD,OMAHA,NE,68124,"http://maps.google.com/maps?q=8809 W CENTER ROAD,+OMAHA,+NE+68124&hl=en"
OMAHA POLICE DEPT.-NW PRECINCT,WALGREENS,3005 LAKE STREET,OMAHA,NE,68111,"http://maps.google.com/maps?q=3005 LAKE STREET,+OMAHA,+NE+68111&hl=en"
OMAHA POLICE DEPT.-NW PRECINCT,WALGREENS,3121 S 24TH STREET,OMAHA,NE,68108,"http://maps.google.com/maps?q=3121 S 24TH STREET,+OMAHA,+NE+68108&hl=en"
ONALASKA POLICE DEPARTMENT,"ONALASKA POLICE DEPARTMENT 
												
													DROP BOX ONLY M-F 8:00AM-5:00PM",415 MAIN ST,ONALASKA,WI,54650,"http://maps.google.com/maps?q=415 MAIN ST,+ONALASKA,+WI+54650&hl=en"
OSCEOLA COUNTY SHERIFF OFFICE,OSCEOLA COUNTY SHERIFF OFFICE,309 6TH STREET,SIBLEY,IA,51249,"http://maps.google.com/maps?q=309 6TH STREET,+SIBLEY,+IA+51249&hl=en"
OSKALOOSA IA POLICE DEPARTMENT,MAHASKA DRUG PHARMACY,207 NORTH E STREET,OSKALOOSA,IA,52577,"http://maps.google.com/maps?q=207 NORTH E STREET,+OSKALOOSA,+IA+52577&hl=en"
PALO ALTO COUNTY SHERIFF'S OFFICE,"PALO ALTO COUNTY SHERIFF'S OFFICE 
												
													(NO BOXES)",2001 11TH STREET,EMMETSBURG,IA,50536,"http://maps.google.com/maps?q=2001 11TH STREET,+EMMETSBURG,+IA+50536&hl=en"
PARKERSBURG POLICE DEPARTMENT,UNITY POINT MEDICAL CLINIC,502 3RD STREET,PARKERSBURG,IA,50665,"http://maps.google.com/maps?q=502 3RD STREET,+PARKERSBURG,+IA+50665&hl=en"
PELLA POLICE DEPARTMENT,"PELLA POLICE DEPARTMENT 
												
													FRONT LOBBY",614 MAIN ST.,PELLA,IA,50219,"http://maps.google.com/maps?q=614 MAIN ST.,+PELLA,+IA+50219&hl=en"
PEPIN COUNTY SHERIFF'S OFFICE,"DURAND FIRE HALL 
												
													EVENT 10:00AM-2:00PM",205 E MONTGOMERY STREET,DURAND,WI,54736,"http://maps.google.com/maps?q=205 E MONTGOMERY STREET,+DURAND,+WI+54736&hl=en"
PEPIN POLICE DEPARTMENT,"PEPIN POLICE DEPARTMENT 
												
													EVENT APRIL 27TH 8:00AM-4:00PM",508 2ND STREET,PEPIN,WI,54759,"http://maps.google.com/maps?q=508 2ND STREET,+PEPIN,+WI+54759&hl=en"
PERRY POLICE DEPARTMENT,HY-VEE STORE,1215 HWY. 141,PERRY,IA,50220,"http://maps.google.com/maps?q=1215 HWY. 141,+PERRY,+IA+50220&hl=en"
PIERCE COUNTY SHERIFF'S OFFICE,"PIERCE COUNTY RECYCLING 
												
													EVENT 8:00AM 12:00PM",707 NORTH MAPLE ST,ELLSWORTH,WI,54011,"http://maps.google.com/maps?q=707 NORTH MAPLE ST,+ELLSWORTH,+WI+54011&hl=en"
PLATTSMOUTH POLICE DEPARTMENT,PLATTSMOUTH SENIOR CENTER,308 S. 18TH ST.,PLATTSMOUTH,NE,68048,"http://maps.google.com/maps?q=308 S. 18TH ST.,+PLATTSMOUTH,+NE+68048&hl=en"
POLK COUNTY SHERIFF'S OFFICE,CVS,104 E 1ST STREET,ANKENY,IA,50021,"http://maps.google.com/maps?q=104 E 1ST STREET,+ANKENY,+IA+50021&hl=en"
POLK COUNTY SHERIFF'S OFFICE,CVS,215 EUCLID AVE,DES MOINES,IA,50310,"http://maps.google.com/maps?q=215 EUCLID AVE,+DES MOINES,+IA+50310&hl=en"
POLK COUNTY SHERIFF'S OFFICE,WALGREENS,2702 SE DELAWARE AVE,ANKENY,IA,50021,"http://maps.google.com/maps?q=2702 SE DELAWARE AVE,+ANKENY,+IA+50021&hl=en"
POTTAWATTAMIE  COUNTY SHERIFF'S OFFICE,POTTAWATTAMIE COUNTY SHERIFF'S OFFICE,1400 BIG LAKE RD,COUNCIL BLUFFS,IA,51501,"http://maps.google.com/maps?q=1400 BIG LAKE RD,+COUNCIL BLUFFS,+IA+51501&hl=en"
PUTNAM COUNTY SHERIFF'S OFFICE,PUTNAM SHERIFF'S OFFICE,"1601 MAIN STREET, COURTHOUSE RM:0101 (BASEMENT)",UNIONVILLE,MO,63565,"http://maps.google.com/maps?q=1601 MAIN STREET, COURTHOUSE RM:0101 (BASEMENT),+UNIONVILLE,+MO+63565&hl=en"
RALSTON POLICE DEPARTMENT,"WALGREENS 
												
													84TH & HARRISON",8380 HARRISON STREET,RALSTON,NE,68127,"http://maps.google.com/maps?q=8380 HARRISON STREET,+RALSTON,+NE+68127&hl=en"
RED WING PD,RED WING POLICE DEPARTMENT,430 WEST 6TH STREET,RED WING,MN,55066,"http://maps.google.com/maps?q=430 WEST 6TH STREET,+RED WING,+MN+55066&hl=en"
RICHIFIELD PD,RICHFIELD WALGREENS,12 WEST 66TH STREET,RICHFIELD,MN,55423,"http://maps.google.com/maps?q=12 WEST 66TH STREET,+RICHFIELD,+MN+55423&hl=en"
RINGGOLD COUNTY SHERIFF'S OFFICE,"RINGGOLD CO SHERIFF'S OFFICE 
												
													NO BOXES",801 W. SOUTH ST.,MOUNT AYR,IA,50854,"http://maps.google.com/maps?q=801 W. SOUTH ST.,+MOUNT AYR,+IA+50854&hl=en"
RIVER FALLS POLICE DEPARTMENT,"RIVER FALLS POLICE DEPARTMENT 
												
													EVENT APRIL 27TH, 9:00AM-5:00PM",125 E. ELM STREET,RIVER FALLS,WI,54022,"http://maps.google.com/maps?q=125 E. ELM STREET,+RIVER FALLS,+WI+54022&hl=en"
SARPY COUNTY SHERIFF'S OFFICE,"HY-VEE GROCERY STORE (SHADOW LAKE) 
												
													NORTH PARKING LOT",11650 S. 73RD STREET,PAPILLION,NE,68046,"http://maps.google.com/maps?q=11650 S. 73RD STREET,+PAPILLION,+NE+68046&hl=en"
SCHUYLER COUNTY SHERIFF'S OFFICE,"SCHUYLER COUNTY SHERIFF'S OFFICE 
												
													SCHUYLER COUNTY COURTHOUSE BASEMENT",110 W WASHINGTON,LANCASTER,MO,63548,"http://maps.google.com/maps?q=110 W WASHINGTON,+LANCASTER,+MO+63548&hl=en"
SHENANDOAH POLICE DEPARTMENT,SHENANDOAH POLICE DEPT.,400 W. SHERIDAN AVE.,SHENANDOAH,IA,51601,"http://maps.google.com/maps?q=400 W. SHERIDAN AVE.,+SHENANDOAH,+IA+51601&hl=en"
SIGOURNEY POLICE DEPARTMENT,SIGOURNEY POLICE DEPARTMENT,100 N. MAIN ST.,SIGOURNEY,IA,52591,"http://maps.google.com/maps?q=100 N. MAIN ST.,+SIGOURNEY,+IA+52591&hl=en"
SIOUX COUNTY SHERIFF'S OFFICE,"SIOUX COUNTY SHERIFF'S OFFICE 
												
													LOBBY",4363 IRONWOOD AVE,ORANGE CITY,IA,51041,"http://maps.google.com/maps?q=4363 IRONWOOD AVE,+ORANGE CITY,+IA+51041&hl=en"
SOUTH LAKE MINNETONKA PD,SOUTH LAKE MINNETONKA POLICE DEPARTMENT,24150 SMITHTOWN ROAD,EXCELSIOR,MN,55331,"http://maps.google.com/maps?q=24150 SMITHTOWN ROAD,+EXCELSIOR,+MN+55331&hl=en"
SPARTA POLICE DEPT,"SPARTA POLICE DEPT 
												
													EVENT 10:00AM-2:00PM",121 E OAK ST,SPARTA,WI,54656,"http://maps.google.com/maps?q=121 E OAK ST,+SPARTA,+WI+54656&hl=en"
SPENCER POLICE DEPARTMENT,"SPENCER POLICE DEPARTMENT 
												
													11:00AM - 1:00PM",712 GRAND AVE,SPENCER,IA,51301,"http://maps.google.com/maps?q=712 GRAND AVE,+SPENCER,+IA+51301&hl=en"
SPIRIT LAKE POLICE DEPARTMENT,HY-VEE,1500 18TH STREET,SPIRIT LAKE,IA,51360,"http://maps.google.com/maps?q=1500 18TH STREET,+SPIRIT LAKE,+IA+51360&hl=en"
SPRING VALLEY POLICE DEPARTMENT,"SPRING VALLEY VILLAGE HALL 
												
													DROP BOX ONLY M-F 8:00AM-4:30PM",EAST 121 S SECOND ST,SPRING VALLEY,WI,54767,"http://maps.google.com/maps?q=EAST 121 S SECOND ST,+SPRING VALLEY,+WI+54767&hl=en"
STANLEY POLICE DEPARTMENT,"STANLEY POLICE DEPARTMENT 
												
													EVENT 10:00AM-2:00PM",353 SOUTH BROADWAY STREET,STANLEY,WI,54768,"http://maps.google.com/maps?q=353 SOUTH BROADWAY STREET,+STANLEY,+WI+54768&hl=en"
STRAWBERRY POINT POLICE DEPARTMENT,STRAWBERRY POINT POLICE DEPARTMENT,111 COMMERICAL ST,STRAWBERRY POINT,IA,52076,"http://maps.google.com/maps?q=111 COMMERICAL ST,+STRAWBERRY POINT,+IA+52076&hl=en"
SUTHERLAND POLICE DEPARTMENT,"RL JOHANNSEN 
												
													LOBBY",110 ASH STREET,SUTHERLAND,IA,51058,"http://maps.google.com/maps?q=110 ASH STREET,+SUTHERLAND,+IA+51058&hl=en"
TARKIO POLICE DEPARTMENT,TARKIO POLICE DEPARTMENT,602 MAIN STREET,TARKIO,MO,64491,"http://maps.google.com/maps?q=602 MAIN STREET,+TARKIO,+MO+64491&hl=en"
TREMPEALEAU POLICE DEPARTMENT,"TREMPEALEAU POLICE DEPARTMENT 
												
													EVENT 8:00AM-12:00PM",24455 3RD STREET,TREMPEALEAU,WI,54661,"http://maps.google.com/maps?q=24455 3RD STREET,+TREMPEALEAU,+WI+54661&hl=en"
TREMPELEAU COUNTY SHERIFF'S OFFICE,"TREMPELEAU COUNTY SHERIFF'S OFFICE 
												
													DROP BOX ONLY M-F 8:00AM-4:30PM",36245 MAIN ST,WHITEHALL,WI,54773,"http://maps.google.com/maps?q=36245 MAIN ST,+WHITEHALL,+WI+54773&hl=en"
URBANDALE POLICE DEPARTMENT,"URBANDALE POLICE DEPARTMENT 
												
													8AM-12PM",3740 86TH ST,URBANDALE,IA,50322,"http://maps.google.com/maps?q=3740 86TH ST,+URBANDALE,+IA+50322&hl=en"
VAN BUREN COUNTY SHERIFF'S OFFICE,"LAW CENTER 
												
													LOBBY",907 BROAD STREET,KEOSAUQUA,IA,52565,"http://maps.google.com/maps?q=907 BROAD STREET,+KEOSAUQUA,+IA+52565&hl=en"
VERNON COUNTY SHERIFF'S OFFICE,"STODDARD VILLAGE HALL 
												
													EENT 10:00AM-2:00PM",180 N MAIN STREET,STODDARD,WI,54658,"http://maps.google.com/maps?q=180 N MAIN STREET,+STODDARD,+WI+54658&hl=en"
VILLAGE OF FALL CREEK POLICE DEPARTMENT,"VILLAGE OF FALL CREEK 
												
													DROP BOX M-F 8:0AM-4:30PM (CLOSED 12-1)",122 E LINCOLN AVENUE,FALL CREEK,WI,54742,"http://maps.google.com/maps?q=122 E LINCOLN AVENUE,+FALL CREEK,+WI+54742&hl=en"
VIROQUA POLICE DEPARTMENT,"VIROQUA POLICE DEPARTMENT 
												
													EVENT 10:00AM-2:00PM",702 EAST BROADWAY,VIROQUA,WI,54665,"http://maps.google.com/maps?q=702 EAST BROADWAY,+VIROQUA,+WI+54665&hl=en"
WARREN COUNTY SHERIFF'S OFFICE,WARREN COUNTY SHERIFF'S OFFICE,115 N HOWARD ST.,INDIANOLA,IA,50125,"http://maps.google.com/maps?q=115 N HOWARD ST.,+INDIANOLA,+IA+50125&hl=en"
WASECA PD,WASECA POLICE DEPARTMENT,303 SOUTH STATE STREET,WASECA,MN,56093,"http://maps.google.com/maps?q=303 SOUTH STATE STREET,+WASECA,+MN+56093&hl=en"
WATERLOO POLICE DEPARTMENT,GREENWOOD PHARMACY,2104 KIMBALL AVE,WATERLOO,IA,50702,"http://maps.google.com/maps?q=2104 KIMBALL AVE,+WATERLOO,+IA+50702&hl=en"
WATERLOO POLICE DEPARTMENT,WALGREENS,3910 UNIVERSITY AVE,WATERLOO,IA,50701,"http://maps.google.com/maps?q=3910 UNIVERSITY AVE,+WATERLOO,+IA+50701&hl=en"
WAUKEE POLICE DEPARTMENT,WAUKEE POLICE DEPARTMENT,1300 SE LA GRANT PKWY,WAUKEE,IA,50263,"http://maps.google.com/maps?q=1300 SE LA GRANT PKWY,+WAUKEE,+IA+50263&hl=en"
WAVERLY POLICE DEPARTMENT,WAVERLY PUBLIC LIBRARY,1500 WEST BREMER AVE,WAVERLY,IA,50677,"http://maps.google.com/maps?q=1500 WEST BREMER AVE,+WAVERLY,+IA+50677&hl=en"
WEBSTER COUNTY SHERIFF'S OFFICE,DANIEL PHARMACY,1114 CENTRAL AVE,FORT DODGE,IA,50501,"http://maps.google.com/maps?q=1114 CENTRAL AVE,+FORT DODGE,+IA+50501&hl=en"
WEST BRANCH POLICE DEPARTMENT,WEST BRANCH CITY HALL,110 N. POPLAR ST.,WEST BRANCH,IA,52358,"http://maps.google.com/maps?q=110 N. POPLAR ST.,+WEST BRANCH,+IA+52358&hl=en"
WEST DES MOINES POLICE DEPARTMENT,WEST DES MOINES POLICE DEPARTMENT,250 MILLS CIVIC PKWY,WEST DES MOINES,IA,50265,"http://maps.google.com/maps?q=250 MILLS CIVIC PKWY,+WEST DES MOINES,+IA+50265&hl=en"
WEST LIBERTY IOWA POLICE DEPARTMENT,"CITY HALL 
												
													LOBBY (10AM - 1PM)",409 N. CALHOUN ST,WEST LIBERTY,IA,52776,"http://maps.google.com/maps?q=409 N. CALHOUN ST,+WEST LIBERTY,+IA+52776&hl=en"
WEST SALEM POLICE DEPARTMENT,"WEST SALEM POLICE DEPARTMENT 
												
													DROP BOX ONLY M-F  8:00AM-4:30PM",175 SOUTH LEONARD STREET,WEST SALEM,WI,54669,"http://maps.google.com/maps?q=175 SOUTH LEONARD STREET,+WEST SALEM,+WI+54669&hl=en"
WILLIAMSBURG POLICE DEPARTMENT,WILLIAMSBURG POLICE DEPARTMENT,210 STATE STREET,WILLIAMSBURG,IA,52361,"http://maps.google.com/maps?q=210 STATE STREET,+WILLIAMSBURG,+IA+52361&hl=en"
WINDSOR HEIGHTS POLICE DEPARTMENT,WINDSOR HEIGHTS POLICE DEPARTMENT,1133 66TH STREET,WINDSOR HEIGHTS,IA,50324,"http://maps.google.com/maps?q=1133 66TH STREET,+WINDSOR HEIGHTS,+IA+50324&hl=en"
WINNEBAGO COUNTY SHERIFF'S OFFICE,WINNEBAGO COUNTY SHERIFF'S OFFICE,935 HWY. 69 NORTH,FOREST CITY,IA,50436,"http://maps.google.com/maps?q=935 HWY. 69 NORTH,+FOREST CITY,+IA+50436&hl=en"
WINONA COUNTY ASAP,"WINONA COUNTY ASAP 
												
													WALGREENS PARKING LOT",750 MANKATO AVENUE,WINONA,MN,55987,"http://maps.google.com/maps?q=750 MANKATO AVENUE,+WINONA,+MN+55987&hl=en"
