Participant,CollectionSite,Address,City,State,Zip,MapURL
ADAMS COUNTY SHERIFF'S OFFICE,ADAMS COUNTY HEALTH DEPARTMENT,330 VERMONT,QUINCY,IL,62301,"http://maps.google.com/maps?q=330 VERMONT,+QUINCY,+IL+62301&hl=en"
ALTON POLICE DEPARTMENT,ALTON POLICE DEPARTMENT,1700 E. BROADWAY,ALTON,IL,62002,"http://maps.google.com/maps?q=1700 E. BROADWAY,+ALTON,+IL+62002&hl=en"
ARNOLD POLICE DEPARTMENT,ARNOLD CITY HALL,2101 JEFFCO BLVD.,ARNOLD,MO,63010,"http://maps.google.com/maps?q=2101 JEFFCO BLVD.,+ARNOLD,+MO+63010&hl=en"
AUBURN POLICE DEPARTMENT,AUBURN POLICE DEPARTMENT,324 W. JEFFERSON STREET,AUBURN,IL,62615,"http://maps.google.com/maps?q=324 W. JEFFERSON STREET,+AUBURN,+IL+62615&hl=en"
BALLWIN POLICE DEPARTMENT,BALLWIN POLICE DEPARTMENT,300 PARK DRIVE,BALLWIN,MO,63011,"http://maps.google.com/maps?q=300 PARK DRIVE,+BALLWIN,+MO+63011&hl=en"
BELLA VILLA POLICE DEPARTMENT,BELLA VILLA CITY HALL,751 AVE H,SAINT LOUIS,MO,63125,"http://maps.google.com/maps?q=751 AVE H,+SAINT LOUIS,+MO+63125&hl=en"
BELLEFONTAINE NEIGHBORS POLICE DEPARTMENT,BELLEFONTAINE NEIGHBORS POLICE DEPARTMENT,9641 BELLEFONTAINE RD,SAINT LOUIS,MO,63137,"http://maps.google.com/maps?q=9641 BELLEFONTAINE RD,+SAINT LOUIS,+MO+63137&hl=en"
BERNIE POLICE DEPARTMENT,BERNIE POLICE DEPARTMENT,206 WEST CRUMB,BERNIE,MO,63822,"http://maps.google.com/maps?q=206 WEST CRUMB,+BERNIE,+MO+63822&hl=en"
BICKNELL POLICE DEPARTMENT,BICKNELL POLICE DEPARTMENT,119 EAST 2ND STREET,BICKNELL,IN,47512,"http://maps.google.com/maps?q=119 EAST 2ND STREET,+BICKNELL,+IN+47512&hl=en"
BLOOMINGTON POLICE DEPARTMENT,"BLOOMINGTON POLICE DEPARTMENT 
												
													MAIN LOBBY",305 S. EAST ST.,BLOOMINGTON,IL,61701,"http://maps.google.com/maps?q=305 S. EAST ST.,+BLOOMINGTON,+IL+61701&hl=en"
BLOOMINGTON POLICE DEPARTMENT,"KROGER PHARMACY 
												
													PARKING LOT",1175 COLLEGE MALL RD.,BLOOMINGTON,IN,47401,"http://maps.google.com/maps?q=1175 COLLEGE MALL RD.,+BLOOMINGTON,+IN+47401&hl=en"
BOWLING GREEN- WARREN CO DRUG TASK FORCE,BOWLING GREEN POLICE DEPARTMENT,911 KENTUCKY STREET,BOWLING GREEN,KY,42101,"http://maps.google.com/maps?q=911 KENTUCKY STREET,+BOWLING GREEN,+KY+42101&hl=en"
BOWLING GREEN- WARREN CO DRUG TASK FORCE,"KENTUCKY STATE POLICE 
												
													POST 3",3119 NASHVILLE ROAD,BOWLING GREEN,KY,42101,"http://maps.google.com/maps?q=3119 NASHVILLE ROAD,+BOWLING GREEN,+KY+42101&hl=en"
BOWLING GREEN- WARREN CO DRUG TASK FORCE,"SAFETY CITY 
												
													IN FRONT OF GREENWOOD HIGH SCHOOL",5065 SCOTTSVILLE ROAD,BOWLING GREEN,KY,42104,"http://maps.google.com/maps?q=5065 SCOTTSVILLE ROAD,+BOWLING GREEN,+KY+42104&hl=en"
BREESE POLICE DEPT.,BREESE POLICE DEPT.,500 N. 1ST STREET,BREESE,IL,62230,"http://maps.google.com/maps?q=500 N. 1ST STREET,+BREESE,+IL+62230&hl=en"
BRIDGETON POLICE DEPARTMENT,BRIDGETON POLICE DEPARTMENT,12355 NATURAL BRIDGE RD,BRIDGETON,MO,63044,"http://maps.google.com/maps?q=12355 NATURAL BRIDGE RD,+BRIDGETON,+MO+63044&hl=en"
BROWN COUNTY SHERIFF'S OFFICE,MT. STERLING IGA,200 PITTSFIELD ROAD,MOUNT STERLING,IL,62353,"http://maps.google.com/maps?q=200 PITTSFIELD ROAD,+MOUNT STERLING,+IL+62353&hl=en"
CALDWELL COUNTY SHERIFF'S OFFICE,CALDWELL COUNTY SHERIFF,100 E MARKET ST,PRINCETON,KY,42445,"http://maps.google.com/maps?q=100 E MARKET ST,+PRINCETON,+KY+42445&hl=en"
CANTON POLICE DEPARTMENT,CANTON POLICE DEPARTMENT,2 N. MAIN STREET,CANTON,IL,61520,"http://maps.google.com/maps?q=2 N. MAIN STREET,+CANTON,+IL+61520&hl=en"
CAPE GIRARDEAU POLICE DEPT.,CAPE GIRARDEAU POLICE DEPARTMENT,2530 MARIA LOUISE,CAPE GIRARDEAU,MO,63701,"http://maps.google.com/maps?q=2530 MARIA LOUISE,+CAPE GIRARDEAU,+MO+63701&hl=en"
CARBONDALE POLICE DEPARTMENT,CARBONDALE POLICE DEPARTMENT,501 SOUTH WASHINGTON STREET,CARBONDALE,IL,62901,"http://maps.google.com/maps?q=501 SOUTH WASHINGTON STREET,+CARBONDALE,+IL+62901&hl=en"
CARLINVILLE POLICE DEPT.,CARLINVILLE POLICE DEPARTMENT,570 NORTH BROAD STREET,CARLINVILLE,IL,62626,"http://maps.google.com/maps?q=570 NORTH BROAD STREET,+CARLINVILLE,+IL+62626&hl=en"
CHARLESTON DEPARTMENT OF PUBLIC SAFETY,"CHARLESTON DEPT PUBLIC SAFETY 
												
													HEADQUARTERS",204 N MAIN,CHARLESTON,MO,63834,"http://maps.google.com/maps?q=204 N MAIN,+CHARLESTON,+MO+63834&hl=en"
CHATHAM POLICE DEPARTMENT,CHATHAM POLICE DEPARTMENT,117 EAST MULBERRY,CHATHAM,IL,62629,"http://maps.google.com/maps?q=117 EAST MULBERRY,+CHATHAM,+IL+62629&hl=en"
CHENOA POLICE DEPARTMENT,CHENOA POLICE DEPARTMENT,201 GREEN STREET,CHENOA,IL,61726,"http://maps.google.com/maps?q=201 GREEN STREET,+CHENOA,+IL+61726&hl=en"
CHESTER POLICE DEPARTMENT,"CHESTER POLICE DEPARTMENT 
												
													FRONT LOBBY",1330 SWANWICK ST.,CHESTER,IL,62233,"http://maps.google.com/maps?q=1330 SWANWICK ST.,+CHESTER,+IL+62233&hl=en"
CHESTERFIELD POLICE DEPARTMENT,"CHESTERFIELD MALL 
												
													PARKING LOT BETWEEN SEARS & MACYS",291 CHESTERFIELD MALL,CHESTERFIELD,MO,63017,"http://maps.google.com/maps?q=291 CHESTERFIELD MALL,+CHESTERFIELD,+MO+63017&hl=en"
CHESTERFIELD POLICE DEPARTMENT,"CLARKSON VALLEY CITY HALL 
												
													PARKING LOT",15933 CLAYTON ROAD(CLARKSON VALLEY),BALLWIN,MO,63011,"http://maps.google.com/maps?q=15933 CLAYTON ROAD,+BALLWIN,+MO+63011&hl=en"
CLAY COUNTY SHERIFF'S DEPARTMENT,CLAY COUNTY SHERIFF'S OFFICE,300 BROADWAY,LOUISVILLE,IL,62858,"http://maps.google.com/maps?q=300 BROADWAY,+LOUISVILLE,+IL+62858&hl=en"
CLAYTON POLICE DEPARTMENT,CENTER OF CLAYTON,50 GAY AVENUE,CLAYTON,MO,63105,"http://maps.google.com/maps?q=50 GAY AVENUE,+CLAYTON,+MO+63105&hl=en"
CLINTON COUNTY SHERIFF'S DEPARTMENT,CLINTON COUNTY SHERIFF'S OFFICE,810 FRANKLIN ST.,CARLYLE,IL,62231,"http://maps.google.com/maps?q=810 FRANKLIN ST.,+CARLYLE,+IL+62231&hl=en"
CLINTON POLICE DEPARTMENT,CLINTON POLICE DEPARTMENT,118 W. WASHINGTON ST,CLINTON,IL,61727,"http://maps.google.com/maps?q=118 W. WASHINGTON ST,+CLINTON,+IL+61727&hl=en"
COBDEN POLICE DEPARTMENT,COBDEN POLICE DEPARTMENT,112 EAST MAPLE,COBDEN,IL,62920,"http://maps.google.com/maps?q=112 EAST MAPLE,+COBDEN,+IL+62920&hl=en"
COLUMBIA POLICE DEPARTMENT,"COLUMBIA POLICE DEPARTMENT 
												
													LOBBY (TRIPLE BOXES)",1020 NORTH MAIN STREET,COLUMBIA,IL,62236,"http://maps.google.com/maps?q=1020 NORTH MAIN STREET,+COLUMBIA,+IL+62236&hl=en"
COTTLEVILLE POLICE DEPT.,COTTLEVILLE POLICE DEPT.,5490 FIFTH STREET,COTTLEVILLE,MO,63304,"http://maps.google.com/maps?q=5490 FIFTH STREET,+COTTLEVILLE,+MO+63304&hl=en"
COULTERVILLE POLICE DEPARTMENT,CHESTER POLICE DEPT.,1330 SWANWICK ST.,CHESTER,IL,62233,"http://maps.google.com/maps?q=1330 SWANWICK ST.,+CHESTER,+IL+62233&hl=en"
COULTERVILLE POLICE DEPARTMENT,COULTERVILLE POLICE DEPT.,114 N 4TH ST.,COULTERVILLE,IL,62237,"http://maps.google.com/maps?q=114 N 4TH ST.,+COULTERVILLE,+IL+62237&hl=en"
COULTERVILLE POLICE DEPARTMENT,RED BUD POLICE DEPT.,200 E MARKET ST.,RED BUD,IL,62278,"http://maps.google.com/maps?q=200 E MARKET ST.,+RED BUD,+IL+62278&hl=en"
COULTERVILLE POLICE DEPARTMENT,SPARTA POLICE DEPT.,114 W JACKSON ST.,SPARTA,IL,62286,"http://maps.google.com/maps?q=114 W JACKSON ST.,+SPARTA,+IL+62286&hl=en"
CRAWFORDSVILLE POLICE DEPT.,MONTGOMERY COUNTY HEALTH DEPARTMENT,110 W. SOUTH BOULEVARD,CRAWFORDSVILLE,IN,47933,"http://maps.google.com/maps?q=110 W. SOUTH BOULEVARD,+CRAWFORDSVILLE,+IN+47933&hl=en"
CREVE COEUR POLICE DEPT,"CREVE COEUR POLICE DEPT. 
												
													FRONT LOBBY",300 NORTH NEW BALLAS,CREVE COEUR,MO,63141,"http://maps.google.com/maps?q=300 NORTH NEW BALLAS,+CREVE COEUR,+MO+63141&hl=en"
CRYSTAL CITY POLICE DEPARTMENT,"CRYSTAL CITY POLICE DEPARTMENT 
												
													LOBBY",130 MISSISSIPPI AVE,CRYSTAL CITY,MO,63019,"http://maps.google.com/maps?q=130 MISSISSIPPI AVE,+CRYSTAL CITY,+MO+63019&hl=en"
DANVERS POLICE DEPARTMENT,DANVERS POLICE DEPARTMENT,304 E. MAIN STREET,DANVERS,IL,61732,"http://maps.google.com/maps?q=304 E. MAIN STREET,+DANVERS,+IL+61732&hl=en"
DEA / ST. VINCENT HOSPITAL,"ST. VINCENT HOSPITAL 
												
													FRONT ENTRANCE - DOOR 1",2001 W 86TH ST,INDIANAPOLIS,IN,46260,"http://maps.google.com/maps?q=2001 W 86TH ST,+INDIANAPOLIS,+IN+46260&hl=en"
DECATUR POLICE DEPARTMENT,DECATUR POLICE DEPARTMENT,707 W. SOUTH SIDE DR,DECATUR,IL,62521,"http://maps.google.com/maps?q=707 W. SOUTH SIDE DR,+DECATUR,+IL+62521&hl=en"
DES PERES DEPARTMENT OF PUBLIC SAFETY,THE LODGE,1050 DES PERES ROAD,DES PERES,MO,63131,"http://maps.google.com/maps?q=1050 DES PERES ROAD,+DES PERES,+MO+63131&hl=en"
DESLOGE POLICE DEPARTMENT,PARKLAND HEALTH MART PHARMACY,617 NORTH COWLING ST,PARK HILLS,MO,63601,"http://maps.google.com/maps?q=617 NORTH COWLING ST,+PARK HILLS,+MO+63601&hl=en"
DEXTER POLICE DEPARTMENT,DEXTER POLICE DEPARTMENT,305 COOPER STREET,DEXTER,MO,63841,"http://maps.google.com/maps?q=305 COOPER STREET,+DEXTER,+MO+63841&hl=en"
DOUGLAS COUNTY SHERIFF'S DEPARTMENT,"DOUGLAS COUNTY SHERIFF'S DEPARTMENT 
												
													LOBBY",920 S. WASHINGTON,TUSCOLA,IL,61953,"http://maps.google.com/maps?q=920 S. WASHINGTON,+TUSCOLA,+IL+61953&hl=en"
DUBOIS CO. SHERIFF DEPT.,DUBOIS FIRE DEPT.,4579 N 2ND ST,DUBOIS,IN,47527,"http://maps.google.com/maps?q=4579 N 2ND ST,+DUBOIS,+IN+47527&hl=en"
DUBOIS CO. SHERIFF DEPT.,ST HENRY FIRE DEPT.,"1211 W 1100 S,",FERDINAND,IN,47532,"http://maps.google.com/maps?q=1211 W 1100 S,,+FERDINAND,+IN+47532&hl=en"
DUQUOIN POLICE DEPARTMENT,"DUQUOIN POLICE DEPARTMENT 
												
													LOBBY",304 E. POPLAR ST,DU QUOIN,IL,62832,"http://maps.google.com/maps?q=304 E. POPLAR ST,+DU QUOIN,+IL+62832&hl=en"
EAST ALTON POLICE DEPT,EAST ALTON POLICE DEPARTMENT,211 N SHAMROCK,EAST ALTON,IL,62024,"http://maps.google.com/maps?q=211 N SHAMROCK,+EAST ALTON,+IL+62024&hl=en"
EAST PRAIRIE POLICE DEPARTMENT,"EAST PRAIRIE POLICE DEPARTMENT 
												
													MARK HIGGINS",219 N. WASHINGTON,EAST PRAIRIE,MO,63845,"http://maps.google.com/maps?q=219 N. WASHINGTON,+EAST PRAIRIE,+MO+63845&hl=en"
EDWARDSVILLE POLICE DEPARTMENT,"EDWARDSVILLE POLICE DEPARTMENT 
												
													FRONT / MAIN LOBBY",333 SOUTH MAIN STREET,EDWARDSVILLE,IL,62025,"http://maps.google.com/maps?q=333 SOUTH MAIN STREET,+EDWARDSVILLE,+IL+62025&hl=en"
EFFINGHAM COUNTY SHERIFF'S OFFICE,EFFINGHAM COUNTY SHERIFF'S OFFICE,101 N. 4TH STREET,EFFINGHAM,IL,62401,"http://maps.google.com/maps?q=101 N. 4TH STREET,+EFFINGHAM,+IL+62401&hl=en"
EL PASO POLICE DEPARTMENT,EL PASO POLICE DEPARTMENT,540 E. MAIN STREET,EL PASO,IL,61738,"http://maps.google.com/maps?q=540 E. MAIN STREET,+EL PASO,+IL+61738&hl=en"
ELLISVILLE POLICE DEPARTMENT,ELLISVILLE POLICE DEPARTMENT,37 WEIS AVENUE,ELLISVILLE,MO,63011,"http://maps.google.com/maps?q=37 WEIS AVENUE,+ELLISVILLE,+MO+63011&hl=en"
EUREKA POLICE DEPARTMENT,"EUREKA PD 
												
													CHIEF MIKE WIEGAND",120 CITY HALL DRIVE,EUREKA,MO,63025,"http://maps.google.com/maps?q=120 CITY HALL DRIVE,+EUREKA,+MO+63025&hl=en"
FAIRVIEW HEIGHTS POLICE DEPARTMENT,FAIRVIEW HEIGHTS POLICE DEPT.,10027 BUNKUM ROAD,FAIRVIEW HEIGHTS,IL,62208,"http://maps.google.com/maps?q=10027 BUNKUM ROAD,+FAIRVIEW HEIGHTS,+IL+62208&hl=en"
FAIRVIEW HEIGHTS POLICE DEPARTMENT,ST CLAIR SQUARE,134 ST CLAIR SQUARE,FAIRVIEW HEIGHTS,IL,62208,"http://maps.google.com/maps?q=134 ST CLAIR SQUARE,+FAIRVIEW HEIGHTS,+IL+62208&hl=en"
FARMINGTON POLICE DEPARTMENT,FARMINGTON POLICE DEPT.,310 STE. GENEVIEVE AVE,FARMINGTON,MO,63640,"http://maps.google.com/maps?q=310 STE. GENEVIEVE AVE,+FARMINGTON,+MO+63640&hl=en"
FESTUS POLICE DEPARTMENT,FESTUS POLICE DEPARTMENT,100 PARK AVE,FESTUS,MO,63028,"http://maps.google.com/maps?q=100 PARK AVE,+FESTUS,+MO+63028&hl=en"
FLORISSANT POLICE DEPARTMENT,"FLORISSANT POLICE DEPARTMENT 
												
													LOBBY",1700 NORTH HIGHWAY 67,FLORISSANT,MO,63033,"http://maps.google.com/maps?q=1700 NORTH HIGHWAY 67,+FLORISSANT,+MO+63033&hl=en"
FREDERICKTOWN POLICE DEPARTMENT,FREDERICKTOWN WALMART SUPERCENTER,1025 WALTON DRIVE,FREDERICKTOWN,MO,63645,"http://maps.google.com/maps?q=1025 WALTON DRIVE,+FREDERICKTOWN,+MO+63645&hl=en"
GLENDALE POLICE DEPARTMENT,GLENDALE CITY AUDITORIUM,424 N SAPPINGTON ROAD,GLENDALE,MO,63122,"http://maps.google.com/maps?q=424 N SAPPINGTON ROAD,+GLENDALE,+MO+63122&hl=en"
GREENBRIER POLICE DEPARTMENT,GREENBRIER PHARMACY,2239 HWY 41 S,GREENBRIER,TN,37073,"http://maps.google.com/maps?q=2239 HWY 41 S,+GREENBRIER,+TN+37073&hl=en"
GREENCASTLE POLICE DEPARTMENT,"CLOVERDALE HIGH SCHOOL 
												
													9 AM TO NOON",205 E. MARKET ST.ATTN: MARSHAL STEVE HIBLER,CLOVERDALE,IN,46120,"http://maps.google.com/maps?q=205 E. MARKET ST.,+CLOVERDALE,+IN+46120&hl=en"
GREENCASTLE POLICE DEPARTMENT,"GREENCASTLE HIGH SCHOOL 
												
													9 AM TO NOON",910 E. WASHINGTON ST.,GREENCASTLE,IN,46135,"http://maps.google.com/maps?q=910 E. WASHINGTON ST.,+GREENCASTLE,+IN+46135&hl=en"
GREENCASTLE POLICE DEPARTMENT,"NORTH PUTNAM HIGH SCHOOL 
												
													ATTN: MARSHAL MIKE MAHOY",8869 N. CR 250 E.9 AM TO NOON,ROACHDALE,IN,46172,"http://maps.google.com/maps?q=8869 N. CR 250 E.,+ROACHDALE,+IN+46172&hl=en"
GREENCASTLE POLICE DEPARTMENT,"SOUTH PUTNAM HIGH SCHOOL 
												
													ATTN: CORPORAL JERROD BAUGH",1780 E. US HWY 409 AM TO NOON,GREENCASTLE,IN,46135,"http://maps.google.com/maps?q=1780 E. US HWY 40,+GREENCASTLE,+IN+46135&hl=en"
GREENE COUNTY SHERIFF OFFICE,"GREENE COUNTY GENERAL HOSPITAL 
												
													NONE",1185 N 1000 W,LINTON,IN,47441,"http://maps.google.com/maps?q=1185 N 1000 W,+LINTON,+IN+47441&hl=en"
GREENE COUNTY SHERIFF OFFICE,"GREENE COUNTY SHERIFF OFFICE 
												
													NONE",204 S 70 E,BLOOMFIELD,IN,47424,"http://maps.google.com/maps?q=204 S 70 E,+BLOOMFIELD,+IN+47424&hl=en"
GREENVILLE POLICE DEPARTMENT,BOND COUNTY SHERIFF'S DEPARTMENT,403 S. SECOND ST,GREENVILLE,IL,62246,"http://maps.google.com/maps?q=403 S. SECOND ST,+GREENVILLE,+IL+62246&hl=en"
GREENVILLE POLICE DEPARTMENT,GREENVILLE POLICE DEPARTMENT,404 S. THIRD ST,GREENVILLE,IL,62246,"http://maps.google.com/maps?q=404 S. THIRD ST,+GREENVILLE,+IL+62246&hl=en"
HANCOCK COUNTY SHERIFF'S OFFICE,JIFFI STOP,101 S. WORRELL STREET,BOWEN,IL,62316,"http://maps.google.com/maps?q=101 S. WORRELL STREET,+BOWEN,+IL+62316&hl=en"
HANCOCK COUNTY SHERIFF'S OFFICE,LEWISPORT FIRE DEPARTMENT,4TH STREET,LEWISPORT,KY,42351,"http://maps.google.com/maps?q=4TH STREET,+LEWISPORT,+KY+42351&hl=en"
HAZELWOOD POLICE DEPARTMENT,CITY HALL/POLICE COMPLEX,415 ELM GROVE,HAZELWOOD,MO,63042,"http://maps.google.com/maps?q=415 ELM GROVE,+HAZELWOOD,+MO+63042&hl=en"
HEYWORTH POLICE DEPT.,HEYWORTH VILLAGE HALL,108 S. BUCHANAN ST,HEYWORTH,IL,61745,"http://maps.google.com/maps?q=108 S. BUCHANAN ST,+HEYWORTH,+IL+61745&hl=en"
HIGHLAND POLICE DEPARTMENT,"HIGHLAND POLICE DEPARTMENT 
												
													FRONT LOBBY",820 MULBERRY ST,HIGHLAND,IL,62249,"http://maps.google.com/maps?q=820 MULBERRY ST,+HIGHLAND,+IL+62249&hl=en"
HILLSBORO POLICE DEPARTMENT,HILLSBORO POLICE DEPARTMENT,101 MAIN ST,HILLSBORO,MO,63050,"http://maps.google.com/maps?q=101 MAIN ST,+HILLSBORO,+MO+63050&hl=en"
HILLSBORO POLICE DEPARTMENT,HILLSBORO POLICE DEPARTMENT,447 SOUTH MAIN STREETSUITE 5,HILLSBORO,IL,62049,"http://maps.google.com/maps?q=447 SOUTH MAIN STREET,+HILLSBORO,+IL+62049&hl=en"
INDIANA BOARD OF PHARMACY,"COMMUNITY CANCER CENTER SOUTH 
												
													COMMUNITY HOSPITAL POLICE/SECURITY",1440 E COUNTY LINE RD.,INDIANAPOLIS,IN,46227,"http://maps.google.com/maps?q=1440 E COUNTY LINE RD.,+INDIANAPOLIS,+IN+46227&hl=en"
INDIANA BOARD OF PHARMACY,"SAM'S CLUB 
												
													JOHNSON COUNTY SHERIFF DEPARTMENT",1101 WINDHORST WAY,GREENWOOD,IN,46143,"http://maps.google.com/maps?q=1101 WINDHORST WAY,+GREENWOOD,+IN+46143&hl=en"
INDIANA BOARD OF PHARMACY,"WALMART 
												
													MARION COUNTY SHERIFF DEPT",3221 W. 86TH ST,INDIANAPOLIS,IN,46268,"http://maps.google.com/maps?q=3221 W. 86TH ST,+INDIANAPOLIS,+IN+46268&hl=en"
INDIANA STATE POLICE,"INDIANA STATE POLICE 
												
													DISTRICT 33",1500 N. PACKINGHOUSE RD. #200,BLOOMINGTON,IN,47404,"http://maps.google.com/maps?q=1500 N. PACKINGHOUSE RD. #200,+BLOOMINGTON,+IN+47404&hl=en"
INDIANA STATE POLICE,"INDIANA STATE POLICE 
												
													DISTRICT 34",2209 NEWTON STREET,JASPER,IN,47546,"http://maps.google.com/maps?q=2209 NEWTON STREET,+JASPER,+IN+47546&hl=en"
INDIANA STATE POLICE,"INDIANA STATE POLICE 
												
													DISTRICT 35",19411 HIGHWAY 41 NORTH,EVANSVILLE,IN,47725,"http://maps.google.com/maps?q=19411 HIGHWAY 41 NORTH,+EVANSVILLE,+IN+47725&hl=en"
INDIANA STATE POLICE,"INDIANA STATE POLICE 
												
													DISTRICT 52",8620 E. 21ST STREET,INDIANAPOLIS,IN,46219,"http://maps.google.com/maps?q=8620 E. 21ST STREET,+INDIANAPOLIS,+IN+46219&hl=en"
INDIANA STATE POLICE,"INDIANA STATE POLICE 
												
													DISTRICT 53",1927 WEST US 40,GREENCASTLE,IN,46135,"http://maps.google.com/maps?q=1927 WEST US 40,+GREENCASTLE,+IN+46135&hl=en"
INDIANAPOLIS FIRE DEPARTMENT,IFD FIRE STATION 1,1903 W 10TH ST,INDIANAPOLIS,IN,46222,"http://maps.google.com/maps?q=1903 W 10TH ST,+INDIANAPOLIS,+IN+46222&hl=en"
INDIANAPOLIS FIRE DEPARTMENT,IFD FIRE STATION 23,1108 E THOMPSON RD,INDIANAPOLIS,IN,46227,"http://maps.google.com/maps?q=1108 E THOMPSON RD,+INDIANAPOLIS,+IN+46227&hl=en"
INDIANAPOLIS FIRE DEPARTMENT,IFD FIRE STATION 27,2918 E 10TH ST,INDIANAPOLIS,IN,46201,"http://maps.google.com/maps?q=2918 E 10TH ST,+INDIANAPOLIS,+IN+46201&hl=en"
INDIANAPOLIS FIRE DEPARTMENT,IFD FIRE STATION 4,8404 N DITCH RD,INDIANAPOLIS,IN,46260,"http://maps.google.com/maps?q=8404 N DITCH RD,+INDIANAPOLIS,+IN+46260&hl=en"
JACKSON POLICE DEPARTMENT,JACKSON POLICE / FIRE COMPLEX,525 S. HOPE ST.,JACKSON,MO,63755,"http://maps.google.com/maps?q=525 S. HOPE ST.,+JACKSON,+MO+63755&hl=en"
JACKSONVILLE POLICE DEPARTMENT,JACKSONVILLE POLICE DEPARTMENT,200 W. DOUGLAS,JACKSONVILLE,IL,62650,"http://maps.google.com/maps?q=200 W. DOUGLAS,+JACKSONVILLE,+IL+62650&hl=en"
JERSEYVILLE POLICE DEPARTMENT,CVS PHARMACY-PHOTO,303 S STATE ST.,JERSEYVILLE,IL,62052,"http://maps.google.com/maps?q=303 S STATE ST.,+JERSEYVILLE,+IL+62052&hl=en"
KENTUCKY STATE POLICE POST 16,KSP POST 16,8298 KEACH DRIVE,HENDERSON,KY,42420,"http://maps.google.com/maps?q=8298 KEACH DRIVE,+HENDERSON,+KY+42420&hl=en"
KENTUCKY STATE POLICE POST 2,KENTUCKY STATE POLICE POST 2,1000 WESTERN KENTUCKY PARKWAY,NORTONVILLE,KY,42442,"http://maps.google.com/maps?q=1000 WESTERN KENTUCKY PARKWAY,+NORTONVILLE,+KY+42442&hl=en"
KENTUCKY STATE POLICE POST 3,"KENTUCKY STATE POLICE 
												
													POST 3",3119NASHVILLE RD.,BOWLING GREEN,KY,42101,"http://maps.google.com/maps?q=3119,+BOWLING GREEN,+KY+42101&hl=en"
KIRKWOOD POLICE DEPARTMENT,KIRKWOOD POLICE STATION,131 WEST MADISON AVE,KIRKWOOD,MO,63122,"http://maps.google.com/maps?q=131 WEST MADISON AVE,+KIRKWOOD,+MO+63122&hl=en"
KNOX COUNTY SHERIFF OFFICE,"KNOX COUNTY SHERIFF'S OFFICE 
												
													24/7 DROP BOX",2375 S. OLD DECKER RD.,VINCENNES,IN,47591,"http://maps.google.com/maps?q=2375 S. OLD DECKER RD.,+VINCENNES,+IN+47591&hl=en"
KROGER SPEEDWAY,KROGER SPEEDWAY,5718 CRAWFORDSVILLE ROAD,INDIANAPOLIS,IN,46224,"http://maps.google.com/maps?q=5718 CRAWFORDSVILLE ROAD,+INDIANAPOLIS,+IN+46224&hl=en"
LADUE POLICE DEPARTMENT,LADUE POLICE DEPT.,9345 CLAYTON ROAD,SAINT LOUIS,MO,63124,"http://maps.google.com/maps?q=9345 CLAYTON ROAD,+SAINT LOUIS,+MO+63124&hl=en"
LEITCHFIELD POLICE DEPARTMENT,LEITCHFIELD POLICE DEPT,117 SOUTH MAIN STREET,LEITCHFIELD,KY,42754,"http://maps.google.com/maps?q=117 SOUTH MAIN STREET,+LEITCHFIELD,+KY+42754&hl=en"
LEROY POLICE DEPARTMENT,LEROY CITY HALL,207 S. EAST ST.,LE ROY,IL,61752,"http://maps.google.com/maps?q=207 S. EAST ST.,+LE ROY,+IL+61752&hl=en"
LINCOLN POLICE DEPARTMENT,LINCOLN POLICE DEPARTMENT,911 PEKIN ST,LINCOLN,IL,62656,"http://maps.google.com/maps?q=911 PEKIN ST,+LINCOLN,+IL+62656&hl=en"
LITCHFIELD POLICE DEPARTMENT,"LITCHFIELD POLICE DEPARTMENT 
												
													LOBBY DROP BOX",120 E. RYDER STREET,LITCHFIELD,IL,62056,"http://maps.google.com/maps?q=120 E. RYDER STREET,+LITCHFIELD,+IL+62056&hl=en"
MADISON COUNTY SHERIFF'S OFFICE,"MADISON COUNTY ADMINISTRATION BUILDING 
												
													PARKING LOT",157 N. MAIN STREETNORTH. 2ND STREET PARKING LOT,EDWARDSVILLE,IL,62025,"http://maps.google.com/maps?q=157 N. MAIN STREET,+EDWARDSVILLE,+IL+62025&hl=en"
MALDEN POLICE DEPARTMENT,MALDEN POLICE DEPT.,112 E LACLEDE,MALDEN,MO,63863,"http://maps.google.com/maps?q=112 E LACLEDE,+MALDEN,+MO+63863&hl=en"
MANCHESTER POLICE DEPARTMENT,MANCHESTER POLICE DEPARTMENT,200 HIGHLANDS BLVD,BALLWIN,MO,63011,"http://maps.google.com/maps?q=200 HIGHLANDS BLVD,+BALLWIN,+MO+63011&hl=en"
MAPLEWOOD POLICE DEPARTMENT,MAPLEWOOD POLICE DEPARTMENT,7601 MANCHESTER,MAPLEWOOD,MO,63143,"http://maps.google.com/maps?q=7601 MANCHESTER,+MAPLEWOOD,+MO+63143&hl=en"
MARION COUNTY SHERIFF'S DEPT,MARION COUNTY SHERIFF'S DEPT,204 N. WASHINGTON STREET,SALEM,IL,62881,"http://maps.google.com/maps?q=204 N. WASHINGTON STREET,+SALEM,+IL+62881&hl=en"
MARION COUNTY SHERIFF'S OFFICE,"MARION COUNTY SHERIFF'S OFFICE 
												
													DROP BOX 24/7",40 S. ALABAMA ST.,INDIANAPOLIS,IN,46204,"http://maps.google.com/maps?q=40 S. ALABAMA ST.,+INDIANAPOLIS,+IN+46204&hl=en"
MARION POLICE DEPARTMENT,"MARION POLICE DEPARTMENT 
												
													CHIEF RAY O'NEAL",217 SOUTH MAIN STREET,MARION,KY,42064,"http://maps.google.com/maps?q=217 SOUTH MAIN STREET,+MARION,+KY+42064&hl=en"
MARSHALL POLICE DEPARTMENT,"MARSHALL FIRE PROTECTION DISTRICT FIRE DEPARTMENT 
												
													CORNER OF ILLINOIS STATE HWY 1 AND ARCHER AVE",718 ARCHER AVE,MARSHALL,IL,62441,"http://maps.google.com/maps?q=718 ARCHER AVE,+MARSHALL,+IL+62441&hl=en"
MARYLAND HEIGHTS POLICE DEPARTMENT,MARYLAND HEIGHTS POLICE DEPARTMENT,11911 DORSETTE ROAD,MARYLAND HEIGHTS,MO,63043,"http://maps.google.com/maps?q=11911 DORSETTE ROAD,+MARYLAND HEIGHTS,+MO+63043&hl=en"
MARYVILLE POLICE DEPT,MARYVILLE POLICE DEPARTMENT,2500 N. CENTER,MARYVILLE,IL,62062,"http://maps.google.com/maps?q=2500 N. CENTER,+MARYVILLE,+IL+62062&hl=en"
MASON COUNTY SHERIFF'S OFFICE,"IGA STORE - MASON CITY 
												
													10:00 AM - 11:00 AM  (PARKING LOT)",201 WEST ELM,MASON CITY,IL,62664,"http://maps.google.com/maps?q=201 WEST ELM,+MASON CITY,+IL+62664&hl=en"
MASON COUNTY SHERIFF'S OFFICE,"ONEY FOOD'S PARKING LOT 
												
													PARKING LOT 1:00 PM - 2:00 PM",500 S. PROMENADE,HAVANA,IL,62644,"http://maps.google.com/maps?q=500 S. PROMENADE,+HAVANA,+IL+62644&hl=en"
MASON COUNTY SHERIFF'S OFFICE,"THE LODGE AT MANITO 
												
													11:30 AM - 12:30 PM (PARKING LOT)",1303 S. EAST AVENUE,MANITO,IL,61546,"http://maps.google.com/maps?q=1303 S. EAST AVENUE,+MANITO,+IL+61546&hl=en"
MASSAC COUNTY SHERIFF'S DEPT,"MASSAC COUNTY SHERIFF'S DEPT 
												
													LOCATED IN THE LOBBY",515 MARKET ST,METROPOLIS,IL,62960,"http://maps.google.com/maps?q=515 MARKET ST,+METROPOLIS,+IL+62960&hl=en"
MATTOON POLICE DEPARTMENT,WALGREENS,208 S. LOGAN,MATTOON,IL,61938,"http://maps.google.com/maps?q=208 S. LOGAN,+MATTOON,+IL+61938&hl=en"
MCLEANSBORO POLICE DEPARTMENT,MCLEANSBORO FIRE DEPARTMENT,108 SOUTH MARSHALL AVE,MCLEANSBORO,IL,62859,"http://maps.google.com/maps?q=108 SOUTH MARSHALL AVE,+MCLEANSBORO,+IL+62859&hl=en"
MENARD COUNTY SHERIFF'S DEPT.,MENARD COUNTY JAIL,315 S. SIXTH STREET,PETERSBURG,IL,62675,"http://maps.google.com/maps?q=315 S. SIXTH STREET,+PETERSBURG,+IL+62675&hl=en"
MINIER POLICE DEPARTMENT,MINIER POLICE DEPARTMENT,110 W. CENTRAL STREET,MINIER,IL,61759,"http://maps.google.com/maps?q=110 W. CENTRAL STREET,+MINIER,+IL+61759&hl=en"
MONTGOMERY COUNTY SHERIFF'S OFFICE,MONTGOMERY COUNTY SHERIFF'S OFFICE,140 N. MAIN STREET,HILLSBORO,IL,62049,"http://maps.google.com/maps?q=140 N. MAIN STREET,+HILLSBORO,+IL+62049&hl=en"
MONTICELLO POLICE DEPARTMENT,MONTICELLO POLICE DEPARTMENT,301 N. HAMILTON,MONTICELLO,IL,61856,"http://maps.google.com/maps?q=301 N. HAMILTON,+MONTICELLO,+IL+61856&hl=en"
MORTON POLICE DEPARTMENT,MORTON POLICE DEPARTMENT,375 W. BIRCHWOOD STREET,MORTON,IL,61550,"http://maps.google.com/maps?q=375 W. BIRCHWOOD STREET,+MORTON,+IL+61550&hl=en"
MT. VERNON POLICE DEPARTMENT,MT. VERNON POLICE DEPARTMENT,211 N. 10TH ST,MOUNT VERNON,IL,62864,"http://maps.google.com/maps?q=211 N. 10TH ST,+MOUNT VERNON,+IL+62864&hl=en"
NORMAL POLICE DEPARTMENT,NORMAL POLICE DEPARTMENT,100 E. PHOENIX AVENUE,NORMAL,IL,61761,"http://maps.google.com/maps?q=100 E. PHOENIX AVENUE,+NORMAL,+IL+61761&hl=en"
NORTHWOODS POLICE DEPARTMENT,NORTHWOODS POLICE DEPARTMENT,4608 OAKRIDGE BLVD,SAINT LOUIS,MO,63121,"http://maps.google.com/maps?q=4608 OAKRIDGE BLVD,+SAINT LOUIS,+MO+63121&hl=en"
O'FALLON POLICE DEPARTMENT,O'FALLON PUBLIC SAFETY BUILDING,285 NORTH SEVEN HILLS ROAD,O FALLON,IL,62269,"http://maps.google.com/maps?q=285 NORTH SEVEN HILLS ROAD,+O FALLON,+IL+62269&hl=en"
OLIVETTE POLICE DEPARTMENT,OLIVETTE MUNICIPAL BUILDING,1140 DIELMAN RD.,OLIVETTE,MO,63132,"http://maps.google.com/maps?q=1140 DIELMAN RD.,+OLIVETTE,+MO+63132&hl=en"
OVERLAND (MO) POLICE DEPARTMENT,OVERLAND POLICE DEPT.,2410 GOODALE,OVERLAND,MO,63114,"http://maps.google.com/maps?q=2410 GOODALE,+OVERLAND,+MO+63114&hl=en"
OWENSBORO POLICE DEPARTMENT,"OWENSBORO POLICE DEPARTMENT 
												
													FRONT LOBBY",222 E 9TH ST,OWENSBORO,KY,42303,"http://maps.google.com/maps?q=222 E 9TH ST,+OWENSBORO,+KY+42303&hl=en"
PANA POLICE DEPARTMENT,WALGREENS,108 SOUTH POPLAR STREET,PANA,IL,62557,"http://maps.google.com/maps?q=108 SOUTH POPLAR STREET,+PANA,+IL+62557&hl=en"
PARK HILLS POLICE DEPARTMENT,PARK HILLS POLICE DEPARTMENT,8 MUNICIPAL ST,PARK HILLS,MO,63601,"http://maps.google.com/maps?q=8 MUNICIPAL ST,+PARK HILLS,+MO+63601&hl=en"
PEKIN POLICE DEPARTMENT,"PEKIN POLICE DEPARTMENT 
												
													LOBBY",111 SOUTH CAPITOL STREET,PEKIN,IL,61554,"http://maps.google.com/maps?q=111 SOUTH CAPITOL STREET,+PEKIN,+IL+61554&hl=en"
PEORIA POLICE DEPARTMENT,KROGER PHARMACY,9219 N. LINDBERGH DRIVE,PEORIA,IL,61615,"http://maps.google.com/maps?q=9219 N. LINDBERGH DRIVE,+PEORIA,+IL+61615&hl=en"
PEORIA POLICE DEPARTMENT,PEORIA POLICE DEPARTMENT,600 SW ADAMS,PEORIA,IL,61602,"http://maps.google.com/maps?q=600 SW ADAMS,+PEORIA,+IL+61602&hl=en"
PERRY COUNTY RECYCLING MANGEMENT DISTIRCT,PERRY COUNTY FAMILY PRACTICE,18485 IN-37,LEOPOLD,IN,47551,"http://maps.google.com/maps?q=18485 IN-37,+LEOPOLD,+IN+47551&hl=en"
PERRY COUNTY RECYCLING MANGEMENT DISTIRCT,TELL CITY FIRE STATION,707 MOZART STREET,TELL CITY,IN,47586,"http://maps.google.com/maps?q=707 MOZART STREET,+TELL CITY,+IN+47586&hl=en"
PERRY COUNTY SHERIFF,PERRY COUNTY SHERIFF,710 S. KINGSHIGHWAY ST,PERRYVILLE,MO,63775,"http://maps.google.com/maps?q=710 S. KINGSHIGHWAY ST,+PERRYVILLE,+MO+63775&hl=en"
PERRY COUNTY SHERIFF'S OFFICE,PERRY COUNTY SHERIFF'S OFFICE,12 E. WATER STREET,PINCKNEYVILLE,IL,62274,"http://maps.google.com/maps?q=12 E. WATER STREET,+PINCKNEYVILLE,+IL+62274&hl=en"
PERRYVILLE POLICE DEPARTMENT,PERRYVILLE POLICE DEPARTMENT,120 N. JACKSON STREET,PERRYVILLE,MO,63775,"http://maps.google.com/maps?q=120 N. JACKSON STREET,+PERRYVILLE,+MO+63775&hl=en"
PEVELY POLICE DEPARTMENT,PEVELY POLICE DEPARTMENT,401 MAIN STREET,PEVELY,MO,63070,"http://maps.google.com/maps?q=401 MAIN STREET,+PEVELY,+MO+63070&hl=en"
PINCKNEYVILLE POLICE DEPARTMEN,PINCKNEYVILLE POLICE DEPARTMENT,104 S. WALNUT ST,PINCKNEYVILLE,IL,62274,"http://maps.google.com/maps?q=104 S. WALNUT ST,+PINCKNEYVILLE,+IL+62274&hl=en"
PORTLAND POLICE DEPARTMENT,PORTLAND POLICE DEPT.,433 N. BROADWAY,PORTLAND,TN,37148,"http://maps.google.com/maps?q=433 N. BROADWAY,+PORTLAND,+TN+37148&hl=en"
PUXICO POLICE DEPARTMENT,PUXICO POLICE DEPARTMENT,141 N. HICKMAN,PUXICO,MO,63960,"http://maps.google.com/maps?q=141 N. HICKMAN,+PUXICO,+MO+63960&hl=en"
REYNOLDS COUNTY SHERIFF'S OFFICE,REYNOLDS COUNTY SHERIFF'S OFFICE,2319 GREEN ST.,CENTERVILLE,MO,63633,"http://maps.google.com/maps?q=2319 GREEN ST.,+CENTERVILLE,+MO+63633&hl=en"
RICHMOND HEIGHTS POLICE DEPARTMENT,"RICHMOND HEIGHTS POLICE DEPARTMENT 
												
													FRONT LOBBY",7447 DALE AVENUE,RICHMOND HEIGHTS,MO,63117,"http://maps.google.com/maps?q=7447 DALE AVENUE,+RICHMOND HEIGHTS,+MO+63117&hl=en"
ROBERTSON COUNTY SHERIFF'S OFFICE,CVS,903 MEMORIAL BLVD.,SPRINGFIELD,TN,37172,"http://maps.google.com/maps?q=903 MEMORIAL BLVD.,+SPRINGFIELD,+TN+37172&hl=en"
ROBINSON POLICE DEPARTMENT,"CRAWFORD MEMORIAL HOSPITAL 
												
													SOUTH DRIVE THRU ENTRANCE",1000 NORTH ALLEN STREET,ROBINSON,IL,62454,"http://maps.google.com/maps?q=1000 NORTH ALLEN STREET,+ROBINSON,+IL+62454&hl=en"
SALEM POLICE DEPARTMENT,SALEM POLICE DEPARTMENT,201 S. ROTAN AVE.,SALEM,IL,62881,"http://maps.google.com/maps?q=201 S. ROTAN AVE.,+SALEM,+IL+62881&hl=en"
SALINE COUNTY SHERIFF'S OFFICE,SALINE COUNTY COURTHOUSE,15 E POPLAR ST,HARRISBURG,IL,62946,"http://maps.google.com/maps?q=15 E POPLAR ST,+HARRISBURG,+IL+62946&hl=en"
SANGAMON COUNTY SHERIFF'S OFFICE,SANGAMON COUNTY PUBLIC HEALTH,2833 SOUTH GRAND AVE EAST,SPRINGFIELD,IL,62703,"http://maps.google.com/maps?q=2833 SOUTH GRAND AVE EAST,+SPRINGFIELD,+IL+62703&hl=en"
SCOTT CITY POLICE DEPARTMENT,SCOTT CITY POLICE DEPARTMENT,618 MAIN ST,SCOTT CITY,MO,63780,"http://maps.google.com/maps?q=618 MAIN ST,+SCOTT CITY,+MO+63780&hl=en"
SEYMOUR POLICE DEPARTMENT,"BROWNSTOWN SENIOR CENTER 
												
													11:30 AM TO 1:30 PM",124 S MAIN ST,BROWNSTOWN,IN,47220,"http://maps.google.com/maps?q=124 S MAIN ST,+BROWNSTOWN,+IN+47220&hl=en"
SEYMOUR POLICE DEPARTMENT,"FREETOWN COMMUNITY CENTER 
												
													4:30 -6:30 PM",6789 N UNION ST,FREETOWN,IN,47235,"http://maps.google.com/maps?q=6789 N UNION ST,+FREETOWN,+IN+47235&hl=en"
SEYMOUR POLICE DEPARTMENT,"MEDORA SENIOR CENTER 
												
													2-4 PM",52 W MAIN ST,MEDORA,IN,47260,"http://maps.google.com/maps?q=52 W MAIN ST,+MEDORA,+IN+47260&hl=en"
SHAWNEETOWN POLICE DEPARTMENT,CITY HALL,330 N. LINCOLN BLVD,SHAWNEETOWN,IL,62984,"http://maps.google.com/maps?q=330 N. LINCOLN BLVD,+SHAWNEETOWN,+IL+62984&hl=en"
SHERMAN POLICE DEPARTMENT,SHERMAN POLICE DEPARTMENT,2629 E. ANDREW ROAD,SHERMAN,IL,62684,"http://maps.google.com/maps?q=2629 E. ANDREW ROAD,+SHERMAN,+IL+62684&hl=en"
SIKESTON DEPARTMENT OF PUBLIC SAFETY,SIKESTON DEPARTMENT OF PUBLIC SAFETY,201 NORTH KINGSHIGHWAY,SIKESTON,MO,63801,"http://maps.google.com/maps?q=201 NORTH KINGSHIGHWAY,+SIKESTON,+MO+63801&hl=en"
SOUTH FULTON POLICE DEPARTMENT,SOUTH FULTON POLICE DEPARTMENT,700 MILTON COUNCE DR.,SOUTH FULTON,TN,38257,"http://maps.google.com/maps?q=700 MILTON COUNCE DR.,+SOUTH FULTON,+TN+38257&hl=en"
SOUTH JACKSONVILLE POLICE DEPARTMENT,SOUTH JACKSONVILLE POLICE DEPARTMENT,1810 SEQUOIA,JACKSONVILLE,IL,62650,"http://maps.google.com/maps?q=1810 SEQUOIA,+JACKSONVILLE,+IL+62650&hl=en"
SPENCER POLICE DEPARTMENT,GOSPORT TOWN HALL,13 SOUTH 3RD ST.,GOSPORT,IN,47433,"http://maps.google.com/maps?q=13 SOUTH 3RD ST.,+GOSPORT,+IN+47433&hl=en"
SPENCER POLICE DEPARTMENT,SPENCER POLICE DEPT.,"80 N WEST ST, 80 N. WEST STREET",SPENCER,IN,47460,"http://maps.google.com/maps?q=80 N WEST ST, 80 N. WEST STREET,+SPENCER,+IN+47460&hl=en"
SPRINGFIELD POLICE DEPARTMENT,HY-VEE PHARMACY,2115 S. MACARTHUR,SPRINGFIELD,IL,62704,"http://maps.google.com/maps?q=2115 S. MACARTHUR,+SPRINGFIELD,+IL+62704&hl=en"
SPRINGFIELD POLICE DEPARTMENT,PREVENTION FIRST,2800 MONTVALE DR,SPRINGFIELD,IL,62704,"http://maps.google.com/maps?q=2800 MONTVALE DR,+SPRINGFIELD,+IL+62704&hl=en"
ST. ANN POLICE DEPARTMENT,ST. ANN POLICE DEPARTMENT,10405 ST. CHARLES ROCK RD.,SAINT ANN,MO,63074,"http://maps.google.com/maps?q=10405 ST. CHARLES ROCK RD.,+SAINT ANN,+MO+63074&hl=en"
ST. CHARLES CITY POLICE DEPARTMENT,ST. CHARLES CITY POLICE DEPARTMENT,1781 ZUMBEHL ROAD,SAINT CHARLES,MO,63303,"http://maps.google.com/maps?q=1781 ZUMBEHL ROAD,+SAINT CHARLES,+MO+63303&hl=en"
ST. CHARLES COUNTY POLICE DEPARTMENT,ST. CHARLES COUNTY POLICE DEPARTMENT,101 SHERIFF DIERKER COURT,OFALLON,MO,63366,"http://maps.google.com/maps?q=101 SHERIFF DIERKER COURT,+OFALLON,+MO+63366&hl=en"
ST. CLAIR COUNTY SHERIFF'S DEPARTMENT,ST CLAIR COUNTY SHERIFF'S DEPARTMENT,700 NORTH 5TH STREET,BELLEVILLE,IL,62220,"http://maps.google.com/maps?q=700 NORTH 5TH STREET,+BELLEVILLE,+IL+62220&hl=en"
ST. JOHN POLICE DEPARTMENT,"CITY OF ST. JOHN MUNICIPAL BUILDING 
												
													POLICE DEPARTMENT",8944 ST. CHARLES ROCK ROAD,SAINT JOHN,MO,63114,"http://maps.google.com/maps?q=8944 ST. CHARLES ROCK ROAD,+SAINT JOHN,+MO+63114&hl=en"
ST. LOUIS COUNTY POLICE DEPARTMENT,CENTRAL COUNTY PRECINCT,1333 ASHBY ROAD,SAINT LOUIS,MO,63132,"http://maps.google.com/maps?q=1333 ASHBY ROAD,+SAINT LOUIS,+MO+63132&hl=en"
ST. LOUIS COUNTY POLICE DEPARTMENT,"CITY OF FENTON PRECINCT 
												
													(IN MUNICIPAL BUILDING)",625 NEW SMIZER MILL RD,FENTON,MO,63026,"http://maps.google.com/maps?q=625 NEW SMIZER MILL RD,+FENTON,+MO+63026&hl=en"
ST. LOUIS COUNTY POLICE DEPARTMENT,CITY OF GREEN PARK CITY HALL,11100 MUELLER ROAD #2,GREEN PARK,MO,63123,"http://maps.google.com/maps?q=11100 MUELLER ROAD #2,+GREEN PARK,+MO+63123&hl=en"
ST. LOUIS COUNTY POLICE DEPARTMENT,CITY OF HANLEY HILLS SUBSTATION,7713 UTICA,HANLEY HILLS,MO,63133,"http://maps.google.com/maps?q=7713 UTICA,+HANLEY HILLS,+MO+63133&hl=en"
ST. LOUIS COUNTY POLICE DEPARTMENT,CITY OF JENNINGS PRECINCT,5445 JENNINGS STATION ROAD,JENNINGS,MO,63136,"http://maps.google.com/maps?q=5445 JENNINGS STATION ROAD,+JENNINGS,+MO+63136&hl=en"
ST. LOUIS COUNTY POLICE DEPARTMENT,CITY OF TWIN OAKS CITY HALL,1393 BIG BEND ROADSUITE F,TWIN OAKS,MO,63021,"http://maps.google.com/maps?q=1393 BIG BEND ROAD,+TWIN OAKS,+MO+63021&hl=en"
ST. LOUIS COUNTY POLICE DEPARTMENT,"CITY OF WILDWOOD PRECINCT STATION 
												
													(IN MUNICIPAL BUILDING)",16860 MAIN STREET,WILDWOOD,MO,63040,"http://maps.google.com/maps?q=16860 MAIN STREET,+WILDWOOD,+MO+63040&hl=en"
ST. LOUIS COUNTY POLICE DEPARTMENT,CITY OF WINCHESTER CITY HALL,109 LINDY BLVD,WINCHESTER,MO,63021,"http://maps.google.com/maps?q=109 LINDY BLVD,+WINCHESTER,+MO+63021&hl=en"
ST. LOUIS COUNTY POLICE DEPARTMENT,GRANTWOOD VILLAGE CITY HALL,ONE MISSIONARY RIDGE,SAINT LOUIS,MO,63123,"http://maps.google.com/maps?q=ONE MISSIONARY RIDGE,+SAINT LOUIS,+MO+63123&hl=en"
ST. LOUIS COUNTY POLICE DEPARTMENT,NORTH COUNTY RECREATIONAL COMPLEX,2577 REDMAN ROAD,SAINT LOUIS,MO,63136,"http://maps.google.com/maps?q=2577 REDMAN ROAD,+SAINT LOUIS,+MO+63136&hl=en"
ST. LOUIS COUNTY POLICE DEPARTMENT,SOUTH COUNTY PRECINCT,324 SAPPINGTON BARRACKS,SAINT LOUIS,MO,63125,"http://maps.google.com/maps?q=324 SAPPINGTON BARRACKS,+SAINT LOUIS,+MO+63125&hl=en"
ST. LOUIS COUNTY POLICE DEPARTMENT,VILLAGE OF MARLBOROUGH CITY HALL,7826 WIMBLEDON,SAINT LOUIS,MO,63119,"http://maps.google.com/maps?q=7826 WIMBLEDON,+SAINT LOUIS,+MO+63119&hl=en"
ST. LOUIS COUNTY POLICE DEPARTMENT,WEST COUNTY PRECINCT,232 VANCE ROAD,VALLEY PARK,MO,63088,"http://maps.google.com/maps?q=232 VANCE ROAD,+VALLEY PARK,+MO+63088&hl=en"
ST. LOUIS METROPOLITAN PD,CENTRAL PATROL DIVISION,919 N. JEFFERSON,SAINT LOUIS,MO,63139,"http://maps.google.com/maps?q=919 N. JEFFERSON,+SAINT LOUIS,+MO+63139&hl=en"
ST. LOUIS METROPOLITAN PD,"NORTH PATROL DIVISION 
												
													YMCA",4642 W. FLORISSANT,SAINT LOUIS,MO,63115,"http://maps.google.com/maps?q=4642 W. FLORISSANT,+SAINT LOUIS,+MO+63115&hl=en"
ST. LOUIS METROPOLITAN PD,SOUTH PATROL DIVISION,3157 SUBLETTE AVE,SAINT LOUIS,MO,63139,"http://maps.google.com/maps?q=3157 SUBLETTE AVE,+SAINT LOUIS,+MO+63139&hl=en"
ST. LOUIS UNIVERSITY-DEPARTMENT OF PUBLIC SAFETY,"WOOL CENTER - 28TH & 30TH @ DEBURG HALL 
												
													DEPARTMENT OF PUBLIC SAFETY-SAINT LOUIS UNIVERSITY",3545 LINDELL DRIVE,SAINT LOUIS,MO,63103,"http://maps.google.com/maps?q=3545 LINDELL DRIVE,+SAINT LOUIS,+MO+63103&hl=en"
ST. PETERS POLICE DEPARTMENT,ST. PETERS POLICE DEPARTMENT,1020 GRAND TETON DRIVE,SAINT PETERS,MO,63376,"http://maps.google.com/maps?q=1020 GRAND TETON DRIVE,+SAINT PETERS,+MO+63376&hl=en"
STANFORD POLICE DEPARTMENT,STANFORD VILLAGE HALL,206 W. MAIN STREET,STANFORD,IL,61774,"http://maps.google.com/maps?q=206 W. MAIN STREET,+STANFORD,+IL+61774&hl=en"
SULLIVAN CO. SWCD,SULLIVAN CITY PARK,611 S. MAIN ST.,SULLIVAN,IN,47882,"http://maps.google.com/maps?q=611 S. MAIN ST.,+SULLIVAN,+IN+47882&hl=en"
SULLIVAN POLICE DEPARTMENT,SULLIVAN POLICE DEPARTMENT,307 SOUTH VANBUREN,SULLIVAN,IL,61951,"http://maps.google.com/maps?q=307 SOUTH VANBUREN,+SULLIVAN,+IL+61951&hl=en"
SUMNER COUNTY SHERIFF`S OFFICE,FREDS PHARMACY,5305 HWY 31E,WESTMORELAND,TN,37186,"http://maps.google.com/maps?q=5305 HWY 31E,+WESTMORELAND,+TN+37186&hl=en"
SUMNER COUNTY SHERIFF`S OFFICE,WALGREENS,104 HWY 52,PORTLAND,TN,37148,"http://maps.google.com/maps?q=104 HWY 52,+PORTLAND,+TN+37148&hl=en"
SUNSET HILLS POLICE DEPARTMENT,SUNSET HILLS POLICE DEPARTMENT,3905 S. LINDBERGH,SUNSET HILLS,MO,63127,"http://maps.google.com/maps?q=3905 S. LINDBERGH,+SUNSET HILLS,+MO+63127&hl=en"
SWANSEA POLICE DEPT,WALGREENS,2532 N. ILLINOIS STREET,BELLEVILLE,IL,62226,"http://maps.google.com/maps?q=2532 N. ILLINOIS STREET,+BELLEVILLE,+IL+62226&hl=en"
TAYLORVILLE POLICE DEPARTMENT,WALGREENS,315 N. WEBSTER,TAYLORVILLE,IL,62568,"http://maps.google.com/maps?q=315 N. WEBSTER,+TAYLORVILLE,+IL+62568&hl=en"
TERRE DU LAC POLICE DEPARTMENT,"TERRE DU LAC POLICE DEPARTMENT 
												
													REAR OF BUILDING",111 RUE TERRE BONNE,BONNE TERRE,MO,63628,"http://maps.google.com/maps?q=111 RUE TERRE BONNE,+BONNE TERRE,+MO+63628&hl=en"
TOWN AND COUNTRY PD,TOWN AND COUNTRY PD,1011 MUNICIPAL CENTER DRIVE,TOWN AND COUNTRY,MO,63131,"http://maps.google.com/maps?q=1011 MUNICIPAL CENTER DRIVE,+TOWN AND COUNTRY,+MO+63131&hl=en"
TRENTON POLICE DEPARTMENT,TRENTON POLICE DEPARTMENT,25 W. INDIANA STREET,TRENTON,IL,62293,"http://maps.google.com/maps?q=25 W. INDIANA STREET,+TRENTON,+IL+62293&hl=en"
TRIGG COUNTY SHERIFF'S OFFICE,TRIGG COUNTY SHERIFF'S OFFICE,134 COMMERCE STREET,CADIZ,KY,42211,"http://maps.google.com/maps?q=134 COMMERCE STREET,+CADIZ,+KY+42211&hl=en"
UNION CITY POLICE DEPARTMENT,BAPTIST MEMORIAL HOSPITAL,1201 BISHOP STREET,UNION CITY,TN,38261,"http://maps.google.com/maps?q=1201 BISHOP STREET,+UNION CITY,+TN+38261&hl=en"
VANDALIA POLICE DEPARTMENT,VANDALIA POLICE DEPARTMENT,219 SOUTH 5TH STREET,VANDALIA,IL,62471,"http://maps.google.com/maps?q=219 SOUTH 5TH STREET,+VANDALIA,+IL+62471&hl=en"
VINCENNES POLICE DEPARTMENT,"VINCENNES POLICE DEPARTMENT 
												
													AVAILABLE 24 HOURS",501 BUSSERON STREET,VINCENNES,IN,47591,"http://maps.google.com/maps?q=501 BUSSERON STREET,+VINCENNES,+IN+47591&hl=en"
VINCENNES UNIVERSITY POICE DEPARTMENT,VINCENNES UNIVERSITY CAMPUS POLICE,1201 N. 2ND STREET,VINCENNES,IN,47591,"http://maps.google.com/maps?q=1201 N. 2ND STREET,+VINCENNES,+IN+47591&hl=en"
WABASH COUNTY SHERIFF'S OFFICE,WABASH COUNTY SHERIFF'S OFFICE,120 E. 4TH STREET,MOUNT CARMEL,IL,62863,"http://maps.google.com/maps?q=120 E. 4TH STREET,+MOUNT CARMEL,+IL+62863&hl=en"
WASHINGTON POLICE DEPARTMENT,WASHINGTON POLICE DEPARTMENT,115 W. JEFFERSON ST.,WASHINGTON,IL,61571,"http://maps.google.com/maps?q=115 W. JEFFERSON ST.,+WASHINGTON,+IL+61571&hl=en"
WATERLOO POLICE DEPARTMENT,"WATERLOO POLICE DEPARMTMENT 
												
													LOBBY","301 S, MAIN STREET",WATERLOO,IL,62298,"http://maps.google.com/maps?q=301 S, MAIN STREET,+WATERLOO,+IL+62298&hl=en"
WAYNE COUNTY SHERIFF'S OFFICE,WAYNE COUNTY SHERIFF'S OFFICE,100 MAPLE ST,GREENVILLE,MO,63944,"http://maps.google.com/maps?q=100 MAPLE ST,+GREENVILLE,+MO+63944&hl=en"
WAYNE COUNTY SHERIFF'S OFFICE,WAYNE COUNTY SHERIFF'S OFFICE,305 EAST COURT,FAIRFIELD,IL,62837,"http://maps.google.com/maps?q=305 EAST COURT,+FAIRFIELD,+IL+62837&hl=en"
WEAKLEY COUNTY SHERIFF DEPARTMENT,FRED'S PHARMACY,8487 TN-22 #1,DRESDEN,TN,38225,"http://maps.google.com/maps?q=8487 TN-22 #1,+DRESDEN,+TN+38225&hl=en"
WEAKLEY COUNTY SHERIFF DEPARTMENT,TENNOVA HEALTHCARE- VOLUNTEER MARTIN HOSPITAL,161 MT. PELIA RD,MARTIN,TN,38237,"http://maps.google.com/maps?q=161 MT. PELIA RD,+MARTIN,+TN+38237&hl=en"
WEBSTER COUNTY SHERIFF'S OFFICE,WEBSTER COUNTY SHERIFF'S OFFICE,25 US HWY 41 A SOUTH,DIXON,KY,42409,"http://maps.google.com/maps?q=25 US HWY 41 A SOUTH,+DIXON,+KY+42409&hl=en"
WEBSTER GROVES POLICE DEPARTMENT,WEBSTER GROVES RECREATION COMPLEX,33 EAST GLENDALE AVENUE,WEBSTER GROVES,MO,63119,"http://maps.google.com/maps?q=33 EAST GLENDALE AVENUE,+WEBSTER GROVES,+MO+63119&hl=en"
WEST CITY POLICE DEPT,WEST CITY POLICE DEPT.,201 S. BROWNING ST,WEST CITY,IL,62812,"http://maps.google.com/maps?q=201 S. BROWNING ST,+WEST CITY,+IL+62812&hl=en"
WEST FRANKFORT POLICE DEPT,WEST FRANKFORT POLICE DEPARTMENT,201 EAST NOLEN STREET,WEST FRANKFORT,IL,62896,"http://maps.google.com/maps?q=201 EAST NOLEN STREET,+WEST FRANKFORT,+IL+62896&hl=en"
WESTMORELAND POLICE DEPT.,WESTMORELAND PD,1044 PLEASANT GROVE RD,WESTMORELAND,TN,37186,"http://maps.google.com/maps?q=1044 PLEASANT GROVE RD,+WESTMORELAND,+TN+37186&hl=en"
WHITE COUNTY SHERIFF OFFICE,WHITE COUNTY SHERIFF OFFICE,108 N MAIN CROSS,CARMI,IL,62821,"http://maps.google.com/maps?q=108 N MAIN CROSS,+CARMI,+IL+62821&hl=en"
WHITE HOUSE POLICE DEPARTMENT,KROGERS,510 HWY 76,WHITE HOUSE,TN,37188,"http://maps.google.com/maps?q=510 HWY 76,+WHITE HOUSE,+TN+37188&hl=en"
WILLIAMSON COUNTY SHERIFF'S OFFICE,WILLIAMSON COUNTY ADMINISTRATIVE BUILDING,407 N. MONROE,MARION,IL,62959,"http://maps.google.com/maps?q=407 N. MONROE,+MARION,+IL+62959&hl=en"
WOOD RIVER POLICE DEPARTMENT,WOOD RIVER PUBLIC LIBRARY,326 E. FERGUSON AVE,WOOD RIVER,IL,62095,"http://maps.google.com/maps?q=326 E. FERGUSON AVE,+WOOD RIVER,+IL+62095&hl=en"
WOODFORD COUNTY SHERIFF'S OFFICE,WOODFORD COUNTY HEALTH DEPARTMENT,1831 S. MAIN STREET,EUREKA,IL,61530,"http://maps.google.com/maps?q=1831 S. MAIN STREET,+EUREKA,+IL+61530&hl=en"
