Participant,CollectionSite,Address,City,State,Zip,MapURL
ALBANY COUNTY SHERIFF,ALBANY COUNTY SHERIFF,58 VERDA AVENUE,CLARKSVILLE,NY,12041,"http://maps.google.com/maps?q=58 VERDA AVENUE,+CLARKSVILLE,+NY+12041&hl=en"
ALBANY COUNTY SHERIFF,RCS COMMUNITY LIBRARY,95 MAIN ST,RAVENA,NY,12143,"http://maps.google.com/maps?q=95 MAIN ST,+RAVENA,+NY+12143&hl=en"
ALBANY NY POLICE DEPARTMENT,"ALBANY COLLEGE OF PHARMACY 
												
													CAR PORT (DRIVE UP DROP OFF)",106 NEW SCOTLAND AVE.,ALBANY,NY,12208,"http://maps.google.com/maps?q=106 NEW SCOTLAND AVE.,+ALBANY,+NY+12208&hl=en"
ALBANY NY POLICE DEPARTMENT,ALBANY POLICE DEPT. SOUTH STATION,126 ARCH STREET,ALBANY,NY,12202,"http://maps.google.com/maps?q=126 ARCH STREET,+ALBANY,+NY+12202&hl=en"
ALBANY NY POLICE DEPARTMENT,CVS PHARMACY,885 CENTRAL AVE.,ALBANY,NY,12205,"http://maps.google.com/maps?q=885 CENTRAL AVE.,+ALBANY,+NY+12205&hl=en"
AMHERST POLICE DEPARTMENT,"WILDWOOD ELEMENTARY SCHOOL 
												
													PARKING AREA",71 STRONG STREET,AMHERST,MA,01002,"http://maps.google.com/maps?q=71 STRONG STREET,+AMHERST,+MA+01002&hl=en"
ASHBY PD,ASHBY POLICE DEPARTMENT,893 MAIN ST.,ASHBY,MA,01431,"http://maps.google.com/maps?q=893 MAIN ST.,+ASHBY,+MA+01431&hl=en"
ASHFIELD PD,ASHFIELD PD,412 MAIN STREET,ASHFIELD,MA,01330,"http://maps.google.com/maps?q=412 MAIN STREET,+ASHFIELD,+MA+01330&hl=en"
ASHLAND POLICE DEPARTMENT,ASHLAND POLICE DEPARTMENT,137 MAIN STREET,ASHLAND,MA,01721,"http://maps.google.com/maps?q=137 MAIN STREET,+ASHLAND,+MA+01721&hl=en"
ATTLEBORO POLICE DEPARTMENT,ATTLEBORO POLICE DEPARTMENT,12 UNION ST,ATTLEBORO,MA,02703,"http://maps.google.com/maps?q=12 UNION ST,+ATTLEBORO,+MA+02703&hl=en"
AVON POLICE DEPARTMENT,AVON SENIOR CENTER,635 WEST AVON ROAD,AVON,CT,06001,"http://maps.google.com/maps?q=635 WEST AVON ROAD,+AVON,+CT+06001&hl=en"
BARRINGTON POLICE DEPARTMENT,BARRINGTON PUBLIC SAFETY BUILDING,100 FEDERAL ROAD,BARRINGTON,RI,02806,"http://maps.google.com/maps?q=100 FEDERAL ROAD,+BARRINGTON,+RI+02806&hl=en"
BELCHERTOWN POLICE DEPARTMENT,BELCHERTOWN CENTER PARKING LOT,3 PARK STREET,BELCHERTOWN,MA,01007,"http://maps.google.com/maps?q=3 PARK STREET,+BELCHERTOWN,+MA+01007&hl=en"
BELLINGHAM POLICE,"BELLINGHAM POLICE STATION 
												
													TRAINING ROOM",30 BLACKSTONE STREET,BELLINGHAM,MA,02019,"http://maps.google.com/maps?q=30 BLACKSTONE STREET,+BELLINGHAM,+MA+02019&hl=en"
BENNINGTON POLICE DEPARTMENT,"BENNINGTON COUNTY SHERIFF'S DEPT 
												
													FRONT LOBBY",811 US RT 7 SOUTH,BENNINGTON,VT,05201,"http://maps.google.com/maps?q=811 US RT 7 SOUTH,+BENNINGTON,+VT+05201&hl=en"
BENNINGTON POLICE DEPARTMENT,"BENNINGTON POLICE DEPARTMENT 
												
													FRONT LOBBY",118 SOUTH STREET,BENNINGTON,VT,05201,"http://maps.google.com/maps?q=118 SOUTH STREET,+BENNINGTON,+VT+05201&hl=en"
BENNINGTON POLICE DEPARTMENT,"CVS DRUG STORE 
												
													APRIL 28, 2018 FROM 10AM TO 2PM ONLY",8 KOCHER DRIVE,BENNINGTON,VT,05201,"http://maps.google.com/maps?q=8 KOCHER DRIVE,+BENNINGTON,+VT+05201&hl=en"
BENNINGTON POLICE DEPARTMENT,"MANCHESTER VT POLICE DEPARTMENT 
												
													FRONT LOBBY",6041 MAIN STREET,MANCHESTER CENTER,VT,05255,"http://maps.google.com/maps?q=6041 MAIN STREET,+MANCHESTER CENTER,+VT+05255&hl=en"
BENNINGTON POLICE DEPARTMENT,"SOUTHWESTERN VT MEDICAL CENTER 
												
													FRONT LOBBY",100 HOSPITAL DRIVE,BENNINGTON,VT,05201,"http://maps.google.com/maps?q=100 HOSPITAL DRIVE,+BENNINGTON,+VT+05201&hl=en"
BENNINGTON POLICE DEPARTMENT,"WINHALL POLICE DEPARTMENT 
												
													FRONT LOBBY",113 VT RT 30,BONDVILLE,VT,05340,"http://maps.google.com/maps?q=113 VT RT 30,+BONDVILLE,+VT+05340&hl=en"
BERLIN POLICE DEPARTMENT,"BERLIN POLICE DEPARTMENT / TOWN HALL 
												
													PARKING CIRCLE FRONT OF TOWN HALL",240 KENSINGTON RD,BERLIN,CT,06037,"http://maps.google.com/maps?q=240 KENSINGTON RD,+BERLIN,+CT+06037&hl=en"
BETHLEHEM POLICE DEPARTMENT,"BETHLEHEM TOWN PARK 
												
													FRONT PARKING LOT",249 ELM AVE.,DELMAR,NY,12054,"http://maps.google.com/maps?q=249 ELM AVE.,+DELMAR,+NY+12054&hl=en"
BETHLEHEM RESIDENT TROOPER,BETHLEHEM RESIDENT TROOPER'S OFFICE,36 MAIN ST. SOUTH,BETHLEHEM,CT,06751,"http://maps.google.com/maps?q=36 MAIN ST. SOUTH,+BETHLEHEM,+CT+06751&hl=en"
BLACKSTONE POLICE,BLACKSTONE POLICE DEPARTMENT,15 ST. PAUL STREET,BLACKSTONE,MA,01504,"http://maps.google.com/maps?q=15 ST. PAUL STREET,+BLACKSTONE,+MA+01504&hl=en"
BOXBOROUGH PD,"BOXBOROUGH POLICE DEPARTMENT 
												
													OPEN 24/7",FRONT LOBBY520 MASSACHUSETTS AVENUE,BOXBOROUGH,MA,01719,"http://maps.google.com/maps?q=FRONT LOBBY,+BOXBOROUGH,+MA+01719&hl=en"
BRANFORD POLICE DEPARTMENT,BRANFORD POLICE DEPARTMENT,33 LAUREL STREET,BRANFORD,CT,06405,"http://maps.google.com/maps?q=33 LAUREL STREET,+BRANFORD,+CT+06405&hl=en"
BRIDGEWATER POLICE DEPARTMENT,"BRIDGEWATER POLICE DEPARTMENT 
												
													LOBBY",220 PLEASANT ST,BRIDGEWATER,MA,02324,"http://maps.google.com/maps?q=220 PLEASANT ST,+BRIDGEWATER,+MA+02324&hl=en"
BRISTOL POLICE DEPARTMENT,BRISTOL POLICE DEPARTMENT,395 METACOM AVE,BRISTOL,RI,02809,"http://maps.google.com/maps?q=395 METACOM AVE,+BRISTOL,+RI+02809&hl=en"
BRISTOL POLICE DEPARTMENT,"BRISTOL WATER DEPARTMENT 
												
													FRONT LOBBY : ONLY UNTIL 1:00 PM",119 RIVERSIDE AVENUE,BRISTOL,CT,06010,"http://maps.google.com/maps?q=119 RIVERSIDE AVENUE,+BRISTOL,+CT+06010&hl=en"
BROOKFIELD POLICE DEPARTMENT,BROOKFIELD POLICE DEPARTMENT,63 SILVERMINE ROAD,BROOKFIELD,CT,06804,"http://maps.google.com/maps?q=63 SILVERMINE ROAD,+BROOKFIELD,+CT+06804&hl=en"
BURRILLVILLE POLICE DEPARTMENT,BURRILLVILLE POLICE DEPARTMENT,1477 VICTORY HWY,HARRISVILLE,RI,02830,"http://maps.google.com/maps?q=1477 VICTORY HWY,+HARRISVILLE,+RI+02830&hl=en"
CAIRO POLICE DEPARTMENT,CVS PHARMACY,7600 ROUTE 32,CAIRO,NY,12413,"http://maps.google.com/maps?q=7600 ROUTE 32,+CAIRO,+NY+12413&hl=en"
CAIRO POLICE DEPARTMENT,CVS PHARMACY,7600 SR 32 CAIRO,CAIRO,NY,12413,"http://maps.google.com/maps?q=7600 SR 32 CAIRO,+CAIRO,+NY+12413&hl=en"
CENTRAL FALLS POLICE,CENTRAL FALLS POLICE,160 ILLINOIS STREET,CENTRAL FALLS,RI,02863,"http://maps.google.com/maps?q=160 ILLINOIS STREET,+CENTRAL FALLS,+RI+02863&hl=en"
CHESHIRE PD,"CHESHIRE POLICE DEPARTMENT 
												
													(LOBBY)",CHESHIRE POLICE DEPARTMENT500 HIGHLAND AVENUE,CHESHIRE,CT,06410,"http://maps.google.com/maps?q=CHESHIRE POLICE DEPARTMENT,+CHESHIRE,+CT+06410&hl=en"
CITY OF PROVIDENCE,THE MIRIAM HOSPITAL,164 SUMMIT AVE,PROVIDENCE,RI,02906,"http://maps.google.com/maps?q=164 SUMMIT AVE,+PROVIDENCE,+RI+02906&hl=en"
CITY OF PROVIDENCE,WALGREENS PHARMACY,1 POCASSET AVE,PROVIDENCE,RI,02909,"http://maps.google.com/maps?q=1 POCASSET AVE,+PROVIDENCE,+RI+02909&hl=en"
CITY OF PROVIDENCE,WALGREENS PHARMACY,533 ELMWOOD AVE,PROVIDENCE,RI,02907,"http://maps.google.com/maps?q=533 ELMWOOD AVE,+PROVIDENCE,+RI+02907&hl=en"
CLARKU,"CLARK UNIVERSITY 
												
													HIGGINS STUDENT CENTER",950 MAIN STREET,WORCESTER,MA,01610,"http://maps.google.com/maps?q=950 MAIN STREET,+WORCESTER,+MA+01610&hl=en"
CLINTON POLICE DEPT,SHOP RITE,266 E MAIN ST.,CLINTON,CT,06413,"http://maps.google.com/maps?q=266 E MAIN ST.,+CLINTON,+CT+06413&hl=en"
COLONIE POLICE DEPARTMENT,"THE CROSSINGS OF COLONIE PARK 
												
													TOWN OF COLONIE",580 ALBANY SHAKER ROAD,LOUDONVILLE,NY,12211,"http://maps.google.com/maps?q=580 ALBANY SHAKER ROAD,+LOUDONVILLE,+NY+12211&hl=en"
CONNECTICUT STATE POLICE - BETHANY,"CSP BETHANY 
												
													SGT. BRENT AIKEN #189",631 AMITY RD,BETHANY,CT,06524,"http://maps.google.com/maps?q=631 AMITY RD,+BETHANY,+CT+06524&hl=en"
CONNECTICUT STATE POLICE TROOP E,GRISWOLD TOWN HALL,28 MAIN STREET,JEWETT CITY,CT,06351,"http://maps.google.com/maps?q=28 MAIN STREET,+JEWETT CITY,+CT+06351&hl=en"
COXSACKIE POLICE DEPARTMENT,COXSACKIE POLICE DEPARTMENT,119 MANSION STREET,COXSACKIE,NY,12051,"http://maps.google.com/maps?q=119 MANSION STREET,+COXSACKIE,+NY+12051&hl=en"
CRANSTON POLICE DEPT.,CRANSTON POLICE STATION,5 GARFIELD AVE,CRANSTON,RI,02920,"http://maps.google.com/maps?q=5 GARFIELD AVE,+CRANSTON,+RI+02920&hl=en"
CROMWELL POLICE DEPARTMENT,CROMWELL POLICE DEPARTMENT LOBBY,5 WEST STREET,CROMWELL,CT,06416,"http://maps.google.com/maps?q=5 WEST STREET,+CROMWELL,+CT+06416&hl=en"
CROTON ON HUDSON POLICE,CROTON COMMONS SHOPPING PLAZA,177 SOUTH RIVERSIDE AVENUE,CROTON ON HUDSON,NY,10520,"http://maps.google.com/maps?q=177 SOUTH RIVERSIDE AVENUE,+CROTON ON HUDSON,+NY+10520&hl=en"
CT STATE POLICE - TROOP B,"CSP - TROOP B BARRACKS 
												
													FRONT ENTRANCE",463 ASHLEY FALLS RD.,NORTH CANAAN,CT,06018,"http://maps.google.com/maps?q=463 ASHLEY FALLS RD.,+NORTH CANAAN,+CT+06018&hl=en"
CT STATE POLICE - TROOP B,"NEW HARTFORD RESIDENT TROOPER OFFICE 
												
													REAR OF TOWN HALL BUILDING",530 MAIN STREET,NEW HARTFORD,CT,06057,"http://maps.google.com/maps?q=530 MAIN STREET,+NEW HARTFORD,+CT+06057&hl=en"
CUMBERLAND POLICE,CUMBERLAND POLICE STATION,1380 DIAMOND HILL ROAD,CUMBERLAND,RI,02864,"http://maps.google.com/maps?q=1380 DIAMOND HILL ROAD,+CUMBERLAND,+RI+02864&hl=en"
CUMMINGTON POLICE,"CUMMINGTON POLICE DEPARTMENT 
												
													CUMMINGTON PUBLIC SAFETY COMPLEX",8 FAIRGROUNDS ROADBOX 98,CUMMINGTON,MA,01026,"http://maps.google.com/maps?q=8 FAIRGROUNDS ROAD,+CUMMINGTON,+MA+01026&hl=en"
DANBURY POLICE DEPARTMENT,DANBURY POLICE DEPARTMENT,375 MAIN STREET,DANBURY,CT,06810,"http://maps.google.com/maps?q=375 MAIN STREET,+DANBURY,+CT+06810&hl=en"
DEERFIELD PD,DEERFIELD POLICE DEPARTMENT,8 CONWAY STREET,SOUTH DEERFIELD,MA,01373,"http://maps.google.com/maps?q=8 CONWAY STREET,+SOUTH DEERFIELD,+MA+01373&hl=en"
DOVER POLICE DEPARTMENT,DOVER POLICE DEPARTMENT,3 WALPOLE STREET,DOVER,MA,02030,"http://maps.google.com/maps?q=3 WALPOLE STREET,+DOVER,+MA+02030&hl=en"
DOVER POLICE DEPT.,"DOVER POLICE DEPARTMENT 
												
													CHIEF RANDY JOHNSON",246 ROUTE 100,WEST DOVER,VT,05356,"http://maps.google.com/maps?q=246 ROUTE 100,+WEST DOVER,+VT+05356&hl=en"
DUDLEY POLICE DEPARTMENT,DUDLEY POLICE DEPARTMENT,71 WEST MAIN ST,DUDLEY,MA,01571,"http://maps.google.com/maps?q=71 WEST MAIN ST,+DUDLEY,+MA+01571&hl=en"
DURHAM POLICE DEPARTMENT,DURHAM RESIDENT STATE TROOPERS OFFICE,24 TOWN HOUSE ROAD,DURHAM,CT,06422,"http://maps.google.com/maps?q=24 TOWN HOUSE ROAD,+DURHAM,+CT+06422&hl=en"
DUTCHESS COUNTY SHERIFF'S OFFICE,VASSAR BROTHERS MEDICAL HOSPITAL,45 READE PLACE,POUGHKEEPSIE,NY,12601,"http://maps.google.com/maps?q=45 READE PLACE,+POUGHKEEPSIE,+NY+12601&hl=en"
EAST GREENBUSH POLICE DEPARTMENT,EAST GREENBUSH POLICE DEPARTMENT,225 COLUMBIA TURNPIKE,RENSSELAER,NY,12144,"http://maps.google.com/maps?q=225 COLUMBIA TURNPIKE,+RENSSELAER,+NY+12144&hl=en"
EAST HADDAM POLICE DEPT/RESIDENT TROOPER,EAST HADDAM POLICE DEPT/RESIDENT TROOPER,1 PLAINS ROAD,MOODUS,CT,06469,"http://maps.google.com/maps?q=1 PLAINS ROAD,+MOODUS,+CT+06469&hl=en"
EAST HAMPTON POLICE DEPARTMENT,EAST HAMPTON POLICE DEPARTMENT,20 EAST HIGH STREET,EAST HAMPTON,CT,06424,"http://maps.google.com/maps?q=20 EAST HIGH STREET,+EAST HAMPTON,+CT+06424&hl=en"
EAST HARTFORD POLICE,"EAST HARTFORD POLICE HEADQUARTERS 
												
													EAST HARTFORD PUBLIC SAFETY COMPLEX",31 SCHOOL STREET,EAST HARTFORD,CT,06108,"http://maps.google.com/maps?q=31 SCHOOL STREET,+EAST HARTFORD,+CT+06108&hl=en"
EAST LONGMEADOW POLICE DEPARTMENT,EAST LONGMEADOW POLICE DEPARTMENT,160 SOMERS RD,EAST LONGMEADOW,MA,01028,"http://maps.google.com/maps?q=160 SOMERS RD,+EAST LONGMEADOW,+MA+01028&hl=en"
EAST PROVIDENCE POLICE DEPARTMENT,EAST PROVIDENCE POLICE,750 WATERMAN AVENUE,EAST PROVIDENCE,RI,02914,"http://maps.google.com/maps?q=750 WATERMAN AVENUE,+EAST PROVIDENCE,+RI+02914&hl=en"
EASTHAMPTON POLICE DEPARTMENT,EASTHAMPTON PUBLIC SAFETY COMPLEX,32 PAYSON AVENUE,EASTHAMPTON,MA,01027,"http://maps.google.com/maps?q=32 PAYSON AVENUE,+EASTHAMPTON,+MA+01027&hl=en"
EASTON POLICE DEPARTMENT,EASTON POLICE DEPARTMENT,46 LOTHROP ST,NORTH EASTON,MA,02356,"http://maps.google.com/maps?q=46 LOTHROP ST,+NORTH EASTON,+MA+02356&hl=en"
EASTON POLICE DEPARTMENT,EASTON PUBLIC LIBRARY,691 MOREHOUSE ROAD,EASTON,CT,06612,"http://maps.google.com/maps?q=691 MOREHOUSE ROAD,+EASTON,+CT+06612&hl=en"
ELLINGTON RESIDENT TROOPERS OFFICE,ELLINGTON RESIDENT TROOPERS OFFICE,33 ARBOR WAY,ELLINGTON,CT,06029,"http://maps.google.com/maps?q=33 ARBOR WAY,+ELLINGTON,+CT+06029&hl=en"
ENFIELD POLICE DEPARTMENT,ENFIELD POLICE DEPARTMENT,293 ELM ST.,ENFIELD,CT,06082,"http://maps.google.com/maps?q=293 ELM ST.,+ENFIELD,+CT+06082&hl=en"
FAIRFIELD POLICE DEPARTMENT,"FAIRFIELD POLICE HEADQUARTERS 
												
													MAIN LOBBY",100 REEF ROAD,FAIRFIELD,CT,06824,"http://maps.google.com/maps?q=100 REEF ROAD,+FAIRFIELD,+CT+06824&hl=en"
FITZWILLIAM POLICE DEPARTMENT,FITZWILLIAM POLICE DEPARTMENT,6 CHURCH ST.,FITZWILLIAM,NH,03447,"http://maps.google.com/maps?q=6 CHURCH ST.,+FITZWILLIAM,+NH+03447&hl=en"
FOXBOROUGHPOLICE DEPARTMENT,"FOXBOROUGH POLICE DEPARTMENT 
												
													PUBLIC SAFETY BUILDING",8 CHESTNUT STREET,FOXBORO,MA,02035,"http://maps.google.com/maps?q=8 CHESTNUT STREET,+FOXBORO,+MA+02035&hl=en"
FRAMINGHAM PD,FRAMINGHAM POLICE DEPARTMENT,1 WILLIAM H. WELCH WAYFRAMINGHAM,FRAMINGHAM,MA,01702,"http://maps.google.com/maps?q=1 WILLIAM H. WELCH WAY,+FRAMINGHAM,+MA+01702&hl=en"
GLASTONBURY POLICE DEPARTMENT,ACADEMY SCHOOL,2143 MAIN ST,GLASTONBURY,CT,06033,"http://maps.google.com/maps?q=2143 MAIN ST,+GLASTONBURY,+CT+06033&hl=en"
GLOCESTER POLICE DEPARTMENT,"GLOCESTER POLICE DEPARTMENT 
												
													FRONT LOBBY",162 CHOPMIST HILL ROAD,CHEPACHET,RI,02814,"http://maps.google.com/maps?q=162 CHOPMIST HILL ROAD,+CHEPACHET,+RI+02814&hl=en"
GOSHEN POLICE DEPARTMENT,GOSHEN POLICE DEPARTMENT,40 A MAIN ST,GOSHEN,MA,01032,"http://maps.google.com/maps?q=40 A MAIN ST,+GOSHEN,+MA+01032&hl=en"
GRAFTON POLICE DEPARTMENT,GRAFTON POLICE DEPARTMENT,28 PROVIDENCE ROAD,GRAFTON,MA,01519,"http://maps.google.com/maps?q=28 PROVIDENCE ROAD,+GRAFTON,+MA+01519&hl=en"
GRANBY POLICE DEPARTMENT,GRANBY POLICE HQ,15 NORTH GRANBY ROAD,GRANBY,CT,06035,"http://maps.google.com/maps?q=15 NORTH GRANBY ROAD,+GRANBY,+CT+06035&hl=en"
GREENFIELD PD,GREENFIELD POLICE DEPARTMENT,321 HIGH STREET,GREENFIELD,MA,01301,"http://maps.google.com/maps?q=321 HIGH STREET,+GREENFIELD,+MA+01301&hl=en"
GREENWICH POLICE DEPARTMENT,PUBLIC SAFETY COMPLEX,11 BRUCE PLACE,GREENWICH,CT,06830,"http://maps.google.com/maps?q=11 BRUCE PLACE,+GREENWICH,+CT+06830&hl=en"
GROTON POLICE DEPARTMENT,GROTON SENIOR CENTER,102 NEWTOWN RD.,GROTON,CT,06340,"http://maps.google.com/maps?q=102 NEWTOWN RD.,+GROTON,+CT+06340&hl=en"
GUILDERLAND POLICE DEPARTMENT,"PUBLIC LIBRARY 
												
													AUXILIARY PARKING LOT",2228 WESTERN AVENUE,GUILDERLAND,NY,12084,"http://maps.google.com/maps?q=2228 WESTERN AVENUE,+GUILDERLAND,+NY+12084&hl=en"
HADDAM RESIDENT TROOPERS OFFICE,HIGGANUM PHARMACY,23 KILLINGWORTH ROAD,HIGGANUM,CT,06441,"http://maps.google.com/maps?q=23 KILLINGWORTH ROAD,+HIGGANUM,+CT+06441&hl=en"
HAMDEN POLICE DEPARTMENT,HAMDEN POLICE DEPARTMENT,2900 DIXWELL AVE,HAMDEN,CT,06518,"http://maps.google.com/maps?q=2900 DIXWELL AVE,+HAMDEN,+CT+06518&hl=en"
HARTFORD POLICE DEPARTMENT,HARTFORD POLICE DEPARTMENT,253 HIGH ST.,HARTFORD,CT,06103,"http://maps.google.com/maps?q=253 HIGH ST.,+HARTFORD,+CT+06103&hl=en"
HARVARD POLICE,"HARVARD PUBLIC SAFETY BUILDING 
												
													HARVARD POLICE",40 AYER ROAD,HARVARD,MA,01451,"http://maps.google.com/maps?q=40 AYER ROAD,+HARVARD,+MA+01451&hl=en"
HAVERSTRAW POLICE DEPARTMENT,CVS,12 WEST RAMAPO ROAD,GARNERVILLE,NY,10923,"http://maps.google.com/maps?q=12 WEST RAMAPO ROAD,+GARNERVILLE,+NY+10923&hl=en"
HEBRON RESIDENT TROOPER'S OFFICE - CSP TROOP K,RHAM HIGH SCHOOL,85 WALL ST,HEBRON,CT,06248,"http://maps.google.com/maps?q=85 WALL ST,+HEBRON,+CT+06248&hl=en"
HINSDALE POLICE DEPARTMENT,HINSDALE POLICE DEPARTMENT,10 MAIN STREETPO BOX 138,HINSDALE,NH,03451,"http://maps.google.com/maps?q=10 MAIN STREET,+HINSDALE,+NH+03451&hl=en"
HOLLAND POLICE DEPARTMENT,HOLLAND POLICE DEPARTMENT,27 STURBRIDGE RD.,HOLLAND,MA,01521,"http://maps.google.com/maps?q=27 STURBRIDGE RD.,+HOLLAND,+MA+01521&hl=en"
HOLLISTON POLICE DEPARTMENT,HOLLISTON POLICE DEPARTMENT,550 WASHINGTON STREET,HOLLISTON,MA,01746,"http://maps.google.com/maps?q=550 WASHINGTON STREET,+HOLLISTON,+MA+01746&hl=en"
HOLYOKE MA POLICE DEPARTMENT,"HOLYOKE POLICE DEPARTMENT 
												
													NARCOTICS/VICE DIVISION",138 APPLETON ST,HOLYOKE,MA,01040,"http://maps.google.com/maps?q=138 APPLETON ST,+HOLYOKE,+MA+01040&hl=en"
JAFFREY POLICE DEPARTMENT,JAFFREY POLICE DEPARTMENT,26 MAIN STREET,JAFFREY,NH,03452,"http://maps.google.com/maps?q=26 MAIN STREET,+JAFFREY,+NH+03452&hl=en"
JAMESTOWN POLICE DEPARTMENT,JAMESTOWN POLICE,250 CONANICUS AVENUE,JAMESTOWN,RI,02835,"http://maps.google.com/maps?q=250 CONANICUS AVENUE,+JAMESTOWN,+RI+02835&hl=en"
JOHNSTON POLICE,JOHNSTON POLICE,1651 ATWOOD AVENUE,JOHNSTON,RI,02919,"http://maps.google.com/maps?q=1651 ATWOOD AVENUE,+JOHNSTON,+RI+02919&hl=en"
KEENE POLICE DEPARTMENT,KEENE POLICE DEPARTMENT,400 MARLBORO STREET,KEENE,NH,03431,"http://maps.google.com/maps?q=400 MARLBORO STREET,+KEENE,+NH+03431&hl=en"
KILLINGWORTH RESIDENT TROOPER,KILLINGWORTH PHARMACY,183 ROUTE 81,KILLINGWORTH,CT,06419,"http://maps.google.com/maps?q=183 ROUTE 81,+KILLINGWORTH,+CT+06419&hl=en"
LEICESTER POLICE DEPARTMENT,LEICESTER RECYCLING CENTER,200 MANNVILLE STREET,LEICESTER,MA,01524,"http://maps.google.com/maps?q=200 MANNVILLE STREET,+LEICESTER,+MA+01524&hl=en"
LENOX POLICE DEPARTMENT,"LENOX TOWN HALL 
												
													AUDITORIUM",6 WALKER ST.,LENOX,MA,01240,"http://maps.google.com/maps?q=6 WALKER ST.,+LENOX,+MA+01240&hl=en"
LEOMINSTER POLICE DEPARTMENT,LEOMINSTER POLICE DEPARTMENT,29 CHURCH ST,LEOMINSTER,MA,01453,"http://maps.google.com/maps?q=29 CHURCH ST,+LEOMINSTER,+MA+01453&hl=en"
LEVERETT POLICE DEPARTMENT,LEVERETT POLICE DEPARTMENT,95 MONTAGUE ROAD,LEVERETT,MA,01054,"http://maps.google.com/maps?q=95 MONTAGUE ROAD,+LEVERETT,+MA+01054&hl=en"
LINCOLN POLICE DEPARTMENT,LINCOLN POLICE DEPARTMENT,100 OLD RIVER RD,LINCOLN,RI,02865,"http://maps.google.com/maps?q=100 OLD RIVER RD,+LINCOLN,+RI+02865&hl=en"
LUDLOW POLICE DEPARTMENT,LUDLOW POLICE DEPARTMENT,612 CHAPIN ST,LUDLOW,MA,01056,"http://maps.google.com/maps?q=612 CHAPIN ST,+LUDLOW,+MA+01056&hl=en"
LUNENBURG POLICE DEPARTMENT,LUNENBURG POLICE DEPARTMENT,655 MASSACHUSETTS AVE.,LUNENBURG,MA,01462,"http://maps.google.com/maps?q=655 MASSACHUSETTS AVE.,+LUNENBURG,+MA+01462&hl=en"
MADISON POLICE DEPARTMENT,MADISON POLICE DEPARTMENT,9 CAMPUS DRIVE,MADISON,CT,06443,"http://maps.google.com/maps?q=9 CAMPUS DRIVE,+MADISON,+CT+06443&hl=en"
MANSFIELD PD,MANSFIELD POLICE DEPARTMENT,50 WEST STREET,MANSFIELD,MA,02048,"http://maps.google.com/maps?q=50 WEST STREET,+MANSFIELD,+MA+02048&hl=en"
MARLBOROUGH POLICE DEPARTMENT,"MARLBOROUGH POLICE STATION 
												
													FRONT LOBBY",355 BOLTON ST,MARLBOROUGH,MA,01752,"http://maps.google.com/maps?q=355 BOLTON ST,+MARLBOROUGH,+MA+01752&hl=en"
MASON POLICE DEPARTMENT,MASON POLICE DEPARTMENT,38 DARLING HILL ROAD,MASON,NH,03048,"http://maps.google.com/maps?q=38 DARLING HILL ROAD,+MASON,+NH+03048&hl=en"
MECHANICVILLE POLICE DEPARTMENT,"CVS PHARMACY 
												
													PARKING LOT",12 SOUTH CENTRAL AVENUE,MECHANICVILLE,NY,12118,"http://maps.google.com/maps?q=12 SOUTH CENTRAL AVENUE,+MECHANICVILLE,+NY+12118&hl=en"
MEDFIELD POLICE DEPARTMENT,"MEDFIELD POLICE DEPARTMENT 
												
													FRONT LOBBY",112 NORTH STREET,MEDFIELD,MA,02052,"http://maps.google.com/maps?q=112 NORTH STREET,+MEDFIELD,+MA+02052&hl=en"
MIDDLEBORO PD,"MIDDLEBOROUGH POLICE DEPT. 
												
													REAR PARKING LOT",99 N. MAIN ST,MIDDLEBORO,MA,02346,"http://maps.google.com/maps?q=99 N. MAIN ST,+MIDDLEBORO,+MA+02346&hl=en"
MIDDLEFIELD PD,MIDDLEFIELD RESIDENT TROOPER OFFICE,405 MAIN ST,MIDDLEFIELD,CT,06455,"http://maps.google.com/maps?q=405 MAIN ST,+MIDDLEFIELD,+CT+06455&hl=en"
MIDDLETOWN POLICE,MIDDLETOWN POLICE DEPARTMENT,222 MAIN ST,MIDDLETOWN,CT,06457,"http://maps.google.com/maps?q=222 MAIN ST,+MIDDLETOWN,+CT+06457&hl=en"
MIDDLETOWN POLICE DEPARTMENT,MIDDLETOWN POLICE,123 VALLEY ROAD,MIDDLETOWN,RI,02842,"http://maps.google.com/maps?q=123 VALLEY ROAD,+MIDDLETOWN,+RI+02842&hl=en"
MILFORD POLICE DEPT.,MILFORD SENIOR CENTER,9 JEPSON DR.,MILFORD,CT,06460,"http://maps.google.com/maps?q=9 JEPSON DR.,+MILFORD,+CT+06460&hl=en"
MONROE POLICE DEPARTMENT,MONROE SENIOR CITIZEN CENTER,235 CUTLER'S FARM ROAD,MONROE,CT,06468,"http://maps.google.com/maps?q=235 CUTLER'S FARM ROAD,+MONROE,+CT+06468&hl=en"
NATICK POLICE DEPARTMENT,"NATICK POLICE DEPARTMENT 
												
													IN THE REAR",20 EAST CENTRAL ST,NATICK,MA,01760,"http://maps.google.com/maps?q=20 EAST CENTRAL ST,+NATICK,+MA+01760&hl=en"
NEW BRITAIN POLICE DEPARTMENT,NEW BRITAIN POLICE DEPARTMENT,10 CHESTNUT STREET,NEW BRITAIN,CT,06051,"http://maps.google.com/maps?q=10 CHESTNUT STREET,+NEW BRITAIN,+CT+06051&hl=en"
NEW FAIRFIELD RESIDENT TROOPERS OFFICE CSP-A,NEW FAIRFIELD RESIDENT TROOPERS OFFICE,302 BALL POND ROAD,NEW FAIRFIELD,CT,06812,"http://maps.google.com/maps?q=302 BALL POND ROAD,+NEW FAIRFIELD,+CT+06812&hl=en"
NEW PALTZ POLICE DEPARTMENT,POLICE STATION,83 S. PUTT CORNERS RD.,NEW PALTZ,NY,12561,"http://maps.google.com/maps?q=83 S. PUTT CORNERS RD.,+NEW PALTZ,+NY+12561&hl=en"
NEW YORK STATE POLICE,"NEW YORK STATE POLICE 
												
													PETER MCARDLE",7140 REPUBLIC AIRPORT,FARMINGDALE,NY,11735,"http://maps.google.com/maps?q=7140 REPUBLIC AIRPORT,+FARMINGDALE,+NY+11735&hl=en"
NEW YORK STATE POLICE,"NEW YORK STATE POLICE 
												
													SCHODACK",1485 STATE RT 9,CASTLETON,NY,12033,"http://maps.google.com/maps?q=1485 STATE RT 9,+CASTLETON,+NY+12033&hl=en"
NEW YORK STATE POLICE TROOP G,NEW YORK STATE POLICE TROOP G,760 TROY SCHENECTADY AVENUE,LATHAM,NY,12110,"http://maps.google.com/maps?q=760 TROY SCHENECTADY AVENUE,+LATHAM,+NY+12110&hl=en"
NEWPORT POLICE DEPARTMENT,NEWPORT POLICE,120 BROADWAY,NEWPORT,RI,02840,"http://maps.google.com/maps?q=120 BROADWAY,+NEWPORT,+RI+02840&hl=en"
NEWTOWN POLICE DEPARTMENT,NEWTOWN POLICE DEPARTMENT,3 MAIN STREET,NEWTOWN,CT,06470,"http://maps.google.com/maps?q=3 MAIN STREET,+NEWTOWN,+CT+06470&hl=en"
NORTH ATTLEBORO POLICE DEPARTMENT,NORTH ATTLEBORO POLICE DEPARTMENT,102 SOUTH WASHINGTON STREET,NORTH ATTLEBORO,MA,02760,"http://maps.google.com/maps?q=102 SOUTH WASHINGTON STREET,+NORTH ATTLEBORO,+MA+02760&hl=en"
NORTH CASTLE POLICE DEPARTMENT,"NORTH CASTLE TOWN HALL 
												
													POLICE DEPARTMENT",15 BEDFORD RD,ARMONK,NY,10504,"http://maps.google.com/maps?q=15 BEDFORD RD,+ARMONK,+NY+10504&hl=en"
NORTH GREENBUSH POLICE DEPARTMENT,"NORTH GREENBUSH POLICE DEPARTMENT 
												
													CHIEF ROBERT DURIVAGE",133 BLOOMING GROVE DRIVE,TROY,NY,12180,"http://maps.google.com/maps?q=133 BLOOMING GROVE DRIVE,+TROY,+NY+12180&hl=en"
NORTH HAVEN,NORTH HAVEN FIRE HQS,11 BROADWAY,NORTH HAVEN,CT,06473,"http://maps.google.com/maps?q=11 BROADWAY,+NORTH HAVEN,+CT+06473&hl=en"
NORTH KINGSTOWN POLICE DEPARTMENT,NORTH KINGSTOWN POLICE DEPARTMENT HQ,8166 POST ROAD,NORTH KINGSTOWN,RI,02852,"http://maps.google.com/maps?q=8166 POST ROAD,+NORTH KINGSTOWN,+RI+02852&hl=en"
NORTH PROVIDENCE POLICE,NORTH PROVIDENCE POLICE,1967 MINERAL SPRING AVE,PROVIDENCE,RI,02904,"http://maps.google.com/maps?q=1967 MINERAL SPRING AVE,+PROVIDENCE,+RI+02904&hl=en"
NORTH SHORE HEALTH LIJ HUNTINGTON HOSPITAL,"NORTH SHORE HEALTH LIJ HUNTINGTON 
												
													LOBBY",270 PARK AVENUE,HUNTINGTON,NY,11743,"http://maps.google.com/maps?q=270 PARK AVENUE,+HUNTINGTON,+NY+11743&hl=en"
NORTHAMPTON POLICE DEPARTMENT,JFK MIDDLE SCHOOL,100 BRIDGE RD,FLORENCE,MA,01062,"http://maps.google.com/maps?q=100 BRIDGE RD,+FLORENCE,+MA+01062&hl=en"
NORTHBOROUGH POLICE DEPARTMENT,NORTHBOROUGH POLICE DEPARTMENT,211 MAIN ST.,NORTHBOROUGH,MA,01532,"http://maps.google.com/maps?q=211 MAIN ST.,+NORTHBOROUGH,+MA+01532&hl=en"
NORTHBRIDGE POLICE DEPARTMENT,NORTHBRIDGE POLICE DEPARTMENT,1 HOPE STREET,WHITINSVILLE,MA,01588,"http://maps.google.com/maps?q=1 HOPE STREET,+WHITINSVILLE,+MA+01588&hl=en"
NORTHPORT VA POLICE DEPARTMENT,NORTHPORT VA POLICE DEPARTMENT,79 MIDDLEVILLE ROAD,NORTHPORT,NY,11768,"http://maps.google.com/maps?q=79 MIDDLEVILLE ROAD,+NORTHPORT,+NY+11768&hl=en"
NORTHWELL SOUTHSIDE HOSPITAL,NORTHWELL SOUTHSIDE HOSPITAL,301 EAST MAIN STREET,BAY SHORE,NY,11706,"http://maps.google.com/maps?q=301 EAST MAIN STREET,+BAY SHORE,+NY+11706&hl=en"
NORTON POLICE DEPARTMENT,NORTON POLICE DEPARTMENT,82 EAST MAIN STREET,NORTON,MA,02766,"http://maps.google.com/maps?q=82 EAST MAIN STREET,+NORTON,+MA+02766&hl=en"
NORWOOD POLICE DEPARTMENT,NORWOOD POLICE DEPT,137 NAHATAN ST,NORWOOD,MA,02062,"http://maps.google.com/maps?q=137 NAHATAN ST,+NORWOOD,+MA+02062&hl=en"
OLD LYME,OLD LYME FIRE STATION,69 LYME ST,OLD LYME,CT,06371,"http://maps.google.com/maps?q=69 LYME ST,+OLD LYME,+CT+06371&hl=en"
ORANGE POLICE DEPT.,CVS,279 BOSTON POST ROAD,ORANGE,CT,06477,"http://maps.google.com/maps?q=279 BOSTON POST ROAD,+ORANGE,+CT+06477&hl=en"
PAWTUCKET POLICE DEPT.,"PAWTUCKET POLICE DEPARTMENT 
												
													FRONT OFFICE",121 ROOSEVELT AVE.,PAWTUCKET,RI,02860,"http://maps.google.com/maps?q=121 ROOSEVELT AVE.,+PAWTUCKET,+RI+02860&hl=en"
PECONIC BAY MEDICAL CENTER,"PECONIC BAY MEDICAL CENTER 
												
													BRENDAN VAN SLYKE",1300 ROANOKE AVENUE,RIVERHEAD,NY,11901,"http://maps.google.com/maps?q=1300 ROANOKE AVENUE,+RIVERHEAD,+NY+11901&hl=en"
PITTSFIELD POLICE DEPARTMENT,PITTSFIELD POLICE DEPARTMENT,39 ALLEN STREET,PITTSFIELD,MA,01201,"http://maps.google.com/maps?q=39 ALLEN STREET,+PITTSFIELD,+MA+01201&hl=en"
PLAINVILLE POLICE DEPARTMENT,PLAINVILLE POLICE DEPARTMENT,157 SOUTH STREET,PLAINVILLE,MA,02762,"http://maps.google.com/maps?q=157 SOUTH STREET,+PLAINVILLE,+MA+02762&hl=en"
PUTNAM COMMUNITIES THAT CARE COALITION,PUTNAM HOSPITAL CENTER,670 STONELEIGH AVE,CARMEL,NY,10512,"http://maps.google.com/maps?q=670 STONELEIGH AVE,+CARMEL,+NY+10512&hl=en"
PUTNAM COUNTY SHERIFF'S OFFICE,PUTNAM HOSPITAL CENTER,670 STONLEIGH AVE,CARMEL,NY,10512,"http://maps.google.com/maps?q=670 STONLEIGH AVE,+CARMEL,+NY+10512&hl=en"
PUTNAM POLICE DEPT,FARMER'S MARKETPLACE PAVILLION,3 KENNEDY DR,PUTNAM,CT,06260,"http://maps.google.com/maps?q=3 KENNEDY DR,+PUTNAM,+CT+06260&hl=en"
RAYNHAM PD,RAYNHAM PD,53 ORCHARD ST,RAYNHAM,MA,02767,"http://maps.google.com/maps?q=53 ORCHARD ST,+RAYNHAM,+MA+02767&hl=en"
RENSSELAER  POLICE DEPARTMENT,NORTH END FIRE STATION,2 ST. FRANCIS PLACE,RENSSELAER,NY,12144,"http://maps.google.com/maps?q=2 ST. FRANCIS PLACE,+RENSSELAER,+NY+12144&hl=en"
RHODE ISLAND STATE POLICE,RHODE ISLAND STATE POLICE,1575 LOUISQUISSET PIKE,LINCOLN,RI,02865,"http://maps.google.com/maps?q=1575 LOUISQUISSET PIKE,+LINCOLN,+RI+02865&hl=en"
RHODE ISLAND STATE POLICE,RHODE ISLAND STATE POLICE,311 DANIELSON PIKE,NORTH SCITUATE,RI,02857,"http://maps.google.com/maps?q=311 DANIELSON PIKE,+NORTH SCITUATE,+RI+02857&hl=en"
RHODE ISLAND STATE POLICE,RHODE ISLAND STATE POLICE,54 NOOSENECK HILL RD,WYOMING,RI,02898,"http://maps.google.com/maps?q=54 NOOSENECK HILL RD,+WYOMING,+RI+02898&hl=en"
RHODE ISLAND STATE POLICE,RHODE ISLAND STATE POLICE,7875 POST ROAD,NORTH KINGSTOWN,RI,02852,"http://maps.google.com/maps?q=7875 POST ROAD,+NORTH KINGSTOWN,+RI+02852&hl=en"
RICHMOND POLICE DEPARTMENT,RICHMOND POLICE,1168 MAIN STREET,WYOMING,RI,02898,"http://maps.google.com/maps?q=1168 MAIN STREET,+WYOMING,+RI+02898&hl=en"
RIDGEFIELD POLICE DEPARTMENT,BISSELL PHARMACY,23 GOVERNOR ST,RIDGEFIELD,CT,06877,"http://maps.google.com/maps?q=23 GOVERNOR ST,+RIDGEFIELD,+CT+06877&hl=en"
RIDGEFIELD POLICE DEPARTMENT,RIDGEFIELD POLICE DEPARTMENT,76 EAST RIDGE RD,RIDGEFIELD,CT,06877,"http://maps.google.com/maps?q=76 EAST RIDGE RD,+RIDGEFIELD,+CT+06877&hl=en"
RINDGE POLICE DEPARTMENT,RINDGE POLICE DEPARTMENT,158 MAIN ST,RINDGE,NH,03461,"http://maps.google.com/maps?q=158 MAIN ST,+RINDGE,+NH+03461&hl=en"
ROCKY HILL POLICE DEPARTMENT,ROCKY HILL POLICE DEPARTMENT,699 OLD MAIN STREET,ROCKY HILL,CT,06067,"http://maps.google.com/maps?q=699 OLD MAIN STREET,+ROCKY HILL,+CT+06067&hl=en"
RUTLAND PD,RUTLAND PD,242 MAIN STREET,RUTLAND,MA,01543,"http://maps.google.com/maps?q=242 MAIN STREET,+RUTLAND,+MA+01543&hl=en"
SARATOGA COUNTY SHERIFF OFFICE,CLIFTON PARK-HALFMOON EMERGENCY SQUAD,15 CROSSING BLVD.,CLIFTON PARK,NY,12065,"http://maps.google.com/maps?q=15 CROSSING BLVD.,+CLIFTON PARK,+NY+12065&hl=en"
SCHODACK POLICE DEPARTMENT,POLICE DEPARTMENT,1797 COLUMBIA TURNPIKE,CASTLETON,NY,12033,"http://maps.google.com/maps?q=1797 COLUMBIA TURNPIKE,+CASTLETON,+NY+12033&hl=en"
SETAUKET FIRE HOUSE,"SETAUKET FIRE HOUSE 
												
													DAVE STONE",394 NICOLLS ROAD,EAST SETAUKET,NY,11733,"http://maps.google.com/maps?q=394 NICOLLS ROAD,+EAST SETAUKET,+NY+11733&hl=en"
SHARON POLICE DEPARTMENT,"SHARON PUBLIC SAFETY BUILDING 
												
													213 SOUTH MAIN STREET",213 SOUTH MAIN STREET,SHARON,MA,02067,"http://maps.google.com/maps?q=213 SOUTH MAIN STREET,+SHARON,+MA+02067&hl=en"
SHERMAN RESIDENT TROOPER,SHERMAN RESIDENT TROOPERS OFFICE,9 RT 38 NORTH,SHERMAN,CT,06784,"http://maps.google.com/maps?q=9 RT 38 NORTH,+SHERMAN,+CT+06784&hl=en"
SHREWSBURY POLICE DEPARTMENT,SHREWSBURY SENIOR CENTER,98 MAPLE AVE,SHREWSBURY,MA,01545,"http://maps.google.com/maps?q=98 MAPLE AVE,+SHREWSBURY,+MA+01545&hl=en"
SLEEPYHOLLOW POLICE DEPARTMENT,PHELPS HOSPITAL NORTHWELL HEALTH,777 NORTH BROADWAY,SLEEPY HOLLOW,NY,10591,"http://maps.google.com/maps?q=777 NORTH BROADWAY,+SLEEPY HOLLOW,+NY+10591&hl=en"
SLEEPYHOLLOW POLICE DEPARTMENT,SLEEPYHOLLOW POLICE DEPARTMENT,28 BEEKMAN AVENUE,TARRYTOWN,NY,10591,"http://maps.google.com/maps?q=28 BEEKMAN AVENUE,+TARRYTOWN,+NY+10591&hl=en"
SMITHFIELD POLICE DEPARTMENT,SMITHFIELD POLICE,215 PLEASANT VIEW AVENUE,SMITHFIELD,RI,02917,"http://maps.google.com/maps?q=215 PLEASANT VIEW AVENUE,+SMITHFIELD,+RI+02917&hl=en"
SOMERSET POLICE DEPARTMENT,CVS PHARMACY,1587 BRAYTON POINT ROAD,SOMERSET,MA,02726,"http://maps.google.com/maps?q=1587 BRAYTON POINT ROAD,+SOMERSET,+MA+02726&hl=en"
SOUTH KINGSTOWN POLICE DEPARTMENT,SOUTH KINGSTOWN POLICE,1790 KINGSTOWN RD,WAKEFIELD,RI,02879,"http://maps.google.com/maps?q=1790 KINGSTOWN RD,+WAKEFIELD,+RI+02879&hl=en"
SOUTH WINDSOR POLICE DEPARTMENT,SOUTH WINDSOR POLICE DEPARTMENT,151 SAND HILL ROAD,SOUTH WINDSOR,CT,06074,"http://maps.google.com/maps?q=151 SAND HILL ROAD,+SOUTH WINDSOR,+CT+06074&hl=en"
SOUTHAMPTON POLICE DEPARTMENT,SOUTHAMPTON FIRE/TOWN HALL PARKING LOT,210 COLLEGE HIGHWAY,SOUTHAMPTON,MA,01073,"http://maps.google.com/maps?q=210 COLLEGE HIGHWAY,+SOUTHAMPTON,+MA+01073&hl=en"
SOUTHBRIDGE POLICE DEPARTMENT,SOUTHBRIDGE POLICE DEPARTMENT,1 MECHANIC STREET,SOUTHBRIDGE,MA,01550,"http://maps.google.com/maps?q=1 MECHANIC STREET,+SOUTHBRIDGE,+MA+01550&hl=en"
SOUTHBURY POLICE,SOUTHBURY POLICE DEPARTMENT,421 MAIN STREET SOUTH,SOUTHBURY,CT,06488,"http://maps.google.com/maps?q=421 MAIN STREET SOUTH,+SOUTHBURY,+CT+06488&hl=en"
SOUTHHAMPTON TOWN POLICE DEPARTMENT,BRIDGEHAMPTON COMMONS,2044 MONTAUK HWY,BRIDGEHAMPTON,NY,11932,"http://maps.google.com/maps?q=2044 MONTAUK HWY,+BRIDGEHAMPTON,+NY+11932&hl=en"
SOUTHHAMPTON TOWN POLICE DEPARTMENT,FLANDERS COMMUNITY CENTER,655 FLANDERS ROAD,RIVERHEAD,NY,11901,"http://maps.google.com/maps?q=655 FLANDERS ROAD,+RIVERHEAD,+NY+11901&hl=en"
SOUTHHAMPTON TOWN POLICE DEPARTMENT,HAMPTON BAYS COMMUNITY CENTER,25 PONQUOGUE AVENUE,HAMPTON BAYS,NY,11946,"http://maps.google.com/maps?q=25 PONQUOGUE AVENUE,+HAMPTON BAYS,+NY+11946&hl=en"
SPENCER POLICE DEPARTMENT,CVS PHARMACY,133 MAIN STREET,SPENCER,MA,01562,"http://maps.google.com/maps?q=133 MAIN STREET,+SPENCER,+MA+01562&hl=en"
SPRINGFIELD POLICE DEPARTMENT,CENTRAL HIGH SCHOOL,1840 ROOSEVELT AVE,SPRINGFIELD,MA,01109,"http://maps.google.com/maps?q=1840 ROOSEVELT AVE,+SPRINGFIELD,+MA+01109&hl=en"
STAMFORD POLICE DEPARTMENT,STAMFORD POLICE DEPARTMENT,805 BEDFORD STREET,STAMFORD,CT,06901,"http://maps.google.com/maps?q=805 BEDFORD STREET,+STAMFORD,+CT+06901&hl=en"
STONINGTON POLICE DEPARTMENT,STONINGTON POLICE DEPARTMENT,173 SOUTH BROAD ST,PAWCATUCK,CT,06379,"http://maps.google.com/maps?q=173 SOUTH BROAD ST,+PAWCATUCK,+CT+06379&hl=en"
STRATFORD POLICE,"STRATFORD POLICE DEPARTMENT 
												
													LOBBY PRESCRIPTION LOCK BOX",900 LONGBROOK AVENUE,STRATFORD,CT,06614,"http://maps.google.com/maps?q=900 LONGBROOK AVENUE,+STRATFORD,+CT+06614&hl=en"
SUFFIELD POLICE DEPARTMENT,CVS PHARMACY PARKING LOT,163 MOUNTAIN RDSUFFIELD,SUFFIELD,CT,06078,"http://maps.google.com/maps?q=163 MOUNTAIN RD,+SUFFIELD,+CT+06078&hl=en"
SUFFOLK COUNTY POLICE DEPARTMENT,"HUNTINGTON HOSPITAL 
												
													ONLY COLLECTION SITE",270 PARK AVE,HUNTINGTON,NY,11743,"http://maps.google.com/maps?q=270 PARK AVE,+HUNTINGTON,+NY+11743&hl=en"
SUNDERLAND POLICE DEPARTMENT,TOWN OF SUNDERLAND POLICE DEPARTMENT,105 RIVER ROAD,SUNDERLAND,MA,01375,"http://maps.google.com/maps?q=105 RIVER ROAD,+SUNDERLAND,+MA+01375&hl=en"
SUNY OLD WESTBURY,"SUNY OLD WESTBURY 
												
													CAMPUS POLICE STATION",223 STOREHILL ROAD,OLD WESTBURY,NY,11568,"http://maps.google.com/maps?q=223 STOREHILL ROAD,+OLD WESTBURY,+NY+11568&hl=en"
TAUNTON POLICE DEPT.,"TAUNTON POLICE DEPT. 
												
													MAIN LOBBY",23 SUMMER ST,TAUNTON,MA,02780,"http://maps.google.com/maps?q=23 SUMMER ST,+TAUNTON,+MA+02780&hl=en"
TEMPLETON PD,NARRAGANSETT REGIONAL MIDDLE SCHOOL,464 BALDWINVILLE ROAD,TEMPLETON,MA,01468,"http://maps.google.com/maps?q=464 BALDWINVILLE ROAD,+TEMPLETON,+MA+01468&hl=en"
THOMASTON POLICE DEPARTMENT,RITE AID,455 S. MAIN ST.,THOMASTON,CT,06787,"http://maps.google.com/maps?q=455 S. MAIN ST.,+THOMASTON,+CT+06787&hl=en"
TIVERTON POLICE DEPARTMENT,TIVERTON POLICE DEPARTMENT,20 INDUSTRIAL WAY,TIVERTON,RI,02878,"http://maps.google.com/maps?q=20 INDUSTRIAL WAY,+TIVERTON,+RI+02878&hl=en"
TORRINGTON POLICE DEPARTMENT,"TORRINGTON POLICE DEPARTMENT 
												
													COLLECTION BOX IS AVAILABLE YEAR ROUND",576 MAIN STREET,TORRINGTON,CT,06790,"http://maps.google.com/maps?q=576 MAIN STREET,+TORRINGTON,+CT+06790&hl=en"
TOWNSEND POLICE DEPARTMENT,TOWNSEND POLICE DEPARTMENT,70 BROOKLINE STREET,TOWNSEND,MA,01469,"http://maps.google.com/maps?q=70 BROOKLINE STREET,+TOWNSEND,+MA+01469&hl=en"
TROY POLICE DEPARTMENT,TROY POLICE DEPARTMENT,55 STATE STREET,TROY,NY,12180,"http://maps.google.com/maps?q=55 STATE STREET,+TROY,+NY+12180&hl=en"
TROY POLICE DEPARTMENT,TROY POLICE DEPT,14 CENTRAL SQUARE,TROY,NH,03465,"http://maps.google.com/maps?q=14 CENTRAL SQUARE,+TROY,+NH+03465&hl=en"
TRUMBULL POLICE DEPARTMENT,TRUMBULL EMS,250 MIDDLEBROOKS AVE,TRUMBULL,CT,06611,"http://maps.google.com/maps?q=250 MIDDLEBROOKS AVE,+TRUMBULL,+CT+06611&hl=en"
VERMONT STATE POLICE,VERMONT STATE POLICE - SHAFTSBURY BARRACKS,96 AIRPORT ROAD,SHAFTSBURY,VT,05262,"http://maps.google.com/maps?q=96 AIRPORT ROAD,+SHAFTSBURY,+VT+05262&hl=en"
VERMONT STATE POLICE,VERMONT STATE POLICE - WESTMINSTER BARRACKS,1330 WESTMINSTER HIGHTS ROAD,PUTNEY,VT,05346,"http://maps.google.com/maps?q=1330 WESTMINSTER HIGHTS ROAD,+PUTNEY,+VT+05346&hl=en"
VERNON POLICE DEPARTMENT,WALGREENS PHARMACY,188 UNION STREET,VERNON ROCKVILLE,CT,06066,"http://maps.google.com/maps?q=188 UNION STREET,+VERNON ROCKVILLE,+CT+06066&hl=en"
VILLAGE OF OSSINING POLICE DEPARTMENT,"BIRDSALL FAGAN POLICE/COURT FACILITY 
												
													COURT LOBBY",86-88 SPRING STREET,OSSINING,NY,10562,"http://maps.google.com/maps?q=86-88 SPRING STREET,+OSSINING,+NY+10562&hl=en"
VILLAGE OF RHINEBECK POLICE,NORTHERN DUTCHESS HOSPITAL,6511 SPRINGBROOK AVE,RHINEBECK,NY,12572,"http://maps.google.com/maps?q=6511 SPRINGBROOK AVE,+RHINEBECK,+NY+12572&hl=en"
WALPOLE POLICE DEPARTMENT,WALPOLE RECYCLE CENTER,207 WHITCOMB ROAD,WALPOLE,NH,03608,"http://maps.google.com/maps?q=207 WHITCOMB ROAD,+WALPOLE,+NH+03608&hl=en"
WARREN POLICE DEPARTMENT,WARREN POLICE DEPARTMENT,1 JOYCE STREET,WARREN,RI,02885,"http://maps.google.com/maps?q=1 JOYCE STREET,+WARREN,+RI+02885&hl=en"
WATERBURY POLICE DEPARTMENT,"WATERBURY POLICE DEPARTMENT 
												
													FRONT LOBBY SAFE DISPOSAL",255 EAST MAIN ST,WATERBURY,CT,06702,"http://maps.google.com/maps?q=255 EAST MAIN ST,+WATERBURY,+CT+06702&hl=en"
WATERVLIET POLICE DEPARTMENT,WATERVLIET POLICE DEPARTMENT,2-15TH STREET,WATERVLIET,NY,12189,"http://maps.google.com/maps?q=2-15TH STREET,+WATERVLIET,+NY+12189&hl=en"
WEBSTER PD,WEBSTER POLICE DEPT.,357 MAIN ST,WEBSTER,MA,01570,"http://maps.google.com/maps?q=357 MAIN ST,+WEBSTER,+MA+01570&hl=en"
WELLESLEY POLICE DEPARTMENT,THE WELLESLEY POLICE DEPARTMENT,485 WASHINGTON STREET,WELLESLEY,MA,02482,"http://maps.google.com/maps?q=485 WASHINGTON STREET,+WELLESLEY,+MA+02482&hl=en"
WEST GREENWICH POLICE,WEST GREENWICH POLICE,280 VICTORY HIGHWAY,WEST GREENWICH,RI,02817,"http://maps.google.com/maps?q=280 VICTORY HIGHWAY,+WEST GREENWICH,+RI+02817&hl=en"
WEST HARTFORD POLICE DEPARTMENT,"WEST HARTFORD POLICE DEPARTMENT 
												
													LT SAM FERRUCCI",103 RAYMOND RD,WEST HARTFORD,CT,06107,"http://maps.google.com/maps?q=103 RAYMOND RD,+WEST HARTFORD,+CT+06107&hl=en"
WESTBROOK RESIDENT TOOPERS OFFICE,WESTBROOK RESIDENT TROOPERS OFFICE,315 SPENCER PLAIN RD,WESTBROOK,CT,06498,"http://maps.google.com/maps?q=315 SPENCER PLAIN RD,+WESTBROOK,+CT+06498&hl=en"
WESTCHESTER COUNTY POLICE,"NORTHERN WESTCHESTER HOSPITAL 
												
													MAIN LOBBY",400 MAIN ST.,MOUNT KISCO,NY,10549,"http://maps.google.com/maps?q=400 MAIN ST.,+MOUNT KISCO,+NY+10549&hl=en"
WESTERLY POLICE DEPARTMENT,WESTERLY POLICE,60 AIRPORT ROAD,WESTERLY,RI,02891,"http://maps.google.com/maps?q=60 AIRPORT ROAD,+WESTERLY,+RI+02891&hl=en"
WESTMINSTER POLICE DEPARTMENT,"WESTMINSTER PUBLIC SAFETY BUILDING 
												
													LOBBY - DROP BOX",7 SOUTH ST,WESTMINSTER,MA,01473,"http://maps.google.com/maps?q=7 SOUTH ST,+WESTMINSTER,+MA+01473&hl=en"
WESTON POLICE DEPARTMENT,WESTON POLICE DEPARTMENT,56 NORFIELD ROAD,WESTON,CT,06883,"http://maps.google.com/maps?q=56 NORFIELD ROAD,+WESTON,+CT+06883&hl=en"
WESTPORT POLICE DEPARTMENT,WESTPORT-WESTON HEALTH DISTRICT,180 BAYBERYY LANE,WESTPORT,CT,06880,"http://maps.google.com/maps?q=180 BAYBERYY LANE,+WESTPORT,+CT+06880&hl=en"
WETHERSFIELD POLICE DEPARTMENT,"WETHERSFIELD POLICE DEPARTMENT 
												
													MAIN LOBBY",250 SILAS DEANE HWY.,WETHERSFIELD,CT,06109,"http://maps.google.com/maps?q=250 SILAS DEANE HWY.,+WETHERSFIELD,+CT+06109&hl=en"
WILLIAMSBURG POLICE DEPT,WILLAIMSBURG PHARMACY,49 MAIN ST,WILLIAMSBURG,MA,01096,"http://maps.google.com/maps?q=49 MAIN ST,+WILLIAMSBURG,+MA+01096&hl=en"
WILLIMANTIC POLICE DEPT,"JILSON SQUARE 
												
													IN THE PARKING LOT","600 BLOCK, MAIN STREET22 MEADOW STREET",WILLIMANTIC,CT,06226,"http://maps.google.com/maps?q=600 BLOCK, MAIN STREET,+WILLIMANTIC,+CT+06226&hl=en"
WINCHESTER POLICE DEPARTMENT,WINCHESTER POLICE DEPARTMENT,6 PARKER STREET,WINCHESTER,NH,03470,"http://maps.google.com/maps?q=6 PARKER STREET,+WINCHESTER,+NH+03470&hl=en"
WINDHAM COUNTY SHERIFF'S OFFICE,BRATTLEBORO POLICE DEPARTMENT,62 BLACK MOUNTAIN ROAD,BRATTLEBORO,VT,05301,"http://maps.google.com/maps?q=62 BLACK MOUNTAIN ROAD,+BRATTLEBORO,+VT+05301&hl=en"
WINDHAM COUNTY SHERIFF'S OFFICE,DOVER POLICE DEPARTMENT,246 VT RT 100,WEST DOVER,VT,05356,"http://maps.google.com/maps?q=246 VT RT 100,+WEST DOVER,+VT+05356&hl=en"
WINDHAM COUNTY SHERIFF'S OFFICE,WILMINGTON POLICE DEPARTMENT,2 EAST MAIN STREET,WILMINGTON,VT,05363,"http://maps.google.com/maps?q=2 EAST MAIN STREET,+WILMINGTON,+VT+05363&hl=en"
WINDHAM COUNTY SHERIFF'S OFFICE,WINDHAM COUNT SHERIFF'S OFFICE,11 JAIL STREET,NEWFANE,VT,05345,"http://maps.google.com/maps?q=11 JAIL STREET,+NEWFANE,+VT+05345&hl=en"
WINDSOR POLICE DEPARTMENT,"CVS 
												
													484 WINDSOR AVE, WINDSOR",484 WINDSOR AVE,WINDSOR,CT,06095,"http://maps.google.com/maps?q=484 WINDSOR AVE,+WINDSOR,+CT+06095&hl=en"
WOLCOTT POLICE DEPT.,WOLCOTT POLICE DEPARTMENT,225 NICHOLS RD.,WOLCOTT,CT,06716,"http://maps.google.com/maps?q=225 NICHOLS RD.,+WOLCOTT,+CT+06716&hl=en"
WOODBURY POLICE,WOODBURY POLICE,281 MAIN STREET SOUTH,WOODBURY,CT,06798,"http://maps.google.com/maps?q=281 MAIN STREET SOUTH,+WOODBURY,+CT+06798&hl=en"
WOONSOCKET POLICE DEPARTMENT,"CVS PHARMACY 
												
													PARKING LOT",1054 CASS AVE,WOONSOCKET,RI,02895,"http://maps.google.com/maps?q=1054 CASS AVE,+WOONSOCKET,+RI+02895&hl=en"
