Participant,CollectionSite,Address,City,State,Zip,MapURL
ADULT PROBATION & PAROLE - SALT LAKE CITY,ADULT PROBATION & PAROLE/REGION III,36 WEST FREMONT AVE,SALT LAKE CITY,UT,84101,"http://maps.google.com/maps?q=36 WEST FREMONT AVE,+SALT LAKE CITY,+UT+84101&hl=en"
ADULT PROBATION & PAROLE - WEST VALLEY,CENTRAL VALLEY OFFICE/ADULT PROBATION & PAROLE,3280 WEST 3500 SOUTH,WEST VALLEY CITY,UT,84119,"http://maps.google.com/maps?q=3280 WEST 3500 SOUTH,+WEST VALLEY CITY,+UT+84119&hl=en"
BEAVERHEAD COUNTY SHERIFF OFFICE,BEAVERHEAD COUNTY SHERIFF OFFICE,2 SOUTH PACIFIC STREETSTE 16,DILLON,MT,59725,"http://maps.google.com/maps?q=2 SOUTH PACIFIC STREET,+DILLON,+MT+59725&hl=en"
BLACKFOOT POLICE DEPT,PATRIOT FIELD (AT THE CORNER OF FRANCIS AND ASH),FRANCIS AND ASH,BLACKFOOT,ID,83221,"http://maps.google.com/maps?q=FRANCIS AND ASH,+BLACKFOOT,+ID+83221&hl=en"
BOUNTIFUL POLICE,SMITH'S MARKETPLACE,555 S 200 W,BOUNTIFUL,UT,84010,"http://maps.google.com/maps?q=555 S 200 W,+BOUNTIFUL,+UT+84010&hl=en"
BUTTE_SILVER BOW LAW ENFORCEMENT,BUTTE PLAZA MALL,3100 HARRISON AVENUE,BUTTE,MT,59701,"http://maps.google.com/maps?q=3100 HARRISON AVENUE,+BUTTE,+MT+59701&hl=en"
CAMPBELL COUNTY SHERIFF'S OFFICE,CAMPBELL COUNTY PUBLIC HEALTH,2301 S. 4J ROAD,GILLETTE,WY,82718,"http://maps.google.com/maps?q=2301 S. 4J ROAD,+GILLETTE,+WY+82718&hl=en"
CARIBOU COUNTY SHERIFF'S OFFICE,"CARIBOU COUNTY SENIOR CITIZEN CENTER EVENT WILL BE HELD WEDNESDAY AFTERNOON, APRIL 25TH",60 S. MAIN STREET,SODA SPRINGS,ID,83276,"http://maps.google.com/maps?q=60 S. MAIN STREET,+SODA SPRINGS,+ID+83276&hl=en"
CARIBOU COUNTY SHERIFF'S OFFICE,"CARIBOU COUNTY SHERIFF'S OFFICE M-F, 9-5",475 E. 2ND S.,SODA SPRINGS,ID,83276,"http://maps.google.com/maps?q=475 E. 2ND S.,+SODA SPRINGS,+ID+83276&hl=en"
CASSIA COUNTY SHERIFF,SMITH'S FOOD PARKING LOT,937 E. MAIN,BURLEY,ID,83318,"http://maps.google.com/maps?q=937 E. MAIN,+BURLEY,+ID+83318&hl=en"
CENTERVILLE POLICE DEPARTMENT,CENTERVILLE POLICE DEPARTMENT,250 N. MAIN ST.,CENTERVILLE,UT,84014,"http://maps.google.com/maps?q=250 N. MAIN ST.,+CENTERVILLE,+UT+84014&hl=en"
CLINTON POLICE DEPARTMENT,MACEY'S GROCERY STORE,2062 WEST 1800 NORTH,CLINTON,UT,84015,"http://maps.google.com/maps?q=2062 WEST 1800 NORTH,+CLINTON,+UT+84015&hl=en"
CODY POLICE DEPARTMENT,CODY LAW ENFORCEMENT CENTER,1402 RIVER VIEW DRIVE,CODY,WY,82414,"http://maps.google.com/maps?q=1402 RIVER VIEW DRIVE,+CODY,+WY+82414&hl=en"
COLDWELL BANKER,COLDWELL BANKER,2180 S. 1300 E. #140,SALT LAKE CITY,UT,84106,"http://maps.google.com/maps?q=2180 S. 1300 E. #140,+SALT LAKE CITY,+UT+84106&hl=en"
DRUG ENFORCEMENT ADMINISTRATION,ELKS LODGE PARKING LOT,934 LEWIS AVENUE,BILLINGS,MT,59101,"http://maps.google.com/maps?q=934 LEWIS AVENUE,+BILLINGS,+MT+59101&hl=en"
DRUG FREE IDAHO,ADA COUNTY SHERIFF'S OFFICE,7200 BARRISTER DRIVE,BOISE,ID,83704,"http://maps.google.com/maps?q=7200 BARRISTER DRIVE,+BOISE,+ID+83704&hl=en"
DRUG FREE IDAHO,BERNIE FISHER PARK (BY WATCHTOWER),201 W. MAIN STREET,KUNA,ID,83634,"http://maps.google.com/maps?q=201 W. MAIN STREET,+KUNA,+ID+83634&hl=en"
DRUG FREE IDAHO,FRED MEYER GARDEN CITY OF BOISE,5425 W. CHINDEN BLVD,GARDEN CITY,ID,83714,"http://maps.google.com/maps?q=5425 W. CHINDEN BLVD,+GARDEN CITY,+ID+83714&hl=en"
EAST CARBON P.D.,EAST CARBON POLICE DEPT.,101 W. GENEVA DR.,EAST CARBON,UT,84520,"http://maps.google.com/maps?q=101 W. GENEVA DR.,+EAST CARBON,+UT+84520&hl=en"
ELMORE COUNTY SHERIFF'S OFFICE,ELMORE COUNTY SHERIFF'S SUBSTATION,201 N. COMMERCIAL,GLENNS FERRY,ID,83623,"http://maps.google.com/maps?q=201 N. COMMERCIAL,+GLENNS FERRY,+ID+83623&hl=en"
EMMETT POLICE DEPT,EMMETT POLICE DEPT (INSIDE POLICE LOBBY),501 E MAIN ST,EMMETT,ID,83617,"http://maps.google.com/maps?q=501 E MAIN ST,+EMMETT,+ID+83617&hl=en"
FARMINGTON POLICE DEPARTMENT,SMITH'S FOOD & DRUG,1316 NORTH U.S. HIGHWAY 89,FARMINGTON,UT,84025,"http://maps.google.com/maps?q=1316 NORTH U.S. HIGHWAY 89,+FARMINGTON,+UT+84025&hl=en"
FILER POLICE DEPARTMENT,FILER POLICE DEPARTMENT,300 MAIN STREET,FILER,ID,83328,"http://maps.google.com/maps?q=300 MAIN STREET,+FILER,+ID+83328&hl=en"
GREEN RIVER POLICE DEPARTMENT,SMITH'S FOOD AND DRUG,905 BRIDGER DRIVE,GREEN RIVER,WY,82935,"http://maps.google.com/maps?q=905 BRIDGER DRIVE,+GREEN RIVER,+WY+82935&hl=en"
HILL AIR FORCE BASE,BX,7440 6TH STREET,HILL AFB,UT,84056,"http://maps.google.com/maps?q=7440 6TH STREET,+HILL AFB,+UT+84056&hl=en"
HILL AIR FORCE BASE,HILL AIR FORCE BASE COMMISSARY,7451 6TH STREET,HILL AFB,UT,84056,"http://maps.google.com/maps?q=7451 6TH STREET,+HILL AFB,+UT+84056&hl=en"
JACKSON POLICE DEPARTMENT,JACKSON POLICE DEPARTMENT,150 EAST PEARL AVENUE,JACKSON,WY,83001,"http://maps.google.com/maps?q=150 EAST PEARL AVENUE,+JACKSON,+WY+83001&hl=en"
JEFFERSON COUNTY SHERIFF'S OFFICE,JEFFERSON COUNTY SHERIFF'S OFFICE,200 COURTHOUSE WAY,RIGBY,ID,83442,"http://maps.google.com/maps?q=200 COURTHOUSE WAY,+RIGBY,+ID+83442&hl=en"
JOHNSON COUNTY SHERIFF'S OFFICE,JOHNSON COUNTY JUSTICE CENTER,639 FORT STREET,BUFFALO,WY,82834,"http://maps.google.com/maps?q=639 FORT STREET,+BUFFALO,+WY+82834&hl=en"
KIMBERLY-HANSEN POLICE DEPARTMENT,KIMBERLY-HANSEN CITY HALL,242 HWY 30,KIMBERLY,ID,83341,"http://maps.google.com/maps?q=242 HWY 30,+KIMBERLY,+ID+83341&hl=en"
LAYTON POLICE DEPARTMENT,SMITH'S FOOD & DRUG,1170 E. GENTILE ST.,LAYTON,UT,84040,"http://maps.google.com/maps?q=1170 E. GENTILE ST.,+LAYTON,+UT+84040&hl=en"
LEHI POLICE DEPARTMENT,MACEY'S SUPERMARKET,760 EAST MAIN,LEHI,UT,84043,"http://maps.google.com/maps?q=760 EAST MAIN,+LEHI,+UT+84043&hl=en"
LEMHI COUNTY SHERIFF'S OFFICE,STEELE MEMORIAL MEDICAL CENTER CLINIC,805 MAIN ST,SALMON,ID,83467,"http://maps.google.com/maps?q=805 MAIN ST,+SALMON,+ID+83467&hl=en"
LINDON POLICE DEPARTMENT,LINDON WALMART,585 NORTH STATE STREET,LINDON,UT,84042,"http://maps.google.com/maps?q=585 NORTH STATE STREET,+LINDON,+UT+84042&hl=en"
LOVELL POLICE DEPARTMENT,RED APPLE SUPERMARKET,9 E. MAIN ST.,LOVELL,WY,82431,"http://maps.google.com/maps?q=9 E. MAIN ST.,+LOVELL,+WY+82431&hl=en"
MADISON COUNTY SHERIFF'S OFFICE,FAT CATS,475 N. 2ND E,REXBURG,ID,83440,"http://maps.google.com/maps?q=475 N. 2ND E,+REXBURG,+ID+83440&hl=en"
MCCALL POLICE DEPT,ALBERTSONS PARKING LOT,132 E. LAKE ST,MCCALL,ID,83638,"http://maps.google.com/maps?q=132 E. LAKE ST,+MCCALL,+ID+83638&hl=en"
MERIDIAN POLICE DEPARTMENT,ST. LUKE'S MEDICAL CENTER,520 S EAGLE RD,MERIDIAN,ID,83642,"http://maps.google.com/maps?q=520 S EAGLE RD,+MERIDIAN,+ID+83642&hl=en"
MORGAN COUNTY SHERIFF'S OFFICE,RIDLEY'S FAMILY MARKET,275 N. 300 W.,MORGAN,UT,84050,"http://maps.google.com/maps?q=275 N. 300 W.,+MORGAN,+UT+84050&hl=en"
MT DOJ - DIVISION OF CRIMINAL INVESTIGATIONS,VALLEY DRUG,301 MAIN STREET,STEVENSVILLE,MT,59870,"http://maps.google.com/maps?q=301 MAIN STREET,+STEVENSVILLE,+MT+59870&hl=en"
NORTH OGDEN CITY POLICE,LEE'S MARKETPLACE,2645 N. 400 E.,NORTH OGDEN,UT,84414,"http://maps.google.com/maps?q=2645 N. 400 E.,+NORTH OGDEN,+UT+84414&hl=en"
NORTH OGDEN CITY POLICE,SMITH'S MARKET,2560 N. 400 E.,OGDEN,UT,84404,"http://maps.google.com/maps?q=2560 N. 400 E.,+OGDEN,+UT+84404&hl=en"
OGDEN POLICE DEPARTMENT,SMITH'S MARKET,1485 HARRISON BLVD,OGDEN,UT,84404,"http://maps.google.com/maps?q=1485 HARRISON BLVD,+OGDEN,+UT+84404&hl=en"
OREM POLICE DEPARTMENT,SMITH'S,45 S. STATE ST.,OREM,UT,84058,"http://maps.google.com/maps?q=45 S. STATE ST.,+OREM,+UT+84058&hl=en"
PAYSON POLICE DEPARTMENT,PAYSON MARKET,586 NORTH MAIN STREET,PAYSON,UT,84651,"http://maps.google.com/maps?q=586 NORTH MAIN STREET,+PAYSON,+UT+84651&hl=en"
PLEASANT GROVE POLICE DEPARTMENT,SMITH'S,210 E. 700 S.,PLEASANT GROVE,UT,84062,"http://maps.google.com/maps?q=210 E. 700 S.,+PLEASANT GROVE,+UT+84062&hl=en"
POWELL POLICE DEPARTMENT,POWELL POLICE DEPARTMENT,250 NORTH CLARK STREET,POWELL,WY,82435,"http://maps.google.com/maps?q=250 NORTH CLARK STREET,+POWELL,+WY+82435&hl=en"
PRESONT POLICE DEPARTMENT,PRESTON CITY OFFICE,70 W. ONEIDA,PRESTON,ID,83263,"http://maps.google.com/maps?q=70 W. ONEIDA,+PRESTON,+ID+83263&hl=en"
PROVO POLICE DEPARTMENT,SMITH'S FOOD AND DRUG,48 S. 300 W.,PROVO,UT,84601,"http://maps.google.com/maps?q=48 S. 300 W.,+PROVO,+UT+84601&hl=en"
RAWLINS POLICE DEPARTMENT,RAWLINS POLICE DEPARTMENT,215 5TH STREET,RAWLINS,WY,82301,"http://maps.google.com/maps?q=215 5TH STREET,+RAWLINS,+WY+82301&hl=en"
RCSO,RCSO,2025 SHIELD DRIVE,STEAMBOAT SPRINGS,CO,80487,"http://maps.google.com/maps?q=2025 SHIELD DRIVE,+STEAMBOAT SPRINGS,+CO+80487&hl=en"
REXBURG POLICE DEPARTMENT,MADISON SCHOOL DISTRICT OFFICE MADISON SCHOOL DISTRICT OFFICE,60 WEST MAIN STREET,REXBURG,ID,83440,"http://maps.google.com/maps?q=60 WEST MAIN STREET,+REXBURG,+ID+83440&hl=en"
ROOSEVELT CITY POLICE,IGA DAVIS JUBILEE GROCERY STORE,750 E. 200 N.,ROOSEVELT,UT,84066,"http://maps.google.com/maps?q=750 E. 200 N.,+ROOSEVELT,+UT+84066&hl=en"
ROY CITY POLICE,KENT'S MARKET,3535 W. 5600 S.,ROY,UT,84067,"http://maps.google.com/maps?q=3535 W. 5600 S.,+ROY,+UT+84067&hl=en"
SALT LAKE CITY POLICE DEPARTMENT,SLCPD PUBLIC SAFETY BUILDING,475 S. 300 E.,SALT LAKE CITY,UT,84114,"http://maps.google.com/maps?q=475 S. 300 E.,+SALT LAKE CITY,+UT+84114&hl=en"
SANDY CITY POLICE DEPARTMENT,SANDY POLICE DEPARTMENT,10000 SOUTH CENTENNIAL PARKWAY,SANDY,UT,84070,"http://maps.google.com/maps?q=10000 SOUTH CENTENNIAL PARKWAY,+SANDY,+UT+84070&hl=en"
SANTAQUIN CITY POLICE DEPT.,SANTAQUIN CITY POLICE DEPT,275 W. MAIN,SANTAQUIN,UT,84655,"http://maps.google.com/maps?q=275 W. MAIN,+SANTAQUIN,+UT+84655&hl=en"
SARATOGA SPRINGS POLICE DEPARTMENT,SMITH'S MARKETPLACE,689 NORTH REDWOOD ROAD,SARATOGA SPRINGS,UT,84045,"http://maps.google.com/maps?q=689 NORTH REDWOOD ROAD,+SARATOGA SPRINGS,+UT+84045&hl=en"
SHERIDAN POLICE DEPARTMENT,WALGREENS,1766 COFFEEN AVENUE,SHERIDAN,WY,82801,"http://maps.google.com/maps?q=1766 COFFEEN AVENUE,+SHERIDAN,+WY+82801&hl=en"
SOUTH JORDAN POLICE DEPARTMENT,SOUTH JORDAN POLICE DEPT/ CITY HALL,1600 WEST TOWNE CENTER DRIVE (10610 S),SOUTH JORDAN,UT,84095,"http://maps.google.com/maps?q=1600 WEST TOWNE CENTER DRIVE (10610 S),+SOUTH JORDAN,+UT+84095&hl=en"
SOUTH OGDEN CITY POLICE,SMITH'S MARKET,4275 HARRISON BLVD.,OGDEN,UT,84403,"http://maps.google.com/maps?q=4275 HARRISON BLVD.,+OGDEN,+UT+84403&hl=en"
SOUTH SALT LAKE POLICE DEPARTMENT,RITE AID,3250 S. 700 E.,SALT LAKE CITY,UT,84115,"http://maps.google.com/maps?q=3250 S. 700 E.,+SALT LAKE CITY,+UT+84115&hl=en"
SPANISH FORK POLICE DEPARTMENT,SPANISH FORK POLICE DEPARTMENT,789 W. CENTER ST.,SPANISH FORK,UT,84660,"http://maps.google.com/maps?q=789 W. CENTER ST.,+SPANISH FORK,+UT+84660&hl=en"
SPRINGVILLE POLICE DEPARTMENT,SPRINGVILLE CITY LIBRARY,45 SOUTH MAIN,SPRINGVILLE,UT,84663,"http://maps.google.com/maps?q=45 SOUTH MAIN,+SPRINGVILLE,+UT+84663&hl=en"
ST. ANTHONY POLICE DEPT,ST. ANTHONTY CITY HALL BUILDING,420 N BRIDGE ST,SAINT ANTHONY,ID,83445,"http://maps.google.com/maps?q=420 N BRIDGE ST,+SAINT ANTHONY,+ID+83445&hl=en"
SYRACUSE POLICE DEPARTMENT,SMITH'S FOOD AND DRUG,951 WEST 1700 SOUTH,SYRACUSE,UT,84075,"http://maps.google.com/maps?q=951 WEST 1700 SOUTH,+SYRACUSE,+UT+84075&hl=en"
TOOELE CITY POLICE DEPARTMENT,TOOELE CITY POLICE DEPARTMENT WAL-MART,1280 N. MAIN ST.,TOOELE,UT,84074,"http://maps.google.com/maps?q=1280 N. MAIN ST.,+TOOELE,+UT+84074&hl=en"
TOOELE COUNTY SHERIFF'S OFFICE,MACEYS,972 N. MAIN ST.,TOOELE,UT,84074,"http://maps.google.com/maps?q=972 N. MAIN ST.,+TOOELE,+UT+84074&hl=en"
UINTA COUNTY SHERIFF'S OFFICE,LYMAN HIGH SCHOOL,1305 E. CLARK,LYMAN,WY,82937,"http://maps.google.com/maps?q=1305 E. CLARK,+LYMAN,+WY+82937&hl=en"
UINTA COUNTY SHERIFF'S OFFICE,SMITH'S,70 YELLOW CREEK RD,EVANSTON,WY,82930,"http://maps.google.com/maps?q=70 YELLOW CREEK RD,+EVANSTON,+WY+82930&hl=en"
UINTAH COUNTY SHERIFF'S DEPARTMENT,WALMART PARKING LOT,1851 W. US-40,VERNAL,UT,84078,"http://maps.google.com/maps?q=1851 W. US-40,+VERNAL,+UT+84078&hl=en"
UNIFIED POLICE DEPARTMENT - TAYLORSVILLE,TAYLORSVILLE CITY HALL,2600 W TAYLORSVILLE BVD.,TAYLORSVILLE,UT,84129,"http://maps.google.com/maps?q=2600 W TAYLORSVILLE BVD.,+TAYLORSVILLE,+UT+84129&hl=en"
UNIFIED POLICE DEPT. MIDVALE PRECINCT,HILLCREST HIGH SCHOOL PARKING LOT,7350 S. 900 E.,MIDVALE,UT,84047,"http://maps.google.com/maps?q=7350 S. 900 E.,+MIDVALE,+UT+84047&hl=en"
UNIFIED POLICE-MILLCREEK,MILLCREEK COMMUNITY CENTER,2246 E. EVERGREEN AVE.,SALT LAKE CITY,UT,84124,"http://maps.google.com/maps?q=2246 E. EVERGREEN AVE.,+SALT LAKE CITY,+UT+84124&hl=en"
UNIVERSITY OF UTAH POLICE,UNIVERSITY OF UTAH POLICE DEPARTMENT,1735 E. SOUTH CAMPUS DR.,SALT LAKE CITY,UT,84112,"http://maps.google.com/maps?q=1735 E. SOUTH CAMPUS DR.,+SALT LAKE CITY,+UT+84112&hl=en"
WEBER COUNTY SHERIFF'S OFFICE,WEBER COUNTY SHERIFF'S OFFICE,721 W. 1200 S.,OGDEN,UT,84404,"http://maps.google.com/maps?q=721 W. 1200 S.,+OGDEN,+UT+84404&hl=en"
WEST JORDAN POLICE DEPARTMENT,SMITH'S,4080 W. 9000 S.,WEST JORDAN,UT,84081,"http://maps.google.com/maps?q=4080 W. 9000 S.,+WEST JORDAN,+UT+84081&hl=en"
WEST VALLEY POLICE DEPARTMENT,CVS PHARMACY,3148 W. 3500 S.,WEST VALLEY CITY,UT,84119,"http://maps.google.com/maps?q=3148 W. 3500 S.,+WEST VALLEY CITY,+UT+84119&hl=en"
WOODS CROSS POLICE DEPARTMENT,WOODS CROSS POLICE DEPARTMENT,1555 SOUTH 800 WEST,WOODS CROSS,UT,84087,"http://maps.google.com/maps?q=1555 SOUTH 800 WEST,+WOODS CROSS,+UT+84087&hl=en"
