Participant,CollectionSite,Address,City,State,Zip,MapURL
ALMA POLICE DEPARTMENT,ALMA POLICE DEPARTMENT PERMANENT DROP BOX,804 FAYETTEVILLE AVE,ALMA,AR,72921,"http://maps.google.com/maps?q=804 FAYETTEVILLE AVE,+ALMA,+AR+72921&hl=en"
ANDERSON COUNTY SHERIFF,ANDERSON COUNTY SHERIFF,135 E 85TH AVE,GARNETT,KS,66032,"http://maps.google.com/maps?q=135 E 85TH AVE,+GARNETT,+KS+66032&hl=en"
ANDOVER POLICE DEPARTMENT,WALGREENS,440 N ANDOVER RD,ANDOVER,KS,67002,"http://maps.google.com/maps?q=440 N ANDOVER RD,+ANDOVER,+KS+67002&hl=en"
AUGUSTA DEPT. OF PUBLIC SAFETY,AUGUSTA DEPT. OF PUBLIC SAFETY,2100 N. OHIO,AUGUSTA,KS,67010,"http://maps.google.com/maps?q=2100 N. OHIO,+AUGUSTA,+KS+67010&hl=en"
BARTLESVILLE OKLAHOMA PD,BARTLESVILLE PD,615 S JOHNSTONE AVE,BARTLESVILLE,OK,74003,"http://maps.google.com/maps?q=615 S JOHNSTONE AVE,+BARTLESVILLE,+OK+74003&hl=en"
BARTLESVILLE OKLAHOMA PD,FIRE STATION NO. 3,100 SE MADISON BLVD,BARTLESVILLE,OK,74006,"http://maps.google.com/maps?q=100 SE MADISON BLVD,+BARTLESVILLE,+OK+74006&hl=en"
BARTLESVILLE OKLAHOMA PD,FIRE STATION NO. 4,3501 SE PRICE RD,BARTLESVILLE,OK,74006,"http://maps.google.com/maps?q=3501 SE PRICE RD,+BARTLESVILLE,+OK+74006&hl=en"
BEGGS POLICE DEPARTMENT,BEGGS POLICE DEPARTMENT,108 N. BROADWAY,BEGGS,OK,74421,"http://maps.google.com/maps?q=108 N. BROADWAY,+BEGGS,+OK+74421&hl=en"
BEL AIRE POLICE DEPARTMENT,BEL AIRE POLICE DEPARTMENT,7651 E. CENTRAL PARK AVE.,WICHITA,KS,67226,"http://maps.google.com/maps?q=7651 E. CENTRAL PARK AVE.,+WICHITA,+KS+67226&hl=en"
BELLA VISTA POLICE DEPARTMENT,BELLA VISTA POLICE DEPARTMENT PERMANENT DROP BOX,105 TOWN CENTER,BELLA VISTA,AR,72714,"http://maps.google.com/maps?q=105 TOWN CENTER,+BELLA VISTA,+AR+72714&hl=en"
BELLE PLAINE POLICE DEPARTMENT,BELLE PLAINE POLICE DEPARTMENT,419 N. LOGAN ST,CONWAY SPRINGS,KS,67031,"http://maps.google.com/maps?q=419 N. LOGAN ST,+CONWAY SPRINGS,+KS+67031&hl=en"
BELLE PLAINE POLICE DEPARTMENT,CONWAY SPRINGS POLICE DEPARTMENT,310 W SPRING AVE,CONWAY SPRINGS,KS,67031,"http://maps.google.com/maps?q=310 W SPRING AVE,+CONWAY SPRINGS,+KS+67031&hl=en"
BELLE PLAINE POLICE DEPARTMENT,OXFORD POLICE DEPARTMENT,121 S. SUMMER,OXFORD,KS,67119,"http://maps.google.com/maps?q=121 S. SUMMER,+OXFORD,+KS+67119&hl=en"
BELLE PLAINE POLICE DEPARTMENT,WELLINGTON POLICE DEPARTMENT,"200 N. C, STE 100",WELLINGTON,KS,67152,"http://maps.google.com/maps?q=200 N. C, STE 100,+WELLINGTON,+KS+67152&hl=en"
BENTON COUNTY SHERIFF'S OFFICE,BENTON COUNTY SHERIFF'S OFFICE PERMANENT DROP BOX,1300 SW 14TH STREET,BENTONVILLE,AR,72712,"http://maps.google.com/maps?q=1300 SW 14TH STREET,+BENTONVILLE,+AR+72712&hl=en"
BIA CONCHO AGENCY,B.I.A CONCHO AGENCY,1621 B EAST HIGHWAY 66,EL RENO,OK,73036,"http://maps.google.com/maps?q=1621 B EAST HIGHWAY 66,+EL RENO,+OK+73036&hl=en"
BIA-OFFICE OF JUSTICE SERVICES,BIA-ANADARKO AGENCY,124 E PARKER MCKENZIE DR,ANADARKO,OK,73005,"http://maps.google.com/maps?q=124 E PARKER MCKENZIE DR,+ANADARKO,+OK+73005&hl=en"
BIA-OJS PAWNEE PONCA TRIBE OF OK,BIA POLICE DEPARTMENT,123 WHITE EAGLE DR,PONCA CITY,OK,74601,"http://maps.google.com/maps?q=123 WHITE EAGLE DR,+PONCA CITY,+OK+74601&hl=en"
BOONEVILLE POLICE DEPARTMENT,BOONEVILLE POLICE DEPARTMENT PERMANENT DROP BOX,497 EAST MAIN ST.,BOONEVILLE,AR,72927,"http://maps.google.com/maps?q=497 EAST MAIN ST.,+BOONEVILLE,+AR+72927&hl=en"
BOURBON COUNTY SHERIFF'S OFFICE,MERCY CONVENIENT CARE,1624 S. NATIONAL,FORT SCOTT,KS,66701,"http://maps.google.com/maps?q=1624 S. NATIONAL,+FORT SCOTT,+KS+66701&hl=en"
BUTLER POLICE DEPARTMENT,BATES COUNTY HEALTH DEPARTMENT,501 N ORANGE,BUTLER,MO,64730,"http://maps.google.com/maps?q=501 N ORANGE,+BUTLER,+MO+64730&hl=en"
CARL JUNCTION POLICE DEPARTMENT,CARL JUNCTION POLICE DEPARTMENT,302 N MAIN,CARL JUNCTION,MO,64834,"http://maps.google.com/maps?q=302 N MAIN,+CARL JUNCTION,+MO+64834&hl=en"
CASSVILLE POLICE DEPARTMENT,CITY HALL/CASSVILLE POLICE DEPT,300 MAIN STREET,CASSVILLE,MO,65625,"http://maps.google.com/maps?q=300 MAIN STREET,+CASSVILLE,+MO+65625&hl=en"
CEDAR COUNTY SHERIFF'S OFFICE,ZUMWALT PHARMACY,19 PUBLIC SQUARE,STOCKTON,MO,65785,"http://maps.google.com/maps?q=19 PUBLIC SQUARE,+STOCKTON,+MO+65785&hl=en"
CENTERTON POLICE DEPARTMENT,CENTERTON POLICE DEPARTMENT PERMANENT DROP BOX,220 MUNICIPAL DR,CENTERTON,AR,72719,"http://maps.google.com/maps?q=220 MUNICIPAL DR,+CENTERTON,+AR+72719&hl=en"
CHANUTE POLICE DEPT,MEDICINE SHOPPE,421 W. MAIN,CHANUTE,KS,66720,"http://maps.google.com/maps?q=421 W. MAIN,+CHANUTE,+KS+66720&hl=en"
CHENEY POLICE DEPT.,FIRE STATION,525 N MAIN,CHENEY,KS,67025,"http://maps.google.com/maps?q=525 N MAIN,+CHENEY,+KS+67025&hl=en"
CHEROKEE COUNTY SHERIFF'S OFFICE,APPLE MARKET,103 NORTH EAST AVENUE,COLUMBUS,KS,66725,"http://maps.google.com/maps?q=103 NORTH EAST AVENUE,+COLUMBUS,+KS+66725&hl=en"
CHEROKEE COUNTY SHERIFF'S OFFICE,GALENA CITY HALL,211 WEST 7TH STREET,GALENA,KS,66739,"http://maps.google.com/maps?q=211 WEST 7TH STREET,+GALENA,+KS+66739&hl=en"
CHEROKEE COUNTY SHERIFF'S OFFICE,MARVINS IGA,1400 MILITARY AVENUE,BAXTER SPRINGS,KS,66713,"http://maps.google.com/maps?q=1400 MILITARY AVENUE,+BAXTER SPRINGS,+KS+66713&hl=en"
CHEROKEE NATION MARSHAL SERVICE,CHEROKEE NATION MARSHAL SERVICE,22114 S BALDHILL RD,TAHLEQUAH,OK,74465,"http://maps.google.com/maps?q=22114 S BALDHILL RD,+TAHLEQUAH,+OK+74465&hl=en"
COMANCHE NATION POLICE DEPT,COMANCHE NATION POLICE DEPT,8527 NW MADISCHE RD,LAWTON,OK,73502,"http://maps.google.com/maps?q=8527 NW MADISCHE RD,+LAWTON,+OK+73502&hl=en"
COWLEY COUNTY SHERIFF'S OFFICE,COWLEY COUNTY SHERIFF'S OFFICE,911 FULLER ST,WINFIELD,KS,67156,"http://maps.google.com/maps?q=911 FULLER ST,+WINFIELD,+KS+67156&hl=en"
CRAIG COUNTY SO,CRAIG COUNTY SHERIFFS OFFICE,210 W. DELAWARE AVE #101,VINITA,OK,74301,"http://maps.google.com/maps?q=210 W. DELAWARE AVE #101,+VINITA,+OK+74301&hl=en"
CRAWFORD COUNTY SHERIFF'S OFFICE,CRAWFORD COUNTY JUSTICE CENTER PERMANENT DROP BOX,4235 ALMA HWY,VAN BUREN,AR,72956,"http://maps.google.com/maps?q=4235 ALMA HWY,+VAN BUREN,+AR+72956&hl=en"
DADE COUNTY SHERIFF,GREENFIELD PHARMACY,105 SOUTH GRANDE,GREENFIELD,MO,65661,"http://maps.google.com/maps?q=105 SOUTH GRANDE,+GREENFIELD,+MO+65661&hl=en"
DADE COUNTY SHERIFF,MFA OIL,401 MAIN STREET,LOCKWOOD,MO,65682,"http://maps.google.com/maps?q=401 MAIN STREET,+LOCKWOOD,+MO+65682&hl=en"
DEA TULSA RESIDENT OFFICE,NEWS ON 6,303 N. BOSTON AVENUE,TULSA,OK,74103,"http://maps.google.com/maps?q=303 N. BOSTON AVENUE,+TULSA,+OK+74103&hl=en"
DERBY POLICE DEPARTMENT,DERBY POLICE DEPARTMENT,229 N. BALTIMORE,DERBY,KS,67037,"http://maps.google.com/maps?q=229 N. BALTIMORE,+DERBY,+KS+67037&hl=en"
EL DORADO POLICE DEPARTMENT,WALMART,301 S. VILLAGE RD,EL DORADO,KS,67042,"http://maps.google.com/maps?q=301 S. VILLAGE RD,+EL DORADO,+KS+67042&hl=en"
EL DORADO SPRINGS POLICE DEPARTMENT,EL DORADO SPRINGS POLICE DEPT POLICE STATION,1207 SOUTH MAIN STREET,EL DORADO SPRINGS,MO,64744,"http://maps.google.com/maps?q=1207 SOUTH MAIN STREET,+EL DORADO SPRINGS,+MO+64744&hl=en"
ELKINS POLICE DEPARTMENT,ELKINS POLICE DEPARTMENT PERMANENT DROP BOX,1874 STOKENBURY ROAD,ELKINS,AR,72727,"http://maps.google.com/maps?q=1874 STOKENBURY ROAD,+ELKINS,+AR+72727&hl=en"
EUREKA SPRINGS POLICE DEPARTMENT,EUREKA SPRINGS POLICE DEPARTMENT PERMANENT DROP BOX,147 PASSION PLAY ROAD,EUREKA SPRINGS,AR,72632,"http://maps.google.com/maps?q=147 PASSION PLAY ROAD,+EUREKA SPRINGS,+AR+72632&hl=en"
FARMINGTON POLICE DEPARTMENT,FARMINGTON POLICE DEPARTMENT PERMANENT DROP BOX,354 WEST MAIN,FARMINGTON,AR,72730,"http://maps.google.com/maps?q=354 WEST MAIN,+FARMINGTON,+AR+72730&hl=en"
FAYETTEVILLE POLICE DEPARTMENT,HARPS MARKETPLACE #124,1274 N. COLORADO DR,FAYETTEVILLE,AR,72704,"http://maps.google.com/maps?q=1274 N. COLORADO DR,+FAYETTEVILLE,+AR+72704&hl=en"
FORT SMITH POLICE DEPARTMENT,FORT SMITH POLICE DEPARTMENT PERMANENT DROP BOX,100 SOUTH 10TH STREET,FORT SMITH,AR,72901,"http://maps.google.com/maps?q=100 SOUTH 10TH STREET,+FORT SMITH,+AR+72901&hl=en"
FRANKLIN COUNTY SHERIFF'S OFFICE,FRANKLIN COUNTY SHERIFF'S OFFICE PERMANENT DROP BOX,101 WEST MAIN STREET,OZARK,AR,72949,"http://maps.google.com/maps?q=101 WEST MAIN STREET,+OZARK,+AR+72949&hl=en"
GENTRY POLICE DEPARTMENT,GENTRY POLICE DEPARTMENT PERMANENT DROP BOX,628 E. THIRD ST.,GENTRY,AR,72734,"http://maps.google.com/maps?q=628 E. THIRD ST.,+GENTRY,+AR+72734&hl=en"
GODDARD POLICE DEPARTMENT,GODDARD CITY HALL/POLICE DEPARTMENT,118 N MAIN ST,GODDARD,KS,67052,"http://maps.google.com/maps?q=118 N MAIN ST,+GODDARD,+KS+67052&hl=en"
GRANBY POLICE DEPARTMENT,GRANBY COMMUNITY BUILDING,147 E. CHURCH ST,GRANBY,MO,64844,"http://maps.google.com/maps?q=147 E. CHURCH ST,+GRANBY,+MO+64844&hl=en"
GRAVETTE POLICE DEPARTMENT,GRAVETTE POLICE DEPARTMENT PERMANENT DROP BOX,606 1ST AVE SE,GRAVETTE,AR,72736,"http://maps.google.com/maps?q=606 1ST AVE SE,+GRAVETTE,+AR+72736&hl=en"
GREENWOOD POLICE DEPARTMENT,GREENWOOD POLICE DEPARTMENT PERMANENT DROP BOX,250 OLD HACKETT RD,GREENWOOD,AR,72936,"http://maps.google.com/maps?q=250 OLD HACKETT RD,+GREENWOOD,+AR+72936&hl=en"
GREENWOOD POLICE DEPARTMENT,WAL-MART,551 LIBERTY DRIVE,GREENWOOD,AR,72936,"http://maps.google.com/maps?q=551 LIBERTY DRIVE,+GREENWOOD,+AR+72936&hl=en"
HARVEY COUNTY SHERIFF'S OFFICE,HARVEY COUNTY SHERIFF'S OFFICE,120 E 7TH,NEWTON,KS,67114,"http://maps.google.com/maps?q=120 E 7TH,+NEWTON,+KS+67114&hl=en"
HAYSVILLE POLICE DEPARTMENT,HAYSVILLE PD,200 W. GRAND,HAYSVILLE,KS,67060,"http://maps.google.com/maps?q=200 W. GRAND,+HAYSVILLE,+KS+67060&hl=en"
HENRY COUNTY SHERIFF'S OFFICE,SUMMERS PHARMACY OUT FRONT,605 PAWNEE,CLINTON,MO,64735,"http://maps.google.com/maps?q=605 PAWNEE,+CLINTON,+MO+64735&hl=en"
HILLSBORO POLICE DEPARTMENT,HILLSBORO POLICE DEPARTMENT,414 N. ASH ST.,HILLSBORO,KS,67063,"http://maps.google.com/maps?q=414 N. ASH ST.,+HILLSBORO,+KS+67063&hl=en"
HUTCHINSON POLICE DEPARTMENT,HUTCHINSON CLINIC,2101 N. WALDRON ST,HUTCHINSON,KS,67502,"http://maps.google.com/maps?q=2101 N. WALDRON ST,+HUTCHINSON,+KS+67502&hl=en"
JASPER COUNTY SHERIFF'S OFFICE,JASPER COUNTY COURTHOUSE,601 PEARL AVE,JOPLIN,MO,64801,"http://maps.google.com/maps?q=601 PEARL AVE,+JOPLIN,+MO+64801&hl=en"
JOHNSON POLICE DEPARTMENT,JOHNSON POLICE DEPARTMENT,2904 MAIN DRIVE,JOHNSON,AR,72741,"http://maps.google.com/maps?q=2904 MAIN DRIVE,+JOHNSON,+AR+72741&hl=en"
JOPLIN POLICE DEPARTMENT,MEDICINE SHOP PARKING LOT,2131 E. 32ND STREET,JOPLIN,MO,64804,"http://maps.google.com/maps?q=2131 E. 32ND STREET,+JOPLIN,+MO+64804&hl=en"
KINGMAN COUNTY SHERIFF'S OFFICE,CUNNINGHAM CLINIC,112 N. MAIN STREET,CUNNINGHAM,KS,67035,"http://maps.google.com/maps?q=112 N. MAIN STREET,+CUNNINGHAM,+KS+67035&hl=en"
KINGMAN COUNTY SHERIFF'S OFFICE,KINGMAN LAW ENFORCEMENT CENTER,120 N. SPRUCE STREET,KINGMAN,KS,67068,"http://maps.google.com/maps?q=120 N. SPRUCE STREET,+KINGMAN,+KS+67068&hl=en"
LA CYGNE POLICE DEPARTMENT,CITY HALL,206 N. COMMERCIAL ST,LACYGNE,KS,66040,"http://maps.google.com/maps?q=206 N. COMMERCIAL ST,+LACYGNE,+KS+66040&hl=en"
LAMAR POLICE DEPARTMENT,LAMAR CITY COMPLEX BUILDING FRONT OF BLDG.,505 SOUTH MAIN ST.,LAMAR,CO,81052,"http://maps.google.com/maps?q=505 SOUTH MAIN ST.,+LAMAR,+CO+81052&hl=en"
LARNED POLICE DEPARTMENT,LARNED POLICE DEPARTMENT,419 BROADWAY,LARNED,KS,67550,"http://maps.google.com/maps?q=419 BROADWAY,+LARNED,+KS+67550&hl=en"
LAVACA POLICE DEPARTMENT,LAVACA POLICE DEPARTMENT PERMANENT DROP BOX,104 SOUTH DAVIS STREET,LAVACA,AR,72941,"http://maps.google.com/maps?q=104 SOUTH DAVIS STREET,+LAVACA,+AR+72941&hl=en"
LITTLE FLOCK POLICE DEPARTMENT,LITTLE FLOCK POLICE DEPARTMENT PERMANENT DROP BOX,1500 LITTLE FLOCK DR.,ROGERS,AR,72756,"http://maps.google.com/maps?q=1500 LITTLE FLOCK DR.,+ROGERS,+AR+72756&hl=en"
LOGAN COUNTY SHERIFF'S OFFICE,LOGAN POLICE DEPARTMENT PERMANENT DROP BOX,508 W. GROBER ST,PARIS,AR,72855,"http://maps.google.com/maps?q=508 W. GROBER ST,+PARIS,+AR+72855&hl=en"
LOWELL POLICE DEPARTMENT,LOWELL POLICE DEPARTMENT,216 NORTH LINCOLN STREETPERMANENT DROP BOX,LOWELL,AR,72745,"http://maps.google.com/maps?q=216 NORTH LINCOLN STREET,+LOWELL,+AR+72745&hl=en"
MADISON COUNTY SHERIFF'S DEPARTMENT,MADISON COUNTY SHERIFF'S OFFICE PERMANENT DROP BOX,201 WEST MAIN STREET,HUNTSVILLE,AR,72740,"http://maps.google.com/maps?q=201 WEST MAIN STREET,+HUNTSVILLE,+AR+72740&hl=en"
MISSOURI SOUTHERN STATE UNIV POLICE DEPT,MSSU PD,726 N. MISSION HILLS DRIVE,JOPLIN,MO,64801,"http://maps.google.com/maps?q=726 N. MISSION HILLS DRIVE,+JOPLIN,+MO+64801&hl=en"
MONETT POLICE DEPARTMENT,BRUNER'S PHARMACY,321 EAST BROADWAY,MONETT,MO,65708,"http://maps.google.com/maps?q=321 EAST BROADWAY,+MONETT,+MO+65708&hl=en"
MONETT POLICE DEPARTMENT,MONETT POLICE DEPARTMENT,1901 EAST CLEVELAND AVE,MONETT,MO,65708,"http://maps.google.com/maps?q=1901 EAST CLEVELAND AVE,+MONETT,+MO+65708&hl=en"
MORTON COUNTY LAW ENFORCEMENT CENTER,MORTON COUNTY LAW ENFORCEMENT CENTER,1026 RICHARD STREET,ELKHART,KS,67950,"http://maps.google.com/maps?q=1026 RICHARD STREET,+ELKHART,+KS+67950&hl=en"
MOUNDS PD,MOUNDS CITY HALL,1317 COMMERCIAL AVE,MOUNDS,OK,74047,"http://maps.google.com/maps?q=1317 COMMERCIAL AVE,+MOUNDS,+OK+74047&hl=en"
MOUNT VERNON POLICE DEPARTMENT,CITY OF MOUNT VERNON,319 EAST DALLAS,MOUNT VERNON,MO,65712,"http://maps.google.com/maps?q=319 EAST DALLAS,+MOUNT VERNON,+MO+65712&hl=en"
MOUNTAINBURG POLICE DEPARTMENT,MOUNTAINBURG POLICE DEPARTMENT PERMANENT DROP BOX,101 HWY 71 NW,MOUNTAINBURG,AR,72946,"http://maps.google.com/maps?q=101 HWY 71 NW,+MOUNTAINBURG,+AR+72946&hl=en"
MULBERRY POLICE DEPARTMENT,MULBERRY CITY COMPLEX PERMANENT DROP BOX,207 N. MAIN STREET,MULBERRY,AR,72947,"http://maps.google.com/maps?q=207 N. MAIN STREET,+MULBERRY,+AR+72947&hl=en"
NEOSHO POLICE DEPARTMENT,WILDCAT CORNER,817 S NEOSHO BLVD,NEOSHO,MO,64850,"http://maps.google.com/maps?q=817 S NEOSHO BLVD,+NEOSHO,+MO+64850&hl=en"
NEVADA POLICE DEPT,NEVADA POLICE DEPT,120 SOUTH ASH STEEET,NEVADA,MO,64772,"http://maps.google.com/maps?q=120 SOUTH ASH STEEET,+NEVADA,+MO+64772&hl=en"
NEWTON COUNTY SHERIFF'S OFFICE,NEWTON COUNTY SHERIFF'S OFFICE,208 W. COLER ST.,NEOSHO,MO,64850,"http://maps.google.com/maps?q=208 W. COLER ST.,+NEOSHO,+MO+64850&hl=en"
NORTHEASTERN STATE UNIVERSITY POLICE,NORTHEASTERN HEALTH SYSTEMS TAHLEQUAH,1400 EAST DOWNING,TAHLEQUAH,OK,74464,"http://maps.google.com/maps?q=1400 EAST DOWNING,+TAHLEQUAH,+OK+74464&hl=en"
OKLAHOMA BAPTIST UNIVERSITY PD,OKLAHOMA BAPTIST UNIVERSITY,500 W. UNIVERSITY ST.,SHAWNEE,OK,74804,"http://maps.google.com/maps?q=500 W. UNIVERSITY ST.,+SHAWNEE,+OK+74804&hl=en"
OKLAHOMA BUREAU OF NARCOTICS/CARXE COALITION,CASH SAVER STORE,4129 SE 29TH STREET,DEL CITY,OK,73115,"http://maps.google.com/maps?q=4129 SE 29TH STREET,+DEL CITY,+OK+73115&hl=en"
OKLAHOMA BUREAU OF NARCOTICS/CARXE COALITION,HOMELAND STORE,1108 NW 18TH STREET,OKLAHOMA CITY,OK,73106,"http://maps.google.com/maps?q=1108 NW 18TH STREET,+OKLAHOMA CITY,+OK+73106&hl=en"
OKLAHOMA BUREAU OF NARCOTICS/CARXE COALITION,HOMELAND STORE,9225 NORTH MAY AVENUE,OKLAHOMA CITY,OK,73120,"http://maps.google.com/maps?q=9225 NORTH MAY AVENUE,+OKLAHOMA CITY,+OK+73120&hl=en"
OKLAHOMA COUNTY SO,MWC SUBSTATION,8029 SE 29TH,MIDWEST CITY,OK,73110,"http://maps.google.com/maps?q=8029 SE 29TH,+MIDWEST CITY,+OK+73110&hl=en"
OSAGE NATION PD,OSAGE NATION POLICE DEPARTMENT,1071 GRANDVIEW LANE,PAWHUSKA,OK,74056,"http://maps.google.com/maps?q=1071 GRANDVIEW LANE,+PAWHUSKA,+OK+74056&hl=en"
OTOE MISSOURIA TRIBAL PD,OTOE MISSOURIA POLICE DEPARTMENT,22915 OTOE CEMETERY RD,RED ROCK,OK,74651,"http://maps.google.com/maps?q=22915 OTOE CEMETERY RD,+RED ROCK,+OK+74651&hl=en"
OZARK POLICE DEPARTMENT,OZARK POLICE DEPARTMENT PERMANENT DROP BOX,200 SOUTH 4TH STREET,OZARK,AR,72949,"http://maps.google.com/maps?q=200 SOUTH 4TH STREET,+OZARK,+AR+72949&hl=en"
PARIS POLICE DEPARTMENT,PARIS POLICE DEPARTMENT PERMANENT DROP BOX,1810 EAST WALNUT STREET,PARIS,AR,72855,"http://maps.google.com/maps?q=1810 EAST WALNUT STREET,+PARIS,+AR+72855&hl=en"
PEA RIDGE POLICE DEPARTMENT,PEA RIDGE POLICE DEPARTMENT PERMANENT DROP BOX,187 SLACK ST.,PEA RIDGE,AR,72751,"http://maps.google.com/maps?q=187 SLACK ST.,+PEA RIDGE,+AR+72751&hl=en"
PITTSBURG KANSAS POLICE DEPT.,PITTSBURG POLICE DEPARTMENT,201 N. PINE ST.,PITTSBURG,KS,66762,"http://maps.google.com/maps?q=201 N. PINE ST.,+PITTSBURG,+KS+66762&hl=en"
POLK COUNTY SHERIFF'S OFFICE,POLK COUNTY SHERIFF'S OFFICE PERMANENT DROP BOX,507 CHURCH AVE,MENA,AR,71953,"http://maps.google.com/maps?q=507 CHURCH AVE,+MENA,+AR+71953&hl=en"
POTTER COUNTY SO,POTTER COUNTY SHERIFF'S OFFICE,608 S. PIERCE,AMARILLO,TX,79101,"http://maps.google.com/maps?q=608 S. PIERCE,+AMARILLO,+TX+79101&hl=en"
PRAIRIE GROVE POLICE DEPARTMENT,HARPS FOOD STORE #125,319 E. BUCHANAN ST.,PRAIRIE GROVE,AR,72753,"http://maps.google.com/maps?q=319 E. BUCHANAN ST.,+PRAIRIE GROVE,+AR+72753&hl=en"
PRAIRIE GROVE POLICE DEPARTMENT,PRAIRIE GROVE POLICE DEPARTMENT,955 E. DOUGLAS ST.#1,PRAIRIE GROVE,AR,72753,"http://maps.google.com/maps?q=955 E. DOUGLAS ST.,+PRAIRIE GROVE,+AR+72753&hl=en"
PUEBLO POLICE DEPARTMENT,PUEBLO POLICE DEPARTMENT PARKING LOT,200 SOUTH MAIN ST.,PUEBLO,CO,81003,"http://maps.google.com/maps?q=200 SOUTH MAIN ST.,+PUEBLO,+CO+81003&hl=en"
PUEBLO SHERIFF'S OFFICE,PUEBLO COUNTY SHERIFF OFFICE WEST SUB STATION,320 JOE MARTINEZ BLVD,PUEBLO,CO,81003,"http://maps.google.com/maps?q=320 JOE MARTINEZ BLVD,+PUEBLO,+CO+81003&hl=en"
PUEBLO SHERIFF'S OFFICE,PUEBLO RURAL FIRE DEPARTMENT,29912 HIGHWAY 50 EAST,PUEBLO,CO,81001,"http://maps.google.com/maps?q=29912 HIGHWAY 50 EAST,+PUEBLO,+CO+81001&hl=en"
PUEBLO SHERIFF'S OFFICE,SOUTH COUNTY FIRE STATION,4495 BENT BROTHERS,PUEBLO,CO,81003,"http://maps.google.com/maps?q=4495 BENT BROTHERS,+PUEBLO,+CO+81003&hl=en"
ROGERS POLICE DEPARTMENT,MERCY CLINIC,3101 SE 14TH STREET,BENTONVILLE,AR,72712,"http://maps.google.com/maps?q=3101 SE 14TH STREET,+BENTONVILLE,+AR+72712&hl=en"
ROGERS POLICE DEPARTMENT,ROGERS POLICE DEPARTMENT PERMANENT DROP BOX,1905 S. DIXIELAND,ROGERS,AR,72758,"http://maps.google.com/maps?q=1905 S. DIXIELAND,+ROGERS,+AR+72758&hl=en"
ROSE HILL POLICE DEPARTMENT,ROSE HILL POLICE DEPARTMENT,125 W ROSEWOOD ST,ROSE HILL,KS,67133,"http://maps.google.com/maps?q=125 W ROSEWOOD ST,+ROSE HILL,+KS+67133&hl=en"
SAPULPA POLICE DEPARTMENT,SAPULPA POLICE DEPARTMENT,20 N. WALNUT ST.,SAPULPA,OK,74066,"http://maps.google.com/maps?q=20 N. WALNUT ST.,+SAPULPA,+OK+74066&hl=en"
SEBASTIAN COUNTY SHERIFF'S OFFICE,ECONOMY FEED & TRAILER,11318 HWY 71 S.,FORT SMITH,AR,72916,"http://maps.google.com/maps?q=11318 HWY 71 S.,+FORT SMITH,+AR+72916&hl=en"
SEBASTIAN COUNTY SHERIFF'S OFFICE,SEBASTIAN COUNTY SHERIFF'S OFFICE PERMANENT DROP BOX,800 SOUTH A STREET,FORT SMITH,AR,72901,"http://maps.google.com/maps?q=800 SOUTH A STREET,+FORT SMITH,+AR+72901&hl=en"
SEDGWICK COUNTY SHERIFF'S OFFICE,HOUSEHOLD HAZARDOUS WASTE,801 W. STILLWELL,WICHITA,KS,67213,"http://maps.google.com/maps?q=801 W. STILLWELL,+WICHITA,+KS+67213&hl=en"
SEDGWICK COUNTY SHERIFF'S OFFICE,OAKLAWN ACTIVITY CENTER,4900 SOUTH CLIFTON,WICHITA,KS,67203,"http://maps.google.com/maps?q=4900 SOUTH CLIFTON,+WICHITA,+KS+67203&hl=en"
SEDGWICK COUNTY SHERIFF'S OFFICE,SEDGWICK COUNTY ZOO,5500 W. ZOO BLVD.,WICHITA,KS,67212,"http://maps.google.com/maps?q=5500 W. ZOO BLVD.,+WICHITA,+KS+67212&hl=en"
SHAWNEE PD,SHAWNEE SENIOR CENTER,401 N. BELL,SHAWNEE,OK,74801,"http://maps.google.com/maps?q=401 N. BELL,+SHAWNEE,+OK+74801&hl=en"
SILOAM SPRINGS POLICE DEPARTMENT,SILOAM SPRINGS POLICE DEPARTMENT CRAFT FESTIVAL BOOTH,110 NORTH MT. OLIVE STREET,SILOAM SPRINGS,AR,72761,"http://maps.google.com/maps?q=110 NORTH MT. OLIVE STREET,+SILOAM SPRINGS,+AR+72761&hl=en"
SILOAM SPRINGS POLICE DEPARTMENT,SILOAM SPRINGS POLICE DEPARTMENT PERMANENT DROP BOX,100 US HIGHWAY 412 W.,SILOAM SPRINGS,AR,72761,"http://maps.google.com/maps?q=100 US HIGHWAY 412 W.,+SILOAM SPRINGS,+AR+72761&hl=en"
SOUTH HUTCHINSON POLICE DEPARTMENT,SOUTH HUTCHINSON POLICE DEPARTMENT,10 E BLANCHARD AVE,SOUTH HUTCHINSON,KS,67505,"http://maps.google.com/maps?q=10 E BLANCHARD AVE,+SOUTH HUTCHINSON,+KS+67505&hl=en"
SPRINGDALE POLICE DEPARTMENT,HARPS FOOD STORES,918 SOUTH GUTENSOHN ROAD,SPRINGDALE,AR,72764,"http://maps.google.com/maps?q=918 SOUTH GUTENSOHN ROAD,+SPRINGDALE,+AR+72764&hl=en"
SPRINGDALE POLICE DEPARTMENT,SPRINGDALE POLICE DEPARTMENT PERMANENT DROP BOX,201 N. SPRING ST.,SPRINGDALE,AR,72764,"http://maps.google.com/maps?q=201 N. SPRING ST.,+SPRINGDALE,+AR+72764&hl=en"
ST. CLAIR COUNTY JAIL,ST. CLAIR COUNTY JAIL,360 CHESTNUT ST,OSCEOLA,MO,64776,"http://maps.google.com/maps?q=360 CHESTNUT ST,+OSCEOLA,+MO+64776&hl=en"
TULSA COUNTY SHERIFF'S OFFICE,TULSA CRIME STOPPERS PROMENADE MALL,"4107 S YALE AVE, SUITE 142",TULSA,OK,74135,"http://maps.google.com/maps?q=4107 S YALE AVE, SUITE 142,+TULSA,+OK+74135&hl=en"
TULSA PD,MET EAST TULSA,12466 E 21ST ST,TULSA,OK,74129,"http://maps.google.com/maps?q=12466 E 21ST ST,+TULSA,+OK+74129&hl=en"
TULSA PD,PATRICK HENRY ELEMENTARY,3820 E. 41ST ST,TULSA,OK,74135,"http://maps.google.com/maps?q=3820 E. 41ST ST,+TULSA,+OK+74135&hl=en"
UNIVERSITY OF ARKANSAS POLICE DEPARTMENT,UNIVERSITY OF ARKANSAS,155 S. RAZORBACK ROAD,FAYETTEVILLE,AR,72701,"http://maps.google.com/maps?q=155 S. RAZORBACK ROAD,+FAYETTEVILLE,+AR+72701&hl=en"
VAN BUREN POLICE DEPARTMENT,VAN BUREN POLICE DEPARTMENT PERMANENT DROP BOX,111 S. 11TH ST.,VAN BUREN,AR,72956,"http://maps.google.com/maps?q=111 S. 11TH ST.,+VAN BUREN,+AR+72956&hl=en"
WALDRON POLICE DEPARTMENT,HARPS FOOD PARKING LOT,1350 6TH STREET,WALDRON,AR,72958,"http://maps.google.com/maps?q=1350 6TH STREET,+WALDRON,+AR+72958&hl=en"
WALDRON POLICE DEPARTMENT,WALDRON POLICE DEPARTMENT PERMANENT DROP BOX,323 WASHINGTON ST.,WALDRON,AR,72958,"http://maps.google.com/maps?q=323 WASHINGTON ST.,+WALDRON,+AR+72958&hl=en"
WASHINGTON COUNTY SHERIFF'S OFFICE,VA MEDICAL CENTER PERMANENT DROP BOX,1100 NORTH COLLEGE AVE.1100 NORTH COLLEGE AVE.,FAYETTEVILLE,AR,72701,"http://maps.google.com/maps?q=1100 NORTH COLLEGE AVE.,+FAYETTEVILLE,+AR+72701&hl=en"
WASHINGTON COUNTY SHERIFF'S OFFICE,WASHINGTON COUNTY COURTHOUSE PERMANENT DROP BOX (MON-FRI ONLY),280 NORTH COLLEGE AVE.,FAYETTEVILLE,AR,72701,"http://maps.google.com/maps?q=280 NORTH COLLEGE AVE.,+FAYETTEVILLE,+AR+72701&hl=en"
WASHINGTON COUNTY SHERIFF'S OFFICE,WASHINGTON COUNTY SHERIFF'S DEPARTMENT PERMANENT DROP BOX,1155 CLYDESDALE DR.,FAYETTEVILLE,AR,72701,"http://maps.google.com/maps?q=1155 CLYDESDALE DR.,+FAYETTEVILLE,+AR+72701&hl=en"
WEST FORK POLICE DEPARTMENT,WEST FORK CITY ADMINISTRATION BUILDING PERMANENT DROP BOX,262 WEST MAIN STREET,WEST FORK,AR,72774,"http://maps.google.com/maps?q=262 WEST MAIN STREET,+WEST FORK,+AR+72774&hl=en"
WICHITA POLICE DEPARTMENT,DILLONS PARKING LOT,9450 E HARRY,WICHITA,KS,67207,"http://maps.google.com/maps?q=9450 E HARRY,+WICHITA,+KS+67207&hl=en"
WILSON COUNTY SHERIFF'S OFFICE,WILSON COUNTY SHERIFF'S OFFICE,925 PIERCE STREET,FREDONIA,KS,66736,"http://maps.google.com/maps?q=925 PIERCE STREET,+FREDONIA,+KS+66736&hl=en"
