Participant,CollectionSite,Address,City,State,Zip,MapURL
193 SPECIAL OPERATIONS WING,"193 SPECIAL OPERATIONS WING 
												
													MILITARY MEMBERS ONLY !!! NOT A PUBLIC DROP OFF SITE",CONSTELLATION COURT** FOR MILITARY ONLY***,HARRISBURG,PA,17112,"http://maps.google.com/maps?q=CONSTELLATION COURT,+HARRISBURG,+PA+17112&hl=en"
AKRON BOROUGH POLICE DEPT,ROYER PHARMACY,113 S 7TH ST,AKRON,PA,17501,"http://maps.google.com/maps?q=113 S 7TH ST,+AKRON,+PA+17501&hl=en"
ALEXANDRIA POLICE DEPARTMENT,ALEXANDRIA FIRE STATION 210,5525 EISENHOWER AVE,ALEXANDRIA,VA,22304,"http://maps.google.com/maps?q=5525 EISENHOWER AVE,+ALEXANDRIA,+VA+22304&hl=en"
ALEXANDRIA POLICE DEPARTMENT,"ALEXANDRIA POLICE HEADQUARTERS 
												
													FRONT ENTRANCE",3600 WHEELER AVENUE,ALEXANDRIA,VA,22304,"http://maps.google.com/maps?q=3600 WHEELER AVENUE,+ALEXANDRIA,+VA+22304&hl=en"
ALLEGANY COUNTY SHERIFF'S OFFICE,BOLIVAR VOL. FIRE DEPARTMENT,460 MAIN ST,BOLIVAR,NY,14715,"http://maps.google.com/maps?q=460 MAIN ST,+BOLIVAR,+NY+14715&hl=en"
ALLEGANY COUNTY SHERIFF'S OFFICE,RIVERWALK PLAZA,STATE ROUTE 417,WELLSVILLE,NY,14895,"http://maps.google.com/maps?q=STATE ROUTE 417,+WELLSVILLE,+NY+14895&hl=en"
ALLEGHENY COUNTY POLICE DEPARTMENT,WILMERDING STATION,315 STATION ST,WILMERDING,PA,15148,"http://maps.google.com/maps?q=315 STATION ST,+WILMERDING,+PA+15148&hl=en"
ALLENTOWN POLICE DEPARTMENT,GIANT FOOD STORE #6074,3015 W. EMMAUS AVENUE,ALLENTOWN,PA,18103,"http://maps.google.com/maps?q=3015 W. EMMAUS AVENUE,+ALLENTOWN,+PA+18103&hl=en"
ALLENTOWN POLICE DEPARTMENT,REDNER'S MARKET,1201 AIRPORT ROAD,ALLENTOWN,PA,18109,"http://maps.google.com/maps?q=1201 AIRPORT ROAD,+ALLENTOWN,+PA+18109&hl=en"
ALLENTOWN POLICE DEPARTMENT,ST LUKES ALLENTOWN HOSPITAL,1736 HAMILTON ST,ALLENTOWN,PA,18104,"http://maps.google.com/maps?q=1736 HAMILTON ST,+ALLENTOWN,+PA+18104&hl=en"
ALTOONA POLICE DEPT,THOMPSONS PHARMACY,600 E CHESTNUT AVE,ALTOONA,PA,16601,"http://maps.google.com/maps?q=600 E CHESTNUT AVE,+ALTOONA,+PA+16601&hl=en"
ANNE ARUNDEL CO,EASTERN DISTRICT,204 PASADENA ROAD,PASADENA,MD,21122,"http://maps.google.com/maps?q=204 PASADENA ROAD,+PASADENA,+MD+21122&hl=en"
ANNE ARUNDEL CO,HEADQUARTERS,8495 VETERAN'S HIGHWAY,MILLERSVILLE,MD,21108,"http://maps.google.com/maps?q=8495 VETERAN'S HIGHWAY,+MILLERSVILLE,+MD+21108&hl=en"
ANNE ARUNDEL CO,NORTHERN DISTRICT,939 HAMMONDS LANE,BALTIMORE,MD,21225,"http://maps.google.com/maps?q=939 HAMMONDS LANE,+BALTIMORE,+MD+21225&hl=en"
ANNE ARUNDEL CO,WESTERN DISTRICT,8273 TELEGRAPH ROAD,ODENTON,MD,21113,"http://maps.google.com/maps?q=8273 TELEGRAPH ROAD,+ODENTON,+MD+21113&hl=en"
ARLINGTON COUNTY POLICE DEPARTMENT,"ARLINGTON FIRE STATION #9 
												
													MAIN LEVEL COMMUNITY ROOM",1900 SOUTH WALTER REED DRIVE,ARLINGTON,VA,22204,"http://maps.google.com/maps?q=1900 SOUTH WALTER REED DRIVE,+ARLINGTON,+VA+22204&hl=en"
ARLINGTON COUNTY POLICE DEPARTMENT,LANGSTON COMMUNITY CENTER,2121 NORTH CULPEPER STREET,ARLINGTON,VA,22207,"http://maps.google.com/maps?q=2121 NORTH CULPEPER STREET,+ARLINGTON,+VA+22207&hl=en"
BALTIMORE CITY POLICE DEPARTMENT,"BALTIMORE CITY PD 
												
													CENTRAL DISTRICT",500 E. BALTIMORE STREET,BALTIMORE,MD,21202,"http://maps.google.com/maps?q=500 E. BALTIMORE STREET,+BALTIMORE,+MD+21202&hl=en"
BALTIMORE CITY POLICE DEPARTMENT,"BALTIMORE CITY PD 
												
													EASTERN DISTRICT",1620 EDISON HIGHWAY,BALTIMORE,MD,21213,"http://maps.google.com/maps?q=1620 EDISON HIGHWAY,+BALTIMORE,+MD+21213&hl=en"
BALTIMORE CITY POLICE DEPARTMENT,"BALTIMORE CITY PD 
												
													NORTHEASTERN DISTRICT",1900 ARGONNE DRIVE,BALTIMORE,MD,21218,"http://maps.google.com/maps?q=1900 ARGONNE DRIVE,+BALTIMORE,+MD+21218&hl=en"
BALTIMORE CITY POLICE DEPARTMENT,"BALTIMORE CITY PD 
												
													NORTHERN DISTRICT",2201 W. COLDSPRING LANE,BALTIMORE,MD,21215,"http://maps.google.com/maps?q=2201 W. COLDSPRING LANE,+BALTIMORE,+MD+21215&hl=en"
BALTIMORE CITY POLICE DEPARTMENT,"BALTIMORE CITY PD 
												
													NORTHWESTERN DISTRICT",5271 REISTERSTOWN ROAD,BALTIMORE,MD,21215,"http://maps.google.com/maps?q=5271 REISTERSTOWN ROAD,+BALTIMORE,+MD+21215&hl=en"
BALTIMORE CITY POLICE DEPARTMENT,"BALTIMORE CITY PD 
												
													SOUTHEASTERN DISTRICT",5710 EASTERN AVENUE,BALTIMORE,MD,21224,"http://maps.google.com/maps?q=5710 EASTERN AVENUE,+BALTIMORE,+MD+21224&hl=en"
BALTIMORE CITY POLICE DEPARTMENT,"BALTIMORE CITY PD 
												
													SOUTHERN DISTRICT",10 CHERRY HILL ROAD,BROOKLYN,MD,21225,"http://maps.google.com/maps?q=10 CHERRY HILL ROAD,+BROOKLYN,+MD+21225&hl=en"
BALTIMORE CITY POLICE DEPARTMENT,"BALTIMORE CITY PD 
												
													SOUTHWESTERN DISTRICT",424 FONT HILL AVENUE,BALTIMORE,MD,21223,"http://maps.google.com/maps?q=424 FONT HILL AVENUE,+BALTIMORE,+MD+21223&hl=en"
BALTIMORE CITY POLICE DEPARTMENT,"BALTIMORE CITY PD 
												
													WESTERN DISTRICT",1034 N. MOUNT STREET,BALTIMORE,MD,21217,"http://maps.google.com/maps?q=1034 N. MOUNT STREET,+BALTIMORE,+MD+21217&hl=en"
BALTIMORE COUNTY POLICE DEPARTMENT,"PRECINCT 1 
												
													WILKENS",901 WALKER AVE.,CATONSVILLE,MD,21228,"http://maps.google.com/maps?q=901 WALKER AVE.,+CATONSVILLE,+MD+21228&hl=en"
BALTIMORE COUNTY POLICE DEPARTMENT,"PRECINCT 11 
												
													ESSEX",216 N. MARLYN AVE.,ESSEX,MD,21221,"http://maps.google.com/maps?q=216 N. MARLYN AVE.,+ESSEX,+MD+21221&hl=en"
BALTIMORE COUNTY POLICE DEPARTMENT,"PRECINCT 12 
												
													DUNDALK",428 WESTHAM WAY,BALTIMORE,MD,21224,"http://maps.google.com/maps?q=428 WESTHAM WAY,+BALTIMORE,+MD+21224&hl=en"
BALTIMORE COUNTY POLICE DEPARTMENT,"PRECINCT 2 
												
													WOODLAWN",6424 WINDSOR MILL RD.,GWYNN OAK,MD,21207,"http://maps.google.com/maps?q=6424 WINDSOR MILL RD.,+GWYNN OAK,+MD+21207&hl=en"
BALTIMORE COUNTY POLICE DEPARTMENT,"PRECINCT 3 
												
													FRANKLIN",606 NICODEMUS RD.,REISTERSTOWN,MD,21136,"http://maps.google.com/maps?q=606 NICODEMUS RD.,+REISTERSTOWN,+MD+21136&hl=en"
BALTIMORE COUNTY POLICE DEPARTMENT,"PRECINCT 4 
												
													PIKESVILLE",215 MILFORD MILL RD.,PIKESVILLE,MD,21208,"http://maps.google.com/maps?q=215 MILFORD MILL RD.,+PIKESVILLE,+MD+21208&hl=en"
BALTIMORE COUNTY POLICE DEPARTMENT,"PRECINCT 6 
												
													TOWSON",115 W. SUSQUEHANNA AVE.,TOWSON,MD,21204,"http://maps.google.com/maps?q=115 W. SUSQUEHANNA AVE.,+TOWSON,+MD+21204&hl=en"
BALTIMORE COUNTY POLICE DEPARTMENT,"PRECINCT 7 
												
													COCKEYSVILLE",111 WIGHT AVE.,COCKEYSVILLE,MD,21030,"http://maps.google.com/maps?q=111 WIGHT AVE.,+COCKEYSVILLE,+MD+21030&hl=en"
BALTIMORE COUNTY POLICE DEPARTMENT,"PRECINCT 8 
												
													PARKVILLE",8532 OLD HARFORD RD.,PARKVILLE,MD,21234,"http://maps.google.com/maps?q=8532 OLD HARFORD RD.,+PARKVILLE,+MD+21234&hl=en"
BALTIMORE COUNTY POLICE DEPARTMENT,"PRECINCT 9 
												
													WHITE MARSH",8220 PERRY HALL BLVD.,NOTTINGHAM,MD,21236,"http://maps.google.com/maps?q=8220 PERRY HALL BLVD.,+NOTTINGHAM,+MD+21236&hl=en"
BENTON BOROUGH POLICE DEPT,BENTON VOL FIRE STATION,150 COLLEY ST,BENTON,PA,17814,"http://maps.google.com/maps?q=150 COLLEY ST,+BENTON,+PA+17814&hl=en"
BERWICK PD,BERWICK PD,1800 N MARKET ST,BERWICK,PA,18603,"http://maps.google.com/maps?q=1800 N MARKET ST,+BERWICK,+PA+18603&hl=en"
BETHLEHEM POLICE DEPARTMENT,WESTGATE MALL,2285 SCHOENERSVILLE ROAD,BETHLEHEM,PA,18017,"http://maps.google.com/maps?q=2285 SCHOENERSVILLE ROAD,+BETHLEHEM,+PA+18017&hl=en"
BETHLEHEM TWNSHP POLICE DEPARTMENT,GIANT PHARMACY #6366,3926 NAZARETH PIKE,BETHLEHEM,PA,18020,"http://maps.google.com/maps?q=3926 NAZARETH PIKE,+BETHLEHEM,+PA+18020&hl=en"
BIGLERVILLE BOROUGH POLICE DEPARTMENT,BIGLERVILLE FIRE DEPARTMENT,111 SOUTH MAIN STREET,BIGLERVILLE,PA,17307,"http://maps.google.com/maps?q=111 SOUTH MAIN STREET,+BIGLERVILLE,+PA+17307&hl=en"
CALN TOWNSHIP POLICE DEPARTMENT,CVS,101 REECEVILLE ROAD,COATESVILLE,PA,19320,"http://maps.google.com/maps?q=101 REECEVILLE ROAD,+COATESVILLE,+PA+19320&hl=en"
CARROLL COUNTY SHERIFF'S OFFICE,CARROL COUNTY SHERIFF'S OFFICE,100 NORTH COURT STREET,WESTMINSTER,MD,21157,"http://maps.google.com/maps?q=100 NORTH COURT STREET,+WESTMINSTER,+MD+21157&hl=en"
CARROLL COUNTY SHERIFF'S OFFICE,HAMPSTEAD POLICE DEPARTMENT,1112 MAIN STREET,HAMPSTEAD,MD,21074,"http://maps.google.com/maps?q=1112 MAIN STREET,+HAMPSTEAD,+MD+21074&hl=en"
CARROLL COUNTY SHERIFF'S OFFICE,MOUNT AIRY POLICE DEPARTMENT,"205 CENTER STREET,SUITE 203",MOUNT AIRY,MD,21771,"http://maps.google.com/maps?q=205 CENTER STREET,,+MOUNT AIRY,+MD+21771&hl=en"
CARROLL COUNTY SHERIFF'S OFFICE,SYKESVILLE POLICE DEPARTMENT,7547 MAIN STREET,SYKESVILLE,MD,21784,"http://maps.google.com/maps?q=7547 MAIN STREET,+SYKESVILLE,+MD+21784&hl=en"
CARROLL COUNTY SHERIFF'S OFFICE,WESTMINSTER POLICE DEPARTMENT,36 LOCUST STREET,WESTMINSTER,MD,21157,"http://maps.google.com/maps?q=36 LOCUST STREET,+WESTMINSTER,+MD+21157&hl=en"
CARROLL TOWNSHIP POLICE DEPARTMENT,"MONONGAHELA VALLEY HOSPITAL, INC.",1163 COUNTRY CLUB ROAD,MONONGAHELA,PA,15063,"http://maps.google.com/maps?q=1163 COUNTRY CLUB ROAD,+MONONGAHELA,+PA+15063&hl=en"
CARROLL VALLEY BOROUGH POLICE DEPARTMENT,CARROLL VALLEY BOROUGH OFFICE,5685 FAIRFIELD ROAD,FAIRFIELD,PA,17320,"http://maps.google.com/maps?q=5685 FAIRFIELD ROAD,+FAIRFIELD,+PA+17320&hl=en"
CATASAUQUA POLICE DEPARTMENT,CATASAUQUA POLICE DEPARTMENT,90 BRIDGE ST.,CATASAUQUA,PA,18032,"http://maps.google.com/maps?q=90 BRIDGE ST.,+CATASAUQUA,+PA+18032&hl=en"
CATAWISSA BOROUGH POLICE DEPT,CATAWISSA BOROUGH PD,118 N 3RD ST,CATAWISSA,PA,17820,"http://maps.google.com/maps?q=118 N 3RD ST,+CATAWISSA,+PA+17820&hl=en"
CENTERVILLE BORO PD,CENTERVILLE BORO,100 E END ST,BROWNSVILLE,PA,15417,"http://maps.google.com/maps?q=100 E END ST,+BROWNSVILLE,+PA+15417&hl=en"
CENTRE CO SHERIFF'S OFFICE,BURKHOLDER'S COUNTRY MARKET,107 MARKET DRIVE,SPRING MILLS,PA,16875,"http://maps.google.com/maps?q=107 MARKET DRIVE,+SPRING MILLS,+PA+16875&hl=en"
CENTRE CO SHERIFF'S OFFICE,WEIS MARKET,501 N 3RD ST,PHILIPSBURG,PA,16866,"http://maps.google.com/maps?q=501 N 3RD ST,+PHILIPSBURG,+PA+16866&hl=en"
CHEVY CHASE VILLAGE POLICE DEPARTMENT,CHEVY CHASE VILLAGE POLICE DEPARTMENT,5906 CONNECTICUT AVENUE,CHEVY CHASE,MD,20815,"http://maps.google.com/maps?q=5906 CONNECTICUT AVENUE,+CHEVY CHASE,+MD+20815&hl=en"
CITY OF COATESVILLE POLICE DEPARTMENT,COATESVILLE POLICE DEPARTMENT,1 CITY HALL PLACE,COATESVILLE,PA,19320,"http://maps.google.com/maps?q=1 CITY HALL PLACE,+COATESVILLE,+PA+19320&hl=en"
CITY OF MONESSEN,CITY OF MONESSEN PD,239 DONNER AVE,MONESSEN,PA,15062,"http://maps.google.com/maps?q=239 DONNER AVE,+MONESSEN,+PA+15062&hl=en"
COAL TOWNSHIP POLICE DEPARTMENT,COAL TOWNSHIP POLICE DEPARTMENT,805 W. LYNN STREET,COAL TOWNSHIP,PA,17866,"http://maps.google.com/maps?q=805 W. LYNN STREET,+COAL TOWNSHIP,+PA+17866&hl=en"
COLLEGEVILLE POLICE DEPARTMENT,COLLEGEVILLE BOROUGH MUNICIPAL BUILDING,491 EAST MAIN ST,COLLEGEVILLE,PA,19426,"http://maps.google.com/maps?q=491 EAST MAIN ST,+COLLEGEVILLE,+PA+19426&hl=en"
CONEWAGO TOWNSHIP POLICE DEPARTMENT,CONEWAGO TOWNSHIP POLICE DEPARTMENT,541 OXFORD AVENUE,HANOVER,PA,17331,"http://maps.google.com/maps?q=541 OXFORD AVENUE,+HANOVER,+PA+17331&hl=en"
CONEWAGO TWP POLICE DEPT,CONEWAGO TWP POLICE DEPT,541 OXFORD AVE,HANOVER,PA,17331,"http://maps.google.com/maps?q=541 OXFORD AVE,+HANOVER,+PA+17331&hl=en"
CUMBERLAND TOWNSHIP POLICE,SAINT FRACIS XAVIER CENTER,465 TABLE ROCK ROAD,GETTYSBURG,PA,17325,"http://maps.google.com/maps?q=465 TABLE ROCK ROAD,+GETTYSBURG,+PA+17325&hl=en"
DANVILLE POLICE DEPARTMENT,DANVILLE POLICE DEPARTMENT,453 MILL STREET,DANVILLE,PA,17821,"http://maps.google.com/maps?q=453 MILL STREET,+DANVILLE,+PA+17821&hl=en"
DEA / MONTCLAIR LIONS CLUB,"MONTCLAIR SHOPPING CENTER 
												
													IN FRONT OF FRAMING OUTLET",5183 WATERWAY DRIVE,DUMFRIES,VA,22025,"http://maps.google.com/maps?q=5183 WATERWAY DRIVE,+DUMFRIES,+VA+22025&hl=en"
DERRY TOWNSHIP POLICE DEPARTMENT,"PENN STATE HERSHEY MEDICAL CENTER 
												
													ACADEMIC SUPPORT BUILDING",90 HOPE DR.,HERSHEY,PA,17033,"http://maps.google.com/maps?q=90 HOPE DR.,+HERSHEY,+PA+17033&hl=en"
DOUGLASS TOWNSHIP POLICE,GIANT,173 HOLLY RD,GILBERTSVILLE,PA,19525,"http://maps.google.com/maps?q=173 HOLLY RD,+GILBERTSVILLE,+PA+19525&hl=en"
DOWNINGTOWN POLICE DEPARTMENT,DOWNINGTOWN POLICE DEPARTMENT,10 WEST LANCASTER AVE.,DOWNINGTOWN,PA,19335,"http://maps.google.com/maps?q=10 WEST LANCASTER AVE.,+DOWNINGTOWN,+PA+19335&hl=en"
DUBLIN BOROUGH POLICE DEPARTMENT,DUBLIN IGA FOODSTORE,161 NORTH MAIN STREET,DUBLIN,PA,18917,"http://maps.google.com/maps?q=161 NORTH MAIN STREET,+DUBLIN,+PA+18917&hl=en"
EAST LAMPERTER TWP POLICE DEPT,ROYER PHARMACY,335 W MAIN ST,LEOLA,PA,17540,"http://maps.google.com/maps?q=335 W MAIN ST,+LEOLA,+PA+17540&hl=en"
EAST PITTSBURGH POLICE,LANIGAN''S FUNERAL HOME,700 LINDEN AVENUE,EAST PITTSBURGH,PA,15112,"http://maps.google.com/maps?q=700 LINDEN AVENUE,+EAST PITTSBURGH,+PA+15112&hl=en"
EAST TAYLOR TWP POLICE DEPT,MARTELLA'S PHARMACY,1932 WILLIAM PENN AVE,JOHNSTOWN,PA,15909,"http://maps.google.com/maps?q=1932 WILLIAM PENN AVE,+JOHNSTOWN,+PA+15909&hl=en"
EASTERN ADAMS REGIONAL POLICE DEPARTMENT,EASTERN ADAMS REGIONAL POLICE DEPARTMENT,110 N. BERLIN AVE,NEW OXFORD,PA,17350,"http://maps.google.com/maps?q=110 N. BERLIN AVE,+NEW OXFORD,+PA+17350&hl=en"
ELKTON POLICE DEPARTMENT,ELKTON POLICE DEPARTMENT,100 RAILROAD AVENUE,ELKTON,MD,21921,"http://maps.google.com/maps?q=100 RAILROAD AVENUE,+ELKTON,+MD+21921&hl=en"
EMMAUS POLICE DEPARTMENT,EMMAUS POLICE DEPARTMENT,400  JUBILEE STREET,EMMAUS,PA,18049,"http://maps.google.com/maps?q=400  JUBILEE STREET,+EMMAUS,+PA+18049&hl=en"
EPHRATA POLICE DEPT,ROYER PHARMACY,2 EAST MAIN ST,EPHRATA,PA,17522,"http://maps.google.com/maps?q=2 EAST MAIN ST,+EPHRATA,+PA+17522&hl=en"
FAIRFAX CITY POLICE DEPARTMENT,"FAIRFAX CITY POLICE DEPARTMENT 
												
													FRONT LOBBY",3730 OLD LEE HIGHWAY,FAIRFAX,VA,22030,"http://maps.google.com/maps?q=3730 OLD LEE HIGHWAY,+FAIRFAX,+VA+22030&hl=en"
FAIRFAX COUNTY POLICE DEPARTMENT,"FAIR OAKS DISTRICT STATION 
												
													PARKING LOT -OPERATING 10 AM TO 2 PM-",12300 LEE JACKSON MEMORIAL HIGHWAY,FAIRFAX,VA,22033,"http://maps.google.com/maps?q=12300 LEE JACKSON MEMORIAL HIGHWAY,+FAIRFAX,+VA+22033&hl=en"
FAIRFAX COUNTY POLICE DEPARTMENT,"MASON DISTRICT STATION 
												
													FRONT PARKING LOT -OPERATING 10 AM TO 2 PM-",6507 COLUMBIA PIKE,ANNANDALE,VA,22003,"http://maps.google.com/maps?q=6507 COLUMBIA PIKE,+ANNANDALE,+VA+22003&hl=en"
FAIRFAX COUNTY POLICE DEPARTMENT,"MCLEAN DISTRICT POLICE STATION 
												
													FRONT PARKING LOT -OPERATING 10 AM TO 2 PM-",1437 BALLS HILL ROAD,MCLEAN,VA,22101,"http://maps.google.com/maps?q=1437 BALLS HILL ROAD,+MCLEAN,+VA+22101&hl=en"
FAIRFAX COUNTY POLICE DEPARTMENT,"RESTON DISTRICT STATION 
												
													PARKING LOT -OPERATING 10 AM TO 2 PM-",12000 BOWMAN TOWNE DRIVE,RESTON,VA,20190,"http://maps.google.com/maps?q=12000 BOWMAN TOWNE DRIVE,+RESTON,+VA+20190&hl=en"
FAIRFAX COUNTY POLICE DEPARTMENT,"SULLY DISTRICT POLICE STATION 
												
													FRONT PARKING LOT -OPERATING 10 AM TO 2 PM-",4900 STONECROFT BOULEVARD,CHANTILLY,VA,20151,"http://maps.google.com/maps?q=4900 STONECROFT BOULEVARD,+CHANTILLY,+VA+20151&hl=en"
FAIRFAX COUNTY POLICE DEPARTMENT,"WEST SPRINGFIELD DISTRICT STATION 
												
													PARKING LOT -OPERATING 10 AM TO 2 PM-",6140 ROLLING ROAD,SPRINGFIELD,VA,22152,"http://maps.google.com/maps?q=6140 ROLLING ROAD,+SPRINGFIELD,+VA+22152&hl=en"
FAIRMONT POLICE DEPARTMENT,"FAIRMONT POLICE DEPARTMENT 
												
													PUBLIC SAFETY BUILDING",500 QUINCY STREET,FAIRMONT,WV,26554,"http://maps.google.com/maps?q=500 QUINCY STREET,+FAIRMONT,+WV+26554&hl=en"
FALLS CHURCH POLICE DEPARTMENT,"FALLS CHURCH CITY HALL 
												
													EXTERIOR",300 PARK AVE,FALLS CHURCH,VA,22046,"http://maps.google.com/maps?q=300 PARK AVE,+FALLS CHURCH,+VA+22046&hl=en"
FORT DETRICK EMERGENCY SERVICES,"COMMISSARY BUILDING 1510 
												
													POC DET. LESTER MUMMERT",BUILDING # 1510,FORT DETRICK,MD,21702,"http://maps.google.com/maps?q=BUILDING # 1510,+FORT DETRICK,+MD+21702&hl=en"
FORT DETRICK EMERGENCY SERVICES,"DIRECTORATE OF EMERGENCY SERVICES 
												
													POC DET. LESTER MUMMERT",BUILDING # 1419,FORT DETRICK,MD,21702,"http://maps.google.com/maps?q=BUILDING # 1419,+FORT DETRICK,+MD+21702&hl=en"
FORT DETRICK EMERGENCY SERVICES,FOREST GLENN ANNEX,FOREST GLENN ANNEX,FREDERICK,MD,21702,"http://maps.google.com/maps?q=FOREST GLENN ANNEX,+FREDERICK,+MD+21702&hl=en"
FOUNTAIN HILL POLICE DEPARTMENT,FOUNTAIN HILL POLICE DEPARTMENT,941 LONG STREET,FOUNTAIN HILL,PA,18015,"http://maps.google.com/maps?q=941 LONG STREET,+FOUNTAIN HILL,+PA+18015&hl=en"
FOUNTAIN HILL POLICE DEPARTMENT,"ST LUKES HOSPITAL MEDICAL BLDG 
												
													PARKING LOT",801 OSTRUM ST,FOUNTAIN HILL,PA,18015,"http://maps.google.com/maps?q=801 OSTRUM ST,+FOUNTAIN HILL,+PA+18015&hl=en"
FREDERICK COUNTY SHERIFF'S OFFICE,FREDERICK COUNTY PUBLIC SAFETY BUILDING,1080 COVERSTONE DRIVE,WINCHESTER,VA,22602,"http://maps.google.com/maps?q=1080 COVERSTONE DRIVE,+WINCHESTER,+VA+22602&hl=en"
FREDERICK COUNTY SHERIFF'S OFFICE,WALGREENS,131 VALLEY MILL ROAD,WINCHESTER,VA,22602,"http://maps.google.com/maps?q=131 VALLEY MILL ROAD,+WINCHESTER,+VA+22602&hl=en"
FREDERICK POLICE DEPARTMENT,TRINITY SCHOOL,6040 NEW DESIGN ROAD,FREDERICK,MD,21703,"http://maps.google.com/maps?q=6040 NEW DESIGN ROAD,+FREDERICK,+MD+21703&hl=en"
GAITHERSBURG POLICE DEPARTMENT,GAITHERSBURG POLICE DEPARTMENT,14 FULKS CORNER AVENUE,GAITHERSBURG,MD,20877,"http://maps.google.com/maps?q=14 FULKS CORNER AVENUE,+GAITHERSBURG,+MD+20877&hl=en"
GARRETT COUNTY SHERIFF'S OFFICE,"GARRETT COUNTY SHERIFF'S OFFICE 
												
													POC MIKE BITTINGER",311 EAST ALDER STREET,OAKLAND,MD,21550,"http://maps.google.com/maps?q=311 EAST ALDER STREET,+OAKLAND,+MD+21550&hl=en"
GEORGE MASON UNIVERSITY POLICE DEPARTMENT,GEORGE MASON UNIVERSITY POLICE STATION,4393 UNIVERSITY DRIVE,FAIRFAX,VA,22030,"http://maps.google.com/maps?q=4393 UNIVERSITY DRIVE,+FAIRFAX,+VA+22030&hl=en"
GETTYSBURG BOROUGH POLICE DEPARTMENT,ADAMS COUNTY HOUSING AUTHORITY,40 EAST HIGH STREET,GETTYSBURG,PA,17325,"http://maps.google.com/maps?q=40 EAST HIGH STREET,+GETTYSBURG,+PA+17325&hl=en"
GREENBELT POLICE DEPARTMENT,GREENBELT CITY OFFICES,25 CRESCENT ROAD,GREENBELT,MD,20770,"http://maps.google.com/maps?q=25 CRESCENT ROAD,+GREENBELT,+MD+20770&hl=en"
HAMBURG BOROUGH POLICE,HAMBURG BOROUGH POLICE DEPT,61 N 3RD ST,HAMBURG,PA,19526,"http://maps.google.com/maps?q=61 N 3RD ST,+HAMBURG,+PA+19526&hl=en"
HAMPSHIRE COUNTY SHERIFF'S OFFICE,HAMPSHIRE COUNTY SD,66 N HIGH STREET,ROMNEY,WV,26757,"http://maps.google.com/maps?q=66 N HIGH STREET,+ROMNEY,+WV+26757&hl=en"
HARFORD COUNTY SHERIFF'S OFFICE,"COUNTY OFFICE BUILDING 
												
													PARKING LOT","220 SOUTH MAIN STREET,CORNER OF BUSINESS RT 1 AND MAIN ST.",BEL AIR,MD,21014,"http://maps.google.com/maps?q=220 SOUTH MAIN STREET,,+BEL AIR,+MD+21014&hl=en"
HATFIELD TOWNSHIP POLICE DEPARTMENT,HATFIELD TOWNSHIP ADMINISTRATIVE BUILDING,1950 SCHOOL ROAD,HATFIELD,PA,19440,"http://maps.google.com/maps?q=1950 SCHOOL ROAD,+HATFIELD,+PA+19440&hl=en"
HAVRE DE GRACE POLICE DEPARTMENT,HAVRE DE GRACE POLICE DEPARTMENT,715 PENNINGTON AVENUE,HAVRE DE GRACE,MD,21078,"http://maps.google.com/maps?q=715 PENNINGTON AVENUE,+HAVRE DE GRACE,+MD+21078&hl=en"
HERNDON POLICE DEPARTMENT,"HERNDON POLICE DEPARTMENT 
												
													LOBBY AREA",397 HERNDON PARKWAY,HERNDON,VA,20170,"http://maps.google.com/maps?q=397 HERNDON PARKWAY,+HERNDON,+VA+20170&hl=en"
HIGHSPIRE BOROUGH POLICE DEPARTMENT,HIGHSPIRE BOROUGH BUILDING,640 ESHELMAN ST.,HIGHSPIRE,PA,17034,"http://maps.google.com/maps?q=640 ESHELMAN ST.,+HIGHSPIRE,+PA+17034&hl=en"
HILLTOWN TOWNSHIP POLICE DEPARTMENT,HILLTOWN TOWNSHIP MUNICIPAL BUILDING,13 WEST CREAMERY ROAD,HILLTOWN,PA,18927,"http://maps.google.com/maps?q=13 WEST CREAMERY ROAD,+HILLTOWN,+PA+18927&hl=en"
HOWARD COUNTY POLICE DEPARTMENT,GARY ARTHUR COMMUNITY CENTER,2400 RT. 97,COOKSVILLE,MD,21723,"http://maps.google.com/maps?q=2400 RT. 97,+COOKSVILLE,+MD+21723&hl=en"
HOWARD COUNTY POLICE DEPARTMENT,HC DRUGFREE,10451 TWIN RIVERS ROAD,COLUMBIA,MD,21045,"http://maps.google.com/maps?q=10451 TWIN RIVERS ROAD,+COLUMBIA,+MD+21045&hl=en"
HOWARD COUNTY POLICE DEPARTMENT,"HOWARD COUNTY POLICE 
												
													NORTHERN DISTRICT",3410 COURTHOUSE DR.,ELLICOTT CITY,MD,21043,"http://maps.google.com/maps?q=3410 COURTHOUSE DR.,+ELLICOTT CITY,+MD+21043&hl=en"
HOWARD COUNTY POLICE DEPARTMENT,"HOWARD COUNTY POLICE 
												
													SOUTHERN DISTRICT",11226 SCAGGSVILLE RD.,LAUREL,MD,20723,"http://maps.google.com/maps?q=11226 SCAGGSVILLE RD.,+LAUREL,+MD+20723&hl=en"
HOWARD COUNTY POLICE DEPARTMENT,HOWARD COUNTY POLICE COMMUNITY OUTREACH,10785 LITTLE PATUXENT PARKWAY,COLUMBIA,MD,21044,"http://maps.google.com/maps?q=10785 LITTLE PATUXENT PARKWAY,+COLUMBIA,+MD+21044&hl=en"
HYATTSVILLE CITY POLICE,HYATTSVILLE CITY POLICE DEPARTMENT,4310 GALLATIN STREET,HYATTSVILLE,MD,20781,"http://maps.google.com/maps?q=4310 GALLATIN STREET,+HYATTSVILLE,+MD+20781&hl=en"
JEFFERSON COUNTY SHERIFF'S OFFICE,CHARLES TOWN WALMART,96 PATRICK HENRY WAY,CHARLES TOWN,WV,25414,"http://maps.google.com/maps?q=96 PATRICK HENRY WAY,+CHARLES TOWN,+WV+25414&hl=en"
JEFFERSON COUNTY SHERIFF'S OFFICE,JEFFERSON COUNTY SHERIFF,102 INDUSTRIAL BOULEVARD,KEARNEYSVILLE,WV,25430,"http://maps.google.com/maps?q=102 INDUSTRIAL BOULEVARD,+KEARNEYSVILLE,+WV+25430&hl=en"
KINGSTON TOWNSHIP POLICE DEPARTMENT,KINGSTON TOWNSHIP POLICE DEPARTMENT,180 EAST CENTER STREET,SHAVERTOWN,PA,18708,"http://maps.google.com/maps?q=180 EAST CENTER STREET,+SHAVERTOWN,+PA+18708&hl=en"
KULPMONT POLICE DEPARTMENT,KULPMONT POLICE DEPARTMENT,9 NORTH 8TH STREET,KULPMONT,PA,17834,"http://maps.google.com/maps?q=9 NORTH 8TH STREET,+KULPMONT,+PA+17834&hl=en"
LATIMORE TOWNSHIP POLICE,BERMUDIAN SPRINGS SCHOOL DISTRICT,7335 CARLISLE PIKE,YORK SPRINGS,PA,17372,"http://maps.google.com/maps?q=7335 CARLISLE PIKE,+YORK SPRINGS,+PA+17372&hl=en"
LAUREL POLICE DEPARTMENT,LAUREL POLICE DEPARTMENT,811 FIFTH STREET,LAUREL,MD,20707,"http://maps.google.com/maps?q=811 FIFTH STREET,+LAUREL,+MD+20707&hl=en"
LIMERICK TOWNSHIP POLICE DEPARTMENT,LIMERICK TOWNSHIP POLICE STATION,155 SOUTH LIMERICK ROAD,LIMERICK,PA,19468,"http://maps.google.com/maps?q=155 SOUTH LIMERICK ROAD,+LIMERICK,+PA+19468&hl=en"
LITTLESTOWN POLICE DEPARTMENT,MAPLE AVE MIDDLE SCHOOL,75 MAPLE AVE,LITTLESTOWN,PA,17340,"http://maps.google.com/maps?q=75 MAPLE AVE,+LITTLESTOWN,+PA+17340&hl=en"
LOUDOUN COUNTY SHERIFF'S OFFICE,"DULLES SOUTH PUBLIC SAFETY CENTER 
												
													FRONT LOBBY AREA",25216 LOUDOUN PARKWAY,CHANTILLY,VA,20152,"http://maps.google.com/maps?q=25216 LOUDOUN PARKWAY,+CHANTILLY,+VA+20152&hl=en"
LOUDOUN COUNTY SHERIFF'S OFFICE,"EASTERN LOUDOUN STATION 
												
													FRONT LOBBY AREA",46620 EAST FREDERICK DRIVE,STERLING,VA,20164,"http://maps.google.com/maps?q=46620 EAST FREDERICK DRIVE,+STERLING,+VA+20164&hl=en"
LOUDOUN COUNTY SHERIFF'S OFFICE,"LANDSDOWNE PUBLIC SAFETY CENTER 
												
													FRONT LOBBY/ENTRANCE AREA",19485 SANDRIDGE WAY,LEESBURG,VA,20176,"http://maps.google.com/maps?q=19485 SANDRIDGE WAY,+LEESBURG,+VA+20176&hl=en"
LOUDOUN COUNTY SHERIFF'S OFFICE,LOVETTSVILLE TOWN HALL,6 E PENNSYLVANIA AVE,LOVETTSVILLE,VA,20180,"http://maps.google.com/maps?q=6 E PENNSYLVANIA AVE,+LOVETTSVILLE,+VA+20180&hl=en"
LOWER PAXTON TOWNSHIP POLICE DEPARTMENT,LOWER PAXTON TOWNSHIP POLICE DEPARTMENT,425 PRINCE STREET,HARRISBURG,PA,17109,"http://maps.google.com/maps?q=425 PRINCE STREET,+HARRISBURG,+PA+17109&hl=en"
LOWER PROVIDENCE POLICE DEPARTMENT,LOWER PROVIDENCE POLICE DEPARTMENT,100 PARKLANE DR,EAGLEVILLE,PA,19403,"http://maps.google.com/maps?q=100 PARKLANE DR,+EAGLEVILLE,+PA+19403&hl=en"
LOWER SAUCON TOWNSHIP POLICE DEPARTMENNT,GIANT FOOD STORE,1880 LEITHSVILLE RD,HELLERTOWN,PA,18055,"http://maps.google.com/maps?q=1880 LEITHSVILLE RD,+HELLERTOWN,+PA+18055&hl=en"
LOWER SAUCON TOWNSHIP POLICE DEPARTMENNT,LOWER SAUCON TOWNSHIP POLICE DEPARTMENT,3700 OLD PHILADELPHIA PIKE,BETHLEHEM,PA,18015,"http://maps.google.com/maps?q=3700 OLD PHILADELPHIA PIKE,+BETHLEHEM,+PA+18015&hl=en"
MACUNGIE BOROUGH POLICE DEPT,MACUNGIE POLICE DEPT,21 LOCUST ST,MACUNGIE,PA,18062,"http://maps.google.com/maps?q=21 LOCUST ST,+MACUNGIE,+PA+18062&hl=en"
MADISON COUNTY SHERIFF'S OFFICE,MADISON COUNTY SHERIFF'S OFFICE,115 CHURCH ST,MADISON,VA,22727,"http://maps.google.com/maps?q=115 CHURCH ST,+MADISON,+VA+22727&hl=en"
MANASSAS CITY POLICE DEPARTMENT,"NOVANT HEALTH - PRINCE WILLIAM MEDICAL CENTER 
												
													ENTRANCE TO WOMEN'S CENTER - OB/GYN",8700 SUDLEY ROAD,MANASSAS,VA,20110,"http://maps.google.com/maps?q=8700 SUDLEY ROAD,+MANASSAS,+VA+20110&hl=en"
MANASSAS PARK POLICE DEPARTMENT,MPPD COMMUNITY ROOM,329 MANASSAS DR,MANASSAS,VA,20111,"http://maps.google.com/maps?q=329 MANASSAS DR,+MANASSAS,+VA+20111&hl=en"
MANSFIELD BOROUGH POLICE DEPARTMENT,MANSFIELD BOROUGH POLICE DEPARTMENT,14 SOUTH MAIN STREET,MANSFIELD,PA,16933,"http://maps.google.com/maps?q=14 SOUTH MAIN STREET,+MANSFIELD,+PA+16933&hl=en"
MARLBOROUGH TOWNSHIP POLICE DEPARTMENT,MARLBOROUGH TOWNSHIP POLICE DEPARTMENT,6040 UPPER RIDGE ROAD,GREEN LANE,PA,18054,"http://maps.google.com/maps?q=6040 UPPER RIDGE ROAD,+GREEN LANE,+PA+18054&hl=en"
MARYLAND STATE POLICE,"MSP BEL AIR BARRACK D 
												
													POC: D/SGT. JEFF THOMAS",1401 BELAIR ROAD,BEL AIR,MD,21014,"http://maps.google.com/maps?q=1401 BELAIR ROAD,+BEL AIR,+MD+21014&hl=en"
MARYLAND STATE POLICE,"MSP COLLEGE PARK BARRACK Q 
												
													POC:  LT. SEAN MORRIS",10100 RHODE ISLAND AVENUE,COLLEGE PARK,MD,20740,"http://maps.google.com/maps?q=10100 RHODE ISLAND AVENUE,+COLLEGE PARK,+MD+20740&hl=en"
MARYLAND STATE POLICE,"MSP CUMBERLAND BARRACK 
												
													POC:  LT. MICHAEL FLUHARTY",1125 NATIONAL HIGHWAY,CUMBERLAND,MD,21502,"http://maps.google.com/maps?q=1125 NATIONAL HIGHWAY,+CUMBERLAND,+MD+21502&hl=en"
MARYLAND STATE POLICE,"MSP FREDERICK BARRACK 
												
													POC:  LT. TODD MAY",110 AIRPORT DRIVE EAST,FREDERICK,MD,21701,"http://maps.google.com/maps?q=110 AIRPORT DRIVE EAST,+FREDERICK,+MD+21701&hl=en"
MARYLAND STATE POLICE,"MSP GLEN BURNIE BARRACK 
												
													POC:  SGT. EDWARD EICHER",6800 AVIATION BLVD.,GLEN BURNIE,MD,21061,"http://maps.google.com/maps?q=6800 AVIATION BLVD.,+GLEN BURNIE,+MD+21061&hl=en"
MARYLAND STATE POLICE,"MSP GOLDEN RING BARRACK 
												
													POC:  D/SGT. CLARK",8908 KELSO DRIVE,ESSEX,MD,21221,"http://maps.google.com/maps?q=8908 KELSO DRIVE,+ESSEX,+MD+21221&hl=en"
MARYLAND STATE POLICE,"MSP HAGERSTOWN BARRACK 
												
													POC- LT. WOODWARD",18345 COL. HENRY K. DOUGLAS DR.,HAGERSTOWN,MD,21740,"http://maps.google.com/maps?q=18345 COL. HENRY K. DOUGLAS DR.,+HAGERSTOWN,+MD+21740&hl=en"
MARYLAND STATE POLICE,"MSP JFK HIGHWAY BARRACK 
												
													POC:  D/SGT. SHAWN WARD",15 TURNPIKE DRIVE,PERRYVILLE,MD,21903,"http://maps.google.com/maps?q=15 TURNPIKE DRIVE,+PERRYVILLE,+MD+21903&hl=en"
MARYLAND STATE POLICE,"MSP MCHENRY BARRACK 
												
													POC:  SGT. VINCE UPOLE",67 FRIENDSVILLE ROAD,MC HENRY,MD,21541,"http://maps.google.com/maps?q=67 FRIENDSVILLE ROAD,+MC HENRY,+MD+21541&hl=en"
MARYLAND STATE POLICE,"MSP NORTH EAST BARRACK 
												
													POC:  LT. STEPHEN KONOLD",2433 W. PULASKI HIGHWAY,NORTH EAST,MD,21901,"http://maps.google.com/maps?q=2433 W. PULASKI HIGHWAY,+NORTH EAST,+MD+21901&hl=en"
MARYLAND STATE POLICE,"MSP ROCKVILLE BARRACK 
												
													POC:  LT. H.B. MARTZ",7915 MONTROSE ROAD,ROCKVILLE,MD,20854,"http://maps.google.com/maps?q=7915 MONTROSE ROAD,+ROCKVILLE,+MD+20854&hl=en"
MARYLAND STATE POLICE,"MSP WATERLOO BARRACK 
												
													POC:  D/SGT. MYERS",7777 WASHINGTON BLVD,JESSUP,MD,20794,"http://maps.google.com/maps?q=7777 WASHINGTON BLVD,+JESSUP,+MD+20794&hl=en"
MARYLAND STATE POLICE,"MSP WESTMINSTER BARRACKS 
												
													POC:  LT.  PATRICK MCCRORY",1100 BALTIMORE BLVD.,WESTMINSTER,MD,21157,"http://maps.google.com/maps?q=1100 BALTIMORE BLVD.,+WESTMINSTER,+MD+21157&hl=en"
MEYERSDALE BOROUGH POLICE,THOMAS DRUG STORE,327 MAIN STREET,MEYERSDALE,PA,15552,"http://maps.google.com/maps?q=327 MAIN STREET,+MEYERSDALE,+PA+15552&hl=en"
MIDDLETOWN POLICE,GIANT PHARMACY,450 EAST MAINT STREET,MIDDLETOWN,PA,17057,"http://maps.google.com/maps?q=450 EAST MAINT STREET,+MIDDLETOWN,+PA+17057&hl=en"
MINERAL COUNTY SHERIFF'S OFFICE,"MINERAL COUNTY DETENTION CENTER 
												
													ACROSS STREET FROM COURTHOUSE",100 EAST STREET,KEYSER,WV,26726,"http://maps.google.com/maps?q=100 EAST STREET,+KEYSER,+WV+26726&hl=en"
MONONGAH POLICE DEPT,MONONGAH PD,430 BRIDGE ST,FAIRMONT,WV,26554,"http://maps.google.com/maps?q=430 BRIDGE ST,+FAIRMONT,+WV+26554&hl=en"
MONONGALIA COUNTY SHERIFF'S OFFICE,KROGER @ SUNCREST TOWN CNTR,500 SUNCREST TOWN CENTER DR,MORGANTOWN,WV,26506,"http://maps.google.com/maps?q=500 SUNCREST TOWN CENTER DR,+MORGANTOWN,+WV+26506&hl=en"
MONONGALIA COUNTY SHERIFF'S OFFICE,MONONGALIA COUNTY SHERIFF'S OFFICE,116 WALNUT STREET,MORGANTOWN,WV,26505,"http://maps.google.com/maps?q=116 WALNUT STREET,+MORGANTOWN,+WV+26505&hl=en"
MONONGALIA COUNTY SHERIFF'S OFFICE,PIERPONT LANDING PHARMACY,7000 MID ATLANTIC RD,MORGANTOWN,WV,26508,"http://maps.google.com/maps?q=7000 MID ATLANTIC RD,+MORGANTOWN,+WV+26508&hl=en"
MONROEVILLE POLICE DEPT,MONROEVILLE POLICE DEPT,2700 MONROEVILLE BLVD,MONROEVILLE,PA,15146,"http://maps.google.com/maps?q=2700 MONROEVILLE BLVD,+MONROEVILLE,+PA+15146&hl=en"
MONTGOMERY COUNTY DEPARTMENT OF POLICE,2ND DISTRICT POLICE STATION,4823 RUGBY AVENUE,BETHESDA,MD,20814,"http://maps.google.com/maps?q=4823 RUGBY AVENUE,+BETHESDA,+MD+20814&hl=en"
MONTGOMERY COUNTY DEPARTMENT OF POLICE,3RD DISTRICT POLICE STATION,1001 MILESTONE DRIVE,SILVER SPRING,MD,20904,"http://maps.google.com/maps?q=1001 MILESTONE DRIVE,+SILVER SPRING,+MD+20904&hl=en"
MONTGOMERY COUNTY DEPARTMENT OF POLICE,4TH DISTRICT POLICE STATION,2300 RANDOLPH ROAD,WHEATON,MD,20902,"http://maps.google.com/maps?q=2300 RANDOLPH ROAD,+WHEATON,+MD+20902&hl=en"
MONTGOMERY COUNTY DEPARTMENT OF POLICE,5TH DISTRICT POLICE STATION,20000 AIRCRAFT DRIVE,GERMANTOWN,MD,20874,"http://maps.google.com/maps?q=20000 AIRCRAFT DRIVE,+GERMANTOWN,+MD+20874&hl=en"
MONTGOMERY COUNTY DEPARTMENT OF POLICE,"ASBURY METHODIST VILLAGE 
												
													BUILDING 405, APARTMENT CENTER LOBBY",301 ODENDHAL AVENUE,GAITHERSBURG,MD,20877,"http://maps.google.com/maps?q=301 ODENDHAL AVENUE,+GAITHERSBURG,+MD+20877&hl=en"
MONTGOMERY COUNTY DEPARTMENT OF POLICE,FIRE STATION 1,8110 GEORGIA AVE.,SILVER SPRING,MD,20910,"http://maps.google.com/maps?q=8110 GEORGIA AVE.,+SILVER SPRING,+MD+20910&hl=en"
MONTGOMERY COUNTY DEPARTMENT OF POLICE,JEWISH COMMUNITY CENTER,6125 MONTROSE RD.,ROCKVILLE,MD,20852,"http://maps.google.com/maps?q=6125 MONTROSE RD.,+ROCKVILLE,+MD+20852&hl=en"
MONTGOMERY COUNTY DEPARTMENT OF POLICE,KENTLANDS MANOR,217 BOOTH ST.,GAITHERSBURG,MD,20878,"http://maps.google.com/maps?q=217 BOOTH ST.,+GAITHERSBURG,+MD+20878&hl=en"
MONTGOMERY COUNTY DEPARTMENT OF POLICE,LEISURE WORLD,3305 N. LEISURE WORLD BLVD.,SILVER SPRING,MD,20906,"http://maps.google.com/maps?q=3305 N. LEISURE WORLD BLVD.,+SILVER SPRING,+MD+20906&hl=en"
MONTGOMERY COUNTY DEPARTMENT OF POLICE,"VILLAGE OF FRIENDSHIP HEIGHTS 
												
													COMMUNITY CENTER",4433 SOUTH PARK AVENUE,CHEVY CHASE,MD,20815,"http://maps.google.com/maps?q=4433 SOUTH PARK AVENUE,+CHEVY CHASE,+MD+20815&hl=en"
MONTGOMERY COUNTY DISTRICT ATTORNEY,UPPER MERION TOWNSHIP MUNICIPAL BUILDING,175 WEST VALLEY FORGE ROAD,KING OF PRUSSIA,PA,19406,"http://maps.google.com/maps?q=175 WEST VALLEY FORGE ROAD,+KING OF PRUSSIA,+PA+19406&hl=en"
MONTOUR COUNTY SHERIFF'S OFFICE,MONTOUR COUNTY COURTHOUSE,253 MILL ST,DANVILLE,PA,17821,"http://maps.google.com/maps?q=253 MILL ST,+DANVILLE,+PA+17821&hl=en"
MOOREFIELD POLICE DEPARTMENT,MOOREFIELD POLICE DEPT/TOWN OFFICE,206 WINCHESTER AVE,MOOREFIELD,WV,26836,"http://maps.google.com/maps?q=206 WINCHESTER AVE,+MOOREFIELD,+WV+26836&hl=en"
MORGANTOWN POLICE DEPARTMENT,KROGER,1851 EARL L. CORE ROAD,MORGANTOWN,WV,26505,"http://maps.google.com/maps?q=1851 EARL L. CORE ROAD,+MORGANTOWN,+WV+26505&hl=en"
MORGANTOWN POLICE DEPARTMENT,KROGER,350 PATTERSON DRIVE,MORGANTOWN,WV,26505,"http://maps.google.com/maps?q=350 PATTERSON DRIVE,+MORGANTOWN,+WV+26505&hl=en"
MOUNT CARMEL BOROUGH POLICE,MOUNT CARMEL BOROUGH POLICE DEPARTMENT,137 WEST FOURTH STREET,MOUNT CARMEL,PA,17851,"http://maps.google.com/maps?q=137 WEST FOURTH STREET,+MOUNT CARMEL,+PA+17851&hl=en"
MOUNT CARMEL TWP POLICE DEPARTMENT,MOUNT CARMEL BOROUGH POLICE DEPARTMENT,300 LAUREL STREET,MOUNT CARMEL,PA,17851,"http://maps.google.com/maps?q=300 LAUREL STREET,+MOUNT CARMEL,+PA+17851&hl=en"
NEW BRITAIN TOWNSHIP POLICE DEPARTMENT,GIANT,4275 COUNTY LINE ROAD,CHALFONT,PA,18914,"http://maps.google.com/maps?q=4275 COUNTY LINE ROAD,+CHALFONT,+PA+18914&hl=en"
NEW BRITAIN TOWNSHIP POLICE DEPARTMENT,NEW BRITAIN TOWNSHIP POLICE DEPARTMENT,207 PARK AVENUE,CHALFONT,PA,18914,"http://maps.google.com/maps?q=207 PARK AVENUE,+CHALFONT,+PA+18914&hl=en"
NEW HANOVER TOWNSHIP POLICE DEPARTMENT,NEW HANOVER TOWNSHIP POLICE DEPARMENT,2943 N. CHARLOTTE STREET,GILBERTSVILLE,PA,19525,"http://maps.google.com/maps?q=2943 N. CHARLOTTE STREET,+GILBERTSVILLE,+PA+19525&hl=en"
NEW HANOVER TOWNSHIP POLICE DEPT,NEW HANOVER TOWNSHIP POLICE DEPT,2943 N CHARLOTTE ST,GILBERTSVILLE,PA,19525,"http://maps.google.com/maps?q=2943 N CHARLOTTE ST,+GILBERTSVILLE,+PA+19525&hl=en"
NEW HOLLAND POLICE DEPT,GARDEN SPOT VILLAGE,433 SOUTH KINZER AVE,NEW HOLLAND,PA,17557,"http://maps.google.com/maps?q=433 SOUTH KINZER AVE,+NEW HOLLAND,+PA+17557&hl=en"
NORTH HUNTINGDON TWP. POLICE DEPARTMENT,"NORTH HUNTINGDON TWP. TOWNHOUSE 
												
													NHT MUNICIPAL BUILDING - POLICE DEPT.",11279 CENTER HIGHWAY,NORTH HUNTINGDON,PA,15642,"http://maps.google.com/maps?q=11279 CENTER HIGHWAY,+NORTH HUNTINGDON,+PA+15642&hl=en"
NORTHEASTERN REGIONAL POLICE,GIANT FOODS,205 GLEN DR,MANCHESTER,PA,17345,"http://maps.google.com/maps?q=205 GLEN DR,+MANCHESTER,+PA+17345&hl=en"
NORTHERN LANCASTER COUNTY REGIONAL POLICE DEPT.,GIANT FOOD STORE,1008 LITITZ PIKE,LITITZ,PA,17543,"http://maps.google.com/maps?q=1008 LITITZ PIKE,+LITITZ,+PA+17543&hl=en"
NORTHUMBERLAND COUNTY SHERIFF'S OFFICE,NORTHUMBERLAND COUNTY COURT HOUSE,201 MARKET STREET,SUNBURY,PA,17801,"http://maps.google.com/maps?q=201 MARKET STREET,+SUNBURY,+PA+17801&hl=en"
NORTHUMBERLAND POLICE DEPT,NORRY PHARMACY,125 DUKE ST,NORTHUMBERLAND,PA,17857,"http://maps.google.com/maps?q=125 DUKE ST,+NORTHUMBERLAND,+PA+17857&hl=en"
NORTHWEST LANCASTER CO REGIONAL POLICE DEPT,GIANT FOOD STORE,1278 N MARKET ST,ELIZABETHTOWN,PA,17022,"http://maps.google.com/maps?q=1278 N MARKET ST,+ELIZABETHTOWN,+PA+17022&hl=en"
NOVA COMMUNITY COLLEGE POLICE DEPARTMENT,"NOVA COMMUNITY COLLEGE - ANNANDALE 
												
													CA BUILDING FRONT ENTRANCE",8333 LITTLE RIVER TURNPIKE,ANNANDALE,VA,22003,"http://maps.google.com/maps?q=8333 LITTLE RIVER TURNPIKE,+ANNANDALE,+VA+22003&hl=en"
OAKLAND CITY POLICE,OAKLAND CITY HALL,15 SOUTH THIRD STREET,OAKLAND,MD,21550,"http://maps.google.com/maps?q=15 SOUTH THIRD STREET,+OAKLAND,+MD+21550&hl=en"
OAKMONT BOROUGH POLICE,RITE-AID,109 ALLEGHENY RIVER BLVD,OAKMONT,PA,15139,"http://maps.google.com/maps?q=109 ALLEGHENY RIVER BLVD,+OAKMONT,+PA+15139&hl=en"
PA STATE POLICE,BOSWELL PRESCRIPTION CENTER,210 OHIO ST,BOSWELL,PA,15531,"http://maps.google.com/maps?q=210 OHIO ST,+BOSWELL,+PA+15531&hl=en"
PA STATE POLICE TROOP H/GETTYSBURG,PA STATE POLICE/TROOP H/GETTYSBURG,3033 OLD HARRISBURG RD,GETTYSBURG,PA,17325,"http://maps.google.com/maps?q=3033 OLD HARRISBURG RD,+GETTYSBURG,+PA+17325&hl=en"
PENNRIDGE REGIONAL POLICE DEPARTMENT,PENNRIDGE POLICE DEPARTMENT HQ,200 RIDGE ROAD,SELLERSVILLE,PA,18960,"http://maps.google.com/maps?q=200 RIDGE ROAD,+SELLERSVILLE,+PA+18960&hl=en"
PENNSYLVANIA STATE POLICE TROOP M BETHLEHEM,PA STATE POLICE,2960 AIRPORT RD,BETHLEHEM,PA,18017,"http://maps.google.com/maps?q=2960 AIRPORT RD,+BETHLEHEM,+PA+18017&hl=en"
"PENNSYLVANIA STATE POLICE, LYKENS STATION","PENNSYLVANIA STATE POLICE 
												
													LYKENS STATION",301 STATE DR,ELIZABETHVILLE,PA,17023,"http://maps.google.com/maps?q=301 STATE DR,+ELIZABETHVILLE,+PA+17023&hl=en"
PERKASIE BOROUGH POLICE DEPARTMENT,PERKASIE BOROUGH POLICE DEPARTMENT,311 SOUTH 9TH STREET,PERKASIE,PA,18944,"http://maps.google.com/maps?q=311 SOUTH 9TH STREET,+PERKASIE,+PA+18944&hl=en"
PERRYVILLE POLICE DEPARTMENT,PERRYVILLE POLICE DEPARTMENT,2 PERRYVILLE TOWN CENTER DRIVE,PERRYVILLE,MD,21903,"http://maps.google.com/maps?q=2 PERRYVILLE TOWN CENTER DRIVE,+PERRYVILLE,+MD+21903&hl=en"
PHOENIXVILLE POLICE DEPARTMENT,PHOENIXVILLE BOROUGH HALL,351 BRIDGE STREET,PHOENIXVILLE,PA,19460,"http://maps.google.com/maps?q=351 BRIDGE STREET,+PHOENIXVILLE,+PA+19460&hl=en"
PLUM BOROUGH POLICE DEPARTMENT,BILL'S HOMETOWN PHARMACY,1095 UNITY CENTER ROAD,PITTSBURGH,PA,15239,"http://maps.google.com/maps?q=1095 UNITY CENTER ROAD,+PITTSBURGH,+PA+15239&hl=en"
PLUM BOROUGH POLICE DEPARTMENT,BILL'S HOMETOWN PHARMACY,2362 GOLDEN MILE HWY,PITTSBURGH,PA,15239,"http://maps.google.com/maps?q=2362 GOLDEN MILE HWY,+PITTSBURGH,+PA+15239&hl=en"
POTTSTOWN POLICE DEPARTMENT,BOROUGH OF POTTSTOWN,100 EAST HIGH ST,POTTSTOWN,PA,19464,"http://maps.google.com/maps?q=100 EAST HIGH ST,+POTTSTOWN,+PA+19464&hl=en"
PRESTON COUNTY SHERIFF,BELLDINA'S PHARMACY,107 S MAIN ST,MASONTOWN,WV,26542,"http://maps.google.com/maps?q=107 S MAIN ST,+MASONTOWN,+WV+26542&hl=en"
PRESTON COUNTY SHERIFF,BRUCETON PHARMACY,198 MORGANTOWN ST,BRUCETON MILLS,WV,26525,"http://maps.google.com/maps?q=198 MORGANTOWN ST,+BRUCETON MILLS,+WV+26525&hl=en"
PRESTON COUNTY SHERIFF,TERRA ALTA TOWN HALL,701-A EAST STATE AVENUE,TERRA ALTA,WV,26764,"http://maps.google.com/maps?q=701-A EAST STATE AVENUE,+TERRA ALTA,+WV+26764&hl=en"
PRINCE GEORGE'S COUNTY POLICE DEPARTMENT,"NORTHERN COLLECTION SITE 
												
													DISTRICT I, PGPD",5000 RHODE ISLAND AVENUE,HYATTSVILLE,MD,20784,"http://maps.google.com/maps?q=5000 RHODE ISLAND AVENUE,+HYATTSVILLE,+MD+20784&hl=en"
PRINCE WILLIAM  CO. PD,"NOVANT HEALTH  HAYMARKET MEDICAL CENTER 
												
													FRONT PARKING LOT",15225 HEATHCOTE BLVD,HAYMARKET,VA,20169,"http://maps.google.com/maps?q=15225 HEATHCOTE BLVD,+HAYMARKET,+VA+20169&hl=en"
PRINCE WILLIAM  CO. PD,"SENTARA LAKE RIDGE HOSPITAL 
												
													FRONT PARKING LOT",12825 MINNIEVILLE ROAD,LAKE RIDGE,VA,22192,"http://maps.google.com/maps?q=12825 MINNIEVILLE ROAD,+LAKE RIDGE,+VA+22192&hl=en"
PUNXSUTAWNEY BOROUGH POLICE DEPARTMENT,PUNXSY HOMETOWN PHARMACY,203 HAMPTON ROAD,PUNXSUTAWNEY,PA,15767,"http://maps.google.com/maps?q=203 HAMPTON ROAD,+PUNXSUTAWNEY,+PA+15767&hl=en"
QUAKERTOWN POLICE DEPARTMENT,"QUAKERTOWN BOROUGH HALL 
												
													PARKING LOT",35 N. 3RD STREET,QUAKERTOWN,PA,18951,"http://maps.google.com/maps?q=35 N. 3RD STREET,+QUAKERTOWN,+PA+18951&hl=en"
QUAKERTOWN POLICE DEPARTMENT,"ST LUKES QUAKERTOWN HOSPITAL 
												
													MAIN ENTRANCE",1021 PARK AVE,QUAKERTOWN,PA,18951,"http://maps.google.com/maps?q=1021 PARK AVE,+QUAKERTOWN,+PA+18951&hl=en"
QUANTICO MARINE CORPS BASE,QUANTICO MARINE CORPS EXCHANGE,4806 RUSSELL RD,QUANTICO,VA,22134,"http://maps.google.com/maps?q=4806 RUSSELL RD,+QUANTICO,+VA+22134&hl=en"
RANSON POLICE DEPARTMENT,RANSON POLICE DEPARTMENT,700 N. PRESTON ST,RANSON,WV,25438,"http://maps.google.com/maps?q=700 N. PRESTON ST,+RANSON,+WV+25438&hl=en"
RICHLAND TOWNSHIP POLICE DEPARTMENT,RICHLAND TOWNSHIP POLICE DEPARTMENT,229 CALIFORNIA ROAD,QUAKERTOWN,PA,18951,"http://maps.google.com/maps?q=229 CALIFORNIA ROAD,+QUAKERTOWN,+PA+18951&hl=en"
RICHLAND TOWNSHIP POLICE DEPARTMENT,RICHLAND TWP POLICE DEPT,229 CALIFORNIA RD,QUAKERTOWN,PA,18951,"http://maps.google.com/maps?q=229 CALIFORNIA RD,+QUAKERTOWN,+PA+18951&hl=en"
ROCKINGHAM COUNTY SHERIFF'S OFFICE,SENTARA RMH FUNKHOUSER WOMEN'S CENTER,2275 HEALTH CAMPUS DRIVE,ROCKINGHAM,VA,22801,"http://maps.google.com/maps?q=2275 HEALTH CAMPUS DRIVE,+ROCKINGHAM,+VA+22801&hl=en"
ROCKVILLE CITY POLICE DEPARTMENT,ROCKVILLE CITY POLICE DEPARTMENT,#2 W. MONTGOMERY AVENUE,ROCKVILLE,MD,20850,"http://maps.google.com/maps?q=#2 W. MONTGOMERY AVENUE,+ROCKVILLE,+MD+20850&hl=en"
ROYERSFORD POLICE DEPARTMENT,ROYERSFORD POLICE DEPARTMENT,300 MAIN STREET,ROYERSFORD,PA,19468,"http://maps.google.com/maps?q=300 MAIN STREET,+ROYERSFORD,+PA+19468&hl=en"
SALISBURY TOWNSHIP POLICE DEPARTMENT,SOUTH MALL,3300 LEHIGH STREET,ALLENTOWN,PA,18103,"http://maps.google.com/maps?q=3300 LEHIGH STREET,+ALLENTOWN,+PA+18103&hl=en"
SCHUYLKILL COUNTY SHERIFF'S OFFICE,ASHLAND POLICE DEPARTMENT,401 SOUTH 18TH STREET,ASHLAND,PA,17921,"http://maps.google.com/maps?q=401 SOUTH 18TH STREET,+ASHLAND,+PA+17921&hl=en"
SCHUYLKILL COUNTY SHERIFF'S OFFICE,BUTLER TOWNSHIP POLICE DEPARTMENT,211 BROAD STREET,ASHLAND,PA,17921,"http://maps.google.com/maps?q=211 BROAD STREET,+ASHLAND,+PA+17921&hl=en"
SCHUYLKILL COUNTY SHERIFF'S OFFICE,CASS TOWNSHIP POLICE DEPARTMENT,1209 VALLEY ROAD,POTTSVILLE,PA,17901,"http://maps.google.com/maps?q=1209 VALLEY ROAD,+POTTSVILLE,+PA+17901&hl=en"
SCHUYLKILL COUNTY SHERIFF'S OFFICE,COALDALE POLICE DEPARTMENT,221-223 3RD STREET,COALDALE,PA,18218,"http://maps.google.com/maps?q=221-223 3RD STREET,+COALDALE,+PA+18218&hl=en"
SCHUYLKILL COUNTY SHERIFF'S OFFICE,FRACKVILLE POLICE DEPARTMENT,42 SOUTH CENTER STREET,FRACKVILLE,PA,17931,"http://maps.google.com/maps?q=42 SOUTH CENTER STREET,+FRACKVILLE,+PA+17931&hl=en"
SCHUYLKILL COUNTY SHERIFF'S OFFICE,GIRARDVILLE POLICE DEPARTMENT,4TH & B. STREET,GIRARDVILLE,PA,17935,"http://maps.google.com/maps?q=4TH & B. STREET,+GIRARDVILLE,+PA+17935&hl=en"
SCHUYLKILL COUNTY SHERIFF'S OFFICE,HEGINS POLICE DEPARTMENT,417 GAP STREET,VALLEY VIEW,PA,17983,"http://maps.google.com/maps?q=417 GAP STREET,+VALLEY VIEW,+PA+17983&hl=en"
SCHUYLKILL COUNTY SHERIFF'S OFFICE,HOMETOWN AUCTION,125 MAHANOY AVE RT 54,TAMAQUA,PA,18252,"http://maps.google.com/maps?q=125 MAHANOY AVE RT 54,+TAMAQUA,+PA+18252&hl=en"
SCHUYLKILL COUNTY SHERIFF'S OFFICE,MAHANOY CITY POLICE DEPARTMENT,239 EAST PINE STREET,MAHANOY CITY,PA,17948,"http://maps.google.com/maps?q=239 EAST PINE STREET,+MAHANOY CITY,+PA+17948&hl=en"
SCHUYLKILL COUNTY SHERIFF'S OFFICE,MINERSVILLE POLICE DEPARTMENT,15 NORTH DELAWARE AVENUE,MINERSVILLE,PA,17954,"http://maps.google.com/maps?q=15 NORTH DELAWARE AVENUE,+MINERSVILLE,+PA+17954&hl=en"
SCHUYLKILL COUNTY SHERIFF'S OFFICE,ORWIGSBURG POLICE DEPARTMENT,209 NORTH WARREN STREET,ORWIGSBURG,PA,17961,"http://maps.google.com/maps?q=209 NORTH WARREN STREET,+ORWIGSBURG,+PA+17961&hl=en"
SCHUYLKILL COUNTY SHERIFF'S OFFICE,PINE GROVE POLICE DEPARTMENT,ONE SNYDER DRIVE,PINE GROVE,PA,17963,"http://maps.google.com/maps?q=ONE SNYDER DRIVE,+PINE GROVE,+PA+17963&hl=en"
SCHUYLKILL COUNTY SHERIFF'S OFFICE,PORT CARBON POLICE DEPARTMENT,90 WASHINGTON STREET,PORT CARBON,PA,17965,"http://maps.google.com/maps?q=90 WASHINGTON STREET,+PORT CARBON,+PA+17965&hl=en"
SCHUYLKILL COUNTY SHERIFF'S OFFICE,RUSH TOWNSHIP POLICE DEPT,104 MAHANOY AVE,TAMAQUA,PA,18252,"http://maps.google.com/maps?q=104 MAHANOY AVE,+TAMAQUA,+PA+18252&hl=en"
SCHUYLKILL COUNTY SHERIFF'S OFFICE,SAINT CLAIR POLICE DEPARTMENT,24 NORTH 2ND STREET,SAINT CLAIR,PA,17970,"http://maps.google.com/maps?q=24 NORTH 2ND STREET,+SAINT CLAIR,+PA+17970&hl=en"
SCHUYLKILL COUNTY SHERIFF'S OFFICE,SAINT LUKES MINERS CAMPUS,360 WEST RUDDLE ST,COALDALE,PA,18218,"http://maps.google.com/maps?q=360 WEST RUDDLE ST,+COALDALE,+PA+18218&hl=en"
SCHUYLKILL COUNTY SHERIFF'S OFFICE,"SCHUYLKILL COUNTY COURT HOUSE (SECURITY ENTRANCE) 
												
													SECURITY ENTRANCE",401 NORTH 2ND STREET,POTTSVILLE,PA,17901,"http://maps.google.com/maps?q=401 NORTH 2ND STREET,+POTTSVILLE,+PA+17901&hl=en"
SCHUYLKILL COUNTY SHERIFF'S OFFICE,SCHUYLKILL HAVEN POLICE DEPARTMENT,220 PARKWAY AVENUE,SCHUYLKILL HAVEN,PA,17972,"http://maps.google.com/maps?q=220 PARKWAY AVENUE,+SCHUYLKILL HAVEN,+PA+17972&hl=en"
SCHUYLKILL COUNTY SHERIFF'S OFFICE,SHENANDOAH POLICE DEPARTMENT,15 WEST WASHINGTON STREET,SHENANDOAH,PA,17976,"http://maps.google.com/maps?q=15 WEST WASHINGTON STREET,+SHENANDOAH,+PA+17976&hl=en"
SCHUYLKILL COUNTY SHERIFF'S OFFICE,TAMAQUA POLICE DEPARTMENT,320 BROAD STREET,TAMAQUA,PA,18252,"http://maps.google.com/maps?q=320 BROAD STREET,+TAMAQUA,+PA+18252&hl=en"
SCHUYLKILL COUNTY SHERIFF'S OFFICE,TREMONT POLICE DEPARTMENT,19 NORTH PINE STREET,TREMONT,PA,17981,"http://maps.google.com/maps?q=19 NORTH PINE STREET,+TREMONT,+PA+17981&hl=en"
SEWARD BORO POLICE DEPT,ROADWAY PHARMACY,6858 RT 711,SEWARD,PA,15954,"http://maps.google.com/maps?q=6858 RT 711,+SEWARD,+PA+15954&hl=en"
SHADE TOWNSHIP POLICE,PENN LAUREL PHARMACY,112 SUNSHINE AVE,CENTRAL CITY,PA,15926,"http://maps.google.com/maps?q=112 SUNSHINE AVE,+CENTRAL CITY,+PA+15926&hl=en"
SHAMOKIN POLICE DEPARTMENT,SHAMOKIN POLICE DEPARTMENT,511 NORTH FRANKLIN STREET,SHAMOKIN,PA,17872,"http://maps.google.com/maps?q=511 NORTH FRANKLIN STREET,+SHAMOKIN,+PA+17872&hl=en"
SHAWNEE STATE PARK,SHAWNEE STATE PARK: PAVILLION #2,132 STATE PARK ROAD,SCHELLSBURG,PA,15559,"http://maps.google.com/maps?q=132 STATE PARK ROAD,+SCHELLSBURG,+PA+15559&hl=en"
SHENANDOAH COUNTY SHERIFF'S OFFICE,"CVS PHARMACY 
												
													PARKING LOT FACING RESERVOIR RD.",221 WEST RESERVOIR ROAD,WOODSTOCK,VA,22664,"http://maps.google.com/maps?q=221 WEST RESERVOIR ROAD,+WOODSTOCK,+VA+22664&hl=en"
SHEPERDSTOWN POLICE DEPARTMENT,SHEPERDSTOWN POLICE DEPARTMENT,104 N. KING ST.,SHEPHERDSTOWN,WV,25443,"http://maps.google.com/maps?q=104 N. KING ST.,+SHEPHERDSTOWN,+WV+25443&hl=en"
SOUDERTON BOROUGH POLICE,SOUDERTON BOROUGH POLICE STATION,31 WEST SUMMIT ST,SOUDERTON,PA,18964,"http://maps.google.com/maps?q=31 WEST SUMMIT ST,+SOUDERTON,+PA+18964&hl=en"
SOUTH WHITEHALL TWP POLICE DEPT,SOUTH WHITEHALL TWP POLICE DEPT,4444 WALBERT AVENUE,ALLENTOWN,PA,18104,"http://maps.google.com/maps?q=4444 WALBERT AVENUE,+ALLENTOWN,+PA+18104&hl=en"
SOUTHERN CHESTER COUNTY REGIONAL POLICE DEPARTMENT,GIANT FOOD STORES,350 SCARLETT ROAD,KENNETT SQUARE,PA,19348,"http://maps.google.com/maps?q=350 SCARLETT ROAD,+KENNETT SQUARE,+PA+19348&hl=en"
SOUTHERN CHESTER COUNTY REGIONAL POLICE DEPARTMENT,"WEST GROVE BOROUGH BUILDING 
												
													SCCRPD LOBBY",117 ROSEHILL AVE,WEST GROVE,PA,19390,"http://maps.google.com/maps?q=117 ROSEHILL AVE,+WEST GROVE,+PA+19390&hl=en"
STRASBURG POLICE DEPARTMENT,"STRASBURG TOWN HALL 
												
													SIDE PARKING LOT",174 EAST KING STREET,STRASBURG,VA,22657,"http://maps.google.com/maps?q=174 EAST KING STREET,+STRASBURG,+VA+22657&hl=en"
SULLIVAN COUNTY SHERIFF'S OFFICE,SULLIVAN COUNTY SHERIFF'S OFFICE,245 MUNCY ST,LAPORTE,PA,18626,"http://maps.google.com/maps?q=245 MUNCY ST,+LAPORTE,+PA+18626&hl=en"
SUMMIT HILL POLICE DEPARTMENT,SUMMIT HILL POLICE DEPARTMENT,"40 W. AMIDON STREET, SUITE 1",SUMMIT HILL,PA,18250,"http://maps.google.com/maps?q=40 W. AMIDON STREET, SUITE 1,+SUMMIT HILL,+PA+18250&hl=en"
SUNBURY POLICE DEPARTMENT,SUNBURY POLICE DEPARTMENT,440 MARKET STREET,SUNBURY,PA,17801,"http://maps.google.com/maps?q=440 MARKET STREET,+SUNBURY,+PA+17801&hl=en"
SUSQUEHANNA TOWNSHIP POLICE DEPARTMENT,GIANT FOOD STORE,2300 LINGLESTOWN RD.,HARRISBURG,PA,17110,"http://maps.google.com/maps?q=2300 LINGLESTOWN RD.,+HARRISBURG,+PA+17110&hl=en"
TAKOMA PARK POLICE DEPARTMENT,"TAKOMA PARK POLICE DEPARTMENT 
												
													LOBBY",7500 MAPLE AVENUE,TAKOMA PARK,MD,20912,"http://maps.google.com/maps?q=7500 MAPLE AVENUE,+TAKOMA PARK,+MD+20912&hl=en"
TELFORD BOROUGH POLICE DEPARTMENT,INDIAN VALLEY PUBLIC LIBRARY,100 EAST CHURCH AVENUE,TELFORD,PA,18969,"http://maps.google.com/maps?q=100 EAST CHURCH AVENUE,+TELFORD,+PA+18969&hl=en"
TOWAMENCIN TOWNSHIP POLICE DEPARTMENT,TOWAMENCIN TOWNSHIP POLICE DEPARTMENT,1090 TROXEL ROAD,LANSDALE,PA,19446,"http://maps.google.com/maps?q=1090 TROXEL ROAD,+LANSDALE,+PA+19446&hl=en"
TOWN OF BATH POLICE DEPARTMENT,"MORGAN COUNTY HEALTH DEPARTMENT 
												
													POC: BILL KEARNS",137 WAR MEMORIAL DR.,BERKELEY SPRINGS,WV,25411,"http://maps.google.com/maps?q=137 WAR MEMORIAL DR.,+BERKELEY SPRINGS,+WV+25411&hl=en"
TOWNSHIP OF SPRING POLICE DEPARTMENT,GIANT FOOD STORE #6050,2641 SHILLINGTON RD.,READING,PA,19608,"http://maps.google.com/maps?q=2641 SHILLINGTON RD.,+READING,+PA+19608&hl=en"
TOWNSHIP OF SPRING POLICE DEPARTMENT,GIANT FOOD STORE 6289,2104 VAN REED RD.,READING,PA,19609,"http://maps.google.com/maps?q=2104 VAN REED RD.,+READING,+PA+19609&hl=en"
TREDYFFRIN TOWNSHIP POLICE DEPARTMENT,TREDYFFRIN TOWNSHIP POLICE DEPARTMENT,1100 DUPORTAIL ROAD,BERWYN,PA,19312,"http://maps.google.com/maps?q=1100 DUPORTAIL ROAD,+BERWYN,+PA+19312&hl=en"
UNIVERSITY OF MARYLAND BALTIMORE POLICE,SMC CAMPUS CENTER LOBBY,621 W. LOMBARD STREET,BALTIMORE,MD,21201,"http://maps.google.com/maps?q=621 W. LOMBARD STREET,+BALTIMORE,+MD+21201&hl=en"
UNIVERSITY OF MD BALTIMORE COUNTY POLICE,"UMBC POLICE DEPARTMENT 
												
													POLICE STATION","1000 HILLTOP CIRCLE,LOT 8",BALTIMORE,MD,21250,"http://maps.google.com/maps?q=1000 HILLTOP CIRCLE,,+BALTIMORE,+MD+21250&hl=en"
UNIVERSITY OF MD POLICE DEPT OF PUBLIC SAFETY,UNIVERSITY OF MD POLICE DEPT OF PUBLIC SAFETY,7569 BALTIMORE AVENUE,COLLEGE PARK,MD,20742,"http://maps.google.com/maps?q=7569 BALTIMORE AVENUE,+COLLEGE PARK,+MD+20742&hl=en"
UNIVERSITY OF PITTSBURGH MED CTR,"UPMC EAST 
												
													MAIN LOBBY",2775 MOSSIDE BLVD,MONROEVILLE,PA,15146,"http://maps.google.com/maps?q=2775 MOSSIDE BLVD,+MONROEVILLE,+PA+15146&hl=en"
UNIVERSITY OF PITTSBURGH MED CTR,"UPMC MCKEESPORT 
												
													1-CRAWFORD PATIENT DISCHARGE LOUNGE",1500 FIFTH AVE,MCKEESPORT,PA,15132,"http://maps.google.com/maps?q=1500 FIFTH AVE,+MCKEESPORT,+PA+15132&hl=en"
UPPER GWYNEDD TOWNSHIP POLICE DEPARTMENT,UPPER GWYNEDD TOWNSHIP POLICE DEPARTMENT,1 PARKSIDE PLACE,WEST POINT,PA,19486,"http://maps.google.com/maps?q=1 PARKSIDE PLACE,+WEST POINT,+PA+19486&hl=en"
UPPER MACUNGIE POLICE DEPT,UPPER MACUNGIE POLICE DEPT,37 GRIM RD,BREINIGSVILLE,PA,18031,"http://maps.google.com/maps?q=37 GRIM RD,+BREINIGSVILLE,+PA+18031&hl=en"
UPPER MERION TOWNSHIP POLICE DEPARTMENT,UPPER MERION TOWNSHIP POLICE DEPARTMENT,175 WEST VALLEY FORGE ROAD,KING OF PRUSSIA,PA,19406,"http://maps.google.com/maps?q=175 WEST VALLEY FORGE ROAD,+KING OF PRUSSIA,+PA+19406&hl=en"
UPPER PERK POLICE DEPT,UPPER PERK POLICE STATION,88 W. 6TH STREET,PENNSBURG,PA,18073,"http://maps.google.com/maps?q=88 W. 6TH STREET,+PENNSBURG,+PA+18073&hl=en"
UPPER PROVIDENCE TWP POLICE DEPT.,UPPER PROVIDENCE TWP. POLICE DEPT.,1286 BLACK ROCK RD.,OAKS,PA,19456,"http://maps.google.com/maps?q=1286 BLACK ROCK RD.,+OAKS,+PA+19456&hl=en"
UPPER SAUCON TWP POLICE DEPT,UPPER SAUCON PD,5500 CAMP MEETING RD,CENTER VALLEY,PA,18034,"http://maps.google.com/maps?q=5500 CAMP MEETING RD,+CENTER VALLEY,+PA+18034&hl=en"
VIENNA POLICE DEPARTMENT,VIENNA POLICE DEPARTMENT,215 CENTER STREET SOUTH,VIENNA,VA,22180,"http://maps.google.com/maps?q=215 CENTER STREET SOUTH,+VIENNA,+VA+22180&hl=en"
VIRGINIA STATE POLICE,"VIRGINIA STATE POLICE DIVISION II HQS 
												
													POC: LT. JEFFREY LANE",15148 STATE POLICE ROAD,CULPEPER,VA,22701,"http://maps.google.com/maps?q=15148 STATE POLICE ROAD,+CULPEPER,+VA+22701&hl=en"
VIRGINIA STATE POLICE,"VIRGINIA STATE POLICE DIVISION VII HQS 
												
													POC: SGT BILL JOYNER",4977 ALLIANCE DRIVE,FAIRFAX,VA,22030,"http://maps.google.com/maps?q=4977 ALLIANCE DRIVE,+FAIRFAX,+VA+22030&hl=en"
WARREN COUNTY SHERIFF'S OFFICE,VALLEY HEALTH REHABILITATION SERVICES,120 NORTH COMMERCE AVE,FRONT ROYAL,VA,22630,"http://maps.google.com/maps?q=120 NORTH COMMERCE AVE,+FRONT ROYAL,+VA+22630&hl=en"
WASHINGTON METROPOLITAN POLICE DEPT,FOURTH POLICE DISTRICT,"6001 GEORGIA AVENUE, NW",WASHINGTON,DC,20011,"http://maps.google.com/maps?q=6001 GEORGIA AVENUE, NW,+WASHINGTON,+DC+20011&hl=en"
WASHINGTON METROPOLITAN POLICE DEPT,SECOND POLICE DISTRICT,"3320 IDAHO AVENUE, NW",WASHINGTON,DC,20016,"http://maps.google.com/maps?q=3320 IDAHO AVENUE, NW,+WASHINGTON,+DC+20016&hl=en"
WASHINGTON METROPOLITAN POLICE DEPT,THIRD POLICE DISTRIST,"1620 V STREET, NW",WASHINGTON,DC,20009,"http://maps.google.com/maps?q=1620 V STREET, NW,+WASHINGTON,+DC+20009&hl=en"
WASHINGTON SUBURBAN SANITARY COMMISSION,WSSC POLICE DEPARTMENT,14501 SWEITZER LANE,LAUREL,MD,20707,"http://maps.google.com/maps?q=14501 SWEITZER LANE,+LAUREL,+MD+20707&hl=en"
WELLSBORO POLICE DEPARTMENT,WELLSBORO POLICE DEPARTMENT,28 CRAFTON STREET,WELLSBORO,PA,16901,"http://maps.google.com/maps?q=28 CRAFTON STREET,+WELLSBORO,+PA+16901&hl=en"
WEST MANCHESTER TOWNSHIP POLICE DEPT,GIANT,1255 CARLISLE RD,YORK,PA,17404,"http://maps.google.com/maps?q=1255 CARLISLE RD,+YORK,+PA+17404&hl=en"
WEST NORRITON TOWNSHIP POLICE DEPARTMENT,WEST NORRITON POLICE DEPARTMENT,1630 W. MARSHALL,NORRISTOWN,PA,19403,"http://maps.google.com/maps?q=1630 W. MARSHALL,+NORRISTOWN,+PA+19403&hl=en"
WEST POTTSGROVE TWP. POLICE DEPARTMENT,WEST POTTSGROVE TWP. POLICE DEPARTMENT,"980 N. GROSSTOWNSTOWE, A",POTTSTOWN,PA,19464,"http://maps.google.com/maps?q=980 N. GROSSTOWN,+POTTSTOWN,+PA+19464&hl=en"
WEST VIRGINIA STATE POLICE,"WEST VIRGINIA STATE POLICE 
												
													SGT J.R FLETCHER/3048223561",525 DEPOT STREET,ROMNEY,WV,26757,"http://maps.google.com/maps?q=525 DEPOT STREET,+ROMNEY,+WV+26757&hl=en"
WEST VIRGINIA STATE POLICE,"WVSP-CHARLES TOWN 
												
													SGT J.S. CHUMLEY/304-725-9779",409 INDUSTRIAL BLVD.,KEARNEYSVILLE,WV,25430,"http://maps.google.com/maps?q=409 INDUSTRIAL BLVD.,+KEARNEYSVILLE,+WV+25430&hl=en"
WEST VIRGINIA STATE POLICE,"WVSP-KEYSER 
												
													SGT. S.B. HUFFMAN/3047881101","730 FORT ASHBY RDRT 1, BOX 172D",KEYSER,WV,26726,"http://maps.google.com/maps?q=730 FORT ASHBY RD,+KEYSER,+WV+26726&hl=en"
WEST VIRGINIA STATE POLICE,"WVSP-MARTINSBURG 
												
													SGT M.A. COLE/3042670001",14 TROOPER DR,MARTINSBURG,WV,25404,"http://maps.google.com/maps?q=14 TROOPER DR,+MARTINSBURG,+WV+25404&hl=en"
WINCHESTER CITY SHERIFF'S OFFICE,COURTHOUSE,5 NORTH KENT ST,WINCHESTER,VA,22601,"http://maps.google.com/maps?q=5 NORTH KENT ST,+WINCHESTER,+VA+22601&hl=en"
WINCHESTER CITY SHERIFF'S OFFICE,CVS PHARMACY,840 BERRYVILLE AV,WINCHESTER,VA,22601,"http://maps.google.com/maps?q=840 BERRYVILLE AV,+WINCHESTER,+VA+22601&hl=en"
WINCHESTER CITY SHERIFF'S OFFICE,ROTZ PHARMACY,1338 AMHERST ST,WINCHESTER,VA,22601,"http://maps.google.com/maps?q=1338 AMHERST ST,+WINCHESTER,+VA+22601&hl=en"
WINDBER BOROUGH POLICE DEPT,MARTELLA'S PHARMACY,901 CORAHAM AVE,WINDBER,PA,15963,"http://maps.google.com/maps?q=901 CORAHAM AVE,+WINDBER,+PA+15963&hl=en"
WOODSTOCK POLICE DEPARTMENT,"WALMART 
												
													NEAR FRONT ENTRANCE",461 W. RESERVOIR RD,WOODSTOCK,VA,22664,"http://maps.google.com/maps?q=461 W. RESERVOIR RD,+WOODSTOCK,+VA+22664&hl=en"
WRIGHT TOWNSHIP POLICE DEPARTMENT,WRIGHT TOWNSHIP POLICE DEPARTMENT,321 SOUTH MOUNTAIN. BLVD.,MOUNTAIN TOP,PA,18707,"http://maps.google.com/maps?q=321 SOUTH MOUNTAIN. BLVD.,+MOUNTAIN TOP,+PA+18707&hl=en"
