Participant,CollectionSite,Address,City,State,Zip,MapURL
ADAMS COUNTY SHERIFF'S OFFICE - SPECIAL OPERATIONS,ADAMS COUNTY SHERIFF'S OFFICE - SPECIAL OPERATIONS,306 STATE ST.,NATCHEZ,MS,39120,"http://maps.google.com/maps?q=306 STATE ST.,+NATCHEZ,+MS+39120&hl=en"
ALABAMA COUSHATTA POLICE DEPARTMENT,ALABAMA COUSHATTA POLICE DEPARTMENT,571 STATE PARK ROAD 56,LIVINGSTON,TX,77351,"http://maps.google.com/maps?q=571 STATE PARK ROAD 56,+LIVINGSTON,+TX+77351&hl=en"
ALEXANDRIA CITY MARSHAL'S OFFICE,ALEXANDRIA CITY MARSHAL'S OFFICE,515 WASHINGTON STREET,ALEXANDRIA,LA,71301,"http://maps.google.com/maps?q=515 WASHINGTON STREET,+ALEXANDRIA,+LA+71301&hl=en"
ALEXANDRIA POLICE DEPARTMENT,ALEXANDRIA POLICE DEPARTMENT,1000 BOLTON AVE,ALEXANDRIA,LA,71301,"http://maps.google.com/maps?q=1000 BOLTON AVE,+ALEXANDRIA,+LA+71301&hl=en"
ANGELINA COUNTY SHERRIFF'S OFFICE,ANGELINA COUNTY SHERRIFF'S OFFICE,2311 E. LUFKIN AVENUE,LUFKIN,TX,75901,"http://maps.google.com/maps?q=2311 E. LUFKIN AVENUE,+LUFKIN,+TX+75901&hl=en"
ARKADELPHIA POLICE DEPARTMENT,CLARK COUNTY COURTHOUSE,401 CLAY STREET,ARKADELPHIA,AR,71923,"http://maps.google.com/maps?q=401 CLAY STREET,+ARKADELPHIA,+AR+71923&hl=en"
ARNAUDVILLE POLICE DEPARTMENT,COURTNEY THRIFTYWAY PHARMACY,412 OLIVE STREET,ARNAUDVILLE,LA,70512,"http://maps.google.com/maps?q=412 OLIVE STREET,+ARNAUDVILLE,+LA+70512&hl=en"
ASHDOWN POLICE DEPARTMENT,"ASHDOWN POLICE DEPARTMENT 
												
													PERMANENT DROP BOX",745 SOUTH LOCUST STREET,ASHDOWN,AR,71822,"http://maps.google.com/maps?q=745 SOUTH LOCUST STREET,+ASHDOWN,+AR+71822&hl=en"
BATON ROUGE PD,BATON ROUGE PD,9000 AIRLINE HWY,BATON ROUGE,LA,70815,"http://maps.google.com/maps?q=9000 AIRLINE HWY,+BATON ROUGE,+LA+70815&hl=en"
BEAUREGARD PARISH SHERIFF'S DEPARTMENT,BEAUREGARD PARISH SHERIFF'S DEPARTMENT,412 BOLIVAR BISHOP DRIVE,DERIDDER,LA,70634,"http://maps.google.com/maps?q=412 BOLIVAR BISHOP DRIVE,+DERIDDER,+LA+70634&hl=en"
BEAUREGARD PARISH SHERIFF'S OFFICE,BEAUREGARD S.O,412 BOLIVER DISHOP DR.,DERIDDER,LA,70634,"http://maps.google.com/maps?q=412 BOLIVER DISHOP DR.,+DERIDDER,+LA+70634&hl=en"
BOGALUSA POLICE DEPARTMENT,NIELSEN'S PHARMACY,1619 S. COLUMBIA STREET,BOGALUSA,LA,70427,"http://maps.google.com/maps?q=1619 S. COLUMBIA STREET,+BOGALUSA,+LA+70427&hl=en"
BRADLEY COUNTY SHERIFF'S OFFICE,"BRADLEY COUNTY SHERIFF'S OFFICE 
												
													PERMANENT DROP BOX",101 EAST CEDAR ST,WARREN,AR,71671,"http://maps.google.com/maps?q=101 EAST CEDAR ST,+WARREN,+AR+71671&hl=en"
BROUSSARD POLICE DEPARTMENT,"WALGREENS 
												
													PARKING LOT",105 ST. NAZAIRE,BROUSSARD,LA,70518,"http://maps.google.com/maps?q=105 ST. NAZAIRE,+BROUSSARD,+LA+70518&hl=en"
CADDO PARISH SHERIFF'S OFFICE,SHERIFF'S SAFETY TOWN,8910 JEWELLA AVENUE,SHREVEPORT,LA,71118,"http://maps.google.com/maps?q=8910 JEWELLA AVENUE,+SHREVEPORT,+LA+71118&hl=en"
CAMDEN POLICE DEPARTMENT,CAMDEN POLICE DEPARTMENT,1 POLICE DRIVE,CAMDEN,AR,71701,"http://maps.google.com/maps?q=1 POLICE DRIVE,+CAMDEN,+AR+71701&hl=en"
CENTRAL POLICE DEPARTMENT,CENTRAL POLICE DEPARTMENT,13421 HOOPER RD STE 6,BATON ROUGE,LA,70818,"http://maps.google.com/maps?q=13421 HOOPER RD STE 6,+BATON ROUGE,+LA+70818&hl=en"
CHITIMACHA TRIBAL POLICE DEPARTMENT,CHITIMACHA FIRE DEPARTMENT,215 COUSHATTA DRIVE,CHARENTON,LA,70523,"http://maps.google.com/maps?q=215 COUSHATTA DRIVE,+CHARENTON,+LA+70523&hl=en"
COVINGTON POLICE DEPARTMENT,COVINGTON POLICE DEPARTMENT,200 E KIRKLAND ST.,COVINGTON,LA,70433,"http://maps.google.com/maps?q=200 E KIRKLAND ST.,+COVINGTON,+LA+70433&hl=en"
CROSSETT POLICE DEPARTMENT,"CROSSETT POLICE DEPARTMENT 
												
													PERMANENT DROP BOX",307 MAIN STREET,CROSSETT,AR,71635,"http://maps.google.com/maps?q=307 MAIN STREET,+CROSSETT,+AR+71635&hl=en"
DAINGERFIELD PD,SHOPPING CENTER,305 W.M. WATSON BLVD.,DAINGERFIELD,TX,75638,"http://maps.google.com/maps?q=305 W.M. WATSON BLVD.,+DAINGERFIELD,+TX+75638&hl=en"
DALLAS COUNTY SHERIFF'S OFFICE,"DALLAS COUNTY SHERIFF'S OFFICE 
												
													PERMANENT DROP BOX",106 SOUTH CHARLOTTE,FORDYCE,AR,71742,"http://maps.google.com/maps?q=106 SOUTH CHARLOTTE,+FORDYCE,+AR+71742&hl=en"
DE WITT POLICE DEPARTMENT,"DE WITT POLICE DEPARTMENT 
												
													PERMANENT DROP BOX",120 COURT SQUARE,DE WITT,AR,72042,"http://maps.google.com/maps?q=120 COURT SQUARE,+DE WITT,+AR+72042&hl=en"
DERIDDER POLICE DEPARTMENT,DERIDDER PD,200 SOUTH JEFFERSON STREET,DERIDDER,LA,70634,"http://maps.google.com/maps?q=200 SOUTH JEFFERSON STREET,+DERIDDER,+LA+70634&hl=en"
DREW COUNTY SHERIFF'S OFFICE,DREW COUNTY SHERIFF'S OFFICE,210 S. MAIN STREET,MONTICELLO,AR,71655,"http://maps.google.com/maps?q=210 S. MAIN STREET,+MONTICELLO,+AR+71655&hl=en"
DREW COUNTY SHERIFF'S OFFICE,FRED'S PHARMACY,US 425 SOUTH,MONTICELLO,AR,71655,"http://maps.google.com/maps?q=US 425 SOUTH,+MONTICELLO,+AR+71655&hl=en"
DUMAS POLICE DEPARTMENT,"DUMAS POLICE DEPARTMENT 
												
													PERMANENT DROP BOX",149 E WATERMAN,DUMAS,AR,71639,"http://maps.google.com/maps?q=149 E WATERMAN,+DUMAS,+AR+71639&hl=en"
EAST BATON ROUGE PARISH SHERIFF'S OFFICE,EBRSO BURBANK TRAFFIC OFFICE,9313 BURBANK DR.,BATON ROUGE,LA,70810,"http://maps.google.com/maps?q=9313 BURBANK DR.,+BATON ROUGE,+LA+70810&hl=en"
GILMER POLICE DEPARTMENT,GILMER CIVIC CENTER,1218 271 NORTH,GILMER,TX,75644,"http://maps.google.com/maps?q=1218 271 NORTH,+GILMER,+TX+75644&hl=en"
GLENWOOD POLICE DEPARTMENT,"GLENWOOD CITY HALL 
												
													PERMANENT DROP BOX",210 NORTH 2ND STREET,GLENWOOD,AR,71943,"http://maps.google.com/maps?q=210 NORTH 2ND STREET,+GLENWOOD,+AR+71943&hl=en"
GONZALES POLICE DEPARTMENT,GONGALES POLICE DEPARTMENT,415 E CORNERVIEW RD,GONZALES,LA,70737,"http://maps.google.com/maps?q=415 E CORNERVIEW RD,+GONZALES,+LA+70737&hl=en"
GRANT COUNTY SHERIFF'S OFFICE,"GRANT COUNTY SHERIFF'S DEPARTMENT 
												
													PERMANENT DROP BOX",101 WEST PINE STREET,SHERIDAN,AR,72150,"http://maps.google.com/maps?q=101 WEST PINE STREET,+SHERIDAN,+AR+72150&hl=en"
HENDERSON PD,HENDERSON FIRE DEPARTMENT #2,612 HWY 79 N,HENDERSON,TX,75652,"http://maps.google.com/maps?q=612 HWY 79 N,+HENDERSON,+TX+75652&hl=en"
HOPE POLICE DEPARTMENT,"HEMPSTEAD COUNTY LAW ENFORCEMENT CENTER 
												
													PERMANENT DROP BOX",312 SOUTH WASHINGTON,HOPE,AR,71801,"http://maps.google.com/maps?q=312 SOUTH WASHINGTON,+HOPE,+AR+71801&hl=en"
HOUMA POLICE DEPARTMENT,HOUMA POLICE DEPARTMENT,500 HONDURAS,HOUMA,LA,70360,"http://maps.google.com/maps?q=500 HONDURAS,+HOUMA,+LA+70360&hl=en"
HOWARD COUNTY SHERIFF'S OFFICE,"HOWARD COUNTY SHERIFF'S OFFICE 
												
													PERMANENT DROP BOX",101 ISAAC PERKINS BLVD.,NASHVILLE,AR,71852,"http://maps.google.com/maps?q=101 ISAAC PERKINS BLVD.,+NASHVILLE,+AR+71852&hl=en"
HUNTSVILLE POLICE DEPARTMENT,"HUNTSVILLE POLICE DEPARTMENT 
												
													HUNTSVILLE HIGH SCHOOL",515 FM 2821 ROAD EAST,HUNTSVILLE,TX,77320,"http://maps.google.com/maps?q=515 FM 2821 ROAD EAST,+HUNTSVILLE,+TX+77320&hl=en"
JACKSONVILLE PD,JACKSONVILLE CHAMBER OF COMMERCE,526 E. COMMERCE ST,JACKSONVILLE,TX,75766,"http://maps.google.com/maps?q=526 E. COMMERCE ST,+JACKSONVILLE,+TX+75766&hl=en"
JASPER POLICE DEPARTMENT,JASPER POLICE DEPARTMENT,555 S MAIN STREET,JASPER,TX,75951,"http://maps.google.com/maps?q=555 S MAIN STREET,+JASPER,+TX+75951&hl=en"
JEFFERSON COUNTY SHERIFF'S OFFICE,"JEFFERSON COUNTY SHERIFF'S OFFICE 
												
													PERMANENT DROP BOX",300 EAST 2ND AVE,PINE BLUFF,AR,71601,"http://maps.google.com/maps?q=300 EAST 2ND AVE,+PINE BLUFF,+AR+71601&hl=en"
LA PARTNERSHIP FOR SUCESS,WALAMRT VIDALIA STORE,4283 CARTER STREET,VIDALIA,LA,71373,"http://maps.google.com/maps?q=4283 CARTER STREET,+VIDALIA,+LA+71373&hl=en"
LAFAYETTE COUNTY SHERIFF'S OFFICE,"LAFAYETTE COUNTY SHERIFF'S OFFICE 
												
													PERMANENT DROP BOX",5 COURTHOUSE SQUARE,LEWISVILLE,AR,71845,"http://maps.google.com/maps?q=5 COURTHOUSE SQUARE,+LEWISVILLE,+AR+71845&hl=en"
LAFAYETTE PARISH SHERIFF'S OFFICE,"LAFAYETTE PARISH SHERIFF'S OFFICE 
												
													PUBLIC SAFETY COMPLEX",1825 W. WILLOW ST,SCOTT,LA,70583,"http://maps.google.com/maps?q=1825 W. WILLOW ST,+SCOTT,+LA+70583&hl=en"
LAFAYETTE PARISH SHERIFF'S OFFICE,LAFAYETTE PARISH SHERIFF'S OFFICE PUBLIC SAFETY CO,1825 W. WILLOW STREET,SCOTT,LA,70583,"http://maps.google.com/maps?q=1825 W. WILLOW STREET,+SCOTT,+LA+70583&hl=en"
LINCOLN COUNTY SHERIFF'S OFFICE,"LINCOLN COUNTY SHERIFF'S OFFICE 
												
													PERMANENT DROP BOX",300 SOUTH DREW STREET,STAR CITY,AR,71667,"http://maps.google.com/maps?q=300 SOUTH DREW STREET,+STAR CITY,+AR+71667&hl=en"
LITTLE RIVER COUNTY SHERIFF'S OFFICE,"LITTLE RIVER COUNTY SHERIFF'S OFFICE 
												
													PERMANENT DROP BOX",351 N. SECOND ST.,ASHDOWN,AR,71822,"http://maps.google.com/maps?q=351 N. SECOND ST.,+ASHDOWN,+AR+71822&hl=en"
LIVONIA POLICE DEPARTMENT,LIVONIA POLICE DEPARTMENT,3111 LA HWY 78,LIVONIA,LA,70755,"http://maps.google.com/maps?q=3111 LA HWY 78,+LIVONIA,+LA+70755&hl=en"
LOUISIANA STATE POLICE,LSP TROOP L HEAD QUARTERS,2600 NORTH CAUSEWAY,MANDEVILLE,LA,70471,"http://maps.google.com/maps?q=2600 NORTH CAUSEWAY,+MANDEVILLE,+LA+70471&hl=en"
LOUISIANA STATE POLICE TROOP F,TROOP F HEADQUARTERS,1240 LA HGHWAY 594,MONROE,LA,71203,"http://maps.google.com/maps?q=1240 LA HGHWAY 594,+MONROE,+LA+71203&hl=en"
MALVERN POLICE DEPARTMENT,"MALVERN POLICE DEPARTMENT 
												
													PERMANENT DROP BOX",215 EAST HIGHLAND AVE,MALVERN,AR,72104,"http://maps.google.com/maps?q=215 EAST HIGHLAND AVE,+MALVERN,+AR+72104&hl=en"
MALVERN POLICE DEPARTMENT,MALVERN WALMART SUPERCENTER PARKING LOT,1910 MARTIN LUTHER KING BLVD,MALVERN,AR,72104,"http://maps.google.com/maps?q=1910 MARTIN LUTHER KING BLVD,+MALVERN,+AR+72104&hl=en"
MANDEVILLE POLICE DEPARTMENT,MANDEVILLE POLICE DEPARTMENT,1870 HWY 90,MANDEVILLE,LA,70448,"http://maps.google.com/maps?q=1870 HWY 90,+MANDEVILLE,+LA+70448&hl=en"
MCGEHEE POLICE DEPARTMENT,"MCGEHEE POLICE DEPARTMENT 
												
													PERMANENT DROP BOX",517 E. ASH STREET,MC GEHEE,AR,71654,"http://maps.google.com/maps?q=517 E. ASH STREET,+MC GEHEE,+AR+71654&hl=en"
MILLER COUNTY SHERIFF'S OFFICE,"MILLER COUNTY SHERIFF'S OFFICE 
												
													PERMANENT DROP BOX",2300 EAST STREET,TEXARKANA,AR,71854,"http://maps.google.com/maps?q=2300 EAST STREET,+TEXARKANA,+AR+71854&hl=en"
NACOGDOCHES COUNTY SHERIFF'S OFFICE,NACOGDOCHES COUNTY SHERIFF'S OFFICE,2306 DOUGLASS HIGHWAY,NACOGDOCHES,TX,75964,"http://maps.google.com/maps?q=2306 DOUGLASS HIGHWAY,+NACOGDOCHES,+TX+75964&hl=en"
NACOGDOCHES POLICE DEPARTMENT,NACOGDOCHES POLICE DEPARTMENT,1122 NORTH UNIVERSITY DRIVE,NACOGDOCHES,TX,75961,"http://maps.google.com/maps?q=1122 NORTH UNIVERSITY DRIVE,+NACOGDOCHES,+TX+75961&hl=en"
OUACHITA COUNTY SHERIFF'S DEPARTMENT,"OUACHITA COUNTY DETENTION FACILITY 
												
													PERMANENT DROP BOX",109 GOODGAME,CAMDEN,AR,71701,"http://maps.google.com/maps?q=109 GOODGAME,+CAMDEN,+AR+71701&hl=en"
PANOLA COUNTY SHERIFF'S DEPT.,"PANOLA COUNTY SHERIFF'S DEPARTMENT 
												
													DENISE GRAY",314 W. WELLINGTON,CARTHAGE,TX,75633,"http://maps.google.com/maps?q=314 W. WELLINGTON,+CARTHAGE,+TX+75633&hl=en"
PIKE COUNTY SHERIFF'S OFFICE,PIKE COUNTY SHERIFF'S OFFICE,2109 JESSE HALL MEMORIAL ROAD,MAGNOLIA,MS,39652,"http://maps.google.com/maps?q=2109 JESSE HALL MEMORIAL ROAD,+MAGNOLIA,+MS+39652&hl=en"
PLAQUEMINE POLICE DEPARTMENT,PLAQUEMINE POLICE DEPARTMENT,23540 RAILROAD AVENUE,PLAQUEMINE,LA,70764,"http://maps.google.com/maps?q=23540 RAILROAD AVENUE,+PLAQUEMINE,+LA+70764&hl=en"
PLAQUEMINES PARSH SHERIFF'S OFFICE,BELLE CHASE LOCK UP,104 AVENUE G,BELLE CHASSE,LA,70037,"http://maps.google.com/maps?q=104 AVENUE G,+BELLE CHASSE,+LA+70037&hl=en"
PRESCOTT POLICE DEPARTMENT,"PRESCOTT POLICE DEPARTMENT 
												
													PERMANENT DROP BOX",128 W. MAIN ST.,PRESCOTT,AR,71857,"http://maps.google.com/maps?q=128 W. MAIN ST.,+PRESCOTT,+AR+71857&hl=en"
SAINT MARTIN PARISH SHERIFF'S OFFICE,WALLGREENS,1401 REES STREET,BREAUX BRIDGE,LA,70517,"http://maps.google.com/maps?q=1401 REES STREET,+BREAUX BRIDGE,+LA+70517&hl=en"
SCOTT POLICE DEPARTMENT,STATE FARM,5808 CAMERON ST,SCOTT,LA,70583,"http://maps.google.com/maps?q=5808 CAMERON ST,+SCOTT,+LA+70583&hl=en"
SEVIER COUNTY SHERIFF'S OFFICE,"SEVIER COUNTY SHERIFF'S OFFICE 
												
													PERMANENT DROP BOX",137 W. ROBINSON RD,DE QUEEN,AR,71832,"http://maps.google.com/maps?q=137 W. ROBINSON RD,+DE QUEEN,+AR+71832&hl=en"
SILSBEE POLICE DEPARTMENT,SILSBEE POLICE DEPARTMENT,1104 NORTH 5TH STREET,SILSBEE,TX,77656,"http://maps.google.com/maps?q=1104 NORTH 5TH STREET,+SILSBEE,+TX+77656&hl=en"
SIMPSON COUNTY SHERIFF'S OFFICE,"SIMPSON COUNTY SHERIFF'S OFFICE 
												
													E-911 BUILDING",1752 SIMPSON HWY 149,MENDENHALL,MS,39114,"http://maps.google.com/maps?q=1752 SIMPSON HWY 149,+MENDENHALL,+MS+39114&hl=en"
SLIDELL PD,SLIDELL PD,2112 SGT. ALFRED DR,SLIDELL,LA,70458,"http://maps.google.com/maps?q=2112 SGT. ALFRED DR,+SLIDELL,+LA+70458&hl=en"
SLIDELL POLICE DEPARTMENT,SLIDELL POLICE DEPARTMENT,2112 SGT ALFRED DRIVE,SLIDELL,LA,70458,"http://maps.google.com/maps?q=2112 SGT ALFRED DRIVE,+SLIDELL,+LA+70458&hl=en"
SOUTH CENTRAL DRUG TASK FORCE,DEQUEEN WALMART,HWY 70 EAST,DE QUEEN,AR,71832,"http://maps.google.com/maps?q=HWY 70 EAST,+DE QUEEN,+AR+71832&hl=en"
STUTTGART POLICE DEPARTMENT,COKER-HAMPTON DRUG CO,2187 SOUTH MAIN STREET,STUTTGART,AR,72160,"http://maps.google.com/maps?q=2187 SOUTH MAIN STREET,+STUTTGART,+AR+72160&hl=en"
STUTTGART POLICE DEPARTMENT,"STUTTGART POLICE DEPARTMENT 
												
													LOBBY",514 SOUTH MAIN ST.,STUTTGART,AR,72160,"http://maps.google.com/maps?q=514 SOUTH MAIN ST.,+STUTTGART,+AR+72160&hl=en"
SUNO POLICE DEPARTMENT,SUNO PD HQ MAINTENANCE BLVD.,6400 PRESS DR,NEW ORLEANS,LA,70126,"http://maps.google.com/maps?q=6400 PRESS DR,+NEW ORLEANS,+LA+70126&hl=en"
TANGIPAHOA PARISH S.O,HOBBY LOBBY,2714 W THOMAS STREET,HAMMOND,LA,70401,"http://maps.google.com/maps?q=2714 W THOMAS STREET,+HAMMOND,+LA+70401&hl=en"
TEXARKANA POLICE DEPARTMENT,"TEXARKANA POLICE DEPARTMENT 
												
													PERMANENT DROP BOX",100 N. STATE LINE AVE,TEXARKANA,AR,71854,"http://maps.google.com/maps?q=100 N. STATE LINE AVE,+TEXARKANA,+AR+71854&hl=en"
TOWN OF CHURCH POINT WARRANT AND NARCOTICS,CHURCH POINT CITY HALL,102 CHURCH BLVD,CHURCH POINT,LA,70525,"http://maps.google.com/maps?q=102 CHURCH BLVD,+CHURCH POINT,+LA+70525&hl=en"
TRI-COUNTY DRUG TASK FORCE,SUPER 1 FOODS,2801 S. HAZEL STREET,PINE BLUFF,AR,71601,"http://maps.google.com/maps?q=2801 S. HAZEL STREET,+PINE BLUFF,+AR+71601&hl=en"
TRI-COUNTY DRUG TASK FORCE,"TRI-COUNTY DRUG TASK FORCE 
												
													PERMANENT DROP BOX",117 MAIN STREET,PINE BLUFF,AR,71601,"http://maps.google.com/maps?q=117 MAIN STREET,+PINE BLUFF,+AR+71601&hl=en"
TULANE UNIVERSITY PD,"UPTOWN CAMPUS TULANE UNIVERSITY 
												
													DIBOLL COMPLEX",6823 SAINT CHARLES AVE,NEW ORLEANS,LA,70118,"http://maps.google.com/maps?q=6823 SAINT CHARLES AVE,+NEW ORLEANS,+LA+70118&hl=en"
TYLER POLICE DEPARTMENT,BROADWAY SQUARE MALL,4601 S BROADWAY,TYLER,TX,75703,"http://maps.google.com/maps?q=4601 S BROADWAY,+TYLER,+TX+75703&hl=en"
U.T. HEALTH SCIENCE CENTER AT TYLER,U.T. HEALTH SCIENCE CENTER AT TYLER,11937 US HWY 271,TYLER,TX,75708,"http://maps.google.com/maps?q=11937 US HWY 271,+TYLER,+TX+75708&hl=en"
UNION COUNTY SHERIFF'S OFFICE,"UNION COUNTY SHERIFF'S OFFICE 
												
													PERMANENT DROP BOX",250 AMERICAN ROAD,EL DORADO,AR,71730,"http://maps.google.com/maps?q=250 AMERICAN ROAD,+EL DORADO,+AR+71730&hl=en"
UNIVERSITY OF LOUISIANA AT MONROE PD,UPD,3811 DESIARD ST,MONROE,LA,71209,"http://maps.google.com/maps?q=3811 DESIARD ST,+MONROE,+LA+71209&hl=en"
VIDALIA POLICE DEPARTMENT,VIDALIA POLICE DEPARTMENT PARKING LOT,202 VERNON STEVENS BLVD,VIDALIA,LA,71373,"http://maps.google.com/maps?q=202 VERNON STEVENS BLVD,+VIDALIA,+LA+71373&hl=en"
WEST CARROLL SHERIFF'S DEPARTMENT,WAL-MART,700 SOUTH CONSTITUTION,OAK GROVE,LA,71263,"http://maps.google.com/maps?q=700 SOUTH CONSTITUTION,+OAK GROVE,+LA+71263&hl=en"
WHITE HALL POLICE DEPARTMENT,"WHITE HALL POLICE DEPARTMENT 
												
													PERMANENT DROP BOX",8204 DOLLARWAY ROAD,WHITE HALL,AR,71602,"http://maps.google.com/maps?q=8204 DOLLARWAY ROAD,+WHITE HALL,+AR+71602&hl=en"
XAVIER UNIVERSITY NEW ORLEANS POLICE,"XAVIER UNIVERSITY POLICE DEPARTMENT 
												
													IN FRONT OF POLICE DEPARTMENT",3801 SOUTH CARROLLTON AVE,NEW ORLEANS,LA,70125,"http://maps.google.com/maps?q=3801 SOUTH CARROLLTON AVE,+NEW ORLEANS,+LA+70125&hl=en"
