Participant,CollectionSite,Address,City,State,Zip,MapURL
1ST JUDICIAL DISTRICT DRUG TASK FORCE,1ST JUDICIAL DISTRICT DRUG TASK FORCE PERMANENT DROP BOX,113 S. MAIN ST.,CLARENDON,AR,72029,"http://maps.google.com/maps?q=113 S. MAIN ST.,+CLARENDON,+AR+72029&hl=en"
ADAMS COUNTY SHERIFF'S OFFICE - SPECIAL OPERATIONS,ADAMS COUNTY SHERIFF'S OFFICE - SPECIAL OPERATIONS,306 STATE ST.,NATCHEZ,MS,39120,"http://maps.google.com/maps?q=306 STATE ST.,+NATCHEZ,+MS+39120&hl=en"
ALABAMA BOARD OF PHARMACY,ALABAMA BOARD OF PHARMACY,111 VILLAGE STREET,BIRMINGHAM,AL,35242,"http://maps.google.com/maps?q=111 VILLAGE STREET,+BIRMINGHAM,+AL+35242&hl=en"
ALEXANDRIA CITY MARSHAL'S OFFICE,ALEXANDRIA CITY MARSHAL'S OFFICE,515 WASHINGTON STREET,ALEXANDRIA,LA,71301,"http://maps.google.com/maps?q=515 WASHINGTON STREET,+ALEXANDRIA,+LA+71301&hl=en"
ALEXANDRIA POLICE DEPARTMENT,ALEXANDRIA POLICE DEPARTMENT,1000 BOLTON AVE,ALEXANDRIA,LA,71301,"http://maps.google.com/maps?q=1000 BOLTON AVE,+ALEXANDRIA,+LA+71301&hl=en"
ARNAUDVILLE POLICE DEPARTMENT,COURTNEY THRIFTYWAY PHARMACY,412 OLIVE STREET,ARNAUDVILLE,LA,70512,"http://maps.google.com/maps?q=412 OLIVE STREET,+ARNAUDVILLE,+LA+70512&hl=en"
AUBURN POLICE DIVISION,OUR HOME PHARMACY OGLETREE VILLAGE,2320 MOORES MILL ROAD #100,AUBURN,AL,36830,"http://maps.google.com/maps?q=2320 MOORES MILL ROAD #100,+AUBURN,+AL+36830&hl=en"
BARTLETT PD,KROGER HWY 70 / APPLING RD,7615 HWY 70,BARTLETT,TN,38133,"http://maps.google.com/maps?q=7615 HWY 70,+BARTLETT,+TN+38133&hl=en"
BATESVILLE POLICE DEPARTMENT,BATESVILLE POLICE DEPARTMENT,106 COLLEGE STREET,BATESVILLE,MS,38606,"http://maps.google.com/maps?q=106 COLLEGE STREET,+BATESVILLE,+MS+38606&hl=en"
BATON ROUGE PD,BATON ROUGE PD,9000 AIRLINE HWY,BATON ROUGE,LA,70815,"http://maps.google.com/maps?q=9000 AIRLINE HWY,+BATON ROUGE,+LA+70815&hl=en"
BLOUNT COUNTY DISTRICT ATTORNEY'S OFFICE,CLEVELAND PHARMACY,36321 AL 79,CLEVELAND,AL,35049,"http://maps.google.com/maps?q=36321 AL 79,+CLEVELAND,+AL+35049&hl=en"
BLOUNT COUNTY DISTRICT ATTORNEY'S OFFICE,HAYDEN HEALTH MART,4086 STATE HWY 160,HAYDEN,AL,35079,"http://maps.google.com/maps?q=4086 STATE HWY 160,+HAYDEN,+AL+35079&hl=en"
BLOUNT COUNTY DISTRICT ATTORNEY'S OFFICE,LOCUST FORK TOWN HALL,34 TOWN HALL RD,LOCUST FORK,AL,35097,"http://maps.google.com/maps?q=34 TOWN HALL RD,+LOCUST FORK,+AL+35097&hl=en"
BOGALUSA POLICE DEPARTMENT,NIELSEN'S PHARMACY,1619 S. COLUMBIA STREET,BOGALUSA,LA,70427,"http://maps.google.com/maps?q=1619 S. COLUMBIA STREET,+BOGALUSA,+LA+70427&hl=en"
BROUSSARD POLICE DEPARTMENT,WALGREENS PARKING LOT,105 ST. NAZAIRE,BROUSSARD,LA,70518,"http://maps.google.com/maps?q=105 ST. NAZAIRE,+BROUSSARD,+LA+70518&hl=en"
CALERA POLICE DEPARTMENT,OLIVER PARK,HIGHWAY 25,CALERA,AL,35040,"http://maps.google.com/maps?q=HIGHWAY 25,+CALERA,+AL+35040&hl=en"
CALHOUN CO SHERIFF'S OFFICE,CALHOUN COUNTY SHERIFF'S OFFICE,20838 NE WC REEDER DRIVE,BLOUNTSTOWN,FL,32424,"http://maps.google.com/maps?q=20838 NE WC REEDER DRIVE,+BLOUNTSTOWN,+FL+32424&hl=en"
CALHOUN COUNTY SHERIFF'S OFFFICE,CALHOUN COUNTY SHERIFF'S OFFICE,178 S. MURPHREE ST.,PITTSBORO,MS,38951,"http://maps.google.com/maps?q=178 S. MURPHREE ST.,+PITTSBORO,+MS+38951&hl=en"
CARROLL COUNTY SHERIFF'S DEPARTMENT,CARROLL COUNTY SHERIFF'S DEPARTMENT PERMANENT DROP BOX,105 EAST WASHINGTON ST.,CARROLLTON,MS,38917,"http://maps.google.com/maps?q=105 EAST WASHINGTON ST.,+CARROLLTON,+MS+38917&hl=en"
CENTRAL POLICE DEPARTMENT,CENTRAL POLICE DEPARTMENT,13421 HOOPER RD STE 6,BATON ROUGE,LA,70818,"http://maps.google.com/maps?q=13421 HOOPER RD STE 6,+BATON ROUGE,+LA+70818&hl=en"
CHAMBERS COUNTY DRUG TASK FORCE,CHAMBERS COUNTY COURTHOUSE,2 SOUTH LAFAYETTE STREET,LAFAYETTE,AL,36862,"http://maps.google.com/maps?q=2 SOUTH LAFAYETTE STREET,+LAFAYETTE,+AL+36862&hl=en"
CHAMBERS COUNTY DRUG TASK FORCE,CVS PHARMACY,10 VETERANS MEMORIAL PARKWAY,LANETT,AL,36863,"http://maps.google.com/maps?q=10 VETERANS MEMORIAL PARKWAY,+LANETT,+AL+36863&hl=en"
CHICOT COUNTY SHERIFF'S OFFICE,CHICOT COUNTY SHERIFF'S OFFICE,513 MAIN STREET,LAKE VILLAGE,AR,71653,"http://maps.google.com/maps?q=513 MAIN STREET,+LAKE VILLAGE,+AR+71653&hl=en"
CHITIMACHA TRIBAL POLICE DEPARTMENT,CHITIMACHA FIRE DEPARTMENT,215 COUSHATTA DRIVE,CHARENTON,LA,70523,"http://maps.google.com/maps?q=215 COUSHATTA DRIVE,+CHARENTON,+LA+70523&hl=en"
CLANTON POLICE DEPARTMENT,CVS PHARMACY,1105 7TH STREET NORTH,CLANTON,AL,35045,"http://maps.google.com/maps?q=1105 7TH STREET NORTH,+CLANTON,+AL+35045&hl=en"
CLINTON POLICE DEPARTMENT,KROGER PHARMACY,107 HIGHWAY 80 E.,CLINTON,MS,39056,"http://maps.google.com/maps?q=107 HIGHWAY 80 E.,+CLINTON,+MS+39056&hl=en"
COLLIERVILLE POLICE DEPARTMENT,COLLIERVILLE POLICE DEPARTMENT,156 N. ROWLETT COLLIERVILLE,COLLIERVILLE,TN,38017,"http://maps.google.com/maps?q=156 N. ROWLETT COLLIERVILLE,+COLLIERVILLE,+TN+38017&hl=en"
COLUMBUS POLICE DEPARTMENT,COLUMBUS POLICE DEPARTMENT,1501 MAIN ST.,COLUMBUS,MS,39701,"http://maps.google.com/maps?q=1501 MAIN ST.,+COLUMBUS,+MS+39701&hl=en"
COOSA COUNTY SHERIFF OFFICE,COOSA COUNTY SHERIFF'S OFFICE,296 SCHOOL STREET,ROCKFORD,AL,35136,"http://maps.google.com/maps?q=296 SCHOOL STREET,+ROCKFORD,+AL+35136&hl=en"
COVINGTON POLICE DEPARTMENT,COVINGTON POLICE DEPARTMENT,200 E KIRKLAND ST.,COVINGTON,LA,70433,"http://maps.google.com/maps?q=200 E KIRKLAND ST.,+COVINGTON,+LA+70433&hl=en"
CRESTVIEW POLICE DEPARTMENT,WALGREEN'S,2350 S. FERDON BLVD.,CRESTVIEW,FL,32536,"http://maps.google.com/maps?q=2350 S. FERDON BLVD.,+CRESTVIEW,+FL+32536&hl=en"
CRITTENDEN COUNTY SHERIFF'S OFFICE,CRITTENDEN COUNTY SHERIFF'S OFFICE PERMANENT DROP BOX,350 AFCO ROAD,WEST MEMPHIS,AR,72301,"http://maps.google.com/maps?q=350 AFCO ROAD,+WEST MEMPHIS,+AR+72301&hl=en"
CROSSETT POLICE DEPARTMENT,CROSSETT POLICE DEPARTMENT PERMANENT DROP BOX,307 MAIN STREET,CROSSETT,AR,71635,"http://maps.google.com/maps?q=307 MAIN STREET,+CROSSETT,+AR+71635&hl=en"
CULLMAN COUNTY SHERIFF,CULLMAN COUNTY SHERIFF,1910 BEECH AVENUE SE,CULLMAN,AL,35055,"http://maps.google.com/maps?q=1910 BEECH AVENUE SE,+CULLMAN,+AL+35055&hl=en"
CULLMAN POLICE DEPARTMENT,CULLMAN POLICE DEPARTMENT,601 SECOND AVENUE NE,CULLMAN,AL,35055,"http://maps.google.com/maps?q=601 SECOND AVENUE NE,+CULLMAN,+AL+35055&hl=en"
DEA GULFPORT RESIDENT OFFICE,EDGEWATER MALL,2600 BEACH BLVD.,BILOXI,MS,39531,"http://maps.google.com/maps?q=2600 BEACH BLVD.,+BILOXI,+MS+39531&hl=en"
DEA-JACKSON DISTRICT OFFICE,DOGWOOD FESTIVAL BETWEEN THE STORES OF BELK & OLD NAVY,272 DOGWOOD BLVD.OFF OF HIGHWAY 25; LAKELAND DR.,FLOWOOD,MS,39232,"http://maps.google.com/maps?q=272 DOGWOOD BLVD.,+FLOWOOD,+MS+39232&hl=en"
DEMOPOLIS POLICE DEPARTMENT,THEO RATLIFF ACTIVITY CENTER PARKING LOT,306 1ST AVENUE,DEMOPOLIS,AL,36732,"http://maps.google.com/maps?q=306 1ST AVENUE,+DEMOPOLIS,+AL+36732&hl=en"
DESOTO COUNTY SHERIFF'S DEPARTMENT,KROEGER,2380 MOUNT PLEASANT ROAD,HERNANDO,MS,38632,"http://maps.google.com/maps?q=2380 MOUNT PLEASANT ROAD,+HERNANDO,+MS+38632&hl=en"
DESOTO COUNTY SHERIFF'S DEPARTMENT,KROGER/HERNANDO,2380 MOUNT PLEASANT RD.,HERNANDO,MS,38632,"http://maps.google.com/maps?q=2380 MOUNT PLEASANT RD.,+HERNANDO,+MS+38632&hl=en"
DESOTO COUNTY SHERIFF'S DEPARTMENT,WALGREENS-HERNANDO,950 E. COMMERCE ST.,HERNANDO,MS,38632,"http://maps.google.com/maps?q=950 E. COMMERCE ST.,+HERNANDO,+MS+38632&hl=en"
EAST BATON ROUGE PARISH SHERIFF'S OFFICE,EBRSO BURBANK TRAFFIC OFFICE,9313 BURBANK DR.,BATON ROUGE,LA,70810,"http://maps.google.com/maps?q=9313 BURBANK DR.,+BATON ROUGE,+LA+70810&hl=en"
EATONTON POLICE DEPARTMENT,EATONTON POLICE DEOARRTMENT,214 W. MARION STREET,EATONTON,GA,31024,"http://maps.google.com/maps?q=214 W. MARION STREET,+EATONTON,+GA+31024&hl=en"
"EGLIN AFB, 96 SECURITY FORCES SQUANDRON",BASE EXCHANGE,BLDG 1757 MEMORIAL LAKE TRAIL,EGLIN AFB,FL,32542,"http://maps.google.com/maps?q=BLDG 1757 MEMORIAL LAKE TRAIL,+EGLIN AFB,+FL+32542&hl=en"
FLORA POLICE DEPARTMENT,FLORA POLICE DEPARTMENT,176 CARTER ST.,FLORA,MS,39071,"http://maps.google.com/maps?q=176 CARTER ST.,+FLORA,+MS+39071&hl=en"
FLORIDA NATIONAL GUARD,CHEEK AND SCOTT PHARMACY (JASPER),1150 US HWY 41 NWSUITE13,JASPER,FL,32052,"http://maps.google.com/maps?q=1150 US HWY 41 NW,+JASPER,+FL+32052&hl=en"
FLORIDA NATIONAL GUARD,CHEEK AND SCOTT PHARMACY (LAKE CITY),161 SW STONEGATE TERRACE#105,LAKE CITY,FL,32024,"http://maps.google.com/maps?q=161 SW STONEGATE TERRACE,+LAKE CITY,+FL+32024&hl=en"
FLORIDA NATIONAL GUARD,WHITE SPRINGS POLICE DEPARTMENT,10363 BRIDGE STREET,WHITE SPRINGS,FL,32096,"http://maps.google.com/maps?q=10363 BRIDGE STREET,+WHITE SPRINGS,+FL+32096&hl=en"
FLORIDA STATE UNIVERSITY POLICE DEPARTMENT,STROZIER LIBRARY FSU MAIN CAMPUS,116 HONORS WAY,TALLAHASSEE,FL,32306,"http://maps.google.com/maps?q=116 HONORS WAY,+TALLAHASSEE,+FL+32306&hl=en"
FORREST CITY POLICE DEPARTMENT,FORREST CITY POLICE DEPARTMENT WAL-MART SUPERCENTER,205 DEADRICK ROAD,FORREST CITY,AR,72335,"http://maps.google.com/maps?q=205 DEADRICK ROAD,+FORREST CITY,+AR+72335&hl=en"
FORT WALTON BEACH POLICE DEPARTMENT,FORT WALTON BEACH POLICE DEPARTMENT,7 HOLLYWOOD BLVD NE,FORT WALTON BEACH,FL,32548,"http://maps.google.com/maps?q=7 HOLLYWOOD BLVD NE,+FORT WALTON BEACH,+FL+32548&hl=en"
FULTON POLICE DEPARTMENT,WAL MART SUPERCENTER,101 INTERCHANGE DR.1409 S. ADAMS ST.,FULTON,MS,38843,"http://maps.google.com/maps?q=101 INTERCHANGE DR.,+FULTON,+MS+38843&hl=en"
GADSDEN COUNTY SHERIFF'S OFFICE,GADSDEN COUNTY SHERIFF'S OFFICE,339 EAST JEFFERSON STREET,QUINCY,FL,32351,"http://maps.google.com/maps?q=339 EAST JEFFERSON STREET,+QUINCY,+FL+32351&hl=en"
GARDENDALE POLICE DEPARTMENT,GARDENDALE POLICE DEPARTMENT,1309 DECATUR HIGHWAY,GARDENDALE,AL,35071,"http://maps.google.com/maps?q=1309 DECATUR HIGHWAY,+GARDENDALE,+AL+35071&hl=en"
GEORGE CTY SHERIFF'S OFFICE//LUCEDALE PD,WAYNE LEE'S GROCERY GEORGE CTY SHERIFF/LUCEDALE PD,12109 OLD HWY 63,LUCEDALE,MS,39452,"http://maps.google.com/maps?q=12109 OLD HWY 63,+LUCEDALE,+MS+39452&hl=en"
GERMANTOWN POLICE,KROGER,7735 FARMINGTON BLVD.,GERMANTOWN,TN,38138,"http://maps.google.com/maps?q=7735 FARMINGTON BLVD.,+GERMANTOWN,+TN+38138&hl=en"
GERMANTOWN POLICE,TARGET AT VILLAGE SHOPS,9235 POPLAR AVENUE,GERMANTOWN,TN,38139,"http://maps.google.com/maps?q=9235 POPLAR AVENUE,+GERMANTOWN,+TN+38139&hl=en"
GILES COUNTY SHERIFF'S DEPT.,CVS PHARMACY,709 W COLLEGE ST.,PULASKI,TN,38478,"http://maps.google.com/maps?q=709 W COLLEGE ST.,+PULASKI,+TN+38478&hl=en"
GONZALES POLICE DEPARTMENT,GONGALES POLICE DEPARTMENT,415 E CORNERVIEW RD,GONZALES,LA,70737,"http://maps.google.com/maps?q=415 E CORNERVIEW RD,+GONZALES,+LA+70737&hl=en"
HATTIESBURG POLICE DEPARTMENT,HATTIESBURG POLICE DEPARTMENT,300 KLONDYKE ST.,HATTIESBURG,MS,39401,"http://maps.google.com/maps?q=300 KLONDYKE ST.,+HATTIESBURG,+MS+39401&hl=en"
HAVANA POLICE DEPARTMENT,HAVANA POLICE DEPARTMENT,121 E. 7TH AVENUE,HAVANA,FL,32333,"http://maps.google.com/maps?q=121 E. 7TH AVENUE,+HAVANA,+FL+32333&hl=en"
HELENA-WEST HELENA POLICE DEPARTMENT,HELENA - WEST HELENA POLICE DEPARMENT PERMANENT DROP BOX,98 EAST PLAZA,WEST HELENA,AR,72390,"http://maps.google.com/maps?q=98 EAST PLAZA,+WEST HELENA,+AR+72390&hl=en"
HOLMES COUNTY SHERIFF'S OFFICE,HOLMES COUNTY SHERIFF'S OFFICE,23240 HWY. 12 EAST,LEXINGTON,MS,39095,"http://maps.google.com/maps?q=23240 HWY. 12 EAST,+LEXINGTON,+MS+39095&hl=en"
HOOVER POLICE DEPARTMENT,HOOVER POLICE DEPARTMENT,100 MUNICIPAL DRIVE,BIRMINGHAM,AL,35216,"http://maps.google.com/maps?q=100 MUNICIPAL DRIVE,+BIRMINGHAM,+AL+35216&hl=en"
JACKSON COUNTY SHERIFF'S OFFICE,SUNLAND CENTER,3700 WILLIAMS DR,MARIANNA,FL,32446,"http://maps.google.com/maps?q=3700 WILLIAMS DR,+MARIANNA,+FL+32446&hl=en"
JACKSON POLICE DEPARTMENT,JACKSON POLICE DEPARTMENT FRONT SIDEWALK - DRIVE THROUGH,327 E. PASCAGOULA STREET,JACKSON,MS,39204,"http://maps.google.com/maps?q=327 E. PASCAGOULA STREET,+JACKSON,+MS+39204&hl=en"
JASPER POLICE DEPARTMENT,JASPER POLICE DEPARTMENT,1610 ALABAMA AVENUE,JASPER,AL,35501,"http://maps.google.com/maps?q=1610 ALABAMA AVENUE,+JASPER,+AL+35501&hl=en"
JEFFERSON COUNTY SHERIFF DEPARTMENT,JEFFERSON COUNTY SHERIFF DEPARTMENT,2651 CENTER POINT ROAD,BIRMINGHAM,AL,35215,"http://maps.google.com/maps?q=2651 CENTER POINT ROAD,+BIRMINGHAM,+AL+35215&hl=en"
JEFFERSON COUNTY SHERIFF DEPARTMENT,JEFFERSON COUNTY SHERIFFF MCCALLA,5977 EASTERN VALLEY ROAD,MC CALLA,AL,35111,"http://maps.google.com/maps?q=5977 EASTERN VALLEY ROAD,+MC CALLA,+AL+35111&hl=en"
LA PARTNERSHIP FOR SUCESS,WALAMRT VIDALIA STORE,4283 CARTER STREET,VIDALIA,LA,71373,"http://maps.google.com/maps?q=4283 CARTER STREET,+VIDALIA,+LA+71373&hl=en"
LAFAYETTE COUNTY SHERIFF'S OFFICE,LAFAYETTE COUNTY SHERIFF'S OFFICE,231 NW MONROE AVENUE,MAYO,FL,32066,"http://maps.google.com/maps?q=231 NW MONROE AVENUE,+MAYO,+FL+32066&hl=en"
LAFAYETTE COUNTY SHERIFF'S OFFICE,NORTH FLORIDA PHARMACY OF MAYO,229 W. MAIN ST.,MAYO,FL,32066,"http://maps.google.com/maps?q=229 W. MAIN ST.,+MAYO,+FL+32066&hl=en"
LAFAYETTE PARISH SHERIFF'S OFFICE,LAFAYETTE PARISH SHERIFF'S OFFICE PUBLIC SAFETY CO,1825 W. WILLOW STREET,SCOTT,LA,70583,"http://maps.google.com/maps?q=1825 W. WILLOW STREET,+SCOTT,+LA+70583&hl=en"
LAFAYETTE PARISH SHERIFF'S OFFICE,LAFAYETTE PARISH SHERIFF'S OFFICE PUBLIC SAFETY COMPLEX,1825 W. WILLOW ST,SCOTT,LA,70583,"http://maps.google.com/maps?q=1825 W. WILLOW ST,+SCOTT,+LA+70583&hl=en"
LAKE CITY POLICE DEPT.,LAKE CITY POLICE DEPT.,225 NW MAIN BLVD,LAKE CITY,FL,32055,"http://maps.google.com/maps?q=225 NW MAIN BLVD,+LAKE CITY,+FL+32055&hl=en"
LAUREL POLICE DEPARTMENT,LAUREL POLICE DEPARTMENT CAPTAIN TOMMY COX,317 S. MAGNOLIA ST.,LAUREL,MS,39440,"http://maps.google.com/maps?q=317 S. MAGNOLIA ST.,+LAUREL,+MS+39440&hl=en"
LAWRENCE CO. SHERIFF'S DEPT.,WLX COUNTRY CAFE,1212 N. LOCUST AVE,LAWRENCEBURG,TN,38464,"http://maps.google.com/maps?q=1212 N. LOCUST AVE,+LAWRENCEBURG,+TN+38464&hl=en"
LEE COUNTY SHERIFF'S DEPARTMENT,"LEE COUNTY SHERIFF'S DEPARTMENT FRIDAY, APRIL 27, 2018 - NTBI XV",510 NORTH COMMERCE ST.,TUPELO,MS,38804,"http://maps.google.com/maps?q=510 NORTH COMMERCE ST.,+TUPELO,+MS+38804&hl=en"
LEE COUNTY SHERIFF'S OFFICE,LEE COUNTY SHERIFF'S OFFICE,1900 FREDERICK ROAD,OPELIKA,AL,36801,"http://maps.google.com/maps?q=1900 FREDERICK ROAD,+OPELIKA,+AL+36801&hl=en"
LEE COUNTY SHERIFF'S OFFICE,SMITHS STATION GOVERNMENT CENTER,2336 LEE RD 430,SMITHS STATION,AL,36877,"http://maps.google.com/maps?q=2336 LEE RD 430,+SMITHS STATION,+AL+36877&hl=en"
LEON COUNTY,LEON COUNTY SHERIFF'S OFFICE,2825 MUNICIPAL WAY,TALLAHASSEE,FL,32304,"http://maps.google.com/maps?q=2825 MUNICIPAL WAY,+TALLAHASSEE,+FL+32304&hl=en"
LINCOLN CO. SHERIFF'S DEPT,LINCOLN COUNTY HIGH SCHOOL,1233 HUNTSVILLE HWY,FAYETTEVILLE,TN,37334,"http://maps.google.com/maps?q=1233 HUNTSVILLE HWY,+FAYETTEVILLE,+TN+37334&hl=en"
LINDEN POLICE DEPARTMENT,LINDEN VOLUNTEER FIRE DEPARTMENT,212 E. COATS AVENUE,LINDEN,AL,36748,"http://maps.google.com/maps?q=212 E. COATS AVENUE,+LINDEN,+AL+36748&hl=en"
LINDEN POLICE DEPARTMENT,YORK CITY HALL,607 2ND AVENUE,YORK,AL,36925,"http://maps.google.com/maps?q=607 2ND AVENUE,+YORK,+AL+36925&hl=en"
LINEVILLE POLICE DEPARTMENT,LINEVILLE POLICE DEPARTMENT,40 2ND AVENUE,LINEVILLE,AL,36266,"http://maps.google.com/maps?q=40 2ND AVENUE,+LINEVILLE,+AL+36266&hl=en"
LIVE OAK POLICE DEPARTMENT,CHEEK & SCOTT DRUGS,1520 S. OHIO AVE.,LIVE OAK,FL,32064,"http://maps.google.com/maps?q=1520 S. OHIO AVE.,+LIVE OAK,+FL+32064&hl=en"
LIVONIA POLICE DEPARTMENT,LIVONIA POLICE DEPARTMENT,3111 LA HWY 78,LIVONIA,LA,70755,"http://maps.google.com/maps?q=3111 LA HWY 78,+LIVONIA,+LA+70755&hl=en"
LONG BEACH POLICE DEPARTMENT,LONG BEACH POLICE DEPARTMENT,201 ALEXANDER RD,LONG BEACH,MS,39560,"http://maps.google.com/maps?q=201 ALEXANDER RD,+LONG BEACH,+MS+39560&hl=en"
LORETTO POLICE DEPT.,LORETTO CITY HALL,415 NORTH MILITARY STRREET,LORETTO,TN,38469,"http://maps.google.com/maps?q=415 NORTH MILITARY STRREET,+LORETTO,+TN+38469&hl=en"
LOUISIANA STATE POLICE,LSP TROOP L HEAD QUARTERS,2600 NORTH CAUSEWAY,MANDEVILLE,LA,70471,"http://maps.google.com/maps?q=2600 NORTH CAUSEWAY,+MANDEVILLE,+LA+70471&hl=en"
LOUISIANA STATE POLICE TROOP F,LOUISIANA STATE POLICE,805 MAIN STREET,LAKE CHARLES,LA,70615,"http://maps.google.com/maps?q=805 MAIN STREET,+LAKE CHARLES,+LA+70615&hl=en"
LOUISIANA STATE POLICE TROOP F,TROOP F HEADQUARTERS,1240 LA HGHWAY 594,MONROE,LA,71203,"http://maps.google.com/maps?q=1240 LA HGHWAY 594,+MONROE,+LA+71203&hl=en"
LOUISVILLE POLICE DEPARTMENT,LOUISVILLE POLICE DEPARTMENT FRONT LOBBY,2363 SOUTH CHURCH AVE.,LOUISVILLE,MS,39339,"http://maps.google.com/maps?q=2363 SOUTH CHURCH AVE.,+LOUISVILLE,+MS+39339&hl=en"
MADISON POLICE DEPARTMENT,MADISON CULTURAL CENTER PARKING LOT,2115 MAIN STREET,MADISON,MS,39110,"http://maps.google.com/maps?q=2115 MAIN STREET,+MADISON,+MS+39110&hl=en"
MANDEVILLE POLICE DEPARTMENT,MANDEVILLE POLICE DEPARTMENT,1870 HWY 90,MANDEVILLE,LA,70448,"http://maps.google.com/maps?q=1870 HWY 90,+MANDEVILLE,+LA+70448&hl=en"
MARION POLICE DEPARTMENT,MARION POLICE DEPARTMENT PERMANENT DROP BOX,3477 HWY 77,MARION,AR,72364,"http://maps.google.com/maps?q=3477 HWY 77,+MARION,+AR+72364&hl=en"
MCNAIRY COUNTY SHERIFF'S OFFICE,MCNAIRY COUNTY SHERIFF'S OFFICE,300 INDUSTRIAL PARK DR,SELMER,TN,38375,"http://maps.google.com/maps?q=300 INDUSTRIAL PARK DR,+SELMER,+TN+38375&hl=en"
MEMPHIS POLICE DEPT.,KROGER,2835 KIRBY PKWY,MEMPHIS,TN,38119,"http://maps.google.com/maps?q=2835 KIRBY PKWY,+MEMPHIS,+TN+38119&hl=en"
MEMPHIS POLICE DEPT.,KROGER,3444 PLAZA DRIVE,MEMPHIS,TN,38111,"http://maps.google.com/maps?q=3444 PLAZA DRIVE,+MEMPHIS,+TN+38111&hl=en"
MEMPHIS POLICE DEPT.,KROGER,6660 POPLAR AVENUE,GERMANTOWN,TN,38138,"http://maps.google.com/maps?q=6660 POPLAR AVENUE,+GERMANTOWN,+TN+38138&hl=en"
MEMPHIS POLICE DEPT.,MEMPHIS POLICE DEPT ORGANIZED CRIME UNIT,225 CHANNEL 3 DR,MEMPHIS,TN,38108,"http://maps.google.com/maps?q=225 CHANNEL 3 DR,+MEMPHIS,+TN+38108&hl=en"
MEMPHIS POLICE DEPT.,OVERTON PARK- EAST PARKWAY PAVILLION ENTRY NEXT TO THE FIRE STATION,1914 POPLAR AVE.,MEMPHIS,TN,38104,"http://maps.google.com/maps?q=1914 POPLAR AVE.,+MEMPHIS,+TN+38104&hl=en"
MEMPHIS POLICE DEPT.,THE HOUSE MEMPHIS,3683 AUSTIN PEAY HIGHWAY,MEMPHIS,TN,38128,"http://maps.google.com/maps?q=3683 AUSTIN PEAY HIGHWAY,+MEMPHIS,+TN+38128&hl=en"
MERIDIAN POLICE DEPARTMENT,MERIDIAN POLICE BONITA LAKES MALL POLICE PRECINCT NEAR THE FOOD COURT,1680 BONITA LAKES CIRCLE,MERIDIAN,MS,39301,"http://maps.google.com/maps?q=1680 BONITA LAKES CIRCLE,+MERIDIAN,+MS+39301&hl=en"
MISSISSIPPI STATE UNIVERSITY POLICE DEPARTMENT,MISSISSIPPI STATE UNIVERSITY POLICE DEPARTMENT,25 WALKER ROAD,MISSISSIPPI STATE,MS,39762,"http://maps.google.com/maps?q=25 WALKER ROAD,+MISSISSIPPI STATE,+MS+39762&hl=en"
MONROE COUNTY SHERIFF OFFICE,MONROE COUNTY SHERIFF'S OFFICE,145 L. CAREY BITTICK DR,FORSYTH,GA,31029,"http://maps.google.com/maps?q=145 L. CAREY BITTICK DR,+FORSYTH,+GA+31029&hl=en"
MONTGOMERY POLICE DEPARTMENT,FRAZER UNITED METHODIST CHURCH,6000 ATLANTA HIGHWAY,MONTGOMERY,AL,36117,"http://maps.google.com/maps?q=6000 ATLANTA HIGHWAY,+MONTGOMERY,+AL+36117&hl=en"
MONTGOMERY POLICE DEPARTMENT,MONTGOMERY POLICE DEPARTMENT,2190 EAST S. BLVD,MONTGOMERY,AL,36109,"http://maps.google.com/maps?q=2190 EAST S. BLVD,+MONTGOMERY,+AL+36109&hl=en"
MUSCOGEE COUNTY SHERIFFS OFFICE,HOLLYWOOD CONNECTION FAMILY FUN CENTE,1683 WHITTLESEY ROAD,COLUMBUS,GA,31904,"http://maps.google.com/maps?q=1683 WHITTLESEY ROAD,+COLUMBUS,+GA+31904&hl=en"
OAKLAND POLICE DEPT.,CITY HALL,170 DOSS CIRCLE,OAKLAND,TN,38060,"http://maps.google.com/maps?q=170 DOSS CIRCLE,+OAKLAND,+TN+38060&hl=en"
OLIVE BRANCH POLICE DEPARTMENT,OLIVE BRANCH POLICE DEPARTMENT LT. JASON OLIVERIA,10470 HIGHWAY 178,OLIVE BRANCH,MS,38654,"http://maps.google.com/maps?q=10470 HIGHWAY 178,+OLIVE BRANCH,+MS+38654&hl=en"
OXFORD POLICE DEPARTMENT,OXFORD SQUARE AREA - DOUBLE DECKER ARTS FESTIVAL CORNER-JACKSON AVE. & 9TH ST. BY ST. PETERS EPISCOPAL CHURCH,JACKSON AVE. & 9TH STREETNEAR ST. PETERS EPISCOPAL CHURCH,OXFORD,MS,38655,"http://maps.google.com/maps?q=JACKSON AVE. & 9TH STREET,+OXFORD,+MS+38655&hl=en"
PASS CHRISTIAN POLICE DEPARTMENT,PASS CHRISTIAN LIBRARY,111 HIERN AVENUE,PASS CHRISTIAN,MS,39571,"http://maps.google.com/maps?q=111 HIERN AVENUE,+PASS CHRISTIAN,+MS+39571&hl=en"
PEARL POLICE DEPARTMENT,PEARL POLICE DEPARTMENT,2422 OLD BRANDON RD.,PEARL,MS,39208,"http://maps.google.com/maps?q=2422 OLD BRANDON RD.,+PEARL,+MS+39208&hl=en"
PETAL POLICE DEPARTMENT,PETAL POLICE DEPARTMENT,127 WEST 8TH AVE.,PETAL,MS,39465,"http://maps.google.com/maps?q=127 WEST 8TH AVE.,+PETAL,+MS+39465&hl=en"
PHENIX CITY POLICE DEPARTMENT,CVS PHARMACY,2514 CRAWFORD ROAD,PHENIX CITY,AL,36867,"http://maps.google.com/maps?q=2514 CRAWFORD ROAD,+PHENIX CITY,+AL+36867&hl=en"
PHENIX CITY POLICE DEPARTMENT,NORTH PRECINCT,4301 PARK DRIVE,PHENIX CITY,AL,36867,"http://maps.google.com/maps?q=4301 PARK DRIVE,+PHENIX CITY,+AL+36867&hl=en"
PHENIX CITY POLICE DEPARTMENT,PHENIX CITY POLICE DEPARTMENT,1111 BROAD STREET,PHENIX CITY,AL,36867,"http://maps.google.com/maps?q=1111 BROAD STREET,+PHENIX CITY,+AL+36867&hl=en"
PHENIX CITY POLICE DEPARTMENT,SOUTH PRECINCT,1507 5TH STREET SOUTH,PHENIX CITY,AL,36869,"http://maps.google.com/maps?q=1507 5TH STREET SOUTH,+PHENIX CITY,+AL+36869&hl=en"
PIKE COUNTY SHERIFF'S OFFICE,PIKE COUNTY SHERIFF'S OFFICE,2109 JESSE HALL MEMORIAL ROAD,MAGNOLIA,MS,39652,"http://maps.google.com/maps?q=2109 JESSE HALL MEMORIAL ROAD,+MAGNOLIA,+MS+39652&hl=en"
PLAQUEMINE POLICE DEPARTMENT,PLAQUEMINE POLICE DEPARTMENT,23540 RAILROAD AVENUE,PLAQUEMINE,LA,70764,"http://maps.google.com/maps?q=23540 RAILROAD AVENUE,+PLAQUEMINE,+LA+70764&hl=en"
PLAQUEMINES PARSH SHERIFF'S OFFICE,BELLE CHASE LOCK UP,104 AVENUE G,BELLE CHASSE,LA,70037,"http://maps.google.com/maps?q=104 AVENUE G,+BELLE CHASSE,+LA+70037&hl=en"
RANDOLPH COUNTY SHERIFF OFFICE,RANDOLPH COUNTY SHERIFF OFFICE,1 MAIN STREET,WEDOWEE,AL,36278,"http://maps.google.com/maps?q=1 MAIN STREET,+WEDOWEE,+AL+36278&hl=en"
RANKIN COUNTY SHERIFF'S OFFICE,RANKIN COUNTY SHERIFF'S OFFICE,221 N. TIMBER ST.,BRANDON,MS,39042,"http://maps.google.com/maps?q=221 N. TIMBER ST.,+BRANDON,+MS+39042&hl=en"
ROANOKE POLICE DEPARTMENT,ROANOKE POLICE DEPARTMENT,30 WEST POINT STREET,ROANOKE,AL,36274,"http://maps.google.com/maps?q=30 WEST POINT STREET,+ROANOKE,+AL+36274&hl=en"
SAINT MARTIN PARISH SHERIFF'S OFFICE,WALLGREENS,1401 REES STREET,BREAUX BRIDGE,LA,70517,"http://maps.google.com/maps?q=1401 REES STREET,+BREAUX BRIDGE,+LA+70517&hl=en"
SAVANNAH POLICE DEPT.,SAVANNAH POLICE DEPT.,80 KING ST.,SAVANNAH,TN,38372,"http://maps.google.com/maps?q=80 KING ST.,+SAVANNAH,+TN+38372&hl=en"
SCOTT POLICE DEPARTMENT,STATE FARM,5808 CAMERON ST,SCOTT,LA,70583,"http://maps.google.com/maps?q=5808 CAMERON ST,+SCOTT,+LA+70583&hl=en"
SHALIMAR POLICE DEPARTMENT,SHALIMAR POLICE DEPARTMENT,2 CHEROKEE ROAD,SHALIMAR,FL,32579,"http://maps.google.com/maps?q=2 CHEROKEE ROAD,+SHALIMAR,+FL+32579&hl=en"
SHELBY COUNTY TASK FORCE,FRED'S PHARMACY,21665 AL-25,COLUMBIANA,AL,35051,"http://maps.google.com/maps?q=21665 AL-25,+COLUMBIANA,+AL+35051&hl=en"
SHELBY COUNTY TASK FORCE,GREYSTONE YMCA,5414 HIGHWAY 280,BIRMINGHAM,AL,35242,"http://maps.google.com/maps?q=5414 HIGHWAY 280,+BIRMINGHAM,+AL+35242&hl=en"
SHELBY COUNTY TASK FORCE,PELHAM POLICE DEPARTMENT,32 PHILIP DAVIS STREET,PELHAM,AL,35124,"http://maps.google.com/maps?q=32 PHILIP DAVIS STREET,+PELHAM,+AL+35124&hl=en"
SHELBY COUNTY TASK FORCE,TARGET,250 SOUTH COLONIAL DRIVE,ALABASTER,AL,35007,"http://maps.google.com/maps?q=250 SOUTH COLONIAL DRIVE,+ALABASTER,+AL+35007&hl=en"
SHELBY COUNTY TASK FORCE,WINN DIXIE,150 CHELSEA CORNERS WAY,CHELSEA,AL,35043,"http://maps.google.com/maps?q=150 CHELSEA CORNERS WAY,+CHELSEA,+AL+35043&hl=en"
SIMPSON COUNTY SHERIFF'S OFFICE,SIMPSON COUNTY SHERIFF'S OFFICE E-911 BUILDING,1752 SIMPSON HWY 149,MENDENHALL,MS,39114,"http://maps.google.com/maps?q=1752 SIMPSON HWY 149,+MENDENHALL,+MS+39114&hl=en"
SLIDELL PD,SLIDELL PD,2112 SGT. ALFRED DR,SLIDELL,LA,70458,"http://maps.google.com/maps?q=2112 SGT. ALFRED DR,+SLIDELL,+LA+70458&hl=en"
SLIDELL POLICE DEPARTMENT,SLIDELL POLICE DEPARTMENT,2112 SGT ALFRED DRIVE,SLIDELL,LA,70458,"http://maps.google.com/maps?q=2112 SGT ALFRED DRIVE,+SLIDELL,+LA+70458&hl=en"
SUNO POLICE DEPARTMENT,SUNO PD HQ MAINTENANCE BLVD.,6400 PRESS DR,NEW ORLEANS,LA,70126,"http://maps.google.com/maps?q=6400 PRESS DR,+NEW ORLEANS,+LA+70126&hl=en"
SYLVESTER POLICE DEPARTMENT,PIGGLY WIGGLY,631 EAST FRANKLIN STREET,SYLVESTER,GA,31791,"http://maps.google.com/maps?q=631 EAST FRANKLIN STREET,+SYLVESTER,+GA+31791&hl=en"
TALLAHASSEE POLICE DEPARTMENT,TALLAHASSEE POLICE DEPARTMENT,234 E. 7TH AV,TALLAHASSEE,FL,32303,"http://maps.google.com/maps?q=234 E. 7TH AV,+TALLAHASSEE,+FL+32303&hl=en"
TALLAPOOSA COUNTY NARCOTICS TF,WALGREENS PHARMACY,3140 US 280,ALEXANDER CITY,AL,35010,"http://maps.google.com/maps?q=3140 US 280,+ALEXANDER CITY,+AL+35010&hl=en"
TANGIPAHOA PARISH S.O,HOBBY LOBBY,2714 W THOMAS STREET,HAMMOND,LA,70401,"http://maps.google.com/maps?q=2714 W THOMAS STREET,+HAMMOND,+LA+70401&hl=en"
THOMASVILLE POLICE DEPARTMENT,WALMART,34301 HIGHWAY 43,THOMASVILLE,AL,36784,"http://maps.google.com/maps?q=34301 HIGHWAY 43,+THOMASVILLE,+AL+36784&hl=en"
TOWN OF CHURCH POINT WARRANT AND NARCOTICS,CHURCH POINT CITY HALL,102 CHURCH BLVD,CHURCH POINT,LA,70525,"http://maps.google.com/maps?q=102 CHURCH BLVD,+CHURCH POINT,+LA+70525&hl=en"
TULANE UNIVERSITY PD,UPTOWN CAMPUS TULANE UNIVERSITY DIBOLL COMPLEX,6823 SAINT CHARLES AVE,NEW ORLEANS,LA,70118,"http://maps.google.com/maps?q=6823 SAINT CHARLES AVE,+NEW ORLEANS,+LA+70118&hl=en"
TUNICA COUNTY SHERIFF'S OFFICE,TUNICA COUNTY SHERIFF'S OFFICE,5126 COUNTY SHERIFF'S OFFICE,TUNICA,MS,38676,"http://maps.google.com/maps?q=5126 COUNTY SHERIFF'S OFFICE,+TUNICA,+MS+38676&hl=en"
TUPELO POLICE DEPARTMENT,TUPELO POLICE DEPARTMENT,400 NORTH FRONT STREET,TUPELO,MS,38804,"http://maps.google.com/maps?q=400 NORTH FRONT STREET,+TUPELO,+MS+38804&hl=en"
TUSCUMBIA POLICE DEPARTMENT,EXPRESS CARE OF THE SHOALS,1106 NORTH CAVE STREET,TUSCUMBIA,AL,35674,"http://maps.google.com/maps?q=1106 NORTH CAVE STREET,+TUSCUMBIA,+AL+35674&hl=en"
UNIVERSITY OF LOUISIANA AT MONROE PD,UPD,3811 DESIARD ST,MONROE,LA,71209,"http://maps.google.com/maps?q=3811 DESIARD ST,+MONROE,+LA+71209&hl=en"
VA MEDICAL CENTER POLICE DEPARTMENT,BIRMINGHAM VA MEDICAL CENTER EMERGENCY ROOM,700 SOUTH 19TH STREET,BIRMINGHAM,AL,35233,"http://maps.google.com/maps?q=700 SOUTH 19TH STREET,+BIRMINGHAM,+AL+35233&hl=en"
VESTAVIA HILLS POLICE DEPARTMENT,VESTAVIA HILLS POLICE DEPARTMENT,1032 MONTGOMERY HIGHWAY,VESTAVIA HILLS,AL,35216,"http://maps.google.com/maps?q=1032 MONTGOMERY HIGHWAY,+VESTAVIA HILLS,+AL+35216&hl=en"
VESTAVIA HILLS POLICE DEPARTMENT,VHPD EAST PRECINCT-CAHABA HEIGHTS P. D. SUB STATION,3241 CAHABA HEIGHTS RD.,CAHABA HEIGHTS,AL,35243,"http://maps.google.com/maps?q=3241 CAHABA HEIGHTS RD.,+CAHABA HEIGHTS,+AL+35243&hl=en"
VICKSBURG POLICE DEPARTMENT,WALGREENS PHARMACY,3341 HALLS FERRY RD.,VICKSBURG,MS,39180,"http://maps.google.com/maps?q=3341 HALLS FERRY RD.,+VICKSBURG,+MS+39180&hl=en"
VIDALIA POLICE DEPARTMENT,VIDALIA POLICE DEPARTMENT PARKING LOT,202 VERNON STEVENS BLVD,VIDALIA,LA,71373,"http://maps.google.com/maps?q=202 VERNON STEVENS BLVD,+VIDALIA,+LA+71373&hl=en"
WAKULLA COUNTY SHERIFFS OFFICE,WAKULLA COUNTY SHERIFF'S OFFICE ANNEX OUTSIDE FRONT DOOR,16 OAK STREET,CRAWFORDVILLE,FL,32327,"http://maps.google.com/maps?q=16 OAK STREET,+CRAWFORDVILLE,+FL+32327&hl=en"
WARREN COUNTY SHERIFF'S OFFICE,OUTLETS MALL OF VICKSBURG,4000 S. FRONTAGE RD.,VICKSBURG,MS,39180,"http://maps.google.com/maps?q=4000 S. FRONTAGE RD.,+VICKSBURG,+MS+39180&hl=en"
WEST ALABAMA NARCOTICS TF,ASHLEY FURNITURE WEST ALABAMA NARCOTICS TASK FORCE,701 SKYLAND BLVD,TUSCALOOSA,AL,35405,"http://maps.google.com/maps?q=701 SKYLAND BLVD,+TUSCALOOSA,+AL+35405&hl=en"
WEST ALABAMA NARCOTICS TF,CVS,4260 UNIVERISTY BLVD,TUSCALOOSA,AL,35404,"http://maps.google.com/maps?q=4260 UNIVERISTY BLVD,+TUSCALOOSA,+AL+35404&hl=en"
WEST ALABAMA NARCOTICS TF,RITE AID,2300 MCFARLAND BLVD.,NORTHPORT,AL,35476,"http://maps.google.com/maps?q=2300 MCFARLAND BLVD.,+NORTHPORT,+AL+35476&hl=en"
WEST ALABAMA NARCOTICS TF,WALGREENS,8701 HIGHWAY 69 S.,TUSCALOOSA,AL,35405,"http://maps.google.com/maps?q=8701 HIGHWAY 69 S.,+TUSCALOOSA,+AL+35405&hl=en"
WEST ALABAMA NARCOTICS TF,WALMART NEIGHBORHOOD MARKET,4201 HARGROVE RD. E.,TUSCALOOSA,AL,35405,"http://maps.google.com/maps?q=4201 HARGROVE RD. E.,+TUSCALOOSA,+AL+35405&hl=en"
WEST CARROLL SHERIFF'S DEPARTMENT,WAL-MART,700 SOUTH CONSTITUTION,OAK GROVE,LA,71263,"http://maps.google.com/maps?q=700 SOUTH CONSTITUTION,+OAK GROVE,+LA+71263&hl=en"
WEST MEMPHIS POLICE DEPARTMENT,WEST MEMPHIS POLICE DEPARTMENT PERMANENT DROP BOX,626 E. BROADWAY,WEST MEMPHIS,AR,72301,"http://maps.google.com/maps?q=626 E. BROADWAY,+WEST MEMPHIS,+AR+72301&hl=en"
WEST POINT POLICE DEPARTMENT,SAVE-A-LOT - PARKING LOT,"411 W MAIN ST,",WEST POINT,MS,39773,"http://maps.google.com/maps?q=411 W MAIN ST,,+WEST POINT,+MS+39773&hl=en"
WEST POINT POLICE DEPARTMENT,WAL-MART,HWY 45 N.,WEST POINT,MS,39773,"http://maps.google.com/maps?q=HWY 45 N.,+WEST POINT,+MS+39773&hl=en"
WILCOX COUNTY SHERIFFS DEPARTMENT,WILCOX COUNTY COURTHOUSE,100 BROAD STREET,CAMDEN,AL,36726,"http://maps.google.com/maps?q=100 BROAD STREET,+CAMDEN,+AL+36726&hl=en"
WINONA POLICE DEPARTMENT,FRED'S PHARMACY,603 MIDDLETON RD.,WINONA,MS,38967,"http://maps.google.com/maps?q=603 MIDDLETON RD.,+WINONA,+MS+38967&hl=en"
WINONA POLICE DEPARTMENT,HAMMOND'S PHARMACY,405 NORTH APPLEGATE STREET,WINONA,MS,38967,"http://maps.google.com/maps?q=405 NORTH APPLEGATE STREET,+WINONA,+MS+38967&hl=en"
WINONA POLICE DEPARTMENT,OLD DIRT CHEAP BLDG,104 SOUTH APPLEGATE STREET,WINONA,MS,38967,"http://maps.google.com/maps?q=104 SOUTH APPLEGATE STREET,+WINONA,+MS+38967&hl=en"
WINONA POLICE DEPARTMENT,SUPERVALUE,601 MIDDLETON ROAD,WINONA,MS,38967,"http://maps.google.com/maps?q=601 MIDDLETON ROAD,+WINONA,+MS+38967&hl=en"
WINONA POLICE DEPARTMENT,WINONA CITY HALL,409 SUMMITT STREET,WINONA,MS,38967,"http://maps.google.com/maps?q=409 SUMMITT STREET,+WINONA,+MS+38967&hl=en"
XAVIER UNIVERSITY NEW ORLEANS POLICE,XAVIER UNIVERSITY POLICE DEPARTMENT IN FRONT OF POLICE DEPARTMENT,3801 SOUTH CARROLLTON AVE,NEW ORLEANS,LA,70125,"http://maps.google.com/maps?q=3801 SOUTH CARROLLTON AVE,+NEW ORLEANS,+LA+70125&hl=en"
YAZOO COUNTY SHERIFF'S DEPARTMENT,"PLAZA SHOPPING CENTER PARKING LOT EVENT IS HELD ON FRIDAY, 27 APRIL 2018",746 E. 15TH STREET,YAZOO CITY,MS,39194,"http://maps.google.com/maps?q=746 E. 15TH STREET,+YAZOO CITY,+MS+39194&hl=en"
US FEDERAL PROTECTIVE SERVICES,"US ENVIRONMENTAL PROTECTIN AGENCY (EPA) COLLECTION IS APRIL 25-27, WEDNESDAY THRU FRIDAY","61 FORSYTH STREET SWATLANTA FEDERAL CENTER, SAM NUNN TOWER",ATLANTA,GA,30303,"http://maps.google.com/maps?q=61 FORSYTH STREET SW,+ATLANTA,+GA+30303&hl=en"
ATLANTA POLICE DEPARTMENT,ATLANTA POLICE DEPARTMENT ZONE 5 PRECINCT,200 SPRING ST.,ATLANTA,GA,30303,"http://maps.google.com/maps?q=200 SPRING ST.,+ATLANTA,+GA+30303&hl=en"
ATLANTA POLICE DEPARTMENT,ATLANTA POLICE DEPARTMENT ZONE 3 PRECINCT,880 CHEROKEE AVENUE,ATLANTA,GA,30315,"http://maps.google.com/maps?q=880 CHEROKEE AVENUE,+ATLANTA,+GA+30315&hl=en"
ATLANTA POLICE DEPARTMENT,ATLANTA POLICE DEPARTMENT ZONE 6 PRECINCT,2025 HOSEA L. WILLIAMS DR. S.E.,ATLANTA,GA,30317,"http://maps.google.com/maps?q=2025 HOSEA L. WILLIAMS DR. S.E.,+ATLANTA,+GA+30317&hl=en"
ATLANTA POLICE DEPARTMENT,ATLANTA POLICE DEPARTMENT ZONE 2 PRECINCT,3120 MAPLE DRIVE N.E.,ATLANTA,GA,30305,"http://maps.google.com/maps?q=3120 MAPLE DRIVE N.E.,+ATLANTA,+GA+30305&hl=en"
ATLANTA POLICE DEPARTMENT,ATLANTA POLICE DEPARTMENT ZONE 1 PRECINCT,2315 DONALD LEE HOLLOWELL PKY. N.W.,ATLANTA,GA,30318,"http://maps.google.com/maps?q=2315 DONALD LEE HOLLOWELL PKY. N.W.,+ATLANTA,+GA+30318&hl=en"
ATLANTA POLICE DEPARTMENT,ATLANTA POLICE DEPARTMENT ZONE 4 PRECINCT,1125 CASCADE CR. S.W.,ATLANTA,GA,30311,"http://maps.google.com/maps?q=1125 CASCADE CR. S.W.,+ATLANTA,+GA+30311&hl=en"
DEKALB COUNTY POLICE,RICHARDSON HEALTH CENTER,445 WINN WAY,DECATUR,GA,30030,"http://maps.google.com/maps?q=445 WINN WAY,+DECATUR,+GA+30030&hl=en"
DECATUR POLICE DEPARTMENT,DECATUR POLICE DEPARTMENT,420 WEST TRINITY PLACE,DECATUR,GA,30030,"http://maps.google.com/maps?q=420 WEST TRINITY PLACE,+DECATUR,+GA+30030&hl=en"
AVONDALE ESTATES POLICE DEPARTMENT,AVONDALE ESTATES PD,21 N. AVONDALE PLAZA,AVONDALE ESTATES,GA,30002,"http://maps.google.com/maps?q=21 N. AVONDALE PLAZA,+AVONDALE ESTATES,+GA+30002&hl=en"
EAST POINT POLICE DEPARTMENT,EAST POINT POLICE DEPARTMENT,2727 EAST POINT STREET,ATLANTA,GA,30344,"http://maps.google.com/maps?q=2727 EAST POINT STREET,+ATLANTA,+GA+30344&hl=en"
RIVERDALE POLICE DEPARTMENT,RIVERDALE TOWN CENTER,7210 CHURCH ST,RIVERDALE,GA,30274,"http://maps.google.com/maps?q=7210 CHURCH ST,+RIVERDALE,+GA+30274&hl=en"
DEKALB COUNTY POLICE,NORTH DEKALB HEALTH CENTER,"3807 CLAIRMONT RD., NE",CHAMBLEE,GA,30341,"http://maps.google.com/maps?q=3807 CLAIRMONT RD., NE,+CHAMBLEE,+GA+30341&hl=en"
MERCER UNIVERSITY POLICE DEPARTMENT,MERCER UNIVERSITY PHARMACY ADMINISTRATION & CAFETERIA BLDG.,3001 MERCER UNIVERSITY DRIVE,ATLANTA,GA,30341,"http://maps.google.com/maps?q=3001 MERCER UNIVERSITY DRIVE,+ATLANTA,+GA+30341&hl=en"
DEKALB COUNTY POLICE,DEKALB POLICE HEADQUARTERS,1960 W. EXCHANGE PLACE,TUCKER,GA,30084,"http://maps.google.com/maps?q=1960 W. EXCHANGE PLACE,+TUCKER,+GA+30084&hl=en"
DEKALB COUNTY POLICE,DEKALB COUNTY PD TUCKER PRECINCT,4451 LAWRENCEVILLE HWY.,TUCKER,GA,30084,"http://maps.google.com/maps?q=4451 LAWRENCEVILLE HWY.,+TUCKER,+GA+30084&hl=en"
JONESBORO POLICE DEPARTMENT,JONESBORO POLCE DEPARTMETN,170 S. MAIN STREET,JONESBORO,GA,30236,"http://maps.google.com/maps?q=170 S. MAIN STREET,+JONESBORO,+GA+30236&hl=en"
DEKALB COUNTY POLICE,EAST DEKALB HEALTH CENTER,2277 S. STONE MOUNTAIN-LITHONIA ROAD,LITHONIA,GA,30058,"http://maps.google.com/maps?q=2277 S. STONE MOUNTAIN-LITHONIA ROAD,+LITHONIA,+GA+30058&hl=en"
DEKALB COUNTY POLICE,CLIFTON SPRINGS HEALTH CENTER,3110 CLIFTON SPRINGS ROAD,LITHONIA,GA,30058,"http://maps.google.com/maps?q=3110 CLIFTON SPRINGS ROAD,+LITHONIA,+GA+30058&hl=en"
COBB COUNTY POLICE DEPARTMENT,PRECINCT 1,2380 COBB PKWY,MARIETTA,GA,30060,"http://maps.google.com/maps?q=2380 COBB PKWY,+MARIETTA,+GA+30060&hl=en"
FAYETTE COUNTY SHERIFF'S DEPARTMENT,FAYETTE COUNTY SHERIFF'S DEPARTMENT,155 JOHNSON AVENUE,FAYETTEVILLE,GA,30214,"http://maps.google.com/maps?q=155 JOHNSON AVENUE,+FAYETTEVILLE,+GA+30214&hl=en"
NORCROSS POLICE DEPARTMENT,NORCROSS POLICE DEPARTMENT,65 LAWRENCEVILLE STREET,NORCROSS,GA,30071,"http://maps.google.com/maps?q=65 LAWRENCEVILLE STREET,+NORCROSS,+GA+30071&hl=en"
GWINNETT COUNTY POLICE DEPARTMENT,CITY OF PEACHTREE CORNERS CITY HALL,310 TECHNOLOGY PARKWAY,PEACHTREE CORNERS,GA,30092,"http://maps.google.com/maps?q=310 TECHNOLOGY PARKWAY,+PEACHTREE CORNERS,+GA+30092&hl=en"
ALPHARETTA DEPARTMENT OF PUBLIC SAFETY,ALPHARETTA FIRE STATION 83,9600 WEST SIDE PKWY,ALPHARETTA,GA,30009,"http://maps.google.com/maps?q=9600 WEST SIDE PKWY,+ALPHARETTA,+GA+30009&hl=en"
ALPHARETTA DEPARTMENT OF PUBLIC SAFETY,ALPHARETTA PUBLIC SAFETY HEADQUARTERS,2565 OLD MILTON PKWY,ALPHARETTA,GA,30009,"http://maps.google.com/maps?q=2565 OLD MILTON PKWY,+ALPHARETTA,+GA+30009&hl=en"
ROSWELL POLICE DEPARTMENT,ROSWELL RECYCLING CENTER,11570 MAXWELL RD,ALPHARETTA,GA,30009,"http://maps.google.com/maps?q=11570 MAXWELL RD,+ALPHARETTA,+GA+30009&hl=en"
ALPHARETTA DEPARTMENT OF PUBLIC SAFETY,ALPHARETTA FIRE STATION 81,2970 WEBB BRIDGE ROAD,ALPHARETTA,GA,30009,"http://maps.google.com/maps?q=2970 WEBB BRIDGE ROAD,+ALPHARETTA,+GA+30009&hl=en"
ALPHARETTA DEPARTMENT OF PUBLIC SAFETY,ALPHARETTA FIRE STATION 85,1475 MID BROADWELL ROAD,ALPHARETTA,GA,30009,"http://maps.google.com/maps?q=1475 MID BROADWELL ROAD,+ALPHARETTA,+GA+30009&hl=en"
ALPHARETTA DEPARTMENT OF PUBLIC SAFETY,ALPHARETTA FIRE STATION 86,3275 KIMBALL BRIDGE ROAD,ALPHARETTA,GA,30009,"http://maps.google.com/maps?q=3275 KIMBALL BRIDGE ROAD,+ALPHARETTA,+GA+30009&hl=en"
ALPHARETTA DEPARTMENT OF PUBLIC SAFETY,ALPHARETTA FIRE STATION 84,525 PARK BRIDGE PKWY,ALPHARETTA,GA,30009,"http://maps.google.com/maps?q=525 PARK BRIDGE PKWY,+ALPHARETTA,+GA+30009&hl=en"
ALPHARETTA DEPARTMENT OF PUBLIC SAFETY,ALPHARETTA FIRE STATION 82,3070 MARKET PLACE,ALPHARETTA,GA,30009,"http://maps.google.com/maps?q=3070 MARKET PLACE,+ALPHARETTA,+GA+30009&hl=en"
ROCKDALE COUNTY SHERIFFS OFFICE,ROCKDALE COUNTY SHERIFF'S OFFICE,911 CHAMBERS DR,CONYERS,GA,30012,"http://maps.google.com/maps?q=911 CHAMBERS DR,+CONYERS,+GA+30012&hl=en"
POWDER SPRINGS POLICE DEPARTMENT,POWDER SPRINGS POLICE DEPARTMENT,1114 RICHARD D. SAILORS PKWY,POWDER SPRINGS,GA,30127,"http://maps.google.com/maps?q=1114 RICHARD D. SAILORS PKWY,+POWDER SPRINGS,+GA+30127&hl=en"
MILTON POLICE DEPARTMENT,TARGET,13055 HIGHWAY 9,ALPHARETTA,GA,30004,"http://maps.google.com/maps?q=13055 HIGHWAY 9,+ALPHARETTA,+GA+30004&hl=en"
KENNESAW POLICE DEPARTMENT,CVS PHARMACY,2782 COBB PKWY.,KENNESAW,GA,30144,"http://maps.google.com/maps?q=2782 COBB PKWY.,+KENNESAW,+GA+30144&hl=en"
SNELLVILLE POLICE DEPARTMENT,SNELLVILLE POLICE DEPARTMENT,2315 WISTERIA DR.,SNELLVILLE,GA,30078,"http://maps.google.com/maps?q=2315 WISTERIA DR.,+SNELLVILLE,+GA+30078&hl=en"
JOHNS CREEK POLICE DEPARTMENT,EMORY JOHNS CREEK HOSPITAL,6325 HOSPITAL PARKWAY,JOHNS CREEK,GA,30097,"http://maps.google.com/maps?q=6325 HOSPITAL PARKWAY,+JOHNS CREEK,+GA+30097&hl=en"
PEACHTREE CITY POLICE DEPARTMENT,PEACHTREE CITY POLICE DEPARTMENT,350 HIGHWAY 74 SOUTH,PEACHTREE CITY,GA,30269,"http://maps.google.com/maps?q=350 HIGHWAY 74 SOUTH,+PEACHTREE CITY,+GA+30269&hl=en"
ACWORTH POLICE DEPARTMENT,TARGET,3378 COBB PARKWAY,ACWORTH,GA,30101,"http://maps.google.com/maps?q=3378 COBB PARKWAY,+ACWORTH,+GA+30101&hl=en"
ACWORTH POLICE DEPARTMENT,WALGREENS,6090 LAKE ACWORTH DRIVE,ACWORTH,GA,30101,"http://maps.google.com/maps?q=6090 LAKE ACWORTH DRIVE,+ACWORTH,+GA+30101&hl=en"
GWINNETT COUNTY SHERIFF'S OFFICE,GWINNETT COUNTY POLICE DEPARTMENT,2900 UNIVESTIY PARKWAY,LAWRENCEVILLE,GA,30043,"http://maps.google.com/maps?q=2900 UNIVESTIY PARKWAY,+LAWRENCEVILLE,+GA+30043&hl=en"
FAYETTEVILLE POLICE DEPARTMENT,FAYETTEVILLE POLICE DEPARTMENT,760 JIMMIE MAYFIELD BLVD.,NEWNAN,GA,30265,"http://maps.google.com/maps?q=760 JIMMIE MAYFIELD BLVD.,+NEWNAN,+GA+30265&hl=en"
MONROE POLICE DEPARTMENT,MONROE POLICE DEPARTMENT,WAYNE STREET,MONROE,GA,30655,"http://maps.google.com/maps?q=WAYNE STREET,+MONROE,+GA+30655&hl=en"
CARROLL COUNTY SHERIFF'S OFFICE,CARROLL COUNTY SHERIFF'S OFFICE MAIN ENTRANCE,1000 NEWNAN ROAD,CARROLLTON,GA,30116,"http://maps.google.com/maps?q=1000 NEWNAN ROAD,+CARROLLTON,+GA+30116&hl=en"
CARTERSVILLE POLICE DEPARTMENT,CARTERSVILLE POLICE DEPARTMENT,195 CASSVILLE ROAD,CARTERSVILLE,GA,30120,"http://maps.google.com/maps?q=195 CASSVILLE ROAD,+CARTERSVILLE,+GA+30120&hl=en"
FANNIN COUNTY SHERIFF'S OFFICE,FANNIN COUNTY SHERIFF'S OFFICE,645 WEST FIRST STREET,BLUE RIDGE,GA,30513,"http://maps.google.com/maps?q=645 WEST FIRST STREET,+BLUE RIDGE,+GA+30513&hl=en"
10TH JUDICIAL DRUG TASK FORCE,PIGGLY WIGGLY,125 FIVE POINT DRIVE,DUCKTOWN,TN,37326,"http://maps.google.com/maps?q=125 FIVE POINT DRIVE,+DUCKTOWN,+TN+37326&hl=en"
"ANNISTON ARMY DEPOT, ASAP",ANNISTON ARMY DEPOT BLDG 206 AND 422,7 FRANKFORD AVEASAP,ANNISTON,AL,36201,"http://maps.google.com/maps?q=7 FRANKFORD AVE,+ANNISTON,+AL+36201&hl=en"
CALHOUN COUNTY SHERIFF'S OFFICE,QUINTARD MALL,700 QUINTARD DRIVE,OXFORD,AL,36203,"http://maps.google.com/maps?q=700 QUINTARD DRIVE,+OXFORD,+AL+36203&hl=en"
10TH JUDICIAL DRUG TASK FORCE,POLK CITY SHERIFF OFFICE,164 INDUSTRIAL ACCESS CIRCLE,BENTON,TN,37307,"http://maps.google.com/maps?q=164 INDUSTRIAL ACCESS CIRCLE,+BENTON,+TN+37307&hl=en"
FRANKLIN COUNTY SHERIFF'S OFFICE,FRANKLIN COUNTY SHERIFF CID,159 A. T. MAULDIN DRIVE,CARNESVILLE,GA,30521,"http://maps.google.com/maps?q=159 A. T. MAULDIN DRIVE,+CARNESVILLE,+GA+30521&hl=en"
ROYSTON POLICE DEPARTMENT,ROYSTON POLICE DEPARTMENT,830 CHURCH STREET,ROYSTON,GA,30662,"http://maps.google.com/maps?q=830 CHURCH STREET,+ROYSTON,+GA+30662&hl=en"
ETOWAH COUNTY DRUG ENFORCEMENT UNIT,WALMART,340 E. MEIGHAN BLVD.,GADSDEN,AL,35903,"http://maps.google.com/maps?q=340 E. MEIGHAN BLVD.,+GADSDEN,+AL+35903&hl=en"
CATOOSA CO. SHERIFF'S OFFICE,CATOOSA CO. SHERIFF'S OFFICE,5842 HIGHWAY 41,RINGGOLD,GA,30736,"http://maps.google.com/maps?q=5842 HIGHWAY 41,+RINGGOLD,+GA+30736&hl=en"
BRADLEY COUNTY SHERIFF'S OFFICE,BCSO CID ENTRANCE,2290 BLYTHE AVE SE,CLEVELAND,TN,37311,"http://maps.google.com/maps?q=2290 BLYTHE AVE SE,+CLEVELAND,+TN+37311&hl=en"
HAMILTON COUNTY SHERIFF'S OFFICE,ELKS LODGE,1069 GRAYSVILLE RD,CHATTANOOGA,TN,37421,"http://maps.google.com/maps?q=1069 GRAYSVILLE RD,+CHATTANOOGA,+TN+37421&hl=en"
EAST RIDGE POLICE DEPARTMENT,WALGREENS,5301 RINGGOLD RD,EAST RIDGE,TN,37412,"http://maps.google.com/maps?q=5301 RINGGOLD RD,+EAST RIDGE,+TN+37412&hl=en"
OCONEE COUNTY SHERIFF'S OFFICE,OCSO SUBSTATION,302 MEMORIAL DRIVE,SENECA,SC,29678,"http://maps.google.com/maps?q=302 MEMORIAL DRIVE,+SENECA,+SC+29678&hl=en"
SIGNAL MOUNTAIN POLICE DEPARTMENT,SIGNAL MOUNTAIN POLICE DEPARTMENT,1111 RIDGEWAY AVENUE,SIGNAL MOUNTAIN,TN,37377,"http://maps.google.com/maps?q=1111 RIDGEWAY AVENUE,+SIGNAL MOUNTAIN,+TN+37377&hl=en"
OCONEE COUNTY SHERIFF'S OFFICE,OCSO,300 S. CHURCH ST.,WALHALLA,SC,29691,"http://maps.google.com/maps?q=300 S. CHURCH ST.,+WALHALLA,+SC+29691&hl=en"
GREENVILLE HEALTH SYSTEM PD,OCONEE MEMORIAL HOSPITAL,298 MEMORIAL DR,SENECA,SC,29672,"http://maps.google.com/maps?q=298 MEMORIAL DR,+SENECA,+SC+29672&hl=en"
PICKENS COUNTY SHERIFF'S OFFICE,CLEMSON FREE CLINIC,1200 CLEMSON,CLEMSON,SC,29631,"http://maps.google.com/maps?q=1200 CLEMSON,+CLEMSON,+SC+29631&hl=en"
JACKSON COUNTY SHERIFFS OFFICE,JACKSON COUNTY COURT HOUSE,102 EAST LAUREL STREET,SCOTTSBORO,AL,35768,"http://maps.google.com/maps?q=102 EAST LAUREL STREET,+SCOTTSBORO,+AL+35768&hl=en"
PICKENS COUNTY SHERIFF'S OFFICE,CANNON HOSPITAL,123 W G ACKER DR,PICKENS,SC,29671,"http://maps.google.com/maps?q=123 W G ACKER DR,+PICKENS,+SC+29671&hl=en"
FRANKLIN COUNTY SHERIFF'S OFFICE,FRANKLIN COUNTY SHERIFF'S OFFICE,494 GEORGE FRALEY PKWY,WINCHESTER,TN,37398,"http://maps.google.com/maps?q=494 GEORGE FRALEY PKWY,+WINCHESTER,+TN+37398&hl=en"
