Participant,CollectionSite,Address,City,State,Zip,MapURL
ACTON PD,ACTON POLICE DEPARTMENT,371 MAIN ST,ACTON,MA,01720,"http://maps.google.com/maps?q=371 MAIN ST,+ACTON,+MA+01720&hl=en"
AMESBURY PD,"AMESBURY POLICE STATION 
												
													OFFICER THOMAS HANSHAW",19 SCHOOL ST,AMESBURY,MA,01913,"http://maps.google.com/maps?q=19 SCHOOL ST,+AMESBURY,+MA+01913&hl=en"
ANDOVER POLICE DEPARTMENT,"ANDOVER WATER TREATMENT PLANT 
												
													10:00 AM-2:00 PM",397 LOWELL ST,ANDOVER,MA,01810,"http://maps.google.com/maps?q=397 LOWELL ST,+ANDOVER,+MA+01810&hl=en"
ARLINGTON POLICE DEPARTMENT,ARLINGTON POLICE DEPARTMENT,112 MYSTIC STREET,ARLINGTON,MA,02474,"http://maps.google.com/maps?q=112 MYSTIC STREET,+ARLINGTON,+MA+02474&hl=en"
ASHLAND POLICE DEPARTMENT,ASHLAND POLICE DEPARTMENT,137 MAIN STREET,ASHLAND,MA,01721,"http://maps.google.com/maps?q=137 MAIN STREET,+ASHLAND,+MA+01721&hl=en"
ATTLEBORO POLICE DEPARTMENT,ATTLEBORO POLICE DEPARTMENT,12 UNION ST,ATTLEBORO,MA,02703,"http://maps.google.com/maps?q=12 UNION ST,+ATTLEBORO,+MA+02703&hl=en"
AYER POLICE DEPARTMENT,WESTFORD PD,53 MAIN STREET,WESTFORD,MA,01886,"http://maps.google.com/maps?q=53 MAIN STREET,+WESTFORD,+MA+01886&hl=en"
BARNSTABLE POLICE DEPARTMENT,BARNSTABLE POLICE DEPARTMENT,1200 PHINNEY'S LANEPO BOX B,HYANNIS,MA,02601,"http://maps.google.com/maps?q=1200 PHINNEY'S LANE,+HYANNIS,+MA+02601&hl=en"
BARRINGTON POLICE DEPARTMENT,BARRINGTON PUBLIC SAFETY BUILDING,100 FEDERAL ROAD,BARRINGTON,RI,02806,"http://maps.google.com/maps?q=100 FEDERAL ROAD,+BARRINGTON,+RI+02806&hl=en"
BELLINGHAM POLICE,"BELLINGHAM POLICE STATION 
												
													TRAINING ROOM",30 BLACKSTONE STREET,BELLINGHAM,MA,02019,"http://maps.google.com/maps?q=30 BLACKSTONE STREET,+BELLINGHAM,+MA+02019&hl=en"
BELMONT PD,BELMONT DEPARTMENT OF PUBLIC WORKS,39 C STREET,BELMONT,MA,02478,"http://maps.google.com/maps?q=39 C STREET,+BELMONT,+MA+02478&hl=en"
BEVERLY POLICE DEPARTMENT,"NORTH BEVERLY CVS 
												
													PARKING LOT",19 DODGE ST,BEVERLY,MA,01915,"http://maps.google.com/maps?q=19 DODGE ST,+BEVERLY,+MA+01915&hl=en"
BILLERICA POLICE,BILLERICA POLICE,250 BOSTON RD,BILLERICA,MA,01821,"http://maps.google.com/maps?q=250 BOSTON RD,+BILLERICA,+MA+01821&hl=en"
BLACKSTONE POLICE,BLACKSTONE POLICE DEPARTMENT,15 ST. PAUL STREET,BLACKSTONE,MA,01504,"http://maps.google.com/maps?q=15 ST. PAUL STREET,+BLACKSTONE,+MA+01504&hl=en"
BOURNE POLICE DEPARTMENT,BOURNE POLICE DEPARTMENT,175 MAIN ST,BUZZARDS BAY,MA,02532,"http://maps.google.com/maps?q=175 MAIN ST,+BUZZARDS BAY,+MA+02532&hl=en"
BOXBOROUGH PD,"BOXBOROUGH POLICE DEPARTMENT 
												
													OPEN 24/7",FRONT LOBBY520 MASSACHUSETTS AVENUE,BOXBOROUGH,MA,01719,"http://maps.google.com/maps?q=FRONT LOBBY,+BOXBOROUGH,+MA+01719&hl=en"
BRAINTREE POLICE DEPT.,MARGE CRISPIN CENTER,90 POND ST,BRAINTREE,MA,02184,"http://maps.google.com/maps?q=90 POND ST,+BRAINTREE,+MA+02184&hl=en"
BREWSTER POLICE DEPARTMENT,BREWSTER POLICE DEPARTMENT,631 HARWICH RD,BREWSTER,MA,02631,"http://maps.google.com/maps?q=631 HARWICH RD,+BREWSTER,+MA+02631&hl=en"
BRIDGEWATER POLICE DEPARTMENT,"BRIDGEWATER POLICE DEPARTMENT 
												
													LOBBY",220 PLEASANT ST,BRIDGEWATER,MA,02324,"http://maps.google.com/maps?q=220 PLEASANT ST,+BRIDGEWATER,+MA+02324&hl=en"
BRISTOL POLICE DEPARTMENT,BRISTOL POLICE DEPARTMENT,395 METACOM AVE,BRISTOL,RI,02809,"http://maps.google.com/maps?q=395 METACOM AVE,+BRISTOL,+RI+02809&hl=en"
BROCKTON POLICE DEPARTMENT,BROCKTON COUNCIL ON AGING,10 FATHER KENNY WAY,BROCKTON,MA,02301,"http://maps.google.com/maps?q=10 FATHER KENNY WAY,+BROCKTON,+MA+02301&hl=en"
BURRILLVILLE POLICE DEPARTMENT,BURRILLVILLE POLICE DEPARTMENT,1477 VICTORY HWY,HARRISVILLE,RI,02830,"http://maps.google.com/maps?q=1477 VICTORY HWY,+HARRISVILLE,+RI+02830&hl=en"
CAMBRIDGE POLICE,CAMBRIDGE POLICE DEPARTMENT,125 SIXTH STREET,CAMBRIDGE,MA,02142,"http://maps.google.com/maps?q=125 SIXTH STREET,+CAMBRIDGE,+MA+02142&hl=en"
CENTRAL FALLS POLICE,CENTRAL FALLS POLICE,160 ILLINOIS STREET,CENTRAL FALLS,RI,02863,"http://maps.google.com/maps?q=160 ILLINOIS STREET,+CENTRAL FALLS,+RI+02863&hl=en"
CHATHAM POLICE DEPARTMENT,"CHATHAM POLICE DEPARTMENT 
												
													508-945-1217",249 GEORGE RYDER ROAD,CHATHAM,MA,02633,"http://maps.google.com/maps?q=249 GEORGE RYDER ROAD,+CHATHAM,+MA+02633&hl=en"
CHELMSFORD PD,CHELMSFORD PD,2 OLDE NORTH RD,CHELMSFORD,MA,01824,"http://maps.google.com/maps?q=2 OLDE NORTH RD,+CHELMSFORD,+MA+01824&hl=en"
CHELSEA POLICE DEPARTMENT,CHELSEA POLICE DEPARTMENT,19 PARK STREET,CHELSEA,MA,02150,"http://maps.google.com/maps?q=19 PARK STREET,+CHELSEA,+MA+02150&hl=en"
CHESTER POLICE DEPARTMENT,"CHESTER POLICE DEPARTMENT 
												
													LOBBY",84 CHESTER STREET,CHESTER,NH,03036,"http://maps.google.com/maps?q=84 CHESTER STREET,+CHESTER,+NH+03036&hl=en"
CITY OF PROVIDENCE,THE MIRIAM HOSPITAL,164 SUMMIT AVE,PROVIDENCE,RI,02906,"http://maps.google.com/maps?q=164 SUMMIT AVE,+PROVIDENCE,+RI+02906&hl=en"
CITY OF PROVIDENCE,WALGREENS PHARMACY,1 POCASSET AVE,PROVIDENCE,RI,02909,"http://maps.google.com/maps?q=1 POCASSET AVE,+PROVIDENCE,+RI+02909&hl=en"
CITY OF PROVIDENCE,WALGREENS PHARMACY,533 ELMWOOD AVE,PROVIDENCE,RI,02907,"http://maps.google.com/maps?q=533 ELMWOOD AVE,+PROVIDENCE,+RI+02907&hl=en"
CLARKU,"CLARK UNIVERSITY 
												
													HIGGINS STUDENT CENTER",950 MAIN STREET,WORCESTER,MA,01610,"http://maps.google.com/maps?q=950 MAIN STREET,+WORCESTER,+MA+01610&hl=en"
COHASSET POLICE DEPARTMENT,"COHASSET POLICE DEPARTMENT HEADQUARTERS 
												
													IN POLICE STATION LOBBY",62 ELM STREET,COHASSET,MA,02025,"http://maps.google.com/maps?q=62 ELM STREET,+COHASSET,+MA+02025&hl=en"
CONNECTICUT STATE POLICE TROOP E,GRISWOLD TOWN HALL,28 MAIN STREET,JEWETT CITY,CT,06351,"http://maps.google.com/maps?q=28 MAIN STREET,+JEWETT CITY,+CT+06351&hl=en"
CRANSTON POLICE DEPT.,CRANSTON POLICE STATION,5 GARFIELD AVE,CRANSTON,RI,02920,"http://maps.google.com/maps?q=5 GARFIELD AVE,+CRANSTON,+RI+02920&hl=en"
CUMBERLAND POLICE,CUMBERLAND POLICE STATION,1380 DIAMOND HILL ROAD,CUMBERLAND,RI,02864,"http://maps.google.com/maps?q=1380 DIAMOND HILL ROAD,+CUMBERLAND,+RI+02864&hl=en"
DANVILLE POLICE DEPARTMENT,DANVILLE POLICE DEPARTMENT,206 MAIN STREET,DANVILLE,NH,03819,"http://maps.google.com/maps?q=206 MAIN STREET,+DANVILLE,+NH+03819&hl=en"
DEDHAM POLICE,DEDHAM POLICE STATION,600 HIGH STREET,DEDHAM,MA,02026,"http://maps.google.com/maps?q=600 HIGH STREET,+DEDHAM,+MA+02026&hl=en"
DENNIS POLICE DEPARTMENT,DENNIS POLICE DEPARTMENT,90 BOB CROWELL RD,SOUTH DENNIS,MA,02660,"http://maps.google.com/maps?q=90 BOB CROWELL RD,+SOUTH DENNIS,+MA+02660&hl=en"
DERRY POLICE DEPARTMENT,"DERRY POLICE DEPARTMENT 
												
													FRONT PARKING LOT",1 MUNICIPAL DRIVE,DERRY,NH,03038,"http://maps.google.com/maps?q=1 MUNICIPAL DRIVE,+DERRY,+NH+03038&hl=en"
DOVER POLICE DEPARTMENT,DOVER POLICE DEPARTMENT,3 WALPOLE STREET,DOVER,MA,02030,"http://maps.google.com/maps?q=3 WALPOLE STREET,+DOVER,+MA+02030&hl=en"
DRACUT POLICE DEPARTMENT,DRACUT POLICE DEPARTMENT,110 LOON HILL ROAD,DRACUT,MA,01826,"http://maps.google.com/maps?q=110 LOON HILL ROAD,+DRACUT,+MA+01826&hl=en"
EAST BRIDGEWATER PD,EAST BRIDGEWATER POLICE DEPARTMENT,153 CENTRAL ST,EAST BRIDGEWATER,MA,02333,"http://maps.google.com/maps?q=153 CENTRAL ST,+EAST BRIDGEWATER,+MA+02333&hl=en"
EAST PROVIDENCE POLICE DEPARTMENT,EAST PROVIDENCE POLICE,750 WATERMAN AVENUE,EAST PROVIDENCE,RI,02914,"http://maps.google.com/maps?q=750 WATERMAN AVENUE,+EAST PROVIDENCE,+RI+02914&hl=en"
EASTHAM POLICE DEPARTMENT,EASTHAM POLICE DEPARTMENT,2550 STATE HWY,EASTHAM,MA,02642,"http://maps.google.com/maps?q=2550 STATE HWY,+EASTHAM,+MA+02642&hl=en"
EASTON POLICE DEPARTMENT,EASTON POLICE DEPARTMENT,46 LOTHROP ST,NORTH EASTON,MA,02356,"http://maps.google.com/maps?q=46 LOTHROP ST,+NORTH EASTON,+MA+02356&hl=en"
ESSEX POLICE DEPARTMENT,ESSEX POLICE DEPARTMENT,24 MARTIN ST.,ESSEX,MA,01929,"http://maps.google.com/maps?q=24 MARTIN ST.,+ESSEX,+MA+01929&hl=en"
EVERETT POLICE DEPARTMENT,CITYHALL BOARD OF HEALTH,BROADWAY,EVERETT,MA,02149,"http://maps.google.com/maps?q=BROADWAY,+EVERETT,+MA+02149&hl=en"
EVERETT POLICE DEPARTMENT,EVERETT POLICE DEARTMENT,45 ELM ST,EVERETT,MA,02149,"http://maps.google.com/maps?q=45 ELM ST,+EVERETT,+MA+02149&hl=en"
FOXBOROUGHPOLICE DEPARTMENT,"FOXBOROUGH POLICE DEPARTMENT 
												
													PUBLIC SAFETY BUILDING",8 CHESTNUT STREET,FOXBORO,MA,02035,"http://maps.google.com/maps?q=8 CHESTNUT STREET,+FOXBORO,+MA+02035&hl=en"
FRAMINGHAM PD,FRAMINGHAM POLICE DEPARTMENT,1 WILLIAM H. WELCH WAYFRAMINGHAM,FRAMINGHAM,MA,01702,"http://maps.google.com/maps?q=1 WILLIAM H. WELCH WAY,+FRAMINGHAM,+MA+01702&hl=en"
FREMONT POLICE DEPARTMENT,FREMONT POLICE DEPARTMENT,425 MAIN STREET,FREMONT,NH,03044,"http://maps.google.com/maps?q=425 MAIN STREET,+FREMONT,+NH+03044&hl=en"
GEORGETOWN POLICE DEPARTMENT,"GEORGETOWN POLICE DEPARTMENT 
												
													POLICE STATION LOBBY 24/7/365",47 CENTRAL ST.,GEORGETOWN,MA,01833,"http://maps.google.com/maps?q=47 CENTRAL ST.,+GEORGETOWN,+MA+01833&hl=en"
GLOCESTER POLICE DEPARTMENT,"GLOCESTER POLICE DEPARTMENT 
												
													FRONT LOBBY",162 CHOPMIST HILL ROAD,CHEPACHET,RI,02814,"http://maps.google.com/maps?q=162 CHOPMIST HILL ROAD,+CHEPACHET,+RI+02814&hl=en"
GLOUCESTER POLICE DEPARTMENT,ROSE BAKER SENIOR CENTER PARKING LOT,6 MANUEL LEWIS STREET,GLOUCESTER,MA,01930,"http://maps.google.com/maps?q=6 MANUEL LEWIS STREET,+GLOUCESTER,+MA+01930&hl=en"
GRAFTON POLICE DEPARTMENT,GRAFTON POLICE DEPARTMENT,28 PROVIDENCE ROAD,GRAFTON,MA,01519,"http://maps.google.com/maps?q=28 PROVIDENCE ROAD,+GRAFTON,+MA+01519&hl=en"
GROTON PD,GROTON POLICE DEPARTMENT,99 PLEASANT STREET,GROTON,MA,01450,"http://maps.google.com/maps?q=99 PLEASANT STREET,+GROTON,+MA+01450&hl=en"
GROTON POLICE DEPARTMENT,GROTON SENIOR CENTER,102 NEWTOWN RD.,GROTON,CT,06340,"http://maps.google.com/maps?q=102 NEWTOWN RD.,+GROTON,+CT+06340&hl=en"
GROVELAND POLICE DEPARTMENT,"GROVELAND POLICE DEPARTMENT 
												
													SGT.  ERIC C. RYAN",181 MAIN STREETSTATION LOBBY,GROVELAND,MA,01834,"http://maps.google.com/maps?q=181 MAIN STREET,+GROVELAND,+MA+01834&hl=en"
HAMILTON POLICE DEPARTMENT,HAMILTON PUBLIC SAFETY BUILDING,265  BAY ROAD,SOUTH HAMILTON,MA,01982,"http://maps.google.com/maps?q=265  BAY ROAD,+SOUTH HAMILTON,+MA+01982&hl=en"
HAMPSTEAD POLICE DEPARTMENT,HAMPSTEAD POLICE DEPARTMENT,30 VETERANS WAY,HAMPSTEAD,NH,03841,"http://maps.google.com/maps?q=30 VETERANS WAY,+HAMPSTEAD,+NH+03841&hl=en"
HANOVER PD,HANOVER PD,665 CENTER STREET,HANOVER,MA,02339,"http://maps.google.com/maps?q=665 CENTER STREET,+HANOVER,+MA+02339&hl=en"
HARVARD POLICE,"HARVARD PUBLIC SAFETY BUILDING 
												
													HARVARD POLICE",40 AYER ROAD,HARVARD,MA,01451,"http://maps.google.com/maps?q=40 AYER ROAD,+HARVARD,+MA+01451&hl=en"
HOLBROOK POLICE DEPT,HOLBROOK POLICE DEPARTMENT,300 SOUTH FRANKLIN STREET,HOLBROOK,MA,02343,"http://maps.google.com/maps?q=300 SOUTH FRANKLIN STREET,+HOLBROOK,+MA+02343&hl=en"
HOLLISTON POLICE DEPARTMENT,HOLLISTON POLICE DEPARTMENT,550 WASHINGTON STREET,HOLLISTON,MA,01746,"http://maps.google.com/maps?q=550 WASHINGTON STREET,+HOLLISTON,+MA+01746&hl=en"
IPSWICH POLICE DEPARTMENT,DANVERS POLICE DEPARTMENT,120 ASH STREET,DANVERS,MA,01923,"http://maps.google.com/maps?q=120 ASH STREET,+DANVERS,+MA+01923&hl=en"
JAMESTOWN POLICE DEPARTMENT,JAMESTOWN POLICE,250 CONANICUS AVENUE,JAMESTOWN,RI,02835,"http://maps.google.com/maps?q=250 CONANICUS AVENUE,+JAMESTOWN,+RI+02835&hl=en"
JOHNSTON POLICE,JOHNSTON POLICE,1651 ATWOOD AVENUE,JOHNSTON,RI,02919,"http://maps.google.com/maps?q=1651 ATWOOD AVENUE,+JOHNSTON,+RI+02919&hl=en"
KINGSTON POLICE DEPARTMENT,"CARRIAGE TOWNE PLAZA 
												
													IN FRONT OF RITE AID",53 CHURCH ST.,KINGSTON,NH,03848,"http://maps.google.com/maps?q=53 CHURCH ST.,+KINGSTON,+NH+03848&hl=en"
LEOMINSTER POLICE DEPARTMENT,LEOMINSTER POLICE DEPARTMENT,29 CHURCH ST,LEOMINSTER,MA,01453,"http://maps.google.com/maps?q=29 CHURCH ST,+LEOMINSTER,+MA+01453&hl=en"
LINCOLN POLICE DEPARTMENT,LINCOLN POLICE DEPARTMENT,100 OLD RIVER RD,LINCOLN,RI,02865,"http://maps.google.com/maps?q=100 OLD RIVER RD,+LINCOLN,+RI+02865&hl=en"
LITTLE COMPTON POLICE DEPARTMENT,"LITTLE COMPTON POLICE DEPARTMENT 
												
													LITTLE COMPTON PUBLIC SAFETY COMPLEX",60 SIMMONS ROAD,LITTLE COMPTON,RI,02837,"http://maps.google.com/maps?q=60 SIMMONS ROAD,+LITTLE COMPTON,+RI+02837&hl=en"
LITTLETON POLICE DEPARTMENT,LITTLETON POLICE DEPARTMENT,500 GREAT RD,LITTLETON,MA,01460,"http://maps.google.com/maps?q=500 GREAT RD,+LITTLETON,+MA+01460&hl=en"
LOWELL POLICE DEPARTMENT,"LOWELL GENERAL HOSPITAL, SAINTS CAMPUS 
												
													PAIN MANAGEMENT CENTER",2 HOSPITAL DRIVE,LOWELL,MA,01852,"http://maps.google.com/maps?q=2 HOSPITAL DRIVE,+LOWELL,+MA+01852&hl=en"
LUNENBURG POLICE DEPARTMENT,LUNENBURG POLICE DEPARTMENT,655 MASSACHUSETTS AVE.,LUNENBURG,MA,01462,"http://maps.google.com/maps?q=655 MASSACHUSETTS AVE.,+LUNENBURG,+MA+01462&hl=en"
LYNNFIELD POLICE DEPARTMENT,LYNNFIELD POLICE DEPARTMENT,55 SUMMER ST,LYNNFIELD,MA,01940,"http://maps.google.com/maps?q=55 SUMMER ST,+LYNNFIELD,+MA+01940&hl=en"
MALDEN POLICE DEPARTMENT,MALDEN POLICE STATION,800 EASTERN AVE,MALDEN,MA,02148,"http://maps.google.com/maps?q=800 EASTERN AVE,+MALDEN,+MA+02148&hl=en"
MANCHESTER BY THE SEA POLICE,"POLICE STATION 
												
													GARAGE",10 CENTRAL ST.,MANCHESTER,MA,01944,"http://maps.google.com/maps?q=10 CENTRAL ST.,+MANCHESTER,+MA+01944&hl=en"
MANSFIELD PD,MANSFIELD POLICE DEPARTMENT,50 WEST STREET,MANSFIELD,MA,02048,"http://maps.google.com/maps?q=50 WEST STREET,+MANSFIELD,+MA+02048&hl=en"
MARLBOROUGH POLICE DEPARTMENT,"MARLBOROUGH POLICE STATION 
												
													FRONT LOBBY",355 BOLTON ST,MARLBOROUGH,MA,01752,"http://maps.google.com/maps?q=355 BOLTON ST,+MARLBOROUGH,+MA+01752&hl=en"
MARSHFIELD POLICE DEPARTMENT,MARSHFIELD POLICE DEPARTMENT,1639 OCEAN STREET,MARSHFIELD,MA,02050,"http://maps.google.com/maps?q=1639 OCEAN STREET,+MARSHFIELD,+MA+02050&hl=en"
MBTA TRANSIT POLICE,MBTA TRANSIT POLICE,240 SOUTHAMPTON ST,BOSTON,MA,02118,"http://maps.google.com/maps?q=240 SOUTHAMPTON ST,+BOSTON,+MA+02118&hl=en"
MEDFIELD POLICE DEPARTMENT,"MEDFIELD POLICE DEPARTMENT 
												
													FRONT LOBBY",112 NORTH STREET,MEDFIELD,MA,02052,"http://maps.google.com/maps?q=112 NORTH STREET,+MEDFIELD,+MA+02052&hl=en"
MEDFORD PD,85 GEORGE P HASSETT DRIVE (REAR OF CITY HALL),85 GEORGE P HASSETT DRIVE,MEDFORD,MA,02155,"http://maps.google.com/maps?q=85 GEORGE P HASSETT DRIVE,+MEDFORD,+MA+02155&hl=en"
MELROSE POLICE DEPARTMENT,MELROSE POLICE DEPARTMENT,56 WEST FOSTER ST,MELROSE,MA,02176,"http://maps.google.com/maps?q=56 WEST FOSTER ST,+MELROSE,+MA+02176&hl=en"
MELROSE POLICE DEPARTMENT,"WALGREENS 
												
													RYAN HANLEY MGR 781-665-1329",897 MAIN ST,MELROSE,MA,02176,"http://maps.google.com/maps?q=897 MAIN ST,+MELROSE,+MA+02176&hl=en"
MERRIMAC POLICE DEPARTMENT,MERRIMAC POLICE DEPARTMENT,16 EAST MAIN ST,MERRIMAC,MA,01860,"http://maps.google.com/maps?q=16 EAST MAIN ST,+MERRIMAC,+MA+01860&hl=en"
METHUEN POLICE DEPARTMENT,METHUEN POLICE DEPARTMENT,90 HAMPSHIRE STREET,METHUEN,MA,01844,"http://maps.google.com/maps?q=90 HAMPSHIRE STREET,+METHUEN,+MA+01844&hl=en"
MIDDLEBORO PD,"MIDDLEBOROUGH POLICE DEPT. 
												
													REAR PARKING LOT",99 N. MAIN ST,MIDDLEBORO,MA,02346,"http://maps.google.com/maps?q=99 N. MAIN ST,+MIDDLEBORO,+MA+02346&hl=en"
MIDDLETOWN POLICE DEPARTMENT,MIDDLETOWN POLICE,123 VALLEY ROAD,MIDDLETOWN,RI,02842,"http://maps.google.com/maps?q=123 VALLEY ROAD,+MIDDLETOWN,+RI+02842&hl=en"
NASHUA POLICE DEPARTMENT,"DEPARTMENT OF PUBLIC WORKS (DPW) 
												
													LOCATED BEHIND CONWAY ICE ARENA",9 RIVERSIDE ST,NASHUA,NH,03062,"http://maps.google.com/maps?q=9 RIVERSIDE ST,+NASHUA,+NH+03062&hl=en"
NATICK POLICE DEPARTMENT,"NATICK POLICE DEPARTMENT 
												
													IN THE REAR",20 EAST CENTRAL ST,NATICK,MA,01760,"http://maps.google.com/maps?q=20 EAST CENTRAL ST,+NATICK,+MA+01760&hl=en"
NEEDHAM POLICE DEPARTMENT,"NEEDHAM TOWN HALL 
												
													DRIVE WAY IN FRONT OF TOWN HALL",1471 HIGHLAND AVE,NEEDHAM,MA,02492,"http://maps.google.com/maps?q=1471 HIGHLAND AVE,+NEEDHAM,+MA+02492&hl=en"
NEW BEDFORD PD,NEW BEDFORD POLICE DEPARTMENT,871 ROCKDALE AVE,NEW BEDFORD,MA,02740,"http://maps.google.com/maps?q=871 ROCKDALE AVE,+NEW BEDFORD,+MA+02740&hl=en"
NEWBURYPORT POLICE,NEWBURYPORT POLICE,4 GREEN ST,NEWBURYPORT,MA,01950,"http://maps.google.com/maps?q=4 GREEN ST,+NEWBURYPORT,+MA+01950&hl=en"
NEWPORT POLICE DEPARTMENT,NEWPORT POLICE,120 BROADWAY,NEWPORT,RI,02840,"http://maps.google.com/maps?q=120 BROADWAY,+NEWPORT,+RI+02840&hl=en"
NEWTON POLICE DEPARTMENT,NEWTON POLICE DEPARTMENT,1321 WASHINGTON ST.,WEST NEWTON,MA,02465,"http://maps.google.com/maps?q=1321 WASHINGTON ST.,+WEST NEWTON,+MA+02465&hl=en"
NEWTON POLICE DEPARTMENT,TRANSFER STATION,4 DUGWAY RD,NEWTON,NH,03858,"http://maps.google.com/maps?q=4 DUGWAY RD,+NEWTON,+NH+03858&hl=en"
NORTH ANDOVER PD,NORTH ANDOVER POLICE DEPARTMENT,1475 OSGOOD STREET,NORTH ANDOVER,MA,01845,"http://maps.google.com/maps?q=1475 OSGOOD STREET,+NORTH ANDOVER,+MA+01845&hl=en"
NORTH ATTLEBORO POLICE DEPARTMENT,NORTH ATTLEBORO POLICE DEPARTMENT,102 SOUTH WASHINGTON STREET,NORTH ATTLEBORO,MA,02760,"http://maps.google.com/maps?q=102 SOUTH WASHINGTON STREET,+NORTH ATTLEBORO,+MA+02760&hl=en"
NORTH KINGSTOWN POLICE DEPARTMENT,NORTH KINGSTOWN POLICE DEPARTMENT HQ,8166 POST ROAD,NORTH KINGSTOWN,RI,02852,"http://maps.google.com/maps?q=8166 POST ROAD,+NORTH KINGSTOWN,+RI+02852&hl=en"
NORTH PROVIDENCE POLICE,NORTH PROVIDENCE POLICE,1967 MINERAL SPRING AVE,PROVIDENCE,RI,02904,"http://maps.google.com/maps?q=1967 MINERAL SPRING AVE,+PROVIDENCE,+RI+02904&hl=en"
NORTHBOROUGH POLICE DEPARTMENT,NORTHBOROUGH POLICE DEPARTMENT,211 MAIN ST.,NORTHBOROUGH,MA,01532,"http://maps.google.com/maps?q=211 MAIN ST.,+NORTHBOROUGH,+MA+01532&hl=en"
NORTHBRIDGE POLICE DEPARTMENT,NORTHBRIDGE POLICE DEPARTMENT,1 HOPE STREET,WHITINSVILLE,MA,01588,"http://maps.google.com/maps?q=1 HOPE STREET,+WHITINSVILLE,+MA+01588&hl=en"
NORTON POLICE DEPARTMENT,NORTON POLICE DEPARTMENT,82 EAST MAIN STREET,NORTON,MA,02766,"http://maps.google.com/maps?q=82 EAST MAIN STREET,+NORTON,+MA+02766&hl=en"
NORWELL PD,NORWELL POLICE DEPARTMENT,300A WASHINGTON STREET,NORWELL,MA,02061,"http://maps.google.com/maps?q=300A WASHINGTON STREET,+NORWELL,+MA+02061&hl=en"
NORWOOD POLICE DEPARTMENT,NORWOOD POLICE DEPT,137 NAHATAN ST,NORWOOD,MA,02062,"http://maps.google.com/maps?q=137 NAHATAN ST,+NORWOOD,+MA+02062&hl=en"
PAWTUCKET POLICE DEPT.,"PAWTUCKET POLICE DEPARTMENT 
												
													FRONT OFFICE",121 ROOSEVELT AVE.,PAWTUCKET,RI,02860,"http://maps.google.com/maps?q=121 ROOSEVELT AVE.,+PAWTUCKET,+RI+02860&hl=en"
PEABODY POLICE DEPARTMENT,PEABODY POLICE DEPARTMENT,6 ALLEN'S LANE,PEABODY,MA,01960,"http://maps.google.com/maps?q=6 ALLEN'S LANE,+PEABODY,+MA+01960&hl=en"
PELHAM POLICE DEPARTMENT,"PELHAM POLICE DEPT. 
												
													FRONT LOBBY",14 VILLAGE GREEN,PELHAM,NH,03076,"http://maps.google.com/maps?q=14 VILLAGE GREEN,+PELHAM,+NH+03076&hl=en"
PEPPERELL POLICE DEPARTMENT,"PEPPERELL POLICE STATION 
												
													COLLECTION KIOSK IN MAIN LOBBY",59 MAIN STREET,PEPPERELL,MA,01463,"http://maps.google.com/maps?q=59 MAIN STREET,+PEPPERELL,+MA+01463&hl=en"
PLAINVILLE POLICE DEPARTMENT,PLAINVILLE POLICE DEPARTMENT,157 SOUTH STREET,PLAINVILLE,MA,02762,"http://maps.google.com/maps?q=157 SOUTH STREET,+PLAINVILLE,+MA+02762&hl=en"
PLAISTOW POLICE DEPARTMENT,RITE AID PHARMACY,31 GARDEN RD,PLAISTOW,NH,03865,"http://maps.google.com/maps?q=31 GARDEN RD,+PLAISTOW,+NH+03865&hl=en"
PLYMOUTH POLICE DEPT,NEW HOPE CHAPEL,89 COURT STREET,PLYMOUTH,MA,02360,"http://maps.google.com/maps?q=89 COURT STREET,+PLYMOUTH,+MA+02360&hl=en"
QUINCY POLICE DEPARTMENT,QUINCY POLICE DEPARTMENT,1 SEA STREET,QUINCY,MA,02169,"http://maps.google.com/maps?q=1 SEA STREET,+QUINCY,+MA+02169&hl=en"
RANDOLPH POLICE DEPARTMENT,RANDOLPH POLICE DEPARTMENT,41 SOUTH MAIN STREET,RANDOLPH,MA,02368,"http://maps.google.com/maps?q=41 SOUTH MAIN STREET,+RANDOLPH,+MA+02368&hl=en"
RAYMOND POLICE DEPARTMENT,RAYMOND POLICE DEPARTMENT,1 SCRIBNER RD.,RAYMOND,NH,03077,"http://maps.google.com/maps?q=1 SCRIBNER RD.,+RAYMOND,+NH+03077&hl=en"
RAYNHAM PD,RAYNHAM PD,53 ORCHARD ST,RAYNHAM,MA,02767,"http://maps.google.com/maps?q=53 ORCHARD ST,+RAYNHAM,+MA+02767&hl=en"
RHODE ISLAND STATE POLICE,RHODE ISLAND STATE POLICE,1575 LOUISQUISSET PIKE,LINCOLN,RI,02865,"http://maps.google.com/maps?q=1575 LOUISQUISSET PIKE,+LINCOLN,+RI+02865&hl=en"
RHODE ISLAND STATE POLICE,RHODE ISLAND STATE POLICE,311 DANIELSON PIKE,NORTH SCITUATE,RI,02857,"http://maps.google.com/maps?q=311 DANIELSON PIKE,+NORTH SCITUATE,+RI+02857&hl=en"
RHODE ISLAND STATE POLICE,RHODE ISLAND STATE POLICE,54 NOOSENECK HILL RD,WYOMING,RI,02898,"http://maps.google.com/maps?q=54 NOOSENECK HILL RD,+WYOMING,+RI+02898&hl=en"
RHODE ISLAND STATE POLICE,RHODE ISLAND STATE POLICE,7875 POST ROAD,NORTH KINGSTOWN,RI,02852,"http://maps.google.com/maps?q=7875 POST ROAD,+NORTH KINGSTOWN,+RI+02852&hl=en"
RICHMOND POLICE DEPARTMENT,RICHMOND POLICE,1168 MAIN STREET,WYOMING,RI,02898,"http://maps.google.com/maps?q=1168 MAIN STREET,+WYOMING,+RI+02898&hl=en"
ROCKLAND POLICE DEPARTMENT,ROCKLAND POLICE DEPARTMENT,490 MARKET ST,ROCKLAND,MA,02370,"http://maps.google.com/maps?q=490 MARKET ST,+ROCKLAND,+MA+02370&hl=en"
ROWELY POLICE DEPARTMENT,"TOWN HALL ANNEX 
												
													COUNCIL ON AGING",39 CENTRAL STREET,ROWLEY,MA,01969,"http://maps.google.com/maps?q=39 CENTRAL STREET,+ROWLEY,+MA+01969&hl=en"
SALEM PD,SALEM POLICE DEPT,95 MARGIN ST,SALEM,MA,01970,"http://maps.google.com/maps?q=95 MARGIN ST,+SALEM,+MA+01970&hl=en"
SALEM POLICE DEPARTMENT,SALEM POLICE DEPARTMENT,9 VETERANS MEMORIAL PARKWAY,SALEM,NH,03079,"http://maps.google.com/maps?q=9 VETERANS MEMORIAL PARKWAY,+SALEM,+NH+03079&hl=en"
SALEM STATE POLICE,SALEM STATE POLICE DEPARTMENT,71 LORING AVENUE,SALEM,MA,01970,"http://maps.google.com/maps?q=71 LORING AVENUE,+SALEM,+MA+01970&hl=en"
SALISBURY POLICE DEPARTMENT,"SALISBURY POLICE DEPARTMENT 
												
													FRONT LOBBY SELF-SERVE COLLECTION BOX",181 BEACH ROAD,SALISBURY,MA,01952,"http://maps.google.com/maps?q=181 BEACH ROAD,+SALISBURY,+MA+01952&hl=en"
SAUGUS POLICE,SAUGUS POLICE DEPARTMENT,27 HAMILTON STREET,SAUGUS,MA,01906,"http://maps.google.com/maps?q=27 HAMILTON STREET,+SAUGUS,+MA+01906&hl=en"
SEABROOK POLICE DEPARTMENT,SEABROOK POLICE DEPARTMENT,7 LIBERTY LANE,SEABROOK,NH,03874,"http://maps.google.com/maps?q=7 LIBERTY LANE,+SEABROOK,+NH+03874&hl=en"
SHARON POLICE DEPARTMENT,"SHARON PUBLIC SAFETY BUILDING 
												
													213 SOUTH MAIN STREET",213 SOUTH MAIN STREET,SHARON,MA,02067,"http://maps.google.com/maps?q=213 SOUTH MAIN STREET,+SHARON,+MA+02067&hl=en"
SHREWSBURY POLICE DEPARTMENT,SHREWSBURY SENIOR CENTER,98 MAPLE AVE,SHREWSBURY,MA,01545,"http://maps.google.com/maps?q=98 MAPLE AVE,+SHREWSBURY,+MA+01545&hl=en"
SMITHFIELD POLICE DEPARTMENT,SMITHFIELD POLICE,215 PLEASANT VIEW AVENUE,SMITHFIELD,RI,02917,"http://maps.google.com/maps?q=215 PLEASANT VIEW AVENUE,+SMITHFIELD,+RI+02917&hl=en"
SOMERSET POLICE DEPARTMENT,CVS PHARMACY,1587 BRAYTON POINT ROAD,SOMERSET,MA,02726,"http://maps.google.com/maps?q=1587 BRAYTON POINT ROAD,+SOMERSET,+MA+02726&hl=en"
SOMERVILLE POLICE DEPARTMENT,SOMERVILLE FIRE DEPARTMENT,6 NEWBURY ST.,SOMERVILLE,MA,02144,"http://maps.google.com/maps?q=6 NEWBURY ST.,+SOMERVILLE,+MA+02144&hl=en"
SOMERVILLE POLICE DEPARTMENT,SOMERVILLE POLICE DEPARTMENT,220 WASHINGTON ST.,SOMERVILLE,MA,02143,"http://maps.google.com/maps?q=220 WASHINGTON ST.,+SOMERVILLE,+MA+02143&hl=en"
SOUTH KINGSTOWN POLICE DEPARTMENT,SOUTH KINGSTOWN POLICE,1790 KINGSTOWN RD,WAKEFIELD,RI,02879,"http://maps.google.com/maps?q=1790 KINGSTOWN RD,+WAKEFIELD,+RI+02879&hl=en"
STONEHAM POLICE DEPT.,"STONEHAM POLICE DEPARTMENT 
												
													MAIN LOBBY",47 CENTRAL STREET,STONEHAM,MA,02180,"http://maps.google.com/maps?q=47 CENTRAL STREET,+STONEHAM,+MA+02180&hl=en"
STONINGTON POLICE DEPARTMENT,STONINGTON POLICE DEPARTMENT,173 SOUTH BROAD ST,PAWCATUCK,CT,06379,"http://maps.google.com/maps?q=173 SOUTH BROAD ST,+PAWCATUCK,+CT+06379&hl=en"
SWAMPSCOTT POLICE,SWAMPSCOTT POLICE HEADQUARTERS,531 HUMPHREY STREET,SWAMPSCOTT,MA,01907,"http://maps.google.com/maps?q=531 HUMPHREY STREET,+SWAMPSCOTT,+MA+01907&hl=en"
TAUNTON POLICE DEPT.,"TAUNTON POLICE DEPT. 
												
													MAIN LOBBY",23 SUMMER ST,TAUNTON,MA,02780,"http://maps.google.com/maps?q=23 SUMMER ST,+TAUNTON,+MA+02780&hl=en"
TEWKSBURY POLICE DEPARTMENT,TEWKSBURY POLICE HEADQUARTERS,918 MAIN STREET,TEWKSBURY,MA,01876,"http://maps.google.com/maps?q=918 MAIN STREET,+TEWKSBURY,+MA+01876&hl=en"
TIVERTON POLICE DEPARTMENT,TIVERTON POLICE DEPARTMENT,20 INDUSTRIAL WAY,TIVERTON,RI,02878,"http://maps.google.com/maps?q=20 INDUSTRIAL WAY,+TIVERTON,+RI+02878&hl=en"
TOPSFIELD POLICE DEPARTMENT,TOPSFIELD POLICE DEPARTMENT,210 BOSTON STREET,TOPSFIELD,MA,01983,"http://maps.google.com/maps?q=210 BOSTON STREET,+TOPSFIELD,+MA+01983&hl=en"
TYNGSBOROUGH POLICE DEPARTMENT,TYNGSBOROUGH POLICE DEPARTMENT,20 WESTFORD ROAD,TYNGSBOROUGH,MA,01879,"http://maps.google.com/maps?q=20 WESTFORD ROAD,+TYNGSBOROUGH,+MA+01879&hl=en"
WAKEFIELD POLICE DEPARTMENT,WAKEFIELD POLICE DEPARTMENT,1 UNION ST,WAKEFIELD,MA,01880,"http://maps.google.com/maps?q=1 UNION ST,+WAKEFIELD,+MA+01880&hl=en"
WAKEFIELD POLICE DEPARTMENT,WALGREENS PHARMACY,572 MAIN ST,WAKEFIELD,MA,01880,"http://maps.google.com/maps?q=572 MAIN ST,+WAKEFIELD,+MA+01880&hl=en"
WALTHAM POLICE DEPT,"WALTHAM POLICE DEPT 
												
													REAR OF THE POLICE STATION",155 LEXINGTON ST.,WALTHAM,MA,02452,"http://maps.google.com/maps?q=155 LEXINGTON ST.,+WALTHAM,+MA+02452&hl=en"
WAREHAM PD,WAREHAM POLICE DEPARTMENT,2515 CRANBERRY HWY,WAREHAM,MA,02571,"http://maps.google.com/maps?q=2515 CRANBERRY HWY,+WAREHAM,+MA+02571&hl=en"
WARREN POLICE DEPARTMENT,WARREN POLICE DEPARTMENT,1 JOYCE STREET,WARREN,RI,02885,"http://maps.google.com/maps?q=1 JOYCE STREET,+WARREN,+RI+02885&hl=en"
WATERTOWN POLICE DEPARTMENT,WATERTOWN POLICE DEPARTMENT,552 MAIN STREET,WATERTOWN,MA,02472,"http://maps.google.com/maps?q=552 MAIN STREET,+WATERTOWN,+MA+02472&hl=en"
WELLESLEY POLICE DEPARTMENT,THE WELLESLEY POLICE DEPARTMENT,485 WASHINGTON STREET,WELLESLEY,MA,02482,"http://maps.google.com/maps?q=485 WASHINGTON STREET,+WELLESLEY,+MA+02482&hl=en"
WEST GREENWICH POLICE,WEST GREENWICH POLICE,280 VICTORY HIGHWAY,WEST GREENWICH,RI,02817,"http://maps.google.com/maps?q=280 VICTORY HIGHWAY,+WEST GREENWICH,+RI+02817&hl=en"
WEST NEWBURY POLICE DEPARTMENT,WEST NEWBURY POLICE DEPARTMENT,401 MAIN STREET,WEST NEWBURY,MA,01985,"http://maps.google.com/maps?q=401 MAIN STREET,+WEST NEWBURY,+MA+01985&hl=en"
WESTERLY POLICE DEPARTMENT,WESTERLY POLICE,60 AIRPORT ROAD,WESTERLY,RI,02891,"http://maps.google.com/maps?q=60 AIRPORT ROAD,+WESTERLY,+RI+02891&hl=en"
WESTFORD PD,WESTFORD POLICE DEPT,53 MAIN ST,WESTFORD,MA,01886,"http://maps.google.com/maps?q=53 MAIN ST,+WESTFORD,+MA+01886&hl=en"
WESTPORT POLICE,WESTPORT POLICE,818 MAIN ROAD,WESTPORT,MA,02790,"http://maps.google.com/maps?q=818 MAIN ROAD,+WESTPORT,+MA+02790&hl=en"
WESTPORT POLICE,WESTPORT POLICE SUB-STATION,596 STATE RD,WESTPORT,MA,02790,"http://maps.google.com/maps?q=596 STATE RD,+WESTPORT,+MA+02790&hl=en"
WESTPORT POLICE DEPARTMENT,"WESTPORT POLICE DEPARTMENT 
												
													SUB STATION",596 STATE ROAD,WESTPORT,MA,02790,"http://maps.google.com/maps?q=596 STATE ROAD,+WESTPORT,+MA+02790&hl=en"
WESTWOOD POLICE DEPARTMENT,"WESTWOOD POLICE DEPARTMENT 
												
													CONTACT DET PAUL TOLAND",588 HIGH STREET,WESTWOOD,MA,02090,"http://maps.google.com/maps?q=588 HIGH STREET,+WESTWOOD,+MA+02090&hl=en"
WEYMOUTH POLICE DEPARTMENT,WEYMOUTH POLICE DEPARTMENT,140 WINTER ST,WEYMOUTH,MA,02188,"http://maps.google.com/maps?q=140 WINTER ST,+WEYMOUTH,+MA+02188&hl=en"
WILMINGTON POLICE,WILMINGTON PUBLIC SAFETY BUILDING,1ADELAIDE ST,WILMINGTON,MA,01887,"http://maps.google.com/maps?q=1ADELAIDE ST,+WILMINGTON,+MA+01887&hl=en"
WINCHESTER PD,"WINCHESTER TRANSFER STATION MAIN GATE 
												
													UNDER LARGE TENT",7 MCKAY AVENUE,WINCHESTER,MA,01890,"http://maps.google.com/maps?q=7 MCKAY AVENUE,+WINCHESTER,+MA+01890&hl=en"
WINDHAM NH POLICE DEPARTMENT,WINDHAM POLICE DEPARTMMENT,4 FELLOWS ROAD,WINDHAM,NH,03087,"http://maps.google.com/maps?q=4 FELLOWS ROAD,+WINDHAM,+NH+03087&hl=en"
WINTHROP POLICE DEPARTMENT,WINTHROP POLICE DEPARTMENT,3 METCALF SQ.,WINTHROP,MA,02152,"http://maps.google.com/maps?q=3 METCALF SQ.,+WINTHROP,+MA+02152&hl=en"
WOBURN POLICE DEPARTMENT,"WOBURN POLICE DEPARTMENT 
												
													FRONT LOBBY ENTRANCE",25 HARRISON AVE.,WOBURN,MA,01801,"http://maps.google.com/maps?q=25 HARRISON AVE.,+WOBURN,+MA+01801&hl=en"
WOONSOCKET POLICE DEPARTMENT,"CVS PHARMACY 
												
													PARKING LOT",1054 CASS AVE,WOONSOCKET,RI,02895,"http://maps.google.com/maps?q=1054 CASS AVE,+WOONSOCKET,+RI+02895&hl=en"
YARMOUTH POLICE DEPARTMENT,YARMOUTH POLICE DEPARTMENT,340 HIGGINS CROWELL ROAD,WEST YARMOUTH,MA,02673,"http://maps.google.com/maps?q=340 HIGGINS CROWELL ROAD,+WEST YARMOUTH,+MA+02673&hl=en"
