Participant,CollectionSite,Address,City,State,Zip,MapURL
10TH JUDICIAL DRUG TASK FORCE,PIGGLY WIGGLY,125 FIVE POINT DRIVE,DUCKTOWN,TN,37326,"http://maps.google.com/maps?q=125 FIVE POINT DRIVE,+DUCKTOWN,+TN+37326&hl=en"
10TH JUDICIAL DRUG TASK FORCE,POLK CITY SHERIFF OFFICE,164 INDUSTRIAL ACCESS CIRCLE,BENTON,TN,37307,"http://maps.google.com/maps?q=164 INDUSTRIAL ACCESS CIRCLE,+BENTON,+TN+37307&hl=en"
10TH JUDICIAL DRUG TASK FORCE,WALMART,1815 DECATUR PIKE,ATHENS,TN,37303,"http://maps.google.com/maps?q=1815 DECATUR PIKE,+ATHENS,+TN+37303&hl=en"
10TH JUDICIAL DRUG TASK FORCE,WALMART,4225 HIGHWAY 411,MADISONVILLE,TN,37354,"http://maps.google.com/maps?q=4225 HIGHWAY 411,+MADISONVILLE,+TN+37354&hl=en"
2ND JUDICIAL DISTRICT DRUG TASK FORCE,"2ND JUDICIAL DISTRICT DRUG TASK FORCE 
												
													PERMANENT DROP BOX",401 WEST KEISER,OSCEOLA,AR,72370,"http://maps.google.com/maps?q=401 WEST KEISER,+OSCEOLA,+AR+72370&hl=en"
5TH JUDICIAL DRUG TASK FORCE,BLOUNT COUNTY JUSTICE CENTER,940 EAST LAMAR ALEXANDER PARKWAY,MARYVILLE,TN,37804,"http://maps.google.com/maps?q=940 EAST LAMAR ALEXANDER PARKWAY,+MARYVILLE,+TN+37804&hl=en"
ADAIR COUNTY SHERIFF'S OFFICE,"ADAIR COUNTY SHERIFF'S OFFICE 
												
													TACO BELL (PICK UP IN PARKING LOT)",899 JAMES TOWN STREET,COLUMBIA,KY,42728,"http://maps.google.com/maps?q=899 JAMES TOWN STREET,+COLUMBIA,+KY+42728&hl=en"
ALAMO POLICE DEPARTMENT,ALAMO POLICE DEPT.,31 W. MAIN ST.,ALAMO,TN,38001,"http://maps.google.com/maps?q=31 W. MAIN ST.,+ALAMO,+TN+38001&hl=en"
ALGOOD POLICE DEPT.,ALGOOD CITY HALL LOBBY,215 W. MAIN STREET,COOKEVILLE,TN,38506,"http://maps.google.com/maps?q=215 W. MAIN STREET,+COOKEVILLE,+TN+38506&hl=en"
"ANNISTON ARMY DEPOT, ASAP","ANNISTON ARMY DEPOT 
												
													BLDG 206 AND 422",7 FRANKFORD AVEASAP,ANNISTON,AL,36201,"http://maps.google.com/maps?q=7 FRANKFORD AVE,+ANNISTON,+AL+36201&hl=en"
ARKANSAS STATE UNIVERSITY POLICE,"ARKANSAS STATE UNIVERSITY POLICE 
												
													PERMANENT DROP BOX",503 ROBINSON ST.,JONESBORO,AR,72401,"http://maps.google.com/maps?q=503 ROBINSON ST.,+JONESBORO,+AR+72401&hl=en"
ATHENS TN POLICE DEPARTMENT,ATHENS POLICE DEPARTMENT,815 NORTH JACKSON STREET,ATHENS,TN,37303,"http://maps.google.com/maps?q=815 NORTH JACKSON STREET,+ATHENS,+TN+37303&hl=en"
ATOKA POLICE DEPT.,ATOKA PD,68 ATOKA-MCLAUGHLIN,ATOKA,TN,38004,"http://maps.google.com/maps?q=68 ATOKA-MCLAUGHLIN,+ATOKA,+TN+38004&hl=en"
BARTLETT PD,"KROGER 
												
													HWY 70 / APPLING RD",7615 HWY 70,BARTLETT,TN,38133,"http://maps.google.com/maps?q=7615 HWY 70,+BARTLETT,+TN+38133&hl=en"
BATESVILLE POLICE DEPARTMENT,BATESVILLE POLICE DEPARTMENT,106 COLLEGE STREET,BATESVILLE,MS,38606,"http://maps.google.com/maps?q=106 COLLEGE STREET,+BATESVILLE,+MS+38606&hl=en"
BAY POLICE DEPARTMENT,"BAY POLICE DEPARTMENT 
												
													PERMANENT DROP BOX",220 ELDER ST,BAY,AR,72411,"http://maps.google.com/maps?q=220 ELDER ST,+BAY,+AR+72411&hl=en"
BEDFORD COUNTY SHERIFF'S DEPT.,FIRST BAPTIST CHURCH,304 E. DEPOT ST,SHELBYVILLE,TN,37160,"http://maps.google.com/maps?q=304 E. DEPOT ST,+SHELBYVILLE,+TN+37160&hl=en"
BELLE MEADE POLICE DEPT.,BELLE MEADE POLICE DEPARTMENT,4705 HARDING PIKE,NASHVILLE,TN,37205,"http://maps.google.com/maps?q=4705 HARDING PIKE,+NASHVILLE,+TN+37205&hl=en"
BERNIE POLICE DEPARTMENT,BERNIE POLICE DEPARTMENT,206 WEST CRUMB,BERNIE,MO,63822,"http://maps.google.com/maps?q=206 WEST CRUMB,+BERNIE,+MO+63822&hl=en"
BLOUNT COUNTY DISTRICT ATTORNEY'S OFFICE,BLOUNTSVILLE TOWN HALL,10017 LEE ST,BLOUNTSVILLE,AL,35031,"http://maps.google.com/maps?q=10017 LEE ST,+BLOUNTSVILLE,+AL+35031&hl=en"
BLOUNT COUNTY DISTRICT ATTORNEY'S OFFICE,CLEVELAND PHARMACY,36321 AL 79,CLEVELAND,AL,35049,"http://maps.google.com/maps?q=36321 AL 79,+CLEVELAND,+AL+35049&hl=en"
BLOUNT COUNTY DISTRICT ATTORNEY'S OFFICE,HAYDEN HEALTH MART,4086 STATE HWY 160,HAYDEN,AL,35079,"http://maps.google.com/maps?q=4086 STATE HWY 160,+HAYDEN,+AL+35079&hl=en"
BLOUNT COUNTY DISTRICT ATTORNEY'S OFFICE,HIGHLAND LAKE TOWN HALL,612 LAKESHORE DRIVE,ONEONTA,AL,35121,"http://maps.google.com/maps?q=612 LAKESHORE DRIVE,+ONEONTA,+AL+35121&hl=en"
BLOUNT COUNTY DISTRICT ATTORNEY'S OFFICE,LOCUST FORK TOWN HALL,34 TOWN HALL RD,LOCUST FORK,AL,35097,"http://maps.google.com/maps?q=34 TOWN HALL RD,+LOCUST FORK,+AL+35097&hl=en"
BLOUNT COUNTY DISTRICT ATTORNEY'S OFFICE,ONEONTA WAL-MART,2453 2ND AVENUE EAST,ONEONTA,AL,35121,"http://maps.google.com/maps?q=2453 2ND AVENUE EAST,+ONEONTA,+AL+35121&hl=en"
BLOUNT COUNTY DISTRICT ATTORNEY'S OFFICE,SNEAD TOWN HALL,87169 US HIGHWAY 278,ALTOONA,AL,35952,"http://maps.google.com/maps?q=87169 US HIGHWAY 278,+ALTOONA,+AL+35952&hl=en"
BLYTHEVILLE POLICE DEPARTMENT,"BLYTHEVILLE POLICE DEPARTMENT 
												
													PERMANENT DROP BOX",201 W. WALNUT STREET,BLYTHEVILLE,AR,72315,"http://maps.google.com/maps?q=201 W. WALNUT STREET,+BLYTHEVILLE,+AR+72315&hl=en"
BOWLING GREEN- WARREN CO DRUG TASK FORCE,BOWLING GREEN POLICE DEPARTMENT,911 KENTUCKY STREET,BOWLING GREEN,KY,42101,"http://maps.google.com/maps?q=911 KENTUCKY STREET,+BOWLING GREEN,+KY+42101&hl=en"
BOWLING GREEN- WARREN CO DRUG TASK FORCE,"KENTUCKY STATE POLICE 
												
													POST 3",3119 NASHVILLE ROAD,BOWLING GREEN,KY,42101,"http://maps.google.com/maps?q=3119 NASHVILLE ROAD,+BOWLING GREEN,+KY+42101&hl=en"
BOWLING GREEN- WARREN CO DRUG TASK FORCE,"SAFETY CITY 
												
													IN FRONT OF GREENWOOD HIGH SCHOOL",5065 SCOTTSVILLE ROAD,BOWLING GREEN,KY,42104,"http://maps.google.com/maps?q=5065 SCOTTSVILLE ROAD,+BOWLING GREEN,+KY+42104&hl=en"
BRADLEY COUNTY SHERIFF'S OFFICE,BCSO CID ENTRANCE,2290 BLYTHE AVE SE,CLEVELAND,TN,37311,"http://maps.google.com/maps?q=2290 BLYTHE AVE SE,+CLEVELAND,+TN+37311&hl=en"
BRENTWOOD POLICE DEPARTMENT,BRENTWOOD POLICE DEPARTMENT,5211 MARYLAND WAY,BRENTWOOD,TN,37027,"http://maps.google.com/maps?q=5211 MARYLAND WAY,+BRENTWOOD,+TN+37027&hl=en"
BROWNSVILLE POLICE DEPARTMENT,BROWNSVILLE POLICE DEPARTMENT,118 N.LAFAYETTE ST.,BROWNSVILLE,TN,38012,"http://maps.google.com/maps?q=118 N.LAFAYETTE ST.,+BROWNSVILLE,+TN+38012&hl=en"
CALDWELL COUNTY SHERIFF'S OFFICE,CALDWELL COUNTY SHERIFF,100 E MARKET ST,PRINCETON,KY,42445,"http://maps.google.com/maps?q=100 E MARKET ST,+PRINCETON,+KY+42445&hl=en"
CALHOUN COUNTY SHERIFF'S OFFFICE,CALHOUN COUNTY SHERIFF'S OFFICE,178 S. MURPHREE ST.,PITTSBORO,MS,38951,"http://maps.google.com/maps?q=178 S. MURPHREE ST.,+PITTSBORO,+MS+38951&hl=en"
CAMDEN POLICE DEPT.,CAMDEN POLICE DEPT.,119 W. MAIN ST.,CAMDEN,TN,38320,"http://maps.google.com/maps?q=119 W. MAIN ST.,+CAMDEN,+TN+38320&hl=en"
CAPE GIRARDEAU POLICE DEPT.,CAPE GIRARDEAU POLICE DEPARTMENT,2530 MARIA LOUISE,CAPE GIRARDEAU,MO,63701,"http://maps.google.com/maps?q=2530 MARIA LOUISE,+CAPE GIRARDEAU,+MO+63701&hl=en"
CARROLL COUNTY SHERIFF'S OFFICE,CARROLL COUNTY SHERIFF'S OFFICE,200 NORANDAL DRIVE,HUNTINGDON,TN,38344,"http://maps.google.com/maps?q=200 NORANDAL DRIVE,+HUNTINGDON,+TN+38344&hl=en"
CARTHAGE POLICE DEPARTMENT,CARTHAGE CITY HALL,314 SPRING ST.,CARTHAGE,TN,37030,"http://maps.google.com/maps?q=314 SPRING ST.,+CARTHAGE,+TN+37030&hl=en"
CATOOSA CO. SHERIFF'S OFFICE,CATOOSA CO. SHERIFF'S OFFICE,5842 HIGHWAY 41,RINGGOLD,GA,30736,"http://maps.google.com/maps?q=5842 HIGHWAY 41,+RINGGOLD,+GA+30736&hl=en"
CHAPEL HILL POLICE DEPT.,CHAPEL HILL POLICE DEPT.,119 N. HORTON PKWY,CHAPEL HILL,TN,37034,"http://maps.google.com/maps?q=119 N. HORTON PKWY,+CHAPEL HILL,+TN+37034&hl=en"
CHARLESTON DEPARTMENT OF PUBLIC SAFETY,"CHARLESTON DEPT PUBLIC SAFETY 
												
													HEADQUARTERS",204 N MAIN,CHARLESTON,MO,63834,"http://maps.google.com/maps?q=204 N MAIN,+CHARLESTON,+MO+63834&hl=en"
CHESTER COUNTY SHERIFFS OFFICE,CRIMINAL JUSTICE COMPLEX,333 ERIC BELL DR.,HENDERSON,TN,38340,"http://maps.google.com/maps?q=333 ERIC BELL DR.,+HENDERSON,+TN+38340&hl=en"
CITY OF COOKEVILLE POLICE DEPT.,ANDY'S PHARMACY,305 W. SPRING STREET,COOKEVILLE,TN,38501,"http://maps.google.com/maps?q=305 W. SPRING STREET,+COOKEVILLE,+TN+38501&hl=en"
CITY OF COOKEVILLE POLICE DEPT.,WALGREENS,950 N. WASHINGTON AVE.,COOKEVILLE,TN,38501,"http://maps.google.com/maps?q=950 N. WASHINGTON AVE.,+COOKEVILLE,+TN+38501&hl=en"
CLAY COUNTY SHERIFF'S OFFICE,CLAY COUNTY SHERIFF'S OFFICE,400 WEST LAKE AVE,CELINA,TN,38551,"http://maps.google.com/maps?q=400 WEST LAKE AVE,+CELINA,+TN+38551&hl=en"
CLINTON POLICE DEPT.,CLINTON POLICE DEPT.,125 W. BROAD ST.,CLINTON,TN,37716,"http://maps.google.com/maps?q=125 W. BROAD ST.,+CLINTON,+TN+37716&hl=en"
COBDEN POLICE DEPARTMENT,COBDEN POLICE DEPARTMENT,112 EAST MAPLE,COBDEN,IL,62920,"http://maps.google.com/maps?q=112 EAST MAPLE,+COBDEN,+IL+62920&hl=en"
COFFEE COUNTY SHERIFF DEPARTMENT,FIRST VISION BANK,2134 HILLSBORO HWY.,MANCHESTER,TN,37355,"http://maps.google.com/maps?q=2134 HILLSBORO HWY.,+MANCHESTER,+TN+37355&hl=en"
COLLIERVILLE POLICE DEPARTMENT,COLLIERVILLE POLICE DEPARTMENT,156 N. ROWLETT COLLIERVILLE,COLLIERVILLE,TN,38017,"http://maps.google.com/maps?q=156 N. ROWLETT COLLIERVILLE,+COLLIERVILLE,+TN+38017&hl=en"
CRITTENDEN COUNTY SHERIFF'S OFFICE,"CRITTENDEN COUNTY SHERIFF'S OFFICE 
												
													PERMANENT DROP BOX",350 AFCO ROAD,WEST MEMPHIS,AR,72301,"http://maps.google.com/maps?q=350 AFCO ROAD,+WEST MEMPHIS,+AR+72301&hl=en"
CROSS COUNTY SHERIFF'S OFFICE,"CROSS COUNTY SHERIFF'S OFFICE 
												
													PERMANENT DROP BOX",704 EAST CANAL ST.,WYNNE,AR,72396,"http://maps.google.com/maps?q=704 EAST CANAL ST.,+WYNNE,+AR+72396&hl=en"
CROSSVILLE POLICE DEPT.,CROSSVILLE POLICE DEPT.,115 HENRY ST.,CROSSVILLE,TN,38555,"http://maps.google.com/maps?q=115 HENRY ST.,+CROSSVILLE,+TN+38555&hl=en"
CULLMAN COUNTY SHERIFF,CULLMAN COUNTY SHERIFF,1910 BEECH AVENUE SE,CULLMAN,AL,35055,"http://maps.google.com/maps?q=1910 BEECH AVENUE SE,+CULLMAN,+AL+35055&hl=en"
CULLMAN POLICE DEPARTMENT,CULLMAN POLICE DEPARTMENT,601 SECOND AVENUE NE,CULLMAN,AL,35055,"http://maps.google.com/maps?q=601 SECOND AVENUE NE,+CULLMAN,+AL+35055&hl=en"
CUMBERLAND CO. SHERIFF'S DEPARTMENT,CUMBERLAND COUNTY SHERIFF,90 JUSTICE CENTER DR,CROSSVILLE,TN,38555,"http://maps.google.com/maps?q=90 JUSTICE CENTER DR,+CROSSVILLE,+TN+38555&hl=en"
DANDRIDGE POLICE DEPARTMENT,FOOD CITY,123 WEST HWY 25/70,DANDRIDGE,TN,37725,"http://maps.google.com/maps?q=123 WEST HWY 25/70,+DANDRIDGE,+TN+37725&hl=en"
DANVILLE POLICE DEPARTMENT,DANVILLE POLICE DEPARTMENT/CITY HALL,445 W MAIN STREET,DANVILLE,KY,40422,"http://maps.google.com/maps?q=445 W MAIN STREET,+DANVILLE,+KY+40422&hl=en"
DESOTO COUNTY SHERIFF'S DEPARTMENT,KROEGER,2380 MOUNT PLEASANT ROAD,HERNANDO,MS,38632,"http://maps.google.com/maps?q=2380 MOUNT PLEASANT ROAD,+HERNANDO,+MS+38632&hl=en"
DESOTO COUNTY SHERIFF'S DEPARTMENT,KROGER/HERNANDO,2380 MOUNT PLEASANT RD.,HERNANDO,MS,38632,"http://maps.google.com/maps?q=2380 MOUNT PLEASANT RD.,+HERNANDO,+MS+38632&hl=en"
DESOTO COUNTY SHERIFF'S DEPARTMENT,WALGREENS-HERNANDO,950 E. COMMERCE ST.,HERNANDO,MS,38632,"http://maps.google.com/maps?q=950 E. COMMERCE ST.,+HERNANDO,+MS+38632&hl=en"
DEXTER POLICE DEPARTMENT,DEXTER POLICE DEPARTMENT,305 COOPER STREET,DEXTER,MO,63841,"http://maps.google.com/maps?q=305 COOPER STREET,+DEXTER,+MO+63841&hl=en"
DICKSON POLICE DEPARTMENT,FIRST BANK,345 HWY 46 SOUTH,DICKSON,TN,37055,"http://maps.google.com/maps?q=345 HWY 46 SOUTH,+DICKSON,+TN+37055&hl=en"
DONIPHAN POLICE DEPT.,DONIPHAN POLICE DEPT.,124 JEFFERSON,DONIPHAN,MO,63935,"http://maps.google.com/maps?q=124 JEFFERSON,+DONIPHAN,+MO+63935&hl=en"
DUNLAP POLICE DEPT,DUNLAP POLICE DEPT,119 CHURCH ST,DUNLAP,TN,37327,"http://maps.google.com/maps?q=119 CHURCH ST,+DUNLAP,+TN+37327&hl=en"
DYER COUNTY SHERIFF'S DEPT.,DYER CO. HEALTH DEPT.,1755 PARR AVE.,DYERSBURG,TN,38024,"http://maps.google.com/maps?q=1755 PARR AVE.,+DYERSBURG,+TN+38024&hl=en"
DYER COUNTY SHERIFF'S OFFICE,"DYER COUNTY JAIL 
												
													LOBBY",401 EAST CEDAR STREET,DYERSBURG,TN,38024,"http://maps.google.com/maps?q=401 EAST CEDAR STREET,+DYERSBURG,+TN+38024&hl=en"
EAST PRAIRIE POLICE DEPARTMENT,"EAST PRAIRIE POLICE DEPARTMENT 
												
													MARK HIGGINS",219 N. WASHINGTON,EAST PRAIRIE,MO,63845,"http://maps.google.com/maps?q=219 N. WASHINGTON,+EAST PRAIRIE,+MO+63845&hl=en"
EAST RIDGE POLICE DEPARTMENT,WALGREENS,5301 RINGGOLD RD,EAST RIDGE,TN,37412,"http://maps.google.com/maps?q=5301 RINGGOLD RD,+EAST RIDGE,+TN+37412&hl=en"
ETOWAH COUNTY DRUG ENFORCEMENT UNIT,WALMART,340 E. MEIGHAN BLVD.,GADSDEN,AL,35903,"http://maps.google.com/maps?q=340 E. MEIGHAN BLVD.,+GADSDEN,+AL+35903&hl=en"
FAIRFIELD GLADE POLICE DEPARTMENT,FAIRFIELD GLADE POLICE DEPT,7258 PEAVINE RD,CROSSVILLE,TN,38558,"http://maps.google.com/maps?q=7258 PEAVINE RD,+CROSSVILLE,+TN+38558&hl=en"
FAIRVIEW POLICE DEPARTMENT,FRED'S PHARMACY,2415 FAIRVIEW BLVD,FAIRVIEW,TN,37062,"http://maps.google.com/maps?q=2415 FAIRVIEW BLVD,+FAIRVIEW,+TN+37062&hl=en"
FANNIN COUNTY SHERIFF'S OFFICE,FANNIN COUNTY SHERIFF'S OFFICE,645 WEST FIRST STREET,BLUE RIDGE,GA,30513,"http://maps.google.com/maps?q=645 WEST FIRST STREET,+BLUE RIDGE,+GA+30513&hl=en"
FORREST CITY POLICE DEPARTMENT,"FORREST CITY POLICE DEPARTMENT 
												
													WAL-MART SUPERCENTER",205 DEADRICK ROAD,FORREST CITY,AR,72335,"http://maps.google.com/maps?q=205 DEADRICK ROAD,+FORREST CITY,+AR+72335&hl=en"
FRANKLIN COUNTY SHERIFF'S OFFICE,FRANKLIN COUNTY SHERIFF'S OFFICE,494 GEORGE FRALEY PKWY,WINCHESTER,TN,37398,"http://maps.google.com/maps?q=494 GEORGE FRALEY PKWY,+WINCHESTER,+TN+37398&hl=en"
FREDERICKTOWN POLICE DEPARTMENT,FREDERICKTOWN WALMART SUPERCENTER,1025 WALTON DRIVE,FREDERICKTOWN,MO,63645,"http://maps.google.com/maps?q=1025 WALTON DRIVE,+FREDERICKTOWN,+MO+63645&hl=en"
FULTON POLICE DEPARTMENT,WAL MART SUPERCENTER,101 INTERCHANGE DR.1409 S. ADAMS ST.,FULTON,MS,38843,"http://maps.google.com/maps?q=101 INTERCHANGE DR.,+FULTON,+MS+38843&hl=en"
GARDENDALE POLICE DEPARTMENT,GARDENDALE POLICE DEPARTMENT,1309 DECATUR HIGHWAY,GARDENDALE,AL,35071,"http://maps.google.com/maps?q=1309 DECATUR HIGHWAY,+GARDENDALE,+AL+35071&hl=en"
GATLINBURG POLICE DEPT.,GATLINBURG PD,1230 E. PKWY,GATLINBURG,TN,37738,"http://maps.google.com/maps?q=1230 E. PKWY,+GATLINBURG,+TN+37738&hl=en"
GERMANTOWN POLICE,KROGER,7735 FARMINGTON BLVD.,GERMANTOWN,TN,38138,"http://maps.google.com/maps?q=7735 FARMINGTON BLVD.,+GERMANTOWN,+TN+38138&hl=en"
GERMANTOWN POLICE,"TARGET 
												
													AT VILLAGE SHOPS",9235 POPLAR AVENUE,GERMANTOWN,TN,38139,"http://maps.google.com/maps?q=9235 POPLAR AVENUE,+GERMANTOWN,+TN+38139&hl=en"
GIBSON COUNTY SHERIFF'S OFFICE,GIBSON COUNTY SHERIFF'S OFFICE,401 N. COLLEGE STREET,TRENTON,TN,38382,"http://maps.google.com/maps?q=401 N. COLLEGE STREET,+TRENTON,+TN+38382&hl=en"
GILES COUNTY SHERIFF'S DEPT.,CVS PHARMACY,709 W COLLEGE ST.,PULASKI,TN,38478,"http://maps.google.com/maps?q=709 W COLLEGE ST.,+PULASKI,+TN+38478&hl=en"
GLASGOW POLICE DEPARTMENT,WALMART,2345 HAPPY VALLEY RD.,GLASGOW,KY,42141,"http://maps.google.com/maps?q=2345 HAPPY VALLEY RD.,+GLASGOW,+KY+42141&hl=en"
GOODLETTSVILLE POLICE DEPARTMENT,GOODLETTSVILLE POLICE DEPARTMENT,105 SOUTH MAIN STREET,GOODLETTSVILLE,TN,37072,"http://maps.google.com/maps?q=105 SOUTH MAIN STREET,+GOODLETTSVILLE,+TN+37072&hl=en"
GRAINGER COUNTY SHERIFF'S DEPARTMENT,OKIES PHARMACY,1050 RUTLEDGE PIKE,BLAINE,TN,37709,"http://maps.google.com/maps?q=1050 RUTLEDGE PIKE,+BLAINE,+TN+37709&hl=en"
GREENBRIER POLICE DEPARTMENT,GREENBRIER PHARMACY,2239 HWY 41 S,GREENBRIER,TN,37073,"http://maps.google.com/maps?q=2239 HWY 41 S,+GREENBRIER,+TN+37073&hl=en"
GREENE COUNTY SHERIFF'S DEPT.,"WEST GREENE HIGH SCHOOL 
												
													PARKING LOT",275 W. GREENE DR.,MOSHEIM,TN,37818,"http://maps.google.com/maps?q=275 W. GREENE DR.,+MOSHEIM,+TN+37818&hl=en"
GREENE COUNTY SHERIFF'S OFFICE,"GREENE COUNTY SHERIFF'S OFFICE 
												
													PERMANENT DROP BOX",1809 ROCKINGCHAIR RD,PARAGOULD,AR,72450,"http://maps.google.com/maps?q=1809 ROCKINGCHAIR RD,+PARAGOULD,+AR+72450&hl=en"
GREENE COUNTY SHERIFF'S OFFICE,WAL-MART,2802 W. KINGS HWY,PARAGOULD,AR,72450,"http://maps.google.com/maps?q=2802 W. KINGS HWY,+PARAGOULD,+AR+72450&hl=en"
GRUNDY COUNTY SHERIFF'S OFFICE,"COALMONT 
												
													BESIDE L & L HARDWARE",38 S. INDUSTRIAL PARK RD.,COALMONT,TN,37313,"http://maps.google.com/maps?q=38 S. INDUSTRIAL PARK RD.,+COALMONT,+TN+37313&hl=en"
HAMILTON COUNTY SHERIFF'S OFFICE,ELKS LODGE,1069 GRAYSVILLE RD,CHATTANOOGA,TN,37421,"http://maps.google.com/maps?q=1069 GRAYSVILLE RD,+CHATTANOOGA,+TN+37421&hl=en"
HARLAN POLICE DEPARTMENT,HARLAN POLICE DEPARTMENT,218 SOUTH MAIN,HARLAN,KY,40831,"http://maps.google.com/maps?q=218 SOUTH MAIN,+HARLAN,+KY+40831&hl=en"
HARRIMAN POLICE DEPT.,WALGREENS,1797 ROANE STATE HWY,HARRIMAN,TN,37748,"http://maps.google.com/maps?q=1797 ROANE STATE HWY,+HARRIMAN,+TN+37748&hl=en"
HARRISBURG POLICE DEPARTMENT,"HARRISBURG POLICE DEPARTMENT 
												
													PERMANENT DROP BOX",202 N. EAST STREET,HARRISBURG,AR,72432,"http://maps.google.com/maps?q=202 N. EAST STREET,+HARRISBURG,+AR+72432&hl=en"
HAWKINS COUNTY SHERIFF'S OFFICE,HAWKINS COUNTY SHERIFF'S OFFICE,117 JUSTIC CENTER DR,ROGERSVILLE,TN,37857,"http://maps.google.com/maps?q=117 JUSTIC CENTER DR,+ROGERSVILLE,+TN+37857&hl=en"
HELENA-WEST HELENA POLICE DEPARTMENT,"HELENA - WEST HELENA POLICE DEPARMENT 
												
													PERMANENT DROP BOX",98 EAST PLAZA,WEST HELENA,AR,72390,"http://maps.google.com/maps?q=98 EAST PLAZA,+WEST HELENA,+AR+72390&hl=en"
HENDERSONVILLE POLICE DEPT.,HENDERSONVILLE PD,#3 EXECUTIVE PARK DR.,HENDERSONVILLE,TN,37075,"http://maps.google.com/maps?q=#3 EXECUTIVE PARK DR.,+HENDERSONVILLE,+TN+37075&hl=en"
HUMBOLDT POLICE DEPARTMENT,HUMBOLDT PD,1421 OSBORNE ST.,HUMBOLDT,TN,38343,"http://maps.google.com/maps?q=1421 OSBORNE ST.,+HUMBOLDT,+TN+38343&hl=en"
HUMPHREYS SHERIFF'S OFFICE,"CASE DRUG 
												
													1: 30 P.M. - 3:30 P.M.",990 BROADWAY AVE.,NEW JOHNSONVILLE,TN,37134,"http://maps.google.com/maps?q=990 BROADWAY AVE.,+NEW JOHNSONVILLE,+TN+37134&hl=en"
HUMPHREYS SHERIFF'S OFFICE,"CVS 
												
													11:00 A.M. - 1:00 P.M.",408 W. MAIN ST.,WAVERLY,TN,37185,"http://maps.google.com/maps?q=408 W. MAIN ST.,+WAVERLY,+TN+37185&hl=en"
HUMPHREYS SHERIFF'S OFFICE,"MCEWEN PRESCRIPTION SHOP 
												
													8:30 A.M. - 10:30 A.M.",10033 HWY 70 E,MC EWEN,TN,37101,"http://maps.google.com/maps?q=10033 HWY 70 E,+MC EWEN,+TN+37101&hl=en"
HUNTINGDON POLICE DEPT.,HUNTINGDON PUBLIC SAFETY BLDG.,12740 LEXINGTON ST.,HUNTINGDON,TN,38344,"http://maps.google.com/maps?q=12740 LEXINGTON ST.,+HUNTINGDON,+TN+38344&hl=en"
JACKSON COUNTY SHERIFFS OFFICE,JACKSON COUNTY COURT HOUSE,102 EAST LAUREL STREET,SCOTTSBORO,AL,35768,"http://maps.google.com/maps?q=102 EAST LAUREL STREET,+SCOTTSBORO,+AL+35768&hl=en"
JACKSON POLICE DEPARTMENT,JACKSON POLICE / FIRE COMPLEX,525 S. HOPE ST.,JACKSON,MO,63755,"http://maps.google.com/maps?q=525 S. HOPE ST.,+JACKSON,+MO+63755&hl=en"
JACKSON-MADISON COUNTY METRO NARCOTICS,CVS PHARMACY,1405 N. HIGHLAND,JACKSON,TN,38301,"http://maps.google.com/maps?q=1405 N. HIGHLAND,+JACKSON,+TN+38301&hl=en"
JACKSON-MADISON COUNTY METRO NARCOTICS,KROGER PHARMACY,41 STONEBROOK PLACE,JACKSON,TN,38301,"http://maps.google.com/maps?q=41 STONEBROOK PLACE,+JACKSON,+TN+38301&hl=en"
JACKSON-MADISON COUNTY METRO NARCOTICS,"WAL-GREENS 
												
													BEMIS",1405 S HIGHLAND AVE,JACKSON,TN,38301,"http://maps.google.com/maps?q=1405 S HIGHLAND AVE,+JACKSON,+TN+38301&hl=en"
JASPER POLICE DEPARTMENT,JASPER POLICE DEPARTMENT,1610 ALABAMA AVENUE,JASPER,AL,35501,"http://maps.google.com/maps?q=1610 ALABAMA AVENUE,+JASPER,+AL+35501&hl=en"
JEFFERSON COUNTY SHERIFF DEPARTMENT,JEFFERSON COUNTY SHERIFF DEPARTMENT,2651 CENTER POINT ROAD,BIRMINGHAM,AL,35215,"http://maps.google.com/maps?q=2651 CENTER POINT ROAD,+BIRMINGHAM,+AL+35215&hl=en"
JONESBORO POLICE DEPARTMENT,"JONESBORO POLICE DEPARTMENT 
												
													PERMANENT DROP BOX",1001 S. CARAWAY RD,JONESBORO,AR,72401,"http://maps.google.com/maps?q=1001 S. CARAWAY RD,+JONESBORO,+AR+72401&hl=en"
KENNETT POLICE DEPT,KENNETT POLICE DEPT,200 CEDAR,KENNETT,MO,63857,"http://maps.google.com/maps?q=200 CEDAR,+KENNETT,+MO+63857&hl=en"
KENTUCKY STATE POLICE POST 10,KENTUCKY STATE POLICE,3319 SOUTH US 421,HARLAN,KY,40831,"http://maps.google.com/maps?q=3319 SOUTH US 421,+HARLAN,+KY+40831&hl=en"
KENTUCKY STATE POLICE POST 11,LAUREL COUNTY HEALTH DEPARTMENT,525 WHITLEY STREET,LONDON,KY,40741,"http://maps.google.com/maps?q=525 WHITLEY STREET,+LONDON,+KY+40741&hl=en"
KENTUCKY STATE POLICE POST 13,KENTUCKY STATE POLICE,100 JUSTICE DRIVE,HAZARD,KY,41701,"http://maps.google.com/maps?q=100 JUSTICE DRIVE,+HAZARD,+KY+41701&hl=en"
KENTUCKY STATE POLICE POST 15,KENTUCKY STATE POLICE POST 15,1118 JAMESTOWN STREET,COLUMBIA,KY,42728,"http://maps.google.com/maps?q=1118 JAMESTOWN STREET,+COLUMBIA,+KY+42728&hl=en"
KENTUCKY STATE POLICE POST 2,KENTUCKY STATE POLICE POST 2,1000 WESTERN KENTUCKY PARKWAY,NORTONVILLE,KY,42442,"http://maps.google.com/maps?q=1000 WESTERN KENTUCKY PARKWAY,+NORTONVILLE,+KY+42442&hl=en"
KENTUCKY STATE POLICE POST 3,"KENTUCKY STATE POLICE 
												
													POST 3",3119NASHVILLE RD.,BOWLING GREEN,KY,42101,"http://maps.google.com/maps?q=3119,+BOWLING GREEN,+KY+42101&hl=en"
KENTUCKY STATE POLICE POST 7,KENTUCKY STATE POLICE POST 7,"699 EASTERN BYPASS, RICHMOND, KY",RICHMOND,KY,40475,"http://maps.google.com/maps?q=699 EASTERN BYPASS, RICHMOND, KY,+RICHMOND,+KY+40475&hl=en"
KINGSTON POLICE DEPT.,FOOD CITY,1000 LADD LANDING BLVD.,KINGSTON,TN,37763,"http://maps.google.com/maps?q=1000 LADD LANDING BLVD.,+KINGSTON,+TN+37763&hl=en"
KNOXVILLE POLICE DEPARTMENT,KROGER,9225 KINGSTON PIKE,KNOXVILLE,TN,37922,"http://maps.google.com/maps?q=9225 KINGSTON PIKE,+KNOXVILLE,+TN+37922&hl=en"
LAVERGNE POLICE DEPARTMENT,KROGER,5145 MURFREESBORO RD,LA VERGNE,TN,37086,"http://maps.google.com/maps?q=5145 MURFREESBORO RD,+LA VERGNE,+TN+37086&hl=en"
LAWRENCE CO. SHERIFF'S DEPT.,WLX COUNTRY CAFE,1212 N. LOCUST AVE,LAWRENCEBURG,TN,38464,"http://maps.google.com/maps?q=1212 N. LOCUST AVE,+LAWRENCEBURG,+TN+38464&hl=en"
LAWRENCE COUNTY SHERIFF'S DEPARTMENT,"LAWRENCE COUNTY SHERIFF'S OFFICE 
												
													PERMANENT DROP BOX",315 W MAIN STREET,WALNUT RIDGE,AR,72476,"http://maps.google.com/maps?q=315 W MAIN STREET,+WALNUT RIDGE,+AR+72476&hl=en"
LEBANON POLICE DEPARTMENT,WALGREENS,606 S. CUMBERLAND ST.,LEBANON,TN,37087,"http://maps.google.com/maps?q=606 S. CUMBERLAND ST.,+LEBANON,+TN+37087&hl=en"
LEE COUNTY SHERIFF'S DEPARTMENT,"LEE COUNTY SHERIFF'S DEPARTMENT 
												
													FRIDAY, APRIL 27, 2018 - NTBI XV",510 NORTH COMMERCE ST.,TUPELO,MS,38804,"http://maps.google.com/maps?q=510 NORTH COMMERCE ST.,+TUPELO,+MS+38804&hl=en"
LEE COUNTY SHERIFF'S OFFICE,"FOOD CITY STORE 
												
													NEAR FRONT ENTRANCE",205 RIVER BEND ROAD,PENNINGTON GAP,VA,24277,"http://maps.google.com/maps?q=205 RIVER BEND ROAD,+PENNINGTON GAP,+VA+24277&hl=en"
LEITCHFIELD POLICE DEPARTMENT,LEITCHFIELD POLICE DEPT,117 SOUTH MAIN STREET,LEITCHFIELD,KY,42754,"http://maps.google.com/maps?q=117 SOUTH MAIN STREET,+LEITCHFIELD,+KY+42754&hl=en"
LEXINGTON POLICE DEPARTMENT,FAMILY PHARMACY,6 HOSPITAL DRIVE,LEXINGTON,TN,38351,"http://maps.google.com/maps?q=6 HOSPITAL DRIVE,+LEXINGTON,+TN+38351&hl=en"
LEXINGTON POLICE DEPARTMENT,WALGREENS PHARMACY,603 WEST CHURCH STREET,LEXINGTON,TN,38351,"http://maps.google.com/maps?q=603 WEST CHURCH STREET,+LEXINGTON,+TN+38351&hl=en"
LINCOLN CO. SHERIFF'S DEPT,LINCOLN COUNTY HIGH SCHOOL,1233 HUNTSVILLE HWY,FAYETTEVILLE,TN,37334,"http://maps.google.com/maps?q=1233 HUNTSVILLE HWY,+FAYETTEVILLE,+TN+37334&hl=en"
LIVINGSTON POLICE DEPARTMENT,LIVINGSTON POLICE DEPARTMENT,900 N. CHURCH ST,LIVINGSTON,TN,38570,"http://maps.google.com/maps?q=900 N. CHURCH ST,+LIVINGSTON,+TN+38570&hl=en"
LORETTO POLICE DEPT.,LORETTO CITY HALL,415 NORTH MILITARY STRREET,LORETTO,TN,38469,"http://maps.google.com/maps?q=415 NORTH MILITARY STRREET,+LORETTO,+TN+38469&hl=en"
MACON COUNTY SHERIFF'S DEPT,MACON COUNTY SHERIFF'S DEPT,902 HWY 52 BY-PASS E,LAFAYETTE,TN,37083,"http://maps.google.com/maps?q=902 HWY 52 BY-PASS E,+LAFAYETTE,+TN+37083&hl=en"
MADISONVILLE POLICE DEPT.,MADISONVILLE POLICE DEPARTMENT,315 ENGLEWOOD RD.,MADISONVILLE,TN,37354,"http://maps.google.com/maps?q=315 ENGLEWOOD RD.,+MADISONVILLE,+TN+37354&hl=en"
MALDEN POLICE DEPARTMENT,MALDEN POLICE DEPT.,112 E LACLEDE,MALDEN,MO,63863,"http://maps.google.com/maps?q=112 E LACLEDE,+MALDEN,+MO+63863&hl=en"
MANCHESTER POLICE DEPARTMENT,"MANCHESTER POLICE DEPARTMENT 
												
													DRUG TAKE BACK DROP BOX",200 WEST FORT STREET,MANCHESTER,TN,37355,"http://maps.google.com/maps?q=200 WEST FORT STREET,+MANCHESTER,+TN+37355&hl=en"
MARION POLICE DEPARTMENT,"MARION POLICE DEPARTMENT 
												
													CHIEF RAY O'NEAL",217 SOUTH MAIN STREET,MARION,KY,42064,"http://maps.google.com/maps?q=217 SOUTH MAIN STREET,+MARION,+KY+42064&hl=en"
MARION POLICE DEPARTMENT,"MARION POLICE DEPARTMENT 
												
													PERMANENT DROP BOX",3477 HWY 77,MARION,AR,72364,"http://maps.google.com/maps?q=3477 HWY 77,+MARION,+AR+72364&hl=en"
MARSHALL COUNTY SHERIFF'S OFFICE,MARSHALL COUNTY SHERIFF'S OFFICE,209 1ST AVE N.,LEWISBURG,TN,37091,"http://maps.google.com/maps?q=209 1ST AVE N.,+LEWISBURG,+TN+37091&hl=en"
MASSAC COUNTY SHERIFF'S DEPT,"MASSAC COUNTY SHERIFF'S DEPT 
												
													LOCATED IN THE LOBBY",515 MARKET ST,METROPOLIS,IL,62960,"http://maps.google.com/maps?q=515 MARKET ST,+METROPOLIS,+IL+62960&hl=en"
MCMINN COUNTY SHERIFF,CVS,928 DECATUR PIKE,ATHENS,TN,37303,"http://maps.google.com/maps?q=928 DECATUR PIKE,+ATHENS,+TN+37303&hl=en"
MCMINNVILLE POLICE DEPT.,MCMINNVILLE POLICE DEPARTMENT,204 RED ROAD,MCMINNVILLE,TN,37110,"http://maps.google.com/maps?q=204 RED ROAD,+MCMINNVILLE,+TN+37110&hl=en"
MCNAIRY COUNTY SHERIFF'S OFFICE,MCNAIRY COUNTY SHERIFF'S OFFICE,300 INDUSTRIAL PARK DR,SELMER,TN,38375,"http://maps.google.com/maps?q=300 INDUSTRIAL PARK DR,+SELMER,+TN+38375&hl=en"
MEIGS COUNTY SHERIFF'S OFFICE,MEIGS COUNTY JAIL,410 RIVER ROAD,DECATUR,TN,37322,"http://maps.google.com/maps?q=410 RIVER ROAD,+DECATUR,+TN+37322&hl=en"
MEMPHIS POLICE DEPT.,KROGER,2835 KIRBY PKWY,MEMPHIS,TN,38119,"http://maps.google.com/maps?q=2835 KIRBY PKWY,+MEMPHIS,+TN+38119&hl=en"
MEMPHIS POLICE DEPT.,KROGER,3444 PLAZA DRIVE,MEMPHIS,TN,38111,"http://maps.google.com/maps?q=3444 PLAZA DRIVE,+MEMPHIS,+TN+38111&hl=en"
MEMPHIS POLICE DEPT.,KROGER,6660 POPLAR AVENUE,GERMANTOWN,TN,38138,"http://maps.google.com/maps?q=6660 POPLAR AVENUE,+GERMANTOWN,+TN+38138&hl=en"
MEMPHIS POLICE DEPT.,"MEMPHIS POLICE DEPT 
												
													ORGANIZED CRIME UNIT",225 CHANNEL 3 DR,MEMPHIS,TN,38108,"http://maps.google.com/maps?q=225 CHANNEL 3 DR,+MEMPHIS,+TN+38108&hl=en"
MEMPHIS POLICE DEPT.,"OVERTON PARK- EAST PARKWAY PAVILLION 
												
													ENTRY NEXT TO THE FIRE STATION",1914 POPLAR AVE.,MEMPHIS,TN,38104,"http://maps.google.com/maps?q=1914 POPLAR AVE.,+MEMPHIS,+TN+38104&hl=en"
MEMPHIS POLICE DEPT.,THE HOUSE MEMPHIS,3683 AUSTIN PEAY HIGHWAY,MEMPHIS,TN,38128,"http://maps.google.com/maps?q=3683 AUSTIN PEAY HIGHWAY,+MEMPHIS,+TN+38128&hl=en"
"MERCER COUNTY, KY SHERIFFS OFFICE",MERCER COUNTY SHERIFFS OFFICE,207 WEST LEXINGTON ST,HARRODSBURG,KY,40330,"http://maps.google.com/maps?q=207 WEST LEXINGTON ST,+HARRODSBURG,+KY+40330&hl=en"
METRO NASHVILLE POLICE DEPARTMENT,KROGER,5544 OLD HICKORY BLVD.,HERMITAGE,TN,37076,"http://maps.google.com/maps?q=5544 OLD HICKORY BLVD.,+HERMITAGE,+TN+37076&hl=en"
METRO NASHVILLE POLICE DEPARTMENT,KROGER,6690 NOLENSVILLE RD.,BRENTWOOD,TN,37027,"http://maps.google.com/maps?q=6690 NOLENSVILLE RD.,+BRENTWOOD,+TN+37027&hl=en"
MIDDLE TN STATE UNIVERSITY POLICE DEPARTMENT,MTSU HEALTH SERVICES,1848 BLUE RAIDER DRIVE,MURFREESBORO,TN,37132,"http://maps.google.com/maps?q=1848 BLUE RAIDER DRIVE,+MURFREESBORO,+TN+37132&hl=en"
MILAN POLICE DEPARTMENT,MILAN HEALTH DEPT.,6501 TELECOM DRIVE,MILAN,TN,38358,"http://maps.google.com/maps?q=6501 TELECOM DRIVE,+MILAN,+TN+38358&hl=en"
MILAN POLICE DEPARTMENT,"MILAN PUBLIC SAFETY BUILDING 
												
													DROP BOX IN LOBBY",7029 TELECOM DRIVE,MILAN,TN,38358,"http://maps.google.com/maps?q=7029 TELECOM DRIVE,+MILAN,+TN+38358&hl=en"
MISSISSIPPI COUNTY SHERIFF'S OFFICE,"MISSISSIPPI COUNTY SHERIFF'S OFFICE 
												
													PERMANENT DROP BOX",685 NCR 599,LUXORA,AR,72358,"http://maps.google.com/maps?q=685 NCR 599,+LUXORA,+AR+72358&hl=en"
MONROE COUNTY SHERIFF'S OFFICE,WALGREENS,4440 US 411,MADISONVILLE,TN,37354,"http://maps.google.com/maps?q=4440 US 411,+MADISONVILLE,+TN+37354&hl=en"
MONROE COUNTY SHERIFF'S OFFICE,WALGREENS,929 NEW HWY 68,SWEETWATER,TN,37874,"http://maps.google.com/maps?q=929 NEW HWY 68,+SWEETWATER,+TN+37874&hl=en"
MONTEREY POLICE DEPARTMENT,FRED'S PHARMACY,104 S. HOLLY STREET,MONTEREY,TN,38574,"http://maps.google.com/maps?q=104 S. HOLLY STREET,+MONTEREY,+TN+38574&hl=en"
MONTEREY POLICE DEPARTMENT,MONTEREY DRUGS,201F NORTH ELMORE ST.,MONTEREY,TN,38574,"http://maps.google.com/maps?q=201F NORTH ELMORE ST.,+MONTEREY,+TN+38574&hl=en"
MONTEREY POLICE DEPARTMENT,MONTEREY POLICE DEPARTMENT,711 E. COMMERCIAL AVE.,MONTEREY,TN,38574,"http://maps.google.com/maps?q=711 E. COMMERCIAL AVE.,+MONTEREY,+TN+38574&hl=en"
MORGAN COUNTY SHERIFF'S OFFICE,MORGAN COUNTY SHERIFF'S OFFICE,414 MAIN ST.,WARTBURG,TN,37887,"http://maps.google.com/maps?q=414 MAIN ST.,+WARTBURG,+TN+37887&hl=en"
MT. JULIET POLICE DEPT.,MT. JULIET POLICE DEPT.,1019 CHARLIE DANIELS PKWY,MOUNT JULIET,TN,37122,"http://maps.google.com/maps?q=1019 CHARLIE DANIELS PKWY,+MOUNT JULIET,+TN+37122&hl=en"
MUNFORD POLICE DEPARTMENT,MUNFORD POLICE DEPARTMENT,79 COLLEGE STREET,MUNFORD,TN,38058,"http://maps.google.com/maps?q=79 COLLEGE STREET,+MUNFORD,+TN+38058&hl=en"
NEW JOHNSONVILLE POLICE DEPARTMENT,NEW JOHNSONVILLE CITY HALL,323 LONG ST.,NEW JOHNSONVILLE,TN,37134,"http://maps.google.com/maps?q=323 LONG ST.,+NEW JOHNSONVILLE,+TN+37134&hl=en"
NEWBERN POLICE DEPT.,NEWBERN POLICE DEPT.,121 EAST MAIN ST.,NEWBERN,TN,38059,"http://maps.google.com/maps?q=121 EAST MAIN ST.,+NEWBERN,+TN+38059&hl=en"
NEWPORT POLICE DEPT.,FOOD CITY EAST,416 EASTERN PLAZA,NEWPORT,TN,37821,"http://maps.google.com/maps?q=416 EASTERN PLAZA,+NEWPORT,+TN+37821&hl=en"
NICHOLASVILLE POLICE DEPARTMENT,WAL-MART,1032 NORTH MAIN,NICHOLASVILLE,KY,40356,"http://maps.google.com/maps?q=1032 NORTH MAIN,+NICHOLASVILLE,+KY+40356&hl=en"
OAK RIDGE POLICE DEPT.,OAK RIDGE POLICE DEPT.,200 S. TULANE AVE,OAK RIDGE,TN,37830,"http://maps.google.com/maps?q=200 S. TULANE AVE,+OAK RIDGE,+TN+37830&hl=en"
OAKLAND POLICE DEPT.,CITY HALL,170 DOSS CIRCLE,OAKLAND,TN,38060,"http://maps.google.com/maps?q=170 DOSS CIRCLE,+OAKLAND,+TN+38060&hl=en"
OLIVE BRANCH POLICE DEPARTMENT,"OLIVE BRANCH POLICE DEPARTMENT 
												
													LT. JASON OLIVERIA",10470 HIGHWAY 178,OLIVE BRANCH,MS,38654,"http://maps.google.com/maps?q=10470 HIGHWAY 178,+OLIVE BRANCH,+MS+38654&hl=en"
OSCEOLA POLICE DEPARTMENT,"OSCEOLA POLICE DEPARTMENT 
												
													PERMANENT DROP BOX",401 W. KEISER,OSCEOLA,AR,72370,"http://maps.google.com/maps?q=401 W. KEISER,+OSCEOLA,+AR+72370&hl=en"
OVERTON COUNTY SHERIFF'S DEPT.,R & M PHARMACY,1970 BRADFORD HICKS DR,LIVINGSTON,TN,38570,"http://maps.google.com/maps?q=1970 BRADFORD HICKS DR,+LIVINGSTON,+TN+38570&hl=en"
OXFORD POLICE DEPARTMENT,"OXFORD SQUARE AREA - DOUBLE DECKER ARTS FESTIVAL 
												
													CORNER-JACKSON AVE. & 9TH ST. BY ST. PETERS EPISCOPAL CHURCH",JACKSON AVE. & 9TH STREETNEAR ST. PETERS EPISCOPAL CHURCH,OXFORD,MS,38655,"http://maps.google.com/maps?q=JACKSON AVE. & 9TH STREET,+OXFORD,+MS+38655&hl=en"
PARAGOULD POLICE DEPARTEMENT,"PARAGOULD POLICE DEPARTMENT 
												
													PERMANENT DROP BOX",101 N. 3 1/2 STREET,PARAGOULD,AR,72450,"http://maps.google.com/maps?q=101 N. 3 1/2 STREET,+PARAGOULD,+AR+72450&hl=en"
PIGEON FORGE POLICE DEPARTMENT,KRISPY KREME DONUTS,4074 PARKWAY,PIGEON FORGE,TN,37863,"http://maps.google.com/maps?q=4074 PARKWAY,+PIGEON FORGE,+TN+37863&hl=en"
PIGGOTT POLICE DEPARTMENT,PIGGOTT POLICE DEPARTMENT,194 WEST COURT STREET,PIGGOTT,AR,72454,"http://maps.google.com/maps?q=194 WEST COURT STREET,+PIGGOTT,+AR+72454&hl=en"
POINSETT COUNTY SHERIFF'S OFFICE,"POINSETT COUNTY DETENTION CENTER 
												
													PERMANENT DROP BOX",1500 JUSTICE DRIVE,HARRISBURG,AR,72432,"http://maps.google.com/maps?q=1500 JUSTICE DRIVE,+HARRISBURG,+AR+72432&hl=en"
POPLAR BLUFF POLICE DEPARTMENT,POPLAR BLUFF POLICE DEPARTMENT,1111 POPLAR ST,POPLAR BLUFF,MO,63901,"http://maps.google.com/maps?q=1111 POPLAR ST,+POPLAR BLUFF,+MO+63901&hl=en"
PORTLAND POLICE DEPARTMENT,PORTLAND POLICE DEPT.,433 N. BROADWAY,PORTLAND,TN,37148,"http://maps.google.com/maps?q=433 N. BROADWAY,+PORTLAND,+TN+37148&hl=en"
PUTNAM COUNTY SHERIFF DEPT.,NUNALLY DRUG STORE,226 WEST MAIN STREET,BAXTER,TN,38544,"http://maps.google.com/maps?q=226 WEST MAIN STREET,+BAXTER,+TN+38544&hl=en"
PUTNAM COUNTY SHERIFF DEPT.,WALGREENS 5474,500 SOUTH WILLOW AVENUE,COOKEVILLE,TN,38501,"http://maps.google.com/maps?q=500 SOUTH WILLOW AVENUE,+COOKEVILLE,+TN+38501&hl=en"
PUXICO POLICE DEPARTMENT,PUXICO POLICE DEPARTMENT,141 N. HICKMAN,PUXICO,MO,63960,"http://maps.google.com/maps?q=141 N. HICKMAN,+PUXICO,+MO+63960&hl=en"
RHEA COUNTY SHERIFF'S DEPT.,"SPRING CITY,  CITY HALL 
												
													TENT LOCATED IN THE FRONT PARKING LOT",229 FRONT STREET,SPRING CITY,TN,37381,"http://maps.google.com/maps?q=229 FRONT STREET,+SPRING CITY,+TN+37381&hl=en"
RHEA COUNTY SHERIFF'S DEPT.,"WALMART SUPERCENTER 
												
													TENT LOCATED AT THE PARKING LOT ENTRANCE",3034 RHEA COUNTY HWY,DAYTON,TN,37321,"http://maps.google.com/maps?q=3034 RHEA COUNTY HWY,+DAYTON,+TN+37321&hl=en"
ROBERTSON COUNTY SHERIFF'S OFFICE,CVS,903 MEMORIAL BLVD.,SPRINGFIELD,TN,37172,"http://maps.google.com/maps?q=903 MEMORIAL BLVD.,+SPRINGFIELD,+TN+37172&hl=en"
ROCKWOOD POLICE DEPT,ROCKWOOD POLICE DEPT,115 N FRONT ST,ROCKWOOD,TN,37854,"http://maps.google.com/maps?q=115 N FRONT ST,+ROCKWOOD,+TN+37854&hl=en"
RUSSELL COUNTY SHERIFF'S OFFICE,RUSSELL COUNTY SHERIFF'S OFFICE,410 MONUMENT SQUARE #109,JAMESTOWN,KY,42629,"http://maps.google.com/maps?q=410 MONUMENT SQUARE #109,+JAMESTOWN,+KY+42629&hl=en"
RUTHERFORD COUNTY SHERIFF'S OFFICE,CRUSH THE CRISIS,200 STONECREST BLVD.,SMYRNA,TN,37167,"http://maps.google.com/maps?q=200 STONECREST BLVD.,+SMYRNA,+TN+37167&hl=en"
RUTHERFORD COUNTY SHERIFF'S OFFICE,RUTHERFORD COUNTY SHERIFF'S OFFICE,940 NEW SALEM HIGHWAY,MURFREESBORO,TN,37129,"http://maps.google.com/maps?q=940 NEW SALEM HIGHWAY,+MURFREESBORO,+TN+37129&hl=en"
RUTLEDGE POLICE DEPT.,RUTLEDGE CITY HALL,8028 RUTLEDGE PIKE,RUTLEDGE,TN,37861,"http://maps.google.com/maps?q=8028 RUTLEDGE PIKE,+RUTLEDGE,+TN+37861&hl=en"
SAVANNAH POLICE DEPT.,SAVANNAH POLICE DEPT.,80 KING ST.,SAVANNAH,TN,38372,"http://maps.google.com/maps?q=80 KING ST.,+SAVANNAH,+TN+38372&hl=en"
SCOTT CITY POLICE DEPARTMENT,SCOTT CITY POLICE DEPARTMENT,618 MAIN ST,SCOTT CITY,MO,63780,"http://maps.google.com/maps?q=618 MAIN ST,+SCOTT CITY,+MO+63780&hl=en"
SCOTT COUNTY SHERIFF'S OFFICE,SCOTT COUNTY SHERIFF'S OFFICE,575 SCOTT HIGH DRIVE,HUNTSVILLE,TN,37756,"http://maps.google.com/maps?q=575 SCOTT HIGH DRIVE,+HUNTSVILLE,+TN+37756&hl=en"
SEVIER COUNTY SHERIFF'S OFFICE,SCSO SPECIAL OPERATIONS CENTER,735 MIDDLE CREEK ROAD,SEVIERVILLE,TN,37862,"http://maps.google.com/maps?q=735 MIDDLE CREEK ROAD,+SEVIERVILLE,+TN+37862&hl=en"
SEVIER COUNTY SHERIFF'S OFFICE,SEYMOUR FIRST BAPTIST CHURCH,11621 CHAPMAN HWY,SEYMOUR,TN,37865,"http://maps.google.com/maps?q=11621 CHAPMAN HWY,+SEYMOUR,+TN+37865&hl=en"
SIGNAL MOUNTAIN POLICE DEPARTMENT,SIGNAL MOUNTAIN POLICE DEPARTMENT,1111 RIDGEWAY AVENUE,SIGNAL MOUNTAIN,TN,37377,"http://maps.google.com/maps?q=1111 RIDGEWAY AVENUE,+SIGNAL MOUNTAIN,+TN+37377&hl=en"
SIKESTON DEPARTMENT OF PUBLIC SAFETY,SIKESTON DEPARTMENT OF PUBLIC SAFETY,201 NORTH KINGSHIGHWAY,SIKESTON,MO,63801,"http://maps.google.com/maps?q=201 NORTH KINGSHIGHWAY,+SIKESTON,+MO+63801&hl=en"
SMYRNA POLICE DEPARTMENT,SMYRNA PD,400 ENON SPRINGS RD EAST,SMYRNA,TN,37167,"http://maps.google.com/maps?q=400 ENON SPRINGS RD EAST,+SMYRNA,+TN+37167&hl=en"
SODDY DAISY POLICE DEPT.,SODDY DAISY POLICE DEPT,9835 DAYTON,SODDY DAISY,TN,37379,"http://maps.google.com/maps?q=9835 DAYTON,+SODDY DAISY,+TN+37379&hl=en"
SOUTH FULTON POLICE DEPARTMENT,SOUTH FULTON POLICE DEPARTMENT,700 MILTON COUNCE DR.,SOUTH FULTON,TN,38257,"http://maps.google.com/maps?q=700 MILTON COUNCE DR.,+SOUTH FULTON,+TN+38257&hl=en"
SPARTA POLICE DEPARTMENT,WALGREEN DRUG STORE,483 WEST BOCKMAN WAY,SPARTA,TN,38583,"http://maps.google.com/maps?q=483 WEST BOCKMAN WAY,+SPARTA,+TN+38583&hl=en"
SPRING HILL POLICE DEPARTMENT,B & B PHARMACY,5407 MAIN STREET,SPRING HILL,TN,37174,"http://maps.google.com/maps?q=5407 MAIN STREET,+SPRING HILL,+TN+37174&hl=en"
SPRING HILL POLICE DEPARTMENT,"SPRING HILL POLICE DEPARTMENT 
												
													24/7 ACCESS",199 TOWN CENTER PKWY - LOWER LEVEL,SPRING HILL,TN,37174,"http://maps.google.com/maps?q=199 TOWN CENTER PKWY - LOWER LEVEL,+SPRING HILL,+TN+37174&hl=en"
STEELE POLICE DEPARTMENT,STEELE POLICE DEPARTMENT,115 S WALNUT,STEELE,MO,63877,"http://maps.google.com/maps?q=115 S WALNUT,+STEELE,+MO+63877&hl=en"
SUMNER COUNTY SHERIFF`S OFFICE,FREDS PHARMACY,5305 HWY 31E,WESTMORELAND,TN,37186,"http://maps.google.com/maps?q=5305 HWY 31E,+WESTMORELAND,+TN+37186&hl=en"
SUMNER COUNTY SHERIFF`S OFFICE,PERKINS DRUG STORE,532 HARTSVILLE PIKE,GALLATIN,TN,37066,"http://maps.google.com/maps?q=532 HARTSVILLE PIKE,+GALLATIN,+TN+37066&hl=en"
SUMNER COUNTY SHERIFF`S OFFICE,WALGREENS,104 HWY 52,PORTLAND,TN,37148,"http://maps.google.com/maps?q=104 HWY 52,+PORTLAND,+TN+37148&hl=en"
SUMNER COUNTY SHERIFF`S OFFICE,WALGREENS,198 E MAIN ST,HENDERSONVILLE,TN,37075,"http://maps.google.com/maps?q=198 E MAIN ST,+HENDERSONVILLE,+TN+37075&hl=en"
SUMNER COUNTY SHERIFF`S OFFICE,WALGREENS,365 NEW SHACKLE ISLAND,HENDERSONVILLE,TN,37075,"http://maps.google.com/maps?q=365 NEW SHACKLE ISLAND,+HENDERSONVILLE,+TN+37075&hl=en"
SUMNER COUNTY SHERIFF`S OFFICE,WALGREENS,455 LONG HOLLOW PIKE,GOODLETTSVILLE,TN,37072,"http://maps.google.com/maps?q=455 LONG HOLLOW PIKE,+GOODLETTSVILLE,+TN+37072&hl=en"
SUMNER COUNTY SHERIFF`S OFFICE,WALGREENS,585 HASHVILLE PIKE,GALLATIN,TN,37066,"http://maps.google.com/maps?q=585 HASHVILLE PIKE,+GALLATIN,+TN+37066&hl=en"
SUMNER COUNTY SHERIFF`S OFFICE,WALGREENS,914 GREENLEA BLVD,GALLATIN,TN,37066,"http://maps.google.com/maps?q=914 GREENLEA BLVD,+GALLATIN,+TN+37066&hl=en"
SWEETWATER POLICE DEPT.,SWEETWATER POLICE DEPT.,208 MONROE ST.,SWEETWATER,TN,37874,"http://maps.google.com/maps?q=208 MONROE ST.,+SWEETWATER,+TN+37874&hl=en"
TBI,TBI HQ,901 R.S. GASS BLVD,NASHVILLE,TN,37216,"http://maps.google.com/maps?q=901 R.S. GASS BLVD,+NASHVILLE,+TN+37216&hl=en"
TIPTON COUNTY SHERIFF'S OFFICE,"TIPTON COUNTY SHERIFF'S OFFICE 
												
													CRIMINAL JUSTICE COMPLEX",1801 S. COLLEGE STSUITE 106,COVINGTON,TN,38019,"http://maps.google.com/maps?q=1801 S. COLLEGE ST,+COVINGTON,+TN+38019&hl=en"
TRIGG COUNTY SHERIFF'S OFFICE,TRIGG COUNTY SHERIFF'S OFFICE,134 COMMERCE STREET,CADIZ,KY,42211,"http://maps.google.com/maps?q=134 COMMERCE STREET,+CADIZ,+KY+42211&hl=en"
TROUSDALE COUNTY SHERIFF'S OFFICE,SHERIFF'S STATION,210 BROADWAY,HARTSVILLE,TN,37074,"http://maps.google.com/maps?q=210 BROADWAY,+HARTSVILLE,+TN+37074&hl=en"
TRUMANN POLICE DEPARTMENT,"TRUMANN POLICE DEPARTMENT 
												
													PERMANENT DROP BOX",221 MELTON AVE.,TRUMANN,AR,72472,"http://maps.google.com/maps?q=221 MELTON AVE.,+TRUMANN,+AR+72472&hl=en"
TRUSSVILLE POLICE DEPARTMENT,TRUSSVILLE POLICE DEPARTMENT COURT,131 MAIN STREET,TRUSSVILLE,AL,35173,"http://maps.google.com/maps?q=131 MAIN STREET,+TRUSSVILLE,+AL+35173&hl=en"
TULLAHOMA POLICE DEPT,WALGREENS,700 NORTH JACKSON STREET,TULLAHOMA,TN,37388,"http://maps.google.com/maps?q=700 NORTH JACKSON STREET,+TULLAHOMA,+TN+37388&hl=en"
TUNICA COUNTY SHERIFF'S OFFICE,TUNICA COUNTY SHERIFF'S OFFICE,5126 COUNTY SHERIFF'S OFFICE,TUNICA,MS,38676,"http://maps.google.com/maps?q=5126 COUNTY SHERIFF'S OFFICE,+TUNICA,+MS+38676&hl=en"
TUPELO POLICE DEPARTMENT,TUPELO POLICE DEPARTMENT,400 NORTH FRONT STREET,TUPELO,MS,38804,"http://maps.google.com/maps?q=400 NORTH FRONT STREET,+TUPELO,+MS+38804&hl=en"
TUSCUMBIA POLICE DEPARTMENT,EXPRESS CARE OF THE SHOALS,1106 NORTH CAVE STREET,TUSCUMBIA,AL,35674,"http://maps.google.com/maps?q=1106 NORTH CAVE STREET,+TUSCUMBIA,+AL+35674&hl=en"
UNION CITY POLICE DEPARTMENT,BAPTIST MEMORIAL HOSPITAL,1201 BISHOP STREET,UNION CITY,TN,38261,"http://maps.google.com/maps?q=1201 BISHOP STREET,+UNION CITY,+TN+38261&hl=en"
UNION COUNTY SHERIFF'S OFFICE,UNION COUNTY SHERIFFS OFFICE,130 VETERANS STREET,MAYNARDVILLE,TN,37807,"http://maps.google.com/maps?q=130 VETERANS STREET,+MAYNARDVILLE,+TN+37807&hl=en"
UNITE TASK FORCE,UNITE TASK FORCE,350 CAP DRIVE,LONDON,KY,40744,"http://maps.google.com/maps?q=350 CAP DRIVE,+LONDON,+KY+40744&hl=en"
VAN BUREN COUNTY SHERIFF DEPARTMENT,VAN BUREN COUNTY JAIL,17 VETERANS SQ.,SPENCER,TN,38585,"http://maps.google.com/maps?q=17 VETERANS SQ.,+SPENCER,+TN+38585&hl=en"
WALNUT RIDGE POLICE DEPARTMNET,"WALNUT RIDGE POLICE DEPARTMENT 
												
													PERMANENT DROP BOX",317 NW FOURTH STREET,WALNUT RIDGE,AR,72476,"http://maps.google.com/maps?q=317 NW FOURTH STREET,+WALNUT RIDGE,+AR+72476&hl=en"
WAYNE COUNTY SHERIFF'S OFFICE,WAYNE COUNTY SHERIFF,1016 ANDREW JACKSON DR.,WAYNESBORO,TN,38485,"http://maps.google.com/maps?q=1016 ANDREW JACKSON DR.,+WAYNESBORO,+TN+38485&hl=en"
WAYNE COUNTY SHERIFF'S OFFICE,WAYNE COUNTY SHERIFF'S OFFICE,100 MAPLE ST,GREENVILLE,MO,63944,"http://maps.google.com/maps?q=100 MAPLE ST,+GREENVILLE,+MO+63944&hl=en"
WEAKLEY COUNTY SHERIFF DEPARTMENT,FRED'S PHARMACY,1207 S MERIDIAN ST #1,GREENFIELD,TN,38230,"http://maps.google.com/maps?q=1207 S MERIDIAN ST #1,+GREENFIELD,+TN+38230&hl=en"
WEAKLEY COUNTY SHERIFF DEPARTMENT,FRED'S PHARMACY,8487 TN-22 #1,DRESDEN,TN,38225,"http://maps.google.com/maps?q=8487 TN-22 #1,+DRESDEN,+TN+38225&hl=en"
WEAKLEY COUNTY SHERIFF DEPARTMENT,TENNOVA HEALTHCARE- VOLUNTEER MARTIN HOSPITAL,161 MT. PELIA RD,MARTIN,TN,38237,"http://maps.google.com/maps?q=161 MT. PELIA RD,+MARTIN,+TN+38237&hl=en"
WEBSTER COUNTY SHERIFF'S OFFICE,WEBSTER COUNTY SHERIFF'S OFFICE,25 US HWY 41 A SOUTH,DIXON,KY,42409,"http://maps.google.com/maps?q=25 US HWY 41 A SOUTH,+DIXON,+KY+42409&hl=en"
WEST MEMPHIS POLICE DEPARTMENT,"WEST MEMPHIS POLICE DEPARTMENT 
												
													PERMANENT DROP BOX",626 E. BROADWAY,WEST MEMPHIS,AR,72301,"http://maps.google.com/maps?q=626 E. BROADWAY,+WEST MEMPHIS,+AR+72301&hl=en"
WEST POINT POLICE DEPARTMENT,SAVE-A-LOT - PARKING LOT,"411 W MAIN ST,",WEST POINT,MS,39773,"http://maps.google.com/maps?q=411 W MAIN ST,,+WEST POINT,+MS+39773&hl=en"
WEST POINT POLICE DEPARTMENT,WAL-MART,HWY 45 N.,WEST POINT,MS,39773,"http://maps.google.com/maps?q=HWY 45 N.,+WEST POINT,+MS+39773&hl=en"
WESTMORELAND POLICE DEPT.,WESTMORELAND PD,1044 PLEASANT GROVE RD,WESTMORELAND,TN,37186,"http://maps.google.com/maps?q=1044 PLEASANT GROVE RD,+WESTMORELAND,+TN+37186&hl=en"
WHITE BLUFF POLICE DEPARTMENT,FRED'S PHARMACY,4928 HWY 70 EAST,WHITE BLUFF,TN,37187,"http://maps.google.com/maps?q=4928 HWY 70 EAST,+WHITE BLUFF,+TN+37187&hl=en"
WHITE COUNTY SHERIFF  DEPARTMENT,WHITE COUNTY SHERIFF'S DEPARTMENT,111 DEPOT STREET,SPARTA,TN,38583,"http://maps.google.com/maps?q=111 DEPOT STREET,+SPARTA,+TN+38583&hl=en"
WHITE HOUSE POLICE DEPARTMENT,KROGERS,510 HWY 76,WHITE HOUSE,TN,37188,"http://maps.google.com/maps?q=510 HWY 76,+WHITE HOUSE,+TN+37188&hl=en"
WHITE PINE POLICE DEPT.,WHITE PINE PD,1548 MAIN ST.,WHITE PINE,TN,37890,"http://maps.google.com/maps?q=1548 MAIN ST.,+WHITE PINE,+TN+37890&hl=en"
WILLIAMSON COUNTY SHERIFF'S OFFICE,WALGREENS PHARMACY,1509 MURFREESBORO RD,FRANKLIN,TN,37067,"http://maps.google.com/maps?q=1509 MURFREESBORO RD,+FRANKLIN,+TN+37067&hl=en"
WILSON COUNTY SHERIFF'S DEPARTMENT,GIBBS PHARMACY,1427 W. BADDOUR PKWY #B,LEBANON,TN,37087,"http://maps.google.com/maps?q=1427 W. BADDOUR PKWY #B,+LEBANON,+TN+37087&hl=en"
WINCHESTER POLICE DEPARTMENT,WINCHESTER POLICE DEPARTMENT,16 SOUTH MAPLE STREET,WINCHESTER,KY,40391,"http://maps.google.com/maps?q=16 SOUTH MAPLE STREET,+WINCHESTER,+KY+40391&hl=en"
WOODFORD COUNTY SHERIFF DEPT,KROGER,KROGER WAY,VERSAILLES,KY,40383,"http://maps.google.com/maps?q=KROGER WAY,+VERSAILLES,+KY+40383&hl=en"
WYNNE POLICE DEPARTMENT,"WYNNE POLICE DEPARTMENT 
												
													PERMANENT DROP BOX",206 S. FALLS,WYNNE,AR,72396,"http://maps.google.com/maps?q=206 S. FALLS,+WYNNE,+AR+72396&hl=en"
