Participant,CollectionSite,Address,City,State,Zip,MapURL
ADAMS COUNTY SHERIFF'S OFFICE,ADAMS COUNTY SHERIFF'S OFFICE,301 ADAMS STREET,FRIENDSHIP,WI,53934,"http://maps.google.com/maps?q=301 ADAMS STREET,+FRIENDSHIP,+WI+53934&hl=en"
ADAMS POLICE DEPARTMENT,"ADAMS POLICE DEPARTMENT 
												
													DROP BOX ONLY M-F 8:00AM-4:30PM",105 N MAIN STREET,ADAMS,WI,53910,"http://maps.google.com/maps?q=105 N MAIN STREET,+ADAMS,+WI+53910&hl=en"
ALBANY POLICE DEPARTMENT,"ALBANY POLICE DEPARTMENT 
												
													DROP BOX ONLY 24/7",206 N. WATER STREET,ALBANY,WI,53502,"http://maps.google.com/maps?q=206 N. WATER STREET,+ALBANY,+WI+53502&hl=en"
ALEDO POLICE DEPT.,"ALEDO POLICE DEPT. 
												
													PARKING LOT",200 N.E. 2ND STREET,ALEDO,IL,61231,"http://maps.google.com/maps?q=200 N.E. 2ND STREET,+ALEDO,+IL+61231&hl=en"
ALGONQUIN POLICE,ALGONQUIN POLICE DEPARTMENT,2200 HARNISH DRIVE,ALGONQUIN,IL,60102,"http://maps.google.com/maps?q=2200 HARNISH DRIVE,+ALGONQUIN,+IL+60102&hl=en"
BARABOO POLICE DEPARTMENT,"BARABOO POLICE DEPARTMENT 
												
													BOX M-F 7:30AM-4:30PM",135 4TH ST,BARABOO,WI,53913,"http://maps.google.com/maps?q=135 4TH ST,+BARABOO,+WI+53913&hl=en"
BARRINGTON POLICE DEPARTMENT,"BARRINGTON POLICE DEPARTMENT 
												
													PUBLIC SAFETY BUILDING",400 N. NORTHWEST HWY,BARRINGTON,IL,60010,"http://maps.google.com/maps?q=400 N. NORTHWEST HWY,+BARRINGTON,+IL+60010&hl=en"
BAYSIDE POLICE DEPARTMENT,BAYSIDE POLICE DEPARTMENT,9075 N REGENT ROAD,BAYSIDE,WI,53217,"http://maps.google.com/maps?q=9075 N REGENT ROAD,+BAYSIDE,+WI+53217&hl=en"
BEAVER DAM POLICE DEPARTMENT,BEAVER DAM POLICE DEPARTMENT,123 PARK AVENUE,BEAVER DAM,WI,53916,"http://maps.google.com/maps?q=123 PARK AVENUE,+BEAVER DAM,+WI+53916&hl=en"
BELLEVILLE POLICE DEPARTMENT,"BELLEVILLE POLICE DEPARTMENT 
												
													EVENT 10:00AM-2:00PM",121 FIFTH AVE,BELLEVILLE,WI,53508,"http://maps.google.com/maps?q=121 FIFTH AVE,+BELLEVILLE,+WI+53508&hl=en"
BELOIT POLICE DEPARTMENT,"BELOIT POLICE DEPARTMENT 
												
													DROP BOX ONLY",100 STATE ST,BELOIT,WI,53511,"http://maps.google.com/maps?q=100 STATE ST,+BELOIT,+WI+53511&hl=en"
BELOIT TOWN POLICE DEPARTMENT,"TOWN OF BELOIT POLICE DEPARTMENT 
												
													EVENT 10:00 AM TO 2:00 PM",1133 INMAN PKWY,BELOIT,WI,53511,"http://maps.google.com/maps?q=1133 INMAN PKWY,+BELOIT,+WI+53511&hl=en"
BENTON COUNTY SHERIFF'S OFFICE,"BENTON COUNTY SHERIFF'S OFFICE 
												
													DETECTIVE MARK PHIPPEN",113 EAST THIRD STREET,VINTON,IA,52349,"http://maps.google.com/maps?q=113 EAST THIRD STREET,+VINTON,+IA+52349&hl=en"
BERLIN POLICE DEPARTMENT,"BERLIN POLICE DEPARTMENT 
												
													DROP BOX ONLY M-F 7:30 AM-4:30 PM",108 N. CAPRON STREET,BERLIN,WI,54923,"http://maps.google.com/maps?q=108 N. CAPRON STREET,+BERLIN,+WI+54923&hl=en"
BLACK RIVER FALLS POLICE DEPARTMENT,"THEISEN'S PARKING LOT 
												
													EVENT 10:00AM-2:00PM",616 E HWY 54,BLACK RIVER FALLS,WI,54615,"http://maps.google.com/maps?q=616 E HWY 54,+BLACK RIVER FALLS,+WI+54615&hl=en"
BLAIR POLICE DEPARTMENT,"BLAIR POLICE DEPARTMENT 
												
													BOX M-F 7:30AM-4:00PM",122 S. URBERG AVE,BLAIR,WI,54616,"http://maps.google.com/maps?q=122 S. URBERG AVE,+BLAIR,+WI+54616&hl=en"
BLUE MOUNDS POLICE DEPARTMENT,"BLUE MOUNDS POLICE DEPARTMENT 
												
													EVENT 9:00AM-4:00PM",11011 BRIGHAM AVE,BLUE MOUNDS,WI,53517,"http://maps.google.com/maps?q=11011 BRIGHAM AVE,+BLUE MOUNDS,+WI+53517&hl=en"
BOSCOBEL POLICE DEPARTMENT,"BOSCOBEL POLICE DEPARTMENT 
												
													DROP BOX ONLY 7:00 AM - 4:00 PM",1006 WISCONSIN AVE,BOSCOBEL,WI,53805,"http://maps.google.com/maps?q=1006 WISCONSIN AVE,+BOSCOBEL,+WI+53805&hl=en"
BREMER COUNTY SHERIFF'S OFFICE,AMERICAN LEGION,500 MAIN ST,JANESVILLE,IA,50647,"http://maps.google.com/maps?q=500 MAIN ST,+JANESVILLE,+IA+50647&hl=en"
BREMER COUNTY SHERIFF'S OFFICE,BREMER COUNTY SHERIFF'S OFFICE,"111 4TH STREET, NE",WAVERLY,IA,50677,"http://maps.google.com/maps?q=111 4TH STREET, NE,+WAVERLY,+IA+50677&hl=en"
BRODHEAD POLICE DEPARTMENT,"BRODHEAD POLICE DEPARTMENT 
												
													DROP BOX ONLY 24/7",1004 W. EXCHANGE ST,BRODHEAD,WI,53520,"http://maps.google.com/maps?q=1004 W. EXCHANGE ST,+BRODHEAD,+WI+53520&hl=en"
BROOKFIELD TOWN POLICE DEPARTMENT,"TOWN OF BROOKFIELD POLICE DEPARTMENT 
												
													EVEN 10:00AM-2:00PM",655 N. JANACEK RD,BROOKFIELD,WI,53045,"http://maps.google.com/maps?q=655 N. JANACEK RD,+BROOKFIELD,+WI+53045&hl=en"
BROWN DEER POLICE DEPARTMENT,"BROWN DEER POLICE DEPARTMENT 
												
													BOX M-F 8:00AM-4:30PM",4800 WEST GREEN BROOK DRIVE,BROWN DEER,WI,53223,"http://maps.google.com/maps?q=4800 WEST GREEN BROOK DRIVE,+BROWN DEER,+WI+53223&hl=en"
BUCHANAN COUNTY SHERIFF'S OFFICE,BUCHANAN COUNTY SHERIFF'S OFFICE,210 5TH AVENUE NE,INDEPENDENCE,IA,50644,"http://maps.google.com/maps?q=210 5TH AVENUE NE,+INDEPENDENCE,+IA+50644&hl=en"
BURLINGTON TOWN POLICE DEPARTMENT,"TOWN OF BURLINGTON POLICE DEPARTMENT 
												
													DROP BOX ONLY 24/7",32288 BUSHNELL ROAD,BURLINGTON,WI,53105,"http://maps.google.com/maps?q=32288 BUSHNELL ROAD,+BURLINGTON,+WI+53105&hl=en"
BUTLER POLICE DEPARTMENT,"BUTLER POLICE DEPARTMENT 
												
													EVENT 8:00AM-12:00PM",12621 W. HAMPTON AVE.,BUTLER,WI,53007,"http://maps.google.com/maps?q=12621 W. HAMPTON AVE.,+BUTLER,+WI+53007&hl=en"
CALEDONIA POLICE DEPARTMENT,"CALEDONIA POLICE DEPARTMENT 
												
													DROP BOX 24/7",6900 NICHOLSON RD,CALEDONIA,WI,53108,"http://maps.google.com/maps?q=6900 NICHOLSON RD,+CALEDONIA,+WI+53108&hl=en"
CAMPBELL POLICE DEPARTMENT,"CAMPBELL POLICE DEPARTMENT 
												
													EVENT 10:00AM-2:00PM",2219 BAINBRIDGE ST,LA CROSSE,WI,54603,"http://maps.google.com/maps?q=2219 BAINBRIDGE ST,+LA CROSSE,+WI+54603&hl=en"
CAMPBELLSPORT POLICE DEPARTMENT,"CAMPBELLSPORT POLICE DEPARTMENT 
												
													DROP BOX M-F 8:00 AM TO 4:00 PM",470 GRANDVIEW AVE,CAMPBELLSPORT,WI,53010,"http://maps.google.com/maps?q=470 GRANDVIEW AVE,+CAMPBELLSPORT,+WI+53010&hl=en"
CARY POLICE DEPARTMENT,CARY POLICE DEPARTMENT,654 VILLAGE HALL DRIVE,CARY,IL,60013,"http://maps.google.com/maps?q=654 VILLAGE HALL DRIVE,+CARY,+IL+60013&hl=en"
CEDAR COUNTY SHERIFF'S OFFICE,CEDAR COUNTY SHERIFF'S OFFICE,711 E. SOUTH ST,TIPTON,IA,52772,"http://maps.google.com/maps?q=711 E. SOUTH ST,+TIPTON,+IA+52772&hl=en"
CEDAR FALLS POLICE DEPARTMENT,CEDAR FALLS POLICE DEPARTMENT,220 CLAY STREET,CEDAR FALLS,IA,50613,"http://maps.google.com/maps?q=220 CLAY STREET,+CEDAR FALLS,+IA+50613&hl=en"
CEDAR RAPIDS POLICE DEPT.,CEDAR RAPIDS POLICE DEPARTMENT,505 1ST ST SW,CEDAR RAPIDS,IA,52404,"http://maps.google.com/maps?q=505 1ST ST SW,+CEDAR RAPIDS,+IA+52404&hl=en"
CEDARBURG POLICE DEPT,"CEDARBURG POLICE DEPT 
												
													DROP BOX ONLY 24/7",W75 N4444 WAUWATOSA RD,CEDARBURG,WI,53012,"http://maps.google.com/maps?q=W75 N4444 WAUWATOSA RD,+CEDARBURG,+WI+53012&hl=en"
CHARLES CITY POLICE DEPT.,CHARLES CITY POLICE DEPT.,105 MILWAUKEE MALL,CHARLES CITY,IA,50616,"http://maps.google.com/maps?q=105 MILWAUKEE MALL,+CHARLES CITY,+IA+50616&hl=en"
CITY OF BURLINGTON POLICE DEPARATMENT,"CITY OF BURLINGTON DEPT OF PUBLIC WORKS 
												
													EVENT 8:00AM-12:00PM",2200 S PINE STREET,BURLINGTON,WI,53105,"http://maps.google.com/maps?q=2200 S PINE STREET,+BURLINGTON,+WI+53105&hl=en"
CITY OF DELAVAN POLICE DEPARTMENT,"CITY OF DELEVAN POLICE DEPARTMENT 
												
													EVENT 9:00AM-4:00PM",123 SOUTH 2ND STREET,DELAVAN,WI,53115,"http://maps.google.com/maps?q=123 SOUTH 2ND STREET,+DELAVAN,+WI+53115&hl=en"
CITY OF LODI POLICE DEPARTMENT,"CITY OF LODI POLICE DEPARTMENT 
												
													EVENT 7:00AM - 4:00PM",142 S MAIN ST,LODI,WI,53555,"http://maps.google.com/maps?q=142 S MAIN ST,+LODI,+WI+53555&hl=en"
"CITY OF SANDWICH, ILL POLICE DEPARTMENT",SANDWICH POLICE DEPARTMENT,308 EAST COLLEGE ST,SANDWICH,IL,60548,"http://maps.google.com/maps?q=308 EAST COLLEGE ST,+SANDWICH,+IL+60548&hl=en"
CITY OF WAUKESHA POLICE DEPARTMENT,"CITY OF WAUKESHA POLICE DEPARTMENT 
												
													EVENT 10:00AM-2:00PM",1901 DELAFIELD ST,WAUKESHA,WI,53188,"http://maps.google.com/maps?q=1901 DELAFIELD ST,+WAUKESHA,+WI+53188&hl=en"
CLARK COUNTY SHERIFF'S OFFICE,"CLARK COUNTY SHERIFF'S OFFICE 
												
													DROP BOX ONLY 24/7",517 COURT ST,NEILLSVILLE,WI,54456,"http://maps.google.com/maps?q=517 COURT ST,+NEILLSVILLE,+WI+54456&hl=en"
CLINTON POLICE DEPARTMENT,COMMANCHE POLICE DEPARTMENT,819 S. WASHINGTON BLVD,CLINTON,IA,52732,"http://maps.google.com/maps?q=819 S. WASHINGTON BLVD,+CLINTON,+IA+52732&hl=en"
COLONA POLICE DEPARTMENT,"COLONA POLICE DEPARTMENT 
												
													LOBBY",215 1ST STREET,COLONA,IL,61241,"http://maps.google.com/maps?q=215 1ST STREET,+COLONA,+IL+61241&hl=en"
COLUMBUS POLICE DEPARTMENT,"COLUMBUS FIREMAN'S PARK PAVAILLION 
												
													EVENT 10:00AM-2:00PM",1049 PARK AVE,COLUMBUS,WI,53925,"http://maps.google.com/maps?q=1049 PARK AVE,+COLUMBUS,+WI+53925&hl=en"
CORALVILLE POLICE DEPARTMENT,CORALVILLE POLICE DEPARTMENT,1503 5TH STREET,CORALVILLE,IA,52241,"http://maps.google.com/maps?q=1503 5TH STREET,+CORALVILLE,+IA+52241&hl=en"
CRAWFORD COUNTY SHERIFF'S OFFICE,"CRAWFORD COUNTY SHERIFF'S OFICE 
												
													DROP BOX ONLY 24/7",224 N BEAUMONT RD,PRAIRIE DU CHIEN,WI,53821,"http://maps.google.com/maps?q=224 N BEAUMONT RD,+PRAIRIE DU CHIEN,+WI+53821&hl=en"
CROSS PLAINS POLICE DEPARTMENT,"CROSS PLAINS POLICE DEPARTMENT 
												
													EVENT 7:00 AM TO 10:00 AM",2417 BREWERY RD,CROSS PLAINS,WI,53528,"http://maps.google.com/maps?q=2417 BREWERY RD,+CROSS PLAINS,+WI+53528&hl=en"
CRYSTAL LAKE POLICE DEPARTMENT,CRYSTAL LAKE POLICE DEPARTMENT,100 W WOODSTOCK STREET,CRYSTAL LAKE,IL,60014,"http://maps.google.com/maps?q=100 W WOODSTOCK STREET,+CRYSTAL LAKE,+IL+60014&hl=en"
CUDAHY POLICE DEPARTMENT,"CUDAHY POLICE DEPARTMENT 
												
													DROP BOX ONLY 24/7",5050 S. LAKE DRIVE,CUDAHY,WI,53110,"http://maps.google.com/maps?q=5050 S. LAKE DRIVE,+CUDAHY,+WI+53110&hl=en"
DANE COUNTY SHERIFF'S OFFICE,DANE COUNTY SHERIFF'S OFFICE,115 W DOTY STREET,MADISON,WI,53703,"http://maps.google.com/maps?q=115 W DOTY STREET,+MADISON,+WI+53703&hl=en"
DARLINGTON POLICE DEPARTMENT,"DARLINGTON MUNICIPAL BUILDING 
												
													DROP BOX 24/7",627 MAIN ST,DARLINGTON,WI,53530,"http://maps.google.com/maps?q=627 MAIN ST,+DARLINGTON,+WI+53530&hl=en"
DEFOREST POLICE DEPARTMENT,"DEFOREST POLICE DEPARTMENT 
												
													EVENT 10:00 AM - 2:00 PM",305 E HOLUM ST,DEFOREST,WI,53532,"http://maps.google.com/maps?q=305 E HOLUM ST,+DEFOREST,+WI+53532&hl=en"
DELAFIELD (CITY) POLICE DEPARTMENT,"WALGREENS 
												
													EVENT 10:00 AM - 2:00 PM",2901 GOLF ROAD,DELAFIELD,WI,53018,"http://maps.google.com/maps?q=2901 GOLF ROAD,+DELAFIELD,+WI+53018&hl=en"
DICKEYVILLE POLICE DEPARTMENT,"DICKEYVILLE POLICE DEPARTMENT 
												
													EVENT 9:00AM-12:00PM",500 EAST AVENUE,DICKEYVILLE,WI,53808,"http://maps.google.com/maps?q=500 EAST AVENUE,+DICKEYVILLE,+WI+53808&hl=en"
DIXON POLICE DEPARTMENT,DIXON POLICE DEPARTMENT,220 SOUTH HENNEPIN AVENUE,DIXON,IL,61021,"http://maps.google.com/maps?q=220 SOUTH HENNEPIN AVENUE,+DIXON,+IL+61021&hl=en"
DODGE COUNTY SHERIFF'S DEPT,"DODGE COUNTY SHERIFF'S OFFICE 
												
													DROP BOX ONLY 24/7",124 WEST ST,JUNEAU,WI,53039,"http://maps.google.com/maps?q=124 WEST ST,+JUNEAU,+WI+53039&hl=en"
DUBUQUE DRUG TASK FORCE,SAM'S CLUB,4400 ASBURY RD,DUBUQUE,IA,52002,"http://maps.google.com/maps?q=4400 ASBURY RD,+DUBUQUE,+IA+52002&hl=en"
EAST TROY VILLAGE POLICE DEPARTMENT,"EAST TROY VILLAGE POLICE DEPARTMENT 
												
													DROP BOX ONLY 24/7",2015 ENERGY DR,EAST TROY,WI,53120,"http://maps.google.com/maps?q=2015 ENERGY DR,+EAST TROY,+WI+53120&hl=en"
EDGERTON POLICE DEPARTMENT,"EDGERTON POLICE DEPARTMENT 
												
													EVENT 11:00AM-2:00PM",215 W FULTON ST,EDGERTON,WI,53534,"http://maps.google.com/maps?q=215 W FULTON ST,+EDGERTON,+WI+53534&hl=en"
ELKHORN POLICE DEPARTMENT,"WALGREENS 
												
													EVENT 10:00AM-2:00PM",939 N WISCONSIN STREET,ELKHORN,WI,53121,"http://maps.google.com/maps?q=939 N WISCONSIN STREET,+ELKHORN,+WI+53121&hl=en"
ELM GROVE POLICE DEPARTMENT,"WALGREENS 
												
													EVENT 10:00AM-2:00PM",15350 WEST BLUEMOUND RD,ELM GROVE,WI,53122,"http://maps.google.com/maps?q=15350 WEST BLUEMOUND RD,+ELM GROVE,+WI+53122&hl=en"
ELROY POLICE DEPARTMENT,"ELROY POLICE DEPARTMENT 
												
													EVENT 9:00AM-1:00PM",1717 OMAHA STREET,ELROY,WI,53929,"http://maps.google.com/maps?q=1717 OMAHA STREET,+ELROY,+WI+53929&hl=en"
ENDEAVOR POLICE DEPARTMENT,"ENDEAVOR POLICE DEPARTMENT 
												
													DROP BOX M-F 8:00AM-6:00PM SAT 11:00AM-1:00PM",400 CHURCH STREET,ENDEAVOR,WI,53930,"http://maps.google.com/maps?q=400 CHURCH STREET,+ENDEAVOR,+WI+53930&hl=en"
EVANSVILLE POLICE DEPARTMENT,"EVANSVILLE POLICE DEPARTMENT 
												
													EVENT 8:00 AM TO 11:00 AM",10 WEST CHURCH STREET,EVANSVILLE,WI,53536,"http://maps.google.com/maps?q=10 WEST CHURCH STREET,+EVANSVILLE,+WI+53536&hl=en"
FENNIMORE POLICE DEPARTMENT,"FENNIMORE MUNICIPAL BUILDING 
												
													DROP BOX M-F 8:30AM-4:30PM",860 LINCOLN AVE,FENNIMORE,WI,53809,"http://maps.google.com/maps?q=860 LINCOLN AVE,+FENNIMORE,+WI+53809&hl=en"
FILLMORE COUNTY SO,FILLMORE COUNTY SHERIFF'S OFFICE,901 HOUSTON STREET NW,PRESTON,MN,55965,"http://maps.google.com/maps?q=901 HOUSTON STREET NW,+PRESTON,+MN+55965&hl=en"
FILLMORE COUNTY SO,LANESBORO CITY HALL,202 PARKWAY AVENUE NORTH,LANESBORO,MN,55949,"http://maps.google.com/maps?q=202 PARKWAY AVENUE NORTH,+LANESBORO,+MN+55949&hl=en"
FILLMORE COUNTY SO,MABEL CITY HALL,201 SOUTH MAIN STREET,MABEL,MN,55954,"http://maps.google.com/maps?q=201 SOUTH MAIN STREET,+MABEL,+MN+55954&hl=en"
FILLMORE COUNTY SO,RUSHFORD POLICE DEPARTMENT,405 ELM STREET SOUTH,RUSHFORD,MN,55971,"http://maps.google.com/maps?q=405 ELM STREET SOUTH,+RUSHFORD,+MN+55971&hl=en"
FITCHBURG POLICE DEPARTMENT,"FITCHBURG POLICE DEPARTMENT 
												
													DROP BOX M-F 7:30 AM TO 4:30 PM",5520 LACY ROAD,MADISON,WI,53711,"http://maps.google.com/maps?q=5520 LACY ROAD,+MADISON,+WI+53711&hl=en"
FOND DU LAC POLICE DEPARTMENT,"FOND DU LAC POLICE DEPARTMENT 
												
													DROP BOX M-F 8:00 AM - 4:00 PM",126 N MAIN ST,FOND DU LAC,WI,54935,"http://maps.google.com/maps?q=126 N MAIN ST,+FOND DU LAC,+WI+54935&hl=en"
FORT ATKINSON POLICE DEPARTMENT,"FORT ATKINSON POLICE DEPARTMENT 
												
													DROP BOX 24/7",101 S WATER STREET W,FORT ATKINSON,WI,53538,"http://maps.google.com/maps?q=101 S WATER STREET W,+FORT ATKINSON,+WI+53538&hl=en"
FOX LAKE POLICE DEPARTMENT,"FOX LAKE POLICE DEPARTMENT 
												
													EVENT 10:00AM-2:00PM",248 E STATE ST,FOX LAKE,WI,53933,"http://maps.google.com/maps?q=248 E STATE ST,+FOX LAKE,+WI+53933&hl=en"
FOX POINT POLICE DEPARTMENT,"FOX POINT POLICE DEPARTMENT 
												
													M-TH 8:00AM-4:00PM FR 8:00AM-12:00PM",7300 N SANTA MONICA BLVD,FOX POINT,WI,53217,"http://maps.google.com/maps?q=7300 N SANTA MONICA BLVD,+FOX POINT,+WI+53217&hl=en"
FRANKLIN POLICE DEPARTMENT,"FRANKLIN POLICE DEPARTMENT 
												
													DROP BOX ONLY 24/7",9455 W. LOOMIS RD,FRANKLIN,WI,53132,"http://maps.google.com/maps?q=9455 W. LOOMIS RD,+FRANKLIN,+WI+53132&hl=en"
FREEPORT IL PD,FREEPORT POLICE @ CUB FOODS PARKING LOT,1512 S. WEST AV.,FREEPORT,IL,61032,"http://maps.google.com/maps?q=1512 S. WEST AV.,+FREEPORT,+IL+61032&hl=en"
GALESVILLE POLICE DEPARTMENT,"GALESVILLE LTC PHARMACY 
												
													EVENT 8:00AM-12:00PM",16811 S MAIN STREET,GALESVILLE,WI,54630,"http://maps.google.com/maps?q=16811 S MAIN STREET,+GALESVILLE,+WI+54630&hl=en"
GENESEO POLICE DEPARTMENT,"GENESEO MUNICIPAL BUILDING 
												
													CITY HALL AND POLICE DEPARTMENT",119 SOUTH OAKWOOD AVE,GENESEO,IL,61254,"http://maps.google.com/maps?q=119 SOUTH OAKWOOD AVE,+GENESEO,+IL+61254&hl=en"
GERMANTOWN POLICE DEPARTMENT,"GERMANTOWN POLICE DEPARTMENT 
												
													DROP BOX ONLY 24/7",N112W16877 MEQUON RD,GERMANTOWN,WI,53022,"http://maps.google.com/maps?q=N112W16877 MEQUON RD,+GERMANTOWN,+WI+53022&hl=en"
GLENDALE POLICE DEPARTMENT,"GLENDALE POLICE DEPARTMENT 
												
													DROP BOX ONLY 24/7",5909 N. MILWAUKEE RIVER PKWY,MILWAUKEE,WI,53209,"http://maps.google.com/maps?q=5909 N. MILWAUKEE RIVER PKWY,+MILWAUKEE,+WI+53209&hl=en"
GRAFTON POLICE DEPARTMENT,"GRAFTON POLICE DEPARTMENT 
												
													DROP BOX ONLY 24/7",1981 WASHINGTON ST,GRAFTON,WI,53024,"http://maps.google.com/maps?q=1981 WASHINGTON ST,+GRAFTON,+WI+53024&hl=en"
GRAND RAPIDS POLICE DEPARTMENT,"GRAND RAPIDS POLICE DEPARTMENT 
												
													DROP BOX M-TH 8:00 AM - 4:30 PM F 8:00 AM - NOON",2410 48TH ST,WISCONSIN RAPIDS,WI,54494,"http://maps.google.com/maps?q=2410 48TH ST,+WISCONSIN RAPIDS,+WI+54494&hl=en"
GREEN COUNTY SHERIFF'S OFFICE,"GREEN COUNTY SHERIFF'S OFFICE 
												
													DROP BOX ONLY 24/7",2827 6TH ST,MONROE,WI,53566,"http://maps.google.com/maps?q=2827 6TH ST,+MONROE,+WI+53566&hl=en"
GREEN LAKE COUNTY SHERIFF'S OFFICE,"GREEN LAKE COUNTY SHERIFF'S OFFICE 
												
													DROP BOX ONLY 24/7",571 COUNTY RD A,GREEN LAKE,WI,54941,"http://maps.google.com/maps?q=571 COUNTY RD A,+GREEN LAKE,+WI+54941&hl=en"
GREENDALE POLICE DEPARTMENT,"GREENDALE POLICE DEPARTMENT 
												
													DROP BOX ONLY 24/7",5911 W. GRANGE AVE,GREENDALE,WI,53129,"http://maps.google.com/maps?q=5911 W. GRANGE AVE,+GREENDALE,+WI+53129&hl=en"
GREENFIELD POLICE DEPARTMENT,"GREENFIELD POLICE DEPARTMENT 
												
													EVENT 10:00AM-2:00PM",5300 W LAYTON AVE,GREENFIELD,WI,53220,"http://maps.google.com/maps?q=5300 W LAYTON AVE,+GREENFIELD,+WI+53220&hl=en"
HALES CORNERS POLICE DEPARTMENT,"HALES CORNERS POLICE DEPARTMENT 
												
													EVENT 8:00AM-5:00PM",5625 S NEW BERLIN ROAD,HALES CORNERS,WI,53130,"http://maps.google.com/maps?q=5625 S NEW BERLIN ROAD,+HALES CORNERS,+WI+53130&hl=en"
HARTFORD POLICE DEPARTMENT,"HARTFORD POLICE DEPARTMENT 
												
													DROP BOX 24/7",109 N MAIN STREET,HARTFORD,WI,53027,"http://maps.google.com/maps?q=109 N MAIN STREET,+HARTFORD,+WI+53027&hl=en"
HARTLAND POLICE DEPARTMENT,"HARTLAND POLICE DEPARTMENT 
												
													DROP BOX ONLY 24/7",210 COTTONWOOD AVE,HARTLAND,WI,53029,"http://maps.google.com/maps?q=210 COTTONWOOD AVE,+HARTLAND,+WI+53029&hl=en"
HIAWATHA POLICE DEPT,"HIAWATHA POLICE DEPT 
												
													LOBBY, SOUTH WALL",101 EMMONS ST,HIAWATHA,IA,52233,"http://maps.google.com/maps?q=101 EMMONS ST,+HIAWATHA,+IA+52233&hl=en"
HIGHLAND POLICE DEPARTMENT,"HIGHLAND POLICE DEPARTMENT 
												
													EVENT 10:00 AM TO 2:00 PM",530 MAIN STREET,HIGHLAND,WI,53543,"http://maps.google.com/maps?q=530 MAIN STREET,+HIGHLAND,+WI+53543&hl=en"
HILLSBORO POLICE DEPARTMENT,"HILLSBORO POLICE DEPARTMENT 
												
													DROP BOX M-F 8:00AM-4:30PM",836 PRAIRIE AVE,HILLSBORO,WI,54634,"http://maps.google.com/maps?q=836 PRAIRIE AVE,+HILLSBORO,+WI+54634&hl=en"
HOLMEN POLICE DEPARTMENT,"HOLMEN POLICE DEPARTMENT 
												
													DROP BOX ONLY M-F 8:00 AM-4:30 PM",119 WALL STREET WEST,HOLMEN,WI,54636,"http://maps.google.com/maps?q=119 WALL STREET WEST,+HOLMEN,+WI+54636&hl=en"
HORICON POLICE DEPARTMENT,"HORICON PUBLIC SAFETY BUILDING 
												
													EVENT 11:00 AM TO 2:00 PM",220 ELLISON ST,HORICON,WI,53032,"http://maps.google.com/maps?q=220 ELLISON ST,+HORICON,+WI+53032&hl=en"
HUNTLEY POLICE DEPARTMENT,HUNTLEY POLICE DEPARTMENT,10911 MAIN STREET,HUNTLEY,IL,60142,"http://maps.google.com/maps?q=10911 MAIN STREET,+HUNTLEY,+IL+60142&hl=en"
IOWA CITY POLICE DEPARTMENT,EAST SIDE RECYCLING CENTER,2401 SCOTT BLVD SE,IOWA CITY,IA,52240,"http://maps.google.com/maps?q=2401 SCOTT BLVD SE,+IOWA CITY,+IA+52240&hl=en"
IOWA COUNTY SHERIFF'S OFFICE,"IOWA COUNTY SHERIFF'S OFFICE 
												
													DROP BOX ONLY 24/7",1205 N. BEQUETTE ST,DODGEVILLE,WI,53533,"http://maps.google.com/maps?q=1205 N. BEQUETTE ST,+DODGEVILLE,+WI+53533&hl=en"
JACKSON COUNTY SHERIFF'S OFFICE,"BUILDING NEXT TO JACKSON COUNTY RECYCLING 
												
													EVENT 8:00 AM TO 2:00 PM",115 HARRISON STREET,BLACK RIVER FALLS,WI,54615,"http://maps.google.com/maps?q=115 HARRISON STREET,+BLACK RIVER FALLS,+WI+54615&hl=en"
JACKSON COUNTY SHERIFF'S OFFICE,MAQUOKETA POLICE DEPARTMENT,102 S NIAGARA ST,MAQUOKETA,IA,52060,"http://maps.google.com/maps?q=102 S NIAGARA ST,+MAQUOKETA,+IA+52060&hl=en"
JACKSON COUNTY SHERIFF'S OFFICE,SABULA POLICE DEPARTMENT,411 BROAD ST,SABULA,IA,52070,"http://maps.google.com/maps?q=411 BROAD ST,+SABULA,+IA+52070&hl=en"
JACKSON POLICE DEPARTMENT,"JACKSON POLICE DEPARTMENT 
												
													DROP BOX M-F 8:00AM-4:30PM",N168W20733 MAIN STREET,JACKSON,WI,53037,"http://maps.google.com/maps?q=N168W20733 MAIN STREET,+JACKSON,+WI+53037&hl=en"
JANESVILLE POLICE DEPARTMENT,"JANESVILLE POLICE DEPARTMENT 
												
													DROP BOX ONLY 24/7",100 N. JACKSON ST,JANESVILLE,WI,53548,"http://maps.google.com/maps?q=100 N. JACKSON ST,+JANESVILLE,+WI+53548&hl=en"
JEFFERSON COUNTY SHERIFF'S OFFICE,"JEFFERSON COUNTY SHERIFF'S OFFICE 
												
													DROP BOX 24/7",411 S. CENTER AVE,JEFFERSON,WI,53549,"http://maps.google.com/maps?q=411 S. CENTER AVE,+JEFFERSON,+WI+53549&hl=en"
JEFFERSON POLICE DEPARTMENT,"JEFFERSON POLICE DEPARTMENT 
												
													DROP BOX M-F 7:00AM-11:00AM, S 8:00AM-3:00PM",425 COLLINS ROAD,JEFFERSON,WI,53549,"http://maps.google.com/maps?q=425 COLLINS ROAD,+JEFFERSON,+WI+53549&hl=en"
JOHNSBURG POLICE DEPARTMENT,JOHNSBURG POLICE DEPARTMENT,3600 CHAPEL HILL ROAD,MCHENRY,IL,60051,"http://maps.google.com/maps?q=3600 CHAPEL HILL ROAD,+MCHENRY,+IL+60051&hl=en"
JOHNSBURG POLICE DEPARTMENT,"JOHNSBURG POLICE DEPARTMENT 
												
													PUBLIC SAFETY BUILDING",3611 CHAPEL HILL ROADATTN: JOHNSBURG POLICE DEPARTMENT,JOHNSBURG,IL,60051,"http://maps.google.com/maps?q=3611 CHAPEL HILL ROAD,+JOHNSBURG,+IL+60051&hl=en"
JOHNSON CREEK POLICE DEPARTMENT,"JOHNSON CREK POLICE DEPARTMENT 
												
													EVENT 8:00AM-4:00PM",119 DEPOT STREET,JOHNSON CREEK,WI,53038,"http://maps.google.com/maps?q=119 DEPOT STREET,+JOHNSON CREEK,+WI+53038&hl=en"
JUNEAU COUNTY SHERIFF'S OFFICE,"JUNEAU COUNTY SHERIFF'S OFFICE 
												
													DROP BOX ONLY M-F 8:00AM-4:30PM",200 OAK ST,MAUSTON,WI,53948,"http://maps.google.com/maps?q=200 OAK ST,+MAUSTON,+WI+53948&hl=en"
JUNEAU POLICE DEPT,"JUNEAU PUBLIC SAFETY BLDG 
												
													EVENT 10:00 AM TO 2:00 PM",128 E CROSS ST,JUNEAU,WI,53039,"http://maps.google.com/maps?q=128 E CROSS ST,+JUNEAU,+WI+53039&hl=en"
KANE COUNTY CORONER OFFICE,KANE COUNTY CORONER OFFICE,719 S. BATAVIA AVE.BUILDING E,GENEVA,IL,60134,"http://maps.google.com/maps?q=719 S. BATAVIA AVE.,+GENEVA,+IL+60134&hl=en"
KANE COUNTY SHERIFF'S OFFICE,KANE COUNTY SHERIFF'S OFFICE,37W755 IL ROUTE 38,SAINT CHARLES,IL,60175,"http://maps.google.com/maps?q=37W755 IL ROUTE 38,+SAINT CHARLES,+IL+60175&hl=en"
KENOSHA COUNTY SHERIFF'S OFFICE,"KENOSHA COUNTY SHERIFF'S OFFICE 
												
													DROP BOX ONLY 24/7",1000 55TH ST,KENOSHA,WI,53140,"http://maps.google.com/maps?q=1000 55TH ST,+KENOSHA,+WI+53140&hl=en"
KEWANEE POLICE DEPARTMENT,"KEWANEE CITY HALL 
												
													ROTUNDA",401 E. THIRD STREET,KEWANEE,IL,61443,"http://maps.google.com/maps?q=401 E. THIRD STREET,+KEWANEE,+IL+61443&hl=en"
KEWAUSKUM POLICE DEPARTMENT,"KEWASKUM PD 
												
													DROP BOX ONLY 24/7",204 FIRST ST,KEWASKUM,WI,53040,"http://maps.google.com/maps?q=204 FIRST ST,+KEWASKUM,+WI+53040&hl=en"
LA CRESCENT PD,LA CRESCENT CITY HALL,315 MAIN STREET,LA CRESCENT,MN,55947,"http://maps.google.com/maps?q=315 MAIN STREET,+LA CRESCENT,+MN+55947&hl=en"
LA CROSSE COUNTY SHERIFF'S OFFICE,"LA CROSSE COUNTY SHERIFF'S DEPARTMENT 
												
													DROP BOX ONLY M-F 8:00 AM TO 4:30 PM",333 VINE ST,LA CROSSE,WI,54601,"http://maps.google.com/maps?q=333 VINE ST,+LA CROSSE,+WI+54601&hl=en"
LA CROSSE POLICE DEPARTMENT,"LA CROSSE POLICE DEPARTMENT 
												
													DROP BOX ONLY M-F 8:30AM-5:00PM",400 LA CROSSE ST,LA CROSSE,WI,54601,"http://maps.google.com/maps?q=400 LA CROSSE ST,+LA CROSSE,+WI+54601&hl=en"
LA FARGE POLICE DEPARTMENT,"LA FARGE POLICE DEPARTMENT 
												
													EVENT 8:00AM-5:00PM",201 S CHERRY STREET,LA FARGE,WI,54639,"http://maps.google.com/maps?q=201 S CHERRY STREET,+LA FARGE,+WI+54639&hl=en"
LAKE COUNTY SHERIFF OFFICE,LONG GROVE FIRE DEPT,1165 OLD MCHENRY RD,LAKE ZURICH,IL,60047,"http://maps.google.com/maps?q=1165 OLD MCHENRY RD,+LAKE ZURICH,+IL+60047&hl=en"
LAKE COUNTY SHERIFF OFFICE,SAINT PETER CHURCH,27551 VOLO VILLAGE RD,ROUND LAKE,IL,60073,"http://maps.google.com/maps?q=27551 VOLO VILLAGE RD,+ROUND LAKE,+IL+60073&hl=en"
LAKE COUNTY SHERIFF OFFICE,VILLAGE OF BEACH PARK,11270 W. WADSORTH RD,ZION,IL,60099,"http://maps.google.com/maps?q=11270 W. WADSORTH RD,+ZION,+IL+60099&hl=en"
LAKE DELTON POLICE DEPARTMENT,"LAKE DELTON POLICE DEPARTMENT 
												
													DROP BOX ONLY 24/7",50 WI DELLS PKWY SOUTH,LAKE DELTON,WI,53940,"http://maps.google.com/maps?q=50 WI DELLS PKWY SOUTH,+LAKE DELTON,+WI+53940&hl=en"
LAKE GENEVA POLICE DEPARTMENT,"LAKE GENEVA POLICE DEPARTMENT 
												
													DROP BOX 24/7",626 GENEVA STREET,LAKE GENEVA,WI,53147,"http://maps.google.com/maps?q=626 GENEVA STREET,+LAKE GENEVA,+WI+53147&hl=en"
LAKE ZURICH POLICE DEPARTMENT,LAKE ZURICH POLICE DEPARTMENT,200 MOHAWK TRAIL,LAKE ZURICH,IL,60047,"http://maps.google.com/maps?q=200 MOHAWK TRAIL,+LAKE ZURICH,+IL+60047&hl=en"
LAKEWOOD POLICE DEPARTMENT,LAKEWOOD POLICE DEPARTMENT,2500 LAKE AVENUE,CRYSTAL LAKE,IL,60014,"http://maps.google.com/maps?q=2500 LAKE AVENUE,+CRYSTAL LAKE,+IL+60014&hl=en"
LANCASTER POLICE DEPARTMENT,"LANCASTER POLICE DEPARTMENT 
												
													DROP BOX ONLY 24/7",222 S. MADISON ST,LANCASTER,WI,53813,"http://maps.google.com/maps?q=222 S. MADISON ST,+LANCASTER,+WI+53813&hl=en"
LINDEN POLICE DEPARTMENT,"LINDEN POLICE DEPARTMENT 
												
													EVENT 8:00AM-11:30AM",444 JEFFERSON STREET,LINDEN,WI,53553,"http://maps.google.com/maps?q=444 JEFFERSON STREET,+LINDEN,+WI+53553&hl=en"
LINN COUNTY SHERIFF'S OFFICE,CENTER POINT AMBULANCE SERVICES,521 FRANKLIN ST,CENTER POINT,IA,52213,"http://maps.google.com/maps?q=521 FRANKLIN ST,+CENTER POINT,+IA+52213&hl=en"
LINN COUNTY SHERIFF'S OFFICE,ELY FIRE STATION,1300 MAIN ST,ELY,IA,52227,"http://maps.google.com/maps?q=1300 MAIN ST,+ELY,+IA+52227&hl=en"
LINN COUNTY SHERIFF'S OFFICE,LINN COUNTY SHERIFF'S OFFICE,310 2ND AVE SW,CEDAR RAPIDS,IA,52404,"http://maps.google.com/maps?q=310 2ND AVE SW,+CEDAR RAPIDS,+IA+52404&hl=en"
LOMIRA POLICE DEPARTMENT,"LOMIRA POLICE DEPARTMENT 
												
													DROP BOX ONLY M-F  8:00AM-4:30PM",425 WATER ST,LOMIRA,WI,53048,"http://maps.google.com/maps?q=425 WATER ST,+LOMIRA,+WI+53048&hl=en"
LOVES PARK POLICE DEPARTMENT,LOVES PARK POLICE @ WALGREENS,5900 N. 2ND ST.,LOVES PARK,IL,61111,"http://maps.google.com/maps?q=5900 N. 2ND ST.,+LOVES PARK,+IL+61111&hl=en"
MADISON POLICE DEPARTMENT,"MADISON POLICE EAST DISTRICT 
												
													DROP BOX ONLY M-F 8:00 AM- 4:00PM",809 S THOMPSON DR,MADISON,WI,53714,"http://maps.google.com/maps?q=809 S THOMPSON DR,+MADISON,+WI+53714&hl=en"
MADISON POLICE DEPARTMENT,"MADISON POLICE WEST DISTRICT 
												
													DROP BOX ONLY M-F 8:00 AM- 4:00PM",1710 MCKENNA BLVD,MADISON,WI,53711,"http://maps.google.com/maps?q=1710 MCKENNA BLVD,+MADISON,+WI+53711&hl=en"
MANCHESTER POLICE DEPARTMENT,BLAKESLEY DRUG,220 EAST MAIN ST.,MANCHESTER,IA,52057,"http://maps.google.com/maps?q=220 EAST MAIN ST.,+MANCHESTER,+IA+52057&hl=en"
MAPLE BLUFF POLICE DEPARTMENT,"VILLAGE OF MAPLE BLUFF POLICE DEPARTMENT 
												
													EVENT 4/29/18 9:00AM-2:00PM",18 OXFORD PLACE,MADISON,WI,53704,"http://maps.google.com/maps?q=18 OXFORD PLACE,+MADISON,+WI+53704&hl=en"
MARENGO POLICE DEPARTMENT,MARENGO POLICE DEPARTMENT,142 E. PRAIRIE STREET,MARENGO,IL,60152,"http://maps.google.com/maps?q=142 E. PRAIRIE STREET,+MARENGO,+IL+60152&hl=en"
MARION POLICE DEPARTMENT,"MARION POLICE DEPARTMENT 
												
													FRONT PARKING LOT",6315 HWY 151MARION,MARION,IA,52302,"http://maps.google.com/maps?q=6315 HWY 151,+MARION,+IA+52302&hl=en"
MARKESAN POLICE DEPARTMENT,"MARKESAN POLICE DEPARTMENT 
												
													DROP BOX M-F 8:00AM-4:00PM",150 S BRIDGE STREET,MARKESAN,WI,53946,"http://maps.google.com/maps?q=150 S BRIDGE STREET,+MARKESAN,+WI+53946&hl=en"
MARQUETTE UNIVERSITY POLICE DEPARTMENT,"MARQUETTER UNIVERSITY POLICE DEPARTMENT 
												
													DROP BOX 24/7",749 N 16TH STREET,MILWAUKEE,WI,53233,"http://maps.google.com/maps?q=749 N 16TH STREET,+MILWAUKEE,+WI+53233&hl=en"
MARSHALL POLICE DEPARTMENT,"MARSHALL POLICE DEPARTMENT 
												
													EVENT APRIL 26TH 7:30AM-4:30PM, APRIL 27 7:30AM-1:30AM",130 S PARDEE STREET,MARSHALL,WI,53559,"http://maps.google.com/maps?q=130 S PARDEE STREET,+MARSHALL,+WI+53559&hl=en"
MARSHFIELD POLICE DEPARTMENT,"SHOPKO 
												
													EVENT 10:00 AM - 2:00 PM",1306 N CENTRAL AVE,MARSHFIELD,WI,54449,"http://maps.google.com/maps?q=1306 N CENTRAL AVE,+MARSHFIELD,+WI+54449&hl=en"
MAUSTON POLICE DEPARTMENT,"OLD MILL PARK 
												
													EVENT 2:00PM-4:00PM",N MAIN STREET,NECEDAH,WI,54646,"http://maps.google.com/maps?q=N MAIN STREET,+NECEDAH,+WI+54646&hl=en"
MCFARLAND POLICE DEPARTMENT,"MCFARLAND POLICE DEPARTMENT 
												
													DROP BOX ONLY M-F 7:00AM-5:00PM",5915 MILWAUKEE STREET,MC FARLAND,WI,53558,"http://maps.google.com/maps?q=5915 MILWAUKEE STREET,+MC FARLAND,+WI+53558&hl=en"
MENOMONEE FALLS POLICE DEPARTMENT,"COMMUNITY MEMORIAL HOSPITAL 
												
													10:00AM-2:00PM",W180N085 TOWN HALL ROAD,MENOMONEE FALLS,WI,53051,"http://maps.google.com/maps?q=W180N085 TOWN HALL ROAD,+MENOMONEE FALLS,+WI+53051&hl=en"
MEQUON POLICE DEPARTMENT,"CONCORDIA UNIVERSITY 
												
													EVENT 10:00 AM - 2:00 PM",12800 N LAKE SHORE DR,MEQUON,WI,53092,"http://maps.google.com/maps?q=12800 N LAKE SHORE DR,+MEQUON,+WI+53092&hl=en"
MERCER COUNTY SHERIFF'S OFFICE,MATHERVILLE VILLAGE HALL,500 2ND STREET,MATHERVILLE,IL,61263,"http://maps.google.com/maps?q=500 2ND STREET,+MATHERVILLE,+IL+61263&hl=en"
MIDDLETON POLICE DEPARTMENT,"MIDDLETON POLICE DEPARTMENT 
												
													DROP BOX ONLY 24/7",7341 DONNA DRIVE,MIDDLETON,WI,53562,"http://maps.google.com/maps?q=7341 DONNA DRIVE,+MIDDLETON,+WI+53562&hl=en"
MILAN POLICE DEPARTMENT,"MILAN MUNICIPAL BUILDING 
												
													FRONT PARKING LOT",405 E. 1ST STREET,MILAN,IL,61264,"http://maps.google.com/maps?q=405 E. 1ST STREET,+MILAN,+IL+61264&hl=en"
MILTON POLICE DEPARTMENT,"MILTON POLICE DEPARTMENT 
												
													DROP BOX ONLY 24/7",609 S JANESVILLE ST,MILTON,WI,53563,"http://maps.google.com/maps?q=609 S JANESVILLE ST,+MILTON,+WI+53563&hl=en"
MILWAUKEE COUNTY SHERIFF'S DEPARTMENT,MILWAUKEE COUNTY JAIL LOBBY,949 N 9TH STREET,MILWAUKEE,WI,53233,"http://maps.google.com/maps?q=949 N 9TH STREET,+MILWAUKEE,+WI+53233&hl=en"
MILWAUKEE POLICE DEPARTMENT,"MILWAUKEE POLICE DEPARTMENT 
												
													DROP BOX ONLY 24/7",2620 W. WISCONSIN AVE,MILWAUKEE,WI,53233,"http://maps.google.com/maps?q=2620 W. WISCONSIN AVE,+MILWAUKEE,+WI+53233&hl=en"
MOLINE POLICE DEPARTMENT,MOLINE POLICE DEPARTMENT,1640 6TH AVE,MOLINE,IL,61265,"http://maps.google.com/maps?q=1640 6TH AVE,+MOLINE,+IL+61265&hl=en"
MONONA POLICE DEPARTMENT,"THE MEDICINE SHOPPE PHARMACY 
												
													EVENT 9:00AM-1:00PM",4205 MONONA DR,MONONA,WI,53716,"http://maps.google.com/maps?q=4205 MONONA DR,+MONONA,+WI+53716&hl=en"
MONROE COUNTY SHERIFF'S OFFICE,"MONROE COUNTY SHERIFF'S OFFICE 
												
													DROP BOX ONLY M-F 8:00AM-4:30PM",112 S COURT STREET #500,SPARTA,WI,54656,"http://maps.google.com/maps?q=112 S COURT STREET #500,+SPARTA,+WI+54656&hl=en"
MONROE POLICE DEPARTMENT,"GREEN COUNTY SHERIFF'S OFFICE 
												
													BOX",2827 6TH STREET,MONROE,WI,53566,"http://maps.google.com/maps?q=2827 6TH STREET,+MONROE,+WI+53566&hl=en"
MONTELLO POLICE DEPARTMENT,"MONTELLO POLICE DEPARTMENT 
												
													DROP BOX ONLY M-F  8:00AM-4:30PM",20 UNDERWOOD AVE,MONTELLO,WI,53949,"http://maps.google.com/maps?q=20 UNDERWOOD AVE,+MONTELLO,+WI+53949&hl=en"
MONTICELLO POLICE DEPARTMENT,"MONTICELLO POLICE DEPARTMENT 
												
													DROP BOX M-F 7:30AM-3:30PM",140 N MAIN ST,MONTICELLO,WI,53570,"http://maps.google.com/maps?q=140 N MAIN ST,+MONTICELLO,+WI+53570&hl=en"
MOUNT PLEASANT POLICE DEPARTMENT,"MOUNT PLEASANT POLICE DEPARTMENT- MAIN LOBBY 
												
													EVENT 9:00AM-1:00PM",8811 CAMPUS DR,MOUNT PLEASANT,WI,53405,"http://maps.google.com/maps?q=8811 CAMPUS DR,+MOUNT PLEASANT,+WI+53405&hl=en"
MOUNT VERNON POLICE DEPARTMENT,MOUNT VERNON POLICE DEPARTMENT,213 1ST STREET NW,MOUNT VERNON,IA,52314,"http://maps.google.com/maps?q=213 1ST STREET NW,+MOUNT VERNON,+IA+52314&hl=en"
MUKWONAGO POLICE DEPARTMENT,"PROHEALTH DNG CENTER 
												
													EVENT 10:00AM-2:00PM",240 MAPLE AVE,MUKWONAGO,WI,53149,"http://maps.google.com/maps?q=240 MAPLE AVE,+MUKWONAGO,+WI+53149&hl=en"
MUSCODA POLICE DEPARTMENT,"MUSCODA POLICE DEPT 
												
													DROP BOX ONLY M-F 8:00AM-4:30PM",206 N WISCONSIN AVE,MUSCODA,WI,53573,"http://maps.google.com/maps?q=206 N WISCONSIN AVE,+MUSCODA,+WI+53573&hl=en"
MUSKEGO POLICE DEPARTMENT,"MUSKEGO POLICE DEPARTMENT 
												
													DROP BOX ONLY 24/7",W183 S8150 RACINE AVE,MUSKEGO,WI,53150,"http://maps.google.com/maps?q=W183 S8150 RACINE AVE,+MUSKEGO,+WI+53150&hl=en"
NEKOOSA POLICE DEPARTMENT,"NEKOOSA POLICE DEPARTMENT 
												
													EVENT  8:00AM-12:00PM",951 MARKET ST,NEKOOSA,WI,54457,"http://maps.google.com/maps?q=951 MARKET ST,+NEKOOSA,+WI+54457&hl=en"
NEW BERLIN POLICE DEPARTMENT,"FROEDTERT MOORLAND RESERVE HEALTH CENTER 
												
													EVETN 10:00AM-2:00PM",4805 S MOORLAND ROAD,NEW BERLIN,WI,53151,"http://maps.google.com/maps?q=4805 S MOORLAND ROAD,+NEW BERLIN,+WI+53151&hl=en"
NEW GLARUS POLICE DEPARTMENT,"NEW GLARUS POLICE DEPARTMENT 
												
													DROP BOX ONLY M-F 7:30AM-4:00PM",313 2ND STREET,NEW GLARUS,WI,53574,"http://maps.google.com/maps?q=313 2ND STREET,+NEW GLARUS,+WI+53574&hl=en"
NORTH FOND DU LAC POLICE DEPARTMENT,"NORTH FOND DU LAC POLICE DEPARTMENT 
												
													DROP BOX ONLY M-F  8:00AM-4:30PM",16 GARFIELD STREET,FOND DU LAC,WI,54937,"http://maps.google.com/maps?q=16 GARFIELD STREET,+FOND DU LAC,+WI+54937&hl=en"
NORTH LIBERTY IOWA POLICE DEPARTMENT,NORTH LIBERTY POLICE DEPT.,5 E. CHERRY ST.,NORTH LIBERTY,IA,52317,"http://maps.google.com/maps?q=5 E. CHERRY ST.,+NORTH LIBERTY,+IA+52317&hl=en"
NORTHEAST IOWA DRUG TASK FORCE,CALMAR POLICE DEPT,101 WASHINGTON ST,CALMAR,IA,52132,"http://maps.google.com/maps?q=101 WASHINGTON ST,+CALMAR,+IA+52132&hl=en"
NORTHEAST IOWA DRUG TASK FORCE,CHICKASAW COUNTY COMMUNITY CENTER,260 EAST PROSPECT ST.,NEW HAMPTON,IA,50659,"http://maps.google.com/maps?q=260 EAST PROSPECT ST.,+NEW HAMPTON,+IA+50659&hl=en"
NORTHEAST IOWA DRUG TASK FORCE,CITY OF LANSING CITY HALL,201 JOHN ST,LANSING,IA,52151,"http://maps.google.com/maps?q=201 JOHN ST,+LANSING,+IA+52151&hl=en"
NORTHEAST IOWA DRUG TASK FORCE,CLAYTON COUNTY SHERIFF'S OFFICE,22680 230TH ST,SAINT OLAF,IA,52072,"http://maps.google.com/maps?q=22680 230TH ST,+SAINT OLAF,+IA+52072&hl=en"
NORTHEAST IOWA DRUG TASK FORCE,ELKADER OPERA HOUSE,207 NORTH MAIN ST.,ELKADER,IA,52043,"http://maps.google.com/maps?q=207 NORTH MAIN ST.,+ELKADER,+IA+52043&hl=en"
NORTHEAST IOWA DRUG TASK FORCE,HOWARD COUNTY SHERIFF'S OFFICE,124 S. PARK PLACE,CRESCO,IA,52136,"http://maps.google.com/maps?q=124 S. PARK PLACE,+CRESCO,+IA+52136&hl=en"
NORTHEAST IOWA DRUG TASK FORCE,LANSING FIRE DEPT.,51 NORTH FRONT ST.,LANSING,IA,52151,"http://maps.google.com/maps?q=51 NORTH FRONT ST.,+LANSING,+IA+52151&hl=en"
NORTHEAST IOWA DRUG TASK FORCE,MONONA POLICE DEPT.,104 EAST CENTER ST.,MONONA,IA,52159,"http://maps.google.com/maps?q=104 EAST CENTER ST.,+MONONA,+IA+52159&hl=en"
NORTHEAST IOWA DRUG TASK FORCE,POSTVILLE CITY HALL,147 N. LAWLWER ST.,POSTVILLE,IA,52162,"http://maps.google.com/maps?q=147 N. LAWLWER ST.,+POSTVILLE,+IA+52162&hl=en"
NORTHEAST IOWA DRUG TASK FORCE,THRIFTY WHITE PHARMACY,702 MONTGOMERY ST.,DECORAH,IA,52101,"http://maps.google.com/maps?q=702 MONTGOMERY ST.,+DECORAH,+IA+52101&hl=en"
NORTHEAST IOWA DRUG TASK FORCE,WAL-MART SUPER CENTER,1798 OLD STAGE ROAD,DECORAH,IA,52101,"http://maps.google.com/maps?q=1798 OLD STAGE ROAD,+DECORAH,+IA+52101&hl=en"
NORTHEAST IOWA DRUG TASK FORCE,WAUKON POLICE DEPT.,104 1ST STREET,WAUKON,IA,52172,"http://maps.google.com/maps?q=104 1ST STREET,+WAUKON,+IA+52172&hl=en"
NORWALK POLICE DEPARTMENT,"NORWALK POLICE DEPARTMENT 
												
													EVENT 10:00AM-2:00PM",208 S CHURCH STREET,NORWALK,WI,54648,"http://maps.google.com/maps?q=208 S CHURCH STREET,+NORWALK,+WI+54648&hl=en"
OAK CREEK POLICE DEPARTMENT,"OAK CREEK POLICE DEPARTMENT 
												
													DROP BOX ONLY M-F 8:00AM-5:00PM",301 W RYAN RD,OAK CREEK,WI,53154,"http://maps.google.com/maps?q=301 W RYAN RD,+OAK CREEK,+WI+53154&hl=en"
OAKFIELD POLICE DEPARTMENT,"OAKFIELD VILLAGE OFFICE 
												
													DROP BOX M,W TH 9:00AM-7:00PM T&F 9:00AM-5:PM",130 N MAIN STREET,OAKFIELD,WI,53065,"http://maps.google.com/maps?q=130 N MAIN STREET,+OAKFIELD,+WI+53065&hl=en"
OCONOMOWOC POLICE DEPARTMENT,"OCONOMOWOC MEMORIAL HOSPITAL 
												
													EVENT 10:00AM-2:00PM",791 SUMMIT AVE,OCONOMOWOC,WI,53066,"http://maps.google.com/maps?q=791 SUMMIT AVE,+OCONOMOWOC,+WI+53066&hl=en"
OMRO POLICE DEPARTMENT,"OMRO POLICE DEPARTMENT 
												
													EVENT 8:00AM-12:00PM",205 S WEBSTER AVE,OMRO,WI,54963,"http://maps.google.com/maps?q=205 S WEBSTER AVE,+OMRO,+WI+54963&hl=en"
ONALASKA POLICE DEPARTMENT,"ONALASKA POLICE DEPARTMENT 
												
													DROP BOX ONLY M-F 8:00AM-5:00PM",415 MAIN ST,ONALASKA,WI,54650,"http://maps.google.com/maps?q=415 MAIN ST,+ONALASKA,+WI+54650&hl=en"
OREGON POLICE DEPARTMENT,"OREGON POLICE DEPARTMENT 
												
													DROP BOX ONLY M 8:00AM05:00PM T-F 8:00AM-9:00PM",383 PARK STREET,OREGON,WI,53575,"http://maps.google.com/maps?q=383 PARK STREET,+OREGON,+WI+53575&hl=en"
OSHKOSH POLICE DEPARTMENT,"OSHKOSH POLICE DEPARTMENT 
												
													DROP BOX 24/7",420 JACKSON STREET,OSHKOSH,WI,54901,"http://maps.google.com/maps?q=420 JACKSON STREET,+OSHKOSH,+WI+54901&hl=en"
OZAUKEE COUNTY SHERIFF'S OFFICE,"OZAUKEE COUNTY TRANSIT CENTER 
												
													EVENT 10:00 AM - 2:00 PM",741 N OAKLAND AVE,PORT WASHINGTON,WI,53074,"http://maps.google.com/maps?q=741 N OAKLAND AVE,+PORT WASHINGTON,+WI+53074&hl=en"
PALATINE POLICE DEPARTMENT,PALATINE POLICE DEPARTMENT,595 N. HICKS RD.,PALATINE,IL,60067,"http://maps.google.com/maps?q=595 N. HICKS RD.,+PALATINE,+IL+60067&hl=en"
PEWAUKEE (VILLAGE) POLICE DEPARTMENT,"VILLAGE OF PEWAUKEE POLICE DEPARTMENT 
												
													EVENT 10:00AM-2:00PM",235 HICKORY STREET,PEWAUKEE,WI,53072,"http://maps.google.com/maps?q=235 HICKORY STREET,+PEWAUKEE,+WI+53072&hl=en"
PITTSVILLE POLICE DEPARTMENT,"PITTSVILLE POLICE DEPARTMENT 
												
													EVENT 10:00AM-2:00PM",5318 1ST AVE,PITTSVILLE,WI,54466,"http://maps.google.com/maps?q=5318 1ST AVE,+PITTSVILLE,+WI+54466&hl=en"
PLATTEVILLE POLICE DEPARTMENT,"PLATTEVILLE POLICE DEPARTMENT 
												
													DROP BOX ONLY 24/7",165 N. 4TH ST,PLATTEVILLE,WI,53818,"http://maps.google.com/maps?q=165 N. 4TH ST,+PLATTEVILLE,+WI+53818&hl=en"
PLEASANT PRAIRIE POLICE DEPARTMENT,"PLEASANT PRAIRIE POLICE DEPARTMENT 
												
													DROP BOX M-F 24 HOURS",8600 GREEN BAY ROAD,PLEASANT PRAIRIE,WI,53158,"http://maps.google.com/maps?q=8600 GREEN BAY ROAD,+PLEASANT PRAIRIE,+WI+53158&hl=en"
PORT EDWARDS POLICE DEPARTMENT,"PORT EDWARDS POLICE DEPARTMENT 
												
													EVENT 1:00PM-3:00PM",201 MARKET AVE,PORT EDWARDS,WI,54469,"http://maps.google.com/maps?q=201 MARKET AVE,+PORT EDWARDS,+WI+54469&hl=en"
PORTAGE COUNTY SHERIFF'S OFFICE,"COMMUNITY CENTER 
												
													APRIL 28TH 12:30PM-2:00PM",100 MAIN ST,ALMOND,WI,54909,"http://maps.google.com/maps?q=100 MAIN ST,+ALMOND,+WI+54909&hl=en"
PORTAGE COUNTY SHERIFF'S OFFICE,"JENSEN CENTER 
												
													EVENT APRIL 27TH 11:30 AM-1:00PM",487 N MAIN ST,AMHERST,WI,54406,"http://maps.google.com/maps?q=487 N MAIN ST,+AMHERST,+WI+54406&hl=en"
PORTAGE COUNTY SHERIFF'S OFFICE,"LINCOLN CENTER 
												
													EVENT APRIL 28TH 8:00AM-12:00PM",1519 WATER ST,STEVENS POINT,WI,54481,"http://maps.google.com/maps?q=1519 WATER ST,+STEVENS POINT,+WI+54481&hl=en"
PORTAGE COUNTY SHERIFF'S OFFICE,"VILLAGE PARK LODGE JUNCTION CITY 
												
													APRIL 26TH 11:00 AM - 12:30PM",1001 MAIN STREET,JUNCTION CITY,WI,54443,"http://maps.google.com/maps?q=1001 MAIN STREET,+JUNCTION CITY,+WI+54443&hl=en"
PORTAGE POLICE DEPT,"WALGREENS 
												
													EVENT 8:00AM-12:00PM",2700 NEW PINERY ROAD,PORTAGE,WI,53901,"http://maps.google.com/maps?q=2700 NEW PINERY ROAD,+PORTAGE,+WI+53901&hl=en"
POYNETTE POLICE DEPARTMENT,"POYNETTE POLICE DEPARTMENT 
												
													EVENT 8:00AM-11:00AM",118 S MAIN STREET,POYNETTE,WI,53955,"http://maps.google.com/maps?q=118 S MAIN STREET,+POYNETTE,+WI+53955&hl=en"
RACINE COUNTY SHERIFF'S OFFICE,"RACINE COUNTY SHERIFF'S OFFICE 
												
													DROP BOX ONLY 24/7",717 WISCONSIN AVE,RACINE,WI,53403,"http://maps.google.com/maps?q=717 WISCONSIN AVE,+RACINE,+WI+53403&hl=en"
RACINE POLICE DEPARTMENT,"RACINE POLICE DEPARTMENT 
												
													DROP BOX ONLY M-F 7:00AM-6:00PM S/S 8:00AM-2:00PM",730 CENTER STREET,RACINE,WI,53403,"http://maps.google.com/maps?q=730 CENTER STREET,+RACINE,+WI+53403&hl=en"
RANDOLPH POLICE DEPARTMENT,"RANDOLPH POLICE DEPARTMENT 
												
													EVENT 11:00AM-1:00PM",136 W STROUD STREET,RANDOLPH,WI,53956,"http://maps.google.com/maps?q=136 W STROUD STREET,+RANDOLPH,+WI+53956&hl=en"
REEDSBURG POLICE DEPARTMENT,"REEDSBURG POLICE DEPARTMENT 
												
													DROP BOX ONLY 24/7",200 S PARK ST,REEDSBURG,WI,53959,"http://maps.google.com/maps?q=200 S PARK ST,+REEDSBURG,+WI+53959&hl=en"
RICHLAND CENTER POLICE DEPT,"RICHLAND CENTER POLICE DEPT 
												
													EVENT 10:00AM-2:00PM",470 S MAIN ST,RICHLAND CENTER,WI,53581,"http://maps.google.com/maps?q=470 S MAIN ST,+RICHLAND CENTER,+WI+53581&hl=en"
RICHLAND COUNTY SHERIFF'S OFFICE,"RICHLAND COUNTY SHERIFF'S OFFICE 
												
													DROP BOX 24/7",181 W SEMINARY ST,RICHLAND CENTER,WI,53581,"http://maps.google.com/maps?q=181 W SEMINARY ST,+RICHLAND CENTER,+WI+53581&hl=en"
RIPON POLICE DEPT,"RIPON POLICE DEPT 
												
													DROP BOX ONLY 24/7",100 E JACKSON ST,RIPON,WI,54971,"http://maps.google.com/maps?q=100 E JACKSON ST,+RIPON,+WI+54971&hl=en"
ROCK COUNTY SHERIFF'S OFFICE,"ROCK COUNTY SHERIFF'S OFFICE 
												
													DROP BOX 24/7",200 E USH 14,JANESVILLE,WI,53545,"http://maps.google.com/maps?q=200 E USH 14,+JANESVILLE,+WI+53545&hl=en"
ROCK ISLAND COUNTY SHERIFF'S OFFICE,ROCK ISLAND COUNTY JUSTICE CENTER,1317 3RD AVENUE,ROCK ISLAND,IL,61201,"http://maps.google.com/maps?q=1317 3RD AVENUE,+ROCK ISLAND,+IL+61201&hl=en"
ROSENDALE POLICE DEPARTMENT,"ROSENDALE POLICE DEPARTMENT 
												
													DROP BOX ONLY M-F 8:00AM-4:00PM",211 NORTH GRANT STREET,ROSENDALE,WI,54974,"http://maps.google.com/maps?q=211 NORTH GRANT STREET,+ROSENDALE,+WI+54974&hl=en"
SANDWICH POLICE DEPARTMENT/NW MEDICINE/VALLEY WEST,NORTHWEST MEDICINE VALLEY WEST HOSPITAL,1302 N. MAIN STREET,SANDWICH,IL,60548,"http://maps.google.com/maps?q=1302 N. MAIN STREET,+SANDWICH,+IL+60548&hl=en"
SAUK COUNTY SHERIFF'S OFFICE,"SAUK COUNTY SHERIFF'S OFFICE 
												
													DROP BOX M-F 8:00AM-4:00PM",1300 LANGE COURT,BARABOO,WI,53913,"http://maps.google.com/maps?q=1300 LANGE COURT,+BARABOO,+WI+53913&hl=en"
SAUK PRAIRIE POLICE DEPARTMENT,"SAUK PRAIRIE HOSPITAL 
												
													EVENT 9:00AM-12:00PM",260 26TH STREET,PRAIRIE DU SAC,WI,53578,"http://maps.google.com/maps?q=260 26TH STREET,+PRAIRIE DU SAC,+WI+53578&hl=en"
SHARON VILLAGE POLICE DEPARTMENT,"SHARON VILLAGE POLICE DEPARTMENT 
												
													EVENT 9:00AM",125 PLAIN ST,SHARON,WI,53585,"http://maps.google.com/maps?q=125 PLAIN ST,+SHARON,+WI+53585&hl=en"
SHEBOYGAN POLICE DEPARTMENT,"RANDOM LAKE FIRE DEPARTMENT 
												
													EVENT 10:00AM-2:00PM",718 SPRING STREET,RANDOM LAKE,WI,53075,"http://maps.google.com/maps?q=718 SPRING STREET,+RANDOM LAKE,+WI+53075&hl=en"
SHOREWOOD POLICE DEPARTMENT,"SHOREWOOD POLICE DEPARTMENT 
												
													DROP BOX M-F 8:00AM-4:00PM",4057 N WILSON DR,SHOREWOOD,WI,53211,"http://maps.google.com/maps?q=4057 N WILSON DR,+SHOREWOOD,+WI+53211&hl=en"
SHULLSBURG POLICE DEPARTMENT,"SHULLSBURG POLICE DEPARTMENT 
												
													EVENT 10:00AM-2:00PM",190 N JUDGEMENT STREET,SHULLSBURG,WI,53586,"http://maps.google.com/maps?q=190 N JUDGEMENT STREET,+SHULLSBURG,+WI+53586&hl=en"
SILVIS POLICE DEPARTMENT,SILVIS POLICE DEPARTMENT,600 ILLINI DR,SILVIS,IL,61282,"http://maps.google.com/maps?q=600 ILLINI DR,+SILVIS,+IL+61282&hl=en"
SPARTA POLICE DEPT,"SPARTA POLICE DEPT 
												
													EVENT 10:00AM-2:00PM",121 E OAK ST,SPARTA,WI,54656,"http://maps.google.com/maps?q=121 E OAK ST,+SPARTA,+WI+54656&hl=en"
SPENCER POLICE DEPARTMENT,"SPENCER POLICE DEPARTMENT 
												
													EVENT 10:00AM-2:00PM",105 S PARK STREET,SPENCER,WI,54479,"http://maps.google.com/maps?q=105 S PARK STREET,+SPENCER,+WI+54479&hl=en"
SPRING GREEN POLICE DEPARTMENT,"SPRING GREEN POLICE DEPARTMENT 
												
													DROP BOX ONLY M-F  8:00AM-4:30PM",112 WEST MONROE STREET,SPRING GREEN,WI,53588,"http://maps.google.com/maps?q=112 WEST MONROE STREET,+SPRING GREEN,+WI+53588&hl=en"
ST. CHARLES POLICE DEPT,"NORTHWESTERN MEDICINE 
												
													WITH ST. CHARLES POLICE",2900 FOXFIELD ROAD,SAINT CHARLES,IL,60174,"http://maps.google.com/maps?q=2900 FOXFIELD ROAD,+SAINT CHARLES,+IL+60174&hl=en"
ST. FRANCIS POLICE DEPARTMENT,"ST. FRANCIS POLICE DEPARTMENT 
												
													DROP BOX ONLY 24/7",3400 E. HOWARD AVE,SAINT FRANCIS,WI,53235,"http://maps.google.com/maps?q=3400 E. HOWARD AVE,+SAINT FRANCIS,+WI+53235&hl=en"
STEVENS POINT POLICE DEPARTMENT,"LINCOLN CENTER 
												
													EVENT 7:30 AM - 4:00 PM",1519 WATER STREET,STEVENS POINT,WI,54481,"http://maps.google.com/maps?q=1519 WATER STREET,+STEVENS POINT,+WI+54481&hl=en"
STOUGHTON POLICE DEPARTMENT,"STOUGHTON FIRE DEPT 
												
													EVENT  9:00AM-11:00AM",381 E MAIN ST,STOUGHTON,WI,53589,"http://maps.google.com/maps?q=381 E MAIN ST,+STOUGHTON,+WI+53589&hl=en"
STRAWBERRY POINT POLICE DEPARTMENT,STRAWBERRY POINT POLICE DEPARTMENT,111 COMMERICAL ST,STRAWBERRY POINT,IA,52076,"http://maps.google.com/maps?q=111 COMMERICAL ST,+STRAWBERRY POINT,+IA+52076&hl=en"
STREAMWOOD POLICE DEPARTMENT,VILLAGE OF STREAMWOOD POLICE DEPARTMENT,401 E. IRVING PARK RD,STREAMWOOD,IL,60107,"http://maps.google.com/maps?q=401 E. IRVING PARK RD,+STREAMWOOD,+IL+60107&hl=en"
STURTEVANT POLICE DEPARTMENT,"STURTEVANT POLICE DEPARTMENT 
												
													EVENT 10:00AM-2:00PM",2801 89TH STREET,STURTEVANT,WI,53177,"http://maps.google.com/maps?q=2801 89TH STREET,+STURTEVANT,+WI+53177&hl=en"
SUGAR GROVE PD,SUGAR GROVE POLICE DEPARTMENT,10 S. MUNICIPAL DR,SUGAR GROVE,IL,60554,"http://maps.google.com/maps?q=10 S. MUNICIPAL DR,+SUGAR GROVE,+IL+60554&hl=en"
SUN PRAIRIE POLICE DEPARTMENT,"SUN PRAIRIE POLICE DEPARTMENT 
												
													DROP BOX 24/7",300 E MAIN STREET,SUN PRAIRIE,WI,53590,"http://maps.google.com/maps?q=300 E MAIN STREET,+SUN PRAIRIE,+WI+53590&hl=en"
THIENSVILLE POLICE DEPARTMENT,"PORT WASHINGTON STATE BANK 
												
													EVENT 10:00AM-2:00PM",197 S MAIN STREET,THIENSVILLE,WI,53092,"http://maps.google.com/maps?q=197 S MAIN STREET,+THIENSVILLE,+WI+53092&hl=en"
TOMAH POLICE DEPARTMENT,"TOMAH POLICE DEPARTMENT 
												
													DROP BOX ONLY M-F 8:00AM-5:30PM",805 SUPERIOR AVE,TOMAH,WI,54660,"http://maps.google.com/maps?q=805 SUPERIOR AVE,+TOMAH,+WI+54660&hl=en"
TOWN OF DELAVAN POLICE DEPARTMENT,"TOWN OF DELAVAN POLICE DEPARTMENT 
												
													DROP BOX ONLY M-F 8:00AM-5:00PM",5621 TOWN HALL ROAD,DELAVAN,WI,53115,"http://maps.google.com/maps?q=5621 TOWN HALL ROAD,+DELAVAN,+WI+53115&hl=en"
TOWN OF EAST TROY POLICE DEPARTMENT,"TOWN OF EAST TROY POLICE DEPARTMENT 
												
													EVENT 10:00AM-2:00PM",N9330 STEWART SCHOOL ROAD,EAGLE,WI,53119,"http://maps.google.com/maps?q=N9330 STEWART SCHOOL ROAD,+EAGLE,+WI+53119&hl=en"
TOWN OF OCONOMOWOC POLICE DEPARTMENT,"TOWN OF OCONOMOWOC POLICE DEPARTMENT 
												
													EVENT 10:00AM-2:00PM",W359 N6812 BROWN STREET,OCONOMOWOC,WI,53066,"http://maps.google.com/maps?q=W359 N6812 BROWN STREET,+OCONOMOWOC,+WI+53066&hl=en"
TOWN OF ROME POLICE DEPARTMENT,"TOWN OF ROME POLICE DEPARTMENT 
												
													EVENT 10:00 AM -2:00 PM",1156 ALPINE DRIVE,NEKOOSA,WI,54457,"http://maps.google.com/maps?q=1156 ALPINE DRIVE,+NEKOOSA,+WI+54457&hl=en"
TREMPEALEAU POLICE DEPARTMENT,"TREMPEALEAU POLICE DEPARTMENT 
												
													EVENT 8:00AM-12:00PM",24455 3RD STREET,TREMPEALEAU,WI,54661,"http://maps.google.com/maps?q=24455 3RD STREET,+TREMPEALEAU,+WI+54661&hl=en"
TREMPELEAU COUNTY SHERIFF'S OFFICE,"TREMPELEAU COUNTY SHERIFF'S OFFICE 
												
													DROP BOX ONLY M-F 8:00AM-4:30PM",36245 MAIN ST,WHITEHALL,WI,54773,"http://maps.google.com/maps?q=36245 MAIN ST,+WHITEHALL,+WI+54773&hl=en"
TWIN LAKES POLICE DEPARTMENT,"TWIN LAKES POLICE DEPARTMENT 
												
													DROP BOX 24/7",920 LANCE DR,TWIN LAKES,WI,53181,"http://maps.google.com/maps?q=920 LANCE DR,+TWIN LAKES,+WI+53181&hl=en"
UNIVERSITY OF WISCONSIN MILWAUKEE POLICE DEPARTMEN,"UNIVERSITY OF WISCONSIN MILWAUKEE POLICE DEPARTMEN 
												
													DROP BOX ONLY 24/7",3410 N. MARYLAND AVE,MILWAUKEE,WI,53211,"http://maps.google.com/maps?q=3410 N. MARYLAND AVE,+MILWAUKEE,+WI+53211&hl=en"
UNIVERSITY OF WISCONSIN PARKSIDE PUBLIC SAFETY,"UNIVERSITY OF WISCONSIN PARKSIDE PUBLIC SAFETY 
												
													DROP BOX ONLY 24/7",900 WOOD ROAD,KENOSHA,WI,53141,"http://maps.google.com/maps?q=900 WOOD ROAD,+KENOSHA,+WI+53141&hl=en"
UW MADISON POLICE DEPARTMENT,"UW MADISON POLICE DEPARTMENT 
												
													DROP BOX ONLY 24/7",1429 MONROE STREET,MADISON,WI,53711,"http://maps.google.com/maps?q=1429 MONROE STREET,+MADISON,+WI+53711&hl=en"
UW-WHITEWATER PD,"CONNOR UNIVERSITY CENTER-S ENTRANCE 
												
													DROP BOX 24/7",228 WYMAN MALL,WHITEWATER,WI,53190,"http://maps.google.com/maps?q=228 WYMAN MALL,+WHITEWATER,+WI+53190&hl=en"
UW-WHITEWATER PD,"UW WHITEWATER POLICE DEPARTMENT 
												
													DROP BOX 24/7",734 W STARIN ROAD,WHITEWATER,WI,53190,"http://maps.google.com/maps?q=734 W STARIN ROAD,+WHITEWATER,+WI+53190&hl=en"
VERNON COUNTY SHERIFF'S OFFICE,"STODDARD VILLAGE HALL 
												
													EENT 10:00AM-2:00PM",180 N MAIN STREET,STODDARD,WI,54658,"http://maps.google.com/maps?q=180 N MAIN STREET,+STODDARD,+WI+54658&hl=en"
VERONA POLICE DEPARTMENT,"VERONA POLICE DEPARTMENT 
												
													EVENT 10:00AM-2:00PM",111 LINCOLN STREET,VERONA,WI,53593,"http://maps.google.com/maps?q=111 LINCOLN STREET,+VERONA,+WI+53593&hl=en"
VILLAGE OF COTTAGE GROVE POLICE DEPARTMENT,"FORWARD PHARMACY 
												
													EVENT 10:00AM-12:00PM",429 W COTTAGE GROVE ROAD,COTTAGE GROVE,WI,53527,"http://maps.google.com/maps?q=429 W COTTAGE GROVE ROAD,+COTTAGE GROVE,+WI+53527&hl=en"
VILLAGE OF EAGLE POLICE DEPARTMENT,"EAGLE MUNICIPAL BUILDING 
												
													EVENT 11:00AM-2:00PM",820 E MAIN STREET,EAGLE,WI,53119,"http://maps.google.com/maps?q=820 E MAIN STREET,+EAGLE,+WI+53119&hl=en"
VILLAGE OF PALMYRA POLICE DEPARTMENT,"VILLAGE OF PALMYRA PUBLIC SAFETY BUILDING 
												
													EVENT 10:00AM-2:00PM",126 N FIRST STREET,PALMYRA,WI,53156,"http://maps.google.com/maps?q=126 N FIRST STREET,+PALMYRA,+WI+53156&hl=en"
VILLAGE OF WESTFIELD POLICE DEPARTMENT,"VILLAGE OF WESTFILED POLICE DEPARTMENT 
												
													DROP BOX M-F 8:00AM-4:00PM",129 E 3RD STREET,WESTFIELD,WI,53964,"http://maps.google.com/maps?q=129 E 3RD STREET,+WESTFIELD,+WI+53964&hl=en"
VIROQUA POLICE DEPARTMENT,"VIROQUA POLICE DEPARTMENT 
												
													EVENT 10:00AM-2:00PM",702 EAST BROADWAY,VIROQUA,WI,54665,"http://maps.google.com/maps?q=702 EAST BROADWAY,+VIROQUA,+WI+54665&hl=en"
WALWORTH COUNTY SHERIFF'S OFFICE,"DARIEN TOWN HALL 
												
													EVENT 10:00 AM - 2:00 PM",N2826 FOUNDRY ROAD,DARIEN,WI,53114,"http://maps.google.com/maps?q=N2826 FOUNDRY ROAD,+DARIEN,+WI+53114&hl=en"
WALWORTH COUNTY SHERIFF'S OFFICE,"LYONS TOWN HALL 
												
													EVENT  10:00AM-2:00PM",6339 HOSPITAL ROAD,LYONS,WI,53148,"http://maps.google.com/maps?q=6339 HOSPITAL ROAD,+LYONS,+WI+53148&hl=en"
WALWORTH POLICE DEPARTMENT,"WALWORTH POLICE DEPARTMENT 
												
													EVENT 11:00AM-2:00PM",227 N MAIN ST,WALWORTH,WI,53184,"http://maps.google.com/maps?q=227 N MAIN ST,+WALWORTH,+WI+53184&hl=en"
WASHINGTON COUNTY SHERIFF'S OFFICE,"SLINGER HIGHWAY SHOP 
												
													EVENT MAY 5TH 8:00AM-12:00PM",314 W WASHINGTON ST,SLINGER,WI,53086,"http://maps.google.com/maps?q=314 W WASHINGTON ST,+SLINGER,+WI+53086&hl=en"
WATERFORD POLICE DEPT,"WATERFORD POLICE DEPT 
												
													DROP BOX ONLY 24/7",415 N MILWAUKEE ST,WATERFORD,WI,53185,"http://maps.google.com/maps?q=415 N MILWAUKEE ST,+WATERFORD,+WI+53185&hl=en"
WATERLOO POLICE DEPARTMENT,GREENWOOD PHARMACY,2104 KIMBALL AVE,WATERLOO,IA,50702,"http://maps.google.com/maps?q=2104 KIMBALL AVE,+WATERLOO,+IA+50702&hl=en"
WATERLOO POLICE DEPARTMENT,WALGREENS,3910 UNIVERSITY AVE,WATERLOO,IA,50701,"http://maps.google.com/maps?q=3910 UNIVERSITY AVE,+WATERLOO,+IA+50701&hl=en"
WATERLOO POLICE DEPARTMENT,"WATERLOO POLICE DEPT 
												
													DROP BOX ONLY M-F 7:00 AM-3:30PM",136 N MONROE ST,WATERLOO,WI,53594,"http://maps.google.com/maps?q=136 N MONROE ST,+WATERLOO,+WI+53594&hl=en"
WATERTOWN POLICE DEPARTMENT,"WATERTOWN POLICE DEPARTMENT 
												
													DROP BOX ONLY 24/7",106 JONES ST,WATERTOWN,WI,53094,"http://maps.google.com/maps?q=106 JONES ST,+WATERTOWN,+WI+53094&hl=en"
WAUCONDA POLICE,WAUCONDA POLICE DEPARTMENT,311 S. MAIN STREET,WAUCONDA,IL,60084,"http://maps.google.com/maps?q=311 S. MAIN STREET,+WAUCONDA,+IL+60084&hl=en"
WAUKESHA COUNTY SHERIFF OFFICE,"PICK N SAVE 
												
													EVENT 10:00AM-2:00PM",N65 W24838 MAIN STREET,SUSSEX,WI,53089,"http://maps.google.com/maps?q=N65 W24838 MAIN STREET,+SUSSEX,+WI+53089&hl=en"
WAUKESHA COUNTY SHERIFF'S OFFICE,"ARROWHEAD HIGH SCHOOL 
												
													EVENT 10:00AM-2:00PM",800 NORTH AVE,HARTLAND,WI,53029,"http://maps.google.com/maps?q=800 NORTH AVE,+HARTLAND,+WI+53029&hl=en"
WAUNAKEE POLICE DEPARTMENT,"WAUNAKEE POLICE DEPARTMENT 
												
													EVENT 10:00AM-2:00PM",205 N KLEIN DRIVE,WAUNAKEE,WI,53597,"http://maps.google.com/maps?q=205 N KLEIN DRIVE,+WAUNAKEE,+WI+53597&hl=en"
WAUPACA COUNTY SHERIFF'S OFFICE,"WAUPACA COUNTY SHERIFF'S OFFICE 
												
													DROP BOX ONLY M-F 7:00AM-5:00PM",1402 E ROYALTON ST,WAUPACA,WI,54981,"http://maps.google.com/maps?q=1402 E ROYALTON ST,+WAUPACA,+WI+54981&hl=en"
WAUPACA POLICE DEPARTMENT,"WAUPACA POLICE DEPARTMENT 
												
													EVENT 10:00AM-2:00PM",124 S WASHINGTON ST,WAUPACA,WI,54981,"http://maps.google.com/maps?q=124 S WASHINGTON ST,+WAUPACA,+WI+54981&hl=en"
WAUPUN POLICE DEPARTMENT,"WAUPUN POLICE DEPARTMENT 
												
													DROP BOX ONLY M-F 8:00AM-4:00PM",16 E MAIN ST,WAUPUN,WI,53963,"http://maps.google.com/maps?q=16 E MAIN ST,+WAUPUN,+WI+53963&hl=en"
WAUSHARA COUNTY SHERIFF'S OFFICE,"REDGRANITE FIRE DEPARTMENT 
												
													EVENT 10:00AM-12:00PM",135 E BANNERMAN AVE,REDGRANITE,WI,54970,"http://maps.google.com/maps?q=135 E BANNERMAN AVE,+REDGRANITE,+WI+54970&hl=en"
WAUWATOSA  POLICE DEPARTMENT,"WAUWATOSA POLICE DEPARTMENT 
												
													DROP BOX ONLY M-F 7:00AM-11:00PM, SAT-SUN 3:00PM-11:00PM",1700 N 116TH STREET,WAUWATOSA,WI,53226,"http://maps.google.com/maps?q=1700 N 116TH STREET,+WAUWATOSA,+WI+53226&hl=en"
WAVERLY POLICE DEPARTMENT,WAVERLY PUBLIC LIBRARY,1500 WEST BREMER AVE,WAVERLY,IA,50677,"http://maps.google.com/maps?q=1500 WEST BREMER AVE,+WAVERLY,+IA+50677&hl=en"
WEST ALLIS POLICE DEPARTMENT,"WEST ALLIS POLICE DEPARTMENT 
												
													EVENT 8:00AM-12:00PM",11301 W LINCOLN AVE,WEST ALLIS,WI,53227,"http://maps.google.com/maps?q=11301 W LINCOLN AVE,+WEST ALLIS,+WI+53227&hl=en"
WEST BEND POLICE DEPARTMENT,"WEST BEND POLICE DEPARTMENT 
												
													EVENT 9:00AM-1:00PM",350 VINE ST,WEST BEND,WI,53095,"http://maps.google.com/maps?q=350 VINE ST,+WEST BEND,+WI+53095&hl=en"
WEST BRANCH POLICE DEPARTMENT,WEST BRANCH CITY HALL,110 N. POPLAR ST.,WEST BRANCH,IA,52358,"http://maps.google.com/maps?q=110 N. POPLAR ST.,+WEST BRANCH,+IA+52358&hl=en"
WEST LIBERTY IOWA POLICE DEPARTMENT,"CITY HALL 
												
													LOBBY (10AM - 1PM)",409 N. CALHOUN ST,WEST LIBERTY,IA,52776,"http://maps.google.com/maps?q=409 N. CALHOUN ST,+WEST LIBERTY,+IA+52776&hl=en"
WEST MILWAUKEE  POLICE DEPARTMENT,"WEST MILWAUKEE  POLICE DEPARTMENT 
												
													DROP BOX ONLY 24/7",4755 W. BELOIT ROAD,MILWAUKEE,WI,53214,"http://maps.google.com/maps?q=4755 W. BELOIT ROAD,+MILWAUKEE,+WI+53214&hl=en"
WEST SALEM POLICE DEPARTMENT,"WEST SALEM POLICE DEPARTMENT 
												
													DROP BOX ONLY M-F  8:00AM-4:30PM",175 SOUTH LEONARD STREET,WEST SALEM,WI,54669,"http://maps.google.com/maps?q=175 SOUTH LEONARD STREET,+WEST SALEM,+WI+54669&hl=en"
WEYAUWEGA POLICE DEPARTMENT,"WEYAUWEGA POLICE DEPARTMENT 
												
													DROP BOX M-F 8:00AM-4:30PM",109 E MAIN ST,WEYAUWEGA,WI,54983,"http://maps.google.com/maps?q=109 E MAIN ST,+WEYAUWEGA,+WI+54983&hl=en"
WHITEFISH BAY POLICE DEPARTMENT,"WHITEFISH BAY POLICE DEPARTMENT 
												
													EVENT 10:00AM-2:00PM",5300 N. MARLBOROUGH DRIVE,WHITEFISH BAY,WI,53217,"http://maps.google.com/maps?q=5300 N. MARLBOROUGH DRIVE,+WHITEFISH BAY,+WI+53217&hl=en"
WHITEWATER POLICE DEPARTMENT,"WHITEWATER POLICE DEPARTMENT 
												
													DROP BOX ONLY 24/7",312 W. WHITEWATER ST,WHITEWATER,WI,53190,"http://maps.google.com/maps?q=312 W. WHITEWATER ST,+WHITEWATER,+WI+53190&hl=en"
WI DEPARTMENT OF JUSTICE,"WI DEPARTMENT OF JUSTICE 
												
													DROP BOX",17 WEST MAIN STREET,MADISON,WI,53703,"http://maps.google.com/maps?q=17 WEST MAIN STREET,+MADISON,+WI+53703&hl=en"
WILLIAMS BAY POLICE DEPARTMENT,"WILLIAMS BAY POLICE DEPARTMENT 
												
													EVENT 8:00AM-5:00PM",250 WILLIAMS ST,WILLIAMS BAY,WI,53191,"http://maps.google.com/maps?q=250 WILLIAMS ST,+WILLIAMS BAY,+WI+53191&hl=en"
WINNECONNE POLICE DEPARTMENT,"WINNECONNE POLICE DEPARTMENT 
												
													EVENT 8:00AM-12:00PM",30 S FIRST STREET,WINNECONNE,WI,54986,"http://maps.google.com/maps?q=30 S FIRST STREET,+WINNECONNE,+WI+54986&hl=en"
WINONA COUNTY ASAP,"WINONA COUNTY ASAP 
												
													WALGREENS PARKING LOT",750 MANKATO AVENUE,WINONA,MN,55987,"http://maps.google.com/maps?q=750 MANKATO AVENUE,+WINONA,+MN+55987&hl=en"
WISCONSIN DELLS POLICE DEPARTMENT,"WISCONSIN DELLS POLICE DEPARTMENT 
												
													DROP BOX 24/7",712 OAK ST,WISCONSIN DELLS,WI,53965,"http://maps.google.com/maps?q=712 OAK ST,+WISCONSIN DELLS,+WI+53965&hl=en"
WISCONSIN RAPIDS POLICE DEPARTMENT,"COPPS FOOD CENTER 
												
													EVENT APRIL 20TH 10:00AM-2:00PM",900 E RIVERVIEW EXPRESSWAY,WISCONSIN RAPIDS,WI,54494,"http://maps.google.com/maps?q=900 E RIVERVIEW EXPRESSWAY,+WISCONSIN RAPIDS,+WI+54494&hl=en"
WOOD COUNTY SHERIFF'S OFFICE,"WOOD COUNTY SHERIFF'S OFFICE 
												
													DROP BOX ONLY M-F 8:00AM-4:30PM",400 MARKET STREET,WISCONSIN RAPIDS,WI,54494,"http://maps.google.com/maps?q=400 MARKET STREET,+WISCONSIN RAPIDS,+WI+54494&hl=en"
WOODSTOCK POLICE DEPARTMENT,WOODSTOCK POLICE DEPARTMENT,656 LAKE AVENUE,WOODSTOCK,IL,60098,"http://maps.google.com/maps?q=656 LAKE AVENUE,+WOODSTOCK,+IL+60098&hl=en"
