Participant,CollectionSite,Address,City,State,Zip,MapURL
ANAHEIM P.D. (KAISER),KAISER PERMANENTE ANAHEIM MEDICAL CENTER KRAEMER MEDICAL OFFICE BLDG. 1,3460 E. LA PALMA AVE.,ANAHEIM,CA,92806,"http://maps.google.com/maps?q=3460 E. LA PALMA AVE.,+ANAHEIM,+CA+92806&hl=en"
AZUSA POLICE DEPARTMENT,AZUSA POLICE DEPT. CPL. JASON KIMES,725 N. ALAMEDA AVE.6268123299X3922,AZUSA,CA,91702,"http://maps.google.com/maps?q=725 N. ALAMEDA AVE.,+AZUSA,+CA+91702&hl=en"
BALDWIN PD (KAISER),KAISER PERMANENTE BALDWIN PK MED. CTR. PARKING LOT,1011 BALDWIN PARK BLVD.,BALDWIN PARK,CA,91706,"http://maps.google.com/maps?q=1011 BALDWIN PARK BLVD.,+BALDWIN PARK,+CA+91706&hl=en"
BREA POLICE DEPARTMENT,BREA POLICE DEPARTMENT FRONT DRIVEWAY,1 CIVIC CENTER CIRCLE,BREA,CA,92821,"http://maps.google.com/maps?q=1 CIVIC CENTER CIRCLE,+BREA,+CA+92821&hl=en"
BUENA PARK P.D.,BUENA PARK PD LOBBY,6640 BEACH BL.,BUENA PARK,CA,90621,"http://maps.google.com/maps?q=6640 BEACH BL.,+BUENA PARK,+CA+90621&hl=en"
BUENA PARK P.D.,BUENA PARK SENIOR CENTER LOBBY,8150 KNOTT AVE,BUENA PARK,CA,90620,"http://maps.google.com/maps?q=8150 KNOTT AVE,+BUENA PARK,+CA+90620&hl=en"
BURBANK POLICE DEPARTMENT,BURBANK POLICE STATION PARKING LOT,200 N THIRD ST.,BURBANK,CA,91502,"http://maps.google.com/maps?q=200 N THIRD ST.,+BURBANK,+CA+91502&hl=en"
CAMARILLO POLICE DEPARTMENT,CAMARILLO POLICE DEPT. LOBBY,3701 E. LAS POSAS RD.,CAMARILLO,CA,93010,"http://maps.google.com/maps?q=3701 E. LAS POSAS RD.,+CAMARILLO,+CA+93010&hl=en"
CARLSBAD POLICE DEPARTMENT,SCRIPPS COSTAL MEDICAL CENTER,2176 SALK AVE.,CARLSBAD,CA,92008,"http://maps.google.com/maps?q=2176 SALK AVE.,+CARLSBAD,+CA+92008&hl=en"
CHINO POLICE DEPARTMENT,CHINO POLICE DEPARTMENT FRONT LOBBY,5450 GUARDIAN WAY,CHINO,CA,91710,"http://maps.google.com/maps?q=5450 GUARDIAN WAY,+CHINO,+CA+91710&hl=en"
CHULA VISTA POLICE DEPARTMENT,CAMARENA ELEMENTARY SCHOOL,1650 EXPLORATION FALLS DRIVE,CHULA VISTA,CA,91915,"http://maps.google.com/maps?q=1650 EXPLORATION FALLS DRIVE,+CHULA VISTA,+CA+91915&hl=en"
"CITY OF BELLFLOWER, L.A. CTY SHERIFF (KAISER)",KAISER MEDICAL OFFICES PARKING LOT OFF OF CLARK AVE.,9400 E. ROSECRANS,BELLFLOWER,CA,90706,"http://maps.google.com/maps?q=9400 E. ROSECRANS,+BELLFLOWER,+CA+90706&hl=en"
CITY OF YUMA POLICE DEPARTMENT,CITY OF YUMA POLICE DEPARTMENT,1500 S. 1ST AVENUE,YUMA,AZ,85364,"http://maps.google.com/maps?q=1500 S. 1ST AVENUE,+YUMA,+AZ+85364&hl=en"
CLAREMONT POLICE DEPARTMENT,CLAREMONT POLICE DEPARTMENT FRONT LOBBY,570 W. BONITA AVE,CLAREMONT,CA,91711,"http://maps.google.com/maps?q=570 W. BONITA AVE,+CLAREMONT,+CA+91711&hl=en"
CLAREMONT POLICE DEPARTMENT,KECK GRADUATE INSTITUTE INSIDE CAMPUS OFFICE,535 WATSON DR.,CLAREMONT,CA,91711,"http://maps.google.com/maps?q=535 WATSON DR.,+CLAREMONT,+CA+91711&hl=en"
COCOPAH POLICE DEPARTMENT,EAST RESERVATION EAST RESERVATION,1700 BLOCK OF COTTOWOOD DR,SOMERTON,AZ,85350,"http://maps.google.com/maps?q=1700 BLOCK OF COTTOWOOD DR,+SOMERTON,+AZ+85350&hl=en"
COLTON POLICE DEPARTMENT,COLTON POLICE DEPARTMENT CIVIC CENTER PARKING LOT,650 NORTH LA CADEENA DR.,COLTON,CA,92324,"http://maps.google.com/maps?q=650 NORTH LA CADEENA DR.,+COLTON,+CA+92324&hl=en"
CORONA POLICE DEPT.,CVS PARKING LOT,1322 W. 6TH STREET,CORONA,CA,92882,"http://maps.google.com/maps?q=1322 W. 6TH STREET,+CORONA,+CA+92882&hl=en"
CORONADO POLICE DEPARTMENT,CORONADO POLICE DEPARTMENT ALLEY BEHIND POLICE STATION,700 ORANGE AVE,CORONADO,CA,92118,"http://maps.google.com/maps?q=700 ORANGE AVE,+CORONADO,+CA+92118&hl=en"
COSTA MESA PD,COSTA MESA P.D. LOBBY,99 FAIR DR.,COSTA MESA,CA,92628,"http://maps.google.com/maps?q=99 FAIR DR.,+COSTA MESA,+CA+92628&hl=en"
CULVER CITY POLICE DEPARTMENT,CULVER CITY POLICE DEPARTMENT NORTHSIDE CORNER,4040 DUQUESNE,CULVER CITY,CA,90232,"http://maps.google.com/maps?q=4040 DUQUESNE,+CULVER CITY,+CA+90232&hl=en"
CYPRESS POLICE DEPT.,CYPRESS POLICE DEPT. FRONT PARKING LOT,5275 ORANGE AVE.,CYPRESS,CA,90630,"http://maps.google.com/maps?q=5275 ORANGE AVE.,+CYPRESS,+CA+90630&hl=en"
DEA IMPERIAL COUNTY D.O.,FOOD FOR LESS - CALEXICO,109 W BIRCH ST,CALEXICO,CA,92231,"http://maps.google.com/maps?q=109 W BIRCH ST,+CALEXICO,+CA+92231&hl=en"
DEA IMPERIAL COUNTY D.O.,U.S. BORDER PATROL SECTOR OFFICE EL CENTRO STATION,221 WEST ATEN ROAD,IMPERIAL,CA,92251,"http://maps.google.com/maps?q=221 WEST ATEN ROAD,+IMPERIAL,+CA+92251&hl=en"
DEA IMPERIAL COUNTY D.O.,VONS - BRAWLEY,475 W. MAIN ST,BRAWLEY,CA,92227,"http://maps.google.com/maps?q=475 W. MAIN ST,+BRAWLEY,+CA+92227&hl=en"
DEA IMPERIAL COUNTY D.O.,VONS - EL CENTRO,750 N IMPERIAL AVE,EL CENTRO,CA,92243,"http://maps.google.com/maps?q=750 N IMPERIAL AVE,+EL CENTRO,+CA+92243&hl=en"
DEA SAN DIEGO,SCRIPPS CLINIC RANCHO BERNARDO,15004 INNOVATION DRIVE,SAN DIEGO,CA,92128,"http://maps.google.com/maps?q=15004 INNOVATION DRIVE,+SAN DIEGO,+CA+92128&hl=en"
DEA SAN DIEGO,SCRIPPS GREEN HOSPITAL,10666 N. TORREY PINES RD.,LA JOLLA,CA,92037,"http://maps.google.com/maps?q=10666 N. TORREY PINES RD.,+LA JOLLA,+CA+92037&hl=en"
DEA SAN DIEGO,SHARP CHULA VISTA MEDICAL CENTER,751 MEDICAL CENTER CT.,CHULA VISTA,CA,91911,"http://maps.google.com/maps?q=751 MEDICAL CENTER CT.,+CHULA VISTA,+CA+91911&hl=en"
DEA SAN DIEGO,SHARP HEALTHCARE CORPORATE OFFICES,8695 SPECTRUM CENTER BOULEVARD,SAN DIEGO,CA,92123,"http://maps.google.com/maps?q=8695 SPECTRUM CENTER BOULEVARD,+SAN DIEGO,+CA+92123&hl=en"
DOWNEY POLICE DEPARTMENT,DOWNEY POLICE DEPARTMENT IN THE WEST PARKING LOT,10911 BROOKSHIRE AVENUE,DOWNEY,CA,90241,"http://maps.google.com/maps?q=10911 BROOKSHIRE AVENUE,+DOWNEY,+CA+90241&hl=en"
DRUG ENFORCEMENT ADMINISTRATION,FEDERAL ROYBAL BUILDING - LOBBY,255 E TEMPLE ST,LOS ANGELES,CA,90012,"http://maps.google.com/maps?q=255 E TEMPLE ST,+LOS ANGELES,+CA+90012&hl=en"
DRUG ENFORCEMENT ADMINISTRATION,WATTS HEALTHCARE CORP. TENESHA TAYLOR 3235685400X5422,10300 COMPTON AVE.,LOS ANGELES,CA,90002,"http://maps.google.com/maps?q=10300 COMPTON AVE.,+LOS ANGELES,+CA+90002&hl=en"
EL CAJON POLICE DEPARTMENT,EL CAJON POLICE DEPARTMENT PARKING LOT,100 CIVIC CENTER WAY,EL CAJON,CA,92020,"http://maps.google.com/maps?q=100 CIVIC CENTER WAY,+EL CAJON,+CA+92020&hl=en"
EL SEGUNDO POLICE DEPT.,EL SEGUNDO CITY YARD PARKING LOT,150 ILLINOIS ST.,EL SEGUNDO,CA,90245,"http://maps.google.com/maps?q=150 ILLINOIS ST.,+EL SEGUNDO,+CA+90245&hl=en"
ESCONDIDO POLICE,ESCONDIDO POLICE STATION,1163 N. CENTRE CITY PARKWAY,ESCONDIDO,CA,92026,"http://maps.google.com/maps?q=1163 N. CENTRE CITY PARKWAY,+ESCONDIDO,+CA+92026&hl=en"
FILLMORE POLICE DEPARTMENT,FILLMORE POLICE DEPARTMENT LOBBY,524 SESPE AVE.,FILLMORE,CA,93015,"http://maps.google.com/maps?q=524 SESPE AVE.,+FILLMORE,+CA+93015&hl=en"
FULLERTON POLICE DEPARTMENT,FULLERTON POLICE DEPARTMENT DRIVE-THRU ON HIGHLAND AVE.,237 W COMMONWEALTH AVE,FULLERTON,CA,92832,"http://maps.google.com/maps?q=237 W COMMONWEALTH AVE,+FULLERTON,+CA+92832&hl=en"
GARDEN GROVE POLICE DEPARTMENT,GARDEN GROVE POLICE DEPARTMENT LOBBY,11301 ACACIA PKWY,GARDEN GROVE,CA,92842,"http://maps.google.com/maps?q=11301 ACACIA PKWY,+GARDEN GROVE,+CA+92842&hl=en"
GARDENA POLICE DEPARTMENT,GARDENA P.D. ATTN: ERICA MCLEOD 3102179689,1718 W 162 STREET,GARDENA,CA,90247,"http://maps.google.com/maps?q=1718 W 162 STREET,+GARDENA,+CA+90247&hl=en"
GLENDALE POLICE DEPARTMENT,CVS PHARMACY IN PARKING LOT,1122 E BROADWAY,GLENDALE,CA,91205,"http://maps.google.com/maps?q=1122 E BROADWAY,+GLENDALE,+CA+91205&hl=en"
GLENDALE POLICE DEPARTMENT,CVS PHARMACY IN PARKING LOT,2037 VERDUGO BL,MONTROSE,CA,91020,"http://maps.google.com/maps?q=2037 VERDUGO BL,+MONTROSE,+CA+91020&hl=en"
GLENDALE POLICE DEPARTMENT,SMART & FINAL EXTRA,1855 W. GLENOAKS BLVD,GLENDALE,CA,91201,"http://maps.google.com/maps?q=1855 W. GLENOAKS BLVD,+GLENDALE,+CA+91201&hl=en"
GLENDALE POLICE DEPARTMENT,YMCA PARKING LOT,1930 FOOTHILL BLVD.,LA CANADA FLINTRIDGE,CA,91011,"http://maps.google.com/maps?q=1930 FOOTHILL BLVD.,+LA CANADA FLINTRIDGE,+CA+91011&hl=en"
GLENDORA POLICE DEPARTMENT,GLENDORA POLICE DEPARTMENT JLINGER@GLENDORAPD.ORG,150 S. GLENDORA AVE,GLENDORA,CA,91741,"http://maps.google.com/maps?q=150 S. GLENDORA AVE,+GLENDORA,+CA+91741&hl=en"
HERMOSA BEACH POLICE DEPARTMENT,HERMOSA BEACH POLICE DEPARTMENT FRONT LOBBY,540 PIER AVE,HERMOSA BEACH,CA,90254,"http://maps.google.com/maps?q=540 PIER AVE,+HERMOSA BEACH,+CA+90254&hl=en"
HUNTINGTON BEACH POLICE DEPT.,HUNTINGTON BEACH P.D. FRONT LOBBY,2000 MAIN STREET,HUNTINGTON BEACH,CA,92648,"http://maps.google.com/maps?q=2000 MAIN STREET,+HUNTINGTON BEACH,+CA+92648&hl=en"
INGLEWOOD P.D.,INGLEWOOD PD IN FRONT OF CITY HALL,1 WEST MANCHESTER BL,INGLEWOOD,CA,90301,"http://maps.google.com/maps?q=1 WEST MANCHESTER BL,+INGLEWOOD,+CA+90301&hl=en"
IRVINE P.D. (KAISER),HOAG HEALTH CTR. ROXANNA BRYANT 7143569675,16405 SAND CANYON,IRVINE,CA,92618,"http://maps.google.com/maps?q=16405 SAND CANYON,+IRVINE,+CA+92618&hl=en"
IRVINE P.D. (KAISER),IRVINE POLICE DEPT. FRONT PARKING LOT,1 CIVIC CENTER PLAZA,IRVINE,CA,92606,"http://maps.google.com/maps?q=1 CIVIC CENTER PLAZA,+IRVINE,+CA+92606&hl=en"
IRVINE P.D. (KAISER),KAISER PERMANENTE FRONT PARKING LOT,6650 ALTON PARKWAY,IRVINE,CA,92618,"http://maps.google.com/maps?q=6650 ALTON PARKWAY,+IRVINE,+CA+92618&hl=en"
IRVINE VALLEY COLLEGE POLICE,IRVINE VALLEY COLLEGE POLICE PARKING LOT 5,5500 IRVINE CENTER DR.,IRVINE,CA,92618,"http://maps.google.com/maps?q=5500 IRVINE CENTER DR.,+IRVINE,+CA+92618&hl=en"
LA HABRA POLICE DEPARTMENT,LA HABRA POLICE DEPARTMENT FRONT LOBBY,150 NORTH EUCLID STREET,LA HABRA,CA,90631,"http://maps.google.com/maps?q=150 NORTH EUCLID STREET,+LA HABRA,+CA+90631&hl=en"
LA MESA PD,"LA MESA POLICE DEPARTMENT EAST PARKING LOT, DIRECTLY BEHIND CITY HALL",8085 UNIVERSITY AVE.,LA MESA,CA,91942,"http://maps.google.com/maps?q=8085 UNIVERSITY AVE.,+LA MESA,+CA+91942&hl=en"
LA VERNE POLICE DEPARTMENT,LA VERNE POLICE DEPARTMENT LOBBY,2061 THIRD ST.,LA VERNE,CA,91750,"http://maps.google.com/maps?q=2061 THIRD  ST.,+LA VERNE,+CA+91750&hl=en"
LONG BEACH POLICE DEPARTMENT,LONG BEACH MEMORIAL HOSP. PARKING LOT,2801 ATLANTIC,LONG BEACH,CA,90806,"http://maps.google.com/maps?q=2801 ATLANTIC,+LONG BEACH,+CA+90806&hl=en"
LOS ALAMITOS POLICE DEPT.,MCAULIFFE MIDDLE SCHOOL ATTN:CHRIS VLASIC 5627994700XT80412,4112 CERRITOS AVE.,LOS ALAMITOS,CA,90720,"http://maps.google.com/maps?q=4112 CERRITOS AVE.,+LOS ALAMITOS,+CA+90720&hl=en"
LOS ANGELES COUNTY SHERIFF'S DEPT.,CARSON STATION - LASD DEPUTY FRED NOYA 3108301123,701 E. CARSON ST.,CARSON,CA,90745,"http://maps.google.com/maps?q=701 E. CARSON ST.,+CARSON,+CA+90745&hl=en"
LOS ANGELES COUNTY SHERIFF'S DEPT.,CENTURY STATION - LASD,11703 E. ALAMEDA ST.,LYNWOOD,CA,90262,"http://maps.google.com/maps?q=11703 E. ALAMEDA ST.,+LYNWOOD,+CA+90262&hl=en"
LOS ANGELES COUNTY SHERIFF'S DEPT.,COMPTON STATION - LASD,301 S. WILLOWBROOK AVE.,COMPTON,CA,90221,"http://maps.google.com/maps?q=301 S. WILLOWBROOK AVE.,+COMPTON,+CA+90221&hl=en"
LOS ANGELES COUNTY SHERIFF'S DEPT.,CRESCENTA VALLEY STATION - LASD,4554 N. BRIGGS AVE.,LA CRESCENTA,CA,91214,"http://maps.google.com/maps?q=4554 N. BRIGGS AVE.,+LA CRESCENTA,+CA+91214&hl=en"
LOS ANGELES COUNTY SHERIFF'S DEPT.,EAST LOS ANGELES STATION - LASD,5019 E. THIRD ST.,LOS ANGELES,CA,90022,"http://maps.google.com/maps?q=5019 E. THIRD ST.,+LOS ANGELES,+CA+90022&hl=en"
LOS ANGELES COUNTY SHERIFF'S DEPT.,INDUSTRY STATION - LASD,150 N. HUDSON AVE.,LA PUENTE,CA,91744,"http://maps.google.com/maps?q=150 N. HUDSON AVE.,+LA PUENTE,+CA+91744&hl=en"
LOS ANGELES COUNTY SHERIFF'S DEPT.,LAKEWOOD STATION - LASD,5130 N. CLARK AVE,LAKEWOOD,CA,90712,"http://maps.google.com/maps?q=5130 N. CLARK AVE,+LAKEWOOD,+CA+90712&hl=en"
LOS ANGELES COUNTY SHERIFF'S DEPT.,LOMITA SHERIFF DEPT. SGT. DOUG SHIVE 3102001534,26123 S. NARBONNE AVE.,LOMITA,CA,90717,"http://maps.google.com/maps?q=26123 S. NARBONNE AVE.,+LOMITA,+CA+90717&hl=en"
LOS ANGELES COUNTY SHERIFF'S DEPT.,MALIBU/LOST HILLS STATION - LASD,27050 AGOURA RD.,AGOURA HILLS,CA,91301,"http://maps.google.com/maps?q=27050 AGOURA RD.,+AGOURA HILLS,+CA+91301&hl=en"
LOS ANGELES COUNTY SHERIFF'S DEPT.,NORWALK STATION - LASD,12335 CIVIC CENTER DR.,NORWALK,CA,90650,"http://maps.google.com/maps?q=12335 CIVIC CENTER DR.,+NORWALK,+CA+90650&hl=en"
LOS ANGELES COUNTY SHERIFF'S DEPT.,SANTA CLARITA VALLEY STATION - LASD,23740 W. MAGIC MOUNTAIN PKWY,VALENCIA,CA,91355,"http://maps.google.com/maps?q=23740 W. MAGIC MOUNTAIN PKWY,+VALENCIA,+CA+91355&hl=en"
LOS ANGELES COUNTY SHERIFF'S DEPT.,SOUTH LOS ANGELES STATION - LASD,1310 W. IMPERIAL HWY.,LOS ANGELES,CA,90044,"http://maps.google.com/maps?q=1310 W. IMPERIAL HWY.,+LOS ANGELES,+CA+90044&hl=en"
LOS ANGELES COUNTY SHERIFF'S DEPT.,TEMPLE STATION - LASD,8838 E. LAS TUNAS DR.,TEMPLE CITY,CA,91780,"http://maps.google.com/maps?q=8838 E. LAS TUNAS DR.,+TEMPLE CITY,+CA+91780&hl=en"
LOS ANGELES PD (KAISER),FIRST BAPTIST CHURCH ALICE LEE 9093422788,760 S. WESTMORELAND AVE.,LOS ANGELES,CA,90005,"http://maps.google.com/maps?q=760 S. WESTMORELAND AVE.,+LOS ANGELES,+CA+90005&hl=en"
LOS ANGELES PD (KAISER),KAISER PERMANENTE - PANORAMA CITY MEDICAL CENTER LILIA AIVAZYAN 8183752417,"13652 CANTARA ST., NORTH 3 BLDG",PANORAMA CITY,CA,91402,"http://maps.google.com/maps?q=13652 CANTARA ST., NORTH 3 BLDG,+PANORAMA CITY,+CA+91402&hl=en"
LOS ANGELES PD (KAISER),KAISER PERMANENTE LOS ANGELES MEDICAL CENTER ALEX CAO 3107410290,4760 WEST SUNSET BLVD.,HOLLYWOOD,CA,90027,"http://maps.google.com/maps?q=4760 WEST SUNSET BLVD.,+HOLLYWOOD,+CA+90027&hl=en"
LOS ANGELES PD (KAISER),KAISER PERMANENTE SOUTH BAY MED. CTR. PARHAM NEBEGH 6266286241,"25825 S. VERMONT AVE., PARKVIEW BLDG.",HARBOR CITY,CA,90710,"http://maps.google.com/maps?q=25825 S. VERMONT AVE., PARKVIEW BLDG.,+HARBOR CITY,+CA+90710&hl=en"
LOS ANGELES PD (KAISER),KAISER PERMANENTE WEST LOS ANGELES MEDICAL CTR. SUNNY LEE 8187938455,6041 CADILLAC AV. (24 HR. PHARM. CIRCLE),LOS ANGELES,CA,90034,"http://maps.google.com/maps?q=6041 CADILLAC AV. (24 HR. PHARM. CIRCLE),+LOS ANGELES,+CA+90034&hl=en"
LOS ANGELES PD (KAISER),KAISER PERMANENTE WOODLAND HILLS MEDICAL CENTER ROBERT DEAMER 8052364941,5601 DE SOTO AVENUE,WOODLAND HILLS,CA,91367,"http://maps.google.com/maps?q=5601 DE SOTO AVENUE,+WOODLAND HILLS,+CA+91367&hl=en"
MANHATTAN BEACH POLICE DEPARTMENT,MANHATTAN BEACH POLICE DEPARTMENT CONFERENCE ROOM,420 15TH ST,MANHATTAN BEACH,CA,90266,"http://maps.google.com/maps?q=420 15TH ST,+MANHATTAN BEACH,+CA+90266&hl=en"
MONTCLAIR POLICE DEPARTMENT,MONTCLAIR POLICE DEPARTMENT FRONT LOBBY,4870 ARROW HIGHWAY,MONTCLAIR,CA,91763,"http://maps.google.com/maps?q=4870 ARROW HIGHWAY,+MONTCLAIR,+CA+91763&hl=en"
MOORPARK POLICE DEPARTMENT,MOORPARK POLICE DEPT. LOBBY,610 SPRING RD.,MOORPARK,CA,93021,"http://maps.google.com/maps?q=610 SPRING RD.,+MOORPARK,+CA+93021&hl=en"
MURRIETA POLICE DEPARTMENT,MURRIETA POLICE DEPARTMENT LOBBY,2 TOWN SQUARE,MURRIETA,CA,92562,"http://maps.google.com/maps?q=2 TOWN SQUARE,+MURRIETA,+CA+92562&hl=en"
NATIONAL CITY POLICE DEPARTMENT,NATIONAL CITY POLICE DEPARTMENT,1200 NATIONAL CITY BLVD.,NATIONAL CITY,CA,91950,"http://maps.google.com/maps?q=1200 NATIONAL CITY BLVD.,+NATIONAL CITY,+CA+91950&hl=en"
NAVAL HOSPITAL CAMP PENDLETON,"MCB CAMP PENDLETON ACTIVE DUTY, RETIRED, BENEFICIARIES AND STAFF",SAN ONOFRE MCX --51096 BASILONE RD.,SAN CLEMENTE,CA,92672,"http://maps.google.com/maps?q=SAN ONOFRE MCX  --,+SAN CLEMENTE,+CA+92672&hl=en"
NAVAL MEDICAL CENTER SAN DIEGO,"MCAS MIRAMAR EXCHANGE MILITARY (ACTIVE, RETIRED, AND BENEFICIARIES) AND STAFF ONLY",BUILDING #2660 ELROD AVENUE,SAN DIEGO,CA,92145,"http://maps.google.com/maps?q=BUILDING #2660 ELROD AVENUE,+SAN DIEGO,+CA+92145&hl=en"
NAVAL MEDICAL CENTER SAN DIEGO,"NAVAL BASE SAN DIEGO, NAVY EXCHANGE 32ND ST. MILITARY (ACTIVE, RETIRED, AND BENEFICIARIES) AND STAFF ONLY",2260 CALLAGAN HWY- LOCATED IN THE NEX PARKING LOT NEXT TO CALLAGAN HWY GATE,SAN DIEGO,CA,92136,"http://maps.google.com/maps?q=2260 CALLAGAN HWY,+SAN DIEGO,+CA+92136&hl=en"
NAVAL MEDICAL CENTER SAN DIEGO,"NAVAL MEDICAL CENTER SAN DIEGO (BALBOA) MILITARY (ACTIVE, RETIRED, AND BENEFICIARIES) AND STAFF ONLY",34800 BOB WILSON DRIVE- BAXTER CIRCLE (SUBWAY CIRCLE) BETWEEN BLDG 2 & 3,SAN DIEGO,CA,92134,"http://maps.google.com/maps?q=34800 BOB WILSON DRIVE,+SAN DIEGO,+CA+92134&hl=en"
NEWPORT BEACH POLICE DEPARTMENT,HOAG HOSPITAL LOWER CAMPUS PARKING LOT,1 HOAG ROAD,NEWPORT BEACH,CA,92663,"http://maps.google.com/maps?q=1 HOAG ROAD,+NEWPORT BEACH,+CA+92663&hl=en"
NEWPORT BEACH POLICE DEPARTMENT,OASIS SENIOR CENTER PARKING LOT,801 NARCISSUS AVE,CORONA DEL MAR,CA,92625,"http://maps.google.com/maps?q=801 NARCISSUS AVE,+CORONA DEL MAR,+CA+92625&hl=en"
OCEANSIDE POLICE DEPARTMENT,TRI-CITY MEDICAL CENTER,4002 VISTA WAY,OCEANSIDE,CA,92056,"http://maps.google.com/maps?q=4002 VISTA WAY,+OCEANSIDE,+CA+92056&hl=en"
ONTARIO POLICE DEPARTMENT,ONTARIO POLICE DEPARTMENT FRONT LOBBY,2500 S. ARCHIBALD AVE,ONTARIO,CA,91761,"http://maps.google.com/maps?q=2500 S. ARCHIBALD AVE,+ONTARIO,+CA+91761&hl=en"
ONTARIO POLICE DEPARTMENT,ONTARIO SENIOR CENTER,225 E. B STREET,ONTARIO,CA,91762,"http://maps.google.com/maps?q=225 E. B STREET,+ONTARIO,+CA+91762&hl=en"
ORANGE COUNTY SHERIFF'S DEPARTMENT,LAGUNA HILLS CITY HALL BOLDHAM@OCSD.ORG,24035 EL TORO ROAD,LAGUNA HILLS,CA,92653,"http://maps.google.com/maps?q=24035 EL TORO ROAD,+LAGUNA HILLS,+CA+92653&hl=en"
ORANGE COUNTY SHERIFF'S DEPARTMENT,LAGUNA WOODS CITY HALL MPIXOMATIS@OCSD.ORG,24264 EL TORO RD.,LAGUNA WOODS,CA,92637,"http://maps.google.com/maps?q=24264 EL TORO  RD.,+LAGUNA WOODS,+CA+92637&hl=en"
ORANGE COUNTY SHERIFF'S DEPARTMENT,LAKE FOREST CITY HALL RRAMILLANO@OCSD.ORG,25550 COMMERCE CENTRE DR,LAKE FOREST,CA,92630,"http://maps.google.com/maps?q=25550 COMMERCE CENTRE DR,+LAKE FOREST,+CA+92630&hl=en"
ORANGE COUNTY SHERIFF'S DEPARTMENT,MISSION VIEJO CITY HALL PMONICAL@OCSD.ORG,200 CIVIC CENTER,MISSION VIEJO,CA,92692,"http://maps.google.com/maps?q=200 CIVIC CENTER,+MISSION VIEJO,+CA+92692&hl=en"
ORANGE COUNTY SHERIFF'S DEPARTMENT,RANCHO SANTA MARGARITA CITY HALL,22112 EL PASEO,RANCHO SANTA MARGARITA,CA,92688,"http://maps.google.com/maps?q=22112 EL PASEO,+RANCHO SANTA MARGARITA,+CA+92688&hl=en"
ORANGE COUNTY SHERIFF'S DEPARTMENT,ROSSMOOR RUSH PARK,3021 BLUME DR.,ROSSMOOR,CA,90720,"http://maps.google.com/maps?q=3021 BLUME DR.,+ROSSMOOR,+CA+90720&hl=en"
ORANGE COUNTY SHERIFF'S DEPARTMENT,SAN JUAN CAPISTRANO CITY HALL CCORLEY@OCSD.ORG,32400 PASEO ADELANTO,SAN JUAN CAPISTRANO,CA,92675,"http://maps.google.com/maps?q=32400 PASEO ADELANTO,+SAN JUAN CAPISTRANO,+CA+92675&hl=en"
ORANGE COUNTY SHERIFF'S DEPARTMENT,WALTER HEAD START CENTER PARKING LOT,9200 PACIFIC PLACE,ANAHEIM,CA,92804,"http://maps.google.com/maps?q=9200 PACIFIC PLACE,+ANAHEIM,+CA+92804&hl=en"
ORANGE COUNTY SHERIFF'S DEPARTMENT,YORBA LINDA COMMUNITY CENTER KBOYD@OCSD.ORG,4501 CASA LOMA AVE,YORBA LINDA,CA,92886,"http://maps.google.com/maps?q=4501 CASA LOMA AVE,+YORBA LINDA,+CA+92886&hl=en"
ORANGE POLICE DEPARTMENT,CITY OF ORANGE CITY HALL PARKING LOT,360 E. CHAPMAN,ORANGE,CA,92866,"http://maps.google.com/maps?q=360 E. CHAPMAN,+ORANGE,+CA+92866&hl=en"
PALOS VERDES ESTATES POLICE DEPARTMENT,PALO VERDES ESTATES POLICE DEPARTMENT DRIVE THRU,340 PALO VERDES DRIVE W.,PALOS VERDES PENINSULA,CA,90274,"http://maps.google.com/maps?q=340 PALO VERDES DRIVE W.,+PALOS VERDES PENINSULA,+CA+90274&hl=en"
PASADENA POLICE DEPARTMENT,PASADENA POLICE DEPARTMENT IN FRONT OF LOBBY,207 GARFIELD AVE,PASADENA,CA,91101,"http://maps.google.com/maps?q=207 GARFIELD AVE,+PASADENA,+CA+91101&hl=en"
POMONA POLICE DEPARTMENT,POMONA POLICE DEPARTMENT FRONT LOBBY,490 MISSION BLVD,POMONA,CA,91766,"http://maps.google.com/maps?q=490 MISSION BLVD,+POMONA,+CA+91766&hl=en"
PORT HUENEME POLICE DEPARTMENT,PORT HUENEME POLICE DEPARTMENT LOBBY,250 NORTH VENTURA ROAD,PORT HUENEME,CA,93041,"http://maps.google.com/maps?q=250 NORTH VENTURA ROAD,+PORT HUENEME,+CA+93041&hl=en"
REDONDO BEACH POLICE DEPARTMENT,REDONDO BEACH POLICE ANNEX PARKING LOT OFF VINCENT STREET,200 N. PACIFIC COAST HWY,REDONDO BEACH,CA,90277,"http://maps.google.com/maps?q=200 N. PACIFIC COAST HWY,+REDONDO BEACH,+CA+90277&hl=en"
RIVERSIDE COUNTY SHERIFF'S DEPARTMENT,HEMET SHERIFF'S STATION STATION LOBBY,"43950 ACACIA AVE., SUITE B",HEMET,CA,92544,"http://maps.google.com/maps?q=43950 ACACIA AVE.,  SUITE B,+HEMET,+CA+92544&hl=en"
RIVERSIDE COUNTY SHERIFF'S DEPARTMENT,JURUPA VALLEY SHERIFF'S STATION STATION LOBBY,7477 MISSION BLVD.,RIVERSIDE,CA,92509,"http://maps.google.com/maps?q=7477 MISSION BLVD.,+RIVERSIDE,+CA+92509&hl=en"
RIVERSIDE COUNTY SHERIFF'S DEPARTMENT,LAKE ELSINORE SHERIFF'S STATION STATION LOBBY,333 LIMITED AVE,LAKE ELSINORE,CA,92530,"http://maps.google.com/maps?q=333 LIMITED AVE,+LAKE ELSINORE,+CA+92530&hl=en"
RIVERSIDE COUNTY SHERIFF'S DEPARTMENT,MORENO VALLEY POLICE DEPARTMENT STATION LOBBY,22850 CALLE SAN JUAN DE LOS LAGOS,MORENO VALLEY,CA,92552,"http://maps.google.com/maps?q=22850 CALLE SAN JUAN DE LOS LAGOS,+MORENO VALLEY,+CA+92552&hl=en"
RIVERSIDE COUNTY SHERIFF'S DEPARTMENT,"PALM DESERT SHERIFF'S STATION POC: LT. JIM ARMSTRONG, 951-755-1705",73705 GERALD FORD DRIVE,PALM DESERT,CA,92260,"http://maps.google.com/maps?q=73705 GERALD FORD DRIVE,+PALM DESERT,+CA+92260&hl=en"
RIVERSIDE COUNTY SHERIFF'S DEPARTMENT,PERRIS SHERIFF'S STATION DEP. CRAWFORD 9512101132,137 N. PERRIS BLVD.SUITE A,PERRIS,CA,92570,"http://maps.google.com/maps?q=137 N. PERRIS BLVD.,+PERRIS,+CA+92570&hl=en"
RIVERSIDE COUNTY SHERIFF'S DEPARTMENT,SOUTHWEST RIVERSIDE SHERIFF'S STATION STATION LOBBY,30755-A AULD ROAD,MURRIETA,CA,92563,"http://maps.google.com/maps?q=30755-A AULD ROAD,+MURRIETA,+CA+92563&hl=en"
RIVERSIDE P.D. (KAISER),KAISER HOSPITAL PARKING LOT,10800 MAGNOLIA AVENUE (NW CORNER),RIVERSIDE,CA,92505,"http://maps.google.com/maps?q=10800 MAGNOLIA AVENUE (NW CORNER),+RIVERSIDE,+CA+92505&hl=en"
SAN BERNARDINO CTY SHERIFF DEPT,APPLE VALLEY STATION (LOBBY) LAURA MARKS 7602407400 XT 7443,14931 DALE EVANS PARKWAY,APPLE VALLEY,CA,92307,"http://maps.google.com/maps?q=14931 DALE EVANS PARKWAY,+APPLE VALLEY,+CA+92307&hl=en"
SAN BERNARDINO CTY SHERIFF DEPT,HESPERIA STATION (LOBBY) DEP. GREG LUGO 7609471500,15840 SMOKE TREE STREET,HESPERIA,CA,92345,"http://maps.google.com/maps?q=15840 SMOKE TREE STREET,+HESPERIA,+CA+92345&hl=en"
SAN BERNARDINO CTY SHERIFF DEPT,HIGHLAND STATION LEE GUERRA 9094259793,26985 BASELINE ROAD,HIGHLAND,CA,92346,"http://maps.google.com/maps?q=26985 BASELINE ROAD,+HIGHLAND,+CA+92346&hl=en"
SAN BERNARDINO CTY SHERIFF DEPT,MORONGO SHERIFF STATION JOE PARKER 9094539396,63665 TWENTYNINE PALMS HWY,JOSHUA TREE,CA,92252,"http://maps.google.com/maps?q=63665 TWENTYNINE PALMS HWY,+JOSHUA TREE,+CA+92252&hl=en"
SAN BERNARDINO CTY SHERIFF DEPT,PHELAN SHERIFF STATION 7608681006 JOE PARKER,4050 PHELAN RD,PHELAN,CA,92371,"http://maps.google.com/maps?q=4050 PHELAN RD,+PHELAN,+CA+92371&hl=en"
SAN BERNARDINO CTY SHERIFF DEPT,RANCHO CUCAMONGA STATION DET. JOHN NABRY 9094772854,10510 CIVIC CENTER DRIVE,RANCHO CUCAMONGA,CA,91730,"http://maps.google.com/maps?q=10510 CIVIC CENTER DRIVE,+RANCHO CUCAMONGA,+CA+91730&hl=en"
SAN BERNARDINO CTY SHERIFF DEPT,VICTORVILLE STATION (LOBBY) KEVIN DOWDEY 7602412911,909938333814200 AMARGOSA RD.,VICTORVILLE,CA,92392,"http://maps.google.com/maps?q=9099383338,+VICTORVILLE,+CA+92392&hl=en"
SAN DIEGO COMMUNITY COLLEGE DISTRICT,MESA COLLEGE CAMPUS POLICE SUBSTATION,7250 MESA COLLEGE DR.#Q-100,SAN DIEGO,CA,92111,"http://maps.google.com/maps?q=7250 MESA COLLEGE DR.,+SAN DIEGO,+CA+92111&hl=en"
SAN DIEGO DISTRICT ATTORNEY INVESTIGATORS,SAN DIEGO DISTRICT ATTORNEY'S OFFICE HALL OF JUSTICE,330 W BROADWAY,SAN DIEGO,CA,92101,"http://maps.google.com/maps?q=330 W BROADWAY,+SAN DIEGO,+CA+92101&hl=en"
SAN DIEGO POLICE DEPARTMENT,KAISER PERMANENTE OTAY MESA PHARMACY,4650 PALM AVENUE,SAN DIEGO,CA,92154,"http://maps.google.com/maps?q=4650 PALM AVENUE,+SAN DIEGO,+CA+92154&hl=en"
SAN DIEGO POLICE DEPARTMENT,SAN DIEGO POLICE DEPT CENTRAL DIVISION,2501 IMPERIAL AVE.,SAN DIEGO,CA,92102,"http://maps.google.com/maps?q=2501 IMPERIAL AVE.,+SAN DIEGO,+CA+92102&hl=en"
SAN DIEGO POLICE DEPARTMENT,SAN DIEGO POLICE DEPT EASTERN DIVISION FRONT LOT,9225 AERO DRIVE,SAN DIEGO,CA,92123,"http://maps.google.com/maps?q=9225 AERO DRIVE,+SAN DIEGO,+CA+92123&hl=en"
SAN DIEGO POLICE DEPARTMENT,SAN DIEGO POLICE DEPT MID-CITY DIVISION BEHIND STATION @ 43RD & WIGHTMAN),4310 LANDIS STREET,SAN DIEGO,CA,92105,"http://maps.google.com/maps?q=4310 LANDIS STREET,+SAN DIEGO,+CA+92105&hl=en"
SAN DIEGO POLICE DEPARTMENT,SAN DIEGO POLICE DEPT NORTHERN DIVISION,4275 EASTGATE MALL,LA JOLLA,CA,92037,"http://maps.google.com/maps?q=4275 EASTGATE MALL,+LA JOLLA,+CA+92037&hl=en"
SAN DIEGO POLICE DEPARTMENT,SAN DIEGO POLICE DEPT NORTHWESTERN DIVISION,12592 EL CAMINO REAL,SAN DIEGO,CA,92130,"http://maps.google.com/maps?q=12592 EL CAMINO REAL,+SAN DIEGO,+CA+92130&hl=en"
SAN DIEGO POLICE DEPARTMENT,SAN DIEGO POLICE DEPT SOUTHEASTERN DIVISION FRONT LOT,7222 SKYLINE DRIVE,SAN DIEGO,CA,92114,"http://maps.google.com/maps?q=7222 SKYLINE DRIVE,+SAN DIEGO,+CA+92114&hl=en"
SAN DIEGO POLICE DEPARTMENT,SAN DIEGO POLICE DEPT WESTERN DIVISION,5215 GAINES STREET,SAN DIEGO,CA,92110,"http://maps.google.com/maps?q=5215 GAINES STREET,+SAN DIEGO,+CA+92110&hl=en"
SAN DIEGO PROBATION,JUVENILE HALL,2801 MEADOW LARK DR.,SAN DIEGO,CA,92123,"http://maps.google.com/maps?q=2801 MEADOW LARK DR.,+SAN DIEGO,+CA+92123&hl=en"
SAN DIEGO SHERIFF'S DEPARTMENT,ALBERTSONS PARKING LOT,1459 MAIN STREET,RAMONA,CA,92065,"http://maps.google.com/maps?q=1459 MAIN STREET,+RAMONA,+CA+92065&hl=en"
SAN DIEGO SHERIFF'S DEPARTMENT,ALPINE SHERIFF'S STATION,2751 ALPINE BLVD.,ALPINE,CA,91901,"http://maps.google.com/maps?q=2751 ALPINE BLVD.,+ALPINE,+CA+91901&hl=en"
SAN DIEGO SHERIFF'S DEPARTMENT,IMPERIAL BEACH SHERIFF'S STATION,845 IMPERIAL BEACH BLVD.,IMPERIAL BEACH,CA,91932,"http://maps.google.com/maps?q=845 IMPERIAL BEACH BLVD.,+IMPERIAL BEACH,+CA+91932&hl=en"
SAN DIEGO SHERIFF'S DEPARTMENT,KAISER SAN MARCOS PHARMACY,400 CRAVEN RD.,SAN MARCOS,CA,92069,"http://maps.google.com/maps?q=400 CRAVEN RD.,+SAN MARCOS,+CA+92069&hl=en"
SAN DIEGO SHERIFF'S DEPARTMENT,LEMON GROVE SHERIFF'S STATION,3240 MAIN STREET,LEMON GROVE,CA,91945,"http://maps.google.com/maps?q=3240 MAIN STREET,+LEMON GROVE,+CA+91945&hl=en"
SAN DIEGO SHERIFF'S DEPARTMENT,RANCHO SAN DIEGO SHERIFF'S STATION,11486 CAMPO RD.,SPRING VALLEY,CA,91978,"http://maps.google.com/maps?q=11486 CAMPO RD.,+SPRING VALLEY,+CA+91978&hl=en"
SAN DIEGO SHERIFF'S DEPARTMENT,SCRIPPS ENCINITAS HOSPITAL,354 SANTA FE DR.,ENCINITAS,CA,92024,"http://maps.google.com/maps?q=354 SANTA FE DR.,+ENCINITAS,+CA+92024&hl=en"
SAN DIEGO SHERIFF'S DEPARTMENT,SHERIFF'S FALLBROOK PATROL STATION,388 EAST ALVARADO ST,FALLBROOK,CA,92028,"http://maps.google.com/maps?q=388 EAST ALVARADO ST,+FALLBROOK,+CA+92028&hl=en"
SAN DIEGO SHERIFF'S DEPARTMENT,SHERIFF'S POWAY PATROL STATION,13100 BOWRON RD.,POWAY,CA,92064,"http://maps.google.com/maps?q=13100 BOWRON RD.,+POWAY,+CA+92064&hl=en"
SAN DIEGO SHERIFF'S DEPARTMENT,WALGREENS PARKING LOT,310 SYCAMORE AVE.,VISTA,CA,92083,"http://maps.google.com/maps?q=310 SYCAMORE AVE.,+VISTA,+CA+92083&hl=en"
SAN DIEGO SHERIFF'S DEPARTMENT,WALGREENS PARKING LOT,9305 MISSION GORGE RD,SANTEE,CA,92071,"http://maps.google.com/maps?q=9305 MISSION GORGE RD,+SANTEE,+CA+92071&hl=en"
SAN DIEGO SHERIFF'S DEPARTMENT,WALGREENS PARKING LOT,9728 WINTER GARDENS BLVD,LAKESIDE,CA,92040,"http://maps.google.com/maps?q=9728 WINTER GARDENS BLVD,+LAKESIDE,+CA+92040&hl=en"
SAN DIEGO STATE UNIVERSITY,SDSU PARKING INFORMATION BOOTH VIA COLLEGE AVE AT I-8,6095 CANYON CREST DRIVE,SAN DIEGO,CA,92182,"http://maps.google.com/maps?q=6095 CANYON CREST DRIVE,+SAN DIEGO,+CA+92182&hl=en"
SAN GABRIEL POLICE DEPARTMENT,SAN GABRIEL POLICE DEPARTMENT IN FRONT OF POLICE STATION,625 SOUTH DEL MAR AVE.,SAN GABRIEL,CA,91776,"http://maps.google.com/maps?q=625 SOUTH DEL MAR AVE.,+SAN GABRIEL,+CA+91776&hl=en"
SAN LUIS POLICE DEPARTMENT,SAN LUIS POLICE DEPARTMENT PARKING LOT,1030 E UNION STREET,SAN LUIS,AZ,85349,"http://maps.google.com/maps?q=1030 E UNION STREET,+SAN LUIS,+AZ+85349&hl=en"
SANTA ANA POLICE DEPARTMENT,WESTEND OFFICE LOBBY,3750 WEST MCFADDEN AVE.UNIT I,SANTA ANA,CA,92704,"http://maps.google.com/maps?q=3750 WEST MCFADDEN AVE.,+SANTA ANA,+CA+92704&hl=en"
SANTA MONICA P.D.,SANTA MONICA P.D. OUTSIDE CURB,333 OLYMPIC DR.,SANTA MONICA,CA,90401,"http://maps.google.com/maps?q=333 OLYMPIC DR.,+SANTA MONICA,+CA+90401&hl=en"
SEAL BEACH POLICE DEPARTMENT,LEISURE WORLD MAIN GATE,13533 SEAL BEACH BL.,SEAL BEACH,CA,90740,"http://maps.google.com/maps?q=13533 SEAL BEACH BL.,+SEAL BEACH,+CA+90740&hl=en"
SIGNAL HILL POLICE DEPARTMENT,SIGNAL HILL POLICE DEPARTMENT IN LOBBY,2745 WALNUT AVENUE,SIGNAL HILL,CA,90755,"http://maps.google.com/maps?q=2745 WALNUT AVENUE,+SIGNAL HILL,+CA+90755&hl=en"
SIMI VALLEY POLICE DEPT.,SIMI VALLEY POLICE DEPT. PARKING LOT,3901 ALAMO ST.,SIMI VALLEY,CA,93063,"http://maps.google.com/maps?q=3901 ALAMO ST.,+SIMI VALLEY,+CA+93063&hl=en"
SOUTH PASADENA POLICE DEPARTMENT,SOUTH PASADENA POLICE DEPARTMENT COURTYARD,1422 MISSION ST.,SOUTH PASADENA,CA,91030,"http://maps.google.com/maps?q=1422 MISSION ST.,+SOUTH PASADENA,+CA+91030&hl=en"
TORRANCE POLICE DEPARTMENT,TORRANCE POLICE DEPARTMENT TORRANCE PD PARKING LOT,3300 CIVIC CENTER DRIVE,TORRANCE,CA,90503,"http://maps.google.com/maps?q=3300 CIVIC CENTER DRIVE,+TORRANCE,+CA+90503&hl=en"
TUSTIN POLICE DEPARTMENT,TUSTIN POLICE DEPARTMENT COMMUNITY CENTER,300 CENTENNIAL WAY,TUSTIN,CA,92780,"http://maps.google.com/maps?q=300 CENTENNIAL WAY,+TUSTIN,+CA+92780&hl=en"
TWENTYNINE PALMS MARINE BASE,MARINE CORPS EXCHANGE,BUILDING 1502,TWENTYNINE PALMS,CA,92277,"http://maps.google.com/maps?q=BUILDING 1502,+TWENTYNINE PALMS,+CA+92277&hl=en"
U.C.IRVINE P.D.,UNIVERSITY HILLS COMMUNITY CTR. PARKING LOT,1083 CALIFORNIA AVE.,IRVINE,CA,92617,"http://maps.google.com/maps?q=1083 CALIFORNIA AVE.,+IRVINE,+CA+92617&hl=en"
UPLAND POLICE DEPARTMENT,UPLAND POLICE DEPARTMENT TRAINING ROOM OFF LOBBY,1499 W. 13TH ST.,UPLAND,CA,91786,"http://maps.google.com/maps?q=1499 W. 13TH ST.,+UPLAND,+CA+91786&hl=en"
VENTURA COUNTY SHERIFF HQ STATION,MOORPARK PD SGT. DARIN HENDREN,610 SPRING ROAD,MOORPARK,CA,93021,"http://maps.google.com/maps?q=610 SPRING ROAD,+MOORPARK,+CA+93021&hl=en"
VETERANS ADMINISTRATION POLICE,VETERAN'S ADMINISTRATION HOSPITAL,3350 LA JOLLA VILLAGE DR.,SAN DIEGO,CA,92161,"http://maps.google.com/maps?q=3350 LA JOLLA VILLAGE DR.,+SAN DIEGO,+CA+92161&hl=en"
WESTMINSTER POLICE DEPARTMENT,WESTMINSTER POLICE DEPT. / CITY HALL PARKING LOT,8200 WESTMINSTER BLVD.,WESTMINSTER,CA,92683,"http://maps.google.com/maps?q=8200 WESTMINSTER BLVD.,+WESTMINSTER,+CA+92683&hl=en"
WHITTIER POLICE DEPARTMENT,WHITTIER CITY HALL DROP OFF/DRIVE BY,13230 PENN ST.,WHITTIER,CA,90602,"http://maps.google.com/maps?q=13230 PENN ST.,+WHITTIER,+CA+90602&hl=en"
