Participant,CollectionSite,Address,City,State,Zip,MapURL
15TH DRUG TASK FORCE,DANVILLE POLICE DEPARTMENT,1299 EAST 8TH STREET,DANVILLE,AR,72833,"http://maps.google.com/maps?q=1299 EAST 8TH STREET,+DANVILLE,+AR+72833&hl=en"
18TH WEST JUDICIAL DRUG TASK FORCE,"MONTGOMERY COUNTY SHERIFF'S OFFICE 
												
													PERMANENT DROP BOX",105 HWY 270 EAST#9,MOUNT IDA,AR,71957,"http://maps.google.com/maps?q=105 HWY 270 EAST,+MOUNT IDA,+AR+71957&hl=en"
18TH WEST JUDICIAL DRUG TASK FORCE,NORMAN FIRST BAPTIST CHURCH,205 GOLF COURSE ROAD,NORMAN,AR,71960,"http://maps.google.com/maps?q=205 GOLF COURSE ROAD,+NORMAN,+AR+71960&hl=en"
19TH SECURITY FORCES SQUADRON,19TH SECURITY FORCES SQUADRON,481 CANNON DRIVE,LITTLE ROCK AIR FORCE BASE,AR,72099,"http://maps.google.com/maps?q=481 CANNON DRIVE,+LITTLE ROCK AIR FORCE BASE,+AR+72099&hl=en"
1ST JUDICIAL DISTRICT DRUG TASK FORCE,"1ST JUDICIAL DISTRICT DRUG TASK FORCE 
												
													PERMANENT DROP BOX",113 S. MAIN ST.,CLARENDON,AR,72029,"http://maps.google.com/maps?q=113 S. MAIN ST.,+CLARENDON,+AR+72029&hl=en"
20TH JUDICIAL DISCTICT DRUG CRIME TASK FORCE,"20TH JUDICIAL DRUG CRIME TASK FORCE 
												
													PERMANENT DROP BOX",P.O.BOX 550,CONWAY,AR,72033,"http://maps.google.com/maps?q=P.O.BOX 550,+CONWAY,+AR+72033&hl=en"
20TH JUDICIAL DISCTICT DRUG CRIME TASK FORCE,GOODE'S CASH SAVER FOOD STORE,129 BONE ST.,CLINTON,AR,72031,"http://maps.google.com/maps?q=129 BONE ST.,+CLINTON,+AR+72031&hl=en"
5TH DRUG TASK FORCE,"PARTY IN THE PARK 
												
													RIVER VALLEY ARTS CENTER",1001 EAST B STREET,RUSSELLVILLE,AR,72801,"http://maps.google.com/maps?q=1001 EAST B STREET,+RUSSELLVILLE,+AR+72801&hl=en"
ADAMS COUNTY SHERIFF'S OFFICE - SPECIAL OPERATIONS,ADAMS COUNTY SHERIFF'S OFFICE - SPECIAL OPERATIONS,306 STATE ST.,NATCHEZ,MS,39120,"http://maps.google.com/maps?q=306 STATE ST.,+NATCHEZ,+MS+39120&hl=en"
ALABAMA COUSHATTA POLICE DEPARTMENT,ALABAMA COUSHATTA POLICE DEPARTMENT,571 STATE PARK ROAD 56,LIVINGSTON,TX,77351,"http://maps.google.com/maps?q=571 STATE PARK ROAD 56,+LIVINGSTON,+TX+77351&hl=en"
ALEXANDRIA CITY MARSHAL'S OFFICE,ALEXANDRIA CITY MARSHAL'S OFFICE,515 WASHINGTON STREET,ALEXANDRIA,LA,71301,"http://maps.google.com/maps?q=515 WASHINGTON STREET,+ALEXANDRIA,+LA+71301&hl=en"
ALEXANDRIA POLICE DEPARTMENT,ALEXANDRIA POLICE DEPARTMENT,1000 BOLTON AVE,ALEXANDRIA,LA,71301,"http://maps.google.com/maps?q=1000 BOLTON AVE,+ALEXANDRIA,+LA+71301&hl=en"
ANGELINA COUNTY SHERRIFF'S OFFICE,ANGELINA COUNTY SHERRIFF'S OFFICE,2311 E. LUFKIN AVENUE,LUFKIN,TX,75901,"http://maps.google.com/maps?q=2311 E. LUFKIN AVENUE,+LUFKIN,+TX+75901&hl=en"
ARKADELPHIA POLICE DEPARTMENT,CLARK COUNTY COURTHOUSE,401 CLAY STREET,ARKADELPHIA,AR,71923,"http://maps.google.com/maps?q=401 CLAY STREET,+ARKADELPHIA,+AR+71923&hl=en"
ARNAUDVILLE POLICE DEPARTMENT,COURTNEY THRIFTYWAY PHARMACY,412 OLIVE STREET,ARNAUDVILLE,LA,70512,"http://maps.google.com/maps?q=412 OLIVE STREET,+ARNAUDVILLE,+LA+70512&hl=en"
ASHDOWN POLICE DEPARTMENT,"ASHDOWN POLICE DEPARTMENT 
												
													PERMANENT DROP BOX",745 SOUTH LOCUST STREET,ASHDOWN,AR,71822,"http://maps.google.com/maps?q=745 SOUTH LOCUST STREET,+ASHDOWN,+AR+71822&hl=en"
BARTLETT PD,"KROGER 
												
													HWY 70 / APPLING RD",7615 HWY 70,BARTLETT,TN,38133,"http://maps.google.com/maps?q=7615 HWY 70,+BARTLETT,+TN+38133&hl=en"
BATESVILLE POLICE DEPARTMENT,BATESVILLE POLICE DEPARTMENT,106 COLLEGE STREET,BATESVILLE,MS,38606,"http://maps.google.com/maps?q=106 COLLEGE STREET,+BATESVILLE,+MS+38606&hl=en"
BATON ROUGE PD,BATON ROUGE PD,9000 AIRLINE HWY,BATON ROUGE,LA,70815,"http://maps.google.com/maps?q=9000 AIRLINE HWY,+BATON ROUGE,+LA+70815&hl=en"
BAYTOWN POLICE DEPARTMENT,BAYTOWN POLICE DEPARTMENT,3200 NORTH MAIN STREET,BAYTOWN,TX,77521,"http://maps.google.com/maps?q=3200 NORTH MAIN STREET,+BAYTOWN,+TX+77521&hl=en"
BEAUMONT ROGERS PARK,ROGERS PARK,1455 DOWLEN ROAD,BEAUMONT,TX,77706,"http://maps.google.com/maps?q=1455 DOWLEN ROAD,+BEAUMONT,+TX+77706&hl=en"
BEAUREGARD PARISH SHERIFF'S DEPARTMENT,BEAUREGARD PARISH SHERIFF'S DEPARTMENT,412 BOLIVAR BISHOP DRIVE,DERIDDER,LA,70634,"http://maps.google.com/maps?q=412 BOLIVAR BISHOP DRIVE,+DERIDDER,+LA+70634&hl=en"
BEAUREGARD PARISH SHERIFF'S OFFICE,BEAUREGARD S.O,412 BOLIVER DISHOP DR.,DERIDDER,LA,70634,"http://maps.google.com/maps?q=412 BOLIVER DISHOP DR.,+DERIDDER,+LA+70634&hl=en"
BENTON POLICE DEPARTMENT,"BENTON POLICE DEPARTMENT 
												
													PERMANENT DROP BOX",114 S. EAST STREET #100,BENTON,AR,72015,"http://maps.google.com/maps?q=114 S. EAST STREET #100,+BENTON,+AR+72015&hl=en"
BENTON POLICE DEPARTMENT,"FERGUSON'S FURNITURE 
												
													PARKING LOT",1200 FERGUSON DRIVE,BENTON,AR,72015,"http://maps.google.com/maps?q=1200 FERGUSON DRIVE,+BENTON,+AR+72015&hl=en"
BOONEVILLE POLICE DEPARTMENT,"BOONEVILLE POLICE DEPARTMENT 
												
													PERMANENT DROP BOX",497 EAST MAIN ST.,BOONEVILLE,AR,72927,"http://maps.google.com/maps?q=497 EAST MAIN ST.,+BOONEVILLE,+AR+72927&hl=en"
BRADLEY COUNTY SHERIFF'S OFFICE,"BRADLEY COUNTY SHERIFF'S OFFICE 
												
													PERMANENT DROP BOX",101 EAST CEDAR ST,WARREN,AR,71671,"http://maps.google.com/maps?q=101 EAST CEDAR ST,+WARREN,+AR+71671&hl=en"
BROUSSARD POLICE DEPARTMENT,"WALGREENS 
												
													PARKING LOT",105 ST. NAZAIRE,BROUSSARD,LA,70518,"http://maps.google.com/maps?q=105 ST. NAZAIRE,+BROUSSARD,+LA+70518&hl=en"
BRYANT POLICE DEPARTMENT,"BRYANT POLICE DEPARTMENT 
												
													PERMANENT DROP BOX",312 ROYA LANE,BRYANT,AR,72022,"http://maps.google.com/maps?q=312 ROYA LANE,+BRYANT,+AR+72022&hl=en"
BRYANT POLICE DEPARTMENT,WALMART,400 BRYANT AVE,BRYANT,AR,72022,"http://maps.google.com/maps?q=400 BRYANT AVE,+BRYANT,+AR+72022&hl=en"
CABOT POLICE DEPARTMENT,"CABOT POLICE DEPARTMENT 
												
													PERMANENT DROP BOX",101 NORTH SECOND STREET,CABOT,AR,72023,"http://maps.google.com/maps?q=101 NORTH SECOND STREET,+CABOT,+AR+72023&hl=en"
CADDO PARISH SHERIFF'S OFFICE,SHERIFF'S SAFETY TOWN,8910 JEWELLA AVENUE,SHREVEPORT,LA,71118,"http://maps.google.com/maps?q=8910 JEWELLA AVENUE,+SHREVEPORT,+LA+71118&hl=en"
CAMDEN POLICE DEPARTMENT,CAMDEN POLICE DEPARTMENT,1 POLICE DRIVE,CAMDEN,AR,71701,"http://maps.google.com/maps?q=1 POLICE DRIVE,+CAMDEN,+AR+71701&hl=en"
CAMP ROBINSON DEPARTMENT OF PUBLIC SAFETY,"CAMP ROBINSON DEPARTMENT OF PUBLIC SAFETY 
												
													PERMANENT DROP BOX",7200 ARKANSAS AVE,NORTH LITTLE ROCK,AR,72199,"http://maps.google.com/maps?q=7200 ARKANSAS AVE,+NORTH LITTLE ROCK,+AR+72199&hl=en"
CARLISLE POLICE DEPARTMENT,"CARLISLE POLICE DEPARTMENT 
												
													PERMANENT DROP BOX",120 W. MAIN STREET,CARLISLE,AR,72024,"http://maps.google.com/maps?q=120 W. MAIN STREET,+CARLISLE,+AR+72024&hl=en"
CARROLL COUNTY SHERIFF'S DEPARTMENT,"CARROLL COUNTY SHERIFF'S DEPARTMENT 
												
													PERMANENT DROP BOX",105 EAST WASHINGTON ST.,CARROLLTON,MS,38917,"http://maps.google.com/maps?q=105 EAST WASHINGTON ST.,+CARROLLTON,+MS+38917&hl=en"
CENTRAL POLICE DEPARTMENT,CENTRAL POLICE DEPARTMENT,13421 HOOPER RD STE 6,BATON ROUGE,LA,70818,"http://maps.google.com/maps?q=13421 HOOPER RD STE 6,+BATON ROUGE,+LA+70818&hl=en"
CHITIMACHA TRIBAL POLICE DEPARTMENT,CHITIMACHA FIRE DEPARTMENT,215 COUSHATTA DRIVE,CHARENTON,LA,70523,"http://maps.google.com/maps?q=215 COUSHATTA DRIVE,+CHARENTON,+LA+70523&hl=en"
CLARKSVILLE POLICE DEPARTMENT,"CLARKSVILLE POLICE DEPARTMENT 
												
													PERMANENT DROP BOX",1008 WEST MAIN STREET,CLARKSVILLE,AR,72830,"http://maps.google.com/maps?q=1008 WEST MAIN STREET,+CLARKSVILLE,+AR+72830&hl=en"
CLEBURNE COUNTY SHERIFF'S OFFICE,"CLEBURNE COUNTY SHERIFF'S OFFICE 
												
													PERMANENT DROP BOX",914 SOUTH 9TH STREET,HEBER SPRINGS,AR,72543,"http://maps.google.com/maps?q=914 SOUTH 9TH STREET,+HEBER SPRINGS,+AR+72543&hl=en"
CLINTON POLICE DEPARTMENT,KROGER PHARMACY,107 HIGHWAY 80 E.,CLINTON,MS,39056,"http://maps.google.com/maps?q=107 HIGHWAY 80 E.,+CLINTON,+MS+39056&hl=en"
COLLIERVILLE POLICE DEPARTMENT,COLLIERVILLE POLICE DEPARTMENT,156 N. ROWLETT COLLIERVILLE,COLLIERVILLE,TN,38017,"http://maps.google.com/maps?q=156 N. ROWLETT COLLIERVILLE,+COLLIERVILLE,+TN+38017&hl=en"
CONROE POLICE DEPARTMENT,CONROE POLICE DEPARTMENT,2300 PLANTATION DRIVE,CONROE,TX,77303,"http://maps.google.com/maps?q=2300 PLANTATION DRIVE,+CONROE,+TX+77303&hl=en"
CONWAY POLICE DEPARTMENT,"CONWAY POLICE DEPARTMENT LOBBY 
												
													PERMANENT DROP BOX",1105 PRAIRIE STREET,CONWAY,AR,72032,"http://maps.google.com/maps?q=1105 PRAIRIE STREET,+CONWAY,+AR+72032&hl=en"
CONWAY POLICE DEPARTMENT,KROGER MARKETPLACE,855 SALEM ROAD,CONWAY,AR,72034,"http://maps.google.com/maps?q=855 SALEM ROAD,+CONWAY,+AR+72034&hl=en"
CRITTENDEN COUNTY SHERIFF'S OFFICE,"CRITTENDEN COUNTY SHERIFF'S OFFICE 
												
													PERMANENT DROP BOX",350 AFCO ROAD,WEST MEMPHIS,AR,72301,"http://maps.google.com/maps?q=350 AFCO ROAD,+WEST MEMPHIS,+AR+72301&hl=en"
CROSS COUNTY SHERIFF'S OFFICE,"CROSS COUNTY SHERIFF'S OFFICE 
												
													PERMANENT DROP BOX",704 EAST CANAL ST.,WYNNE,AR,72396,"http://maps.google.com/maps?q=704 EAST CANAL ST.,+WYNNE,+AR+72396&hl=en"
CROSSETT POLICE DEPARTMENT,"CROSSETT POLICE DEPARTMENT 
												
													PERMANENT DROP BOX",307 MAIN STREET,CROSSETT,AR,71635,"http://maps.google.com/maps?q=307 MAIN STREET,+CROSSETT,+AR+71635&hl=en"
DAINGERFIELD PD,SHOPPING CENTER,305 W.M. WATSON BLVD.,DAINGERFIELD,TX,75638,"http://maps.google.com/maps?q=305 W.M. WATSON BLVD.,+DAINGERFIELD,+TX+75638&hl=en"
DALLAS COUNTY SHERIFF'S OFFICE,"DALLAS COUNTY SHERIFF'S OFFICE 
												
													PERMANENT DROP BOX",106 SOUTH CHARLOTTE,FORDYCE,AR,71742,"http://maps.google.com/maps?q=106 SOUTH CHARLOTTE,+FORDYCE,+AR+71742&hl=en"
DARDANELLE POLICE DEPARTMENT,"DARDANELLE POLICE DEPARTMENT 
												
													PERMANENT DROP BOX",2005 HIGHWAY 22,DARDANELLE,AR,72834,"http://maps.google.com/maps?q=2005 HIGHWAY 22,+DARDANELLE,+AR+72834&hl=en"
DE WITT POLICE DEPARTMENT,"DE WITT POLICE DEPARTMENT 
												
													PERMANENT DROP BOX",120 COURT SQUARE,DE WITT,AR,72042,"http://maps.google.com/maps?q=120 COURT SQUARE,+DE WITT,+AR+72042&hl=en"
DEA-JACKSON DISTRICT OFFICE,"DOGWOOD FESTIVAL 
												
													BETWEEN THE STORES OF BELK & OLD NAVY",272 DOGWOOD BLVD.OFF OF HIGHWAY 25; LAKELAND DR.,FLOWOOD,MS,39232,"http://maps.google.com/maps?q=272 DOGWOOD BLVD.,+FLOWOOD,+MS+39232&hl=en"
DERIDDER POLICE DEPARTMENT,DERIDDER PD,200 SOUTH JEFFERSON STREET,DERIDDER,LA,70634,"http://maps.google.com/maps?q=200 SOUTH JEFFERSON STREET,+DERIDDER,+LA+70634&hl=en"
DES ARC POLICE DEPARTMENT,"DES ARC CITY HALL 
												
													PERMANENT DROP BOX",107 SOUTH THIRD STREET,DES ARC,AR,72040,"http://maps.google.com/maps?q=107 SOUTH THIRD STREET,+DES ARC,+AR+72040&hl=en"
DESOTO COUNTY SHERIFF'S DEPARTMENT,KROEGER,2380 MOUNT PLEASANT ROAD,HERNANDO,MS,38632,"http://maps.google.com/maps?q=2380 MOUNT PLEASANT ROAD,+HERNANDO,+MS+38632&hl=en"
DESOTO COUNTY SHERIFF'S DEPARTMENT,KROGER/HERNANDO,2380 MOUNT PLEASANT RD.,HERNANDO,MS,38632,"http://maps.google.com/maps?q=2380 MOUNT PLEASANT RD.,+HERNANDO,+MS+38632&hl=en"
DESOTO COUNTY SHERIFF'S DEPARTMENT,WALGREENS-HERNANDO,950 E. COMMERCE ST.,HERNANDO,MS,38632,"http://maps.google.com/maps?q=950 E. COMMERCE ST.,+HERNANDO,+MS+38632&hl=en"
DREW COUNTY SHERIFF'S OFFICE,DREW COUNTY SHERIFF'S OFFICE,210 S. MAIN STREET,MONTICELLO,AR,71655,"http://maps.google.com/maps?q=210 S. MAIN STREET,+MONTICELLO,+AR+71655&hl=en"
DREW COUNTY SHERIFF'S OFFICE,FRED'S PHARMACY,US 425 SOUTH,MONTICELLO,AR,71655,"http://maps.google.com/maps?q=US 425 SOUTH,+MONTICELLO,+AR+71655&hl=en"
DUMAS POLICE DEPARTMENT,"DUMAS POLICE DEPARTMENT 
												
													PERMANENT DROP BOX",149 E WATERMAN,DUMAS,AR,71639,"http://maps.google.com/maps?q=149 E WATERMAN,+DUMAS,+AR+71639&hl=en"
EAST BATON ROUGE PARISH SHERIFF'S OFFICE,EBRSO BURBANK TRAFFIC OFFICE,9313 BURBANK DR.,BATON ROUGE,LA,70810,"http://maps.google.com/maps?q=9313 BURBANK DR.,+BATON ROUGE,+LA+70810&hl=en"
FAIRFIELD BAY POLICE DEPARTMENT,"FAIRFIELD BAY POLICE DEPARTMENT 
												
													PERMANENT DROP BOX",101 LITTLE ROCK DRIVE,FAIRFIELD BAY,AR,72088,"http://maps.google.com/maps?q=101 LITTLE ROCK DRIVE,+FAIRFIELD BAY,+AR+72088&hl=en"
FAULKNER COUNTY SHERIFF'S OFFICE,"FAULKNER COUNTY SHERIFF'S OFFICE 
												
													PERMANENT DROP BOX",801 LOCUST STREET,CONWAY,AR,72034,"http://maps.google.com/maps?q=801 LOCUST STREET,+CONWAY,+AR+72034&hl=en"
FLORA POLICE DEPARTMENT,FLORA POLICE DEPARTMENT,176 CARTER ST.,FLORA,MS,39071,"http://maps.google.com/maps?q=176 CARTER ST.,+FLORA,+MS+39071&hl=en"
FORREST CITY POLICE DEPARTMENT,"FORREST CITY POLICE DEPARTMENT 
												
													WAL-MART SUPERCENTER",205 DEADRICK ROAD,FORREST CITY,AR,72335,"http://maps.google.com/maps?q=205 DEADRICK ROAD,+FORREST CITY,+AR+72335&hl=en"
FORT SMITH POLICE DEPARTMENT,"FORT SMITH POLICE DEPARTMENT 
												
													PERMANENT DROP BOX",100 SOUTH 10TH STREET,FORT SMITH,AR,72901,"http://maps.google.com/maps?q=100 SOUTH 10TH STREET,+FORT SMITH,+AR+72901&hl=en"
GARLAND COUNTY SHERIFFS DEPARTMENT,"GARLAND COUNTY SHERIFF'S DEPARTMENT 
												
													PERMANENT DROP BOX",525 OUCHITA AVENUE,HOT SPRINGS,AR,71901,"http://maps.google.com/maps?q=525 OUCHITA AVENUE,+HOT SPRINGS,+AR+71901&hl=en"
GERMANTOWN POLICE,KROGER,7735 FARMINGTON BLVD.,GERMANTOWN,TN,38138,"http://maps.google.com/maps?q=7735 FARMINGTON BLVD.,+GERMANTOWN,+TN+38138&hl=en"
GERMANTOWN POLICE,"TARGET 
												
													AT VILLAGE SHOPS",9235 POPLAR AVENUE,GERMANTOWN,TN,38139,"http://maps.google.com/maps?q=9235 POPLAR AVENUE,+GERMANTOWN,+TN+38139&hl=en"
GILMER POLICE DEPARTMENT,GILMER CIVIC CENTER,1218 271 NORTH,GILMER,TX,75644,"http://maps.google.com/maps?q=1218 271 NORTH,+GILMER,+TX+75644&hl=en"
GLENWOOD POLICE DEPARTMENT,"GLENWOOD CITY HALL 
												
													PERMANENT DROP BOX",210 NORTH 2ND STREET,GLENWOOD,AR,71943,"http://maps.google.com/maps?q=210 NORTH 2ND STREET,+GLENWOOD,+AR+71943&hl=en"
GONZALES POLICE DEPARTMENT,GONGALES POLICE DEPARTMENT,415 E CORNERVIEW RD,GONZALES,LA,70737,"http://maps.google.com/maps?q=415 E CORNERVIEW RD,+GONZALES,+LA+70737&hl=en"
GRANT COUNTY SHERIFF'S OFFICE,"GRANT COUNTY SHERIFF'S DEPARTMENT 
												
													PERMANENT DROP BOX",101 WEST PINE STREET,SHERIDAN,AR,72150,"http://maps.google.com/maps?q=101 WEST PINE STREET,+SHERIDAN,+AR+72150&hl=en"
GREENBRIER POLICE DEPARTMENT,GREENBRIER POLICE DEPARTMENT,11 WILSON FARM RD.,GREENBRIER,AR,72058,"http://maps.google.com/maps?q=11 WILSON FARM RD.,+GREENBRIER,+AR+72058&hl=en"
GREENWOOD POLICE DEPARTMENT,"GREENWOOD POLICE DEPARTMENT 
												
													PERMANENT DROP BOX",250 OLD HACKETT RD,GREENWOOD,AR,72936,"http://maps.google.com/maps?q=250 OLD HACKETT RD,+GREENWOOD,+AR+72936&hl=en"
GREENWOOD POLICE DEPARTMENT,WAL-MART,551 LIBERTY DRIVE,GREENWOOD,AR,72936,"http://maps.google.com/maps?q=551 LIBERTY DRIVE,+GREENWOOD,+AR+72936&hl=en"
HARRISBURG POLICE DEPARTMENT,"HARRISBURG POLICE DEPARTMENT 
												
													PERMANENT DROP BOX",202 N. EAST STREET,HARRISBURG,AR,72432,"http://maps.google.com/maps?q=202 N. EAST STREET,+HARRISBURG,+AR+72432&hl=en"
HASKELL POLICE DEPARTMENT,"HASKELL POLICE DEPARTMENT 
												
													CITY HALL - PERMANENT DROP BOX",2520 HWY 229,HASKELL,AR,72015,"http://maps.google.com/maps?q=2520 HWY 229,+HASKELL,+AR+72015&hl=en"
HELENA-WEST HELENA POLICE DEPARTMENT,"HELENA - WEST HELENA POLICE DEPARMENT 
												
													PERMANENT DROP BOX",98 EAST PLAZA,WEST HELENA,AR,72390,"http://maps.google.com/maps?q=98 EAST PLAZA,+WEST HELENA,+AR+72390&hl=en"
HENDERSON PD,HENDERSON FIRE DEPARTMENT #2,612 HWY 79 N,HENDERSON,TX,75652,"http://maps.google.com/maps?q=612 HWY 79 N,+HENDERSON,+TX+75652&hl=en"
HOLMES COUNTY SHERIFF'S OFFICE,HOLMES COUNTY SHERIFF'S OFFICE,23240 HWY. 12 EAST,LEXINGTON,MS,39095,"http://maps.google.com/maps?q=23240 HWY. 12 EAST,+LEXINGTON,+MS+39095&hl=en"
HOPE POLICE DEPARTMENT,"HEMPSTEAD COUNTY LAW ENFORCEMENT CENTER 
												
													PERMANENT DROP BOX",312 SOUTH WASHINGTON,HOPE,AR,71801,"http://maps.google.com/maps?q=312 SOUTH WASHINGTON,+HOPE,+AR+71801&hl=en"
HOT SPRINGS POLICE DEPARTMENT,"HOT SPRINGS POLICE DEPARTMENT 
												
													PERMANENT DROP BOX",641 MALVERN AVE.,HOT SPRINGS NATIONAL PARK,AR,71901,"http://maps.google.com/maps?q=641 MALVERN AVE.,+HOT SPRINGS NATIONAL PARK,+AR+71901&hl=en"
HOT SPRINGS VILLAGE POLICE DEPARTMENT,"HOT SPRINGS VILLAGE POLICE DEPARTMENT 
												
													PERMANENT DROP BOX",113 CALELLA RD.,HOT SPRINGS VILLAGE,AR,71909,"http://maps.google.com/maps?q=113 CALELLA RD.,+HOT SPRINGS VILLAGE,+AR+71909&hl=en"
HOUSTON POLICE DEPARTMENT METRO PARK N RIDE,HOUSTON POLICE DEPARTMENT METRO PARK N RIDE,3210 W. LAKE HOUSTON PKWY,KINGWOOD,TX,77345,"http://maps.google.com/maps?q=3210 W. LAKE HOUSTON PKWY,+KINGWOOD,+TX+77345&hl=en"
HOWARD COUNTY SHERIFF'S OFFICE,"HOWARD COUNTY SHERIFF'S OFFICE 
												
													PERMANENT DROP BOX",101 ISAAC PERKINS BLVD.,NASHVILLE,AR,71852,"http://maps.google.com/maps?q=101 ISAAC PERKINS BLVD.,+NASHVILLE,+AR+71852&hl=en"
JACKSON COUNTY SHERIFF'S OFFICE,"JACKSON COUNTY SO 
												
													PERMANENT DROP BOX",615 SECOND ST,NEWPORT,AR,72112,"http://maps.google.com/maps?q=615 SECOND ST,+NEWPORT,+AR+72112&hl=en"
JACKSON COUNTY SHERIFF'S OFFICE,UNITY HEALTH CLINIC,1117 MCLAIN ST,NEWPORT,AR,72112,"http://maps.google.com/maps?q=1117 MCLAIN ST,+NEWPORT,+AR+72112&hl=en"
JACKSON POLICE DEPARTMENT,"JACKSON POLICE DEPARTMENT 
												
													FRONT SIDEWALK - DRIVE THROUGH",327 E. PASCAGOULA STREET,JACKSON,MS,39204,"http://maps.google.com/maps?q=327 E. PASCAGOULA STREET,+JACKSON,+MS+39204&hl=en"
JACKSONVILLE PD,JACKSONVILLE CHAMBER OF COMMERCE,526 E. COMMERCE ST,JACKSONVILLE,TX,75766,"http://maps.google.com/maps?q=526 E. COMMERCE ST,+JACKSONVILLE,+TX+75766&hl=en"
JASPER POLICE DEPARTMENT,JASPER POLICE DEPARTMENT,555 S MAIN STREET,JASPER,TX,75951,"http://maps.google.com/maps?q=555 S MAIN STREET,+JASPER,+TX+75951&hl=en"
JEFFERSON COUNTY SHERIFF'S OFFICE,"JEFFERSON COUNTY SHERIFF'S OFFICE 
												
													PERMANENT DROP BOX",300 EAST 2ND AVE,PINE BLUFF,AR,71601,"http://maps.google.com/maps?q=300 EAST 2ND AVE,+PINE BLUFF,+AR+71601&hl=en"
JOHNSON COUNTY SHERIFF'S DEPARTMENT,"JOHNSON COUNTY COURTHOUSE 
												
													PERMANENT DROP BOX",215 W. MAIN ST.,CLARKSVILLE,AR,72830,"http://maps.google.com/maps?q=215 W. MAIN ST.,+CLARKSVILLE,+AR+72830&hl=en"
JOHNSON COUNTY SHERIFF'S DEPARTMENT,"JOHNSON COUNTY SHERIFF'S OFFICE 
												
													PERMANENT DROP BOX",P.O. BOX 39,CLARKSVILLE,AR,72830,"http://maps.google.com/maps?q=P.O. BOX 39,+CLARKSVILLE,+AR+72830&hl=en"
JOHNSON COUNTY SHERIFF'S DEPARTMENT,"SENIOR ACTIVITY CENTER 
												
													PERMANENT DROP BOX",1421 OAKLAND ST.,CLARKSVILLE,AR,72830,"http://maps.google.com/maps?q=1421 OAKLAND ST.,+CLARKSVILLE,+AR+72830&hl=en"
LA PARTNERSHIP FOR SUCESS,WALAMRT VIDALIA STORE,4283 CARTER STREET,VIDALIA,LA,71373,"http://maps.google.com/maps?q=4283 CARTER STREET,+VIDALIA,+LA+71373&hl=en"
LAFAYETTE COUNTY SHERIFF'S OFFICE,"LAFAYETTE COUNTY SHERIFF'S OFFICE 
												
													PERMANENT DROP BOX",5 COURTHOUSE SQUARE,LEWISVILLE,AR,71845,"http://maps.google.com/maps?q=5 COURTHOUSE SQUARE,+LEWISVILLE,+AR+71845&hl=en"
LAFAYETTE PARISH SHERIFF'S OFFICE,"LAFAYETTE PARISH SHERIFF'S OFFICE 
												
													PUBLIC SAFETY COMPLEX",1825 W. WILLOW ST,SCOTT,LA,70583,"http://maps.google.com/maps?q=1825 W. WILLOW ST,+SCOTT,+LA+70583&hl=en"
LAFAYETTE PARISH SHERIFF'S OFFICE,LAFAYETTE PARISH SHERIFF'S OFFICE PUBLIC SAFETY CO,1825 W. WILLOW STREET,SCOTT,LA,70583,"http://maps.google.com/maps?q=1825 W. WILLOW STREET,+SCOTT,+LA+70583&hl=en"
LAKE CHARLES POLICE DEPARTMENT,LAKE CHARLES CIVIC CENTER,900 LAKE SHORE DRIVE,LAKE CHARLES,LA,70601,"http://maps.google.com/maps?q=900 LAKE SHORE DRIVE,+LAKE CHARLES,+LA+70601&hl=en"
LAMAR POLICE DEPARTMENT,"LAMAR CITY HALL 
												
													PERMANENT DROP BOX",437 W MAIN STREET,LAMAR,AR,72846,"http://maps.google.com/maps?q=437 W MAIN STREET,+LAMAR,+AR+72846&hl=en"
LAVACA POLICE DEPARTMENT,"LAVACA POLICE DEPARTMENT 
												
													PERMANENT DROP BOX",104 SOUTH DAVIS STREET,LAVACA,AR,72941,"http://maps.google.com/maps?q=104 SOUTH DAVIS STREET,+LAVACA,+AR+72941&hl=en"
LIBERTY COUNTY PRECINCT 1,LIBERTY COUNTY PRECINCT 1,2103 COS STREET,LIBERTY,TX,77575,"http://maps.google.com/maps?q=2103 COS STREET,+LIBERTY,+TX+77575&hl=en"
LIBERTY POLICE DEPARTMENT,LIBERTY POLICE DEPARTMENT,1906 LAKELAND DRIVE,LIBERTY,TX,77575,"http://maps.google.com/maps?q=1906 LAKELAND DRIVE,+LIBERTY,+TX+77575&hl=en"
LINCOLN COUNTY SHERIFF'S OFFICE,"LINCOLN COUNTY SHERIFF'S OFFICE 
												
													PERMANENT DROP BOX",300 SOUTH DREW STREET,STAR CITY,AR,71667,"http://maps.google.com/maps?q=300 SOUTH DREW STREET,+STAR CITY,+AR+71667&hl=en"
LITTLE RIVER COUNTY SHERIFF'S OFFICE,"LITTLE RIVER COUNTY SHERIFF'S OFFICE 
												
													PERMANENT DROP BOX",351 N. SECOND ST.,ASHDOWN,AR,71822,"http://maps.google.com/maps?q=351 N. SECOND ST.,+ASHDOWN,+AR+71822&hl=en"
LITTLE ROCK POLICE DEPARTMENT,EXPRESS RX,"10,506 STAGECOACH ROADSUITE F",LITTLE ROCK,AR,72210,"http://maps.google.com/maps?q=10,506 STAGECOACH ROAD,+LITTLE ROCK,+AR+72210&hl=en"
LITTLE ROCK POLICE DEPARTMENT,KAVANAUGH PHARMACY,5008 KAVANAUGH BLVD,LITTLE ROCK,AR,72207,"http://maps.google.com/maps?q=5008 KAVANAUGH BLVD,+LITTLE ROCK,+AR+72207&hl=en"
LITTLE ROCK POLICE DEPARTMENT,KROGER,14000 CANTRELL ROAD,LITTLE ROCK,AR,72223,"http://maps.google.com/maps?q=14000 CANTRELL ROAD,+LITTLE ROCK,+AR+72223&hl=en"
LITTLE ROCK POLICE DEPARTMENT,"LITTLE ROCK POLICE DEPARTMENT 
												
													PERMANENT DROP BOX",700 W MARKHAM ST,LITTLE ROCK,AR,72201,"http://maps.google.com/maps?q=700 W MARKHAM ST,+LITTLE ROCK,+AR+72201&hl=en"
LIVONIA POLICE DEPARTMENT,LIVONIA POLICE DEPARTMENT,3111 LA HWY 78,LIVONIA,LA,70755,"http://maps.google.com/maps?q=3111 LA HWY 78,+LIVONIA,+LA+70755&hl=en"
LOGAN COUNTY SHERIFF'S OFFICE,"LOGAN POLICE DEPARTMENT 
												
													PERMANENT DROP BOX",508 W. GROBER ST,PARIS,AR,72855,"http://maps.google.com/maps?q=508 W. GROBER ST,+PARIS,+AR+72855&hl=en"
LONOKE COUNTY SHERIFF'S OFFICE,"LONOKE COUNTY SHERIFF'S OFFICE 
												
													PERMANENT DROP BOX",440 DEE DEE LANE,LONOKE,AR,72086,"http://maps.google.com/maps?q=440 DEE DEE LANE,+LONOKE,+AR+72086&hl=en"
LOUISIANA STATE POLICE TROOP F,LOUISIANA STATE POLICE,805 MAIN STREET,LAKE CHARLES,LA,70615,"http://maps.google.com/maps?q=805 MAIN STREET,+LAKE CHARLES,+LA+70615&hl=en"
LOUISIANA STATE POLICE TROOP F,TROOP F HEADQUARTERS,1240 LA HGHWAY 594,MONROE,LA,71203,"http://maps.google.com/maps?q=1240 LA HGHWAY 594,+MONROE,+LA+71203&hl=en"
LUMBERTON POLICE DEPARTMENT,LUMBERTON POLICE DEPARTMENT,120 EAST CHANCE ROAD #A,LUMBERTON,TX,77657,"http://maps.google.com/maps?q=120 EAST CHANCE ROAD #A,+LUMBERTON,+TX+77657&hl=en"
MADISON POLICE DEPARTMENT,MADISON CULTURAL CENTER PARKING LOT,2115 MAIN STREET,MADISON,MS,39110,"http://maps.google.com/maps?q=2115 MAIN STREET,+MADISON,+MS+39110&hl=en"
MALVERN POLICE DEPARTMENT,"MALVERN POLICE DEPARTMENT 
												
													PERMANENT DROP BOX",215 EAST HIGHLAND AVE,MALVERN,AR,72104,"http://maps.google.com/maps?q=215 EAST HIGHLAND AVE,+MALVERN,+AR+72104&hl=en"
MALVERN POLICE DEPARTMENT,MALVERN WALMART SUPERCENTER PARKING LOT,1910 MARTIN LUTHER KING BLVD,MALVERN,AR,72104,"http://maps.google.com/maps?q=1910 MARTIN LUTHER KING BLVD,+MALVERN,+AR+72104&hl=en"
MARION POLICE DEPARTMENT,"MARION POLICE DEPARTMENT 
												
													PERMANENT DROP BOX",3477 HWY 77,MARION,AR,72364,"http://maps.google.com/maps?q=3477 HWY 77,+MARION,+AR+72364&hl=en"
MAUMELLE POLICE DEPARTMENT,MAUMELLE POLICE DEPARTMENT,2002 MURPHY DR.,MAUMELLE,AR,72113,"http://maps.google.com/maps?q=2002 MURPHY DR.,+MAUMELLE,+AR+72113&hl=en"
MCCRORY POLICE DEPARTMENT,"MCCRORY POLICE DEPARTMENT 
												
													PERMANENT DROP BOX",109 N. JACKSON,MC CRORY,AR,72101,"http://maps.google.com/maps?q=109 N. JACKSON,+MC CRORY,+AR+72101&hl=en"
MCCRORY POLICE DEPARTMENT,THE MAD BUTCHER,721 NORTH EDMONDS,MC CRORY,AR,72101,"http://maps.google.com/maps?q=721 NORTH EDMONDS,+MC CRORY,+AR+72101&hl=en"
MCGEHEE POLICE DEPARTMENT,"MCGEHEE POLICE DEPARTMENT 
												
													PERMANENT DROP BOX",517 E. ASH STREET,MC GEHEE,AR,71654,"http://maps.google.com/maps?q=517 E. ASH STREET,+MC GEHEE,+AR+71654&hl=en"
MEMPHIS POLICE DEPT.,KROGER,2835 KIRBY PKWY,MEMPHIS,TN,38119,"http://maps.google.com/maps?q=2835 KIRBY PKWY,+MEMPHIS,+TN+38119&hl=en"
MEMPHIS POLICE DEPT.,KROGER,3444 PLAZA DRIVE,MEMPHIS,TN,38111,"http://maps.google.com/maps?q=3444 PLAZA DRIVE,+MEMPHIS,+TN+38111&hl=en"
MEMPHIS POLICE DEPT.,KROGER,6660 POPLAR AVENUE,GERMANTOWN,TN,38138,"http://maps.google.com/maps?q=6660 POPLAR AVENUE,+GERMANTOWN,+TN+38138&hl=en"
MEMPHIS POLICE DEPT.,"MEMPHIS POLICE DEPT 
												
													ORGANIZED CRIME UNIT",225 CHANNEL 3 DR,MEMPHIS,TN,38108,"http://maps.google.com/maps?q=225 CHANNEL 3 DR,+MEMPHIS,+TN+38108&hl=en"
MEMPHIS POLICE DEPT.,"OVERTON PARK- EAST PARKWAY PAVILLION 
												
													ENTRY NEXT TO THE FIRE STATION",1914 POPLAR AVE.,MEMPHIS,TN,38104,"http://maps.google.com/maps?q=1914 POPLAR AVE.,+MEMPHIS,+TN+38104&hl=en"
MEMPHIS POLICE DEPT.,THE HOUSE MEMPHIS,3683 AUSTIN PEAY HIGHWAY,MEMPHIS,TN,38128,"http://maps.google.com/maps?q=3683 AUSTIN PEAY HIGHWAY,+MEMPHIS,+TN+38128&hl=en"
MILLER COUNTY SHERIFF'S OFFICE,"MILLER COUNTY SHERIFF'S OFFICE 
												
													PERMANENT DROP BOX",2300 EAST STREET,TEXARKANA,AR,71854,"http://maps.google.com/maps?q=2300 EAST STREET,+TEXARKANA,+AR+71854&hl=en"
MONTGOMERY COUNTY PRECINCT 4 CONSTABLE'S OFFICE,"MONTGOMERY COUNTY PRECINCT 4 CONSTABLE'S OFFICE 
												
													MONTGOMERY COUNTY ANNEX BUILDING",21130 US HWY 59,NEW CANEY,TX,77357,"http://maps.google.com/maps?q=21130 US HWY 59,+NEW CANEY,+TX+77357&hl=en"
MORRILTON POLICE DEPARTMENT,"MORRILTON POLICE DEPARTMENT 
												
													PERMANENT DROP BOX",212 MOOSE STREET,MORRILTON,AR,72110,"http://maps.google.com/maps?q=212 MOOSE STREET,+MORRILTON,+AR+72110&hl=en"
NACOGDOCHES COUNTY SHERIFF'S OFFICE,NACOGDOCHES COUNTY SHERIFF'S OFFICE,2306 DOUGLASS HIGHWAY,NACOGDOCHES,TX,75964,"http://maps.google.com/maps?q=2306 DOUGLASS HIGHWAY,+NACOGDOCHES,+TX+75964&hl=en"
NACOGDOCHES POLICE DEPARTMENT,NACOGDOCHES POLICE DEPARTMENT,1122 NORTH UNIVERSITY DRIVE,NACOGDOCHES,TX,75961,"http://maps.google.com/maps?q=1122 NORTH UNIVERSITY DRIVE,+NACOGDOCHES,+TX+75961&hl=en"
NEWPORT POLICE DEPARTMENT,"NEWPORT POLICE DEPARTMENT 
												
													PERMANENT DROP BOX",615 THIRD ST.,NEWPORT,AR,72112,"http://maps.google.com/maps?q=615 THIRD ST.,+NEWPORT,+AR+72112&hl=en"
NORTH LITTLE ROCK POLICE DEPARTMENT,CORNERSTONE PHARMACY,2609 MCCAIN BLVD,NORTH LITTLE ROCK,AR,72116,"http://maps.google.com/maps?q=2609 MCCAIN BLVD,+NORTH LITTLE ROCK,+AR+72116&hl=en"
NORTH LITTLE ROCK POLICE DEPARTMENT,CORNERSTONE PHARMACY,5328 JFK BLVD,NORTH LITTLE ROCK,AR,72116,"http://maps.google.com/maps?q=5328 JFK BLVD,+NORTH LITTLE ROCK,+AR+72116&hl=en"
NORTH LITTLE ROCK POLICE DEPARTMENT,"NORTH LITTLE ROCK POLICE & FIRE TRAINING FACILITY 
												
													PERMANENT DROP BOX",2400 WILLOW STREET,NORTH LITTLE ROCK,AR,72114,"http://maps.google.com/maps?q=2400 WILLOW STREET,+NORTH LITTLE ROCK,+AR+72114&hl=en"
OLIVE BRANCH POLICE DEPARTMENT,"OLIVE BRANCH POLICE DEPARTMENT 
												
													LT. JASON OLIVERIA",10470 HIGHWAY 178,OLIVE BRANCH,MS,38654,"http://maps.google.com/maps?q=10470 HIGHWAY 178,+OLIVE BRANCH,+MS+38654&hl=en"
ORANGE POLICE DEPARTMENT,ORANGE POLICE DEPARTMENT,201 8TH STREET,ORANGE,TX,77630,"http://maps.google.com/maps?q=201 8TH STREET,+ORANGE,+TX+77630&hl=en"
OUACHITA COUNTY SHERIFF'S DEPARTMENT,"OUACHITA COUNTY DETENTION FACILITY 
												
													PERMANENT DROP BOX",109 GOODGAME,CAMDEN,AR,71701,"http://maps.google.com/maps?q=109 GOODGAME,+CAMDEN,+AR+71701&hl=en"
OXFORD POLICE DEPARTMENT,"OXFORD SQUARE AREA - DOUBLE DECKER ARTS FESTIVAL 
												
													CORNER-JACKSON AVE. & 9TH ST. BY ST. PETERS EPISCOPAL CHURCH",JACKSON AVE. & 9TH STREETNEAR ST. PETERS EPISCOPAL CHURCH,OXFORD,MS,38655,"http://maps.google.com/maps?q=JACKSON AVE. & 9TH STREET,+OXFORD,+MS+38655&hl=en"
PANGBURN POLICE DEPARTMENT,"PANGBURN POLICE DEPARTMENT 
												
													PERMANENT DROP BOX",508 MAIN ST.,PANGBURN,AR,72121,"http://maps.google.com/maps?q=508 MAIN ST.,+PANGBURN,+AR+72121&hl=en"
PANOLA COUNTY SHERIFF'S DEPT.,"PANOLA COUNTY SHERIFF'S DEPARTMENT 
												
													DENISE GRAY",314 W. WELLINGTON,CARTHAGE,TX,75633,"http://maps.google.com/maps?q=314 W. WELLINGTON,+CARTHAGE,+TX+75633&hl=en"
PARIS POLICE DEPARTMENT,"PARIS POLICE DEPARTMENT 
												
													PERMANENT DROP BOX",1810 EAST WALNUT STREET,PARIS,AR,72855,"http://maps.google.com/maps?q=1810 EAST WALNUT STREET,+PARIS,+AR+72855&hl=en"
PEARL POLICE DEPARTMENT,PEARL POLICE DEPARTMENT,2422 OLD BRANDON RD.,PEARL,MS,39208,"http://maps.google.com/maps?q=2422 OLD BRANDON RD.,+PEARL,+MS+39208&hl=en"
PERRY COUNTY SHERIFF'S OFFICE,HARPS GROCERY,112 HOUSTON AVENUE,PERRYVILLE,AR,72126,"http://maps.google.com/maps?q=112 HOUSTON AVENUE,+PERRYVILLE,+AR+72126&hl=en"
PERRY COUNTY SHERIFF'S OFFICE,"PERRY COUNTY DETENTION CENTER DROP BOX AREA 
												
													PERMANENT DROP BOX",511 APLIN AVE,PERRYVILLE,AR,72126,"http://maps.google.com/maps?q=511 APLIN AVE,+PERRYVILLE,+AR+72126&hl=en"
PLAQUEMINE POLICE DEPARTMENT,PLAQUEMINE POLICE DEPARTMENT,23540 RAILROAD AVENUE,PLAQUEMINE,LA,70764,"http://maps.google.com/maps?q=23540 RAILROAD AVENUE,+PLAQUEMINE,+LA+70764&hl=en"
POINSETT COUNTY SHERIFF'S OFFICE,"POINSETT COUNTY DETENTION CENTER 
												
													PERMANENT DROP BOX",1500 JUSTICE DRIVE,HARRISBURG,AR,72432,"http://maps.google.com/maps?q=1500 JUSTICE DRIVE,+HARRISBURG,+AR+72432&hl=en"
POLK COUNTY SHERIFF'S OFFICE,"POLK COUNTY SHERIFF'S OFFICE 
												
													PERMANENT DROP BOX",507 CHURCH AVE,MENA,AR,71953,"http://maps.google.com/maps?q=507 CHURCH AVE,+MENA,+AR+71953&hl=en"
PORT ARTHUR POLICE DEPARTMENT,PORT ARTHUR POLICE DEPARTMENT,645 4TH STREET,PORT ARTHUR,TX,77641,"http://maps.google.com/maps?q=645 4TH STREET,+PORT ARTHUR,+TX+77641&hl=en"
POTTSVILLE POLICE DEPARTMENT,DOLLAR GENERAL,6876 U.S. HWY 64,POTTSVILLE,AR,72858,"http://maps.google.com/maps?q=6876 U.S. HWY 64,+POTTSVILLE,+AR+72858&hl=en"
PRESCOTT POLICE DEPARTMENT,"PRESCOTT POLICE DEPARTMENT 
												
													PERMANENT DROP BOX",128 W. MAIN ST.,PRESCOTT,AR,71857,"http://maps.google.com/maps?q=128 W. MAIN ST.,+PRESCOTT,+AR+71857&hl=en"
PULASKI COUNTY SHERIFF'S OFFICE,"ARKANSAS CHILDREN'S HOSPITAL 
												
													MAIN ENTRANCE",1 CHILDREN'S WAY,LITTLE ROCK,AR,72202,"http://maps.google.com/maps?q=1 CHILDREN'S WAY,+LITTLE ROCK,+AR+72202&hl=en"
PULASKI COUNTY SHERIFF'S OFFICE,KROGER PHARMACY,6929 JFK BLVD,NORTH LITTLE ROCK,AR,72116,"http://maps.google.com/maps?q=6929 JFK BLVD,+NORTH LITTLE ROCK,+AR+72116&hl=en"
PULASKI COUNTY SHERIFF'S OFFICE,"PULASKI COUNTY SHERIFF'S OFFICE 
												
													PERMANENT DROP BOX",2900 SOUTH WOODROW STREET,LITTLE ROCK,AR,72204,"http://maps.google.com/maps?q=2900 SOUTH WOODROW STREET,+LITTLE ROCK,+AR+72204&hl=en"
PULASKI COUNTY SHERIFF'S OFFICE,REMEDY PHARMACY,8511 W. MARKHAM STREET,LITTLE ROCK,AR,72205,"http://maps.google.com/maps?q=8511 W. MARKHAM STREET,+LITTLE ROCK,+AR+72205&hl=en"
PULASKI COUNTY SHERIFF'S OFFICE,"WALGREENS 
												
													PARKING LOT",14820 CANTRELL ROAD,LITTLE ROCK,AR,72223,"http://maps.google.com/maps?q=14820 CANTRELL ROAD,+LITTLE ROCK,+AR+72223&hl=en"
RANKIN COUNTY SHERIFF'S OFFICE,RANKIN COUNTY SHERIFF'S OFFICE,221 N. TIMBER ST.,BRANDON,MS,39042,"http://maps.google.com/maps?q=221 N. TIMBER ST.,+BRANDON,+MS+39042&hl=en"
RUSSELLVILLE POLICE DEPARTMENT,"RUSSELLVILLE POLICE DEPARTMENT 
												
													PERMANENT DROP BOX",115 WEST 'H' STREET,RUSSELLVILLE,AR,72802,"http://maps.google.com/maps?q=115 WEST 'H' STREET,+RUSSELLVILLE,+AR+72802&hl=en"
SAINT MARTIN PARISH SHERIFF'S OFFICE,WALLGREENS,1401 REES STREET,BREAUX BRIDGE,LA,70517,"http://maps.google.com/maps?q=1401 REES STREET,+BREAUX BRIDGE,+LA+70517&hl=en"
SALINE COUNTY SHERIFF'S OFFICE,"SALINE COUNTY SHERIFF'S OFFICE 
												
													PERMANENT DROP BOX",735 S. NEELEY,BENTON,AR,72015,"http://maps.google.com/maps?q=735 S. NEELEY,+BENTON,+AR+72015&hl=en"
SCOTT POLICE DEPARTMENT,STATE FARM,5808 CAMERON ST,SCOTT,LA,70583,"http://maps.google.com/maps?q=5808 CAMERON ST,+SCOTT,+LA+70583&hl=en"
SEBASTIAN COUNTY SHERIFF'S OFFICE,ECONOMY FEED & TRAILER,11318 HWY 71 S.,FORT SMITH,AR,72916,"http://maps.google.com/maps?q=11318 HWY 71 S.,+FORT SMITH,+AR+72916&hl=en"
SEBASTIAN COUNTY SHERIFF'S OFFICE,"SEBASTIAN COUNTY SHERIFF'S OFFICE 
												
													PERMANENT DROP BOX",800 SOUTH A STREET,FORT SMITH,AR,72901,"http://maps.google.com/maps?q=800 SOUTH A STREET,+FORT SMITH,+AR+72901&hl=en"
SEVIER COUNTY SHERIFF'S OFFICE,"SEVIER COUNTY SHERIFF'S OFFICE 
												
													PERMANENT DROP BOX",137 W. ROBINSON RD,DE QUEEN,AR,71832,"http://maps.google.com/maps?q=137 W. ROBINSON RD,+DE QUEEN,+AR+71832&hl=en"
SHERWOOD POLICE DEPARTMENT,"SHERWOOD POLICE DEPARTMENT 
												
													PERMANENT DROP BOX",2201 EAST KIEHL AVE,SHERWOOD,AR,72120,"http://maps.google.com/maps?q=2201 EAST KIEHL AVE,+SHERWOOD,+AR+72120&hl=en"
SHERWOOD POLICE DEPARTMENT,ST. VINCENT  MEDICAL CENTER- NORTH,2215 WILDWOOD AVE,SHERWOOD,AR,72120,"http://maps.google.com/maps?q=2215 WILDWOOD AVE,+SHERWOOD,+AR+72120&hl=en"
SHERWOOD POLICE DEPARTMENT,WALMART NEIGHBORHOOD MARKET,9053 HWY 107,SHERWOOD,AR,72120,"http://maps.google.com/maps?q=9053 HWY 107,+SHERWOOD,+AR+72120&hl=en"
SILSBEE POLICE DEPARTMENT,SILSBEE POLICE DEPARTMENT,1104 NORTH 5TH STREET,SILSBEE,TX,77656,"http://maps.google.com/maps?q=1104 NORTH 5TH STREET,+SILSBEE,+TX+77656&hl=en"
SIMPSON COUNTY SHERIFF'S OFFICE,"SIMPSON COUNTY SHERIFF'S OFFICE 
												
													E-911 BUILDING",1752 SIMPSON HWY 149,MENDENHALL,MS,39114,"http://maps.google.com/maps?q=1752 SIMPSON HWY 149,+MENDENHALL,+MS+39114&hl=en"
SOUTH CENTRAL DRUG TASK FORCE,DEQUEEN WALMART,HWY 70 EAST,DE QUEEN,AR,71832,"http://maps.google.com/maps?q=HWY 70 EAST,+DE QUEEN,+AR+71832&hl=en"
STUTTGART POLICE DEPARTMENT,COKER-HAMPTON DRUG CO,2187 SOUTH MAIN STREET,STUTTGART,AR,72160,"http://maps.google.com/maps?q=2187 SOUTH MAIN STREET,+STUTTGART,+AR+72160&hl=en"
STUTTGART POLICE DEPARTMENT,"STUTTGART POLICE DEPARTMENT 
												
													LOBBY",514 SOUTH MAIN ST.,STUTTGART,AR,72160,"http://maps.google.com/maps?q=514 SOUTH MAIN ST.,+STUTTGART,+AR+72160&hl=en"
TEXARKANA POLICE DEPARTMENT,"TEXARKANA POLICE DEPARTMENT 
												
													PERMANENT DROP BOX",100 N. STATE LINE AVE,TEXARKANA,AR,71854,"http://maps.google.com/maps?q=100 N. STATE LINE AVE,+TEXARKANA,+AR+71854&hl=en"
TOWN OF CHURCH POINT WARRANT AND NARCOTICS,CHURCH POINT CITY HALL,102 CHURCH BLVD,CHURCH POINT,LA,70525,"http://maps.google.com/maps?q=102 CHURCH BLVD,+CHURCH POINT,+LA+70525&hl=en"
TRI-COUNTY DRUG TASK FORCE,SUPER 1 FOODS,2801 S. HAZEL STREET,PINE BLUFF,AR,71601,"http://maps.google.com/maps?q=2801 S. HAZEL STREET,+PINE BLUFF,+AR+71601&hl=en"
TRI-COUNTY DRUG TASK FORCE,"TRI-COUNTY DRUG TASK FORCE 
												
													PERMANENT DROP BOX",117 MAIN STREET,PINE BLUFF,AR,71601,"http://maps.google.com/maps?q=117 MAIN STREET,+PINE BLUFF,+AR+71601&hl=en"
TRUMANN POLICE DEPARTMENT,"TRUMANN POLICE DEPARTMENT 
												
													PERMANENT DROP BOX",221 MELTON AVE.,TRUMANN,AR,72472,"http://maps.google.com/maps?q=221 MELTON AVE.,+TRUMANN,+AR+72472&hl=en"
TUNICA COUNTY SHERIFF'S OFFICE,TUNICA COUNTY SHERIFF'S OFFICE,5126 COUNTY SHERIFF'S OFFICE,TUNICA,MS,38676,"http://maps.google.com/maps?q=5126 COUNTY SHERIFF'S OFFICE,+TUNICA,+MS+38676&hl=en"
TYLER POLICE DEPARTMENT,BROADWAY SQUARE MALL,4601 S BROADWAY,TYLER,TX,75703,"http://maps.google.com/maps?q=4601 S BROADWAY,+TYLER,+TX+75703&hl=en"
U.T. HEALTH SCIENCE CENTER AT TYLER,U.T. HEALTH SCIENCE CENTER AT TYLER,11937 US HWY 271,TYLER,TX,75708,"http://maps.google.com/maps?q=11937 US HWY 271,+TYLER,+TX+75708&hl=en"
UALR POLICE,"UALR POLICE DEPARTMENT 
												
													PERMANENT DROP BOX",700 WEST MARKHAM ST,LITTLE ROCK,AR,72201,"http://maps.google.com/maps?q=700 WEST MARKHAM ST,+LITTLE ROCK,+AR+72201&hl=en"
UAMS POLICE DEPARTMENT,UAMS EMERGENCY ROOM,4301 WEST MAKRHAM ST,LITTLE ROCK,AR,72205,"http://maps.google.com/maps?q=4301 WEST MAKRHAM ST,+LITTLE ROCK,+AR+72205&hl=en"
UAMS POLICE DEPARTMENT,"UAMS OPC 
												
													2ND FLOOR",4301 WEST MARKHAM ST.,LITTLE ROCK,AR,72205,"http://maps.google.com/maps?q=4301 WEST MARKHAM ST.,+LITTLE ROCK,+AR+72205&hl=en"
UAMS POLICE DEPARTMENT,"UAMS POLICE DEPARTMENT 
												
													PERMANENT DROP BOX",4301 W MARKHAM ST.,LITTLE ROCK,AR,72205,"http://maps.google.com/maps?q=4301 W MARKHAM ST.,+LITTLE ROCK,+AR+72205&hl=en"
UCA POLICE DEPARTMENT,"UCA POLICE DEPARTMENT--CAMPUS 
												
													PERMANENT DROP BOX",6 W.J. SOWDER,CONWAY,AR,72035,"http://maps.google.com/maps?q=6 W.J. SOWDER,+CONWAY,+AR+72035&hl=en"
UNION COUNTY SHERIFF'S OFFICE,"UNION COUNTY SHERIFF'S OFFICE 
												
													PERMANENT DROP BOX",250 AMERICAN ROAD,EL DORADO,AR,71730,"http://maps.google.com/maps?q=250 AMERICAN ROAD,+EL DORADO,+AR+71730&hl=en"
UNIVERSITY OF LOUISIANA AT MONROE PD,UPD,3811 DESIARD ST,MONROE,LA,71209,"http://maps.google.com/maps?q=3811 DESIARD ST,+MONROE,+LA+71209&hl=en"
VICKSBURG POLICE DEPARTMENT,WALGREENS PHARMACY,3341 HALLS FERRY RD.,VICKSBURG,MS,39180,"http://maps.google.com/maps?q=3341 HALLS FERRY RD.,+VICKSBURG,+MS+39180&hl=en"
VIDALIA POLICE DEPARTMENT,VIDALIA POLICE DEPARTMENT PARKING LOT,202 VERNON STEVENS BLVD,VIDALIA,LA,71373,"http://maps.google.com/maps?q=202 VERNON STEVENS BLVD,+VIDALIA,+LA+71373&hl=en"
WALDRON POLICE DEPARTMENT,"HARPS FOOD 
												
													PARKING LOT",1350 6TH STREET,WALDRON,AR,72958,"http://maps.google.com/maps?q=1350 6TH STREET,+WALDRON,+AR+72958&hl=en"
WALDRON POLICE DEPARTMENT,"WALDRON POLICE DEPARTMENT 
												
													PERMANENT DROP BOX",323 WASHINGTON ST.,WALDRON,AR,72958,"http://maps.google.com/maps?q=323 WASHINGTON ST.,+WALDRON,+AR+72958&hl=en"
WARREN COUNTY SHERIFF'S OFFICE,OUTLETS MALL OF VICKSBURG,4000 S. FRONTAGE RD.,VICKSBURG,MS,39180,"http://maps.google.com/maps?q=4000 S. FRONTAGE RD.,+VICKSBURG,+MS+39180&hl=en"
WEST CARROLL SHERIFF'S DEPARTMENT,WAL-MART,700 SOUTH CONSTITUTION,OAK GROVE,LA,71263,"http://maps.google.com/maps?q=700 SOUTH CONSTITUTION,+OAK GROVE,+LA+71263&hl=en"
WEST MEMPHIS POLICE DEPARTMENT,"WEST MEMPHIS POLICE DEPARTMENT 
												
													PERMANENT DROP BOX",626 E. BROADWAY,WEST MEMPHIS,AR,72301,"http://maps.google.com/maps?q=626 E. BROADWAY,+WEST MEMPHIS,+AR+72301&hl=en"
WHITE COUNTY SHERIFF'S OFFICE,"WHITE COUNTY SHERIFF'S OFFICE 
												
													PERMANENT DROP BOX",1600 E BOOTH ROAD,SEARCY,AR,72143,"http://maps.google.com/maps?q=1600 E BOOTH ROAD,+SEARCY,+AR+72143&hl=en"
WHITE HALL POLICE DEPARTMENT,"WHITE HALL POLICE DEPARTMENT 
												
													PERMANENT DROP BOX",8204 DOLLARWAY ROAD,WHITE HALL,AR,71602,"http://maps.google.com/maps?q=8204 DOLLARWAY ROAD,+WHITE HALL,+AR+71602&hl=en"
WINONA POLICE DEPARTMENT,FRED'S PHARMACY,603 MIDDLETON RD.,WINONA,MS,38967,"http://maps.google.com/maps?q=603 MIDDLETON RD.,+WINONA,+MS+38967&hl=en"
WINONA POLICE DEPARTMENT,HAMMOND'S PHARMACY,405 NORTH APPLEGATE STREET,WINONA,MS,38967,"http://maps.google.com/maps?q=405 NORTH APPLEGATE STREET,+WINONA,+MS+38967&hl=en"
WINONA POLICE DEPARTMENT,OLD DIRT CHEAP BLDG,104 SOUTH APPLEGATE STREET,WINONA,MS,38967,"http://maps.google.com/maps?q=104 SOUTH APPLEGATE STREET,+WINONA,+MS+38967&hl=en"
WINONA POLICE DEPARTMENT,SUPERVALUE,601 MIDDLETON ROAD,WINONA,MS,38967,"http://maps.google.com/maps?q=601 MIDDLETON ROAD,+WINONA,+MS+38967&hl=en"
WINONA POLICE DEPARTMENT,WINONA CITY HALL,409 SUMMITT STREET,WINONA,MS,38967,"http://maps.google.com/maps?q=409 SUMMITT STREET,+WINONA,+MS+38967&hl=en"
WYNNE POLICE DEPARTMENT,"WYNNE POLICE DEPARTMENT 
												
													PERMANENT DROP BOX",206 S. FALLS,WYNNE,AR,72396,"http://maps.google.com/maps?q=206 S. FALLS,+WYNNE,+AR+72396&hl=en"
YAZOO COUNTY SHERIFF'S DEPARTMENT,"PLAZA SHOPPING CENTER PARKING LOT 
												
													EVENT IS HELD ON FRIDAY, 27 APRIL 2018",746 E. 15TH STREET,YAZOO CITY,MS,39194,"http://maps.google.com/maps?q=746 E. 15TH STREET,+YAZOO CITY,+MS+39194&hl=en"
