Participant,CollectionSite,Address,City,State,Zip,MapURL
ACTON PD,ACTON POLICE DEPARTMENT,371 MAIN ST,ACTON,MA,01720,"http://maps.google.com/maps?q=371 MAIN ST,+ACTON,+MA+01720&hl=en"
ALLENSTOWN POLICE DEPARTMENT,ALLENSTOWN POLICE DEPARTMENT,40 ALLENSTOWN ROAD,ALLENSTOWN,NH,03275,"http://maps.google.com/maps?q=40 ALLENSTOWN ROAD,+ALLENSTOWN,+NH+03275&hl=en"
ALSTEAD POLICE DEPARTMENT,ALSTEAD POLICE DEPARTMENT,15 MECHANIC ST,ALSTEAD,NH,03602,"http://maps.google.com/maps?q=15 MECHANIC ST,+ALSTEAD,+NH+03602&hl=en"
AMESBURY PD,"AMESBURY POLICE STATION 
												
													OFFICER THOMAS HANSHAW",19 SCHOOL ST,AMESBURY,MA,01913,"http://maps.google.com/maps?q=19 SCHOOL ST,+AMESBURY,+MA+01913&hl=en"
AMHERST POLICE DEPARTMENT,"WILDWOOD ELEMENTARY SCHOOL 
												
													PARKING AREA",71 STRONG STREET,AMHERST,MA,01002,"http://maps.google.com/maps?q=71 STRONG STREET,+AMHERST,+MA+01002&hl=en"
ANDOVER POLICE DEPARTMENT,"ANDOVER WATER TREATMENT PLANT 
												
													10:00 AM-2:00 PM",397 LOWELL ST,ANDOVER,MA,01810,"http://maps.google.com/maps?q=397 LOWELL ST,+ANDOVER,+MA+01810&hl=en"
ANDOVER POLICE DEPARTMENT,CIRCLE K,718 MAIN ST,ANDOVER,NH,03216,"http://maps.google.com/maps?q=718 MAIN ST,+ANDOVER,+NH+03216&hl=en"
ANDROSCOGGIN SHERIFF'S DEPARTMENT,POLAND TOWN OFFICE COMPLEX,1231 MAINE ST,POLAND,ME,04274,"http://maps.google.com/maps?q=1231 MAINE ST,+POLAND,+ME+04274&hl=en"
ANDROSCOGGIN SHERIFF'S DEPARTMENT,TURNER FIRE & RESCUE STATION,19 GENERAL TURNER HILL ROAD,TURNER,ME,04282,"http://maps.google.com/maps?q=19 GENERAL TURNER HILL ROAD,+TURNER,+ME+04282&hl=en"
ASHBY PD,ASHBY POLICE DEPARTMENT,893 MAIN ST.,ASHBY,MA,01431,"http://maps.google.com/maps?q=893 MAIN ST.,+ASHBY,+MA+01431&hl=en"
ASHFIELD PD,ASHFIELD PD,412 MAIN STREET,ASHFIELD,MA,01330,"http://maps.google.com/maps?q=412 MAIN STREET,+ASHFIELD,+MA+01330&hl=en"
ASHLAND POLICE DEPARTMENT,ASHLAND POLICE,20 HIGHLAND STREET,ASHLAND,NH,03217,"http://maps.google.com/maps?q=20 HIGHLAND STREET,+ASHLAND,+NH+03217&hl=en"
AUBURN POLICE DEPARTMENT,"AUBURN POLICE DEPARTMENT 
												
													COLLECTION BOX IN LOBBY",60 COURT STREET,AUBURN,ME,04210,"http://maps.google.com/maps?q=60 COURT STREET,+AUBURN,+ME+04210&hl=en"
AUBURN POLICE DEPARTMENT,"AUBURN POLICE DEPARTMENT 
												
													SAFETY COMPLEX",55 EATON HILL RD,AUBURN,NH,03032,"http://maps.google.com/maps?q=55 EATON HILL RD,+AUBURN,+NH+03032&hl=en"
AUBURN POLICE DEPARTMENT,"BEDARD PHARMACY 
												
													FRONT PARKING LOT",359 MINOT AVE,AUBURN,ME,04210,"http://maps.google.com/maps?q=359 MINOT AVE,+AUBURN,+ME+04210&hl=en"
AUGUSTA POLICE DEPARTMENT,AUGUSTA POLICE DEPARTMENT,33 UNION STREETSUITE #1,AUGUSTA,ME,04330,"http://maps.google.com/maps?q=33 UNION STREET,+AUGUSTA,+ME+04330&hl=en"
AYER POLICE DEPARTMENT,WESTFORD PD,53 MAIN STREET,WESTFORD,MA,01886,"http://maps.google.com/maps?q=53 MAIN STREET,+WESTFORD,+MA+01886&hl=en"
BARNSTEAD POLICE DEPARTMENT,BARNSTEAD POLICE DEPARTMENT,119 SOUTH BARNSTEAD ROAD,CENTER BARNSTEAD,NH,03225,"http://maps.google.com/maps?q=119 SOUTH BARNSTEAD ROAD,+CENTER BARNSTEAD,+NH+03225&hl=en"
BARRINGTON POLICE DEPARTMENT,BARRINGTON POLICE DEPARTMENT,774 FRANKLIN PIERCE HWY,BARRINGTON,NH,03825,"http://maps.google.com/maps?q=774 FRANKLIN PIERCE HWY,+BARRINGTON,+NH+03825&hl=en"
BARTLETT POLICE DEPARTMENT,"BARTLETT POLICE DEPARTMENT 
												
													TOWN HALL LOBBY",56 TOWN HALL ROAD,INTERVALE,NH,03845,"http://maps.google.com/maps?q=56 TOWN HALL ROAD,+INTERVALE,+NH+03845&hl=en"
BEDFORD POLICE DEPARTMENT,"BEDFORD SAFETY COMPLEX 
												
													55 CONSTITUTION DR. BEDFORD, NH",55 CONSTITUTION DR.,BEDFORD,NH,03110,"http://maps.google.com/maps?q=55 CONSTITUTION DR.,+BEDFORD,+NH+03110&hl=en"
BELCHERTOWN POLICE DEPARTMENT,BELCHERTOWN CENTER PARKING LOT,3 PARK STREET,BELCHERTOWN,MA,01007,"http://maps.google.com/maps?q=3 PARK STREET,+BELCHERTOWN,+MA+01007&hl=en"
BELMONT POLICE DEPARTMENT,BELMONT POLICE STATION,16 FULLER STREET,BELMONT,NH,03220,"http://maps.google.com/maps?q=16 FULLER STREET,+BELMONT,+NH+03220&hl=en"
BENNINGTON POLICE DEPARTMENT,"BENNINGTON COUNTY SHERIFF'S DEPT 
												
													FRONT LOBBY",811 US RT 7 SOUTH,BENNINGTON,VT,05201,"http://maps.google.com/maps?q=811 US RT 7 SOUTH,+BENNINGTON,+VT+05201&hl=en"
BENNINGTON POLICE DEPARTMENT,"BENNINGTON POLICE DEPARTMENT 
												
													FRONT LOBBY",118 SOUTH STREET,BENNINGTON,VT,05201,"http://maps.google.com/maps?q=118 SOUTH STREET,+BENNINGTON,+VT+05201&hl=en"
BENNINGTON POLICE DEPARTMENT,"CVS DRUG STORE 
												
													APRIL 28, 2018 FROM 10AM TO 2PM ONLY",8 KOCHER DRIVE,BENNINGTON,VT,05201,"http://maps.google.com/maps?q=8 KOCHER DRIVE,+BENNINGTON,+VT+05201&hl=en"
BENNINGTON POLICE DEPARTMENT,"MANCHESTER VT POLICE DEPARTMENT 
												
													FRONT LOBBY",6041 MAIN STREET,MANCHESTER CENTER,VT,05255,"http://maps.google.com/maps?q=6041 MAIN STREET,+MANCHESTER CENTER,+VT+05255&hl=en"
BENNINGTON POLICE DEPARTMENT,"SOUTHWESTERN VT MEDICAL CENTER 
												
													FRONT LOBBY",100 HOSPITAL DRIVE,BENNINGTON,VT,05201,"http://maps.google.com/maps?q=100 HOSPITAL DRIVE,+BENNINGTON,+VT+05201&hl=en"
BENNINGTON POLICE DEPARTMENT,"WINHALL POLICE DEPARTMENT 
												
													FRONT LOBBY",113 VT RT 30,BONDVILLE,VT,05340,"http://maps.google.com/maps?q=113 VT RT 30,+BONDVILLE,+VT+05340&hl=en"
BERLIN POLICE DEPARTMENT,BERLIN POLICE DEPARTMENT,135 GREEN STREET,BERLIN,NH,03570,"http://maps.google.com/maps?q=135 GREEN STREET,+BERLIN,+NH+03570&hl=en"
BERWICK POLICE DEPARTMENT,BERWICK POLICE DEPARTMENT,20 WILSON STREET,BERWICK,ME,03901,"http://maps.google.com/maps?q=20 WILSON STREET,+BERWICK,+ME+03901&hl=en"
BETHLEHEM POLICE DEPARTMENT,BETHLEHEM POLICE DEPARTMENT,2155 MAIN ST,BETHLEHEM,NH,03574,"http://maps.google.com/maps?q=2155 MAIN ST,+BETHLEHEM,+NH+03574&hl=en"
BEVERLY POLICE DEPARTMENT,"NORTH BEVERLY CVS 
												
													PARKING LOT",19 DODGE ST,BEVERLY,MA,01915,"http://maps.google.com/maps?q=19 DODGE ST,+BEVERLY,+MA+01915&hl=en"
BIDDEFORD POLICE DEPARTMENT,BIDDEFORD PUBLIC WORKS,371 HILL ST.,BIDDEFORD,ME,04005,"http://maps.google.com/maps?q=371 HILL ST.,+BIDDEFORD,+ME+04005&hl=en"
BILLERICA POLICE,BILLERICA POLICE,250 BOSTON RD,BILLERICA,MA,01821,"http://maps.google.com/maps?q=250 BOSTON RD,+BILLERICA,+MA+01821&hl=en"
BOSCAWEN POLICE DEPARTMENT,BOSCAWEN POLICE DEPARTMENT,116 NORTH MAIN STREET,BOSCAWEN,NH,03303,"http://maps.google.com/maps?q=116 NORTH MAIN STREET,+BOSCAWEN,+NH+03303&hl=en"
BOW POLICE DEPARTMENT,BOW POLICE DEPT.,7 KNOX ROAD,BOW,NH,03304,"http://maps.google.com/maps?q=7 KNOX ROAD,+BOW,+NH+03304&hl=en"
BOXBOROUGH PD,"BOXBOROUGH POLICE DEPARTMENT 
												
													OPEN 24/7",FRONT LOBBY520 MASSACHUSETTS AVENUE,BOXBOROUGH,MA,01719,"http://maps.google.com/maps?q=FRONT LOBBY,+BOXBOROUGH,+MA+01719&hl=en"
BRADFORD POLICE DEPARTMENT,BRADFORD POLICE DEPARTMENT,2217 STATE ROUTE 114,BRADFORD,NH,03221,"http://maps.google.com/maps?q=2217 STATE ROUTE 114,+BRADFORD,+NH+03221&hl=en"
BRENTWOOD POLICE DEPARTMENT,BRENTWOOD POLICE DEPARTMENT,1 DALTON ROAD,BRENTWOOD,NH,03833,"http://maps.google.com/maps?q=1 DALTON ROAD,+BRENTWOOD,+NH+03833&hl=en"
BRIDGTON POLICE DEPARTMENT,BRIDGTON COMMUNITY CENTER,15 DEPOT STREET,BRIDGTON,ME,04009,"http://maps.google.com/maps?q=15 DEPOT STREET,+BRIDGTON,+ME+04009&hl=en"
BRISTOL POLICE DEPARTMENT,BRISTOL POLICE DEPARTMENT,230 LAKE STREETLAKE STREET,BRISTOL,NH,03222,"http://maps.google.com/maps?q=230 LAKE STREET,+BRISTOL,+NH+03222&hl=en"
BRISTOL POLICE DEPARTMENT,BRISTOL POLICE DEPARTMENT,72 MUNSILL AVENUE,BRISTOL,VT,05443,"http://maps.google.com/maps?q=72 MUNSILL AVENUE,+BRISTOL,+VT+05443&hl=en"
BROOKLINE POLICE DEPARTMENT,BROOKLINE SAFETY COMPLEX,3 POST OFFICE DR,BROOKLINE,NH,03033,"http://maps.google.com/maps?q=3 POST OFFICE DR,+BROOKLINE,+NH+03033&hl=en"
BURLINGTON POLICE DEPARTMENT,"BURLINGTON POLICE DEPARTMENT 
												
													NORTH LOBBY",1 NORTH AVE,BURLINGTON,VT,05401,"http://maps.google.com/maps?q=1 NORTH AVE,+BURLINGTON,+VT+05401&hl=en"
BUXTON POLICE DEPARTMENT,BUXTON POLICE DEPARTMENT,185 PORTLAND ROAD,BUXTON,ME,04093,"http://maps.google.com/maps?q=185 PORTLAND ROAD,+BUXTON,+ME+04093&hl=en"
BUXTON POLICE DEPARTMENT,"RITE AID PHARMACY 
												
													COLLECTION BY BUXTON PD OUTSIDE PHARMACY",226 PARKER FARM ROAD,BUXTON,ME,04093,"http://maps.google.com/maps?q=226 PARKER FARM ROAD,+BUXTON,+ME+04093&hl=en"
CALEDONIA COUNTY SHERIFF DEPT.,CALEDONIA COUNTY SHERIFF DEPT.,1126 MAIN ST SUITE #2,SAINT JOHNSBURY,VT,05819,"http://maps.google.com/maps?q=1126 MAIN ST SUITE #2,+SAINT JOHNSBURY,+VT+05819&hl=en"
CANAAN POLICE DEPARTMENT,CANAAN POLICE DEPARTMENT,52 ROUTE 118,CANAAN,NH,03741,"http://maps.google.com/maps?q=52 ROUTE 118,+CANAAN,+NH+03741&hl=en"
CANDIA POLICE DEPARTMENT,CANDIA FIRE DEPARTMENT,11 DEERFIELD RD.,CANDIA,NH,03034,"http://maps.google.com/maps?q=11 DEERFIELD RD.,+CANDIA,+NH+03034&hl=en"
CANTERBURY POLICE DEPARTMENT,CANTERBURY POLICE DEPARTMENT,26 BAPTIST RD,CANTERBURY,NH,03224,"http://maps.google.com/maps?q=26 BAPTIST RD,+CANTERBURY,+NH+03224&hl=en"
CASTLETON POLICE DEPARTMENT,CASTLETON POLICE DEPARTMENT,263 VT ROUTE 30,CASTLETON,VT,05735,"http://maps.google.com/maps?q=263 VT ROUTE 30,+CASTLETON,+VT+05735&hl=en"
CHELMSFORD PD,CHELMSFORD PD,2 OLDE NORTH RD,CHELMSFORD,MA,01824,"http://maps.google.com/maps?q=2 OLDE NORTH RD,+CHELMSFORD,+MA+01824&hl=en"
CHESTER POLICE DEPARTMENT,"CHESTER POLICE DEPARTMENT 
												
													LOBBY",84 CHESTER STREET,CHESTER,NH,03036,"http://maps.google.com/maps?q=84 CHESTER STREET,+CHESTER,+NH+03036&hl=en"
CHITTENDEN COUNTY SHERIFF'S DEPARTMENT,PRICE CHOPPER PARKING LOT,595 SHELBURNE ROAD,BURLINGTON,VT,05401,"http://maps.google.com/maps?q=595 SHELBURNE ROAD,+BURLINGTON,+VT+05401&hl=en"
CLAREMONT POLICE DEPARTMENT,"CVS PARKING LOT 
												
													CORNER OF WALL SST & BROAD ST",WALL STBROAD ST,CLAREMONT,NH,03743,"http://maps.google.com/maps?q=WALL ST,+CLAREMONT,+NH+03743&hl=en"
CLARKU,"CLARK UNIVERSITY 
												
													HIGGINS STUDENT CENTER",950 MAIN STREET,WORCESTER,MA,01610,"http://maps.google.com/maps?q=950 MAIN STREET,+WORCESTER,+MA+01610&hl=en"
CLINTON COUNTY SHERIFFS OFFICE,ROUSES POINT FIRE STATION,48 LAKE STREET,ROUSES POINT,NY,12979,"http://maps.google.com/maps?q=48 LAKE STREET,+ROUSES POINT,+NY+12979&hl=en"
CLINTON POLICE DEPARTMENT,CLINTON POLICE DEPARTMENT,27 BAKER STREET,CLINTON,ME,04927,"http://maps.google.com/maps?q=27 BAKER STREET,+CLINTON,+ME+04927&hl=en"
COHASSET POLICE DEPARTMENT,"COHASSET POLICE DEPARTMENT HEADQUARTERS 
												
													IN POLICE STATION LOBBY",62 ELM STREET,COHASSET,MA,02025,"http://maps.google.com/maps?q=62 ELM STREET,+COHASSET,+MA+02025&hl=en"
COLEBROOK POLICE DEPARTMENT,COLEBROOK POLICE DEPARTMENT,17 BRIDGE STREET,COLEBROOK,NH,03576,"http://maps.google.com/maps?q=17 BRIDGE STREET,+COLEBROOK,+NH+03576&hl=en"
CONCORD POLICE DEPARTMENT,CONCORD POLICE DEPARTMENT,35 GREEN STREET,CONCORD,NH,03301,"http://maps.google.com/maps?q=35 GREEN STREET,+CONCORD,+NH+03301&hl=en"
CUMBERLAND COUNTY SHERIFF'S OFFICE,"RAYMOND FIRE DEPARTMENT 
												
													OPERATED BY CUMBERLAND COUNTY SHERIFF'S OFFICE",1443ROOSEVELT TRAIL,RAYMOND,ME,04071,"http://maps.google.com/maps?q=1443,+RAYMOND,+ME+04071&hl=en"
CUMBERLAND COUNTY SHERIFF'S OFFICE,"STANDISH TOWN HALL 
												
													OPERATED BY CUMBERLAND COUNTY SHERIFF'S OFFICE",175 NORTH EAST ROAD,STANDISH,ME,04084,"http://maps.google.com/maps?q=175 NORTH EAST ROAD,+STANDISH,+ME+04084&hl=en"
CUMBERLAND POLICE DEPARTMENT,CUMBERLAND POLICE DEPARTMENT,290 TUTTLE ROAD,CUMBERLAND CENTER,ME,04021,"http://maps.google.com/maps?q=290 TUTTLE ROAD,+CUMBERLAND CENTER,+ME+04021&hl=en"
CUMMINGTON POLICE,"CUMMINGTON POLICE DEPARTMENT 
												
													CUMMINGTON PUBLIC SAFETY COMPLEX",8 FAIRGROUNDS ROADBOX 98,CUMMINGTON,MA,01026,"http://maps.google.com/maps?q=8 FAIRGROUNDS ROAD,+CUMMINGTON,+MA+01026&hl=en"
DANVILLE POLICE DEPARTMENT,DANVILLE POLICE DEPARTMENT,206 MAIN STREET,DANVILLE,NH,03819,"http://maps.google.com/maps?q=206 MAIN STREET,+DANVILLE,+NH+03819&hl=en"
DEERFIELD PD,DEERFIELD POLICE DEPARTMENT,8 CONWAY STREET,SOUTH DEERFIELD,MA,01373,"http://maps.google.com/maps?q=8 CONWAY STREET,+SOUTH DEERFIELD,+MA+01373&hl=en"
DEERFIELD POLICE DEPARTMENT,DEERFIELD POLICE DEPARTMENT,8 RAYMOND ROAD,DEERFIELD,NH,03037,"http://maps.google.com/maps?q=8 RAYMOND ROAD,+DEERFIELD,+NH+03037&hl=en"
DERRY POLICE DEPARTMENT,"DERRY POLICE DEPARTMENT 
												
													FRONT PARKING LOT",1 MUNICIPAL DRIVE,DERRY,NH,03038,"http://maps.google.com/maps?q=1 MUNICIPAL DRIVE,+DERRY,+NH+03038&hl=en"
DEXTER POLICE DEPARTMENT,DEXTER POLICE STATION,1 MAIN STREET,DEXTER,ME,04930,"http://maps.google.com/maps?q=1 MAIN STREET,+DEXTER,+ME+04930&hl=en"
DIXFIELD POLICE DEPARTMENT,DIXFIELD POLICE DEPARTMENT,236 MAIN STREET,DIXFIELD,ME,04224,"http://maps.google.com/maps?q=236 MAIN STREET,+DIXFIELD,+ME+04224&hl=en"
DOVER POLICE DEPARTMENT,DOVER POLICE DEPARTMENT,46 CHESTNUT ST,DOVER,NH,03820,"http://maps.google.com/maps?q=46 CHESTNUT ST,+DOVER,+NH+03820&hl=en"
DOVER POLICE DEPT.,"DOVER POLICE DEPARTMENT 
												
													CHIEF RANDY JOHNSON",246 ROUTE 100,WEST DOVER,VT,05356,"http://maps.google.com/maps?q=246 ROUTE 100,+WEST DOVER,+VT+05356&hl=en"
DRACUT POLICE DEPARTMENT,DRACUT POLICE DEPARTMENT,110 LOON HILL ROAD,DRACUT,MA,01826,"http://maps.google.com/maps?q=110 LOON HILL ROAD,+DRACUT,+MA+01826&hl=en"
DUBLIN POLICE DEPARTMENT,DUBLIN POLICE DEPARTMENT,1122 MAIN STREET,DUBLIN,NH,03444,"http://maps.google.com/maps?q=1122 MAIN STREET,+DUBLIN,+NH+03444&hl=en"
DUDLEY POLICE DEPARTMENT,DUDLEY POLICE DEPARTMENT,71 WEST MAIN ST,DUDLEY,MA,01571,"http://maps.google.com/maps?q=71 WEST MAIN ST,+DUDLEY,+MA+01571&hl=en"
DUNBARTON POLICE DEPARTMENT,DUNBARTON POLICE DEPARTMENT,18 ROBERT ROGERS ROAD,DUNBARTON,NH,03046,"http://maps.google.com/maps?q=18 ROBERT ROGERS ROAD,+DUNBARTON,+NH+03046&hl=en"
EAST HARTFORD POLICE,"EAST HARTFORD POLICE HEADQUARTERS 
												
													EAST HARTFORD PUBLIC SAFETY COMPLEX",31 SCHOOL STREET,EAST HARTFORD,CT,06108,"http://maps.google.com/maps?q=31 SCHOOL STREET,+EAST HARTFORD,+CT+06108&hl=en"
EAST LONGMEADOW POLICE DEPARTMENT,EAST LONGMEADOW POLICE DEPARTMENT,160 SOMERS RD,EAST LONGMEADOW,MA,01028,"http://maps.google.com/maps?q=160 SOMERS RD,+EAST LONGMEADOW,+MA+01028&hl=en"
EASTHAMPTON POLICE DEPARTMENT,EASTHAMPTON PUBLIC SAFETY COMPLEX,32 PAYSON AVENUE,EASTHAMPTON,MA,01027,"http://maps.google.com/maps?q=32 PAYSON AVENUE,+EASTHAMPTON,+MA+01027&hl=en"
ELIOT POLICE DEPARTMENT,ELIOT POLICE DEPARTMENT,27 DIXON ROAD,ELIOT,ME,03903,"http://maps.google.com/maps?q=27 DIXON ROAD,+ELIOT,+ME+03903&hl=en"
ELLINGTON RESIDENT TROOPERS OFFICE,ELLINGTON RESIDENT TROOPERS OFFICE,33 ARBOR WAY,ELLINGTON,CT,06029,"http://maps.google.com/maps?q=33 ARBOR WAY,+ELLINGTON,+CT+06029&hl=en"
ENFIELD POLICE DEPARTMENT,ENFIELD POLICE DEPARTMENT,293 ELM ST.,ENFIELD,CT,06082,"http://maps.google.com/maps?q=293 ELM ST.,+ENFIELD,+CT+06082&hl=en"
ENFIELD POLICE DEPARTMENT,ENFIELD TRANSFER STATION,39 LOCKEHAVEN ROAD,ENFIELD,NH,03748,"http://maps.google.com/maps?q=39 LOCKEHAVEN ROAD,+ENFIELD,+NH+03748&hl=en"
EPPING POLICE DEPARTMENT,EPPING POLICE DEPARTMENT,37 PLEASANT STREET,EPPING,NH,03042,"http://maps.google.com/maps?q=37 PLEASANT STREET,+EPPING,+NH+03042&hl=en"
EPSOM POLICE DEPARTMENT,EPSOM POLICE DEPARTMENT,980 SUNCOOK VALLEY HWY,EPSOM,NH,03234,"http://maps.google.com/maps?q=980 SUNCOOK VALLEY HWY,+EPSOM,+NH+03234&hl=en"
ESSEX POLICE DEPARTMENT,ESSEX POLICE DEPARTMENT,145 MAPLE STREET,ESSEX JUNCTION,VT,05452,"http://maps.google.com/maps?q=145 MAPLE STREET,+ESSEX JUNCTION,+VT+05452&hl=en"
ESSEX POLICE DEPARTMENT,ESSEX POLICE DEPARTMENT,24 MARTIN ST.,ESSEX,MA,01929,"http://maps.google.com/maps?q=24 MARTIN ST.,+ESSEX,+MA+01929&hl=en"
ESSEX POLICE DEPARTMENT,KINNEY DRUGS PHARMACY,82 PEARL STREET,ESSEX JUNCTION,VT,05452,"http://maps.google.com/maps?q=82 PEARL STREET,+ESSEX JUNCTION,+VT+05452&hl=en"
EXETER POLICE DEPARTMENT,EXETER POLICE DEPARTMENT,20 COURT STREET,EXETER,NH,03833,"http://maps.google.com/maps?q=20 COURT STREET,+EXETER,+NH+03833&hl=en"
FAIR HAVEN POLICE DEPARTMENT,FAIR HAVEN POLICE DEPARTMENT,3 NORTH PARK PLACE,FAIR HAVEN,VT,05743,"http://maps.google.com/maps?q=3 NORTH PARK PLACE,+FAIR HAVEN,+VT+05743&hl=en"
FAIRFIELD POLICE DEPARTMENT,FAIRFIELD POLICE DEPARTMENT,1 POLICE PLAZA,FAIRFIELD,ME,04937,"http://maps.google.com/maps?q=1 POLICE PLAZA,+FAIRFIELD,+ME+04937&hl=en"
FALMOUTH POLICE DEPARTMENT,FALMOUTH POLICE DEPARTMENT,2 MARSHALL DRIVE,FALMOUTH,ME,04105,"http://maps.google.com/maps?q=2 MARSHALL DRIVE,+FALMOUTH,+ME+04105&hl=en"
FARMINGTON POLICE DEPARTMENT,FARMINGTON POLICE DEPARTMENT,160 MAIN ST,FARMINGTON,NH,03835,"http://maps.google.com/maps?q=160 MAIN ST,+FARMINGTON,+NH+03835&hl=en"
FARMINGTON POLICE DEPARTMENT,"FARMINGTON POLICE DEPARTMENT 
												
													MEDICATION COLLECTION BOX IN LOBBY",116 FRANKLIN AVENUE,FARMINGTON,ME,04938,"http://maps.google.com/maps?q=116 FRANKLIN AVENUE,+FARMINGTON,+ME+04938&hl=en"
FITZWILLIAM POLICE DEPARTMENT,FITZWILLIAM POLICE DEPARTMENT,6 CHURCH ST.,FITZWILLIAM,NH,03447,"http://maps.google.com/maps?q=6 CHURCH ST.,+FITZWILLIAM,+NH+03447&hl=en"
FRANKLIN & TILTON POLICE DEPARTMENT,"FRANKLIN POLICE AND TILTON POLICE 
												
													DRUG TAKE BACK COLLECTION SITE",861 CENTRAL STCVS PARKING LOT,FRANKLIN,NH,03235,"http://maps.google.com/maps?q=861 CENTRAL ST,+FRANKLIN,+NH+03235&hl=en"
FRANKLIN COUNTY SHERIFF'S OFFICE,FRANKLIN COUNTY SHERIFF'S OFFICE,123 COUNTY WAY,FARMINGTON,ME,04938,"http://maps.google.com/maps?q=123 COUNTY WAY,+FARMINGTON,+ME+04938&hl=en"
FREMONT POLICE DEPARTMENT,FREMONT POLICE DEPARTMENT,425 MAIN STREET,FREMONT,NH,03044,"http://maps.google.com/maps?q=425 MAIN STREET,+FREMONT,+NH+03044&hl=en"
FRYEBURG POLICE DEPARTMENT,"RITE AID PHARMACY 
												
													OUTSIDE PARKING LOT",119 BRIDGTON ROAD AT 5 FRYEBURG PLAZA,FRYEBURG,ME,04037,"http://maps.google.com/maps?q=119 BRIDGTON ROAD AT 5 FRYEBURG PLAZA,+FRYEBURG,+ME+04037&hl=en"
GEORGETOWN POLICE DEPARTMENT,"GEORGETOWN POLICE DEPARTMENT 
												
													POLICE STATION LOBBY 24/7/365",47 CENTRAL ST.,GEORGETOWN,MA,01833,"http://maps.google.com/maps?q=47 CENTRAL ST.,+GEORGETOWN,+MA+01833&hl=en"
GILFORD POLICE DEPARTMENT,CVS  PHARMACY,1371 LAKESHORE ROAD,GILFORD,NH,03249,"http://maps.google.com/maps?q=1371 LAKESHORE ROAD,+GILFORD,+NH+03249&hl=en"
GILMANTON POLICE DEPARTMENT,GILMANTON POLICE / PUBLIC SAFETY BUILDING,297 NH ROUTE 140,GILMANTON,NH,03237,"http://maps.google.com/maps?q=297 NH ROUTE 140,+GILMANTON,+NH+03237&hl=en"
GLASTONBURY POLICE DEPARTMENT,ACADEMY SCHOOL,2143 MAIN ST,GLASTONBURY,CT,06033,"http://maps.google.com/maps?q=2143 MAIN ST,+GLASTONBURY,+CT+06033&hl=en"
GLOUCESTER POLICE DEPARTMENT,ROSE BAKER SENIOR CENTER PARKING LOT,6 MANUEL LEWIS STREET,GLOUCESTER,MA,01930,"http://maps.google.com/maps?q=6 MANUEL LEWIS STREET,+GLOUCESTER,+MA+01930&hl=en"
GOFFSTOWN POLICE DEPARTMENT,GOFFSTOWN POLICE DEPARTMENT,326 MAST ROAD,GOFFSTOWN,NH,03045,"http://maps.google.com/maps?q=326 MAST ROAD,+GOFFSTOWN,+NH+03045&hl=en"
GORHAM POLICE DEPARTMENT,GORHAM POLICE DEPARTMENT,20 PARK STREET,GORHAM,NH,03581,"http://maps.google.com/maps?q=20 PARK STREET,+GORHAM,+NH+03581&hl=en"
GORHAM POLICE DEPARTMENT,GORHAM POLICE DEPARTMENT,270 MAIN STREET,GORHAM,ME,04038,"http://maps.google.com/maps?q=270 MAIN STREET,+GORHAM,+ME+04038&hl=en"
GOSHEN POLICE DEPARTMENT,GOSHEN POLICE DEPARTMENT,40 A MAIN ST,GOSHEN,MA,01032,"http://maps.google.com/maps?q=40 A MAIN ST,+GOSHEN,+MA+01032&hl=en"
GRAFTON POLICE DEPARTMENT,GRAFTON POLICE DEPARTMENT,28 PROVIDENCE ROAD,GRAFTON,MA,01519,"http://maps.google.com/maps?q=28 PROVIDENCE ROAD,+GRAFTON,+MA+01519&hl=en"
GRANBY POLICE DEPARTMENT,GRANBY POLICE HQ,15 NORTH GRANBY ROAD,GRANBY,CT,06035,"http://maps.google.com/maps?q=15 NORTH GRANBY ROAD,+GRANBY,+CT+06035&hl=en"
GRAND ISLE COUNTY SHERIFF'S DEPARTMENT,ALBURGH FIRE DEPARTMENT,60 FIREHOUSE ROAD,ALBURGH,VT,05440,"http://maps.google.com/maps?q=60 FIREHOUSE ROAD,+ALBURGH,+VT+05440&hl=en"
GRAND ISLE COUNTY SHERIFF'S DEPARTMENT,GRAND ISLE COUNTY SHERIFF'S DEPARTMENT,3677 US RT 2,NORTH HERO,VT,05474,"http://maps.google.com/maps?q=3677 US RT 2,+NORTH HERO,+VT+05474&hl=en"
GRAND ISLE COUNTY SHERIFF'S DEPARTMENT,SOUTH HERO RESCUE BUILDING,329 US RT 2,SOUTH HERO,VT,05486,"http://maps.google.com/maps?q=329 US RT 2,+SOUTH HERO,+VT+05486&hl=en"
GRANTHAM POLICE DEPARTMENT,GRANTHAM POLICE DEPARTMENT,300 ROUTE 10 SOUTH,GRANTHAM,NH,03753,"http://maps.google.com/maps?q=300 ROUTE 10 SOUTH,+GRANTHAM,+NH+03753&hl=en"
GREENFIELD PD,GREENFIELD POLICE DEPARTMENT,321 HIGH STREET,GREENFIELD,MA,01301,"http://maps.google.com/maps?q=321 HIGH STREET,+GREENFIELD,+MA+01301&hl=en"
GREENVILLE POLICE DEPARTMENT,GREENVILLE POLICE DEPARTMENT,7 MINDEN ST,GREENVILLE,ME,04441,"http://maps.google.com/maps?q=7 MINDEN ST,+GREENVILLE,+ME+04441&hl=en"
GROTON PD,GROTON POLICE DEPARTMENT,99 PLEASANT STREET,GROTON,MA,01450,"http://maps.google.com/maps?q=99 PLEASANT STREET,+GROTON,+MA+01450&hl=en"
GROVELAND POLICE DEPARTMENT,"GROVELAND POLICE DEPARTMENT 
												
													SGT.  ERIC C. RYAN",181 MAIN STREETSTATION LOBBY,GROVELAND,MA,01834,"http://maps.google.com/maps?q=181 MAIN STREET,+GROVELAND,+MA+01834&hl=en"
HALLOWELL POLICE DEPARTMENT,HALLOWELL POLICE DEPARTMENT,1 WINTHROP STREET,HALLOWELL,ME,04347,"http://maps.google.com/maps?q=1 WINTHROP STREET,+HALLOWELL,+ME+04347&hl=en"
HAMILTON POLICE DEPARTMENT,HAMILTON PUBLIC SAFETY BUILDING,265  BAY ROAD,SOUTH HAMILTON,MA,01982,"http://maps.google.com/maps?q=265  BAY ROAD,+SOUTH HAMILTON,+MA+01982&hl=en"
HAMPSTEAD POLICE DEPARTMENT,HAMPSTEAD POLICE DEPARTMENT,30 VETERANS WAY,HAMPSTEAD,NH,03841,"http://maps.google.com/maps?q=30 VETERANS WAY,+HAMPSTEAD,+NH+03841&hl=en"
HANOVER POLICE DEPARTMENT,"HANOVER POLICE DEPARTMENT 
												
													DRUG TAKE BACK COLLECTION BOX",46 LYME RD,HANOVER,NH,03755,"http://maps.google.com/maps?q=46 LYME RD,+HANOVER,+NH+03755&hl=en"
HARTFORD POLICE DEPARTMENT,HARTFORD POLICE DEPARTMENT,253 HIGH ST.,HARTFORD,CT,06103,"http://maps.google.com/maps?q=253 HIGH ST.,+HARTFORD,+CT+06103&hl=en"
HARVARD POLICE,"HARVARD PUBLIC SAFETY BUILDING 
												
													HARVARD POLICE",40 AYER ROAD,HARVARD,MA,01451,"http://maps.google.com/maps?q=40 AYER ROAD,+HARVARD,+MA+01451&hl=en"
HAVERHILL POLICE DEPARTMENT,HAVERHILL POLICE DEPARTMENT,2975 DARTMOUTH COLLEGE HIGHWAY,NORTH HAVERHILL,NH,03774,"http://maps.google.com/maps?q=2975 DARTMOUTH COLLEGE HIGHWAY,+NORTH HAVERHILL,+NH+03774&hl=en"
HEBRON RESIDENT TROOPER'S OFFICE - CSP TROOP K,RHAM HIGH SCHOOL,85 WALL ST,HEBRON,CT,06248,"http://maps.google.com/maps?q=85 WALL ST,+HEBRON,+CT+06248&hl=en"
HENNIKER POLICE DEPARTMENT,HENNIKER POLICE DEPARTMENT,340 WESTERN AVENUE,HENNIKER,NH,03242,"http://maps.google.com/maps?q=340 WESTERN AVENUE,+HENNIKER,+NH+03242&hl=en"
HINESBURG COMMUNITY POLICE,KINNEY DRUGS PHARMACY,10212 VERMONT ROUTE 116,HINESBURG,VT,05461,"http://maps.google.com/maps?q=10212 VERMONT ROUTE 116,+HINESBURG,+VT+05461&hl=en"
HINSDALE POLICE DEPARTMENT,HINSDALE POLICE DEPARTMENT,10 MAIN STREETPO BOX 138,HINSDALE,NH,03451,"http://maps.google.com/maps?q=10 MAIN STREET,+HINSDALE,+NH+03451&hl=en"
HOLDERNESS POLICE DEPARTMENT,HOLDERNESS POLICE DEPARTMENT,926 US ROUTE 3,HOLDERNESS,NH,03245,"http://maps.google.com/maps?q=926 US ROUTE 3,+HOLDERNESS,+NH+03245&hl=en"
HOLLAND POLICE DEPARTMENT,HOLLAND POLICE DEPARTMENT,27 STURBRIDGE RD.,HOLLAND,MA,01521,"http://maps.google.com/maps?q=27 STURBRIDGE RD.,+HOLLAND,+MA+01521&hl=en"
HOLLIS POLICE DEPARTMENT,HOLLIS PHARMACY,6 ASH STREET,HOLLIS,NH,03049,"http://maps.google.com/maps?q=6 ASH STREET,+HOLLIS,+NH+03049&hl=en"
HOLYOKE MA POLICE DEPARTMENT,"HOLYOKE POLICE DEPARTMENT 
												
													NARCOTICS/VICE DIVISION",138 APPLETON ST,HOLYOKE,MA,01040,"http://maps.google.com/maps?q=138 APPLETON ST,+HOLYOKE,+MA+01040&hl=en"
HOOKSETT POLICE DEPARTMENT,HOOKSETT POLICE DEPARTMENT,15 LEGENDS DRIVE,HOOKSETT,NH,03106,"http://maps.google.com/maps?q=15 LEGENDS DRIVE,+HOOKSETT,+NH+03106&hl=en"
HOPKINTON POLICE DEPARTMENT,HOPKINTON POLICE DEPARTMENT,1696 HOPKINTON ROAD,HOPKINTON,NH,03229,"http://maps.google.com/maps?q=1696 HOPKINTON ROAD,+HOPKINTON,+NH+03229&hl=en"
IPSWICH POLICE DEPARTMENT,DANVERS POLICE DEPARTMENT,120 ASH STREET,DANVERS,MA,01923,"http://maps.google.com/maps?q=120 ASH STREET,+DANVERS,+MA+01923&hl=en"
JACKSON POLICE DEPARTMENT,JACSKON GRAMMAR SCHOOL,10 BLACK MT. RD.,JACKSON,NH,03846,"http://maps.google.com/maps?q=10 BLACK MT. RD.,+JACKSON,+NH+03846&hl=en"
JAFFREY POLICE DEPARTMENT,JAFFREY POLICE DEPARTMENT,26 MAIN STREET,JAFFREY,NH,03452,"http://maps.google.com/maps?q=26 MAIN STREET,+JAFFREY,+NH+03452&hl=en"
JAY POLICE DEPARTMENT,JAY POLICE DEPARTMENT,340 MAIN STREET,JAY,ME,04239,"http://maps.google.com/maps?q=340 MAIN STREET,+JAY,+ME+04239&hl=en"
KEENE POLICE DEPARTMENT,KEENE POLICE DEPARTMENT,400 MARLBORO STREET,KEENE,NH,03431,"http://maps.google.com/maps?q=400 MARLBORO STREET,+KEENE,+NH+03431&hl=en"
KENNEBEC COUNTY SHERIFF'S OFFICE,"BELGRADE TRANSFER STATION 
												
													OPERATED BY KENNEBEC COUNTY SHERIFF'S OFFICE",6 MANCHESTER ROAD,BELGRADE,ME,04917,"http://maps.google.com/maps?q=6 MANCHESTER ROAD,+BELGRADE,+ME+04917&hl=en"
KENNEBEC COUNTY SHERIFF'S OFFICE,"KENNEBEC SHERIFFS OFFICE 
												
													OPERATED BY KENNEBEC COUNTY SHERIFF'S OFFICE",125 STATE STREET,AUGUSTA,ME,04330,"http://maps.google.com/maps?q=125 STATE STREET,+AUGUSTA,+ME+04330&hl=en"
KENNEBEC COUNTY SHERIFF'S OFFICE,"LITCHFIELD TRANSFER STATION 
												
													OPERATED BY KENNEBEC COUNTY SHERIFF'S OFFICE",2274 HALLOWELL RD,LITCHFIELD,ME,04350,"http://maps.google.com/maps?q=2274 HALLOWELL RD,+LITCHFIELD,+ME+04350&hl=en"
KENNEBEC COUNTY SHERIFF'S OFFICE,"READFIELD/WAYNE TRANSFER STATION 
												
													OPERATED BY KENNEBEC COUNTY SHERIFF'S OFFICE",8 OLD KENTS HILL ROAD,READFIELD,ME,04355,"http://maps.google.com/maps?q=8 OLD KENTS HILL ROAD,+READFIELD,+ME+04355&hl=en"
KENNEBUNK POLICE DEPARTMENT,"HANNAFORD SUPERMARKET 
												
													OPERATED BY KENNUBUNK PD",65 PORTLAND ROAD,KENNEBUNK,ME,04043,"http://maps.google.com/maps?q=65 PORTLAND ROAD,+KENNEBUNK,+ME+04043&hl=en"
KENNEBUNK POLICE DEPARTMENT,"KENNEBUNK POLICE DEPARTMENT 
												
													LOBBY",4 SUMMER STREET,KENNEBUNK,ME,04043,"http://maps.google.com/maps?q=4 SUMMER STREET,+KENNEBUNK,+ME+04043&hl=en"
KENNEBUNKPORT POLICE DEPARTMENT,KENNEBUNKPORT POLICE DEPARTMENT,101 MAIN STREET,KENNEBUNKPORT,ME,04046,"http://maps.google.com/maps?q=101 MAIN STREET,+KENNEBUNKPORT,+ME+04046&hl=en"
KINGSTON POLICE DEPARTMENT,"CARRIAGE TOWNE PLAZA 
												
													IN FRONT OF RITE AID",53 CHURCH ST.,KINGSTON,NH,03848,"http://maps.google.com/maps?q=53 CHURCH ST.,+KINGSTON,+NH+03848&hl=en"
KITTERY POLICE DEPARTMENT,KITTERY POLICE DEPARTMENT,200 ROGERS ROAD,KITTERY,ME,03904,"http://maps.google.com/maps?q=200 ROGERS ROAD,+KITTERY,+ME+03904&hl=en"
LACONIA POLICE DEPARTMENT,LACONIA POLICE DEPARTMENT,126 NEW SALEM ST,LACONIA,NH,03246,"http://maps.google.com/maps?q=126 NEW SALEM ST,+LACONIA,+NH+03246&hl=en"
LAMOILLE COUNTY SHERIFFS DEPT,HARDWICK POLICE DEPT,56 HIGH ST,HARDWICK,VT,05843,"http://maps.google.com/maps?q=56 HIGH ST,+HARDWICK,+VT+05843&hl=en"
LAMOILLE COUNTY SHERIFFS DEPT,KINNEY DRUGS,97 MORRISVILLE PLAZA,MORRISVILLE,VT,05661,"http://maps.google.com/maps?q=97 MORRISVILLE PLAZA,+MORRISVILLE,+VT+05661&hl=en"
LAMOILLE COUNTY SHERIFFS DEPT,LAMOILLE COUNTY SHERIFFS DEPT,162 COMMONWEALTH AVE,HYDE PARK,VT,05655,"http://maps.google.com/maps?q=162 COMMONWEALTH AVE,+HYDE PARK,+VT+05655&hl=en"
LAMOILLE COUNTY SHERIFFS DEPT,STOWE POLICE DEPARTMENT,350 SOUTH MAIN ST,STOWE,VT,05672,"http://maps.google.com/maps?q=350 SOUTH MAIN ST,+STOWE,+VT+05672&hl=en"
LANCASTER POLICE DEPARTMENT,LANCASTER POLICE DEPARTMENT,11 MECHANIC ST,LANCASTER,NH,03584,"http://maps.google.com/maps?q=11 MECHANIC ST,+LANCASTER,+NH+03584&hl=en"
LEBANON POLICE DEPARTMENT,LEBANON PD,36 POVERTY LN.,LEBANON,NH,03766,"http://maps.google.com/maps?q=36 POVERTY LN.,+LEBANON,+NH+03766&hl=en"
LEE POLICE DEPARTMENT,LEE POLICE DEPARTMENT,20 GEORGE BENNETT RD,LEE,NH,03861,"http://maps.google.com/maps?q=20 GEORGE BENNETT RD,+LEE,+NH+03861&hl=en"
LEICESTER POLICE DEPARTMENT,LEICESTER RECYCLING CENTER,200 MANNVILLE STREET,LEICESTER,MA,01524,"http://maps.google.com/maps?q=200 MANNVILLE STREET,+LEICESTER,+MA+01524&hl=en"
LENOX POLICE DEPARTMENT,"LENOX TOWN HALL 
												
													AUDITORIUM",6 WALKER ST.,LENOX,MA,01240,"http://maps.google.com/maps?q=6 WALKER ST.,+LENOX,+MA+01240&hl=en"
LEOMINSTER POLICE DEPARTMENT,LEOMINSTER POLICE DEPARTMENT,29 CHURCH ST,LEOMINSTER,MA,01453,"http://maps.google.com/maps?q=29 CHURCH ST,+LEOMINSTER,+MA+01453&hl=en"
LEVERETT POLICE DEPARTMENT,LEVERETT POLICE DEPARTMENT,95 MONTAGUE ROAD,LEVERETT,MA,01054,"http://maps.google.com/maps?q=95 MONTAGUE ROAD,+LEVERETT,+MA+01054&hl=en"
LEWISTON POLICE DEPARTMENT,"LEWISTON HIGH SCHOOL 
												
													OPERATED BY LEWISTON PD",156 EAST AVENUE,LEWISTON,ME,04240,"http://maps.google.com/maps?q=156 EAST AVENUE,+LEWISTON,+ME+04240&hl=en"
LINCOLN POLICE DEPARTMENT,LINCOLN POLICE DEPARTMENT,148 MAIN STREET,LINCOLN,NH,03251,"http://maps.google.com/maps?q=148 MAIN STREET,+LINCOLN,+NH+03251&hl=en"
LISBON POLICE DEPARTMENT,LISBON POLICE DEPARTMENT,300 LISBON ST,LISBON,ME,04250,"http://maps.google.com/maps?q=300 LISBON ST,+LISBON,+ME+04250&hl=en"
LISBON POLICE DEPARTMENT,LISBON POLICE DEPARTMENT,46 SCHOOL ST.,LISBON,NH,03585,"http://maps.google.com/maps?q=46 SCHOOL ST.,+LISBON,+NH+03585&hl=en"
LITTLETON POLICE DEPARTMENT,LITTLETON POLICE DEPARTMENT,2 KITTRIDGE LANE,LITTLETON,NH,03561,"http://maps.google.com/maps?q=2 KITTRIDGE LANE,+LITTLETON,+NH+03561&hl=en"
LITTLETON POLICE DEPARTMENT,LITTLETON POLICE DEPARTMENT,500 GREAT RD,LITTLETON,MA,01460,"http://maps.google.com/maps?q=500 GREAT RD,+LITTLETON,+MA+01460&hl=en"
LIVERMORE FALLS POLICE DEPARTMENT,LIVERMORE FALLS POLICE DEPARTMENT,2 MAIN STREET,LIVERMORE FALLS,ME,04254,"http://maps.google.com/maps?q=2 MAIN STREET,+LIVERMORE FALLS,+ME+04254&hl=en"
LOWELL POLICE DEPARTMENT,"LOWELL GENERAL HOSPITAL, SAINTS CAMPUS 
												
													PAIN MANAGEMENT CENTER",2 HOSPITAL DRIVE,LOWELL,MA,01852,"http://maps.google.com/maps?q=2 HOSPITAL DRIVE,+LOWELL,+MA+01852&hl=en"
LUDLOW POLICE DEPARTMENT,LUDLOW POLICE DEPARTMENT,612 CHAPIN ST,LUDLOW,MA,01056,"http://maps.google.com/maps?q=612 CHAPIN ST,+LUDLOW,+MA+01056&hl=en"
LUNENBURG POLICE DEPARTMENT,LUNENBURG POLICE DEPARTMENT,655 MASSACHUSETTS AVE.,LUNENBURG,MA,01462,"http://maps.google.com/maps?q=655 MASSACHUSETTS AVE.,+LUNENBURG,+MA+01462&hl=en"
LYNNFIELD POLICE DEPARTMENT,LYNNFIELD POLICE DEPARTMENT,55 SUMMER ST,LYNNFIELD,MA,01940,"http://maps.google.com/maps?q=55 SUMMER ST,+LYNNFIELD,+MA+01940&hl=en"
MADISON POLICE DEPARTMENT,MADISON POLICE DEPARTMENT,1923 VILLAGE ROAD,MADISON,NH,03849,"http://maps.google.com/maps?q=1923 VILLAGE ROAD,+MADISON,+NH+03849&hl=en"
MAINE STATE POLICE - TROOP B,MAINE STATE POLICE - TROOP B,1 GAME FARM ROAD,GRAY,ME,04039,"http://maps.google.com/maps?q=1 GAME FARM ROAD,+GRAY,+ME+04039&hl=en"
MAINE STATE POLICE - TROOP C,MAINE STATE POLICE - TROOP C,162 WEST FRONT STREET,SKOWHEGAN,ME,04976,"http://maps.google.com/maps?q=162 WEST FRONT STREET,+SKOWHEGAN,+ME+04976&hl=en"
MANCHESTER BY THE SEA POLICE,"POLICE STATION 
												
													GARAGE",10 CENTRAL ST.,MANCHESTER,MA,01944,"http://maps.google.com/maps?q=10 CENTRAL ST.,+MANCHESTER,+MA+01944&hl=en"
MANCHESTER POLICE DEPARTMENT,"CATHOLIC MEDICAL CENTER 
												
													195 MCGREGOR STREET PARKING LOT ACROSS FROM MAIN HOSPITAL",100 MCGREGOR STREET,MANCHESTER,NH,03102,"http://maps.google.com/maps?q=100 MCGREGOR STREET,+MANCHESTER,+NH+03102&hl=en"
MANCHESTER POLICE DEPARTMENT,"ELLIOT AT RIVER'S EDGE 
												
													PHARMACY PARKING LOT",185 QUEEN CITY AVENUE,MANCHESTER,NH,03103,"http://maps.google.com/maps?q=185 QUEEN CITY AVENUE,+MANCHESTER,+NH+03103&hl=en"
MANCHESTER POLICE DEPARTMENT,"MANCHESTER, NH POLICE DEPARTMENT",405 VALLEY STREET,MANCHESTER,NH,03103,"http://maps.google.com/maps?q=405 VALLEY STREET,+MANCHESTER,+NH+03103&hl=en"
MARLBOROUGH POLICE DEPARTMENT,"MARLBOROUGH POLICE STATION 
												
													FRONT LOBBY",355 BOLTON ST,MARLBOROUGH,MA,01752,"http://maps.google.com/maps?q=355 BOLTON ST,+MARLBOROUGH,+MA+01752&hl=en"
MASON POLICE DEPARTMENT,MASON POLICE DEPARTMENT,38 DARLING HILL ROAD,MASON,NH,03048,"http://maps.google.com/maps?q=38 DARLING HILL ROAD,+MASON,+NH+03048&hl=en"
MECHANIC FALLS POLICE DEPARTMENT,MECHANIC FALLS POLICE DEPARTMENT,108 LEWISTON STREET,MECHANIC FALLS,ME,04256,"http://maps.google.com/maps?q=108 LEWISTON STREET,+MECHANIC FALLS,+ME+04256&hl=en"
MELROSE POLICE DEPARTMENT,MELROSE POLICE DEPARTMENT,56 WEST FOSTER ST,MELROSE,MA,02176,"http://maps.google.com/maps?q=56 WEST FOSTER ST,+MELROSE,+MA+02176&hl=en"
MELROSE POLICE DEPARTMENT,"WALGREENS 
												
													RYAN HANLEY MGR 781-665-1329",897 MAIN ST,MELROSE,MA,02176,"http://maps.google.com/maps?q=897 MAIN ST,+MELROSE,+MA+02176&hl=en"
MEREDITH POLICE DEPARTMENT,MEREDITH POLICE DEPARTMENT,400 DANIEL WEBSTER HIGHWAY,MEREDITH,NH,03253,"http://maps.google.com/maps?q=400 DANIEL WEBSTER HIGHWAY,+MEREDITH,+NH+03253&hl=en"
MERRIMAC POLICE DEPARTMENT,MERRIMAC POLICE DEPARTMENT,16 EAST MAIN ST,MERRIMAC,MA,01860,"http://maps.google.com/maps?q=16 EAST MAIN ST,+MERRIMAC,+MA+01860&hl=en"
MERRIMACK POLICE DEPARTMENT,MERRIMACK POLICE DEPARTMENT,31 BABOOSIC LAKE ROAD,MERRIMACK,NH,03054,"http://maps.google.com/maps?q=31 BABOOSIC LAKE ROAD,+MERRIMACK,+NH+03054&hl=en"
METHUEN POLICE DEPARTMENT,METHUEN POLICE DEPARTMENT,90 HAMPSHIRE STREET,METHUEN,MA,01844,"http://maps.google.com/maps?q=90 HAMPSHIRE STREET,+METHUEN,+MA+01844&hl=en"
MEXICO POLICE DEPARTMENT,"MEXICO TOWN OFFICE 
												
													OPERATED BY MEXICO PD",134 MAIN STREET,MEXICO,ME,04257,"http://maps.google.com/maps?q=134 MAIN STREET,+MEXICO,+ME+04257&hl=en"
MIDDLEBURY POLICE DEPARTMENT,MIDDLEBURY POLICE DEPARTMENT,1 LUCIUS SHAW LN.,MIDDLEBURY,VT,05753,"http://maps.google.com/maps?q=1 LUCIUS SHAW LN.,+MIDDLEBURY,+VT+05753&hl=en"
MILFORD POLICE DEPARTMENT,MILFORD POLICE DEPARTMENT,19 GARDEN STREET,MILFORD,NH,03055,"http://maps.google.com/maps?q=19 GARDEN STREET,+MILFORD,+NH+03055&hl=en"
MILTON POLICE DEPARTMENT,MILTON POLICE DEPARTMENT,7 TOWNHOUSE RD,MILTON,NH,03851,"http://maps.google.com/maps?q=7 TOWNHOUSE RD,+MILTON,+NH+03851&hl=en"
MONMOUTH POLICE DEPARTMENT,"MONMOUTH TRANSFER STATION 
												
													OPERATED BY MONMOUTH PD",126 ROUTE 135,MONMOUTH,ME,04259,"http://maps.google.com/maps?q=126 ROUTE 135,+MONMOUTH,+ME+04259&hl=en"
MOULTONBOROUGH POLICE DEPARTMENT,MOULTONBOROUGH POLICE DEPARTMENT,1035 WHITTIER HWY,MOULTONBOROUGH,NH,03254,"http://maps.google.com/maps?q=1035 WHITTIER HWY,+MOULTONBOROUGH,+NH+03254&hl=en"
NASHUA POLICE DEPARTMENT,"DEPARTMENT OF PUBLIC WORKS (DPW) 
												
													LOCATED BEHIND CONWAY ICE ARENA",9 RIVERSIDE ST,NASHUA,NH,03062,"http://maps.google.com/maps?q=9 RIVERSIDE ST,+NASHUA,+NH+03062&hl=en"
NEW BOSTON POLICE DEPARTMENT,NEW BOSTON POLICE DEPARTMENT,116 OLD COACH ROAD,NEW BOSTON,NH,03070,"http://maps.google.com/maps?q=116 OLD COACH ROAD,+NEW BOSTON,+NH+03070&hl=en"
NEW HAMPTON POLICE DEPARTMENT,NEW HAMPTON POLICE DEPARTMENT,24 INTERVALE DR,NEW HAMPTON,NH,03256,"http://maps.google.com/maps?q=24 INTERVALE DR,+NEW HAMPTON,+NH+03256&hl=en"
NEW LONDON POLICE DEPARTMENT,NEW LONDON POLICE DEPARTMENT,25 SEAMANS ROAD375 MAIN STREET,NEW LONDON,NH,03257,"http://maps.google.com/maps?q=25 SEAMANS ROAD,+NEW LONDON,+NH+03257&hl=en"
NEWBURYPORT POLICE,NEWBURYPORT POLICE,4 GREEN ST,NEWBURYPORT,MA,01950,"http://maps.google.com/maps?q=4 GREEN ST,+NEWBURYPORT,+MA+01950&hl=en"
NEWINGTON POLICE DEPARTMENT,NEWINGTON POLICE,71 FOX POINT RD,NEWINGTON,NH,03801,"http://maps.google.com/maps?q=71 FOX POINT RD,+NEWINGTON,+NH+03801&hl=en"
NEWMARKET POLICE DEPARTMENT,NEWMARKET POLICE DEPARTMENT,70 EXETER STREET,NEWMARKET,NH,03857,"http://maps.google.com/maps?q=70 EXETER STREET,+NEWMARKET,+NH+03857&hl=en"
NEWTON POLICE DEPARTMENT,TRANSFER STATION,4 DUGWAY RD,NEWTON,NH,03858,"http://maps.google.com/maps?q=4 DUGWAY RD,+NEWTON,+NH+03858&hl=en"
NORTH ANDOVER PD,NORTH ANDOVER POLICE DEPARTMENT,1475 OSGOOD STREET,NORTH ANDOVER,MA,01845,"http://maps.google.com/maps?q=1475 OSGOOD STREET,+NORTH ANDOVER,+MA+01845&hl=en"
NORTH BERWICK POLICE DEPARTMENT,"NORTH BERWICK POLICE DEPARTMENT 
												
													CHIEF STEPHEN C. PEASLEY",21 MAIN STREET,NORTH BERWICK,ME,03906,"http://maps.google.com/maps?q=21 MAIN STREET,+NORTH BERWICK,+ME+03906&hl=en"
NORTH GREENBUSH POLICE DEPARTMENT,"NORTH GREENBUSH POLICE DEPARTMENT 
												
													CHIEF ROBERT DURIVAGE",133 BLOOMING GROVE DRIVE,TROY,NY,12180,"http://maps.google.com/maps?q=133 BLOOMING GROVE DRIVE,+TROY,+NY+12180&hl=en"
NORTH HAMPTON POLICE DEPARTMENT,NORTH HAMPTON POLICE DEPARTMENT,233 ATLANTIC AVE,NORTH HAMPTON,NH,03862,"http://maps.google.com/maps?q=233 ATLANTIC AVE,+NORTH HAMPTON,+NH+03862&hl=en"
NORTHAMPTON POLICE DEPARTMENT,JFK MIDDLE SCHOOL,100 BRIDGE RD,FLORENCE,MA,01062,"http://maps.google.com/maps?q=100 BRIDGE RD,+FLORENCE,+MA+01062&hl=en"
NORTHBOROUGH POLICE DEPARTMENT,NORTHBOROUGH POLICE DEPARTMENT,211 MAIN ST.,NORTHBOROUGH,MA,01532,"http://maps.google.com/maps?q=211 MAIN ST.,+NORTHBOROUGH,+MA+01532&hl=en"
NORTHBRIDGE POLICE DEPARTMENT,NORTHBRIDGE POLICE DEPARTMENT,1 HOPE STREET,WHITINSVILLE,MA,01588,"http://maps.google.com/maps?q=1 HOPE STREET,+WHITINSVILLE,+MA+01588&hl=en"
NORWAY POLICE DEPARTMENT,"NORWAY POLICE DEPARTMENT 
												
													OFFICER JEFFREY CAMPBELL",19 DANFORTH STREET,NORWAY,ME,04268,"http://maps.google.com/maps?q=19 DANFORTH STREET,+NORWAY,+ME+04268&hl=en"
NOTTINGHAM POLICE DEPARTMENT,NOTTINGHAM POLICE DEPARTMENT,139 STAGE ROAD,NOTTINGHAM,NH,03290,"http://maps.google.com/maps?q=139 STAGE ROAD,+NOTTINGHAM,+NH+03290&hl=en"
OAKLAND POLICE DEPARTMENT,OAKLAND POLICE DEPARTMENT,7 FAIRFIELD STREET,OAKLAND,ME,04963,"http://maps.google.com/maps?q=7 FAIRFIELD STREET,+OAKLAND,+ME+04963&hl=en"
OGUNQUIT POLICE DEPARTMENT,OGUNQUIT POLICE DEPARTMENT,20 COTTAGE STREET,OGUNQUIT,ME,03907,"http://maps.google.com/maps?q=20 COTTAGE STREET,+OGUNQUIT,+ME+03907&hl=en"
OLD ORCHARD BEACH POLICE DEPARTMENT,"OLD ORCHARD POLICE DEPARTMENT 
												
													MAIN ENTRANCE",16E EMERSON CUMMINGS BOULEVARD,OLD ORCHARD BEACH,ME,04064,"http://maps.google.com/maps?q=16E EMERSON CUMMINGS BOULEVARD,+OLD ORCHARD BEACH,+ME+04064&hl=en"
ORANGE COUNTY SHERIFF'S OFFICE,"FAIRLEE TOWN HALL 
												
													FAIRLEE POLICE DEPATMENT",75 TOWN COMMON ROAD,FAIRLEE,VT,05045,"http://maps.google.com/maps?q=75 TOWN COMMON ROAD,+FAIRLEE,+VT+05045&hl=en"
ORANGE COUNTY SHERIFF'S OFFICE,KINNEY DRUGS,151 VT-12,RANDOLPH,VT,05060,"http://maps.google.com/maps?q=151 VT-12,+RANDOLPH,+VT+05060&hl=en"
ORANGE COUNTY SHERIFF'S OFFICE,KINNEY DRUGS,901 LOWER PLAIN,BRADFORD,VT,05033,"http://maps.google.com/maps?q=901 LOWER PLAIN,+BRADFORD,+VT+05033&hl=en"
ORANGE COUNTY SHERIFF'S OFFICE,ORANGE COUNTY SHERIFF'S DEPARTMENT,11 VT ROUTE 113,CHELSEA,VT,05038,"http://maps.google.com/maps?q=11 VT ROUTE 113,+CHELSEA,+VT+05038&hl=en"
ORLEANS COUNTY SHERIFF'S DEPARTMENT,KINNEY DRUGS PHARMACY,55 SHATTUCK HILL ROAD,NEWPORT,VT,05855,"http://maps.google.com/maps?q=55 SHATTUCK HILL ROAD,+NEWPORT,+VT+05855&hl=en"
OSSIPEE POLICE DEPARTMENT,OSSIPEE POLICE DEPARTMENT,7 DORE STREET,CENTER OSSIPEE,NH,03814,"http://maps.google.com/maps?q=7 DORE STREET,+CENTER OSSIPEE,+NH+03814&hl=en"
OXFORD COUNTY SHERIFF'S OFFICE,OXFORD COUNTY SHERIFF'S OFFICE,26 WESTERN AVENUE,SOUTH PARIS,ME,04281,"http://maps.google.com/maps?q=26 WESTERN AVENUE,+SOUTH PARIS,+ME+04281&hl=en"
OXFORD COUNTY SHERIFF'S OFFICE,"OXFORD COUNTY SHERIFF'S OFFICE 
												
													BETHEL SUB-STATION",18 MAYVILLE ROAD,BETHEL,ME,04217,"http://maps.google.com/maps?q=18 MAYVILLE ROAD,+BETHEL,+ME+04217&hl=en"
OXFORD COUNTY SHERIFF'S OFFICE,"SACOPEE VALLEY HEALTH CENTER 
												
													OPERATED BY OXFORD COUNTY SHERIFF'S OFFICE",70 MAIN STREET,PORTER,ME,04068,"http://maps.google.com/maps?q=70 MAIN STREET,+PORTER,+ME+04068&hl=en"
OXFORD POLICE DEPARTMENT,"OXFORD  POLICE DEPARTMENT 
												
													OXFORD PUBLIC SAFETY BUILDING",701 MAIN ST,OXFORD,ME,04270,"http://maps.google.com/maps?q=701 MAIN ST,+OXFORD,+ME+04270&hl=en"
PARIS POLICE DEPARTMENT,PARIS POLICE DEPARTMENT,35 MARKET SQUARE,SOUTH PARIS,ME,04281,"http://maps.google.com/maps?q=35 MARKET SQUARE,+SOUTH PARIS,+ME+04281&hl=en"
PEABODY POLICE DEPARTMENT,PEABODY POLICE DEPARTMENT,6 ALLEN'S LANE,PEABODY,MA,01960,"http://maps.google.com/maps?q=6 ALLEN'S LANE,+PEABODY,+MA+01960&hl=en"
PELHAM POLICE DEPARTMENT,"PELHAM POLICE DEPT. 
												
													FRONT LOBBY",14 VILLAGE GREEN,PELHAM,NH,03076,"http://maps.google.com/maps?q=14 VILLAGE GREEN,+PELHAM,+NH+03076&hl=en"
PEMBROKE POLICE DEPARTMENT,PEMBROKE POLICE DEPARTMENT,247 PEMBROKE STREET,PEMBROKE,NH,03275,"http://maps.google.com/maps?q=247 PEMBROKE STREET,+PEMBROKE,+NH+03275&hl=en"
PEPPERELL POLICE DEPARTMENT,"PEPPERELL POLICE STATION 
												
													COLLECTION KIOSK IN MAIN LOBBY",59 MAIN STREET,PEPPERELL,MA,01463,"http://maps.google.com/maps?q=59 MAIN STREET,+PEPPERELL,+MA+01463&hl=en"
PETERBOROUGH POLICE DEPARTMENT,"PETERBOROUGH POLICE DEPARTMENT 
												
													CAPT ERNIE BELLETETE",73 GROVE STREET,PETERBOROUGH,NH,03458,"http://maps.google.com/maps?q=73 GROVE STREET,+PETERBOROUGH,+NH+03458&hl=en"
PITTSFIELD POLICE DEPARTMENT,PITTSFIELD POLICE DEPARTMENT,112 SOMERSET AVENUE,PITTSFIELD,ME,04967,"http://maps.google.com/maps?q=112 SOMERSET AVENUE,+PITTSFIELD,+ME+04967&hl=en"
PITTSFIELD POLICE DEPARTMENT,PITTSFIELD POLICE DEPARTMENT,39 ALLEN STREET,PITTSFIELD,MA,01201,"http://maps.google.com/maps?q=39 ALLEN STREET,+PITTSFIELD,+MA+01201&hl=en"
PLAINFIELD POLICE DEPARTMENT,PLAINFIELD POLICE DEPARTMENT,110 MAIN STREET,MERIDEN,NH,03770,"http://maps.google.com/maps?q=110 MAIN STREET,+MERIDEN,+NH+03770&hl=en"
PLAISTOW POLICE DEPARTMENT,RITE AID PHARMACY,31 GARDEN RD,PLAISTOW,NH,03865,"http://maps.google.com/maps?q=31 GARDEN RD,+PLAISTOW,+NH+03865&hl=en"
PLATTSBURGH POLICE DEPARTMENT,PLATTSBURGH PD,45 PINE STREET,PLATTSBURGH,NY,12901,"http://maps.google.com/maps?q=45 PINE STREET,+PLATTSBURGH,+NY+12901&hl=en"
PLYMOUTH POLICE DEPARTMENT,PLYMOUTH POLICE DEPARTMENT,334 MAIN STREET,PLYMOUTH,NH,03264,"http://maps.google.com/maps?q=334 MAIN STREET,+PLYMOUTH,+NH+03264&hl=en"
PORTSMOUTH POLICE DEPARTMENT,"PORTSMOUTH POLICE DEPARTMENT 
												
													LT MARK NEWPORT/JIM GASKELL",3 JUNKINS AVE,PORTSMOUTH,NH,03801,"http://maps.google.com/maps?q=3 JUNKINS AVE,+PORTSMOUTH,+NH+03801&hl=en"
PUTNAM POLICE DEPT,FARMER'S MARKETPLACE PAVILLION,3 KENNEDY DR,PUTNAM,CT,06260,"http://maps.google.com/maps?q=3 KENNEDY DR,+PUTNAM,+CT+06260&hl=en"
RANGELEY POLICE DEPARTMENT,"RANGELEY POLICE STATION 
												
													RANGELEY TOWN OFFICE BUILDING",15 SCHOOL ST,RANGELEY,ME,04970,"http://maps.google.com/maps?q=15 SCHOOL ST,+RANGELEY,+ME+04970&hl=en"
RAYMOND POLICE DEPARTMENT,RAYMOND POLICE DEPARTMENT,1 SCRIBNER RD.,RAYMOND,NH,03077,"http://maps.google.com/maps?q=1 SCRIBNER RD.,+RAYMOND,+NH+03077&hl=en"
RICHMOND POLICE DEPARTMENT,RICHMOND POLICE DEPARTMENT,203 BRIDGE STREET,RICHMOND,VT,05477,"http://maps.google.com/maps?q=203 BRIDGE STREET,+RICHMOND,+VT+05477&hl=en"
RINDGE POLICE DEPARTMENT,RINDGE POLICE DEPARTMENT,158 MAIN ST,RINDGE,NH,03461,"http://maps.google.com/maps?q=158 MAIN ST,+RINDGE,+NH+03461&hl=en"
ROCHESTER POLICE DEPARTMENT,ROCHESTER POLICE DEPARTMENT,23 WAKEFIELD ST,ROCHESTER,NH,03867,"http://maps.google.com/maps?q=23 WAKEFIELD ST,+ROCHESTER,+NH+03867&hl=en"
ROLLINSFORD POLICE DEPARTMENT,ROLLINSFORD POLICE DEPARTMENT,667 MAIN STREET,ROLLINSFORD,NH,03869,"http://maps.google.com/maps?q=667 MAIN STREET,+ROLLINSFORD,+NH+03869&hl=en"
ROWELY POLICE DEPARTMENT,"TOWN HALL ANNEX 
												
													COUNCIL ON AGING",39 CENTRAL STREET,ROWLEY,MA,01969,"http://maps.google.com/maps?q=39 CENTRAL STREET,+ROWLEY,+MA+01969&hl=en"
RUMFORD POLICE DEPARTMENT,RUMFORD POLICE DEPARTMENT,150 RIVER STREET,RUMFORD,ME,04276,"http://maps.google.com/maps?q=150 RIVER STREET,+RUMFORD,+ME+04276&hl=en"
RUTLAND COUNTY SHERIFF'S DEPARTMENT,DIAMOND RUN MALL,46 DIAMOND RUN MALL PLACE,RUTLAND,VT,05701,"http://maps.google.com/maps?q=46 DIAMOND RUN MALL PLACE,+RUTLAND,+VT+05701&hl=en"
RUTLAND PD,RUTLAND PD,242 MAIN STREET,RUTLAND,MA,01543,"http://maps.google.com/maps?q=242 MAIN STREET,+RUTLAND,+MA+01543&hl=en"
SABATTUS POLICE DEPARTMENT,SABATTUS POLICE DEPARTMENT,190 MIDDLE ROAD,SABATTUS,ME,04280,"http://maps.google.com/maps?q=190 MIDDLE ROAD,+SABATTUS,+ME+04280&hl=en"
SACO POLICE DEPARTMENT,"SACO COMMUNITY CENTER 
												
													OPERATED BY SACO PD",75 FRANKLIN STREET,SACO,ME,04072,"http://maps.google.com/maps?q=75 FRANKLIN STREET,+SACO,+ME+04072&hl=en"
SACO POLICE DEPARTMENT,"SACO POLICE DEPARTMENT 
												
													MEDICATION COLLECTION BOX IN LOBBY",20 STORER ST,SACO,ME,04072,"http://maps.google.com/maps?q=20 STORER ST,+SACO,+ME+04072&hl=en"
SALEM PD,SALEM POLICE DEPT,95 MARGIN ST,SALEM,MA,01970,"http://maps.google.com/maps?q=95 MARGIN ST,+SALEM,+MA+01970&hl=en"
SALEM POLICE DEPARTMENT,SALEM POLICE DEPARTMENT,9 VETERANS MEMORIAL PARKWAY,SALEM,NH,03079,"http://maps.google.com/maps?q=9 VETERANS MEMORIAL PARKWAY,+SALEM,+NH+03079&hl=en"
SALEM STATE POLICE,SALEM STATE POLICE DEPARTMENT,71 LORING AVENUE,SALEM,MA,01970,"http://maps.google.com/maps?q=71 LORING AVENUE,+SALEM,+MA+01970&hl=en"
SALISBURY POLICE DEPARTMENT,"SALISBURY POLICE DEPARTMENT 
												
													FRONT LOBBY SELF-SERVE COLLECTION BOX",181 BEACH ROAD,SALISBURY,MA,01952,"http://maps.google.com/maps?q=181 BEACH ROAD,+SALISBURY,+MA+01952&hl=en"
SANBORNTON POLICE DEPARTMENT,SANBORNTON POLICE DEPARTMENT,565 SANBORN ROAD,SANBORNTON,NH,03269,"http://maps.google.com/maps?q=565 SANBORN ROAD,+SANBORNTON,+NH+03269&hl=en"
SANDWICH POLICE DEPARTMENT,SANDWICH TRANSFER STATION,465 HOLDERNESS RD,CENTER SANDWICH,NH,03227,"http://maps.google.com/maps?q=465 HOLDERNESS RD,+CENTER SANDWICH,+NH+03227&hl=en"
SANFORD POLICE DEPARTMENT,SANFORD POLICE DEPARTMENT,935 MAIN STREET,SANFORD,ME,04073,"http://maps.google.com/maps?q=935 MAIN STREET,+SANFORD,+ME+04073&hl=en"
SAUGUS POLICE,SAUGUS POLICE DEPARTMENT,27 HAMILTON STREET,SAUGUS,MA,01906,"http://maps.google.com/maps?q=27 HAMILTON STREET,+SAUGUS,+MA+01906&hl=en"
SCARBOROUGH POLICE DEPARTMENT,"SCARBOROUGH POLICE DEPARTMENT 
												
													SGT TIM BARKER",246 US RTE. 1,SCARBOROUGH,ME,04074,"http://maps.google.com/maps?q=246 US RTE. 1,+SCARBOROUGH,+ME+04074&hl=en"
SEABROOK POLICE DEPARTMENT,SEABROOK POLICE DEPARTMENT,7 LIBERTY LANE,SEABROOK,NH,03874,"http://maps.google.com/maps?q=7 LIBERTY LANE,+SEABROOK,+NH+03874&hl=en"
SHELBURNE POLICE DEPARTMENT,SHELBURNE POLICE DEPARTMENT,5420 SHELBURNE ROAD,SHELBURNE,VT,05482,"http://maps.google.com/maps?q=5420 SHELBURNE ROAD,+SHELBURNE,+VT+05482&hl=en"
SHREWSBURY POLICE DEPARTMENT,SHREWSBURY SENIOR CENTER,98 MAPLE AVE,SHREWSBURY,MA,01545,"http://maps.google.com/maps?q=98 MAPLE AVE,+SHREWSBURY,+MA+01545&hl=en"
SKOWHEGAN POLICE DEPARTMENT,SKOWHEGAN POLICE DEPARTMENT,225 WATER STREET,SKOWHEGAN,ME,04976,"http://maps.google.com/maps?q=225 WATER STREET,+SKOWHEGAN,+ME+04976&hl=en"
SOMERSET COUNTY SHERIFF'S OFFICE,"SOMERSET COUNTY SHERIFF'S OFFICE 
												
													JACKMAN DIVISION",HEALD STREAM ROAD,JACKMAN,ME,04945,"http://maps.google.com/maps?q=HEALD STREAM ROAD,+JACKMAN,+ME+04945&hl=en"
SOMERSET COUNTY SHERIFF'S OFFICE,"SOMERSET COUNTY SHERIFF'S OFFICE 
												
													JAIL LOBBY",131 EAST MADISON ROAD,MADISON,ME,04950,"http://maps.google.com/maps?q=131 EAST MADISON ROAD,+MADISON,+ME+04950&hl=en"
SOMERSET COUNTY SHERIFF'S OFFICE,"SOMERSET COUNTY SHERIFF'S OFFICE 
												
													MADISON DIVISION",26 WESTON AVENUE,MADISON,ME,04950,"http://maps.google.com/maps?q=26 WESTON AVENUE,+MADISON,+ME+04950&hl=en"
SOMERSWORTH POLICE DEPARTMENT,SOMERSWORTH POLICE DEPT.,12 LILAC LANE,SOMERSWORTH,NH,03878,"http://maps.google.com/maps?q=12 LILAC LANE,+SOMERSWORTH,+NH+03878&hl=en"
SOUTH BERWICK POLICE DEPARTMENT,"COMMUNITY CENTER 
												
													OPERATED BY SOUTH BERWICK PD",71 NORTON STREET,SOUTH BERWICK,ME,03908,"http://maps.google.com/maps?q=71 NORTON STREET,+SOUTH BERWICK,+ME+03908&hl=en"
SOUTH WINDSOR POLICE DEPARTMENT,SOUTH WINDSOR POLICE DEPARTMENT,151 SAND HILL ROAD,SOUTH WINDSOR,CT,06074,"http://maps.google.com/maps?q=151 SAND HILL ROAD,+SOUTH WINDSOR,+CT+06074&hl=en"
SOUTHAMPTON POLICE DEPARTMENT,SOUTHAMPTON FIRE/TOWN HALL PARKING LOT,210 COLLEGE HIGHWAY,SOUTHAMPTON,MA,01073,"http://maps.google.com/maps?q=210 COLLEGE HIGHWAY,+SOUTHAMPTON,+MA+01073&hl=en"
SOUTHBRIDGE POLICE DEPARTMENT,SOUTHBRIDGE POLICE DEPARTMENT,1 MECHANIC STREET,SOUTHBRIDGE,MA,01550,"http://maps.google.com/maps?q=1 MECHANIC STREET,+SOUTHBRIDGE,+MA+01550&hl=en"
SPENCER POLICE DEPARTMENT,CVS PHARMACY,133 MAIN STREET,SPENCER,MA,01562,"http://maps.google.com/maps?q=133 MAIN STREET,+SPENCER,+MA+01562&hl=en"
SPRINGFIELD POLICE DEPARTMENT,CENTRAL HIGH SCHOOL,1840 ROOSEVELT AVE,SPRINGFIELD,MA,01109,"http://maps.google.com/maps?q=1840 ROOSEVELT AVE,+SPRINGFIELD,+MA+01109&hl=en"
ST. ALBANS POLICE DEPARTMENT,KINNEY DRUGS PHARMACY,164 SWANTON ROAD,SAINT ALBANS,VT,05478,"http://maps.google.com/maps?q=164 SWANTON ROAD,+SAINT ALBANS,+VT+05478&hl=en"
ST. JOHNSBURY POLICE DEPARTMENT,ST. JOHNSBURY POLICE DEPARTMENT,1187 MAIN STREETSUITE 1,SAINT JOHNSBURY,VT,05819,"http://maps.google.com/maps?q=1187 MAIN STREET,+SAINT JOHNSBURY,+VT+05819&hl=en"
STRATHAM POLICE DEPARTMENT,"STRATHAM POLICE DEPT. 
												
													FRONT LOBBY",76 PORTSMOUTH AVE.,STRATHAM,NH,03885,"http://maps.google.com/maps?q=76 PORTSMOUTH AVE.,+STRATHAM,+NH+03885&hl=en"
SUFFIELD POLICE DEPARTMENT,CVS PHARMACY PARKING LOT,163 MOUNTAIN RDSUFFIELD,SUFFIELD,CT,06078,"http://maps.google.com/maps?q=163 MOUNTAIN RD,+SUFFIELD,+CT+06078&hl=en"
SULLIVAN COUNTY SHERIFF'S OFFICE,"SULLIVAN COUNTY MUNICIPAL COMPLEX 
												
													FRONT ENTRANCE",14 MAIN STREET,NEWPORT,NH,03773,"http://maps.google.com/maps?q=14 MAIN STREET,+NEWPORT,+NH+03773&hl=en"
SUNAPEE POLICE DEPARTMENT,SUNAPEE POLICE DEPARTMENT,9 SARGENT ROAD,SUNAPEE,NH,03782,"http://maps.google.com/maps?q=9 SARGENT ROAD,+SUNAPEE,+NH+03782&hl=en"
SUNDERLAND POLICE DEPARTMENT,TOWN OF SUNDERLAND POLICE DEPARTMENT,105 RIVER ROAD,SUNDERLAND,MA,01375,"http://maps.google.com/maps?q=105 RIVER ROAD,+SUNDERLAND,+MA+01375&hl=en"
SWAMPSCOTT POLICE,SWAMPSCOTT POLICE HEADQUARTERS,531 HUMPHREY STREET,SWAMPSCOTT,MA,01907,"http://maps.google.com/maps?q=531 HUMPHREY STREET,+SWAMPSCOTT,+MA+01907&hl=en"
SWANTON VILLAGE POLICE,SWANTON REXALL DRUGS,44 MERCHANTS ROW,SWANTON,VT,05488,"http://maps.google.com/maps?q=44 MERCHANTS ROW,+SWANTON,+VT+05488&hl=en"
TAMWORTH POLICE DEPARTMENT,"TAMWORTH POLICE DEPARTMENT 
												
													LOBBY",100 TAMWORTH RD,TAMWORTH,NH,03886,"http://maps.google.com/maps?q=100 TAMWORTH RD,+TAMWORTH,+NH+03886&hl=en"
TEMPLETON PD,NARRAGANSETT REGIONAL MIDDLE SCHOOL,464 BALDWINVILLE ROAD,TEMPLETON,MA,01468,"http://maps.google.com/maps?q=464 BALDWINVILLE ROAD,+TEMPLETON,+MA+01468&hl=en"
TEWKSBURY POLICE DEPARTMENT,TEWKSBURY POLICE HEADQUARTERS,918 MAIN STREET,TEWKSBURY,MA,01876,"http://maps.google.com/maps?q=918 MAIN STREET,+TEWKSBURY,+MA+01876&hl=en"
THETFORD VT POLICE DEPARTMENT,"THETFORD RECYCLING CENTER 
												
													8:30 AM - NOON",4706 VT ROUTE 113,THETFORD CENTER,VT,05075,"http://maps.google.com/maps?q=4706 VT ROUTE 113,+THETFORD CENTER,+VT+05075&hl=en"
THORNTON POLICE DEPARTMENT,THORNTON POLICE DEPT.,16 MERRILL  ACCESS ROAD,THORNTON,NH,03285,"http://maps.google.com/maps?q=16 MERRILL  ACCESS ROAD,+THORNTON,+NH+03285&hl=en"
TOPSFIELD POLICE DEPARTMENT,TOPSFIELD POLICE DEPARTMENT,210 BOSTON STREET,TOPSFIELD,MA,01983,"http://maps.google.com/maps?q=210 BOSTON STREET,+TOPSFIELD,+MA+01983&hl=en"
TOWNSEND POLICE DEPARTMENT,TOWNSEND POLICE DEPARTMENT,70 BROOKLINE STREET,TOWNSEND,MA,01469,"http://maps.google.com/maps?q=70 BROOKLINE STREET,+TOWNSEND,+MA+01469&hl=en"
TROY POLICE DEPARTMENT,TROY POLICE DEPARTMENT,55 STATE STREET,TROY,NY,12180,"http://maps.google.com/maps?q=55 STATE STREET,+TROY,+NY+12180&hl=en"
TROY POLICE DEPARTMENT,TROY POLICE DEPT,14 CENTRAL SQUARE,TROY,NH,03465,"http://maps.google.com/maps?q=14 CENTRAL SQUARE,+TROY,+NH+03465&hl=en"
TUFTONBORO POLICE DEPARTMENT,TUFTONBORO TRANSFER STATION,20 SARGENTS CROSSING,CENTER TUFTONBORO,NH,03816,"http://maps.google.com/maps?q=20 SARGENTS CROSSING,+CENTER TUFTONBORO,+NH+03816&hl=en"
TYNGSBOROUGH POLICE DEPARTMENT,TYNGSBOROUGH POLICE DEPARTMENT,20 WESTFORD ROAD,TYNGSBOROUGH,MA,01879,"http://maps.google.com/maps?q=20 WESTFORD ROAD,+TYNGSBOROUGH,+MA+01879&hl=en"
UNIVERSITY OF NEW HAMPSHIRE POLICE DEPARTMENT,UNH HEALTH SERVICES CLINIC,4 PETTEE BROOK LN,DURHAM,NH,03824,"http://maps.google.com/maps?q=4 PETTEE BROOK LN,+DURHAM,+NH+03824&hl=en"
UNIVERSITY OF NEW HAMPSHIRE POLICE DEPARTMENT,UNH POLICE DEPARTMENT,18 WATERWORKS RD,DURHAM,NH,03824,"http://maps.google.com/maps?q=18 WATERWORKS RD,+DURHAM,+NH+03824&hl=en"
VERMONT STATE POLICE,KINNEY DRUGS PHARMACY,155 SOUTH MAIN STREET,CAMBRIDGE,VT,05444,"http://maps.google.com/maps?q=155 SOUTH MAIN STREET,+CAMBRIDGE,+VT+05444&hl=en"
VERMONT STATE POLICE,VERMONT STATE POLICE - NEW HAVEN BARRACKS,2490 ETHAN ALLEN HIGHWAY,NEW HAVEN,VT,05472,"http://maps.google.com/maps?q=2490 ETHAN ALLEN HIGHWAY,+NEW HAVEN,+VT+05472&hl=en"
VERMONT STATE POLICE,VERMONT STATE POLICE - ROYALTON BARRACKS,2011 VT RT 107,BETHEL,VT,05032,"http://maps.google.com/maps?q=2011 VT RT 107,+BETHEL,+VT+05032&hl=en"
VERMONT STATE POLICE,VERMONT STATE POLICE - RUTLAND BARRACKS,124 STATE PLACE,RUTLAND,VT,05701,"http://maps.google.com/maps?q=124 STATE PLACE,+RUTLAND,+VT+05701&hl=en"
VERMONT STATE POLICE,VERMONT STATE POLICE - SHAFTSBURY BARRACKS,96 AIRPORT ROAD,SHAFTSBURY,VT,05262,"http://maps.google.com/maps?q=96 AIRPORT ROAD,+SHAFTSBURY,+VT+05262&hl=en"
VERMONT STATE POLICE,VERMONT STATE POLICE - WESTMINSTER BARRACKS,1330 WESTMINSTER HIGHTS ROAD,PUTNEY,VT,05346,"http://maps.google.com/maps?q=1330 WESTMINSTER HIGHTS ROAD,+PUTNEY,+VT+05346&hl=en"
VERNON POLICE DEPARTMENT,WALGREENS PHARMACY,188 UNION STREET,VERNON ROCKVILLE,CT,06066,"http://maps.google.com/maps?q=188 UNION STREET,+VERNON ROCKVILLE,+CT+06066&hl=en"
WAKEFIELD POLICE DEPARTMENT,WAKEFIELD POLICE DEPARTMENT,1 UNION ST,WAKEFIELD,MA,01880,"http://maps.google.com/maps?q=1 UNION ST,+WAKEFIELD,+MA+01880&hl=en"
WAKEFIELD POLICE DEPARTMENT,WAKEFIELD PUBLIC SAFETY BUILDING,2017 WAKEFIELD ROAD,SANBORNVILLE,NH,03872,"http://maps.google.com/maps?q=2017 WAKEFIELD ROAD,+SANBORNVILLE,+NH+03872&hl=en"
WAKEFIELD POLICE DEPARTMENT,WALGREENS PHARMACY,572 MAIN ST,WAKEFIELD,MA,01880,"http://maps.google.com/maps?q=572 MAIN ST,+WAKEFIELD,+MA+01880&hl=en"
WALPOLE POLICE DEPARTMENT,WALPOLE RECYCLE CENTER,207 WHITCOMB ROAD,WALPOLE,NH,03608,"http://maps.google.com/maps?q=207 WHITCOMB ROAD,+WALPOLE,+NH+03608&hl=en"
WASHINGTON COUNTY SHERIFF'S DEPARTMENT,BARRE CITY POLICE DEPARTMENT,15 FOURTH STREET,BARRE,VT,05641,"http://maps.google.com/maps?q=15 FOURTH STREET,+BARRE,+VT+05641&hl=en"
WASHINGTON COUNTY SHERIFF'S DEPARTMENT,"KINNEY DRUGS PHARMACY 
												
													BERLIN POLICE DEPARTMENT",800 US ROUTE 302,BARRE,VT,05641,"http://maps.google.com/maps?q=800 US ROUTE 302,+BARRE,+VT+05641&hl=en"
WASHINGTON COUNTY SHERIFF'S DEPARTMENT,MONTPELIER POLICE DEPARTMENT,1 PITKIN COURT,MONTPELIER,VT,05602,"http://maps.google.com/maps?q=1 PITKIN COURT,+MONTPELIER,+VT+05602&hl=en"
WASHINGTON COUNTY SHERIFF'S DEPARTMENT,NORTHFIELD POLICE DEPARTMENT,110 WALL STREET,NORTHFIELD,VT,05663,"http://maps.google.com/maps?q=110 WALL STREET,+NORTHFIELD,+VT+05663&hl=en"
WASHINGTON COUNTY SHERIFF'S DEPARTMENT,VERMONT STATE POLICE - MIDDLESEX BARRACKS,1080 US ROUTE 2,MIDDLESEX,VT,05602,"http://maps.google.com/maps?q=1080 US ROUTE 2,+MIDDLESEX,+VT+05602&hl=en"
WASHINGTON COUNTY SHERIFF'S DEPARTMENT,WASHINGTON COUNTY SHERIFF'S DEPARTMENT,10 ELM STREET,MONTPELIER,VT,05602,"http://maps.google.com/maps?q=10 ELM STREET,+MONTPELIER,+VT+05602&hl=en"
WASHINGTON POLICE DEPARTMENT,WASHINGTON POLICE DEPARTMENT,5 HALFMOON POND RD,WASHINGTON,NH,03280,"http://maps.google.com/maps?q=5 HALFMOON POND RD,+WASHINGTON,+NH+03280&hl=en"
WATERVILLE POLICE DEPARTMENT,"WATERVILLE POLICE DEPARTMENT 
												
													INSIDE LOBBY",10 COLBY ST,WATERVILLE,ME,04901,"http://maps.google.com/maps?q=10 COLBY ST,+WATERVILLE,+ME+04901&hl=en"
WATERVILLE VALLEY DEPT. OF PUBLIC SAFETY,TOWN OF WATERVILLE VALLEY POLICE DEPARTMENT,14 TAC LN,WATERVILLE VALLEY,NH,03215,"http://maps.google.com/maps?q=14 TAC LN,+WATERVILLE VALLEY,+NH+03215&hl=en"
WEBSTER PD,WEBSTER POLICE DEPT.,357 MAIN ST,WEBSTER,MA,01570,"http://maps.google.com/maps?q=357 MAIN ST,+WEBSTER,+MA+01570&hl=en"
WEBSTER POLICE DEPARTMENT,WEBSTER POLICE DEPARTMENT,851 BATTLE STREET,WEBSTER,NH,03303,"http://maps.google.com/maps?q=851 BATTLE STREET,+WEBSTER,+NH+03303&hl=en"
WELLS POLICE DEPARTMENT,"YORK HOSPITAL AT WELLS URGENT CARE 
												
													OPERATED BY WELLS PD",114 SANFORD ROAD,WELLS,ME,04090,"http://maps.google.com/maps?q=114 SANFORD ROAD,+WELLS,+ME+04090&hl=en"
WEST NEWBURY POLICE DEPARTMENT,WEST NEWBURY POLICE DEPARTMENT,401 MAIN STREET,WEST NEWBURY,MA,01985,"http://maps.google.com/maps?q=401 MAIN STREET,+WEST NEWBURY,+MA+01985&hl=en"
WESTBROOK POLICE DEPARTMENT,WESTBROOK POLICE DEPARTMENT,570 MAIN STREET,WESTBROOK,ME,04092,"http://maps.google.com/maps?q=570 MAIN STREET,+WESTBROOK,+ME+04092&hl=en"
WESTFORD PD,WESTFORD POLICE DEPT,53 MAIN ST,WESTFORD,MA,01886,"http://maps.google.com/maps?q=53 MAIN ST,+WESTFORD,+MA+01886&hl=en"
WESTMINSTER POLICE DEPARTMENT,"WESTMINSTER PUBLIC SAFETY BUILDING 
												
													LOBBY - DROP BOX",7 SOUTH ST,WESTMINSTER,MA,01473,"http://maps.google.com/maps?q=7 SOUTH ST,+WESTMINSTER,+MA+01473&hl=en"
WILLIAMSBURG POLICE DEPT,WILLAIMSBURG PHARMACY,49 MAIN ST,WILLIAMSBURG,MA,01096,"http://maps.google.com/maps?q=49 MAIN ST,+WILLIAMSBURG,+MA+01096&hl=en"
WILLISTON POLICE DEPARTMENT,WILLISTON POLICE DEPARTMENT,7928 WILLISTON ROAD,WILLISTON,VT,05495,"http://maps.google.com/maps?q=7928 WILLISTON ROAD,+WILLISTON,+VT+05495&hl=en"
WILTON POLICE DEPARTMENT,WILTON POLICE DEPARTMENT,7 BURNS HILL ROAD,WILTON,NH,03086,"http://maps.google.com/maps?q=7 BURNS HILL ROAD,+WILTON,+NH+03086&hl=en"
WILTON POLICE DEPARTMENT,WILTON POLICE DEPARTMENT,874 MAIN STREET,WILTON,ME,04294,"http://maps.google.com/maps?q=874 MAIN STREET,+WILTON,+ME+04294&hl=en"
WINCHESTER POLICE DEPARTMENT,WINCHESTER POLICE DEPARTMENT,6 PARKER STREET,WINCHESTER,NH,03470,"http://maps.google.com/maps?q=6 PARKER STREET,+WINCHESTER,+NH+03470&hl=en"
WINDHAM COUNTY SHERIFF'S OFFICE,BELLOWS FALLS POLICE DEPARTMENT,170 ROCKINGHAM STREET,BELLOWS FALLS,VT,05101,"http://maps.google.com/maps?q=170 ROCKINGHAM STREET,+BELLOWS FALLS,+VT+05101&hl=en"
WINDHAM COUNTY SHERIFF'S OFFICE,BRATTLEBORO POLICE DEPARTMENT,62 BLACK MOUNTAIN ROAD,BRATTLEBORO,VT,05301,"http://maps.google.com/maps?q=62 BLACK MOUNTAIN ROAD,+BRATTLEBORO,+VT+05301&hl=en"
WINDHAM COUNTY SHERIFF'S OFFICE,DOVER POLICE DEPARTMENT,246 VT RT 100,WEST DOVER,VT,05356,"http://maps.google.com/maps?q=246 VT RT 100,+WEST DOVER,+VT+05356&hl=en"
WINDHAM COUNTY SHERIFF'S OFFICE,WILMINGTON POLICE DEPARTMENT,2 EAST MAIN STREET,WILMINGTON,VT,05363,"http://maps.google.com/maps?q=2 EAST MAIN STREET,+WILMINGTON,+VT+05363&hl=en"
WINDHAM COUNTY SHERIFF'S OFFICE,WINDHAM COUNT SHERIFF'S OFFICE,11 JAIL STREET,NEWFANE,VT,05345,"http://maps.google.com/maps?q=11 JAIL STREET,+NEWFANE,+VT+05345&hl=en"
WINDHAM NH POLICE DEPARTMENT,WINDHAM POLICE DEPARTMMENT,4 FELLOWS ROAD,WINDHAM,NH,03087,"http://maps.google.com/maps?q=4 FELLOWS ROAD,+WINDHAM,+NH+03087&hl=en"
WINDHAM POLICE DEPARTMENT,WINDHAM PUBLIC SAFETY BUILDING,375 GRAY ROAD,WINDHAM,ME,04062,"http://maps.google.com/maps?q=375 GRAY ROAD,+WINDHAM,+ME+04062&hl=en"
WINDSOR COUNTY SHERIFF'S DEPARTMENT,CHESTER POLICE DEPARTMENT,556 ELM STREET,CHESTER,VT,05143,"http://maps.google.com/maps?q=556 ELM STREET,+CHESTER,+VT+05143&hl=en"
WINDSOR COUNTY SHERIFF'S DEPARTMENT,HARTFORD POLICE DEPARTMENT,812 VA CUTOFF ROAD,WHITE RIVER JUNCTION,VT,05001,"http://maps.google.com/maps?q=812 VA CUTOFF ROAD,+WHITE RIVER JUNCTION,+VT+05001&hl=en"
WINDSOR COUNTY SHERIFF'S DEPARTMENT,LUDLOW POLICE DEPARTMENT,19 WEST HILL ROAD,LUDLOW,VT,05149,"http://maps.google.com/maps?q=19 WEST HILL ROAD,+LUDLOW,+VT+05149&hl=en"
WINDSOR COUNTY SHERIFF'S DEPARTMENT,NORWICH POLICE DEPARTMENT,10 HAZEN STREET,NORWICH,VT,05055,"http://maps.google.com/maps?q=10 HAZEN STREET,+NORWICH,+VT+05055&hl=en"
WINDSOR COUNTY SHERIFF'S DEPARTMENT,ROCHESTER CONSTABLE'S OFFICE,67 SCHOOL STREET,ROCHESTER,VT,05767,"http://maps.google.com/maps?q=67 SCHOOL STREET,+ROCHESTER,+VT+05767&hl=en"
WINDSOR COUNTY SHERIFF'S DEPARTMENT,SPRINGFIELD POLICE DEPARTMENT,201 CLINTON STREET,SPRINGFIELD,VT,05156,"http://maps.google.com/maps?q=201 CLINTON STREET,+SPRINGFIELD,+VT+05156&hl=en"
WINDSOR COUNTY SHERIFF'S DEPARTMENT,"WEATHERSFIELD TRANSFER STATION 
												
													WEATHERSFIELD POLICE DEPARTMENT",5024 VT RT 106,PERKINSVILLE,VT,05151,"http://maps.google.com/maps?q=5024 VT RT 106,+PERKINSVILLE,+VT+05151&hl=en"
WINDSOR COUNTY SHERIFF'S DEPARTMENT,WINDSOR POLICE DEPARTMENT,29 UNION STREET,WINDSOR,VT,05089,"http://maps.google.com/maps?q=29 UNION STREET,+WINDSOR,+VT+05089&hl=en"
WINDSOR COUNTY SHERIFF'S DEPARTMENT,WOODSTOCK POLICE DEPARTMENT,454 WOODSTOCK ROAD,WOODSTOCK,VT,05091,"http://maps.google.com/maps?q=454 WOODSTOCK ROAD,+WOODSTOCK,+VT+05091&hl=en"
WINDSOR POLICE DEPARTMENT,"CVS 
												
													484 WINDSOR AVE, WINDSOR",484 WINDSOR AVE,WINDSOR,CT,06095,"http://maps.google.com/maps?q=484 WINDSOR AVE,+WINDSOR,+CT+06095&hl=en"
WINOOSKI POLICE DEPARTMENT,WINOOSKI POLICE DEPARTMENT,27 WEST ALLEN STREET,WINOOSKI,VT,05404,"http://maps.google.com/maps?q=27 WEST ALLEN STREET,+WINOOSKI,+VT+05404&hl=en"
WINSLOW POLICE DEPARTMENT,"WINSLOW POLICE DEPARTMENT 
												
													MOBIL COLLECTION SITE",114 BENTON AVENUEMOBIL UNIT,WINSLOW,ME,04901,"http://maps.google.com/maps?q=114 BENTON AVENUE,+WINSLOW,+ME+04901&hl=en"
WINTHROP POLICE DEPARTMENT,WINTHROP POLICE DEPARTMENT,15 TOWN HALL LANE,WINTHROP,ME,04364,"http://maps.google.com/maps?q=15 TOWN HALL LANE,+WINTHROP,+ME+04364&hl=en"
WOLFEBORO POLICE DEPARTMENT,WOLFEBORO PD,251 SOUTH MAIN STREET,WOLFEBORO,NH,03894,"http://maps.google.com/maps?q=251 SOUTH MAIN STREET,+WOLFEBORO,+NH+03894&hl=en"
YORK COUNTY SHERIFF'S OFFICE,"GOODWIN MILLS FIRE STATION 
												
													OPERATED BY YORK COUNTY SHERIFF'S OFFICE",481 GOODWIN'S MILL ROAD,LYMAN,ME,04002,"http://maps.google.com/maps?q=481 GOODWIN'S MILL ROAD,+LYMAN,+ME+04002&hl=en"
YORK COUNTY SHERIFF'S OFFICE,"HANNAFORD SUPERMARKET 
												
													OPERATED BY YORK COUNTY SHERIFF'S OFFICE",20 SOKOKIS TRAIL,WATERBORO,ME,04087,"http://maps.google.com/maps?q=20 SOKOKIS TRAIL,+WATERBORO,+ME+04087&hl=en"
YORK COUNTY SHERIFF'S OFFICE,"RITE AID DRUG STORE 
												
													OPERATED BY YORK COUNTY SHERIFF'S OFFICE",151 MAPLE STREET,CORNISH,ME,04020,"http://maps.google.com/maps?q=151 MAPLE STREET,+CORNISH,+ME+04020&hl=en"
YORK POLICE DEPARTMENT,"DEERFIELD PLACE 
												
													OPERATED BY YORK POLICE DEPARTMENT",117 LONG SANDS ROAD,YORK,ME,03909,"http://maps.google.com/maps?q=117 LONG SANDS ROAD,+YORK,+ME+03909&hl=en"
YORK POLICE DEPARTMENT,"HANNAFORD SUPERMARKET 
												
													OPERATED BY YORK POLICE DEPARTMENT",9 HANNAFORD DRIVE,YORK,ME,03909,"http://maps.google.com/maps?q=9 HANNAFORD DRIVE,+YORK,+ME+03909&hl=en"
YORK POLICE DEPARTMENT,"SENTRY HILL ASSISTED LIVING 
												
													OPERATED BY YORK POLICE DEPARTMENT",2 VICTORIA COURT,YORK,ME,03909,"http://maps.google.com/maps?q=2 VICTORIA COURT,+YORK,+ME+03909&hl=en"
YORK POLICE DEPARTMENT,"YORKSHIRE COMMONS 
												
													OPERATED BY YORK POLICE DEPARTMENT",611 YORK STREET,YORK,ME,03909,"http://maps.google.com/maps?q=611 YORK STREET,+YORK,+ME+03909&hl=en"
