Participant,CollectionSite,Address,City,State,Zip,MapURL
ALBUQUERQUE POLICE DEPARTMENT,APD CRIME LAB,5350 2ND STREET NW,ALBUQUERQUE,NM,87107,"http://maps.google.com/maps?q=5350 2ND STREET NW,+ALBUQUERQUE,+NM+87107&hl=en"
APACHE JUNCTION POLICE DEPARTMENT,APACHE JUNCTION POLICE DEPARTMENT INSIDE LOBBY,1001 N. IDAHO ROAD,APACHE JUNCTION,AZ,85119,"http://maps.google.com/maps?q=1001 N. IDAHO ROAD,+APACHE JUNCTION,+AZ+85119&hl=en"
ARCHULETA COUNTY SHERIFF'S OFFICE,PAGOSA SPRINGS HIGH SCHOOL,800 8TH ST,PAGOSA SPRINGS,CO,81147,"http://maps.google.com/maps?q=800 8TH ST,+PAGOSA SPRINGS,+CO+81147&hl=en"
ARMY NATIONAL GUARD,NM ARMY NG READINESS CENTER,600 WYOMING BLVD,ALBUQUERQUE,NM,87123,"http://maps.google.com/maps?q=600 WYOMING BLVD,+ALBUQUERQUE,+NM+87123&hl=en"
ARTESIA POLICE DEPARTMENT,ARTESIA PD ARTESIA PUBLIC LIBRARY,205 W QUAY,ARTESIA,NM,88210,"http://maps.google.com/maps?q=205 W QUAY,+ARTESIA,+NM+88210&hl=en"
AVONDALE POLICE DEPARTMENT,CVS BY THE FRONT ENTRANCE,280 N. AVONDALE BLVD,AVONDALE,AZ,85323,"http://maps.google.com/maps?q=280 N.  AVONDALE BLVD,+AVONDALE,+AZ+85323&hl=en"
BELEN POLICE DEPARTMENT,BELEN POLICE DEPARTMENT,607 BECKER AVENUE,BELEN,NM,87002,"http://maps.google.com/maps?q=607 BECKER AVENUE,+BELEN,+NM+87002&hl=en"
BERNALILLO COUNTY SHERIFF'S DEPARTMENT,BERNALILLO COUNTY SHERIFF'S DEPARTMENT EAST AREA COMMAND CENTER,48 PUBLIC SCHOOL ROAD,TIJERAS,NM,87059,"http://maps.google.com/maps?q=48 PUBLIC SCHOOL ROAD,+TIJERAS,+NM+87059&hl=en"
BERNALILLO COUNTY SHERIFF'S DEPARTMENT,BERNALILLO COUNTY SHERIFF'S DEPARTMENT NORTH AREA COMMAND CENTER,6900 4TH STREET NW,ALBUQUERQUE,NM,87105,"http://maps.google.com/maps?q=6900 4TH STREET NW,+ALBUQUERQUE,+NM+87105&hl=en"
BERNALILLO COUNTY SHERIFF'S DEPARTMENT,BERNALILLO COUNTY SHERIFF'S DEPARTMENT SOUTH AREA COMMAND CENTER,2039 ISLETA SW,ALBUQUERQUE,NM,87105,"http://maps.google.com/maps?q=2039 ISLETA SW,+ALBUQUERQUE,+NM+87105&hl=en"
BUCKEYE POLICE DEPARTMENT,WALMART BETWEEN TWO FRONT DOORS,1060 S. WATSON ROAD,BUCKEYE,AZ,85326,"http://maps.google.com/maps?q=1060 S. WATSON ROAD,+BUCKEYE,+AZ+85326&hl=en"
BULLHEAD CITY POLICE DEPARTMENT,BULLHEAD CITY POLICE DEPARTMENT,1255 MARINA BLVD,BULLHEAD CITY,AZ,86442,"http://maps.google.com/maps?q=1255 MARINA BLVD,+BULLHEAD CITY,+AZ+86442&hl=en"
BUREAU OF INDIAN AFFAIRS BIA,COCHITI PUEBLO,255 COCHITI STREET,COCHITI PUEBLO,NM,87072,"http://maps.google.com/maps?q=255 COCHITI STREET,+COCHITI PUEBLO,+NM+87072&hl=en"
BUREAU OF INDIAN AFFAIRS BIA,SAN FELIPE PUEBLO,127 HAGAN RD,ALGODONES,NM,87001,"http://maps.google.com/maps?q=127 HAGAN RD,+ALGODONES,+NM+87001&hl=en"
BUREAU OF INDIAN AFFAIRS BIA,SANTO DOMINGO PUEBLO,SANTO DOMINGO,SANTO DOMINGO PUEBLO,NM,87052,"http://maps.google.com/maps?q=SANTO DOMINGO,+SANTO DOMINGO PUEBLO,+NM+87052&hl=en"
BUREAU OF INDIAN AFFAIRS BIA,ZIA PUEBLO,135 CAPITOL SQUARE DR.,SAN YSIDRO,NM,87053,"http://maps.google.com/maps?q=135 CAPITOL SQUARE DR.,+SAN YSIDRO,+NM+87053&hl=en"
CAMP VERDE MARSHALS OFFICE,CAMP VERDE MARSHAL'S OFFICE,646 SOUTH 1ST STREET,CAMP VERDE,AZ,86322,"http://maps.google.com/maps?q=646 SOUTH 1ST STREET,+CAMP VERDE,+AZ+86322&hl=en"
CEDAR CITY POLICE DEPARTMENT,CEDAR CITY POLICE DEPARTMENT LOBBY,10 N MAIN STREET,CEDAR CITY,UT,84720,"http://maps.google.com/maps?q=10 N MAIN STREET,+CEDAR CITY,+UT+84720&hl=en"
CHANDLER POLICE DEPARTMENT,WALGREENS,1919 W. DOBSON RD.,CHANDLER,AZ,85224,"http://maps.google.com/maps?q=1919 W. DOBSON RD.,+CHANDLER,+AZ+85224&hl=en"
CHINO VALLEY POLICE DEPARTMENT,CHINO VALLEY POLICE DEPARTMENT ENTRY LOBBY,1950 N. VOSS DRIVE,CHINO VALLEY,AZ,86323,"http://maps.google.com/maps?q=1950 N. VOSS DRIVE,+CHINO VALLEY,+AZ+86323&hl=en"
CIBOLA COUNTY SHERIFFS OFFICE,CIBOLA COUNTY (505) 876-2040,114 MCBRIDE RD,GRANTS,NM,87020,"http://maps.google.com/maps?q=114 MCBRIDE RD,+GRANTS,+NM+87020&hl=en"
CORTEZ POLICE DEPARTMENT,WALGREENS,1671 E MAIN STREET,CORTEZ,CO,81321,"http://maps.google.com/maps?q=1671 E MAIN STREET,+CORTEZ,+CO+81321&hl=en"
COTTONWOOD POLICE DEPARTMENT,COTTONWOOD POLICE DEPARTMENT MAIN LOBBY,199 S 6TH ST,COTTONWOOD,AZ,86326,"http://maps.google.com/maps?q=199 S 6TH ST,+COTTONWOOD,+AZ+86326&hl=en"
DEA/FLAGSTAFF POLICE DEPARTMENT,FLAGSTAFF POLICE/COCONINO COUNTY SHERIFF'S BLDG FRONT PARKING LOT,911 SAWMILL ROAD,FLAGSTAFF,AZ,86001,"http://maps.google.com/maps?q=911 SAWMILL ROAD,+FLAGSTAFF,+AZ+86001&hl=en"
DPS,DEPARTMENT OF PUBLIC SAFETY,410 W. CENTENNIAL BLVD,CASA GRANDE,AZ,85122,"http://maps.google.com/maps?q=410 W. CENTENNIAL BLVD,+CASA GRANDE,+AZ+85122&hl=en"
DURANGO POLICE DEPARTMENT,DURANGO POLICE DEPARTMENT,990 EAST 2ND AVE,DURANGO,CO,81303,"http://maps.google.com/maps?q=990 EAST 2ND AVE,+DURANGO,+CO+81303&hl=en"
EDGEWOOD POLICE DEPARTMENT,SMITHS,22B STATE ROAD 44,EDGEWOOD,NM,87015,"http://maps.google.com/maps?q=22B STATE ROAD 44,+EDGEWOOD,+NM+87015&hl=en"
ESTANCIA POLICE DEPT,ESTANCIA POLICE DEPT,1000 HIGHLAND RD,ESTANCIA,NM,87016,"http://maps.google.com/maps?q=1000 HIGHLAND RD,+ESTANCIA,+NM+87016&hl=en"
FARMINGTON PD REGION II,FARMERS MARKET PARKING LOT,401 W BROADWAY AVE,BLOOMFIELD,NM,87413,"http://maps.google.com/maps?q=401 W BROADWAY AVE,+BLOOMFIELD,+NM+87413&hl=en"
FARMINGTON PD REGION II,SAFEWAY PARKING LOT,415 N MAIN AVE,AZTEC,NM,87410,"http://maps.google.com/maps?q=415 N MAIN AVE,+AZTEC,+NM+87410&hl=en"
FARMINGTON PD REGION II,SAN JUAN COUNTY SHERIFF'S OFFICE KIRTLAND SUB-STATION,6 COUNTY ROAD 6360,KIRTLAND,NM,87417,"http://maps.google.com/maps?q=6 COUNTY ROAD 6360,+KIRTLAND,+NM+87417&hl=en"
FARMINGTON PD REGION II,WALGREENS,4221 E MAIN STREET,FARMINGTON,NM,87402,"http://maps.google.com/maps?q=4221 E MAIN STREET,+FARMINGTON,+NM+87402&hl=en"
FARMINGTON PD REGION II,WALGREENS,701 E 20TH ST,FARMINGTON,NM,87401,"http://maps.google.com/maps?q=701 E 20TH ST,+FARMINGTON,+NM+87401&hl=en"
FORT MCDOWELL POLICE DEPARTMENT,FORT MCDOWELL PUBLIC SAFETY BLDG IN FRONT OF THE FIRE DEPARMENT,10755 N. FORT MCDOWELL ROAD,FORT MCDOWELL,AZ,85264,"http://maps.google.com/maps?q=10755 N. FORT MCDOWELL ROAD,+FORT MCDOWELL,+AZ+85264&hl=en"
GALLUP POLICE DEPARTMENT,GALLUP PD,451 BOARDMAN DR,GALLUP,NM,87301,"http://maps.google.com/maps?q=451 BOARDMAN DR,+GALLUP,+NM+87301&hl=en"
GALLUP POLICE DEPARTMENT,RIO WEST MALL,1300 W. I40 FRONTAGE RD,GALLUP,NM,87301,"http://maps.google.com/maps?q=1300 W. I40 FRONTAGE RD,+GALLUP,+NM+87301&hl=en"
GILA RIVER POLICE DEPARTMENT,GILA RIVER FIRE DEPARTMENT,599 W. SEED FARM RD.,SACATON,AZ,85147,"http://maps.google.com/maps?q=599 W. SEED FARM RD.,+SACATON,+AZ+85147&hl=en"
GILBERT POLICE DEPARTMENT,GILBERT POLICE DEPARTMENT,75 E. CIVIC CENTER DR.,GILBERT,AZ,85296,"http://maps.google.com/maps?q=75 E. CIVIC CENTER DR.,+GILBERT,+AZ+85296&hl=en"
GLENDALE POLICE DEPARTMENT,CVS PHARMACY PARKING LOT CORNER OF UNION HILLS AND 59TH AVE,18591 N 59TH AVE,GLENDALE,AZ,85308,"http://maps.google.com/maps?q=18591 N 59TH AVE,+GLENDALE,+AZ+85308&hl=en"
GLOBE POLICE DEPARTMENT,FRY'S FOOD AND DRUG STORE (PARKING LOT),2115 HWY 60 #200,GLOBE,AZ,85501,"http://maps.google.com/maps?q=2115 HWY 60 #200,+GLOBE,+AZ+85501&hl=en"
GRANTS POLICE DEPARTMENT,GRANTS POLICE DEPARTMENT,105 E. ROOSEVELT AVE,GRANTS,NM,87020,"http://maps.google.com/maps?q=105 E. ROOSEVELT AVE,+GRANTS,+NM+87020&hl=en"
HATCH POLICE DEPARTMENT,HATCH POLICE DEPARTMENT,#5 CHILE CAPITAL LANE,HATCH,NM,87937,"http://maps.google.com/maps?q=#5 CHILE CAPITAL LANE,+HATCH,+NM+87937&hl=en"
HOLLOMAN AFB 49TH SECURITY FORCES SQUADRON,BUILDING #33/SHOPPETTE,733 FIRST STREET,HOLLOMAN AIR FORCE BASE,NM,88330,"http://maps.google.com/maps?q=733 FIRST STREET,+HOLLOMAN AIR FORCE BASE,+NM+88330&hl=en"
HOLLOMAN AFB 49TH SECURITY FORCES SQUADRON,HOLLOMAN AFB BASE EXCHANGE,"551 4TH STREET, BUILDING 227",HOLLOMAN AFB,NM,88330,"http://maps.google.com/maps?q=551 4TH STREET, BUILDING 227,+HOLLOMAN AFB,+NM+88330&hl=en"
HOPI RESOURCE ENFORCEMENT SERVICES,VILLAGE OF SHUNGOPAVI,SHUNGOPAVI RD.ADDRESS HAS NO NUMBERS,SECOND MESA,AZ,86043,"http://maps.google.com/maps?q=SHUNGOPAVI RD.,+SECOND MESA,+AZ+86043&hl=en"
HUALAPAI POLICE DEPARTMENT,HUALAPAI NATION POLICE DEPARTMENT LOBBY,468 DIAMOND CREEK ROAD,PEACH SPRINGS,AZ,86434,"http://maps.google.com/maps?q=468 DIAMOND CREEK ROAD,+PEACH SPRINGS,+AZ+86434&hl=en"
HURRICANE POLICE DEPARTMENT,LINS MARKET,1120 W STATE STREET,HURRICANE,UT,84737,"http://maps.google.com/maps?q=1120 W STATE STREET,+HURRICANE,+UT+84737&hl=en"
INYO COUNTY SHERIFF'S DEPARTMENT,TECOPA SENIOR CENTER,400 TECOPA HOT SPRINGS ROAD,TECOPA,CA,92389,"http://maps.google.com/maps?q=400 TECOPA HOT SPRINGS ROAD,+TECOPA,+CA+92389&hl=en"
IRON COUNTY SHERIFFS OFFICE,SMITH'S FOOD AND DRUG,633 SOUTH MAIN STREET,CEDAR CITY,UT,84720,"http://maps.google.com/maps?q=633 SOUTH MAIN STREET,+CEDAR CITY,+UT+84720&hl=en"
ISLETA TRIBAL POLICE DEPARTMENT,ISLETA RECREATION CENTER,60 TRIBAL ROAD 60,ISLETA,NM,87022,"http://maps.google.com/maps?q=60 TRIBAL ROAD 60,+ISLETA,+NM+87022&hl=en"
ISLETA TRIBAL POLICE DEPARTMENT,ISLETA TRIBAL COMPLEX,3950 HWY 47,ALBUQUERQUE,NM,87106,"http://maps.google.com/maps?q=3950 HWY 47,+ALBUQUERQUE,+NM+87106&hl=en"
KIRTLAND AFB SECURITY FORCES SQUADRON,377TH MEDICAL GROUP LOBBY BUILDING #47,1501 SAN PEDRO SE,ALBUQUERQUE,NM,87108,"http://maps.google.com/maps?q=1501 SAN PEDRO SE,+ALBUQUERQUE,+NM+87108&hl=en"
KIRTLAND AFB SECURITY FORCES SQUADRON,KIRTLAND AFB BASE EXCHANGE,"7901 GIBSON BLVD SE, BLDG 20176",KIRTLAND AFB,NM,87117,"http://maps.google.com/maps?q=7901 GIBSON BLVD SE, BLDG 20176,+KIRTLAND AFB,+NM+87117&hl=en"
KIRTLAND AFB SECURITY FORCES SQUADRON,KIRTLAND AIR FORCE BASE COMMISSARY,"7801 GIBSON BLVD SE, BLDG 20180",ALBUQUERQUE,NM,87117,"http://maps.google.com/maps?q=7801 GIBSON BLVD SE, BLDG 20180,+ALBUQUERQUE,+NM+87117&hl=en"
KIRTLAND AFB SECURITY FORCES SQUADRON,KIRTLAND AIR FORCE BASE EXCHANGE,8001 GIBSON BLVD SE,ALBUQUERQUE,NM,87117,"http://maps.google.com/maps?q=8001 GIBSON BLVD SE,+ALBUQUERQUE,+NM+87117&hl=en"
LAGUNA POLICE DEPARTMENT,LAGUNA POLICE DEPARTMENT,"1 INDUSTRIAL PARKWAY LOOP, MESITA VILLAGE",LAGUNA,NM,87026,"http://maps.google.com/maps?q=1 INDUSTRIAL PARKWAY  LOOP, MESITA VILLAGE,+LAGUNA,+NM+87026&hl=en"
LAKE HAVASU CITY POLICE DEPARTMENT,LAKE HAVASU CITY POLICE DEPARTMENT (IN FRONT),2360 MCCULLOCH BLVD,LAKE HAVASU CITY,AZ,86403,"http://maps.google.com/maps?q=2360 MCCULLOCH BLVD,+LAKE HAVASU CITY,+AZ+86403&hl=en"
LAS VEGAS METROPOLITAN POLICE DEPT.,ENTERPRISE AREA COMMAND PARKING LOT,6975 W. WINDMILL,LAS VEGAS,NV,89113,"http://maps.google.com/maps?q=6975 W. WINDMILL,+LAS VEGAS,+NV+89113&hl=en"
LAS VEGAS METROPOLITAN POLICE DEPT.,NORTHWEST AREA COMMAND,9850 W. CHEYENNE,LAS VEGAS,NV,89129,"http://maps.google.com/maps?q=9850 W. CHEYENNE,+LAS VEGAS,+NV+89129&hl=en"
LAVERKIN POLICE DEPARTMENT,LAVERKIN CITY OFFICE,435 N. MAIN ST.,LA VERKIN,UT,84745,"http://maps.google.com/maps?q=435 N. MAIN ST.,+LA VERKIN,+UT+84745&hl=en"
LOS ALAMOS POLICE DEPARTMENT,LOS ALAMOS PD,2500 TRINITY DR,LOS ALAMOS,NM,87544,"http://maps.google.com/maps?q=2500 TRINITY DR,+LOS ALAMOS,+NM+87544&hl=en"
LOS LUNAS POLICE DEPARTMENT,LOS LUNAS POLICE DEPARTMENT,660 MAIN ST NW,LOS LUNAS,NM,87031,"http://maps.google.com/maps?q=660 MAIN ST NW,+LOS LUNAS,+NM+87031&hl=en"
MARICOPA COUNTY SHERIFF'S OFFICE,"MCSO DISTRICT IV, ANTHEM SUB-STATION",3701 WEST ANTHEM WAY(ANTHEM WAY & VENTURE CT),ANTHEM,AZ,85086,"http://maps.google.com/maps?q=3701 WEST ANTHEM WAY,+ANTHEM,+AZ+85086&hl=en"
MARICOPA COUNTY SHERIFF'S OFFICE,"MCSO DISTRICT IV,CAVE CREEK STATION",37622 NORTH CAVE CREEK ROAD,CAVE CREEK,AZ,85331,"http://maps.google.com/maps?q=37622 NORTH CAVE CREEK ROAD,+CAVE CREEK,+AZ+85331&hl=en"
MARICOPA COUNTY SHERIFF'S OFFICE,SUN CITY POSSE OFFICE,10861 SUNLAND DR,SUN CITY,AZ,85351,"http://maps.google.com/maps?q=10861 SUNLAND DR,+SUN CITY,+AZ+85351&hl=en"
MARICOPA COUNTY SHERIFF'S OFFICE,SUN CITY WEST POSSE OFFICE,20450 STARDUST BLVD,SUN CITY WEST,AZ,85375,"http://maps.google.com/maps?q=20450 STARDUST BLVD,+SUN CITY WEST,+AZ+85375&hl=en"
MARICOPA COUNTY SHERIFF'S OFFICE,SUN LAKES POSSE OFFICE SUN LAKES,9531 EAST RIGGS ROAD,SUN LAKES,AZ,85248,"http://maps.google.com/maps?q=9531 EAST RIGGS ROAD,+SUN LAKES,+AZ+85248&hl=en"
MARICOPA COUNTY SHERIFF'S OFFICE,TANNER MANOR APARTMENTS COMMUNITY CENTER,2150 E. BROADWAY RD.,PHOENIX,AZ,85040,"http://maps.google.com/maps?q=2150 E. BROADWAY RD.,+PHOENIX,+AZ+85040&hl=en"
MCAT,SAFEWAY,1601 NORTHPARK DRIVE,WINSLOW,AZ,86047,"http://maps.google.com/maps?q=1601 NORTHPARK DRIVE,+WINSLOW,+AZ+86047&hl=en"
MCAT,SAFEWAY,702 WEST HOPI,HOLBROOK,AZ,86025,"http://maps.google.com/maps?q=702 WEST HOPI,+HOLBROOK,+AZ+86025&hl=en"
MCKINLEY COUNTY SHERIFF'S OFFICE,THOREAU SUBSTATION,109 HWY 371,THOREAU,NM,87323,"http://maps.google.com/maps?q=109 HWY 371,+THOREAU,+NM+87323&hl=en"
MESA POLICE DEPARTMENT,CENTRAL SUBSTATION SUBSTATION (IN THE LOBBY),120 N. ROBSON,MESA,AZ,85201,"http://maps.google.com/maps?q=120 N. ROBSON,+MESA,+AZ+85201&hl=en"
MESA POLICE DEPARTMENT,FIESTA DISTRICT SUBSTATION (IN THE FRONT LOBBY),1010 W GROVE AVENUE,MESA,AZ,85211,"http://maps.google.com/maps?q=1010 W GROVE AVENUE,+MESA,+AZ+85211&hl=en"
MESA POLICE DEPARTMENT,RED MOUNTAIN PATROL DISTRICT SUBSTATION (FRONT PARKING LOT),4333 E. UNIVERSITY DR.,MESA,AZ,85205,"http://maps.google.com/maps?q=4333 E. UNIVERSITY DR.,+MESA,+AZ+85205&hl=en"
MESA POLICE DEPARTMENT,SUPERSTITION DISTRICT SUBSTATION (PARKING LOT),2430 S. ELLSWORTH ROAD,MESA,AZ,85209,"http://maps.google.com/maps?q=2430 S. ELLSWORTH ROAD,+MESA,+AZ+85209&hl=en"
NEW MEXICO BOARD OF PHARMACY,WALGREENS,2011 12TH ST NW,ALBUQUERQUE,NM,87104,"http://maps.google.com/maps?q=2011 12TH ST NW,+ALBUQUERQUE,+NM+87104&hl=en"
NEW MEXICO BOARD OF PHARMACY,WALGREENS,4051 SOUTHERN BLVD SE,RIO RANCHO,NM,87124,"http://maps.google.com/maps?q=4051 SOUTHERN BLVD SE,+RIO RANCHO,+NM+87124&hl=en"
NEW MEXICO BOARD OF PHARMACY,WALGREENS,8400 MONTGOMERY NE,ALBUQUERQUE,NM,87112,"http://maps.google.com/maps?q=8400 MONTGOMERY NE,+ALBUQUERQUE,+NM+87112&hl=en"
NEW MEXICO HIGHLANDS UNIVERSITY,NEW MEXICO HIGHLANDS UNIVERSITY,1103 NATIONAL AVENUE,LAS VEGAS,NM,87701,"http://maps.google.com/maps?q=1103 NATIONAL AVENUE,+LAS VEGAS,+NM+87701&hl=en"
NM OFFICE OF THE ATTORNEY GENERAL,ALBUQUERQUE CIVIC PLAZA,401 2ND ST,ALBUQUERQUE,NM,87102,"http://maps.google.com/maps?q=401 2ND ST,+ALBUQUERQUE,+NM+87102&hl=en"
NM RURALWATER ASSOC,PENA BLANCA WATER & SANITATION DIVISION,827 HIGHWAY 22,PENA BLANCA,NM,87041,"http://maps.google.com/maps?q=827 HIGHWAY 22,+PENA BLANCA,+NM+87041&hl=en"
NM STATE POLICE,NM STATE POLICE,4200 E. HISTORIC HWY. 66,GALLUP,NM,87301,"http://maps.google.com/maps?q=4200 E. HISTORIC HWY. 66,+GALLUP,+NM+87301&hl=en"
NORTH LAS VEGAS P.D.,NORTH LAS VEGAS PD NORTHWEST AREA COMMAND STATION,3755 W. WASHBURN RD.,NORTH LAS VEGAS,NV,89031,"http://maps.google.com/maps?q=3755 W. WASHBURN RD.,+NORTH LAS VEGAS,+NV+89031&hl=en"
NORTHERN ARIZONA UNIVERSITY POLICE DEPARTMENT,HEALTH AND LEARNING CENTER,824 S. SAN FRANCISCO ST.,FLAGSTAFF,AZ,86011,"http://maps.google.com/maps?q=824 S. SAN FRANCISCO ST.,+FLAGSTAFF,+AZ+86011&hl=en"
PAGE POLICE DEPARTMENT,WAL-MART PARKING LOT (LOOK FOR THE PAGE PD COMMAND TRAILER),1017 HAUL ROAD,PAGE,AZ,86040,"http://maps.google.com/maps?q=1017 HAUL ROAD,+PAGE,+AZ+86040&hl=en"
PARADISE VALLEY POLICE DEPARTMENT,PARADISE VALLEY POLICE DEPARTMENT POLICE DEPARTMENT LOBBY,6433 EAST LINCOLN DRIVE,PARADISE VALLEY,AZ,85253,"http://maps.google.com/maps?q=6433 EAST LINCOLN DRIVE,+PARADISE VALLEY,+AZ+85253&hl=en"
PAYSON POLICE DEPARTMENT,WAL-MART (PARKING LOT) IN THE PARKING LOT ON THE FAR EAST SIDE.,300 N BEELINE HWY,PAYSON,AZ,85541,"http://maps.google.com/maps?q=300 N BEELINE HWY,+PAYSON,+AZ+85541&hl=en"
PEORIA POLICE DEPARTMENT,PEORIA COMMUNITY CENTER,8335 W. JEFFERSON ST.,PEORIA,AZ,85345,"http://maps.google.com/maps?q=8335 W. JEFFERSON ST.,+PEORIA,+AZ+85345&hl=en"
PHOENIX POLICE DEPARTMENT,AHWATUKEE TARGET STORE SOUTH MOUNTAIN PRECINCT,4734 E. RAY RD.,PHOENIX,AZ,85044,"http://maps.google.com/maps?q=4734 E. RAY RD.,+PHOENIX,+AZ+85044&hl=en"
PHOENIX POLICE DEPARTMENT,BLACK MOUNTAIN PRECINCT,33355 N. CAVE CREEK RD.,CAVE CREEK,AZ,85331,"http://maps.google.com/maps?q=33355 N. CAVE CREEK RD.,+CAVE CREEK,+AZ+85331&hl=en"
PHOENIX POLICE DEPARTMENT,CACTUS PRECINCT,12220 NORTH 39TH AVE,PHOENIX,AZ,85029,"http://maps.google.com/maps?q=12220 NORTH 39TH AVE,+PHOENIX,+AZ+85029&hl=en"
PHOENIX POLICE DEPARTMENT,CENTRAL CITY PRECINCT,1902 SOUTH 16TH ST,PHOENIX,AZ,85034,"http://maps.google.com/maps?q=1902 SOUTH 16TH ST,+PHOENIX,+AZ+85034&hl=en"
PHOENIX POLICE DEPARTMENT,DESERT HORIZON PRECINCT,16030 N 56TH ST,SCOTTSDALE,AZ,85254,"http://maps.google.com/maps?q=16030 N 56TH ST,+SCOTTSDALE,+AZ+85254&hl=en"
PHOENIX POLICE DEPARTMENT,FRY'S FOOD AND DRUG STORE CACTUS PARK PRECINCT 602-439-9034,4204 W. CACTUS RD.,PHOENIX,AZ,85029,"http://maps.google.com/maps?q=4204 W. CACTUS RD.,+PHOENIX,+AZ+85029&hl=en"
PHOENIX POLICE DEPARTMENT,MARYVALE PRECINCT,6180 W. ENCANTO BLVD,PHOENIX,AZ,85035,"http://maps.google.com/maps?q=6180 W. ENCANTO BLVD,+PHOENIX,+AZ+85035&hl=en"
PHOENIX POLICE DEPARTMENT,MOUNTAIN VIEW PRECINCT,2075 E. MARYLAND AVE,PHOENIX,AZ,85016,"http://maps.google.com/maps?q=2075 E. MARYLAND AVE,+PHOENIX,+AZ+85016&hl=en"
PHOENIX POLICE DEPARTMENT,PHOENIX INDIAN CENTER MOUNTAIN VIEW PRECINCT,4212 N. 16TH ST.,PHOENIX,AZ,85016,"http://maps.google.com/maps?q=4212 N. 16TH ST.,+PHOENIX,+AZ+85016&hl=en"
PHOENIX POLICE DEPARTMENT,WALGREENS #3769 MOUNTAIN VIEW PRECINCT,1616 E. THOMAS RD.,PHOENIX,AZ,85016,"http://maps.google.com/maps?q=1616 E. THOMAS RD.,+PHOENIX,+AZ+85016&hl=en"
POJOAQUE PUEBLO,POJOAQUE PUEBLO PD,58 CITIES OF GOLD RD,SANTA FE,NM,87506,"http://maps.google.com/maps?q=58 CITIES OF GOLD RD,+SANTA FE,+NM+87506&hl=en"
PRESCOTT POLICE DEPARTMENT,PRESCOTT POLICE DEPARTMENT,222 SOUTH MARINA STREET,PRESCOTT,AZ,86303,"http://maps.google.com/maps?q=222 SOUTH MARINA STREET,+PRESCOTT,+AZ+86303&hl=en"
PRESCOTT VALLEY POLICE DEPARTMENT,PRESCOTT VALLEY POLICE DEPARTMENT,7601 E. CIVIC CIRCLE,PRESCOTT VALLEY,AZ,86314,"http://maps.google.com/maps?q=7601 E. CIVIC CIRCLE,+PRESCOTT VALLEY,+AZ+86314&hl=en"
PUEBLO OF JEMEZ POLICE,PUEBLO OF JEMEZ POLICE,011 BEARHEAD CANYON RD,JEMEZ PUEBLO,NM,87024,"http://maps.google.com/maps?q=011 BEARHEAD CANYON RD,+JEMEZ PUEBLO,+NM+87024&hl=en"
QUARTZSITE POLICE DEPT,QUARTZSITE POLICE DEPARTMENT,305 N PLYMOUTH AVE,QUARTZSITE,AZ,85346,"http://maps.google.com/maps?q=305 N PLYMOUTH AVE,+QUARTZSITE,+AZ+85346&hl=en"
RAMAH NAVAJO POLICE,RAMAH POLICE DEPT PINE HILL CENTER,INDIAN SERVICE RTE 140,PINEHILL,NM,87357,"http://maps.google.com/maps?q=INDIAN SERVICE RTE 140,+PINEHILL,+NM+87357&hl=en"
RIO ARRIBA SHERIFF'S OFFICE / RACSTOP,LOWES,2451 S HIGHWAY 84-64,CHAMA,NM,87520,"http://maps.google.com/maps?q=2451 S HIGHWAY 84-64,+CHAMA,+NM+87520&hl=en"
RIO ARRIBA SHERIFF'S OFFICE / RACSTOP,RIO ARRIBA SHERIFF'S OFFICE,1122 INDUSTRIAL PARK ROAD,ESPANOLA,NM,87532,"http://maps.google.com/maps?q=1122 INDUSTRIAL PARK ROAD,+ESPANOLA,+NM+87532&hl=en"
RIO RANCHO POLICE DEPARTMENT,RIO RANCHO POLICE DEPARTMENT HEADQUARTERS,500 QUANTUM ROAD,RIO RANCHO,NM,87124,"http://maps.google.com/maps?q=500 QUANTUM ROAD,+RIO RANCHO,+NM+87124&hl=en"
ROSWELL POLICE DEPT,NEIGHBORHOOD WATCH OFFICES,128 WEST 2ND ST,ROSWELL,NM,88201,"http://maps.google.com/maps?q=128 WEST 2ND ST,+ROSWELL,+NM+88201&hl=en"
RUIDOSO POLICE DEPARTMENT,RUIDOSO POLICE DEPARTMENT,1085 MECHEM DRIVE,RUIDOSO,NM,88345,"http://maps.google.com/maps?q=1085 MECHEM DRIVE,+RUIDOSO,+NM+88345&hl=en"
SAN BERNARDINO CTY SHERIFF DEPT,MORONGO SHERIFF STATION JOE PARKER 9094539396,63665 TWENTYNINE PALMS HWY,JOSHUA TREE,CA,92252,"http://maps.google.com/maps?q=63665 TWENTYNINE PALMS HWY,+JOSHUA TREE,+CA+92252&hl=en"
SAN BERNARDINO CTY SHERIFF DEPT,NEEDLES SHEIFF DEPT. 7608584864 JOE PARKER,1111 BAILEY AVE.,NEEDLES,CA,92363,"http://maps.google.com/maps?q=1111 BAILEY AVE.,+NEEDLES,+CA+92363&hl=en"
SAN CARLOS APACHE POLICE DEPARTMENT,SAN CARLOS TRIBAL PD,103 MEDICINE WAY RD.,SAN CARLOS,AZ,85550,"http://maps.google.com/maps?q=103 MEDICINE WAY RD.,+SAN CARLOS,+AZ+85550&hl=en"
SAN JUAN COUNTY SHERIFF'S OFFICE,SAN JUAN COUNTY SHERIFF'S PUBLIC SAFETY BUILDING,297 SOUTH MAIN STREET,MONTICELLO,UT,84535,"http://maps.google.com/maps?q=297 SOUTH MAIN STREET,+MONTICELLO,+UT+84535&hl=en"
SANDIA PUEBLO POLICE DEPT,SANDIA PUEBL POLICE DEPT BEHIND PHILLIPS 66 GAS STATION,1660 ROY ROAD,ALBUQUERQUE,NM,87113,"http://maps.google.com/maps?q=1660 ROY ROAD,+ALBUQUERQUE,+NM+87113&hl=en"
SANDOVAL COUNTY SHERIFF'S OFFICE,SANDOVAL COUNTY JUDICIAL COMPLEX,1500 IDALIA ROAD,BERNALILLO,NM,87004,"http://maps.google.com/maps?q=1500 IDALIA ROAD,+BERNALILLO,+NM+87004&hl=en"
SANTA FE COUNTY SHERIFF'S OFFICE,AGORA PHARMACY/SHOPPING CENTER,7 AVENIDA VISTA GRANDE,SANTA FE,NM,87508,"http://maps.google.com/maps?q=7 AVENIDA VISTA GRANDE,+SANTA FE,+NM+87508&hl=en"
SANTA FE COUNTY SHERIFF'S OFFICE,RANCHO VIEJO VILLAGE MARKET,55 CANADA DEL RANCHO,SANTA FE,NM,87508,"http://maps.google.com/maps?q=55 CANADA DEL RANCHO,+SANTA FE,+NM+87508&hl=en"
SANTA FE POLICE DEPARTMENT,FIRE STATION 1 COLLECTION SITE 2,200 MURLALES ROAD,SANTA FE,NM,87501,"http://maps.google.com/maps?q=200 MURLALES ROAD,+SANTA FE,+NM+87501&hl=en"
SANTA FE POLICE DEPARTMENT,POLICE STATION COLLECTION SITE 1,2515 CAMINO ENTRADA,SANTA FE,NM,87507,"http://maps.google.com/maps?q=2515 CAMINO ENTRADA,+SANTA FE,+NM+87507&hl=en"
SANTA ROSA PD,SANTA ROSA PD,244 S 4TH ST,SANTA ROSA,NM,88435,"http://maps.google.com/maps?q=244 S 4TH ST,+SANTA ROSA,+NM+88435&hl=en"
SCOTTSDALE POLICE DEPARTMENT,FOOTHILLS DISTRICT STATION SOUTHEAST CORNER BY THE FIRE STATION,20363 N PIMA RD.,SCOTTSDALE,AZ,85255,"http://maps.google.com/maps?q=20363 N PIMA RD.,+SCOTTSDALE,+AZ+85255&hl=en"
SCOTTSDALE POLICE DEPARTMENT,GRANITE REEF SENIOR CENTER (INTERSECTION GRANITE REEF & MCDOWELL) MAIN ENTRANCE,1700 N. GRANITE REEF ROAD,SCOTTSDALE,AZ,85257,"http://maps.google.com/maps?q=1700 N. GRANITE REEF ROAD,+SCOTTSDALE,+AZ+85257&hl=en"
SEDONA POLICE DEPARTMENT,SEDONA POLICE DEPARTMENT SEDONA CITY COMPLEX SOUTH PARKING LOT (LOOK FOR SIGNS),100 ROADRUNNER DR,SEDONA,AZ,86336,"http://maps.google.com/maps?q=100 ROADRUNNER DR,+SEDONA,+AZ+86336&hl=en"
SHOW LOW POLICE DEPARTMENT,SHOW LOW POLICE DEPARTMENT LOBBY,411 E. DEUCE OF CLUBS,SHOW LOW,AZ,85902,"http://maps.google.com/maps?q=411 E. DEUCE OF CLUBS,+SHOW LOW,+AZ+85902&hl=en"
SHOW LOW POLICE DEPARTMENT,SUMMIT HEALTHCARE REGIONAL MEDICAL CENTER OUTSIDE BY THE FRONT HOSPITAL ENTRANCE,2200 E. SHOW LOW LAKE RD,SHOW LOW,AZ,85901,"http://maps.google.com/maps?q=2200 E. SHOW LOW LAKE RD,+SHOW LOW,+AZ+85901&hl=en"
SOCORRO POLICE DEPARTMENT,SOCORRO POLICE DEPARTMENT,407 CENTER ST,SOCORRO,NM,87801,"http://maps.google.com/maps?q=407 CENTER ST,+SOCORRO,+NM+87801&hl=en"
SOUTHERN UTE POLICE DEPARTMENT,SOUTHERN UTE POLICE DEPARTMENT,149 CR 517,IGNACIO,CO,81137,"http://maps.google.com/maps?q=149 CR 517,+IGNACIO,+CO+81137&hl=en"
ST. GEORGE POLICE DEPARTMENT,SMITH'S PARKING LOT,20 NORTH BLUFF STREET,SAINT GEORGE,UT,84770,"http://maps.google.com/maps?q=20 NORTH BLUFF STREET,+SAINT GEORGE,+UT+84770&hl=en"
TAOS POLICE DEPARTMENT,TAOS POLICE DEPARTMENT ONLY COLLECTING SEPT 22-26 DURING BUSINESS HOURS,400 CAMINO DE LA PLACITA,TAOS,NM,87571,"http://maps.google.com/maps?q=400 CAMINO DE LA PLACITA,+TAOS,+NM+87571&hl=en"
TAOS PUEBLO DEPT. OF PUBLIC SAFETY,TAOS PUEBLO DEPARTMENT OF PUBLIC SAFETY COLLECTING THE 20TH AND 27TH,205 RIO LUCERO ROAD,TAOS,NM,87571,"http://maps.google.com/maps?q=205 RIO LUCERO ROAD,+TAOS,+NM+87571&hl=en"
TEMPE POLICE DEPARTMENT,"TEMPE POLICE SOUTH SUBSTATION S/E CORNER OF HARDY & CARVER, BETWEEN ELLIOT & WARNER",8201 S. HARDY DRIVE,TEMPE,AZ,85284,"http://maps.google.com/maps?q=8201 S. HARDY DRIVE,+TEMPE,+AZ+85284&hl=en"
TOLLESON POLICE DEPARTMENT,TOLLESON POLICE DEPARTMENT (FRONT LOBBY),8350 W VAN BUREN ST,TOLLESON,AZ,85353,"http://maps.google.com/maps?q=8350 W VAN BUREN ST,+TOLLESON,+AZ+85353&hl=en"
TONTO APACHE POLICE DEPARTMENT,TONTO APACHE POLICE DEPARTMENT,30 TONTO APACHE RESERVATION,PAYSON,AZ,85541,"http://maps.google.com/maps?q=30 TONTO APACHE RESERVATION,+PAYSON,+AZ+85541&hl=en"
TOWN OF BERNALILLO PD,TOWN OF BERNALILLO PD,729 CAMINO DEL PUEBLO,BERNALILLO,NM,87004,"http://maps.google.com/maps?q=729 CAMINO DEL PUEBLO,+BERNALILLO,+NM+87004&hl=en"
TRUTH OR CONSEQUENCES POLICE DEPT,T OR C POLICE DEPARTMENT,507 MCADOO,TRUTH OR CONSEQUENCES,NM,87901,"http://maps.google.com/maps?q=507 MCADOO,+TRUTH OR CONSEQUENCES,+NM+87901&hl=en"
TWENTYNINE PALMS MARINE BASE,MARINE CORPS EXCHANGE,BUILDING 1502,TWENTYNINE PALMS,CA,92277,"http://maps.google.com/maps?q=BUILDING 1502,+TWENTYNINE PALMS,+CA+92277&hl=en"
VILLAGE OF QUESTA POLICE DEPARTMENT,QUESTA POLICE DEPARTMENT,2500 SR 522,QUESTA,NM,87556,"http://maps.google.com/maps?q=2500 SR 522,+QUESTA,+NM+87556&hl=en"
WICKENBURG POLICE DEPARTMENT,WICKENBURG POLICE DEPARTMENT,155 N. TEGNER STREETSUITE C,WICKENBURG,AZ,85390,"http://maps.google.com/maps?q=155 N. TEGNER STREET,+WICKENBURG,+AZ+85390&hl=en"
YAVAPAI APACHE TRIBAL POLICE DEPARTMENT,YAVAPAI APACHE TRIBAL POLICE DEPARTMENT,2372 KINSEY STREET,CAMP VERDE,AZ,86322,"http://maps.google.com/maps?q=2372 KINSEY STREET,+CAMP VERDE,+AZ+86322&hl=en"
YAVAPAI COUNTY SHERIFF'S OFFICE,YAVAPAI COUNTY SHERIFFS OFFICE SUB-STATION,100 MAIN STREET,BAGDAD,AZ,86321,"http://maps.google.com/maps?q=100 MAIN STREET,+BAGDAD,+AZ+86321&hl=en"
YAVAPAI COUNTY SHERIFF'S OFFICE,YAVAPAI COUNTY SHERIFFS OFFICE SUB-STATION NEXT TO CAMP VERDE DETENTION CENTER,2830 N. COMMONWEALTH DRIVE #104,CAMP VERDE,AZ,86322,"http://maps.google.com/maps?q=2830 N. COMMONWEALTH DRIVE #104,+CAMP VERDE,+AZ+86322&hl=en"
ZUNI POLICE DEPARTMENT,ZUNI TRIBAL BUILDING,1203B STATE HIGHWAY 53,ZUNI,NM,87327,"http://maps.google.com/maps?q=1203B STATE HIGHWAY 53,+ZUNI,+NM+87327&hl=en"
