Participant,CollectionSite,Address,City,State,Zip,MapURL
ABERDEEN POLICE DEPARTMENT,"ABERDEEN TWP. MUNICIPAL BUILDING 
												
													732-566-2054",1 ABERDEEN SQUARE,ABERDEEN,NJ,07747,"http://maps.google.com/maps?q=1 ABERDEEN SQUARE,+ABERDEEN,+NJ+07747&hl=en"
ABERDEEN POLICE DEPARTMENT,VETERANS OF FOREIGN WARS,699 CLIFFWOOD AVENUE,CLIFFWOOD BEACH,NJ,07735,"http://maps.google.com/maps?q=699 CLIFFWOOD AVENUE,+CLIFFWOOD BEACH,+NJ+07735&hl=en"
ABINGTON TOWNSHIP POLICE DEPARTMENT,ABINGTON TOWNSHIP POLICE DEPARTMENT,1166 OLD YORK ROAD,ABINGTON,PA,19001,"http://maps.google.com/maps?q=1166 OLD YORK ROAD,+ABINGTON,+PA+19001&hl=en"
ALDAN POLICE DEPARTMENT,ALDAN MUNICIPAL BUILDING,ONE WEST PROVIDENCE ROAD,ALDAN,PA,19018,"http://maps.google.com/maps?q=ONE WEST PROVIDENCE ROAD,+ALDAN,+PA+19018&hl=en"
ALLENDALE POLICE DEPARTMENT,"ALLENDALE POLICE DEPARTMENT 
												
													201-825-1900",290 FRANKLIN TURNPIKE,ALLENDALE,NJ,07401,"http://maps.google.com/maps?q=290 FRANKLIN TURNPIKE,+ALLENDALE,+NJ+07401&hl=en"
ALLENHURST POLICE DEPARTMENT,"ALLENHURST POLICE DEPARTMENT 
												
													732-531-2255",125 CORLIES AVENUE,ALLENHURST,NJ,07711,"http://maps.google.com/maps?q=125 CORLIES AVENUE,+ALLENHURST,+NJ+07711&hl=en"
ALLENTOWN POLICE DEPARTMENT,GIANT FOOD STORE #6074,3015 W. EMMAUS AVENUE,ALLENTOWN,PA,18103,"http://maps.google.com/maps?q=3015 W. EMMAUS AVENUE,+ALLENTOWN,+PA+18103&hl=en"
ALLENTOWN POLICE DEPARTMENT,REDNER'S MARKET,1201 AIRPORT ROAD,ALLENTOWN,PA,18109,"http://maps.google.com/maps?q=1201 AIRPORT ROAD,+ALLENTOWN,+PA+18109&hl=en"
ALLENTOWN POLICE DEPARTMENT,ST LUKES ALLENTOWN HOSPITAL,1736 HAMILTON ST,ALLENTOWN,PA,18104,"http://maps.google.com/maps?q=1736 HAMILTON ST,+ALLENTOWN,+PA+18104&hl=en"
ANDOVER POLICE DEPARTMENT,"ANDOVER POLICE STATION 
												
													973-383-5544",145 LAKE ILIFF RD.,NEWTON,NJ,07860,"http://maps.google.com/maps?q=145 LAKE ILIFF RD.,+NEWTON,+NJ+07860&hl=en"
ASBURY PARK,ASBURY PARK POLICE DEPT.,1 MUNICIPAL PLAZA,ASBURY PARK,NJ,07712,"http://maps.google.com/maps?q=1 MUNICIPAL PLAZA,+ASBURY PARK,+NJ+07712&hl=en"
ATLANTIC HIGHLANDS POLICE DEPT.,ATLANTIC HIGHLANDS POLICE DEPT.,100 FIRST AVE.,ATLANTIC HIGHLANDS,NJ,07716,"http://maps.google.com/maps?q=100 FIRST AVE.,+ATLANTIC HIGHLANDS,+NJ+07716&hl=en"
AVON BY THE SEA POLICE DEPARTMENT,"AVON POLICE DEPARTMENT 
												
													732-502-4500",301 MAIN ST.,AVON BY THE SEA,NJ,07717,"http://maps.google.com/maps?q=301 MAIN ST.,+AVON BY THE SEA,+NJ+07717&hl=en"
BEACHWOOD POLICE DEPARTMENT,"BEACHWOOD MUNICIPAL COMPLEX 
												
													732-341-1249",1600 PINEWALD RD.,BEACHWOOD,NJ,08722,"http://maps.google.com/maps?q=1600 PINEWALD RD.,+BEACHWOOD,+NJ+08722&hl=en"
BELMAR POLICE DEPARTMENT,"BELMAR POLICE DEPARTMENT 
												
													732-681-1700",601 MAIN ST.,BELMAR,NJ,07719,"http://maps.google.com/maps?q=601 MAIN ST.,+BELMAR,+NJ+07719&hl=en"
BENSALEM TWP POLICE DEPARTMENT,GIANT,2721 STREET RD,BENSALEM,PA,19020,"http://maps.google.com/maps?q=2721 STREET RD,+BENSALEM,+PA+19020&hl=en"
BERKELEY HEIGHTS POLICE DEPARTMENT,"BERKELEY HEIGHTS POLICE DEPARTMENT 
												
													908-464-1111",29 PARK AVE.,BERKELEY HEIGHTS,NJ,07922,"http://maps.google.com/maps?q=29 PARK AVE.,+BERKELEY HEIGHTS,+NJ+07922&hl=en"
BERNARDS TOWNSHIP POLICE DEPARTMENT,BERNARDS TOWNSHIP POLICE DEPARTMENT,1 COLLYER LANE,BASKING RIDGE,NJ,07920,"http://maps.google.com/maps?q=1 COLLYER LANE,+BASKING RIDGE,+NJ+07920&hl=en"
BERNARDSVILLE POLICE DEPARTMENT,BERNARDSVILLE POLICE DEPARTMENT,166 MINE BROOK ROAD,BERNARDSVILLE,NJ,07924,"http://maps.google.com/maps?q=166 MINE BROOK ROAD,+BERNARDSVILLE,+NJ+07924&hl=en"
BETHLEHEM POLICE DEPARTMENT,WESTGATE MALL,2285 SCHOENERSVILLE ROAD,BETHLEHEM,PA,18017,"http://maps.google.com/maps?q=2285 SCHOENERSVILLE ROAD,+BETHLEHEM,+PA+18017&hl=en"
BETHLEHEM TWNSHP POLICE DEPARTMENT,CVS PHARMACY,4950 FREEMANSBURG AVENUE,EASTON,PA,18045,"http://maps.google.com/maps?q=4950 FREEMANSBURG AVENUE,+EASTON,+PA+18045&hl=en"
BETHLEHEM TWNSHP POLICE DEPARTMENT,GIANT PHARMACY #6366,3926 NAZARETH PIKE,BETHLEHEM,PA,18020,"http://maps.google.com/maps?q=3926 NAZARETH PIKE,+BETHLEHEM,+PA+18020&hl=en"
BETHLEHEM TWNSHP POLICE DEPARTMENT,"ST. LUKES HOSPITAL, ANDERSON CAMPUS",1872 ST LUKES BLVD,EASTON,PA,18045,"http://maps.google.com/maps?q=1872 ST LUKES BLVD,+EASTON,+PA+18045&hl=en"
BETHLEHEM TWNSHP POLICE DEPARTMENT,YOUNG'S PHARMACY,3708 FREEMANSBURG AVENUE,EASTON,PA,18045,"http://maps.google.com/maps?q=3708 FREEMANSBURG AVENUE,+EASTON,+PA+18045&hl=en"
BORDENTOWN TOWNSHIP POLICE DEPARTMENT,BORDENTOWN TOWNSHIP POLICE DEPARTMENT,1 MUNICIPAL DRIVE,BORDENTOWN,NJ,08505,"http://maps.google.com/maps?q=1 MUNICIPAL DRIVE,+BORDENTOWN,+NJ+08505&hl=en"
BOROUGH OF ENGLISHTOWN,BOROUGH OF ENGLISHTOWN MUNICIPAL BUILDING,15 MAIN STREET,ENGLISHTOWN,NJ,07726,"http://maps.google.com/maps?q=15 MAIN STREET,+ENGLISHTOWN,+NJ+07726&hl=en"
BOROUGH OF FAIRVIEW,"FAIRVIEW POLICE DEPARTMENT 
												
													201-943-2100",59 ANDERSON AVE.,FAIRVIEW,NJ,07022,"http://maps.google.com/maps?q=59 ANDERSON AVE.,+FAIRVIEW,+NJ+07022&hl=en"
BOROUGH OF WESTVILLE,WESTVILLE POLICE DEPARTMENT,167 BROADWAY,WESTVILLE,NJ,08093,"http://maps.google.com/maps?q=167 BROADWAY,+WESTVILLE,+NJ+08093&hl=en"
BRADLEY BEACH POLICE DEPARTMENT,"BRADLEY BEACH POLICE DEPARTMENT 
												
													732-775-6900",701 MAIN STREET,BRADLEY BEACH,NJ,07720,"http://maps.google.com/maps?q=701 MAIN STREET,+BRADLEY BEACH,+NJ+07720&hl=en"
BRANCHBURG TOWNSHIP POLICE DEPARTMENT,BRANCHBURG TOWNSHIP POLICE DEPARTMENT,590 OLD YORK ROAD,BRANCHBURG,NJ,08876,"http://maps.google.com/maps?q=590 OLD YORK ROAD,+BRANCHBURG,+NJ+08876&hl=en"
BRIDGEWATER TWP. POLICE,BRIDGEWATER POLICE HQ,100 COMMONS WAY,BRIDGEWATER,NJ,08807,"http://maps.google.com/maps?q=100 COMMONS WAY,+BRIDGEWATER,+NJ+08807&hl=en"
BRIELLE POLICE DEPARTMENT,BRIELLE POLICE DEPARTMENT,601 UNION LANE,BRIELLE,NJ,08730,"http://maps.google.com/maps?q=601 UNION LANE,+BRIELLE,+NJ+08730&hl=en"
BRISTOL BOROUGH POLICE DEPT.,BRISTOL BOROUGH POLICE DEPARTMENT,250 POND STREET,BRISTOL,PA,19007,"http://maps.google.com/maps?q=250 POND STREET,+BRISTOL,+PA+19007&hl=en"
BROOKHAVEN POLICE DEPT,GIANT SUPERMARKET,4930 EDGMONT AVE,BROOKHAVEN,PA,19015,"http://maps.google.com/maps?q=4930 EDGMONT AVE,+BROOKHAVEN,+PA+19015&hl=en"
BYRAM TWP. POLICE DEPARTMENT,CVS PHARMACY,77 RT. 206,STANHOPE,NJ,07874,"http://maps.google.com/maps?q=77 RT. 206,+STANHOPE,+NJ+07874&hl=en"
BYRAM TWP. POLICE DEPARTMENT,SHOP RITE,90 ROUTE 206,STANHOPE,NJ,07874,"http://maps.google.com/maps?q=90 ROUTE 206,+STANHOPE,+NJ+07874&hl=en"
CALIFON BOROUGH POLICE DEPARTMENT,CALIFON MUNICIPAL BUILDING,39 ACADEMY STREET,CALIFON,NJ,07830,"http://maps.google.com/maps?q=39 ACADEMY STREET,+CALIFON,+NJ+07830&hl=en"
CALN TOWNSHIP POLICE DEPARTMENT,CVS,101 REECEVILLE ROAD,COATESVILLE,PA,19320,"http://maps.google.com/maps?q=101 REECEVILLE ROAD,+COATESVILLE,+PA+19320&hl=en"
CAMDEN POLICE DEPARTMENT,CAMDEN POLICE DEPARTMENT,1783 FRIENDS WAY,CAMDEN WYOMING,DE,19934,"http://maps.google.com/maps?q=1783 FRIENDS WAY,+CAMDEN WYOMING,+DE+19934&hl=en"
CARTERET POLICE DEPARTMENT,"CARTERET POLICE DEPARTMENT 
												
													732-541-4181",230 ROOSEVELT AVE.,CARTERET,NJ,07008,"http://maps.google.com/maps?q=230 ROOSEVELT AVE.,+CARTERET,+NJ+07008&hl=en"
CATASAUQUA POLICE DEPARTMENT,CATASAUQUA POLICE DEPARTMENT,90 BRIDGE ST.,CATASAUQUA,PA,18032,"http://maps.google.com/maps?q=90 BRIDGE ST.,+CATASAUQUA,+PA+18032&hl=en"
CEDAR GROVE POLICE DEPARTMENT,"CEDAR GROVE POLICE DEPARTMENT 
												
													973-239-4100",525 ROUTE 23,CEDAR GROVE,NJ,07009,"http://maps.google.com/maps?q=525 ROUTE 23,+CEDAR GROVE,+NJ+07009&hl=en"
CENTRAL BUCKS REGIONAL POLICE DEPARTMENT,CVS PHARMACY,160 SOUTH MAIN STREET,DOYLESTOWN,PA,18901,"http://maps.google.com/maps?q=160 SOUTH MAIN STREET,+DOYLESTOWN,+PA+18901&hl=en"
CENTRAL BUCKS REGIONAL POLICE DEPARTMENT,RITE AID,306 TOWN CENTER,NEW BRITAIN,PA,18901,"http://maps.google.com/maps?q=306 TOWN CENTER,+NEW BRITAIN,+PA+18901&hl=en"
CHATHAM BOROUGH POLICE DEPARTMENT,CVS PHARMACY,471 MAIN STREET,CHATHAM,NJ,07928,"http://maps.google.com/maps?q=471 MAIN STREET,+CHATHAM,+NJ+07928&hl=en"
CHATHAM TOWNSHIP,CHATHAM TWP PD,401 SOUTHERN BLVD.,CHATHAM,NJ,07928,"http://maps.google.com/maps?q=401 SOUTHERN BLVD.,+CHATHAM,+NJ+07928&hl=en"
CHATHAM TOWNSHIP,SHOPRITE,631 SHUNPIKE ROAD,CHATHAM,NJ,07928,"http://maps.google.com/maps?q=631 SHUNPIKE ROAD,+CHATHAM,+NJ+07928&hl=en"
CHESTER TOWNSHIP,CHESTER TWP. POLICE HEADQUARTERS,1 PARKER ROAD,CHESTER,NJ,07930,"http://maps.google.com/maps?q=1 PARKER ROAD,+CHESTER,+NJ+07930&hl=en"
CHESWOLD POLICE DEPARTMENT,CHESWOLD POLICE DEPT,691 MAIN ST,DOVER,DE,19904,"http://maps.google.com/maps?q=691 MAIN ST,+DOVER,+DE+19904&hl=en"
CITY OF COATESVILLE POLICE DEPARTMENT,COATESVILLE POLICE DEPARTMENT,1 CITY HALL PLACE,COATESVILLE,PA,19320,"http://maps.google.com/maps?q=1 CITY HALL PLACE,+COATESVILLE,+PA+19320&hl=en"
CITY OF EASTON POLICE DEPT,CITY OF EASTON POLICE DEPT,48 N 4TH ST,EASTON,PA,18042,"http://maps.google.com/maps?q=48 N 4TH ST,+EASTON,+PA+18042&hl=en"
CITY OF ORANGE TOWNSHIP,FRONT DESK- ORANGE POLICE DEPT.,29 PARK STREET,ORANGE,NJ,07050,"http://maps.google.com/maps?q=29 PARK STREET,+ORANGE,+NJ+07050&hl=en"
CLARKSTOWN POLICE,CVS PHARMACY,280 SOUTH MAIN ST,NEW CITY,NY,10956,"http://maps.google.com/maps?q=280 SOUTH MAIN ST,+NEW CITY,+NY+10956&hl=en"
CLARKSTOWN POLICE,CVS PHARMACY,330 ROUTE 304,BARDONIA,NY,10954,"http://maps.google.com/maps?q=330 ROUTE 304,+BARDONIA,+NY+10954&hl=en"
CLEMENTON POLICE DEPARTMENT,CLEMENTON POLICE DEPARTMENT,101 GIBBSBORO ROAD,CLEMENTON,NJ,08021,"http://maps.google.com/maps?q=101 GIBBSBORO ROAD,+CLEMENTON,+NJ+08021&hl=en"
CLINTON TOWNSHIP POLICE DEPARTMENT,CLINTON TOWNSHIP PUBLIC SAFETY BUILDING,1370 ROUTE 31 NORTH,ANNANDALE,NJ,08801,"http://maps.google.com/maps?q=1370 ROUTE 31 NORTH,+ANNANDALE,+NJ+08801&hl=en"
CLOSTER POLICE DEPARTMENT,"CLOSTER POLICE GARAGE 
												
													201-768-5000",295 CLOSTER  DOCK ROAD,CLOSTER,NJ,07624,"http://maps.google.com/maps?q=295 CLOSTER  DOCK ROAD,+CLOSTER,+NJ+07624&hl=en"
COLLEGEVILLE POLICE DEPARTMENT,COLLEGEVILLE BOROUGH MUNICIPAL BUILDING,491 EAST MAIN ST,COLLEGEVILLE,PA,19426,"http://maps.google.com/maps?q=491 EAST MAIN ST,+COLLEGEVILLE,+PA+19426&hl=en"
COLLINGSWOOD POLICE DEPARTMENT,COLLINGSWOOD POLICE HQ,735 NORTH ATLANTIC AVENUE,COLLINGSWOOD,NJ,08108,"http://maps.google.com/maps?q=735 NORTH ATLANTIC AVENUE,+COLLINGSWOOD,+NJ+08108&hl=en"
CRESSKILL POLICE DEPARTMENT,CRESSKILL POLICE DEPARTMENT,67 UNION AVENUE,CRESSKILL,NJ,07626,"http://maps.google.com/maps?q=67 UNION AVENUE,+CRESSKILL,+NJ+07626&hl=en"
CROTON ON HUDSON POLICE,CROTON COMMONS SHOPPING PLAZA,177 SOUTH RIVERSIDE AVENUE,CROTON ON HUDSON,NY,10520,"http://maps.google.com/maps?q=177 SOUTH RIVERSIDE AVENUE,+CROTON ON HUDSON,+NY+10520&hl=en"
DEA NEW YORK DIVISION,"DEPARTMENT OF FAMILY SERVICES ROBERT TRAVIS BLDG 
												
													SUSAN CLARK",16 COMMUNITY LANE,LIBERTY,NY,12754,"http://maps.google.com/maps?q=16 COMMUNITY LANE,+LIBERTY,+NY+12754&hl=en"
DEA NEW YORK DIVISION,"FALLSBURG POLICE STATION 
												
													ALETA M. GOMEZ 845.794.8080  X170",19 RAILROAD PLAZA,SOUTH FALLSBURG,NY,12779,"http://maps.google.com/maps?q=19 RAILROAD PLAZA,+SOUTH FALLSBURG,+NY+12779&hl=en"
DEA NEW YORK DIVISION,"JEFFERSON PHARMACY 
												
													SUSAN CLARK",4892 MAIN STREET,JEFFERSONVILLE,NY,12748,"http://maps.google.com/maps?q=4892 MAIN STREET,+JEFFERSONVILLE,+NY+12748&hl=en"
DEA NEW YORK DIVISION,"LIBERTY POLICE DEPARTMENT 
												
													ALETA M. GOMEZ  845.794.8080  X170",159 NORTH MAIN STREET,LIBERTY,NY,12754,"http://maps.google.com/maps?q=159 NORTH MAIN STREET,+LIBERTY,+NY+12754&hl=en"
DEA NEW YORK DIVISION,"NEW YORK CITY POLICE DEPARTMENT  BRONX 
												
													42 PRECINCT",830 WASHINGTON AVENUE MORRISANIA,BRONX,NY,10451,"http://maps.google.com/maps?q=830 WASHINGTON AVENUE MORRISANIA,+BRONX,+NY+10451&hl=en"
DEA NEW YORK DIVISION,"NEW YORK CITY POLICE DEPARTMENT BRONX 
												
													46 PRECINCT",2120 RYER AVENUE (FORDHAM),BRONX,NY,10457,"http://maps.google.com/maps?q=2120 RYER AVENUE (FORDHAM),+BRONX,+NY+10457&hl=en"
DEA NEW YORK DIVISION,"NEW YORK CITY POLICE DEPARTMENT BRONX 
												
													48 PRECINCT",450 CROSS BRONX EXPRESSWAY (EAST TREMONT),BRONX,NY,10457,"http://maps.google.com/maps?q=450 CROSS BRONX EXPRESSWAY (EAST TREMONT),+BRONX,+NY+10457&hl=en"
DEA NEW YORK DIVISION,"NEW YORK CITY POLICE DEPARTMENT BRONX 
												
													50TH  PRECINCT",3450 KINGSBRIDGE AVENUE (KINGSBRIDGE),BRONX,NY,10463,"http://maps.google.com/maps?q=3450 KINGSBRIDGE AVENUE (KINGSBRIDGE),+BRONX,+NY+10463&hl=en"
DEA NEW YORK DIVISION,"NEW YORK CITY POLICE DEPARTMENT BROOKLYN 
												
													61 PRECINCT",2575 CONEY ISLAND AVENUE (HOMECREST),BROOKLYN,NY,11223,"http://maps.google.com/maps?q=2575 CONEY ISLAND AVENUE (HOMECREST),+BROOKLYN,+NY+11223&hl=en"
DEA NEW YORK DIVISION,"NEW YORK CITY POLICE DEPARTMENT BROOKLYN 
												
													68 PRECINCT",333 65TH STREET (BAY RIDGE),BROOKLYN,NY,11220,"http://maps.google.com/maps?q=333 65TH STREET (BAY RIDGE),+BROOKLYN,+NY+11220&hl=en"
DEA NEW YORK DIVISION,"NEW YORK CITY POLICE DEPARTMENT BROOKLYN 
												
													78 PRECINCT",65 SIXTH AVENUE (FLATBUSH),BROOKLYN,NY,11217,"http://maps.google.com/maps?q=65 SIXTH AVENUE (FLATBUSH),+BROOKLYN,+NY+11217&hl=en"
DEA NEW YORK DIVISION,"NEW YORK CITY POLICE DEPARTMENT BROOKLYN 
												
													84 PRECINCT",301 GOLD STREET,BROOKLYN,NY,11201,"http://maps.google.com/maps?q=301 GOLD STREET,+BROOKLYN,+NY+11201&hl=en"
DEA NEW YORK DIVISION,"NEW YORK CITY POLICE DEPARTMENT BROOKLYN 
												
													90TH PRECINCT",211 UNION AVENUE (WILLIAMSBURG),BROOKLYN,NY,11206,"http://maps.google.com/maps?q=211 UNION AVENUE (WILLIAMSBURG),+BROOKLYN,+NY+11206&hl=en"
DEA NEW YORK DIVISION,"NEW YORK CITY POLICE DEPARTMENT MANHATTAN 
												
													10 PRECINCT",230 WEST 20TH STREET CHELSEA,NEW YORK,NY,10011,"http://maps.google.com/maps?q=230 WEST 20TH STREET CHELSEA,+NEW YORK,+NY+10011&hl=en"
DEA NEW YORK DIVISION,"NEW YORK CITY POLICE DEPARTMENT MANHATTAN 
												
													13 PRECINCT",230 EAST 21ST STREET STUYVESTANT TOWN,NEW YORK,NY,10010,"http://maps.google.com/maps?q=230 EAST 21ST STREET STUYVESTANT TOWN,+NEW YORK,+NY+10010&hl=en"
DEA NEW YORK DIVISION,"NEW YORK CITY POLICE DEPARTMENT MANHATTAN 
												
													20 PRECINCT",120 WEST 82ND STREET,NEW YORK,NY,10024,"http://maps.google.com/maps?q=120 WEST 82ND STREET,+NEW YORK,+NY+10024&hl=en"
DEA NEW YORK DIVISION,"NEW YORK CITY POLICE DEPARTMENT MANHATTAN 
												
													25 PRECINCT",120 EAST 119TH STREET,NEW YORK,NY,10035,"http://maps.google.com/maps?q=120 EAST 119TH STREET,+NEW YORK,+NY+10035&hl=en"
DEA NEW YORK DIVISION,"NEW YORK CITY POLICE DEPARTMENT MANHATTAN 
												
													7 PRECINCT",19 1/2 PITT STREET LOWER EAST SIDE,NEW YORK,NY,10002,"http://maps.google.com/maps?q=19 1/2 PITT STREET LOWER EAST SIDE,+NEW YORK,+NY+10002&hl=en"
DEA NEW YORK DIVISION,"NEW YORK CITY POLICE DEPARTMENT STATEN ISLAND 
												
													120TH PRECINCT",78 RICHMOND TERRACE (STGEORGE),STATEN ISLAND,NY,10301,"http://maps.google.com/maps?q=78 RICHMOND TERRACE (STGEORGE),+STATEN ISLAND,+NY+10301&hl=en"
DEA NEW YORK DIVISION,"NEW YORK CITY POLICE DEPARTMENT STATEN ISLAND 
												
													123RD PRECINCT",116 MAIN STREET (TOTTENVILLE),STATEN ISLAND,NY,10307,"http://maps.google.com/maps?q=116 MAIN STREET (TOTTENVILLE),+STATEN ISLAND,+NY+10307&hl=en"
DEA NEW YORK DIVISION,"NEW YORK POLICE DEPARTMENT STATEN ISLAND 
												
													122ND PRECINCT",2320 HYLAN AVENUE (NEW DORP),STATEN ISLAND,NY,10306,"http://maps.google.com/maps?q=2320 HYLAN AVENUE (NEW DORP),+STATEN ISLAND,+NY+10306&hl=en"
DEA NEW YORK DIVISION,"RIVRESIDE REMEDIES 
												
													SUSAN CLARK",39 LOWER MAIN STREET,CALLICOON,NY,12723,"http://maps.google.com/maps?q=39 LOWER MAIN STREET,+CALLICOON,+NY+12723&hl=en"
DEA NEW YORK DIVISION,"TUSTEN TOWN 
												
													SUSAN CLARK",210 BRIDGE STREET,NARROWSBURG,NY,12764,"http://maps.google.com/maps?q=210 BRIDGE STREET,+NARROWSBURG,+NY+12764&hl=en"
DEAL POLICE DEPARTMENT,"DEAL FIRE DEPARTMENT 
												
													732-531-1113",110 BRIGHTON AVE.,DEAL,NJ,07723,"http://maps.google.com/maps?q=110 BRIGHTON AVE.,+DEAL,+NJ+07723&hl=en"
DELANCO TOWNSHIP POLICE DEPARTMENT,DELANCO TOWNSHIP POLICE DEPARTMENT,770 COOPERSTOWN ROAD,DELANCO,NJ,08075,"http://maps.google.com/maps?q=770 COOPERSTOWN ROAD,+DELANCO,+NJ+08075&hl=en"
DELAWARE CITY POLICE,DELAWARE CITY POLICE DEPARTMENT,407 CLINTON STREET,DELAWARE CITY,DE,19706,"http://maps.google.com/maps?q=407 CLINTON STREET,+DELAWARE CITY,+DE+19706&hl=en"
DELAWARE DEPARTMENT OF JUSTICE MFCU,SHIPLEY MANOR NURSING HOME,2723 SHIPLEY ROAD,WILMINGTON,DE,19801,"http://maps.google.com/maps?q=2723 SHIPLEY ROAD,+WILMINGTON,+DE+19801&hl=en"
DELAWARE RIVER & BAY AUTHORITY,"CAPE MAY FERRY TERMINAL 
												
													609-889-7260",1200 SANDMAN BLVD.,CAPE MAY,NJ,08204,"http://maps.google.com/maps?q=1200 SANDMAN BLVD.,+CAPE MAY,+NJ+08204&hl=en"
DELAWARE RIVER AND BAY AUTHORITY POLICE,NEW CASTLE COUNTY AIRPORT,151 NORTH DUPONT HIGHWAY (RT. 13),NEW CASTLE,DE,19720,"http://maps.google.com/maps?q=151 NORTH DUPONT HIGHWAY (RT. 13),+NEW CASTLE,+DE+19720&hl=en"
DELAWARE STATE POLICE,CHRISTIANA CARE SURGI CENTER,4755 OGLETOWN STANTON ROAD,NEWARK,DE,19718,"http://maps.google.com/maps?q=4755 OGLETOWN STANTON ROAD,+NEWARK,+DE+19718&hl=en"
DELAWARE STATE POLICE,DELAWARE STATE POLICE - TROOP 2,100 LAGRANGE AVE,NEWARK,DE,19702,"http://maps.google.com/maps?q=100 LAGRANGE AVE,+NEWARK,+DE+19702&hl=en"
DELAWARE STATE POLICE,DELAWARE STATE POLICE - TROOP 3,3759 SOUTH STATE STREET,CAMDEN WYOMING,DE,19934,"http://maps.google.com/maps?q=3759 SOUTH STATE STREET,+CAMDEN WYOMING,+DE+19934&hl=en"
DELAWARE TOWNSHIP POLICE,DELAWARE TOWNSHIP POLICE HQ,816 SERGEANTSVILLE ROAD,STOCKTON,NJ,08559,"http://maps.google.com/maps?q=816 SERGEANTSVILLE ROAD,+STOCKTON,+NJ+08559&hl=en"
DELRAN TWP. POLICE DEPARTMENT,"DELRAN TWP. POLICE DEPARTMENT 
												
													856-461-4498",900 CHESTER AVE.,DELRAN TOWNSHIP,NJ,08075,"http://maps.google.com/maps?q=900 CHESTER AVE.,+DELRAN TOWNSHIP,+NJ+08075&hl=en"
DOUGLASS TOWNSHIP POLICE,GIANT,173 HOLLY RD,GILBERTSVILLE,PA,19525,"http://maps.google.com/maps?q=173 HOLLY RD,+GILBERTSVILLE,+PA+19525&hl=en"
DOWNINGTOWN POLICE DEPARTMENT,DOWNINGTOWN POLICE DEPARTMENT,10 WEST LANCASTER AVE.,DOWNINGTOWN,PA,19335,"http://maps.google.com/maps?q=10 WEST LANCASTER AVE.,+DOWNINGTOWN,+PA+19335&hl=en"
DOYLESTOWN TWP POLICE DEPT.,DOYLESTOWN HOSPITAL,595 W. STATE STREET,DOYLESTOWN,PA,18901,"http://maps.google.com/maps?q=595 W. STATE STREET,+DOYLESTOWN,+PA+18901&hl=en"
DUBLIN BOROUGH POLICE DEPARTMENT,DUBLIN IGA FOODSTORE,161 NORTH MAIN STREET,DUBLIN,PA,18917,"http://maps.google.com/maps?q=161 NORTH MAIN STREET,+DUBLIN,+PA+18917&hl=en"
EAST GREENWICH TWP. POLICE DEPARTMENT,"EAST GREENWICH TWP. POLICE DEPARTMENT 
												
													856-423-4322",159 DEMOCRAT RD.,MICKLETON,NJ,08056,"http://maps.google.com/maps?q=159 DEMOCRAT RD.,+MICKLETON,+NJ+08056&hl=en"
EAST NORRITON POLICE DEPARTMENT,EAST NORRITON TOWNSHIP POLICE DEPARTMENT,2501 STANBRIDGE STREET,NORRISTOWN,PA,19401,"http://maps.google.com/maps?q=2501 STANBRIDGE STREET,+NORRISTOWN,+PA+19401&hl=en"
EAST WINDSOR TWP. POLICE DEPARTMENT,"EAST WINDSOR POLICE DEPARTMENT 
												
													609-448-5678",80 ONE MILE RD.,EAST WINDSOR,NJ,08520,"http://maps.google.com/maps?q=80 ONE MILE RD.,+EAST WINDSOR,+NJ+08520&hl=en"
EATONTOWN POLICE DEPARTMENT,"EATONTOWN POLICE DEPARTMENT 
												
													732-542-0100",47 BROAD ST.,EATONTOWN,NJ,07724,"http://maps.google.com/maps?q=47 BROAD ST.,+EATONTOWN,+NJ+07724&hl=en"
EDISON POLICE DEPARTMENT,"EDISON POLICE DEPARTMENT 
												
													732-248-6442",100 MUNICIPAL BLVD.,EDISON,NJ,08817,"http://maps.google.com/maps?q=100 MUNICIPAL BLVD.,+EDISON,+NJ+08817&hl=en"
ELK TOWNSHIP POLICE DEPARTMENT,ELK TOWNSHIP POLICE DEPARTMENT- MUNICIPAL BUILDING,680 WHIG LANE,MONROEVILLE,NJ,08343,"http://maps.google.com/maps?q=680 WHIG LANE,+MONROEVILLE,+NJ+08343&hl=en"
ELKTON POLICE DEPARTMENT,ELKTON POLICE DEPARTMENT,100 RAILROAD AVENUE,ELKTON,MD,21921,"http://maps.google.com/maps?q=100 RAILROAD AVENUE,+ELKTON,+MD+21921&hl=en"
ELMWOOD PARK POLICE DEPARTMENT,ELMWOOK PARK PD,182 MARKET ST,ELMWOOD PARK,NJ,07407,"http://maps.google.com/maps?q=182 MARKET ST,+ELMWOOD PARK,+NJ+07407&hl=en"
EMERSON P.D.,EMERSON POLICE HQ,1 MUNICIPAL PLACE,EMERSON,NJ,07630,"http://maps.google.com/maps?q=1 MUNICIPAL PLACE,+EMERSON,+NJ+07630&hl=en"
EMMAUS POLICE DEPARTMENT,EMMAUS POLICE DEPARTMENT,400  JUBILEE STREET,EMMAUS,PA,18049,"http://maps.google.com/maps?q=400  JUBILEE STREET,+EMMAUS,+PA+18049&hl=en"
ESSEX COUNTY SHERIFF'S OFFICE,"ESSEX COUNTY SHERIFF'S OFFICE 
												
													973-621-4111",525 WEST MARKET STPATROL HQ,NEWARK,NJ,07105,"http://maps.google.com/maps?q=525 WEST MARKET ST,+NEWARK,+NJ+07105&hl=en"
ESSEX FELLS POLICE DEPARTMENT,ESSEX FELLS POLICE DEPARTMENT,255 ROSELAND AVENUE,ESSEX FELLS,NJ,07021,"http://maps.google.com/maps?q=255 ROSELAND AVENUE,+ESSEX FELLS,+NJ+07021&hl=en"
EWING POLICE DEPARTMENT,"EWING TOWNSHIP MUNICIPAL BUILDING 
												
													609-882-1313",2 JAKE GARZIO DRIVE,EWING,NJ,08628,"http://maps.google.com/maps?q=2 JAKE GARZIO DRIVE,+EWING,+NJ+08628&hl=en"
FALLS TOWNSHIP POLICE DEPARTMENT,FALLS TOWNSHIP POLICE DEPARTMENT,188 LINCOLN HIGHWAY,FAIRLESS HILLS,PA,19030,"http://maps.google.com/maps?q=188 LINCOLN HIGHWAY,+FAIRLESS HILLS,+PA+19030&hl=en"
FAR HILLS PD,FAR HILLS PD,6 PROSPECT STREET,FAR HILLS,NJ,07931,"http://maps.google.com/maps?q=6 PROSPECT STREET,+FAR HILLS,+NJ+07931&hl=en"
FELTON POLICE DEPARTMENT,FELTON POLICE DEPARTMENT,24 EAST SEWELL STREET,FELTON,DE,19943,"http://maps.google.com/maps?q=24 EAST SEWELL STREET,+FELTON,+DE+19943&hl=en"
FLEMINGTON BOROUGH POLICE DEPARTMENT,FLEMINGTON BOROUGH POLICE DEPARTMENT,100 MAIN STREET,FLEMINGTON,NJ,08822,"http://maps.google.com/maps?q=100 MAIN STREET,+FLEMINGTON,+NJ+08822&hl=en"
FLORENCE TOWNSHIP POLICE DEPARTMENT,FLORENCE TOWNSHIP MUNICIPAL BUILDING,711 BROAD STREET,FLORENCE,NJ,08518,"http://maps.google.com/maps?q=711 BROAD STREET,+FLORENCE,+NJ+08518&hl=en"
FLORHAM PARK POLICE DEPARTMENT,"RIDGEDALE MIDDLE SCHOOL 
												
													973-377-2200",71 RIDGEDALE AVE.,FLORHAM PARK,NJ,07932,"http://maps.google.com/maps?q=71 RIDGEDALE AVE.,+FLORHAM PARK,+NJ+07932&hl=en"
FORT LEE POLICE DEPARTMENT,"FORT LEE POLICE DEPARTMENT 
												
													201-592-3524",1327 16TH ST.,FORT LEE,NJ,07024,"http://maps.google.com/maps?q=1327 16TH ST.,+FORT LEE,+NJ+07024&hl=en"
FOUNTAIN HILL POLICE DEPARTMENT,FOUNTAIN HILL POLICE DEPARTMENT,941 LONG STREET,FOUNTAIN HILL,PA,18015,"http://maps.google.com/maps?q=941 LONG STREET,+FOUNTAIN HILL,+PA+18015&hl=en"
FOUNTAIN HILL POLICE DEPARTMENT,"ST LUKES HOSPITAL MEDICAL BLDG 
												
													PARKING LOT",801 OSTRUM ST,FOUNTAIN HILL,PA,18015,"http://maps.google.com/maps?q=801 OSTRUM ST,+FOUNTAIN HILL,+PA+18015&hl=en"
FRANKLIN TOWNSHIP,FRANKLIN TWP. P.D.,495 DEMOTT LANE,SOMERSET,NJ,08873,"http://maps.google.com/maps?q=495 DEMOTT LANE,+SOMERSET,+NJ+08873&hl=en"
FRANKLIN TOWNSHIP POLICE DEPARTMENT,HUNTERDON COUNTY PROSECUTOR,65 PARK AVENUE,FLEMINGTON,NJ,08822,"http://maps.google.com/maps?q=65 PARK AVENUE,+FLEMINGTON,+NJ+08822&hl=en"
FREEHOLD BOROUGH POLICE DEPARTMENT,"FREEHOLD BOROUGH POLICE DEPARTMENT 
												
													732-462-1234 RXT. 107",36 JACKSON ST.,FREEHOLD,NJ,07728,"http://maps.google.com/maps?q=36 JACKSON ST.,+FREEHOLD,+NJ+07728&hl=en"
FREEHOLD TWP. POLICE DEPARTMENT,FREEHOLD RACEWAY MALL,3710 RT. 9CAROUSEL ENTRANCE,FREEHOLD,NJ,07728,"http://maps.google.com/maps?q=3710 RT. 9,+FREEHOLD,+NJ+07728&hl=en"
FREEHOLD TWP. POLICE DEPARTMENT,"FREEHOLD TWP. POLICE DEPARTMENT 
												
													732-462-7500",1 MUNICIPAL PLAZA,FREEHOLD,NJ,07728,"http://maps.google.com/maps?q=1 MUNICIPAL PLAZA,+FREEHOLD,+NJ+07728&hl=en"
FREEHOLD TWP. POLICE DEPARTMENT,"MICHAEL J. TIGHE PARK 
												
													732-462-7500",65 GEORGIA ROAD,FREEHOLD,NJ,07728,"http://maps.google.com/maps?q=65 GEORGIA ROAD,+FREEHOLD,+NJ+07728&hl=en"
FRENCHTOWN BOROUGH POLICE DEPARTMENT,FRENCHTOWN BOROUGH POLICE DEPARTMENT,27 SECOND STREET,FRENCHTOWN,NJ,08825,"http://maps.google.com/maps?q=27 SECOND STREET,+FRENCHTOWN,+NJ+08825&hl=en"
GARFIELD POLICE DEPARTMENT,"GARFIELD POLICE DEPARTMENT 
												
													973-478-8500",160 BELMONT AVE.,GARFIELD,NJ,07026,"http://maps.google.com/maps?q=160 BELMONT AVE.,+GARFIELD,+NJ+07026&hl=en"
GARWOOD POLICE DEPARTMENT,"GARWOOD POLICE DEPARTMENT 
												
													908-789-1500",403 SOUTH AVE.,GARWOOD,NJ,07027,"http://maps.google.com/maps?q=403 SOUTH AVE.,+GARWOOD,+NJ+07027&hl=en"
GLASSBORO POLICE DEPARTMENT,"GLASSBORO POLICE DEPARTMENT 
												
													856-881-1500",1 SOUTH MAIN STREET,GLASSBORO,NJ,08028,"http://maps.google.com/maps?q=1 SOUTH MAIN STREET,+GLASSBORO,+NJ+08028&hl=en"
GLOUCESTER CITY POLICE DEPARTMENT,GLOUCESTER CITY POLICE DEPT.,313 MONMOUTH ST.,GLOUCESTER,NJ,08030,"http://maps.google.com/maps?q=313 MONMOUTH ST.,+GLOUCESTER,+NJ+08030&hl=en"
GLOUCESTER TWP. POLICE DEPARTMENT,"GLOUCESTER TWP. POLICE HQ 
												
													856-228-4500",1261 CHEWS LANDING RD.,LAUREL SPRINGS,NJ,08021,"http://maps.google.com/maps?q=1261 CHEWS LANDING RD.,+LAUREL SPRINGS,+NJ+08021&hl=en"
GREEN BROOK,GREEN BROOK POLICE DEPT.,109 GREENBROOK ROAD,GREEN BROOK,NJ,08812,"http://maps.google.com/maps?q=109 GREENBROOK ROAD,+GREEN BROOK,+NJ+08812&hl=en"
HARDING TOWNSHIP POLICE DEPARTMENT,HARDING TOWNSHIP POLICE DEPARTMENT,21 BLUE MILL ROAD,NEW VERNON,NJ,07976,"http://maps.google.com/maps?q=21 BLUE MILL ROAD,+NEW VERNON,+NJ+07976&hl=en"
HARRISON TWP. POLICE DEPARTMENT,"HARRISON TWP. POLICE DEPARTMENT 
												
													856-478-6839",199 COLSON LANE,MULLICA HILL,NJ,08062,"http://maps.google.com/maps?q=199 COLSON LANE,+MULLICA HILL,+NJ+08062&hl=en"
HASBROUCK HEIGHTS POLICE DEPARTMENT,"HASBROUCK HEIGHTS POLICE DEPARTMENT 
												
													201-288-1000",248 HAMILTON AVE.,HASBROUCK HEIGHTS,NJ,07604,"http://maps.google.com/maps?q=248 HAMILTON AVE.,+HASBROUCK HEIGHTS,+NJ+07604&hl=en"
HATBORO POLICE DEPARTMENT,HATBORO POLICE DEPARTMENT,120 EAST MONTGOMERY AVENUE,HATBORO,PA,19040,"http://maps.google.com/maps?q=120 EAST MONTGOMERY AVENUE,+HATBORO,+PA+19040&hl=en"
HATFIELD TOWNSHIP POLICE DEPARTMENT,HATFIELD TOWNSHIP ADMINISTRATIVE BUILDING,1950 SCHOOL ROAD,HATFIELD,PA,19440,"http://maps.google.com/maps?q=1950 SCHOOL ROAD,+HATFIELD,+PA+19440&hl=en"
HAVERSTRAW POLICE DEPARTMENT,CVS,12 WEST RAMAPO ROAD,GARNERVILLE,NY,10923,"http://maps.google.com/maps?q=12 WEST RAMAPO ROAD,+GARNERVILLE,+NY+10923&hl=en"
HAVRE DE GRACE POLICE DEPARTMENT,HAVRE DE GRACE POLICE DEPARTMENT,715 PENNINGTON AVENUE,HAVRE DE GRACE,MD,21078,"http://maps.google.com/maps?q=715 PENNINGTON AVENUE,+HAVRE DE GRACE,+MD+21078&hl=en"
HIGH BRIDGE POLICE,HIGH BRIDGE POLICE DEPARTMENT,99 WEST MAIN STREET,HIGH BRIDGE,NJ,08829,"http://maps.google.com/maps?q=99 WEST MAIN STREET,+HIGH BRIDGE,+NJ+08829&hl=en"
HIGHLAND PARK POLICE DEPARTMENT,"HIGHLAND PARK COMMUNITY YOUTH CENTER 
												
													732-572-3800",222 SOUTH 6TH AVE.,HIGHLAND PARK,NJ,08904,"http://maps.google.com/maps?q=222 SOUTH 6TH AVE.,+HIGHLAND PARK,+NJ+08904&hl=en"
HILLSBOROUGH TWP POLICE DEPT.,HILLSBOROUGH TWP POLICE DEPT.,379 S. BRANCH RD.,HILLSBOROUGH,NJ,08844,"http://maps.google.com/maps?q=379 S. BRANCH RD.,+HILLSBOROUGH,+NJ+08844&hl=en"
HILLTOWN TOWNSHIP POLICE DEPARTMENT,HILLTOWN TOWNSHIP MUNICIPAL BUILDING,13 WEST CREAMERY ROAD,HILLTOWN,PA,18927,"http://maps.google.com/maps?q=13 WEST CREAMERY ROAD,+HILLTOWN,+PA+18927&hl=en"
HOBOKEN POLICE DEPARTMENT,HOBOKEN POLICE DEPARTMENT,106 HUDSON STREET,HOBOKEN,NJ,07030,"http://maps.google.com/maps?q=106 HUDSON STREET,+HOBOKEN,+NJ+07030&hl=en"
HOLLAND TWP. POLICE DEPARTMENT.,"HOLLAND TWP. POLICE DEPARTMENT 
												
													908-995-4670",61 CHURCH ROAD,MILFORD,NJ,08848,"http://maps.google.com/maps?q=61 CHURCH ROAD,+MILFORD,+NJ+08848&hl=en"
HOPATCONG BOROUGH POLICE DEPARTMENT,"HOPATCONG POLICE DEPARTMENT 
												
													973-398-5000",111 RIVER STYX RD,HOPATCONG,NJ,07843,"http://maps.google.com/maps?q=111 RIVER STYX RD,+HOPATCONG,+NJ+07843&hl=en"
HOPEWELL TWP. POLICE DEPARTMENT,HOPEWELL TWP POLICE DEPT.,201 WISHINGTON CROSSING PENNINGTON ROAD,TITUSVILLE,NJ,08560,"http://maps.google.com/maps?q=201 WISHINGTON CROSSING PENNINGTON ROAD,+TITUSVILLE,+NJ+08560&hl=en"
HORSHAM TOWNSHIP POLICE DEPARTMENT,GIANT FOOD STORE,314 HORSHAM ROAD,HORSHAM,PA,19044,"http://maps.google.com/maps?q=314 HORSHAM ROAD,+HORSHAM,+PA+19044&hl=en"
HOWELL TWP. POLICE DEPARTMENT,"HOWELL TWP. POLICE DEPARTMENT 
												
													732-938-4111",300 OLD TAVERN RD.,HOWELL,NJ,07731,"http://maps.google.com/maps?q=300 OLD TAVERN RD.,+HOWELL,+NJ+07731&hl=en"
JEFFERSON TWP. POLICE DEPARTMENT,"JEFFERSON TWP. MUNICIPAL BUILDING 
												
													973-697-1300",1033 WELDON ROAD,OAK RIDGE,NJ,07438,"http://maps.google.com/maps?q=1033 WELDON ROAD,+OAK RIDGE,+NJ+07438&hl=en"
JENKINTOWN POLICE DEPARTMENT,JENKINTOWN POLICE DEPARTMENT,700 SUMMIT AVE,JENKINTOWN,PA,19046,"http://maps.google.com/maps?q=700 SUMMIT AVE,+JENKINTOWN,+PA+19046&hl=en"
KEANSBURG POLICE DEPARTMENT,"FALLON MANOR 
												
													BETWEEN THE HOURS OF 1:00 PM - 1:15 PM; 732-787-0600",43 CHURCH ST.,KEANSBURG,NJ,07734,"http://maps.google.com/maps?q=43 CHURCH ST.,+KEANSBURG,+NJ+07734&hl=en"
KEANSBURG POLICE DEPARTMENT,"GRANVILLE TOWERS 
												
													BETWEEN THE HOURS OF 1:15 PM - 1:30 PM; 732-787-0600",1 CHURCH ST.,KEANSBURG,NJ,07734,"http://maps.google.com/maps?q=1 CHURCH ST.,+KEANSBURG,+NJ+07734&hl=en"
KEANSBURG POLICE DEPARTMENT,"KEANSBURG POLICE DEPARTMENT 
												
													BETWEEN THE HOURS OF 10 AM - 1 PM AND 1:45 PM - 2 PM",21 CHURCH ST.(REAR OF BUILDING),KEANSBURG,NJ,07734,"http://maps.google.com/maps?q=21 CHURCH ST.,+KEANSBURG,+NJ+07734&hl=en"
KEANSBURG POLICE DEPARTMENT,"MCGRATH TOWERS 
												
													BETWEEN THE HOURS OF 1:30 PM - 1:45 PM; 732-787-0600",25 HANCOCK ST.,KEANSBURG,NJ,07734,"http://maps.google.com/maps?q=25 HANCOCK ST.,+KEANSBURG,+NJ+07734&hl=en"
KENILWORTH POLICE DEPARTMENT,KENILWORTH POLICE DEPARTMENT,567 BOULEVARD,KENILWORTH,NJ,07033,"http://maps.google.com/maps?q=567 BOULEVARD,+KENILWORTH,+NJ+07033&hl=en"
KENNETT TWP POLICE DEPT.,KENNETT TWP POLICE DEPARTMENT,801 BURROWS RUN ROAD,CHADDS FORD,PA,19317,"http://maps.google.com/maps?q=801 BURROWS RUN ROAD,+CHADDS FORD,+PA+19317&hl=en"
KEYPORT POLICE DEPARTMENT,"KEYPORT POLICE DEPARTMENT 
												
													732-264-0706",70 WEST FRONT ST.,KEYPORT,NJ,07735,"http://maps.google.com/maps?q=70 WEST FRONT ST.,+KEYPORT,+NJ+07735&hl=en"
LAMBERTVILLE CITY POLICE DEPARTMENT,LAMBERTVILLE CITY POLICE DEPARTMENT,349 NORTH MAIN STREET,LAMBERTVILLE,NJ,08530,"http://maps.google.com/maps?q=349 NORTH MAIN STREET,+LAMBERTVILLE,+NJ+08530&hl=en"
LAWRENCE TWP. POLICE DEPARTMENT,"LAWRENCE TWP. POLICE DEPARTMENT 
												
													609-896-0225",2211 LAWRENCE RD.,LAWRENCE TOWNSHIP,NJ,08648,"http://maps.google.com/maps?q=2211 LAWRENCE RD.,+LAWRENCE TOWNSHIP,+NJ+08648&hl=en"
LENOX HEALTH GREENWICH VILLAGE,LENOX HILL HEALTHPLEX,30 7TH AVENUE,NEW YORK,NY,10011,"http://maps.google.com/maps?q=30 7TH AVENUE,+NEW YORK,+NY+10011&hl=en"
LENOX HILL HOSPITAL,"LENOX HILL HOSPITAL 
												
													MICHAEL LOMBARDI",100 EAST 77TH STREET,NEW YORK,NY,10075,"http://maps.google.com/maps?q=100 EAST 77TH STREET,+NEW YORK,+NY+10075&hl=en"
LIMERICK TOWNSHIP POLICE DEPARTMENT,LIMERICK TOWNSHIP POLICE STATION,155 SOUTH LIMERICK ROAD,LIMERICK,PA,19468,"http://maps.google.com/maps?q=155 SOUTH LIMERICK ROAD,+LIMERICK,+PA+19468&hl=en"
LITTLE SILVER POLICE DEPARTMENT,"LITTLE SILVER BOROUGH HALL 
												
													732-747-5900",480 PROSPECT AVE.,LITTLE SILVER,NJ,07739,"http://maps.google.com/maps?q=480 PROSPECT AVE.,+LITTLE SILVER,+NJ+07739&hl=en"
LIVINGSTON TWP. POLICE DEPARTMENT,"LIVINGSTON TWP. POLICE DEPARTMENT 
												
													973-992-3000",333 SOUTH LIVINGSTON AVE.,LIVINGSTON,NJ,07039,"http://maps.google.com/maps?q=333 SOUTH LIVINGSTON AVE.,+LIVINGSTON,+NJ+07039&hl=en"
LOGAN TOWNSHIP POLICE DEPARTMENT,"LOGAN TWP. POLICE DEPARTMENT 
												
													856-467-0061",125 MAIN ST.,BRIDGEPORT,NJ,08014,"http://maps.google.com/maps?q=125 MAIN ST.,+BRIDGEPORT,+NJ+08014&hl=en"
LONG BRANCH POLICE DEPARTMENT,LONG BRANCH SENIOR CENTER,82 SECOND AVENUE,LONG BRANCH,NJ,07740,"http://maps.google.com/maps?q=82 SECOND AVENUE,+LONG BRANCH,+NJ+07740&hl=en"
LONG HILL TOWNSHIP POLICE DEPARTMENT,LONG HILL TOWNSHIP POLICE DEPARTMENT,264 MERCER STREET,STIRLING,NJ,07980,"http://maps.google.com/maps?q=264 MERCER STREET,+STIRLING,+NJ+07980&hl=en"
LOWER MAKEFIELD TWP POLICE DEPARTMENT,LOWER MAKEFIELD TWP POLICE DEPARTMENT,1100 EDGEWOOD ROAD,YARDLEY,PA,19067,"http://maps.google.com/maps?q=1100 EDGEWOOD ROAD,+YARDLEY,+PA+19067&hl=en"
LOWER MERION TWP. POLICE DEPARTMENT,"LOWER MERION TWP. POLICE DEPARTMENT 
												
													LOBBY",71 E. LANCASTER AVE.,ARDMORE,PA,19003,"http://maps.google.com/maps?q=71 E. LANCASTER AVE.,+ARDMORE,+PA+19003&hl=en"
LOWER MORELAND POLICE DEPARTMENT,LOWER MORELAND POLICE DEPARTMENT,640 RED LION ROAD,HUNTINGDON VALLEY,PA,19006,"http://maps.google.com/maps?q=640 RED LION ROAD,+HUNTINGDON VALLEY,+PA+19006&hl=en"
LOWER PROVIDENCE POLICE DEPARTMENT,LOWER PROVIDENCE POLICE DEPARTMENT,100 PARKLANE DR,EAGLEVILLE,PA,19403,"http://maps.google.com/maps?q=100 PARKLANE DR,+EAGLEVILLE,+PA+19403&hl=en"
LOWER SAUCON TOWNSHIP POLICE DEPARTMENNT,GIANT FOOD STORE,1880 LEITHSVILLE RD,HELLERTOWN,PA,18055,"http://maps.google.com/maps?q=1880 LEITHSVILLE RD,+HELLERTOWN,+PA+18055&hl=en"
LOWER SAUCON TOWNSHIP POLICE DEPARTMENNT,LOWER SAUCON TOWNSHIP POLICE DEPARTMENT,3700 OLD PHILADELPHIA PIKE,BETHLEHEM,PA,18015,"http://maps.google.com/maps?q=3700 OLD PHILADELPHIA PIKE,+BETHLEHEM,+PA+18015&hl=en"
LOWER SOUTHAMPTON TOWNSHIP POLICE DEPARTMENT,LOWER SOUTHAMPTON TOWNSHIP POLICE HEADQUARTERS,1500 DESIRE AVENUE,FEASTERVILLE TREVOSE,PA,19053,"http://maps.google.com/maps?q=1500 DESIRE AVENUE,+FEASTERVILLE TREVOSE,+PA+19053&hl=en"
LUMBERTON TOWNSHIP PD,MUNICIPAL BLDG,35 MUNICIPAL DRIV,LUMBERTON,NJ,08048,"http://maps.google.com/maps?q=35 MUNICIPAL DRIV,+LUMBERTON,+NJ+08048&hl=en"
MANALAPAN TWP POLICE DEPT.,MANALAPAN TOWNSHIP POLICE DEPARTMENT,120 RT 522,MANALAPAN,NJ,07726,"http://maps.google.com/maps?q=120 RT 522,+MANALAPAN,+NJ+07726&hl=en"
MANASQUAN POLICE DEPARTMENT,"BOROUGH HALL MANASQUAN TWP. 
												
													732-223-1000",201 E. MAIN ST.,MANASQUAN,NJ,08736,"http://maps.google.com/maps?q=201 E. MAIN ST.,+MANASQUAN,+NJ+08736&hl=en"
MANVILLE POLICE DEPARTMENT,"MANVILLE POLICE DEPARTMENT 
												
													908-725-1900",2 NORTH MAIN ST.,MANVILLE,NJ,08835,"http://maps.google.com/maps?q=2 NORTH MAIN ST.,+MANVILLE,+NJ+08835&hl=en"
MARLBORO TWP. POLICE DEPARTMENT,"MARLBORO TWP. POLICE DEPARTMENT 
												
													732-536-0100",1979 TOWNSHIP DR.,MARLBORO,NJ,07746,"http://maps.google.com/maps?q=1979 TOWNSHIP DR.,+MARLBORO,+NJ+07746&hl=en"
MARLBOROUGH TOWNSHIP POLICE DEPARTMENT,MARLBOROUGH TOWNSHIP POLICE DEPARTMENT,6040 UPPER RIDGE ROAD,GREEN LANE,PA,18054,"http://maps.google.com/maps?q=6040 UPPER RIDGE ROAD,+GREEN LANE,+PA+18054&hl=en"
MARPLE TOWNSHIP POLICE DEPARTMENT,GIANT FOOD STORE,2910 SPRINGFIELD ROAD,BROOMALL,PA,19008,"http://maps.google.com/maps?q=2910 SPRINGFIELD ROAD,+BROOMALL,+PA+19008&hl=en"
MARYLAND STATE POLICE,"MSP JFK HIGHWAY BARRACK 
												
													POC:  D/SGT. SHAWN WARD",15 TURNPIKE DRIVE,PERRYVILLE,MD,21903,"http://maps.google.com/maps?q=15 TURNPIKE DRIVE,+PERRYVILLE,+MD+21903&hl=en"
MARYLAND STATE POLICE,"MSP NORTH EAST BARRACK 
												
													POC:  LT. STEPHEN KONOLD",2433 W. PULASKI HIGHWAY,NORTH EAST,MD,21901,"http://maps.google.com/maps?q=2433 W. PULASKI HIGHWAY,+NORTH EAST,+MD+21901&hl=en"
MATAWAN BOROUGH POLICE DEPARTMENT,MATAWAN POLICE DEPARTMENT,150 MAIN STREET,MATAWAN,NJ,07747,"http://maps.google.com/maps?q=150 MAIN STREET,+MATAWAN,+NJ+07747&hl=en"
MENDHAM TOWNSHIP,MENDHAM TWP. PD,3 CHERRY LANE,BROOKSIDE,NJ,07926,"http://maps.google.com/maps?q=3 CHERRY LANE,+BROOKSIDE,+NJ+07926&hl=en"
MERCER COUNTY SHERIFF'S OFFICE,"MERCER COUNTY SHERIFF'S OFFICE 
												
													609-989-6111",640 S. BROAD STREETLOT ACROSS FROM BUILDING,TRENTON,NJ,08618,"http://maps.google.com/maps?q=640 S. BROAD STREET,+TRENTON,+NJ+08618&hl=en"
MERCHANTVILLE BORORUGH POLICE DEPARTMENT,CVS PHARMACY,18 W MAPLE AVE,MERCHANTVILLE,NJ,08109,"http://maps.google.com/maps?q=18 W MAPLE AVE,+MERCHANTVILLE,+NJ+08109&hl=en"
METUCHEN POLICE DEPARTMENT,METUCHEN POLICE DEPARTMENT,500 MAIN STREET,METUCHEN,NJ,08840,"http://maps.google.com/maps?q=500 MAIN STREET,+METUCHEN,+NJ+08840&hl=en"
MIDDLESEX BOROUGH POLICE DEPARTMENT,"MIDDLESEX POLICE DEPARTMENT 
												
													732-356-1900",1101 MOUNTAIN AVE.,MIDDLESEX,NJ,08846,"http://maps.google.com/maps?q=1101 MOUNTAIN AVE.,+MIDDLESEX,+NJ+08846&hl=en"
MIDDLETOWN POLICE DEPARTMENT,MIDDLETOWN POLICE DEPARTMENT,130 HAMPDEN ROAD,MIDDLETOWN,DE,19709,"http://maps.google.com/maps?q=130 HAMPDEN ROAD,+MIDDLETOWN,+DE+19709&hl=en"
MIDDLETOWN TOWNSHIP PD,"MIDDLETOWN TOWNSHIP PD 
												
													7326152100",1 KINGS HWY,MIDDLETOWN,NJ,07748,"http://maps.google.com/maps?q=1 KINGS HWY,+MIDDLETOWN,+NJ+07748&hl=en"
MIDDLETOWN TOWNSHIP POLICE DEPARTMENT,CVS  PHARMACY AT TARGET STORE,2331 E. LINCOLN HIGHWAY,LANGHORNE,PA,19047,"http://maps.google.com/maps?q=2331 E. LINCOLN HIGHWAY,+LANGHORNE,+PA+19047&hl=en"
MIDDLETOWN TOWNSHIP POLICE DEPARTMENT,GIANT FOOD PHARMACY,4001 NEW FALLS ROAD,LEVITTOWN,PA,19056,"http://maps.google.com/maps?q=4001 NEW FALLS ROAD,+LEVITTOWN,+PA+19056&hl=en"
MIDDLETOWN TOWNSHIP POLICE DEPARTMENT,ST MARY MEDICAL CENTER,1201 LANGHORNE-NEWTOWN ROAD,LANGHORNE,PA,19047,"http://maps.google.com/maps?q=1201 LANGHORNE-NEWTOWN ROAD,+LANGHORNE,+PA+19047&hl=en"
MILFORD POLICE DEPARTMENT,MILFORD POLICE DEPARTMENT,400 NE FRONT STREET,MILFORD,DE,19963,"http://maps.google.com/maps?q=400 NE FRONT STREET,+MILFORD,+DE+19963&hl=en"
MONMOUTH BEACH POLICE DEPARTMENT,"MONMOUTH BEACH POLICE DEPARTMENT 
												
													732-229-1313",14 WILLOW AVE.,MONMOUTH BEACH,NJ,07750,"http://maps.google.com/maps?q=14 WILLOW AVE.,+MONMOUTH BEACH,+NJ+07750&hl=en"
MONMOUTH COUNTY SHERIFF'S OFFICE,"MONMOUTH COUNTY SHERIFF'S OFFICE 
												
													PUBLIC SAFETY CENTER",2500 KOZLOSKI RD.,FREEHOLD,NJ,07728,"http://maps.google.com/maps?q=2500 KOZLOSKI RD.,+FREEHOLD,+NJ+07728&hl=en"
MONMOUTH UNIVERSITY POLICE DEPARTMENT,"MONMOUTH UNIVERSITY POLICE DEPARTMENT 
												
													732-571-4444",400 CEDAR AVE.,WEST LONG BRANCH,NJ,07764,"http://maps.google.com/maps?q=400 CEDAR AVE.,+WEST LONG BRANCH,+NJ+07764&hl=en"
MONTGOMERY COUNTY DISTRICT ATTORNEY,UPPER MERION TOWNSHIP MUNICIPAL BUILDING,175 WEST VALLEY FORGE ROAD,KING OF PRUSSIA,PA,19406,"http://maps.google.com/maps?q=175 WEST VALLEY FORGE ROAD,+KING OF PRUSSIA,+PA+19406&hl=en"
MONTGOMERY TWP. POLICE DEPARTMENT,WEGMANS SUPERMARKET,1201 KNAPP ROAD,NORTH WALES,PA,19454,"http://maps.google.com/maps?q=1201 KNAPP ROAD,+NORTH WALES,+PA+19454&hl=en"
MONTICELLO POLICE DEPARTMENT,"MONTICELLO POLICE DEPT 
												
													CHIEF MUIR",2 PLEASANT STREET,MONTICELLO,NY,12701,"http://maps.google.com/maps?q=2 PLEASANT STREET,+MONTICELLO,+NY+12701&hl=en"
MORRIS PLAINS PD,STOP & SHOP SUPERMARKET,245 US 202,MORRIS PLAINS,NJ,07950,"http://maps.google.com/maps?q=245 US 202,+MORRIS PLAINS,+NJ+07950&hl=en"
MORRIS TOWNSHIP PD,SHOPRITE,178 EAST HANOVER AVE.,CEDAR KNOLLS,NJ,07927,"http://maps.google.com/maps?q=178 EAST HANOVER AVE.,+CEDAR KNOLLS,+NJ+07927&hl=en"
MOSCOW BOROUGH POLICE DEPARTMENT,MOSCOW BOROUGH MUNICIPAL BUILDING,123 VAN BRUNT ST,MOSCOW,PA,18444,"http://maps.google.com/maps?q=123 VAN BRUNT ST,+MOSCOW,+PA+18444&hl=en"
MOUNT HOLLY TOWNSHIP,MT. HOLLY TOWNSHIP P.D.,23 WASHINGTON AVE.,MOUNT HOLLY,NJ,08060,"http://maps.google.com/maps?q=23 WASHINGTON AVE.,+MOUNT HOLLY,+NJ+08060&hl=en"
MOUNTAINSIDE PD,MOUNTAINSIDE POLICE DEPT.,1385 ROUTE 22 EAST,MOUNTAINSIDE,NJ,07092,"http://maps.google.com/maps?q=1385 ROUTE 22 EAST,+MOUNTAINSIDE,+NJ+07092&hl=en"
NARCOTICS STRIKE FORCE,"UNIVERSITY OF THE SCIENCES 
												
													ROSENBERGER HALL",600 S 43RD STROOM 100,PHILADELPHIA,PA,19104,"http://maps.google.com/maps?q=600 S 43RD ST,+PHILADELPHIA,+PA+19104&hl=en"
NEPTUNE TWP. POLICE DEPARTMENT,"NEPTUNE TWP. POLICE DEPARTMENT 
												
													732-988-8000 EXT. 428",25 NEPTUNE BLVD.,NEPTUNE,NJ,07753,"http://maps.google.com/maps?q=25 NEPTUNE BLVD.,+NEPTUNE,+NJ+07753&hl=en"
NEW BRITAIN TOWNSHIP POLICE DEPARTMENT,GIANT,4275 COUNTY LINE ROAD,CHALFONT,PA,18914,"http://maps.google.com/maps?q=4275 COUNTY LINE ROAD,+CHALFONT,+PA+18914&hl=en"
NEW BRITAIN TOWNSHIP POLICE DEPARTMENT,NEW BRITAIN TOWNSHIP POLICE DEPARTMENT,207 PARK AVENUE,CHALFONT,PA,18914,"http://maps.google.com/maps?q=207 PARK AVENUE,+CHALFONT,+PA+18914&hl=en"
NEW BRUNSWICK POLICE DEPARTMENT,"NEW BRUNSWICK POLICE DEPARTMENT 
												
													732-745-5200",25 KIRKPATRICK ST.,NEW BRUNSWICK,NJ,08901,"http://maps.google.com/maps?q=25 KIRKPATRICK ST.,+NEW BRUNSWICK,+NJ+08901&hl=en"
NEW CASTLE COUNTY POLICE DEPARTMENT,"NEW CASTLE COUNTY POLICE HEADQUARTERS 
												
													CPL. PAUL J, SWEENEY PUBLIC SAFETY BUILDING",3601 N. DUPONT HIGHWAY,NEW CASTLE,DE,19720,"http://maps.google.com/maps?q=3601 N. DUPONT HIGHWAY,+NEW CASTLE,+DE+19720&hl=en"
NEW HANOVER TOWNSHIP POLICE DEPARTMENT,NEW HANOVER TOWNSHIP POLICE DEPARMENT,2943 N. CHARLOTTE STREET,GILBERTSVILLE,PA,19525,"http://maps.google.com/maps?q=2943 N. CHARLOTTE STREET,+GILBERTSVILLE,+PA+19525&hl=en"
NEW HANOVER TOWNSHIP POLICE DEPT,NEW HANOVER TOWNSHIP POLICE DEPT,2943 N CHARLOTTE ST,GILBERTSVILLE,PA,19525,"http://maps.google.com/maps?q=2943 N CHARLOTTE ST,+GILBERTSVILLE,+PA+19525&hl=en"
NEW HOPE POLICE DEPARTMENT,CVS PHARMACY,302 WEST BRIDGE STREET,NEW HOPE,PA,18938,"http://maps.google.com/maps?q=302 WEST BRIDGE STREET,+NEW HOPE,+PA+18938&hl=en"
NEW JERSEY STATE POLICE KINGWOOD,NEW JERSEY STATE POLICE,945 RT. 12,FRENCHTOWN,NJ,08825,"http://maps.google.com/maps?q=945 RT. 12,+FRENCHTOWN,+NJ+08825&hl=en"
NEW MILFORD BORO P.D.,NEW MILFOR BORO P.D.,930 RIVER ROAD,NEW MILFORD,NJ,07646,"http://maps.google.com/maps?q=930 RIVER ROAD,+NEW MILFORD,+NJ+07646&hl=en"
NEW PROVIDENCE PD,NEW PROVIDENCE PD,360 ELKWOOD AVE.,NEW PROVIDENCE,NJ,07974,"http://maps.google.com/maps?q=360 ELKWOOD AVE.,+NEW PROVIDENCE,+NJ+07974&hl=en"
NEWARK POLICE DEPT.,1ST PRECINCT,10  17TH AVE.,NEWARK,NJ,07108,"http://maps.google.com/maps?q=10  17TH AVE.,+NEWARK,+NJ+07108&hl=en"
NEWARK POLICE DEPT.,2ND PRECINCT,1 LINCOLN AVE.,NEWARK,NJ,07108,"http://maps.google.com/maps?q=1 LINCOLN AVE.,+NEWARK,+NJ+07108&hl=en"
NEWARK POLICE DEPT.,3RD PRECINCT,649 MARKET ST.,NEWARK,NJ,07102,"http://maps.google.com/maps?q=649 MARKET ST.,+NEWARK,+NJ+07102&hl=en"
NEWARK POLICE DEPT.,4TH PRECINCT,247 16TH AVE.,NEWARK,NJ,07108,"http://maps.google.com/maps?q=247 16TH AVE.,+NEWARK,+NJ+07108&hl=en"
NEWARK POLICE DEPT.,5TH PRECINCT,480 CLINTON AVE.,NEWARK,NJ,07108,"http://maps.google.com/maps?q=480 CLINTON AVE.,+NEWARK,+NJ+07108&hl=en"
NEWARK POLICE DEPT.,6TH PRECINCT,491 IRVINGTON AVENUE,NEWARK,NJ,07106,"http://maps.google.com/maps?q=491 IRVINGTON AVENUE,+NEWARK,+NJ+07106&hl=en"
NEWARK POLICE DEPT.,POLICE MAIN DESK,22 FRANKLIN ST.,NEWARK,NJ,07108,"http://maps.google.com/maps?q=22 FRANKLIN ST.,+NEWARK,+NJ+07108&hl=en"
NEWARK POLICE DEPT.,SPECIAL OPERATIONS DIVISION,472 ORANGE ST.,NEWARK,NJ,07108,"http://maps.google.com/maps?q=472 ORANGE ST.,+NEWARK,+NJ+07108&hl=en"
NEWARK POLICE DEPT.,YOUTH AID SECTION/ CJAPU,43 DICKERSON ST.,NEWARK,NJ,07108,"http://maps.google.com/maps?q=43 DICKERSON ST.,+NEWARK,+NJ+07108&hl=en"
NEWTON POLICE DEPARTMENT,NEWTON POLICE DEPARTMENT,39 TRINITY STREET,NEWTON,NJ,07860,"http://maps.google.com/maps?q=39 TRINITY STREET,+NEWTON,+NJ+07860&hl=en"
NEWTOWN BOROUGH POLCE DEPT.,NEWTOWN FIRE ASSOCIATION BUILDING,14 LIBERTY STREET,NEWTOWN,PA,18940,"http://maps.google.com/maps?q=14 LIBERTY STREET,+NEWTOWN,+PA+18940&hl=en"
NEWTOWN TWP. POLICE DEPARTMENT,NEWTOWN ATHLETIC CLUB,120 PHEASANT RUN,NEWTOWN,PA,18940,"http://maps.google.com/maps?q=120 PHEASANT RUN,+NEWTOWN,+PA+18940&hl=en"
NEWTOWN TWP. POLICE DEPARTMENT,NEWTOWN TWP. MUNICIPAL BUILDING,100 MUNICIPAL DRIVE,NEWTOWN,PA,18940,"http://maps.google.com/maps?q=100 MUNICIPAL DRIVE,+NEWTOWN,+PA+18940&hl=en"
NORTH BERGEN P.D.,NORTH BERGEN P.D.,4233 KENNEDY BLVD.,NORTH BERGEN,NJ,07047,"http://maps.google.com/maps?q=4233 KENNEDY BLVD.,+NORTH BERGEN,+NJ+07047&hl=en"
NORTH PLAINFIELD POLICE DEPT.,NORTH PLAINFIELD P D FRONT LOBBY,263 SOMERSET STREET,PLAINFIELD,NJ,07060,"http://maps.google.com/maps?q=263 SOMERSET STREET,+PLAINFIELD,+NJ+07060&hl=en"
NORTH WALES POLICE DEPARTMENT,NORTH WALES BOROUGH HALL,300 SCHOOL STREET,NORTH WALES,PA,19454,"http://maps.google.com/maps?q=300 SCHOOL STREET,+NORTH WALES,+PA+19454&hl=en"
NORTHVALE POLICE DEPARTMENT,"NORTHVALE POLICE DEPARTMENT 
												
													201-768-5900",116 PARIS AVE.,NORTHVALE,NJ,07647,"http://maps.google.com/maps?q=116 PARIS AVE.,+NORTHVALE,+NJ+07647&hl=en"
NORWOOD POLICE DEPT.,NORWOOD BOROUGH COMMUNITY CENTER,453 BROADWAY,NORWOOD,NJ,07648,"http://maps.google.com/maps?q=453 BROADWAY,+NORWOOD,+NJ+07648&hl=en"
NUTLEY POLICE DEPARTMENT,NUTLEY POLICE DEPARTMENT,228 CHESTNUT STREET,NUTLEY,NJ,07110,"http://maps.google.com/maps?q=228 CHESTNUT STREET,+NUTLEY,+NJ+07110&hl=en"
NYPD 26TH PRECINCT,"COLUMBIA UNIVERSITY 
												
													SIDEWALK",WEST 116TH STREET AND BROADWAY,NEW YORK,NY,10027,"http://maps.google.com/maps?q=WEST 116TH STREET AND BROADWAY,+NEW YORK,+NY+10027&hl=en"
NYPD 33 PCT./ COLUMBIA UNIVERSITY,COLUMBIA UNIVERSITY,560 W 168 STREET,NEW YORK,NY,10032,"http://maps.google.com/maps?q=560 W 168 STREET,+NEW YORK,+NY+10032&hl=en"
OAKLAND POLICE DEPARTMENT,OAKLAND POLICE DEPARTMENT,295 RAMAPO VALLEY ROAD,OAKLAND,NJ,07436,"http://maps.google.com/maps?q=295 RAMAPO VALLEY ROAD,+OAKLAND,+NJ+07436&hl=en"
OCEAN TWP. POLICE DEPARTMENT,"OCEAN POLICE DEPARTMENT 
												
													7325311800",399 MONMOUTH RD.,OAKHURST,NJ,07755,"http://maps.google.com/maps?q=399 MONMOUTH RD.,+OAKHURST,+NJ+07755&hl=en"
OCEANPORT POLICE DEPARTMENT,OCEANPORT POLICE DEPT.,282 HILDRETH AVE.,OCEANPORT,NJ,07757,"http://maps.google.com/maps?q=282 HILDRETH AVE.,+OCEANPORT,+NJ+07757&hl=en"
OLD BRIDGE POLICE DEPARTMENT,"OLD BRIDGE TOWNSHIP RECREATION BUILDING 
												
													7327214000",1 OLD BRIDGE PLAZA,OLD BRIDGE,NJ,08857,"http://maps.google.com/maps?q=1 OLD BRIDGE PLAZA,+OLD BRIDGE,+NJ+08857&hl=en"
OLYPHANT POLICE DEPARTMENT,OLYPHANT BOROUGH POLICE STATION,604 EAST PARK STREET,OLYPHANT,PA,18447,"http://maps.google.com/maps?q=604 EAST PARK STREET,+OLYPHANT,+PA+18447&hl=en"
PALMYRA POLICE DEPARTMENT,PALMYRA POLICE DEPARTMENT,20 WEST BROAD ST.,PALMYRA,NJ,08065,"http://maps.google.com/maps?q=20 WEST BROAD ST.,+PALMYRA,+NJ+08065&hl=en"
PARSIPPANY-TROY HILLS PD,"MORRIS HILLS SHOPPING CENTER 
												
													IN FRONT OF HARMON'S",3035-3189 ROUTE 46,PARSIPPANY,NJ,07054,"http://maps.google.com/maps?q=3035-3189 ROUTE 46,+PARSIPPANY,+NJ+07054&hl=en"
PAULSBORO POLICE DEPT.,GLOUCESTER COUNTY PROSECUTOR'S OFFICE,7 HUNTER STREET,WOODBURY,NJ,08096,"http://maps.google.com/maps?q=7 HUNTER STREET,+WOODBURY,+NJ+08096&hl=en"
PEAPACK & GLADSTONE POLICE DEPARTMENT,"PEAPACK & GLADSTONE POLICE DEPARTMENT 
												
													MUNICIPAL BUILDING",1 SCHOOL ST.,PEAPACK,NJ,07977,"http://maps.google.com/maps?q=1 SCHOOL ST.,+PEAPACK,+NJ+07977&hl=en"
PENNDEL BOROUGH POLICE DEPT,PENNDEL POLICE STATION,300 SOUTH BELLEVUE AVE,PENNDEL,PA,19047,"http://maps.google.com/maps?q=300 SOUTH BELLEVUE AVE,+PENNDEL,+PA+19047&hl=en"
PENNRIDGE REGIONAL POLICE DEPARTMENT,PENNRIDGE POLICE DEPARTMENT HQ,200 RIDGE ROAD,SELLERSVILLE,PA,18960,"http://maps.google.com/maps?q=200 RIDGE ROAD,+SELLERSVILLE,+PA+18960&hl=en"
PENNSYLVANIA STATE POLICE,"PENNSYLVANIA STATE POLICE 
												
													MEDIA BARRACKS",1342 WEST BALTIMORE PIKE,MEDIA,PA,19063,"http://maps.google.com/maps?q=1342 WEST BALTIMORE PIKE,+MEDIA,+PA+19063&hl=en"
PENNSYLVANIA STATE POLICE TROOP M BETHLEHEM,PA STATE POLICE,2960 AIRPORT RD,BETHLEHEM,PA,18017,"http://maps.google.com/maps?q=2960 AIRPORT RD,+BETHLEHEM,+PA+18017&hl=en"
PENNSYLVANIA STATE POLICE- PHILADELPHIA,PSP PHILADELPHIA,2201 BELMONT AVENUE,PHILADELPHIA,PA,19131,"http://maps.google.com/maps?q=2201 BELMONT AVENUE,+PHILADELPHIA,+PA+19131&hl=en"
PERKASIE BOROUGH POLICE DEPARTMENT,PERKASIE BOROUGH POLICE DEPARTMENT,311 SOUTH 9TH STREET,PERKASIE,PA,18944,"http://maps.google.com/maps?q=311 SOUTH 9TH STREET,+PERKASIE,+PA+18944&hl=en"
PERRYVILLE POLICE DEPARTMENT,PERRYVILLE POLICE DEPARTMENT,2 PERRYVILLE TOWN CENTER DRIVE,PERRYVILLE,MD,21903,"http://maps.google.com/maps?q=2 PERRYVILLE TOWN CENTER DRIVE,+PERRYVILLE,+MD+21903&hl=en"
PHILADELPHIA POLICE DEPARTMENT,FIRE DEPARTMENT ENGINE 19 / LADDER 8,300 E. CHELTEN AVENUE,PHILADELPHIA,PA,19120,"http://maps.google.com/maps?q=300 E. CHELTEN AVENUE,+PHILADELPHIA,+PA+19120&hl=en"
PHILADELPHIA POLICE DEPARTMENT,FIRE DEPARTMENT ENGINE 2 / LADDER 3,2426-32 N. 2ND ST.,PHILADELPHIA,PA,19133,"http://maps.google.com/maps?q=2426-32 N. 2ND ST.,+PHILADELPHIA,+PA+19133&hl=en"
PHILADELPHIA POLICE DEPARTMENT,FIRE DEPARTMENT ENGINE 22/LADDER 31,3270 COMLY ROAD,PHILADELPHIA,PA,19154,"http://maps.google.com/maps?q=3270 COMLY ROAD,+PHILADELPHIA,+PA+19154&hl=en"
PHILADELPHIA POLICE DEPARTMENT,FIRE DEPARTMENT ENGINE 33,4750 RICHMOND ST.,PHILADELPHIA,PA,19137,"http://maps.google.com/maps?q=4750 RICHMOND ST.,+PHILADELPHIA,+PA+19137&hl=en"
PHILADELPHIA POLICE DEPARTMENT,FIRE DEPARTMENT ENGINE 43 / LADDER 9,2108-14 MARKET ST.,PHILADELPHIA,PA,19103,"http://maps.google.com/maps?q=2108-14 MARKET ST.,+PHILADELPHIA,+PA+19103&hl=en"
PHILADELPHIA POLICE DEPARTMENT,FIRE DEPARTMENT ENGINE 45 / LADDER 14,2401 N. 26TH ST.,PHILADELPHIA,PA,19132,"http://maps.google.com/maps?q=2401 N. 26TH ST.,+PHILADELPHIA,+PA+19132&hl=en"
PHILADELPHIA POLICE DEPARTMENT,FIRE DEPARTMENT ENGINE 50 / LADDER 12,1325 W. CAMBRIA ST.,PHILADELPHIA,PA,19132,"http://maps.google.com/maps?q=1325 W. CAMBRIA ST.,+PHILADELPHIA,+PA+19132&hl=en"
PHILADELPHIA POLICE DEPARTMENT,FIRE DEPARTMENT ENGINE 51 / LADDER 29,5931 OLD YORK RD.,PHILADELPHIA,PA,19141,"http://maps.google.com/maps?q=5931 OLD YORK RD.,+PHILADELPHIA,+PA+19141&hl=en"
PHILADELPHIA POLICE DEPARTMENT,FIRE DEPARTMENT ENGINE 54,1913 N. 63RD ST.,PHILADELPHIA,PA,19151,"http://maps.google.com/maps?q=1913 N. 63RD ST.,+PHILADELPHIA,+PA+19151&hl=en"
PHILADELPHIA POLICE DEPARTMENT,FIRE DEPARTMENT ENGINE 57,5559 CHESTNUT ST.,PHILADELPHIA,PA,19139,"http://maps.google.com/maps?q=5559 CHESTNUT ST.,+PHILADELPHIA,+PA+19139&hl=en"
PHILADELPHIA POLICE DEPARTMENT,FIRE DEPARTMENT ENGINE 60 / LADDER 19,2301 S. 24TH ST.,PHILADELPHIA,PA,19145,"http://maps.google.com/maps?q=2301 S. 24TH ST.,+PHILADELPHIA,+PA+19145&hl=en"
PHILADELPHIA POLICE DEPARTMENT,FIRE DEPARTMENT ENGINE 62 / LADDER 34,9845 BUSTLETON AVE.,PHILADELPHIA,PA,19115,"http://maps.google.com/maps?q=9845 BUSTLETON AVE.,+PHILADELPHIA,+PA+19115&hl=en"
PHILADELPHIA POLICE DEPARTMENT,FIRE DEPARTMENT ENGINE 68 / LADDER 13,801 S. 52ND ST.,PHILADELPHIA,PA,19143,"http://maps.google.com/maps?q=801 S. 52ND ST.,+PHILADELPHIA,+PA+19143&hl=en"
PHILADELPHIA POLICE DEPARTMENT,FIRE DEPARTMENT ENGINE 7 / LADDER 10,3798 KENSINGTON AVE.,PHILADELPHIA,PA,19124,"http://maps.google.com/maps?q=3798 KENSINGTON AVE.,+PHILADELPHIA,+PA+19124&hl=en"
PHILADELPHIA POLICE DEPARTMENT,FIRE DEPARTMENT ENGINE 71 / LADDER 28,1900 COTTMAN AVENUE,PHILADELPHIA,PA,19111,"http://maps.google.com/maps?q=1900 COTTMAN AVENUE,+PHILADELPHIA,+PA+19111&hl=en"
PHILADELPHIA POLICE DEPARTMENT,FIRE DEPARTMENT ENGINE 73,7515 OGONTZ AVE.,PHILADELPHIA,PA,19150,"http://maps.google.com/maps?q=7515 OGONTZ AVE.,+PHILADELPHIA,+PA+19150&hl=en"
PHILADELPHIA POLICE DEPARTMENT,FIRE DEPARTMENT ENGING 36 / LADDER 20,7818 FRANKFORD AVE.,PHILADELPHIA,PA,19136,"http://maps.google.com/maps?q=7818 FRANKFORD AVE.,+PHILADELPHIA,+PA+19136&hl=en"
PHILADELPHIA POLICE DEPARTMENT,FIRE DEPARTMENT ENGING 9 / LADDER 21,6900 GERMANTOWN AVENUE,PHILADELPHIA,PA,19119,"http://maps.google.com/maps?q=6900 GERMANTOWN AVENUE,+PHILADELPHIA,+PA+19119&hl=en"
PHILADELPHIA POLICE DEPARTMENT,FIRE DEPARTMENT LADDER 2,101-15 N. 4TH ST.,PHILADELPHIA,PA,19106,"http://maps.google.com/maps?q=101-15 N. 4TH ST.,+PHILADELPHIA,+PA+19106&hl=en"
PHILADELPHIA POLICE DEPARTMENT,FIRE DEPARTMENT LADDER 30,6630 RIDGE AVE.,PHILADELPHIA,PA,19128,"http://maps.google.com/maps?q=6630 RIDGE AVE.,+PHILADELPHIA,+PA+19128&hl=en"
PHILADELPHIA POLICE DEPARTMENT,FIRST CLASS PHARMACY,7316 FRANKFORD AVENUE,PHILADELPHIA,PA,19149,"http://maps.google.com/maps?q=7316 FRANKFORD AVENUE,+PHILADELPHIA,+PA+19149&hl=en"
PHILADELPHIA SHERIFF'S OFFICE,18TH STREET APOTHECARY,113 SOUTH 18TH STREET,PHILADELPHIA,PA,19103,"http://maps.google.com/maps?q=113 SOUTH 18TH STREET,+PHILADELPHIA,+PA+19103&hl=en"
PHILADELPHIA SHERIFF'S OFFICE,STATE REPRESENTATIVES OFC OF ANGEL CRUZ,"3503 B STREET, #7",PHILADELPHIA,PA,19134,"http://maps.google.com/maps?q=3503 B STREET, #7,+PHILADELPHIA,+PA+19134&hl=en"
PHOENIXVILLE POLICE DEPARTMENT,PHOENIXVILLE BOROUGH HALL,351 BRIDGE STREET,PHOENIXVILLE,PA,19460,"http://maps.google.com/maps?q=351 BRIDGE STREET,+PHOENIXVILLE,+PA+19460&hl=en"
PICATINNY ARSENAL POLICE DEPARTMENT,"PICATINNY ARSENAL POLICE DEPARTMENT 
												
													973-724-3817",173 BUFFINGTON RD.,PICATINNY ARSENAL,NJ,07806,"http://maps.google.com/maps?q=173 BUFFINGTON RD.,+PICATINNY ARSENAL,+NJ+07806&hl=en"
PINE HILL POLICE DEPARTMENT,PINE HILL POLICE DEPARTMENT,48 WEST 6TH AVENUE,PINE HILL,NJ,08021,"http://maps.google.com/maps?q=48 WEST 6TH AVENUE,+PINE HILL,+NJ+08021&hl=en"
PISCATAWAY POLICE DEPARTMENT,"PISCATAWAY POLICE DEPARTMENT 
												
													732-562-2300",555 SIDNEY ROAD,PISCATAWAY,NJ,08854,"http://maps.google.com/maps?q=555 SIDNEY ROAD,+PISCATAWAY,+NJ+08854&hl=en"
PITMAN POLICE DEPARTMENT,PITMAN POLICE DEPARTMENT,110 S. BROADWAY,PITMAN,NJ,08071,"http://maps.google.com/maps?q=110 S. BROADWAY,+PITMAN,+NJ+08071&hl=en"
PLUMSTEAD TWP. POLICE DEPARTMENT,K-MART CROSS KEYS PLACE SHOPPING CENTER,4377 SWAMP ROAD,DOYLESTOWN,PA,18902,"http://maps.google.com/maps?q=4377 SWAMP ROAD,+DOYLESTOWN,+PA+18902&hl=en"
PLYMOUTH TOWNSHIP POLICE DEPARTMENT,PLYMOUTH TOWNSHIP POLICE DEPARTMENT,700 BELVOIR ROAD,PLYMOUTH MEETING,PA,19462,"http://maps.google.com/maps?q=700 BELVOIR ROAD,+PLYMOUTH MEETING,+PA+19462&hl=en"
POCONO MOUNTAIN REGIONAL POLICE DEPT.,POCONO MOUNTAIN REGIONAL POLICE DEPARTMENT,2454 ROUTE 940,POCONO SUMMIT,PA,18346,"http://maps.google.com/maps?q=2454 ROUTE 940,+POCONO SUMMIT,+PA+18346&hl=en"
POCONO MOUNTAIN REGIONAL POLICE DEPT.,"ST LUKES UNIVERSAL HEALTH NETWORK 
												
													MONROE CAMPUS",100 ST LUKES LN,STROUDSBURG,PA,18360,"http://maps.google.com/maps?q=100 ST LUKES LN,+STROUDSBURG,+PA+18360&hl=en"
POINT PLEASANT BEACH POLICE DEPARTMENT,POINT PLEASANT POLICE DEPARTMENT,416 NEW JERSEY AVENUE,POINT PLEASANT BEACH,NJ,08742,"http://maps.google.com/maps?q=416 NEW JERSEY AVENUE,+POINT PLEASANT BEACH,+NJ+08742&hl=en"
PORT JERVIS CITY POLICE DEPARTMENT,PORT JERVIS POLICE DEPARTMENT,20 HAMMOND STREET,PORT JERVIS,NY,12771,"http://maps.google.com/maps?q=20 HAMMOND STREET,+PORT JERVIS,+NY+12771&hl=en"
POTTSTOWN POLICE DEPARTMENT,BOROUGH OF POTTSTOWN,100 EAST HIGH ST,POTTSTOWN,PA,19464,"http://maps.google.com/maps?q=100 EAST HIGH ST,+POTTSTOWN,+PA+19464&hl=en"
QUAKERTOWN POLICE DEPARTMENT,"QUAKERTOWN BOROUGH HALL 
												
													PARKING LOT",35 N. 3RD STREET,QUAKERTOWN,PA,18951,"http://maps.google.com/maps?q=35 N. 3RD STREET,+QUAKERTOWN,+PA+18951&hl=en"
QUAKERTOWN POLICE DEPARTMENT,"ST LUKES QUAKERTOWN HOSPITAL 
												
													MAIN ENTRANCE",1021 PARK AVE,QUAKERTOWN,PA,18951,"http://maps.google.com/maps?q=1021 PARK AVE,+QUAKERTOWN,+PA+18951&hl=en"
RADNOR POLICE DEPARTMENT,RADNOR POLICE DEPARTMENT,301 IVEN AVENUE,WAYNE,PA,19087,"http://maps.google.com/maps?q=301 IVEN AVENUE,+WAYNE,+PA+19087&hl=en"
RAHWAY POLICE DEPARTMENT,RAHWAY POLICE DEPARTMENT,1 CITY HALL PLAZA,RAHWAY,NJ,07065,"http://maps.google.com/maps?q=1 CITY HALL PLAZA,+RAHWAY,+NJ+07065&hl=en"
RANDOLPH POLICE DEPARTMENT,ACME SUPERMARKET,690 MILLBROOK AVE,RANDOLPH,NJ,07869,"http://maps.google.com/maps?q=690 MILLBROOK AVE,+RANDOLPH,+NJ+07869&hl=en"
RARITAN BORO POLICE DEPARTMENT,RARITAN PD,20 FIRST ST.,RARITAN,NJ,08869,"http://maps.google.com/maps?q=20 FIRST ST.,+RARITAN,+NJ+08869&hl=en"
RARITAN TOWNSHIP POLICE DEPARTMENT,RARITAN TOWNSHIP POLICE DEPARTMENT,2 MUNICIPAL DRIVE,FLEMINGTON,NJ,08822,"http://maps.google.com/maps?q=2 MUNICIPAL DRIVE,+FLEMINGTON,+NJ+08822&hl=en"
RED BANK POLICE DEPARTMENT,RED BANK POLICE DEPARTMENT,90 MONMOUTH ST,RED BANK,NJ,07701,"http://maps.google.com/maps?q=90 MONMOUTH ST,+RED BANK,+NJ+07701&hl=en"
RICHLAND TOWNSHIP POLICE DEPARTMENT,RICHLAND TOWNSHIP POLICE DEPARTMENT,229 CALIFORNIA ROAD,QUAKERTOWN,PA,18951,"http://maps.google.com/maps?q=229 CALIFORNIA ROAD,+QUAKERTOWN,+PA+18951&hl=en"
RICHLAND TOWNSHIP POLICE DEPARTMENT,RICHLAND TWP POLICE DEPT,229 CALIFORNIA RD,QUAKERTOWN,PA,18951,"http://maps.google.com/maps?q=229 CALIFORNIA RD,+QUAKERTOWN,+PA+18951&hl=en"
RIDGEFIELD PARK POLICE DEPARTMENT,"RIDGEFIELD PARK POLICE DEPARTMENT 
												
													201-641-6400",234 MAIN ST.,RIDGEFIELD PARK,NJ,07660,"http://maps.google.com/maps?q=234 MAIN ST.,+RIDGEFIELD PARK,+NJ+07660&hl=en"
ROBBINSVILLE TOWNSHIP POLICE,ROBBINSVILLE TOWNSHIP POLICE,1117 ROUTE 130,ROBBINSVILLE,NJ,08691,"http://maps.google.com/maps?q=1117 ROUTE 130,+ROBBINSVILLE,+NJ+08691&hl=en"
ROCKLAND COUNTY SHERIFFS OFFICE,"ROCKLAND COUNTY SHERIFF OFFICE 
												
													WALGREENS PARKING LOT",16 ROUTE 59,NYACK,NY,10960,"http://maps.google.com/maps?q=16 ROUTE 59,+NYACK,+NY+10960&hl=en"
ROCKLEDGE BOROUGH POLICE DEPARTMENT,ROCKLEDGE POLICE DEPARTMENT,1 PARK AVENUE,ROCKLEDGE,PA,19046,"http://maps.google.com/maps?q=1 PARK AVENUE,+ROCKLEDGE,+PA+19046&hl=en"
ROSELAND POLICE DEPARTMENT,ROSELAND POLICE DEPARTMENT,15 HARRISON AVENUE,ROSELAND,NJ,07068,"http://maps.google.com/maps?q=15 HARRISON AVENUE,+ROSELAND,+NJ+07068&hl=en"
ROWAN UNIVERSITY POLICE,ROWAN UNIVERSITY POLICE,601 WHITNEY AVENUE,GLASSBORO,NJ,08028,"http://maps.google.com/maps?q=601 WHITNEY AVENUE,+GLASSBORO,+NJ+08028&hl=en"
ROYERSFORD POLICE DEPARTMENT,ROYERSFORD POLICE DEPARTMENT,300 MAIN STREET,ROYERSFORD,PA,19468,"http://maps.google.com/maps?q=300 MAIN STREET,+ROYERSFORD,+PA+19468&hl=en"
RUMSON POLICE DEPARTMENT,RUMSON POLICE DEPARTMENT,80 EAST RIVER ROAD,RUMSON,NJ,07760,"http://maps.google.com/maps?q=80 EAST RIVER ROAD,+RUMSON,+NJ+07760&hl=en"
RUNNEMEDE POLICE DEPARTMENT,RUNNEMEDE POLICE DEPARTMENT,24 N. BLACK HORSE PIKE,RUNNEMEDE,NJ,08078,"http://maps.google.com/maps?q=24 N. BLACK HORSE PIKE,+RUNNEMEDE,+NJ+08078&hl=en"
RUTGERS POLICE DEPARTMENT,RUTGERS UNIVERSITY,55 COMMERCIAL AVE.,NEW BRUNSWICK,NJ,08901,"http://maps.google.com/maps?q=55 COMMERCIAL AVE.,+NEW BRUNSWICK,+NJ+08901&hl=en"
SALEM CITY POLICE DEPARTMENT,SALEM CITY POLICE DEPARTMENT,129 WEST BROADWAY,SALEM,NJ,08079,"http://maps.google.com/maps?q=129 WEST BROADWAY,+SALEM,+NJ+08079&hl=en"
SALISBURY TOWNSHIP POLICE DEPARTMENT,SOUTH MALL,3300 LEHIGH STREET,ALLENTOWN,PA,18103,"http://maps.google.com/maps?q=3300 LEHIGH STREET,+ALLENTOWN,+PA+18103&hl=en"
SCRANTON POLICE DEPARTMENT,SCRANTON POLICE DEPARTMENT,100 S. WASHINGTON AVENUE,SCRANTON,PA,18503,"http://maps.google.com/maps?q=100 S. WASHINGTON AVENUE,+SCRANTON,+PA+18503&hl=en"
SEA ISLE CITY,"SEA ISLE CITY POLICE DEPARTMENT 
												
													1ST FLOOR",233 JOHN F. KENNEDY BLVD.,SEA ISLE CITY,NJ,08243,"http://maps.google.com/maps?q=233 JOHN F. KENNEDY BLVD.,+SEA ISLE CITY,+NJ+08243&hl=en"
SEASIDE PARK,SEASIDE PARK POLICE DEPT.,1 MUNICIPAL PLAZA,SEASIDE PARK,NJ,08752,"http://maps.google.com/maps?q=1 MUNICIPAL PLAZA,+SEASIDE PARK,+NJ+08752&hl=en"
SHREWSBURY BOROUGH POLICE DEPARTMENT,SHREWSBURY BOROUGH POLICE DEPARTMENT,419 SYCAMORE AVENUE,SHREWSBURY,NJ,07702,"http://maps.google.com/maps?q=419 SYCAMORE AVENUE,+SHREWSBURY,+NJ+07702&hl=en"
SLEEPYHOLLOW POLICE DEPARTMENT,PHELPS HOSPITAL NORTHWELL HEALTH,777 NORTH BROADWAY,SLEEPY HOLLOW,NY,10591,"http://maps.google.com/maps?q=777 NORTH BROADWAY,+SLEEPY HOLLOW,+NY+10591&hl=en"
SLEEPYHOLLOW POLICE DEPARTMENT,SLEEPYHOLLOW POLICE DEPARTMENT,28 BEEKMAN AVENUE,TARRYTOWN,NY,10591,"http://maps.google.com/maps?q=28 BEEKMAN AVENUE,+TARRYTOWN,+NY+10591&hl=en"
SMYRNA POLICE DEPARTMENT,ATLANTIC APOTHECARY,103 S. DUPONT BLVD.SUITE #2,SMYRNA,DE,19977,"http://maps.google.com/maps?q=103 S. DUPONT BLVD.,+SMYRNA,+DE+19977&hl=en"
SOLEBURY TOWNSHIP POLICE DEPARTMENT,GIANT FOOD STORE,6542 LOGAN SQUARE,NEW HOPE,PA,18938,"http://maps.google.com/maps?q=6542 LOGAN SQUARE,+NEW HOPE,+PA+18938&hl=en"
SOLEBURY TOWNSHIP POLICE DEPARTMENT,SOLEBURY TOWNSHIP POLICE DEPARTMENT,3092 SUGAN ROAD,NEW HOPE,PA,18938,"http://maps.google.com/maps?q=3092 SUGAN ROAD,+NEW HOPE,+PA+18938&hl=en"
SOMERVILLE POLICE DEPT.,SOMERVILLE POLICE DEPT.,24 SOUTH BRIDGE ST.,SOMERVILLE,NJ,08876,"http://maps.google.com/maps?q=24 SOUTH BRIDGE ST.,+SOMERVILLE,+NJ+08876&hl=en"
SOUDERTON BOROUGH POLICE,SOUDERTON BOROUGH POLICE STATION,31 WEST SUMMIT ST,SOUDERTON,PA,18964,"http://maps.google.com/maps?q=31 WEST SUMMIT ST,+SOUDERTON,+PA+18964&hl=en"
SOUTH BOUND BROOK,SOUTH BOUND BROOK POLICE DEPARTMENT,12 MAIN STREET,SOUTH BOUND BROOK,NJ,08880,"http://maps.google.com/maps?q=12 MAIN STREET,+SOUTH BOUND BROOK,+NJ+08880&hl=en"
SOUTH BRUNSWICK POLICE DEPARTMENT,"SOUTH BRUNSWICK POLICE DEPARTMENT 
												
													732-329-4000",540 RIDGE RD.,MONMOUTH JUNCTION,NJ,08852,"http://maps.google.com/maps?q=540 RIDGE RD.,+MONMOUTH JUNCTION,+NJ+08852&hl=en"
SOUTH HACKENSACK POLICE DEPARTMENT,"SOUTH HACKENSACK POLICE DEPARTMENT 
												
													201-440-0042",227 PHILLIPS AVE.,SOUTH HACKENSACK,NJ,07606,"http://maps.google.com/maps?q=227 PHILLIPS AVE.,+SOUTH HACKENSACK,+NJ+07606&hl=en"
SOUTH HARRISON TWP. POLICE DEPARTMENT,"SOUTH HARRISON TWP. MUNICIPAL BUILDING 
												
													856-769-3737",664 HARRISONVILLE RD.,MULLICA HILL,NJ,08062,"http://maps.google.com/maps?q=664 HARRISONVILLE RD.,+MULLICA HILL,+NJ+08062&hl=en"
SOUTH ORANGE POLICE DEPARTMENT,SOUTH ORANGE POLICE DEPARTMENT,201 SOUTH ORANGE AVENUE,SOUTH ORANGE,NJ,07079,"http://maps.google.com/maps?q=201 SOUTH ORANGE AVENUE,+SOUTH ORANGE,+NJ+07079&hl=en"
SOUTH PLAINFIELD POLICE DEPARTMENT,"SOUTH PLAINFIELD MUNICIPAL 
												
													9087550700",2480 PLAINFIELD AVE.,SOUTH PLAINFIELD,NJ,07080,"http://maps.google.com/maps?q=2480 PLAINFIELD AVE.,+SOUTH PLAINFIELD,+NJ+07080&hl=en"
SOUTH WHITEHALL TWP POLICE DEPT,SOUTH WHITEHALL TWP POLICE DEPT,4444 WALBERT AVENUE,ALLENTOWN,PA,18104,"http://maps.google.com/maps?q=4444 WALBERT AVENUE,+ALLENTOWN,+PA+18104&hl=en"
SOUTHERN CHESTER COUNTY REGIONAL POLICE DEPARTMENT,GIANT FOOD STORES,350 SCARLETT ROAD,KENNETT SQUARE,PA,19348,"http://maps.google.com/maps?q=350 SCARLETT ROAD,+KENNETT SQUARE,+PA+19348&hl=en"
SOUTHERN CHESTER COUNTY REGIONAL POLICE DEPARTMENT,"WEST GROVE BOROUGH BUILDING 
												
													SCCRPD LOBBY",117 ROSEHILL AVE,WEST GROVE,PA,19390,"http://maps.google.com/maps?q=117 ROSEHILL AVE,+WEST GROVE,+PA+19390&hl=en"
SPRING LAKE HEIGHTS POLICE DEPT.,SPRING LAKE HEIGHTS PD,555 BRIGHTON AVE,SPRING LAKE HEIGHTS,NJ,07762,"http://maps.google.com/maps?q=555 BRIGHTON AVE,+SPRING LAKE HEIGHTS,+NJ+07762&hl=en"
SPRING LAKE POLICE,SPRING LAKE POLICE,311 WASHINGTON AVENUE,SPRING LAKE,NJ,07762,"http://maps.google.com/maps?q=311 WASHINGTON AVENUE,+SPRING LAKE,+NJ+07762&hl=en"
SPRING VALLEY POLICE,SPRING VALLEY POLICE DEPARTMENT,200 NORTH MAIN STREET,SPRING VALLEY,NY,10977,"http://maps.google.com/maps?q=200 NORTH MAIN STREET,+SPRING VALLEY,+NY+10977&hl=en"
SPRING VALLEY POLICE,WALGREENS,208 E ROUTE 59,SPRING VALLEY,NY,10977,"http://maps.google.com/maps?q=208 E ROUTE 59,+SPRING VALLEY,+NY+10977&hl=en"
SURF CITY BOROUGH POLICE DEPARTMENT,"SURF CITY POLICE DEPARTMENT 
												
													609-494-8121",813 LONG BEACH BLVD.,BEACH HAVEN,NJ,08008,"http://maps.google.com/maps?q=813 LONG BEACH BLVD.,+BEACH HAVEN,+NJ+08008&hl=en"
TELFORD BOROUGH POLICE DEPARTMENT,INDIAN VALLEY PUBLIC LIBRARY,100 EAST CHURCH AVENUE,TELFORD,PA,18969,"http://maps.google.com/maps?q=100 EAST CHURCH AVENUE,+TELFORD,+PA+18969&hl=en"
TINICUM TOWNSHIP POLICE DEPARTMENT,WEHRUNG'S FAMILY HOME CENTER,7711 EASTON ROAD,OTTSVILLE,PA,18942,"http://maps.google.com/maps?q=7711 EASTON ROAD,+OTTSVILLE,+PA+18942&hl=en"
TINTON FALLS POLICE DEPARTMENT,TINTON FALLS POLICE DEPARTMENT,556 TINTON AVENUE,TINTON FALLS,NJ,07724,"http://maps.google.com/maps?q=556 TINTON AVENUE,+TINTON FALLS,+NJ+07724&hl=en"
TOWAMENCIN TOWNSHIP POLICE DEPARTMENT,TOWAMENCIN TOWNSHIP POLICE DEPARTMENT,1090 TROXEL ROAD,LANSDALE,PA,19446,"http://maps.google.com/maps?q=1090 TROXEL ROAD,+LANSDALE,+PA+19446&hl=en"
TOWN OF KEARNY POLICE DEPARTMENT,TOWN OF KEARNY POLICE DEPARTMENT,237 LAUREL AVENUE(FOREST STREET SIDE),KEARNY,NJ,07032,"http://maps.google.com/maps?q=237 LAUREL AVENUE,+KEARNY,+NJ+07032&hl=en"
TOWNSHIP OF LOWER,"ACME MARKETS 
												
													BAYSHORE MALL",3845 BAYSHORE RD.,NORTH CAPE MAY,NJ,08204,"http://maps.google.com/maps?q=3845 BAYSHORE RD.,+NORTH CAPE MAY,+NJ+08204&hl=en"
TOWNSHIP OF MAPLEWOOD,MAPLEWOOD POLICE DEPARTMENT,1618 SPRINGFIELD AVENUE,MAPLEWOOD,NJ,07040,"http://maps.google.com/maps?q=1618 SPRINGFIELD AVENUE,+MAPLEWOOD,+NJ+07040&hl=en"
TREDYFFRIN TOWNSHIP POLICE DEPARTMENT,TREDYFFRIN TOWNSHIP POLICE DEPARTMENT,1100 DUPORTAIL ROAD,BERWYN,PA,19312,"http://maps.google.com/maps?q=1100 DUPORTAIL ROAD,+BERWYN,+PA+19312&hl=en"
UNION BEACH,UNION BEACH P.D.,650 POOLE AVE.,UNION BEACH,NJ,07735,"http://maps.google.com/maps?q=650 POOLE AVE.,+UNION BEACH,+NJ+07735&hl=en"
UNION CITY POLICE DEPARTMENT,BELLA VISTA,522 22ND STREET,UNION CITY,NJ,07087,"http://maps.google.com/maps?q=522 22ND STREET,+UNION CITY,+NJ+07087&hl=en"
UNION CITY POLICE DEPARTMENT,UNION PLAZA APARTMENTS,300 45TH STREET,UNION CITY,NJ,07087,"http://maps.google.com/maps?q=300 45TH STREET,+UNION CITY,+NJ+07087&hl=en"
UPPER DUBLIN TWP. POLICE DEPARTMENT,UPPER DUBLIN TOWNSHIP POLICE DEPT.,801 LOCH ALSH AVENUE,FORT WASHINGTON,PA,19034,"http://maps.google.com/maps?q=801 LOCH ALSH AVENUE,+FORT WASHINGTON,+PA+19034&hl=en"
UPPER GWYNEDD TOWNSHIP POLICE DEPARTMENT,UPPER GWYNEDD TOWNSHIP POLICE DEPARTMENT,1 PARKSIDE PLACE,WEST POINT,PA,19486,"http://maps.google.com/maps?q=1 PARKSIDE PLACE,+WEST POINT,+PA+19486&hl=en"
UPPER MAKEFIELD TWP. POLICE DEPARTMENT,UPPER MAKEFIELD TWP. POLICE DEPARTMENT,1076 EAGLE ROAD,NEWTOWN,PA,18940,"http://maps.google.com/maps?q=1076 EAGLE ROAD,+NEWTOWN,+PA+18940&hl=en"
UPPER MERION TOWNSHIP POLICE DEPARTMENT,UPPER MERION TOWNSHIP POLICE DEPARTMENT,175 WEST VALLEY FORGE ROAD,KING OF PRUSSIA,PA,19406,"http://maps.google.com/maps?q=175 WEST VALLEY FORGE ROAD,+KING OF PRUSSIA,+PA+19406&hl=en"
UPPER MORELAND TWP. POLICE DEPT.,GIANT FOOD STORE,315 N YORK RD,WILLOW GROVE,PA,19090,"http://maps.google.com/maps?q=315 N YORK RD,+WILLOW GROVE,+PA+19090&hl=en"
UPPER MORELAND TWP. POLICE DEPT.,UPPER MORELAND TOWNSHIP POLICE DEPARTMENT,117 PARK AVENUE,WILLOW GROVE,PA,19090,"http://maps.google.com/maps?q=117 PARK AVENUE,+WILLOW GROVE,+PA+19090&hl=en"
UPPER PERK POLICE DEPT,UPPER PERK POLICE STATION,88 W. 6TH STREET,PENNSBURG,PA,18073,"http://maps.google.com/maps?q=88 W. 6TH STREET,+PENNSBURG,+PA+18073&hl=en"
UPPER PROVIDENCE TWP POLICE DEPT.,UPPER PROVIDENCE TWP. POLICE DEPT.,1286 BLACK ROCK RD.,OAKS,PA,19456,"http://maps.google.com/maps?q=1286 BLACK ROCK RD.,+OAKS,+PA+19456&hl=en"
UPPER SADDLE RIVER POLICE DEPARTMENT,"UPPER SADDLE RIVER POLICE DEPARTMENT 
												
													201-327-2700",368 W. SADDLE RIVER RD.,SADDLE RIVER,NJ,07458,"http://maps.google.com/maps?q=368 W. SADDLE RIVER RD.,+SADDLE RIVER,+NJ+07458&hl=en"
UPPER SAUCON TWP POLICE DEPT,UPPER SAUCON PD,5500 CAMP MEETING RD,CENTER VALLEY,PA,18034,"http://maps.google.com/maps?q=5500 CAMP MEETING RD,+CENTER VALLEY,+PA+18034&hl=en"
UPPER SOUTHAMPTON TOWNSHIP PD,RITE AID,1035 COUNTY LINE RD,HUNTINGDON VALLEY,PA,19006,"http://maps.google.com/maps?q=1035 COUNTY LINE RD,+HUNTINGDON VALLEY,+PA+19006&hl=en"
UPPER SOUTHAMPTON TOWNSHIP PD,SOUTHAMPTON ESTATES,238 STREET RD,SOUTHAMPTON,PA,18966,"http://maps.google.com/maps?q=238 STREET RD,+SOUTHAMPTON,+PA+18966&hl=en"
UPPER SOUTHAMPTON TOWNSHIP PD,UPPER SOUTHAMPTON PD,939 STREET RD,SOUTHAMPTON,PA,18966,"http://maps.google.com/maps?q=939 STREET RD,+SOUTHAMPTON,+PA+18966&hl=en"
VILLAGE OF DOBBS FERRY POLICE DEPARTMENT,VILLAGE OF DOBBS FERRY,112 MAIN STREET,DOBBS FERRY,NY,10522,"http://maps.google.com/maps?q=112 MAIN STREET,+DOBBS FERRY,+NY+10522&hl=en"
VILLAGE OF OSSINING POLICE DEPARTMENT,"BIRDSALL FAGAN POLICE/COURT FACILITY 
												
													COURT LOBBY",86-88 SPRING STREET,OSSINING,NY,10562,"http://maps.google.com/maps?q=86-88 SPRING STREET,+OSSINING,+NY+10562&hl=en"
WALL TWP. POLICE DEPARTMENT,"WALL TWP. POLICE DEPARTMENT 
												
													732-449-4500",2700 ALLAIRE ROADFRONT LOBBY,WALL,NJ,07719,"http://maps.google.com/maps?q=2700 ALLAIRE ROAD,+WALL,+NJ+07719&hl=en"
WARMINSTER POLICE DEPARTMENT,"ANN'S CHOICE 
												
													**RESIDENTS ONLY**",3000 ANN'S CHOICE WAY,WARMINSTER,PA,18974,"http://maps.google.com/maps?q=3000 ANN'S CHOICE WAY,+WARMINSTER,+PA+18974&hl=en"
WARMINSTER POLICE DEPARTMENT,SHOP RITE OF WARMINSTER,942 W. STREET ROAD,WARMINSTER,PA,18974,"http://maps.google.com/maps?q=942 W. STREET ROAD,+WARMINSTER,+PA+18974&hl=en"
WARMINSTER POLICE DEPARTMENT,WARMINSTER TWP. POLICE HQ.,401 GIBSON AVE,WARMINSTER,PA,18974,"http://maps.google.com/maps?q=401 GIBSON AVE,+WARMINSTER,+PA+18974&hl=en"
WARRINGTON TOWNSHIP POLICE DEPARTMENT,"WARRINGTON TOWNSHIP MUNICIPAL BUILDING 
												
													LOBBY",852 EASTON ROAD,WARRINGTON,PA,18976,"http://maps.google.com/maps?q=852 EASTON ROAD,+WARRINGTON,+PA+18976&hl=en"
WARWICK TOWNSHIP POLICE DEPARTMENT,WAWA,1937 YORK ROAD,JAMISON,PA,18929,"http://maps.google.com/maps?q=1937 YORK ROAD,+JAMISON,+PA+18929&hl=en"
WASHINGTON TOWNSHIP POLICE DEPARTMENT,WASHINGTON TOWNSHIP MUNICIPAL COURT ROOM,1 MCCLURE DRIVE,SEWELL,NJ,08080,"http://maps.google.com/maps?q=1 MCCLURE DRIVE,+SEWELL,+NJ+08080&hl=en"
WATCHUNG POLICE DEPARTMENT,"WATCHUNG POLICE DEPARTMENT 
												
													908-756-3663",840 SOMERSET ST.,WATCHUNG,NJ,07069,"http://maps.google.com/maps?q=840 SOMERSET ST.,+WATCHUNG,+NJ+07069&hl=en"
WAYNE TWP. POLICE DEPARTMENT,"WAYNE POLICE DEPARTMENT 
												
													973-633-3550",475 VALLEY ROAD,WAYNE,NJ,07470,"http://maps.google.com/maps?q=475 VALLEY ROAD,+WAYNE,+NJ+07470&hl=en"
WEST AMWELL TOWNSHIP POLICE DEPARTMENT,WEST AMWELL POLICE DEPARTMENT,24 MT. AIRY VILLAGE ROAD,LAMBERTVILLE,NJ,08530,"http://maps.google.com/maps?q=24 MT. AIRY VILLAGE ROAD,+LAMBERTVILLE,+NJ+08530&hl=en"
WEST CALDWELL POLICE,WEST CALDWELL PD,21 CLINTON ROAD,WEST CALDWELL,NJ,07006,"http://maps.google.com/maps?q=21 CLINTON ROAD,+WEST CALDWELL,+NJ+07006&hl=en"
WEST CONSHOHOCKEN POLICE DEPARTMENT,WEST CONSHOHOCKEN BOROUGH HALL,112 FORD STREET,WEST CONSHOHOCKEN,PA,19428,"http://maps.google.com/maps?q=112 FORD STREET,+WEST CONSHOHOCKEN,+PA+19428&hl=en"
WEST LONG BRANCH POLICE DEPARTMENT,"WEST LONG BRANCH POLICE DEPARTMENT 
												
													732-229-5000",965 BROADWAY,WEST LONG BRANCH,NJ,07764,"http://maps.google.com/maps?q=965 BROADWAY,+WEST LONG BRANCH,+NJ+07764&hl=en"
WEST NORRITON TOWNSHIP POLICE DEPARTMENT,WEST NORRITON POLICE DEPARTMENT,1630 W. MARSHALL,NORRISTOWN,PA,19403,"http://maps.google.com/maps?q=1630 W. MARSHALL,+NORRISTOWN,+PA+19403&hl=en"
WEST POTTSGROVE TWP. POLICE DEPARTMENT,WEST POTTSGROVE TWP. POLICE DEPARTMENT,"980 N. GROSSTOWNSTOWE, A",POTTSTOWN,PA,19464,"http://maps.google.com/maps?q=980 N. GROSSTOWN,+POTTSTOWN,+PA+19464&hl=en"
WHITEMARSH POLICE DEPARTMENT,"WHITEMARSH TOWNSHIP POLICE STATION 
												
													(LOBBY)",616 EAST GERMANTOWN PIKE,LAFAYETTE HILL,PA,19444,"http://maps.google.com/maps?q=616 EAST GERMANTOWN PIKE,+LAFAYETTE HILL,+PA+19444&hl=en"
WILLINGBORO POLICE DEPARTMENT,WILLINGBORO TWP. MUNICIPAL BUILDING,1 REV. MARTIN LUTHER KING JR. DRIVE,WILLINGBORO,NJ,08046,"http://maps.google.com/maps?q=1 REV. MARTIN LUTHER KING JR. DRIVE,+WILLINGBORO,+NJ+08046&hl=en"
WILMINGTON VA MEDICAL CENTER,WILMINGTON VA MEDICAL CENTER,1601 KIRKWOOD HWY,WILMINGTON,DE,19805,"http://maps.google.com/maps?q=1601 KIRKWOOD HWY,+WILMINGTON,+DE+19805&hl=en"
WINSLOW TWP. POLICE DEPARTMENT,"WINSLOW TWP. POLICE DEPARTMENT 
												
													609-567-0700",125 SOUTH RT. 73,BRADDOCK,NJ,08037,"http://maps.google.com/maps?q=125 SOUTH RT. 73,+BRADDOCK,+NJ+08037&hl=en"
WOOD RIDGE  PD,WOOD RIDGE POLICE HQ,85 HUMBOLDT ST,WOOD RIDGE,NJ,07075,"http://maps.google.com/maps?q=85 HUMBOLDT ST,+WOOD RIDGE,+NJ+07075&hl=en"
WOODBRIDGE POLICE DEPARTMENT,"WOODBRIDGE POLICE DEPARTMENT 
												
													732-634-7700",1 MAIN STREET,WOODBRIDGE,NJ,07095,"http://maps.google.com/maps?q=1 MAIN STREET,+WOODBRIDGE,+NJ+07095&hl=en"
WOODBURY CITY,WOODBURY CITY PD,220 S. BROAD ST.,WOODBURY,NJ,08096,"http://maps.google.com/maps?q=220 S. BROAD ST.,+WOODBURY,+NJ+08096&hl=en"
WOODBURY HEIGHTS POLICE DEPARTMENT,"WOODBURY HEIGHTS POLICE DEPARTMENT 
												
													856-848-6707",500 ELM AVE.,WOODBURY HEIGHTS,NJ,08097,"http://maps.google.com/maps?q=500 ELM AVE.,+WOODBURY HEIGHTS,+NJ+08097&hl=en"
YARDLEY BOROUGH POLICE DEPARTMENT,YARDLEY BOROUGH POLICE DEPARTMENT,56 S. MAIN ST,YARDLEY,PA,19067,"http://maps.google.com/maps?q=56 S. MAIN ST,+YARDLEY,+PA+19067&hl=en"
