Participant,CollectionSite,Address,City,State,Zip,MapURL
BOULDER COUNTY SHERIFFS OFFICE,BOULDER COUNTY SHERIFFS OFFICE,5600 FLATIRON PARKWAY,BOULDER,CO,80301,"http://maps.google.com/maps?q=5600 FLATIRON PARKWAY,+BOULDER,+CO+80301&hl=en"
BOULDER COUNTY SHERIFFS OFFICE,LOCATION 2,405 CENTER DRIVEUNIT F,SUPERIOR,CO,80027,"http://maps.google.com/maps?q=405 CENTER DRIVE,+SUPERIOR,+CO+80027&hl=en"
BOULDER POLICE DEPARTMENT,BOULDER COUNTY CLERK AND RECORDERS OFFICE,1750 33RD ST,BOULDER,CO,80301,"http://maps.google.com/maps?q=1750 33RD ST,+BOULDER,+CO+80301&hl=en"
BOX BUTTE COUNTY SHERIFF'S OFFICE,BOX BUTTE GENERAL HOSPITAL SAND HILLS ROOM - (DOUBLE BOXES),2101 BOX BUTTE AVE,ALLIANCE,NE,69301,"http://maps.google.com/maps?q=2101 BOX BUTTE AVE,+ALLIANCE,+NE+69301&hl=en"
CAMPBELL COUNTY SHERIFF'S OFFICE,CAMPBELL COUNTY PUBLIC HEALTH,2301 S. 4J ROAD,GILLETTE,WY,82718,"http://maps.google.com/maps?q=2301 S. 4J ROAD,+GILLETTE,+WY+82718&hl=en"
CARIBOU COUNTY SHERIFF'S OFFICE,"CARIBOU COUNTY SENIOR CITIZEN CENTER EVENT WILL BE HELD WEDNESDAY AFTERNOON, APRIL 25TH",60 S. MAIN STREET,SODA SPRINGS,ID,83276,"http://maps.google.com/maps?q=60 S. MAIN STREET,+SODA SPRINGS,+ID+83276&hl=en"
CARIBOU COUNTY SHERIFF'S OFFICE,"CARIBOU COUNTY SHERIFF'S OFFICE M-F, 9-5",475 E. 2ND S.,SODA SPRINGS,ID,83276,"http://maps.google.com/maps?q=475 E. 2ND S.,+SODA SPRINGS,+ID+83276&hl=en"
CODY POLICE DEPARTMENT,CODY LAW ENFORCEMENT CENTER,1402 RIVER VIEW DRIVE,CODY,WY,82414,"http://maps.google.com/maps?q=1402 RIVER VIEW DRIVE,+CODY,+WY+82414&hl=en"
COLORADO STATE UNIVERSITY POLICE DEPARTMENT,COLORADO STATE UNIVERSITY POLICE DEPARTMENT,750 MERIDIAN AVE,FORT COLLINS,CO,80523,"http://maps.google.com/maps?q=750 MERIDIAN AVE,+FORT COLLINS,+CO+80523&hl=en"
DENVER POLICE DEPARTMENT,DENVER POLICE DEPARTMENT DISTRICT 1 SUBSTATION,1311 W. 46TH AVE.,DENVER,CO,80211,"http://maps.google.com/maps?q=1311 W. 46TH AVE.,+DENVER,+CO+80211&hl=en"
DENVER POLICE DEPARTMENT,DENVER POLICE DEPARTMENT DISTRICT 2 SUBSTATION,3921 HOLLY ST.,DENVER,CO,80207,"http://maps.google.com/maps?q=3921 HOLLY ST.,+DENVER,+CO+80207&hl=en"
DENVER POLICE DEPARTMENT,DENVER POLICE DEPARTMENT DISTRICT 6 SUBSTATION,1566 WASHINGTON STREET,DENVER,CO,80203,"http://maps.google.com/maps?q=1566 WASHINGTON STREET,+DENVER,+CO+80203&hl=en"
DENVER POLICE DEPARTMENT,DENVER POLICE DEPARTMENT POLICE HEADQUARTERS,1331 CHEROKEE ST.,DENVER,CO,80204,"http://maps.google.com/maps?q=1331 CHEROKEE ST.,+DENVER,+CO+80204&hl=en"
DOUGLAS POLICE DEPARTMENT,DOUGLAS POLICE DEPARTMENT,101 NORTH 4TH STREET,DOUGLAS,WY,82633,"http://maps.google.com/maps?q=101 NORTH 4TH STREET,+DOUGLAS,+WY+82633&hl=en"
DRUG ENFORCEMENT ADMINISTRATION,ELKS LODGE PARKING LOT,934 LEWIS AVENUE,BILLINGS,MT,59101,"http://maps.google.com/maps?q=934 LEWIS AVENUE,+BILLINGS,+MT+59101&hl=en"
EAGLE COUNTY SHERIFF'S OFFICE,COSTCO,170 COOLEY MESA ROAD,GYPSUM,CO,81637,"http://maps.google.com/maps?q=170 COOLEY MESA ROAD,+GYPSUM,+CO+81637&hl=en"
EAGLE COUNTY SHERIFF'S OFFICE,EAGLE COUNTY SHERIFF'S OFFICE WECMRD FIELD HOUSE,450 MILLER RANCH ROAD,EDWARDS,CO,81632,"http://maps.google.com/maps?q=450 MILLER RANCH ROAD,+EDWARDS,+CO+81632&hl=en"
EATON POLICE DEPARTMENT,HERITAGE MARKET,180 S. ELM AVE,EATON,CO,80615,"http://maps.google.com/maps?q=180 S. ELM AVE,+EATON,+CO+80615&hl=en"
ERIE POLICE DEPARTMENT,ERIE POLICE DEPARTMENT,1000 TELLEEN AVE,ERIE,CO,80516,"http://maps.google.com/maps?q=1000 TELLEEN AVE,+ERIE,+CO+80516&hl=en"
ESTES PARK POLICE DEPARTMENT,SHOPPING CENTER PARKING LOT UPPER STANLEY VILLAGE,455 EAST WONDERVIEW AVENUE,ESTES PARK,CO,80517,"http://maps.google.com/maps?q=455 EAST WONDERVIEW AVENUE,+ESTES PARK,+CO+80517&hl=en"
EVANS POLICE DEPARTMENT,SAM'S CLUB PARKING LOT,3247 23 AVENUE,EVANS,CO,80620,"http://maps.google.com/maps?q=3247 23 AVENUE,+EVANS,+CO+80620&hl=en"
FORT COLLINS POLICE,FORT COLLINS POLICE SERVICES NORTH PARKING LOT,2221 S. TIMBERLINE RD.,FORT COLLINS,CO,80525,"http://maps.google.com/maps?q=2221 S. TIMBERLINE RD.,+FORT COLLINS,+CO+80525&hl=en"
GALLATIN COUNTY SHERIFF'S OFFICE/ BOZEMAN CITY POL,GALLATIN COUNTY LAW AND JUSTICE CENTER,615 SOUTH 16TH AVE,BOZEMAN,MT,59715,"http://maps.google.com/maps?q=615 SOUTH 16TH AVE,+BOZEMAN,+MT+59715&hl=en"
GOLDEN POLICE DEPARTMENT,GOLDEN POLICE DEPARTMENT,911 10TH STREET,GOLDEN,CO,80401,"http://maps.google.com/maps?q=911 10TH STREET,+GOLDEN,+CO+80401&hl=en"
GREELEY POLICE DEPARTMENT,GREELEY POLICE DEPARTMENT,2875 W. 10TH ST,GREELEY,CO,80634,"http://maps.google.com/maps?q=2875 W. 10TH ST,+GREELEY,+CO+80634&hl=en"
GREEN RIVER POLICE DEPARTMENT,SMITH'S FOOD AND DRUG,905 BRIDGER DRIVE,GREEN RIVER,WY,82935,"http://maps.google.com/maps?q=905 BRIDGER DRIVE,+GREEN RIVER,+WY+82935&hl=en"
IDAHO SPRINGS POLICE DEPARTMENT,IDAHO SPRINGS CITY HALL,1711 MINER ST.,IDAHO SPRINGS,CO,80452,"http://maps.google.com/maps?q=1711 MINER ST.,+IDAHO SPRINGS,+CO+80452&hl=en"
JACKSON POLICE DEPARTMENT,JACKSON POLICE DEPARTMENT,150 EAST PEARL AVENUE,JACKSON,WY,83001,"http://maps.google.com/maps?q=150 EAST PEARL AVENUE,+JACKSON,+WY+83001&hl=en"
JEFFERSON COUNTY SHERIFF,JEFFERSON COUNTY SHERIFF'S OFFICE HQ LOWER PARKING LOT,200 JEFFERSON COUNTY PKY,GOLDEN,CO,80401,"http://maps.google.com/maps?q=200 JEFFERSON COUNTY PKY,+GOLDEN,+CO+80401&hl=en"
JOHNSON COUNTY SHERIFF'S OFFICE,JOHNSON COUNTY JUSTICE CENTER,639 FORT STREET,BUFFALO,WY,82834,"http://maps.google.com/maps?q=639 FORT STREET,+BUFFALO,+WY+82834&hl=en"
JOHNSTOWN POLICE DEPARTMENT,JOHNSTOWN POLICE DEPARTMENT,430 S. PARISH AVE.,JOHNSTOWN,CO,80534,"http://maps.google.com/maps?q=430 S. PARISH AVE.,+JOHNSTOWN,+CO+80534&hl=en"
KIMBALL COUNTY SHERIFF'S OFFICE,KIMBALL COUNTY SHERIFF'S OFFICE,114 E. 3RD STREET,KIMBALL,NE,69145,"http://maps.google.com/maps?q=114 E. 3RD STREET,+KIMBALL,+NE+69145&hl=en"
LAFAYETTE POLICE DEPARTMENT,WALMART STORE PARKING LOT NORTH EAST CORNER,745 N US HWY 287,LAFAYETTE,CO,80026,"http://maps.google.com/maps?q=745 N US HWY 287,+LAFAYETTE,+CO+80026&hl=en"
LARAMIE COUNTY SHERIFF'S DEPARTMENT,LARAMIE COUNTY FIRE DISTRICT #2,5800 N COLLEGE DRIVE,CHEYENNE,WY,82009,"http://maps.google.com/maps?q=5800 N COLLEGE DRIVE,+CHEYENNE,+WY+82009&hl=en"
LARAMIE COUNTY SHERIFF'S DEPARTMENT,SAFEWAY GROCERY STORE AND PHARMACY,700 SOUTH GREELEY HIGHWAY,CHEYENNE,WY,82007,"http://maps.google.com/maps?q=700 SOUTH GREELEY HIGHWAY,+CHEYENNE,+WY+82007&hl=en"
LARIMER COUNTY SHERIFF'S OFFICE,BERTHOUD TOWN HALL,807 MOUNTAIN AVENUE,BERTHOUD,CO,80513,"http://maps.google.com/maps?q=807 MOUNTAIN AVENUE,+BERTHOUD,+CO+80513&hl=en"
LARIMER COUNTY SHERIFF'S OFFICE,FAMILY DOLLAR PARKING LOT SOUTH OF FAMILY DOLLAR,8099 6TH ST,WELLINGTON,CO,80549,"http://maps.google.com/maps?q=8099 6TH ST,+WELLINGTON,+CO+80549&hl=en"
LARIMER COUNTY SHERIFF'S OFFICE,GLACIER VIEW FIRE STATION,1414 GREEN MOUNTAIN DRIVE,LIVERMORE,CO,80536,"http://maps.google.com/maps?q=1414 GREEN MOUNTAIN DRIVE,+LIVERMORE,+CO+80536&hl=en"
LAWRENCE COUNTY SHERIFF'S OFFICE,LAWRENCE COUNTY SHERIFF'S OFFICE,80 SHERMAN STREET,DEADWOOD,SD,57732,"http://maps.google.com/maps?q=80 SHERMAN STREET,+DEADWOOD,+SD+57732&hl=en"
LIVINGSTON POLICE DEPARTMENT AND ELKS CLUB,ELKS LODGE #246,130 SOUTH 2ND STREET,LIVINGSTON,MT,59047,"http://maps.google.com/maps?q=130 SOUTH 2ND STREET,+LIVINGSTON,+MT+59047&hl=en"
LONGMONT DEPARTMENT OF PUBLIC SAFETY,LONGMONT UNITED HOSPITAL,1950 MOUNTAIN VIEW AVE,LONGMONT,CO,80501,"http://maps.google.com/maps?q=1950 MOUNTAIN VIEW AVE,+LONGMONT,+CO+80501&hl=en"
LOVELAND POLICE DEPARTMENT,LOVELAND POLICE DEPARTMENT,810 E 10TH STREET,LOVELAND,CO,80537,"http://maps.google.com/maps?q=810 E 10TH STREET,+LOVELAND,+CO+80537&hl=en"
LOVELL POLICE DEPARTMENT,RED APPLE SUPERMARKET,9 E. MAIN ST.,LOVELL,WY,82431,"http://maps.google.com/maps?q=9 E. MAIN ST.,+LOVELL,+WY+82431&hl=en"
MILLIKEN POLICE DEPARTMENT,MILLIKEN POLICE DEPARTMENT,1201 BROAD STREET,MILLIKEN,CO,80543,"http://maps.google.com/maps?q=1201 BROAD STREET,+MILLIKEN,+CO+80543&hl=en"
MT DCI,HOLY ROSARY HEALTHCARE,2600 WILSON STREET,MILES CITY,MT,59301,"http://maps.google.com/maps?q=2600 WILSON STREET,+MILES CITY,+MT+59301&hl=en"
NEWCASTLE POLICE DEPT,NEWCASTLE POLICE DEPT,25 NORTH SUMNER AVE,NEWCASTLE,WY,82701,"http://maps.google.com/maps?q=25 NORTH SUMNER AVE,+NEWCASTLE,+WY+82701&hl=en"
PERKINS COUNTY SHERIFF'S OFFICE,PERKINS COUNTY SHERIFF'S OFFICE - BISON,100 E MAIN,BISON,SD,57620,"http://maps.google.com/maps?q=100 E MAIN,+BISON,+SD+57620&hl=en"
PERKINS COUNTY SHERIFF'S OFFICE,PERKINS COUNTY SHERIFF'S OFFICE - LEMMON,100 MAIN AVE,LEMMON,SD,57638,"http://maps.google.com/maps?q=100 MAIN AVE,+LEMMON,+SD+57638&hl=en"
PLATTE COUNTY SHERIFF'S OFFICE,PLATTE COUNTY SHERIFF'S OFFICE,850 MAPLE ST.,WHEATLAND,WY,82201,"http://maps.google.com/maps?q=850 MAPLE ST.,+WHEATLAND,+WY+82201&hl=en"
POWELL POLICE DEPARTMENT,POWELL POLICE DEPARTMENT,250 NORTH CLARK STREET,POWELL,WY,82435,"http://maps.google.com/maps?q=250 NORTH CLARK STREET,+POWELL,+WY+82435&hl=en"
RAPID CITY POLICE DEPARTMENT,RAPID CITY POLICE DEPARTMENT PUBLIC SAFETY BUILDING,300 KANSAS CITY STREET,RAPID CITY,SD,57701,"http://maps.google.com/maps?q=300 KANSAS CITY STREET,+RAPID CITY,+SD+57701&hl=en"
RAWLINS POLICE DEPARTMENT,RAWLINS POLICE DEPARTMENT,215 5TH STREET,RAWLINS,WY,82301,"http://maps.google.com/maps?q=215 5TH STREET,+RAWLINS,+WY+82301&hl=en"
RCSO,RCSO,2025 SHIELD DRIVE,STEAMBOAT SPRINGS,CO,80487,"http://maps.google.com/maps?q=2025 SHIELD DRIVE,+STEAMBOAT SPRINGS,+CO+80487&hl=en"
SHERIDAN POLICE DEPARTMENT,WALGREENS,1766 COFFEEN AVENUE,SHERIDAN,WY,82801,"http://maps.google.com/maps?q=1766 COFFEEN AVENUE,+SHERIDAN,+WY+82801&hl=en"
SIDNEY POLICE DEPARTMENT,SIDNEY POLICE DEPT.,1715 ILLINOIS STREET,SIDNEY,NE,69162,"http://maps.google.com/maps?q=1715 ILLINOIS STREET,+SIDNEY,+NE+69162&hl=en"
SPEARFISH POLICE DEPARTMENT,SPEARFISH POLICE DEPT.,625 5TH STREET,SPEARFISH,SD,57783,"http://maps.google.com/maps?q=625 5TH STREET,+SPEARFISH,+SD+57783&hl=en"
ST. ANTHONY POLICE DEPT,ST. ANTHONTY CITY HALL BUILDING,420 N BRIDGE ST,SAINT ANTHONY,ID,83445,"http://maps.google.com/maps?q=420 N BRIDGE ST,+SAINT ANTHONY,+ID+83445&hl=en"
STERLING POLICE DEPARTMENT,STERLING POLICE DEPARTMENT,421 N. 4TH STREET,STERLING,CO,80751,"http://maps.google.com/maps?q=421 N. 4TH STREET,+STERLING,+CO+80751&hl=en"
THORNTON POLICE DEPARTMENT,THORNTON FIRE STATION #5,14051 COLORADO BLVD,BRIGHTON,CO,80602,"http://maps.google.com/maps?q=14051 COLORADO BLVD,+BRIGHTON,+CO+80602&hl=en"
THORNTON POLICE DEPARTMENT,THORNTON POLICE DEPARTMENT,9551 CIVIC CENTER DRIVE,THORNTON,CO,80229,"http://maps.google.com/maps?q=9551 CIVIC CENTER DRIVE,+THORNTON,+CO+80229&hl=en"
UINTA COUNTY SHERIFF'S OFFICE,LYMAN HIGH SCHOOL,1305 E. CLARK,LYMAN,WY,82937,"http://maps.google.com/maps?q=1305 E. CLARK,+LYMAN,+WY+82937&hl=en"
UINTAH COUNTY SHERIFF'S DEPARTMENT,WALMART PARKING LOT,1851 W. US-40,VERNAL,UT,84078,"http://maps.google.com/maps?q=1851 W. US-40,+VERNAL,+UT+84078&hl=en"
WESTMINSTER POLICE DEPARTMENT,WESTMINSTER POLICE DEPARTMENT,9110 YATES ST.,WESTMINSTER,CO,80031,"http://maps.google.com/maps?q=9110 YATES ST.,+WESTMINSTER,+CO+80031&hl=en"
WHEAT RIDGE POLICE DEPARTMENT,LUTHERAN MEDICAL CENTER/SLC MAIN ENTRANCE DRIVEWAY,8300 W. 38TH AVENUE,WHEAT RIDGE,CO,80033,"http://maps.google.com/maps?q=8300 W. 38TH AVENUE,+WHEAT RIDGE,+CO+80033&hl=en"
WINDSOR POLICE DEPARTMENT,WINDSOR POLICE DEPARTMENT,200 NORTH 11TH,WINDSOR,CO,80550,"http://maps.google.com/maps?q=200 NORTH 11TH,+WINDSOR,+CO+80550&hl=en"
