Participant,CollectionSite,Address,City,State,Zip,MapURL
ANDREWS POLICE DEPARTMENT,PIGGLY WIGGLY,15 W. ASHLAND ST.,ANDREWS,SC,29510,"http://maps.google.com/maps?q=15 W. ASHLAND ST.,+ANDREWS,+SC+29510&hl=en"
ANDREWS POLICE DEPARTMENT,REYNOLDS DRUG STORE,7 S. MORGAN AVE,ANDREWS,SC,29510,"http://maps.google.com/maps?q=7 S. MORGAN AVE,+ANDREWS,+SC+29510&hl=en"
BERKELEY COUNTY SHERIFF'S OFFICE,"BERKELEY COUNTY SHERIFF'S OFFICE 
												
													MAGISTRATES OFFICE",223 N. LIVE OAK DRIVE,MONCKS CORNER,SC,29461,"http://maps.google.com/maps?q=223 N. LIVE OAK DRIVE,+MONCKS CORNER,+SC+29461&hl=en"
BERKELEY COUNTY SHERIFF'S OFFICE,MAGISTRATES OFFICE,303 N. GOOSE CREEK BLVD.,GOOSE CREEK,SC,29445,"http://maps.google.com/maps?q=303 N. GOOSE CREEK BLVD.,+GOOSE CREEK,+SC+29445&hl=en"
BISHOPVILLE POLICE DEPT,BISHOPVILLE CITY POLICE DEPT.,112 E. COUNCIL ST.,BISHOPVILLE,SC,29010,"http://maps.google.com/maps?q=112 E. COUNCIL ST.,+BISHOPVILLE,+SC+29010&hl=en"
BRUNSWICK COUNTY SHERIFF'S OFFICE,NOVANT HEALTH BRUNSWICK MEDICAL CENTER,240 HOSPITAL DRIVE NE,BOLIVIA,NC,28422,"http://maps.google.com/maps?q=240 HOSPITAL DRIVE NE,+BOLIVIA,+NC+28422&hl=en"
CAMDEN POLICE DEPARTMENT,CAMDEN POLICE DEPARTMENT,816 W. DEKALB ST.,CAMDEN,SC,29020,"http://maps.google.com/maps?q=816 W. DEKALB ST.,+CAMDEN,+SC+29020&hl=en"
CANNON PHARMACY,CANNON PHARMACY,1706 S CANNON BLVD,KANNAPOLIS,NC,28083,"http://maps.google.com/maps?q=1706 S CANNON BLVD,+KANNAPOLIS,+NC+28083&hl=en"
CANNON PHARMACY,CANNON PHARMACY,760 CABARRUS AVE W,CONCORD,NC,28025,"http://maps.google.com/maps?q=760 CABARRUS AVE W,+CONCORD,+NC+28025&hl=en"
CANNON PHARMACY,CONCORD PHARMACY AND SURGICAL SUPPLIES,3497 HWY 601 S.,CONCORD,NC,28025,"http://maps.google.com/maps?q=3497 HWY 601 S.,+CONCORD,+NC+28025&hl=en"
CANNON PHARMACY,HARRISBURG'S HOMETOWN PHARMACY,5006 NC HIGHWAY 49 S,HARRISBURG,NC,28075,"http://maps.google.com/maps?q=5006 NC HIGHWAY 49 S,+HARRISBURG,+NC+28075&hl=en"
CANNON PHARMACY,MOOSE DRUG COMPANY,8374 FRANKLIN ST. W.,MOUNT PLEASANT,NC,28124,"http://maps.google.com/maps?q=8374 FRANKLIN ST. W.,+MOUNT PLEASANT,+NC+28124&hl=en"
CANNON PHARMACY,MOOSE PROFESSIONAL PHARMACY,270 COPPERFIELD BLVD NE #101,CONCORD,NC,28025,"http://maps.google.com/maps?q=270 COPPERFIELD BLVD NE #101,+CONCORD,+NC+28025&hl=en"
CANNON PHARMACY,WEST CABARRUS YMCA,5325 LANGFORD AVE NW,CONCORD,NC,28027,"http://maps.google.com/maps?q=5325 LANGFORD AVE NW,+CONCORD,+NC+28027&hl=en"
CHARLESTON CO SHERIFF'S OFFICE,LAW ENFORCEMENT CENTER,3691 LEEDS AVENUE,NORTH CHARLESTON,SC,29405,"http://maps.google.com/maps?q=3691 LEEDS AVENUE,+NORTH CHARLESTON,+SC+29405&hl=en"
CHARLESTON CO SHERIFF'S OFFICE,VINCENT DRUG STORE,110 PLANTED ROW LANE,JOHNS ISLAND,SC,29455,"http://maps.google.com/maps?q=110 PLANTED ROW LANE,+JOHNS ISLAND,+SC+29455&hl=en"
CHARLESTON POLICE DEPARTMENT,"CHARLESTON POLICE DEPARTMENT 
												
													LOBBY",180 LOCKWOOD BLVD.,CHARLESTON,SC,29403,"http://maps.google.com/maps?q=180 LOCKWOOD BLVD.,+CHARLESTON,+SC+29403&hl=en"
CHARLESTON POLICE DEPARTMENT,"CITADEL MALL 
												
													OUTSIDE PLANET FITNESS",2070 SAM RITTENBERG BLVD.,CHARLESTON,SC,29407,"http://maps.google.com/maps?q=2070 SAM RITTENBERG BLVD.,+CHARLESTON,+SC+29407&hl=en"
CHARLESTON POLICE DEPARTMENT,"JOHNS ISLAND SHOPPING CENTER 
												
													(NEAR CVS)",3775 MAYBANK HWY,JOHNS ISLAND,SC,29455,"http://maps.google.com/maps?q=3775 MAYBANK HWY,+JOHNS ISLAND,+SC+29455&hl=en"
CHARLESTON POLICE DEPARTMENT,"LOWES #0661 
												
													(JAMES ISLAND)",700 DANIEL ELLIS DRIVE,CHARLESTON,SC,29412,"http://maps.google.com/maps?q=700 DANIEL ELLIS DRIVE,+CHARLESTON,+SC+29412&hl=en"
CHESAPEAKE POLICE DEPARTMENT,CHESAPEAKE POLICE 2ND PRECINCT,1209 20TH STREET,CHESAPEAKE,VA,23324,"http://maps.google.com/maps?q=1209 20TH STREET,+CHESAPEAKE,+VA+23324&hl=en"
CHESAPEAKE POLICE DEPARTMENT,CHESAPEAKE POLICE 3RD PRECINCT,949 N. GEORGE WASHINGTON HIGHWAY,CHESAPEAKE,VA,23323,"http://maps.google.com/maps?q=949 N. GEORGE WASHINGTON HIGHWAY,+CHESAPEAKE,+VA+23323&hl=en"
CHESAPEAKE POLICE DEPARTMENT,CHESAPEAKE POLICE 4TH PRECINCT,4764 STATION HOUSE ROAD,CHESAPEAKE,VA,23321,"http://maps.google.com/maps?q=4764 STATION HOUSE ROAD,+CHESAPEAKE,+VA+23321&hl=en"
CHESAPEAKE SHERIFF'S OFFICE,"CHESAPEAKE SHERIFF'S OFFICE 
												
													ADMIN BUILDING ACROSS FROM CORRECTIONAL CENTER",401 ALBEMARLE DRIVE,CHESAPEAKE,VA,23322,"http://maps.google.com/maps?q=401 ALBEMARLE DRIVE,+CHESAPEAKE,+VA+23322&hl=en"
CITY OF COLUMBIA POLICE DEPARTMENT,CITY OF COLUMBIA POLICE DEPARTMENT,1 JUSTICE SQUARE,COLUMBIA,SC,29201,"http://maps.google.com/maps?q=1 JUSTICE SQUARE,+COLUMBIA,+SC+29201&hl=en"
CURRITUCK COUNTY SHERIFF'S OFFICE,MOYOCK FOOD LION,101 LARK DR,MOYOCK,NC,27958,"http://maps.google.com/maps?q=101 LARK DR,+MOYOCK,+NC+27958&hl=en"
DANVILLE POLICE DEPARTMENT,"CENTRA MEDICAL GROUP DANVILLE 
												
													PARKING LOT - WEST END OF THE BUILDING",414 PARK AVE,DANVILLE,VA,24541,"http://maps.google.com/maps?q=414 PARK AVE,+DANVILLE,+VA+24541&hl=en"
DILLON COUNTY SHERIFF'S OFFICE,DILLON COUNTY JUDICIAL CENTER,1033 OLD LATTA HWY,DILLON,SC,29536,"http://maps.google.com/maps?q=1033 OLD LATTA HWY,+DILLON,+SC+29536&hl=en"
DURHAM POLICE DEPARTMENT,KROGER,202 W NC HIGHWAY 54,DURHAM,NC,27713,"http://maps.google.com/maps?q=202 W NC HIGHWAY 54,+DURHAM,+NC+27713&hl=en"
DURHAM POLICE DEPARTMENT,KROGER,3457 HILLSBOROUGH ROAD,DURHAM,NC,27705,"http://maps.google.com/maps?q=3457 HILLSBOROUGH ROAD,+DURHAM,+NC+27705&hl=en"
DURHAM POLICE DEPARTMENT,TRIANGLE PHARMACY,1700 E NC HIGHWAY 54,DURHAM,NC,27713,"http://maps.google.com/maps?q=1700 E NC HIGHWAY 54,+DURHAM,+NC+27713&hl=en"
DURHAM POLICE DEPARTMENT,WALGREENS,1812 HOLLOWAY STREET,DURHAM,NC,27701,"http://maps.google.com/maps?q=1812 HOLLOWAY STREET,+DURHAM,+NC+27701&hl=en"
ELGIN POLICE DEPARTMENT,ELGIN TOWN HALL,2469 MAIN STREET,ELGIN,SC,29045,"http://maps.google.com/maps?q=2469 MAIN STREET,+ELGIN,+SC+29045&hl=en"
ELKIN POLICE DEPARTMENT,"WAL-MART 
												
													COLLECTION WILL BE IN THE PARKING LOT",548 CC CAMP RD,ELKIN,NC,28621,"http://maps.google.com/maps?q=548 CC CAMP RD,+ELKIN,+NC+28621&hl=en"
EUTAWVILLE POLICE DEPT,EUTAWVILLE POLICE DEPT,413 PORCHER AVE,EUTAWVILLE,SC,29048,"http://maps.google.com/maps?q=413 PORCHER AVE,+EUTAWVILLE,+SC+29048&hl=en"
FAYETTEVILLE POLICE DEPARTMENT,"CAMPBELLTON DISTRICT FAYETTEVILLE POLICE DEPARTMEN 
												
													MON-FRI  9-4PM  SATURDAY 9-1",467 HAY ST.,FAYETTEVILLE,NC,28301,"http://maps.google.com/maps?q=467 HAY ST.,+FAYETTEVILLE,+NC+28301&hl=en"
FAYETTEVILLE POLICE DEPARTMENT,"CENTRAL DISTRICT FAYETTEVILLE POLICE DEPT 
												
													MON-FRI  9-4PM",3811 SYCAMORE DAIRY RD,FAYETTEVILLE,NC,28303,"http://maps.google.com/maps?q=3811 SYCAMORE DAIRY RD,+FAYETTEVILLE,+NC+28303&hl=en"
FAYETTEVILLE POLICE DEPARTMENT,"CROSS CREEK DIVISION FAYETTEVILLE POLICE DEPT 
												
													MON-FRI  9-4PM",6147 RAEFORD RD,FAYETTEVILLE,NC,28304,"http://maps.google.com/maps?q=6147 RAEFORD RD,+FAYETTEVILLE,+NC+28304&hl=en"
FLORENCE POLICE DEPARTMENT,FIRST BAPTIST CHURCH,300 S. IRBY STREET,FLORENCE,SC,29501,"http://maps.google.com/maps?q=300 S. IRBY STREET,+FLORENCE,+SC+29501&hl=en"
FLORENCE POLICE DEPARTMENT,WEST FLORENCE HIGH SCHOOL,221 BELTLINE DR.,FLORENCE,SC,29505,"http://maps.google.com/maps?q=221 BELTLINE DR.,+FLORENCE,+SC+29505&hl=en"
FOREST ACRES POLICE DEPARTMENT,FOREST ACRES POLICE DEPARTMENT,5205 N. TRENHOLM ROAD,COLUMBIA,SC,29206,"http://maps.google.com/maps?q=5205 N. TRENHOLM ROAD,+COLUMBIA,+SC+29206&hl=en"
FORT JACKSON POLICE DEPARTMENT,FORT JACKSON MAIN POST EXCHANGE,4110 MOSEBY STREET,COLUMBIA,SC,29207,"http://maps.google.com/maps?q=4110 MOSEBY STREET,+COLUMBIA,+SC+29207&hl=en"
GALAX POLICE DEPARTMENT,"GALAX POLICE DEPARTMENT 
												
													POLICE DEPARTMENT PARKING LOT",353 N. MAIN STREET,GALAX,VA,24333,"http://maps.google.com/maps?q=353 N. MAIN STREET,+GALAX,+VA+24333&hl=en"
GARNER POLICE DEPARTMENT,"GARNER POLICE DEPARTMENT 
												
													MONDAY - FRIDAY 8A - 5P",912 SEVENTH AVE,GARNER,NC,27529,"http://maps.google.com/maps?q=912 SEVENTH AVE,+GARNER,+NC+27529&hl=en"
HAVELOCK POLICE DEPARTMENT,"HAVELOCK POLICE DEPARTMENT 
												
													252-463-7104",2 GOVERNMENTAL AVE,HAVELOCK,NC,28532,"http://maps.google.com/maps?q=2 GOVERNMENTAL AVE,+HAVELOCK,+NC+28532&hl=en"
HIGH POINT POLICE DEPARTMENT,"ARCHDALE DRUG 
												
													10AM.-2PM",11220 N MAIN STREET,HIGH POINT,NC,27263,"http://maps.google.com/maps?q=11220 N MAIN STREET,+HIGH POINT,+NC+27263&hl=en"
HOLLY RIDGE POLICE DEPARTMENT,"HOLLY RIDGE POLICE DEPARTMENT 
												
													LT. EWAN S RICHARDS",313SOUND ROAD,HOLLY RIDGE,NC,28445,"http://maps.google.com/maps?q=313,+HOLLY RIDGE,+NC+28445&hl=en"
JACKSONVILLE POLICE DEPARTMENT,ONSLOW MEMORIAL HOSPITAL,317 WESTERN BLVD,JACKSONVILLE,NC,28546,"http://maps.google.com/maps?q=317 WESTERN BLVD,+JACKSONVILLE,+NC+28546&hl=en"
JACKSONVILLE POLICE DEPARTMENT,WALGREENS,1600 GUM BRANCH RD.,JACKSONVILLE,NC,28540,"http://maps.google.com/maps?q=1600 GUM BRANCH RD.,+JACKSONVILLE,+NC+28540&hl=en"
JACKSONVILLE POLICE DEPARTMENT,WALGREENS,359 WESTERN BLVD.,JACKSONVILLE,NC,28546,"http://maps.google.com/maps?q=359 WESTERN BLVD.,+JACKSONVILLE,+NC+28546&hl=en"
JASON BROCK,VIDANT DUPLIN HOSTIPAL,411 N. MAIN ST,KENANSVILLE,NC,28349,"http://maps.google.com/maps?q=411 N. MAIN ST,+KENANSVILLE,+NC+28349&hl=en"
KANNAPOLIS YMCA,KANNAPOLIS YMCA,101 YMCA DRIVE,KANNAPOLIS,NC,28081,"http://maps.google.com/maps?q=101 YMCA DRIVE,+KANNAPOLIS,+NC+28081&hl=en"
KERSHAW COUNTY SHERIFF'S OFFICE,KERSHAW CO. SHERIFF'S OFFICE,821 RIDGEWAY RD.,LUGOFF,SC,29078,"http://maps.google.com/maps?q=821 RIDGEWAY RD.,+LUGOFF,+SC+29078&hl=en"
KINSTON POLICE DEPARTMENT,WAL-MART,4101 W. VERNON AVE.,KINSTON,NC,28504,"http://maps.google.com/maps?q=4101 W. VERNON AVE.,+KINSTON,+NC+28504&hl=en"
LAWRENCEVILLE POLICE DEPARTMENT,"LAWRENCEVILLE MUNICIPAL BUILDING 
												
													AT THE ENTRANCE TO THE POLICE DEPARTMENT",400 N. MAIN STREET,LAWRENCEVILLE,VA,23868,"http://maps.google.com/maps?q=400 N. MAIN STREET,+LAWRENCEVILLE,+VA+23868&hl=en"
LAZARO RAMOS,VILLAGE PHARMACY AT THE BEACON,14057 US HWY 17 SUITE 100,HAMPSTEAD,NC,28443,"http://maps.google.com/maps?q=14057 US HWY 17 SUITE 100,+HAMPSTEAD,+NC+28443&hl=en"
MOORESVILLE POLICE DEPARTMENT,"WALMART 
												
													CONSUMER SQUARE SHOPPING CENTER",169 NORMAN STATION BOULEVARD,MOORESVILLE,NC,28117,"http://maps.google.com/maps?q=169 NORMAN STATION BOULEVARD,+MOORESVILLE,+NC+28117&hl=en"
MOUNT AIRY POLICE DEPARTMENT,"MOUNT AIRY POLICE DEPARTMENT 
												
													FRONT LOBBY",150 ROCKFORD STREET,MOUNT AIRY,NC,27030,"http://maps.google.com/maps?q=150 ROCKFORD STREET,+MOUNT AIRY,+NC+27030&hl=en"
MOUNT PLEASANT POLICE DEPT.,TIDEWATER PHARMACY,421 JOHNNIE DODDS BLVD,MOUNT PLEASANT,SC,29464,"http://maps.google.com/maps?q=421 JOHNNIE DODDS BLVD,+MOUNT PLEASANT,+SC+29464&hl=en"
MOUNT PLEASANT POLICE DEPT.,WALMART,1481 N. HIGHWAY 17,MOUNT PLEASANT,SC,29464,"http://maps.google.com/maps?q=1481 N. HIGHWAY 17,+MOUNT PLEASANT,+SC+29464&hl=en"
NC STATE UNIVERSITY POLICE DEPT.,"NC STATE UNIVERSITY POLICE DEPARTMENT 
												
													FRONT LOBBY",2610 WOLF VILLAGE WAYCAMPUS BOX 7220,RALEIGH,NC,27695,"http://maps.google.com/maps?q=2610 WOLF VILLAGE WAY,+RALEIGH,+NC+27695&hl=en"
NEW BERN POLICE DEPARTMENT,REALO DISCOUNT DRUG STORE,1301 COMMERCE DR,NEW BERN,NC,28562,"http://maps.google.com/maps?q=1301 COMMERCE DR,+NEW BERN,+NC+28562&hl=en"
NEW HANOVER REGIONAL MEDICAL CENTER,NHRMC ATLANTIC SURGICENTER,9104 MARKET STREET,WILMINGTON,NC,28411,"http://maps.google.com/maps?q=9104 MARKET STREET,+WILMINGTON,+NC+28411&hl=en"
NEW HANOVER REGIONAL MEDICAL CENTER,NHRMC BRUNSWICK FOREST,1333 S. DICKINSON DRIVE,LELAND,NC,28451,"http://maps.google.com/maps?q=1333 S. DICKINSON DRIVE,+LELAND,+NC+28451&hl=en"
NEW HANOVER REGIONAL MEDICAL CENTER,NHRMC MEDICAL MALL,2243 S. 17TH STREET,WILMINGTON,NC,28402,"http://maps.google.com/maps?q=2243 S. 17TH STREET,+WILMINGTON,+NC+28402&hl=en"
NEW HANOVER REGIONAL MEDICAL CENTER,NHRMC URGENT CARE,112 MEDICAL VILLAGE DRIVE,WALLACE,NC,28466,"http://maps.google.com/maps?q=112 MEDICAL VILLAGE DRIVE,+WALLACE,+NC+28466&hl=en"
NEW HANOVER REGIONAL MEDICAL CENTER,NHRMC URGENT CARE,1135 MILITARY CUTOFF ROAD SUITE #103,WILMINGTON,NC,28405,"http://maps.google.com/maps?q=1135 MILITARY CUTOFF ROAD SUITE #103,+WILMINGTON,+NC+28405&hl=en"
NEW HANOVER REGIONAL MEDICAL CENTER,PENDER MEMORIAL HOSPITAL,507 E. FREMONT STREET,BURGAW,NC,28425,"http://maps.google.com/maps?q=507 E. FREMONT STREET,+BURGAW,+NC+28425&hl=en"
NORFOLK POLICE DEPARTMENT,"NORFOLK POLICE OPERATIONS CENTER 
												
													FRONT ENTRANCE",3661 E. VIRGINIA BEACH BLVD,NORFOLK,VA,23502,"http://maps.google.com/maps?q=3661 E. VIRGINIA BEACH BLVD,+NORFOLK,+VA+23502&hl=en"
NORFOLK POLICE DEPARTMENT,"NORFOLK POLICE TRAINING CENTER 
												
													FRONT ENTRANCE",2500 N. MILITARY HWY,NORFOLK,VA,23502,"http://maps.google.com/maps?q=2500 N. MILITARY HWY,+NORFOLK,+VA+23502&hl=en"
NORFOLK STATE UNIVERSITY POLICE DEPARTMENT,"NORFOLK STATE UNIVERSITY PD 
												
													LOBBY AREA",2501 CORPREW AVE,NORFOLK,VA,23504,"http://maps.google.com/maps?q=2501 CORPREW AVE,+NORFOLK,+VA+23504&hl=en"
NORTH MYRTLE BEACH DEPT OF PUBLIC SAFETY,NORTH MYRTLE BEACH DPS,1015 2ND AVE S,NORTH MYRTLE BEACH,SC,29582,"http://maps.google.com/maps?q=1015 2ND AVE S,+NORTH MYRTLE BEACH,+SC+29582&hl=en"
ONSLOW COUNTY SHERIFF OFFICE,CVS PHARMACY,1309 NC HWY 210,SNEADS FERRY,NC,28460,"http://maps.google.com/maps?q=1309 NC HWY 210,+SNEADS FERRY,+NC+28460&hl=en"
ONSLOW COUNTY SHERIFF OFFICE,"WAL GREENS PHARMACY 
												
													910-219-0490",3069 RICHLANDS HWY,JACKSONVILLE,NC,28540,"http://maps.google.com/maps?q=3069 RICHLANDS HWY,+JACKSONVILLE,+NC+28540&hl=en"
ORANGEBURG COUNTY SHERIFF'S OFFICE,PIGGLY WIGGLY,2526 OLD EDISTO DR.US 301 SOUTH,ORANGEBURG,SC,29115,"http://maps.google.com/maps?q=2526 OLD EDISTO DR.,+ORANGEBURG,+SC+29115&hl=en"
ORANGEBURG COUNTY SHERIFF'S OFFICE,"RMC DIALYSIS ACCESS INSTITUTE 
												
													(OUTSIDE)",3000 ST MATTHEWS RD,ORANGEBURG,SC,29118,"http://maps.google.com/maps?q=3000 ST MATTHEWS RD,+ORANGEBURG,+SC+29118&hl=en"
ORANGEBURG DEPT OF PUBLIC SAFETY,STATION 2 FIRE DEPT,835 CHESTNUT ST.,ORANGEBURG,SC,29115,"http://maps.google.com/maps?q=835 CHESTNUT ST.,+ORANGEBURG,+SC+29115&hl=en"
PITTSYLVANIA COUNTY SHERIFF'S OFFICE,"MT. HERMON SHOPPING CENTER 
												
													FOOD LION PARKING LOT",4048 FRANKLIN TURNPIKE,DANVILLE,VA,24540,"http://maps.google.com/maps?q=4048 FRANKLIN TURNPIKE,+DANVILLE,+VA+24540&hl=en"
PORTSMOUTH POLICE DEPARTMENT,"PORTSMOUTH FIRE STATION #3 
												
													FRONT DOOR",4001 RIVERSHORE ROAD,PORTSMOUTH,VA,23703,"http://maps.google.com/maps?q=4001 RIVERSHORE ROAD,+PORTSMOUTH,+VA+23703&hl=en"
PORTSMOUTH POLICE DEPARTMENT,PORTSMOUTH POLICE DEPARTMENT HEADQUARTERS,801 WATER ST,PORTSMOUTH,VA,23704,"http://maps.google.com/maps?q=801 WATER ST,+PORTSMOUTH,+VA+23704&hl=en"
PORTSMOUTH POLICE DEPARTMENT,"PORTSMOUTH SAFETY TOWN 
												
													OUTSIDE FRONT DOOR",4404 DEEP CREEK BLVD,PORTSMOUTH,VA,23702,"http://maps.google.com/maps?q=4404 DEEP CREEK BLVD,+PORTSMOUTH,+VA+23702&hl=en"
RALEIGH POLICE DEPARTMENT,FALLS RIVER PHARMACY,10930 RAVEN RIDGE RD,RALEIGH,NC,27614,"http://maps.google.com/maps?q=10930 RAVEN RIDGE RD,+RALEIGH,+NC+27614&hl=en"
RALEIGH POLICE DEPARTMENT,HAYES BARTON PHARMACY,2000 FAIRVIEW RD,RALEIGH,NC,27608,"http://maps.google.com/maps?q=2000 FAIRVIEW RD,+RALEIGH,+NC+27608&hl=en"
RALEIGH POLICE DEPARTMENT,JOSEF'S PHARMACY,2100 NEW BERN AVE,RALEIGH,NC,27610,"http://maps.google.com/maps?q=2100 NEW BERN AVE,+RALEIGH,+NC+27610&hl=en"
RALEIGH POLICE DEPARTMENT,WELLNESS PHARMACY AND COMPOUNDING CENTER,2601 BLUE RIDGE RD,RALEIGH,NC,27607,"http://maps.google.com/maps?q=2601 BLUE RIDGE RD,+RALEIGH,+NC+27607&hl=en"
RANDOLPH COUNTY SHERIFF'S OFFICE,"RANDOLPH MALL 
												
													PARKING LOT BESIDE DUNHAM'S",1437 EAST DIXIE DR,ASHEBORO,NC,27203,"http://maps.google.com/maps?q=1437 EAST DIXIE DR,+ASHEBORO,+NC+27203&hl=en"
RICHLAND CO. SHERIFF'S DEPARTMENT,RICHLAND CO. SHERIFF'S DEPARTMENT,5623 TWO NOTCH RD,COLUMBIA,SC,29223,"http://maps.google.com/maps?q=5623 TWO NOTCH RD,+COLUMBIA,+SC+29223&hl=en"
SAFE KIDS CHARLOTTE MECKLENBURG,CPCC MERANCAS CAMPUS,11930 VERHOEFF,HUNTERSVILLE,NC,28078,"http://maps.google.com/maps?q=11930 VERHOEFF,+HUNTERSVILLE,+NC+28078&hl=en"
SAFE KIDS CHARLOTTE MECKLENBURG,"HARRIS TEETER 
												
													IN FRONT OF STORE",1704 CENTRAL AVENUE,CHARLOTTE,NC,28205,"http://maps.google.com/maps?q=1704 CENTRAL AVENUE,+CHARLOTTE,+NC+28205&hl=en"
SAFE KIDS CHARLOTTE MECKLENBURG,HARRIS TEETER - STONECREST,7852 REA RD,CHARLOTTE,NC,28277,"http://maps.google.com/maps?q=7852 REA RD,+CHARLOTTE,+NC+28277&hl=en"
SAFE KIDS CHARLOTTE MECKLENBURG,HARRIS TEETER- STEELECROFT,13000 S TRYON,CHARLOTTE,NC,28278,"http://maps.google.com/maps?q=13000 S TRYON,+CHARLOTTE,+NC+28278&hl=en"
SAFE KIDS CHARLOTTE MECKLENBURG,"HARRIS TETEER 
												
													IN FRONT OF STORE",2717 SOUTH BLVD,CHARLOTTE,NC,28209,"http://maps.google.com/maps?q=2717 SOUTH BLVD,+CHARLOTTE,+NC+28209&hl=en"
SAFE KIDS UNION COUNTY,MARSHVILLE POLICE DEPARTMENT,113 W. MAIN STREET,MARSHVILLE,NC,28103,"http://maps.google.com/maps?q=113 W. MAIN STREET,+MARSHVILLE,+NC+28103&hl=en"
SAFE KIDS UNION COUNTY,UNION COUNTY MAIN SHERIFF'S OFFICE-WINGATE,3344 PRESSON ROAD,MONROE,NC,28112,"http://maps.google.com/maps?q=3344 PRESSON ROAD,+MONROE,+NC+28112&hl=en"
SAFE KIDS UNION COUNTY,"UNION COUNTY SHERIFF'S OFFICE 
												
													SATELLITE FACILITY- WESLEY CHAPEL FIRE DEPARTMENT #26",315 WAXHAW-INDIAN TRAIL RD,WAXHAW,NC,28173,"http://maps.google.com/maps?q=315 WAXHAW-INDIAN TRAIL RD,+WAXHAW,+NC+28173&hl=en"
SAFE KIDS UNION COUNTY,"UNION COUNTY SHERIFF'S OFFICE 
												
													SATELLITE FACILITY-INDIAN TRAIL",109 NAVAJO TRAIL,INDIAN TRAIL,NC,28079,"http://maps.google.com/maps?q=109 NAVAJO TRAIL,+INDIAN TRAIL,+NC+28079&hl=en"
SAFE KIDS UNION COUNTY,WAXHAW POLICE DEPARTMENT,3620 PROVIDENCE ROAD SOUTH,WAXHAW,NC,28173,"http://maps.google.com/maps?q=3620 PROVIDENCE ROAD SOUTH,+WAXHAW,+NC+28173&hl=en"
SANTEE COOPER/SC PUBLIC SVC AUTHORITY,SANTEE COOPER,1 RIVERWOOD DRIVE,MONCKS CORNER,SC,29461,"http://maps.google.com/maps?q=1 RIVERWOOD DRIVE,+MONCKS CORNER,+SC+29461&hl=en"
SPRINGDALE POLICE DEPT,SPRINGDALE POLICE DEPT,2915 PLATT SPRINGS RD,WEST COLUMBIA,SC,29170,"http://maps.google.com/maps?q=2915 PLATT SPRINGS RD,+WEST COLUMBIA,+SC+29170&hl=en"
ST. MATTHEWS POLICE DEPT,ST. MATTHEWS POLICE DEPT.,304 AGNES ST.,SAINT MATTHEWS,SC,29135,"http://maps.google.com/maps?q=304 AGNES ST.,+SAINT MATTHEWS,+SC+29135&hl=en"
SUMTER COUNTY SHERIFF'S OFFICE,SUMTER COUNTY SHERIFF'S OFFICE,1281 N. MAIN STREET,SUMTER,SC,29150,"http://maps.google.com/maps?q=1281 N. MAIN STREET,+SUMTER,+SC+29150&hl=en"
SUMTER POLICE DEPARTMENT,SUMTER POLICE DEPARTMENT,107 E HAMPTON STREET,SUMTER,SC,29150,"http://maps.google.com/maps?q=107 E HAMPTON STREET,+SUMTER,+SC+29150&hl=en"
UNC POLICE COMMUNITY SERVICES,"UNC MEMORIAL HOSPITAL 
												
													VALET LANE",101 MANNING DR.,CHAPEL HILL,NC,27514,"http://maps.google.com/maps?q=101 MANNING DR.,+CHAPEL HILL,+NC+27514&hl=en"
UNCW POLICE,UNCW POLICE DEPARTMENT,5126 LIONFISH DR,WILMINGTON,NC,28403,"http://maps.google.com/maps?q=5126 LIONFISH DR,+WILMINGTON,+NC+28403&hl=en"
USC DIVISION OF LAW ENFORCEMENT/SAFETY,USC COLUMBIA CAMPUS,CORNER GREENE AND BULL ST.,COLUMBIA,SC,29208,"http://maps.google.com/maps?q=CORNER GREENE AND BULL ST.,+COLUMBIA,+SC+29208&hl=en"
VIRGINIA STATE POLICE,"VIRGINIA STATE POLICE - AREA 47 STATION 
												
													POC: SGT ANDREA FISCHER",1557 S. MILITARY HIGHWAY,CHESAPEAKE,VA,23320,"http://maps.google.com/maps?q=1557 S. MILITARY HIGHWAY,+CHESAPEAKE,+VA+23320&hl=en"
WEST COLUMBIA POLICE DEPT.,BILO,2349 AUGUSTA RD,WEST COLUMBIA,SC,29169,"http://maps.google.com/maps?q=2349 AUGUSTA RD,+WEST COLUMBIA,+SC+29169&hl=en"
WEST COLUMBIA POLICE DEPT.,MEDICINE MART,1300 SUNSET BLVD,WEST COLUMBIA,SC,29169,"http://maps.google.com/maps?q=1300 SUNSET BLVD,+WEST COLUMBIA,+SC+29169&hl=en"
WEST COLUMBIA POLICE DEPT.,WALGREENS,1537 CHARLESTON HWY,WEST COLUMBIA,SC,29169,"http://maps.google.com/maps?q=1537 CHARLESTON HWY,+WEST COLUMBIA,+SC+29169&hl=en"
WHITEVILLE POLICE DEPARTMENT,"COLUMBUS REGIONAL HEALTHCARE 
												
													500 JEFFERSON STREET",500 JEFFERSON STREET,WHITEVILLE,NC,28472,"http://maps.google.com/maps?q=500 JEFFERSON STREET,+WHITEVILLE,+NC+28472&hl=en"
WHITEVILLE POLICE DEPARTMENT,WHITEVILLE POLICE DEPARTMENT,117 E. COLUMBUS ST,WHITEVILLE,NC,28472,"http://maps.google.com/maps?q=117 E. COLUMBUS ST,+WHITEVILLE,+NC+28472&hl=en"
