Participant,CollectionSite,Address,City,State,Zip,MapURL
ALBION DEPARTMENT OF PUBLIC SAFETY,"FAMILY FARE SUPERMARKET 
												
													DRUG TAKE-BACK DAYS ONLY",1406 N. EATON ST.,ALBION,MI,49224,"http://maps.google.com/maps?q=1406 N. EATON ST.,+ALBION,+MI+49224&hl=en"
ALGONQUIN POLICE,ALGONQUIN POLICE DEPARTMENT,2200 HARNISH DRIVE,ALGONQUIN,IL,60102,"http://maps.google.com/maps?q=2200 HARNISH DRIVE,+ALGONQUIN,+IL+60102&hl=en"
ALLEGAN COUNTY SHERIFF'S OFC.,ALLEGAN COUNTY SHERIFF'S OFC.,640 RIVER ST.,ALLEGAN,MI,49010,"http://maps.google.com/maps?q=640 RIVER ST.,+ALLEGAN,+MI+49010&hl=en"
ARCHBOLD POLICE DEPARTMENT,ARCHBOLD POLICE DEPARTMENT,405 E. LUTZ RD,ARCHBOLD,OH,43502,"http://maps.google.com/maps?q=405 E. LUTZ RD,+ARCHBOLD,+OH+43502&hl=en"
ARLINGTON HEIGHTS POLICE DEPARTMENT,ARLINGTON HEIGHTS VILLAGE HALL,33 S. ARLINGTON HEIGHTS ROAD,ARLINGTON HEIGHTS,IL,60005,"http://maps.google.com/maps?q=33 S. ARLINGTON HEIGHTS ROAD,+ARLINGTON HEIGHTS,+IL+60005&hl=en"
AURORA POLICE HEADQUARTERS,AURORA POLICE HEADQUARTERS,1200 E INDIAN TRAIL RD,AURORA,IL,60505,"http://maps.google.com/maps?q=1200 E INDIAN TRAIL RD,+AURORA,+IL+60505&hl=en"
BARRINGTON POLICE DEPARTMENT,"BARRINGTON POLICE DEPARTMENT 
												
													PUBLIC SAFETY BUILDING",400 N. NORTHWEST HWY,BARRINGTON,IL,60010,"http://maps.google.com/maps?q=400 N. NORTHWEST HWY,+BARRINGTON,+IL+60010&hl=en"
BARRY COUNTY SHERIFF'S DEPARTMENT,BARRY COUNTY SHERIFF'S DEPARTMENT,1212 W STATE STREET,HASTINGS,MI,49058,"http://maps.google.com/maps?q=1212 W STATE STREET,+HASTINGS,+MI+49058&hl=en"
BELLEFONTAINE POLICE DEPARTMENT,MARY RUTAN HOSPITAL (OUTSIDE MAIN ENTRANCE),205 PALMER AVE.,BELLEFONTAINE,OH,43311,"http://maps.google.com/maps?q=205 PALMER AVE.,+BELLEFONTAINE,+OH+43311&hl=en"
BERWYN POLICE DEPARTMENT,BERWYN POLICE DEPARTMENT,6401 W 31ST,BERWYN,IL,60402,"http://maps.google.com/maps?q=6401 W 31ST,+BERWYN,+IL+60402&hl=en"
BOWLING GREEN POLICE DIVISION,BOWLING GREEN POLICE DIVISION,175 W. WOOSTER,BOWLING GREEN,OH,43402,"http://maps.google.com/maps?q=175 W. WOOSTER,+BOWLING GREEN,+OH+43402&hl=en"
BRANCH COUNTY SHERIFF'S OFFICE,"BRANCH COUNTY SHERIFF'S OFFICE 
												
													DROP BOX IN FRONT LOBBY",580 MARSHALL ROAD,COLDWATER,MI,49036,"http://maps.google.com/maps?q=580 MARSHALL ROAD,+COLDWATER,+MI+49036&hl=en"
BREMEN POLICE DEPARTMENT,CVS PHARMACY,1150 W. PLYMOUTH STREET,BREMEN,IN,46506,"http://maps.google.com/maps?q=1150 W. PLYMOUTH STREET,+BREMEN,+IN+46506&hl=en"
BRIDGEVIEW POLICE DEPARTMENT,BRIDGEVIEW POLICE DEPARTMENT,7500 S. OKETO AVE,BRIDGEVIEW,IL,60455,"http://maps.google.com/maps?q=7500 S. OKETO AVE,+BRIDGEVIEW,+IL+60455&hl=en"
BRIGHTON POLICE DEPARTMENT,BRIGHTON POLICE DEPARTMENT,440 S THIRD STREET,BRIGHTON,MI,48116,"http://maps.google.com/maps?q=440 S THIRD STREET,+BRIGHTON,+MI+48116&hl=en"
BROADVIEW POLICE DEPARTMENT,BROADVIEW POLICE DEPARTMENT,2350 S. 25TH AVE,BROADVIEW,IL,60155,"http://maps.google.com/maps?q=2350 S. 25TH AVE,+BROADVIEW,+IL+60155&hl=en"
BROWNSTOWN TOWNSHIP POLICE DEPARTMENT,HENRY FORD CENTER FOR HEALTH SERVICES,23050 WEST RD,BROWNSTOWN,MI,48183,"http://maps.google.com/maps?q=23050 WEST RD,+BROWNSTOWN,+MI+48183&hl=en"
BUFFALO GROVE POLICE DEPARTMENT,BUFFALO GROVE POLICE,46 RAUPP BLV,BUFFALO GROVE,IL,60089,"http://maps.google.com/maps?q=46 RAUPP BLV,+BUFFALO GROVE,+IL+60089&hl=en"
BUFFALO GROVE POLICE DEPARTMENT,BUFFALO GROVE POLICE @ MARIANO'S,450 W. HALF DAY ROAD,BUFFALO GROVE,IL,60089,"http://maps.google.com/maps?q=450 W. HALF DAY ROAD,+BUFFALO GROVE,+IL+60089&hl=en"
BUTLER TOWNSHIP POLICE DEPARTMENT,"BUTLER TOWNSHIP POLICE DEPARTMENT 
												
													MAIN LOBBY",3510 SUDACHI DR,DAYTON,OH,45414,"http://maps.google.com/maps?q=3510 SUDACHI DR,+DAYTON,+OH+45414&hl=en"
CALEDONIA POLICE DEPARTMENT,"CALEDONIA POLICE DEPARTMENT 
												
													DROP BOX 24/7",6900 NICHOLSON RD,CALEDONIA,WI,53108,"http://maps.google.com/maps?q=6900 NICHOLSON RD,+CALEDONIA,+WI+53108&hl=en"
CANTON MI POLICE DEPARTMENT,CANTON POLICE DEPARTMENT,1150 S. CANTON CENTER ROAD,CANTON,MI,48188,"http://maps.google.com/maps?q=1150 S. CANTON CENTER ROAD,+CANTON,+MI+48188&hl=en"
CARY POLICE DEPARTMENT,CARY POLICE DEPARTMENT,654 VILLAGE HALL DRIVE,CARY,IL,60013,"http://maps.google.com/maps?q=654 VILLAGE HALL DRIVE,+CARY,+IL+60013&hl=en"
CASS COALITION,"CASS COUNTY SHERIFF'S OFFICE 
												
													PERMANENT DROP BOX AVAILABLE 24/7",321 M-62,CASSOPOLIS,MI,49031,"http://maps.google.com/maps?q=321 M-62,+CASSOPOLIS,+MI+49031&hl=en"
CASS COALITION,"FAMILY FARE 
												
													RED BOX AVAILABLE",56151 M-51 SOUTH,DOWAGIAC,MI,49047,"http://maps.google.com/maps?q=56151 M-51 SOUTH,+DOWAGIAC,+MI+49047&hl=en"
CASS COALITION,HOWARD TOWNSHIP HALL,1345 BARRON LAKE ROAD,NILES,MI,49120,"http://maps.google.com/maps?q=1345 BARRON LAKE ROAD,+NILES,+MI+49120&hl=en"
CASS COALITION,MARCELLUS TOWNSHIP HALL,13163 MARCELLUS HWY,MARCELLUS,MI,49067,"http://maps.google.com/maps?q=13163 MARCELLUS HWY,+MARCELLUS,+MI+49067&hl=en"
CASS COALITION,"ONTWA TWP/EDWARDSBURG POLICE DEPT 
												
													EXTENDED RED MED BOX AVAILABLITY",26296 US-12,EDWARDSBURG,MI,49112,"http://maps.google.com/maps?q=26296 US-12,+EDWARDSBURG,+MI+49112&hl=en"
CASS COALITION,SILVER CREEK TOWNSHIP HALL,32764 DIXON ST,DOWAGIAC,MI,49047,"http://maps.google.com/maps?q=32764 DIXON ST,+DOWAGIAC,+MI+49047&hl=en"
CEDAR LAKE POLICE DEPARTMENT,"CEDAR LAKE POLICE DEPARTMENT 
												
													DROP BOX 24/7",7408 CONSTITUTION AVENUE,CEDAR LAKE,IN,46303,"http://maps.google.com/maps?q=7408 CONSTITUTION AVENUE,+CEDAR LAKE,+IN+46303&hl=en"
CHENOA POLICE DEPARTMENT,CHENOA POLICE DEPARTMENT,201 GREEN STREET,CHENOA,IL,61726,"http://maps.google.com/maps?q=201 GREEN STREET,+CHENOA,+IL+61726&hl=en"
CHESTERTON POLICE DEPARTMENT,"CHESTERTON POLICE DEPARTMENT 
												
													DROP BOX 24/7",790 BROADWAY,CHESTERTON,IN,46304,"http://maps.google.com/maps?q=790 BROADWAY,+CHESTERTON,+IN+46304&hl=en"
CITY OF CORUNNA POLICE DEPARTMENT,CITY OF CORUNNA POLICE DEPARTMENT AND CITY HALL,402 N. SHIAWASSEE ST.,CORUNNA,MI,48817,"http://maps.google.com/maps?q=402 N. SHIAWASSEE ST.,+CORUNNA,+MI+48817&hl=en"
CITY OF OXFORD,"TALLAWANDA HIGH SCHOOL 
												
													IN FRONT OF SCHOOL",5301 UNIVERSITY PARK BLVD,OXFORD,OH,45056,"http://maps.google.com/maps?q=5301 UNIVERSITY PARK BLVD,+OXFORD,+OH+45056&hl=en"
"CITY OF SANDWICH, ILL POLICE DEPARTMENT",SANDWICH POLICE DEPARTMENT,308 EAST COLLEGE ST,SANDWICH,IL,60548,"http://maps.google.com/maps?q=308 EAST COLLEGE ST,+SANDWICH,+IL+60548&hl=en"
CMHSAS OF ST. JOSEPH COUNTY,ST. JOSEPH COUNTY SHERIFF'S OFFICE,650 EAST MAIN STREET,CENTREVILLE,MI,49032,"http://maps.google.com/maps?q=650 EAST MAIN STREET,+CENTREVILLE,+MI+49032&hl=en"
CONSTANTINE POLICE DEPARTMENT,CONSTANTINE POLICE DEPARTMENT,115 WHITE PIGEON STREET,CONSTANTINE,MI,49042,"http://maps.google.com/maps?q=115 WHITE PIGEON STREET,+CONSTANTINE,+MI+49042&hl=en"
CRAWFORDSVILLE POLICE DEPT.,MONTGOMERY COUNTY HEALTH DEPARTMENT,110 W. SOUTH BOULEVARD,CRAWFORDSVILLE,IN,47933,"http://maps.google.com/maps?q=110 W. SOUTH BOULEVARD,+CRAWFORDSVILLE,+IN+47933&hl=en"
CROWN POINT POLICE DEPARTMENT,"CROWN POINT POLICE DEPARTMENT 
												
													DROP BOX",124 NORTH EAST STREET,CROWN POINT,IN,46307,"http://maps.google.com/maps?q=124 NORTH EAST STREET,+CROWN POINT,+IN+46307&hl=en"
CRYSTAL LAKE POLICE DEPARTMENT,CRYSTAL LAKE POLICE DEPARTMENT,100 W WOODSTOCK STREET,CRYSTAL LAKE,IL,60014,"http://maps.google.com/maps?q=100 W WOODSTOCK STREET,+CRYSTAL LAKE,+IL+60014&hl=en"
DARKE COUNTY SHERIFF'S OFFICE,FAMILY HEALTH BUILDING,5735 MEEKER ROAD,GREENVILLE,OH,45331,"http://maps.google.com/maps?q=5735 MEEKER ROAD,+GREENVILLE,+OH+45331&hl=en"
DAYTON POLICE DEPARTMENT,DAYTON POLICE DEPARTMENT 3RD DISTRICT OFFICE,951 WASHINGTON STREET,DAYTON,OH,45402,"http://maps.google.com/maps?q=951 WASHINGTON STREET,+DAYTON,+OH+45402&hl=en"
DAYTON POLICE DEPARTMENT,DAYTON POLICE DEPARTMENT 5TH DISTRICT OFFICE,248 SALEM AVENUE,DAYTON,OH,45406,"http://maps.google.com/maps?q=248 SALEM AVENUE,+DAYTON,+OH+45406&hl=en"
DEA / ST. VINCENT HOSPITAL,"ST. VINCENT HOSPITAL 
												
													FRONT ENTRANCE - DOOR 1",2001 W 86TH ST,INDIANAPOLIS,IN,46260,"http://maps.google.com/maps?q=2001 W 86TH ST,+INDIANAPOLIS,+IN+46260&hl=en"
DECATUR POLICE DEPARTMENT,DECATUR POLICE DEPARTMENT,112 SOUTH 7TH STREET,DECATUR,IN,46733,"http://maps.google.com/maps?q=112 SOUTH 7TH STREET,+DECATUR,+IN+46733&hl=en"
DEFIANCE COUNTY SHERIFF'S OFFICE,DEFIANCE COUNTY SHERIFF'S OFFICE,113 BIEDE AVE,DEFIANCE,OH,43512,"http://maps.google.com/maps?q=113 BIEDE AVE,+DEFIANCE,+OH+43512&hl=en"
DELTA POLICE DEPARTMENT,DELTA MEMORIAL HALL,401 MAIN STREET,DELTA,OH,43515,"http://maps.google.com/maps?q=401 MAIN STREET,+DELTA,+OH+43515&hl=en"
DES PLAINES POLICE DEPARTMENT,"DES PLAINES POLICE DEPARTMENT 
												
													FRONT LOBBY",1418 MINER ST.,DES PLAINES,IL,60016,"http://maps.google.com/maps?q=1418 MINER ST.,+DES PLAINES,+IL+60016&hl=en"
EAST GRAND RAPIDS PUBLIC SAFETY,"EAST GRAND RAPIDS PUBLIC SAFETY 
												
													MAIN ENTRANCE",770 LAKESIDE DRIVE SE,GRAND RAPIDS,MI,49506,"http://maps.google.com/maps?q=770 LAKESIDE DRIVE SE,+GRAND RAPIDS,+MI+49506&hl=en"
EDGEWOOD POLICE DEPARTMENT,EDGEWOOD POLICE DEPARTMENT,3405 NICHOL AVE,ANDERSON,IN,46011,"http://maps.google.com/maps?q=3405 NICHOL AVE,+ANDERSON,+IN+46011&hl=en"
ELK GROVE VILLAGE POLICE DEPARTMENT,ELK GROVE VIILAGE POLICE DEPARTMENT,901 WELLINGTON AVE,ELK GROVE VILLAGE,IL,60007,"http://maps.google.com/maps?q=901 WELLINGTON AVE,+ELK GROVE VILLAGE,+IL+60007&hl=en"
ELMHURST POLICE DEPARTMENT,ELMHURST POLICE @ ELMHURST COLLEGE,190 S. PROSPECT125 E. FIRST,ELMHURST,IL,60126,"http://maps.google.com/maps?q=190 S. PROSPECT,+ELMHURST,+IL+60126&hl=en"
ELMWOOD PARK POLICE DEPARTMENT,ELMWOOD PARK PUBLIC SAFETY BUILDING,7420 W. FULLERTON AVENUE,ELMWOOD PARK,IL,60707,"http://maps.google.com/maps?q=7420 W. FULLERTON AVENUE,+ELMWOOD PARK,+IL+60707&hl=en"
ENGLEWOOD POLICE DEPARTMENT,ENGLEWOOD GOVERNMENT CENTER,333 W NATIONAL ROAD,ENGLEWOOD,OH,45322,"http://maps.google.com/maps?q=333 W NATIONAL ROAD,+ENGLEWOOD,+OH+45322&hl=en"
EVANSTON POLICE DEPARTMENT,EVANSTON POLICE DEPARTMENT,1454 ELMWOOD AVE.,EVANSTON,IL,60201,"http://maps.google.com/maps?q=1454 ELMWOOD AVE.,+EVANSTON,+IL+60201&hl=en"
EVERGREEN PARK POLICE DEPARTMENT,EVERGREEN PARK POLICE DEPARMENT,9420 S KEDZIE AVE,EVERGREEN PARK,IL,60805,"http://maps.google.com/maps?q=9420 S KEDZIE AVE,+EVERGREEN PARK,+IL+60805&hl=en"
FENTON CITY POLICE DEPARTMENT,FENTON CITY POLICE DEPARTMENT,311 S. LEROY STREET,FENTON,MI,48430,"http://maps.google.com/maps?q=311 S. LEROY STREET,+FENTON,+MI+48430&hl=en"
FISHERS POLICE DEPARTMENT,"FISHERS POLICE DEPARTMENT 
												
													DROP BOX",4 MUNICIPAL DRIVE,FISHERS,IN,46038,"http://maps.google.com/maps?q=4 MUNICIPAL DRIVE,+FISHERS,+IN+46038&hl=en"
FISHERS POLICE DEPARTMENT,"KROGER 
												
													NAT TAKE BACK DAY 4/28/2018",11700 OILO ROAD,FISHERS,IN,46037,"http://maps.google.com/maps?q=11700 OILO ROAD,+FISHERS,+IN+46037&hl=en"
FLUSHING POLICE DEPARTMENT,FLUSHING POLICE DEPARTMENT,725 E MAIN STREET,FLUSHING,MI,48433,"http://maps.google.com/maps?q=725 E MAIN STREET,+FLUSHING,+MI+48433&hl=en"
FORT WAYNE POLICE DEPARTMENT,KROGER PHARMACY,6002 ST. JOE CENTER ROAD,FORT WAYNE,IN,46835,"http://maps.google.com/maps?q=6002 ST. JOE CENTER ROAD,+FORT WAYNE,+IN+46835&hl=en"
FREMONT POLICE DEPARTMENT,FREMONT POLICE DEPARTMENT,1141 W. STATE ST.,FREMONT,OH,43420,"http://maps.google.com/maps?q=1141 W. STATE ST.,+FREMONT,+OH+43420&hl=en"
FULTON COUNTY SHERIFF'S OFFICE,"FULTON COUNTY JAIL 
												
													DROP BOX",815 MADISON STREET,ROCHESTER,IN,46975,"http://maps.google.com/maps?q=815 MADISON STREET,+ROCHESTER,+IN+46975&hl=en"
FULTON COUNTY SHERIFF'S OFFICE,FULTON COUNTY SHERIFF'S OFFICE,129 COURTHOUSE PLAZA,WAUSEON,OH,43567,"http://maps.google.com/maps?q=129 COURTHOUSE PLAZA,+WAUSEON,+OH+43567&hl=en"
FULTON COUNTY SHERIFF'S OFFICE,METAMORA FIRE DEPARTMENT,266 MAPLE STREET,METAMORA,OH,43540,"http://maps.google.com/maps?q=266 MAPLE STREET,+METAMORA,+OH+43540&hl=en"
GIBSONBURG POLICE DEPARTMENT,GIBSONBURG POLICE DEPARTMENT,214 W. MADISON ST,GIBSONBURG,OH,43431,"http://maps.google.com/maps?q=214 W. MADISON ST,+GIBSONBURG,+OH+43431&hl=en"
GLENVIEW P.D.,"GLENVIEW P.D. 
												
													EAST PARKING LOT",2500 EAST LAKE AVE.,GLENVIEW,IL,60026,"http://maps.google.com/maps?q=2500 EAST LAKE AVE.,+GLENVIEW,+IL+60026&hl=en"
GRAND LEDGE POLICE DEPARTMENT,GRAND LEDGE POLICE DEPARTMENT,310 GREENWOOD,GRAND LEDGE,MI,48837,"http://maps.google.com/maps?q=310 GREENWOOD,+GRAND LEDGE,+MI+48837&hl=en"
GRAND RAPIDS POLICE DEPARTMENT,GRAND RAPIDS POLICE DEPARTMENT,1 MONROE CENTER NORTHWEST,GRAND RAPIDS,MI,49503,"http://maps.google.com/maps?q=1 MONROE CENTER NORTHWEST,+GRAND RAPIDS,+MI+49503&hl=en"
GRAND RAPIDS POLICE DEPARTMENT,WIDDICOMB BUILDING,665 SEWARD AVE NW,GRAND RAPIDS,MI,49504,"http://maps.google.com/maps?q=665 SEWARD AVE NW,+GRAND RAPIDS,+MI+49504&hl=en"
GREENCASTLE POLICE DEPARTMENT,"CLOVERDALE HIGH SCHOOL 
												
													9 AM TO NOON",205 E. MARKET ST.ATTN: MARSHAL STEVE HIBLER,CLOVERDALE,IN,46120,"http://maps.google.com/maps?q=205 E. MARKET ST.,+CLOVERDALE,+IN+46120&hl=en"
GREENCASTLE POLICE DEPARTMENT,"GREENCASTLE HIGH SCHOOL 
												
													9 AM TO NOON",910 E. WASHINGTON ST.,GREENCASTLE,IN,46135,"http://maps.google.com/maps?q=910 E. WASHINGTON ST.,+GREENCASTLE,+IN+46135&hl=en"
GREENCASTLE POLICE DEPARTMENT,"NORTH PUTNAM HIGH SCHOOL 
												
													ATTN: MARSHAL MIKE MAHOY",8869 N. CR 250 E.9 AM TO NOON,ROACHDALE,IN,46172,"http://maps.google.com/maps?q=8869 N. CR 250 E.,+ROACHDALE,+IN+46172&hl=en"
GREENCASTLE POLICE DEPARTMENT,"SOUTH PUTNAM HIGH SCHOOL 
												
													ATTN: CORPORAL JERROD BAUGH",1780 E. US HWY 409 AM TO NOON,GREENCASTLE,IN,46135,"http://maps.google.com/maps?q=1780 E. US HWY 40,+GREENCASTLE,+IN+46135&hl=en"
GRIFFITH POLICE DEPARTMENT,"GRIFFITH POLICE DEPARTMENT 
												
													DROP BOX",115 NORTH BROAD STREET,GRIFFITH,IN,46319,"http://maps.google.com/maps?q=115 NORTH BROAD STREET,+GRIFFITH,+IN+46319&hl=en"
GUN LAKE TRIBE PUBLIC SAFETY DEPARTMENT,GUN LAKE TRIBE PUBLIC SAFETY,2869 MNO BMADZEWEN DR.,SHELBYVILLE,MI,49344,"http://maps.google.com/maps?q=2869 MNO BMADZEWEN DR.,+SHELBYVILLE,+MI+49344&hl=en"
HAMMOND POLICE DEPARTMENT,HAMMOND POLICE DEPARTMENT,509 DOUGLAS STREET,HAMMOND,IN,46320,"http://maps.google.com/maps?q=509 DOUGLAS STREET,+HAMMOND,+IN+46320&hl=en"
HARDIN COUNTY SHERIFF'S OFFICE,"ADA 
												
													OHIO NORTHERN PARKING LOT",S. MAIN ST. @E. COLLEGE AVE.,ADA,OH,45810,"http://maps.google.com/maps?q=S. MAIN ST. @,+ADA,+OH+45810&hl=en"
HARDIN COUNTY SHERIFF'S OFFICE,"FOREST POLICE DEPT. 
												
													MUNICIPAL BUILDING; REAR",211 W. LIMA ST.,FOREST,OH,45843,"http://maps.google.com/maps?q=211 W. LIMA ST.,+FOREST,+OH+45843&hl=en"
HARDIN COUNTY SHERIFF'S OFFICE,"HARDIN MEMORIAL HOSPITAL 
												
													NORTH PARKING AREA/MEDICAL OFFICE BUILDING",75 WASHINGTON BLVD @MEMORIAL AVE.,KENTON,OH,43326,"http://maps.google.com/maps?q=75 WASHINGTON BLVD @,+KENTON,+OH+43326&hl=en"
HASTINGS CITY POLICE DEPARTMENT,HASTINGS WALGREENS,126 NORTH BROADWAY,HASTINGS,MI,49058,"http://maps.google.com/maps?q=126 NORTH BROADWAY,+HASTINGS,+MI+49058&hl=en"
HEBRON POLICE DEPARTMENT,"HEBRON POLICE DEPARTMENT 
												
													DROP BOX",611 NORTH MAIN STREET,HEBRON,IN,46341,"http://maps.google.com/maps?q=611 NORTH MAIN STREET,+HEBRON,+IN+46341&hl=en"
HENRY COUNTY SHERIFF'S OFFICE,HENRY COUNTY SHERIFF'S OFFICE,123 E WASHINGTON,NAPOLEON,OH,43545,"http://maps.google.com/maps?q=123 E WASHINGTON,+NAPOLEON,+OH+43545&hl=en"
HIGHLAND POLICE DEPARTMENT,"HIGHLAND POLICE DEPARTMENT 
												
													DROP BOX",3315 RIDGE RD.,HIGHLAND,IN,46322,"http://maps.google.com/maps?q=3315 RIDGE RD.,+HIGHLAND,+IN+46322&hl=en"
HOBART POLICE DEPARTMENT,"HOBART POLICE DEPARTMENT 
												
													DROP BOX M-F 8-5",705 EAST FOURTH STREET,HOBART,IN,46342,"http://maps.google.com/maps?q=705 EAST FOURTH STREET,+HOBART,+IN+46342&hl=en"
HOLLAND DEPARTMENT OF PUBLIC SAFETY,HOLLAND DEPARTMENT OF PUBLIC SAFETY,89 W 8TH STREET,HOLLAND,MI,49423,"http://maps.google.com/maps?q=89 W 8TH STREET,+HOLLAND,+MI+49423&hl=en"
HOLLAND POLICE DEPARTMENT,HOLLAND POLICE DEPARTMENT,1245 CLARION AVENUE,HOLLAND,OH,43528,"http://maps.google.com/maps?q=1245 CLARION AVENUE,+HOLLAND,+OH+43528&hl=en"
HUBER HEIGHTS POLICE DEPARTMENT,HUBER HEIGHTS POLICE DEPARTMENT,6121 TAYLORSVILLE ROAD,DAYTON,OH,45424,"http://maps.google.com/maps?q=6121 TAYLORSVILLE ROAD,+DAYTON,+OH+45424&hl=en"
HUNTLEY POLICE DEPARTMENT,HUNTLEY POLICE DEPARTMENT,10911 MAIN STREET,HUNTLEY,IL,60142,"http://maps.google.com/maps?q=10911 MAIN STREET,+HUNTLEY,+IL+60142&hl=en"
INDIANA BOARD OF PHARMACY,"COMMUNITY CANCER CENTER NORTH 
												
													COMMUNITY HOSPITAL POLICE/SECURITY",7979 SHADELAND AVE,INDIANAPOLIS,IN,46256,"http://maps.google.com/maps?q=7979 SHADELAND AVE,+INDIANAPOLIS,+IN+46256&hl=en"
INDIANA BOARD OF PHARMACY,"COMMUNITY CANCER CENTER SOUTH 
												
													COMMUNITY HOSPITAL POLICE/SECURITY",1440 E COUNTY LINE RD.,INDIANAPOLIS,IN,46227,"http://maps.google.com/maps?q=1440 E COUNTY LINE RD.,+INDIANAPOLIS,+IN+46227&hl=en"
INDIANA BOARD OF PHARMACY,"IU-NORTHWEST 
												
													IU CAMPUS POLICE",3400 BROADWAY,GARY,IN,46408,"http://maps.google.com/maps?q=3400 BROADWAY,+GARY,+IN+46408&hl=en"
INDIANA BOARD OF PHARMACY,"PARKVIEW WHITLEY HOSPITAL 
												
													WHITLEY COUNTY SHERIFF DEPARTMENT",1260 EAST STATE ROUTE 205DROP-OFF WILL BE LOCATED IN HOSPITAL PARKING LOT,COLUMBIA CITY,IN,46725,"http://maps.google.com/maps?q=1260 EAST STATE ROUTE 205,+COLUMBIA CITY,+IN+46725&hl=en"
INDIANA BOARD OF PHARMACY,"SAM'S CLUB 
												
													JOHNSON COUNTY SHERIFF DEPARTMENT",1101 WINDHORST WAY,GREENWOOD,IN,46143,"http://maps.google.com/maps?q=1101 WINDHORST WAY,+GREENWOOD,+IN+46143&hl=en"
INDIANA BOARD OF PHARMACY,"WALMART 
												
													MARION COUNTY SHERIFF DEPT",3221 W. 86TH ST,INDIANAPOLIS,IN,46268,"http://maps.google.com/maps?q=3221 W. 86TH ST,+INDIANAPOLIS,+IN+46268&hl=en"
INDIANA STATE POLICE,INDIANA STATE POLICE,1550 E. 181ST AVENUE,LOWELL,IN,46356,"http://maps.google.com/maps?q=1550 E. 181ST AVENUE,+LOWELL,+IN+46356&hl=en"
INDIANA STATE POLICE,"INDIANA STATE POLICE 
												
													DISTRICT 14",5921 SR 43 NORTH,WEST LAFAYETTE,IN,47906,"http://maps.google.com/maps?q=5921 SR 43 NORTH,+WEST LAFAYETTE,+IN+47906&hl=en"
INDIANA STATE POLICE,"INDIANA STATE POLICE 
												
													DISTRICT 16",145 N. EEL RIVER CEMETERY RD.,PERU,IN,46970,"http://maps.google.com/maps?q=145 N. EEL RIVER CEMETERY RD.,+PERU,+IN+46970&hl=en"
INDIANA STATE POLICE,"INDIANA STATE POLICE 
												
													DISTRICT 22",5811 ELLISON ROAD,FORT WAYNE,IN,46804,"http://maps.google.com/maps?q=5811 ELLISON ROAD,+FORT WAYNE,+IN+46804&hl=en"
INDIANA STATE POLICE,"INDIANA STATE POLICE 
												
													DISTRICT 24",1425 MIAMI TRAIL,BREMEN,IN,46506,"http://maps.google.com/maps?q=1425 MIAMI TRAIL,+BREMEN,+IN+46506&hl=en"
INDIANA STATE POLICE,"INDIANA STATE POLICE 
												
													DISTRICT 51",9022 SOUTH SR 67,PENDLETON,IN,46064,"http://maps.google.com/maps?q=9022 SOUTH SR 67,+PENDLETON,+IN+46064&hl=en"
INDIANA STATE POLICE,"INDIANA STATE POLICE 
												
													DISTRICT 52",8620 E. 21ST STREET,INDIANAPOLIS,IN,46219,"http://maps.google.com/maps?q=8620 E. 21ST STREET,+INDIANAPOLIS,+IN+46219&hl=en"
INDIANA STATE POLICE,"INDIANA STATE POLICE 
												
													DISTRICT 53",1927 WEST US 40,GREENCASTLE,IN,46135,"http://maps.google.com/maps?q=1927 WEST US 40,+GREENCASTLE,+IN+46135&hl=en"
INDIANA STATE POLICE,"INDIANA STATE POLICE 
												
													DISTRICT13",1550 E. 181ST STREET,LOWELL,IN,46356,"http://maps.google.com/maps?q=1550 E. 181ST STREET,+LOWELL,+IN+46356&hl=en"
INDIANAPOLIS FIRE DEPARTMENT,IFD FIRE STATION 1,1903 W 10TH ST,INDIANAPOLIS,IN,46222,"http://maps.google.com/maps?q=1903 W 10TH ST,+INDIANAPOLIS,+IN+46222&hl=en"
INDIANAPOLIS FIRE DEPARTMENT,IFD FIRE STATION 2,4120 MITTHOEFFER RD,INDIANAPOLIS,IN,46235,"http://maps.google.com/maps?q=4120 MITTHOEFFER RD,+INDIANAPOLIS,+IN+46235&hl=en"
INDIANAPOLIS FIRE DEPARTMENT,IFD FIRE STATION 23,1108 E THOMPSON RD,INDIANAPOLIS,IN,46227,"http://maps.google.com/maps?q=1108 E THOMPSON RD,+INDIANAPOLIS,+IN+46227&hl=en"
INDIANAPOLIS FIRE DEPARTMENT,IFD FIRE STATION 27,2918 E 10TH ST,INDIANAPOLIS,IN,46201,"http://maps.google.com/maps?q=2918 E 10TH ST,+INDIANAPOLIS,+IN+46201&hl=en"
INDIANAPOLIS FIRE DEPARTMENT,IFD FIRE STATION 4,8404 N DITCH RD,INDIANAPOLIS,IN,46260,"http://maps.google.com/maps?q=8404 N DITCH RD,+INDIANAPOLIS,+IN+46260&hl=en"
INGALLS POLICE DEPARTMENT,INGALLS POLICE DEPARTMENT,247 N MERIDIAN ST,INGALLS,IN,46048,"http://maps.google.com/maps?q=247 N MERIDIAN ST,+INGALLS,+IN+46048&hl=en"
IROQUOIS COUNTY SHERIFF'S DEPARTMENT,IROQUOIS COUNTY JAIL (WEST DOOR),550 S 10TH ST.,WATSEKA,IL,60970,"http://maps.google.com/maps?q=550 S 10TH ST.,+WATSEKA,+IL+60970&hl=en"
JOHNSBURG POLICE DEPARTMENT,JOHNSBURG POLICE DEPARTMENT,3600 CHAPEL HILL ROAD,MCHENRY,IL,60051,"http://maps.google.com/maps?q=3600 CHAPEL HILL ROAD,+MCHENRY,+IL+60051&hl=en"
JOHNSBURG POLICE DEPARTMENT,"JOHNSBURG POLICE DEPARTMENT 
												
													PUBLIC SAFETY BUILDING",3611 CHAPEL HILL ROADATTN: JOHNSBURG POLICE DEPARTMENT,JOHNSBURG,IL,60051,"http://maps.google.com/maps?q=3611 CHAPEL HILL ROAD,+JOHNSBURG,+IL+60051&hl=en"
KANE COUNTY CORONER OFFICE,KANE COUNTY CORONER OFFICE,719 S. BATAVIA AVE.BUILDING E,GENEVA,IL,60134,"http://maps.google.com/maps?q=719 S. BATAVIA AVE.,+GENEVA,+IL+60134&hl=en"
KANE COUNTY SHERIFF'S OFFICE,KANE COUNTY SHERIFF'S OFFICE,37W755 IL ROUTE 38,SAINT CHARLES,IL,60175,"http://maps.google.com/maps?q=37W755 IL ROUTE 38,+SAINT CHARLES,+IL+60175&hl=en"
KANKAKEE AREA METROPOLITAN ENFORCEMENT GROUP,NORTHFIELD SQUARE MALL,1600 N STATE RT. 50,BRADLEY,IL,60915,"http://maps.google.com/maps?q=1600 N STATE RT. 50,+BRADLEY,+IL+60915&hl=en"
KENOSHA COUNTY SHERIFF'S OFFICE,"KENOSHA COUNTY SHERIFF'S OFFICE 
												
													DROP BOX ONLY 24/7",1000 55TH ST,KENOSHA,WI,53140,"http://maps.google.com/maps?q=1000 55TH ST,+KENOSHA,+WI+53140&hl=en"
KENTWOOD POLICE DEPARTMENT,KENTWOOD POLICE DEPARTMENT,4742 WALMA AVENUE SE,GRAND RAPIDS,MI,49512,"http://maps.google.com/maps?q=4742 WALMA AVENUE SE,+GRAND RAPIDS,+MI+49512&hl=en"
KROGER SPEEDWAY,KROGER SPEEDWAY,5718 CRAWFORDSVILLE ROAD,INDIANAPOLIS,IN,46224,"http://maps.google.com/maps?q=5718 CRAWFORDSVILLE ROAD,+INDIANAPOLIS,+IN+46224&hl=en"
LA GRANGE POLICE DEPARTMENT,LA GRANGE POLICE DEPARTMENT,304 W BURLINGTONLA GRANGE,LA GRANGE,IL,60525,"http://maps.google.com/maps?q=304 W BURLINGTON,+LA GRANGE,+IL+60525&hl=en"
LAFAYETTE POLICE DEPARTMENT,LAFAYETTE POLICE TRAINING CENTER,1301 SOUTH STREET,LAFAYETTE,IN,47901,"http://maps.google.com/maps?q=1301 SOUTH STREET,+LAFAYETTE,+IN+47901&hl=en"
LAGRANGE PARK POLICE,LAGRANGE PARK POLICE,447 N. CATHERINE,LA GRANGE PARK,IL,60526,"http://maps.google.com/maps?q=447 N. CATHERINE,+LA GRANGE PARK,+IL+60526&hl=en"
LAKE COUNTY SHERIFF OFFICE,LONG GROVE FIRE DEPT,1165 OLD MCHENRY RD,LAKE ZURICH,IL,60047,"http://maps.google.com/maps?q=1165 OLD MCHENRY RD,+LAKE ZURICH,+IL+60047&hl=en"
LAKE COUNTY SHERIFF OFFICE,SAINT PETER CHURCH,27551 VOLO VILLAGE RD,ROUND LAKE,IL,60073,"http://maps.google.com/maps?q=27551 VOLO VILLAGE RD,+ROUND LAKE,+IL+60073&hl=en"
LAKE COUNTY SHERIFF OFFICE,VILLAGE OF BEACH PARK,11270 W. WADSORTH RD,ZION,IL,60099,"http://maps.google.com/maps?q=11270 W. WADSORTH RD,+ZION,+IL+60099&hl=en"
LAKE COUNTY SHERIFF'S DEPARTMENT,"LAKE COUNTY SHERIFF'S DEPARTMENT 
												
													BUILDING C, MAIN LOBBY",2293 NORTH MAIN STREET,CROWN POINT,IN,46307,"http://maps.google.com/maps?q=2293 NORTH MAIN STREET,+CROWN POINT,+IN+46307&hl=en"
LAKE FOREST POLICE DEPARTMENT,LAKE FOREST POLICE DEPARTMENT,255 W DEERPATH,LAKE FOREST,IL,60045,"http://maps.google.com/maps?q=255 W DEERPATH,+LAKE FOREST,+IL+60045&hl=en"
LAKE ZURICH POLICE DEPARTMENT,LAKE ZURICH POLICE DEPARTMENT,200 MOHAWK TRAIL,LAKE ZURICH,IL,60047,"http://maps.google.com/maps?q=200 MOHAWK TRAIL,+LAKE ZURICH,+IL+60047&hl=en"
LAKEWOOD POLICE DEPARTMENT,LAKEWOOD POLICE DEPARTMENT,2500 LAKE AVENUE,CRYSTAL LAKE,IL,60014,"http://maps.google.com/maps?q=2500 LAKE AVENUE,+CRYSTAL LAKE,+IL+60014&hl=en"
LANSING POLICE DEPARTMENT,LANSING POLICE DEPARTMENT,2710 170TH ST.,LANSING,IL,60438,"http://maps.google.com/maps?q=2710 170TH ST.,+LANSING,+IL+60438&hl=en"
LASALLE COUNTY CORONER & SHERIFF,"LASALLE COUNTY CORONER & SHERIFF 
												
													CHIEF DEPUTY RICH PLOCH",707 EAST ETNA ROAD,OTTAWA,IL,61350,"http://maps.google.com/maps?q=707 EAST ETNA ROAD,+OTTAWA,+IL+61350&hl=en"
LEMONT POLICE,LEMONT POLICE DEPARTMENT,14600 W. 127TH STREET,LEMONT,IL,60439,"http://maps.google.com/maps?q=14600 W. 127TH STREET,+LEMONT,+IL+60439&hl=en"
LENAWEE COUNTY SHERIFF'S OFFICE,PROMEDICA BIXBY HOSPITAL,818 RIVERSIDE AVE,ADRIAN,MI,49221,"http://maps.google.com/maps?q=818 RIVERSIDE AVE,+ADRIAN,+MI+49221&hl=en"
LOWELL POLICE DEPARTMENT,LOWELL POLICE DEPARTMENT,111 N MONROE,LOWELL,MI,49331,"http://maps.google.com/maps?q=111 N MONROE,+LOWELL,+MI+49331&hl=en"
LOWELL POLICE DEPARTMENT,"LOWELL POLICE DEPARTMENT 
												
													DROP BOX",1333 COMMERCIAL AVENUE,LOWELL,IN,46356,"http://maps.google.com/maps?q=1333 COMMERCIAL AVENUE,+LOWELL,+IN+46356&hl=en"
LUCAS COUNTY SHERIFF'S OFFICE,KROGER,8730 WATERVILLE SWANTON ROAD,WATERVILLE,OH,43566,"http://maps.google.com/maps?q=8730 WATERVILLE SWANTON ROAD,+WATERVILLE,+OH+43566&hl=en"
LUCAS COUNTY SHERIFF'S OFFICE,LUCAS COUNTY HEALTH DEPARTMENT,635 NORTH ERIE STREET,TOLEDO,OH,43604,"http://maps.google.com/maps?q=635 NORTH ERIE STREET,+TOLEDO,+OH+43604&hl=en"
LUCAS COUNTY SHERIFF'S OFFICE,MONCLOVA TOWNSHIP FIRE DEPARTMENT,4395 ALBON ROAD,MONCLOVA,OH,43542,"http://maps.google.com/maps?q=4395 ALBON ROAD,+MONCLOVA,+OH+43542&hl=en"
LUCAS COUNTY SHERIFF'S OFFICE,SPRINGFIELD TOWNSHIP FIRE STATION #3,7145 GARDEN ROAD,MAUMEE,OH,43537,"http://maps.google.com/maps?q=7145 GARDEN ROAD,+MAUMEE,+OH+43537&hl=en"
LUCAS COUNTY SHERIFF'S OFFICE,VILLAGE OF WHITEHOUSE FIRE DEPARTMENT,10550 WATERVILLE STREET,WHITEHOUSE,OH,43571,"http://maps.google.com/maps?q=10550 WATERVILLE STREET,+WHITEHOUSE,+OH+43571&hl=en"
LUCAS COUNTY SHERIFF'S OFFICE,WASHINGTON TWP FIRE DEPARTMENT,2469 SHORELAND DRIVE,TOLEDO,OH,43611,"http://maps.google.com/maps?q=2469 SHORELAND DRIVE,+TOLEDO,+OH+43611&hl=en"
MARION COUNTY SHERIFF'S OFFICE,"MARION COUNTY SHERIFF'S OFFICE 
												
													DROP BOX 24/7",40 S. ALABAMA ST.,INDIANAPOLIS,IN,46204,"http://maps.google.com/maps?q=40 S. ALABAMA ST.,+INDIANAPOLIS,+IN+46204&hl=en"
MARION POLICE DEPARTMENT,"MARION POLICE DEPARTMENT 
												
													ALEX KENWORTHY",301 S. BRANSONMARION,MARION,IN,46952,"http://maps.google.com/maps?q=301 S. BRANSON,+MARION,+IN+46952&hl=en"
MARKLEVILLE POLICE DEPARTMENT,MARKLEVILLE POLICE DEPARTMENT,10 SOUTH STATE ST,MARKLEVILLE,IN,46056,"http://maps.google.com/maps?q=10 SOUTH STATE ST,+MARKLEVILLE,+IN+46056&hl=en"
MARSHALL COUNTY SHERIFF'S DEPARTMENT,WALGREENS PHARMACY,2014 N. MICHIGAN,PLYMOUTH,IN,46563,"http://maps.google.com/maps?q=2014 N. MICHIGAN,+PLYMOUTH,+IN+46563&hl=en"
MAUMEE POLICE DIVISION,MAUMEE POLICE DIVISION,109 EAST DUDLEY ST,MAUMEE,OH,43537,"http://maps.google.com/maps?q=109 EAST DUDLEY ST,+MAUMEE,+OH+43537&hl=en"
MAUMEE POLICE DIVISION,"ST LUKES HOSPITAL 
												
													ENTRANCE YELLOW 3",5901 MONCLOVA,MAUMEE,OH,43537,"http://maps.google.com/maps?q=5901 MONCLOVA,+MAUMEE,+OH+43537&hl=en"
MERCER COUNTY SHERIFF'S OFFICE,"CELINA POLICE DEPARTMENT 
												
													PARKING LOT",225 NORTH MAIN STREET,CELINA,OH,45822,"http://maps.google.com/maps?q=225 NORTH MAIN STREET,+CELINA,+OH+45822&hl=en"
METRICH DRUG TASK FORCE,FOSTORIA POLICE DEPARTMENT,213 S. MAIN ST.,FOSTORIA,OH,44830,"http://maps.google.com/maps?q=213 S. MAIN ST.,+FOSTORIA,+OH+44830&hl=en"
METRICH DRUG TASK FORCE,HANCOCK CO. SHERIFF'S OFFICE,200 W. CRAWFORD ST.,FINDLAY,OH,45840,"http://maps.google.com/maps?q=200 W. CRAWFORD ST.,+FINDLAY,+OH+45840&hl=en"
METROPOLITAN WATER RECLAMATION POLICE,METRO WATER RECLAMATION POLICE,3500 HOWARD ST,SKOKIE,IL,60076,"http://maps.google.com/maps?q=3500 HOWARD ST,+SKOKIE,+IL+60076&hl=en"
METROPOLITAN WATER RECLAMATION POLICE,METRO WATER RECLAMATION POLICE,400 E. 130TH ST,CHICAGO,IL,60628,"http://maps.google.com/maps?q=400 E. 130TH ST,+CHICAGO,+IL+60628&hl=en"
METROPOLITAN WATER RECLAMATION POLICE,METRO WATER RECLAMATION POLICE,6001 W. PERSHING RD,CICERO,IL,60804,"http://maps.google.com/maps?q=6001 W. PERSHING RD,+CICERO,+IL+60804&hl=en"
MIAMI COUNTY SHERIFF'S OFFICE,MIAMI COUNTY TRANSFER STATION,2500 N COUNTY ROAD 25A,TROY,OH,45373,"http://maps.google.com/maps?q=2500 N COUNTY ROAD 25A,+TROY,+OH+45373&hl=en"
MICHIGAN STATE POLICE,MICHIGAN STATE POLICE BRIGHTON POST,4337 BUNO ROAD,BRIGHTON,MI,48114,"http://maps.google.com/maps?q=4337 BUNO ROAD,+BRIGHTON,+MI+48114&hl=en"
MICHIGAN STATE POLICE,MICHIGAN STATE POLICE FLINT POST,G-4481 CORUNNA ROAD,FLINT,MI,48532,"http://maps.google.com/maps?q=G-4481 CORUNNA ROAD,+FLINT,+MI+48532&hl=en"
MICHIGAN STATE POLICE,MICHIGAN STATE POLICE JACKSON POST,3401 COOPER STREET,JACKSON,MI,49201,"http://maps.google.com/maps?q=3401 COOPER STREET,+JACKSON,+MI+49201&hl=en"
MICHIGAN STATE POLICE,MICHIGAN STATE POLICE LANSING POST,7119 NORTH CANAL ROAD,LANSING,MI,48913,"http://maps.google.com/maps?q=7119 NORTH CANAL ROAD,+LANSING,+MI+48913&hl=en"
MICHIGAN STATE POLICE,"MICHIGAN STATE POLICE MARSHALL POST 
												
													(MOVED FROM COLDWATER)",714 US HIGHWAY 27N,MARSHALL,MI,49068,"http://maps.google.com/maps?q=714 US HIGHWAY 27N,+MARSHALL,+MI+49068&hl=en"
MICHIGAN STATE POLICE,MICHIGAN STATE POLICE MONROE POST,300 JONES AVENUE,MONROE,MI,48161,"http://maps.google.com/maps?q=300 JONES AVENUE,+MONROE,+MI+48161&hl=en"
MICHIGAN STATE POLICE,MICHIGAN STATE POLICE NILES POST,1600 SILVERBROOK AVENUE,NILES,MI,49120,"http://maps.google.com/maps?q=1600 SILVERBROOK AVENUE,+NILES,+MI+49120&hl=en"
MICHIGAN STATE POLICE,MICHIGAN STATE POLICE PAW PAW POST,43255 60TH AVENUE,PAW PAW,MI,49079,"http://maps.google.com/maps?q=43255 60TH AVENUE,+PAW PAW,+MI+49079&hl=en"
MICHIGAN STATE POLICE,MICHIGAN STATE POLICE ROCKFORD POST,345 NORTHLAND DRIVE NE,ROCKFORD,MI,49341,"http://maps.google.com/maps?q=345 NORTHLAND DRIVE NE,+ROCKFORD,+MI+49341&hl=en"
MICHIGAN STATE POLICE,MICHIGAN STATE POLICE WAYLAND POST,544 NORTH MAIN STREET,WAYLAND,MI,49348,"http://maps.google.com/maps?q=544 NORTH MAIN STREET,+WAYLAND,+MI+49348&hl=en"
MILAN POLICE DEPARTMENT,MILAN POLICE DEPARTMENT,35 NECKEL COURT,MILAN,MI,48160,"http://maps.google.com/maps?q=35 NECKEL COURT,+MILAN,+MI+48160&hl=en"
"MOKENA, ILLINOIS POLICE DEPARTMENT",MOKENA POLICE DEPARMENT,10907 FRONT STREET,MOKENA,IL,60448,"http://maps.google.com/maps?q=10907 FRONT STREET,+MOKENA,+IL+60448&hl=en"
MONTPELIER POLICE DEPARTMENT,MONTPELIER POLICE DEPARTMENT,221 EMPIRE ST.,MONTPELIER,OH,43543,"http://maps.google.com/maps?q=221 EMPIRE ST.,+MONTPELIER,+OH+43543&hl=en"
MOUNT PLEASANT POLICE DEPARTMENT,"MOUNT PLEASANT POLICE DEPARTMENT- MAIN LOBBY 
												
													EVENT 9:00AM-1:00PM",8811 CAMPUS DR,MOUNT PLEASANT,WI,53405,"http://maps.google.com/maps?q=8811 CAMPUS DR,+MOUNT PLEASANT,+WI+53405&hl=en"
MOUNT PROSPECT POLICE DEPARTMENT,POLICE DEPARTMENT LOBBY,112 E. NORTHWEST HWY,MOUNT PROSPECT,IL,60056,"http://maps.google.com/maps?q=112 E. NORTHWEST HWY,+MOUNT PROSPECT,+IL+60056&hl=en"
MUNSTER POLICE DEPARTMENT,"MUNSTER POLICE DEPARTMENT 
												
													DROP BOX",1001 RIDGE RD.,MUNSTER,IN,46321,"http://maps.google.com/maps?q=1001 RIDGE RD.,+MUNSTER,+IN+46321&hl=en"
NAPERVILLE POLICE DEPARTMENT,NAPERVILLE POLICE DEPARTMENT,1350 AURORA AVE,NAPERVILLE,IL,60540,"http://maps.google.com/maps?q=1350 AURORA AVE,+NAPERVILLE,+IL+60540&hl=en"
NAPOLEON POLICE DEPARTMENT,NAPOLEON POLICE DEPARTMENT,310 GLENWOOD AVE,NAPOLEON,OH,43545,"http://maps.google.com/maps?q=310 GLENWOOD AVE,+NAPOLEON,+OH+43545&hl=en"
NAPOLEON POLICE DEPARTMENT,"NAPOLEON POLICE DEPARTMENT 
												
													COLLECTED AT MAN UNIT",401 GREENHOUSE ST,DEFIANCE,OH,43512,"http://maps.google.com/maps?q=401 GREENHOUSE ST,+DEFIANCE,+OH+43512&hl=en"
NORTH RIVERSIDE POLICE DEPARTMENT,NORTH RIVERSIDE POLICE STATION,2359 S. DESPLAINES AVE.,NORTH RIVERSIDE,IL,60546,"http://maps.google.com/maps?q=2359 S. DESPLAINES AVE.,+NORTH RIVERSIDE,+IL+60546&hl=en"
NORTHFIELD POLICE DEPARTMENT,NORTHFIELD POLICE DEPARTMENT,350 WALNUT AVE.,NORTHFIELD,IL,60093,"http://maps.google.com/maps?q=350 WALNUT AVE.,+NORTHFIELD,+IL+60093&hl=en"
OFFICE OF GENESEE COUNTY SHERIFF,"OFFICE OF GENESEE COUNTY SHERIFF 
												
													FENTON SUB-STATION",12060 MANTAWAUKA DRIVEFENTON,FENTON,MI,48430,"http://maps.google.com/maps?q=12060 MANTAWAUKA DRIVE,+FENTON,+MI+48430&hl=en"
ORLAND PARK POLICE DEPARTMENT,ORLAND PARK POLICE DEPARTMENT,15100 RAVINIA AVE,ORLAND PARK,IL,60462,"http://maps.google.com/maps?q=15100 RAVINIA AVE,+ORLAND PARK,+IL+60462&hl=en"
OTTAWA HILLS POLICE DEPARTMENT,OTTAWA HILLS POLICE DEPARTMENT,2125 RICHARDS RD.,OTTAWA HILLS,OH,43606,"http://maps.google.com/maps?q=2125 RICHARDS RD.,+OTTAWA HILLS,+OH+43606&hl=en"
OTTAWA POLICE DEPARTMENT,OTTAWA HEALTH MART PHARMACY,9001ST AVE.,OTTAWA,IL,61350,"http://maps.google.com/maps?q=900,+OTTAWA,+IL+61350&hl=en"
OTTAWA POLICE DEPARTMENT,"OTTAWA POLICE DEPARTMENT 
												
													LOBBY",301W. LAFYETTE ST.,OTTAWA,IL,61350,"http://maps.google.com/maps?q=301,+OTTAWA,+IL+61350&hl=en"
OWOSSO POLICE DEPARTMENT,OWOSSO POLICE DEPARTMENT,202 S WATER STREET,OWOSSO,MI,48867,"http://maps.google.com/maps?q=202 S WATER STREET,+OWOSSO,+MI+48867&hl=en"
PALATINE POLICE DEPARTMENT,PALATINE POLICE DEPARTMENT,595 N. HICKS RD.,PALATINE,IL,60067,"http://maps.google.com/maps?q=595 N. HICKS RD.,+PALATINE,+IL+60067&hl=en"
PAULDING COUNTY SHERIFF'S OFFICE,PAULDING COUNTY SHERIFF'S OFFICE,500 EAST PERRY STREET,PAULDING,OH,45879,"http://maps.google.com/maps?q=500 EAST PERRY STREET,+PAULDING,+OH+45879&hl=en"
PENDLETON POLICE DEPARTMENT,"CVS, PENDLETON",620 E STATE STREET,PENDLETON,IN,46064,"http://maps.google.com/maps?q=620 E STATE STREET,+PENDLETON,+IN+46064&hl=en"
PERRY POLICE DEPARTMENT,PERRY POLICE DEPARTMENT,203 W POLLY ST,PERRY,MI,48872,"http://maps.google.com/maps?q=203 W POLLY ST,+PERRY,+MI+48872&hl=en"
PERRYSBURG TOWNSHIP POLICE DEPARTMENT,PERRYSBURG TOWNSHIP POLICE DEPARTMENT,26711 LIME CITY ROAD,PERRYSBURG,OH,43551,"http://maps.google.com/maps?q=26711 LIME CITY ROAD,+PERRYSBURG,+OH+43551&hl=en"
PIQUA POLICE DEPARTMENT,PIQUA POLICE DEPARTMENT,100 N. WAYNE ST.,PIQUA,OH,45356,"http://maps.google.com/maps?q=100 N. WAYNE ST.,+PIQUA,+OH+45356&hl=en"
PLAINFIELD POLICE DEPARTMENT,THE PLAINFIELD POLICE DEPARTMENT,14300 S. COIL PLUS DRIVE,PLAINFIELD,IL,60544,"http://maps.google.com/maps?q=14300 S. COIL PLUS DRIVE,+PLAINFIELD,+IL+60544&hl=en"
PLEASANT PRAIRIE POLICE DEPARTMENT,"PLEASANT PRAIRIE POLICE DEPARTMENT 
												
													DROP BOX M-F 24 HOURS",8600 GREEN BAY ROAD,PLEASANT PRAIRIE,WI,53158,"http://maps.google.com/maps?q=8600 GREEN BAY ROAD,+PLEASANT PRAIRIE,+WI+53158&hl=en"
PLYMOUTH TOWNSHIP POLICE,PLYMOUTH TOWNSHIP POLICE,9955 N HAGGERTY,PLYMOUTH,MI,48170,"http://maps.google.com/maps?q=9955 N HAGGERTY,+PLYMOUTH,+MI+48170&hl=en"
PORTER POLICE DEPARTMENT,"PORTER POLICE DEPARTMENT 
												
													DROP BOX",50 FRANCIS STREET,PORTER,IN,46304,"http://maps.google.com/maps?q=50 FRANCIS STREET,+PORTER,+IN+46304&hl=en"
PREBLE COUNTY SHERIFF'S OFFICE,PREBLE COUNTY SHERIFF'S OFFICE,1139 PREBLE DRIVE,EATON,OH,45320,"http://maps.google.com/maps?q=1139 PREBLE DRIVE,+EATON,+OH+45320&hl=en"
PROSPECT HEIGHTS POLICE DEPARTMENT,PROSPECT HEIGHTS POLICE DEPARTMENT,14 E. CAMP MCDONALD ROAD,PROSPECT HEIGHTS,IL,60070,"http://maps.google.com/maps?q=14 E. CAMP MCDONALD ROAD,+PROSPECT HEIGHTS,+IL+60070&hl=en"
PUTNAM COUNTY SHERIFF'S OFFICE,PUTNAM COUNTY SHERIFF'S OFFICE,1035 HERITAGE TRAIL,OTTAWA,OH,45875,"http://maps.google.com/maps?q=1035 HERITAGE TRAIL,+OTTAWA,+OH+45875&hl=en"
RACINE COUNTY SHERIFF'S OFFICE,"RACINE COUNTY SHERIFF'S OFFICE 
												
													DROP BOX ONLY 24/7",717 WISCONSIN AVE,RACINE,WI,53403,"http://maps.google.com/maps?q=717 WISCONSIN AVE,+RACINE,+WI+53403&hl=en"
RACINE POLICE DEPARTMENT,"RACINE POLICE DEPARTMENT 
												
													DROP BOX ONLY M-F 7:00AM-6:00PM S/S 8:00AM-2:00PM",730 CENTER STREET,RACINE,WI,53403,"http://maps.google.com/maps?q=730 CENTER STREET,+RACINE,+WI+53403&hl=en"
RICHMOND POLICE DEPARTMENT,"RICHMOND POLICE DEPARTMENT 
												
													MSUTTON@RICHMONDINDIANA.GOV",50 NORTH 5TH STREET,RICHMOND,IN,47374,"http://maps.google.com/maps?q=50 NORTH 5TH STREET,+RICHMOND,+IN+47374&hl=en"
RIVERSIDE POLICE DEPARTMENT,RIVERSIDE PD,31 RIVERSIDE RD,RIVERSIDE,IL,60546,"http://maps.google.com/maps?q=31 RIVERSIDE RD,+RIVERSIDE,+IL+60546&hl=en"
ROCKFORD DEPARTMENT OF PUBLIC SAFETY,ROCKFORD DEPARTMENT OF PUBLIC SAFETY,7 SOUTH MONROE,ROCKFORD,MI,49341,"http://maps.google.com/maps?q=7 SOUTH MONROE,+ROCKFORD,+MI+49341&hl=en"
ROLLING MEADOWS POLICE DEPARTMENT,ROLLING MEADOWS POLICE DEPARTMENT,3600 KIRCHOFF RD.,ROLLING MEADOWS,IL,60008,"http://maps.google.com/maps?q=3600 KIRCHOFF RD.,+ROLLING MEADOWS,+IL+60008&hl=en"
ROSSFORD POLICE DEPARTMENT,"ROSSFORD POLICE DEPARTMENT 
												
													LOBBY",99 HILLSDALE AVENUE,ROSSFORD,OH,43460,"http://maps.google.com/maps?q=99 HILLSDALE AVENUE,+ROSSFORD,+OH+43460&hl=en"
RUSH COUNTY SHERIFF DEPARTMENT,"RUSH MEMORIAL HOSPITAL 
												
													13TH STREET ENTRANCE",1300 N MAIN ST,RUSHVILLE,IN,46173,"http://maps.google.com/maps?q=1300 N MAIN ST,+RUSHVILLE,+IN+46173&hl=en"
SALINE POLICE DEPARTMENT,SALINE POLICE DEPARTMENT,100 NORTH HARRIS,SALINE,MI,48176,"http://maps.google.com/maps?q=100 NORTH HARRIS,+SALINE,+MI+48176&hl=en"
SANDUSKY COUNTY SHERIFF'S OFFICE,EASTSIDE FIRE AND POLICE,506 PINE ST.,FREMONT,OH,43420,"http://maps.google.com/maps?q=506 PINE ST.,+FREMONT,+OH+43420&hl=en"
SANDWICH POLICE DEPARTMENT/NW MEDICINE/VALLEY WEST,NORTHWEST MEDICINE VALLEY WEST HOSPITAL,1302 N. MAIN STREET,SANDWICH,IL,60548,"http://maps.google.com/maps?q=1302 N. MAIN STREET,+SANDWICH,+IL+60548&hl=en"
SCHERERVILLE POLICE DEPARTMENT,"SCHERERVILLE POLICE DEPARTMENT 
												
													DROP BOX",25 E. JOLIET ST.,SCHERERVILLE,IN,46375,"http://maps.google.com/maps?q=25 E. JOLIET ST.,+SCHERERVILLE,+IN+46375&hl=en"
SHIAWASSEE CO SHERIFF OFFICE,SHIAWASSEE COUNTY SHERIFFS OFFICE,201 E MCARTHUR ST,CORUNNA,MI,48817,"http://maps.google.com/maps?q=201 E MCARTHUR ST,+CORUNNA,+MI+48817&hl=en"
SHOREWOOD POLICE DEPARTMENT,SHOREWOOD POLICE DEPARTMENT @ MARIANO'S,950 BROOKFOREST AVENUE (ROUTE 59),SHOREWOOD,IL,60404,"http://maps.google.com/maps?q=950 BROOKFOREST AVENUE (ROUTE 59),+SHOREWOOD,+IL+60404&hl=en"
SKOKIE POLICE DEPARTMENT,SKOKIE POLICE DEPARTMENT,7300 NILES CENTER,SKOKIE,IL,60077,"http://maps.google.com/maps?q=7300 NILES CENTER,+SKOKIE,+IL+60077&hl=en"
SOUTH LYON POLICE DEPARTMENT,SOUTH LYON PD,219 WHIPPLE ST,SOUTH LYON,MI,48178,"http://maps.google.com/maps?q=219 WHIPPLE ST,+SOUTH LYON,+MI+48178&hl=en"
ST. CHARLES POLICE DEPT,"NORTHWESTERN MEDICINE 
												
													WITH ST. CHARLES POLICE",2900 FOXFIELD ROAD,SAINT CHARLES,IL,60174,"http://maps.google.com/maps?q=2900 FOXFIELD ROAD,+SAINT CHARLES,+IL+60174&hl=en"
ST. JOSEPH COUNTY POLICE,DROP BOX,401 WEST SAMPLE STREET,SOUTH BEND,IN,46601,"http://maps.google.com/maps?q=401 WEST SAMPLE STREET,+SOUTH BEND,+IN+46601&hl=en"
STREAMWOOD POLICE DEPARTMENT,VILLAGE OF STREAMWOOD POLICE DEPARTMENT,401 E. IRVING PARK RD,STREAMWOOD,IL,60107,"http://maps.google.com/maps?q=401 E. IRVING PARK RD,+STREAMWOOD,+IL+60107&hl=en"
STURGIS POLICE DEPARTMENT,STURGIS POLICE DEPARTMENT,122 N NOTTAWA STREET,STURGIS,MI,49091,"http://maps.google.com/maps?q=122 N NOTTAWA STREET,+STURGIS,+MI+49091&hl=en"
STURTEVANT POLICE DEPARTMENT,"STURTEVANT POLICE DEPARTMENT 
												
													EVENT 10:00AM-2:00PM",2801 89TH STREET,STURTEVANT,WI,53177,"http://maps.google.com/maps?q=2801 89TH STREET,+STURTEVANT,+WI+53177&hl=en"
SUGAR GROVE PD,SUGAR GROVE POLICE DEPARTMENT,10 S. MUNICIPAL DR,SUGAR GROVE,IL,60554,"http://maps.google.com/maps?q=10 S. MUNICIPAL DR,+SUGAR GROVE,+IL+60554&hl=en"
SYLVANIA POLICE DIVISION,CITY OF SYLVANIA POLICE,6635 MAPLEWOOD AVE.,SYLVANIA,OH,43560,"http://maps.google.com/maps?q=6635 MAPLEWOOD AVE.,+SYLVANIA,+OH+43560&hl=en"
SYLVANIA TOWNSHIP POLICE,SYLVANIA TOWNSHIP POLICE,4420 KING ROAD,SYLVANIA,OH,43560,"http://maps.google.com/maps?q=4420 KING ROAD,+SYLVANIA,+OH+43560&hl=en"
THREE RIVERS POLICE DEPARTMENT,THREE RIVERS POLICE DEPARTMENT,333 W MICHIGAN AVENUE,THREE RIVERS,MI,49093,"http://maps.google.com/maps?q=333 W MICHIGAN AVENUE,+THREE RIVERS,+MI+49093&hl=en"
TROTWOOD POLICE DEPARTMENT,TROTWOOD POLICE DEPARTMENT,3035 OLIVE ROAD,DAYTON,OH,45426,"http://maps.google.com/maps?q=3035 OLIVE ROAD,+DAYTON,+OH+45426&hl=en"
TWIN LAKES POLICE DEPARTMENT,"TWIN LAKES POLICE DEPARTMENT 
												
													DROP BOX 24/7",920 LANCE DR,TWIN LAKES,WI,53181,"http://maps.google.com/maps?q=920 LANCE DR,+TWIN LAKES,+WI+53181&hl=en"
UNIVERSITY OF NOTRE DAME,UNIVERSITY OF NOTRE DAME POLICE DEPARTMENT,HAMMES MOWBRAY HALL,NOTRE DAME,IN,46556,"http://maps.google.com/maps?q=HAMMES MOWBRAY HALL,+NOTRE DAME,+IN+46556&hl=en"
UNIVERSITY OF WISCONSIN PARKSIDE PUBLIC SAFETY,"UNIVERSITY OF WISCONSIN PARKSIDE PUBLIC SAFETY 
												
													DROP BOX ONLY 24/7",900 WOOD ROAD,KENOSHA,WI,53141,"http://maps.google.com/maps?q=900 WOOD ROAD,+KENOSHA,+WI+53141&hl=en"
VALPARAISO POLICE DEPARTMENT,"VALPARAISO POLICE DEPARTMENT 
												
													DROP BOX",355 WASHINGTON ST.,VALPARAISO,IN,46383,"http://maps.google.com/maps?q=355 WASHINGTON ST.,+VALPARAISO,+IN+46383&hl=en"
VAN BUREN COUNTY SHERIFF'S OFFICE,ANTWERP TOWNSHIP ACTIVITY CENTER,24821 FRONT AVE,MATTAWAN,MI,49071,"http://maps.google.com/maps?q=24821 FRONT AVE,+MATTAWAN,+MI+49071&hl=en"
VAN BUREN COUNTY SHERIFF'S OFFICE,SHORELINE WELLNESS & REHAB CENTER,950 S BAILEY AVE,SOUTH HAVEN,MI,49090,"http://maps.google.com/maps?q=950 S BAILEY AVE,+SOUTH HAVEN,+MI+49090&hl=en"
VAN BUREN TOWNSHIP POLICE DEPARTMENT,"POLICE DEPARTMENT LOBBY 
												
													10:00 AM - 2:00 PM",46425 TYLER RD,BELLEVILLE,MI,48111,"http://maps.google.com/maps?q=46425 TYLER RD,+BELLEVILLE,+MI+48111&hl=en"
VAN WERT COUNTY SHERIFF'S OFFICE,VAN WERT COUNTY SHERIFF'S OFFICE,113 NORTH MARKET STREET,VAN WERT,OH,45891,"http://maps.google.com/maps?q=113 NORTH MARKET STREET,+VAN WERT,+OH+45891&hl=en"
VANDALIA DIVISION OF POLICE,VANDALIA POLICE DEPARTMENT,245 JAMES BOHANAN DR.,VANDALIA,OH,45377,"http://maps.google.com/maps?q=245 JAMES BOHANAN DR.,+VANDALIA,+OH+45377&hl=en"
VILLA PARK POLICE DEPARTMENT,VILLA PARK POLICE DEPARTMENT,40 S. ARDMORE,VILLA PARK,IL,60181,"http://maps.google.com/maps?q=40 S. ARDMORE,+VILLA PARK,+IL+60181&hl=en"
VILLAGE OF DUNDEE POLICE DEPARTMENT,VILLAGE OF DUNDEE POLICE DEPARTMENT,350 W MONROE ST,DUNDEE,MI,48131,"http://maps.google.com/maps?q=350 W MONROE ST,+DUNDEE,+MI+48131&hl=en"
VILLAGE OF LINCOLNSHIRE POLICE DEPARTMENT,VILLAGE OF LINCOLNSHIRE POLICE DEPARTMENT,ONE OLDE HALF DAY RD.,LINCOLNSHIRE,IL,60069,"http://maps.google.com/maps?q=ONE OLDE HALF DAY RD.,+LINCOLNSHIRE,+IL+60069&hl=en"
VILLAGE OF SAUK VILLAGE POLICE DEPARTMENT,"SAUK VILLAGE POLICE DEPARTMENT 
												
													POLICE DEPARTMENT LOBBY",21701 TORRENCE AVE,SAUK VILLAGE,IL,60411,"http://maps.google.com/maps?q=21701 TORRENCE AVE,+SAUK VILLAGE,+IL+60411&hl=en"
WALBRIDGE POLICE DEPARTMENT,"WALBRIDGE POLICE DEPARTMENT 
												
													VILLAGE ADMINISTRATION BUILDING",705 N. MAIN ST.,WALBRIDGE,OH,43465,"http://maps.google.com/maps?q=705 N. MAIN ST.,+WALBRIDGE,+OH+43465&hl=en"
WAPAKONETA POLICE DEPARTMENT,WAPAKONETA POLICE DEPARTMENT,701 PARLETTE CT,WAPAKONETA,OH,45895,"http://maps.google.com/maps?q=701 PARLETTE CT,+WAPAKONETA,+OH+45895&hl=en"
WASHTENAW COUNTY SHERIFF'S OFFICE,WASHTENAW COUNTY SHERIFF'S OFFICE MAIN LOBBY,2201 HOGBACK RD.,ANN ARBOR,MI,48105,"http://maps.google.com/maps?q=2201 HOGBACK RD.,+ANN ARBOR,+MI+48105&hl=en"
WAUCONDA POLICE,WAUCONDA POLICE DEPARTMENT,311 S. MAIN STREET,WAUCONDA,IL,60084,"http://maps.google.com/maps?q=311 S. MAIN STREET,+WAUCONDA,+IL+60084&hl=en"
WAUSEON POLICE DEPARTMENT,WALMART,485 E AIRPORT HWY,WAUSEON,OH,43567,"http://maps.google.com/maps?q=485 E AIRPORT HWY,+WAUSEON,+OH+43567&hl=en"
WAUSEON POLICE DEPARTMENT,WAUSEON POLICE DEPT,230 CLINTON ST.,WAUSEON,OH,43567,"http://maps.google.com/maps?q=230 CLINTON ST.,+WAUSEON,+OH+43567&hl=en"
WESTCHESTER POLICE,"WESTCHESTER POLICE @ MARIANO'S 
												
													ELIZABETH SEYBOLD",3020 WOLF RD,WESTCHESTER,IL,60154,"http://maps.google.com/maps?q=3020 WOLF RD,+WESTCHESTER,+IL+60154&hl=en"
WESTMONT POLICE DEPARTMENT,"WESTMONT POLICE DEPARTMENT 
												
													HEADQUARTERS",500 N. CASS AVE,WESTMONT,IL,60559,"http://maps.google.com/maps?q=500 N. CASS AVE,+WESTMONT,+IL+60559&hl=en"
WESTMONT POLICE DEPARTMENT,"WESTMONT POLICE DEPATMENT 
												
													2ND LOCATION - MARIANO'S OUTDOOR FOODCOURT",150 63RD STREET,WESTMONT,IL,60559,"http://maps.google.com/maps?q=150 63RD STREET,+WESTMONT,+IL+60559&hl=en"
WHITE COUNTY SHERIFF'S DEPARTMENT,"WHITE COUNTY SHERIFF'S DEPARTMENT 
												
													DROP BOX",915 W. HANAWALT,MONTICELLO,IN,47960,"http://maps.google.com/maps?q=915 W. HANAWALT,+MONTICELLO,+IN+47960&hl=en"
WILL COUNTY SHERIFF'S OFFICE,"WILL COUNTY COURTHOUSE 
												
													PARKING LOT",14 W. JEFFERSON ST,JOLIET,IL,60432,"http://maps.google.com/maps?q=14 W. JEFFERSON ST,+JOLIET,+IL+60432&hl=en"
WILLIAMS COUNTY SHERIFF'S OFFICE,"WILLIAMS COUNTY SHERIFF'S OFFICE 
												
													MICHELLE JACOB","1425 E HIGH ST, SUITE 103BRYAN",BRYAN,OH,43506,"http://maps.google.com/maps?q=1425 E HIGH ST, SUITE 103,+BRYAN,+OH+43506&hl=en"
WILMINGTON POLICE DEPARTMENT,WILMINGTON POLICE DEPARTMENT,129 ROBERT WEIDLING DRIVE,WILMINGTON,IL,60481,"http://maps.google.com/maps?q=129 ROBERT WEIDLING DRIVE,+WILMINGTON,+IL+60481&hl=en"
WINFIELD POLICE DEPARTMENT,WALGREENS PHARMACY,10920 RANDOLPH STREET,CROWN POINT,IN,46307,"http://maps.google.com/maps?q=10920 RANDOLPH STREET,+CROWN POINT,+IN+46307&hl=en"
WINNETKA POLICE DEPARTMENT,WINNETKA POLICE DEPARTMENT,410 GREEN BAY ROAD,WINNETKA,IL,60093,"http://maps.google.com/maps?q=410 GREEN BAY ROAD,+WINNETKA,+IL+60093&hl=en"
WOOD COUNTY SHERIFF'S OFFICE,"WOOD COUNTY SHERIFF'S OFFICE 
												
													DET. SGT. ROD SMITH",1960 E. GYPSY LNBOWLING GREEN,BOWLING GREEN,OH,43402,"http://maps.google.com/maps?q=1960 E. GYPSY LN,+BOWLING GREEN,+OH+43402&hl=en"
WYOMING POLICE DEPARTMENT,METRO HEALTH HOSPITAL,5900 BYRON CENTER AVENUE,WYOMING,MI,49519,"http://maps.google.com/maps?q=5900 BYRON CENTER AVENUE,+WYOMING,+MI+49519&hl=en"
WYOMING POLICE DEPARTMENT,WYOMING POLICE DEPARTMENT,2300 DEHOOP AVE. SW,WYOMING,MI,49509,"http://maps.google.com/maps?q=2300 DEHOOP AVE. SW,+WYOMING,+MI+49509&hl=en"
