Participant,CollectionSite,Address,City,State,Zip,MapURL
ADAMS COUNTY SHERIFF'S OFFICE,ADAMS COUNTY HEALTH DEPARTMENT,330 VERMONT,QUINCY,IL,62301,"http://maps.google.com/maps?q=330 VERMONT,+QUINCY,+IL+62301&hl=en"
ALEDO POLICE DEPT.,"ALEDO POLICE DEPT. 
												
													PARKING LOT",200 N.E. 2ND STREET,ALEDO,IL,61231,"http://maps.google.com/maps?q=200 N.E. 2ND STREET,+ALEDO,+IL+61231&hl=en"
ALGONQUIN POLICE,ALGONQUIN POLICE DEPARTMENT,2200 HARNISH DRIVE,ALGONQUIN,IL,60102,"http://maps.google.com/maps?q=2200 HARNISH DRIVE,+ALGONQUIN,+IL+60102&hl=en"
ALTON POLICE DEPARTMENT,ALTON POLICE DEPARTMENT,1700 E. BROADWAY,ALTON,IL,62002,"http://maps.google.com/maps?q=1700 E. BROADWAY,+ALTON,+IL+62002&hl=en"
ARLINGTON HEIGHTS POLICE DEPARTMENT,ARLINGTON HEIGHTS VILLAGE HALL,33 S. ARLINGTON HEIGHTS ROAD,ARLINGTON HEIGHTS,IL,60005,"http://maps.google.com/maps?q=33 S. ARLINGTON HEIGHTS ROAD,+ARLINGTON HEIGHTS,+IL+60005&hl=en"
AUBURN POLICE DEPARTMENT,AUBURN POLICE DEPARTMENT,324 W. JEFFERSON STREET,AUBURN,IL,62615,"http://maps.google.com/maps?q=324 W. JEFFERSON STREET,+AUBURN,+IL+62615&hl=en"
AURORA POLICE HEADQUARTERS,AURORA POLICE HEADQUARTERS,1200 E INDIAN TRAIL RD,AURORA,IL,60505,"http://maps.google.com/maps?q=1200 E INDIAN TRAIL RD,+AURORA,+IL+60505&hl=en"
BARRINGTON POLICE DEPARTMENT,"BARRINGTON POLICE DEPARTMENT 
												
													PUBLIC SAFETY BUILDING",400 N. NORTHWEST HWY,BARRINGTON,IL,60010,"http://maps.google.com/maps?q=400 N. NORTHWEST HWY,+BARRINGTON,+IL+60010&hl=en"
BELLEFONTAINE NEIGHBORS POLICE DEPARTMENT,BELLEFONTAINE NEIGHBORS POLICE DEPARTMENT,9641 BELLEFONTAINE RD,SAINT LOUIS,MO,63137,"http://maps.google.com/maps?q=9641 BELLEFONTAINE RD,+SAINT LOUIS,+MO+63137&hl=en"
BERWYN POLICE DEPARTMENT,BERWYN POLICE DEPARTMENT,6401 W 31ST,BERWYN,IL,60402,"http://maps.google.com/maps?q=6401 W 31ST,+BERWYN,+IL+60402&hl=en"
BICKNELL POLICE DEPARTMENT,BICKNELL POLICE DEPARTMENT,119 EAST 2ND STREET,BICKNELL,IN,47512,"http://maps.google.com/maps?q=119 EAST 2ND STREET,+BICKNELL,+IN+47512&hl=en"
BLOOMINGTON POLICE DEPARTMENT,"BLOOMINGTON POLICE DEPARTMENT 
												
													MAIN LOBBY",305 S. EAST ST.,BLOOMINGTON,IL,61701,"http://maps.google.com/maps?q=305 S. EAST ST.,+BLOOMINGTON,+IL+61701&hl=en"
BLOOMINGTON POLICE DEPARTMENT,"KROGER PHARMACY 
												
													PARKING LOT",1175 COLLEGE MALL RD.,BLOOMINGTON,IN,47401,"http://maps.google.com/maps?q=1175 COLLEGE MALL RD.,+BLOOMINGTON,+IN+47401&hl=en"
BREESE POLICE DEPT.,BREESE POLICE DEPT.,500 N. 1ST STREET,BREESE,IL,62230,"http://maps.google.com/maps?q=500 N. 1ST STREET,+BREESE,+IL+62230&hl=en"
BREMEN POLICE DEPARTMENT,CVS PHARMACY,1150 W. PLYMOUTH STREET,BREMEN,IN,46506,"http://maps.google.com/maps?q=1150 W. PLYMOUTH STREET,+BREMEN,+IN+46506&hl=en"
BRIDGETON POLICE DEPARTMENT,BRIDGETON POLICE DEPARTMENT,12355 NATURAL BRIDGE RD,BRIDGETON,MO,63044,"http://maps.google.com/maps?q=12355 NATURAL BRIDGE RD,+BRIDGETON,+MO+63044&hl=en"
BRIDGEVIEW POLICE DEPARTMENT,BRIDGEVIEW POLICE DEPARTMENT,7500 S. OKETO AVE,BRIDGEVIEW,IL,60455,"http://maps.google.com/maps?q=7500 S. OKETO AVE,+BRIDGEVIEW,+IL+60455&hl=en"
BROADVIEW POLICE DEPARTMENT,BROADVIEW POLICE DEPARTMENT,2350 S. 25TH AVE,BROADVIEW,IL,60155,"http://maps.google.com/maps?q=2350 S. 25TH AVE,+BROADVIEW,+IL+60155&hl=en"
BROWN COUNTY SHERIFF'S OFFICE,MT. STERLING IGA,200 PITTSFIELD ROAD,MOUNT STERLING,IL,62353,"http://maps.google.com/maps?q=200 PITTSFIELD ROAD,+MOUNT STERLING,+IL+62353&hl=en"
BUFFALO GROVE POLICE DEPARTMENT,BUFFALO GROVE POLICE,46 RAUPP BLV,BUFFALO GROVE,IL,60089,"http://maps.google.com/maps?q=46 RAUPP BLV,+BUFFALO GROVE,+IL+60089&hl=en"
BUFFALO GROVE POLICE DEPARTMENT,BUFFALO GROVE POLICE @ MARIANO'S,450 W. HALF DAY ROAD,BUFFALO GROVE,IL,60089,"http://maps.google.com/maps?q=450 W. HALF DAY ROAD,+BUFFALO GROVE,+IL+60089&hl=en"
CANTON POLICE DEPARTMENT,CANTON POLICE DEPARTMENT,2 N. MAIN STREET,CANTON,IL,61520,"http://maps.google.com/maps?q=2 N. MAIN STREET,+CANTON,+IL+61520&hl=en"
CARLINVILLE POLICE DEPT.,CARLINVILLE POLICE DEPARTMENT,570 NORTH BROAD STREET,CARLINVILLE,IL,62626,"http://maps.google.com/maps?q=570 NORTH BROAD STREET,+CARLINVILLE,+IL+62626&hl=en"
CARY POLICE DEPARTMENT,CARY POLICE DEPARTMENT,654 VILLAGE HALL DRIVE,CARY,IL,60013,"http://maps.google.com/maps?q=654 VILLAGE HALL DRIVE,+CARY,+IL+60013&hl=en"
CEDAR COUNTY SHERIFF'S OFFICE,CEDAR COUNTY SHERIFF'S OFFICE,711 E. SOUTH ST,TIPTON,IA,52772,"http://maps.google.com/maps?q=711 E. SOUTH ST,+TIPTON,+IA+52772&hl=en"
CEDAR LAKE POLICE DEPARTMENT,"CEDAR LAKE POLICE DEPARTMENT 
												
													DROP BOX 24/7",7408 CONSTITUTION AVENUE,CEDAR LAKE,IN,46303,"http://maps.google.com/maps?q=7408 CONSTITUTION AVENUE,+CEDAR LAKE,+IN+46303&hl=en"
CHATHAM POLICE DEPARTMENT,CHATHAM POLICE DEPARTMENT,117 EAST MULBERRY,CHATHAM,IL,62629,"http://maps.google.com/maps?q=117 EAST MULBERRY,+CHATHAM,+IL+62629&hl=en"
CHENOA POLICE DEPARTMENT,CHENOA POLICE DEPARTMENT,201 GREEN STREET,CHENOA,IL,61726,"http://maps.google.com/maps?q=201 GREEN STREET,+CHENOA,+IL+61726&hl=en"
CHESTERTON POLICE DEPARTMENT,"CHESTERTON POLICE DEPARTMENT 
												
													DROP BOX 24/7",790 BROADWAY,CHESTERTON,IN,46304,"http://maps.google.com/maps?q=790 BROADWAY,+CHESTERTON,+IN+46304&hl=en"
"CITY OF SANDWICH, ILL POLICE DEPARTMENT",SANDWICH POLICE DEPARTMENT,308 EAST COLLEGE ST,SANDWICH,IL,60548,"http://maps.google.com/maps?q=308 EAST COLLEGE ST,+SANDWICH,+IL+60548&hl=en"
CLAY COUNTY SHERIFF'S DEPARTMENT,CLAY COUNTY SHERIFF'S OFFICE,300 BROADWAY,LOUISVILLE,IL,62858,"http://maps.google.com/maps?q=300 BROADWAY,+LOUISVILLE,+IL+62858&hl=en"
CLAYTON POLICE DEPARTMENT,CENTER OF CLAYTON,50 GAY AVENUE,CLAYTON,MO,63105,"http://maps.google.com/maps?q=50 GAY AVENUE,+CLAYTON,+MO+63105&hl=en"
CLINTON COUNTY SHERIFF'S DEPARTMENT,CLINTON COUNTY SHERIFF'S OFFICE,810 FRANKLIN ST.,CARLYLE,IL,62231,"http://maps.google.com/maps?q=810 FRANKLIN ST.,+CARLYLE,+IL+62231&hl=en"
CLINTON POLICE DEPARTMENT,CLINTON POLICE DEPARTMENT,118 W. WASHINGTON ST,CLINTON,IL,61727,"http://maps.google.com/maps?q=118 W. WASHINGTON ST,+CLINTON,+IL+61727&hl=en"
CLINTON POLICE DEPARTMENT,COMMANCHE POLICE DEPARTMENT,819 S. WASHINGTON BLVD,CLINTON,IA,52732,"http://maps.google.com/maps?q=819 S. WASHINGTON BLVD,+CLINTON,+IA+52732&hl=en"
COLONA POLICE DEPARTMENT,"COLONA POLICE DEPARTMENT 
												
													LOBBY",215 1ST STREET,COLONA,IL,61241,"http://maps.google.com/maps?q=215 1ST STREET,+COLONA,+IL+61241&hl=en"
CRAWFORDSVILLE POLICE DEPT.,MONTGOMERY COUNTY HEALTH DEPARTMENT,110 W. SOUTH BOULEVARD,CRAWFORDSVILLE,IN,47933,"http://maps.google.com/maps?q=110 W. SOUTH BOULEVARD,+CRAWFORDSVILLE,+IN+47933&hl=en"
CREVE COEUR POLICE DEPT,"CREVE COEUR POLICE DEPT. 
												
													FRONT LOBBY",300 NORTH NEW BALLAS,CREVE COEUR,MO,63141,"http://maps.google.com/maps?q=300 NORTH NEW BALLAS,+CREVE COEUR,+MO+63141&hl=en"
CROWN POINT POLICE DEPARTMENT,"CROWN POINT POLICE DEPARTMENT 
												
													DROP BOX",124 NORTH EAST STREET,CROWN POINT,IN,46307,"http://maps.google.com/maps?q=124 NORTH EAST STREET,+CROWN POINT,+IN+46307&hl=en"
CRYSTAL LAKE POLICE DEPARTMENT,CRYSTAL LAKE POLICE DEPARTMENT,100 W WOODSTOCK STREET,CRYSTAL LAKE,IL,60014,"http://maps.google.com/maps?q=100 W WOODSTOCK STREET,+CRYSTAL LAKE,+IL+60014&hl=en"
DANVERS POLICE DEPARTMENT,DANVERS POLICE DEPARTMENT,304 E. MAIN STREET,DANVERS,IL,61732,"http://maps.google.com/maps?q=304 E. MAIN STREET,+DANVERS,+IL+61732&hl=en"
DEA / ST. VINCENT HOSPITAL,"ST. VINCENT HOSPITAL 
												
													FRONT ENTRANCE - DOOR 1",2001 W 86TH ST,INDIANAPOLIS,IN,46260,"http://maps.google.com/maps?q=2001 W 86TH ST,+INDIANAPOLIS,+IN+46260&hl=en"
DECATUR POLICE DEPARTMENT,DECATUR POLICE DEPARTMENT,707 W. SOUTH SIDE DR,DECATUR,IL,62521,"http://maps.google.com/maps?q=707 W. SOUTH SIDE DR,+DECATUR,+IL+62521&hl=en"
DES PLAINES POLICE DEPARTMENT,"DES PLAINES POLICE DEPARTMENT 
												
													FRONT LOBBY",1418 MINER ST.,DES PLAINES,IL,60016,"http://maps.google.com/maps?q=1418 MINER ST.,+DES PLAINES,+IL+60016&hl=en"
DIXON POLICE DEPARTMENT,DIXON POLICE DEPARTMENT,220 SOUTH HENNEPIN AVENUE,DIXON,IL,61021,"http://maps.google.com/maps?q=220 SOUTH HENNEPIN AVENUE,+DIXON,+IL+61021&hl=en"
DOUGLAS COUNTY SHERIFF'S DEPARTMENT,"DOUGLAS COUNTY SHERIFF'S DEPARTMENT 
												
													LOBBY",920 S. WASHINGTON,TUSCOLA,IL,61953,"http://maps.google.com/maps?q=920 S. WASHINGTON,+TUSCOLA,+IL+61953&hl=en"
EAST ALTON POLICE DEPT,EAST ALTON POLICE DEPARTMENT,211 N SHAMROCK,EAST ALTON,IL,62024,"http://maps.google.com/maps?q=211 N SHAMROCK,+EAST ALTON,+IL+62024&hl=en"
EDGEWOOD POLICE DEPARTMENT,EDGEWOOD POLICE DEPARTMENT,3405 NICHOL AVE,ANDERSON,IN,46011,"http://maps.google.com/maps?q=3405 NICHOL AVE,+ANDERSON,+IN+46011&hl=en"
EDWARDSVILLE POLICE DEPARTMENT,"EDWARDSVILLE POLICE DEPARTMENT 
												
													FRONT / MAIN LOBBY",333 SOUTH MAIN STREET,EDWARDSVILLE,IL,62025,"http://maps.google.com/maps?q=333 SOUTH MAIN STREET,+EDWARDSVILLE,+IL+62025&hl=en"
EFFINGHAM COUNTY SHERIFF'S OFFICE,EFFINGHAM COUNTY SHERIFF'S OFFICE,101 N. 4TH STREET,EFFINGHAM,IL,62401,"http://maps.google.com/maps?q=101 N. 4TH STREET,+EFFINGHAM,+IL+62401&hl=en"
EL PASO POLICE DEPARTMENT,EL PASO POLICE DEPARTMENT,540 E. MAIN STREET,EL PASO,IL,61738,"http://maps.google.com/maps?q=540 E. MAIN STREET,+EL PASO,+IL+61738&hl=en"
ELK GROVE VILLAGE POLICE DEPARTMENT,ELK GROVE VIILAGE POLICE DEPARTMENT,901 WELLINGTON AVE,ELK GROVE VILLAGE,IL,60007,"http://maps.google.com/maps?q=901 WELLINGTON AVE,+ELK GROVE VILLAGE,+IL+60007&hl=en"
ELMHURST POLICE DEPARTMENT,ELMHURST POLICE @ ELMHURST COLLEGE,190 S. PROSPECT125 E. FIRST,ELMHURST,IL,60126,"http://maps.google.com/maps?q=190 S. PROSPECT,+ELMHURST,+IL+60126&hl=en"
ELMWOOD PARK POLICE DEPARTMENT,ELMWOOD PARK PUBLIC SAFETY BUILDING,7420 W. FULLERTON AVENUE,ELMWOOD PARK,IL,60707,"http://maps.google.com/maps?q=7420 W. FULLERTON AVENUE,+ELMWOOD PARK,+IL+60707&hl=en"
EVANSTON POLICE DEPARTMENT,EVANSTON POLICE DEPARTMENT,1454 ELMWOOD AVE.,EVANSTON,IL,60201,"http://maps.google.com/maps?q=1454 ELMWOOD AVE.,+EVANSTON,+IL+60201&hl=en"
EVERGREEN PARK POLICE DEPARTMENT,EVERGREEN PARK POLICE DEPARMENT,9420 S KEDZIE AVE,EVERGREEN PARK,IL,60805,"http://maps.google.com/maps?q=9420 S KEDZIE AVE,+EVERGREEN PARK,+IL+60805&hl=en"
FAIRVIEW HEIGHTS POLICE DEPARTMENT,FAIRVIEW HEIGHTS POLICE DEPT.,10027 BUNKUM ROAD,FAIRVIEW HEIGHTS,IL,62208,"http://maps.google.com/maps?q=10027 BUNKUM ROAD,+FAIRVIEW HEIGHTS,+IL+62208&hl=en"
FAIRVIEW HEIGHTS POLICE DEPARTMENT,ST CLAIR SQUARE,134 ST CLAIR SQUARE,FAIRVIEW HEIGHTS,IL,62208,"http://maps.google.com/maps?q=134 ST CLAIR SQUARE,+FAIRVIEW HEIGHTS,+IL+62208&hl=en"
FISHERS POLICE DEPARTMENT,"FISHERS POLICE DEPARTMENT 
												
													DROP BOX",4 MUNICIPAL DRIVE,FISHERS,IN,46038,"http://maps.google.com/maps?q=4 MUNICIPAL DRIVE,+FISHERS,+IN+46038&hl=en"
FISHERS POLICE DEPARTMENT,"KROGER 
												
													NAT TAKE BACK DAY 4/28/2018",11700 OILO ROAD,FISHERS,IN,46037,"http://maps.google.com/maps?q=11700 OILO ROAD,+FISHERS,+IN+46037&hl=en"
FLORISSANT POLICE DEPARTMENT,"FLORISSANT POLICE DEPARTMENT 
												
													LOBBY",1700 NORTH HIGHWAY 67,FLORISSANT,MO,63033,"http://maps.google.com/maps?q=1700 NORTH HIGHWAY 67,+FLORISSANT,+MO+63033&hl=en"
FULTON COUNTY SHERIFF'S OFFICE,"FULTON COUNTY JAIL 
												
													DROP BOX",815 MADISON STREET,ROCHESTER,IN,46975,"http://maps.google.com/maps?q=815 MADISON STREET,+ROCHESTER,+IN+46975&hl=en"
GENESEO POLICE DEPARTMENT,"GENESEO MUNICIPAL BUILDING 
												
													CITY HALL AND POLICE DEPARTMENT",119 SOUTH OAKWOOD AVE,GENESEO,IL,61254,"http://maps.google.com/maps?q=119 SOUTH OAKWOOD AVE,+GENESEO,+IL+61254&hl=en"
GLENVIEW P.D.,"GLENVIEW P.D. 
												
													EAST PARKING LOT",2500 EAST LAKE AVE.,GLENVIEW,IL,60026,"http://maps.google.com/maps?q=2500 EAST LAKE AVE.,+GLENVIEW,+IL+60026&hl=en"
GREENCASTLE POLICE DEPARTMENT,"CLOVERDALE HIGH SCHOOL 
												
													9 AM TO NOON",205 E. MARKET ST.ATTN: MARSHAL STEVE HIBLER,CLOVERDALE,IN,46120,"http://maps.google.com/maps?q=205 E. MARKET ST.,+CLOVERDALE,+IN+46120&hl=en"
GREENCASTLE POLICE DEPARTMENT,"GREENCASTLE HIGH SCHOOL 
												
													9 AM TO NOON",910 E. WASHINGTON ST.,GREENCASTLE,IN,46135,"http://maps.google.com/maps?q=910 E. WASHINGTON ST.,+GREENCASTLE,+IN+46135&hl=en"
GREENCASTLE POLICE DEPARTMENT,"NORTH PUTNAM HIGH SCHOOL 
												
													ATTN: MARSHAL MIKE MAHOY",8869 N. CR 250 E.9 AM TO NOON,ROACHDALE,IN,46172,"http://maps.google.com/maps?q=8869 N. CR 250 E.,+ROACHDALE,+IN+46172&hl=en"
GREENCASTLE POLICE DEPARTMENT,"SOUTH PUTNAM HIGH SCHOOL 
												
													ATTN: CORPORAL JERROD BAUGH",1780 E. US HWY 409 AM TO NOON,GREENCASTLE,IN,46135,"http://maps.google.com/maps?q=1780 E. US HWY 40,+GREENCASTLE,+IN+46135&hl=en"
GREENE COUNTY SHERIFF OFFICE,"GREENE COUNTY GENERAL HOSPITAL 
												
													NONE",1185 N 1000 W,LINTON,IN,47441,"http://maps.google.com/maps?q=1185 N 1000 W,+LINTON,+IN+47441&hl=en"
GREENE COUNTY SHERIFF OFFICE,"GREENE COUNTY SHERIFF OFFICE 
												
													NONE",204 S 70 E,BLOOMFIELD,IN,47424,"http://maps.google.com/maps?q=204 S 70 E,+BLOOMFIELD,+IN+47424&hl=en"
GREENVILLE POLICE DEPARTMENT,BOND COUNTY SHERIFF'S DEPARTMENT,403 S. SECOND ST,GREENVILLE,IL,62246,"http://maps.google.com/maps?q=403 S. SECOND ST,+GREENVILLE,+IL+62246&hl=en"
GREENVILLE POLICE DEPARTMENT,GREENVILLE POLICE DEPARTMENT,404 S. THIRD ST,GREENVILLE,IL,62246,"http://maps.google.com/maps?q=404 S. THIRD ST,+GREENVILLE,+IL+62246&hl=en"
GRIFFITH POLICE DEPARTMENT,"GRIFFITH POLICE DEPARTMENT 
												
													DROP BOX",115 NORTH BROAD STREET,GRIFFITH,IN,46319,"http://maps.google.com/maps?q=115 NORTH BROAD STREET,+GRIFFITH,+IN+46319&hl=en"
HAMMOND POLICE DEPARTMENT,HAMMOND POLICE DEPARTMENT,509 DOUGLAS STREET,HAMMOND,IN,46320,"http://maps.google.com/maps?q=509 DOUGLAS STREET,+HAMMOND,+IN+46320&hl=en"
HANCOCK COUNTY SHERIFF'S OFFICE,"DALLAS CITY HALL 
												
													DALLAS CITY POLICE DEPARTMENT",120 W. 1ST STREET,DALLAS CITY,IL,62330,"http://maps.google.com/maps?q=120 W. 1ST STREET,+DALLAS CITY,+IL+62330&hl=en"
HANCOCK COUNTY SHERIFF'S OFFICE,HAMILTON POLICE DEPARTMENT,1010 BROADWAY ST,HAMILTON,IL,62341,"http://maps.google.com/maps?q=1010 BROADWAY ST,+HAMILTON,+IL+62341&hl=en"
HANCOCK COUNTY SHERIFF'S OFFICE,HANCOCK COUNTY SHERIFF'S OFFICE,98 BUCHANAN ST,CARTHAGE,IL,62321,"http://maps.google.com/maps?q=98 BUCHANAN ST,+CARTHAGE,+IL+62321&hl=en"
HANCOCK COUNTY SHERIFF'S OFFICE,JIFFI STOP,101 S. WORRELL STREET,BOWEN,IL,62316,"http://maps.google.com/maps?q=101 S. WORRELL STREET,+BOWEN,+IL+62316&hl=en"
HANCOCK COUNTY SHERIFF'S OFFICE,LAHARPE POLICE DEPARTMENT,207 E. MAIN STREET,LA HARPE,IL,61450,"http://maps.google.com/maps?q=207 E. MAIN STREET,+LA HARPE,+IL+61450&hl=en"
HANCOCK COUNTY SHERIFF'S OFFICE,NAUVOO POLICE DEPARTMENT,60 N BLUFF ST,NAUVOO,IL,62354,"http://maps.google.com/maps?q=60 N BLUFF ST,+NAUVOO,+IL+62354&hl=en"
HANCOCK COUNTY SHERIFF'S OFFICE,"WARSAW CITY HALL 
												
													WARSAW POLICE DEPARTMENT",210 N 4TH ST,WARSAW,IL,62379,"http://maps.google.com/maps?q=210 N 4TH ST,+WARSAW,+IL+62379&hl=en"
HAZELWOOD POLICE DEPARTMENT,CITY HALL/POLICE COMPLEX,415 ELM GROVE,HAZELWOOD,MO,63042,"http://maps.google.com/maps?q=415 ELM GROVE,+HAZELWOOD,+MO+63042&hl=en"
HEBRON POLICE DEPARTMENT,"HEBRON POLICE DEPARTMENT 
												
													DROP BOX",611 NORTH MAIN STREET,HEBRON,IN,46341,"http://maps.google.com/maps?q=611 NORTH MAIN STREET,+HEBRON,+IN+46341&hl=en"
HEYWORTH POLICE DEPT.,HEYWORTH VILLAGE HALL,108 S. BUCHANAN ST,HEYWORTH,IL,61745,"http://maps.google.com/maps?q=108 S. BUCHANAN ST,+HEYWORTH,+IL+61745&hl=en"
HIGHLAND POLICE DEPARTMENT,"HIGHLAND POLICE DEPARTMENT 
												
													DROP BOX",3315 RIDGE RD.,HIGHLAND,IN,46322,"http://maps.google.com/maps?q=3315 RIDGE RD.,+HIGHLAND,+IN+46322&hl=en"
HIGHLAND POLICE DEPARTMENT,"HIGHLAND POLICE DEPARTMENT 
												
													FRONT LOBBY",820 MULBERRY ST,HIGHLAND,IL,62249,"http://maps.google.com/maps?q=820 MULBERRY ST,+HIGHLAND,+IL+62249&hl=en"
HILLSBORO POLICE DEPARTMENT,HILLSBORO POLICE DEPARTMENT,447 SOUTH MAIN STREETSUITE 5,HILLSBORO,IL,62049,"http://maps.google.com/maps?q=447 SOUTH MAIN STREET,+HILLSBORO,+IL+62049&hl=en"
HOBART POLICE DEPARTMENT,"HOBART POLICE DEPARTMENT 
												
													DROP BOX M-F 8-5",705 EAST FOURTH STREET,HOBART,IN,46342,"http://maps.google.com/maps?q=705 EAST FOURTH STREET,+HOBART,+IN+46342&hl=en"
HUNTLEY POLICE DEPARTMENT,HUNTLEY POLICE DEPARTMENT,10911 MAIN STREET,HUNTLEY,IL,60142,"http://maps.google.com/maps?q=10911 MAIN STREET,+HUNTLEY,+IL+60142&hl=en"
INDIANA BOARD OF PHARMACY,"COMMUNITY CANCER CENTER NORTH 
												
													COMMUNITY HOSPITAL POLICE/SECURITY",7979 SHADELAND AVE,INDIANAPOLIS,IN,46256,"http://maps.google.com/maps?q=7979 SHADELAND AVE,+INDIANAPOLIS,+IN+46256&hl=en"
INDIANA BOARD OF PHARMACY,"COMMUNITY CANCER CENTER SOUTH 
												
													COMMUNITY HOSPITAL POLICE/SECURITY",1440 E COUNTY LINE RD.,INDIANAPOLIS,IN,46227,"http://maps.google.com/maps?q=1440 E COUNTY LINE RD.,+INDIANAPOLIS,+IN+46227&hl=en"
INDIANA BOARD OF PHARMACY,"IU-NORTHWEST 
												
													IU CAMPUS POLICE",3400 BROADWAY,GARY,IN,46408,"http://maps.google.com/maps?q=3400 BROADWAY,+GARY,+IN+46408&hl=en"
INDIANA BOARD OF PHARMACY,"SAM'S CLUB 
												
													JOHNSON COUNTY SHERIFF DEPARTMENT",1101 WINDHORST WAY,GREENWOOD,IN,46143,"http://maps.google.com/maps?q=1101 WINDHORST WAY,+GREENWOOD,+IN+46143&hl=en"
INDIANA BOARD OF PHARMACY,"WALMART 
												
													MARION COUNTY SHERIFF DEPT",3221 W. 86TH ST,INDIANAPOLIS,IN,46268,"http://maps.google.com/maps?q=3221 W. 86TH ST,+INDIANAPOLIS,+IN+46268&hl=en"
INDIANA STATE POLICE,INDIANA STATE POLICE,1550 E. 181ST AVENUE,LOWELL,IN,46356,"http://maps.google.com/maps?q=1550 E. 181ST AVENUE,+LOWELL,+IN+46356&hl=en"
INDIANA STATE POLICE,"INDIANA STATE POLICE 
												
													DISTRICT 14",5921 SR 43 NORTH,WEST LAFAYETTE,IN,47906,"http://maps.google.com/maps?q=5921 SR 43 NORTH,+WEST LAFAYETTE,+IN+47906&hl=en"
INDIANA STATE POLICE,"INDIANA STATE POLICE 
												
													DISTRICT 16",145 N. EEL RIVER CEMETERY RD.,PERU,IN,46970,"http://maps.google.com/maps?q=145 N. EEL RIVER CEMETERY RD.,+PERU,+IN+46970&hl=en"
INDIANA STATE POLICE,"INDIANA STATE POLICE 
												
													DISTRICT 24",1425 MIAMI TRAIL,BREMEN,IN,46506,"http://maps.google.com/maps?q=1425 MIAMI TRAIL,+BREMEN,+IN+46506&hl=en"
INDIANA STATE POLICE,"INDIANA STATE POLICE 
												
													DISTRICT 33",1500 N. PACKINGHOUSE RD. #200,BLOOMINGTON,IN,47404,"http://maps.google.com/maps?q=1500 N. PACKINGHOUSE RD. #200,+BLOOMINGTON,+IN+47404&hl=en"
INDIANA STATE POLICE,"INDIANA STATE POLICE 
												
													DISTRICT 51",9022 SOUTH SR 67,PENDLETON,IN,46064,"http://maps.google.com/maps?q=9022 SOUTH SR 67,+PENDLETON,+IN+46064&hl=en"
INDIANA STATE POLICE,"INDIANA STATE POLICE 
												
													DISTRICT 52",8620 E. 21ST STREET,INDIANAPOLIS,IN,46219,"http://maps.google.com/maps?q=8620 E. 21ST STREET,+INDIANAPOLIS,+IN+46219&hl=en"
INDIANA STATE POLICE,"INDIANA STATE POLICE 
												
													DISTRICT 53",1927 WEST US 40,GREENCASTLE,IN,46135,"http://maps.google.com/maps?q=1927 WEST US 40,+GREENCASTLE,+IN+46135&hl=en"
INDIANA STATE POLICE,"INDIANA STATE POLICE 
												
													DISTRICT13",1550 E. 181ST STREET,LOWELL,IN,46356,"http://maps.google.com/maps?q=1550 E. 181ST STREET,+LOWELL,+IN+46356&hl=en"
INDIANAPOLIS FIRE DEPARTMENT,IFD FIRE STATION 1,1903 W 10TH ST,INDIANAPOLIS,IN,46222,"http://maps.google.com/maps?q=1903 W 10TH ST,+INDIANAPOLIS,+IN+46222&hl=en"
INDIANAPOLIS FIRE DEPARTMENT,IFD FIRE STATION 2,4120 MITTHOEFFER RD,INDIANAPOLIS,IN,46235,"http://maps.google.com/maps?q=4120 MITTHOEFFER RD,+INDIANAPOLIS,+IN+46235&hl=en"
INDIANAPOLIS FIRE DEPARTMENT,IFD FIRE STATION 23,1108 E THOMPSON RD,INDIANAPOLIS,IN,46227,"http://maps.google.com/maps?q=1108 E THOMPSON RD,+INDIANAPOLIS,+IN+46227&hl=en"
INDIANAPOLIS FIRE DEPARTMENT,IFD FIRE STATION 27,2918 E 10TH ST,INDIANAPOLIS,IN,46201,"http://maps.google.com/maps?q=2918 E 10TH ST,+INDIANAPOLIS,+IN+46201&hl=en"
INDIANAPOLIS FIRE DEPARTMENT,IFD FIRE STATION 4,8404 N DITCH RD,INDIANAPOLIS,IN,46260,"http://maps.google.com/maps?q=8404 N DITCH RD,+INDIANAPOLIS,+IN+46260&hl=en"
INGALLS POLICE DEPARTMENT,INGALLS POLICE DEPARTMENT,247 N MERIDIAN ST,INGALLS,IN,46048,"http://maps.google.com/maps?q=247 N MERIDIAN ST,+INGALLS,+IN+46048&hl=en"
IOWA CITY POLICE DEPARTMENT,EAST SIDE RECYCLING CENTER,2401 SCOTT BLVD SE,IOWA CITY,IA,52240,"http://maps.google.com/maps?q=2401 SCOTT BLVD SE,+IOWA CITY,+IA+52240&hl=en"
IROQUOIS COUNTY SHERIFF'S DEPARTMENT,IROQUOIS COUNTY JAIL (WEST DOOR),550 S 10TH ST.,WATSEKA,IL,60970,"http://maps.google.com/maps?q=550 S 10TH ST.,+WATSEKA,+IL+60970&hl=en"
JACKSON COUNTY SHERIFF'S OFFICE,MAQUOKETA POLICE DEPARTMENT,102 S NIAGARA ST,MAQUOKETA,IA,52060,"http://maps.google.com/maps?q=102 S NIAGARA ST,+MAQUOKETA,+IA+52060&hl=en"
JACKSON COUNTY SHERIFF'S OFFICE,SABULA POLICE DEPARTMENT,411 BROAD ST,SABULA,IA,52070,"http://maps.google.com/maps?q=411 BROAD ST,+SABULA,+IA+52070&hl=en"
JACKSONVILLE POLICE DEPARTMENT,JACKSONVILLE POLICE DEPARTMENT,200 W. DOUGLAS,JACKSONVILLE,IL,62650,"http://maps.google.com/maps?q=200 W. DOUGLAS,+JACKSONVILLE,+IL+62650&hl=en"
JERSEYVILLE POLICE DEPARTMENT,CVS PHARMACY-PHOTO,303 S STATE ST.,JERSEYVILLE,IL,62052,"http://maps.google.com/maps?q=303 S STATE ST.,+JERSEYVILLE,+IL+62052&hl=en"
JOHNSBURG POLICE DEPARTMENT,JOHNSBURG POLICE DEPARTMENT,3600 CHAPEL HILL ROAD,MCHENRY,IL,60051,"http://maps.google.com/maps?q=3600 CHAPEL HILL ROAD,+MCHENRY,+IL+60051&hl=en"
JOHNSBURG POLICE DEPARTMENT,"JOHNSBURG POLICE DEPARTMENT 
												
													PUBLIC SAFETY BUILDING",3611 CHAPEL HILL ROADATTN: JOHNSBURG POLICE DEPARTMENT,JOHNSBURG,IL,60051,"http://maps.google.com/maps?q=3611 CHAPEL HILL ROAD,+JOHNSBURG,+IL+60051&hl=en"
KANE COUNTY CORONER OFFICE,KANE COUNTY CORONER OFFICE,719 S. BATAVIA AVE.BUILDING E,GENEVA,IL,60134,"http://maps.google.com/maps?q=719 S. BATAVIA AVE.,+GENEVA,+IL+60134&hl=en"
KANE COUNTY SHERIFF'S OFFICE,KANE COUNTY SHERIFF'S OFFICE,37W755 IL ROUTE 38,SAINT CHARLES,IL,60175,"http://maps.google.com/maps?q=37W755 IL ROUTE 38,+SAINT CHARLES,+IL+60175&hl=en"
KANKAKEE AREA METROPOLITAN ENFORCEMENT GROUP,NORTHFIELD SQUARE MALL,1600 N STATE RT. 50,BRADLEY,IL,60915,"http://maps.google.com/maps?q=1600 N STATE RT. 50,+BRADLEY,+IL+60915&hl=en"
KEWANEE POLICE DEPARTMENT,"KEWANEE CITY HALL 
												
													ROTUNDA",401 E. THIRD STREET,KEWANEE,IL,61443,"http://maps.google.com/maps?q=401 E. THIRD STREET,+KEWANEE,+IL+61443&hl=en"
KNOX COUNTY SHERIFF OFFICE,"KNOX COUNTY SHERIFF'S OFFICE 
												
													24/7 DROP BOX",2375 S. OLD DECKER RD.,VINCENNES,IN,47591,"http://maps.google.com/maps?q=2375 S. OLD DECKER RD.,+VINCENNES,+IN+47591&hl=en"
KROGER SPEEDWAY,KROGER SPEEDWAY,5718 CRAWFORDSVILLE ROAD,INDIANAPOLIS,IN,46224,"http://maps.google.com/maps?q=5718 CRAWFORDSVILLE ROAD,+INDIANAPOLIS,+IN+46224&hl=en"
LA GRANGE POLICE DEPARTMENT,LA GRANGE POLICE DEPARTMENT,304 W BURLINGTONLA GRANGE,LA GRANGE,IL,60525,"http://maps.google.com/maps?q=304 W BURLINGTON,+LA GRANGE,+IL+60525&hl=en"
LADUE POLICE DEPARTMENT,LADUE POLICE DEPT.,9345 CLAYTON ROAD,SAINT LOUIS,MO,63124,"http://maps.google.com/maps?q=9345 CLAYTON ROAD,+SAINT LOUIS,+MO+63124&hl=en"
LAFAYETTE POLICE DEPARTMENT,LAFAYETTE POLICE TRAINING CENTER,1301 SOUTH STREET,LAFAYETTE,IN,47901,"http://maps.google.com/maps?q=1301 SOUTH STREET,+LAFAYETTE,+IN+47901&hl=en"
LAGRANGE PARK POLICE,LAGRANGE PARK POLICE,447 N. CATHERINE,LA GRANGE PARK,IL,60526,"http://maps.google.com/maps?q=447 N. CATHERINE,+LA GRANGE PARK,+IL+60526&hl=en"
LAKE COUNTY SHERIFF OFFICE,LONG GROVE FIRE DEPT,1165 OLD MCHENRY RD,LAKE ZURICH,IL,60047,"http://maps.google.com/maps?q=1165 OLD MCHENRY RD,+LAKE ZURICH,+IL+60047&hl=en"
LAKE COUNTY SHERIFF'S DEPARTMENT,"LAKE COUNTY SHERIFF'S DEPARTMENT 
												
													BUILDING C, MAIN LOBBY",2293 NORTH MAIN STREET,CROWN POINT,IN,46307,"http://maps.google.com/maps?q=2293 NORTH MAIN STREET,+CROWN POINT,+IN+46307&hl=en"
LAKE SAINT LOUIS POLICE DEPARTMENT,"LAKE SAINT LOUIS CIVIC CENTER 
												
													COUNCIL CHAMBERS",200 CIVIC CENTER,LAKE SAINT LOUIS,MO,63367,"http://maps.google.com/maps?q=200 CIVIC CENTER,+LAKE SAINT LOUIS,+MO+63367&hl=en"
LAKE ZURICH POLICE DEPARTMENT,LAKE ZURICH POLICE DEPARTMENT,200 MOHAWK TRAIL,LAKE ZURICH,IL,60047,"http://maps.google.com/maps?q=200 MOHAWK TRAIL,+LAKE ZURICH,+IL+60047&hl=en"
LAKEWOOD POLICE DEPARTMENT,LAKEWOOD POLICE DEPARTMENT,2500 LAKE AVENUE,CRYSTAL LAKE,IL,60014,"http://maps.google.com/maps?q=2500 LAKE AVENUE,+CRYSTAL LAKE,+IL+60014&hl=en"
LANSING POLICE DEPARTMENT,LANSING POLICE DEPARTMENT,2710 170TH ST.,LANSING,IL,60438,"http://maps.google.com/maps?q=2710 170TH ST.,+LANSING,+IL+60438&hl=en"
LASALLE COUNTY CORONER & SHERIFF,"LASALLE COUNTY CORONER & SHERIFF 
												
													CHIEF DEPUTY RICH PLOCH",707 EAST ETNA ROAD,OTTAWA,IL,61350,"http://maps.google.com/maps?q=707 EAST ETNA ROAD,+OTTAWA,+IL+61350&hl=en"
LEE COUNTY SHERIFF'S OFFICE,LEE COUNTY SHERIFF'S OFFICE,2530 255TH ST,MONTROSE,IA,52639,"http://maps.google.com/maps?q=2530 255TH ST,+MONTROSE,+IA+52639&hl=en"
LEMONT POLICE,LEMONT POLICE DEPARTMENT,14600 W. 127TH STREET,LEMONT,IL,60439,"http://maps.google.com/maps?q=14600 W. 127TH STREET,+LEMONT,+IL+60439&hl=en"
LEROY POLICE DEPARTMENT,LEROY CITY HALL,207 S. EAST ST.,LE ROY,IL,61752,"http://maps.google.com/maps?q=207 S. EAST ST.,+LE ROY,+IL+61752&hl=en"
LINCOLN POLICE DEPARTMENT,LINCOLN POLICE DEPARTMENT,911 PEKIN ST,LINCOLN,IL,62656,"http://maps.google.com/maps?q=911 PEKIN ST,+LINCOLN,+IL+62656&hl=en"
LITCHFIELD POLICE DEPARTMENT,"LITCHFIELD POLICE DEPARTMENT 
												
													LOBBY DROP BOX",120 E. RYDER STREET,LITCHFIELD,IL,62056,"http://maps.google.com/maps?q=120 E. RYDER STREET,+LITCHFIELD,+IL+62056&hl=en"
LOVES PARK POLICE DEPARTMENT,LOVES PARK POLICE @ WALGREENS,5900 N. 2ND ST.,LOVES PARK,IL,61111,"http://maps.google.com/maps?q=5900 N. 2ND ST.,+LOVES PARK,+IL+61111&hl=en"
LOWELL POLICE DEPARTMENT,"LOWELL POLICE DEPARTMENT 
												
													DROP BOX",1333 COMMERCIAL AVENUE,LOWELL,IN,46356,"http://maps.google.com/maps?q=1333 COMMERCIAL AVENUE,+LOWELL,+IN+46356&hl=en"
MADISON COUNTY SHERIFF'S OFFICE,"MADISON COUNTY ADMINISTRATION BUILDING 
												
													PARKING LOT",157 N. MAIN STREETNORTH. 2ND STREET PARKING LOT,EDWARDSVILLE,IL,62025,"http://maps.google.com/maps?q=157 N. MAIN STREET,+EDWARDSVILLE,+IL+62025&hl=en"
MAPLEWOOD POLICE DEPARTMENT,MAPLEWOOD POLICE DEPARTMENT,7601 MANCHESTER,MAPLEWOOD,MO,63143,"http://maps.google.com/maps?q=7601 MANCHESTER,+MAPLEWOOD,+MO+63143&hl=en"
MARENGO POLICE DEPARTMENT,MARENGO POLICE DEPARTMENT,142 E. PRAIRIE STREET,MARENGO,IL,60152,"http://maps.google.com/maps?q=142 E. PRAIRIE STREET,+MARENGO,+IL+60152&hl=en"
MARION COUNTY SHERIFF'S DEPT,MARION COUNTY SHERIFF'S DEPT,204 N. WASHINGTON STREET,SALEM,IL,62881,"http://maps.google.com/maps?q=204 N. WASHINGTON STREET,+SALEM,+IL+62881&hl=en"
MARION COUNTY SHERIFF'S OFFICE,"MARION COUNTY SHERIFF'S OFFICE 
												
													DROP BOX 24/7",40 S. ALABAMA ST.,INDIANAPOLIS,IN,46204,"http://maps.google.com/maps?q=40 S. ALABAMA ST.,+INDIANAPOLIS,+IN+46204&hl=en"
MARSHALL COUNTY SHERIFF'S DEPARTMENT,WALGREENS PHARMACY,2014 N. MICHIGAN,PLYMOUTH,IN,46563,"http://maps.google.com/maps?q=2014 N. MICHIGAN,+PLYMOUTH,+IN+46563&hl=en"
MARSHALL POLICE DEPARTMENT,"MARSHALL FIRE PROTECTION DISTRICT FIRE DEPARTMENT 
												
													CORNER OF ILLINOIS STATE HWY 1 AND ARCHER AVE",718 ARCHER AVE,MARSHALL,IL,62441,"http://maps.google.com/maps?q=718 ARCHER AVE,+MARSHALL,+IL+62441&hl=en"
MARYLAND HEIGHTS POLICE DEPARTMENT,MARYLAND HEIGHTS POLICE DEPARTMENT,11911 DORSETTE ROAD,MARYLAND HEIGHTS,MO,63043,"http://maps.google.com/maps?q=11911 DORSETTE ROAD,+MARYLAND HEIGHTS,+MO+63043&hl=en"
MARYVILLE POLICE DEPT,MARYVILLE POLICE DEPARTMENT,2500 N. CENTER,MARYVILLE,IL,62062,"http://maps.google.com/maps?q=2500 N. CENTER,+MARYVILLE,+IL+62062&hl=en"
MASON COUNTY SHERIFF'S OFFICE,"IGA STORE - MASON CITY 
												
													10:00 AM - 11:00 AM  (PARKING LOT)",201 WEST ELM,MASON CITY,IL,62664,"http://maps.google.com/maps?q=201 WEST ELM,+MASON CITY,+IL+62664&hl=en"
MASON COUNTY SHERIFF'S OFFICE,"ONEY FOOD'S PARKING LOT 
												
													PARKING LOT 1:00 PM - 2:00 PM",500 S. PROMENADE,HAVANA,IL,62644,"http://maps.google.com/maps?q=500 S. PROMENADE,+HAVANA,+IL+62644&hl=en"
MASON COUNTY SHERIFF'S OFFICE,"THE LODGE AT MANITO 
												
													11:30 AM - 12:30 PM (PARKING LOT)",1303 S. EAST AVENUE,MANITO,IL,61546,"http://maps.google.com/maps?q=1303 S. EAST AVENUE,+MANITO,+IL+61546&hl=en"
MATTOON POLICE DEPARTMENT,WALGREENS,208 S. LOGAN,MATTOON,IL,61938,"http://maps.google.com/maps?q=208 S. LOGAN,+MATTOON,+IL+61938&hl=en"
MENARD COUNTY SHERIFF'S DEPT.,MENARD COUNTY JAIL,315 S. SIXTH STREET,PETERSBURG,IL,62675,"http://maps.google.com/maps?q=315 S. SIXTH STREET,+PETERSBURG,+IL+62675&hl=en"
MERCER COUNTY SHERIFF'S OFFICE,MATHERVILLE VILLAGE HALL,500 2ND STREET,MATHERVILLE,IL,61263,"http://maps.google.com/maps?q=500 2ND STREET,+MATHERVILLE,+IL+61263&hl=en"
MERCER COUNTY SHERIFF'S OFFICE,SEATON FIRE STATION,317 MAPLE STREET,SEATON,IL,61476,"http://maps.google.com/maps?q=317 MAPLE STREET,+SEATON,+IL+61476&hl=en"
METROPOLITAN WATER RECLAMATION POLICE,METRO WATER RECLAMATION POLICE,3500 HOWARD ST,SKOKIE,IL,60076,"http://maps.google.com/maps?q=3500 HOWARD ST,+SKOKIE,+IL+60076&hl=en"
METROPOLITAN WATER RECLAMATION POLICE,METRO WATER RECLAMATION POLICE,400 E. 130TH ST,CHICAGO,IL,60628,"http://maps.google.com/maps?q=400 E. 130TH ST,+CHICAGO,+IL+60628&hl=en"
METROPOLITAN WATER RECLAMATION POLICE,METRO WATER RECLAMATION POLICE,6001 W. PERSHING RD,CICERO,IL,60804,"http://maps.google.com/maps?q=6001 W. PERSHING RD,+CICERO,+IL+60804&hl=en"
MILAN POLICE DEPARTMENT,"MILAN MUNICIPAL BUILDING 
												
													FRONT PARKING LOT",405 E. 1ST STREET,MILAN,IL,61264,"http://maps.google.com/maps?q=405 E. 1ST STREET,+MILAN,+IL+61264&hl=en"
MINIER POLICE DEPARTMENT,MINIER POLICE DEPARTMENT,110 W. CENTRAL STREET,MINIER,IL,61759,"http://maps.google.com/maps?q=110 W. CENTRAL STREET,+MINIER,+IL+61759&hl=en"
"MOKENA, ILLINOIS POLICE DEPARTMENT",MOKENA POLICE DEPARMENT,10907 FRONT STREET,MOKENA,IL,60448,"http://maps.google.com/maps?q=10907 FRONT STREET,+MOKENA,+IL+60448&hl=en"
MOLINE POLICE DEPARTMENT,MOLINE POLICE DEPARTMENT,1640 6TH AVE,MOLINE,IL,61265,"http://maps.google.com/maps?q=1640 6TH AVE,+MOLINE,+IL+61265&hl=en"
MONTGOMERY COUNTY SHERIFF'S OFFICE,MONTGOMERY COUNTY SHERIFF'S OFFICE,140 N. MAIN STREET,HILLSBORO,IL,62049,"http://maps.google.com/maps?q=140 N. MAIN STREET,+HILLSBORO,+IL+62049&hl=en"
MONTICELLO POLICE DEPARTMENT,MONTICELLO POLICE DEPARTMENT,301 N. HAMILTON,MONTICELLO,IL,61856,"http://maps.google.com/maps?q=301 N. HAMILTON,+MONTICELLO,+IL+61856&hl=en"
MORTON POLICE DEPARTMENT,MORTON POLICE DEPARTMENT,375 W. BIRCHWOOD STREET,MORTON,IL,61550,"http://maps.google.com/maps?q=375 W. BIRCHWOOD STREET,+MORTON,+IL+61550&hl=en"
MOUNT PROSPECT POLICE DEPARTMENT,POLICE DEPARTMENT LOBBY,112 E. NORTHWEST HWY,MOUNT PROSPECT,IL,60056,"http://maps.google.com/maps?q=112 E. NORTHWEST HWY,+MOUNT PROSPECT,+IL+60056&hl=en"
MOUNT VERNON POLICE DEPARTMENT,MOUNT VERNON POLICE DEPARTMENT,213 1ST STREET NW,MOUNT VERNON,IA,52314,"http://maps.google.com/maps?q=213 1ST STREET NW,+MOUNT VERNON,+IA+52314&hl=en"
MUNSTER POLICE DEPARTMENT,"MUNSTER POLICE DEPARTMENT 
												
													DROP BOX",1001 RIDGE RD.,MUNSTER,IN,46321,"http://maps.google.com/maps?q=1001 RIDGE RD.,+MUNSTER,+IN+46321&hl=en"
NAPERVILLE POLICE DEPARTMENT,NAPERVILLE POLICE DEPARTMENT,1350 AURORA AVE,NAPERVILLE,IL,60540,"http://maps.google.com/maps?q=1350 AURORA AVE,+NAPERVILLE,+IL+60540&hl=en"
NORMAL POLICE DEPARTMENT,NORMAL POLICE DEPARTMENT,100 E. PHOENIX AVENUE,NORMAL,IL,61761,"http://maps.google.com/maps?q=100 E. PHOENIX AVENUE,+NORMAL,+IL+61761&hl=en"
NORTH RIVERSIDE POLICE DEPARTMENT,NORTH RIVERSIDE POLICE STATION,2359 S. DESPLAINES AVE.,NORTH RIVERSIDE,IL,60546,"http://maps.google.com/maps?q=2359 S. DESPLAINES AVE.,+NORTH RIVERSIDE,+IL+60546&hl=en"
NORTHFIELD POLICE DEPARTMENT,NORTHFIELD POLICE DEPARTMENT,350 WALNUT AVE.,NORTHFIELD,IL,60093,"http://maps.google.com/maps?q=350 WALNUT AVE.,+NORTHFIELD,+IL+60093&hl=en"
NORTHWOODS POLICE DEPARTMENT,NORTHWOODS POLICE DEPARTMENT,4608 OAKRIDGE BLVD,SAINT LOUIS,MO,63121,"http://maps.google.com/maps?q=4608 OAKRIDGE BLVD,+SAINT LOUIS,+MO+63121&hl=en"
O'FALLON POLICE DEPARTMENT,O'FALLON PUBLIC SAFETY BUILDING,285 NORTH SEVEN HILLS ROAD,O FALLON,IL,62269,"http://maps.google.com/maps?q=285 NORTH SEVEN HILLS ROAD,+O FALLON,+IL+62269&hl=en"
OLIVETTE POLICE DEPARTMENT,OLIVETTE MUNICIPAL BUILDING,1140 DIELMAN RD.,OLIVETTE,MO,63132,"http://maps.google.com/maps?q=1140 DIELMAN RD.,+OLIVETTE,+MO+63132&hl=en"
ORLAND PARK POLICE DEPARTMENT,ORLAND PARK POLICE DEPARTMENT,15100 RAVINIA AVE,ORLAND PARK,IL,60462,"http://maps.google.com/maps?q=15100 RAVINIA AVE,+ORLAND PARK,+IL+60462&hl=en"
OTTAWA POLICE DEPARTMENT,OTTAWA HEALTH MART PHARMACY,9001ST AVE.,OTTAWA,IL,61350,"http://maps.google.com/maps?q=900,+OTTAWA,+IL+61350&hl=en"
OTTAWA POLICE DEPARTMENT,"OTTAWA POLICE DEPARTMENT 
												
													LOBBY",301W. LAFYETTE ST.,OTTAWA,IL,61350,"http://maps.google.com/maps?q=301,+OTTAWA,+IL+61350&hl=en"
OVERLAND (MO) POLICE DEPARTMENT,OVERLAND POLICE DEPT.,2410 GOODALE,OVERLAND,MO,63114,"http://maps.google.com/maps?q=2410 GOODALE,+OVERLAND,+MO+63114&hl=en"
PALATINE POLICE DEPARTMENT,PALATINE POLICE DEPARTMENT,595 N. HICKS RD.,PALATINE,IL,60067,"http://maps.google.com/maps?q=595 N. HICKS RD.,+PALATINE,+IL+60067&hl=en"
PANA POLICE DEPARTMENT,WALGREENS,108 SOUTH POPLAR STREET,PANA,IL,62557,"http://maps.google.com/maps?q=108 SOUTH POPLAR STREET,+PANA,+IL+62557&hl=en"
PEKIN POLICE DEPARTMENT,"PEKIN POLICE DEPARTMENT 
												
													LOBBY",111 SOUTH CAPITOL STREET,PEKIN,IL,61554,"http://maps.google.com/maps?q=111 SOUTH CAPITOL STREET,+PEKIN,+IL+61554&hl=en"
PENDLETON POLICE DEPARTMENT,"CVS, PENDLETON",620 E STATE STREET,PENDLETON,IN,46064,"http://maps.google.com/maps?q=620 E STATE STREET,+PENDLETON,+IN+46064&hl=en"
PEORIA POLICE DEPARTMENT,KROGER PHARMACY,9219 N. LINDBERGH DRIVE,PEORIA,IL,61615,"http://maps.google.com/maps?q=9219 N. LINDBERGH DRIVE,+PEORIA,+IL+61615&hl=en"
PEORIA POLICE DEPARTMENT,PEORIA POLICE DEPARTMENT,600 SW ADAMS,PEORIA,IL,61602,"http://maps.google.com/maps?q=600 SW ADAMS,+PEORIA,+IL+61602&hl=en"
PLAINFIELD POLICE DEPARTMENT,THE PLAINFIELD POLICE DEPARTMENT,14300 S. COIL PLUS DRIVE,PLAINFIELD,IL,60544,"http://maps.google.com/maps?q=14300 S. COIL PLUS DRIVE,+PLAINFIELD,+IL+60544&hl=en"
PORTER POLICE DEPARTMENT,"PORTER POLICE DEPARTMENT 
												
													DROP BOX",50 FRANCIS STREET,PORTER,IN,46304,"http://maps.google.com/maps?q=50 FRANCIS STREET,+PORTER,+IN+46304&hl=en"
PROSPECT HEIGHTS POLICE DEPARTMENT,PROSPECT HEIGHTS POLICE DEPARTMENT,14 E. CAMP MCDONALD ROAD,PROSPECT HEIGHTS,IL,60070,"http://maps.google.com/maps?q=14 E. CAMP MCDONALD ROAD,+PROSPECT HEIGHTS,+IL+60070&hl=en"
RICHMOND HEIGHTS POLICE DEPARTMENT,"RICHMOND HEIGHTS POLICE DEPARTMENT 
												
													FRONT LOBBY",7447 DALE AVENUE,RICHMOND HEIGHTS,MO,63117,"http://maps.google.com/maps?q=7447 DALE AVENUE,+RICHMOND HEIGHTS,+MO+63117&hl=en"
RIVERSIDE POLICE DEPARTMENT,RIVERSIDE PD,31 RIVERSIDE RD,RIVERSIDE,IL,60546,"http://maps.google.com/maps?q=31 RIVERSIDE RD,+RIVERSIDE,+IL+60546&hl=en"
ROBINSON POLICE DEPARTMENT,"CRAWFORD MEMORIAL HOSPITAL 
												
													SOUTH DRIVE THRU ENTRANCE",1000 NORTH ALLEN STREET,ROBINSON,IL,62454,"http://maps.google.com/maps?q=1000 NORTH ALLEN STREET,+ROBINSON,+IL+62454&hl=en"
ROCK ISLAND COUNTY SHERIFF'S OFFICE,ROCK ISLAND COUNTY JUSTICE CENTER,1317 3RD AVENUE,ROCK ISLAND,IL,61201,"http://maps.google.com/maps?q=1317 3RD AVENUE,+ROCK ISLAND,+IL+61201&hl=en"
ROLLING MEADOWS POLICE DEPARTMENT,ROLLING MEADOWS POLICE DEPARTMENT,3600 KIRCHOFF RD.,ROLLING MEADOWS,IL,60008,"http://maps.google.com/maps?q=3600 KIRCHOFF RD.,+ROLLING MEADOWS,+IL+60008&hl=en"
SALEM POLICE DEPARTMENT,SALEM POLICE DEPARTMENT,201 S. ROTAN AVE.,SALEM,IL,62881,"http://maps.google.com/maps?q=201 S. ROTAN AVE.,+SALEM,+IL+62881&hl=en"
SANDWICH POLICE DEPARTMENT/NW MEDICINE/VALLEY WEST,NORTHWEST MEDICINE VALLEY WEST HOSPITAL,1302 N. MAIN STREET,SANDWICH,IL,60548,"http://maps.google.com/maps?q=1302 N. MAIN STREET,+SANDWICH,+IL+60548&hl=en"
SANGAMON COUNTY SHERIFF'S OFFICE,SANGAMON COUNTY PUBLIC HEALTH,2833 SOUTH GRAND AVE EAST,SPRINGFIELD,IL,62703,"http://maps.google.com/maps?q=2833 SOUTH GRAND AVE EAST,+SPRINGFIELD,+IL+62703&hl=en"
SCHERERVILLE POLICE DEPARTMENT,"SCHERERVILLE POLICE DEPARTMENT 
												
													DROP BOX",25 E. JOLIET ST.,SCHERERVILLE,IN,46375,"http://maps.google.com/maps?q=25 E. JOLIET ST.,+SCHERERVILLE,+IN+46375&hl=en"
SEYMOUR POLICE DEPARTMENT,"BROWNSTOWN SENIOR CENTER 
												
													11:30 AM TO 1:30 PM",124 S MAIN ST,BROWNSTOWN,IN,47220,"http://maps.google.com/maps?q=124 S MAIN ST,+BROWNSTOWN,+IN+47220&hl=en"
SEYMOUR POLICE DEPARTMENT,"FREETOWN COMMUNITY CENTER 
												
													4:30 -6:30 PM",6789 N UNION ST,FREETOWN,IN,47235,"http://maps.google.com/maps?q=6789 N UNION ST,+FREETOWN,+IN+47235&hl=en"
SEYMOUR POLICE DEPARTMENT,"MEDORA SENIOR CENTER 
												
													2-4 PM",52 W MAIN ST,MEDORA,IN,47260,"http://maps.google.com/maps?q=52 W MAIN ST,+MEDORA,+IN+47260&hl=en"
SHERMAN POLICE DEPARTMENT,SHERMAN POLICE DEPARTMENT,2629 E. ANDREW ROAD,SHERMAN,IL,62684,"http://maps.google.com/maps?q=2629 E. ANDREW ROAD,+SHERMAN,+IL+62684&hl=en"
SHOREWOOD POLICE DEPARTMENT,SHOREWOOD POLICE DEPARTMENT @ MARIANO'S,950 BROOKFOREST AVENUE (ROUTE 59),SHOREWOOD,IL,60404,"http://maps.google.com/maps?q=950 BROOKFOREST AVENUE (ROUTE 59),+SHOREWOOD,+IL+60404&hl=en"
SILVIS POLICE DEPARTMENT,SILVIS POLICE DEPARTMENT,600 ILLINI DR,SILVIS,IL,61282,"http://maps.google.com/maps?q=600 ILLINI DR,+SILVIS,+IL+61282&hl=en"
SKOKIE POLICE DEPARTMENT,SKOKIE POLICE DEPARTMENT,7300 NILES CENTER,SKOKIE,IL,60077,"http://maps.google.com/maps?q=7300 NILES CENTER,+SKOKIE,+IL+60077&hl=en"
SOUTH JACKSONVILLE POLICE DEPARTMENT,SOUTH JACKSONVILLE POLICE DEPARTMENT,1810 SEQUOIA,JACKSONVILLE,IL,62650,"http://maps.google.com/maps?q=1810 SEQUOIA,+JACKSONVILLE,+IL+62650&hl=en"
SOUTHEAST IOWA NARCOTICS TASK FORCE,SLUMBERLAND FURNITURE,3150 E. AGENCY RD,BURLINGTON,IA,52601,"http://maps.google.com/maps?q=3150 E. AGENCY RD,+BURLINGTON,+IA+52601&hl=en"
SPENCER POLICE DEPARTMENT,GOSPORT TOWN HALL,13 SOUTH 3RD ST.,GOSPORT,IN,47433,"http://maps.google.com/maps?q=13 SOUTH 3RD ST.,+GOSPORT,+IN+47433&hl=en"
SPENCER POLICE DEPARTMENT,SPENCER POLICE DEPT.,"80 N WEST ST, 80 N. WEST STREET",SPENCER,IN,47460,"http://maps.google.com/maps?q=80 N WEST ST, 80 N. WEST STREET,+SPENCER,+IN+47460&hl=en"
SPRINGFIELD POLICE DEPARTMENT,HY-VEE PHARMACY,2115 S. MACARTHUR,SPRINGFIELD,IL,62704,"http://maps.google.com/maps?q=2115 S. MACARTHUR,+SPRINGFIELD,+IL+62704&hl=en"
SPRINGFIELD POLICE DEPARTMENT,PREVENTION FIRST,2800 MONTVALE DR,SPRINGFIELD,IL,62704,"http://maps.google.com/maps?q=2800 MONTVALE DR,+SPRINGFIELD,+IL+62704&hl=en"
ST. ANN POLICE DEPARTMENT,ST. ANN POLICE DEPARTMENT,10405 ST. CHARLES ROCK RD.,SAINT ANN,MO,63074,"http://maps.google.com/maps?q=10405 ST. CHARLES ROCK RD.,+SAINT ANN,+MO+63074&hl=en"
ST. CHARLES CITY POLICE DEPARTMENT,ST. CHARLES CITY POLICE DEPARTMENT,1781 ZUMBEHL ROAD,SAINT CHARLES,MO,63303,"http://maps.google.com/maps?q=1781 ZUMBEHL ROAD,+SAINT CHARLES,+MO+63303&hl=en"
ST. CHARLES COUNTY POLICE DEPARTMENT,ST. CHARLES COUNTY POLICE DEPARTMENT,101 SHERIFF DIERKER COURT,OFALLON,MO,63366,"http://maps.google.com/maps?q=101 SHERIFF DIERKER COURT,+OFALLON,+MO+63366&hl=en"
ST. CHARLES POLICE DEPT,"NORTHWESTERN MEDICINE 
												
													WITH ST. CHARLES POLICE",2900 FOXFIELD ROAD,SAINT CHARLES,IL,60174,"http://maps.google.com/maps?q=2900 FOXFIELD ROAD,+SAINT CHARLES,+IL+60174&hl=en"
ST. CLAIR COUNTY SHERIFF'S DEPARTMENT,ST CLAIR COUNTY SHERIFF'S DEPARTMENT,700 NORTH 5TH STREET,BELLEVILLE,IL,62220,"http://maps.google.com/maps?q=700 NORTH 5TH STREET,+BELLEVILLE,+IL+62220&hl=en"
ST. JOHN POLICE DEPARTMENT,"CITY OF ST. JOHN MUNICIPAL BUILDING 
												
													POLICE DEPARTMENT",8944 ST. CHARLES ROCK ROAD,SAINT JOHN,MO,63114,"http://maps.google.com/maps?q=8944 ST. CHARLES ROCK ROAD,+SAINT JOHN,+MO+63114&hl=en"
ST. LOUIS COUNTY POLICE DEPARTMENT,CENTRAL COUNTY PRECINCT,1333 ASHBY ROAD,SAINT LOUIS,MO,63132,"http://maps.google.com/maps?q=1333 ASHBY ROAD,+SAINT LOUIS,+MO+63132&hl=en"
ST. LOUIS COUNTY POLICE DEPARTMENT,CITY OF HANLEY HILLS SUBSTATION,7713 UTICA,HANLEY HILLS,MO,63133,"http://maps.google.com/maps?q=7713 UTICA,+HANLEY HILLS,+MO+63133&hl=en"
ST. LOUIS COUNTY POLICE DEPARTMENT,CITY OF JENNINGS PRECINCT,5445 JENNINGS STATION ROAD,JENNINGS,MO,63136,"http://maps.google.com/maps?q=5445 JENNINGS STATION ROAD,+JENNINGS,+MO+63136&hl=en"
ST. LOUIS COUNTY POLICE DEPARTMENT,NORTH COUNTY RECREATIONAL COMPLEX,2577 REDMAN ROAD,SAINT LOUIS,MO,63136,"http://maps.google.com/maps?q=2577 REDMAN ROAD,+SAINT LOUIS,+MO+63136&hl=en"
ST. LOUIS METROPOLITAN PD,CENTRAL PATROL DIVISION,919 N. JEFFERSON,SAINT LOUIS,MO,63139,"http://maps.google.com/maps?q=919 N. JEFFERSON,+SAINT LOUIS,+MO+63139&hl=en"
ST. LOUIS METROPOLITAN PD,"NORTH PATROL DIVISION 
												
													YMCA",4642 W. FLORISSANT,SAINT LOUIS,MO,63115,"http://maps.google.com/maps?q=4642 W. FLORISSANT,+SAINT LOUIS,+MO+63115&hl=en"
ST. LOUIS METROPOLITAN PD,SOUTH PATROL DIVISION,3157 SUBLETTE AVE,SAINT LOUIS,MO,63139,"http://maps.google.com/maps?q=3157 SUBLETTE AVE,+SAINT LOUIS,+MO+63139&hl=en"
ST. LOUIS UNIVERSITY-DEPARTMENT OF PUBLIC SAFETY,"WOOL CENTER - 28TH & 30TH @ DEBURG HALL 
												
													DEPARTMENT OF PUBLIC SAFETY-SAINT LOUIS UNIVERSITY",3545 LINDELL DRIVE,SAINT LOUIS,MO,63103,"http://maps.google.com/maps?q=3545 LINDELL DRIVE,+SAINT LOUIS,+MO+63103&hl=en"
ST. PETERS POLICE DEPARTMENT,ST. PETERS POLICE DEPARTMENT,1020 GRAND TETON DRIVE,SAINT PETERS,MO,63376,"http://maps.google.com/maps?q=1020 GRAND TETON DRIVE,+SAINT PETERS,+MO+63376&hl=en"
STANFORD POLICE DEPARTMENT,STANFORD VILLAGE HALL,206 W. MAIN STREET,STANFORD,IL,61774,"http://maps.google.com/maps?q=206 W. MAIN STREET,+STANFORD,+IL+61774&hl=en"
STREAMWOOD POLICE DEPARTMENT,VILLAGE OF STREAMWOOD POLICE DEPARTMENT,401 E. IRVING PARK RD,STREAMWOOD,IL,60107,"http://maps.google.com/maps?q=401 E. IRVING PARK RD,+STREAMWOOD,+IL+60107&hl=en"
SUGAR GROVE PD,SUGAR GROVE POLICE DEPARTMENT,10 S. MUNICIPAL DR,SUGAR GROVE,IL,60554,"http://maps.google.com/maps?q=10 S. MUNICIPAL DR,+SUGAR GROVE,+IL+60554&hl=en"
SULLIVAN CO. SWCD,SULLIVAN CITY PARK,611 S. MAIN ST.,SULLIVAN,IN,47882,"http://maps.google.com/maps?q=611 S. MAIN ST.,+SULLIVAN,+IN+47882&hl=en"
SULLIVAN POLICE DEPARTMENT,SULLIVAN POLICE DEPARTMENT,307 SOUTH VANBUREN,SULLIVAN,IL,61951,"http://maps.google.com/maps?q=307 SOUTH VANBUREN,+SULLIVAN,+IL+61951&hl=en"
SWANSEA POLICE DEPT,WALGREENS,2532 N. ILLINOIS STREET,BELLEVILLE,IL,62226,"http://maps.google.com/maps?q=2532 N. ILLINOIS STREET,+BELLEVILLE,+IL+62226&hl=en"
TAYLORVILLE POLICE DEPARTMENT,WALGREENS,315 N. WEBSTER,TAYLORVILLE,IL,62568,"http://maps.google.com/maps?q=315 N. WEBSTER,+TAYLORVILLE,+IL+62568&hl=en"
TRENTON POLICE DEPARTMENT,TRENTON POLICE DEPARTMENT,25 W. INDIANA STREET,TRENTON,IL,62293,"http://maps.google.com/maps?q=25 W. INDIANA STREET,+TRENTON,+IL+62293&hl=en"
TRUESDALE POLICE DEPARTMENT,TRUESDALE POLICE DEPARTMENT,TRUESDALE POLICE DEPARTMENT109 PINCKNEY STREET,TRUESDALE,MO,63380,"http://maps.google.com/maps?q=TRUESDALE POLICE DEPARTMENT,+TRUESDALE,+MO+63380&hl=en"
VALPARAISO POLICE DEPARTMENT,"VALPARAISO POLICE DEPARTMENT 
												
													DROP BOX",355 WASHINGTON ST.,VALPARAISO,IN,46383,"http://maps.google.com/maps?q=355 WASHINGTON ST.,+VALPARAISO,+IN+46383&hl=en"
VANDALIA POLICE DEPARTMENT,VANDALIA POLICE DEPARTMENT,219 SOUTH 5TH STREET,VANDALIA,IL,62471,"http://maps.google.com/maps?q=219 SOUTH 5TH STREET,+VANDALIA,+IL+62471&hl=en"
VILLA PARK POLICE DEPARTMENT,VILLA PARK POLICE DEPARTMENT,40 S. ARDMORE,VILLA PARK,IL,60181,"http://maps.google.com/maps?q=40 S. ARDMORE,+VILLA PARK,+IL+60181&hl=en"
VILLAGE OF LINCOLNSHIRE POLICE DEPARTMENT,VILLAGE OF LINCOLNSHIRE POLICE DEPARTMENT,ONE OLDE HALF DAY RD.,LINCOLNSHIRE,IL,60069,"http://maps.google.com/maps?q=ONE OLDE HALF DAY RD.,+LINCOLNSHIRE,+IL+60069&hl=en"
VILLAGE OF SAUK VILLAGE POLICE DEPARTMENT,"SAUK VILLAGE POLICE DEPARTMENT 
												
													POLICE DEPARTMENT LOBBY",21701 TORRENCE AVE,SAUK VILLAGE,IL,60411,"http://maps.google.com/maps?q=21701 TORRENCE AVE,+SAUK VILLAGE,+IL+60411&hl=en"
VINCENNES POLICE DEPARTMENT,"VINCENNES POLICE DEPARTMENT 
												
													AVAILABLE 24 HOURS",501 BUSSERON STREET,VINCENNES,IN,47591,"http://maps.google.com/maps?q=501 BUSSERON STREET,+VINCENNES,+IN+47591&hl=en"
VINCENNES UNIVERSITY POICE DEPARTMENT,VINCENNES UNIVERSITY CAMPUS POLICE,1201 N. 2ND STREET,VINCENNES,IN,47591,"http://maps.google.com/maps?q=1201 N. 2ND STREET,+VINCENNES,+IN+47591&hl=en"
WASHINGTON POLICE DEPARTMENT,WASHINGTON POLICE DEPARTMENT,115 W. JEFFERSON ST.,WASHINGTON,IL,61571,"http://maps.google.com/maps?q=115 W. JEFFERSON ST.,+WASHINGTON,+IL+61571&hl=en"
WAUCONDA POLICE,WAUCONDA POLICE DEPARTMENT,311 S. MAIN STREET,WAUCONDA,IL,60084,"http://maps.google.com/maps?q=311 S. MAIN STREET,+WAUCONDA,+IL+60084&hl=en"
WEBSTER GROVES POLICE DEPARTMENT,WEBSTER GROVES RECREATION COMPLEX,33 EAST GLENDALE AVENUE,WEBSTER GROVES,MO,63119,"http://maps.google.com/maps?q=33 EAST GLENDALE AVENUE,+WEBSTER GROVES,+MO+63119&hl=en"
WEST BRANCH POLICE DEPARTMENT,WEST BRANCH CITY HALL,110 N. POPLAR ST.,WEST BRANCH,IA,52358,"http://maps.google.com/maps?q=110 N. POPLAR ST.,+WEST BRANCH,+IA+52358&hl=en"
WEST LIBERTY IOWA POLICE DEPARTMENT,"CITY HALL 
												
													LOBBY (10AM - 1PM)",409 N. CALHOUN ST,WEST LIBERTY,IA,52776,"http://maps.google.com/maps?q=409 N. CALHOUN ST,+WEST LIBERTY,+IA+52776&hl=en"
WESTCHESTER POLICE,"WESTCHESTER POLICE @ MARIANO'S 
												
													ELIZABETH SEYBOLD",3020 WOLF RD,WESTCHESTER,IL,60154,"http://maps.google.com/maps?q=3020 WOLF RD,+WESTCHESTER,+IL+60154&hl=en"
WESTMONT POLICE DEPARTMENT,"WESTMONT POLICE DEPARTMENT 
												
													HEADQUARTERS",500 N. CASS AVE,WESTMONT,IL,60559,"http://maps.google.com/maps?q=500 N. CASS AVE,+WESTMONT,+IL+60559&hl=en"
WESTMONT POLICE DEPARTMENT,"WESTMONT POLICE DEPATMENT 
												
													2ND LOCATION - MARIANO'S OUTDOOR FOODCOURT",150 63RD STREET,WESTMONT,IL,60559,"http://maps.google.com/maps?q=150 63RD STREET,+WESTMONT,+IL+60559&hl=en"
WHITE COUNTY SHERIFF'S DEPARTMENT,"WHITE COUNTY SHERIFF'S DEPARTMENT 
												
													DROP BOX",915 W. HANAWALT,MONTICELLO,IN,47960,"http://maps.google.com/maps?q=915 W. HANAWALT,+MONTICELLO,+IN+47960&hl=en"
WILL COUNTY SHERIFF'S OFFICE,"WILL COUNTY COURTHOUSE 
												
													PARKING LOT",14 W. JEFFERSON ST,JOLIET,IL,60432,"http://maps.google.com/maps?q=14 W. JEFFERSON ST,+JOLIET,+IL+60432&hl=en"
WILMINGTON POLICE DEPARTMENT,WILMINGTON POLICE DEPARTMENT,129 ROBERT WEIDLING DRIVE,WILMINGTON,IL,60481,"http://maps.google.com/maps?q=129 ROBERT WEIDLING DRIVE,+WILMINGTON,+IL+60481&hl=en"
WINFIELD POLICE DEPARTMENT,WALGREENS PHARMACY,10920 RANDOLPH STREET,CROWN POINT,IN,46307,"http://maps.google.com/maps?q=10920 RANDOLPH STREET,+CROWN POINT,+IN+46307&hl=en"
WINNETKA POLICE DEPARTMENT,WINNETKA POLICE DEPARTMENT,410 GREEN BAY ROAD,WINNETKA,IL,60093,"http://maps.google.com/maps?q=410 GREEN BAY ROAD,+WINNETKA,+IL+60093&hl=en"
WOOD RIVER POLICE DEPARTMENT,WOOD RIVER PUBLIC LIBRARY,326 E. FERGUSON AVE,WOOD RIVER,IL,62095,"http://maps.google.com/maps?q=326 E. FERGUSON AVE,+WOOD RIVER,+IL+62095&hl=en"
WOODFORD COUNTY SHERIFF'S OFFICE,WOODFORD COUNTY HEALTH DEPARTMENT,1831 S. MAIN STREET,EUREKA,IL,61530,"http://maps.google.com/maps?q=1831 S. MAIN STREET,+EUREKA,+IL+61530&hl=en"
WOODSTOCK POLICE DEPARTMENT,WOODSTOCK POLICE DEPARTMENT,656 LAKE AVENUE,WOODSTOCK,IL,60098,"http://maps.google.com/maps?q=656 LAKE AVENUE,+WOODSTOCK,+IL+60098&hl=en"
