Participant,CollectionSite,Address,City,State,Zip,MapURL
ALAMO HEIGHTS POLICE DEPARTMENT,ALAMO HEIGHTS POLICE DEPARTMENT,6116 BROADWAY,SAN ANTONIO,TX,78209,"http://maps.google.com/maps?q=6116 BROADWAY,+SAN ANTONIO,+TX+78209&hl=en"
ALEDO ISD PD,VANDAGRIFF ELEMENTARY SCHOOL,408  FM 1187 S,ALEDO,TX,76008,"http://maps.google.com/maps?q=408  FM 1187 S,+ALEDO,+TX+76008&hl=en"
ALLEN POLICE DEPARTMENT,ALLEN CITY HALL,305 CENTURY PARKWAY,ALLEN,TX,75013,"http://maps.google.com/maps?q=305 CENTURY PARKWAY,+ALLEN,+TX+75013&hl=en"
ALLEN POLICE DEPARTMENT,LOWERY FRESHMAN CENTER,601 E. MAIN ST,ALLEN,TX,75002,"http://maps.google.com/maps?q=601 E. MAIN ST,+ALLEN,+TX+75002&hl=en"
ARGYLE POLICE DEPARTMENT,ARGYLE POLICE DEPARTMENT,506 N. HWY 377,ARGYLE,TX,76226,"http://maps.google.com/maps?q=506 N. HWY 377,+ARGYLE,+TX+76226&hl=en"
ARLINGTON PD,ARLINGTON POLICE DEPARTMENT EAST DISTRICT,2001 NEW YORK,ARLINGTON,TX,76010,"http://maps.google.com/maps?q=2001 NEW YORK,+ARLINGTON,+TX+76010&hl=en"
ARLINGTON PD,ARLINGTON POLICE DEPARTMENT NORTH DISTRICT,620 W. DIVISION,ARLINGTON,TX,76011,"http://maps.google.com/maps?q=620 W. DIVISION,+ARLINGTON,+TX+76011&hl=en"
ARLINGTON PD,ARLINGTON POLICE DEPARTMENT SOUTH DISTRICT,1030 S.W. GREEN OAKS BLVD.,ARLINGTON,TX,76017,"http://maps.google.com/maps?q=1030 S.W. GREEN OAKS BLVD.,+ARLINGTON,+TX+76017&hl=en"
ARLINGTON PD,LAKE ARLINGTON BRANCH PUBLIC LIBRARY,4000 W. GREEN OAKS BLVD.,ARLINGTON,TX,76016,"http://maps.google.com/maps?q=4000 W. GREEN OAKS BLVD.,+ARLINGTON,+TX+76016&hl=en"
AUSTIN POLICE DEPARTMENT,HOUSEHOLD HAZARDOUS WASTE FACILITY,2514 BUSINESS CENTER DRIVE,AUSTIN,TX,78744,"http://maps.google.com/maps?q=2514 BUSINESS CENTER DRIVE,+AUSTIN,+TX+78744&hl=en"
AZLE PD,AZLE PD,613 SOUTHEAST PARKWAY,AZLE,TX,76020,"http://maps.google.com/maps?q=613 SOUTHEAST PARKWAY,+AZLE,+TX+76020&hl=en"
BANDERA COUNTY SHERIFF'S OFFICE,BANDERA CITY HALL,511 MAIN STREET,BANDERA,TX,78003,"http://maps.google.com/maps?q=511 MAIN STREET,+BANDERA,+TX+78003&hl=en"
BANDERA COUNTY SHERIFF'S OFFICE,LAKEHILLS LIBRARY,7200 FM 1283,LAKEHILLS,TX,78063,"http://maps.google.com/maps?q=7200 FM 1283,+LAKEHILLS,+TX+78063&hl=en"
BARTLESVILLE OKLAHOMA PD,BARTLESVILLE PD,615 S JOHNSTONE AVE,BARTLESVILLE,OK,74003,"http://maps.google.com/maps?q=615 S JOHNSTONE AVE,+BARTLESVILLE,+OK+74003&hl=en"
BARTLESVILLE OKLAHOMA PD,FIRE STATION NO. 3,100 SE MADISON BLVD,BARTLESVILLE,OK,74006,"http://maps.google.com/maps?q=100 SE MADISON BLVD,+BARTLESVILLE,+OK+74006&hl=en"
BARTLESVILLE OKLAHOMA PD,FIRE STATION NO. 4,3501 SE PRICE RD,BARTLESVILLE,OK,74006,"http://maps.google.com/maps?q=3501 SE PRICE RD,+BARTLESVILLE,+OK+74006&hl=en"
BARTONVILLE POLICE DEPARTMENT,BARTONVILLE POLICE DEPARTMENT,1941 EAST JETER RD,BARTONVILLE,TX,76226,"http://maps.google.com/maps?q=1941 EAST JETER RD,+BARTONVILLE,+TX+76226&hl=en"
BASTROP COUNTY SHERIFF'S OFFICE,TRACTOR SUPPLY COMPANY,441 TEXAS 71,BASTROP,TX,78602,"http://maps.google.com/maps?q=441 TEXAS 71,+BASTROP,+TX+78602&hl=en"
BAYLOR POLICE DEPARTMENT,BAYLOR POLICE DEPARTMENT,1521 SOUTH 4TH,WACO,TX,76798,"http://maps.google.com/maps?q=1521 SOUTH 4TH,+WACO,+TX+76798&hl=en"
BEDFORD PD,BEDFORD POLICE DEPARTMENT,2121 L. DON DODSON DR.,BEDFORD,TX,76021,"http://maps.google.com/maps?q=2121 L. DON DODSON DR.,+BEDFORD,+TX+76021&hl=en"
BEGGS POLICE DEPARTMENT,BEGGS POLICE DEPARTMENT,108 N. BROADWAY,BEGGS,OK,74421,"http://maps.google.com/maps?q=108 N. BROADWAY,+BEGGS,+OK+74421&hl=en"
BELLMEAD POLICE DEPARTMENT,BELLMEAD POLICE DEPARTMENT,701 MAXFIELD ST.,WACO,TX,76705,"http://maps.google.com/maps?q=701 MAXFIELD ST.,+WACO,+TX+76705&hl=en"
BENBROOK PD,BENBROOK FIRE DEPARTMENT,528 MERCEDES ST,BENBROOK,TX,76126,"http://maps.google.com/maps?q=528 MERCEDES ST,+BENBROOK,+TX+76126&hl=en"
BIA CONCHO AGENCY,B.I.A CONCHO AGENCY,1621 B EAST HIGHWAY 66,EL RENO,OK,73036,"http://maps.google.com/maps?q=1621 B EAST HIGHWAY 66,+EL RENO,+OK+73036&hl=en"
BIA-OFFICE OF JUSTICE SERVICES,BIA-ANADARKO AGENCY,124 E PARKER MCKENZIE DR,ANADARKO,OK,73005,"http://maps.google.com/maps?q=124 E PARKER MCKENZIE DR,+ANADARKO,+OK+73005&hl=en"
BIA-OJS PAWNEE PONCA TRIBE OF OK,BIA POLICE DEPARTMENT,123 WHITE EAGLE DR,PONCA CITY,OK,74601,"http://maps.google.com/maps?q=123 WHITE EAGLE DR,+PONCA CITY,+OK+74601&hl=en"
BLUE MOUND PD,BLUE MOUND PD,301 S. BLUE MOUND RD,BLUE MOUND,TX,76131,"http://maps.google.com/maps?q=301 S. BLUE MOUND RD,+BLUE MOUND,+TX+76131&hl=en"
BOERNE POLICE DEPARTMENT,BOERNE POLICE DEPARTMENT,124 OLD SAN ANTONIO ROAD,BOERNE,TX,78006,"http://maps.google.com/maps?q=124 OLD SAN ANTONIO ROAD,+BOERNE,+TX+78006&hl=en"
BOYD POLICE DEPARTMENT,BOYD POLICE DEPARTMENT,731 EAST ROCK ISLAND AVE.,BOYD,TX,76023,"http://maps.google.com/maps?q=731 EAST ROCK ISLAND AVE.,+BOYD,+TX+76023&hl=en"
BRAZOS COUNTY SHERIFF'S OFFICE,BRAZOS COUNTY SHERIFF'S OFFICE UNIVERSITY SERVICES BUILDING,3380 UNIVERSITY DR.,COLLEGE STATION,TX,77845,"http://maps.google.com/maps?q=3380 UNIVERSITY DR.,+COLLEGE STATION,+TX+77845&hl=en"
BRECKENRIDGE PD,PARKING LOT,500 WEST WALKER,BRECKENRIDGE,TX,76424,"http://maps.google.com/maps?q=500 WEST WALKER,+BRECKENRIDGE,+TX+76424&hl=en"
BRENHAM POLICE DEPARTMENT,BRENHAM POLICE DEPARTMENT,1800 LONGWOOD DRIVE,BRENHAM,TX,77833,"http://maps.google.com/maps?q=1800 LONGWOOD DRIVE,+BRENHAM,+TX+77833&hl=en"
BRIDGEPORT PD,STAGECOACH REHAB. CENTER UNDER AWNING OF ENTRANCE,2108 15TH ST / HWY 380,BRIDGEPORT,TX,76426,"http://maps.google.com/maps?q=2108 15TH ST / HWY 380,+BRIDGEPORT,+TX+76426&hl=en"
BUDA POLICE DEPARTMENT,BUDA POLICE DEPARTMENT,100 HOUSTON STREET,BUDA,TX,78610,"http://maps.google.com/maps?q=100 HOUSTON STREET,+BUDA,+TX+78610&hl=en"
BULVERDE CITY HALL,BULVERDE CITY HALL,30360 COUGAR BEND,BULVERDE,TX,78163,"http://maps.google.com/maps?q=30360 COUGAR BEND,+BULVERDE,+TX+78163&hl=en"
BURLESON PD,BURLESON POLICE DEPARTMENT,1161 SW WILSHIRE BLVD,BURLESON,TX,76028,"http://maps.google.com/maps?q=1161 SW WILSHIRE BLVD,+BURLESON,+TX+76028&hl=en"
BURNET COUNTY COURTHOUSE,BURNET COUNTY SHERIFF'S OFFICE,1601 EAST POLK STREET,BURNET,TX,78611,"http://maps.google.com/maps?q=1601 EAST POLK STREET,+BURNET,+TX+78611&hl=en"
CARROLLTON PD,CARROLLTON PD,2025 E JACKSON RD,CARROLLTON,TX,75006,"http://maps.google.com/maps?q=2025 E JACKSON RD,+CARROLLTON,+TX+75006&hl=en"
CARROLLTON PD,HEBRON VALLEY ELEMENTARY SCHOOL,4108 CREEK VALLEY BLVD,CARROLLTON,TX,75010,"http://maps.google.com/maps?q=4108 CREEK VALLEY BLVD,+CARROLLTON,+TX+75010&hl=en"
CEDAR HILL PD,CEDAR HILL ISD PD ADMIN BLDG,504 E. BELTLINE RD,CEDAR HILL,TX,75104,"http://maps.google.com/maps?q=504 E. BELTLINE RD,+CEDAR HILL,+TX+75104&hl=en"
CEDAR PARK POLICE DEPARTMENT,CEDAR PARK POLICE DEPARTMENT,911 QUEST PARKWAY,CEDAR PARK,TX,78613,"http://maps.google.com/maps?q=911 QUEST PARKWAY,+CEDAR PARK,+TX+78613&hl=en"
CELINA POLICE DEPARTMENT,CELINA FIRE DEPARTMENT,1413 S PRESTON RD,CELINA,TX,75009,"http://maps.google.com/maps?q=1413 S PRESTON RD,+CELINA,+TX+75009&hl=en"
COLLEYVILLE PD,COLLEYVILLE SENIOR CENTER,2512 GLADE RD,COLLEYVILLE,TX,76034,"http://maps.google.com/maps?q=2512 GLADE RD,+COLLEYVILLE,+TX+76034&hl=en"
COLONY PD,THE COLONY HIGH SCHOOL,4301 BLAIR OAKS,THE COLONY,TX,75056,"http://maps.google.com/maps?q=4301 BLAIR OAKS,+THE COLONY,+TX+75056&hl=en"
COLORADO COUNTY SHERIFF'S DEPARTMENT,COLORADO COUNTY SHERIFF'S DEPARTMENT,2215 WALNUT,COLUMBUS,TX,78934,"http://maps.google.com/maps?q=2215 WALNUT,+COLUMBUS,+TX+78934&hl=en"
COLORADO COUNTY SHERIFF'S DEPARTMENT,EAGLE LAKE POLICE DEPARTMENT,200 EAST POST OFFICE,EAGLE LAKE,TX,77434,"http://maps.google.com/maps?q=200 EAST POST OFFICE,+EAGLE LAKE,+TX+77434&hl=en"
COLORADO COUNTY SHERIFF'S DEPARTMENT,WEIMAR CITY HALL,106 EAST MAIN,WEIMAR,TX,78962,"http://maps.google.com/maps?q=106 EAST MAIN,+WEIMAR,+TX+78962&hl=en"
COMAL COUNTY SHERIFF'S OFFICE,BULVERDE SPRING BRANCH FIRE DEPARTMENT,353 RODEO DRIVE,SPRING BRANCH,TX,78070,"http://maps.google.com/maps?q=353 RODEO DRIVE,+SPRING BRANCH,+TX+78070&hl=en"
COMAL COUNTY SHERIFF'S OFFICE,COMAL COUNTY SHERIFF'S OFFICE,160 OAK DRIVE,NEW BRAUNFELS,TX,78132,"http://maps.google.com/maps?q=160 OAK DRIVE,+NEW BRAUNFELS,+TX+78132&hl=en"
COMANCHE NATION POLICE DEPT,COMANCHE NATION POLICE DEPT,8527 NW MADISCHE RD,LAWTON,OK,73502,"http://maps.google.com/maps?q=8527 NW MADISCHE RD,+LAWTON,+OK+73502&hl=en"
COPPELL POLICE DEPT,COPPELL JUSTICE CENTER,130 TOWN CENTER BLVD,COPPELL,TX,75019,"http://maps.google.com/maps?q=130 TOWN CENTER BLVD,+COPPELL,+TX+75019&hl=en"
COPPERAS COVE POLICE DEPARTMENT,COPPERAS COVE POLICE DEPARTMENT,302 E AVENUE E,COPPERAS COVE,TX,76522,"http://maps.google.com/maps?q=302 E AVENUE E,+COPPERAS COVE,+TX+76522&hl=en"
CORYELL COUNTY SHERIFF'S OFFICE,CORYELL COUNTY SHERIFF'S OFFICE,510 LEON STREET,GATESVILLE,TX,76528,"http://maps.google.com/maps?q=510 LEON STREET,+GATESVILLE,+TX+76528&hl=en"
CROWLEY PD,CROWLEY PD,617 BUSINESS FM 1187 W,CROWLEY,TX,76036,"http://maps.google.com/maps?q=617 BUSINESS FM 1187 W,+CROWLEY,+TX+76036&hl=en"
CUSTER COUNTY SO,HOMELAND,1200 W. GARY BLVD.,CLINTON,OK,73601,"http://maps.google.com/maps?q=1200 W. GARY BLVD.,+CLINTON,+OK+73601&hl=en"
DALLAS COUNTY HOSP DIST PD,AMBULATORY SURGERY CENTER,4900 HARRY HINES BLVD,DALLAS,TX,75235,"http://maps.google.com/maps?q=4900 HARRY HINES BLVD,+DALLAS,+TX+75235&hl=en"
DALLAS COUNTY HOSP DIST PD,BLUITT-FLOWERS CENTER,303 E OVERTON RD,DALLAS,TX,75216,"http://maps.google.com/maps?q=303 E OVERTON RD,+DALLAS,+TX+75216&hl=en"
DALLAS COUNTY HOSP DIST PD,DE-HARO-SALDIVAR CENTER,1400 N WESTMORELAND RD,DALLAS,TX,75211,"http://maps.google.com/maps?q=1400 N WESTMORELAND RD,+DALLAS,+TX+75211&hl=en"
DALLAS COUNTY HOSP DIST PD,GARLAND CENTER,802 HOPKINS ST,GARLAND,TX,75040,"http://maps.google.com/maps?q=802 HOPKINS ST,+GARLAND,+TX+75040&hl=en"
DALLAS COUNTY HOSP DIST PD,HATCHER WOMEN'S CENTER,4600 SCYENE RD,DALLAS,TX,75210,"http://maps.google.com/maps?q=4600 SCYENE RD,+DALLAS,+TX+75210&hl=en"
DALLAS COUNTY HOSP DIST PD,SOUTHEAST DALLAS CENTER,9202 ELAM RD,DALLAS,TX,75217,"http://maps.google.com/maps?q=9202 ELAM RD,+DALLAS,+TX+75217&hl=en"
DALLAS POLICE DEPARTMENT,BACHMAN LAKE BRANCH LIBRARY,9480 WEBB CHAPEL RD,DALLAS,TX,75220,"http://maps.google.com/maps?q=9480 WEBB CHAPEL RD,+DALLAS,+TX+75220&hl=en"
DALLAS POLICE DEPARTMENT,DALLAS POLICE SUBSTATION NORTHEAST DIVISION,9915 E NORTHWEST HWY,DALLAS,TX,75238,"http://maps.google.com/maps?q=9915 E NORTHWEST HWY,+DALLAS,+TX+75238&hl=en"
DALLAS POLICE DEPARTMENT,DAN F. LONG MIDDLE SCHOOL,2525 FRANKFORD RD,DALLAS,TX,75287,"http://maps.google.com/maps?q=2525 FRANKFORD RD,+DALLAS,+TX+75287&hl=en"
DALLAS POLICE DEPARTMENT,E.B. COMSTOCK MIDDLE SCHOOL,7044 HODDE STREET,DALLAS,TX,75217,"http://maps.google.com/maps?q=7044 HODDE STREET,+DALLAS,+TX+75217&hl=en"
DALLAS POLICE DEPARTMENT,KATHLYN JOY GILLIAM COLLEGIATE ACADEMY,1700 E. CAMP WISDOM RD.,DALLAS,TX,75241,"http://maps.google.com/maps?q=1700 E. CAMP WISDOM RD.,+DALLAS,+TX+75241&hl=en"
DALLAS POLICE DEPARTMENT,L.V. STOCKARD MIDDLE SCHOOL,2300 S. RAVINIA DR.,DALLAS,TX,75211,"http://maps.google.com/maps?q=2300 S. RAVINIA DR.,+DALLAS,+TX+75211&hl=en"
DALLAS POLICE DEPARTMENT,WOODROW WILSON HIGH SCHOOL,100 S. GLASGOW DR.,DALLAS,TX,75214,"http://maps.google.com/maps?q=100 S. GLASGOW DR.,+DALLAS,+TX+75214&hl=en"
DALLAS SHERIFF'S DEPARTMENT,SOUTH DALLAS GOVERNMENT CENTER,7201 SOUTH POLK,DALLAS,TX,75232,"http://maps.google.com/maps?q=7201 SOUTH POLK,+DALLAS,+TX+75232&hl=en"
DEA SPONSORED,BARTON CREEK SQUARE MALL - PARKING LOT UNIV OF TEXAS-COLLEGE OF PHARMACY,2901 SOUTH CAPITOL OF TEXAS HIGHWAY,AUSTIN,TX,78746,"http://maps.google.com/maps?q=2901 SOUTH CAPITOL OF TEXAS HIGHWAY,+AUSTIN,+TX+78746&hl=en"
DEA SPONSORED,LEGACY HILLS PARK PAVILLION SUN CITY CENTER,200 DEL WEBB BLVD.,GEORGETOWN,TX,78626,"http://maps.google.com/maps?q=200 DEL WEBB BLVD.,+GEORGETOWN,+TX+78626&hl=en"
DEA TULSA RESIDENT OFFICE,NEWS ON 6,303 N. BOSTON AVENUE,TULSA,OK,74103,"http://maps.google.com/maps?q=303 N. BOSTON AVENUE,+TULSA,+OK+74103&hl=en"
DENISON POLICE DEPARTMENT,DENISON POLICE DEPARTMENT,108 W. MAIN ST.,DENISON,TX,75020,"http://maps.google.com/maps?q=108 W. MAIN ST.,+DENISON,+TX+75020&hl=en"
DESOTO POLICE DEPT.,DESOTO POLICE DEPARTMENT,714 E. BELTLINE RD.,DESOTO,TX,75115,"http://maps.google.com/maps?q=714 E. BELTLINE RD.,+DESOTO,+TX+75115&hl=en"
DUNCANVILLE PD,DUNCANVILLE PD,203 E WHEATLAND RD,DUNCANVILLE,TX,75116,"http://maps.google.com/maps?q=203 E WHEATLAND RD,+DUNCANVILLE,+TX+75116&hl=en"
EL CAMPO POLICE DEPARTMENT,EL CAMPO POLICE DEPARTMENT,1011 WEST LOOP,EL CAMPO,TX,77437,"http://maps.google.com/maps?q=1011 WEST LOOP,+EL CAMPO,+TX+77437&hl=en"
ELGIN POLICE DEPARTMENT,ELGIN POLICE DEPARTMENT,202 DEPOT STREET,ELGIN,TX,78621,"http://maps.google.com/maps?q=202 DEPOT STREET,+ELGIN,+TX+78621&hl=en"
EVERMAN PD,EVERMAN POLICE DEPARTMENT,404 W ENON AVE,EVERMAN,TX,76140,"http://maps.google.com/maps?q=404 W ENON AVE,+EVERMAN,+TX+76140&hl=en"
FAIRVIEW PD,FAIRVIEW FIRE STATION #1,500 SOUTH STATE HWY 5,FAIRVIEW,TX,75069,"http://maps.google.com/maps?q=500 SOUTH STATE HWY 5,+FAIRVIEW,+TX+75069&hl=en"
FARMERS BRANCH PD,FARMERS BRANCH POLICE DEPT,3723 VALLEY VIEW LANE,FARMERS BRANCH,TX,75244,"http://maps.google.com/maps?q=3723 VALLEY VIEW LANE,+FARMERS BRANCH,+TX+75244&hl=en"
FARMERSVILLE POLICE DEPARTMENT,FARMERSVILLE POLICE DEPT.,134 N. WASHINGTON ST.,FARMERSVILLE,TX,75442,"http://maps.google.com/maps?q=134 N. WASHINGTON ST.,+FARMERSVILLE,+TX+75442&hl=en"
FLOWER MOUND PD,FLOWER MOUND HIGH SCHOOL,3411 PETERS COLONY,FLOWER MOUND,TX,75022,"http://maps.google.com/maps?q=3411 PETERS COLONY,+FLOWER MOUND,+TX+75022&hl=en"
FLOWER MOUND PD,MARCUS HIGH SCHOOL,5707 MORRISS RD,FLOWER MOUND,TX,75028,"http://maps.google.com/maps?q=5707 MORRISS RD,+FLOWER MOUND,+TX+75028&hl=en"
FORT WORTH PD,FORT WORTH PD BOB BOLEN,505 W FELIX ST,FORT WORTH,TX,76115,"http://maps.google.com/maps?q=505 W FELIX ST,+FORT WORTH,+TX+76115&hl=en"
FORT WORTH PD,FORT WORTH PD EAST DIVISION PARKING LOT BY PROP ROOM,3616 E LANCASTER,FORT WORTH,TX,76102,"http://maps.google.com/maps?q=3616 E LANCASTER,+FORT WORTH,+TX+76102&hl=en"
FORT WORTH PD,NORTH DIVISION SECTOR,4651 N. MAIN ST.,FORT WORTH,TX,76106,"http://maps.google.com/maps?q=4651 N. MAIN ST.,+FORT WORTH,+TX+76106&hl=en"
FORT WORTH PD,NORTHWEST DIVISION SECTOR,8755 N. RIVERSIDE DR,FORT WORTH,TX,76244,"http://maps.google.com/maps?q=8755 N. RIVERSIDE DR,+FORT WORTH,+TX+76244&hl=en"
FORT WORTH PD,RIDGMAR MALL N PARKING LOT BY DILLARDS,1888 GREEN OAKS RD,FORT WORTH,TX,76116,"http://maps.google.com/maps?q=1888 GREEN OAKS RD,+FORT WORTH,+TX+76116&hl=en"
FORT WORTH PD,RIVERSIDE COMMUNITY CENTER,3700 E BELKNAP ST,FORT WORTH,TX,76111,"http://maps.google.com/maps?q=3700 E BELKNAP ST,+FORT WORTH,+TX+76111&hl=en"
FREDERICKSBURG POLICE DEPARTMENT,FREDERICKSBURG POLICE DEPARTMENT,1601 EAST MAIN ST.,FREDERICKSBURG,TX,78624,"http://maps.google.com/maps?q=1601 EAST MAIN ST.,+FREDERICKSBURG,+TX+78624&hl=en"
GAINESVILLE POLICE DEPARTMENT,CHIEF STEVEN K. FLEMING PUBLIC SAFETY CENTER,201 SANTA FE STREET,GAINESVILLE,TX,76240,"http://maps.google.com/maps?q=201 SANTA FE STREET,+GAINESVILLE,+TX+76240&hl=en"
GATESVILLE POLICE DEPARTMENT,GATESVILLE POLICE DEPARTMENT,200 N. 8TH STREET,GATESVILLE,TX,76528,"http://maps.google.com/maps?q=200 N. 8TH STREET,+GATESVILLE,+TX+76528&hl=en"
GRAND PRAIRIE POLICE DEPT.,PUBLIC SAFETY BUILDING,1525 ARKANSAS LANE,GRAND PRAIRIE,TX,75052,"http://maps.google.com/maps?q=1525 ARKANSAS LANE,+GRAND PRAIRIE,+TX+75052&hl=en"
GRAPEVINE POLICE DEPT,GRAPEVINE PD,1007 IRA E WOODS AVE,GRAPEVINE,TX,76051,"http://maps.google.com/maps?q=1007 IRA E WOODS AVE,+GRAPEVINE,+TX+76051&hl=en"
GREENVILLE PD,GREENVILLE PD,3000 LEE STREET,GREENVILLE,TX,75401,"http://maps.google.com/maps?q=3000 LEE STREET,+GREENVILLE,+TX+75401&hl=en"
HARKER HEIGHTS POLICE DEPARTMENT,HARKER HEIGHTS POLICE DEPARTMENT,402 INDIAN TRAIL,HARKER HEIGHTS,TX,76548,"http://maps.google.com/maps?q=402 INDIAN TRAIL,+HARKER HEIGHTS,+TX+76548&hl=en"
HAYS COUNTY CONSTABLE PRECINCT 3,HAYS COUNTY CONSTABLE PRECINCT 3,200 STILLWATER ROAD,WIMBERLEY,TX,78676,"http://maps.google.com/maps?q=200 STILLWATER ROAD,+WIMBERLEY,+TX+78676&hl=en"
HEWITT POLICE DEPARTMENT,HEWITT POLICE DEPARTMENT,100 PATRIOT COURT,HEWITT,TX,76643,"http://maps.google.com/maps?q=100 PATRIOT COURT,+HEWITT,+TX+76643&hl=en"
HIGHLAND PARK DEPT OF PUBLIC SAFETY,HIGHLAND PARK DPS,4700 DREXEL DR,HIGHLAND PARK,TX,75205,"http://maps.google.com/maps?q=4700 DREXEL DR,+HIGHLAND PARK,+TX+75205&hl=en"
HOLLYWOOD PARK POLICE DEPARTMENT,HOLLYWOOD PARK POLICE DEPARTMENT,2 MECCA DRIVE,HOLLYWOOD PARK,TX,78232,"http://maps.google.com/maps?q=2 MECCA DRIVE,+HOLLYWOOD PARK,+TX+78232&hl=en"
IRVING POLICE DEPT,IRVING POLICE DEPARTMENT PARKING LOT,305 N O'CONNOR RD,IRVING,TX,75061,"http://maps.google.com/maps?q=305 N O'CONNOR RD,+IRVING,+TX+75061&hl=en"
IRVING POLICE DEPT,IRVING POLICE NORTH STATION PARKING LOT,5992 RIVERSIDE DRIVE,IRVING,TX,75039,"http://maps.google.com/maps?q=5992 RIVERSIDE DRIVE,+IRVING,+TX+75039&hl=en"
JACKSBORO PD,JACK COUNTY COURT HOUSE N SIDE,100 N MAIN,JACKSBORO,TX,76458,"http://maps.google.com/maps?q=100 N MAIN,+JACKSBORO,+TX+76458&hl=en"
JACKSON COUNTY SHERIFF'S OFFICE,JACKSON COUNTY SHERIFF'S OFFICE,115 WEST MAIN ST,EDNA,TX,77957,"http://maps.google.com/maps?q=115 WEST MAIN ST,+EDNA,+TX+77957&hl=en"
JONESTOWN POLICE DEPARTMENT,JONESTOWN POLICE DEPARTMENT,18304 NORTH PARK DR.,JONESTOWN,TX,78645,"http://maps.google.com/maps?q=18304 NORTH PARK DR.,+JONESTOWN,+TX+78645&hl=en"
KELLER POLICE DEPARTMENT,KELLER POLICE DEPARTMENT,330 RUFE SNOW DRIVE,KELLER,TX,76248,"http://maps.google.com/maps?q=330 RUFE SNOW DRIVE,+KELLER,+TX+76248&hl=en"
KENNEDALE POLICE DEPT,KENNEDALE POLICE DEPT,401 MUNICIPAL DR,KENNEDALE,TX,76060,"http://maps.google.com/maps?q=401 MUNICIPAL DR,+KENNEDALE,+TX+76060&hl=en"
KERRVILLE POLICE DEPARTMENT,KERRVILLE POLICE DEPARTMENT,429 SIDNEY BAKER,KERRVILLE,TX,78028,"http://maps.google.com/maps?q=429 SIDNEY BAKER,+KERRVILLE,+TX+78028&hl=en"
KILLEEN POLICE DEPARTMENT,KILLEEN POLICE DEPARTMENT,3304 COMMUNITY BLVD.,KILLEEN,TX,76542,"http://maps.google.com/maps?q=3304 COMMUNITY BLVD.,+KILLEEN,+TX+76542&hl=en"
LA VERNIA POLICE DEPARTMENT,LA VERNIA HIGH SCHOOL,225 BLUEBONNET,LA VERNIA,TX,78121,"http://maps.google.com/maps?q=225 BLUEBONNET,+LA VERNIA,+TX+78121&hl=en"
LACY LAKEVIEW POLICE DEPARTMENT,LACY LAKEVIEW POLICE DEPARTMENT,503 E. CRAVEN AVE.,WACO,TX,76705,"http://maps.google.com/maps?q=503 E. CRAVEN AVE.,+WACO,+TX+76705&hl=en"
LAKE DALLAS POLICE DEPARTMENT,LAKE DALLAS POLICE DEPARTMENT,212 MAIN ST,LAKE DALLAS,TX,75065,"http://maps.google.com/maps?q=212 MAIN ST,+LAKE DALLAS,+TX+75065&hl=en"
LAKEWAY POLICE DEPARTMENT/BEE CAVE POLICE DEPT.,LAKEWAY POLICE DEPARTMENT,104 CROSS CREEK,LAKEWAY,TX,78734,"http://maps.google.com/maps?q=104 CROSS CREEK,+LAKEWAY,+TX+78734&hl=en"
LAMPASAS POLICE DEPARTMENT,LAMPASAS POLICE DEPARTMENT,301 EAST 4TH STREET,LAMPASAS,TX,76550,"http://maps.google.com/maps?q=301 EAST 4TH STREET,+LAMPASAS,+TX+76550&hl=en"
LAVON PD,LAVON PD,501 B. LINCOLN AVE,LAVON,TX,75166,"http://maps.google.com/maps?q=501 B. LINCOLN AVE,+LAVON,+TX+75166&hl=en"
LEANDER POLICE DEPARTMENT-WILLIAMSON,LEANDER POLICE DEPARTMENT,705 LEANDER DRIVE,LEANDER,TX,78641,"http://maps.google.com/maps?q=705 LEANDER DRIVE,+LEANDER,+TX+78641&hl=en"
LEON VALLEY POLICE DEPARTMENT,LEON VALLEY POLICE DEPARTMENT,6400 EL VERDE,LEON VALLEY,TX,78238,"http://maps.google.com/maps?q=6400 EL VERDE,+LEON VALLEY,+TX+78238&hl=en"
LEWISVILLE PD,LEWISVILLE HIGH SCHOOL,1098 W. MAIN STREET,LEWISVILLE,TX,75067,"http://maps.google.com/maps?q=1098 W. MAIN STREET,+LEWISVILLE,+TX+75067&hl=en"
LITTLE ELM PD,LITTLE ELM PUBLIC SAFETY CENTER,88 W. ELDORADO PKWY,LITTLE ELM,TX,75068,"http://maps.google.com/maps?q=88 W. ELDORADO PKWY,+LITTLE ELM,+TX+75068&hl=en"
LIVE OAK POLICE DEPARTMENT,LIVE OAK POLICE DEPARTMENT,8022 SHIN OAK,LIVE OAK,TX,78233,"http://maps.google.com/maps?q=8022 SHIN OAK,+LIVE OAK,+TX+78233&hl=en"
LORENA POLICE DEPARTMENT,LORENA POLICE DEPARTMENT,100 N. BORDON ST.,LORENA,TX,76655,"http://maps.google.com/maps?q=100 N. BORDON ST.,+LORENA,+TX+76655&hl=en"
MANOR POLICE DEPARTMENT,MANOR POLICE DEPARTMENT,402 WEST PARSONS ST.,MANOR,TX,78653,"http://maps.google.com/maps?q=402 WEST PARSONS ST.,+MANOR,+TX+78653&hl=en"
MANSFIELD PD,MANSFIELD POLICE DEPARTMENT,1305 E. BROAD ST,MANSFIELD,TX,76063,"http://maps.google.com/maps?q=1305 E. BROAD ST,+MANSFIELD,+TX+76063&hl=en"
MARBLE FALLS POLICE DEPARTMENT,MARBLE FALLS POLICE DEPARTMENT,606 AVENUE N,MARBLE FALLS,TX,78654,"http://maps.google.com/maps?q=606 AVENUE N,+MARBLE FALLS,+TX+78654&hl=en"
MCKINNEY PD,MCKINNEY PUBLIC SAFETY BUILDING,2200 TAYLOR BURK DR,MCKINNEY,TX,75071,"http://maps.google.com/maps?q=2200 TAYLOR BURK DR,+MCKINNEY,+TX+75071&hl=en"
MELISSA POLICE DEPARTMENT,MELISSA POLICE DEPARTMENT 2ND FLOOR OF CITY HALL,3411 BARKER AVE,MELISSA,TX,75454,"http://maps.google.com/maps?q=3411 BARKER AVE,+MELISSA,+TX+75454&hl=en"
MESQUITE POLICE DEPARTMENT,MESQUITE POLICE DEPARTMENT,777 N. GALLOWAY,MESQUITE,TX,75149,"http://maps.google.com/maps?q=777 N. GALLOWAY,+MESQUITE,+TX+75149&hl=en"
MILLS COUNTY SHERIFF'S OFFICE,MILLS COUNTY LAW ENFORCEMENT CENTER,2111 PRIDY RD.,GOLDTHWAITE,TX,76844,"http://maps.google.com/maps?q=2111 PRIDY RD.,+GOLDTHWAITE,+TX+76844&hl=en"
MINERAL WELLS PD,MINERAL WELLS PD,212 SOUTH OAK AVE,MINERAL WELLS,TX,76067,"http://maps.google.com/maps?q=212 SOUTH OAK AVE,+MINERAL WELLS,+TX+76067&hl=en"
MOUNDS PD,MOUNDS CITY HALL,1317 COMMERCIAL AVE,MOUNDS,OK,74047,"http://maps.google.com/maps?q=1317 COMMERCIAL AVE,+MOUNDS,+OK+74047&hl=en"
MURPHY PD,MURPHY PD,206 N. MURPHY RD,MURPHY,TX,75094,"http://maps.google.com/maps?q=206 N. MURPHY RD,+MURPHY,+TX+75094&hl=en"
NEW BRAUNFELS POLICE DEPARTMENT,NEW BRAUNFELS POLICE DEPARTMENT,355 FM 306,NEW BRAUNFELS,TX,78130,"http://maps.google.com/maps?q=355 FM 306,+NEW BRAUNFELS,+TX+78130&hl=en"
NEW BRAUNFELS UTILITIES,NEW BRAUNFELS UTILITIES,263 MAIN PLAZA,NEW BRAUNFELS,TX,78130,"http://maps.google.com/maps?q=263 MAIN PLAZA,+NEW BRAUNFELS,+TX+78130&hl=en"
NOLANVILLE POLICE DEPARTMENT,NOLANVILLE POLICE DEPARTMENT,101 N. FIFTH STREET,NOLANVILLE,TX,76559,"http://maps.google.com/maps?q=101 N. FIFTH STREET,+NOLANVILLE,+TX+76559&hl=en"
OKLAHOMA BAPTIST UNIVERSITY PD,OKLAHOMA BAPTIST UNIVERSITY,500 W. UNIVERSITY ST.,SHAWNEE,OK,74804,"http://maps.google.com/maps?q=500 W. UNIVERSITY ST.,+SHAWNEE,+OK+74804&hl=en"
OKLAHOMA BUREAU OF NARCOTICS/CARXE COALITION,CASH SAVER STORE,4129 SE 29TH STREET,DEL CITY,OK,73115,"http://maps.google.com/maps?q=4129 SE 29TH STREET,+DEL CITY,+OK+73115&hl=en"
OKLAHOMA BUREAU OF NARCOTICS/CARXE COALITION,HOMELAND STORE,1108 NW 18TH STREET,OKLAHOMA CITY,OK,73106,"http://maps.google.com/maps?q=1108 NW 18TH STREET,+OKLAHOMA CITY,+OK+73106&hl=en"
OKLAHOMA BUREAU OF NARCOTICS/CARXE COALITION,HOMELAND STORE,9225 NORTH MAY AVENUE,OKLAHOMA CITY,OK,73120,"http://maps.google.com/maps?q=9225 NORTH MAY AVENUE,+OKLAHOMA CITY,+OK+73120&hl=en"
OKLAHOMA COUNTY SO,MWC SUBSTATION,8029 SE 29TH,MIDWEST CITY,OK,73110,"http://maps.google.com/maps?q=8029 SE 29TH,+MIDWEST CITY,+OK+73110&hl=en"
OSAGE NATION PD,OSAGE NATION POLICE DEPARTMENT,1071 GRANDVIEW LANE,PAWHUSKA,OK,74056,"http://maps.google.com/maps?q=1071 GRANDVIEW LANE,+PAWHUSKA,+OK+74056&hl=en"
OTOE MISSOURIA TRIBAL PD,OTOE MISSOURIA POLICE DEPARTMENT,22915 OTOE CEMETERY RD,RED ROCK,OK,74651,"http://maps.google.com/maps?q=22915 OTOE CEMETERY RD,+RED ROCK,+OK+74651&hl=en"
PARKER PD,PARKER PD PARKING LOT,5700 E PARKER ROAD,PARKER,TX,75002,"http://maps.google.com/maps?q=5700 E PARKER ROAD,+PARKER,+TX+75002&hl=en"
PLANO POLICE DEPARTMENT,CLARK HIGH SCHOOL,523 W SPRING CREEK PARKWAY,PLANO,TX,75023,"http://maps.google.com/maps?q=523 W SPRING CREEK PARKWAY,+PLANO,+TX+75023&hl=en"
PLANO POLICE DEPARTMENT,PLANO EAST SENIOR HIGH,3000 LOS RIOS BLVD,PLANO,TX,75074,"http://maps.google.com/maps?q=3000 LOS RIOS BLVD,+PLANO,+TX+75074&hl=en"
PLANO POLICE DEPARTMENT,PLANO SENIOR HIGH,2200 INDEPENDENCE PARKWAY,PLANO,TX,75075,"http://maps.google.com/maps?q=2200 INDEPENDENCE PARKWAY,+PLANO,+TX+75075&hl=en"
PLANO POLICE DEPARTMENT,PLANO WEST SENIOR HIGH SCHOOL,5601 WEST PARKER ROAD,PLANO,TX,75093,"http://maps.google.com/maps?q=5601 WEST PARKER ROAD,+PLANO,+TX+75093&hl=en"
PONDER POLICE DEPARTMENT,BETTY FOSTER LIBRARY,405 SHAFFNER,PONDER,TX,76259,"http://maps.google.com/maps?q=405 SHAFFNER,+PONDER,+TX+76259&hl=en"
PRINCETON POLICE DEPARTMENT,PRINCETON POLICE DEPARTMENT,306 MAIN ST.,PRINCETON,TX,75407,"http://maps.google.com/maps?q=306 MAIN ST.,+PRINCETON,+TX+75407&hl=en"
RICHARDSON POLICE DEPT,RICHARDSON CIVIC CENTER/SOUTH PARKING LOT,411 WEST ARAPAHO ROAD,RICHARDSON,TX,75080,"http://maps.google.com/maps?q=411 WEST ARAPAHO ROAD,+RICHARDSON,+TX+75080&hl=en"
RICHLAND COLLEGE,RICHLAND COLLEGE D LOT,12800 ABRAMS RD,DALLAS,TX,75243,"http://maps.google.com/maps?q=12800 ABRAMS RD,+DALLAS,+TX+75243&hl=en"
RICHLAND COLLEGE,RICHLAND COLLEGE GARLAND CAMPUS NORTHWEST PARKING LOT,675 W WALNUT ST,DALLAS,TX,75240,"http://maps.google.com/maps?q=675 W WALNUT ST,+DALLAS,+TX+75240&hl=en"
RICHLAND HILLS PD,RICHLAND HILLS FD,3201 DIANA DRIVE,RICHLAND HILLS,TX,76118,"http://maps.google.com/maps?q=3201 DIANA DRIVE,+RICHLAND HILLS,+TX+76118&hl=en"
ROANOKE PD,ROANOKE PD,609 DALLAS DR,ROANOKE,TX,76262,"http://maps.google.com/maps?q=609 DALLAS DR,+ROANOKE,+TX+76262&hl=en"
ROCKWALL POLICE DEPARTMENT,ROCKWALL POLICE COMMUNITY SERVICES,1113 RIDGE ROAD,ROCKWALL,TX,75087,"http://maps.google.com/maps?q=1113 RIDGE ROAD,+ROCKWALL,+TX+75087&hl=en"
ROUND ROCK POLICE DEPARTMENT,ROUND ROCK POLICE DEPARTMENT,2701 NORTH MAYS,ROUND ROCK,TX,78665,"http://maps.google.com/maps?q=2701 NORTH MAYS,+ROUND ROCK,+TX+78665&hl=en"
ROWLETT POLICE DEPT,ROWLETT COMMUNITY CENTER,5300 MAIN ST,ROWLETT,TX,75088,"http://maps.google.com/maps?q=5300 MAIN ST,+ROWLETT,+TX+75088&hl=en"
SANSOM PARK POLICE,SANSOM PARK FIRE STATION,5500 BUCHANAN ST,SANSOM PARK,TX,76114,"http://maps.google.com/maps?q=5500 BUCHANAN ST,+SANSOM PARK,+TX+76114&hl=en"
SAPULPA POLICE DEPARTMENT,SAPULPA POLICE DEPARTMENT,20 N. WALNUT ST.,SAPULPA,OK,74066,"http://maps.google.com/maps?q=20 N. WALNUT ST.,+SAPULPA,+OK+74066&hl=en"
SCHERTZ POLICE DEPARTMENT,SCHERTZ POLICE DEPARTMENT,1400 SCHERTZ PARKWAY,SCHERTZ,TX,78154,"http://maps.google.com/maps?q=1400 SCHERTZ PARKWAY,+SCHERTZ,+TX+78154&hl=en"
SEALY POLICE DEPARTMENT,SEALY POLICE DEPARTMENT,1320 REXVILLE ROAD,SEALY,TX,77474,"http://maps.google.com/maps?q=1320 REXVILLE ROAD,+SEALY,+TX+77474&hl=en"
SHAVANO PARK POLICE DEPARTMENT,SHAVANO PARK POLICE DEPARTMENT,900 SADDLETREE COURT,SHAVANO PARK,TX,78231,"http://maps.google.com/maps?q=900 SADDLETREE COURT,+SHAVANO PARK,+TX+78231&hl=en"
SHAWNEE PD,SHAWNEE SENIOR CENTER,401 N. BELL,SHAWNEE,OK,74801,"http://maps.google.com/maps?q=401 N. BELL,+SHAWNEE,+OK+74801&hl=en"
SHERMAN POLICE DEPT,SHERMAN POLICE DEPT,317 S. TRAVIS,SHERMAN,TX,75090,"http://maps.google.com/maps?q=317 S. TRAVIS,+SHERMAN,+TX+75090&hl=en"
SOUTHLAKE PD,SOUTHLAKE PD,600 STATE ST,SOUTHLAKE,TX,76092,"http://maps.google.com/maps?q=600 STATE ST,+SOUTHLAKE,+TX+76092&hl=en"
TARRANT COUNTY SHERIFF'S DEPARTMENT,NORTH PATROL,6651 LAKE WORTH BLVD.,FORT WORTH,TX,76135,"http://maps.google.com/maps?q=6651 LAKE WORTH BLVD.,+FORT WORTH,+TX+76135&hl=en"
TARRANT COUNTY SHERIFF'S DEPARTMENT,TARRANT COUNTY CORRECTIONS CENTER MAIN LOBBY,100 N. LAMAR,FORT WORTH,TX,76196,"http://maps.google.com/maps?q=100 N. LAMAR,+FORT WORTH,+TX+76196&hl=en"
TAYLOR POLICE DEPARTMENT,CITY HALL PARKING LOT,400 PORTER,TAYLOR,TX,76574,"http://maps.google.com/maps?q=400 PORTER,+TAYLOR,+TX+76574&hl=en"
TEMPLE POLICE DEPARTMENT,TEMPLE POLICE DEPARTMENT,209 E. AVE. A,TEMPLE,TX,76501,"http://maps.google.com/maps?q=209 E. AVE. A,+TEMPLE,+TX+76501&hl=en"
TERRELL POLICE DEPARTMENT,TERRELL POLICE DEPARTMENT HEADQUARTERS,1100 N SH 34,TERRELL,TX,75160,"http://maps.google.com/maps?q=1100 N SH 34,+TERRELL,+TX+75160&hl=en"
TEXAS A&M,TEXAS A&M,ONE UNIVERSITY WAY,SAN ANTONIO,TX,78224,"http://maps.google.com/maps?q=ONE UNIVERSITY WAY,+SAN ANTONIO,+TX+78224&hl=en"
TRAVIS COUNTY CONSTABLE - PRECINCT 5,TRAVIS COUNTY CONSTABLE - PRECINCT 5,1003 GUADALUPE STREET,AUSTIN,TX,78701,"http://maps.google.com/maps?q=1003 GUADALUPE STREET,+AUSTIN,+TX+78701&hl=en"
TRAVIS COUNTY CONSTABLE PRECINCT 1,TRAVIS COUNTY CONSTABLE - PRECINCT 1,"4717 HEFLIN LANE, SUITE 127",AUSTIN,TX,78721,"http://maps.google.com/maps?q=4717 HEFLIN LANE, SUITE 127,+AUSTIN,+TX+78721&hl=en"
TRAVIS COUNTY CONSTABLE PRECINCT 2,THE HILLS OF LAKEWAY,TWO CLUBS ESTATES PARKWAY,AUSTIN,TX,78738,"http://maps.google.com/maps?q=TWO CLUBS ESTATES PARKWAY,+AUSTIN,+TX+78738&hl=en"
TRAVIS COUNTY CONSTABLE PRECINCT 2,TRAVIS COUNTY CONSTABLE PRECINCT 2,10409 BURNETT ROAD,AUSTIN,TX,78758,"http://maps.google.com/maps?q=10409 BURNETT ROAD,+AUSTIN,+TX+78758&hl=en"
TRAVIS COUNTY CONSTABLE PRECINCT 3,TRAVIS COUNTY CONSTABLE PRECINCT 3,"8656 HWY 71, SUITE 132",AUSTIN,TX,78735,"http://maps.google.com/maps?q=8656 HWY 71, SUITE 132,+AUSTIN,+TX+78735&hl=en"
TRAVIS COUNTY CONSTABLE PRECINCT 4,TRAVIS COUNTY CONSTABLE PRECINCT 4,4011 MCKINNEY FALLS PARKWAY #1100,AUSTIN,TX,78744,"http://maps.google.com/maps?q=4011 MCKINNEY FALLS PARKWAY #1100,+AUSTIN,+TX+78744&hl=en"
TROPHY CLUB PD,TROPHY CLUB POLICE DEPT LOBBY,ONE TROPHY WOOD DRIVE,TROPHY CLUB,TX,76262,"http://maps.google.com/maps?q=ONE TROPHY WOOD DRIVE,+TROPHY CLUB,+TX+76262&hl=en"
TULSA COUNTY SHERIFF'S OFFICE,TULSA CRIME STOPPERS PROMENADE MALL,"4107 S YALE AVE, SUITE 142",TULSA,OK,74135,"http://maps.google.com/maps?q=4107 S YALE AVE, SUITE 142,+TULSA,+OK+74135&hl=en"
TULSA PD,MET EAST TULSA,12466 E 21ST ST,TULSA,OK,74129,"http://maps.google.com/maps?q=12466 E 21ST ST,+TULSA,+OK+74129&hl=en"
TULSA PD,PATRICK HENRY ELEMENTARY,3820 E. 41ST ST,TULSA,OK,74135,"http://maps.google.com/maps?q=3820 E. 41ST ST,+TULSA,+OK+74135&hl=en"
UNIVERSITY OF NORTH TEXAS POLICE DEPARTMENT,UNT WILLIS LIBRARY,1506 W. HIGHLAND ST.,DENTON,TX,76201,"http://maps.google.com/maps?q=1506 W. HIGHLAND ST.,+DENTON,+TX+76201&hl=en"
UNIVERSITY PARK POLICE DEPT,UNIVERSITY PARK PD,3800 UNIVERSITY BLVD,DALLAS,TX,75205,"http://maps.google.com/maps?q=3800 UNIVERSITY BLVD,+DALLAS,+TX+75205&hl=en"
VAN ALSTYNE POLICE DEPARTMENT,VAN ALSTYNE POLICE DEPARTMENT,242 N. PRESTON AVENUE,VAN ALSTYNE,TX,75495,"http://maps.google.com/maps?q=242 N. PRESTON AVENUE,+VAN ALSTYNE,+TX+75495&hl=en"
WACO POLICE DEPARTMENT,WACO POLICE DEPARTMENT,3115 PINE AVENUE,WACO,TX,76701,"http://maps.google.com/maps?q=3115 PINE AVENUE,+WACO,+TX+76701&hl=en"
WATAUGA PD,WATAUGA PD,7101 WHITLEY RD,WATAUGA,TX,76148,"http://maps.google.com/maps?q=7101 WHITLEY RD,+WATAUGA,+TX+76148&hl=en"
WEATHERFORD COLLEGE PD,WEATHERFORD COLLEGE PD PARKING LOT IN FRONT OF CAMPUS PD,225 COLLEGE PARK DR,WEATHERFORD,TX,76086,"http://maps.google.com/maps?q=225 COLLEGE PARK DR,+WEATHERFORD,+TX+76086&hl=en"
WEATHERFORD POLICE DEPARTMENT,WEATHERFORD NINTH GRADE CENTER,1007 S. MAIN ST,WEATHERFORD,TX,76086,"http://maps.google.com/maps?q=1007 S. MAIN ST,+WEATHERFORD,+TX+76086&hl=en"
WHITE SETTLEMENT PD,WHITE SETTLEMENT SENIOR SERVICES CTR,8211 WHITE SETTLEMENT RD,FORT WORTH,TX,76108,"http://maps.google.com/maps?q=8211 WHITE SETTLEMENT RD,+FORT WORTH,+TX+76108&hl=en"
WILLIAMSON COUNTY SHERIFF'S OFFICE,WILCO CENTRAL MAINTENANCE FACILITY,3151 SE INNER LOOP,GEORGETOWN,TX,78626,"http://maps.google.com/maps?q=3151 SE INNER LOOP,+GEORGETOWN,+TX+78626&hl=en"
WOODWAY PUBLIC SAFETY DEPARTMENT,WOODWAY PUBLIC SAFETY DEPARTMENT,920 ESTATES DRIVE,WOODWAY,TX,76712,"http://maps.google.com/maps?q=920 ESTATES DRIVE,+WOODWAY,+TX+76712&hl=en"
WYLIE PD,WYLIE POLICE DEPT,2000 N HWY 78,WYLIE,TX,75098,"http://maps.google.com/maps?q=2000 N HWY 78,+WYLIE,+TX+75098&hl=en"
