Participant,CollectionSite,Address,City,State,Zip,MapURL
AKRON POLICE DEPARTMENT,"AKRON METRO REGIONAL TRANSIT CENTER 
												
													VISITOR'S PARKING LOT",631 S BROADWAY STREET,AKRON,OH,44311,"http://maps.google.com/maps?q=631 S BROADWAY STREET,+AKRON,+OH+44311&hl=en"
ALLEGHENY COUNTY POLICE DEPARTMENT,NORTH PARK STATION,700 WEST RIDGE DRIVE,ALLISON PARK,PA,15101,"http://maps.google.com/maps?q=700 WEST RIDGE DRIVE,+ALLISON PARK,+PA+15101&hl=en"
ALLEGHENY COUNTY POLICE DEPARTMENT,SOUTH PARK STATION,1801 BROWNSVILLE ROAD,SOUTH PARK,PA,15129,"http://maps.google.com/maps?q=1801 BROWNSVILLE ROAD,+SOUTH PARK,+PA+15129&hl=en"
ALLEGHENY COUNTY POLICE DEPARTMENT,WILMERDING STATION,315 STATION ST,WILMERDING,PA,15148,"http://maps.google.com/maps?q=315 STATION ST,+WILMERDING,+PA+15148&hl=en"
ANDOVER POLICE DEPARTMENT,ANDOVER POLICE DEPARTMENT,134 MAPLE ST,ANDOVER,OH,44003,"http://maps.google.com/maps?q=134 MAPLE ST,+ANDOVER,+OH+44003&hl=en"
ASHLAND KY POLICE,ASHLAND KY POLICE,201 17TH STREET,ASHLAND,KY,41101,"http://maps.google.com/maps?q=201 17TH STREET,+ASHLAND,+KY+41101&hl=en"
ASHTABULA COUNTY SHERIFF'S OFFICE,ASHTABULA COUNTY SHERIFF'S OFFICE,25 W. JEFFERSON ST.,JEFFERSON,OH,44047,"http://maps.google.com/maps?q=25 W. JEFFERSON ST.,+JEFFERSON,+OH+44047&hl=en"
ASPINWALL POLICE DEPARTMENT,ASPINWALL POLICE STATION,217 COMMERCIAL AVENUE,ASPINWALL,PA,15215,"http://maps.google.com/maps?q=217 COMMERCIAL AVENUE,+ASPINWALL,+PA+15215&hl=en"
ATHENS POLICE DEPARTMENT,"ATHENS ELKS LODGE 
												
													PARKING LOT",600 WEST UNION STREET,ATHENS,OH,45701,"http://maps.google.com/maps?q=600 WEST UNION STREET,+ATHENS,+OH+45701&hl=en"
AURORA POLICE DEPARTMENT,AURORA POLICE DEPARTMENT,100 S. AURORA RD,AURORA,OH,44202,"http://maps.google.com/maps?q=100 S. AURORA RD,+AURORA,+OH+44202&hl=en"
AUSTINTOWN POLICE DEPARTMENT,"AUSTINTOWN TOWNSHIP POLICE DISTRICT 
												
													OUTDOOR DRIVE-THRU COLLECTION",92 OHLTOWN RD.,YOUNGSTOWN,OH,44515,"http://maps.google.com/maps?q=92 OHLTOWN RD.,+YOUNGSTOWN,+OH+44515&hl=en"
BARBERTON POLICE DEPARTMENT,THE OLD FIRST MERIT BUILDING,480 WEST TUSCAWARAS,BARBERTON,OH,44203,"http://maps.google.com/maps?q=480 WEST TUSCAWARAS,+BARBERTON,+OH+44203&hl=en"
BATH TOWNSHIP POLICE DEPARTMENT,"ACME MARKET 
												
													JIM PEARL- MANAGER",3979 MEDINA RD.,AKRON,OH,44333,"http://maps.google.com/maps?q=3979 MEDINA RD.,+AKRON,+OH+44333&hl=en"
BEAVER POLICE DEPARTMENT,"BEAVER POLICE DEPARTMENT 
												
													FRONT LOBBY",601 W SOUTH RANGE RD,NORTH LIMA,OH,44452,"http://maps.google.com/maps?q=601 W SOUTH RANGE RD,+NORTH LIMA,+OH+44452&hl=en"
BELLEVUE BOROUGH POLICE DEPARTMENT,BELLEVUE BOROUGH POLICE DEPARTMENT,537 BAYNE AVENUE,PITTSBURGH,PA,15202,"http://maps.google.com/maps?q=537 BAYNE AVENUE,+PITTSBURGH,+PA+15202&hl=en"
BELMONT COUNTY SHERIFF'S OFFICE,OHIO STATE PATROL- ST. CLAIRSVILLE,51400 NATIONAL ROAD,SAINT CLAIRSVILLE,OH,43950,"http://maps.google.com/maps?q=51400 NATIONAL ROAD,+SAINT CLAIRSVILLE,+OH+43950&hl=en"
BELMONT COUNTY SHERIFF'S OFFICE,RIESBECK'S FOOD STORE,104 PLAZA DRIVE,SAINT CLAIRSVILLE,OH,43950,"http://maps.google.com/maps?q=104 PLAZA DRIVE,+SAINT CLAIRSVILLE,+OH+43950&hl=en"
BELMONT COUNTY SHERIFF'S OFFICE,RIESBECK'S FOOD STORE,4595 CENTRAL AVENUE,SHADYSIDE,OH,43947,"http://maps.google.com/maps?q=4595 CENTRAL AVENUE,+SHADYSIDE,+OH+43947&hl=en"
BELMONT COUNTY SHERIFF'S OFFICE,RIESBECK'S FOOD STORE,56130 NATIONAL ROAD,BRIDGEPORT,OH,43912,"http://maps.google.com/maps?q=56130 NATIONAL ROAD,+BRIDGEPORT,+OH+43912&hl=en"
BEREA POLICE DEPARTMENT,WALGREENS,6 E. BAGLEY RD.,BEREA,OH,44017,"http://maps.google.com/maps?q=6 E. BAGLEY RD.,+BEREA,+OH+44017&hl=en"
BEXLEY POLICE DEPARTMENT,"BEXLEY POLICE DEPARTMENT 
												
													DAWN OVERLY",559 NORTH CASSINGHAM ROADBEXLEY,COLUMBUS,OH,43209,"http://maps.google.com/maps?q=559 NORTH CASSINGHAM ROAD,+COLUMBUS,+OH+43209&hl=en"
BLENDON TWP POLICE,BLENDON TWP POLICE,6340 HEMPSTEAD RD,WESTERVILLE,OH,43081,"http://maps.google.com/maps?q=6340 HEMPSTEAD RD,+WESTERVILLE,+OH+43081&hl=en"
BOARDMAN POLICE DEPARTMENT,BOARDMAN POLICE DEPARTMENT,8299 MARKET STREET,BOARDMAN,OH,44512,"http://maps.google.com/maps?q=8299 MARKET STREET,+BOARDMAN,+OH+44512&hl=en"
BOONE COUNTY SHERIFF'S OFFICE,"JOHN SLACK PARK 
												
													SHERIFF W WHITE",SR#3GENERAL DELIVERY,RACINE,WV,25165,"http://maps.google.com/maps?q=SR#3,+RACINE,+WV+25165&hl=en"
BRAXTON CO. SHERRI'FS OFFICE,"BRAXTON COUNTY COURT HOUSE 
												
													IN FRONT OF COURTHOUSE",300 MAIN STREET,SUTTON,WV,26601,"http://maps.google.com/maps?q=300 MAIN STREET,+SUTTON,+WV+26601&hl=en"
BRECKSVILLE POLICE DEPARTMENT,"BRECKSVILLE POLICE DEPARTMENT 
												
													HORTICULTURAL DEPARTMENT BUILDING",6916 STADIUM DRIVE,BRECKSVILLE,OH,44141,"http://maps.google.com/maps?q=6916 STADIUM DRIVE,+BRECKSVILLE,+OH+44141&hl=en"
BRIDGEPORT POLICE DEPARTMENT,"BRIDGEPORT POLICE DEPARTMENT 
												
													DPTY CHIEF R. HARTLEY",515 WEST MAIN STREET,BRIDGEPORT,WV,26330,"http://maps.google.com/maps?q=515 WEST MAIN STREET,+BRIDGEPORT,+WV+26330&hl=en"
BRIMFIELD POLICE DEPARTMENT,BRIMFIELD POLICE DEPARTMENT,1287 TALLMADGE RD,KENT,OH,44240,"http://maps.google.com/maps?q=1287 TALLMADGE RD,+KENT,+OH+44240&hl=en"
BROOKE COUNTY SHERIFF'S OFFICE,"BROOKE COUNTY COURTHOUSE 
												
													GREEN ROOM",632 MAIN STREET,WELLSBURG,WV,26070,"http://maps.google.com/maps?q=632 MAIN STREET,+WELLSBURG,+WV+26070&hl=en"
CALHOUN COUNTY SHERIFF,CALHOUN COUNTY SHERIFF,363 MAIN STSTE 204,GRANTSVILLE,WV,26147,"http://maps.google.com/maps?q=363 MAIN ST,+GRANTSVILLE,+WV+26147&hl=en"
CAMERON POLICE DEPARTMENT,CAMERON POLICE DEPARTMENT,44 MAIN STREET,CAMERON,WV,26033,"http://maps.google.com/maps?q=44 MAIN STREET,+CAMERON,+WV+26033&hl=en"
CANONSBURG POLICE DEPARTMENT,SHOP AND SAVE GROCERY STORE,617 WEST PIKE STREET,CANONSBURG,PA,15317,"http://maps.google.com/maps?q=617 WEST PIKE STREET,+CANONSBURG,+PA+15317&hl=en"
CARLOW UNIVERSITY POLICE,CARLOW UNIVERSITY,3333 FIFTH AVE,PITTSBURGH,PA,15213,"http://maps.google.com/maps?q=3333 FIFTH AVE,+PITTSBURGH,+PA+15213&hl=en"
CARNEGIE MELLON UNIVERSITY POLICE DEPT,CARNEGIE MELLON UNIVERSITY POLICE DEPT STATION,300 S CRAIG ST,PITTSBURGH,PA,15213,"http://maps.google.com/maps?q=300 S CRAIG ST,+PITTSBURGH,+PA+15213&hl=en"
CARROLL TOWNSHIP POLICE DEPARTMENT,"MONONGAHELA VALLEY HOSPITAL, INC.",1163 COUNTRY CLUB ROAD,MONONGAHELA,PA,15063,"http://maps.google.com/maps?q=1163 COUNTRY CLUB ROAD,+MONONGAHELA,+PA+15063&hl=en"
CENTERVILLE BORO PD,CENTERVILLE BORO,100 E END ST,BROWNSVILLE,PA,15417,"http://maps.google.com/maps?q=100 E END ST,+BROWNSVILLE,+PA+15417&hl=en"
CEREDO WV POLICE DEPT,CEREDO PD,766 B STREET,CEREDO,WV,25507,"http://maps.google.com/maps?q=766 B STREET,+CEREDO,+WV+25507&hl=en"
CHARLESTON POLICE DEPARTMENT,DOLLAR GENERAL,1555 WASHINGTON STREET EAST,CHARLESTON,WV,25311,"http://maps.google.com/maps?q=1555 WASHINGTON STREET EAST,+CHARLESTON,+WV+25311&hl=en"
CHARLESTON POLICE DEPARTMENT,DRUG EMPORIUM,1603 KANAWHA BLVDWEST,CHARLESTON,WV,25302,"http://maps.google.com/maps?q=1603 KANAWHA BLVDWEST,+CHARLESTON,+WV+25302&hl=en"
CHARLESTON POLICE DEPARTMENT,"PIGGLY WIGGLY 
												
													PARKING LOT",5003 MACCORKLE AVENUE SE,CHARLESTON,WV,25304,"http://maps.google.com/maps?q=5003 MACCORKLE AVENUE SE,+CHARLESTON,+WV+25304&hl=en"
CHARLESTON POLICE DEPARTMENT,RITE AID BRIDGE ROAD,1015 BRIDGE ROAD,CHARLESTON,WV,25314,"http://maps.google.com/maps?q=1015 BRIDGE ROAD,+CHARLESTON,+WV+25314&hl=en"
CHARLESTON POLICE DEPARTMENT,"UNIV. OF CHARLESTON 
												
													ROBERT C. BYRD SCHOOL OF PHARMACY",2300 MACCORKLE AVE,CHARLESTON,WV,25304,"http://maps.google.com/maps?q=2300 MACCORKLE AVE,+CHARLESTON,+WV+25304&hl=en"
CHARLESTON POLICE DEPARTMENT,"WALGREENS DRUGSTORE 
												
													PARKING LOT",655 WASHINGTON STREET W,CHARLESTON,WV,25302,"http://maps.google.com/maps?q=655 WASHINGTON STREET W,+CHARLESTON,+WV+25302&hl=en"
CHARTIERS TOWNSHIP POLICE DEPARTMENT,CHARTIERS TOWNSHIP POLICE DEPARTMENT,2 BUCCANEER DRIVE,HOUSTON,PA,15342,"http://maps.google.com/maps?q=2 BUCCANEER DRIVE,+HOUSTON,+PA+15342&hl=en"
CHESTER POLICE DEPT,CHESTER POLICE DEPT,600 INDIANA AVE,CHESTER,WV,26034,"http://maps.google.com/maps?q=600 INDIANA AVE,+CHESTER,+WV+26034&hl=en"
CHILLICOTHE POLICE DEPARTMENT,"KROGER 
												
													PARKING LOT",887 N BRIDGE STREET,CHILLICOTHE,OH,45601,"http://maps.google.com/maps?q=887 N BRIDGE STREET,+CHILLICOTHE,+OH+45601&hl=en"
CITY OF MONESSEN,CITY OF MONESSEN PD,239 DONNER AVE,MONESSEN,PA,15062,"http://maps.google.com/maps?q=239 DONNER AVE,+MONESSEN,+PA+15062&hl=en"
CITY OF WASHINGTON POLICE DEPT,CITY OF WASHINGTON POLICE DEPT,56 WEST STRAWBERRY AVE,WASHINGTON,PA,15301,"http://maps.google.com/maps?q=56 WEST STRAWBERRY AVE,+WASHINGTON,+PA+15301&hl=en"
CLAIRTON POLICE DEPARTMENT,LIVINGSTON PHARMACY,550 MILLER AVE,CLAIRTON,PA,15025,"http://maps.google.com/maps?q=550 MILLER AVE,+CLAIRTON,+PA+15025&hl=en"
CLARKSBURG POLICE DEPARTMENT,CLARKSBURG POLICE DEPARTMENT,222 WEST MAIN STREETREAR LOT,CLARKSBURG,WV,26301,"http://maps.google.com/maps?q=222 WEST MAIN STREET,+CLARKSBURG,+WV+26301&hl=en"
CLAY COUNTY SHERIFF DEPT.,"CLAY COUNTY COURT HOUSE 
												
													FRONT DOOR/COURTYARD SQUARE",246 MAIN STREET,CLAY,WV,25043,"http://maps.google.com/maps?q=246 MAIN STREET,+CLAY,+WV+25043&hl=en"
CLEVELAND POLICE DEPARTMENT,3RD DISTRICT CLEVELAND POLICE DEPARTMENT,4501 CHESTER AVE,CLEVELAND,OH,44103,"http://maps.google.com/maps?q=4501 CHESTER AVE,+CLEVELAND,+OH+44103&hl=en"
CLEVELAND POLICE DEPARTMENT,CLEVELAND POLICE DEPARTMENT DISTRICT 1,3895 W 130TH STREET,CLEVELAND,OH,44111,"http://maps.google.com/maps?q=3895 W 130TH STREET,+CLEVELAND,+OH+44111&hl=en"
CLEVELAND POLICE DEPARTMENT,CLEVELAND POLICE DEPARTMENT DISTRICT 2,3481 FULTON ROAD,CLEVELAND,OH,44109,"http://maps.google.com/maps?q=3481 FULTON ROAD,+CLEVELAND,+OH+44109&hl=en"
CLEVELAND POLICE DEPARTMENT,CLEVELAND POLICE DEPARTMENT DISTRICT 4,9333 KINSMAN AVENUE,CLEVELAND,OH,44104,"http://maps.google.com/maps?q=9333 KINSMAN AVENUE,+CLEVELAND,+OH+44104&hl=en"
CLEVELAND POLICE DEPARTMENT,CLEVELAND POLICE DEPARTMENT DISTRICT 5,881 E 152ND STREET,CLEVELAND,OH,44114,"http://maps.google.com/maps?q=881 E 152ND STREET,+CLEVELAND,+OH+44114&hl=en"
COLUMBIANA COUNTY DRUG TASK FORCE,EAST LIVERPOOL CITY HOSPITAL,425 W. 5TH STREET,EAST LIVERPOOL,OH,43920,"http://maps.google.com/maps?q=425 W. 5TH STREET,+EAST LIVERPOOL,+OH+43920&hl=en"
COLUMBIANA COUNTY DRUG TASK FORCE,SALEM REGIONAL MEDICAL CENTER,1995 E. STATE STREET,SALEM,OH,44460,"http://maps.google.com/maps?q=1995 E. STATE STREET,+SALEM,+OH+44460&hl=en"
COLUMBUS DIVISION OF POLICE,COLUMBUS HEALTH DEPARTMENT,240 PARSONS AVE,COLUMBUS,OH,43215,"http://maps.google.com/maps?q=240 PARSONS AVE,+COLUMBUS,+OH+43215&hl=en"
COPLEY POLICE DEPARTMENT,COPLEY POLICE DEPARTMENT,1280 SUNSET DRIVE,COPLEY,OH,44321,"http://maps.google.com/maps?q=1280 SUNSET DRIVE,+COPLEY,+OH+44321&hl=en"
CORTLAND POLICE DEPARTMENT,CORTLAND POLICE DEPARTMENT,400 N. HIGH STREET,CORTLAND,OH,44410,"http://maps.google.com/maps?q=400 N. HIGH STREET,+CORTLAND,+OH+44410&hl=en"
CRANBERRY TWP POLICE DEPT,CRANBERRY TWP POLICE DEPT,2525 ROCHESTER RD,CRANBERRY TOWNSHIP,PA,16066,"http://maps.google.com/maps?q=2525 ROCHESTER RD,+CRANBERRY TOWNSHIP,+PA+16066&hl=en"
CUYAHOGA FALLS POLICE DEPARTMENT,CITY OF CUYAHOGA FALLS CITY HALL,2310 SECOND ST,CUYAHOGA FALLS,OH,44221,"http://maps.google.com/maps?q=2310 SECOND ST,+CUYAHOGA FALLS,+OH+44221&hl=en"
DELAWARE COUNTY SHERIFF'S OFFICE,KROGER,3975W. POWELL RD,POWELL,OH,43065,"http://maps.google.com/maps?q=3975,+POWELL,+OH+43065&hl=en"
DODDRIDGE COUNTY SHERIFF'S DEPARTMENT,DODDRIDGE CTY SD,89 COURT ST,WEST UNION,WV,26456,"http://maps.google.com/maps?q=89 COURT ST,+WEST UNION,+WV+26456&hl=en"
DORMONT POLICE DEPARTMENT,CVS PHARMACY,3075 WEST LIBERTY AVENUE,PITTSBURGH,PA,15216,"http://maps.google.com/maps?q=3075 WEST LIBERTY AVENUE,+PITTSBURGH,+PA+15216&hl=en"
DUBLIN POLICE,"DUBLIN POLICE DEPARTMENT HEADQUARTERS 
												
													ENTER ON DRIVE WEST OF TRAFFIC CIRCLE.EXIT AT TRAFFIC CIRCLE",6565 COMMERCE PKWY,DUBLIN,OH,43017,"http://maps.google.com/maps?q=6565 COMMERCE PKWY,+DUBLIN,+OH+43017&hl=en"
DUQUESNE UNIVERSITY PUBLIC SAFETY,BAYER SCHOOL,MCNAULTY DR,PITTSBURGH,PA,15282,"http://maps.google.com/maps?q=MCNAULTY DR,+PITTSBURGH,+PA+15282&hl=en"
EAST PITTSBURGH POLICE,LANIGAN''S FUNERAL HOME,700 LINDEN AVENUE,EAST PITTSBURGH,PA,15112,"http://maps.google.com/maps?q=700 LINDEN AVENUE,+EAST PITTSBURGH,+PA+15112&hl=en"
ELLWOOD CITY POLICE DEPARTMENT,ELLWOOD CITY MUNICIPAL BUILDING,525 LAWRENCE AVENUE,ELLWOOD CITY,PA,16117,"http://maps.google.com/maps?q=525 LAWRENCE AVENUE,+ELLWOOD CITY,+PA+16117&hl=en"
FAIRFIELD COUNTY SHERIFF'S OFFICE,"DILEY RIDGE MEDICAL CENTER 
												
													PARKING LOT",7911 DILEY ROAD,CANAL WINCHESTER,OH,43110,"http://maps.google.com/maps?q=7911 DILEY ROAD,+CANAL WINCHESTER,+OH+43110&hl=en"
FAIRFIELD COUNTY SHERIFF'S OFFICE,VIOLET TOWNSHIP MAINTENANCE GARAGE,490 N CENTER STCORNER OF N CENTER & STEMEN RD,PICKERINGTON,OH,43147,"http://maps.google.com/maps?q=490 N CENTER ST,+PICKERINGTON,+OH+43147&hl=en"
FAIRFIELD-HOCKING-ATHENS MAJOR CRIMES UNIT,"KROGER 
												
													PARKING LOT",1735 N MEMEORIAL DR,LANCASTER,OH,43130,"http://maps.google.com/maps?q=1735 N MEMEORIAL DR,+LANCASTER,+OH+43130&hl=en"
FAIRMONT POLICE DEPARTMENT,"FAIRMONT POLICE DEPARTMENT 
												
													PUBLIC SAFETY BUILDING",500 QUINCY STREET,FAIRMONT,WV,26554,"http://maps.google.com/maps?q=500 QUINCY STREET,+FAIRMONT,+WV+26554&hl=en"
FAYETTE COUNTY SHERIFF'S OFFICE,"COMMUNTY HEALTH FAIR 
												
													GRACE COMMUNITY CHURCH",525 GLENN AVE,WASHINGTON COURT HOUSE,OH,43160,"http://maps.google.com/maps?q=525 GLENN AVE,+WASHINGTON COURT HOUSE,+OH+43160&hl=en"
FAYETTE COUNTY SHERIFF'S OFFICE,SHERIFF'S ANNEX BUILDING,110 WEST MARKET STREET,WASHINGTON COURT HOUSE,OH,43160,"http://maps.google.com/maps?q=110 WEST MARKET STREET,+WASHINGTON COURT HOUSE,+OH+43160&hl=en"
FINDLAY TOWNSHIP POLICE DEPARTMENT,FINDLAY TOWNSHIP POLICE DEPARTMENT,1271 ROUTE 30,CLINTON,PA,15026,"http://maps.google.com/maps?q=1271 ROUTE 30,+CLINTON,+PA+15026&hl=en"
FOLLANSBEE POLICE DEPARTMENT,FOLLANSBEE POLICE DEPARTMENT,872 MAIN STREET,FOLLANSBEE,WV,26037,"http://maps.google.com/maps?q=872 MAIN STREET,+FOLLANSBEE,+WV+26037&hl=en"
FRANKLIN COUNTY SHERIFF'S OFFICE,KROGER,300 S. HAMILTON RD,GAHANNA,OH,43230,"http://maps.google.com/maps?q=300 S. HAMILTON RD,+GAHANNA,+OH+43230&hl=en"
FRANKLIN COUNTY SHERIFF'S OFFICE,KROGER,3637 S. HIGH ST,COLUMBUS,OH,43207,"http://maps.google.com/maps?q=3637 S. HIGH ST,+COLUMBUS,+OH+43207&hl=en"
FRANKLIN COUNTY SHERIFF'S OFFICE,KROGER,4656 CEMETERY RD.,HILLIARD,OH,43026,"http://maps.google.com/maps?q=4656 CEMETERY RD.,+HILLIARD,+OH+43026&hl=en"
FRANKLIN COUNTY SHERIFF'S OFFICE,KROGER,55 W. SCHROCK RD.,WESTERVILLE,OH,43081,"http://maps.google.com/maps?q=55 W. SCHROCK RD.,+WESTERVILLE,+OH+43081&hl=en"
FRANKLIN COUNTY SHERIFF'S OFFICE,KROGER,6095 GENDER RD,CANAL WINCHESTER,OH,43110,"http://maps.google.com/maps?q=6095 GENDER RD,+CANAL WINCHESTER,+OH+43110&hl=en"
FRANKLIN COUNTY SHERIFF'S OFFICE,KROGER,7255 SAWMILL RD.,DUBLIN,OH,43016,"http://maps.google.com/maps?q=7255 SAWMILL RD.,+DUBLIN,+OH+43016&hl=en"
FRANKLIN TOWNSHIP POLICE DEPARTMENT,"FRANKLIN TOWNSHIP POLICE DEPT. 
												
													FRANKLIN TOWNSHIP FIRE DEPT.",2193 FRANK RD,COLUMBUS,OH,43223,"http://maps.google.com/maps?q=2193 FRANK RD,+COLUMBUS,+OH+43223&hl=en"
GATES MILLS POLICE DEPARTMENT,GATES MILLS POLICE DEPARTMENT,1470 CHAGRIN RIVER ROAD,GATES MILLS,OH,44040,"http://maps.google.com/maps?q=1470 CHAGRIN RIVER ROAD,+GATES MILLS,+OH+44040&hl=en"
GEAUGA COUNTY SHERIFF'S OFFICE,CHESTERLAND POLICE DEPARTMENT,12696 OPALOCKA DRIVE,CHESTERLAND,OH,44026,"http://maps.google.com/maps?q=12696 OPALOCKA DRIVE,+CHESTERLAND,+OH+44026&hl=en"
GEAUGA COUNTY SHERIFF'S OFFICE,MIDDLEFILED POLICE DEPARTMENT,14860 N. STATE AVE,MIDDLEFIELD,OH,44062,"http://maps.google.com/maps?q=14860 N. STATE AVE,+MIDDLEFIELD,+OH+44062&hl=en"
GEAUGA COUNTY SHERIFF'S OFFICE,RUSSELL POLICE DEPARTMENT,14820 CHILLICOTHE ROAD,NOVELTY,OH,44072,"http://maps.google.com/maps?q=14820 CHILLICOTHE ROAD,+NOVELTY,+OH+44072&hl=en"
GRAFTON POLICE DEPARTMENT,GRAFTON POLICE DEPARTMENT,1 WEST MAIN ST,GRAFTON,WV,26354,"http://maps.google.com/maps?q=1 WEST MAIN ST,+GRAFTON,+WV+26354&hl=en"
GREEN TREE BOROUGH POLICE DEPARTMENT,GREEN TREE MUNICIPAL BUILDING,10 WEST MANILLA AVE.,PITTSBURGH,PA,15220,"http://maps.google.com/maps?q=10 WEST MANILLA AVE.,+PITTSBURGH,+PA+15220&hl=en"
GREENE COUNTY SHERIFF'S OFFICE,GREENE COUNTY SHERIFF'S OFFICE,120 E MAIN STREET,XENIA,OH,45385,"http://maps.google.com/maps?q=120 E MAIN STREET,+XENIA,+OH+45385&hl=en"
GROVE CITY POLICE,JACKSON TOWNSHIP STATION 202,3650 HOOVER ROAD,GROVE CITY,OH,43123,"http://maps.google.com/maps?q=3650 HOOVER ROAD,+GROVE CITY,+OH+43123&hl=en"
GUERNSEY COUNTY SHERIFF'S OFFICE,RIESBECK'S FOOD MARKET,55 S 23RD STREET,CAMBRIDGE,OH,43725,"http://maps.google.com/maps?q=55 S 23RD STREET,+CAMBRIDGE,+OH+43725&hl=en"
HANCOCK COUNTY SHERIFF'S OFFICE,HANCOCK COUNTY SHERIFF'S OFFICE,102 NORTH COURT STREET,NEW CUMBERLAND,WV,26047,"http://maps.google.com/maps?q=102 NORTH COURT STREET,+NEW CUMBERLAND,+WV+26047&hl=en"
HEIDELBERG POLICE DEPARTMENT,WALGREENS,2055 WASHINGTON PIKE,CARNEGIE,PA,15106,"http://maps.google.com/maps?q=2055 WASHINGTON PIKE,+CARNEGIE,+PA+15106&hl=en"
HILLIARD DIVISION OF POLICE,HILLIARD DIVISION OF POLICE,5171 NORTHWEST PARKWAY,HILLIARD,OH,43026,"http://maps.google.com/maps?q=5171 NORTHWEST PARKWAY,+HILLIARD,+OH+43026&hl=en"
HUBBARD CITY POLICE DEPARTMENT,HUBBARD CITY POLICE DEPARTMENT,233 SCHOOL STREET,HUBBARD,OH,44425,"http://maps.google.com/maps?q=233 SCHOOL STREET,+HUBBARD,+OH+44425&hl=en"
HUDSON CITY POLICE DEPARTMENT,"HUDSON ACME PLAZA 
												
													IN FRONT OF THE ACME GROCERY STORE",116 W. STREETSBORO ST.,HUDSON,OH,44236,"http://maps.google.com/maps?q=116 W. STREETSBORO ST.,+HUDSON,+OH+44236&hl=en"
HUNTINGTON POLICE DEPARTMENT,CABELL HUNTINGTON HEALTH DEPARTMENT,703 7TH AVE HUNTINGTON,HUNTINGTON,WV,25701,"http://maps.google.com/maps?q=703 7TH AVE HUNTINGTON,+HUNTINGTON,+WV+25701&hl=en"
JACKSON COUNTY SHERIFF'S DEPARTMENT,KENNA VOLUNTEER FIRE DEPARTMENT,RT 21 AT PLEASANT VALLEY ROAD,KENNA,WV,25248,"http://maps.google.com/maps?q=RT 21 AT PLEASANT VALLEY ROAD,+KENNA,+WV+25248&hl=en"
JACKSON COUNTY SHERIFF'S DEPARTMENT,RAVENSWOOD VOLUNTEER FIRE DEPT,333 VIRGINIA STREET,RAVENSWOOD,WV,26164,"http://maps.google.com/maps?q=333 VIRGINIA STREET,+RAVENSWOOD,+WV+26164&hl=en"
JACKSON COUNTY SHERIFF'S DEPARTMENT,RIPLEY CITY HALL,203 SOUTH CHURCH ST,RIPLEY,WV,25271,"http://maps.google.com/maps?q=203 SOUTH CHURCH ST,+RIPLEY,+WV+25271&hl=en"
JAMESTOWN POLICE DEPARTMENT,JAMESTOWN PHARMACY,121 LIBERTY STREET,JAMESTOWN,PA,16134,"http://maps.google.com/maps?q=121 LIBERTY STREET,+JAMESTOWN,+PA+16134&hl=en"
KANAWHA COUNTY SHERIFF'S OFFICE,"KANAWHA COUNTY SHERIFF'S DETACHMENT 
												
													CROSS LANES DETACHMENT/CPL J.A. RATLIFF",903 CROSS LANES DR,CROSS LANES,WV,25313,"http://maps.google.com/maps?q=903 CROSS LANES DR,+CROSS LANES,+WV+25313&hl=en"
KANAWHA COUNTY SHERIFF'S OFFICE,"KANAWHA COUNTY SHERIFF'S OFFICE 
												
													QUINCY DETACHMENT/LT R.B. LILLY",2700 E DUPONT AVE,BELLE,WV,25015,"http://maps.google.com/maps?q=2700 E DUPONT AVE,+BELLE,+WV+25015&hl=en"
KANAWHA COUNTY SHERIFF'S OFFICE,"KANAWHA COUNTY SHERIFF'S OFFICE 
												
													SISSONVILLE DETACHMENT/LT. K.L. WHITE",6438 SISSONVILLE DRIVE,SISSONVILLE,WV,25320,"http://maps.google.com/maps?q=6438 SISSONVILLE DRIVE,+SISSONVILLE,+WV+25320&hl=en"
KANAWHA COUNTY SHERIFF'S OFFICE,"KANAWHA COUNTY SHERIFF'S OFFICE 
												
													ST. ALBANS DETACHMENT/CPT. BOONE",6809 OHIO AVENUE,SAINT ALBANS,WV,25177,"http://maps.google.com/maps?q=6809 OHIO AVENUE,+SAINT ALBANS,+WV+25177&hl=en"
KANAWHA COUNTY SHERIFF'S OFFICE,"KANWHA COUNTY SHERIFF'S DEPT 
												
													ELKVIEW DETACHMENT/SGT. M. HUDDLESTON",902 MAIN ST,ELKVIEW,WV,25071,"http://maps.google.com/maps?q=902 MAIN ST,+ELKVIEW,+WV+25071&hl=en"
KENTUCKY STATE POLICE POST 14,KENTUCKY STATE POLICE,5975 STATE ROUTE US 60,ASHLAND,KY,41102,"http://maps.google.com/maps?q=5975 STATE ROUTE US 60,+ASHLAND,+KY+41102&hl=en"
KNOX COUNTY SHERIFF'S OFFICE,DANVILLE POLICE DEPARTMENT,512 MARKET ST.,DANVILLE,OH,43014,"http://maps.google.com/maps?q=512 MARKET ST.,+DANVILLE,+OH+43014&hl=en"
KNOX COUNTY SHERIFF'S OFFICE,"FOSTER'S HEALTHMART PHARMACY 
												
													OUTSIDE OF BUILDING",4584 COLUMBUS RD,CENTERBURG,OH,43011,"http://maps.google.com/maps?q=4584 COLUMBUS RD,+CENTERBURG,+OH+43011&hl=en"
KNOX COUNTY SHERIFF'S OFFICE,FREDERICKTOWN POLICE DEPARTMENT,182 S. MAIN ST.,FREDERICKTOWN,OH,43019,"http://maps.google.com/maps?q=182 S. MAIN ST.,+FREDERICKTOWN,+OH+43019&hl=en"
LAKE COUNTY NARCOTICS AGENCY,LAKE WEST HOSPITAL,36000 EUCLID AVENUE,WILLOUGHBY,OH,44094,"http://maps.google.com/maps?q=36000 EUCLID AVENUE,+WILLOUGHBY,+OH+44094&hl=en"
LANCASTER (OH) POLICE DEPARTMENT,OHIO UNIVERSITY LANCASTER CAMPUS,1570 GRANVILLE PIKE,LANCASTER,OH,43130,"http://maps.google.com/maps?q=1570 GRANVILLE PIKE,+LANCASTER,+OH+43130&hl=en"
LIBERTY TOWNSHIP POLICE DEPARTMENT,LIBERTY TOWNSHIP GOVERNMENT BUILDING,1315 CHURCHILL-HUBBARD ROAD,YOUNGSTOWN,OH,44505,"http://maps.google.com/maps?q=1315 CHURCHILL-HUBBARD ROAD,+YOUNGSTOWN,+OH+44505&hl=en"
LICKING COUNTY SHERIFF'S OFFICE,KROGER,350 EAST BROAD STREET,PATASKALA,OH,43062,"http://maps.google.com/maps?q=350 EAST BROAD STREET,+PATASKALA,+OH+43062&hl=en"
LORAIN COUNTY SHERIFF'S OFFICE,AMHERST POLICE DEPARTMENT,911 N LAKE STREET,AMHERST,OH,44001,"http://maps.google.com/maps?q=911 N LAKE STREET,+AMHERST,+OH+44001&hl=en"
LORAIN COUNTY SHERIFF'S OFFICE,AVON LAKE POLICE DEPARTMENT,32855 WALKER ROAD,AVON LAKE,OH,44012,"http://maps.google.com/maps?q=32855 WALKER ROAD,+AVON LAKE,+OH+44012&hl=en"
LORAIN COUNTY SHERIFF'S OFFICE,AVON POLICE DEPARTMENT,36145 DETROIT ROAD,AVON,OH,44011,"http://maps.google.com/maps?q=36145 DETROIT ROAD,+AVON,+OH+44011&hl=en"
LORAIN COUNTY SHERIFF'S OFFICE,COLUMBIA TOWNSHIP FIRE STATION,25540 ROYALTON ROAD,COLUMBIA STATION,OH,44028,"http://maps.google.com/maps?q=25540 ROYALTON ROAD,+COLUMBIA STATION,+OH+44028&hl=en"
LORAIN COUNTY SHERIFF'S OFFICE,ELYRIA POLICE DEPARTMENT,18 WEST AVENUE,ELYRIA,OH,44035,"http://maps.google.com/maps?q=18 WEST AVENUE,+ELYRIA,+OH+44035&hl=en"
LORAIN COUNTY SHERIFF'S OFFICE,GRAFTON POLICE DEPARTMENT,1009 CHESTNUT STREET,GRAFTON,OH,44044,"http://maps.google.com/maps?q=1009 CHESTNUT STREET,+GRAFTON,+OH+44044&hl=en"
LORAIN COUNTY SHERIFF'S OFFICE,KIPTON VILLAGE HALL,299 STATE STREET,KIPTON,OH,44049,"http://maps.google.com/maps?q=299 STATE STREET,+KIPTON,+OH+44049&hl=en"
LORAIN COUNTY SHERIFF'S OFFICE,LAGRANGE POLICE DEPARTMENT,355 S CENTER STREET,LAGRANGE,OH,44050,"http://maps.google.com/maps?q=355 S CENTER STREET,+LAGRANGE,+OH+44050&hl=en"
LORAIN COUNTY SHERIFF'S OFFICE,LORAIN COUNTY SHERIFF'S OFFICE,9896 MURRAY RIDGE ROAD,ELYRIA,OH,44035,"http://maps.google.com/maps?q=9896 MURRAY RIDGE ROAD,+ELYRIA,+OH+44035&hl=en"
LORAIN COUNTY SHERIFF'S OFFICE,LORAIN POLICE DEPARTMENT,100 WEST ERIE AVENUE,LORAIN,OH,44052,"http://maps.google.com/maps?q=100 WEST ERIE AVENUE,+LORAIN,+OH+44052&hl=en"
LORAIN COUNTY SHERIFF'S OFFICE,NORTH RIDGEVILLE POLICE DEPARTMENT,7307 AVON-BELDON ROAD,NORTH RIDGEVILLE,OH,44039,"http://maps.google.com/maps?q=7307 AVON-BELDON ROAD,+NORTH RIDGEVILLE,+OH+44039&hl=en"
LORAIN COUNTY SHERIFF'S OFFICE,OBERLIN POLICE DEPARTMENT,85 S MAIN STREET,OBERLIN,OH,44074,"http://maps.google.com/maps?q=85 S MAIN STREET,+OBERLIN,+OH+44074&hl=en"
LORAIN COUNTY SHERIFF'S OFFICE,SHEFFIELD LAKE POLICE DEPARTMENT,609 HARRIS ROAD,SHEFFIELD LAKE,OH,44054,"http://maps.google.com/maps?q=609 HARRIS ROAD,+SHEFFIELD LAKE,+OH+44054&hl=en"
LORAIN COUNTY SHERIFF'S OFFICE,SHEFFIELD VILLAGE POLICE DEPARTMENT,4340 COLORADO AVENUE,SHEFFIELD LAKE,OH,44054,"http://maps.google.com/maps?q=4340 COLORADO AVENUE,+SHEFFIELD LAKE,+OH+44054&hl=en"
LORAIN COUNTY SHERIFF'S OFFICE,VERMILION POLICE DEPARTMENT,5791 LIBERTY AVENUE,VERMILION,OH,44089,"http://maps.google.com/maps?q=5791 LIBERTY AVENUE,+VERMILION,+OH+44089&hl=en"
LORAIN COUNTY SHERIFF'S OFFICE,WELLINGTON POLICE,117 WILLARD MEMORIAL SQ,WELLINGTON,OH,44090,"http://maps.google.com/maps?q=117 WILLARD MEMORIAL SQ,+WELLINGTON,+OH+44090&hl=en"
MADISON COUNTY SHERIFF'S OFFICE,MADISON COUNTY SHERIFF OPERATION CENTER,222 GARFIELD STREET,LONDON,OH,43140,"http://maps.google.com/maps?q=222 GARFIELD STREET,+LONDON,+OH+43140&hl=en"
MARION COUNTY SHERIFF'S OFFICE/MARION POLICE DEPT,"MARION COUNTY FAIRGROUNDS 
												
													VETERANS MEMORIAL COLISEUM",220 EAST FAIRGROUND STREET,MARION,OH,43302,"http://maps.google.com/maps?q=220 EAST FAIRGROUND STREET,+MARION,+OH+43302&hl=en"
MARYLAND STATE POLICE,"MSP MCHENRY BARRACK 
												
													POC:  SGT. VINCE UPOLE",67 FRIENDSVILLE ROAD,MC HENRY,MD,21541,"http://maps.google.com/maps?q=67 FRIENDSVILLE ROAD,+MC HENRY,+MD+21541&hl=en"
MARYSVILLE DIVISION OF POLICE,WALGREENS,180 COLEMANS CROSSING BLVD,MARYSVILLE,OH,43040,"http://maps.google.com/maps?q=180 COLEMANS CROSSING BLVD,+MARYSVILLE,+OH+43040&hl=en"
MASON COUNTY SHERIFF'S OFFICE,MASON COUNTY SHERIFF'S OFFICE,200 SIXTH STREET,POINT PLEASANT,WV,25550,"http://maps.google.com/maps?q=200 SIXTH STREET,+POINT PLEASANT,+WV+25550&hl=en"
MASON COUNTY SHERIFF'S OFFICE,NEW HAVEN VOLUNTEER FIRE DEPT,407 5TH STREET,NEW HAVEN,WV,25265,"http://maps.google.com/maps?q=407 5TH STREET,+NEW HAVEN,+WV+25265&hl=en"
MCCANDLESS POLICE DEPARTMENT,MCCANDLESS POLICE STATION,9955 GRUBBS ROAD,WEXFORD,PA,15090,"http://maps.google.com/maps?q=9955 GRUBBS ROAD,+WEXFORD,+PA+15090&hl=en"
MCDONALD POLICE DEPARTMENT,BURGETTSTOWN BOROUGH BUILDING,1509 MAIN STREET,BURGETTSTOWN,PA,15021,"http://maps.google.com/maps?q=1509 MAIN STREET,+BURGETTSTOWN,+PA+15021&hl=en"
MCDONALD POLICE DEPARTMENT,MCDONALD POLICE DEPARTMENT,151 SCHOOL STREET,MC DONALD,PA,15057,"http://maps.google.com/maps?q=151 SCHOOL STREET,+MC DONALD,+PA+15057&hl=en"
MECHANICSBURG POLICE DEPARTMENT,"MECHANICSBURG POLICE DEPARTMENT 
												
													MAIN OFFICE",18 N. MAIN ST.,MECHANICSBURG,OH,43044,"http://maps.google.com/maps?q=18 N. MAIN ST.,+MECHANICSBURG,+OH+43044&hl=en"
MECHANICSBURG POLICE DEPARTMENT,"MECHANICSBURG POLICE DEPARTMENT 
												
													NORTH LEWISBURG OFFICE",60 E. MAPLE ST.,NORTH LEWISBURG,OH,43060,"http://maps.google.com/maps?q=60 E. MAPLE ST.,+NORTH LEWISBURG,+OH+43060&hl=en"
MEDINA COUNTY DRUG TASK FORCE,MEDINA TOWNSHIP POLICE DEPARTMENT,4877 FENN ROAD,MEDINA,OH,44256,"http://maps.google.com/maps?q=4877 FENN ROAD,+MEDINA,+OH+44256&hl=en"
MEDINA COUNTY DRUG TASK FORCE,WADSWORTH POLICE DEPARTMENT,120 MAPLE STREET,WADSWORTH,OH,44281,"http://maps.google.com/maps?q=120 MAPLE STREET,+WADSWORTH,+OH+44281&hl=en"
MEDWAY DRUG ENFORCEMENT AGENCY,"WAYNE COUNTY SHERIFF'S OFFICE 
												
													WAYNE COUNTY JUSTICE CENTER",201 W NORTH ST,WOOSTER,OH,44691,"http://maps.google.com/maps?q=201 W NORTH ST,+WOOSTER,+OH+44691&hl=en"
MEDWAY DRUG ENFORCEMENT AGENCY,WOOSTER POLICE DEPARTMENT,3333 BURBANK ROAD,WOOSTER,OH,44691,"http://maps.google.com/maps?q=3333 BURBANK ROAD,+WOOSTER,+OH+44691&hl=en"
METRICH DRUG TASK FORCE,ASHLAND COUNTY SHERIFF'S OFFICE,1205 E. MAIN ST.,ASHLAND,OH,44805,"http://maps.google.com/maps?q=1205 E. MAIN ST.,+ASHLAND,+OH+44805&hl=en"
METRICH DRUG TASK FORCE,BELLVILLE POLICE DEPARTMENT,320 BELL ST.,BELLVILLE,OH,44813,"http://maps.google.com/maps?q=320 BELL ST.,+BELLVILLE,+OH+44813&hl=en"
METRICH DRUG TASK FORCE,BUCYRUS POLICE DEPARTMENT,500 S. SANDUSKY AVE.,BUCYRUS,OH,44820,"http://maps.google.com/maps?q=500 S. SANDUSKY AVE.,+BUCYRUS,+OH+44820&hl=en"
METRICH DRUG TASK FORCE,CRAWFORD COUNTY SHERIFF'S OFFICE,3613 STETZER RD.,BUCYRUS,OH,44820,"http://maps.google.com/maps?q=3613 STETZER RD.,+BUCYRUS,+OH+44820&hl=en"
METRICH DRUG TASK FORCE,DANVILLE POLICE DEPARTMENT,512 SOUTH MARKET ST.,DANVILLE,OH,43014,"http://maps.google.com/maps?q=512 SOUTH MARKET ST.,+DANVILLE,+OH+43014&hl=en"
METRICH DRUG TASK FORCE,FREDERICKTOWN POLICE DEPARTMENT,182 SOUTH MAIN ST.,FREDERICKTOWN,OH,43019,"http://maps.google.com/maps?q=182 SOUTH MAIN ST.,+FREDERICKTOWN,+OH+43019&hl=en"
METRICH DRUG TASK FORCE,HURON COUNTY SHERIFF'S OFFICE,30 PROSPECT ST.,NEW LONDON,OH,44851,"http://maps.google.com/maps?q=30 PROSPECT ST.,+NEW LONDON,+OH+44851&hl=en"
METRICH DRUG TASK FORCE,MANSFIELD POLICE DEPARTMENT,1125 NATIONAL PARKWAY,MANSFIELD,OH,44906,"http://maps.google.com/maps?q=1125 NATIONAL PARKWAY,+MANSFIELD,+OH+44906&hl=en"
METRICH DRUG TASK FORCE,"MARION PD 
												
													MARION COUNTY SHERIFF'S OFFICE",233 W. CENTER ST.,MARION,OH,43302,"http://maps.google.com/maps?q=233 W. CENTER ST.,+MARION,+OH+43302&hl=en"
METRICH DRUG TASK FORCE,"MORROW CO. SHERIFF'S OFFICE 
												
													KROGER PARKING LOT",555 WEST MARION RD.,MOUNT GILEAD,OH,43338,"http://maps.google.com/maps?q=555 WEST MARION RD.,+MOUNT GILEAD,+OH+43338&hl=en"
METRICH DRUG TASK FORCE,MOUNT VERNON PD,11660 UPPER GILCHREST RD,MOUNT VERNON,OH,43050,"http://maps.google.com/maps?q=11660 UPPER GILCHREST RD,+MOUNT VERNON,+OH+43050&hl=en"
METRICH DRUG TASK FORCE,NORWALK POLICE DEPARTMENT,37 NORTH LINWOOD AVE,NORWALK,OH,44857,"http://maps.google.com/maps?q=37 NORTH LINWOOD AVE,+NORWALK,+OH+44857&hl=en"
METRICH DRUG TASK FORCE,RICHLAND CO. SHERIFF'S OFFICE,597 PARK AVE. EAST,MANSFIELD,OH,44905,"http://maps.google.com/maps?q=597 PARK AVE. EAST,+MANSFIELD,+OH+44905&hl=en"
METRICH DRUG TASK FORCE,SHELBY POLICE DEPARTMENT,31 MACK AVE,SHELBY,OH,44875,"http://maps.google.com/maps?q=31 MACK AVE,+SHELBY,+OH+44875&hl=en"
METRICH DRUG TASK FORCE,WILLARD POLICE DEPARTMENT,425 FORT BALL RD.,WILLARD,OH,44888,"http://maps.google.com/maps?q=425 FORT BALL RD.,+WILLARD,+OH+44888&hl=en"
METROHEALTH POLICE DEPARTMENT,"METROHEALTH POLICE 
												
													METROHEALTH MEDICAL CENTER MAIN CAMPUS",2500 METROHEALTH DR,CLEVELAND,OH,44109,"http://maps.google.com/maps?q=2500 METROHEALTH DR,+CLEVELAND,+OH+44109&hl=en"
MILLVALE POLICE DEPARTMENT,MILLVALE BOROUGH BUILDING,501 LINCOLN AVENUE,PITTSBURGH,PA,15209,"http://maps.google.com/maps?q=501 LINCOLN AVENUE,+PITTSBURGH,+PA+15209&hl=en"
MILTON POLICE DEPARTMENT,MILTON VOLUNTEER  FIRE DEPARTMENT,341 E MAIN ST,MILTON,WV,25541,"http://maps.google.com/maps?q=341 E MAIN ST,+MILTON,+WV+25541&hl=en"
MILTON TOWNSHIP POLICE DISTRICT,MILTON TOWNSHIP POLICE DEPARTMENT,15992 MILTON AVE.,LAKE MILTON,OH,44429,"http://maps.google.com/maps?q=15992 MILTON AVE.,+LAKE MILTON,+OH+44429&hl=en"
MONONGAH POLICE DEPT,MONONGAH PD,430 BRIDGE ST,FAIRMONT,WV,26554,"http://maps.google.com/maps?q=430 BRIDGE ST,+FAIRMONT,+WV+26554&hl=en"
MONONGALIA COUNTY SHERIFF'S OFFICE,KROGER @ SUNCREST TOWN CNTR,500 SUNCREST TOWN CENTER DR,MORGANTOWN,WV,26506,"http://maps.google.com/maps?q=500 SUNCREST TOWN CENTER DR,+MORGANTOWN,+WV+26506&hl=en"
MONONGALIA COUNTY SHERIFF'S OFFICE,MONONGALIA COUNTY SHERIFF'S OFFICE,116 WALNUT STREET,MORGANTOWN,WV,26505,"http://maps.google.com/maps?q=116 WALNUT STREET,+MORGANTOWN,+WV+26505&hl=en"
MONONGALIA COUNTY SHERIFF'S OFFICE,PIERPONT LANDING PHARMACY,7000 MID ATLANTIC RD,MORGANTOWN,WV,26508,"http://maps.google.com/maps?q=7000 MID ATLANTIC RD,+MORGANTOWN,+WV+26508&hl=en"
MONROEVILLE POLICE DEPT,MONROEVILLE POLICE DEPT,2700 MONROEVILLE BLVD,MONROEVILLE,PA,15146,"http://maps.google.com/maps?q=2700 MONROEVILLE BLVD,+MONROEVILLE,+PA+15146&hl=en"
MORGANTOWN POLICE DEPARTMENT,KROGER,1851 EARL L. CORE ROAD,MORGANTOWN,WV,26505,"http://maps.google.com/maps?q=1851 EARL L. CORE ROAD,+MORGANTOWN,+WV+26505&hl=en"
MORGANTOWN POLICE DEPARTMENT,KROGER,350 PATTERSON DRIVE,MORGANTOWN,WV,26505,"http://maps.google.com/maps?q=350 PATTERSON DRIVE,+MORGANTOWN,+WV+26505&hl=en"
MOUNDSVILLE POLICE DEPARTMENT,MOUNDSVILLE POLICE DEPARTMENT,608 TOMLINSON AVENUE,MOUNDSVILLE,WV,26041,"http://maps.google.com/maps?q=608 TOMLINSON AVENUE,+MOUNDSVILLE,+WV+26041&hl=en"
MT. LEBANON POLICE DEPARTMENT,MEDIC RESCUE TEAM SOUTH AUTHORITY,315 CYPRESS WAY,PITTSBURGH,PA,15228,"http://maps.google.com/maps?q=315 CYPRESS WAY,+PITTSBURGH,+PA+15228&hl=en"
MT. PLEASANT TWP. POLICE DEPARTMENT,MT. PLEASANT TWP. MUNICIPAL BUILDING,31 MCCARRELL RD.,HICKORY,PA,15340,"http://maps.google.com/maps?q=31 MCCARRELL RD.,+HICKORY,+PA+15340&hl=en"
MUSKINGUM COUNTY SHERIFF'S OFFICE,"MUSKINGUM COUNTY HEALTH DEPARTMENT 
												
													PARKING LOT",205 N 7TH STREET,ZANESVILLE,OH,43701,"http://maps.google.com/maps?q=205 N 7TH STREET,+ZANESVILLE,+OH+43701&hl=en"
MUSKINGUM COUNTY SHERIFF'S OFFICE,RIESBECKS PICK'N SAVE,2200 JUNE PARKWAY,ZANESVILLE,OH,43701,"http://maps.google.com/maps?q=2200 JUNE PARKWAY,+ZANESVILLE,+OH+43701&hl=en"
NESHANNOCK TWP POLICE DEPARTMENT,NESHANNOCK TWP. POLICE DEPARTMETN,3131 MERCER ROAD,NEW CASTLE,PA,16105,"http://maps.google.com/maps?q=3131 MERCER ROAD,+NEW CASTLE,+PA+16105&hl=en"
NEW ALBANY POLICE DEPARTMENT,PLAIN TOWNSHIP FIRE DEPARTMENT,9500 JOHNSTOWN RD.,NEW ALBANY,OH,43054,"http://maps.google.com/maps?q=9500 JOHNSTOWN RD.,+NEW ALBANY,+OH+43054&hl=en"
NEW CASTLE POLICE DEPARTMENT,NEW CASTLE POLICE DEPARTMENT,303 EAST NORTH STREET,NEW CASTLE,PA,16101,"http://maps.google.com/maps?q=303 EAST NORTH STREET,+NEW CASTLE,+PA+16101&hl=en"
NEW CONCORD POLICE DEPARTMENT,NEW CONCORD POLICE DEPARTMENT,2 WEST MAIN STREET,NEW CONCORD,OH,43762,"http://maps.google.com/maps?q=2 WEST MAIN STREET,+NEW CONCORD,+OH+43762&hl=en"
NEW MIDDLETOWN POLICE DEPT,NEW MIDDLETOWN MUNICIPAL BUILDING,10711 MAIN STREET,NEW MIDDLETOWN,OH,44442,"http://maps.google.com/maps?q=10711 MAIN STREET,+NEW MIDDLETOWN,+OH+44442&hl=en"
NICHOLAS COUNTY SHERIFF'S DEPARTMENT,NICHOLAS COUNTY COURTHOUSE,700 MAIN ST,SUMMERSVILLE,WV,26651,"http://maps.google.com/maps?q=700 MAIN ST,+SUMMERSVILLE,+WV+26651&hl=en"
NITRO POLICE DEPARTMENT,NITRO POLICE DEPARTMENT,497 1ST AVENUE SOUTH,NITRO,WV,25143,"http://maps.google.com/maps?q=497 1ST AVENUE SOUTH,+NITRO,+WV+25143&hl=en"
NORTH HUNTINGDON TWP. POLICE DEPARTMENT,"NORTH HUNTINGDON TWP. TOWNHOUSE 
												
													NHT MUNICIPAL BUILDING - POLICE DEPT.",11279 CENTER HIGHWAY,NORTH HUNTINGDON,PA,15642,"http://maps.google.com/maps?q=11279 CENTER HIGHWAY,+NORTH HUNTINGDON,+PA+15642&hl=en"
NORTH ROYALTON POLICE DEPARTMENT,"GIANT EAGLE PLAZA 
												
													AT STATE ROAD",6000 ROYALTON ROAD,NORTH ROYALTON,OH,44133,"http://maps.google.com/maps?q=6000 ROYALTON ROAD,+NORTH ROYALTON,+OH+44133&hl=en"
NORTH ROYALTON POLICE DEPARTMENT,"TIMBER RIDGE PLAZA 
												
													AT YORK ROAD",9199 SPRAGUE ROAD,NORTH ROYALTON,OH,44133,"http://maps.google.com/maps?q=9199 SPRAGUE ROAD,+NORTH ROYALTON,+OH+44133&hl=en"
NORTON POLICE DEPARTMENT,THE MEDICINE SHOPPE,3300 GREENWICH RD,BARBERTON,OH,44203,"http://maps.google.com/maps?q=3300 GREENWICH RD,+BARBERTON,+OH+44203&hl=en"
OAKMONT BOROUGH POLICE,RITE-AID,109 ALLEGHENY RIVER BLVD,OAKMONT,PA,15139,"http://maps.google.com/maps?q=109 ALLEGHENY RIVER BLVD,+OAKMONT,+PA+15139&hl=en"
OHIO COUNTY SHERIFF'S OFFICE,ELTON GROVE PHARMACY,102 E BETHLEHEM BLVD,WHEELING,WV,26003,"http://maps.google.com/maps?q=102 E BETHLEHEM BLVD,+WHEELING,+WV+26003&hl=en"
OLMSTED FALLS POLICE DEPARTMENT,OLMSTED FALLS POLICE DEPARTMENT,26100 BAGLEY ROAD,OLMSTED FALLS,OH,44138,"http://maps.google.com/maps?q=26100 BAGLEY ROAD,+OLMSTED FALLS,+OH+44138&hl=en"
PA STATE POLICE - PITTSBURGH,PA STATE POLICE - PITTSBURGH,449 MCCORMICK ROAD,CORAOPOLIS,PA,15108,"http://maps.google.com/maps?q=449 MCCORMICK ROAD,+CORAOPOLIS,+PA+15108&hl=en"
"PARKERSBURG, WV POLICE DEPARTMENT",CVS PHARMACY,2323 MURDOCH AVENUE,PARKERSBURG,WV,26101,"http://maps.google.com/maps?q=2323 MURDOCH AVENUE,+PARKERSBURG,+WV+26101&hl=en"
PEPPER PIKE POLICE DEPARTMENT,PEPPER PIKE POLICE DEPARTMENT,28000 SHAKER BLVD,CLEVELAND,OH,44124,"http://maps.google.com/maps?q=28000 SHAKER BLVD,+CLEVELAND,+OH+44124&hl=en"
PETERS TOWNSHIP POLICE DEPARTMENT,BIBLE CHAPEL,300 GALLERY DRIVE,MCMURRAY,PA,15317,"http://maps.google.com/maps?q=300 GALLERY DRIVE,+MCMURRAY,+PA+15317&hl=en"
PETERS TOWNSHIP POLICE DEPARTMENT,GIANT EAGLE,4017 WASHINGTON ROAD,MCMURRAY,PA,15317,"http://maps.google.com/maps?q=4017 WASHINGTON ROAD,+MCMURRAY,+PA+15317&hl=en"
PETERS TOWNSHIP POLICE DEPARTMENT,HEISLER'S MARKET,601 E. MCMURRAY ROAD,MCMURRAY,PA,15317,"http://maps.google.com/maps?q=601 E. MCMURRAY ROAD,+MCMURRAY,+PA+15317&hl=en"
PETERS TOWNSHIP POLICE DEPARTMENT,RITE AID PHARMACY,4185 WASHINGTON RD,MCMURRAY,PA,15317,"http://maps.google.com/maps?q=4185 WASHINGTON RD,+MCMURRAY,+PA+15317&hl=en"
PICKERINGTON POLICE DEPARTMENT,PICKERINGTON POLICE DEPARTMENT,1311 REFUGEE RD.,PICKERINGTON,OH,43147,"http://maps.google.com/maps?q=1311 REFUGEE RD.,+PICKERINGTON,+OH+43147&hl=en"
PITTSBURGH BUREAU OF POLICE,PHILLIPS RECREATION CENTER,201 PARKFIELD ST,PITTSBURGH,PA,15210,"http://maps.google.com/maps?q=201 PARKFIELD ST,+PITTSBURGH,+PA+15210&hl=en"
PITTSBURGH BUREAU OF POLICE,PITTSBURGH POLICE HEADQUARTERS,1203 WESTERN AVE.,PITTSBURGH,PA,15233,"http://maps.google.com/maps?q=1203 WESTERN AVE.,+PITTSBURGH,+PA+15233&hl=en"
PITTSBURGH BUREAU OF POLICE,"ZONE #1 PITTSBURGH POLICE STATION 
												
													COMMANDER CHRIS RAGLAND",1501 BRIGHTON RD.,PITTSBURGH,PA,15212,"http://maps.google.com/maps?q=1501 BRIGHTON RD.,+PITTSBURGH,+PA+15212&hl=en"
PITTSBURGH BUREAU OF POLICE,"ZONE #2 PITTSBURGH POLICE STATION 
												
													COMMANDER CRISTYN ZETT",2002 CENTRE AVENUE,PITTSBURGH,PA,15219,"http://maps.google.com/maps?q=2002 CENTRE AVENUE,+PITTSBURGH,+PA+15219&hl=en"
PITTSBURGH BUREAU OF POLICE,"ZONE #3 PITTSBURGH POLICE STATION 
												
													COMMANDER KAREN DIXON",830 EAST WARRINGTON AVE.,PITTSBURGH,PA,15210,"http://maps.google.com/maps?q=830 EAST WARRINGTON AVE.,+PITTSBURGH,+PA+15210&hl=en"
PITTSBURGH BUREAU OF POLICE,"ZONE #4 PITTSBURGH POLICE STATION 
												
													COMMANDER DAN HERRMANN",5858 NORTHUMBERLAND STREET,PITTSBURGH,PA,15217,"http://maps.google.com/maps?q=5858 NORTHUMBERLAND STREET,+PITTSBURGH,+PA+15217&hl=en"
PITTSBURGH BUREAU OF POLICE,"ZONE #5 PITTSBURGH POLICE STATION 
												
													COMMANDER JASON LANDO",1401 WASHINGTON BLVD.,PITTSBURGH,PA,15206,"http://maps.google.com/maps?q=1401 WASHINGTON BLVD.,+PITTSBURGH,+PA+15206&hl=en"
PITTSBURGH BUREAU OF POLICE,"ZONE #6 PITTSBURGH POLICE STATION 
												
													COMMANDER STEVEN VINANSKY",312 SOUTH MAIN STREET,PITTSBURGH,PA,15220,"http://maps.google.com/maps?q=312 SOUTH MAIN STREET,+PITTSBURGH,+PA+15220&hl=en"
PLEASANT HILLS POLICE DEPARTMENT,PLEASANT HILLS BOROUGH BUILDING,410 EAST BRUCETON RD,PITTSBURGH,PA,15236,"http://maps.google.com/maps?q=410 EAST BRUCETON RD,+PITTSBURGH,+PA+15236&hl=en"
PLEASANTS COUNTY SHERIFF,PHILLIPS PHARMACY,329 2ND STREET,SAINT MARYS,WV,26170,"http://maps.google.com/maps?q=329 2ND STREET,+SAINT MARYS,+WV+26170&hl=en"
PLUM BOROUGH POLICE DEPARTMENT,BILL'S HOMETOWN PHARMACY,1095 UNITY CENTER ROAD,PITTSBURGH,PA,15239,"http://maps.google.com/maps?q=1095 UNITY CENTER ROAD,+PITTSBURGH,+PA+15239&hl=en"
PLUM BOROUGH POLICE DEPARTMENT,BILL'S HOMETOWN PHARMACY,2362 GOLDEN MILE HWY,PITTSBURGH,PA,15239,"http://maps.google.com/maps?q=2362 GOLDEN MILE HWY,+PITTSBURGH,+PA+15239&hl=en"
PRESTON COUNTY SHERIFF,BELLDINA'S PHARMACY,107 S MAIN ST,MASONTOWN,WV,26542,"http://maps.google.com/maps?q=107 S MAIN ST,+MASONTOWN,+WV+26542&hl=en"
PRESTON COUNTY SHERIFF,BRUCETON PHARMACY,198 MORGANTOWN ST,BRUCETON MILLS,WV,26525,"http://maps.google.com/maps?q=198 MORGANTOWN ST,+BRUCETON MILLS,+WV+26525&hl=en"
PRESTON COUNTY SHERIFF,TERRA ALTA TOWN HALL,701-A EAST STATE AVENUE,TERRA ALTA,WV,26764,"http://maps.google.com/maps?q=701-A EAST STATE AVENUE,+TERRA ALTA,+WV+26764&hl=en"
PUTNAM COUNTY SHERIFF'S DEPARTMENT,PUTNAM COUNTY SHERIFF'S DEPARTMENT,SHERIFF'S DEPARTMENT3389 WINFIELD ROAD,WINFIELD,WV,25213,"http://maps.google.com/maps?q=SHERIFF'S DEPARTMENT,+WINFIELD,+WV+25213&hl=en"
REYNOLDSBURG POLICE DEPARTMENT,REYNOLDSBURG POLICE DEPARTMENT,7240 E. MAIN ST,REYNOLDSBURG,OH,43068,"http://maps.google.com/maps?q=7240 E. MAIN ST,+REYNOLDSBURG,+OH+43068&hl=en"
ROBINSON TWP. POLICE DEPARTMENT,"THE MALL AT ROBINSON 
												
													PARKING LOT NEAR DICK'S & GOLDEN CORRAL",1000 ROBINSON CENTRE DRIVE,PITTSBURGH,PA,15205,"http://maps.google.com/maps?q=1000 ROBINSON CENTRE DRIVE,+PITTSBURGH,+PA+15205&hl=en"
ROSS COUNTY SHERIFF'S OFFICE,ROSS COUNTY LAW COMPLEX,28 N PAINT ST.,CHILLICOTHE,OH,45601,"http://maps.google.com/maps?q=28 N PAINT ST.,+CHILLICOTHE,+OH+45601&hl=en"
RUSSELL TOWNSHIP POLICE DEPARTMENT,RUSSELL TOWNSHIP POLICE DEPARTMENT,14820 CHILLICOTHE ROAD,NOVELTY,OH,44072,"http://maps.google.com/maps?q=14820 CHILLICOTHE ROAD,+NOVELTY,+OH+44072&hl=en"
SEWICKLEY  POLICE DEPARTMENT,SEWICKLEY BOROUGH BUILDING,601 THORN STREET,SEWICKLEY,PA,15143,"http://maps.google.com/maps?q=601 THORN STREET,+SEWICKLEY,+PA+15143&hl=en"
SHALER POLICE DEPARTMENT,SHALER NORTH HILLS LIBRARY,1822 MT. ROYAL BLVD.,GLENSHAW,PA,15116,"http://maps.google.com/maps?q=1822 MT. ROYAL BLVD.,+GLENSHAW,+PA+15116&hl=en"
SHARON TOWNSHIP POLICE DEPARTMENT,SHARON TOWNSHIP POLICE DEPARTMENT,95 E. WILSON BRIDGE ROAD,WORTHINGTON,OH,43085,"http://maps.google.com/maps?q=95 E. WILSON BRIDGE ROAD,+WORTHINGTON,+OH+43085&hl=en"
SHINNSTON POLICE DEPARTMENT,SHINNSTON POLICE DEPARTMENT,43 BRIDGE STREET,SHINNSTON,WV,26431,"http://maps.google.com/maps?q=43 BRIDGE STREET,+SHINNSTON,+WV+26431&hl=en"
SISTERVILLE POLICE DEPARTMENT,SISTERVILLE PD,200 DIAMOND ST,SISTERSVILLE,WV,26175,"http://maps.google.com/maps?q=200 DIAMOND ST,+SISTERSVILLE,+WV+26175&hl=en"
SOLON POLICE DEPARTMENT,SOLON SENIOR CENTER,35000 PORTZ PARKWAY,SOLON,OH,44139,"http://maps.google.com/maps?q=35000 PORTZ PARKWAY,+SOLON,+OH+44139&hl=en"
SPENCER POLICE DEPARTMENT,SPENCER POLICE DEPARTMENT,116 COURT ST,SPENCER,WV,25276,"http://maps.google.com/maps?q=116 COURT ST,+SPENCER,+WV+25276&hl=en"
SPRINGFIELD POLICE DEPARTMENT,SPRINGFIELD POLICE DEPARTMENT,130 N FOUNTAIN AVE,SPRINGFIELD,OH,45502,"http://maps.google.com/maps?q=130 N FOUNTAIN AVE,+SPRINGFIELD,+OH+45502&hl=en"
ST. ALBANS POLICE DEPARTMENT,ST. ALBANS POLICE DEPARTMENT,51 6TH AVENUE,SAINT ALBANS,WV,25177,"http://maps.google.com/maps?q=51 6TH AVENUE,+SAINT ALBANS,+WV+25177&hl=en"
STEUBENVILLE POLICE DEPARTMENT,KROGER,264 S. HOLLYWOOD PLAZA,STEUBENVILLE,OH,43952,"http://maps.google.com/maps?q=264 S. HOLLYWOOD PLAZA,+STEUBENVILLE,+OH+43952&hl=en"
STOW POLICE DEPARTMENT,STOW POLICE DEPARTMENT,3800 DARROW RD,STOW,OH,44224,"http://maps.google.com/maps?q=3800 DARROW RD,+STOW,+OH+44224&hl=en"
STRONGSVILLE PD,STRONGSVILLE PD,18688 ROYALTON,STRONGSVILLE,OH,44136,"http://maps.google.com/maps?q=18688 ROYALTON,+STRONGSVILLE,+OH+44136&hl=en"
SUMMIT COUNTY SHERIFF / DRUG UNIT,SUMMIT COUNTY SHERIFF'S OFFICE / DRUG UNIT,393 E. TURKEYFOOT LAKE ROAD,AKRON,OH,44319,"http://maps.google.com/maps?q=393 E. TURKEYFOOT LAKE ROAD,+AKRON,+OH+44319&hl=en"
TALLMADGE POLICE DEPARTMENT,ACME FRESH MARKET,600 SOUTH AVENUE,TALLMADGE,OH,44278,"http://maps.google.com/maps?q=600 SOUTH AVENUE,+TALLMADGE,+OH+44278&hl=en"
TALLMADGE POLICE DEPARTMENT,TALLMADGE POLICE DEPARTMENT,53 NORTHEAST AVE,TALLMADGE,OH,44278,"http://maps.google.com/maps?q=53 NORTHEAST AVE,+TALLMADGE,+OH+44278&hl=en"
TAYLOR COUNTY SHERIFF'S OFFICE,WALMART,1 WALMART LANE,GRAFTON,WV,26354,"http://maps.google.com/maps?q=1 WALMART LANE,+GRAFTON,+WV+26354&hl=en"
TUSCARAWS COUNTY SHERIFFS OFFICE,TRINITY TWIN CITY HOSPITAL,819 N. 1ST STREET,DENNISON,OH,44621,"http://maps.google.com/maps?q=819 N. 1ST STREET,+DENNISON,+OH+44621&hl=en"
TUSCARAWS COUNTY SHERIFFS OFFICE,"UNION HOSPITAL 
												
													SOUTH ENTRANCE",659 BOULEVARD,DOVER,OH,44622,"http://maps.google.com/maps?q=659 BOULEVARD,+DOVER,+OH+44622&hl=en"
UH PORTAGE MEDICAL CENTER,UH PORTAGE MEDICAL CENTER,6847 N. CHESTNUT ST.,RAVENNA,OH,44266,"http://maps.google.com/maps?q=6847 N. CHESTNUT ST.,+RAVENNA,+OH+44266&hl=en"
UNION COUNTY SHERIFF'S OFFICE,PLEASANT VALLEY FIRE DEPARTMENT,650 WEST MAIN STREET,PLAIN CITY,OH,43064,"http://maps.google.com/maps?q=650 WEST MAIN STREET,+PLAIN CITY,+OH+43064&hl=en"
UNION COUNTY SHERIFF'S OFFICE,PLEASANT VALLEY FIRE DEPT,650 W. MAIN STREET,PLAIN CITY,OH,43064,"http://maps.google.com/maps?q=650 W. MAIN STREET,+PLAIN CITY,+OH+43064&hl=en"
UNION COUNTY SHERIFF'S OFFICE,RICHWOOD POLICE DEPARTMENT,153 NORTH FRANKLIN ST,RICHWOOD,OH,43344,"http://maps.google.com/maps?q=153 NORTH FRANKLIN ST,+RICHWOOD,+OH+43344&hl=en"
UNION COUNTY SHERIFF'S OFFICE,RICHWOOD POLICE DEPARTMENT,153 NORTH FRANKLIN STREET,RICHWOOD,OH,43344,"http://maps.google.com/maps?q=153 NORTH FRANKLIN STREET,+RICHWOOD,+OH+43344&hl=en"
UNION COUNTY SHERIFF'S OFFICE,UNION COUNTY SHERIFF'S OFFICE,221 W FIFTH STREET,MARYSVILLE,OH,43040,"http://maps.google.com/maps?q=221 W FIFTH STREET,+MARYSVILLE,+OH+43040&hl=en"
UNIVERSITY OF PITTSBURGH,UNIVERSITY OF PITTSBURGH PHARMACY,103 UNIVERSITY PLACE,PITTSBURGH,PA,15260,"http://maps.google.com/maps?q=103 UNIVERSITY PLACE,+PITTSBURGH,+PA+15260&hl=en"
UNIVERSITY OF PITTSBURGH MED CTR,"CHILDREN'S HOSPITAL OF PITTSBURGH OF UPMC 
												
													OUTPATIENT PHARMACY LOBBY",4401 PENN AVE,PITTSBURGH,PA,15224,"http://maps.google.com/maps?q=4401 PENN AVE,+PITTSBURGH,+PA+15224&hl=en"
UNIVERSITY OF PITTSBURGH MED CTR,"FALK PHARMACY: FALK MEDICAL BDG 
												
													2ND FLOOR LOBBY",3601 FIFTH AVE.,PITTSBURGH,PA,15213,"http://maps.google.com/maps?q=3601 FIFTH AVE.,+PITTSBURGH,+PA+15213&hl=en"
UNIVERSITY OF PITTSBURGH MED CTR,"FORBES PHARMACY OF WPIC: OXFORD BUILDING 
												
													7TH FLOOR",3501 FORBES AVE.,PITTSBURGH,PA,15213,"http://maps.google.com/maps?q=3501 FORBES AVE.,+PITTSBURGH,+PA+15213&hl=en"
UNIVERSITY OF PITTSBURGH MED CTR,FORBES TOWER MAIN LOBBY,4028 FORBES AVENUE,PITTSBURGH,PA,15260,"http://maps.google.com/maps?q=4028 FORBES AVENUE,+PITTSBURGH,+PA+15260&hl=en"
UNIVERSITY OF PITTSBURGH MED CTR,"HILLMAN CANCER CENTER 
												
													GROUND FLOOR ATRIUM",5115 CENTRE AVE.,PITTSBURGH,PA,15232,"http://maps.google.com/maps?q=5115 CENTRE AVE.,+PITTSBURGH,+PA+15232&hl=en"
UNIVERSITY OF PITTSBURGH MED CTR,"MAGEE-WOMENS HOSPITAL OF UPMC 
												
													MAIN LOBBY, 1ST FLOOR",300 HALKET STREET,PITTSBURGH,PA,15213,"http://maps.google.com/maps?q=300 HALKET STREET,+PITTSBURGH,+PA+15213&hl=en"
UNIVERSITY OF PITTSBURGH MED CTR,"U.S. STEEL TOWER-FRI. 
												
													MYHEALTH@WORK, FLOOR 12",600 GRANT STREET,PITTSBURGH,PA,15219,"http://maps.google.com/maps?q=600 GRANT STREET,+PITTSBURGH,+PA+15219&hl=en"
UNIVERSITY OF PITTSBURGH MED CTR,"UPMC EAST 
												
													MAIN LOBBY",2775 MOSSIDE BLVD,MONROEVILLE,PA,15146,"http://maps.google.com/maps?q=2775 MOSSIDE BLVD,+MONROEVILLE,+PA+15146&hl=en"
UNIVERSITY OF PITTSBURGH MED CTR,"UPMC MCKEESPORT 
												
													1-CRAWFORD PATIENT DISCHARGE LOUNGE",1500 FIFTH AVE,MCKEESPORT,PA,15132,"http://maps.google.com/maps?q=1500 FIFTH AVE,+MCKEESPORT,+PA+15132&hl=en"
UNIVERSITY OF PITTSBURGH MED CTR,"UPMC MERCY, SOUTH SIDE 
												
													MAIN LOBBY",2000 MARY STREET,PITTSBURGH,PA,15203,"http://maps.google.com/maps?q=2000 MARY STREET,+PITTSBURGH,+PA+15203&hl=en"
UNIVERSITY OF PITTSBURGH MED CTR,"UPMC MERCY: CAFETERIA 
												
													2ND FLOOR",1400 LOCUST STREET,PITTSBURGH,PA,15219,"http://maps.google.com/maps?q=1400 LOCUST STREET,+PITTSBURGH,+PA+15219&hl=en"
UNIVERSITY OF PITTSBURGH MED CTR,"UPMC PASSAVANT 
												
													MAIN LOBBY, MCCANDLESS CAMPUS",9100 BABCOCK BLVD,PITTSBURGH,PA,15237,"http://maps.google.com/maps?q=9100 BABCOCK BLVD,+PITTSBURGH,+PA+15237&hl=en"
UNIVERSITY OF PITTSBURGH MED CTR,"UPMC PRESBYTERIAN, PRESCRIPTION SHOP",200 LOTHROP STREET,PITTSBURGH,PA,15213,"http://maps.google.com/maps?q=200 LOTHROP STREET,+PITTSBURGH,+PA+15213&hl=en"
UNIVERSITY OF PITTSBURGH MED CTR,UPMC SHERWOOD OAKS,100 NORMAN DRIVE,CRANBERRY TOWNSHIP,PA,16066,"http://maps.google.com/maps?q=100 NORMAN DRIVE,+CRANBERRY TOWNSHIP,+PA+16066&hl=en"
UPPER ARLINGTON DIVISION OF POLICE,"UPPER ARLINGTON POLICE DIVISION 
												
													MUNICIPAL SERVICES CENTER",3600 TREMONT ROAD,UPPER ARLINGTON,OH,43221,"http://maps.google.com/maps?q=3600 TREMONT ROAD,+UPPER ARLINGTON,+OH+43221&hl=en"
UPPER ST. CLAIR POLICE DEPARTMENT,UPPER ST. CLAIR POLICE DEPARTMENT,1820 MCLAUGHLIN RUN ROAD,PITTSBURGH,PA,15241,"http://maps.google.com/maps?q=1820 MCLAUGHLIN RUN ROAD,+PITTSBURGH,+PA+15241&hl=en"
"URBANA, OH POLICE DIVISION",KROGER PARKING LOT,1637 E. U.S. HWY. 36,URBANA,OH,43078,"http://maps.google.com/maps?q=1637 E. U.S. HWY. 36,+URBANA,+OH+43078&hl=en"
VIENNA WV POLICE DEPARTMENT,VIENNA VOLUNTEER FD,609 28TH ST,VIENNA,WV,26105,"http://maps.google.com/maps?q=609 28TH ST,+VIENNA,+WV+26105&hl=en"
WASHINGTON COUNTY SHERIFF'S OFFICE,"BELPRE SENIOR CENTER 
												
													PARKING LOT",1614 WASHINGTON BLVD,BELPRE,OH,45714,"http://maps.google.com/maps?q=1614 WASHINGTON BLVD,+BELPRE,+OH+45714&hl=en"
WASHINGTON COUNTY SHERIFF'S OFFICE,"BUCKEYE HILLS AREA AGENCY ON AGING 
												
													PARKING LOT",1400 NEWPORT PIKE,RENO,OH,45773,"http://maps.google.com/maps?q=1400 NEWPORT PIKE,+RENO,+OH+45773&hl=en"
WASHINGTON COUNTY SHERIFF'S OFFICE,CORNER OF 2ND ST AND PUTNAM ST,CORNER OF 2ND ST AND PUTNAM ST,MARIETTA,OH,45750,"http://maps.google.com/maps?q=CORNER OF 2ND ST AND PUTNAM ST,+MARIETTA,+OH+45750&hl=en"
WASHINGTON COUNTY SHERIFF'S OFFICE,"DEVOLA MEDICAL CENTER 
												
													PARKING LOT",4727 STATE ROUTE 60,MARIETTA,OH,45750,"http://maps.google.com/maps?q=4727 STATE ROUTE 60,+MARIETTA,+OH+45750&hl=en"
WASHINGTON COUNTY SHERIFF'S OFFICE,"FORT FRYE HIGH SCHOOL 
												
													PARKING LOT",420 FIFTH STREET,BEVERLY,OH,45715,"http://maps.google.com/maps?q=420 FIFTH STREET,+BEVERLY,+OH+45715&hl=en"
WASHINGTON COUNTY SHERIFF'S OFFICE,"HARDWARE COMPONENTS, INC",1021 PARK AVENUE,NEW MATAMORAS,OH,45767,"http://maps.google.com/maps?q=1021 PARK AVENUE,+NEW MATAMORAS,+OH+45767&hl=en"
WASHINGTON COUNTY SHERIFF'S OFFICE,"WASHINGTON COUNTY SHERIFF'S OFFICE 
												
													24HR DROP BOX LOCATED IN LOBBY",309 4TH STREET,MARIETTA,OH,45750,"http://maps.google.com/maps?q=309 4TH STREET,+MARIETTA,+OH+45750&hl=en"
WASHINGTON COUNTY SHERIFF'S OFFICE,"WHITE OAK PHARMACY 
												
													PARKING LOT",8465 STATE ROUTE 339,BARLOW,OH,45712,"http://maps.google.com/maps?q=8465 STATE ROUTE 339,+BARLOW,+OH+45712&hl=en"
WEIRTON PD,WEIRTON POLICE DEPT,200 MUNICIPAL PLAZA,WEIRTON,WV,26062,"http://maps.google.com/maps?q=200 MUNICIPAL PLAZA,+WEIRTON,+WV+26062&hl=en"
WEST JEFFERSON POLICE DEPARTMENT,WEST JEFFERSON POLICE DEPARTMENT,28 EAST MAIN ST.,WEST JEFFERSON,OH,43162,"http://maps.google.com/maps?q=28 EAST MAIN ST.,+WEST JEFFERSON,+OH+43162&hl=en"
WEST MIFFLIN POLICE DEPARTMENT,"WEST MIFFLIN POLICE DEPARTMENT LOBBY 
												
													LOBBY",1020 LEBANON ROAD,WEST MIFFLIN,PA,15122,"http://maps.google.com/maps?q=1020 LEBANON ROAD,+WEST MIFFLIN,+PA+15122&hl=en"
WEST VIRGINIA STATE POLICE,"WEST VIRGINIA STATE POLICE 
												
													SGT B K WELLMAN/3045285555",3339 US ROUTE 60 EAST,HUNTINGTON,WV,25705,"http://maps.google.com/maps?q=3339 US ROUTE 60 EAST,+HUNTINGTON,+WV+25705&hl=en"
WEST VIRGINIA STATE POLICE,"WEST VIRGINIA STATE POLICE 
												
													SGT R.E. RICHARDSON/3044204600",3828 STAUNTON TPK.,PARKERSBURG,WV,26104,"http://maps.google.com/maps?q=3828 STAUNTON TPK.,+PARKERSBURG,+WV+26104&hl=en"
WEST VIRGINIA STATE POLICE,"WEST VIRGINIA STATE POLICE 
												
													SGT R.J. DRAKE/3048243101",8021 COURT AVENUE,HAMLIN,WV,25523,"http://maps.google.com/maps?q=8021 COURT AVENUE,+HAMLIN,+WV+25523&hl=en"
WEST VIRGINIA STATE POLICE,"WEST VIRGINIA STATE POLICE 
												
													SGT. B.K. HAMMONTREE/3045587777",711 JEFFERSON ROAD,SOUTH CHARLESTON,WV,25309,"http://maps.google.com/maps?q=711 JEFFERSON ROAD,+SOUTH CHARLESTON,+WV+25309&hl=en"
WEST VIRGINIA STATE POLICE,"WEST VIRGINIA STATE POLICE 
												
													SGT. C.H.FLOWERS/304-586-2000",3389 WINFIELD ROAD,WINFIELD,WV,25213,"http://maps.google.com/maps?q=3389 WINFIELD ROAD,+WINFIELD,+WV+25213&hl=en"
WESTERVILLE DIVISION OF POLICE,WALGREENS,748 N. STATE ST,WESTERVILLE,OH,43082,"http://maps.google.com/maps?q=748 N. STATE ST,+WESTERVILLE,+OH+43082&hl=en"
WESTSHORE ENFORCEMENT BUREAU NARC. TASK FORCE,BAY VILLAGE POLICE DEPARTMENT,28000 WOLF RD.,BAY VILLAGE,OH,44140,"http://maps.google.com/maps?q=28000 WOLF RD.,+BAY VILLAGE,+OH+44140&hl=en"
WESTSHORE ENFORCEMENT BUREAU NARC. TASK FORCE,FAIRVIEW PARK POLICE DEPARTMENT,20777 LORAIN RD.,FAIRVIEW PARK,OH,44126,"http://maps.google.com/maps?q=20777 LORAIN RD.,+FAIRVIEW PARK,+OH+44126&hl=en"
WESTSHORE ENFORCEMENT BUREAU NARC. TASK FORCE,LAKEWOOD POLICE DEPARTMENT,12650 DETROIT AVE.,LAKEWOOD,OH,44107,"http://maps.google.com/maps?q=12650 DETROIT AVE.,+LAKEWOOD,+OH+44107&hl=en"
WESTSHORE ENFORCEMENT BUREAU NARC. TASK FORCE,NORTH OLMSTED POLICE DEPARTMENT,27243 LORAIN ROAD,NORTH OLMSTED,OH,44070,"http://maps.google.com/maps?q=27243 LORAIN ROAD,+NORTH OLMSTED,+OH+44070&hl=en"
WESTSHORE ENFORCEMENT BUREAU NARC. TASK FORCE,ROCKY RIVER POLICE DEPARTMENT,21012 HILLIARD BLVD.,ROCKY RIVER,OH,44116,"http://maps.google.com/maps?q=21012 HILLIARD BLVD.,+ROCKY RIVER,+OH+44116&hl=en"
WESTSHORE ENFORCEMENT BUREAU NARC. TASK FORCE,WESTLAKE POLICE DEPT.,27300 HILLIARD BLVD.,WESTLAKE,OH,44145,"http://maps.google.com/maps?q=27300 HILLIARD BLVD.,+WESTLAKE,+OH+44145&hl=en"
WETZEL COUNTY SHERIFF'S OFFICE,NEW MARTINSVILLE FIRE DEPT,400 OHIO STREET,NEW MARTINSVILLE,WV,26155,"http://maps.google.com/maps?q=400 OHIO STREET,+NEW MARTINSVILLE,+WV+26155&hl=en"
WETZEL COUNTY SHERIFF'S OFFICE,THE HUNDRED CITY BUILDING,58 FOUR SEASONS DRIVE,HUNDRED,WV,26575,"http://maps.google.com/maps?q=58 FOUR SEASONS DRIVE,+HUNDRED,+WV+26575&hl=en"
WHEELING POLICE DEPT,MT DECHANTAL KROGER,200 MT DECHANTAL RD,WHEELING,WV,26003,"http://maps.google.com/maps?q=200 MT DECHANTAL RD,+WHEELING,+WV+26003&hl=en"
WILLIAMSTOWN POLICE DEPT,WILLIAMSTOWN PD,100 WEST 5TH ST,WILLIAMSTOWN,WV,26187,"http://maps.google.com/maps?q=100 WEST 5TH ST,+WILLIAMSTOWN,+WV+26187&hl=en"
WILLOWICK POLICE DEPARTMENT,WILLOWICK POLICE DEPARTMENT,30435LAKESHORE BLVD.,WILLOWICK,OH,44095,"http://maps.google.com/maps?q=30435,+WILLOWICK,+OH+44095&hl=en"
WILMINGTON POLICE DEPARTMENT,FOSTER J. BOYD CANCER CENTER,31 FARQUHAR ST,WILMINGTON,OH,45177,"http://maps.google.com/maps?q=31 FARQUHAR ST,+WILMINGTON,+OH+45177&hl=en"
WILMINGTON POLICE DEPARTMENT,UHAL'S IGA MARKET,440 E WASHINGTON ST,SABINA,OH,45169,"http://maps.google.com/maps?q=440 E WASHINGTON ST,+SABINA,+OH+45169&hl=en"
WINFIELD WV POLICE DEPT,WINFIELD WV POLICE DEPARTMENT,3232 WINFIELD ROAD,WINFIELD,WV,25213,"http://maps.google.com/maps?q=3232 WINFIELD ROAD,+WINFIELD,+WV+25213&hl=en"
WINTERSVILLE POLICE DEPARTMENT,RIESBECK'S FOOD MART,100 MAIN STREET,STEUBENVILLE,OH,43953,"http://maps.google.com/maps?q=100 MAIN STREET,+STEUBENVILLE,+OH+43953&hl=en"
WOOD COUNTY WV SHERIFF'S DEPARTMENT,LUBECK VFD,1340 HARRIS HWY,PARKERSBURG,WV,26101,"http://maps.google.com/maps?q=1340 HARRIS HWY,+PARKERSBURG,+WV+26101&hl=en"
WOOD COUNTY WV SHERIFF'S DEPARTMENT,MINERAL WELLS VFD,1695 ELIZABETH PIKE,MINERAL WELLS,WV,26150,"http://maps.google.com/maps?q=1695 ELIZABETH PIKE,+MINERAL WELLS,+WV+26150&hl=en"
WOOD COUNTY WV SHERIFF'S DEPARTMENT,WAVERLY VFD,15425 EMERSON AVE,WAVERLY,WV,26184,"http://maps.google.com/maps?q=15425 EMERSON AVE,+WAVERLY,+WV+26184&hl=en"
WORTHINGTON DIVISION OF POLICE,WORTHINGTON DIVISION OF POLICE,6555 WORTHINGTON GALLENA RD,COLUMBUS,OH,43085,"http://maps.google.com/maps?q=6555 WORTHINGTON GALLENA RD,+COLUMBUS,+OH+43085&hl=en"
WV DIVISION OF PROTECTIVE SERVICES,"WV STATE CAPITOL BUILDING 
												
													OUTSIDE-CALIFORNIA AVE",1900 KANAWHA BOULEVARD EAST,CHARLESTON,WV,25305,"http://maps.google.com/maps?q=1900 KANAWHA BOULEVARD EAST,+CHARLESTON,+WV+25305&hl=en"
YOUNGSTOWN STATE UNIVERSITY,YOUNGSTOWN STATE UNIVERSITY POLICE,266 WEST WOOD STREET,YOUNGSTOWN,OH,44555,"http://maps.google.com/maps?q=266 WEST WOOD STREET,+YOUNGSTOWN,+OH+44555&hl=en"
