Participant,CollectionSite,Address,City,State,Zip,MapURL
ABERDEEN POLICE DEPARTMENT,ABERDEEN POLICE DEPARTMENT,114 SE 2ND AVE,ABERDEEN,SD,57401,"http://maps.google.com/maps?q=114 SE 2ND AVE,+ABERDEEN,+SD+57401&hl=en"
ADA PD,ADA PD,410 WEST MAIN STREET,ADA,MN,56510,"http://maps.google.com/maps?q=410 WEST MAIN STREET,+ADA,+MN+56510&hl=en"
AITKIN COUNTY SO,AITKIN COUNTY SHERIFF'S OFFICE,217 2ND STREET NW ROOM #185,AITKIN,MN,56431,"http://maps.google.com/maps?q=217 2ND STREET NW ROOM #185,+AITKIN,+MN+56431&hl=en"
ANTELOPE COUNTY SHERIFF'S OFFICE,ANTELOPE COUNTY SHERIFF'S OFFICE,1102 L STREET,NELIGH,NE,68756,"http://maps.google.com/maps?q=1102 L STREET,+NELIGH,+NE+68756&hl=en"
BATTLE LAKE PD,BATTLE LAKE PD,108 EAST MAIN STREET,BATTLE LAKE,MN,56515,"http://maps.google.com/maps?q=108 EAST MAIN STREET,+BATTLE LAKE,+MN+56515&hl=en"
BEAVERHEAD COUNTY SHERIFF OFFICE,BEAVERHEAD COUNTY SHERIFF OFFICE,2 SOUTH PACIFIC STREETSTE 16,DILLON,MT,59725,"http://maps.google.com/maps?q=2 SOUTH PACIFIC STREET,+DILLON,+MT+59725&hl=en"
BECKER PD,"BECKER POLICE DEPARTMENT 
												
													DROPBOX",12060 SHERBURNE AVENUE,BECKER,MN,55308,"http://maps.google.com/maps?q=12060 SHERBURNE AVENUE,+BECKER,+MN+55308&hl=en"
BENSON PD,BENSON PD,1410 KANSAS AVENUE,BENSON,MN,56215,"http://maps.google.com/maps?q=1410 KANSAS AVENUE,+BENSON,+MN+56215&hl=en"
BLACKFOOT POLICE DEPT,"PATRIOT FIELD 
												
													(AT THE CORNER OF FRANCIS AND ASH)",FRANCIS AND ASH,BLACKFOOT,ID,83221,"http://maps.google.com/maps?q=FRANCIS AND ASH,+BLACKFOOT,+ID+83221&hl=en"
BOUNDARY COUNTY SHERIFF,"SUPER 1 FOODMARKET 
												
													9AM - 5PM, * ALSO YEAR-ROUND DROPBOX AT SHERIFF'S OFFICE",6452 S. MAIN ST,BONNERS FERRY,ID,83805,"http://maps.google.com/maps?q=6452 S. MAIN ST,+BONNERS FERRY,+ID+83805&hl=en"
BOX BUTTE COUNTY SHERIFF'S OFFICE,"BOX BUTTE GENERAL HOSPITAL 
												
													SAND HILLS ROOM - (DOUBLE BOXES)",2101 BOX BUTTE AVE,ALLIANCE,NE,69301,"http://maps.google.com/maps?q=2101 BOX BUTTE AVE,+ALLIANCE,+NE+69301&hl=en"
BRANDON POLICE DEPARTMENT,BRANDON POLICE DEPT.,304 S MAIN AVE.,BRANDON,SD,57005,"http://maps.google.com/maps?q=304 S MAIN AVE.,+BRANDON,+SD+57005&hl=en"
BROWN COUNTY SHERIFF'S OFFICE,BROWN COUNTY SHERIFF'S OFFICE,142 WEST 4TH STREET,AINSWORTH,NE,69210,"http://maps.google.com/maps?q=142 WEST 4TH STREET,+AINSWORTH,+NE+69210&hl=en"
BUFFALO LAKE PD,BUFFALO LAKE POLICE DEPARTMENT,301 MAIN STREET NORTH,BUFFALO LAKE,MN,55314,"http://maps.google.com/maps?q=301 MAIN STREET NORTH,+BUFFALO LAKE,+MN+55314&hl=en"
BUTTE_SILVER BOW LAW ENFORCEMENT,BUTTE PLAZA MALL,3100 HARRISON AVENUE,BUTTE,MT,59701,"http://maps.google.com/maps?q=3100 HARRISON AVENUE,+BUTTE,+MT+59701&hl=en"
CAMPBELL COUNTY SHERIFF'S OFFICE,CAMPBELL COUNTY PUBLIC HEALTH,2301 S. 4J ROAD,GILLETTE,WY,82718,"http://maps.google.com/maps?q=2301 S. 4J ROAD,+GILLETTE,+WY+82718&hl=en"
CARIBOU COUNTY SHERIFF'S OFFICE,"CARIBOU COUNTY SENIOR CITIZEN CENTER 
												
													EVENT WILL BE HELD WEDNESDAY AFTERNOON, APRIL 25TH",60 S. MAIN STREET,SODA SPRINGS,ID,83276,"http://maps.google.com/maps?q=60 S. MAIN STREET,+SODA SPRINGS,+ID+83276&hl=en"
CARIBOU COUNTY SHERIFF'S OFFICE,"CARIBOU COUNTY SHERIFF'S OFFICE 
												
													M-F, 9-5",475 E. 2ND S.,SODA SPRINGS,ID,83276,"http://maps.google.com/maps?q=475 E. 2ND S.,+SODA SPRINGS,+ID+83276&hl=en"
CASSIA COUNTY SHERIFF,SMITH'S FOOD PARKING LOT,937 E. MAIN,BURLEY,ID,83318,"http://maps.google.com/maps?q=937 E. MAIN,+BURLEY,+ID+83318&hl=en"
CHERRY COUNTY S.O. VALENTINE P.D.,CHERRY CO S.O./ VALENTINE POLICE DEPT,365 N. MAIN ST.,VALENTINE,NE,69201,"http://maps.google.com/maps?q=365 N. MAIN ST.,+VALENTINE,+NE+69201&hl=en"
CHERRY COUNTY S.O. VALENTINE P.D.,CHERRY COUNTY S.O. - VALENTINE POLICE DEPT,365 N. MAIN STREET,VALENTINE,NE,69201,"http://maps.google.com/maps?q=365 N. MAIN STREET,+VALENTINE,+NE+69201&hl=en"
CODINGTON COUNTY SHERIFFS OFFICE,CODINGTON COUNTY SHERIFF'S OFFICE,14 1ST AVE SE,WATERTOWN,SD,57201,"http://maps.google.com/maps?q=14 1ST AVE SE,+WATERTOWN,+SD+57201&hl=en"
CODY POLICE DEPARTMENT,CODY LAW ENFORCEMENT CENTER,1402 RIVER VIEW DRIVE,CODY,WY,82414,"http://maps.google.com/maps?q=1402 RIVER VIEW DRIVE,+CODY,+WY+82414&hl=en"
CROFTON POLICE DEPARTMENT,CROFTON POLICE DEPARTMENT,1210 W 2ND STREET,CROFTON,NE,68730,"http://maps.google.com/maps?q=1210 W 2ND STREET,+CROFTON,+NE+68730&hl=en"
DOUGLAS POLICE DEPARTMENT,DOUGLAS POLICE DEPARTMENT,101 NORTH 4TH STREET,DOUGLAS,WY,82633,"http://maps.google.com/maps?q=101 NORTH 4TH STREET,+DOUGLAS,+WY+82633&hl=en"
DRUG ENFORCEMENT ADMINISTRATION,ELKS LODGE PARKING LOT,934 LEWIS AVENUE,BILLINGS,MT,59101,"http://maps.google.com/maps?q=934 LEWIS AVENUE,+BILLINGS,+MT+59101&hl=en"
DRUG FREE IDAHO,ADA COUNTY SHERIFF'S OFFICE,7200 BARRISTER DRIVE,BOISE,ID,83704,"http://maps.google.com/maps?q=7200 BARRISTER DRIVE,+BOISE,+ID+83704&hl=en"
DRUG FREE IDAHO,FRED MEYER GARDEN CITY OF BOISE,5425 W. CHINDEN BLVD,GARDEN CITY,ID,83714,"http://maps.google.com/maps?q=5425 W. CHINDEN BLVD,+GARDEN CITY,+ID+83714&hl=en"
EAGLE BUTTE POLICE DEPT,EAGLE BUTTE POLICE DEPARTMENT,209 MAIN ST,EAGLE BUTTE,SD,57625,"http://maps.google.com/maps?q=209 MAIN ST,+EAGLE BUTTE,+SD+57625&hl=en"
ELMORE COUNTY SHERIFF'S OFFICE,ELMORE COUNTY SHERIFF'S SUBSTATION,201 N. COMMERCIAL,GLENNS FERRY,ID,83623,"http://maps.google.com/maps?q=201 N. COMMERCIAL,+GLENNS FERRY,+ID+83623&hl=en"
EMMETT POLICE DEPT,"EMMETT POLICE DEPT 
												
													(INSIDE POLICE LOBBY)",501 E MAIN ST,EMMETT,ID,83617,"http://maps.google.com/maps?q=501 E MAIN ST,+EMMETT,+ID+83617&hl=en"
FAULK COUNTY SHERIFF'S OFFICE,FAULK COUNTY SHERIFF'S OFFICE,924 LAFOON AVE,FAULKTON,SD,57438,"http://maps.google.com/maps?q=924 LAFOON AVE,+FAULKTON,+SD+57438&hl=en"
FILER POLICE DEPARTMENT,FILER POLICE DEPARTMENT,300 MAIN STREET,FILER,ID,83328,"http://maps.google.com/maps?q=300 MAIN STREET,+FILER,+ID+83328&hl=en"
GALLATIN COUNTY SHERIFF'S OFFICE/ BOZEMAN CITY POL,GALLATIN COUNTY LAW AND JUSTICE CENTER,615 SOUTH 16TH AVE,BOZEMAN,MT,59715,"http://maps.google.com/maps?q=615 SOUTH 16TH AVE,+BOZEMAN,+MT+59715&hl=en"
GLACIER COUNTY SHERIFF'S OFFICE,CUT BANK ELK'S LODGE,18 S. CENTRAL AVE,CUT BANK,MT,59427,"http://maps.google.com/maps?q=18 S. CENTRAL AVE,+CUT BANK,+MT+59427&hl=en"
GLACIER COUNTY SHERIFF'S OFFICE,GLACIER PEAK'S CASINO,416 W CENTRAL AVEINTERSECTION US 2 &HWY 89N,BROWNING,MT,59417,"http://maps.google.com/maps?q=416 W CENTRAL AVE,+BROWNING,+MT+59417&hl=en"
GLENDIVE POLICE DEPARTMENT,GLENDIVE POLICE DEPARTMENT,440 COLORADO BLVD,GLENDIVE,MT,59330,"http://maps.google.com/maps?q=440 COLORADO BLVD,+GLENDIVE,+MT+59330&hl=en"
GRANITE FALLS PD,"YELLOW MEDICINE COUNTY JUSTICE CENTER 
												
													GRANITE FALLS POLICE DEPARTMENT",415 9TH AVENUE,GRANITE FALLS,MN,56241,"http://maps.google.com/maps?q=415 9TH AVENUE,+GRANITE FALLS,+MN+56241&hl=en"
GRANT COUNTY SO,GRANT COUNTY SO,"10 2ND STREET, NE",ELBOW LAKE,MN,56531,"http://maps.google.com/maps?q=10 2ND STREET, NE,+ELBOW LAKE,+MN+56531&hl=en"
GREEN RIVER POLICE DEPARTMENT,SMITH'S FOOD AND DRUG,905 BRIDGER DRIVE,GREEN RIVER,WY,82935,"http://maps.google.com/maps?q=905 BRIDGER DRIVE,+GREEN RIVER,+WY+82935&hl=en"
HAWLEY PD,HAWLEY POLICE DEPARTMENT,818 FRONT STREET,HAWLEY,MN,56549,"http://maps.google.com/maps?q=818 FRONT STREET,+HAWLEY,+MN+56549&hl=en"
HURON POLICE DEPARTMENT,"CITY HALL 
												
													SOUTH SIDE OF THE BUILDING",239 WISCONSIN AVE SW,HURON,SD,57350,"http://maps.google.com/maps?q=239 WISCONSIN AVE SW,+HURON,+SD+57350&hl=en"
HUTCHINSON PD,HUTCHINSON POLICE DEPARTMENT,10 FRANKLIN STREET SW,HUTCHINSON,MN,55350,"http://maps.google.com/maps?q=10 FRANKLIN STREET SW,+HUTCHINSON,+MN+55350&hl=en"
ITASCA COUNTY SO,ITASCA COUNTY SHERIFF'S OFFICE,440 NE 1ST AVENUE,GRAND RAPIDS,MN,55744,"http://maps.google.com/maps?q=440 NE 1ST AVENUE,+GRAND RAPIDS,+MN+55744&hl=en"
JACKSON POLICE DEPARTMENT,JACKSON POLICE DEPARTMENT,150 EAST PEARL AVENUE,JACKSON,WY,83001,"http://maps.google.com/maps?q=150 EAST PEARL AVENUE,+JACKSON,+WY+83001&hl=en"
JEFFERSON COUNTY SHERIFF'S OFFICE,JEFFERSON COUNTY SHERIFF'S OFFICE,200 COURTHOUSE WAY,RIGBY,ID,83442,"http://maps.google.com/maps?q=200 COURTHOUSE WAY,+RIGBY,+ID+83442&hl=en"
JOHNSON COUNTY SHERIFF'S OFFICE,JOHNSON COUNTY JUSTICE CENTER,639 FORT STREET,BUFFALO,WY,82834,"http://maps.google.com/maps?q=639 FORT STREET,+BUFFALO,+WY+82834&hl=en"
KANDIYOHI COUNTY SO,KANDIYOHI COUNTY SO,2201 NE 23RD STREET SUITE 101,WILLMAR,MN,56201,"http://maps.google.com/maps?q=2201 NE 23RD STREET SUITE 101,+WILLMAR,+MN+56201&hl=en"
KIMBERLY-HANSEN POLICE DEPARTMENT,KIMBERLY-HANSEN CITY HALL,242 HWY 30,KIMBERLY,ID,83341,"http://maps.google.com/maps?q=242 HWY 30,+KIMBERLY,+ID+83341&hl=en"
KITTSON COUNTY SO,KITTSON COUNTY SHERIFF'S OFFICE,410 5TH STREET SOUTHSUITE #102,HALLOCK,MN,56728,"http://maps.google.com/maps?q=410 5TH STREET SOUTH,+HALLOCK,+MN+56728&hl=en"
KOOTENAI COUNTY SHERIFF'S OFFICE,ALBERTSON'S,161 W. PRAIRIE AVE,HAYDEN,ID,83835,"http://maps.google.com/maps?q=161 W. PRAIRIE AVE,+HAYDEN,+ID+83835&hl=en"
LAKE COUNTY SHERIFF'S OFFICE,LAKE COUNTY SHERIFF'S OFFICE,219 NE 1ST STREET,MADISON,SD,57042,"http://maps.google.com/maps?q=219 NE 1ST STREET,+MADISON,+SD+57042&hl=en"
LATAH COUNTY SHERIFF'S OFFICE,CITY PARK,MAIN ST. & 6TH ST.,KENDRICK,ID,83537,"http://maps.google.com/maps?q=MAIN ST. & 6TH ST.,+KENDRICK,+ID+83537&hl=en"
LATAH COUNTY SHERIFF'S OFFICE,GENESEE FOOD CENTER PARKING LOT,216 WEST CHESTNUT ST,GENESEE,ID,83832,"http://maps.google.com/maps?q=216 WEST CHESTNUT ST,+GENESEE,+ID+83832&hl=en"
LATAH COUNTY SHERIFF'S OFFICE,HARVEST FOOD PARKING LOG,150 6TH ST.,POTLATCH,ID,83855,"http://maps.google.com/maps?q=150 6TH ST.,+POTLATCH,+ID+83855&hl=en"
LATAH COUNTY SHERIFF'S OFFICE,LIONS CLUB PARKING LOT,415 MAIN ST.,TROY,ID,83871,"http://maps.google.com/maps?q=415 MAIN ST.,+TROY,+ID+83871&hl=en"
LAWRENCE COUNTY SHERIFF'S OFFICE,LAWRENCE COUNTY SHERIFF'S OFFICE,80 SHERMAN STREET,DEADWOOD,SD,57732,"http://maps.google.com/maps?q=80 SHERMAN STREET,+DEADWOOD,+SD+57732&hl=en"
LEMHI COUNTY SHERIFF'S OFFICE,STEELE MEMORIAL MEDICAL CENTER CLINIC,805 MAIN ST,SALMON,ID,83467,"http://maps.google.com/maps?q=805 MAIN ST,+SALMON,+ID+83467&hl=en"
LEWIS AND CLARK COUNTY SHERIFF'S OFFICE,LINCOLN POST OFFICE,237 MAIN STREET,LINCOLN,MT,59639,"http://maps.google.com/maps?q=237 MAIN STREET,+LINCOLN,+MT+59639&hl=en"
LEWIS AND CLARK COUNTY SHERIFF'S OFFICE,SHOPKO,3101 N MONTANA AVENUE,HELENA,MT,59602,"http://maps.google.com/maps?q=3101 N MONTANA AVENUE,+HELENA,+MT+59602&hl=en"
LEWIS AND CLARK COUNTY SHERIFF'S OFFICE,WALMART,2750 PROSPECT AVENUE,HELENA,MT,59601,"http://maps.google.com/maps?q=2750 PROSPECT AVENUE,+HELENA,+MT+59601&hl=en"
LEWISTON POLICE DEPARTMENT,LEWISTON POLICE DEPT,1224 F ST,LEWISTON,ID,83501,"http://maps.google.com/maps?q=1224 F ST,+LEWISTON,+ID+83501&hl=en"
LINCOLN COUNTY SHERIFF'S OFFICE,HARRISBURG CITY HALL,301 E. WILLOW STREET,HARRISBURG,SD,57032,"http://maps.google.com/maps?q=301 E. WILLOW STREET,+HARRISBURG,+SD+57032&hl=en"
LINCOLN COUNTY SO,LINCOLN COUNTY SHERIFF'S OFFICE,322 NORTH WALLACE STREET,IVANHOE,MN,56142,"http://maps.google.com/maps?q=322 NORTH WALLACE STREET,+IVANHOE,+MN+56142&hl=en"
LITTLE FALLS PD,LITTLE FALLS PD,207 1ST STREET NE,LITTLE FALLS,MN,56345,"http://maps.google.com/maps?q=207 1ST STREET NE,+LITTLE FALLS,+MN+56345&hl=en"
LIVINGSTON POLICE DEPARTMENT AND ELKS CLUB,ELKS LODGE #246,130 SOUTH 2ND STREET,LIVINGSTON,MT,59047,"http://maps.google.com/maps?q=130 SOUTH 2ND STREET,+LIVINGSTON,+MT+59047&hl=en"
LOGAN COUNTY SHERIFF'S OFFICE,LOGAN COUNTY SHERIFF'S OFFICE,317 MAIN STREET,STAPLETON,NE,69163,"http://maps.google.com/maps?q=317 MAIN STREET,+STAPLETON,+NE+69163&hl=en"
LONG PRAIRIE POLICE DEPARTMENT,LONG PRAIRIE POLICE DEPARTMENT,615 LAKE ST S,LONG PRAIRIE,MN,56347,"http://maps.google.com/maps?q=615 LAKE ST S,+LONG PRAIRIE,+MN+56347&hl=en"
LOVELL POLICE DEPARTMENT,RED APPLE SUPERMARKET,9 E. MAIN ST.,LOVELL,WY,82431,"http://maps.google.com/maps?q=9 E. MAIN ST.,+LOVELL,+WY+82431&hl=en"
LYON COUNTY SHERIFF'S OFFICE,LYON COUNTY SHERIFF'S OFFICE,410 SOUTH BOONE,ROCK RAPIDS,IA,51246,"http://maps.google.com/maps?q=410 SOUTH BOONE,+ROCK RAPIDS,+IA+51246&hl=en"
LYON COUNTY SO,LYON COUNTY SHERIFF'S OFFICE,611 WEST MAIN STREET,MARSHALL,MN,56258,"http://maps.google.com/maps?q=611 WEST MAIN STREET,+MARSHALL,+MN+56258&hl=en"
MADISON COUNTY SHERIFF'S OFFICE,FAT CATS,475 N. 2ND E,REXBURG,ID,83440,"http://maps.google.com/maps?q=475 N. 2ND E,+REXBURG,+ID+83440&hl=en"
MCCALL POLICE DEPT,ALBERTSONS PARKING LOT,132 E. LAKE ST,MCCALL,ID,83638,"http://maps.google.com/maps?q=132 E. LAKE ST,+MCCALL,+ID+83638&hl=en"
MCPHERSON COUNTY SHERIFF'S OFFICE,"EUREKA MUNICIPAL BUILDING 
												
													MCPHERSON COUNTY SHERIFF SATELLITE OFFICE",613 7TH STREET,EUREKA,SD,57437,"http://maps.google.com/maps?q=613 7TH STREET,+EUREKA,+SD+57437&hl=en"
MCPHERSON COUNTY SHERIFF'S OFFICE,"MCPHERSON COUNTY COURTHOUSE 
												
													MCPHERSON COUNTY SHERIFF'S OFFICE",706 MAIN STREETPO BOX 158,LEOLA,SD,57456,"http://maps.google.com/maps?q=706 MAIN STREET,+LEOLA,+SD+57456&hl=en"
MEEKER COUNTY SO,COSMOS,233 MILKY WAY STREET SOUTH,COSMOS,MN,56228,"http://maps.google.com/maps?q=233 MILKY WAY STREET SOUTH,+COSMOS,+MN+56228&hl=en"
MEEKER COUNTY SO,DASSEL,485 3RD STREET SOUTH,DASSEL,MN,55325,"http://maps.google.com/maps?q=485 3RD STREET SOUTH,+DASSEL,+MN+55325&hl=en"
MEEKER COUNTY SO,GROVE CITY,210 ATLANTIC AVENUE WEST,GROVE CITY,MN,56243,"http://maps.google.com/maps?q=210 ATLANTIC AVENUE WEST,+GROVE CITY,+MN+56243&hl=en"
MEEKER COUNTY SO,LITCHFIELD,326 NORTH RAMSEY AVENUE,LITCHFIELD,MN,55355,"http://maps.google.com/maps?q=326 NORTH RAMSEY AVENUE,+LITCHFIELD,+MN+55355&hl=en"
MEEKER COUNTY SO,WATKINS,111 CENTRAL AVENUE,WATKINS,MN,55389,"http://maps.google.com/maps?q=111 CENTRAL AVENUE,+WATKINS,+MN+55389&hl=en"
MELLETTE COUNTY SHERIFF'S OFFICE,"COURT HOUSE 
												
													PARKING LOT",321 E 4TH,WHITE RIVER,SD,57579,"http://maps.google.com/maps?q=321 E 4TH,+WHITE RIVER,+SD+57579&hl=en"
MISSOULA POLICE DEPARTMENT,SOUTHGATE MALL,2901 BROOKS AVENUE,MISSOULA,MT,59801,"http://maps.google.com/maps?q=2901 BROOKS AVENUE,+MISSOULA,+MT+59801&hl=en"
MONTANA HIGHWAY PATROL,MONTANA HIGHWAY PATROL,812 - 14TH STREET NORTH,GREAT FALLS,MT,59401,"http://maps.google.com/maps?q=812 - 14TH STREET NORTH,+GREAT FALLS,+MT+59401&hl=en"
MONTANA HIGHWAY PATROL 2,HELENA FAMILY YMCA,1200 N LAST CHANCE GULCH,HELENA,MT,59601,"http://maps.google.com/maps?q=1200 N LAST CHANCE GULCH,+HELENA,+MT+59601&hl=en"
MONTANA HIGHWAY PATROL 2,HELENA SHOPKO,3101 N. MONTANA AVE.,HELENA,MT,59601,"http://maps.google.com/maps?q=3101 N. MONTANA AVE.,+HELENA,+MT+59601&hl=en"
MOORHEAD POLICE DEPARTMENT,WALGREENS PARKING LOT,700 30 AVENUE SOUTH,MOORHEAD,MN,56560,"http://maps.google.com/maps?q=700 30 AVENUE SOUTH,+MOORHEAD,+MN+56560&hl=en"
MOORHEAD POLICE DEPARTMENT,WALGREENS PARKING LOT,900 MAIN AVENUE,MOORHEAD,MN,56560,"http://maps.google.com/maps?q=900 MAIN AVENUE,+MOORHEAD,+MN+56560&hl=en"
MT DCI,HOLY ROSARY HEALTHCARE,2600 WILSON STREET,MILES CITY,MT,59301,"http://maps.google.com/maps?q=2600 WILSON STREET,+MILES CITY,+MT+59301&hl=en"
MT DOJ - DIVISION OF CRIMINAL INVESTIGATIONS,VALLEY DRUG,301 MAIN STREET,STEVENSVILLE,MT,59870,"http://maps.google.com/maps?q=301 MAIN STREET,+STEVENSVILLE,+MT+59870&hl=en"
MUSSELSHELL COUNTY SHERIFF'S DEPT.,MUSSELSHELL COUNTY SHERIFF DEPARTMENT,820 MAIN STREET,ROUNDUP,MT,59072,"http://maps.google.com/maps?q=820 MAIN STREET,+ROUNDUP,+MT+59072&hl=en"
NEWCASTLE POLICE DEPT,NEWCASTLE POLICE DEPT,25 NORTH SUMNER AVE,NEWCASTLE,WY,82701,"http://maps.google.com/maps?q=25 NORTH SUMNER AVE,+NEWCASTLE,+WY+82701&hl=en"
NORMAN COUNTY SO,NORMAN COUNTY SO,15 2ND AVENUE E,ADA,MN,56510,"http://maps.google.com/maps?q=15 2ND AVENUE E,+ADA,+MN+56510&hl=en"
ONAMIA PD,ONAMIA PD,621 WEST MAIN STREET,ONAMIA,MN,56359,"http://maps.google.com/maps?q=621 WEST MAIN STREET,+ONAMIA,+MN+56359&hl=en"
ONEILL POLICE DEPARTMENT,ONEILL POLICE DEPARTMENT,401 E. FREEMONT,ONEILL,NE,68763,"http://maps.google.com/maps?q=401 E. FREEMONT,+ONEILL,+NE+68763&hl=en"
PAUL BUNYAN DRUG TASK FORCE,BELTRAMI COUNTY LAW ENFORCEMENT CENTER,613 MN AVENUE NW,BEMIDJI,MN,56601,"http://maps.google.com/maps?q=613 MN AVENUE NW,+BEMIDJI,+MN+56601&hl=en"
PERKINS COUNTY SHERIFF'S OFFICE,PERKINS COUNTY SHERIFF'S OFFICE - BISON,100 E MAIN,BISON,SD,57620,"http://maps.google.com/maps?q=100 E MAIN,+BISON,+SD+57620&hl=en"
PERKINS COUNTY SHERIFF'S OFFICE,PERKINS COUNTY SHERIFF'S OFFICE - LEMMON,100 MAIN AVE,LEMMON,SD,57638,"http://maps.google.com/maps?q=100 MAIN AVE,+LEMMON,+SD+57638&hl=en"
PIERRE POLICE DEPARTMENT,"CITY HALL 
												
													COMMISSION ROOM",222 E. DAKOTA AVE.,PIERRE,SD,57501,"http://maps.google.com/maps?q=222 E. DAKOTA AVE.,+PIERRE,+SD+57501&hl=en"
PINE TO PRAIRIE DRUG TASK FORCE,EAST GRAND FORKS PD,520 DEMERS AVENUE,EAST GRAND FORKS,MN,56721,"http://maps.google.com/maps?q=520 DEMERS AVENUE,+EAST GRAND FORKS,+MN+56721&hl=en"
PIPESTONE COUNTY SO,PIPESTONE COUNTY SHERIFF'S OFFICE,416 SOUTH HIAWATHA AVENUE,PIPESTONE,MN,56164,"http://maps.google.com/maps?q=416 SOUTH HIAWATHA AVENUE,+PIPESTONE,+MN+56164&hl=en"
PLAINVIEW POLICE DEPARTMENT,"PLAINVIEW HEALTHMART PHARMACY 
												
													HOURS: 10AM - 12PM",103 S. MAIN STREET,PLAINVIEW,NE,68769,"http://maps.google.com/maps?q=103 S. MAIN STREET,+PLAINVIEW,+NE+68769&hl=en"
PLATTE COUNTY SHERIFF'S OFFICE,PLATTE COUNTY SHERIFF'S OFFICE,850 MAPLE ST.,WHEATLAND,WY,82201,"http://maps.google.com/maps?q=850 MAPLE ST.,+WHEATLAND,+WY+82201&hl=en"
POST FALLS POLICE DEPARTMENT,CITY OF POST FALLS CITY HALL,408 N. SPOKANE ST.,POST FALLS,ID,83854,"http://maps.google.com/maps?q=408 N. SPOKANE ST.,+POST FALLS,+ID+83854&hl=en"
POWELL POLICE DEPARTMENT,POWELL POLICE DEPARTMENT,250 NORTH CLARK STREET,POWELL,WY,82435,"http://maps.google.com/maps?q=250 NORTH CLARK STREET,+POWELL,+WY+82435&hl=en"
PRESONT POLICE DEPARTMENT,PRESTON CITY OFFICE,70 W. ONEIDA,PRESTON,ID,83263,"http://maps.google.com/maps?q=70 W. ONEIDA,+PRESTON,+ID+83263&hl=en"
PULLMAN POLICE DEPARTMENT,PULLMAN POLICE DEPARTMENT,260 SE KAMIAKEN STREET,PULLMAN,WA,99163,"http://maps.google.com/maps?q=260 SE KAMIAKEN STREET,+PULLMAN,+WA+99163&hl=en"
RAPID CITY POLICE DEPARTMENT,"RAPID CITY POLICE DEPARTMENT 
												
													PUBLIC SAFETY BUILDING",300 KANSAS CITY STREET,RAPID CITY,SD,57701,"http://maps.google.com/maps?q=300 KANSAS CITY STREET,+RAPID CITY,+SD+57701&hl=en"
RAWLINS POLICE DEPARTMENT,RAWLINS POLICE DEPARTMENT,215 5TH STREET,RAWLINS,WY,82301,"http://maps.google.com/maps?q=215 5TH STREET,+RAWLINS,+WY+82301&hl=en"
REXBURG POLICE DEPARTMENT,"MADISON SCHOOL DISTRICT OFFICE 
												
													MADISON SCHOOL DISTRICT OFFICE",60 WEST MAIN STREET,REXBURG,ID,83440,"http://maps.google.com/maps?q=60 WEST MAIN STREET,+REXBURG,+ID+83440&hl=en"
ROCK COUNTY SO,ROCK COUNTY SO,1000 NORTH BLUE MOUND AVENUE,LUVERNE,MN,56156,"http://maps.google.com/maps?q=1000 NORTH BLUE MOUND AVENUE,+LUVERNE,+MN+56156&hl=en"
SANDPOINT POLICE DEPARTMENT,"SANDPOINT AREA SENIORS, INC.",820 MAIN STREET,SANDPOINT,ID,83864,"http://maps.google.com/maps?q=820 MAIN STREET,+SANDPOINT,+ID+83864&hl=en"
SHERIDAN POLICE DEPARTMENT,WALGREENS,1766 COFFEEN AVENUE,SHERIDAN,WY,82801,"http://maps.google.com/maps?q=1766 COFFEEN AVENUE,+SHERIDAN,+WY+82801&hl=en"
SPEARFISH POLICE DEPARTMENT,SPEARFISH POLICE DEPT.,625 5TH STREET,SPEARFISH,SD,57783,"http://maps.google.com/maps?q=625 5TH STREET,+SPEARFISH,+SD+57783&hl=en"
ST. ANTHONY POLICE DEPT,ST. ANTHONTY CITY HALL BUILDING,420 N BRIDGE ST,SAINT ANTHONY,ID,83445,"http://maps.google.com/maps?q=420 N BRIDGE ST,+SAINT ANTHONY,+ID+83445&hl=en"
WEISER POLICE DEPT,WEISER MEMORIAL HOSPITAL,645 E 5TH ST,WEISER,ID,83672,"http://maps.google.com/maps?q=645 E 5TH ST,+WEISER,+ID+83672&hl=en"
WEST FARGO PD,WEST FARGO PD,800 4TH AVENUE EAST,WEST FARGO,ND,58078,"http://maps.google.com/maps?q=800 4TH AVENUE EAST,+WEST FARGO,+ND+58078&hl=en"
WHEATLAND COUNTY SHERIFF'S OFFICE,WHEATLAND COUNTY SHERIFF'S OFFICE,203 A AVENUE NW,HARLOWTON,MT,59036,"http://maps.google.com/maps?q=203 A AVENUE NW,+HARLOWTON,+MT+59036&hl=en"
WHITE EARTH POLICE DEPARTMENT,"WHITE EARTH POLICE DEPARTMENT 
												
													WHITE EARTH PD GARAGE",35550 EAGLE VIEW ROAD,WHITE EARTH,MN,56591,"http://maps.google.com/maps?q=35550 EAGLE VIEW ROAD,+WHITE EARTH,+MN+56591&hl=en"
WHITEFISH POLICE DEPARTMENT,THE ROCK BUILDING DRIVE UP,350 HERITAGE WAY,KALISPELL,MT,59901,"http://maps.google.com/maps?q=350 HERITAGE WAY,+KALISPELL,+MT+59901&hl=en"
WHITEFISH POLICE DEPARTMENT,WHITEFISH POLICE DEPARTMENT,275 FLATHEAD AVE,WHITEFISH,MT,59937,"http://maps.google.com/maps?q=275 FLATHEAD AVE,+WHITEFISH,+MT+59937&hl=en"
WILKIN COUNTY SHERIFF'S OFFICE,WILKIN COUNTY SHERIFF'S OFFICE,515 DACOTAH AVENUE,BRECKENRIDGE,MN,56520,"http://maps.google.com/maps?q=515 DACOTAH AVENUE,+BRECKENRIDGE,+MN+56520&hl=en"
WINNER POLICE DEPT,"WINNER POLICE DEPARTMENT 
												
													NO BOXES NEEDED, PER PAUL SCHUETH",217 EAST 3RD ST,WINNER,SD,57580,"http://maps.google.com/maps?q=217 EAST 3RD ST,+WINNER,+SD+57580&hl=en"
YANKTON POLICE DEPARTMENT,YANKTON POLICE DEPARTMENT,"410 WALNUT, SUITE 102",YANKTON,SD,57078,"http://maps.google.com/maps?q=410 WALNUT, SUITE 102,+YANKTON,+SD+57078&hl=en"
