Participant,CollectionSite,Address,City,State,Zip,MapURL
10TH JUDICIAL DRUG TASK FORCE,POLK CITY SHERIFF OFFICE,164 INDUSTRIAL ACCESS CIRCLE,BENTON,TN,37307,"http://maps.google.com/maps?q=164 INDUSTRIAL ACCESS CIRCLE,+BENTON,+TN+37307&hl=en"
ACWORTH POLICE DEPARTMENT,TARGET,3378 COBB PARKWAY,ACWORTH,GA,30101,"http://maps.google.com/maps?q=3378 COBB PARKWAY,+ACWORTH,+GA+30101&hl=en"
ACWORTH POLICE DEPARTMENT,WALGREENS,6090 LAKE ACWORTH DRIVE,ACWORTH,GA,30101,"http://maps.google.com/maps?q=6090 LAKE ACWORTH DRIVE,+ACWORTH,+GA+30101&hl=en"
ALABAMA BOARD OF PHARMACY,ALABAMA BOARD OF PHARMACY,111 VILLAGE STREET,BIRMINGHAM,AL,35242,"http://maps.google.com/maps?q=111 VILLAGE STREET,+BIRMINGHAM,+AL+35242&hl=en"
ALPHARETTA DEPARTMENT OF PUBLIC SAFETY,ALPHARETTA FIRE STATION 81,2970 WEBB BRIDGE ROAD,ALPHARETTA,GA,30009,"http://maps.google.com/maps?q=2970 WEBB BRIDGE ROAD,+ALPHARETTA,+GA+30009&hl=en"
ALPHARETTA DEPARTMENT OF PUBLIC SAFETY,ALPHARETTA FIRE STATION 82,3070 MARKET PLACE,ALPHARETTA,GA,30009,"http://maps.google.com/maps?q=3070 MARKET PLACE,+ALPHARETTA,+GA+30009&hl=en"
ALPHARETTA DEPARTMENT OF PUBLIC SAFETY,ALPHARETTA FIRE STATION 83,9600 WEST SIDE PKWY,ALPHARETTA,GA,30009,"http://maps.google.com/maps?q=9600 WEST SIDE PKWY,+ALPHARETTA,+GA+30009&hl=en"
ALPHARETTA DEPARTMENT OF PUBLIC SAFETY,ALPHARETTA FIRE STATION 84,525 PARK BRIDGE PKWY,ALPHARETTA,GA,30009,"http://maps.google.com/maps?q=525 PARK BRIDGE PKWY,+ALPHARETTA,+GA+30009&hl=en"
ALPHARETTA DEPARTMENT OF PUBLIC SAFETY,ALPHARETTA FIRE STATION 85,1475 MID BROADWELL ROAD,ALPHARETTA,GA,30009,"http://maps.google.com/maps?q=1475 MID BROADWELL ROAD,+ALPHARETTA,+GA+30009&hl=en"
ALPHARETTA DEPARTMENT OF PUBLIC SAFETY,ALPHARETTA FIRE STATION 86,3275 KIMBALL BRIDGE ROAD,ALPHARETTA,GA,30009,"http://maps.google.com/maps?q=3275 KIMBALL BRIDGE ROAD,+ALPHARETTA,+GA+30009&hl=en"
ALPHARETTA DEPARTMENT OF PUBLIC SAFETY,ALPHARETTA PUBLIC SAFETY HEADQUARTERS,2565 OLD MILTON PKWY,ALPHARETTA,GA,30009,"http://maps.google.com/maps?q=2565 OLD MILTON PKWY,+ALPHARETTA,+GA+30009&hl=en"
"ANNISTON ARMY DEPOT, ASAP","ANNISTON ARMY DEPOT 
												
													BLDG 206 AND 422",7 FRANKFORD AVEASAP,ANNISTON,AL,36201,"http://maps.google.com/maps?q=7 FRANKFORD AVE,+ANNISTON,+AL+36201&hl=en"
ATLANTA POLICE DEPARTMENT,"ATLANTA POLICE DEPARTMENT 
												
													ZONE 1 PRECINCT",2315 DONALD LEE HOLLOWELL PKY. N.W.,ATLANTA,GA,30318,"http://maps.google.com/maps?q=2315 DONALD LEE HOLLOWELL PKY. N.W.,+ATLANTA,+GA+30318&hl=en"
ATLANTA POLICE DEPARTMENT,"ATLANTA POLICE DEPARTMENT 
												
													ZONE 2 PRECINCT",3120 MAPLE DRIVE N.E.,ATLANTA,GA,30305,"http://maps.google.com/maps?q=3120 MAPLE DRIVE N.E.,+ATLANTA,+GA+30305&hl=en"
ATLANTA POLICE DEPARTMENT,"ATLANTA POLICE DEPARTMENT 
												
													ZONE 3 PRECINCT",880 CHEROKEE AVENUE,ATLANTA,GA,30315,"http://maps.google.com/maps?q=880 CHEROKEE AVENUE,+ATLANTA,+GA+30315&hl=en"
ATLANTA POLICE DEPARTMENT,"ATLANTA POLICE DEPARTMENT 
												
													ZONE 4 PRECINCT",1125 CASCADE CR. S.W.,ATLANTA,GA,30311,"http://maps.google.com/maps?q=1125 CASCADE CR. S.W.,+ATLANTA,+GA+30311&hl=en"
ATLANTA POLICE DEPARTMENT,"ATLANTA POLICE DEPARTMENT 
												
													ZONE 5 PRECINCT",200 SPRING ST.,ATLANTA,GA,30303,"http://maps.google.com/maps?q=200 SPRING ST.,+ATLANTA,+GA+30303&hl=en"
ATLANTA POLICE DEPARTMENT,"ATLANTA POLICE DEPARTMENT 
												
													ZONE 6 PRECINCT",2025 HOSEA L. WILLIAMS DR. S.E.,ATLANTA,GA,30317,"http://maps.google.com/maps?q=2025 HOSEA L. WILLIAMS DR. S.E.,+ATLANTA,+GA+30317&hl=en"
AUBURN POLICE DIVISION,"OUR HOME PHARMACY 
												
													OGLETREE VILLAGE",2320 MOORES MILL ROAD #100,AUBURN,AL,36830,"http://maps.google.com/maps?q=2320 MOORES MILL ROAD #100,+AUBURN,+AL+36830&hl=en"
AUBURNDALE POLICE DEPARTMENT,AUBURNDALE PD,2 BOBBY GREEN PLAZA,AUBURNDALE,FL,33823,"http://maps.google.com/maps?q=2 BOBBY GREEN PLAZA,+AUBURNDALE,+FL+33823&hl=en"
AVONDALE ESTATES POLICE DEPARTMENT,AVONDALE ESTATES PD,21 N. AVONDALE PLAZA,AVONDALE ESTATES,GA,30002,"http://maps.google.com/maps?q=21 N. AVONDALE PLAZA,+AVONDALE ESTATES,+GA+30002&hl=en"
BARTOW POLICE DEPARTMENT,BARTOW POLICE DEPARTMENT,450 NORTH BROADWAY AVENUE450 NORTH BROADWAY AVENUE,BARTOW,FL,33830,"http://maps.google.com/maps?q=450 NORTH BROADWAY AVENUE,+BARTOW,+FL+33830&hl=en"
BEDFORD COUNTY SHERIFF'S DEPT.,FIRST BAPTIST CHURCH,304 E. DEPOT ST,SHELBYVILLE,TN,37160,"http://maps.google.com/maps?q=304 E. DEPOT ST,+SHELBYVILLE,+TN+37160&hl=en"
BLOUNT COUNTY DISTRICT ATTORNEY'S OFFICE,BLOUNTSVILLE TOWN HALL,10017 LEE ST,BLOUNTSVILLE,AL,35031,"http://maps.google.com/maps?q=10017 LEE ST,+BLOUNTSVILLE,+AL+35031&hl=en"
BLOUNT COUNTY DISTRICT ATTORNEY'S OFFICE,CLEVELAND PHARMACY,36321 AL 79,CLEVELAND,AL,35049,"http://maps.google.com/maps?q=36321 AL 79,+CLEVELAND,+AL+35049&hl=en"
BLOUNT COUNTY DISTRICT ATTORNEY'S OFFICE,HAYDEN HEALTH MART,4086 STATE HWY 160,HAYDEN,AL,35079,"http://maps.google.com/maps?q=4086 STATE HWY 160,+HAYDEN,+AL+35079&hl=en"
BLOUNT COUNTY DISTRICT ATTORNEY'S OFFICE,HIGHLAND LAKE TOWN HALL,612 LAKESHORE DRIVE,ONEONTA,AL,35121,"http://maps.google.com/maps?q=612 LAKESHORE DRIVE,+ONEONTA,+AL+35121&hl=en"
BLOUNT COUNTY DISTRICT ATTORNEY'S OFFICE,LOCUST FORK TOWN HALL,34 TOWN HALL RD,LOCUST FORK,AL,35097,"http://maps.google.com/maps?q=34 TOWN HALL RD,+LOCUST FORK,+AL+35097&hl=en"
BLOUNT COUNTY DISTRICT ATTORNEY'S OFFICE,ONEONTA WAL-MART,2453 2ND AVENUE EAST,ONEONTA,AL,35121,"http://maps.google.com/maps?q=2453 2ND AVENUE EAST,+ONEONTA,+AL+35121&hl=en"
BLOUNT COUNTY DISTRICT ATTORNEY'S OFFICE,SNEAD TOWN HALL,87169 US HIGHWAY 278,ALTOONA,AL,35952,"http://maps.google.com/maps?q=87169 US HIGHWAY 278,+ALTOONA,+AL+35952&hl=en"
BOCA RATON POLICE SERVICES DEPARTMENT,"BOCA RATON POLICE SERVICES DEPARTMENT 
												
													FRONT LOBBY",100 NW BOCA RATON BLVD,BOCA RATON,FL,33432,"http://maps.google.com/maps?q=100 NW BOCA RATON BLVD,+BOCA RATON,+FL+33432&hl=en"
BRADLEY COUNTY SHERIFF'S OFFICE,BCSO CID ENTRANCE,2290 BLYTHE AVE SE,CLEVELAND,TN,37311,"http://maps.google.com/maps?q=2290 BLYTHE AVE SE,+CLEVELAND,+TN+37311&hl=en"
CALERA POLICE DEPARTMENT,OLIVER PARK,HIGHWAY 25,CALERA,AL,35040,"http://maps.google.com/maps?q=HIGHWAY 25,+CALERA,+AL+35040&hl=en"
CALHOUN COUNTY SHERIFF'S OFFICE,QUINTARD MALL,700 QUINTARD DRIVE,OXFORD,AL,36203,"http://maps.google.com/maps?q=700 QUINTARD DRIVE,+OXFORD,+AL+36203&hl=en"
CARTERSVILLE POLICE DEPARTMENT,CARTERSVILLE POLICE DEPARTMENT,195 CASSVILLE ROAD,CARTERSVILLE,GA,30120,"http://maps.google.com/maps?q=195 CASSVILLE ROAD,+CARTERSVILLE,+GA+30120&hl=en"
CATOOSA CO. SHERIFF'S OFFICE,CATOOSA CO. SHERIFF'S OFFICE,5842 HIGHWAY 41,RINGGOLD,GA,30736,"http://maps.google.com/maps?q=5842 HIGHWAY 41,+RINGGOLD,+GA+30736&hl=en"
CHAMBERS COUNTY DRUG TASK FORCE,CHAMBERS COUNTY COURTHOUSE,2 SOUTH LAFAYETTE STREET,LAFAYETTE,AL,36862,"http://maps.google.com/maps?q=2 SOUTH LAFAYETTE STREET,+LAFAYETTE,+AL+36862&hl=en"
CHAMBERS COUNTY DRUG TASK FORCE,CVS PHARMACY,10 VETERANS MEMORIAL PARKWAY,LANETT,AL,36863,"http://maps.google.com/maps?q=10 VETERANS MEMORIAL PARKWAY,+LANETT,+AL+36863&hl=en"
CHAPEL HILL POLICE DEPT.,CHAPEL HILL POLICE DEPT.,119 N. HORTON PKWY,CHAPEL HILL,TN,37034,"http://maps.google.com/maps?q=119 N. HORTON PKWY,+CHAPEL HILL,+TN+37034&hl=en"
CHESTER COUNTY SHERIFFS OFFICE,CRIMINAL JUSTICE COMPLEX,333 ERIC BELL DR.,HENDERSON,TN,38340,"http://maps.google.com/maps?q=333 ERIC BELL DR.,+HENDERSON,+TN+38340&hl=en"
CITY OF AVENTURA,"BILL BIRD MARINA 
												
													HAULOVER PARK",10800 COLLINS AVE,MIAMI,FL,33162,"http://maps.google.com/maps?q=10800 COLLINS AVE,+MIAMI,+FL+33162&hl=en"
CITY OF AVENTURA,V AVENTURA,19333 W. COUTRY CLUB DRIVE,MIAMI,FL,33180,"http://maps.google.com/maps?q=19333 W. COUTRY CLUB DRIVE,+MIAMI,+FL+33180&hl=en"
CITY OF INDIAN HARBOUR BEACH POLICE DEPARTMENT,"CITY OF INDIAN HARBOUR BEACH 
												
													CITY HALL",2055 SOUTH PATRICK DR,INDIAN HARBOUR BEACH,FL,32937,"http://maps.google.com/maps?q=2055 SOUTH PATRICK DR,+INDIAN HARBOUR BEACH,+FL+32937&hl=en"
CITY OF PALM BEACH GARDENS,PALM BEACH GARDENS POLICE DEPARTMENT,10500 N MILITARY TRAIL,PALM BEACH GARDENS,FL,33410,"http://maps.google.com/maps?q=10500 N MILITARY TRAIL,+PALM BEACH GARDENS,+FL+33410&hl=en"
CITY OF STUART POLICE DEPARTMENT,CVS PHARMACY,2284 SE FEDERAL HIGHWAY,STUART,FL,34994,"http://maps.google.com/maps?q=2284 SE FEDERAL HIGHWAY,+STUART,+FL+34994&hl=en"
CLANTON POLICE DEPARTMENT,CVS PHARMACY,1105 7TH STREET NORTH,CLANTON,AL,35045,"http://maps.google.com/maps?q=1105 7TH STREET NORTH,+CLANTON,+AL+35045&hl=en"
COBB COUNTY POLICE DEPARTMENT,PRECINCT 1,2380 COBB PKWY,MARIETTA,GA,30060,"http://maps.google.com/maps?q=2380 COBB PKWY,+MARIETTA,+GA+30060&hl=en"
COCOA BEACH POLICE DEPARTMENT,"CAPE CANAVERAL HOSPITAL 
												
													MAIN ENTRANCE OF MEDICAL PLAZA",701 W COCOA BEACH CSWY,COCOA BEACH,FL,32931,"http://maps.google.com/maps?q=701 W COCOA BEACH CSWY,+COCOA BEACH,+FL+32931&hl=en"
COCOA POLICE DEPARTMENT,COCOA POLICE DEPARTMENT,1226 W KING ST,COCOA,FL,32922,"http://maps.google.com/maps?q=1226 W KING ST,+COCOA,+FL+32922&hl=en"
COFFEE COUNTY SHERIFF DEPARTMENT,FIRST VISION BANK,2134 HILLSBORO HWY.,MANCHESTER,TN,37355,"http://maps.google.com/maps?q=2134 HILLSBORO HWY.,+MANCHESTER,+TN+37355&hl=en"
COLUMBUS POLICE DEPARTMENT,COLUMBUS POLICE DEPARTMENT,1501 MAIN ST.,COLUMBUS,MS,39701,"http://maps.google.com/maps?q=1501 MAIN ST.,+COLUMBUS,+MS+39701&hl=en"
CONECUH COUNTY SHERIFF'S OFFICE,CONECUH COUNTY SHERIFFS OFFICE,104 LIBERTY STREET,EVERGREEN,AL,36401,"http://maps.google.com/maps?q=104 LIBERTY STREET,+EVERGREEN,+AL+36401&hl=en"
COOSA COUNTY SHERIFF OFFICE,COOSA COUNTY SHERIFF'S OFFICE,296 SCHOOL STREET,ROCKFORD,AL,35136,"http://maps.google.com/maps?q=296 SCHOOL STREET,+ROCKFORD,+AL+35136&hl=en"
CULLMAN COUNTY SHERIFF,CULLMAN COUNTY SHERIFF,1910 BEECH AVENUE SE,CULLMAN,AL,35055,"http://maps.google.com/maps?q=1910 BEECH AVENUE SE,+CULLMAN,+AL+35055&hl=en"
CULLMAN POLICE DEPARTMENT,CULLMAN POLICE DEPARTMENT,601 SECOND AVENUE NE,CULLMAN,AL,35055,"http://maps.google.com/maps?q=601 SECOND AVENUE NE,+CULLMAN,+AL+35055&hl=en"
DAVIE POLICE DEPARTMENT,"CVS PHARMACY 
												
													NO NEEDLES/SHARPS",4610 S UNIVERSITY DR,DAVIE,FL,33314,"http://maps.google.com/maps?q=4610 S UNIVERSITY DR,+DAVIE,+FL+33314&hl=en"
DAVIE POLICE DEPARTMENT,"WALGREENS PHARMACY 
												
													NO SHARPS/NEEDLES",11204 STATE ROAD 84,DAVIE,FL,33325,"http://maps.google.com/maps?q=11204 STATE ROAD 84,+DAVIE,+FL+33325&hl=en"
DECATUR POLICE DEPARTMENT,DECATUR POLICE DEPARTMENT,420 WEST TRINITY PLACE,DECATUR,GA,30030,"http://maps.google.com/maps?q=420 WEST TRINITY PLACE,+DECATUR,+GA+30030&hl=en"
DEKALB COUNTY POLICE,DEKALB COUNTY PD TUCKER PRECINCT,4451 LAWRENCEVILLE HWY.,TUCKER,GA,30084,"http://maps.google.com/maps?q=4451 LAWRENCEVILLE HWY.,+TUCKER,+GA+30084&hl=en"
DEKALB COUNTY POLICE,DEKALB POLICE HEADQUARTERS,1960 W. EXCHANGE PLACE,TUCKER,GA,30084,"http://maps.google.com/maps?q=1960 W. EXCHANGE PLACE,+TUCKER,+GA+30084&hl=en"
DEKALB COUNTY POLICE,NORTH DEKALB HEALTH CENTER,"3807 CLAIRMONT RD., NE",CHAMBLEE,GA,30341,"http://maps.google.com/maps?q=3807 CLAIRMONT RD., NE,+CHAMBLEE,+GA+30341&hl=en"
DEKALB COUNTY POLICE,RICHARDSON HEALTH CENTER,445 WINN WAY,DECATUR,GA,30030,"http://maps.google.com/maps?q=445 WINN WAY,+DECATUR,+GA+30030&hl=en"
DEMOPOLIS POLICE DEPARTMENT,"THEO RATLIFF ACTIVITY CENTER 
												
													PARKING LOT",306 1ST AVENUE,DEMOPOLIS,AL,36732,"http://maps.google.com/maps?q=306 1ST AVENUE,+DEMOPOLIS,+AL+36732&hl=en"
DESOTO COUNTY SHERIFF OFFICE,WALGREENS,2575 NE HIGHWAY 70,ARCADIA,FL,34266,"http://maps.google.com/maps?q=2575 NE HIGHWAY 70,+ARCADIA,+FL+34266&hl=en"
DUNLAP POLICE DEPT,DUNLAP POLICE DEPT,119 CHURCH ST,DUNLAP,TN,37327,"http://maps.google.com/maps?q=119 CHURCH ST,+DUNLAP,+TN+37327&hl=en"
EAST POINT POLICE DEPARTMENT,EAST POINT POLICE DEPARTMENT,2727 EAST POINT STREET,ATLANTA,GA,30344,"http://maps.google.com/maps?q=2727 EAST POINT STREET,+ATLANTA,+GA+30344&hl=en"
EAST RIDGE POLICE DEPARTMENT,WALGREENS,5301 RINGGOLD RD,EAST RIDGE,TN,37412,"http://maps.google.com/maps?q=5301 RINGGOLD RD,+EAST RIDGE,+TN+37412&hl=en"
EDGEWOOD POLICE DEPARTMENT,EDGEWOOD POLICE DEPARTMENT,5565 S. ORANGE AVE,ORLANDO,FL,32809,"http://maps.google.com/maps?q=5565 S. ORANGE AVE,+ORLANDO,+FL+32809&hl=en"
ETOWAH COUNTY DRUG ENFORCEMENT UNIT,WALMART,340 E. MEIGHAN BLVD.,GADSDEN,AL,35903,"http://maps.google.com/maps?q=340 E. MEIGHAN BLVD.,+GADSDEN,+AL+35903&hl=en"
FAYETTE COUNTY SHERIFF'S DEPARTMENT,FAYETTE COUNTY SHERIFF'S DEPARTMENT,155 JOHNSON AVENUE,FAYETTEVILLE,GA,30214,"http://maps.google.com/maps?q=155 JOHNSON AVENUE,+FAYETTEVILLE,+GA+30214&hl=en"
FAYETTEVILLE POLICE DEPARTMENT,FAYETTEVILLE POLICE DEPARTMENT,760 JIMMIE MAYFIELD BLVD.,NEWNAN,GA,30265,"http://maps.google.com/maps?q=760 JIMMIE MAYFIELD BLVD.,+NEWNAN,+GA+30265&hl=en"
FRANKLIN COUNTY SHERIFF'S OFFICE,FRANKLIN COUNTY SHERIFF'S OFFICE,494 GEORGE FRALEY PKWY,WINCHESTER,TN,37398,"http://maps.google.com/maps?q=494 GEORGE FRALEY PKWY,+WINCHESTER,+TN+37398&hl=en"
FULTON POLICE DEPARTMENT,WAL MART SUPERCENTER,101 INTERCHANGE DR.1409 S. ADAMS ST.,FULTON,MS,38843,"http://maps.google.com/maps?q=101 INTERCHANGE DR.,+FULTON,+MS+38843&hl=en"
GARDENDALE POLICE DEPARTMENT,GARDENDALE POLICE DEPARTMENT,1309 DECATUR HIGHWAY,GARDENDALE,AL,35071,"http://maps.google.com/maps?q=1309 DECATUR HIGHWAY,+GARDENDALE,+AL+35071&hl=en"
GILES COUNTY SHERIFF'S DEPT.,CVS PHARMACY,709 W COLLEGE ST.,PULASKI,TN,38478,"http://maps.google.com/maps?q=709 W COLLEGE ST.,+PULASKI,+TN+38478&hl=en"
GROVEHILL POLICE DEPARTMENT,CITY DRUGS,123 JACKSON STREET SOUTH,GROVE HILL,AL,36451,"http://maps.google.com/maps?q=123 JACKSON STREET SOUTH,+GROVE HILL,+AL+36451&hl=en"
GRUNDY COUNTY SHERIFF'S OFFICE,"COALMONT 
												
													BESIDE L & L HARDWARE",38 S. INDUSTRIAL PARK RD.,COALMONT,TN,37313,"http://maps.google.com/maps?q=38 S. INDUSTRIAL PARK RD.,+COALMONT,+TN+37313&hl=en"
GWINNETT COUNTY POLICE DEPARTMENT,CITY OF PEACHTREE CORNERS CITY HALL,310 TECHNOLOGY PARKWAY,PEACHTREE CORNERS,GA,30092,"http://maps.google.com/maps?q=310 TECHNOLOGY PARKWAY,+PEACHTREE CORNERS,+GA+30092&hl=en"
HAMILTON COUNTY SHERIFF'S OFFICE,ELKS LODGE,1069 GRAYSVILLE RD,CHATTANOOGA,TN,37421,"http://maps.google.com/maps?q=1069 GRAYSVILLE RD,+CHATTANOOGA,+TN+37421&hl=en"
HOLLYWOOD POLICE DEPARTMENT,HOLLYWOOD POLICE DEPARTMENT,3250 HOLLYWOOD BLVD,HOLLYWOOD,FL,33021,"http://maps.google.com/maps?q=3250 HOLLYWOOD BLVD,+HOLLYWOOD,+FL+33021&hl=en"
HOOVER POLICE DEPARTMENT,HOOVER POLICE DEPARTMENT,100 MUNICIPAL DRIVE,BIRMINGHAM,AL,35216,"http://maps.google.com/maps?q=100 MUNICIPAL DRIVE,+BIRMINGHAM,+AL+35216&hl=en"
JACKSON COUNTY SHERIFFS OFFICE,JACKSON COUNTY COURT HOUSE,102 EAST LAUREL STREET,SCOTTSBORO,AL,35768,"http://maps.google.com/maps?q=102 EAST LAUREL STREET,+SCOTTSBORO,+AL+35768&hl=en"
JACKSON POLICE DEPARTMENT,CVS PHARMACY,813 COLLEGE AVENUE,JACKSON,AL,36545,"http://maps.google.com/maps?q=813 COLLEGE AVENUE,+JACKSON,+AL+36545&hl=en"
JACKSON POLICE DEPARTMENT,MAC'S DRUGS,201 COMMERCE STREET,JACKSON,AL,36545,"http://maps.google.com/maps?q=201 COMMERCE STREET,+JACKSON,+AL+36545&hl=en"
JACKSON POLICE DEPARTMENT,WALMART,4206 N. COLLEGE AVENUE,JACKSON,AL,36545,"http://maps.google.com/maps?q=4206 N. COLLEGE AVENUE,+JACKSON,+AL+36545&hl=en"
JASPER POLICE DEPARTMENT,JASPER POLICE DEPARTMENT,1610 ALABAMA AVENUE,JASPER,AL,35501,"http://maps.google.com/maps?q=1610 ALABAMA AVENUE,+JASPER,+AL+35501&hl=en"
JEFFERSON COUNTY SHERIFF DEPARTMENT,JEFFERSON COUNTY SHERIFF DEPARTMENT,2651 CENTER POINT ROAD,BIRMINGHAM,AL,35215,"http://maps.google.com/maps?q=2651 CENTER POINT ROAD,+BIRMINGHAM,+AL+35215&hl=en"
JEFFERSON COUNTY SHERIFF DEPARTMENT,JEFFERSON COUNTY SHERIFFF MCCALLA,5977 EASTERN VALLEY ROAD,MC CALLA,AL,35111,"http://maps.google.com/maps?q=5977 EASTERN VALLEY ROAD,+MC CALLA,+AL+35111&hl=en"
JONESBORO POLICE DEPARTMENT,JONESBORO POLCE DEPARTMETN,170 S. MAIN STREET,JONESBORO,GA,30236,"http://maps.google.com/maps?q=170 S. MAIN STREET,+JONESBORO,+GA+30236&hl=en"
JUNO BEACH POLICE DEPT.,JUNO BEACH POLICE DEPARTMENT,340 OCEAN DRIVE,JUNO BEACH,FL,33408,"http://maps.google.com/maps?q=340 OCEAN DRIVE,+JUNO BEACH,+FL+33408&hl=en"
JUPITER POLICE DEPARTMENT,"JUPITER POLICE DEPARTMENT 
												
													EAST LOBBY",210 MILITARY TRAIL,JUPITER,FL,33458,"http://maps.google.com/maps?q=210 MILITARY TRAIL,+JUPITER,+FL+33458&hl=en"
KENNESAW POLICE DEPARTMENT,CVS PHARMACY,2782 COBB PKWY.,KENNESAW,GA,30144,"http://maps.google.com/maps?q=2782 COBB PKWY.,+KENNESAW,+GA+30144&hl=en"
LAKE ALFRED POLICE DEPARTMENT,LAKE ALFRED POLICE DEPARTMENT,190 NORTH SEMINOLE AVENUE,LAKE ALFRED,FL,33850,"http://maps.google.com/maps?q=190 NORTH SEMINOLE AVENUE,+LAKE ALFRED,+FL+33850&hl=en"
LAKE CLARKE SHORES POLICE DEPARTMENT,LAKE CLARKE SHORES PD,1701 BARBADOS ROAD,LAKE CLARKE SHORES,FL,33406,"http://maps.google.com/maps?q=1701 BARBADOS ROAD,+LAKE CLARKE SHORES,+FL+33406&hl=en"
LAKE WALES POLICE DEPARTMENT,LAKE WALES POLICE DEPARTMENT,133 E. TILLMAN AVENUE,LAKE WALES,FL,33853,"http://maps.google.com/maps?q=133 E. TILLMAN AVENUE,+LAKE WALES,+FL+33853&hl=en"
LANTANA POLICE DEPT,LANTANA POLICE DEPARTMENT,901 N. 8 ST.,LANTANA,FL,33462,"http://maps.google.com/maps?q=901 N. 8 ST.,+LANTANA,+FL+33462&hl=en"
LAWRENCE CO. SHERIFF'S DEPT.,WLX COUNTRY CAFE,1212 N. LOCUST AVE,LAWRENCEBURG,TN,38464,"http://maps.google.com/maps?q=1212 N. LOCUST AVE,+LAWRENCEBURG,+TN+38464&hl=en"
LEE COUNTY SHERIFF'S DEPARTMENT,"LEE COUNTY SHERIFF'S DEPARTMENT 
												
													FRIDAY, APRIL 27, 2018 - NTBI XV",510 NORTH COMMERCE ST.,TUPELO,MS,38804,"http://maps.google.com/maps?q=510 NORTH COMMERCE ST.,+TUPELO,+MS+38804&hl=en"
LEE COUNTY SHERIFF'S OFFICE,LEE COUNTY SHERIFF'S OFFICE,1900 FREDERICK ROAD,OPELIKA,AL,36801,"http://maps.google.com/maps?q=1900 FREDERICK ROAD,+OPELIKA,+AL+36801&hl=en"
LEE COUNTY SHERIFF'S OFFICE,SMITHS STATION GOVERNMENT CENTER,2336 LEE RD 430,SMITHS STATION,AL,36877,"http://maps.google.com/maps?q=2336 LEE RD 430,+SMITHS STATION,+AL+36877&hl=en"
LEXINGTON POLICE DEPARTMENT,FAMILY PHARMACY,6 HOSPITAL DRIVE,LEXINGTON,TN,38351,"http://maps.google.com/maps?q=6 HOSPITAL DRIVE,+LEXINGTON,+TN+38351&hl=en"
LEXINGTON POLICE DEPARTMENT,WALGREENS PHARMACY,603 WEST CHURCH STREET,LEXINGTON,TN,38351,"http://maps.google.com/maps?q=603 WEST CHURCH STREET,+LEXINGTON,+TN+38351&hl=en"
LINCOLN CO. SHERIFF'S DEPT,LINCOLN COUNTY HIGH SCHOOL,1233 HUNTSVILLE HWY,FAYETTEVILLE,TN,37334,"http://maps.google.com/maps?q=1233 HUNTSVILLE HWY,+FAYETTEVILLE,+TN+37334&hl=en"
LINDEN POLICE DEPARTMENT,LINDEN VOLUNTEER FIRE DEPARTMENT,212 E. COATS AVENUE,LINDEN,AL,36748,"http://maps.google.com/maps?q=212 E. COATS AVENUE,+LINDEN,+AL+36748&hl=en"
LINDEN POLICE DEPARTMENT,YORK CITY HALL,607 2ND AVENUE,YORK,AL,36925,"http://maps.google.com/maps?q=607 2ND AVENUE,+YORK,+AL+36925&hl=en"
LINEVILLE POLICE DEPARTMENT,LINEVILLE POLICE DEPARTMENT,40 2ND AVENUE,LINEVILLE,AL,36266,"http://maps.google.com/maps?q=40 2ND AVENUE,+LINEVILLE,+AL+36266&hl=en"
LORETTO POLICE DEPT.,LORETTO CITY HALL,415 NORTH MILITARY STRREET,LORETTO,TN,38469,"http://maps.google.com/maps?q=415 NORTH MILITARY STRREET,+LORETTO,+TN+38469&hl=en"
MANALAPAN POLICE DEPARTMENT,"TOWN OF MANALAPAN 
												
													MANALAPAN POLICE DEPARTMENT",600 SOUTH OCEAN BLVD,MANALAPAN,FL,33462,"http://maps.google.com/maps?q=600 SOUTH OCEAN BLVD,+MANALAPAN,+FL+33462&hl=en"
MANCHESTER POLICE DEPARTMENT,"MANCHESTER POLICE DEPARTMENT 
												
													DRUG TAKE BACK DROP BOX",200 WEST FORT STREET,MANCHESTER,TN,37355,"http://maps.google.com/maps?q=200 WEST FORT STREET,+MANCHESTER,+TN+37355&hl=en"
MARGATE POLICE DEPARTMENT,WALGREENS,3000 NORTH STATE ROAD 7,MARGATE,FL,33063,"http://maps.google.com/maps?q=3000 NORTH STATE ROAD 7,+MARGATE,+FL+33063&hl=en"
MARSHALL COUNTY SHERIFF'S OFFICE,MARSHALL COUNTY SHERIFF'S OFFICE,209 1ST AVE N.,LEWISBURG,TN,37091,"http://maps.google.com/maps?q=209 1ST AVE N.,+LEWISBURG,+TN+37091&hl=en"
MARTIN COUNTY SHERIFF'S OFFICE,WALGREENS,1250 NE JENSEN BEACH BLVD,JENSEN BEACH,FL,34957,"http://maps.google.com/maps?q=1250 NE JENSEN BEACH BLVD,+JENSEN BEACH,+FL+34957&hl=en"
MARTIN COUNTY SHERIFF'S OFFICE,WALGREENS,5800 SE FEDERAL HWY,STUART,FL,34997,"http://maps.google.com/maps?q=5800 SE FEDERAL HWY,+STUART,+FL+34997&hl=en"
MCMINNVILLE POLICE DEPT.,MCMINNVILLE POLICE DEPARTMENT,204 RED ROAD,MCMINNVILLE,TN,37110,"http://maps.google.com/maps?q=204 RED ROAD,+MCMINNVILLE,+TN+37110&hl=en"
MCNAIRY COUNTY SHERIFF'S OFFICE,MCNAIRY COUNTY SHERIFF'S OFFICE,300 INDUSTRIAL PARK DR,SELMER,TN,38375,"http://maps.google.com/maps?q=300 INDUSTRIAL PARK DR,+SELMER,+TN+38375&hl=en"
MEDLEY POLICE DEPARTMENT,MEDLEY POLICE DEPARTMENT,7777 NW 72 AVENUE,MEDLEY,FL,33166,"http://maps.google.com/maps?q=7777 NW 72 AVENUE,+MEDLEY,+FL+33166&hl=en"
MEIGS COUNTY SHERIFF'S OFFICE,MEIGS COUNTY JAIL,410 RIVER ROAD,DECATUR,TN,37322,"http://maps.google.com/maps?q=410 RIVER ROAD,+DECATUR,+TN+37322&hl=en"
MERCER UNIVERSITY POLICE DEPARTMENT,"MERCER UNIVERSITY 
												
													PHARMACY ADMINISTRATION & CAFETERIA BLDG.",3001 MERCER UNIVERSITY DRIVE,ATLANTA,GA,30341,"http://maps.google.com/maps?q=3001 MERCER UNIVERSITY DRIVE,+ATLANTA,+GA+30341&hl=en"
MERIDIAN POLICE DEPARTMENT,"MERIDIAN POLICE BONITA LAKES MALL POLICE PRECINCT 
												
													NEAR THE FOOD COURT",1680 BONITA LAKES CIRCLE,MERIDIAN,MS,39301,"http://maps.google.com/maps?q=1680 BONITA LAKES CIRCLE,+MERIDIAN,+MS+39301&hl=en"
MIAMI BEACH POLICE DEPARTMENT,MBPD HQ,1100 WASHINGTON AVE,MIAMI BEACH,FL,33139,"http://maps.google.com/maps?q=1100 WASHINGTON AVE,+MIAMI BEACH,+FL+33139&hl=en"
MIAMI BEACH POLICE DEPARTMENT,MPPD SUBSTATION,6840 INDIAN CREEK DR,MIAMI BEACH,FL,33141,"http://maps.google.com/maps?q=6840 INDIAN CREEK DR,+MIAMI BEACH,+FL+33141&hl=en"
MIAMI DADE POLICE DEPARTMENT,"FLORIDA INTERNATIONAL UNIVERSITY  MAIN CAMPUS 
												
													FIU PD/MD PD","885 SW 109 AVENUE, PG-5",MIAMI,FL,33199,"http://maps.google.com/maps?q=885 SW 109 AVENUE, PG-5,+MIAMI,+FL+33199&hl=en"
MIAMI DADE POLICE DEPARTMENT,"MIAMI-DADE POLICE DEPARTMENT 
												
													INTRACOASTAL DISTRICT STATION",15665 BISCAYNE BLVD,NORTH MIAMI BEACH,FL,33160,"http://maps.google.com/maps?q=15665 BISCAYNE BLVD,+NORTH MIAMI BEACH,+FL+33160&hl=en"
MIAMI DADE POLICE DEPARTMENT,"MIAMI-DADE POLICE DEPARTMENT 
												
													KENDALL DISTRICT STATION",7707 SW 117 AVE,MIAMI,FL,33173,"http://maps.google.com/maps?q=7707 SW 117 AVE,+MIAMI,+FL+33173&hl=en"
MIAMI DADE POLICE DEPARTMENT,"MIAMI-DADE POLICE DEPARTMENT 
												
													MIDWEST DISTRICT STATION",9101 NW 25 ST,MIAMI,FL,33172,"http://maps.google.com/maps?q=9101 NW 25 ST,+MIAMI,+FL+33172&hl=en"
MIAMI DADE POLICE DEPARTMENT,"MIAMI-DADE POLICE DEPARTMENT 
												
													NORTHSIDE DISTRICT STATION",799 NW 81 STREET,MIAMI,FL,33150,"http://maps.google.com/maps?q=799 NW 81 STREET,+MIAMI,+FL+33150&hl=en"
MIAMI DADE POLICE DEPARTMENT,"MIAMI-DADE POLICE DEPARTMENT 
												
													NORTHWEST DISTRICT STATION",5975 MIAMI LAKES DR EAST,MIAMI LAKES,FL,33014,"http://maps.google.com/maps?q=5975 MIAMI LAKES DR EAST,+MIAMI LAKES,+FL+33014&hl=en"
MIAMI SHORES POLICE DEPARTMENT,"MIAMI SHORES POLICE DEPARTMENT 
												
													STATION LOBBY",9990 NE 2 AVE,MIAMI SHORES,FL,33138,"http://maps.google.com/maps?q=9990 NE 2 AVE,+MIAMI SHORES,+FL+33138&hl=en"
MIAMI SPRINGS POLICE,MIAMI SPRINGS COMMUNITY POLICING OFFICE,274 WEST WARD DR,MIAMI,FL,33166,"http://maps.google.com/maps?q=274 WEST WARD DR,+MIAMI,+FL+33166&hl=en"
MILTON POLICE DEPARTMENT,TARGET,13055 HIGHWAY 9,ALPHARETTA,GA,30004,"http://maps.google.com/maps?q=13055 HIGHWAY 9,+ALPHARETTA,+GA+30004&hl=en"
MISSISSIPPI STATE UNIVERSITY POLICE DEPARTMENT,MISSISSIPPI STATE UNIVERSITY POLICE DEPARTMENT,25 WALKER ROAD,MISSISSIPPI STATE,MS,39762,"http://maps.google.com/maps?q=25 WALKER ROAD,+MISSISSIPPI STATE,+MS+39762&hl=en"
MONROEVILLE POLICE DEPARTMENT,MONROE DRUGS,360 SOUTH ALABAMA AVE,MONROEVILLE,AL,36460,"http://maps.google.com/maps?q=360 SOUTH ALABAMA AVE,+MONROEVILLE,+AL+36460&hl=en"
MONROEVILLE POLICE DEPARTMENT,MONROEVILLE POLICE DEPARTMENT,49 SOUTH MOUNT PLEASANT AVENUE,MONROEVILLE,AL,36460,"http://maps.google.com/maps?q=49 SOUTH MOUNT PLEASANT AVENUE,+MONROEVILLE,+AL+36460&hl=en"
MONROEVILLE POLICE DEPARTMENT,WALMART SHOPPING CENTER,3371 SOUTH ALABAMA AVENUE,MONROEVILLE,AL,36460,"http://maps.google.com/maps?q=3371 SOUTH ALABAMA AVENUE,+MONROEVILLE,+AL+36460&hl=en"
MONTGOMERY POLICE DEPARTMENT,FRAZER UNITED METHODIST CHURCH,6000 ATLANTA HIGHWAY,MONTGOMERY,AL,36117,"http://maps.google.com/maps?q=6000 ATLANTA HIGHWAY,+MONTGOMERY,+AL+36117&hl=en"
MONTGOMERY POLICE DEPARTMENT,MONTGOMERY POLICE DEPARTMENT,2190 EAST S. BLVD,MONTGOMERY,AL,36109,"http://maps.google.com/maps?q=2190 EAST S. BLVD,+MONTGOMERY,+AL+36109&hl=en"
MUSCOGEE COUNTY SHERIFFS OFFICE,HOLLYWOOD CONNECTION FAMILY FUN CENTE,1683 WHITTLESEY ROAD,COLUMBUS,GA,31904,"http://maps.google.com/maps?q=1683 WHITTLESEY ROAD,+COLUMBUS,+GA+31904&hl=en"
NORCROSS POLICE DEPARTMENT,NORCROSS POLICE DEPARTMENT,65 LAWRENCEVILLE STREET,NORCROSS,GA,30071,"http://maps.google.com/maps?q=65 LAWRENCEVILLE STREET,+NORCROSS,+GA+30071&hl=en"
NORTH PALM BEACH POLICE DEPT,"NORTH PALM BEACH PD 
												
													COLLECTION SITE IN THE LOBBY OF PD",560 U.S. HWY ONE,NORTH PALM BEACH,FL,33408,"http://maps.google.com/maps?q=560 U.S. HWY ONE,+NORTH PALM BEACH,+FL+33408&hl=en"
OCEAN RIDGE POLICE DEPARTMENT,OCEAN RIDGE POLICE DEPARTMENT,6450 NORTH OCEAN BLVD.,OCEAN RIDGE,FL,33435,"http://maps.google.com/maps?q=6450 NORTH OCEAN BLVD.,+OCEAN RIDGE,+FL+33435&hl=en"
OKEECHOBEE COUNTY SHERIFF'S OFFICE,OKEECHOBEE SHERRIFS OFFICE,504 NW 4TH ST,OKEECHOBEE,FL,34972,"http://maps.google.com/maps?q=504 NW 4TH ST,+OKEECHOBEE,+FL+34972&hl=en"
ORLANDO POLICE DEPARTMENT,CVS PHARMACY,4315 CURRY FORD ROAD,ORLANDO,FL,32806,"http://maps.google.com/maps?q=4315 CURRY FORD ROAD,+ORLANDO,+FL+32806&hl=en"
ORLANDO POLICE DEPARTMENT,CVS PHARMACY,5886 CONROY ROAD,ORLANDO,FL,32835,"http://maps.google.com/maps?q=5886 CONROY ROAD,+ORLANDO,+FL+32835&hl=en"
OSCEOLA COUNTY SHERIFF'S OFFICE,"BOGGY CREEK MARKETPLACE (STORE #1502) 
												
													PHARMACY: (407) 348-7686",2625 SIMPSON RD,KISSIMMEE,FL,34744,"http://maps.google.com/maps?q=2625 SIMPSON RD,+KISSIMMEE,+FL+34744&hl=en"
OSCEOLA COUNTY SHERIFF'S OFFICE,"PLEASANT HILL COMMONS (STORE #01179) 
												
													PHARMACY: (407) 932-2605",3343 S ORANGE BLOSSOM TRL,KISSIMMEE,FL,34746,"http://maps.google.com/maps?q=3343 S ORANGE BLOSSOM TRL,+KISSIMMEE,+FL+34746&hl=en"
OSCEOLA COUNTY SHERIFF'S OFFICE,"PUBLIX CENTER OF ST. CLOUD (STORE #00235) 
												
													PHARMACY: (407) 498-3133",4401 13TH ST,SAINT CLOUD,FL,34769,"http://maps.google.com/maps?q=4401 13TH ST,+SAINT CLOUD,+FL+34769&hl=en"
OSCEOLA COUNTY SHERIFF'S OFFICE,"THE PROMENADE (STORE #00758) 
												
													PHARMACY: (321) 697-0009",841 CYPRESS PKWY,POINCIANA,FL,34759,"http://maps.google.com/maps?q=841 CYPRESS PKWY,+POINCIANA,+FL+34759&hl=en"
PALM BAY POLICE DEPARTMENT,"HEALTH FIRST PALM BAY HOSPITAL 
												
													DROP OFF IS LOCATED ON WEST SIDE OF BUILDING",1425 MALABAR ROAD,PALM BAY,FL,32907,"http://maps.google.com/maps?q=1425 MALABAR ROAD,+PALM BAY,+FL+32907&hl=en"
PALM BEACH COUNTY SHERIFF'S OFFICE,"PALM BEACH COUNTY SHERIFF'S OFFICE 
												
													LABORATORY EVIDENCE UNIT",3228 GUN CLUB RD,WEST PALM BEACH,FL,33406,"http://maps.google.com/maps?q=3228 GUN CLUB RD,+WEST PALM BEACH,+FL+33406&hl=en"
PEACHTREE CITY POLICE DEPARTMENT,PEACHTREE CITY POLICE DEPARTMENT,350 HIGHWAY 74 SOUTH,PEACHTREE CITY,GA,30269,"http://maps.google.com/maps?q=350 HIGHWAY 74 SOUTH,+PEACHTREE CITY,+GA+30269&hl=en"
PHENIX CITY POLICE DEPARTMENT,CVS PHARMACY,2514 CRAWFORD ROAD,PHENIX CITY,AL,36867,"http://maps.google.com/maps?q=2514 CRAWFORD ROAD,+PHENIX CITY,+AL+36867&hl=en"
PHENIX CITY POLICE DEPARTMENT,NORTH PRECINCT,4301 PARK DRIVE,PHENIX CITY,AL,36867,"http://maps.google.com/maps?q=4301 PARK DRIVE,+PHENIX CITY,+AL+36867&hl=en"
PHENIX CITY POLICE DEPARTMENT,PHENIX CITY POLICE DEPARTMENT,1111 BROAD STREET,PHENIX CITY,AL,36867,"http://maps.google.com/maps?q=1111 BROAD STREET,+PHENIX CITY,+AL+36867&hl=en"
PHENIX CITY POLICE DEPARTMENT,SOUTH PRECINCT,1507 5TH STREET SOUTH,PHENIX CITY,AL,36869,"http://maps.google.com/maps?q=1507 5TH STREET SOUTH,+PHENIX CITY,+AL+36869&hl=en"
PLANTATION POLICE DEPARTMENT,PLANTATION POLICE DEPARTMENT,451 NW 70TH TER,FORT LAUDERDALE,FL,33317,"http://maps.google.com/maps?q=451 NW 70TH TER,+FORT LAUDERDALE,+FL+33317&hl=en"
RANDOLPH COUNTY SHERIFF OFFICE,RANDOLPH COUNTY SHERIFF OFFICE,1 MAIN STREET,WEDOWEE,AL,36278,"http://maps.google.com/maps?q=1 MAIN STREET,+WEDOWEE,+AL+36278&hl=en"
RHEA COUNTY SHERIFF'S DEPT.,"SPRING CITY,  CITY HALL 
												
													TENT LOCATED IN THE FRONT PARKING LOT",229 FRONT STREET,SPRING CITY,TN,37381,"http://maps.google.com/maps?q=229 FRONT STREET,+SPRING CITY,+TN+37381&hl=en"
RHEA COUNTY SHERIFF'S DEPT.,"WALMART SUPERCENTER 
												
													TENT LOCATED AT THE PARKING LOT ENTRANCE",3034 RHEA COUNTY HWY,DAYTON,TN,37321,"http://maps.google.com/maps?q=3034 RHEA COUNTY HWY,+DAYTON,+TN+37321&hl=en"
RIVERDALE POLICE DEPARTMENT,RIVERDALE TOWN CENTER,7210 CHURCH ST,RIVERDALE,GA,30274,"http://maps.google.com/maps?q=7210 CHURCH ST,+RIVERDALE,+GA+30274&hl=en"
ROANOKE POLICE DEPARTMENT,ROANOKE POLICE DEPARTMENT,30 WEST POINT STREET,ROANOKE,AL,36274,"http://maps.google.com/maps?q=30 WEST POINT STREET,+ROANOKE,+AL+36274&hl=en"
ROSWELL POLICE DEPARTMENT,ROSWELL RECYCLING CENTER,11570 MAXWELL RD,ALPHARETTA,GA,30009,"http://maps.google.com/maps?q=11570 MAXWELL RD,+ALPHARETTA,+GA+30009&hl=en"
SATELLITE BEACH POLICE DEPARTMENT,WALGREENS,1098 SRA1A,SATELLITE BEACH,FL,32937,"http://maps.google.com/maps?q=1098 SRA1A,+SATELLITE BEACH,+FL+32937&hl=en"
SAVANNAH POLICE DEPT.,SAVANNAH POLICE DEPT.,80 KING ST.,SAVANNAH,TN,38372,"http://maps.google.com/maps?q=80 KING ST.,+SAVANNAH,+TN+38372&hl=en"
SHELBY COUNTY TASK FORCE,FRED'S PHARMACY,21665 AL-25,COLUMBIANA,AL,35051,"http://maps.google.com/maps?q=21665 AL-25,+COLUMBIANA,+AL+35051&hl=en"
SHELBY COUNTY TASK FORCE,GREYSTONE YMCA,5414 HIGHWAY 280,BIRMINGHAM,AL,35242,"http://maps.google.com/maps?q=5414 HIGHWAY 280,+BIRMINGHAM,+AL+35242&hl=en"
SHELBY COUNTY TASK FORCE,PELHAM POLICE DEPARTMENT,32 PHILIP DAVIS STREET,PELHAM,AL,35124,"http://maps.google.com/maps?q=32 PHILIP DAVIS STREET,+PELHAM,+AL+35124&hl=en"
SHELBY COUNTY TASK FORCE,TARGET,250 SOUTH COLONIAL DRIVE,ALABASTER,AL,35007,"http://maps.google.com/maps?q=250 SOUTH COLONIAL DRIVE,+ALABASTER,+AL+35007&hl=en"
SHELBY COUNTY TASK FORCE,VINCENT FIRE DEPARTMENT,42030 AL-25,VINCENT,AL,35178,"http://maps.google.com/maps?q=42030 AL-25,+VINCENT,+AL+35178&hl=en"
SHELBY COUNTY TASK FORCE,WINN DIXIE,150 CHELSEA CORNERS WAY,CHELSEA,AL,35043,"http://maps.google.com/maps?q=150 CHELSEA CORNERS WAY,+CHELSEA,+AL+35043&hl=en"
SIGNAL MOUNTAIN POLICE DEPARTMENT,SIGNAL MOUNTAIN POLICE DEPARTMENT,1111 RIDGEWAY AVENUE,SIGNAL MOUNTAIN,TN,37377,"http://maps.google.com/maps?q=1111 RIDGEWAY AVENUE,+SIGNAL MOUNTAIN,+TN+37377&hl=en"
SODDY DAISY POLICE DEPT.,SODDY DAISY POLICE DEPT,9835 DAYTON,SODDY DAISY,TN,37379,"http://maps.google.com/maps?q=9835 DAYTON,+SODDY DAISY,+TN+37379&hl=en"
SOUTH PALM BEACH POLICE,SOUTH PALM BEACH POLICE DEPT,3577 S OCEAN BLVD,SOUTH PALM BEACH,FL,33480,"http://maps.google.com/maps?q=3577 S OCEAN BLVD,+SOUTH PALM BEACH,+FL+33480&hl=en"
SPRING HILL POLICE DEPARTMENT,B & B PHARMACY,5407 MAIN STREET,SPRING HILL,TN,37174,"http://maps.google.com/maps?q=5407 MAIN STREET,+SPRING HILL,+TN+37174&hl=en"
SPRING HILL POLICE DEPARTMENT,"SPRING HILL POLICE DEPARTMENT 
												
													24/7 ACCESS",199 TOWN CENTER PKWY - LOWER LEVEL,SPRING HILL,TN,37174,"http://maps.google.com/maps?q=199 TOWN CENTER PKWY - LOWER LEVEL,+SPRING HILL,+TN+37174&hl=en"
SUNNY ISLES BEACH POLICE DEPARTMENT,"SUNNY ISLES BEACH POLICE 
												
													HAULOVER PARK - BILL BIRD MARINA",10800 COLLINS AVEBILL BIRD MARINA,NORTH MIAMI BEACH,FL,33160,"http://maps.google.com/maps?q=10800 COLLINS AVE,+NORTH MIAMI BEACH,+FL+33160&hl=en"
TALLAPOOSA COUNTY NARCOTICS TF,WALGREENS PHARMACY,3140 US 280,ALEXANDER CITY,AL,35010,"http://maps.google.com/maps?q=3140 US 280,+ALEXANDER CITY,+AL+35010&hl=en"
THOMASVILLE POLICE DEPARTMENT,WALMART,34301 HIGHWAY 43,THOMASVILLE,AL,36784,"http://maps.google.com/maps?q=34301 HIGHWAY 43,+THOMASVILLE,+AL+36784&hl=en"
TRUSSVILLE POLICE DEPARTMENT,TRUSSVILLE POLICE DEPARTMENT COURT,131 MAIN STREET,TRUSSVILLE,AL,35173,"http://maps.google.com/maps?q=131 MAIN STREET,+TRUSSVILLE,+AL+35173&hl=en"
TULLAHOMA POLICE DEPT,WALGREENS,700 NORTH JACKSON STREET,TULLAHOMA,TN,37388,"http://maps.google.com/maps?q=700 NORTH JACKSON STREET,+TULLAHOMA,+TN+37388&hl=en"
TUPELO POLICE DEPARTMENT,TUPELO POLICE DEPARTMENT,400 NORTH FRONT STREET,TUPELO,MS,38804,"http://maps.google.com/maps?q=400 NORTH FRONT STREET,+TUPELO,+MS+38804&hl=en"
TUSCUMBIA POLICE DEPARTMENT,EXPRESS CARE OF THE SHOALS,1106 NORTH CAVE STREET,TUSCUMBIA,AL,35674,"http://maps.google.com/maps?q=1106 NORTH CAVE STREET,+TUSCUMBIA,+AL+35674&hl=en"
US FEDERAL PROTECTIVE SERVICES,"US ENVIRONMENTAL PROTECTIN AGENCY (EPA) 
												
													COLLECTION IS APRIL 25-27, WEDNESDAY THRU FRIDAY","61 FORSYTH STREET SWATLANTA FEDERAL CENTER, SAM NUNN TOWER",ATLANTA,GA,30303,"http://maps.google.com/maps?q=61 FORSYTH STREET SW,+ATLANTA,+GA+30303&hl=en"
VA MEDICAL CENTER POLICE DEPARTMENT,"BIRMINGHAM VA MEDICAL CENTER 
												
													EMERGENCY ROOM",700 SOUTH 19TH STREET,BIRMINGHAM,AL,35233,"http://maps.google.com/maps?q=700 SOUTH 19TH STREET,+BIRMINGHAM,+AL+35233&hl=en"
VAN BUREN COUNTY SHERIFF DEPARTMENT,VAN BUREN COUNTY JAIL,17 VETERANS SQ.,SPENCER,TN,38585,"http://maps.google.com/maps?q=17 VETERANS SQ.,+SPENCER,+TN+38585&hl=en"
VESTAVIA HILLS POLICE DEPARTMENT,VESTAVIA HILLS POLICE DEPARTMENT,1032 MONTGOMERY HIGHWAY,VESTAVIA HILLS,AL,35216,"http://maps.google.com/maps?q=1032 MONTGOMERY HIGHWAY,+VESTAVIA HILLS,+AL+35216&hl=en"
VESTAVIA HILLS POLICE DEPARTMENT,"VHPD EAST PRECINCT-CAHABA HEIGHTS 
												
													P. D. SUB STATION",3241 CAHABA HEIGHTS RD.,CAHABA HEIGHTS,AL,35243,"http://maps.google.com/maps?q=3241 CAHABA HEIGHTS RD.,+CAHABA HEIGHTS,+AL+35243&hl=en"
WASHINGTON COUNTY SHERIFFS OFFICE,WASHINGTON COUNTY SHERIFFS OFFICE,45 COURT STREET,CHATOM,AL,36518,"http://maps.google.com/maps?q=45 COURT STREET,+CHATOM,+AL+36518&hl=en"
WAUCHULA POLICE DEPARTMENT,HARDEE COUNTY HEALTH DEPARTMENT,115 K.D. REVELL RD,WAUCHULA,FL,33873,"http://maps.google.com/maps?q=115 K.D. REVELL RD,+WAUCHULA,+FL+33873&hl=en"
WAYNE COUNTY SHERIFF'S OFFICE,WAYNE COUNTY SHERIFF,1016 ANDREW JACKSON DR.,WAYNESBORO,TN,38485,"http://maps.google.com/maps?q=1016 ANDREW JACKSON DR.,+WAYNESBORO,+TN+38485&hl=en"
WEST ALABAMA NARCOTICS TF,"ASHLEY FURNITURE 
												
													WEST ALABAMA NARCOTICS TASK FORCE",701 SKYLAND BLVD,TUSCALOOSA,AL,35405,"http://maps.google.com/maps?q=701 SKYLAND BLVD,+TUSCALOOSA,+AL+35405&hl=en"
WEST ALABAMA NARCOTICS TF,CVS,4260 UNIVERISTY BLVD,TUSCALOOSA,AL,35404,"http://maps.google.com/maps?q=4260 UNIVERISTY BLVD,+TUSCALOOSA,+AL+35404&hl=en"
WEST ALABAMA NARCOTICS TF,RITE AID,2300 MCFARLAND BLVD.,NORTHPORT,AL,35476,"http://maps.google.com/maps?q=2300 MCFARLAND BLVD.,+NORTHPORT,+AL+35476&hl=en"
WEST ALABAMA NARCOTICS TF,WALGREENS,8701 HIGHWAY 69 S.,TUSCALOOSA,AL,35405,"http://maps.google.com/maps?q=8701 HIGHWAY 69 S.,+TUSCALOOSA,+AL+35405&hl=en"
WEST ALABAMA NARCOTICS TF,WALMART NEIGHBORHOOD MARKET,4201 HARGROVE RD. E.,TUSCALOOSA,AL,35405,"http://maps.google.com/maps?q=4201 HARGROVE RD. E.,+TUSCALOOSA,+AL+35405&hl=en"
WEST MELBOURNE POLICE DEPARTMENT,WEST MELBOURNE POLICE DEPARTMENT,2290 MINTON ROAD,WEST MELBOURNE,FL,32904,"http://maps.google.com/maps?q=2290 MINTON ROAD,+WEST MELBOURNE,+FL+32904&hl=en"
WEST POINT POLICE DEPARTMENT,SAVE-A-LOT - PARKING LOT,"411 W MAIN ST,",WEST POINT,MS,39773,"http://maps.google.com/maps?q=411 W MAIN ST,,+WEST POINT,+MS+39773&hl=en"
WEST POINT POLICE DEPARTMENT,WAL-MART,HWY 45 N.,WEST POINT,MS,39773,"http://maps.google.com/maps?q=HWY 45 N.,+WEST POINT,+MS+39773&hl=en"
WILCOX COUNTY SHERIFFS DEPARTMENT,WILCOX COUNTY COURTHOUSE,100 BROAD STREET,CAMDEN,AL,36726,"http://maps.google.com/maps?q=100 BROAD STREET,+CAMDEN,+AL+36726&hl=en"
WILTON MANORS POLICE DEPARTMENT,WILTON MANORS POLICE DEPARTMENT,2020 WILTON DRIVE,WILTON MANORS,FL,33305,"http://maps.google.com/maps?q=2020 WILTON DRIVE,+WILTON MANORS,+FL+33305&hl=en"
WINDERMERE POLICE DEPARTMENT,WINDERMERE POLICE DEPARTMENT,620 MAIN ST.,WINDERMERE,FL,34786,"http://maps.google.com/maps?q=620 MAIN ST.,+WINDERMERE,+FL+34786&hl=en"
WINTER GARDEN POLICE DEPARTMENT,WINTER GARDEN POLICE DEPARTMENT,251 WEST PLANT STREET,WINTER GARDEN,FL,34787,"http://maps.google.com/maps?q=251 WEST PLANT STREET,+WINTER GARDEN,+FL+34787&hl=en"
