Participant,CollectionSite,Address,City,State,Zip,MapURL
ALABAMA COUSHATTA POLICE DEPARTMENT,ALABAMA COUSHATTA POLICE DEPARTMENT,571 STATE PARK ROAD 56,LIVINGSTON,TX,77351,"http://maps.google.com/maps?q=571 STATE PARK ROAD 56,+LIVINGSTON,+TX+77351&hl=en"
ALAMO HEIGHTS POLICE DEPARTMENT,ALAMO HEIGHTS POLICE DEPARTMENT,6116 BROADWAY,SAN ANTONIO,TX,78209,"http://maps.google.com/maps?q=6116 BROADWAY,+SAN ANTONIO,+TX+78209&hl=en"
ALEDO ISD PD,VANDAGRIFF ELEMENTARY SCHOOL,408 FM 1187 S,ALEDO,TX,76008,"http://maps.google.com/maps?q=408  FM 1187 S,+ALEDO,+TX+76008&hl=en"
ALLEN POLICE DEPARTMENT,ALLEN CITY HALL,305 CENTURY PARKWAY,ALLEN,TX,75013,"http://maps.google.com/maps?q=305 CENTURY PARKWAY,+ALLEN,+TX+75013&hl=en"
ALLEN POLICE DEPARTMENT,LOWERY FRESHMAN CENTER,601 E. MAIN ST,ALLEN,TX,75002,"http://maps.google.com/maps?q=601 E. MAIN ST,+ALLEN,+TX+75002&hl=en"
ARGYLE POLICE DEPARTMENT,ARGYLE POLICE DEPARTMENT,506 N. HWY 377,ARGYLE,TX,76226,"http://maps.google.com/maps?q=506 N. HWY 377,+ARGYLE,+TX+76226&hl=en"
ARLINGTON PD,ARLINGTON POLICE DEPARTMENT EAST DISTRICT,2001 NEW YORK,ARLINGTON,TX,76010,"http://maps.google.com/maps?q=2001 NEW YORK,+ARLINGTON,+TX+76010&hl=en"
ARLINGTON PD,ARLINGTON POLICE DEPARTMENT NORTH DISTRICT,620 W. DIVISION,ARLINGTON,TX,76011,"http://maps.google.com/maps?q=620 W. DIVISION,+ARLINGTON,+TX+76011&hl=en"
ARLINGTON PD,ARLINGTON POLICE DEPARTMENT SOUTH DISTRICT,1030 S.W. GREEN OAKS BLVD.,ARLINGTON,TX,76017,"http://maps.google.com/maps?q=1030 S.W. GREEN OAKS BLVD.,+ARLINGTON,+TX+76017&hl=en"
ARLINGTON PD,LAKE ARLINGTON BRANCH PUBLIC LIBRARY,4000 W. GREEN OAKS BLVD.,ARLINGTON,TX,76016,"http://maps.google.com/maps?q=4000 W. GREEN OAKS BLVD.,+ARLINGTON,+TX+76016&hl=en"
ATHENS POLICE DEPT,ATHENS PARTNERSHIP CENTER,201 W. CORSICANA ST,ATHENS,TX,75751,"http://maps.google.com/maps?q=201 W. CORSICANA ST,+ATHENS,+TX+75751&hl=en"
AUSTIN POLICE DEPARTMENT,HOUSEHOLD HAZARDOUS WASTE FACILITY,2514 BUSINESS CENTER DRIVE,AUSTIN,TX,78744,"http://maps.google.com/maps?q=2514 BUSINESS CENTER DRIVE,+AUSTIN,+TX+78744&hl=en"
AZLE PD,AZLE PD,613 SOUTHEAST PARKWAY,AZLE,TX,76020,"http://maps.google.com/maps?q=613 SOUTHEAST PARKWAY,+AZLE,+TX+76020&hl=en"
BALCH SPRINGS POLICE DEPARTMENT,BALCH SPRINGS POLICE DEPARTMENT,12500 ELAM ROAD,BALCH SPRINGS,TX,75180,"http://maps.google.com/maps?q=12500 ELAM ROAD,+BALCH SPRINGS,+TX+75180&hl=en"
BANDERA COUNTY SHERIFF'S OFFICE,BANDERA CITY HALL,511 MAIN STREET,BANDERA,TX,78003,"http://maps.google.com/maps?q=511 MAIN STREET,+BANDERA,+TX+78003&hl=en"
BANDERA COUNTY SHERIFF'S OFFICE,LAKEHILLS LIBRARY,7200 FM 1283,LAKEHILLS,TX,78063,"http://maps.google.com/maps?q=7200 FM 1283,+LAKEHILLS,+TX+78063&hl=en"
BARTONVILLE POLICE DEPARTMENT,BARTONVILLE POLICE DEPARTMENT,1941 EAST JETER RD,BARTONVILLE,TX,76226,"http://maps.google.com/maps?q=1941 EAST JETER RD,+BARTONVILLE,+TX+76226&hl=en"
BASTROP COUNTY SHERIFF'S OFFICE,TRACTOR SUPPLY COMPANY,441 TEXAS 71,BASTROP,TX,78602,"http://maps.google.com/maps?q=441 TEXAS 71,+BASTROP,+TX+78602&hl=en"
BAYLOR POLICE DEPARTMENT,BAYLOR POLICE DEPARTMENT,1521 SOUTH 4TH,WACO,TX,76798,"http://maps.google.com/maps?q=1521 SOUTH 4TH,+WACO,+TX+76798&hl=en"
BEDFORD PD,BEDFORD POLICE DEPARTMENT,2121 L. DON DODSON DR.,BEDFORD,TX,76021,"http://maps.google.com/maps?q=2121 L. DON DODSON DR.,+BEDFORD,+TX+76021&hl=en"
BELLMEAD POLICE DEPARTMENT,BELLMEAD POLICE DEPARTMENT,701 MAXFIELD ST.,WACO,TX,76705,"http://maps.google.com/maps?q=701 MAXFIELD ST.,+WACO,+TX+76705&hl=en"
BENBROOK PD,BENBROOK FIRE DEPARTMENT,528 MERCEDES ST,BENBROOK,TX,76126,"http://maps.google.com/maps?q=528 MERCEDES ST,+BENBROOK,+TX+76126&hl=en"
BLUE MOUND PD,BLUE MOUND PD,301 S. BLUE MOUND RD,BLUE MOUND,TX,76131,"http://maps.google.com/maps?q=301 S. BLUE MOUND RD,+BLUE MOUND,+TX+76131&hl=en"
BOERNE POLICE DEPARTMENT,BOERNE POLICE DEPARTMENT,124 OLD SAN ANTONIO ROAD,BOERNE,TX,78006,"http://maps.google.com/maps?q=124 OLD SAN ANTONIO ROAD,+BOERNE,+TX+78006&hl=en"
BOYD POLICE DEPARTMENT,BOYD POLICE DEPARTMENT,731 EAST ROCK ISLAND AVE.,BOYD,TX,76023,"http://maps.google.com/maps?q=731 EAST ROCK ISLAND AVE.,+BOYD,+TX+76023&hl=en"
BRAZOS COUNTY SHERIFF'S OFFICE,BRAZOS COUNTY SHERIFF'S OFFICE UNIVERSITY SERVICES BUILDING,3380 UNIVERSITY DR.,COLLEGE STATION,TX,77845,"http://maps.google.com/maps?q=3380 UNIVERSITY DR.,+COLLEGE STATION,+TX+77845&hl=en"
BRECKENRIDGE PD,PARKING LOT,500 WEST WALKER,BRECKENRIDGE,TX,76424,"http://maps.google.com/maps?q=500 WEST WALKER,+BRECKENRIDGE,+TX+76424&hl=en"
BRENHAM POLICE DEPARTMENT,BRENHAM POLICE DEPARTMENT,1800 LONGWOOD DRIVE,BRENHAM,TX,77833,"http://maps.google.com/maps?q=1800 LONGWOOD DRIVE,+BRENHAM,+TX+77833&hl=en"
BRIDGEPORT PD,STAGECOACH REHAB. CENTER UNDER AWNING OF ENTRANCE,2108 15TH ST / HWY 380,BRIDGEPORT,TX,76426,"http://maps.google.com/maps?q=2108 15TH ST / HWY 380,+BRIDGEPORT,+TX+76426&hl=en"
BUDA POLICE DEPARTMENT,BUDA POLICE DEPARTMENT,100 HOUSTON STREET,BUDA,TX,78610,"http://maps.google.com/maps?q=100 HOUSTON STREET,+BUDA,+TX+78610&hl=en"
BULVERDE CITY HALL,BULVERDE CITY HALL,30360 COUGAR BEND,BULVERDE,TX,78163,"http://maps.google.com/maps?q=30360 COUGAR BEND,+BULVERDE,+TX+78163&hl=en"
BURLESON PD,BURLESON POLICE DEPARTMENT,1161 SW WILSHIRE BLVD,BURLESON,TX,76028,"http://maps.google.com/maps?q=1161 SW WILSHIRE BLVD,+BURLESON,+TX+76028&hl=en"
BURNET COUNTY COURTHOUSE,BURNET COUNTY SHERIFF'S OFFICE,1601 EAST POLK STREET,BURNET,TX,78611,"http://maps.google.com/maps?q=1601 EAST POLK STREET,+BURNET,+TX+78611&hl=en"
CARROLLTON PD,CARROLLTON PD,2025 E JACKSON RD,CARROLLTON,TX,75006,"http://maps.google.com/maps?q=2025 E JACKSON RD,+CARROLLTON,+TX+75006&hl=en"
CARROLLTON PD,HEBRON VALLEY ELEMENTARY SCHOOL,4108 CREEK VALLEY BLVD,CARROLLTON,TX,75010,"http://maps.google.com/maps?q=4108 CREEK VALLEY BLVD,+CARROLLTON,+TX+75010&hl=en"
CEDAR HILL PD,CEDAR HILL ISD PD ADMIN BLDG,504 E. BELTLINE RD,CEDAR HILL,TX,75104,"http://maps.google.com/maps?q=504 E. BELTLINE RD,+CEDAR HILL,+TX+75104&hl=en"
CEDAR PARK POLICE DEPARTMENT,CEDAR PARK POLICE DEPARTMENT,911 QUEST PARKWAY,CEDAR PARK,TX,78613,"http://maps.google.com/maps?q=911 QUEST PARKWAY,+CEDAR PARK,+TX+78613&hl=en"
CELINA POLICE DEPARTMENT,CELINA FIRE DEPARTMENT,1413 S PRESTON RD,CELINA,TX,75009,"http://maps.google.com/maps?q=1413 S PRESTON RD,+CELINA,+TX+75009&hl=en"
CITY OF PATTISON,CITY OF PATTISON,3410 FIRST STREET,PATTISON,TX,77466,"http://maps.google.com/maps?q=3410 FIRST STREET,+PATTISON,+TX+77466&hl=en"
CLEBURNE PD,NOLAN RIVER MALL,1663 W. HENDERSON,CLEBURNE,TX,76033,"http://maps.google.com/maps?q=1663 W. HENDERSON,+CLEBURNE,+TX+76033&hl=en"
COALITION OF SUBSTANCE ABUSE PREVENTION,CHURCH OF CHAMPIONS,12922 CUTTEN RD,HOUSTON,TX,77066,"http://maps.google.com/maps?q=12922 CUTTEN RD,+HOUSTON,+TX+77066&hl=en"
COALITION OF SUBSTANCE ABUSE PREVENTION,COALITION OF SUBSTANCE ABUSE PREVENTION HOUSTON COMMUNITY COLLEGE,1010 WEST SAM HOUSTON PARKWAY NORTH(MAIN ENTRANCE),HOUSTON,TX,77043,"http://maps.google.com/maps?q=1010 WEST SAM HOUSTON PARKWAY NORTH,+HOUSTON,+TX+77043&hl=en"
COLLEYVILLE PD,COLLEYVILLE SENIOR CENTER,2512 GLADE RD,COLLEYVILLE,TX,76034,"http://maps.google.com/maps?q=2512 GLADE RD,+COLLEYVILLE,+TX+76034&hl=en"
COLONY PD,THE COLONY HIGH SCHOOL,4301 BLAIR OAKS,THE COLONY,TX,75056,"http://maps.google.com/maps?q=4301 BLAIR OAKS,+THE COLONY,+TX+75056&hl=en"
COMAL COUNTY SHERIFF'S OFFICE,BULVERDE SPRING BRANCH FIRE DEPARTMENT,353 RODEO DRIVE,SPRING BRANCH,TX,78070,"http://maps.google.com/maps?q=353 RODEO DRIVE,+SPRING BRANCH,+TX+78070&hl=en"
COMAL COUNTY SHERIFF'S OFFICE,COMAL COUNTY SHERIFF'S OFFICE,160 OAK DRIVE,NEW BRAUNFELS,TX,78132,"http://maps.google.com/maps?q=160 OAK DRIVE,+NEW BRAUNFELS,+TX+78132&hl=en"
COMANCHE POLICE DEPARTMENT,BROOKSHIRE'S GROCERY,404 W. CENTRAL AVE.,COMANCHE,TX,76442,"http://maps.google.com/maps?q=404 W. CENTRAL AVE.,+COMANCHE,+TX+76442&hl=en"
CONROE POLICE DEPARTMENT,CONROE POLICE DEPARTMENT,2300 PLANTATION DRIVE,CONROE,TX,77303,"http://maps.google.com/maps?q=2300 PLANTATION DRIVE,+CONROE,+TX+77303&hl=en"
COPPELL POLICE DEPT,COPPELL JUSTICE CENTER,130 TOWN CENTER BLVD,COPPELL,TX,75019,"http://maps.google.com/maps?q=130 TOWN CENTER BLVD,+COPPELL,+TX+75019&hl=en"
COPPERAS COVE POLICE DEPARTMENT,COPPERAS COVE POLICE DEPARTMENT,302 E AVENUE E,COPPERAS COVE,TX,76522,"http://maps.google.com/maps?q=302 E AVENUE E,+COPPERAS COVE,+TX+76522&hl=en"
CORSICANA ISD LAW ENFORCEMENT,FIRST BAPTIST CHURCH CHURCH PARKING,509 W. COLLIN,CORSICANA,TX,75110,"http://maps.google.com/maps?q=509 W. COLLIN,+CORSICANA,+TX+75110&hl=en"
CORYELL COUNTY SHERIFF'S OFFICE,CORYELL COUNTY SHERIFF'S OFFICE,510 LEON STREET,GATESVILLE,TX,76528,"http://maps.google.com/maps?q=510 LEON STREET,+GATESVILLE,+TX+76528&hl=en"
CROWLEY PD,CROWLEY PD,617 BUSINESS FM 1187 W,CROWLEY,TX,76036,"http://maps.google.com/maps?q=617 BUSINESS FM 1187 W,+CROWLEY,+TX+76036&hl=en"
CYFAIR VFD STATION 11,CYFAIR VFD STATION 11,18132 WEST ROAD,CYPRESS,TX,77433,"http://maps.google.com/maps?q=18132 WEST ROAD,+CYPRESS,+TX+77433&hl=en"
DALLAS COUNTY HOSP DIST PD,AMBULATORY SURGERY CENTER,4900 HARRY HINES BLVD,DALLAS,TX,75235,"http://maps.google.com/maps?q=4900 HARRY HINES BLVD,+DALLAS,+TX+75235&hl=en"
DALLAS COUNTY HOSP DIST PD,BLUITT-FLOWERS CENTER,303 E OVERTON RD,DALLAS,TX,75216,"http://maps.google.com/maps?q=303 E OVERTON RD,+DALLAS,+TX+75216&hl=en"
DALLAS COUNTY HOSP DIST PD,DE-HARO-SALDIVAR CENTER,1400 N WESTMORELAND RD,DALLAS,TX,75211,"http://maps.google.com/maps?q=1400 N WESTMORELAND RD,+DALLAS,+TX+75211&hl=en"
DALLAS COUNTY HOSP DIST PD,GARLAND CENTER,802 HOPKINS ST,GARLAND,TX,75040,"http://maps.google.com/maps?q=802 HOPKINS ST,+GARLAND,+TX+75040&hl=en"
DALLAS COUNTY HOSP DIST PD,HATCHER WOMEN'S CENTER,4600 SCYENE RD,DALLAS,TX,75210,"http://maps.google.com/maps?q=4600 SCYENE RD,+DALLAS,+TX+75210&hl=en"
DALLAS COUNTY HOSP DIST PD,SOUTHEAST DALLAS CENTER,9202 ELAM RD,DALLAS,TX,75217,"http://maps.google.com/maps?q=9202 ELAM RD,+DALLAS,+TX+75217&hl=en"
DALLAS POLICE DEPARTMENT,BACHMAN LAKE BRANCH LIBRARY,9480 WEBB CHAPEL RD,DALLAS,TX,75220,"http://maps.google.com/maps?q=9480 WEBB CHAPEL RD,+DALLAS,+TX+75220&hl=en"
DALLAS POLICE DEPARTMENT,DALLAS POLICE SUBSTATION NORTHEAST DIVISION,9915 E NORTHWEST HWY,DALLAS,TX,75238,"http://maps.google.com/maps?q=9915 E NORTHWEST HWY,+DALLAS,+TX+75238&hl=en"
DALLAS POLICE DEPARTMENT,DAN F. LONG MIDDLE SCHOOL,2525 FRANKFORD RD,DALLAS,TX,75287,"http://maps.google.com/maps?q=2525 FRANKFORD RD,+DALLAS,+TX+75287&hl=en"
DALLAS POLICE DEPARTMENT,E.B. COMSTOCK MIDDLE SCHOOL,7044 HODDE STREET,DALLAS,TX,75217,"http://maps.google.com/maps?q=7044 HODDE STREET,+DALLAS,+TX+75217&hl=en"
DALLAS POLICE DEPARTMENT,KATHLYN JOY GILLIAM COLLEGIATE ACADEMY,1700 E. CAMP WISDOM RD.,DALLAS,TX,75241,"http://maps.google.com/maps?q=1700 E. CAMP WISDOM RD.,+DALLAS,+TX+75241&hl=en"
DALLAS POLICE DEPARTMENT,L.V. STOCKARD MIDDLE SCHOOL,2300 S. RAVINIA DR.,DALLAS,TX,75211,"http://maps.google.com/maps?q=2300 S. RAVINIA DR.,+DALLAS,+TX+75211&hl=en"
DALLAS POLICE DEPARTMENT,WOODROW WILSON HIGH SCHOOL,100 S. GLASGOW DR.,DALLAS,TX,75214,"http://maps.google.com/maps?q=100 S. GLASGOW DR.,+DALLAS,+TX+75214&hl=en"
DALLAS SHERIFF'S DEPARTMENT,SOUTH DALLAS GOVERNMENT CENTER,7201 SOUTH POLK,DALLAS,TX,75232,"http://maps.google.com/maps?q=7201 SOUTH POLK,+DALLAS,+TX+75232&hl=en"
DEA MIDLAND,PALMER DRUG ABUSE PROGRAM POLO PARK RETIREMENT CENTER,2100 CASTLEFORD RD.,MIDLAND,TX,79705,"http://maps.google.com/maps?q=2100 CASTLEFORD RD.,+MIDLAND,+TX+79705&hl=en"
DEA SPONSORED,BARTON CREEK SQUARE MALL - PARKING LOT UNIV OF TEXAS-COLLEGE OF PHARMACY,2901 SOUTH CAPITOL OF TEXAS HIGHWAY,AUSTIN,TX,78746,"http://maps.google.com/maps?q=2901 SOUTH CAPITOL OF TEXAS HIGHWAY,+AUSTIN,+TX+78746&hl=en"
DEA SPONSORED,LEGACY HILLS PARK PAVILLION SUN CITY CENTER,200 DEL WEBB BLVD.,GEORGETOWN,TX,78626,"http://maps.google.com/maps?q=200 DEL WEBB BLVD.,+GEORGETOWN,+TX+78626&hl=en"
DEA SPONSORED,MASONIC LODGE,503 S. ANN,BRACKETTVILLE,TX,78832,"http://maps.google.com/maps?q=503 S. ANN,+BRACKETTVILLE,+TX+78832&hl=en"
DEA SPONSORED,TRACTOR SUPPLY COMPANY,421 E. MAIN STREET,UVALDE,TX,78801,"http://maps.google.com/maps?q=421 E. MAIN STREET,+UVALDE,+TX+78801&hl=en"
DEL RIO POLICE DEPARTMENT,DEL RIO CIVIC CENTER,1915 VETERANS BLVD,DEL RIO,TX,78840,"http://maps.google.com/maps?q=1915 VETERANS BLVD,+DEL RIO,+TX+78840&hl=en"
DESOTO POLICE DEPT.,DESOTO POLICE DEPARTMENT,714 E. BELTLINE RD.,DESOTO,TX,75115,"http://maps.google.com/maps?q=714 E. BELTLINE RD.,+DESOTO,+TX+75115&hl=en"
DUNCANVILLE PD,DUNCANVILLE PD,203 E WHEATLAND RD,DUNCANVILLE,TX,75116,"http://maps.google.com/maps?q=203 E WHEATLAND RD,+DUNCANVILLE,+TX+75116&hl=en"
ELGIN POLICE DEPARTMENT,ELGIN POLICE DEPARTMENT,202 DEPOT STREET,ELGIN,TX,78621,"http://maps.google.com/maps?q=202 DEPOT STREET,+ELGIN,+TX+78621&hl=en"
ELLIS COUNTY CONSTABLE'S OFFICE PCT ONE,ENNIS ISD ADMINISTRATION BUILDING,303 KNOX ST,ENNIS,TX,75119,"http://maps.google.com/maps?q=303 KNOX ST,+ENNIS,+TX+75119&hl=en"
ELLIS COUNTY SO,WAXAHACHIE,1000 N HWY 77,WAXAHACHIE,TX,75165,"http://maps.google.com/maps?q=1000 N HWY 77,+WAXAHACHIE,+TX+75165&hl=en"
EVERMAN PD,EVERMAN POLICE DEPARTMENT,404 W ENON AVE,EVERMAN,TX,76140,"http://maps.google.com/maps?q=404 W ENON AVE,+EVERMAN,+TX+76140&hl=en"
FAIRVIEW PD,FAIRVIEW FIRE STATION #1,500 SOUTH STATE HWY 5,FAIRVIEW,TX,75069,"http://maps.google.com/maps?q=500 SOUTH STATE HWY 5,+FAIRVIEW,+TX+75069&hl=en"
FARMERS BRANCH PD,FARMERS BRANCH POLICE DEPT,3723 VALLEY VIEW LANE,FARMERS BRANCH,TX,75244,"http://maps.google.com/maps?q=3723 VALLEY VIEW LANE,+FARMERS BRANCH,+TX+75244&hl=en"
FARMERSVILLE POLICE DEPARTMENT,FARMERSVILLE POLICE DEPT.,134 N. WASHINGTON ST.,FARMERSVILLE,TX,75442,"http://maps.google.com/maps?q=134 N. WASHINGTON ST.,+FARMERSVILLE,+TX+75442&hl=en"
FERRIS POLICE DEPARTMENT,GAZEBO ON THE TOWN SQUARE,100 TOWN PLAZA,FERRIS,TX,75125,"http://maps.google.com/maps?q=100 TOWN PLAZA,+FERRIS,+TX+75125&hl=en"
FLOWER MOUND PD,FLOWER MOUND HIGH SCHOOL,3411 PETERS COLONY,FLOWER MOUND,TX,75022,"http://maps.google.com/maps?q=3411 PETERS COLONY,+FLOWER MOUND,+TX+75022&hl=en"
FLOWER MOUND PD,MARCUS HIGH SCHOOL,5707 MORRISS RD,FLOWER MOUND,TX,75028,"http://maps.google.com/maps?q=5707 MORRISS RD,+FLOWER MOUND,+TX+75028&hl=en"
FORT BEND COUNTY CONSTABLE PCT. 3,CINCO RANCH BRANCH LIBRARY,2620 COMMERCIAL CENTER BLVD,KATY,TX,77494,"http://maps.google.com/maps?q=2620 COMMERCIAL CENTER BLVD,+KATY,+TX+77494&hl=en"
FORT WORTH PD,FORT WORTH PD BOB BOLEN,505 W FELIX ST,FORT WORTH,TX,76115,"http://maps.google.com/maps?q=505 W FELIX ST,+FORT WORTH,+TX+76115&hl=en"
FORT WORTH PD,FORT WORTH PD EAST DIVISION PARKING LOT BY PROP ROOM,3616 E LANCASTER,FORT WORTH,TX,76102,"http://maps.google.com/maps?q=3616 E LANCASTER,+FORT WORTH,+TX+76102&hl=en"
FORT WORTH PD,NORTH DIVISION SECTOR,4651 N. MAIN ST.,FORT WORTH,TX,76106,"http://maps.google.com/maps?q=4651 N. MAIN ST.,+FORT WORTH,+TX+76106&hl=en"
FORT WORTH PD,NORTHWEST DIVISION SECTOR,8755 N. RIVERSIDE DR,FORT WORTH,TX,76244,"http://maps.google.com/maps?q=8755 N. RIVERSIDE DR,+FORT WORTH,+TX+76244&hl=en"
FORT WORTH PD,RIDGMAR MALL N PARKING LOT BY DILLARDS,1888 GREEN OAKS RD,FORT WORTH,TX,76116,"http://maps.google.com/maps?q=1888 GREEN OAKS RD,+FORT WORTH,+TX+76116&hl=en"
FORT WORTH PD,RIVERSIDE COMMUNITY CENTER,3700 E BELKNAP ST,FORT WORTH,TX,76111,"http://maps.google.com/maps?q=3700 E BELKNAP ST,+FORT WORTH,+TX+76111&hl=en"
FREDERICKSBURG POLICE DEPARTMENT,FREDERICKSBURG POLICE DEPARTMENT,1601 EAST MAIN ST.,FREDERICKSBURG,TX,78624,"http://maps.google.com/maps?q=1601 EAST MAIN ST.,+FREDERICKSBURG,+TX+78624&hl=en"
GATESVILLE POLICE DEPARTMENT,GATESVILLE POLICE DEPARTMENT,200 N. 8TH STREET,GATESVILLE,TX,76528,"http://maps.google.com/maps?q=200 N. 8TH STREET,+GATESVILLE,+TX+76528&hl=en"
GLENN HEIGHTS PD,GLENN HEIGHTS POLICE DEPARTMENT,550 E. BEAR CREEK RD.,GLENN HEIGHTS,TX,75154,"http://maps.google.com/maps?q=550 E. BEAR CREEK RD.,+GLENN HEIGHTS,+TX+75154&hl=en"
GRAND PRAIRIE POLICE DEPT.,PUBLIC SAFETY BUILDING,1525 ARKANSAS LANE,GRAND PRAIRIE,TX,75052,"http://maps.google.com/maps?q=1525 ARKANSAS LANE,+GRAND PRAIRIE,+TX+75052&hl=en"
GRAPEVINE POLICE DEPT,GRAPEVINE PD,1007 IRA E WOODS AVE,GRAPEVINE,TX,76051,"http://maps.google.com/maps?q=1007 IRA E WOODS AVE,+GRAPEVINE,+TX+76051&hl=en"
GREENVILLE PD,GREENVILLE PD,3000 LEE STREET,GREENVILLE,TX,75401,"http://maps.google.com/maps?q=3000 LEE STREET,+GREENVILLE,+TX+75401&hl=en"
HARKER HEIGHTS POLICE DEPARTMENT,HARKER HEIGHTS POLICE DEPARTMENT,402 INDIAN TRAIL,HARKER HEIGHTS,TX,76548,"http://maps.google.com/maps?q=402 INDIAN TRAIL,+HARKER HEIGHTS,+TX+76548&hl=en"
HARRIS COUNTY HOUSEHOLD HAZARDOUS COLLECTION FACL.,HARRIS COUNTY HOUSEHOLD HAZARDOUS COLLECTION FACL.,6900 HAHL ROAD,HOUSTON,TX,77040,"http://maps.google.com/maps?q=6900 HAHL ROAD,+HOUSTON,+TX+77040&hl=en"
HARRIS COUNTY SHERIFF'S OFFICE,HARRIS COUNTY SHERIFF'S OFFICE FRANZ ROAD STOREFRONT,19818 FRANZ ROAD,KATY,TX,77449,"http://maps.google.com/maps?q=19818 FRANZ ROAD,+KATY,+TX+77449&hl=en"
HARRIS COUNTY SHERIFF'S OFFICE - ALDINE STOREFRONT,HARRIS COUNTY SHERIFF'S OFFICE ALDINE COMMUNITY STOREFRONT,5202 ALDINE MAIL ROUTE,HOUSTON,TX,77039,"http://maps.google.com/maps?q=5202 ALDINE MAIL ROUTE,+HOUSTON,+TX+77039&hl=en"
HARRIS COUNTY SHERIFF'S OFFICE DISTRICT 5,HARRIS COUNTY SHERIFF'S OFFICE DISTRICT 5,23828 TOMBALL PARKWAY,TOMBALL,TX,77375,"http://maps.google.com/maps?q=23828 TOMBALL PARKWAY,+TOMBALL,+TX+77375&hl=en"
HAYS COUNTY CONSTABLE PRECINCT 3,HAYS COUNTY CONSTABLE PRECINCT 3,200 STILLWATER ROAD,WIMBERLEY,TX,78676,"http://maps.google.com/maps?q=200 STILLWATER ROAD,+WIMBERLEY,+TX+78676&hl=en"
HEWITT POLICE DEPARTMENT,HEWITT POLICE DEPARTMENT,100 PATRIOT COURT,HEWITT,TX,76643,"http://maps.google.com/maps?q=100 PATRIOT COURT,+HEWITT,+TX+76643&hl=en"
HIGHLAND PARK DEPT OF PUBLIC SAFETY,HIGHLAND PARK DPS,4700 DREXEL DR,HIGHLAND PARK,TX,75205,"http://maps.google.com/maps?q=4700 DREXEL DR,+HIGHLAND PARK,+TX+75205&hl=en"
HILLSBORO POLICE DEPARTMENT,HILLSBORO POLICE DEPARTMENT,303 N. WACO STREET,HILLSBORO,TX,76645,"http://maps.google.com/maps?q=303 N. WACO STREET,+HILLSBORO,+TX+76645&hl=en"
HOLLYWOOD PARK POLICE DEPARTMENT,HOLLYWOOD PARK POLICE DEPARTMENT,2 MECCA DRIVE,HOLLYWOOD PARK,TX,78232,"http://maps.google.com/maps?q=2 MECCA DRIVE,+HOLLYWOOD PARK,+TX+78232&hl=en"
HOOD COUNTY SHERIFF'S OFFICE,HOOD COUNTY EOC,401 DEPUTY LARRY MILLER DR,GRANBURY,TX,76048,"http://maps.google.com/maps?q=401 DEPUTY LARRY MILLER DR,+GRANBURY,+TX+76048&hl=en"
HOUSTON POLICE DEPARTMENT METRO PARK N RIDE,HOUSTON POLICE DEPARTMENT METRO PARK N RIDE,3210 W. LAKE HOUSTON PKWY,KINGWOOD,TX,77345,"http://maps.google.com/maps?q=3210 W. LAKE HOUSTON PKWY,+KINGWOOD,+TX+77345&hl=en"
HOUSTON POLICE DEPARTMENT NORTH STATION,HOUSTON POLICE DEPARTMENT NORTH STATION,9455 W. MONTGOMERY RD,HOUSTON,TX,77088,"http://maps.google.com/maps?q=9455 W. MONTGOMERY RD,+HOUSTON,+TX+77088&hl=en"
HUNTSVILLE POLICE DEPARTMENT,HUNTSVILLE POLICE DEPARTMENT HUNTSVILLE HIGH SCHOOL,515 FM 2821 ROAD EAST,HUNTSVILLE,TX,77320,"http://maps.google.com/maps?q=515 FM 2821 ROAD EAST,+HUNTSVILLE,+TX+77320&hl=en"
IRVING POLICE DEPT,IRVING POLICE DEPARTMENT PARKING LOT,305 N O'CONNOR RD,IRVING,TX,75061,"http://maps.google.com/maps?q=305 N O'CONNOR RD,+IRVING,+TX+75061&hl=en"
IRVING POLICE DEPT,IRVING POLICE NORTH STATION PARKING LOT,5992 RIVERSIDE DRIVE,IRVING,TX,75039,"http://maps.google.com/maps?q=5992 RIVERSIDE DRIVE,+IRVING,+TX+75039&hl=en"
ITALY PD,ITALY PD,161 W. MAIN,ITALY,TX,76651,"http://maps.google.com/maps?q=161 W. MAIN,+ITALY,+TX+76651&hl=en"
JACKSBORO PD,JACK COUNTY COURT HOUSE N SIDE,100 N MAIN,JACKSBORO,TX,76458,"http://maps.google.com/maps?q=100 N MAIN,+JACKSBORO,+TX+76458&hl=en"
JACKSONVILLE PD,JACKSONVILLE CHAMBER OF COMMERCE,526 E. COMMERCE ST,JACKSONVILLE,TX,75766,"http://maps.google.com/maps?q=526 E. COMMERCE ST,+JACKSONVILLE,+TX+75766&hl=en"
JERSEY VILLAGE POLICE DEPARTMENT,JERSEY VILLAGE POLICE DEPARTMENT LOBBY,16401 LAKEVIEW DRIVE,JERSEY VILLAGE,TX,77040,"http://maps.google.com/maps?q=16401 LAKEVIEW DRIVE,+JERSEY VILLAGE,+TX+77040&hl=en"
JONESTOWN POLICE DEPARTMENT,JONESTOWN POLICE DEPARTMENT,18304 NORTH PARK DR.,JONESTOWN,TX,78645,"http://maps.google.com/maps?q=18304 NORTH PARK DR.,+JONESTOWN,+TX+78645&hl=en"
KATY ISD POLICE DEPARTMENT,KATY ISD POLICE DEPARTMENT KATY ISD LAW ENFORCEMENT CENTER,20370 FRANZ ROAD,KATY,TX,77449,"http://maps.google.com/maps?q=20370 FRANZ ROAD,+KATY,+TX+77449&hl=en"
KAUFMAN POLICE DEPARTMENT,KAUFMAN HELP CENTER,400 S. TERRELL HWY,KAUFMAN,TX,75142,"http://maps.google.com/maps?q=400 S. TERRELL HWY,+KAUFMAN,+TX+75142&hl=en"
KEENE POLICE DEPARTMENT,ELISA CARVER PARK,705 N. OLD BETSY ROAD,KEENE,TX,76059,"http://maps.google.com/maps?q=705 N. OLD BETSY ROAD,+KEENE,+TX+76059&hl=en"
KELLER POLICE DEPARTMENT,KELLER POLICE DEPARTMENT,330 RUFE SNOW DRIVE,KELLER,TX,76248,"http://maps.google.com/maps?q=330 RUFE SNOW DRIVE,+KELLER,+TX+76248&hl=en"
KEMP POLICE DEPARTMENT,KEMP POLICE DEPARTMENT,100 SOUTH STATE HIGHWAY 274,KEMP,TX,75143,"http://maps.google.com/maps?q=100 SOUTH STATE HIGHWAY 274,+KEMP,+TX+75143&hl=en"
KENNEDALE POLICE DEPT,KENNEDALE POLICE DEPT,401 MUNICIPAL DR,KENNEDALE,TX,76060,"http://maps.google.com/maps?q=401 MUNICIPAL DR,+KENNEDALE,+TX+76060&hl=en"
KERRVILLE POLICE DEPARTMENT,KERRVILLE POLICE DEPARTMENT,429 SIDNEY BAKER,KERRVILLE,TX,78028,"http://maps.google.com/maps?q=429 SIDNEY BAKER,+KERRVILLE,+TX+78028&hl=en"
KILLEEN POLICE DEPARTMENT,KILLEEN POLICE DEPARTMENT,3304 COMMUNITY BLVD.,KILLEEN,TX,76542,"http://maps.google.com/maps?q=3304 COMMUNITY BLVD.,+KILLEEN,+TX+76542&hl=en"
KLEIN ISD POLICE DEPARTMENT,KLEIN ISD POLICE DEPARTMENT,7407 LOUETTA ROAD,SPRING,TX,77379,"http://maps.google.com/maps?q=7407 LOUETTA ROAD,+SPRING,+TX+77379&hl=en"
LA VERNIA POLICE DEPARTMENT,LA VERNIA HIGH SCHOOL,225 BLUEBONNET,LA VERNIA,TX,78121,"http://maps.google.com/maps?q=225 BLUEBONNET,+LA VERNIA,+TX+78121&hl=en"
LACY LAKEVIEW POLICE DEPARTMENT,LACY LAKEVIEW POLICE DEPARTMENT,503 E. CRAVEN AVE.,WACO,TX,76705,"http://maps.google.com/maps?q=503 E. CRAVEN AVE.,+WACO,+TX+76705&hl=en"
LAKE DALLAS POLICE DEPARTMENT,LAKE DALLAS POLICE DEPARTMENT,212 MAIN ST,LAKE DALLAS,TX,75065,"http://maps.google.com/maps?q=212 MAIN ST,+LAKE DALLAS,+TX+75065&hl=en"
LAKEWAY POLICE DEPARTMENT/BEE CAVE POLICE DEPT.,LAKEWAY POLICE DEPARTMENT,104 CROSS CREEK,LAKEWAY,TX,78734,"http://maps.google.com/maps?q=104 CROSS CREEK,+LAKEWAY,+TX+78734&hl=en"
LAMPASAS POLICE DEPARTMENT,LAMPASAS POLICE DEPARTMENT,301 EAST 4TH STREET,LAMPASAS,TX,76550,"http://maps.google.com/maps?q=301 EAST 4TH STREET,+LAMPASAS,+TX+76550&hl=en"
LAVON PD,LAVON PD,501 B. LINCOLN AVE,LAVON,TX,75166,"http://maps.google.com/maps?q=501 B. LINCOLN AVE,+LAVON,+TX+75166&hl=en"
LEANDER POLICE DEPARTMENT-WILLIAMSON,LEANDER POLICE DEPARTMENT,705 LEANDER DRIVE,LEANDER,TX,78641,"http://maps.google.com/maps?q=705 LEANDER DRIVE,+LEANDER,+TX+78641&hl=en"
LEON VALLEY POLICE DEPARTMENT,LEON VALLEY POLICE DEPARTMENT,6400 EL VERDE,LEON VALLEY,TX,78238,"http://maps.google.com/maps?q=6400 EL VERDE,+LEON VALLEY,+TX+78238&hl=en"
LEWISVILLE PD,LEWISVILLE HIGH SCHOOL,1098 W. MAIN STREET,LEWISVILLE,TX,75067,"http://maps.google.com/maps?q=1098 W. MAIN STREET,+LEWISVILLE,+TX+75067&hl=en"
LITTLE ELM PD,LITTLE ELM PUBLIC SAFETY CENTER,88 W. ELDORADO PKWY,LITTLE ELM,TX,75068,"http://maps.google.com/maps?q=88 W. ELDORADO PKWY,+LITTLE ELM,+TX+75068&hl=en"
LIVE OAK POLICE DEPARTMENT,LIVE OAK POLICE DEPARTMENT,8022 SHIN OAK,LIVE OAK,TX,78233,"http://maps.google.com/maps?q=8022 SHIN OAK,+LIVE OAK,+TX+78233&hl=en"
LORENA POLICE DEPARTMENT,LORENA POLICE DEPARTMENT,100 N. BORDON ST.,LORENA,TX,76655,"http://maps.google.com/maps?q=100 N. BORDON ST.,+LORENA,+TX+76655&hl=en"
MANOR POLICE DEPARTMENT,MANOR POLICE DEPARTMENT,402 WEST PARSONS ST.,MANOR,TX,78653,"http://maps.google.com/maps?q=402 WEST PARSONS ST.,+MANOR,+TX+78653&hl=en"
MANSFIELD PD,MANSFIELD POLICE DEPARTMENT,1305 E. BROAD ST,MANSFIELD,TX,76063,"http://maps.google.com/maps?q=1305 E. BROAD ST,+MANSFIELD,+TX+76063&hl=en"
MARBLE FALLS POLICE DEPARTMENT,MARBLE FALLS POLICE DEPARTMENT,606 AVENUE N,MARBLE FALLS,TX,78654,"http://maps.google.com/maps?q=606 AVENUE N,+MARBLE FALLS,+TX+78654&hl=en"
MAYPEARL PD,MAYPEARL PD,104 E. SECOND,MAYPEARL,TX,76064,"http://maps.google.com/maps?q=104 E. SECOND,+MAYPEARL,+TX+76064&hl=en"
MCKINNEY PD,MCKINNEY PUBLIC SAFETY BUILDING,2200 TAYLOR BURK DR,MCKINNEY,TX,75071,"http://maps.google.com/maps?q=2200 TAYLOR BURK DR,+MCKINNEY,+TX+75071&hl=en"
MELISSA POLICE DEPARTMENT,MELISSA POLICE DEPARTMENT 2ND FLOOR OF CITY HALL,3411 BARKER AVE,MELISSA,TX,75454,"http://maps.google.com/maps?q=3411 BARKER AVE,+MELISSA,+TX+75454&hl=en"
MESQUITE POLICE DEPARTMENT,MESQUITE POLICE DEPARTMENT,777 N. GALLOWAY,MESQUITE,TX,75149,"http://maps.google.com/maps?q=777 N. GALLOWAY,+MESQUITE,+TX+75149&hl=en"
MIDLOTHIAN PD,ACE HARDWARE PARKING LOT,530 E. MAIN,MIDLOTHIAN,TX,76065,"http://maps.google.com/maps?q=530 E. MAIN,+MIDLOTHIAN,+TX+76065&hl=en"
MILFORD PD,MILFORD PD,107 S. MAIN,MILFORD,TX,76670,"http://maps.google.com/maps?q=107 S. MAIN,+MILFORD,+TX+76670&hl=en"
MILLS COUNTY SHERIFF'S OFFICE,MILLS COUNTY LAW ENFORCEMENT CENTER,2111 PRIDY RD.,GOLDTHWAITE,TX,76844,"http://maps.google.com/maps?q=2111 PRIDY RD.,+GOLDTHWAITE,+TX+76844&hl=en"
MINERAL WELLS PD,MINERAL WELLS PD,212 SOUTH OAK AVE,MINERAL WELLS,TX,76067,"http://maps.google.com/maps?q=212 SOUTH OAK AVE,+MINERAL WELLS,+TX+76067&hl=en"
MONTGOMERY COUNTY ISD POLICE DEPARTMENT,MONTGOMERY COUNTY ISD POLICE DEPT.,22825 HWY 105 W.,MONTGOMERY,TX,77356,"http://maps.google.com/maps?q=22825 HWY 105 W.,+MONTGOMERY,+TX+77356&hl=en"
MONTGOMERY COUNTY PRECINCT 4 CONSTABLE'S OFFICE,MONTGOMERY COUNTY PRECINCT 4 CONSTABLE'S OFFICE MONTGOMERY COUNTY ANNEX BUILDING,21130 US HWY 59,NEW CANEY,TX,77357,"http://maps.google.com/maps?q=21130 US HWY 59,+NEW CANEY,+TX+77357&hl=en"
MONTGOMERY COUNTY SHERIFF'S OFFICE,THE WOODLANDS TOWNSHIP TOWN HALL (FRONT PARKING LOT),2801 TECHNOLOGY FOREST BOULEVARD,THE WOODLANDS,TX,77381,"http://maps.google.com/maps?q=2801 TECHNOLOGY FOREST BOULEVARD,+THE WOODLANDS,+TX+77381&hl=en"
MURPHY PD,MURPHY PD,206 N. MURPHY RD,MURPHY,TX,75094,"http://maps.google.com/maps?q=206 N. MURPHY RD,+MURPHY,+TX+75094&hl=en"
NACOGDOCHES COUNTY SHERIFF'S OFFICE,NACOGDOCHES COUNTY SHERIFF'S OFFICE,2306 DOUGLASS HIGHWAY,NACOGDOCHES,TX,75964,"http://maps.google.com/maps?q=2306 DOUGLASS HIGHWAY,+NACOGDOCHES,+TX+75964&hl=en"
NAVASOTA POLICE DEPARTMENT,NAVASOTA POLICE DEPARTMENT,200 BLOCK OF HOLLAND STREET,NAVASOTA,TX,77868,"http://maps.google.com/maps?q=200 BLOCK OF HOLLAND STREET,+NAVASOTA,+TX+77868&hl=en"
NEW BRAUNFELS POLICE DEPARTMENT,NEW BRAUNFELS POLICE DEPARTMENT,355 FM 306,NEW BRAUNFELS,TX,78130,"http://maps.google.com/maps?q=355 FM 306,+NEW BRAUNFELS,+TX+78130&hl=en"
NEW BRAUNFELS UTILITIES,NEW BRAUNFELS UTILITIES,263 MAIN PLAZA,NEW BRAUNFELS,TX,78130,"http://maps.google.com/maps?q=263 MAIN PLAZA,+NEW BRAUNFELS,+TX+78130&hl=en"
NOLANVILLE POLICE DEPARTMENT,NOLANVILLE POLICE DEPARTMENT,101 N. FIFTH STREET,NOLANVILLE,TX,76559,"http://maps.google.com/maps?q=101 N. FIFTH STREET,+NOLANVILLE,+TX+76559&hl=en"
OVILLA POLICE DEPARTMENT,OVILLA POLICE DEPARTMENT,105 S. COCKRELL HILL,OVILLA,TX,75154,"http://maps.google.com/maps?q=105 S. COCKRELL HILL,+OVILLA,+TX+75154&hl=en"
PALMER POLICE DEPARTMENT,PALMER CITY HALL,113 W JEFFERSON,PALMER,TX,75152,"http://maps.google.com/maps?q=113 W JEFFERSON,+PALMER,+TX+75152&hl=en"
PARKER PD,PARKER PD PARKING LOT,5700 E PARKER ROAD,PARKER,TX,75002,"http://maps.google.com/maps?q=5700 E PARKER ROAD,+PARKER,+TX+75002&hl=en"
PLANO POLICE DEPARTMENT,CLARK HIGH SCHOOL,523 W SPRING CREEK PARKWAY,PLANO,TX,75023,"http://maps.google.com/maps?q=523 W SPRING CREEK PARKWAY,+PLANO,+TX+75023&hl=en"
PLANO POLICE DEPARTMENT,PLANO EAST SENIOR HIGH,3000 LOS RIOS BLVD,PLANO,TX,75074,"http://maps.google.com/maps?q=3000 LOS RIOS BLVD,+PLANO,+TX+75074&hl=en"
PLANO POLICE DEPARTMENT,PLANO SENIOR HIGH,2200 INDEPENDENCE PARKWAY,PLANO,TX,75075,"http://maps.google.com/maps?q=2200 INDEPENDENCE PARKWAY,+PLANO,+TX+75075&hl=en"
PLANO POLICE DEPARTMENT,PLANO WEST SENIOR HIGH SCHOOL,5601 WEST PARKER ROAD,PLANO,TX,75093,"http://maps.google.com/maps?q=5601 WEST PARKER ROAD,+PLANO,+TX+75093&hl=en"
PONDER POLICE DEPARTMENT,BETTY FOSTER LIBRARY,405 SHAFFNER,PONDER,TX,76259,"http://maps.google.com/maps?q=405 SHAFFNER,+PONDER,+TX+76259&hl=en"
PRINCETON POLICE DEPARTMENT,PRINCETON POLICE DEPARTMENT,306 MAIN ST.,PRINCETON,TX,75407,"http://maps.google.com/maps?q=306 MAIN ST.,+PRINCETON,+TX+75407&hl=en"
RED OAK PD,RED OAK PD,547 N METHODIST ST,RED OAK,TX,75154,"http://maps.google.com/maps?q=547 N METHODIST ST,+RED OAK,+TX+75154&hl=en"
RICHARDSON POLICE DEPT,RICHARDSON CIVIC CENTER/SOUTH PARKING LOT,411 WEST ARAPAHO ROAD,RICHARDSON,TX,75080,"http://maps.google.com/maps?q=411 WEST ARAPAHO ROAD,+RICHARDSON,+TX+75080&hl=en"
RICHLAND COLLEGE,RICHLAND COLLEGE D LOT,12800 ABRAMS RD,DALLAS,TX,75243,"http://maps.google.com/maps?q=12800 ABRAMS RD,+DALLAS,+TX+75243&hl=en"
RICHLAND COLLEGE,RICHLAND COLLEGE GARLAND CAMPUS NORTHWEST PARKING LOT,675 W WALNUT ST,DALLAS,TX,75240,"http://maps.google.com/maps?q=675 W WALNUT ST,+DALLAS,+TX+75240&hl=en"
RICHLAND HILLS PD,RICHLAND HILLS FD,3201 DIANA DRIVE,RICHLAND HILLS,TX,76118,"http://maps.google.com/maps?q=3201 DIANA DRIVE,+RICHLAND HILLS,+TX+76118&hl=en"
ROANOKE PD,ROANOKE PD,609 DALLAS DR,ROANOKE,TX,76262,"http://maps.google.com/maps?q=609 DALLAS DR,+ROANOKE,+TX+76262&hl=en"
ROCKWALL POLICE DEPARTMENT,ROCKWALL POLICE COMMUNITY SERVICES,1113 RIDGE ROAD,ROCKWALL,TX,75087,"http://maps.google.com/maps?q=1113 RIDGE ROAD,+ROCKWALL,+TX+75087&hl=en"
ROUND ROCK POLICE DEPARTMENT,ROUND ROCK POLICE DEPARTMENT,2701 NORTH MAYS,ROUND ROCK,TX,78665,"http://maps.google.com/maps?q=2701 NORTH MAYS,+ROUND ROCK,+TX+78665&hl=en"
ROWLETT POLICE DEPT,ROWLETT COMMUNITY CENTER,5300 MAIN ST,ROWLETT,TX,75088,"http://maps.google.com/maps?q=5300 MAIN ST,+ROWLETT,+TX+75088&hl=en"
SANSOM PARK POLICE,SANSOM PARK FIRE STATION,5500 BUCHANAN ST,SANSOM PARK,TX,76114,"http://maps.google.com/maps?q=5500 BUCHANAN ST,+SANSOM PARK,+TX+76114&hl=en"
SCHERTZ POLICE DEPARTMENT,SCHERTZ POLICE DEPARTMENT,1400 SCHERTZ PARKWAY,SCHERTZ,TX,78154,"http://maps.google.com/maps?q=1400 SCHERTZ PARKWAY,+SCHERTZ,+TX+78154&hl=en"
SCHLEICHER COUNTY SHERIFF'S OFFICE,ELDORADO SERVICE CENTER,400 WEST MURCHISON,ELDORADO,TX,76936,"http://maps.google.com/maps?q=400 WEST MURCHISON,+ELDORADO,+TX+76936&hl=en"
SEAGOVILLE PD,BROOKSHIRES FOOD PARKING LOT,125 HALL ST,SEAGOVILLE,TX,75159,"http://maps.google.com/maps?q=125 HALL ST,+SEAGOVILLE,+TX+75159&hl=en"
SEALY POLICE DEPARTMENT,SEALY POLICE DEPARTMENT,1320 REXVILLE ROAD,SEALY,TX,77474,"http://maps.google.com/maps?q=1320 REXVILLE ROAD,+SEALY,+TX+77474&hl=en"
SHAVANO PARK POLICE DEPARTMENT,SHAVANO PARK POLICE DEPARTMENT,900 SADDLETREE COURT,SHAVANO PARK,TX,78231,"http://maps.google.com/maps?q=900 SADDLETREE COURT,+SHAVANO PARK,+TX+78231&hl=en"
SHENANDOAH POLICE DEPARTMENT,SHENANDOAH POLICE DEPARTMENT SHENANDOAH CITY HALL,29955 IH-45 NORTH,SHENANDOAH,TX,77381,"http://maps.google.com/maps?q=29955 IH-45 NORTH,+SHENANDOAH,+TX+77381&hl=en"
SOUTHLAKE PD,SOUTHLAKE PD,600 STATE ST,SOUTHLAKE,TX,76092,"http://maps.google.com/maps?q=600 STATE ST,+SOUTHLAKE,+TX+76092&hl=en"
SPRING ISD POLICE DEPARTMENT,SPRING ISD POLICE DEPARTMENT,210 NORTH FOREST BOULEVARD,HOUSTON,TX,77090,"http://maps.google.com/maps?q=210 NORTH FOREST BOULEVARD,+HOUSTON,+TX+77090&hl=en"
TARRANT COUNTY SHERIFF'S DEPARTMENT,NORTH PATROL,6651 LAKE WORTH BLVD.,FORT WORTH,TX,76135,"http://maps.google.com/maps?q=6651 LAKE WORTH BLVD.,+FORT WORTH,+TX+76135&hl=en"
TARRANT COUNTY SHERIFF'S DEPARTMENT,TARRANT COUNTY CORRECTIONS CENTER MAIN LOBBY,100 N. LAMAR,FORT WORTH,TX,76196,"http://maps.google.com/maps?q=100 N. LAMAR,+FORT WORTH,+TX+76196&hl=en"
TAYLOR POLICE DEPARTMENT,CITY HALL PARKING LOT,400 PORTER,TAYLOR,TX,76574,"http://maps.google.com/maps?q=400 PORTER,+TAYLOR,+TX+76574&hl=en"
TEMPLE POLICE DEPARTMENT,TEMPLE POLICE DEPARTMENT,209 E. AVE. A,TEMPLE,TX,76501,"http://maps.google.com/maps?q=209 E. AVE. A,+TEMPLE,+TX+76501&hl=en"
TERRELL POLICE DEPARTMENT,TERRELL POLICE DEPARTMENT HEADQUARTERS,1100 N SH 34,TERRELL,TX,75160,"http://maps.google.com/maps?q=1100 N SH 34,+TERRELL,+TX+75160&hl=en"
TEXAS A&M,TEXAS A&M,ONE UNIVERSITY WAY,SAN ANTONIO,TX,78224,"http://maps.google.com/maps?q=ONE UNIVERSITY WAY,+SAN ANTONIO,+TX+78224&hl=en"
TRAVIS COUNTY CONSTABLE - PRECINCT 5,TRAVIS COUNTY CONSTABLE - PRECINCT 5,1003 GUADALUPE STREET,AUSTIN,TX,78701,"http://maps.google.com/maps?q=1003 GUADALUPE STREET,+AUSTIN,+TX+78701&hl=en"
TRAVIS COUNTY CONSTABLE PRECINCT 1,TRAVIS COUNTY CONSTABLE - PRECINCT 1,"4717 HEFLIN LANE, SUITE 127",AUSTIN,TX,78721,"http://maps.google.com/maps?q=4717 HEFLIN LANE, SUITE 127,+AUSTIN,+TX+78721&hl=en"
TRAVIS COUNTY CONSTABLE PRECINCT 2,THE HILLS OF LAKEWAY,TWO CLUBS ESTATES PARKWAY,AUSTIN,TX,78738,"http://maps.google.com/maps?q=TWO CLUBS ESTATES PARKWAY,+AUSTIN,+TX+78738&hl=en"
TRAVIS COUNTY CONSTABLE PRECINCT 2,TRAVIS COUNTY CONSTABLE PRECINCT 2,10409 BURNETT ROAD,AUSTIN,TX,78758,"http://maps.google.com/maps?q=10409 BURNETT ROAD,+AUSTIN,+TX+78758&hl=en"
TRAVIS COUNTY CONSTABLE PRECINCT 3,TRAVIS COUNTY CONSTABLE PRECINCT 3,"8656 HWY 71, SUITE 132",AUSTIN,TX,78735,"http://maps.google.com/maps?q=8656 HWY 71, SUITE 132,+AUSTIN,+TX+78735&hl=en"
TRAVIS COUNTY CONSTABLE PRECINCT 4,TRAVIS COUNTY CONSTABLE PRECINCT 4,4011 MCKINNEY FALLS PARKWAY #1100,AUSTIN,TX,78744,"http://maps.google.com/maps?q=4011 MCKINNEY FALLS PARKWAY #1100,+AUSTIN,+TX+78744&hl=en"
TROPHY CLUB PD,TROPHY CLUB POLICE DEPT LOBBY,ONE TROPHY WOOD DRIVE,TROPHY CLUB,TX,76262,"http://maps.google.com/maps?q=ONE TROPHY WOOD DRIVE,+TROPHY CLUB,+TX+76262&hl=en"
TYLER POLICE DEPARTMENT,BROADWAY SQUARE MALL,4601 S BROADWAY,TYLER,TX,75703,"http://maps.google.com/maps?q=4601 S BROADWAY,+TYLER,+TX+75703&hl=en"
U.T. HEALTH SCIENCE CENTER AT TYLER,U.T. HEALTH SCIENCE CENTER AT TYLER,11937 US HWY 271,TYLER,TX,75708,"http://maps.google.com/maps?q=11937 US HWY 271,+TYLER,+TX+75708&hl=en"
UNIVERSITY OF NORTH TEXAS POLICE DEPARTMENT,UNT WILLIS LIBRARY,1506 W. HIGHLAND ST.,DENTON,TX,76201,"http://maps.google.com/maps?q=1506 W. HIGHLAND ST.,+DENTON,+TX+76201&hl=en"
UNIVERSITY PARK POLICE DEPT,UNIVERSITY PARK PD,3800 UNIVERSITY BLVD,DALLAS,TX,75205,"http://maps.google.com/maps?q=3800 UNIVERSITY BLVD,+DALLAS,+TX+75205&hl=en"
WACO POLICE DEPARTMENT,WACO POLICE DEPARTMENT,3115 PINE AVENUE,WACO,TX,76701,"http://maps.google.com/maps?q=3115 PINE AVENUE,+WACO,+TX+76701&hl=en"
WATAUGA PD,WATAUGA PD,7101 WHITLEY RD,WATAUGA,TX,76148,"http://maps.google.com/maps?q=7101 WHITLEY RD,+WATAUGA,+TX+76148&hl=en"
WEATHERFORD COLLEGE PD,WEATHERFORD COLLEGE PD PARKING LOT IN FRONT OF CAMPUS PD,225 COLLEGE PARK DR,WEATHERFORD,TX,76086,"http://maps.google.com/maps?q=225 COLLEGE PARK DR,+WEATHERFORD,+TX+76086&hl=en"
WEATHERFORD POLICE DEPARTMENT,WEATHERFORD NINTH GRADE CENTER,1007 S. MAIN ST,WEATHERFORD,TX,76086,"http://maps.google.com/maps?q=1007 S. MAIN ST,+WEATHERFORD,+TX+76086&hl=en"
WHITE SETTLEMENT PD,WHITE SETTLEMENT SENIOR SERVICES CTR,8211 WHITE SETTLEMENT RD,FORT WORTH,TX,76108,"http://maps.google.com/maps?q=8211 WHITE SETTLEMENT RD,+FORT WORTH,+TX+76108&hl=en"
WILLIAMSON COUNTY SHERIFF'S OFFICE,WILCO CENTRAL MAINTENANCE FACILITY,3151 SE INNER LOOP,GEORGETOWN,TX,78626,"http://maps.google.com/maps?q=3151 SE INNER LOOP,+GEORGETOWN,+TX+78626&hl=en"
WOODWAY PUBLIC SAFETY DEPARTMENT,WOODWAY PUBLIC SAFETY DEPARTMENT,920 ESTATES DRIVE,WOODWAY,TX,76712,"http://maps.google.com/maps?q=920 ESTATES DRIVE,+WOODWAY,+TX+76712&hl=en"
WYLIE PD,WYLIE POLICE DEPT,2000 N HWY 78,WYLIE,TX,75098,"http://maps.google.com/maps?q=2000 N HWY 78,+WYLIE,+TX+75098&hl=en"
