Participant,CollectionSite,Address,City,State,Zip,MapURL
ALABAMA COUSHATTA POLICE DEPARTMENT,ALABAMA COUSHATTA POLICE DEPARTMENT,571 STATE PARK ROAD 56,LIVINGSTON,TX,77351,"http://maps.google.com/maps?q=571 STATE PARK ROAD 56,+LIVINGSTON,+TX+77351&hl=en"
ANGELINA COUNTY SHERRIFF'S OFFICE,ANGELINA COUNTY SHERRIFF'S OFFICE,2311 E. LUFKIN AVENUE,LUFKIN,TX,75901,"http://maps.google.com/maps?q=2311 E. LUFKIN AVENUE,+LUFKIN,+TX+75901&hl=en"
AUSTIN POLICE DEPARTMENT,HOUSEHOLD HAZARDOUS WASTE FACILITY,2514 BUSINESS CENTER DRIVE,AUSTIN,TX,78744,"http://maps.google.com/maps?q=2514 BUSINESS CENTER DRIVE,+AUSTIN,+TX+78744&hl=en"
BASTROP COUNTY SHERIFF'S OFFICE,TRACTOR SUPPLY COMPANY,441 TEXAS 71,BASTROP,TX,78602,"http://maps.google.com/maps?q=441 TEXAS 71,+BASTROP,+TX+78602&hl=en"
BAYLOR POLICE DEPARTMENT,BAYLOR POLICE DEPARTMENT,1521 SOUTH 4TH,WACO,TX,76798,"http://maps.google.com/maps?q=1521 SOUTH 4TH,+WACO,+TX+76798&hl=en"
BAYTOWN POLICE DEPARTMENT,BAYTOWN POLICE DEPARTMENT,3200 NORTH MAIN STREET,BAYTOWN,TX,77521,"http://maps.google.com/maps?q=3200 NORTH MAIN STREET,+BAYTOWN,+TX+77521&hl=en"
BEAUMONT ROGERS PARK,ROGERS PARK,1455 DOWLEN ROAD,BEAUMONT,TX,77706,"http://maps.google.com/maps?q=1455 DOWLEN ROAD,+BEAUMONT,+TX+77706&hl=en"
BEAUREGARD PARISH SHERIFF'S DEPARTMENT,BEAUREGARD PARISH SHERIFF'S DEPARTMENT,412 BOLIVAR BISHOP DRIVE,DERIDDER,LA,70634,"http://maps.google.com/maps?q=412 BOLIVAR BISHOP DRIVE,+DERIDDER,+LA+70634&hl=en"
BEAUREGARD PARISH SHERIFF'S OFFICE,BEAUREGARD S.O,412 BOLIVER DISHOP DR.,DERIDDER,LA,70634,"http://maps.google.com/maps?q=412 BOLIVER DISHOP DR.,+DERIDDER,+LA+70634&hl=en"
BELLAIRE POLICE DEPARTMENT,BELLAIRE POLICE DEPARTMENT,7008 SOUTH RICE AVENUE,BELLAIRE,TX,77401,"http://maps.google.com/maps?q=7008 SOUTH RICE AVENUE,+BELLAIRE,+TX+77401&hl=en"
BELLMEAD POLICE DEPARTMENT,BELLMEAD POLICE DEPARTMENT,701 MAXFIELD ST.,WACO,TX,76705,"http://maps.google.com/maps?q=701 MAXFIELD ST.,+WACO,+TX+76705&hl=en"
"BRAZORIA COUNTY CONSTABLE, PRECINCT 3",BRAZORIA COUNTY CONSTABLE PRECINCT 3 ALVIN POLICE DEPARTMENT,1500 SOUTH GORDON STREET,ALVIN,TX,77511,"http://maps.google.com/maps?q=1500 SOUTH GORDON STREET,+ALVIN,+TX+77511&hl=en"
"BRAZORIA COUNTY CONSTABLE, PRECINCT 3",STELLA ROBERTS RECYCLING CENTER,5800 MAGNOLIA,PEARLAND,TX,77584,"http://maps.google.com/maps?q=5800 MAGNOLIA,+PEARLAND,+TX+77584&hl=en"
BRAZOS COUNTY SHERIFF'S OFFICE,BRAZOS COUNTY SHERIFF'S OFFICE UNIVERSITY SERVICES BUILDING,3380 UNIVERSITY DR.,COLLEGE STATION,TX,77845,"http://maps.google.com/maps?q=3380 UNIVERSITY DR.,+COLLEGE STATION,+TX+77845&hl=en"
BRENHAM POLICE DEPARTMENT,BRENHAM POLICE DEPARTMENT,1800 LONGWOOD DRIVE,BRENHAM,TX,77833,"http://maps.google.com/maps?q=1800 LONGWOOD DRIVE,+BRENHAM,+TX+77833&hl=en"
BUDA POLICE DEPARTMENT,BUDA POLICE DEPARTMENT,100 HOUSTON STREET,BUDA,TX,78610,"http://maps.google.com/maps?q=100 HOUSTON STREET,+BUDA,+TX+78610&hl=en"
BURNET COUNTY COURTHOUSE,BURNET COUNTY SHERIFF'S OFFICE,1601 EAST POLK STREET,BURNET,TX,78611,"http://maps.google.com/maps?q=1601 EAST POLK STREET,+BURNET,+TX+78611&hl=en"
CEDAR PARK POLICE DEPARTMENT,CEDAR PARK POLICE DEPARTMENT,911 QUEST PARKWAY,CEDAR PARK,TX,78613,"http://maps.google.com/maps?q=911 QUEST PARKWAY,+CEDAR PARK,+TX+78613&hl=en"
CITY OF PATTISON,CITY OF PATTISON,3410 FIRST STREET,PATTISON,TX,77466,"http://maps.google.com/maps?q=3410 FIRST STREET,+PATTISON,+TX+77466&hl=en"
CITY OF WEBSTER FIRE STATION,CITY OF WEBSTER FIRE STATION,18300 HIGHWAY 3,WEBSTER,TX,77598,"http://maps.google.com/maps?q=18300 HIGHWAY 3,+WEBSTER,+TX+77598&hl=en"
COALITION OF SUBSTANCE ABUSE PREVENTION,CHURCH OF CHAMPIONS,12922 CUTTEN RD,HOUSTON,TX,77066,"http://maps.google.com/maps?q=12922 CUTTEN RD,+HOUSTON,+TX+77066&hl=en"
COALITION OF SUBSTANCE ABUSE PREVENTION,COALITION OF SUBSTANCE ABUSE PREVENTION HOUSTON COMMUNITY COLLEGE,1010 WEST SAM HOUSTON PARKWAY NORTH(MAIN ENTRANCE),HOUSTON,TX,77043,"http://maps.google.com/maps?q=1010 WEST SAM HOUSTON PARKWAY NORTH,+HOUSTON,+TX+77043&hl=en"
COLORADO COUNTY SHERIFF'S DEPARTMENT,COLORADO COUNTY SHERIFF'S DEPARTMENT,2215 WALNUT,COLUMBUS,TX,78934,"http://maps.google.com/maps?q=2215 WALNUT,+COLUMBUS,+TX+78934&hl=en"
COLORADO COUNTY SHERIFF'S DEPARTMENT,EAGLE LAKE POLICE DEPARTMENT,200 EAST POST OFFICE,EAGLE LAKE,TX,77434,"http://maps.google.com/maps?q=200 EAST POST OFFICE,+EAGLE LAKE,+TX+77434&hl=en"
COLORADO COUNTY SHERIFF'S DEPARTMENT,WEIMAR CITY HALL,106 EAST MAIN,WEIMAR,TX,78962,"http://maps.google.com/maps?q=106 EAST MAIN,+WEIMAR,+TX+78962&hl=en"
COMAL COUNTY SHERIFF'S OFFICE,COMAL COUNTY SHERIFF'S OFFICE,160 OAK DRIVE,NEW BRAUNFELS,TX,78132,"http://maps.google.com/maps?q=160 OAK DRIVE,+NEW BRAUNFELS,+TX+78132&hl=en"
CONROE POLICE DEPARTMENT,CONROE POLICE DEPARTMENT,2300 PLANTATION DRIVE,CONROE,TX,77303,"http://maps.google.com/maps?q=2300 PLANTATION DRIVE,+CONROE,+TX+77303&hl=en"
CORPUS CHRISTI FIRE DEPARTMENT,CORPUS CHRISTI FIRE DEPARTMENT,3722 S. STAPLES STREET,CORPUS CHRISTI,TX,78411,"http://maps.google.com/maps?q=3722 S. STAPLES STREET,+CORPUS CHRISTI,+TX+78411&hl=en"
CORPUS CHRISTI FIRE DEPARTMENT,CORPUS CHRISTI FIRE STATION,5901 S. STAPLES STREET,CORPUS CHRISTI,TX,78413,"http://maps.google.com/maps?q=5901 S. STAPLES STREET,+CORPUS CHRISTI,+TX+78413&hl=en"
CORPUS CHRISTI FIRE DEPARTMENT,CORPUS CHRISTI FIRE STATION 13 (FLOUR BLUFF),1802 WALDRON ROAD,CORPUS CHRISTI,TX,78418,"http://maps.google.com/maps?q=1802 WALDRON ROAD,+CORPUS CHRISTI,+TX+78418&hl=en"
CORYELL COUNTY SHERIFF'S OFFICE,CORYELL COUNTY SHERIFF'S OFFICE,510 LEON STREET,GATESVILLE,TX,76528,"http://maps.google.com/maps?q=510 LEON STREET,+GATESVILLE,+TX+76528&hl=en"
CYFAIR VFD STATION 11,CYFAIR VFD STATION 11,18132 WEST ROAD,CYPRESS,TX,77433,"http://maps.google.com/maps?q=18132 WEST ROAD,+CYPRESS,+TX+77433&hl=en"
DEA SPONSORED,BARTON CREEK SQUARE MALL - PARKING LOT UNIV OF TEXAS-COLLEGE OF PHARMACY,2901 SOUTH CAPITOL OF TEXAS HIGHWAY,AUSTIN,TX,78746,"http://maps.google.com/maps?q=2901 SOUTH CAPITOL OF TEXAS HIGHWAY,+AUSTIN,+TX+78746&hl=en"
DEA SPONSORED,LEGACY HILLS PARK PAVILLION SUN CITY CENTER,200 DEL WEBB BLVD.,GEORGETOWN,TX,78626,"http://maps.google.com/maps?q=200 DEL WEBB BLVD.,+GEORGETOWN,+TX+78626&hl=en"
DEER PARK POLICE DEPARTMENT,DEER PARK POLICE DEPARTMENT,2911 CENTER STREET,DEER PARK,TX,77536,"http://maps.google.com/maps?q=2911 CENTER STREET,+DEER PARK,+TX+77536&hl=en"
DEL MAR COLLEGE,DEL MAR COLLEGE,101 BALDWIN BLVD,CORPUS CHRISTI,TX,78404,"http://maps.google.com/maps?q=101 BALDWIN BLVD,+CORPUS CHRISTI,+TX+78404&hl=en"
DERIDDER POLICE DEPARTMENT,DERIDDER PD,200 SOUTH JEFFERSON STREET,DERIDDER,LA,70634,"http://maps.google.com/maps?q=200 SOUTH JEFFERSON STREET,+DERIDDER,+LA+70634&hl=en"
DICKINSON POLICE DEPARTMENT,DICKINSON POLICE DEPARTMENT,4000 LIGGIO STREET,DICKINSON,TX,77539,"http://maps.google.com/maps?q=4000 LIGGIO STREET,+DICKINSON,+TX+77539&hl=en"
EL CAMPO POLICE DEPARTMENT,EL CAMPO POLICE DEPARTMENT,1011 WEST LOOP,EL CAMPO,TX,77437,"http://maps.google.com/maps?q=1011 WEST LOOP,+EL CAMPO,+TX+77437&hl=en"
ELGIN POLICE DEPARTMENT,ELGIN POLICE DEPARTMENT,202 DEPOT STREET,ELGIN,TX,78621,"http://maps.google.com/maps?q=202 DEPOT STREET,+ELGIN,+TX+78621&hl=en"
FORT BEND COUNTY CONSTABLE PCT. 3,CINCO RANCH BRANCH LIBRARY,2620 COMMERCIAL CENTER BLVD,KATY,TX,77494,"http://maps.google.com/maps?q=2620 COMMERCIAL CENTER BLVD,+KATY,+TX+77494&hl=en"
FORT BEND ISD POLICE DEPARTMENT,FORT BEND ISD POLICE DEPARTMENT FORT BEND ISD ADMINISTRATIVE BUILDING,16431 LEXINGTON BOULEVARD,SUGAR LAND,TX,77479,"http://maps.google.com/maps?q=16431 LEXINGTON BOULEVARD,+SUGAR LAND,+TX+77479&hl=en"
FRIENDSWOOD POLICE DEPARTMENT,HOPE LUTHERAN CHURCH,1804 S. FRIENDSWOOD DR,FRIENDSWOOD,TX,77546,"http://maps.google.com/maps?q=1804 S. FRIENDSWOOD DR,+FRIENDSWOOD,+TX+77546&hl=en"
FULSHEAR POLICE DEPARTMENT,FULSHEAR POLICE DEPARTMENT,29255 FM1093,FULSHEAR,TX,77441,"http://maps.google.com/maps?q=29255 FM1093,+FULSHEAR,+TX+77441&hl=en"
GALVESTON PD,GALVESTON POLICE DEPARTMENT,601 54TH STREET,GALVESTON,TX,77551,"http://maps.google.com/maps?q=601 54TH STREET,+GALVESTON,+TX+77551&hl=en"
GATESVILLE POLICE DEPARTMENT,GATESVILLE POLICE DEPARTMENT,200 N. 8TH STREET,GATESVILLE,TX,76528,"http://maps.google.com/maps?q=200 N. 8TH STREET,+GATESVILLE,+TX+76528&hl=en"
GUS GEORGE ACADEMY,GUS GEORGE ACADEMY,1521 EUGENE HEIMANN CIRCLE,RICHMOND,TX,77469,"http://maps.google.com/maps?q=1521 EUGENE HEIMANN CIRCLE,+RICHMOND,+TX+77469&hl=en"
HARKER HEIGHTS POLICE DEPARTMENT,HARKER HEIGHTS POLICE DEPARTMENT,402 INDIAN TRAIL,HARKER HEIGHTS,TX,76548,"http://maps.google.com/maps?q=402 INDIAN TRAIL,+HARKER HEIGHTS,+TX+76548&hl=en"
HARRIS COUNTY CONSTABLE PRECINCT 6,HARRIS COUNTY CONSTABLE PRECINCT 6,5900 CANAL STREET,HOUSTON,TX,77011,"http://maps.google.com/maps?q=5900 CANAL STREET,+HOUSTON,+TX+77011&hl=en"
HARRIS COUNTY CONSTABLE PRECINCT 8,HARRIS COUNTY CONSTABLE PRECINCT 8 BAY AREA ANNEX,16602 DIANA LANE,HOUSTON,TX,77062,"http://maps.google.com/maps?q=16602 DIANA LANE,+HOUSTON,+TX+77062&hl=en"
HARRIS COUNTY HOUSEHOLD HAZARDOUS COLLECTION FACL.,HARRIS COUNTY HOUSEHOLD HAZARDOUS COLLECTION FACL.,6900 HAHL ROAD,HOUSTON,TX,77040,"http://maps.google.com/maps?q=6900 HAHL ROAD,+HOUSTON,+TX+77040&hl=en"
HARRIS COUNTY SHERIFF'S OFFICE,HARRIS COUNTY SHERIFF'S OFFICE FRANZ ROAD STOREFRONT,19818 FRANZ ROAD,KATY,TX,77449,"http://maps.google.com/maps?q=19818 FRANZ ROAD,+KATY,+TX+77449&hl=en"
HARRIS COUNTY SHERIFF'S OFFICE - ALDINE STOREFRONT,HARRIS COUNTY SHERIFF'S OFFICE ALDINE COMMUNITY STOREFRONT,5202 ALDINE MAIL ROUTE,HOUSTON,TX,77039,"http://maps.google.com/maps?q=5202 ALDINE MAIL ROUTE,+HOUSTON,+TX+77039&hl=en"
HARRIS COUNTY SHERIFF'S OFFICE DISTRICT 5,HARRIS COUNTY SHERIFF'S OFFICE DISTRICT 5,23828 TOMBALL PARKWAY,TOMBALL,TX,77375,"http://maps.google.com/maps?q=23828 TOMBALL PARKWAY,+TOMBALL,+TX+77375&hl=en"
HAYS COUNTY CONSTABLE PRECINCT 3,HAYS COUNTY CONSTABLE PRECINCT 3,200 STILLWATER ROAD,WIMBERLEY,TX,78676,"http://maps.google.com/maps?q=200 STILLWATER ROAD,+WIMBERLEY,+TX+78676&hl=en"
HEWITT POLICE DEPARTMENT,HEWITT POLICE DEPARTMENT,100 PATRIOT COURT,HEWITT,TX,76643,"http://maps.google.com/maps?q=100 PATRIOT COURT,+HEWITT,+TX+76643&hl=en"
HOUSTON POLICE DEPARTMENT CLEAR LAKE STATION,HOUSTON POLICE DEPARTMENT CLEAR LAKE STATION,2855 BAY AREA BLVD,HOUSTON,TX,77058,"http://maps.google.com/maps?q=2855 BAY AREA BLVD,+HOUSTON,+TX+77058&hl=en"
HOUSTON POLICE DEPARTMENT METRO PARK N RIDE,HOUSTON POLICE DEPARTMENT METRO PARK N RIDE,3210 W. LAKE HOUSTON PKWY,KINGWOOD,TX,77345,"http://maps.google.com/maps?q=3210 W. LAKE HOUSTON PKWY,+KINGWOOD,+TX+77345&hl=en"
HOUSTON POLICE DEPARTMENT NORTH STATION,HOUSTON POLICE DEPARTMENT NORTH STATION,9455 W. MONTGOMERY RD,HOUSTON,TX,77088,"http://maps.google.com/maps?q=9455 W. MONTGOMERY RD,+HOUSTON,+TX+77088&hl=en"
HOUSTON POLICE DEPARTMENT SOUTH CENTRAL STATION,HOUSTON POLICE DEPARTMENT SOUTH CENTRAL STATION,2202 ST. EMMANUEL ST,HOUSTON,TX,77003,"http://maps.google.com/maps?q=2202 ST. EMMANUEL ST,+HOUSTON,+TX+77003&hl=en"
HOUSTON POLICE DEPARTMENT SOUTH GESSNER STATION,HOUSTON POLICE DEPARTMENT SOUTH GESSNER STATION,8605 WESTPLACE DR,HOUSTON,TX,77071,"http://maps.google.com/maps?q=8605 WESTPLACE DR,+HOUSTON,+TX+77071&hl=en"
HOUSTON POLICE DEPARTMENT WESTSIDE STATION,HOUSTON POLICE DEPARTMENT WESTSIDE STATION,3203 S. DAIRY ASHFORD,HOUSTON,TX,77082,"http://maps.google.com/maps?q=3203 S. DAIRY ASHFORD,+HOUSTON,+TX+77082&hl=en"
HUNTSVILLE POLICE DEPARTMENT,HUNTSVILLE POLICE DEPARTMENT HUNTSVILLE HIGH SCHOOL,515 FM 2821 ROAD EAST,HUNTSVILLE,TX,77320,"http://maps.google.com/maps?q=515 FM 2821 ROAD EAST,+HUNTSVILLE,+TX+77320&hl=en"
JACKSON COUNTY SHERIFF'S OFFICE,JACKSON COUNTY SHERIFF'S OFFICE,115 WEST MAIN ST,EDNA,TX,77957,"http://maps.google.com/maps?q=115 WEST MAIN ST,+EDNA,+TX+77957&hl=en"
JASPER POLICE DEPARTMENT,JASPER POLICE DEPARTMENT,555 S MAIN STREET,JASPER,TX,75951,"http://maps.google.com/maps?q=555 S MAIN STREET,+JASPER,+TX+75951&hl=en"
JERSEY VILLAGE POLICE DEPARTMENT,JERSEY VILLAGE POLICE DEPARTMENT LOBBY,16401 LAKEVIEW DRIVE,JERSEY VILLAGE,TX,77040,"http://maps.google.com/maps?q=16401 LAKEVIEW DRIVE,+JERSEY VILLAGE,+TX+77040&hl=en"
JONESTOWN POLICE DEPARTMENT,JONESTOWN POLICE DEPARTMENT,18304 NORTH PARK DR.,JONESTOWN,TX,78645,"http://maps.google.com/maps?q=18304 NORTH PARK DR.,+JONESTOWN,+TX+78645&hl=en"
KATY ISD POLICE DEPARTMENT,KATY ISD POLICE DEPARTMENT KATY ISD LAW ENFORCEMENT CENTER,20370 FRANZ ROAD,KATY,TX,77449,"http://maps.google.com/maps?q=20370 FRANZ ROAD,+KATY,+TX+77449&hl=en"
KEMAH POLICE DEPARTMENT,KEMAH CITY HALL,1401 TX 146,KEMAH,TX,77565,"http://maps.google.com/maps?q=1401 TX 146,+KEMAH,+TX+77565&hl=en"
KIII TV STATION,KIII TV STATION,5002 SPID,CORPUS CHRISTI,TX,78411,"http://maps.google.com/maps?q=5002 SPID,+CORPUS CHRISTI,+TX+78411&hl=en"
KILLEEN POLICE DEPARTMENT,KILLEEN POLICE DEPARTMENT,3304 COMMUNITY BLVD.,KILLEEN,TX,76542,"http://maps.google.com/maps?q=3304 COMMUNITY BLVD.,+KILLEEN,+TX+76542&hl=en"
KINGSVILLE CHAMBER OF COMMERCE,KINGSVILLE CHAMBER OF COMMERCE,635 W. KING AVENUE,KINGSVILLE,TX,78363,"http://maps.google.com/maps?q=635 W. KING AVENUE,+KINGSVILLE,+TX+78363&hl=en"
KLEIN ISD POLICE DEPARTMENT,KLEIN ISD POLICE DEPARTMENT,7407 LOUETTA ROAD,SPRING,TX,77379,"http://maps.google.com/maps?q=7407 LOUETTA ROAD,+SPRING,+TX+77379&hl=en"
LA VERNIA POLICE DEPARTMENT,LA VERNIA HIGH SCHOOL,225 BLUEBONNET,LA VERNIA,TX,78121,"http://maps.google.com/maps?q=225 BLUEBONNET,+LA VERNIA,+TX+78121&hl=en"
LACY LAKEVIEW POLICE DEPARTMENT,LACY LAKEVIEW POLICE DEPARTMENT,503 E. CRAVEN AVE.,WACO,TX,76705,"http://maps.google.com/maps?q=503 E. CRAVEN AVE.,+WACO,+TX+76705&hl=en"
LAKE CHARLES POLICE DEPARTMENT,LAKE CHARLES CIVIC CENTER,900 LAKE SHORE DRIVE,LAKE CHARLES,LA,70601,"http://maps.google.com/maps?q=900 LAKE SHORE DRIVE,+LAKE CHARLES,+LA+70601&hl=en"
LAKEVIEW POLICE DEPARTMENT,LAKEVIEW POLICE DEPARTMENT TAYLOR LAKE VILLAGE CITY HALL,500 KIRBY ROAD,TAYLOR LAKE VILLAGE,TX,77586,"http://maps.google.com/maps?q=500 KIRBY ROAD,+TAYLOR LAKE VILLAGE,+TX+77586&hl=en"
LAKEWAY POLICE DEPARTMENT/BEE CAVE POLICE DEPT.,LAKEWAY POLICE DEPARTMENT,104 CROSS CREEK,LAKEWAY,TX,78734,"http://maps.google.com/maps?q=104 CROSS CREEK,+LAKEWAY,+TX+78734&hl=en"
LEAGUE CITY POLICE DEPARTMENT,LEAGUE CITY POLICE DEPARTMENT PUBLIC SAFETY BUILDING,555 WEST WALKER STREET,LEAGUE CITY,TX,77573,"http://maps.google.com/maps?q=555 WEST WALKER STREET,+LEAGUE CITY,+TX+77573&hl=en"
LEANDER POLICE DEPARTMENT-WILLIAMSON,LEANDER POLICE DEPARTMENT,705 LEANDER DRIVE,LEANDER,TX,78641,"http://maps.google.com/maps?q=705 LEANDER DRIVE,+LEANDER,+TX+78641&hl=en"
LIBERTY COUNTY PRECINCT 1,LIBERTY COUNTY PRECINCT 1,2103 COS STREET,LIBERTY,TX,77575,"http://maps.google.com/maps?q=2103 COS STREET,+LIBERTY,+TX+77575&hl=en"
LIBERTY POLICE DEPARTMENT,LIBERTY POLICE DEPARTMENT,1906 LAKELAND DRIVE,LIBERTY,TX,77575,"http://maps.google.com/maps?q=1906 LAKELAND DRIVE,+LIBERTY,+TX+77575&hl=en"
LORENA POLICE DEPARTMENT,LORENA POLICE DEPARTMENT,100 N. BORDON ST.,LORENA,TX,76655,"http://maps.google.com/maps?q=100 N. BORDON ST.,+LORENA,+TX+76655&hl=en"
LOUISIANA STATE POLICE TROOP F,LOUISIANA STATE POLICE,805 MAIN STREET,LAKE CHARLES,LA,70615,"http://maps.google.com/maps?q=805 MAIN STREET,+LAKE CHARLES,+LA+70615&hl=en"
LUMBERTON POLICE DEPARTMENT,LUMBERTON POLICE DEPARTMENT,120 EAST CHANCE ROAD #A,LUMBERTON,TX,77657,"http://maps.google.com/maps?q=120 EAST CHANCE ROAD #A,+LUMBERTON,+TX+77657&hl=en"
MANOR POLICE DEPARTMENT,MANOR POLICE DEPARTMENT,402 WEST PARSONS ST.,MANOR,TX,78653,"http://maps.google.com/maps?q=402 WEST PARSONS ST.,+MANOR,+TX+78653&hl=en"
MANVEL POLICE DEPARTMENT,MANVEL POLICE DEPARTMENT PARKING LOT,6615 N MASTERS (CR 1128),MANVEL,TX,77578,"http://maps.google.com/maps?q=6615 N MASTERS (CR 1128),+MANVEL,+TX+77578&hl=en"
MARBLE FALLS POLICE DEPARTMENT,MARBLE FALLS POLICE DEPARTMENT,606 AVENUE N,MARBLE FALLS,TX,78654,"http://maps.google.com/maps?q=606 AVENUE N,+MARBLE FALLS,+TX+78654&hl=en"
MISSOURI CITY POLICE DEPARTMENT,MISSOURI CITY POLICE DEPARTMENT,3849 CARTWRIGHT ROAD,MISSOURI CITY,TX,77459,"http://maps.google.com/maps?q=3849 CARTWRIGHT ROAD,+MISSOURI CITY,+TX+77459&hl=en"
MONTGOMERY COUNTY ISD POLICE DEPARTMENT,MONTGOMERY COUNTY ISD POLICE DEPT.,22825 HWY 105 W.,MONTGOMERY,TX,77356,"http://maps.google.com/maps?q=22825 HWY 105 W.,+MONTGOMERY,+TX+77356&hl=en"
MONTGOMERY COUNTY PRECINCT 4 CONSTABLE'S OFFICE,MONTGOMERY COUNTY PRECINCT 4 CONSTABLE'S OFFICE MONTGOMERY COUNTY ANNEX BUILDING,21130 US HWY 59,NEW CANEY,TX,77357,"http://maps.google.com/maps?q=21130 US HWY 59,+NEW CANEY,+TX+77357&hl=en"
MONTGOMERY COUNTY SHERIFF'S OFFICE,THE WOODLANDS TOWNSHIP TOWN HALL (FRONT PARKING LOT),2801 TECHNOLOGY FOREST BOULEVARD,THE WOODLANDS,TX,77381,"http://maps.google.com/maps?q=2801 TECHNOLOGY FOREST BOULEVARD,+THE WOODLANDS,+TX+77381&hl=en"
NACOGDOCHES COUNTY SHERIFF'S OFFICE,NACOGDOCHES COUNTY SHERIFF'S OFFICE,2306 DOUGLASS HIGHWAY,NACOGDOCHES,TX,75964,"http://maps.google.com/maps?q=2306 DOUGLASS HIGHWAY,+NACOGDOCHES,+TX+75964&hl=en"
NACOGDOCHES POLICE DEPARTMENT,NACOGDOCHES POLICE DEPARTMENT,1122 NORTH UNIVERSITY DRIVE,NACOGDOCHES,TX,75961,"http://maps.google.com/maps?q=1122 NORTH UNIVERSITY DRIVE,+NACOGDOCHES,+TX+75961&hl=en"
NAVASOTA POLICE DEPARTMENT,NAVASOTA POLICE DEPARTMENT,200 BLOCK OF HOLLAND STREET,NAVASOTA,TX,77868,"http://maps.google.com/maps?q=200 BLOCK OF HOLLAND STREET,+NAVASOTA,+TX+77868&hl=en"
NEW BRAUNFELS POLICE DEPARTMENT,NEW BRAUNFELS POLICE DEPARTMENT,355 FM 306,NEW BRAUNFELS,TX,78130,"http://maps.google.com/maps?q=355 FM 306,+NEW BRAUNFELS,+TX+78130&hl=en"
NEW BRAUNFELS UTILITIES,NEW BRAUNFELS UTILITIES,263 MAIN PLAZA,NEW BRAUNFELS,TX,78130,"http://maps.google.com/maps?q=263 MAIN PLAZA,+NEW BRAUNFELS,+TX+78130&hl=en"
NOLANVILLE POLICE DEPARTMENT,NOLANVILLE POLICE DEPARTMENT,101 N. FIFTH STREET,NOLANVILLE,TX,76559,"http://maps.google.com/maps?q=101 N. FIFTH STREET,+NOLANVILLE,+TX+76559&hl=en"
ORANGE POLICE DEPARTMENT,ORANGE POLICE DEPARTMENT,201 8TH STREET,ORANGE,TX,77630,"http://maps.google.com/maps?q=201 8TH STREET,+ORANGE,+TX+77630&hl=en"
PASADENA POLICE DEPARTMENT,PASADENA POLICE DEPARTMENT THE SUMMIT ALTERNATIVE PROGRAM (PISD),1838 EAST SAM HOUSTON PARKWAY SOUTH,PASADENA,TX,77503,"http://maps.google.com/maps?q=1838 EAST SAM HOUSTON PARKWAY SOUTH,+PASADENA,+TX+77503&hl=en"
PORT ARTHUR POLICE DEPARTMENT,PORT ARTHUR POLICE DEPARTMENT,645 4TH STREET,PORT ARTHUR,TX,77641,"http://maps.google.com/maps?q=645 4TH STREET,+PORT ARTHUR,+TX+77641&hl=en"
RICHMOND POLICE DEPARTMENT,RICHMOND POLICE DEPARTMENT,600 PRESTON STREET,RICHMOND,TX,77469,"http://maps.google.com/maps?q=600 PRESTON STREET,+RICHMOND,+TX+77469&hl=en"
RICHWOOD POLICE DEPARTMENT,RICHWOOD POLICE DEPARTMENT,1800 NORTH BRAZOSPORT BOULEVARD,RICHWOOD,TX,77531,"http://maps.google.com/maps?q=1800 NORTH BRAZOSPORT BOULEVARD,+RICHWOOD,+TX+77531&hl=en"
ROUND ROCK POLICE DEPARTMENT,ROUND ROCK POLICE DEPARTMENT,2701 NORTH MAYS,ROUND ROCK,TX,78665,"http://maps.google.com/maps?q=2701 NORTH MAYS,+ROUND ROCK,+TX+78665&hl=en"
SCHERTZ POLICE DEPARTMENT,SCHERTZ POLICE DEPARTMENT,1400 SCHERTZ PARKWAY,SCHERTZ,TX,78154,"http://maps.google.com/maps?q=1400 SCHERTZ PARKWAY,+SCHERTZ,+TX+78154&hl=en"
SEALY POLICE DEPARTMENT,SEALY POLICE DEPARTMENT,1320 REXVILLE ROAD,SEALY,TX,77474,"http://maps.google.com/maps?q=1320 REXVILLE ROAD,+SEALY,+TX+77474&hl=en"
SHENANDOAH POLICE DEPARTMENT,SHENANDOAH POLICE DEPARTMENT SHENANDOAH CITY HALL,29955 IH-45 NORTH,SHENANDOAH,TX,77381,"http://maps.google.com/maps?q=29955 IH-45 NORTH,+SHENANDOAH,+TX+77381&hl=en"
SILSBEE POLICE DEPARTMENT,SILSBEE POLICE DEPARTMENT,1104 NORTH 5TH STREET,SILSBEE,TX,77656,"http://maps.google.com/maps?q=1104 NORTH 5TH STREET,+SILSBEE,+TX+77656&hl=en"
SOUTHEAST TEXAS POISON CONTROL CENTER @UTMB,SOUTHEAST TEXAS POISON CONTROL CENTER @UTMB,301 UNIVERSITY BLVD.,GALVESTON,TX,77555,"http://maps.google.com/maps?q=301 UNIVERSITY BLVD.,+GALVESTON,+TX+77555&hl=en"
SPRING ISD POLICE DEPARTMENT,SPRING ISD POLICE DEPARTMENT,210 NORTH FOREST BOULEVARD,HOUSTON,TX,77090,"http://maps.google.com/maps?q=210 NORTH FOREST BOULEVARD,+HOUSTON,+TX+77090&hl=en"
STAFFORD POLICE DEPARTMENT,STAFFORD POLICE DEPARTMENT,2702 S. MAIN ST.,STAFFORD,TX,77477,"http://maps.google.com/maps?q=2702 S. MAIN ST.,+STAFFORD,+TX+77477&hl=en"
TAYLOR POLICE DEPARTMENT,CITY HALL PARKING LOT,400 PORTER,TAYLOR,TX,76574,"http://maps.google.com/maps?q=400 PORTER,+TAYLOR,+TX+76574&hl=en"
TEMPLE POLICE DEPARTMENT,TEMPLE POLICE DEPARTMENT,209 E. AVE. A,TEMPLE,TX,76501,"http://maps.google.com/maps?q=209 E. AVE. A,+TEMPLE,+TX+76501&hl=en"
TEXAS A&M,TEXAS A&M,1010 WEST AVENUE B.,KINGSVILLE,TX,78363,"http://maps.google.com/maps?q=1010 WEST AVENUE B.,+KINGSVILLE,+TX+78363&hl=en"
TEXAS CITY POLICE DEPARTMENT,TEXAS CITY POLICE DEPARTMENT,1004 9TH AVE N.,TEXAS CITY,TX,77590,"http://maps.google.com/maps?q=1004 9TH AVE N.,+TEXAS CITY,+TX+77590&hl=en"
TRAVIS COUNTY CONSTABLE - PRECINCT 5,TRAVIS COUNTY CONSTABLE - PRECINCT 5,1003 GUADALUPE STREET,AUSTIN,TX,78701,"http://maps.google.com/maps?q=1003 GUADALUPE STREET,+AUSTIN,+TX+78701&hl=en"
TRAVIS COUNTY CONSTABLE PRECINCT 1,TRAVIS COUNTY CONSTABLE - PRECINCT 1,"4717 HEFLIN LANE, SUITE 127",AUSTIN,TX,78721,"http://maps.google.com/maps?q=4717 HEFLIN LANE, SUITE 127,+AUSTIN,+TX+78721&hl=en"
TRAVIS COUNTY CONSTABLE PRECINCT 2,THE HILLS OF LAKEWAY,TWO CLUBS ESTATES PARKWAY,AUSTIN,TX,78738,"http://maps.google.com/maps?q=TWO CLUBS ESTATES PARKWAY,+AUSTIN,+TX+78738&hl=en"
TRAVIS COUNTY CONSTABLE PRECINCT 2,TRAVIS COUNTY CONSTABLE PRECINCT 2,10409 BURNETT ROAD,AUSTIN,TX,78758,"http://maps.google.com/maps?q=10409 BURNETT ROAD,+AUSTIN,+TX+78758&hl=en"
TRAVIS COUNTY CONSTABLE PRECINCT 3,TRAVIS COUNTY CONSTABLE PRECINCT 3,"8656 HWY 71, SUITE 132",AUSTIN,TX,78735,"http://maps.google.com/maps?q=8656 HWY 71, SUITE 132,+AUSTIN,+TX+78735&hl=en"
TRAVIS COUNTY CONSTABLE PRECINCT 4,TRAVIS COUNTY CONSTABLE PRECINCT 4,4011 MCKINNEY FALLS PARKWAY #1100,AUSTIN,TX,78744,"http://maps.google.com/maps?q=4011 MCKINNEY FALLS PARKWAY #1100,+AUSTIN,+TX+78744&hl=en"
UNIVERSITY OF HOUSTON SCHOOL OF PHARMACY,UNIVERSITY OF HOUSTON CAMPUS PHARMACY,4501 WHEELER AVENUE,HOUSTON,TX,77204,"http://maps.google.com/maps?q=4501 WHEELER AVENUE,+HOUSTON,+TX+77204&hl=en"
VICTORIA COUNTY SHERIFF'S OFFICE,VICTORIA COUNTY SHERIFF'S OFFICE,101 NORTH GLASS STREET,VICTORIA,TX,77901,"http://maps.google.com/maps?q=101 NORTH GLASS STREET,+VICTORIA,+TX+77901&hl=en"
WACO POLICE DEPARTMENT,WACO POLICE DEPARTMENT,3115 PINE AVENUE,WACO,TX,76701,"http://maps.google.com/maps?q=3115 PINE AVENUE,+WACO,+TX+76701&hl=en"
WEST UNIVERSITY PUBLIC WORKS FACILITY,WEST UNIVERSITY PUBLIC WORKS FACILITY,3800 MILTON,HOUSTON,TX,77005,"http://maps.google.com/maps?q=3800 MILTON,+HOUSTON,+TX+77005&hl=en"
WILLIAMSON COUNTY SHERIFF'S OFFICE,WILCO CENTRAL MAINTENANCE FACILITY,3151 SE INNER LOOP,GEORGETOWN,TX,78626,"http://maps.google.com/maps?q=3151 SE INNER LOOP,+GEORGETOWN,+TX+78626&hl=en"
WOODWAY PUBLIC SAFETY DEPARTMENT,WOODWAY PUBLIC SAFETY DEPARTMENT,920 ESTATES DRIVE,WOODWAY,TX,76712,"http://maps.google.com/maps?q=920 ESTATES DRIVE,+WOODWAY,+TX+76712&hl=en"
