Participant,CollectionSite,Address,City,State,Zip,MapURL
ALBEMARLE COUNTY POLICE DEPARTMENT,"MARTHA JEFFERSON HOSPITAL 
												
													BACKSIDE OF MAIN HOSPITAL",500 MARTHA JEFFERSON DRIVE,CHARLOTTESVILLE,VA,22911,"http://maps.google.com/maps?q=500 MARTHA JEFFERSON DRIVE,+CHARLOTTESVILLE,+VA+22911&hl=en"
ALEXANDRIA POLICE DEPARTMENT,ALEXANDRIA FIRE STATION 210,5525 EISENHOWER AVE,ALEXANDRIA,VA,22304,"http://maps.google.com/maps?q=5525 EISENHOWER AVE,+ALEXANDRIA,+VA+22304&hl=en"
ALEXANDRIA POLICE DEPARTMENT,"ALEXANDRIA POLICE HEADQUARTERS 
												
													FRONT ENTRANCE",3600 WHEELER AVENUE,ALEXANDRIA,VA,22304,"http://maps.google.com/maps?q=3600 WHEELER AVENUE,+ALEXANDRIA,+VA+22304&hl=en"
ALEXANDRIA POLICE DEPARTMENT,"FIRST BAPTIST CHURCH 
												
													FRONT ENTRANCE",2932 KING STREET,ALEXANDRIA,VA,22302,"http://maps.google.com/maps?q=2932 KING STREET,+ALEXANDRIA,+VA+22302&hl=en"
ALLEGHENY COUNTY POLICE DEPARTMENT,NORTH PARK STATION,700 WEST RIDGE DRIVE,ALLISON PARK,PA,15101,"http://maps.google.com/maps?q=700 WEST RIDGE DRIVE,+ALLISON PARK,+PA+15101&hl=en"
ALLEGHENY COUNTY POLICE DEPARTMENT,SOUTH PARK STATION,1801 BROWNSVILLE ROAD,SOUTH PARK,PA,15129,"http://maps.google.com/maps?q=1801 BROWNSVILLE ROAD,+SOUTH PARK,+PA+15129&hl=en"
ALLEGHENY COUNTY POLICE DEPARTMENT,WILMERDING STATION,315 STATION ST,WILMERDING,PA,15148,"http://maps.google.com/maps?q=315 STATION ST,+WILMERDING,+PA+15148&hl=en"
ALTAVISTA POLICE DEPARTMENT,"YMCA 
												
													SPORTS CENTER",718 7TH ST,ALTAVISTA,VA,24517,"http://maps.google.com/maps?q=718 7TH ST,+ALTAVISTA,+VA+24517&hl=en"
ALTOONA POLICE DEPT,THOMPSONS PHARMACY,600 E CHESTNUT AVE,ALTOONA,PA,16601,"http://maps.google.com/maps?q=600 E CHESTNUT AVE,+ALTOONA,+PA+16601&hl=en"
APPOMATTOX COUNTY SHERIFF'S OFFICE,KROGER,7851 RICHMOND HWY,APPOMATTOX,VA,24522,"http://maps.google.com/maps?q=7851 RICHMOND HWY,+APPOMATTOX,+VA+24522&hl=en"
ARLINGTON COUNTY POLICE DEPARTMENT,"ARLINGTON FIRE STATION #9 
												
													MAIN LEVEL COMMUNITY ROOM",1900 SOUTH WALTER REED DRIVE,ARLINGTON,VA,22204,"http://maps.google.com/maps?q=1900 SOUTH WALTER REED DRIVE,+ARLINGTON,+VA+22204&hl=en"
ARLINGTON COUNTY POLICE DEPARTMENT,GUNSTON COMMUNITY CENTER,2700 SOUTH LANG STREET,ARLINGTON,VA,22206,"http://maps.google.com/maps?q=2700 SOUTH LANG STREET,+ARLINGTON,+VA+22206&hl=en"
ARLINGTON COUNTY POLICE DEPARTMENT,LANGSTON COMMUNITY CENTER,2121 NORTH CULPEPER STREET,ARLINGTON,VA,22207,"http://maps.google.com/maps?q=2121 NORTH CULPEPER STREET,+ARLINGTON,+VA+22207&hl=en"
ASHLAND KY POLICE,ASHLAND KY POLICE,201 17TH STREET,ASHLAND,KY,41101,"http://maps.google.com/maps?q=201 17TH STREET,+ASHLAND,+KY+41101&hl=en"
ASPINWALL POLICE DEPARTMENT,ASPINWALL POLICE STATION,217 COMMERCIAL AVENUE,ASPINWALL,PA,15215,"http://maps.google.com/maps?q=217 COMMERCIAL AVENUE,+ASPINWALL,+PA+15215&hl=en"
AUGUSTA COUNTY SHERIIF'S OFFICE,AUGUSTA COUNTY SHERIFF'S OFFICE,127 LEE HIGHWAY,VERONA,VA,24482,"http://maps.google.com/maps?q=127 LEE HIGHWAY,+VERONA,+VA+24482&hl=en"
BALTIMORE COUNTY POLICE DEPARTMENT,"PRECINCT 3 
												
													FRANKLIN",606 NICODEMUS RD.,REISTERSTOWN,MD,21136,"http://maps.google.com/maps?q=606 NICODEMUS RD.,+REISTERSTOWN,+MD+21136&hl=en"
BALTIMORE COUNTY POLICE DEPARTMENT,"PRECINCT 4 
												
													PIKESVILLE",215 MILFORD MILL RD.,PIKESVILLE,MD,21208,"http://maps.google.com/maps?q=215 MILFORD MILL RD.,+PIKESVILLE,+MD+21208&hl=en"
BECKLEY POLICE DEPARTMENT,RALEIGH COUNTY COMMISSION ON AGING,1614 SOUTH KANAWHA STREET,BECKLEY,WV,25801,"http://maps.google.com/maps?q=1614 SOUTH KANAWHA STREET,+BECKLEY,+WV+25801&hl=en"
BELLEVUE BOROUGH POLICE DEPARTMENT,BELLEVUE BOROUGH POLICE DEPARTMENT,537 BAYNE AVENUE,PITTSBURGH,PA,15202,"http://maps.google.com/maps?q=537 BAYNE AVENUE,+PITTSBURGH,+PA+15202&hl=en"
BELMONT COUNTY SHERIFF'S OFFICE,RIESBECK'S FOOD STORE,4595 CENTRAL AVENUE,SHADYSIDE,OH,43947,"http://maps.google.com/maps?q=4595 CENTRAL AVENUE,+SHADYSIDE,+OH+43947&hl=en"
BIGLERVILLE BOROUGH POLICE DEPARTMENT,BIGLERVILLE FIRE DEPARTMENT,111 SOUTH MAIN STREET,BIGLERVILLE,PA,17307,"http://maps.google.com/maps?q=111 SOUTH MAIN STREET,+BIGLERVILLE,+PA+17307&hl=en"
BLACKSBURG POLICE DEPARTMENT,"BLACKSBURG RECREATION CENTER 
												
													PARKING LOT",725 PATRICK HENRY DRIVE,BLACKSBURG,VA,24060,"http://maps.google.com/maps?q=725 PATRICK HENRY DRIVE,+BLACKSBURG,+VA+24060&hl=en"
BLAND COUNTY SHERIFF'S OFFICE,BLAND COUNTY SHERIFFS OFFICE,612 MAIN ST. SUITE 203,BLAND,VA,24315,"http://maps.google.com/maps?q=612 MAIN ST. SUITE 203,+BLAND,+VA+24315&hl=en"
BOONE COUNTY SHERIFF'S OFFICE,"BOONE COUNTY SHERIFF'S OFFICE 
												
													COUNTY COURTHOUSE",200 STATE STREET,MADISON,WV,25130,"http://maps.google.com/maps?q=200 STATE STREET,+MADISON,+WV+25130&hl=en"
BOONE COUNTY SHERIFF'S OFFICE,"JOHN SLACK PARK 
												
													SHERIFF W WHITE",SR#3GENERAL DELIVERY,RACINE,WV,25165,"http://maps.google.com/maps?q=SR#3,+RACINE,+WV+25165&hl=en"
BOTETOURT COUNTY SHERIFF'S OFFICE,BOTETOURT PHYSICAL THERAPY,104 KINGSTON DRIVE,DALEVILLE,VA,24083,"http://maps.google.com/maps?q=104 KINGSTON DRIVE,+DALEVILLE,+VA+24083&hl=en"
BRAXTON CO. SHERRI'FS OFFICE,"BRAXTON COUNTY COURT HOUSE 
												
													IN FRONT OF COURTHOUSE",300 MAIN STREET,SUTTON,WV,26601,"http://maps.google.com/maps?q=300 MAIN STREET,+SUTTON,+WV+26601&hl=en"
BRIDGEPORT POLICE DEPARTMENT,"BRIDGEPORT POLICE DEPARTMENT 
												
													DPTY CHIEF R. HARTLEY",515 WEST MAIN STREET,BRIDGEPORT,WV,26330,"http://maps.google.com/maps?q=515 WEST MAIN STREET,+BRIDGEPORT,+WV+26330&hl=en"
BRISTOL SHERIFF'S OFFICE,"FOOD CITY 
												
													NEAR FRONT ENTRANCE",1320 EUCLID AVE,BRISTOL,VA,24201,"http://maps.google.com/maps?q=1320 EUCLID AVE,+BRISTOL,+VA+24201&hl=en"
BRISTOL TENNESSEE POLICE DEPARTMENT,BRISTOL POLICE DEPARTMENT,801 ANDERSON STREET,BRISTOL,TN,37620,"http://maps.google.com/maps?q=801 ANDERSON STREET,+BRISTOL,+TN+37620&hl=en"
BUCHANAN COUNTY SHERIFF'S OFFICE,"FOOD CITY PHARMACY 
												
													VANSANT FOOD CITY",18765 RIVERSIDE DRIVE,VANSANT,VA,24656,"http://maps.google.com/maps?q=18765 RIVERSIDE DRIVE,+VANSANT,+VA+24656&hl=en"
BUENA VISTA POLICE DEPARTMENT,"CVS PHARMACY 
												
													EXTERIOR BREEZEWAY",2148 E. MIDLAND TRAIL,BUENA VISTA,VA,24416,"http://maps.google.com/maps?q=2148 E. MIDLAND TRAIL,+BUENA VISTA,+VA+24416&hl=en"
BUNCOMBE COUNTY SHERIFF'S OFFICE,ASHEVILLE REGIONAL AIRPORT,61 TERMINAL DRIVE,FLETCHER,NC,28732,"http://maps.google.com/maps?q=61 TERMINAL DRIVE,+FLETCHER,+NC+28732&hl=en"
BUNCOMBE COUNTY SHERIFF'S OFFICE,CVS PHARMACY,425 W. STATE STREET,BLACK MOUNTAIN,NC,28711,"http://maps.google.com/maps?q=425 W. STATE STREET,+BLACK MOUNTAIN,+NC+28711&hl=en"
BUNCOMBE COUNTY SHERIFF'S OFFICE,SONA PHARMACY,805 FAIRVIEW RD,ASHEVILLE,NC,28803,"http://maps.google.com/maps?q=805 FAIRVIEW RD,+ASHEVILLE,+NC+28803&hl=en"
BUNCOMBE COUNTY SHERIFF'S OFFICE,WALGREEN'S,1835 HENDERSONVILLE RD,ASHEVILLE,NC,28803,"http://maps.google.com/maps?q=1835 HENDERSONVILLE RD,+ASHEVILLE,+NC+28803&hl=en"
BUNCOMBE COUNTY SHERIFF'S OFFICE,WALGREEN'S,841 MERRIMON AVE,ASHEVILLE,NC,28804,"http://maps.google.com/maps?q=841 MERRIMON AVE,+ASHEVILLE,+NC+28804&hl=en"
BUNCOMBE COUNTY SHERIFF'S OFFICE,WALGREEN'S,91 S. TUNNEL RD,ASHEVILLE,NC,28805,"http://maps.google.com/maps?q=91 S. TUNNEL RD,+ASHEVILLE,+NC+28805&hl=en"
CALHOUN COUNTY SHERIFF,CALHOUN COUNTY SHERIFF,363 MAIN STSTE 204,GRANTSVILLE,WV,26147,"http://maps.google.com/maps?q=363 MAIN ST,+GRANTSVILLE,+WV+26147&hl=en"
CAMDEN POLICE DEPARTMENT,CAMDEN POLICE DEPARTMENT,816 W. DEKALB ST.,CAMDEN,SC,29020,"http://maps.google.com/maps?q=816 W. DEKALB ST.,+CAMDEN,+SC+29020&hl=en"
CAMERON POLICE DEPARTMENT,CAMERON POLICE DEPARTMENT,44 MAIN STREET,CAMERON,WV,26033,"http://maps.google.com/maps?q=44 MAIN STREET,+CAMERON,+WV+26033&hl=en"
CANNON PHARMACY,CANNON PHARMACY,1706 S CANNON BLVD,KANNAPOLIS,NC,28083,"http://maps.google.com/maps?q=1706 S CANNON BLVD,+KANNAPOLIS,+NC+28083&hl=en"
CANNON PHARMACY,CANNON PHARMACY,760 CABARRUS AVE W,CONCORD,NC,28025,"http://maps.google.com/maps?q=760 CABARRUS AVE W,+CONCORD,+NC+28025&hl=en"
CANNON PHARMACY,CONCORD PHARMACY AND SURGICAL SUPPLIES,3497 HWY 601 S.,CONCORD,NC,28025,"http://maps.google.com/maps?q=3497 HWY 601 S.,+CONCORD,+NC+28025&hl=en"
CANNON PHARMACY,HARRISBURG'S HOMETOWN PHARMACY,5006 NC HIGHWAY 49 S,HARRISBURG,NC,28075,"http://maps.google.com/maps?q=5006 NC HIGHWAY 49 S,+HARRISBURG,+NC+28075&hl=en"
CANNON PHARMACY,MOOSE DRUG COMPANY,8374 FRANKLIN ST. W.,MOUNT PLEASANT,NC,28124,"http://maps.google.com/maps?q=8374 FRANKLIN ST. W.,+MOUNT PLEASANT,+NC+28124&hl=en"
CANNON PHARMACY,MOOSE PROFESSIONAL PHARMACY,270 COPPERFIELD BLVD NE #101,CONCORD,NC,28025,"http://maps.google.com/maps?q=270 COPPERFIELD BLVD NE #101,+CONCORD,+NC+28025&hl=en"
CANNON PHARMACY,WEST CABARRUS YMCA,5325 LANGFORD AVE NW,CONCORD,NC,28027,"http://maps.google.com/maps?q=5325 LANGFORD AVE NW,+CONCORD,+NC+28027&hl=en"
CANONSBURG POLICE DEPARTMENT,SHOP AND SAVE GROCERY STORE,617 WEST PIKE STREET,CANONSBURG,PA,15317,"http://maps.google.com/maps?q=617 WEST PIKE STREET,+CANONSBURG,+PA+15317&hl=en"
CARLOW UNIVERSITY POLICE,CARLOW UNIVERSITY,3333 FIFTH AVE,PITTSBURGH,PA,15213,"http://maps.google.com/maps?q=3333 FIFTH AVE,+PITTSBURGH,+PA+15213&hl=en"
CARNEGIE MELLON UNIVERSITY POLICE DEPT,CARNEGIE MELLON UNIVERSITY POLICE DEPT STATION,300 S CRAIG ST,PITTSBURGH,PA,15213,"http://maps.google.com/maps?q=300 S CRAIG ST,+PITTSBURGH,+PA+15213&hl=en"
CARROLL COUNTY SHERIFF'S OFFICE,CARROL COUNTY SHERIFF'S OFFICE,100 NORTH COURT STREET,WESTMINSTER,MD,21157,"http://maps.google.com/maps?q=100 NORTH COURT STREET,+WESTMINSTER,+MD+21157&hl=en"
CARROLL COUNTY SHERIFF'S OFFICE,CVS PHARMACY - HILLSVILLE,915 WEST STUART DRIVE,HILLSVILLE,VA,24343,"http://maps.google.com/maps?q=915 WEST STUART DRIVE,+HILLSVILLE,+VA+24343&hl=en"
CARROLL COUNTY SHERIFF'S OFFICE,HAMPSTEAD POLICE DEPARTMENT,1112 MAIN STREET,HAMPSTEAD,MD,21074,"http://maps.google.com/maps?q=1112 MAIN STREET,+HAMPSTEAD,+MD+21074&hl=en"
CARROLL COUNTY SHERIFF'S OFFICE,MOUNT AIRY POLICE DEPARTMENT,"205 CENTER STREET,SUITE 203",MOUNT AIRY,MD,21771,"http://maps.google.com/maps?q=205 CENTER STREET,,+MOUNT AIRY,+MD+21771&hl=en"
CARROLL COUNTY SHERIFF'S OFFICE,SYKESVILLE POLICE DEPARTMENT,7547 MAIN STREET,SYKESVILLE,MD,21784,"http://maps.google.com/maps?q=7547 MAIN STREET,+SYKESVILLE,+MD+21784&hl=en"
CARROLL COUNTY SHERIFF'S OFFICE,WESTMINSTER POLICE DEPARTMENT,36 LOCUST STREET,WESTMINSTER,MD,21157,"http://maps.google.com/maps?q=36 LOCUST STREET,+WESTMINSTER,+MD+21157&hl=en"
CARROLL TOWNSHIP POLICE DEPARTMENT,"MONONGAHELA VALLEY HOSPITAL, INC.",1163 COUNTRY CLUB ROAD,MONONGAHELA,PA,15063,"http://maps.google.com/maps?q=1163 COUNTRY CLUB ROAD,+MONONGAHELA,+PA+15063&hl=en"
CARROLL VALLEY BOROUGH POLICE DEPARTMENT,CARROLL VALLEY BOROUGH OFFICE,5685 FAIRFIELD ROAD,FAIRFIELD,PA,17320,"http://maps.google.com/maps?q=5685 FAIRFIELD ROAD,+FAIRFIELD,+PA+17320&hl=en"
CARTER COUNTY SO,"CARTER COUNTY DETENTION CENTER 
												
													INSIDE LOBBY AREA. OPEN 24HRS PER DAY.",900 3RD ST.,ELIZABETHTON,TN,37643,"http://maps.google.com/maps?q=900 3RD ST.,+ELIZABETHTON,+TN+37643&hl=en"
CENTERVILLE BORO PD,CENTERVILLE BORO,100 E END ST,BROWNSVILLE,PA,15417,"http://maps.google.com/maps?q=100 E END ST,+BROWNSVILLE,+PA+15417&hl=en"
CENTRE CO SHERIFF'S OFFICE,WEIS MARKET,501 N 3RD ST,PHILIPSBURG,PA,16866,"http://maps.google.com/maps?q=501 N 3RD ST,+PHILIPSBURG,+PA+16866&hl=en"
CEREDO WV POLICE DEPT,CEREDO PD,766 B STREET,CEREDO,WV,25507,"http://maps.google.com/maps?q=766 B STREET,+CEREDO,+WV+25507&hl=en"
CHARLESTON POLICE DEPARTMENT,DOLLAR GENERAL,1555 WASHINGTON STREET EAST,CHARLESTON,WV,25311,"http://maps.google.com/maps?q=1555 WASHINGTON STREET EAST,+CHARLESTON,+WV+25311&hl=en"
CHARLESTON POLICE DEPARTMENT,DRUG EMPORIUM,1603 KANAWHA BLVDWEST,CHARLESTON,WV,25302,"http://maps.google.com/maps?q=1603 KANAWHA BLVDWEST,+CHARLESTON,+WV+25302&hl=en"
CHARLESTON POLICE DEPARTMENT,"PIGGLY WIGGLY 
												
													PARKING LOT",5003 MACCORKLE AVENUE SE,CHARLESTON,WV,25304,"http://maps.google.com/maps?q=5003 MACCORKLE AVENUE SE,+CHARLESTON,+WV+25304&hl=en"
CHARLESTON POLICE DEPARTMENT,RITE AID BRIDGE ROAD,1015 BRIDGE ROAD,CHARLESTON,WV,25314,"http://maps.google.com/maps?q=1015 BRIDGE ROAD,+CHARLESTON,+WV+25314&hl=en"
CHARLESTON POLICE DEPARTMENT,"UNIV. OF CHARLESTON 
												
													ROBERT C. BYRD SCHOOL OF PHARMACY",2300 MACCORKLE AVE,CHARLESTON,WV,25304,"http://maps.google.com/maps?q=2300 MACCORKLE AVE,+CHARLESTON,+WV+25304&hl=en"
CHARLESTON POLICE DEPARTMENT,"WALGREENS DRUGSTORE 
												
													PARKING LOT",655 WASHINGTON STREET W,CHARLESTON,WV,25302,"http://maps.google.com/maps?q=655 WASHINGTON STREET W,+CHARLESTON,+WV+25302&hl=en"
CHARTIERS TOWNSHIP POLICE DEPARTMENT,CHARTIERS TOWNSHIP POLICE DEPARTMENT,2 BUCCANEER DRIVE,HOUSTON,PA,15342,"http://maps.google.com/maps?q=2 BUCCANEER DRIVE,+HOUSTON,+PA+15342&hl=en"
CHEROKEE COUNTY SHERIFF'S OFFICE,"CHEROKEE CO. SHERIFF'S OFFICE 
												
													LAW ENFORCEMENT CENTER",312 EAST FREDERICK ST.(10AM-1PM ONLY!),GAFFNEY,SC,29340,"http://maps.google.com/maps?q=312 EAST FREDERICK ST.,+GAFFNEY,+SC+29340&hl=en"
CHESTER POLICE DEPARTMENT,WAL-MART,1691 JA COCHRAN BYPASS,CHESTER,SC,29706,"http://maps.google.com/maps?q=1691 JA COCHRAN BYPASS,+CHESTER,+SC+29706&hl=en"
CHEVY CHASE VILLAGE POLICE DEPARTMENT,CHEVY CHASE VILLAGE POLICE DEPARTMENT,5906 CONNECTICUT AVENUE,CHEVY CHASE,MD,20815,"http://maps.google.com/maps?q=5906 CONNECTICUT AVENUE,+CHEVY CHASE,+MD+20815&hl=en"
CHRISTIANSBURG POLICE DEPARTMENT,"CVS PHARMACY 
												
													PARKING LOT NEAR ENTRANCE",550 NORTH FRANKLIN ST,CHRISTIANSBURG,VA,24073,"http://maps.google.com/maps?q=550 NORTH FRANKLIN ST,+CHRISTIANSBURG,+VA+24073&hl=en"
CITY OF MONESSEN,CITY OF MONESSEN PD,239 DONNER AVE,MONESSEN,PA,15062,"http://maps.google.com/maps?q=239 DONNER AVE,+MONESSEN,+PA+15062&hl=en"
CITY OF WASHINGTON POLICE DEPT,CITY OF WASHINGTON POLICE DEPT,56 WEST STRAWBERRY AVE,WASHINGTON,PA,15301,"http://maps.google.com/maps?q=56 WEST STRAWBERRY AVE,+WASHINGTON,+PA+15301&hl=en"
CLAIRTON POLICE DEPARTMENT,LIVINGSTON PHARMACY,550 MILLER AVE,CLAIRTON,PA,15025,"http://maps.google.com/maps?q=550 MILLER AVE,+CLAIRTON,+PA+15025&hl=en"
CLARKSBURG POLICE DEPARTMENT,CLARKSBURG POLICE DEPARTMENT,222 WEST MAIN STREETREAR LOT,CLARKSBURG,WV,26301,"http://maps.google.com/maps?q=222 WEST MAIN STREET,+CLARKSBURG,+WV+26301&hl=en"
CLAY COUNTY SHERIFF DEPT.,"CLAY COUNTY COURT HOUSE 
												
													FRONT DOOR/COURTYARD SQUARE",246 MAIN STREET,CLAY,WV,25043,"http://maps.google.com/maps?q=246 MAIN STREET,+CLAY,+WV+25043&hl=en"
COEBURN POLICE DEPARTMENT,"COEBURN FOOD CITY 
												
													MARTY SHOPPING CENTER",517 FRONT ST W,COEBURN,VA,24230,"http://maps.google.com/maps?q=517 FRONT ST W,+COEBURN,+VA+24230&hl=en"
COLUMBUS POLICE DEPARTMENT,CVS PHARMACY,333 W. MILLS STREET,COLUMBUS,NC,28722,"http://maps.google.com/maps?q=333 W. MILLS STREET,+COLUMBUS,+NC+28722&hl=en"
CONEWAGO TOWNSHIP POLICE DEPARTMENT,CONEWAGO TOWNSHIP POLICE DEPARTMENT,541 OXFORD AVENUE,HANOVER,PA,17331,"http://maps.google.com/maps?q=541 OXFORD AVENUE,+HANOVER,+PA+17331&hl=en"
CONEWAGO TWP POLICE DEPT,CONEWAGO TWP POLICE DEPT,541 OXFORD AVE,HANOVER,PA,17331,"http://maps.google.com/maps?q=541 OXFORD AVE,+HANOVER,+PA+17331&hl=en"
CRAIG COUNTY SHERIFF'S OFFICE,"MARKET STREET PHARMACY 
												
													PARKING LOT",317 MARKET ST,NEW CASTLE,VA,24127,"http://maps.google.com/maps?q=317 MARKET ST,+NEW CASTLE,+VA+24127&hl=en"
CUMBERLAND TOWNSHIP POLICE,SAINT FRACIS XAVIER CENTER,465 TABLE ROCK ROAD,GETTYSBURG,PA,17325,"http://maps.google.com/maps?q=465 TABLE ROCK ROAD,+GETTYSBURG,+PA+17325&hl=en"
DAMASCUS POLICE DEPARTMENT,DAMASCUS TOWN PARK,104 S BEAVER DAM AVE,DAMASCUS,VA,24236,"http://maps.google.com/maps?q=104 S BEAVER DAM AVE,+DAMASCUS,+VA+24236&hl=en"
DANVILLE POLICE DEPARTMENT,"CENTRA MEDICAL GROUP DANVILLE 
												
													PARKING LOT - WEST END OF THE BUILDING",414 PARK AVE,DANVILLE,VA,24541,"http://maps.google.com/maps?q=414 PARK AVE,+DANVILLE,+VA+24541&hl=en"
DEA / MONTCLAIR LIONS CLUB,"MONTCLAIR SHOPPING CENTER 
												
													IN FRONT OF FRAMING OUTLET",5183 WATERWAY DRIVE,DUMFRIES,VA,22025,"http://maps.google.com/maps?q=5183 WATERWAY DRIVE,+DUMFRIES,+VA+22025&hl=en"
DEA HQ_TESTING,DEA HEADQUARTERS,700 ARMY NAVY DRIVE,ARLINGTON,VA,22202,"http://maps.google.com/maps?q=700 ARMY NAVY DRIVE,+ARLINGTON,+VA+22202&hl=en"
DICKENSON COUNTY SHERIFF'S OFFICE,"FOOD CITY 
												
													NEAR THE FRONT ENTRANCE",410 CHASE STREET,CLINTWOOD,VA,24228,"http://maps.google.com/maps?q=410 CHASE STREET,+CLINTWOOD,+VA+24228&hl=en"
DILLON COUNTY SHERIFF'S OFFICE,DILLON COUNTY JUDICIAL CENTER,1033 OLD LATTA HWY,DILLON,SC,29536,"http://maps.google.com/maps?q=1033 OLD LATTA HWY,+DILLON,+SC+29536&hl=en"
DODDRIDGE COUNTY SHERIFF'S DEPARTMENT,DODDRIDGE CTY SD,89 COURT ST,WEST UNION,WV,26456,"http://maps.google.com/maps?q=89 COURT ST,+WEST UNION,+WV+26456&hl=en"
DORMONT POLICE DEPARTMENT,CVS PHARMACY,3075 WEST LIBERTY AVENUE,PITTSBURGH,PA,15216,"http://maps.google.com/maps?q=3075 WEST LIBERTY AVENUE,+PITTSBURGH,+PA+15216&hl=en"
DUBLIN POLICE DEPARTMENT,CVS PHARMACY #7658,100 GILES AVENUE,DUBLIN,VA,24084,"http://maps.google.com/maps?q=100 GILES AVENUE,+DUBLIN,+VA+24084&hl=en"
DUQUESNE UNIVERSITY PUBLIC SAFETY,BAYER SCHOOL,MCNAULTY DR,PITTSBURGH,PA,15282,"http://maps.google.com/maps?q=MCNAULTY DR,+PITTSBURGH,+PA+15282&hl=en"
DURHAM POLICE DEPARTMENT,KROGER,202 W NC HIGHWAY 54,DURHAM,NC,27713,"http://maps.google.com/maps?q=202 W NC HIGHWAY 54,+DURHAM,+NC+27713&hl=en"
DURHAM POLICE DEPARTMENT,KROGER,3457 HILLSBOROUGH ROAD,DURHAM,NC,27705,"http://maps.google.com/maps?q=3457 HILLSBOROUGH ROAD,+DURHAM,+NC+27705&hl=en"
DURHAM POLICE DEPARTMENT,TRIANGLE PHARMACY,1700 E NC HIGHWAY 54,DURHAM,NC,27713,"http://maps.google.com/maps?q=1700 E NC HIGHWAY 54,+DURHAM,+NC+27713&hl=en"
DURHAM POLICE DEPARTMENT,WALGREENS,1812 HOLLOWAY STREET,DURHAM,NC,27701,"http://maps.google.com/maps?q=1812 HOLLOWAY STREET,+DURHAM,+NC+27701&hl=en"
EAST PITTSBURGH POLICE,LANIGAN''S FUNERAL HOME,700 LINDEN AVENUE,EAST PITTSBURGH,PA,15112,"http://maps.google.com/maps?q=700 LINDEN AVENUE,+EAST PITTSBURGH,+PA+15112&hl=en"
EAST TAYLOR TWP POLICE DEPT,MARTELLA'S PHARMACY,1932 WILLIAM PENN AVE,JOHNSTOWN,PA,15909,"http://maps.google.com/maps?q=1932 WILLIAM PENN AVE,+JOHNSTOWN,+PA+15909&hl=en"
EASTERN ADAMS REGIONAL POLICE DEPARTMENT,EASTERN ADAMS REGIONAL POLICE DEPARTMENT,110 N. BERLIN AVE,NEW OXFORD,PA,17350,"http://maps.google.com/maps?q=110 N. BERLIN AVE,+NEW OXFORD,+PA+17350&hl=en"
ELIZABETHTON TN POLICE DEPARTMENT,ELIZABETHTON POLICE DEPARTMENT,525 EAST F STREET,ELIZABETHTON,TN,37643,"http://maps.google.com/maps?q=525 EAST F STREET,+ELIZABETHTON,+TN+37643&hl=en"
ELKIN POLICE DEPARTMENT,"WAL-MART 
												
													COLLECTION WILL BE IN THE PARKING LOT",548 CC CAMP RD,ELKIN,NC,28621,"http://maps.google.com/maps?q=548 CC CAMP RD,+ELKIN,+NC+28621&hl=en"
ERWIN POLICE DEPARTMENT,CITY HALL,211 N. MAIN AVENUE,ERWIN,TN,37650,"http://maps.google.com/maps?q=211 N. MAIN AVENUE,+ERWIN,+TN+37650&hl=en"
FAIRFAX CITY POLICE DEPARTMENT,"FAIRFAX CITY POLICE DEPARTMENT 
												
													FRONT LOBBY",3730 OLD LEE HIGHWAY,FAIRFAX,VA,22030,"http://maps.google.com/maps?q=3730 OLD LEE HIGHWAY,+FAIRFAX,+VA+22030&hl=en"
FAIRFAX COUNTY POLICE DEPARTMENT,"FAIR OAKS DISTRICT STATION 
												
													PARKING LOT -OPERATING 10 AM TO 2 PM-",12300 LEE JACKSON MEMORIAL HIGHWAY,FAIRFAX,VA,22033,"http://maps.google.com/maps?q=12300 LEE JACKSON MEMORIAL HIGHWAY,+FAIRFAX,+VA+22033&hl=en"
FAIRFAX COUNTY POLICE DEPARTMENT,"FRANCONIA DISTRICT STATION 
												
													FRONT PARKING LOT -OPERATING 10 AM TO 2 PM-",6121 FRANCONIA ROAD,ALEXANDRIA,VA,22310,"http://maps.google.com/maps?q=6121 FRANCONIA ROAD,+ALEXANDRIA,+VA+22310&hl=en"
FAIRFAX COUNTY POLICE DEPARTMENT,"MASON DISTRICT STATION 
												
													FRONT PARKING LOT -OPERATING 10 AM TO 2 PM-",6507 COLUMBIA PIKE,ANNANDALE,VA,22003,"http://maps.google.com/maps?q=6507 COLUMBIA PIKE,+ANNANDALE,+VA+22003&hl=en"
FAIRFAX COUNTY POLICE DEPARTMENT,"MCLEAN DISTRICT POLICE STATION 
												
													FRONT PARKING LOT -OPERATING 10 AM TO 2 PM-",1437 BALLS HILL ROAD,MCLEAN,VA,22101,"http://maps.google.com/maps?q=1437 BALLS HILL ROAD,+MCLEAN,+VA+22101&hl=en"
FAIRFAX COUNTY POLICE DEPARTMENT,"RESTON DISTRICT STATION 
												
													PARKING LOT -OPERATING 10 AM TO 2 PM-",12000 BOWMAN TOWNE DRIVE,RESTON,VA,20190,"http://maps.google.com/maps?q=12000 BOWMAN TOWNE DRIVE,+RESTON,+VA+20190&hl=en"
FAIRFAX COUNTY POLICE DEPARTMENT,"SULLY DISTRICT POLICE STATION 
												
													FRONT PARKING LOT -OPERATING 10 AM TO 2 PM-",4900 STONECROFT BOULEVARD,CHANTILLY,VA,20151,"http://maps.google.com/maps?q=4900 STONECROFT BOULEVARD,+CHANTILLY,+VA+20151&hl=en"
FAIRFAX COUNTY POLICE DEPARTMENT,"WEST SPRINGFIELD DISTRICT STATION 
												
													PARKING LOT -OPERATING 10 AM TO 2 PM-",6140 ROLLING ROAD,SPRINGFIELD,VA,22152,"http://maps.google.com/maps?q=6140 ROLLING ROAD,+SPRINGFIELD,+VA+22152&hl=en"
FAIRMONT POLICE DEPARTMENT,"FAIRMONT POLICE DEPARTMENT 
												
													PUBLIC SAFETY BUILDING",500 QUINCY STREET,FAIRMONT,WV,26554,"http://maps.google.com/maps?q=500 QUINCY STREET,+FAIRMONT,+WV+26554&hl=en"
FALLS CHURCH POLICE DEPARTMENT,"FALLS CHURCH CITY HALL 
												
													EXTERIOR",300 PARK AVE,FALLS CHURCH,VA,22046,"http://maps.google.com/maps?q=300 PARK AVE,+FALLS CHURCH,+VA+22046&hl=en"
FARMVILLE POLICE DEPARTMENT/LONGWOOD UNIVERSITY PD,"MIDTOWN SQUARE 
												
													IN FRONT OF CHICK-FIL-A",156 S. SOUTH STREET,FARMVILLE,VA,23901,"http://maps.google.com/maps?q=156 S. SOUTH STREET,+FARMVILLE,+VA+23901&hl=en"
FAYETTE COUNTY SHERIFF'S OFFICE,FAYETTE COUNTY SHERIFF'S OFFICE,100 NORTH COURT ST. STE 5,FAYETTEVILLE,WV,25840,"http://maps.google.com/maps?q=100 NORTH COURT ST. STE 5,+FAYETTEVILLE,+WV+25840&hl=en"
FAYETTEVILLE POLICE DEPARTMENT,"CAMPBELLTON DISTRICT FAYETTEVILLE POLICE DEPARTMEN 
												
													MON-FRI  9-4PM  SATURDAY 9-1",467 HAY ST.,FAYETTEVILLE,NC,28301,"http://maps.google.com/maps?q=467 HAY ST.,+FAYETTEVILLE,+NC+28301&hl=en"
FAYETTEVILLE POLICE DEPARTMENT,"CENTRAL DISTRICT FAYETTEVILLE POLICE DEPT 
												
													MON-FRI  9-4PM",3811 SYCAMORE DAIRY RD,FAYETTEVILLE,NC,28303,"http://maps.google.com/maps?q=3811 SYCAMORE DAIRY RD,+FAYETTEVILLE,+NC+28303&hl=en"
FAYETTEVILLE POLICE DEPARTMENT,"CROSS CREEK DIVISION FAYETTEVILLE POLICE DEPT 
												
													MON-FRI  9-4PM",6147 RAEFORD RD,FAYETTEVILLE,NC,28304,"http://maps.google.com/maps?q=6147 RAEFORD RD,+FAYETTEVILLE,+NC+28304&hl=en"
FLETCHER POLICE DEPARTMENT,FLETCHER TOWN HALL,300 OLD CANE CREEK RD,FLETCHER,NC,28732,"http://maps.google.com/maps?q=300 OLD CANE CREEK RD,+FLETCHER,+NC+28732&hl=en"
FLOYD COUNTY SHERIFF'S OFFICE,"FLOYD COUNTY SHERIFF'S OFFICE 
												
													MAIN ENTRANCE",100 MAIN STREET,FLOYD,VA,24091,"http://maps.google.com/maps?q=100 MAIN STREET,+FLOYD,+VA+24091&hl=en"
FLUVANNA COUNTY SHERIFF'S OFFICE,CVS PHARMACY,28 ABBY ROAD,PALMYRA,VA,22963,"http://maps.google.com/maps?q=28 ABBY ROAD,+PALMYRA,+VA+22963&hl=en"
FORT DETRICK EMERGENCY SERVICES,"COMMISSARY BUILDING 1510 
												
													POC DET. LESTER MUMMERT",BUILDING # 1510,FORT DETRICK,MD,21702,"http://maps.google.com/maps?q=BUILDING # 1510,+FORT DETRICK,+MD+21702&hl=en"
FORT DETRICK EMERGENCY SERVICES,"DIRECTORATE OF EMERGENCY SERVICES 
												
													POC DET. LESTER MUMMERT",BUILDING # 1419,FORT DETRICK,MD,21702,"http://maps.google.com/maps?q=BUILDING # 1419,+FORT DETRICK,+MD+21702&hl=en"
FORT DETRICK EMERGENCY SERVICES,FOREST GLENN ANNEX,FOREST GLENN ANNEX,FREDERICK,MD,21702,"http://maps.google.com/maps?q=FOREST GLENN ANNEX,+FREDERICK,+MD+21702&hl=en"
FOUNTAIN INN POLICE DEPT.,FOUNTAIN INN POLICE DEPT.,300 N. MAIN STREET,FOUNTAIN INN,SC,29644,"http://maps.google.com/maps?q=300 N. MAIN STREET,+FOUNTAIN INN,+SC+29644&hl=en"
FRANKLIN COUNTY SHERIFF'S OFFICE,FERRUM COLLEGE PD OFFICE,10021 FRANKLIN STREET,FERRUM,VA,24088,"http://maps.google.com/maps?q=10021 FRANKLIN STREET,+FERRUM,+VA+24088&hl=en"
FRANKLIN COUNTY SHERIFF'S OFFICE,FRANKLIN COUNTY SHERIFF'S  WESTLAKE SUBSTATION,13205 BOOKER T. WASHINGTON HWY,HARDY,VA,24101,"http://maps.google.com/maps?q=13205 BOOKER T. WASHINGTON HWY,+HARDY,+VA+24101&hl=en"
FREDERICK COUNTY SHERIFF'S OFFICE,FREDERICK COUNTY PUBLIC SAFETY BUILDING,1080 COVERSTONE DRIVE,WINCHESTER,VA,22602,"http://maps.google.com/maps?q=1080 COVERSTONE DRIVE,+WINCHESTER,+VA+22602&hl=en"
FREDERICK COUNTY SHERIFF'S OFFICE,WALGREENS,131 VALLEY MILL ROAD,WINCHESTER,VA,22602,"http://maps.google.com/maps?q=131 VALLEY MILL ROAD,+WINCHESTER,+VA+22602&hl=en"
FREDERICK POLICE DEPARTMENT,TRINITY SCHOOL,6040 NEW DESIGN ROAD,FREDERICK,MD,21703,"http://maps.google.com/maps?q=6040 NEW DESIGN ROAD,+FREDERICK,+MD+21703&hl=en"
FREDERICKSBURG POLICE DEPARTMENT,"MARY WASHINGTON HOSPITAL 
												
													TOMPKINS-MARTIN MEDICAL PLAZA",1101 SAM PERRY BLVD,FREDERICKSBURG,VA,22401,"http://maps.google.com/maps?q=1101 SAM PERRY BLVD,+FREDERICKSBURG,+VA+22401&hl=en"
GAITHERSBURG POLICE DEPARTMENT,GAITHERSBURG POLICE DEPARTMENT,14 FULKS CORNER AVENUE,GAITHERSBURG,MD,20877,"http://maps.google.com/maps?q=14 FULKS CORNER AVENUE,+GAITHERSBURG,+MD+20877&hl=en"
GALAX POLICE DEPARTMENT,"GALAX POLICE DEPARTMENT 
												
													POLICE DEPARTMENT PARKING LOT",353 N. MAIN STREET,GALAX,VA,24333,"http://maps.google.com/maps?q=353 N. MAIN STREET,+GALAX,+VA+24333&hl=en"
GARNER POLICE DEPARTMENT,"GARNER POLICE DEPARTMENT 
												
													MONDAY - FRIDAY 8A - 5P",912 SEVENTH AVE,GARNER,NC,27529,"http://maps.google.com/maps?q=912 SEVENTH AVE,+GARNER,+NC+27529&hl=en"
GARRETT COUNTY SHERIFF'S OFFICE,"GARRETT COUNTY SHERIFF'S OFFICE 
												
													POC MIKE BITTINGER",311 EAST ALDER STREET,OAKLAND,MD,21550,"http://maps.google.com/maps?q=311 EAST ALDER STREET,+OAKLAND,+MD+21550&hl=en"
GEORGE MASON UNIVERSITY POLICE DEPARTMENT,GEORGE MASON UNIVERSITY POLICE STATION,4393 UNIVERSITY DRIVE,FAIRFAX,VA,22030,"http://maps.google.com/maps?q=4393 UNIVERSITY DRIVE,+FAIRFAX,+VA+22030&hl=en"
GETTYSBURG BOROUGH POLICE DEPARTMENT,ADAMS COUNTY HOUSING AUTHORITY,40 EAST HIGH STREET,GETTYSBURG,PA,17325,"http://maps.google.com/maps?q=40 EAST HIGH STREET,+GETTYSBURG,+PA+17325&hl=en"
GILES COUNTY SHERIFF'S OFFICE,GILES COUNTY SHERIFF'S OFFICE,1 TAYLOR AVENUE SUITE 3,PEARISBURG,VA,24134,"http://maps.google.com/maps?q=1 TAYLOR AVENUE SUITE 3,+PEARISBURG,+VA+24134&hl=en"
GOOCHLAND COUNTY SHERIFF'S OFFICE,GOOCHLAND FIRE/RESCUE COMPANY 5,2710 FAIRGROUNDS ROAD,GOOCHLAND,VA,23063,"http://maps.google.com/maps?q=2710 FAIRGROUNDS ROAD,+GOOCHLAND,+VA+23063&hl=en"
GORDONSVILLE POLICE DEPARTMENT,FOOD LION,408 GORDON AVE,GORDONSVILLE,VA,22942,"http://maps.google.com/maps?q=408 GORDON AVE,+GORDONSVILLE,+VA+22942&hl=en"
GRAFTON POLICE DEPARTMENT,GRAFTON POLICE DEPARTMENT,1 WEST MAIN ST,GRAFTON,WV,26354,"http://maps.google.com/maps?q=1 WEST MAIN ST,+GRAFTON,+WV+26354&hl=en"
GRAYSON COUNTY SHERIFF'S OFFICE,CORNER CAFE & MARKET,4013 TROUTDALE HIGHWAY,MOUTH OF WILSON,VA,24363,"http://maps.google.com/maps?q=4013 TROUTDALE HIGHWAY,+MOUTH OF WILSON,+VA+24363&hl=en"
GRAYSON COUNTY SHERIFF'S OFFICE,FRIES FIRE DEPARTMENT,832 EAST MAIN STREET,FRIES,VA,24330,"http://maps.google.com/maps?q=832 EAST MAIN STREET,+FRIES,+VA+24330&hl=en"
GREEN TREE BOROUGH POLICE DEPARTMENT,GREEN TREE MUNICIPAL BUILDING,10 WEST MANILLA AVE.,PITTSBURGH,PA,15220,"http://maps.google.com/maps?q=10 WEST MANILLA AVE.,+PITTSBURGH,+PA+15220&hl=en"
GREENVILLE HEALTH SYSTEM PD,GREENVILLE MEMORIAL HOSPITAL,701 GROVE RD,GREENVILLE,SC,29605,"http://maps.google.com/maps?q=701 GROVE RD,+GREENVILLE,+SC+29605&hl=en"
GREENVILLE HEALTH SYSTEM PD,GREER MEMORIAL HOSPITAL,830 S. BUNCOMBE RD.,GREER,SC,29650,"http://maps.google.com/maps?q=830 S. BUNCOMBE RD.,+GREER,+SC+29650&hl=en"
GREENVILLE HEALTH SYSTEM PD,HILLCREST MEMORIAL HOSPITAL,729 SE MAIN STREET,SIMPSONVILLE,SC,29681,"http://maps.google.com/maps?q=729 SE MAIN STREET,+SIMPSONVILLE,+SC+29681&hl=en"
GREER POLICE DEPARTMENT,ACE ENVIRONMENTAL,315 BUNCOMBE ST.,GREER,SC,29651,"http://maps.google.com/maps?q=315 BUNCOMBE ST.,+GREER,+SC+29651&hl=en"
HAMPSHIRE COUNTY SHERIFF'S OFFICE,HAMPSHIRE COUNTY SD,66 N HIGH STREET,ROMNEY,WV,26757,"http://maps.google.com/maps?q=66 N HIGH STREET,+ROMNEY,+WV+26757&hl=en"
HEIDELBERG POLICE DEPARTMENT,WALGREENS,2055 WASHINGTON PIKE,CARNEGIE,PA,15106,"http://maps.google.com/maps?q=2055 WASHINGTON PIKE,+CARNEGIE,+PA+15106&hl=en"
HERNDON POLICE DEPARTMENT,"HERNDON POLICE DEPARTMENT 
												
													LOBBY AREA",397 HERNDON PARKWAY,HERNDON,VA,20170,"http://maps.google.com/maps?q=397 HERNDON PARKWAY,+HERNDON,+VA+20170&hl=en"
HIGH POINT POLICE DEPARTMENT,"ARCHDALE DRUG 
												
													10AM.-2PM",11220 N MAIN STREET,HIGH POINT,NC,27263,"http://maps.google.com/maps?q=11220 N MAIN STREET,+HIGH POINT,+NC+27263&hl=en"
HIGHLAND COUNTY SHERIFF'S OFFICE,HIGHLAND COUNTY SHERIFF'S OFFICE,145 WEST MAIN STREET,MONTEREY,VA,24465,"http://maps.google.com/maps?q=145 WEST MAIN STREET,+MONTEREY,+VA+24465&hl=en"
HINTON POLICE DEPARTMENT,"KROGER 
												
													PARKING LOT",308 STOKES DRIVE,HINTON,WV,25951,"http://maps.google.com/maps?q=308 STOKES DRIVE,+HINTON,+WV+25951&hl=en"
HOWARD COUNTY POLICE DEPARTMENT,GARY ARTHUR COMMUNITY CENTER,2400 RT. 97,COOKSVILLE,MD,21723,"http://maps.google.com/maps?q=2400 RT. 97,+COOKSVILLE,+MD+21723&hl=en"
HOWARD COUNTY POLICE DEPARTMENT,HC DRUGFREE,10451 TWIN RIVERS ROAD,COLUMBIA,MD,21045,"http://maps.google.com/maps?q=10451 TWIN RIVERS ROAD,+COLUMBIA,+MD+21045&hl=en"
HOWARD COUNTY POLICE DEPARTMENT,"HOWARD COUNTY POLICE 
												
													NORTHERN DISTRICT",3410 COURTHOUSE DR.,ELLICOTT CITY,MD,21043,"http://maps.google.com/maps?q=3410 COURTHOUSE DR.,+ELLICOTT CITY,+MD+21043&hl=en"
HOWARD COUNTY POLICE DEPARTMENT,"HOWARD COUNTY POLICE 
												
													SOUTHERN DISTRICT",11226 SCAGGSVILLE RD.,LAUREL,MD,20723,"http://maps.google.com/maps?q=11226 SCAGGSVILLE RD.,+LAUREL,+MD+20723&hl=en"
HOWARD COUNTY POLICE DEPARTMENT,HOWARD COUNTY POLICE COMMUNITY OUTREACH,10785 LITTLE PATUXENT PARKWAY,COLUMBIA,MD,21044,"http://maps.google.com/maps?q=10785 LITTLE PATUXENT PARKWAY,+COLUMBIA,+MD+21044&hl=en"
HUNTINGTON POLICE DEPARTMENT,CABELL HUNTINGTON HEALTH DEPARTMENT,703 7TH AVE HUNTINGTON,HUNTINGTON,WV,25701,"http://maps.google.com/maps?q=703 7TH AVE HUNTINGTON,+HUNTINGTON,+WV+25701&hl=en"
JACKSON COUNTY SHERIFF'S DEPARTMENT,KENNA VOLUNTEER FIRE DEPARTMENT,RT 21 AT PLEASANT VALLEY ROAD,KENNA,WV,25248,"http://maps.google.com/maps?q=RT 21 AT PLEASANT VALLEY ROAD,+KENNA,+WV+25248&hl=en"
JACKSON COUNTY SHERIFF'S DEPARTMENT,RAVENSWOOD VOLUNTEER FIRE DEPT,333 VIRGINIA STREET,RAVENSWOOD,WV,26164,"http://maps.google.com/maps?q=333 VIRGINIA STREET,+RAVENSWOOD,+WV+26164&hl=en"
JACKSON COUNTY SHERIFF'S DEPARTMENT,RIPLEY CITY HALL,203 SOUTH CHURCH ST,RIPLEY,WV,25271,"http://maps.google.com/maps?q=203 SOUTH CHURCH ST,+RIPLEY,+WV+25271&hl=en"
JEFFERSON COUNTY SHERIFF'S OFFICE,CHARLES TOWN WALMART,96 PATRICK HENRY WAY,CHARLES TOWN,WV,25414,"http://maps.google.com/maps?q=96 PATRICK HENRY WAY,+CHARLES TOWN,+WV+25414&hl=en"
JEFFERSON COUNTY SHERIFF'S OFFICE,JEFFERSON COUNTY SHERIFF,102 INDUSTRIAL BOULEVARD,KEARNEYSVILLE,WV,25430,"http://maps.google.com/maps?q=102 INDUSTRIAL BOULEVARD,+KEARNEYSVILLE,+WV+25430&hl=en"
JOHNSON COUNTY SHERIFF'S OFFICE,BUTLER FIRE DEPARTMENT,PIERCE TOWN ROAD,BUTLER,TN,37640,"http://maps.google.com/maps?q=PIERCE TOWN ROAD,+BUTLER,+TN+37640&hl=en"
JOHNSON COUNTY SHERIFF'S OFFICE,MOUNTAIN CITY POLICE DEPARTMENT,210 SOUTH CHURCH STREET,MOUNTAIN CITY,TN,37683,"http://maps.google.com/maps?q=210 SOUTH CHURCH STREET,+MOUNTAIN CITY,+TN+37683&hl=en"
JOHNSON COUNTY SHERIFF'S OFFICE,SHADY VALLEY FIRE DEPT.,10114 US 421 N,SHADY VALLEY,TN,37688,"http://maps.google.com/maps?q=10114 US 421 N,+SHADY VALLEY,+TN+37688&hl=en"
JONESBOROUGH DEPT. OF PUBLIC SAFETY,JONESBOROUGH FIRE DEPT.,123 BOONE STREET,JONESBOROUGH,TN,37659,"http://maps.google.com/maps?q=123 BOONE STREET,+JONESBOROUGH,+TN+37659&hl=en"
KANAWHA COUNTY SHERIFF'S OFFICE,"KANAWHA COUNTY SHERIFF'S DETACHMENT 
												
													CROSS LANES DETACHMENT/CPL J.A. RATLIFF",903 CROSS LANES DR,CROSS LANES,WV,25313,"http://maps.google.com/maps?q=903 CROSS LANES DR,+CROSS LANES,+WV+25313&hl=en"
KANAWHA COUNTY SHERIFF'S OFFICE,"KANAWHA COUNTY SHERIFF'S OFFICE 
												
													QUINCY DETACHMENT/LT R.B. LILLY",2700 E DUPONT AVE,BELLE,WV,25015,"http://maps.google.com/maps?q=2700 E DUPONT AVE,+BELLE,+WV+25015&hl=en"
KANAWHA COUNTY SHERIFF'S OFFICE,"KANAWHA COUNTY SHERIFF'S OFFICE 
												
													SISSONVILLE DETACHMENT/LT. K.L. WHITE",6438 SISSONVILLE DRIVE,SISSONVILLE,WV,25320,"http://maps.google.com/maps?q=6438 SISSONVILLE DRIVE,+SISSONVILLE,+WV+25320&hl=en"
KANAWHA COUNTY SHERIFF'S OFFICE,"KANAWHA COUNTY SHERIFF'S OFFICE 
												
													ST. ALBANS DETACHMENT/CPT. BOONE",6809 OHIO AVENUE,SAINT ALBANS,WV,25177,"http://maps.google.com/maps?q=6809 OHIO AVENUE,+SAINT ALBANS,+WV+25177&hl=en"
KANAWHA COUNTY SHERIFF'S OFFICE,"KANWHA COUNTY SHERIFF'S DEPT 
												
													ELKVIEW DETACHMENT/SGT. M. HUDDLESTON",902 MAIN ST,ELKVIEW,WV,25071,"http://maps.google.com/maps?q=902 MAIN ST,+ELKVIEW,+WV+25071&hl=en"
KANNAPOLIS YMCA,KANNAPOLIS YMCA,101 YMCA DRIVE,KANNAPOLIS,NC,28081,"http://maps.google.com/maps?q=101 YMCA DRIVE,+KANNAPOLIS,+NC+28081&hl=en"
KENTUCKY STATE POLICE POST 14,KENTUCKY STATE POLICE,5975 STATE ROUTE US 60,ASHLAND,KY,41102,"http://maps.google.com/maps?q=5975 STATE ROUTE US 60,+ASHLAND,+KY+41102&hl=en"
KINGSPORT POLICE DEPARTMENT,KINGSPORT JUSTICE CENTER,200 SHELBY ST,KINGSPORT,TN,37660,"http://maps.google.com/maps?q=200 SHELBY ST,+KINGSPORT,+TN+37660&hl=en"
KINGSPORT POLICE DEPARTMENT,V.O. DOBBINS COMPLEX,301 LOUIS ST,KINGSPORT,TN,37660,"http://maps.google.com/maps?q=301 LOUIS ST,+KINGSPORT,+TN+37660&hl=en"
LAUREL POLICE DEPARTMENT,LAUREL POLICE DEPARTMENT,811 FIFTH STREET,LAUREL,MD,20707,"http://maps.google.com/maps?q=811 FIFTH STREET,+LAUREL,+MD+20707&hl=en"
LEBANON POLICE DEPARTMENT,WALMART,1050 REGIONAL PARK ROAD,LEBANON,VA,24266,"http://maps.google.com/maps?q=1050 REGIONAL PARK ROAD,+LEBANON,+VA+24266&hl=en"
LENOIR POLICE DEPARTMENT,"CVS PHARMACY 
												
													10:00AM ---2:00 PM",875 BLOWING ROCK BLVD,LENOIR,NC,28645,"http://maps.google.com/maps?q=875 BLOWING ROCK BLVD,+LENOIR,+NC+28645&hl=en"
LEXINGTON POLICE DEPARTMENT,CVS PHARMACY,506 E NELSON STREET,LEXINGTON,VA,24450,"http://maps.google.com/maps?q=506 E NELSON STREET,+LEXINGTON,+VA+24450&hl=en"
LITTLESTOWN POLICE DEPARTMENT,MAPLE AVE MIDDLE SCHOOL,75 MAPLE AVE,LITTLESTOWN,PA,17340,"http://maps.google.com/maps?q=75 MAPLE AVE,+LITTLESTOWN,+PA+17340&hl=en"
LOGAN COUNTY SHERIFF'S DEPARTMENT,"WAL-MART SUPER CENTER 
												
													FOUNTAIN PLACE MALL",U.S.  119/WV 73,LOGAN,WV,25601,"http://maps.google.com/maps?q=U.S.  119/WV 73,+LOGAN,+WV+25601&hl=en"
LOUDOUN COUNTY SHERIFF'S OFFICE,"DULLES SOUTH PUBLIC SAFETY CENTER 
												
													FRONT LOBBY AREA",25216 LOUDOUN PARKWAY,CHANTILLY,VA,20152,"http://maps.google.com/maps?q=25216 LOUDOUN PARKWAY,+CHANTILLY,+VA+20152&hl=en"
LOUDOUN COUNTY SHERIFF'S OFFICE,"EASTERN LOUDOUN STATION 
												
													FRONT LOBBY AREA",46620 EAST FREDERICK DRIVE,STERLING,VA,20164,"http://maps.google.com/maps?q=46620 EAST FREDERICK DRIVE,+STERLING,+VA+20164&hl=en"
LOUDOUN COUNTY SHERIFF'S OFFICE,"LANDSDOWNE PUBLIC SAFETY CENTER 
												
													FRONT LOBBY/ENTRANCE AREA",19485 SANDRIDGE WAY,LEESBURG,VA,20176,"http://maps.google.com/maps?q=19485 SANDRIDGE WAY,+LEESBURG,+VA+20176&hl=en"
LOUDOUN COUNTY SHERIFF'S OFFICE,LOVETTSVILLE TOWN HALL,6 E PENNSYLVANIA AVE,LOVETTSVILLE,VA,20180,"http://maps.google.com/maps?q=6 E PENNSYLVANIA AVE,+LOVETTSVILLE,+VA+20180&hl=en"
LOUISA COUNTY SHERIFF'S OFFICE,LOUISA COUNTY SHERIFF'S OFFICE,1 WOOLFOLK AVE,LOUISA,VA,23093,"http://maps.google.com/maps?q=1 WOOLFOLK AVE,+LOUISA,+VA+23093&hl=en"
LYNCHBURG POLICE DEPARTMENT,"LYNCHBURG POLICE DEPARTMENT 
												
													LOBBY",905 COURT STREET,LYNCHBURG,VA,24504,"http://maps.google.com/maps?q=905 COURT STREET,+LYNCHBURG,+VA+24504&hl=en"
MADISON COUNTY SHERIFF'S OFFICE,MADISON COUNTY SHERIFF'S OFFICE,115 CHURCH ST,MADISON,VA,22727,"http://maps.google.com/maps?q=115 CHURCH ST,+MADISON,+VA+22727&hl=en"
MANASSAS CITY POLICE DEPARTMENT,"NOVANT HEALTH - PRINCE WILLIAM MEDICAL CENTER 
												
													ENTRANCE TO WOMEN'S CENTER - OB/GYN",8700 SUDLEY ROAD,MANASSAS,VA,20110,"http://maps.google.com/maps?q=8700 SUDLEY ROAD,+MANASSAS,+VA+20110&hl=en"
MANASSAS PARK POLICE DEPARTMENT,MPPD COMMUNITY ROOM,329 MANASSAS DR,MANASSAS,VA,20111,"http://maps.google.com/maps?q=329 MANASSAS DR,+MANASSAS,+VA+20111&hl=en"
MARTINSVILLE POLICE DEPARTMENT,"MARTINSVILLE FIRE DEPARTMENT 
												
													FRONT ENTRANCE",65 WEST CHURCH ST.,MARTINSVILLE,VA,24112,"http://maps.google.com/maps?q=65 WEST CHURCH ST.,+MARTINSVILLE,+VA+24112&hl=en"
MARYLAND STATE POLICE,"MSP CUMBERLAND BARRACK 
												
													POC:  LT. MICHAEL FLUHARTY",1125 NATIONAL HIGHWAY,CUMBERLAND,MD,21502,"http://maps.google.com/maps?q=1125 NATIONAL HIGHWAY,+CUMBERLAND,+MD+21502&hl=en"
MARYLAND STATE POLICE,"MSP FREDERICK BARRACK 
												
													POC:  LT. TODD MAY",110 AIRPORT DRIVE EAST,FREDERICK,MD,21701,"http://maps.google.com/maps?q=110 AIRPORT DRIVE EAST,+FREDERICK,+MD+21701&hl=en"
MARYLAND STATE POLICE,"MSP HAGERSTOWN BARRACK 
												
													POC- LT. WOODWARD",18345 COL. HENRY K. DOUGLAS DR.,HAGERSTOWN,MD,21740,"http://maps.google.com/maps?q=18345 COL. HENRY K. DOUGLAS DR.,+HAGERSTOWN,+MD+21740&hl=en"
MARYLAND STATE POLICE,"MSP MCHENRY BARRACK 
												
													POC:  SGT. VINCE UPOLE",67 FRIENDSVILLE ROAD,MC HENRY,MD,21541,"http://maps.google.com/maps?q=67 FRIENDSVILLE ROAD,+MC HENRY,+MD+21541&hl=en"
MARYLAND STATE POLICE,"MSP ROCKVILLE BARRACK 
												
													POC:  LT. H.B. MARTZ",7915 MONTROSE ROAD,ROCKVILLE,MD,20854,"http://maps.google.com/maps?q=7915 MONTROSE ROAD,+ROCKVILLE,+MD+20854&hl=en"
MARYLAND STATE POLICE,"MSP WESTMINSTER BARRACKS 
												
													POC:  LT.  PATRICK MCCRORY",1100 BALTIMORE BLVD.,WESTMINSTER,MD,21157,"http://maps.google.com/maps?q=1100 BALTIMORE BLVD.,+WESTMINSTER,+MD+21157&hl=en"
MASON COUNTY SHERIFF'S OFFICE,MASON COUNTY SHERIFF'S OFFICE,200 SIXTH STREET,POINT PLEASANT,WV,25550,"http://maps.google.com/maps?q=200 SIXTH STREET,+POINT PLEASANT,+WV+25550&hl=en"
MASON COUNTY SHERIFF'S OFFICE,NEW HAVEN VOLUNTEER FIRE DEPT,407 5TH STREET,NEW HAVEN,WV,25265,"http://maps.google.com/maps?q=407 5TH STREET,+NEW HAVEN,+WV+25265&hl=en"
MATEWAN WV PD,MATEWAN POLICE DEPARTMENT,ROUTE 65 MCCOY ALLEY,MATEWAN,WV,25678,"http://maps.google.com/maps?q=ROUTE 65 MCCOY ALLEY,+MATEWAN,+WV+25678&hl=en"
MCDONALD POLICE DEPARTMENT,MCDONALD POLICE DEPARTMENT,151 SCHOOL STREET,MC DONALD,PA,15057,"http://maps.google.com/maps?q=151 SCHOOL STREET,+MC DONALD,+PA+15057&hl=en"
MCDOWELL COUNTY SHERIFF DEPARTMENT,MAGIC MART,COAL HERITAGE RD,WELCH,WV,24801,"http://maps.google.com/maps?q=COAL HERITAGE RD,+WELCH,+WV+24801&hl=en"
MERCER COUNTY SHERIFF'S DEPARTMENT,MERCER COUNTY SD GARAGE,1501 WEST MAIN STREET,PRINCETON,WV,24740,"http://maps.google.com/maps?q=1501 WEST MAIN STREET,+PRINCETON,+WV+24740&hl=en"
MEYERSDALE BOROUGH POLICE,THOMAS DRUG STORE,327 MAIN STREET,MEYERSDALE,PA,15552,"http://maps.google.com/maps?q=327 MAIN STREET,+MEYERSDALE,+PA+15552&hl=en"
MILLVALE POLICE DEPARTMENT,MILLVALE BOROUGH BUILDING,501 LINCOLN AVENUE,PITTSBURGH,PA,15209,"http://maps.google.com/maps?q=501 LINCOLN AVENUE,+PITTSBURGH,+PA+15209&hl=en"
MILTON POLICE DEPARTMENT,MILTON VOLUNTEER  FIRE DEPARTMENT,341 E MAIN ST,MILTON,WV,25541,"http://maps.google.com/maps?q=341 E MAIN ST,+MILTON,+WV+25541&hl=en"
MINERAL COUNTY SHERIFF'S OFFICE,"MINERAL COUNTY DETENTION CENTER 
												
													ACROSS STREET FROM COURTHOUSE",100 EAST STREET,KEYSER,WV,26726,"http://maps.google.com/maps?q=100 EAST STREET,+KEYSER,+WV+26726&hl=en"
MONONGAH POLICE DEPT,MONONGAH PD,430 BRIDGE ST,FAIRMONT,WV,26554,"http://maps.google.com/maps?q=430 BRIDGE ST,+FAIRMONT,+WV+26554&hl=en"
MONONGALIA COUNTY SHERIFF'S OFFICE,KROGER @ SUNCREST TOWN CNTR,500 SUNCREST TOWN CENTER DR,MORGANTOWN,WV,26506,"http://maps.google.com/maps?q=500 SUNCREST TOWN CENTER DR,+MORGANTOWN,+WV+26506&hl=en"
MONONGALIA COUNTY SHERIFF'S OFFICE,MONONGALIA COUNTY SHERIFF'S OFFICE,116 WALNUT STREET,MORGANTOWN,WV,26505,"http://maps.google.com/maps?q=116 WALNUT STREET,+MORGANTOWN,+WV+26505&hl=en"
MONONGALIA COUNTY SHERIFF'S OFFICE,PIERPONT LANDING PHARMACY,7000 MID ATLANTIC RD,MORGANTOWN,WV,26508,"http://maps.google.com/maps?q=7000 MID ATLANTIC RD,+MORGANTOWN,+WV+26508&hl=en"
MONROEVILLE POLICE DEPT,MONROEVILLE POLICE DEPT,2700 MONROEVILLE BLVD,MONROEVILLE,PA,15146,"http://maps.google.com/maps?q=2700 MONROEVILLE BLVD,+MONROEVILLE,+PA+15146&hl=en"
MONTGOMERY COUNTY DEPARTMENT OF POLICE,2ND DISTRICT POLICE STATION,4823 RUGBY AVENUE,BETHESDA,MD,20814,"http://maps.google.com/maps?q=4823 RUGBY AVENUE,+BETHESDA,+MD+20814&hl=en"
MONTGOMERY COUNTY DEPARTMENT OF POLICE,3RD DISTRICT POLICE STATION,1001 MILESTONE DRIVE,SILVER SPRING,MD,20904,"http://maps.google.com/maps?q=1001 MILESTONE DRIVE,+SILVER SPRING,+MD+20904&hl=en"
MONTGOMERY COUNTY DEPARTMENT OF POLICE,4TH DISTRICT POLICE STATION,2300 RANDOLPH ROAD,WHEATON,MD,20902,"http://maps.google.com/maps?q=2300 RANDOLPH ROAD,+WHEATON,+MD+20902&hl=en"
MONTGOMERY COUNTY DEPARTMENT OF POLICE,5TH DISTRICT POLICE STATION,20000 AIRCRAFT DRIVE,GERMANTOWN,MD,20874,"http://maps.google.com/maps?q=20000 AIRCRAFT DRIVE,+GERMANTOWN,+MD+20874&hl=en"
MONTGOMERY COUNTY DEPARTMENT OF POLICE,"ASBURY METHODIST VILLAGE 
												
													BUILDING 405, APARTMENT CENTER LOBBY",301 ODENDHAL AVENUE,GAITHERSBURG,MD,20877,"http://maps.google.com/maps?q=301 ODENDHAL AVENUE,+GAITHERSBURG,+MD+20877&hl=en"
MONTGOMERY COUNTY DEPARTMENT OF POLICE,FIRE STATION 1,8110 GEORGIA AVE.,SILVER SPRING,MD,20910,"http://maps.google.com/maps?q=8110 GEORGIA AVE.,+SILVER SPRING,+MD+20910&hl=en"
MONTGOMERY COUNTY DEPARTMENT OF POLICE,JEWISH COMMUNITY CENTER,6125 MONTROSE RD.,ROCKVILLE,MD,20852,"http://maps.google.com/maps?q=6125 MONTROSE RD.,+ROCKVILLE,+MD+20852&hl=en"
MONTGOMERY COUNTY DEPARTMENT OF POLICE,KENTLANDS MANOR,217 BOOTH ST.,GAITHERSBURG,MD,20878,"http://maps.google.com/maps?q=217 BOOTH ST.,+GAITHERSBURG,+MD+20878&hl=en"
MONTGOMERY COUNTY DEPARTMENT OF POLICE,LEISURE WORLD,3305 N. LEISURE WORLD BLVD.,SILVER SPRING,MD,20906,"http://maps.google.com/maps?q=3305 N. LEISURE WORLD BLVD.,+SILVER SPRING,+MD+20906&hl=en"
MONTGOMERY COUNTY DEPARTMENT OF POLICE,"VILLAGE OF FRIENDSHIP HEIGHTS 
												
													COMMUNITY CENTER",4433 SOUTH PARK AVENUE,CHEVY CHASE,MD,20815,"http://maps.google.com/maps?q=4433 SOUTH PARK AVENUE,+CHEVY CHASE,+MD+20815&hl=en"
MOOREFIELD POLICE DEPARTMENT,MOOREFIELD POLICE DEPT/TOWN OFFICE,206 WINCHESTER AVE,MOOREFIELD,WV,26836,"http://maps.google.com/maps?q=206 WINCHESTER AVE,+MOOREFIELD,+WV+26836&hl=en"
MOORESVILLE POLICE DEPARTMENT,"WALMART 
												
													CONSUMER SQUARE SHOPPING CENTER",169 NORMAN STATION BOULEVARD,MOORESVILLE,NC,28117,"http://maps.google.com/maps?q=169 NORMAN STATION BOULEVARD,+MOORESVILLE,+NC+28117&hl=en"
MORGANTOWN POLICE DEPARTMENT,KROGER,1851 EARL L. CORE ROAD,MORGANTOWN,WV,26505,"http://maps.google.com/maps?q=1851 EARL L. CORE ROAD,+MORGANTOWN,+WV+26505&hl=en"
MORGANTOWN POLICE DEPARTMENT,KROGER,350 PATTERSON DRIVE,MORGANTOWN,WV,26505,"http://maps.google.com/maps?q=350 PATTERSON DRIVE,+MORGANTOWN,+WV+26505&hl=en"
MOUNDSVILLE POLICE DEPARTMENT,MOUNDSVILLE POLICE DEPARTMENT,608 TOMLINSON AVENUE,MOUNDSVILLE,WV,26041,"http://maps.google.com/maps?q=608 TOMLINSON AVENUE,+MOUNDSVILLE,+WV+26041&hl=en"
MOUNT AIRY POLICE DEPARTMENT,"MOUNT AIRY POLICE DEPARTMENT 
												
													FRONT LOBBY",150 ROCKFORD STREET,MOUNT AIRY,NC,27030,"http://maps.google.com/maps?q=150 ROCKFORD STREET,+MOUNT AIRY,+NC+27030&hl=en"
MT. LEBANON POLICE DEPARTMENT,MEDIC RESCUE TEAM SOUTH AUTHORITY,315 CYPRESS WAY,PITTSBURGH,PA,15228,"http://maps.google.com/maps?q=315 CYPRESS WAY,+PITTSBURGH,+PA+15228&hl=en"
MT. PLEASANT TWP. POLICE DEPARTMENT,MT. PLEASANT TWP. MUNICIPAL BUILDING,31 MCCARRELL RD.,HICKORY,PA,15340,"http://maps.google.com/maps?q=31 MCCARRELL RD.,+HICKORY,+PA+15340&hl=en"
NC STATE UNIVERSITY POLICE DEPT.,"NC STATE UNIVERSITY POLICE DEPARTMENT 
												
													FRONT LOBBY",2610 WOLF VILLAGE WAYCAMPUS BOX 7220,RALEIGH,NC,27695,"http://maps.google.com/maps?q=2610 WOLF VILLAGE WAY,+RALEIGH,+NC+27695&hl=en"
NICHOLAS COUNTY SHERIFF'S DEPARTMENT,NICHOLAS COUNTY COURTHOUSE,700 MAIN ST,SUMMERSVILLE,WV,26651,"http://maps.google.com/maps?q=700 MAIN ST,+SUMMERSVILLE,+WV+26651&hl=en"
NITRO POLICE DEPARTMENT,NITRO POLICE DEPARTMENT,497 1ST AVENUE SOUTH,NITRO,WV,25143,"http://maps.google.com/maps?q=497 1ST AVENUE SOUTH,+NITRO,+WV+25143&hl=en"
NORTH HUNTINGDON TWP. POLICE DEPARTMENT,"NORTH HUNTINGDON TWP. TOWNHOUSE 
												
													NHT MUNICIPAL BUILDING - POLICE DEPT.",11279 CENTER HIGHWAY,NORTH HUNTINGDON,PA,15642,"http://maps.google.com/maps?q=11279 CENTER HIGHWAY,+NORTH HUNTINGDON,+PA+15642&hl=en"
NOVA COMMUNITY COLLEGE POLICE DEPARTMENT,"NOVA COMMUNITY COLLEGE 
												
													WOODBRIDGE CAMPUS",2645 COLLEGE DR.WRC BUILDING,WOODBRIDGE,VA,22191,"http://maps.google.com/maps?q=2645 COLLEGE DR.,+WOODBRIDGE,+VA+22191&hl=en"
NOVA COMMUNITY COLLEGE POLICE DEPARTMENT,"NOVA COMMUNITY COLLEGE - ANNANDALE 
												
													CA BUILDING FRONT ENTRANCE",8333 LITTLE RIVER TURNPIKE,ANNANDALE,VA,22003,"http://maps.google.com/maps?q=8333 LITTLE RIVER TURNPIKE,+ANNANDALE,+VA+22003&hl=en"
OAK HILL WV POLICE DEPARTMENT,OAK HILL PD,691 VIRGINIA ST,OAK HILL,WV,25901,"http://maps.google.com/maps?q=691 VIRGINIA ST,+OAK HILL,+WV+25901&hl=en"
OAKLAND CITY POLICE,OAKLAND CITY HALL,15 SOUTH THIRD STREET,OAKLAND,MD,21550,"http://maps.google.com/maps?q=15 SOUTH THIRD STREET,+OAKLAND,+MD+21550&hl=en"
OAKMONT BOROUGH POLICE,RITE-AID,109 ALLEGHENY RIVER BLVD,OAKMONT,PA,15139,"http://maps.google.com/maps?q=109 ALLEGHENY RIVER BLVD,+OAKMONT,+PA+15139&hl=en"
OHIO COUNTY SHERIFF'S OFFICE,ELTON GROVE PHARMACY,102 E BETHLEHEM BLVD,WHEELING,WV,26003,"http://maps.google.com/maps?q=102 E BETHLEHEM BLVD,+WHEELING,+WV+26003&hl=en"
ORANGE (TOWN OF) POLICE DEPARTMENT,"CVS PHARMACY 
												
													FRONT SIDEWALK",308 RADNEY ROAD,ORANGE,VA,22960,"http://maps.google.com/maps?q=308 RADNEY ROAD,+ORANGE,+VA+22960&hl=en"
ORANGE (TOWN OF) POLICE DEPARTMENT,"ORANGE PHARMACY 
												
													FRONT SIDEWALK",130 WEST MAIN STREET,ORANGE,VA,22960,"http://maps.google.com/maps?q=130 WEST MAIN STREET,+ORANGE,+VA+22960&hl=en"
PA STATE POLICE,BOSWELL PRESCRIPTION CENTER,210 OHIO ST,BOSWELL,PA,15531,"http://maps.google.com/maps?q=210 OHIO ST,+BOSWELL,+PA+15531&hl=en"
PA STATE POLICE TROOP H/GETTYSBURG,PA STATE POLICE/TROOP H/GETTYSBURG,3033 OLD HARRISBURG RD,GETTYSBURG,PA,17325,"http://maps.google.com/maps?q=3033 OLD HARRISBURG RD,+GETTYSBURG,+PA+17325&hl=en"
"PARKERSBURG, WV POLICE DEPARTMENT",CVS PHARMACY,2323 MURDOCH AVENUE,PARKERSBURG,WV,26101,"http://maps.google.com/maps?q=2323 MURDOCH AVENUE,+PARKERSBURG,+WV+26101&hl=en"
PATRICK COUNTY SHERIFF'S OFFICE,PATRICK COUNTY SHERIFF'S OFFICE,742 COMMERCE STREET,STUART,VA,24171,"http://maps.google.com/maps?q=742 COMMERCE STREET,+STUART,+VA+24171&hl=en"
PENDLETON COUNTY SHERIFF'S OFFICE,PENDLETON COUNTY SHERIFF'S DEPARTMENT,100 SOUTH MAIN STREET,FRANKLIN,WV,26807,"http://maps.google.com/maps?q=100 SOUTH MAIN STREET,+FRANKLIN,+WV+26807&hl=en"
PETERS TOWNSHIP POLICE DEPARTMENT,BIBLE CHAPEL,300 GALLERY DRIVE,MCMURRAY,PA,15317,"http://maps.google.com/maps?q=300 GALLERY DRIVE,+MCMURRAY,+PA+15317&hl=en"
PETERS TOWNSHIP POLICE DEPARTMENT,GIANT EAGLE,4017 WASHINGTON ROAD,MCMURRAY,PA,15317,"http://maps.google.com/maps?q=4017 WASHINGTON ROAD,+MCMURRAY,+PA+15317&hl=en"
PETERS TOWNSHIP POLICE DEPARTMENT,HEISLER'S MARKET,601 E. MCMURRAY ROAD,MCMURRAY,PA,15317,"http://maps.google.com/maps?q=601 E. MCMURRAY ROAD,+MCMURRAY,+PA+15317&hl=en"
PETERS TOWNSHIP POLICE DEPARTMENT,RITE AID PHARMACY,4185 WASHINGTON RD,MCMURRAY,PA,15317,"http://maps.google.com/maps?q=4185 WASHINGTON RD,+MCMURRAY,+PA+15317&hl=en"
PITTSBURGH BUREAU OF POLICE,PHILLIPS RECREATION CENTER,201 PARKFIELD ST,PITTSBURGH,PA,15210,"http://maps.google.com/maps?q=201 PARKFIELD ST,+PITTSBURGH,+PA+15210&hl=en"
PITTSBURGH BUREAU OF POLICE,PITTSBURGH POLICE HEADQUARTERS,1203 WESTERN AVE.,PITTSBURGH,PA,15233,"http://maps.google.com/maps?q=1203 WESTERN AVE.,+PITTSBURGH,+PA+15233&hl=en"
PITTSBURGH BUREAU OF POLICE,"ZONE #1 PITTSBURGH POLICE STATION 
												
													COMMANDER CHRIS RAGLAND",1501 BRIGHTON RD.,PITTSBURGH,PA,15212,"http://maps.google.com/maps?q=1501 BRIGHTON RD.,+PITTSBURGH,+PA+15212&hl=en"
PITTSBURGH BUREAU OF POLICE,"ZONE #2 PITTSBURGH POLICE STATION 
												
													COMMANDER CRISTYN ZETT",2002 CENTRE AVENUE,PITTSBURGH,PA,15219,"http://maps.google.com/maps?q=2002 CENTRE AVENUE,+PITTSBURGH,+PA+15219&hl=en"
PITTSBURGH BUREAU OF POLICE,"ZONE #3 PITTSBURGH POLICE STATION 
												
													COMMANDER KAREN DIXON",830 EAST WARRINGTON AVE.,PITTSBURGH,PA,15210,"http://maps.google.com/maps?q=830 EAST WARRINGTON AVE.,+PITTSBURGH,+PA+15210&hl=en"
PITTSBURGH BUREAU OF POLICE,"ZONE #4 PITTSBURGH POLICE STATION 
												
													COMMANDER DAN HERRMANN",5858 NORTHUMBERLAND STREET,PITTSBURGH,PA,15217,"http://maps.google.com/maps?q=5858 NORTHUMBERLAND STREET,+PITTSBURGH,+PA+15217&hl=en"
PITTSBURGH BUREAU OF POLICE,"ZONE #5 PITTSBURGH POLICE STATION 
												
													COMMANDER JASON LANDO",1401 WASHINGTON BLVD.,PITTSBURGH,PA,15206,"http://maps.google.com/maps?q=1401 WASHINGTON BLVD.,+PITTSBURGH,+PA+15206&hl=en"
PITTSBURGH BUREAU OF POLICE,"ZONE #6 PITTSBURGH POLICE STATION 
												
													COMMANDER STEVEN VINANSKY",312 SOUTH MAIN STREET,PITTSBURGH,PA,15220,"http://maps.google.com/maps?q=312 SOUTH MAIN STREET,+PITTSBURGH,+PA+15220&hl=en"
PITTSYLVANIA COUNTY SHERIFF'S OFFICE,"FOOD LION 
												
													PARKING LOT",100 VADEN STREET,GRETNA,VA,24557,"http://maps.google.com/maps?q=100 VADEN STREET,+GRETNA,+VA+24557&hl=en"
PITTSYLVANIA COUNTY SHERIFF'S OFFICE,"MT. HERMON SHOPPING CENTER 
												
													FOOD LION PARKING LOT",4048 FRANKLIN TURNPIKE,DANVILLE,VA,24540,"http://maps.google.com/maps?q=4048 FRANKLIN TURNPIKE,+DANVILLE,+VA+24540&hl=en"
PITTSYLVANIA COUNTY SHERIFF'S OFFICE,"PITTSYLVANIA COUNTY SHERIFF'S OFFICE 
												
													IN FRONT OF SHERIFF'S OFFICE",21 NORTH MAIN STREET,CHATHAM,VA,24531,"http://maps.google.com/maps?q=21 NORTH MAIN STREET,+CHATHAM,+VA+24531&hl=en"
PLEASANT HILLS POLICE DEPARTMENT,PLEASANT HILLS BOROUGH BUILDING,410 EAST BRUCETON RD,PITTSBURGH,PA,15236,"http://maps.google.com/maps?q=410 EAST BRUCETON RD,+PITTSBURGH,+PA+15236&hl=en"
PLEASANTS COUNTY SHERIFF,PHILLIPS PHARMACY,329 2ND STREET,SAINT MARYS,WV,26170,"http://maps.google.com/maps?q=329 2ND STREET,+SAINT MARYS,+WV+26170&hl=en"
PLUM BOROUGH POLICE DEPARTMENT,BILL'S HOMETOWN PHARMACY,1095 UNITY CENTER ROAD,PITTSBURGH,PA,15239,"http://maps.google.com/maps?q=1095 UNITY CENTER ROAD,+PITTSBURGH,+PA+15239&hl=en"
PLUM BOROUGH POLICE DEPARTMENT,BILL'S HOMETOWN PHARMACY,2362 GOLDEN MILE HWY,PITTSBURGH,PA,15239,"http://maps.google.com/maps?q=2362 GOLDEN MILE HWY,+PITTSBURGH,+PA+15239&hl=en"
POCAHONTAS COUNTY SHERIFF'S OFFICE,POCAHONTAS COUNTY SHERIFF'S DEPT,900 JAIL LANE,MARLINTON,WV,24954,"http://maps.google.com/maps?q=900 JAIL LANE,+MARLINTON,+WV+24954&hl=en"
POWHATAN COUNTY SHERIFF'S OFFICE,POWHATAN COUNTY COURTHOUSE,3880 OLD BUCKINGHAM ROAD,POWHATAN,VA,23139,"http://maps.google.com/maps?q=3880 OLD BUCKINGHAM ROAD,+POWHATAN,+VA+23139&hl=en"
PRESTON COUNTY SHERIFF,BELLDINA'S PHARMACY,107 S MAIN ST,MASONTOWN,WV,26542,"http://maps.google.com/maps?q=107 S MAIN ST,+MASONTOWN,+WV+26542&hl=en"
PRESTON COUNTY SHERIFF,BRUCETON PHARMACY,198 MORGANTOWN ST,BRUCETON MILLS,WV,26525,"http://maps.google.com/maps?q=198 MORGANTOWN ST,+BRUCETON MILLS,+WV+26525&hl=en"
PRESTON COUNTY SHERIFF,TERRA ALTA TOWN HALL,701-A EAST STATE AVENUE,TERRA ALTA,WV,26764,"http://maps.google.com/maps?q=701-A EAST STATE AVENUE,+TERRA ALTA,+WV+26764&hl=en"
PRINCE WILLIAM  CO. PD,"NOVANT HEALTH  HAYMARKET MEDICAL CENTER 
												
													FRONT PARKING LOT",15225 HEATHCOTE BLVD,HAYMARKET,VA,20169,"http://maps.google.com/maps?q=15225 HEATHCOTE BLVD,+HAYMARKET,+VA+20169&hl=en"
PRINCE WILLIAM  CO. PD,"SENTARA LAKE RIDGE HOSPITAL 
												
													FRONT PARKING LOT",12825 MINNIEVILLE ROAD,LAKE RIDGE,VA,22192,"http://maps.google.com/maps?q=12825 MINNIEVILLE ROAD,+LAKE RIDGE,+VA+22192&hl=en"
PULASKI (TOWN OF) POLICE DEPARTMENT,"FOOD CITY 
												
													PARKING LOT NEAR ENTRANCE TO STORE",1400 BOB WHITE BLVD,PULASKI,VA,24301,"http://maps.google.com/maps?q=1400 BOB WHITE BLVD,+PULASKI,+VA+24301&hl=en"
PULASKI SHERIFF'S OFFICE,"FAIRLAWN WALMART 
												
													APRIL 28, 2018 LOCATION",7373 PEPPERS FERRY BLVD,RADFORD,VA,24141,"http://maps.google.com/maps?q=7373 PEPPERS FERRY BLVD,+RADFORD,+VA+24141&hl=en"
PUNXSUTAWNEY BOROUGH POLICE DEPARTMENT,PUNXSY HOMETOWN PHARMACY,203 HAMPTON ROAD,PUNXSUTAWNEY,PA,15767,"http://maps.google.com/maps?q=203 HAMPTON ROAD,+PUNXSUTAWNEY,+PA+15767&hl=en"
PUTNAM COUNTY SHERIFF'S DEPARTMENT,PUTNAM COUNTY SHERIFF'S DEPARTMENT,SHERIFF'S DEPARTMENT3389 WINFIELD ROAD,WINFIELD,WV,25213,"http://maps.google.com/maps?q=SHERIFF'S DEPARTMENT,+WINFIELD,+WV+25213&hl=en"
QUANTICO MARINE CORPS BASE,QUANTICO MARINE CORPS EXCHANGE,4806 RUSSELL RD,QUANTICO,VA,22134,"http://maps.google.com/maps?q=4806 RUSSELL RD,+QUANTICO,+VA+22134&hl=en"
RADFORD CITY POLICE DEPARTMENT,"RADFORD FIRE DEPARTMENT 
												
													PARKING LOT",1500 WADSWORTH STREET,RADFORD,VA,24141,"http://maps.google.com/maps?q=1500 WADSWORTH STREET,+RADFORD,+VA+24141&hl=en"
RADFORD UNIVERSITY POLICE DEPARTMENT,BONNIE HURLBURT STUDENT CENTER,700 CLEMENT ST.,RADFORD,VA,24141,"http://maps.google.com/maps?q=700 CLEMENT ST.,+RADFORD,+VA+24141&hl=en"
RALEIGH COUNTY SD,CRAB ORCHARD PHARMACY,1299 ROBERT C. BYRD DRIVE,CRAB ORCHARD,WV,25827,"http://maps.google.com/maps?q=1299 ROBERT C. BYRD DRIVE,+CRAB ORCHARD,+WV+25827&hl=en"
RALEIGH POLICE DEPARTMENT,FALLS RIVER PHARMACY,10930 RAVEN RIDGE RD,RALEIGH,NC,27614,"http://maps.google.com/maps?q=10930 RAVEN RIDGE RD,+RALEIGH,+NC+27614&hl=en"
RALEIGH POLICE DEPARTMENT,HAYES BARTON PHARMACY,2000 FAIRVIEW RD,RALEIGH,NC,27608,"http://maps.google.com/maps?q=2000 FAIRVIEW RD,+RALEIGH,+NC+27608&hl=en"
RALEIGH POLICE DEPARTMENT,JOSEF'S PHARMACY,2100 NEW BERN AVE,RALEIGH,NC,27610,"http://maps.google.com/maps?q=2100 NEW BERN AVE,+RALEIGH,+NC+27610&hl=en"
RALEIGH POLICE DEPARTMENT,WELLNESS PHARMACY AND COMPOUNDING CENTER,2601 BLUE RIDGE RD,RALEIGH,NC,27607,"http://maps.google.com/maps?q=2601 BLUE RIDGE RD,+RALEIGH,+NC+27607&hl=en"
RANDOLPH COUNTY SHERIFF'S OFFICE,"RANDOLPH MALL 
												
													PARKING LOT BESIDE DUNHAM'S",1437 EAST DIXIE DR,ASHEBORO,NC,27203,"http://maps.google.com/maps?q=1437 EAST DIXIE DR,+ASHEBORO,+NC+27203&hl=en"
RANSON POLICE DEPARTMENT,RANSON POLICE DEPARTMENT,700 N. PRESTON ST,RANSON,WV,25438,"http://maps.google.com/maps?q=700 N. PRESTON ST,+RANSON,+WV+25438&hl=en"
RICHLANDS POLICE DEPARTMENT,"RICHLANDS POLICE DEPARTMENT 
												
													FRONT LOBBY",1851 CRANWELL DRIVE,RICHLANDS,VA,24641,"http://maps.google.com/maps?q=1851 CRANWELL DRIVE,+RICHLANDS,+VA+24641&hl=en"
ROANOKE CITY POLICE DEPARTMENT,CVS 9TH STREET SE,702 9TH STREET SE,ROANOKE,VA,24013,"http://maps.google.com/maps?q=702 9TH STREET SE,+ROANOKE,+VA+24013&hl=en"
ROANOKE CITY POLICE DEPARTMENT,CVS AT TARGET,4737 VALLEY VIEW BLVD,ROANOKE,VA,24012,"http://maps.google.com/maps?q=4737 VALLEY VIEW BLVD,+ROANOKE,+VA+24012&hl=en"
ROANOKE CITY POLICE DEPARTMENT,CVS AT TOWERS SHOPPING CENTER,2001 COLONIAL AVE SW,ROANOKE,VA,24015,"http://maps.google.com/maps?q=2001 COLONIAL AVE SW,+ROANOKE,+VA+24015&hl=en"
ROANOKE COUNTY POLICE DEPARTMENT,"KROGER @ TANGLEWOOD MALL 
												
													FRONT PARKING LOT",4488 ELECTRIC ROAD,ROANOKE,VA,24015,"http://maps.google.com/maps?q=4488 ELECTRIC ROAD,+ROANOKE,+VA+24015&hl=en"
ROANOKE COUNTY POLICE DEPARTMENT,"KROGER AT VALLEY GATEWAY 
												
													NEAR FRONT ENTRANCE",3970 VALLEY GATEWAY BLVD,ROANOKE,VA,24012,"http://maps.google.com/maps?q=3970 VALLEY GATEWAY BLVD,+ROANOKE,+VA+24012&hl=en"
ROANOKE COUNTY POLICE DEPARTMENT,"WALGREENS 
												
													CORNER OF ELECTRIC ROAD & BRAMBLETON AVE",4049 BRAMBLETON AVE,ROANOKE,VA,24018,"http://maps.google.com/maps?q=4049 BRAMBLETON AVE,+ROANOKE,+VA+24018&hl=en"
ROANOKE COUNTY SHERIFF'S OFFICE,"ROANOKE COUNTY FIRE STATION #1 
												
													PARKING LOT",150 HERSHBERGER ROAD,ROANOKE,VA,24019,"http://maps.google.com/maps?q=150 HERSHBERGER ROAD,+ROANOKE,+VA+24019&hl=en"
ROBINSON TWP. POLICE DEPARTMENT,"THE MALL AT ROBINSON 
												
													PARKING LOT NEAR DICK'S & GOLDEN CORRAL",1000 ROBINSON CENTRE DRIVE,PITTSBURGH,PA,15205,"http://maps.google.com/maps?q=1000 ROBINSON CENTRE DRIVE,+PITTSBURGH,+PA+15205&hl=en"
ROCKINGHAM COUNTY SHERIFF'S OFFICE,SENTARA RMH FUNKHOUSER WOMEN'S CENTER,2275 HEALTH CAMPUS DRIVE,ROCKINGHAM,VA,22801,"http://maps.google.com/maps?q=2275 HEALTH CAMPUS DRIVE,+ROCKINGHAM,+VA+22801&hl=en"
ROCKVILLE CITY POLICE DEPARTMENT,ROCKVILLE CITY POLICE DEPARTMENT,#2 W. MONTGOMERY AVENUE,ROCKVILLE,MD,20850,"http://maps.google.com/maps?q=#2 W. MONTGOMERY AVENUE,+ROCKVILLE,+MD+20850&hl=en"
RUSSELL COUNTY SHERIFF'S OFFICE,BLUE DEVIL DRUG,19408 HWY 58,CASTLEWOOD,VA,24224,"http://maps.google.com/maps?q=19408 HWY 58,+CASTLEWOOD,+VA+24224&hl=en"
RUSSELL COUNTY SHERIFF'S OFFICE,FOOD CITY,159 PITTSTON RD,LEBANON,VA,24266,"http://maps.google.com/maps?q=159 PITTSTON RD,+LEBANON,+VA+24266&hl=en"
RUSSELL COUNTY SHERIFF'S OFFICE,NEW GARDEN PHARMACY,5300 REDBUD HWY,HONAKER,VA,24260,"http://maps.google.com/maps?q=5300 REDBUD HWY,+HONAKER,+VA+24260&hl=en"
SAFE KIDS CHARLOTTE MECKLENBURG,CPCC MERANCAS CAMPUS,11930 VERHOEFF,HUNTERSVILLE,NC,28078,"http://maps.google.com/maps?q=11930 VERHOEFF,+HUNTERSVILLE,+NC+28078&hl=en"
SAFE KIDS CHARLOTTE MECKLENBURG,"HARRIS TEETER 
												
													IN FRONT OF STORE",1704 CENTRAL AVENUE,CHARLOTTE,NC,28205,"http://maps.google.com/maps?q=1704 CENTRAL AVENUE,+CHARLOTTE,+NC+28205&hl=en"
SAFE KIDS CHARLOTTE MECKLENBURG,HARRIS TEETER - STONECREST,7852 REA RD,CHARLOTTE,NC,28277,"http://maps.google.com/maps?q=7852 REA RD,+CHARLOTTE,+NC+28277&hl=en"
SAFE KIDS CHARLOTTE MECKLENBURG,HARRIS TEETER- STEELECROFT,13000 S TRYON,CHARLOTTE,NC,28278,"http://maps.google.com/maps?q=13000 S TRYON,+CHARLOTTE,+NC+28278&hl=en"
SAFE KIDS CHARLOTTE MECKLENBURG,"HARRIS TETEER 
												
													IN FRONT OF STORE",2717 SOUTH BLVD,CHARLOTTE,NC,28209,"http://maps.google.com/maps?q=2717 SOUTH BLVD,+CHARLOTTE,+NC+28209&hl=en"
SAFE KIDS UNION COUNTY,MARSHVILLE POLICE DEPARTMENT,113 W. MAIN STREET,MARSHVILLE,NC,28103,"http://maps.google.com/maps?q=113 W. MAIN STREET,+MARSHVILLE,+NC+28103&hl=en"
SAFE KIDS UNION COUNTY,UNION COUNTY MAIN SHERIFF'S OFFICE-WINGATE,3344 PRESSON ROAD,MONROE,NC,28112,"http://maps.google.com/maps?q=3344 PRESSON ROAD,+MONROE,+NC+28112&hl=en"
SAFE KIDS UNION COUNTY,"UNION COUNTY SHERIFF'S OFFICE 
												
													SATELLITE FACILITY- WESLEY CHAPEL FIRE DEPARTMENT #26",315 WAXHAW-INDIAN TRAIL RD,WAXHAW,NC,28173,"http://maps.google.com/maps?q=315 WAXHAW-INDIAN TRAIL RD,+WAXHAW,+NC+28173&hl=en"
SAFE KIDS UNION COUNTY,"UNION COUNTY SHERIFF'S OFFICE 
												
													SATELLITE FACILITY-INDIAN TRAIL",109 NAVAJO TRAIL,INDIAN TRAIL,NC,28079,"http://maps.google.com/maps?q=109 NAVAJO TRAIL,+INDIAN TRAIL,+NC+28079&hl=en"
SAFE KIDS UNION COUNTY,WAXHAW POLICE DEPARTMENT,3620 PROVIDENCE ROAD SOUTH,WAXHAW,NC,28173,"http://maps.google.com/maps?q=3620 PROVIDENCE ROAD SOUTH,+WAXHAW,+NC+28173&hl=en"
SALEM POLICE DEPARTMENT,"SUPER SHOES 
												
													FRONT PARKING LOT",1838 W. MAIN STREET,SALEM,VA,24153,"http://maps.google.com/maps?q=1838 W. MAIN STREET,+SALEM,+VA+24153&hl=en"
SEWARD BORO POLICE DEPT,ROADWAY PHARMACY,6858 RT 711,SEWARD,PA,15954,"http://maps.google.com/maps?q=6858 RT 711,+SEWARD,+PA+15954&hl=en"
SHADE TOWNSHIP POLICE,PENN LAUREL PHARMACY,112 SUNSHINE AVE,CENTRAL CITY,PA,15926,"http://maps.google.com/maps?q=112 SUNSHINE AVE,+CENTRAL CITY,+PA+15926&hl=en"
SHALER POLICE DEPARTMENT,SHALER NORTH HILLS LIBRARY,1822 MT. ROYAL BLVD.,GLENSHAW,PA,15116,"http://maps.google.com/maps?q=1822 MT. ROYAL BLVD.,+GLENSHAW,+PA+15116&hl=en"
SHAWNEE STATE PARK,SHAWNEE STATE PARK: PAVILLION #2,132 STATE PARK ROAD,SCHELLSBURG,PA,15559,"http://maps.google.com/maps?q=132 STATE PARK ROAD,+SCHELLSBURG,+PA+15559&hl=en"
SHENANDOAH COUNTY SHERIFF'S OFFICE,"CVS PHARMACY 
												
													PARKING LOT FACING RESERVOIR RD.",221 WEST RESERVOIR ROAD,WOODSTOCK,VA,22664,"http://maps.google.com/maps?q=221 WEST RESERVOIR ROAD,+WOODSTOCK,+VA+22664&hl=en"
SHEPERDSTOWN POLICE DEPARTMENT,SHEPERDSTOWN POLICE DEPARTMENT,104 N. KING ST.,SHEPHERDSTOWN,WV,25443,"http://maps.google.com/maps?q=104 N. KING ST.,+SHEPHERDSTOWN,+WV+25443&hl=en"
SHINNSTON POLICE DEPARTMENT,SHINNSTON POLICE DEPARTMENT,43 BRIDGE STREET,SHINNSTON,WV,26431,"http://maps.google.com/maps?q=43 BRIDGE STREET,+SHINNSTON,+WV+26431&hl=en"
SISTERVILLE POLICE DEPARTMENT,SISTERVILLE PD,200 DIAMOND ST,SISTERSVILLE,WV,26175,"http://maps.google.com/maps?q=200 DIAMOND ST,+SISTERSVILLE,+WV+26175&hl=en"
SMYTH COUNTY SHERIFF'S OFFICE,MARION VA WALGREENS,1102 NORTH MAIN ST,MARION,VA,24354,"http://maps.google.com/maps?q=1102 NORTH MAIN ST,+MARION,+VA+24354&hl=en"
SPARTANBURG POLICE DEPARTMENT,BI-LO,2199 SOUTHPORT RD.,SPARTANBURG,SC,29306,"http://maps.google.com/maps?q=2199 SOUTHPORT RD.,+SPARTANBURG,+SC+29306&hl=en"
SPARTANBURG POLICE DEPARTMENT,CVS PHARMACY,87 GARNER RD.,SPARTANBURG,SC,29303,"http://maps.google.com/maps?q=87 GARNER RD.,+SPARTANBURG,+SC+29303&hl=en"
SPENCER POLICE DEPARTMENT,SPENCER POLICE DEPARTMENT,116 COURT ST,SPENCER,WV,25276,"http://maps.google.com/maps?q=116 COURT ST,+SPENCER,+WV+25276&hl=en"
SPOTSYLVANIA COUNTY SHERIFF'S OFFICE,"CHANCELLOR VOL. FIRE AND RESCUE 
												
													OLD ENGINE COMPANY 5",5992 PLANK ROAD,FREDERICKSBURG,VA,22407,"http://maps.google.com/maps?q=5992 PLANK ROAD,+FREDERICKSBURG,+VA+22407&hl=en"
SPOTSYLVANIA COUNTY SHERIFF'S OFFICE,"CVS COURTLAND COMMONS 
												
													PARKING LOT",9767 COURTHOUSE ROAD,SPOTSYLVANIA,VA,22553,"http://maps.google.com/maps?q=9767 COURTHOUSE ROAD,+SPOTSYLVANIA,+VA+22553&hl=en"
SPOTSYLVANIA COUNTY SHERIFF'S OFFICE,"MARY WASHINGTON HEALTHCARE 
												
													EMERGENCY AND OUTPATIENT CENTER - LEES HILL",10401 SPOTSYLVANIA AVENUEUNDER THE AWNING,FREDERICKSBURG,VA,22408,"http://maps.google.com/maps?q=10401 SPOTSYLVANIA AVENUE,+FREDERICKSBURG,+VA+22408&hl=en"
SPOTSYLVANIA COUNTY SHERIFF'S OFFICE,"SPOTSYLVANIA REGIONAL MEDICAL CENTER 
												
													UNDER MAIN ENTRANCE AWNING",4600 SPOTSYLVANIA PARKWAY,FREDERICKSBURG,VA,22408,"http://maps.google.com/maps?q=4600 SPOTSYLVANIA PARKWAY,+FREDERICKSBURG,+VA+22408&hl=en"
ST. ALBANS POLICE DEPARTMENT,ST. ALBANS POLICE DEPARTMENT,51 6TH AVENUE,SAINT ALBANS,WV,25177,"http://maps.google.com/maps?q=51 6TH AVENUE,+SAINT ALBANS,+WV+25177&hl=en"
STAFFORD COUNTY SHERIFF'S OFFICE,"STAFFORD HOSPITAL CENTER 
												
													SOUTH SIDE OF HOSPITAL NEAR ER",101 HOSPITAL CENTER BLVD,STAFFORD,VA,22554,"http://maps.google.com/maps?q=101 HOSPITAL CENTER BLVD,+STAFFORD,+VA+22554&hl=en"
STAUNTON POLICE DEPARTMENT,"AUGUSTA HEALTH STAUNTON URGENT CARE 
												
													FISHER AUTO PARKING LEFT OF URGENT CARE BUILDING",795 STATLER BLVD,STAUNTON,VA,24401,"http://maps.google.com/maps?q=795 STATLER BLVD,+STAUNTON,+VA+24401&hl=en"
STRASBURG POLICE DEPARTMENT,"STRASBURG TOWN HALL 
												
													SIDE PARKING LOT",174 EAST KING STREET,STRASBURG,VA,22657,"http://maps.google.com/maps?q=174 EAST KING STREET,+STRASBURG,+VA+22657&hl=en"
SULLIVAN COUNTY SHERIFFS OFFICE,SULLIVAN COUNTY SHERIFF'S OFFICE,140 BLOUNTSVILLE BYPASS,BLOUNTVILLE,TN,37617,"http://maps.google.com/maps?q=140 BLOUNTSVILLE BYPASS,+BLOUNTVILLE,+TN+37617&hl=en"
TAKOMA PARK POLICE DEPARTMENT,"TAKOMA PARK POLICE DEPARTMENT 
												
													LOBBY",7500 MAPLE AVENUE,TAKOMA PARK,MD,20912,"http://maps.google.com/maps?q=7500 MAPLE AVENUE,+TAKOMA PARK,+MD+20912&hl=en"
TAYLOR COUNTY SHERIFF'S OFFICE,WALMART,1 WALMART LANE,GRAFTON,WV,26354,"http://maps.google.com/maps?q=1 WALMART LANE,+GRAFTON,+WV+26354&hl=en"
TAZEWELL (TOWN OF) POLICE DEPARTMENT,TAZEWELL POLICE DEPARTMENT,211 CENTRAL AVE,TAZEWELL,VA,24651,"http://maps.google.com/maps?q=211 CENTRAL AVE,+TAZEWELL,+VA+24651&hl=en"
TOWN OF BATH POLICE DEPARTMENT,"MORGAN COUNTY HEALTH DEPARTMENT 
												
													POC: BILL KEARNS",137 WAR MEMORIAL DR.,BERKELEY SPRINGS,WV,25411,"http://maps.google.com/maps?q=137 WAR MEMORIAL DR.,+BERKELEY SPRINGS,+WV+25411&hl=en"
TRAVELERS REST PD,TRAVELERS REST POLICE DEPT,6711 STATE PARK RD.,TRAVELERS REST,SC,29690,"http://maps.google.com/maps?q=6711 STATE PARK RD.,+TRAVELERS REST,+SC+29690&hl=en"
UNC POLICE COMMUNITY SERVICES,"UNC MEMORIAL HOSPITAL 
												
													VALET LANE",101 MANNING DR.,CHAPEL HILL,NC,27514,"http://maps.google.com/maps?q=101 MANNING DR.,+CHAPEL HILL,+NC+27514&hl=en"
UNION PUBLIC SAFETY DEPARTMENT,UNION PUBLIC SAFETY DEPT.,215 THOMPSON BLVD.,UNION,SC,29379,"http://maps.google.com/maps?q=215 THOMPSON BLVD.,+UNION,+SC+29379&hl=en"
UNIVERSITY OF MD POLICE DEPT OF PUBLIC SAFETY,UNIVERSITY OF MD POLICE DEPT OF PUBLIC SAFETY,7569 BALTIMORE AVENUE,COLLEGE PARK,MD,20742,"http://maps.google.com/maps?q=7569 BALTIMORE AVENUE,+COLLEGE PARK,+MD+20742&hl=en"
UNIVERSITY OF PITTSBURGH,UNIVERSITY OF PITTSBURGH PHARMACY,103 UNIVERSITY PLACE,PITTSBURGH,PA,15260,"http://maps.google.com/maps?q=103 UNIVERSITY PLACE,+PITTSBURGH,+PA+15260&hl=en"
UNIVERSITY OF PITTSBURGH MED CTR,"CHILDREN'S HOSPITAL OF PITTSBURGH OF UPMC 
												
													OUTPATIENT PHARMACY LOBBY",4401 PENN AVE,PITTSBURGH,PA,15224,"http://maps.google.com/maps?q=4401 PENN AVE,+PITTSBURGH,+PA+15224&hl=en"
UNIVERSITY OF PITTSBURGH MED CTR,"FALK PHARMACY: FALK MEDICAL BDG 
												
													2ND FLOOR LOBBY",3601 FIFTH AVE.,PITTSBURGH,PA,15213,"http://maps.google.com/maps?q=3601 FIFTH AVE.,+PITTSBURGH,+PA+15213&hl=en"
UNIVERSITY OF PITTSBURGH MED CTR,"FORBES PHARMACY OF WPIC: OXFORD BUILDING 
												
													7TH FLOOR",3501 FORBES AVE.,PITTSBURGH,PA,15213,"http://maps.google.com/maps?q=3501 FORBES AVE.,+PITTSBURGH,+PA+15213&hl=en"
UNIVERSITY OF PITTSBURGH MED CTR,FORBES TOWER MAIN LOBBY,4028 FORBES AVENUE,PITTSBURGH,PA,15260,"http://maps.google.com/maps?q=4028 FORBES AVENUE,+PITTSBURGH,+PA+15260&hl=en"
UNIVERSITY OF PITTSBURGH MED CTR,"HILLMAN CANCER CENTER 
												
													GROUND FLOOR ATRIUM",5115 CENTRE AVE.,PITTSBURGH,PA,15232,"http://maps.google.com/maps?q=5115 CENTRE AVE.,+PITTSBURGH,+PA+15232&hl=en"
UNIVERSITY OF PITTSBURGH MED CTR,"MAGEE-WOMENS HOSPITAL OF UPMC 
												
													MAIN LOBBY, 1ST FLOOR",300 HALKET STREET,PITTSBURGH,PA,15213,"http://maps.google.com/maps?q=300 HALKET STREET,+PITTSBURGH,+PA+15213&hl=en"
UNIVERSITY OF PITTSBURGH MED CTR,"U.S. STEEL TOWER-FRI. 
												
													MYHEALTH@WORK, FLOOR 12",600 GRANT STREET,PITTSBURGH,PA,15219,"http://maps.google.com/maps?q=600 GRANT STREET,+PITTSBURGH,+PA+15219&hl=en"
UNIVERSITY OF PITTSBURGH MED CTR,"UPMC EAST 
												
													MAIN LOBBY",2775 MOSSIDE BLVD,MONROEVILLE,PA,15146,"http://maps.google.com/maps?q=2775 MOSSIDE BLVD,+MONROEVILLE,+PA+15146&hl=en"
UNIVERSITY OF PITTSBURGH MED CTR,"UPMC MCKEESPORT 
												
													1-CRAWFORD PATIENT DISCHARGE LOUNGE",1500 FIFTH AVE,MCKEESPORT,PA,15132,"http://maps.google.com/maps?q=1500 FIFTH AVE,+MCKEESPORT,+PA+15132&hl=en"
UNIVERSITY OF PITTSBURGH MED CTR,"UPMC MERCY, SOUTH SIDE 
												
													MAIN LOBBY",2000 MARY STREET,PITTSBURGH,PA,15203,"http://maps.google.com/maps?q=2000 MARY STREET,+PITTSBURGH,+PA+15203&hl=en"
UNIVERSITY OF PITTSBURGH MED CTR,"UPMC MERCY: CAFETERIA 
												
													2ND FLOOR",1400 LOCUST STREET,PITTSBURGH,PA,15219,"http://maps.google.com/maps?q=1400 LOCUST STREET,+PITTSBURGH,+PA+15219&hl=en"
UNIVERSITY OF PITTSBURGH MED CTR,"UPMC PASSAVANT 
												
													MAIN LOBBY, MCCANDLESS CAMPUS",9100 BABCOCK BLVD,PITTSBURGH,PA,15237,"http://maps.google.com/maps?q=9100 BABCOCK BLVD,+PITTSBURGH,+PA+15237&hl=en"
UNIVERSITY OF PITTSBURGH MED CTR,"UPMC PRESBYTERIAN, PRESCRIPTION SHOP",200 LOTHROP STREET,PITTSBURGH,PA,15213,"http://maps.google.com/maps?q=200 LOTHROP STREET,+PITTSBURGH,+PA+15213&hl=en"
UPPER ST. CLAIR POLICE DEPARTMENT,UPPER ST. CLAIR POLICE DEPARTMENT,1820 MCLAUGHLIN RUN ROAD,PITTSBURGH,PA,15241,"http://maps.google.com/maps?q=1820 MCLAUGHLIN RUN ROAD,+PITTSBURGH,+PA+15241&hl=en"
US DEPARTMENT OF VETERANS AFFAIRS POLICE- SALEM,"DEPARTMENT OF VETERANS AFFAIRS 
												
													ENTRANCE TO BUILDING 143; MAIN HOSPITAL",1970 ROANOKE BOULEVARD,SALEM,VA,24153,"http://maps.google.com/maps?q=1970 ROANOKE BOULEVARD,+SALEM,+VA+24153&hl=en"
VIENNA POLICE DEPARTMENT,VIENNA POLICE DEPARTMENT,215 CENTER STREET SOUTH,VIENNA,VA,22180,"http://maps.google.com/maps?q=215 CENTER STREET SOUTH,+VIENNA,+VA+22180&hl=en"
VIENNA WV POLICE DEPARTMENT,VIENNA VOLUNTEER FD,609 28TH ST,VIENNA,WV,26105,"http://maps.google.com/maps?q=609 28TH ST,+VIENNA,+WV+26105&hl=en"
VINTON POLICE DEPARTMENT,"KROGER PARKING LOT 
												
													LAKE DRIVE PLAZA",915 HARDY ROAD,VINTON,VA,24179,"http://maps.google.com/maps?q=915 HARDY ROAD,+VINTON,+VA+24179&hl=en"
VIRGINIA STATE POLICE,"VIRGINIA STATE POLICE DIVISION II HQS 
												
													POC: LT. JEFFREY LANE",15148 STATE POLICE ROAD,CULPEPER,VA,22701,"http://maps.google.com/maps?q=15148 STATE POLICE ROAD,+CULPEPER,+VA+22701&hl=en"
VIRGINIA STATE POLICE,"VIRGINIA STATE POLICE DIVISION III HQS 
												
													POC: SGT DREW MCCORMICK",240 THIRD DIVISION LOOP,APPOMATTOX,VA,24522,"http://maps.google.com/maps?q=240 THIRD DIVISION LOOP,+APPOMATTOX,+VA+24522&hl=en"
VIRGINIA STATE POLICE,"VIRGINIA STATE POLICE DIVISION IV HQS 
												
													POC: LT PATRICK KIRTNER",1186 EAST LEE HIGHWAY,WYTHEVILLE,VA,24382,"http://maps.google.com/maps?q=1186 EAST LEE HIGHWAY,+WYTHEVILLE,+VA+24382&hl=en"
VIRGINIA STATE POLICE,"VIRGINIA STATE POLICE DIVISION VI HQS 
												
													POC: SGT. GLENN ARMSTRONG",3775 W. MAIN STREET,SALEM,VA,24153,"http://maps.google.com/maps?q=3775 W. MAIN STREET,+SALEM,+VA+24153&hl=en"
VIRGINIA STATE POLICE,"VIRGINIA STATE POLICE DIVISION VII HQS 
												
													POC: SGT BILL JOYNER",4977 ALLIANCE DRIVE,FAIRFAX,VA,22030,"http://maps.google.com/maps?q=4977 ALLIANCE DRIVE,+FAIRFAX,+VA+22030&hl=en"
WARREN COUNTY SHERIFF'S OFFICE,VALLEY HEALTH REHABILITATION SERVICES,120 NORTH COMMERCE AVE,FRONT ROYAL,VA,22630,"http://maps.google.com/maps?q=120 NORTH COMMERCE AVE,+FRONT ROYAL,+VA+22630&hl=en"
WASHINGTON COUNTY SHERIFF'S OFFICE,"BELPRE SENIOR CENTER 
												
													PARKING LOT",1614 WASHINGTON BLVD,BELPRE,OH,45714,"http://maps.google.com/maps?q=1614 WASHINGTON BLVD,+BELPRE,+OH+45714&hl=en"
WASHINGTON COUNTY SHERIFF'S OFFICE,"BUCKEYE HILLS AREA AGENCY ON AGING 
												
													PARKING LOT",1400 NEWPORT PIKE,RENO,OH,45773,"http://maps.google.com/maps?q=1400 NEWPORT PIKE,+RENO,+OH+45773&hl=en"
WASHINGTON COUNTY SHERIFF'S OFFICE,CORNER OF 2ND ST AND PUTNAM ST,CORNER OF 2ND ST AND PUTNAM ST,MARIETTA,OH,45750,"http://maps.google.com/maps?q=CORNER OF 2ND ST AND PUTNAM ST,+MARIETTA,+OH+45750&hl=en"
WASHINGTON COUNTY SHERIFF'S OFFICE,"DEVOLA MEDICAL CENTER 
												
													PARKING LOT",4727 STATE ROUTE 60,MARIETTA,OH,45750,"http://maps.google.com/maps?q=4727 STATE ROUTE 60,+MARIETTA,+OH+45750&hl=en"
WASHINGTON COUNTY SHERIFF'S OFFICE,"FORT FRYE HIGH SCHOOL 
												
													PARKING LOT",420 FIFTH STREET,BEVERLY,OH,45715,"http://maps.google.com/maps?q=420 FIFTH STREET,+BEVERLY,+OH+45715&hl=en"
WASHINGTON COUNTY SHERIFF'S OFFICE,"HARDWARE COMPONENTS, INC",1021 PARK AVENUE,NEW MATAMORAS,OH,45767,"http://maps.google.com/maps?q=1021 PARK AVENUE,+NEW MATAMORAS,+OH+45767&hl=en"
WASHINGTON COUNTY SHERIFF'S OFFICE,"WASHINGTON COUNTY SHERIFF'S OFFICE 
												
													24HR DROP BOX LOCATED IN LOBBY",309 4TH STREET,MARIETTA,OH,45750,"http://maps.google.com/maps?q=309 4TH STREET,+MARIETTA,+OH+45750&hl=en"
WASHINGTON COUNTY SHERIFF'S OFFICE,"WHITE OAK PHARMACY 
												
													PARKING LOT",8465 STATE ROUTE 339,BARLOW,OH,45712,"http://maps.google.com/maps?q=8465 STATE ROUTE 339,+BARLOW,+OH+45712&hl=en"
WASHINGTON COUNTY TENNESSEE SHERIFFS OFFICE,GRAY COMMUNITY CHEST,113 GRAY RURITAN DRIVE,GRAY,TN,37615,"http://maps.google.com/maps?q=113 GRAY RURITAN DRIVE,+GRAY,+TN+37615&hl=en"
WASHINGTON METROPOLITAN POLICE DEPT,FIRST POLICE DISTRICT,"101 M STREET, SW",WASHINGTON,DC,20024,"http://maps.google.com/maps?q=101 M STREET, SW,+WASHINGTON,+DC+20024&hl=en"
WASHINGTON METROPOLITAN POLICE DEPT,FOURTH POLICE DISTRICT,"6001 GEORGIA AVENUE, NW",WASHINGTON,DC,20011,"http://maps.google.com/maps?q=6001 GEORGIA AVENUE, NW,+WASHINGTON,+DC+20011&hl=en"
WASHINGTON METROPOLITAN POLICE DEPT,SECOND POLICE DISTRICT,"3320 IDAHO AVENUE, NW",WASHINGTON,DC,20016,"http://maps.google.com/maps?q=3320 IDAHO AVENUE, NW,+WASHINGTON,+DC+20016&hl=en"
WASHINGTON METROPOLITAN POLICE DEPT,THIRD POLICE DISTRIST,"1620 V STREET, NW",WASHINGTON,DC,20009,"http://maps.google.com/maps?q=1620 V STREET, NW,+WASHINGTON,+DC+20009&hl=en"
WASHINGTON SUBURBAN SANITARY COMMISSION,WSSC POLICE DEPARTMENT,14501 SWEITZER LANE,LAUREL,MD,20707,"http://maps.google.com/maps?q=14501 SWEITZER LANE,+LAUREL,+MD+20707&hl=en"
WATAUGA COUNTY SHERIFF'S OFFICE,FOOD LION BLOWING ROCK,7533 VALLEY BLVD,BLOWING ROCK,NC,28605,"http://maps.google.com/maps?q=7533 VALLEY BLVD,+BLOWING ROCK,+NC+28605&hl=en"
WATAUGA COUNTY SHERIFF'S OFFICE,FOOD LION WATAUGA VILLAGE SHOPPING  CENTER,350 VILLAGE DRIVE,BOONE,NC,28607,"http://maps.google.com/maps?q=350 VILLAGE DRIVE,+BOONE,+NC+28607&hl=en"
WATAUGA COUNTY SHERIFF'S OFFICE,FOOD LOION HWY 421 SOUTH,1864 OLD US 421 SOUTH,BOONE,NC,28607,"http://maps.google.com/maps?q=1864 OLD US 421 SOUTH,+BOONE,+NC+28607&hl=en"
WATAUGA COUNTY SHERIFF'S OFFICE,FOSCOE FIRE DEPT.,9230 HWY 105 SOUTH,BANNER ELK,NC,28604,"http://maps.google.com/maps?q=9230 HWY 105 SOUTH,+BANNER ELK,+NC+28604&hl=en"
WAYNESBORO POLICE DEPARTMENT,"NEIGHBORHOOD MARKET 
												
													PARKING LOT",1211 WEST BROAD STREET,WAYNESBORO,VA,22980,"http://maps.google.com/maps?q=1211 WEST BROAD STREET,+WAYNESBORO,+VA+22980&hl=en"
WEBER CITY POLICE DEPARTMENT,"FOOD CITY - WEBER CITY 
												
													NEAR FRONT ENTRANCE",FRANK B. SMITH LN,WEBER CITY,VA,24290,"http://maps.google.com/maps?q=FRANK B. SMITH LN,+WEBER CITY,+VA+24290&hl=en"
WEBSTER COUNTY SHERIFF,WEBSTER COUNTY SHERIFF DEPT,"2 COURT SQUARE,G3",WEBSTER SPRINGS,WV,26288,"http://maps.google.com/maps?q=2 COURT SQUARE,,+WEBSTER SPRINGS,+WV+26288&hl=en"
WEST MIFFLIN POLICE DEPARTMENT,"WEST MIFFLIN POLICE DEPARTMENT LOBBY 
												
													LOBBY",1020 LEBANON ROAD,WEST MIFFLIN,PA,15122,"http://maps.google.com/maps?q=1020 LEBANON ROAD,+WEST MIFFLIN,+PA+15122&hl=en"
WEST VIRGINIA STATE POLICE,"WEST VIRGINIA STATE POLICE 
												
													SGT B K WELLMAN/3045285555",3339 US ROUTE 60 EAST,HUNTINGTON,WV,25705,"http://maps.google.com/maps?q=3339 US ROUTE 60 EAST,+HUNTINGTON,+WV+25705&hl=en"
WEST VIRGINIA STATE POLICE,"WEST VIRGINIA STATE POLICE 
												
													SGT J.R FLETCHER/3048223561",525 DEPOT STREET,ROMNEY,WV,26757,"http://maps.google.com/maps?q=525 DEPOT STREET,+ROMNEY,+WV+26757&hl=en"
WEST VIRGINIA STATE POLICE,"WEST VIRGINIA STATE POLICE 
												
													SGT R.E. RICHARDSON/3044204600",3828 STAUNTON TPK.,PARKERSBURG,WV,26104,"http://maps.google.com/maps?q=3828 STAUNTON TPK.,+PARKERSBURG,+WV+26104&hl=en"
WEST VIRGINIA STATE POLICE,"WEST VIRGINIA STATE POLICE 
												
													SGT R.J. DRAKE/3048243101",8021 COURT AVENUE,HAMLIN,WV,25523,"http://maps.google.com/maps?q=8021 COURT AVENUE,+HAMLIN,+WV+25523&hl=en"
WEST VIRGINIA STATE POLICE,"WEST VIRGINIA STATE POLICE 
												
													SGT R.L. FRYE/3047927200",735 RIVERVIEW AVENUE,LOGAN,WV,25601,"http://maps.google.com/maps?q=735 RIVERVIEW AVENUE,+LOGAN,+WV+25601&hl=en"
WEST VIRGINIA STATE POLICE,"WEST VIRGINIA STATE POLICE 
												
													SGT. B.K. HAMMONTREE/3045587777",711 JEFFERSON ROAD,SOUTH CHARLESTON,WV,25309,"http://maps.google.com/maps?q=711 JEFFERSON ROAD,+SOUTH CHARLESTON,+WV+25309&hl=en"
WEST VIRGINIA STATE POLICE,"WEST VIRGINIA STATE POLICE 
												
													SGT. C.H.FLOWERS/304-586-2000",3389 WINFIELD ROAD,WINFIELD,WV,25213,"http://maps.google.com/maps?q=3389 WINFIELD ROAD,+WINFIELD,+WV+25213&hl=en"
WEST VIRGINIA STATE POLICE,"WVSP-BECKLEY 
												
													SGT G.D. WILLIAMS/3042566700",105 PINECREST DR,BECKLEY,WV,25801,"http://maps.google.com/maps?q=105 PINECREST DR,+BECKLEY,+WV+25801&hl=en"
WEST VIRGINIA STATE POLICE,"WVSP-CHARLES TOWN 
												
													SGT J.S. CHUMLEY/304-725-9779",409 INDUSTRIAL BLVD.,KEARNEYSVILLE,WV,25430,"http://maps.google.com/maps?q=409 INDUSTRIAL BLVD.,+KEARNEYSVILLE,+WV+25430&hl=en"
WEST VIRGINIA STATE POLICE,"WVSP-KEYSER 
												
													SGT. S.B. HUFFMAN/3047881101","730 FORT ASHBY RDRT 1, BOX 172D",KEYSER,WV,26726,"http://maps.google.com/maps?q=730 FORT ASHBY RD,+KEYSER,+WV+26726&hl=en"
WEST VIRGINIA STATE POLICE,"WVSP-LEWISBURG 
												
													SGT D.A EVANS/3046477600",381 GREENBRIAR RD,LEWISBURG,WV,24901,"http://maps.google.com/maps?q=381 GREENBRIAR RD,+LEWISBURG,+WV+24901&hl=en"
WEST VIRGINIA STATE POLICE,"WVSP-MARTINSBURG 
												
													SGT M.A. COLE/3042670001",14 TROOPER DR,MARTINSBURG,WV,25404,"http://maps.google.com/maps?q=14 TROOPER DR,+MARTINSBURG,+WV+25404&hl=en"
WEST VIRGINIA STATE POLICE,"WVSP-OAK HILL 
												
													SGT. J.L. MILAM/3044692915",3057 MAIN ST,OAK HILL,WV,25901,"http://maps.google.com/maps?q=3057 MAIN ST,+OAK HILL,+WV+25901&hl=en"
WEST VIRGINIA STATE POLICE,"WVSP-PRINCETON 
												
													SGT. D.W. MILLER/3044252101",910 OAKVALE RD,PRINCETON,WV,24740,"http://maps.google.com/maps?q=910 OAKVALE RD,+PRINCETON,+WV+24740&hl=en"
WETZEL COUNTY SHERIFF'S OFFICE,NEW MARTINSVILLE FIRE DEPT,400 OHIO STREET,NEW MARTINSVILLE,WV,26155,"http://maps.google.com/maps?q=400 OHIO STREET,+NEW MARTINSVILLE,+WV+26155&hl=en"
WETZEL COUNTY SHERIFF'S OFFICE,THE HUNDRED CITY BUILDING,58 FOUR SEASONS DRIVE,HUNDRED,WV,26575,"http://maps.google.com/maps?q=58 FOUR SEASONS DRIVE,+HUNDRED,+WV+26575&hl=en"
WHEELING POLICE DEPT,MT DECHANTAL KROGER,200 MT DECHANTAL RD,WHEELING,WV,26003,"http://maps.google.com/maps?q=200 MT DECHANTAL RD,+WHEELING,+WV+26003&hl=en"
"WILLIAMSON, WV POLICE DEPARTMENT","WILLIAMSON, WV PD",108 EAST 4TH AVE,WILLIAMSON,WV,25661,"http://maps.google.com/maps?q=108 EAST 4TH AVE,+WILLIAMSON,+WV+25661&hl=en"
WILLIAMSTOWN POLICE DEPT,WILLIAMSTOWN PD,100 WEST 5TH ST,WILLIAMSTOWN,WV,26187,"http://maps.google.com/maps?q=100 WEST 5TH ST,+WILLIAMSTOWN,+WV+26187&hl=en"
WINCHESTER CITY SHERIFF'S OFFICE,COURTHOUSE,5 NORTH KENT ST,WINCHESTER,VA,22601,"http://maps.google.com/maps?q=5 NORTH KENT ST,+WINCHESTER,+VA+22601&hl=en"
WINCHESTER CITY SHERIFF'S OFFICE,CVS PHARMACY,840 BERRYVILLE AV,WINCHESTER,VA,22601,"http://maps.google.com/maps?q=840 BERRYVILLE AV,+WINCHESTER,+VA+22601&hl=en"
WINCHESTER CITY SHERIFF'S OFFICE,ROTZ PHARMACY,1338 AMHERST ST,WINCHESTER,VA,22601,"http://maps.google.com/maps?q=1338 AMHERST ST,+WINCHESTER,+VA+22601&hl=en"
WINDBER BOROUGH POLICE DEPT,MARTELLA'S PHARMACY,901 CORAHAM AVE,WINDBER,PA,15963,"http://maps.google.com/maps?q=901 CORAHAM AVE,+WINDBER,+PA+15963&hl=en"
WINFIELD WV POLICE DEPT,WINFIELD WV POLICE DEPARTMENT,3232 WINFIELD ROAD,WINFIELD,WV,25213,"http://maps.google.com/maps?q=3232 WINFIELD ROAD,+WINFIELD,+WV+25213&hl=en"
WISE COUNTY SHERIFF'S OFFICE,FOOD CITY,16410 WISE ST,SAINT PAUL,VA,24283,"http://maps.google.com/maps?q=16410 WISE ST,+SAINT PAUL,+VA+24283&hl=en"
WISE POLICE DEPARTMENT,"FOOD CITY 
												
													NEAR FRONT ENTRANCE",207 WOODLAND DRIVE,WISE,VA,24293,"http://maps.google.com/maps?q=207 WOODLAND DRIVE,+WISE,+VA+24293&hl=en"
WOOD COUNTY WV SHERIFF'S DEPARTMENT,LUBECK VFD,1340 HARRIS HWY,PARKERSBURG,WV,26101,"http://maps.google.com/maps?q=1340 HARRIS HWY,+PARKERSBURG,+WV+26101&hl=en"
WOOD COUNTY WV SHERIFF'S DEPARTMENT,MINERAL WELLS VFD,1695 ELIZABETH PIKE,MINERAL WELLS,WV,26150,"http://maps.google.com/maps?q=1695 ELIZABETH PIKE,+MINERAL WELLS,+WV+26150&hl=en"
WOOD COUNTY WV SHERIFF'S DEPARTMENT,WAVERLY VFD,15425 EMERSON AVE,WAVERLY,WV,26184,"http://maps.google.com/maps?q=15425 EMERSON AVE,+WAVERLY,+WV+26184&hl=en"
WOODSTOCK POLICE DEPARTMENT,"WALMART 
												
													NEAR FRONT ENTRANCE",461 W. RESERVOIR RD,WOODSTOCK,VA,22664,"http://maps.google.com/maps?q=461 W. RESERVOIR RD,+WOODSTOCK,+VA+22664&hl=en"
WV DIVISION OF PROTECTIVE SERVICES,"WV STATE CAPITOL BUILDING 
												
													OUTSIDE-CALIFORNIA AVE",1900 KANAWHA BOULEVARD EAST,CHARLESTON,WV,25305,"http://maps.google.com/maps?q=1900 KANAWHA BOULEVARD EAST,+CHARLESTON,+WV+25305&hl=en"
WYOMING COUNTY SHERIFF'S,MAGIC MART,759 OCEANA SQUARE/RTE 971,OCEANA,WV,24870,"http://maps.google.com/maps?q=759 OCEANA SQUARE/RTE 971,+OCEANA,+WV+24870&hl=en"
WYOMING COUNTY SHERIFF'S,RITE AID,401 MORAN AVE,MULLENS,WV,25882,"http://maps.google.com/maps?q=401 MORAN AVE,+MULLENS,+WV+25882&hl=en"
WYOMING COUNTY SHERIFF'S,RITE AID,448 APPALACHIAN HWY,PINEVILLE,WV,24874,"http://maps.google.com/maps?q=448 APPALACHIAN HWY,+PINEVILLE,+WV+24874&hl=en"
WYTHE COUNTY SHERIFF'S OFFICE,"WYTHE COUNTY SHERIFF'S OFFICE 
												
													SALLY PORT AREA FOR COLLECTION",245 S 4TH STREET,WYTHEVILLE,VA,24382,"http://maps.google.com/maps?q=245 S 4TH STREET,+WYTHEVILLE,+VA+24382&hl=en"
