Business Name,Address 1,Address 2,"City, State Zip",Map URL
BAYSTATE MEDICAL CENTER INC,759 CHESTNUT ST,,"SPRINGFIELD, MA 01199",http://maps.google.com/maps?q=BAYSTATE%20MEDICAL%20CENTER%20INC%2C759%20CHESTNUT%20ST%2C+SPRINGFIELD%2C+MA+01199
BEVERLY HOSPITAL,C/O PHARMACY DEPT,85 HERRICK ST,"BEVERLY, MA 01915",http://maps.google.com/maps?q=BEVERLY%20HOSPITAL%2CC/O%20PHARMACY%20DEPT%2C+BEVERLY%2C+MA+01915
BOSTON MEDICAL CENTER,MENINO CAMPUS,840 HARRISON AVE,"BOSTON, MA 02118",http://maps.google.com/maps?q=BOSTON%20MEDICAL%20CENTER%2CMENINO%20CAMPUS%2C+BOSTON%2C+MA+02118
BOSTON MEDICAL CENTER PHARMACY AT SHAPIRO,725 ALBANY STREET,PHARMACY,"BOSTON, MA 02118",http://maps.google.com/maps?q=BOSTON%20MEDICAL%20CENTER%20PHARMACY%20AT%20SHAPIRO%2C725%20ALBANY%20STREET%2C+BOSTON%2C+MA+02118
BRATTLEBORO MEMORIAL HOSP,PHARMACY DEPT.,17 BELMONT AVE.,"BRATTLEBORO, VT 05301",http://maps.google.com/maps?q=BRATTLEBORO%20MEMORIAL%20HOSP%2CPHARMACY%20DEPT.%2C+BRATTLEBORO%2C+VT+05301
BRIGHAM AND WOMEN'S HOSPITAL,75 FRANCIS STREET,DEPT OF PHARMACY TWR L2-504,"BOSTON, MA 02115",http://maps.google.com/maps?q=BRIGHAM%20AND%20WOMENS%20HOSPITAL%2C75%20FRANCIS%20STREET%2C+BOSTON%2C+MA+02115
BRIGHAM AND WOMEN'S HOSPITAL,850 BOYLSTON STREET,"DELIVER TO PHARMACY DEPT, 75 F","CHESTNUT HILL, MA 02467",http://maps.google.com/maps?q=BRIGHAM%20AND%20WOMENS%20HOSPITAL%2C850%20BOYLSTON%20STREET%2C+CHESTNUT%20HILL%2C+MA+02467
CATHOLIC MEDICAL CENTER HOSP,100 MCGREGOR STREET,,"MANCHESTER, NH 03102",http://maps.google.com/maps?q=CATHOLIC%20MEDICAL%20CENTER%20HOSP%2C100%20MCGREGOR%20STREET%2C+MANCHESTER%2C+NH+03102
"CVS MANCHESTER NH, L.L.C.",242 MAIN STREET,,"NASHUA, NH 03060",http://maps.google.com/maps?q=CVS%20MANCHESTER%20NH%20LLC%2C242%20MAIN%20STREET%2C+NASHUA%2C+NH+03060
"CVS MANCHESTER NH, L.L.C.",268 WEST ST.,,"KEENE, NH 03431",http://maps.google.com/maps?q=CVS%20MANCHESTER%20NH%20LLC%2C268%20WEST%20ST.%2C+KEENE%2C+NH+03431
"CVS PHARMACY, INC.",115 STAFFORD ST.,,"WORCESTER, MA 01603",http://maps.google.com/maps?q=CVS%20PHARMACY%20INC%2C115%20STAFFORD%20ST.%2C+WORCESTER%2C+MA+01603
"CVS PHARMACY, INC.",12 HARVARD ST.,,"WALTHAM, MA 02453",http://maps.google.com/maps?q=CVS%20PHARMACY%20INC%2C12%20HARVARD%20ST.%2C+WALTHAM%2C+MA+02453
"CVS PHARMACY, INC.",1267 MAIN STREET,,"BROCKTON, MA 02301",http://maps.google.com/maps?q=CVS%20PHARMACY%20INC%2C1267%20MAIN%20STREET%2C+BROCKTON%2C+MA+02301
"CVS PHARMACY, INC.",1280 WORCESTER RD.,,"FRAMINGHAM, MA 01702",http://maps.google.com/maps?q=CVS%20PHARMACY%20INC%2C1280%20WORCESTER%20RD.%2C+FRAMINGHAM%2C+MA+01702
"CVS PHARMACY, INC.",13-1/2 POND STREET,,"NEWBURYPORT, MA 01950",http://maps.google.com/maps?q=CVS%20PHARMACY%20INC%2C13-1/2%20POND%20STREET%2C+NEWBURYPORT%2C+MA+01950
"CVS PHARMACY, INC.",136 NAHATAN ST.,,"NORWOOD, MA 02062",http://maps.google.com/maps?q=CVS%20PHARMACY%20INC%2C136%20NAHATAN%20ST.%2C+NORWOOD%2C+MA+02062
"CVS PHARMACY, INC.",137 FEDERAL STREET,,"GREENFIELD, MA 01301",http://maps.google.com/maps?q=CVS%20PHARMACY%20INC%2C137%20FEDERAL%20STREET%2C+GREENFIELD%2C+MA+01301
"CVS PHARMACY, INC.",137 SOUTH MAIN STREET,,"MILFORD, MA 01757",http://maps.google.com/maps?q=CVS%20PHARMACY%20INC%2C137%20SOUTH%20MAIN%20STREET%2C+MILFORD%2C+MA+01757
"CVS PHARMACY, INC.",137 WEST CENTRAL STREET,,"NATICK, MA 01760",http://maps.google.com/maps?q=CVS%20PHARMACY%20INC%2C137%20WEST%20CENTRAL%20STREET%2C+NATICK%2C+MA+01760
"CVS PHARMACY, INC.",1616 MEMORIAL DR.,,"CHICOPEE, MA 01020",http://maps.google.com/maps?q=CVS%20PHARMACY%20INC%2C1616%20MEMORIAL%20DR.%2C+CHICOPEE%2C+MA+01020
"CVS PHARMACY, INC.",171 NORTH MAIN STREET,,"RANDOLPH, MA 02368",http://maps.google.com/maps?q=CVS%20PHARMACY%20INC%2C171%20NORTH%20MAIN%20STREET%2C+RANDOLPH%2C+MA+02368
"CVS PHARMACY, INC.",1815 MIDDLESEX STREET,,"LOWELL, MA 01851",http://maps.google.com/maps?q=CVS%20PHARMACY%20INC%2C1815%20MIDDLESEX%20STREET%2C+LOWELL%2C+MA+01851
"CVS PHARMACY, INC.",1880 OCEAN STREET,,"MARSHFIELD, MA 02050",http://maps.google.com/maps?q=CVS%20PHARMACY%20INC%2C1880%20OCEAN%20STREET%2C+MARSHFIELD%2C+MA+02050
"CVS PHARMACY, INC.",19 DODGE ST.,,"BEVERLY, MA 01915",http://maps.google.com/maps?q=CVS%20PHARMACY%20INC%2C19%20DODGE%20ST.%2C+BEVERLY%2C+MA+01915
"CVS PHARMACY, INC.",197 BOSTON TURNPIKE RTE 9,,"SHREWSBURY, MA 01545",http://maps.google.com/maps?q=CVS%20PHARMACY%20INC%2C197%20BOSTON%20TURNPIKE%20RTE%209%2C+SHREWSBURY%2C+MA+01545
"CVS PHARMACY, INC.",261 CHAUNCY STREET,,"MANSFIELD, MA 02048",http://maps.google.com/maps?q=CVS%20PHARMACY%20INC%2C261%20CHAUNCY%20STREET%2C+MANSFIELD%2C+MA+02048
"CVS PHARMACY, INC.",264 EAST MAIN STREET,,"MARLBORO, MA 01752",http://maps.google.com/maps?q=CVS%20PHARMACY%20INC%2C264%20EAST%20MAIN%20STREET%2C+MARLBORO%2C+MA+01752
"CVS PHARMACY, INC.",27-43 MAIN STREET,,"WATERTOWN, MA 02472",http://maps.google.com/maps?q=CVS%20PHARMACY%20INC%2C27-43%20MAIN%20STREET%2C+WATERTOWN%2C+MA+02472
"CVS PHARMACY, INC.","272 EAST CENTRAL STREET, ROUTE 140",,"FRANKLIN, MA 02038",http://maps.google.com/maps?q=CVS%20PHARMACY%20INC%2C272%20EAST%20CENTRAL%20STREET%2C%20ROUTE%20140%2C+FRANKLIN%2C+MA+02038
"CVS PHARMACY, INC.",314 MAIN STREET,,"GARDNER, MA 01440",http://maps.google.com/maps?q=CVS%20PHARMACY%20INC%2C314%20MAIN%20STREET%2C+GARDNER%2C+MA+01440
"CVS PHARMACY, INC.",336 BRIDGE ST.,,"LOWELL, MA 01850",http://maps.google.com/maps?q=CVS%20PHARMACY%20INC%2C336%20BRIDGE%20ST.%2C+LOWELL%2C+MA+01850
"CVS PHARMACY, INC.",36 WHITE STREET,,"CAMBRIDGE, MA 02140",http://maps.google.com/maps?q=CVS%20PHARMACY%20INC%2C36%20WHITE%20STREET%2C+CAMBRIDGE%2C+MA+02140
"CVS PHARMACY, INC.",400 MASSACHUSETTS AVENUE,,"ACTON, MA 01720",http://maps.google.com/maps?q=CVS%20PHARMACY%20INC%2C400%20MASSACHUSETTS%20AVENUE%2C+ACTON%2C+MA+01720
"CVS PHARMACY, INC.",400 PARK AVE.,,"WORCESTER, MA 01610",http://maps.google.com/maps?q=CVS%20PHARMACY%20INC%2C400%20PARK%20AVE.%2C+WORCESTER%2C+MA+01610
"CVS PHARMACY, INC.",42 BEALE STREET,,"WOLLASTON, MA 02170",http://maps.google.com/maps?q=CVS%20PHARMACY%20INC%2C42%20BEALE%20STREET%2C+WOLLASTON%2C+MA+02170
"CVS PHARMACY, INC.",425 LOWELL AVE.,,"HAVERHILL, MA 01832",http://maps.google.com/maps?q=CVS%20PHARMACY%20INC%2C425%20LOWELL%20AVE.%2C+HAVERHILL%2C+MA+01832
"CVS PHARMACY, INC.",474 WASHINGTON ST.,,"WEYMOUTH, MA 02188",http://maps.google.com/maps?q=CVS%20PHARMACY%20INC%2C474%20WASHINGTON%20ST.%2C+WEYMOUTH%2C+MA+02188
"CVS PHARMACY, INC.",500 GRAFTON STREET,,"WORCESTER, MA 01604",http://maps.google.com/maps?q=CVS%20PHARMACY%20INC%2C500%20GRAFTON%20STREET%2C+WORCESTER%2C+MA+01604
"CVS PHARMACY, INC.",590 FELLSWAY,,"MEDFORD, MA 02155",http://maps.google.com/maps?q=CVS%20PHARMACY%20INC%2C590%20FELLSWAY%2C+MEDFORD%2C+MA+02155
"CVS PHARMACY, INC.",600 STATE ST,,"SPRINGFIELD, MA 01109",http://maps.google.com/maps?q=CVS%20PHARMACY%20INC%2C600%20STATE%20ST%2C+SPRINGFIELD%2C+MA+01109
"CVS PHARMACY, INC.",615-621 BELMONT AVENUE,,"SPRINGFIELD, MA 01108",http://maps.google.com/maps?q=CVS%20PHARMACY%20INC%2C615-621%20BELMONT%20AVENUE%2C+SPRINGFIELD%2C+MA+01108
"CVS PHARMACY, INC.","626 SOUTHERN ARTERY, RTE 3A",,"QUINCY, MA 02169",http://maps.google.com/maps?q=CVS%20PHARMACY%20INC%2C626%20SOUTHERN%20ARTERY%2C%20RTE%203A%2C+QUINCY%2C+MA+02169
"CVS PHARMACY, INC.",68 MAIN STREET,,"ANDOVER, MA 01810",http://maps.google.com/maps?q=CVS%20PHARMACY%20INC%2C68%20MAIN%20STREET%2C+ANDOVER%2C+MA+01810
"CVS PHARMACY, INC.",715 MORRISSEY BOULEVARD,,"DORCHESTER, MA 02122",http://maps.google.com/maps?q=CVS%20PHARMACY%20INC%2C715%20MORRISSEY%20BOULEVARD%2C+DORCHESTER%2C+MA+02122
"CVS PHARMACY, INC.",9 NELSON STREET,,"LEOMINSTER, MA 01453",http://maps.google.com/maps?q=CVS%20PHARMACY%20INC%2C9%20NELSON%20STREET%2C+LEOMINSTER%2C+MA+01453
DARTMOUTH HITCHCOCK PHARMACY AT CENTERRA,12 CENTERRA PARKWAY,,"LEBANON, NH 03766",http://maps.google.com/maps?q=DARTMOUTH%20HITCHCOCK%20PHARMACY%20AT%20CENTERRA%2C12%20CENTERRA%20PARKWAY%2C+LEBANON%2C+NH+03766
DARTMOUTH-HITCHCOCK PHARMACY,ONE MEDICAL CENTER DRIVE,,"LEBANON, NH 03756",http://maps.google.com/maps?q=DARTMOUTHHITCHCOCK%20PHARMACY%2CONE%20MEDICAL%20CENTER%20DRIVE%2C+LEBANON%2C+NH+03756
DICK HALL'S HOUSE PHARMACY,5 ROPE FERRY RD.,,"HANOVER, NH 03755",http://maps.google.com/maps?q=DICK%20HALLS%20HOUSE%20PHARMACY%2C5%20ROPE%20FERRY%20RD.%2C+HANOVER%2C+NH+03755
FIRST COLONY CORP,PO BOX 10,82 NEWPORT RD,"NEW LONDON, NH 03257",http://maps.google.com/maps?q=FIRST%20COLONY%20CORP%2CPO%20BOX%2010%2C+NEW%20LONDON%2C+NH+03257
FRANKLIN MEMORIAL HOSPITAL,111 FRANKLIN HEALTH COMMONS,,"FARMINGTON, ME 04938",http://maps.google.com/maps?q=FRANKLIN%20MEMORIAL%20HOSPITAL%2C111%20FRANKLIN%20HEALTH%20COMMONS%2C+FARMINGTON%2C+ME+04938
GAUTHIER'S PHARMACY INC,415 RAILROAD ST,,"ST JOHNSBURY, VT 05819",http://maps.google.com/maps?q=GAUTHIERS%20PHARMACY%20INC%2C415%20RAILROAD%20ST%2C+ST%20JOHNSBURY%2C+VT+05819
GENERAL HOSPITAL CORPORATION,OUTPATIENT PHARMACY,55 FRUIT STREET,"BOSTON, MA 02114",http://maps.google.com/maps?q=GENERAL%20HOSPITAL%20CORPORATION%2COUTPATIENT%20PHARMACY%2C+BOSTON%2C+MA+02114
GIFFORD MEMORIAL HOSPITAL INC,44 SOUTH MAIN ST,,"RANDOLPH, VT 05060",http://maps.google.com/maps?q=GIFFORD%20MEMORIAL%20HOSPITAL%20INC%2C44%20SOUTH%20MAIN%20ST%2C+RANDOLPH%2C+VT+05060
GREATER FALLS PHARMACY,78 ATKINSON ST,,"BELLOWS FALLS, VT 05101",http://maps.google.com/maps?q=GREATER%20FALLS%20PHARMACY%2C78%20ATKINSON%20ST%2C+BELLOWS%20FALLS%2C+VT+05101
"GUARDIAN PHARMACY OF MAINE, LLC","3 BUSINESS PARKWAY, SUITE 2",,"BRUNSWICK, ME 04011",http://maps.google.com/maps?q=GUARDIAN%20PHARMACY%20OF%20MAINE%20LLC%2C3%20BUSINESS%20PARKWAY%2C%20SUITE%202%2C+BRUNSWICK%2C+ME+04011
HARVARD UNIVERSITY HEALTH SERVICES,75 MT AUBURN ST,,"CAMBRIDGE, MA 02138",http://maps.google.com/maps?q=HARVARD%20UNIVERSITY%20HEALTH%20SERVICES%2C75%20MT%20AUBURN%20ST%2C+CAMBRIDGE%2C+MA+02138
HIGH MOUNTAIN CORPORATION,DBA RUTLAND PHARMACY,75 ALLEN STREET,"RUTLAND, VT 05701",http://maps.google.com/maps?q=HIGH%20MOUNTAIN%20CORPORATION%2CDBA%20RUTLAND%20PHARMACY%2C+RUTLAND%2C+VT+05701
HOLYOKE HEALTH CENTER INC,505 FRONT STREET,,"CHICOPEE, MA 01013",http://maps.google.com/maps?q=HOLYOKE%20HEALTH%20CENTER%20INC%2C505%20FRONT%20STREET%2C+CHICOPEE%2C+MA+01013
"HOLYOKE HEALTH CENTER, INC.",PHARMACY DEPARTMENT,230 MAPLE STREET,"HOLYOKE, MA 01040",http://maps.google.com/maps?q=HOLYOKE%20HEALTH%20CENTER%20INC%2CPHARMACY%20DEPARTMENT%2C+HOLYOKE%2C+MA+01040
HOTEL PHARMACY,20 ELLIOT ST,,"BRATTLEBORO, VT 05301",http://maps.google.com/maps?q=HOTEL%20PHARMACY%2C20%20ELLIOT%20ST%2C+BRATTLEBORO%2C+VT+05301
LAHEY CLINIC HOSPITAL INC,C/O PHARMACY DEPT,41 MALL RD,"BURLINGTON, MA 01805",http://maps.google.com/maps?q=LAHEY%20CLINIC%20HOSPITAL%20INC%2CC/O%20PHARMACY%20DEPT%2C+BURLINGTON%2C+MA+01805
LAKES REGION GENERAL HOSPITAL,80 HIGHLAND STREET,,"LACONIA, NH 03246",http://maps.google.com/maps?q=LAKES%20REGION%20GENERAL%20HOSPITAL%2C80%20HIGHLAND%20STREET%2C+LACONIA%2C+NH+03246
LUDLOW PHARMACY INC.,57 POND ST,,"LUDLOW, VT 05149",http://maps.google.com/maps?q=LUDLOW%20PHARMACY%20INC%2C57%20POND%20ST%2C+LUDLOW%2C+VT+05149
MARBLE WORKS PHARMACY,187 MAIN STREET,,"VERGENNES, VT 05491",http://maps.google.com/maps?q=MARBLE%20WORKS%20PHARMACY%2C187%20MAIN%20STREET%2C+VERGENNES%2C+VT+05491
MARBLE WORKS PHARMACY,61 PINE STREET,SUITE 401,"BRISTOL, VT 05443",http://maps.google.com/maps?q=MARBLE%20WORKS%20PHARMACY%2C61%20PINE%20STREET%2C+BRISTOL%2C+VT+05443
MARBLE WORKS PHARMACY,99 MAPLE ST,STE 19,"MIDDLEBURY, VT 05753",http://maps.google.com/maps?q=MARBLE%20WORKS%20PHARMACY%2C99%20MAPLE%20ST%2C+MIDDLEBURY%2C+VT+05753
MASS EYE & EAR INFIRMARY,243 CHARLES STREET,,"BOSTON, MA 02114",http://maps.google.com/maps?q=MASS%20EYE%20%20EAR%20INFIRMARY%2C243%20CHARLES%20STREET%2C+BOSTON%2C+MA+02114
MC LEAN HOSPITAL,PHARMACY DIRECTOR,115 MILL STREET,"BELMONT, MA 02478",http://maps.google.com/maps?q=MC%20LEAN%20HOSPITAL%2CPHARMACY%20DIRECTOR%2C+BELMONT%2C+MA+02478
NASHUA HOSPITAL ASSOC,8 PROSPECT ST,BOX 2014,"NASHUA, NH 03061",http://maps.google.com/maps?q=NASHUA%20HOSPITAL%20ASSOC%2C8%20PROSPECT%20ST%2C+NASHUA%2C+NH+03061
NEWTON-WELLESLEY HOSPITAL,ATTN PHARMACY,2014 WASHINGTON ST,"NEWTON LOWER FALLS, MA 02462",http://maps.google.com/maps?q=NEWTONWELLESLEY%20HOSPITAL%2CATTN%20PHARMACY%2C+NEWTON%20LOWER%20FALLS%2C+MA+02462
NORTH COUNTRY HOSPITAL AND,189 PROUTY DRIVE,,"NEWPORT, VT 05855",http://maps.google.com/maps?q=NORTH%20COUNTRY%20HOSPITAL%20AND%2C189%20PROUTY%20DRIVE%2C+NEWPORT%2C+VT+05855
NORTHEASTERN VT REG HOSP INC,HOSPITAL DRIVE,,"ST JOHNSBURY, VT 05819",http://maps.google.com/maps?q=NORTHEASTERN%20VT%20REG%20HOSP%20INC%2CHOSPITAL%20DRIVE%2C+ST%20JOHNSBURY%2C+VT+05819
PORTER HOSPITAL,C/O DIRECTOR OF PHARMACY,115 PORTER DRIVE,"MIDDLEBURY, VT 05753",http://maps.google.com/maps?q=PORTER%20HOSPITAL%2CC/O%20DIRECTOR%20OF%20PHARMACY%2C+MIDDLEBURY%2C+VT+05753
REDINGTON-FAIRVIEW GEN HOSP,"46 FAIRVIEW AVENUE, PO BOX 468",,"SKOWHEGAN, ME 04976",http://maps.google.com/maps?q=REDINGTONFAIRVIEW%20GEN%20HOSP%2C46%20FAIRVIEW%20AVENUE%2C%20PO%20BOX%20468%2C+SKOWHEGAN%2C+ME+04976
REVERE HEALTHCARE CENTER,CLINIC PHARMACY,300 OCEAN AVENUE,"REVERE, MA 02151",http://maps.google.com/maps?q=REVERE%20HEALTHCARE%20CENTER%2CCLINIC%20PHARMACY%2C+REVERE%2C+MA+02151
RICHFORD HEALTH CENTER INC,44 MAIN STREET,SUITE 201,"RICHFORD, VT 05476",http://maps.google.com/maps?q=RICHFORD%20HEALTH%20CENTER%20INC%2C44%20MAIN%20STREET%2C+RICHFORD%2C+VT+05476
RUTLAND REGIONAL MEDICAL CTR,160 ALLEN ST ATTN PHARM DEPT,,"RUTLAND, VT 05701",http://maps.google.com/maps?q=RUTLAND%20REGIONAL%20MEDICAL%20CTR%2C160%20ALLEN%20ST%20ATTN%20PHARM%20DEPT%2C+RUTLAND%2C+VT+05701
SAINT JOSEPH'S HOSPITAL,ATTN PHARMACY,172 KINSLEY ST,"NASHUA, NH 03060",http://maps.google.com/maps?q=SAINT%20JOSEPHS%20HOSPITAL%2CATTN%20PHARMACY%2C+NASHUA%2C+NH+03060
SOUTH SHORE HOSPITAL,KRISTOPHER YOUNG PHARMD,55 FOGG ROAD,"SOUTH WEYMOUTH, MA 02190",http://maps.google.com/maps?q=SOUTH%20SHORE%20HOSPITAL%2CKRISTOPHER%20YOUNG%20PHARMD%2C+SOUTH%20WEYMOUTH%2C+MA+02190
SOUTHWESTERN VERMONT MEDICAL CENTER,100 HOSPITAL DRIVE,,"BENNINGTON, VT 05201",http://maps.google.com/maps?q=SOUTHWESTERN%20VERMONT%20MEDICAL%20CENTER%2C100%20HOSPITAL%20DRIVE%2C+BENNINGTON%2C+VT+05201
SPRINGFIELD PHARMACY INC,262 RIVER STREET,,"SPRINGFIELD, VT 05156",http://maps.google.com/maps?q=SPRINGFIELD%20PHARMACY%20INC%2C262%20RIVER%20STREET%2C+SPRINGFIELD%2C+VT+05156
T C FLYNN PHARMACY,173 ELM ST,,"PITTSFIELD, MA 01201",http://maps.google.com/maps?q=T%20C%20FLYNN%20PHARMACY%2C173%20ELM%20ST%2C+PITTSFIELD%2C+MA+01201
THE ARBOUR HOSPITAL,49 ROBINWOOD AVE,,"JAMAICA PLAIN, MA 02130",http://maps.google.com/maps?q=THE%20ARBOUR%20HOSPITAL%2C49%20ROBINWOOD%20AVE%2C+JAMAICA%20PLAIN%2C+MA+02130
THE GENERAL HOSP CORPORATION,DELIVER ONLY TO THE,DIRECTOR OF PHARMACY,"BOSTON, MA 02114",http://maps.google.com/maps?q=THE%20GENERAL%20HOSP%20CORPORATION%2CDELIVER%20ONLY%20TO%20THE%2C+BOSTON%2C+MA+02114
"THE PHARMACY - NORTHSHIRE, LLC",34 WAYS LANE,,"MANCHESTER CENTER, VT 05255",http://maps.google.com/maps?q=THE%20PHARMACY%20%20NORTHSHIRE%20LLC%2C34%20WAYS%20LANE%2C+MANCHESTER%20CENTER%2C+VT+05255
USAF-66TH MEDICAL SQUADRON/SGSM,90 VANDENBERG DRIVE BLDG 1900,,"HANSCOM AFB, MA 01731",http://maps.google.com/maps?q=USAFTH%20MEDICAL%20SQUADRONSGSM%2C90%20VANDENBERG%20DRIVE%20BLDG%201900%2C+HANSCOM%20AFB%2C+MA+01731
"WALGREEN EASTERN CO., INC.",1 KELLY SQUARE,,"EAST BOSTON, MA 02128",http://maps.google.com/maps?q=WALGREEN%20EASTERN%20CO%20INC%2C1%20KELLY%20SQUARE%2C+EAST%20BOSTON%2C+MA+02128
"WALGREEN EASTERN CO., INC.",104 S MAIN STREET,,"ROCHESTER, NH 03867",http://maps.google.com/maps?q=WALGREEN%20EASTERN%20CO%20INC%2C104%20S%20MAIN%20STREET%2C+ROCHESTER%2C+NH+03867
"WALGREEN EASTERN CO., INC.",170 N MAIN STREET,,"RANDOLPH, MA 02368",http://maps.google.com/maps?q=WALGREEN%20EASTERN%20CO%20INC%2C170%20N%20MAIN%20STREET%2C+RANDOLPH%2C+MA+02368
"WALGREEN EASTERN CO., INC.",185 CENTRE STREET,,"MALDEN, MA 02148",http://maps.google.com/maps?q=WALGREEN%20EASTERN%20CO%20INC%2C185%20CENTRE%20STREET%2C+MALDEN%2C+MA+02148
"WALGREEN EASTERN CO., INC.",201 MAIN STREET,,"GLOUCESTER, MA 01930",http://maps.google.com/maps?q=WALGREEN%20EASTERN%20CO%20INC%2C201%20MAIN%20STREET%2C+GLOUCESTER%2C+MA+01930
"WALGREEN EASTERN CO., INC.",225 MAIN ST.,,"STONEHAM, MA 02180",http://maps.google.com/maps?q=WALGREEN%20EASTERN%20CO%20INC%2C225%20MAIN%20ST.%2C+STONEHAM%2C+MA+02180
"WALGREEN EASTERN CO., INC.",283 MAIN ST,,"NASHUA, NH 03060",http://maps.google.com/maps?q=WALGREEN%20EASTERN%20CO%20INC%2C283%20MAIN%20ST%2C+NASHUA%2C+NH+03060
"WALGREEN EASTERN CO., INC.",3 AIRPORT RD,,"WEST LEBANON, NH 03784",http://maps.google.com/maps?q=WALGREEN%20EASTERN%20CO%20INC%2C3%20AIRPORT%20RD%2C+WEST%20LEBANON%2C+NH+03784
"WALGREEN EASTERN CO., INC.",320 PARK AVE,,"WORCESTER, MA 01610",http://maps.google.com/maps?q=WALGREEN%20EASTERN%20CO%20INC%2C320%20PARK%20AVE%2C+WORCESTER%2C+MA+01610
"WALGREEN EASTERN CO., INC.",413 WASHINGTON STREET,,"STOUGHTON, MA 02072",http://maps.google.com/maps?q=WALGREEN%20EASTERN%20CO%20INC%2C413%20WASHINGTON%20STREET%2C+STOUGHTON%2C+MA+02072
"WALGREEN EASTERN CO., INC.",416 WARREN ST,,"ROXBURY, MA 02119",http://maps.google.com/maps?q=WALGREEN%20EASTERN%20CO%20INC%2C416%20WARREN%20ST%2C+ROXBURY%2C+MA+02119
"WALGREEN EASTERN CO., INC.",418 QUINCY AVENUE,,"QUINCY, MA 02169",http://maps.google.com/maps?q=WALGREEN%20EASTERN%20CO%20INC%2C418%20QUINCY%20AVENUE%2C+QUINCY%2C+MA+02169
"WALGREEN EASTERN CO., INC.",440 WEST ST,,"KEENE, NH 03431",http://maps.google.com/maps?q=WALGREEN%20EASTERN%20CO%20INC%2C440%20WEST%20ST%2C+KEENE%2C+NH+03431
"WALGREEN EASTERN CO., INC.",501 SUMNER AVENUE,,"SPRINGFIELD, MA 01108",http://maps.google.com/maps?q=WALGREEN%20EASTERN%20CO%20INC%2C501%20SUMNER%20AVENUE%2C+SPRINGFIELD%2C+MA+01108
"WALGREEN EASTERN CO., INC.",53 PARIS ST,,"NORWAY, ME 04268",http://maps.google.com/maps?q=WALGREEN%20EASTERN%20CO%20INC%2C53%20PARIS%20ST%2C+NORWAY%2C+ME+04268
"WALGREEN EASTERN CO., INC.",54 PLAIN ST,,"LOWELL, MA 01851",http://maps.google.com/maps?q=WALGREEN%20EASTERN%20CO%20INC%2C54%20PLAIN%20ST%2C+LOWELL%2C+MA+01851
"WALGREEN EASTERN CO., INC.",653 WORCESTER RD,,"FRAMINGHAM, MA 01701",http://maps.google.com/maps?q=WALGREEN%20EASTERN%20CO%20INC%2C653%20WORCESTER%20RD%2C+FRAMINGHAM%2C+MA+01701
WENTWORTH DOUGLASS HOSPITAL,789 CENTRAL AVE,,"DOVER, NH 03820",http://maps.google.com/maps?q=WENTWORTH%20DOUGLASS%20HOSPITAL%2C789%20CENTRAL%20AVE%2C+DOVER%2C+NH+03820
"WESTBOROUGH BEHAVIORAL HEALTHCARE HOSPITAL, LLC",300 FRIBERG PARKWAY,,"WESTBOROUGH, MA 01581",http://maps.google.com/maps?q=WESTBOROUGH%20BEHAVIORAL%20HEALTHCARE%20HOSPITAL%20LLC%2C300%20FRIBERG%20PARKWAY%2C+WESTBOROUGH%2C+MA+01581
WILCOX PHARMACY,252 STRATTON ROAD,,"RUTLAND, VT 05701",http://maps.google.com/maps?q=WILCOX%20PHARMACY%2C252%20STRATTON%20ROAD%2C+RUTLAND%2C+VT+05701
