Business Name,Address 1,Address 2,"City, State Zip",Map URL
ATRIUM PHARMACY MEMPHIS,2565 HORIZON LAKE BLVD.,STE. 113,"MEMPHIS, TN 38133",http://maps.google.com/maps?q=ATRIUM%20PHARMACY%20MEMPHIS%2C2565%20HORIZON%20LAKE%20BLVD.%2C+MEMPHIS%2C+TN+38133
BENZER PHARMACY,2951 E TEXAS STREET SUITE E,,"BOSSIER CITY, LA 71111",http://maps.google.com/maps?q=BENZER%20PHARMACY%2C2951%20E%20TEXAS%20STREET%20SUITE%20E%2C+BOSSIER%20CITY%2C+LA+71111
"CONWAY BEHAVIORAL HEALTH, LLC",2255 STURGIS ROAD,,"CONWAY, AR 72034",http://maps.google.com/maps?q=CONWAY%20BEHAVIORAL%20HEALTH%20LLC%2C2255%20STURGIS%20ROAD%2C+CONWAY%2C+AR+72034
"CRESTWYN HEALTH GROUP,LLC",9485 CRESTWYN HILLS COVE,,"MEMPHIS, TN 38125",http://maps.google.com/maps?q=CRESTWYN%20HEALTH%20GROUPLLC%2C9485%20CRESTWYN%20HILLS%20COVE%2C+MEMPHIS%2C+TN+38125
DRENNAN'S PHARMACY,2601 NORTH 7TH ST,SUITE 500,"WEST MONROE, LA 71291",http://maps.google.com/maps?q=DRENNANS%20PHARMACY%2C2601%20NORTH%207TH%20ST%2C+WEST%20MONROE%2C+LA+71291
FUTRELL PHARMACY,115 E BROADWAY,,"POCAHONTAS, AR 72455",http://maps.google.com/maps?q=FUTRELL%20PHARMACY%2C115%20E%20BROADWAY%2C+POCAHONTAS%2C+AR+72455
GREAT RIVER MEDICAL CENTER,1520 N. DIVISION,PO BOX 108,"BLYTHEVILLE, AR 72315",http://maps.google.com/maps?q=GREAT%20RIVER%20MEDICAL%20CENTER%2C1520%20N.%20DIVISION%2C+BLYTHEVILLE%2C+AR+72315
HARRIS DRUG AND GIFTS LLC,205 DEQUEEN AVE.,,"DE QUEEN, AR 71832",http://maps.google.com/maps?q=HARRIS%20DRUG%20AND%20GIFTS%20LLC%2C205%20DEQUEEN%20AVE.%2C+DE%20QUEEN%2C+AR+71832
HEALTHCARE PHARMACY,"3401 ATWOOD RD.,SUITE F",,"LITTLE ROCK, AR 72206",http://maps.google.com/maps?q=HEALTHCARE%20PHARMACY%2C3401%20ATWOOD%20RD.%2CSUITE%20F%2C+LITTLE%20ROCK%2C+AR+72206
RIVENDELL BEHAVIORAL HEALTH SERVICES,100 RIVENDELL DRIVE,,"BENTON, AR 72019",http://maps.google.com/maps?q=RIVENDELL%20BEHAVIORAL%20HEALTH%20SERVICES%2C100%20RIVENDELL%20DRIVE%2C+BENTON%2C+AR+72019
RX CARE PHARMACY,202 SOUTH AVE,SUITE A,"VIVIAN, LA 71082",http://maps.google.com/maps?q=RX%20CARE%20PHARMACY%2C202%20SOUTH%20AVE%2C+VIVIAN%2C+LA+71082
S.M.C. REGIONAL MEDICAL CENTER,611 W. LEE STREET,PO BOX 607,"OSCEOLA, AR 72370",http://maps.google.com/maps?q=SMC%20REGIONAL%20MEDICAL%20CENTER%2C611%20W.%20LEE%20STREET%2C+OSCEOLA%2C+AR+72370
TED'S PHARMACY,1866 MAIN ST,,"HAYNESVILLE, LA 71038",http://maps.google.com/maps?q=TEDS%20PHARMACY%2C1866%20MAIN%20ST%2C+HAYNESVILLE%2C+LA+71038
"TENNESSEE CVS PHARMACY, L.L.C.",116 COMMONS DR.,,"MARTIN, TN 38237",http://maps.google.com/maps?q=TENNESSEE%20CVS%20PHARMACY%20LLC%2C116%20COMMONS%20DR.%2C+MARTIN%2C+TN+38237
"TENNESSEE CVS PHARMACY, L.L.C.",2115 UNION AVE.,,"MEMPHIS, TN 38104",http://maps.google.com/maps?q=TENNESSEE%20CVS%20PHARMACY%20LLC%2C2115%20UNION%20AVE.%2C+MEMPHIS%2C+TN+38104
"TENNESSEE CVS PHARMACY, L.L.C.",4155 ELVIS PRESLEY BLVD,,"MEMPHIS, TN 38116",http://maps.google.com/maps?q=TENNESSEE%20CVS%20PHARMACY%20LLC%2C4155%20ELVIS%20PRESLEY%20BLVD%2C+MEMPHIS%2C+TN+38116
"TENNESSEE CVS PHARMACY, L.L.C.",6620 WINCHESTER RD.,,"MEMPHIS, TN 38115",http://maps.google.com/maps?q=TENNESSEE%20CVS%20PHARMACY%20LLC%2C6620%20WINCHESTER%20RD.%2C+MEMPHIS%2C+TN+38115
"TENNESSEE CVS PHARMACY, L.L.C.",6670 STAGE ROAD,,"BARTLETT, TN 38134",http://maps.google.com/maps?q=TENNESSEE%20CVS%20PHARMACY%20LLC%2C6670%20STAGE%20ROAD%2C+BARTLETT%2C+TN+38134
"TENNESSEE CVS PHARMACY, L.L.C.",786 GERMANTOWN PKWY.,,"CORDOVA, TN 38018",http://maps.google.com/maps?q=TENNESSEE%20CVS%20PHARMACY%20LLC%2C786%20GERMANTOWN%20PKWY.%2C+CORDOVA%2C+TN+38018
"THE BRIDGEWAY, LLC",21 BRIDGEWAY ROAD,,"NORTH LITTLE ROCK, AR 72113",http://maps.google.com/maps?q=THE%20BRIDGEWAY%20LLC%2C21%20BRIDGEWAY%20ROAD%2C+NORTH%20LITTLE%20ROCK%2C+AR+72113
THE DRUG STORE,153 HERNDON DRIVE,,"BELLS, TN 38006",http://maps.google.com/maps?q=THE%20DRUG%20STORE%2C153%20HERNDON%20DRIVE%2C+BELLS%2C+TN+38006
UNITED METHODIST,BEHAVIORAL HOSPITAL,1601 MURPHY DRIVE,"MAUMELLE, AR 72113",http://maps.google.com/maps?q=UNITED%20METHODIST%2CBEHAVIORAL%20HOSPITAL%2C+MAUMELLE%2C+AR+72113
USAF- MEDICAL LOGISTICS OFFICER,19TH MEDICAL GROUP,1090 ARNOLD DRIVE,"LITTLE ROCK AFB, AR 72099",http://maps.google.com/maps?q=USAF%20MEDICAL%20LOGISTICS%20OFFICER%2C19TH%20MEDICAL%20GROUP%2C+LITTLE%20ROCK%20AFB%2C+AR+72099
USAF-BARKSDALE AFB,2D MDSS/SGSM,"243 CURTISS ROAD, SUITE 101","BARKSDALE AFB, LA 71110",http://maps.google.com/maps?q=USAFBARKSDALE%20AFB%2C2D%20MDSS/SGSM%2C+BARKSDALE%20AFB%2C+LA+71110
WAGNER'S MOUNT IDA PHARMACY,744 HWY 270 EAST,PO BOX 66,"MOUNT IDA, AR 71957",http://maps.google.com/maps?q=WAGNERS%20MOUNT%20IDA%20PHARMACY%2C744%20HWY%20270%20EAST%2C+MOUNT%20IDA%2C+AR+71957
WALGREEN CO.,108 E HIGHLAND DRIVE,,"JONESBORO, AR 72401",http://maps.google.com/maps?q=WALGREEN%20CO%2C108%20E%20HIGHLAND%20DRIVE%2C+JONESBORO%2C+AR+72401
WALGREEN CO.,1100 E MAIN ST,,"RUSSELLVILLE, AR 72801",http://maps.google.com/maps?q=WALGREEN%20CO%2C1100%20E%20MAIN%20ST%2C+RUSSELLVILLE%2C+AR+72801
WALGREEN CO.,111 N BOWMAN RD,,"LITTLE ROCK, AR 72211",http://maps.google.com/maps?q=WALGREEN%20CO%2C111%20N%20BOWMAN%20RD%2C+LITTLE%20ROCK%2C+AR+72211
WALGREEN CO.,1863 UNION AVE,,"MEMPHIS, TN 38104",http://maps.google.com/maps?q=WALGREEN%20CO%2C1863%20UNION%20AVE%2C+MEMPHIS%2C+TN+38104
WALGREEN CO.,200 E RACE AVE,,"SEARCY, AR 72143",http://maps.google.com/maps?q=WALGREEN%20CO%2C200%20E%20RACE%20AVE%2C+SEARCY%2C+AR+72143
WALGREEN CO.,2503 W 28TH AVE,,"PINE BLUFF, AR 71603",http://maps.google.com/maps?q=WALGREEN%20CO%2C2503%20W%2028TH%20AVE%2C+PINE%20BLUFF%2C+AR+71603
WALGREEN CO.,350 HWY 62 EAST,,"MOUTAIN HOME, AR 72653",http://maps.google.com/maps?q=WALGREEN%20CO%2C350%20HWY%2062%20EAST%2C+MOUTAIN%20HOME%2C+AR+72653
WALGREEN CO.,3631 CENTRAL AVE,,"HOT SPRINGS, AR 71913",http://maps.google.com/maps?q=WALGREEN%20CO%2C3631%20CENTRAL%20AVE%2C+HOT%20SPRINGS%2C+AR+71913
WALGREEN CO.,3670 RIVERDALE ROAD,,"MEMPHIS, TN 38115",http://maps.google.com/maps?q=WALGREEN%20CO%2C3670%20RIVERDALE%20ROAD%2C+MEMPHIS%2C+TN+38115
WALGREEN CO.,4154 ELVIS PRESLEY BLVD,,"MEMPHIS, TN 38116",http://maps.google.com/maps?q=WALGREEN%20CO%2C4154%20ELVIS%20PRESLEY%20BLVD%2C+MEMPHIS%2C+TN+38116
WALGREEN CO.,4823 JFK BLVD,,"NORTH LITTLE ROCK, AR 72116",http://maps.google.com/maps?q=WALGREEN%20CO%2C4823%20JFK%20BLVD%2C+NORTH%20LITTLE%20ROCK%2C+AR+72116
WALGREEN CO.,5080 STAGE RD,,"MEMPHIS, TN 38128",http://maps.google.com/maps?q=WALGREEN%20CO%2C5080%20STAGE%20RD%2C+MEMPHIS%2C+TN+38128
WALGREEN CO.,511 E MARSHALL AVENUE,,"LONGVIEW, TX 75601",http://maps.google.com/maps?q=WALGREEN%20CO%2C511%20E%20MARSHALL%20AVENUE%2C+LONGVIEW%2C+TX+75601
WALGREEN CO.,6310 POPLAR AVENUE,,"MEMPHIS, TN 38119",http://maps.google.com/maps?q=WALGREEN%20CO%2C6310%20POPLAR%20AVENUE%2C+MEMPHIS%2C+TN+38119
WALGREEN CO.,6697 STAGE ROAD,,"BARTLETT, TN 38134",http://maps.google.com/maps?q=WALGREEN%20CO%2C6697%20STAGE%20ROAD%2C+BARTLETT%2C+TN+38134
WALGREEN CO.,850 OAK STREET,,"CONWAY, AR 72032",http://maps.google.com/maps?q=WALGREEN%20CO%2C850%20OAK%20STREET%2C+CONWAY%2C+AR+72032
"WALGREEN LOUISIANA CO., INC.",2107 AIRLINE DRIVE,,"BOSSIER CITY, LA 71111",http://maps.google.com/maps?q=WALGREEN%20LOUISIANA%20CO%20INC%2C2107%20AIRLINE%20DRIVE%2C+BOSSIER%20CITY%2C+LA+71111
