Business Name,Address 1,Address 2,"City, State Zip",Map URL
"ANESTHESIA SERVICES ASSOCIATES, PLLC",495 DUNLOP LANE,SUITE 106,"CLARKSVILLE, TN 37040",http://maps.google.com/maps?q=ANESTHESIA%20SERVICES%20ASSOCIATES%20PLLC%2C495%20DUNLOP%20LANE%2C+CLARKSVILLE%2C+TN+37040
ATRIUM PHARMACY,260 WEST MAIN STREET,SUITE 217,"HENDERSONVILLE, TN 37075",http://maps.google.com/maps?q=ATRIUM%20PHARMACY%2C260%20WEST%20MAIN%20STREET%2C+HENDERSONVILLE%2C+TN+37075
BELEW DRUG,2021 N BROADWAY,,"KNOXVILLE, TN 37917",http://maps.google.com/maps?q=BELEW%20DRUG%2C2021%20N%20BROADWAY%2C+KNOXVILLE%2C+TN+37917
BELEW DRUGS WASHINGTON PIKE INC,5908 WASHINGTON PIKE SUITE 102,,"KNOXVILLE, TN 37918",http://maps.google.com/maps?q=BELEW%20DRUGS%20WASHINGTON%20PIKE%20INC%2C5908%20WASHINGTON%20PIKE%20SUITE%20102%2C+KNOXVILLE%2C+TN+37918
BLOUNTSTOWN DRUG INC,20370 CENTRAL AVE W,,"BLOUNTSTOWN, FL 32424",http://maps.google.com/maps?q=BLOUNTSTOWN%20DRUG%20INC%2C20370%20CENTRAL%20AVE%20W%2C+BLOUNTSTOWN%2C+FL+32424
BLUEGRASS PHARMACIES,1128 N. MAIN ST.,,"MADISONVILLE, KY 42431",http://maps.google.com/maps?q=BLUEGRASS%20PHARMACIES%2C1128%20N.%20MAIN%20ST.%2C+MADISONVILLE%2C+KY+42431
CARE PLUS PHARMACY LLC,1665 HIGHWAY 34E,SUITE 100,"NEWNAN, GA 30265",http://maps.google.com/maps?q=CARE%20PLUS%20PHARMACY%20LLC%2C1665%20HIGHWAY%2034E%2C+NEWNAN%2C+GA+30265
"CARECENTER PHARMACY, LLC","2515 PARK PLAZA, SUITE 100",,"NASHVILLE, TN 37203",http://maps.google.com/maps?q=CARECENTER%20PHARMACY%20LLC%2C2515%20PARK%20PLAZA%2C%20SUITE%20100%2C+NASHVILLE%2C+TN+37203
CAREZONE PHARMACY LLC,800 AIRPARK CENTER DRIVE STE 809,,"NASHVILLE, TN 37217",http://maps.google.com/maps?q=CAREZONE%20PHARMACY%20LLC%2C800%20AIRPARK%20CENTER%20DRIVE%20STE%20809%2C+NASHVILLE%2C+TN+37217
CLAY COUNTY HOSPITAL,83825 HWY 9,PO BOX 1270,"ASHLAND, AL 36251",http://maps.google.com/maps?q=CLAY%20COUNTY%20HOSPITAL%2C83825%20HWY%209%2C+ASHLAND%2C+AL+36251
"CLEBURNE PHARMACY, LLC",875 ROSS STREET,,"HEFLIN, AL 36264",http://maps.google.com/maps?q=CLEBURNE%20PHARMACY%20LLC%2C875%20ROSS%20STREET%2C+HEFLIN%2C+AL+36264
COOKE'S PHARMACY,3400 KEITH STREET,,"CLEVELAND, TN 37312",http://maps.google.com/maps?q=COOKES%20PHARMACY%2C3400%20KEITH%20STREET%2C+CLEVELAND%2C+TN+37312
COOKE'S PHARMACY #2,2010 BROOMFIELD ROAD,,"CLEVELAND, TN 37323",http://maps.google.com/maps?q=COOKES%20PHARMACY%2C2010%20BROOMFIELD%20ROAD%2C+CLEVELAND%2C+TN+37323
DICKSON APOTHECARY,104 HIGHWAY 70 E,,"DICKSON, TN 37055",http://maps.google.com/maps?q=DICKSON%20APOTHECARY%2C104%20HIGHWAY%2070%20E%2C+DICKSON%2C+TN+37055
DISNEY PHARMACY SEVICES,DBA VAUGHN PHARMACY,2141 EMORY ROAD,"POWELL, TN 37849",http://maps.google.com/maps?q=DISNEY%20PHARMACY%20SEVICES%2CDBA%20VAUGHN%20PHARMACY%2C+POWELL%2C+TN+37849
GENOA HEALTHCARE LLC,134 PREVATT ROAD,,"DOTHAN, AL 36301",http://maps.google.com/maps?q=GENOA%20HEALTHCARE%20LLC%2C134%20PREVATT%20ROAD%2C+DOTHAN%2C+AL+36301
"GEORGIA CVS PHARMACY, L.L.C.",100 OAK ST,,"BOWDON, GA 30108",http://maps.google.com/maps?q=GEORGIA%20CVS%20PHARMACY%20LLC%2C100%20OAK%20ST%2C+BOWDON%2C+GA+30108
"GEORGIA CVS PHARMACY, L.L.C.",1905 MARTHA BERRY BLVD,,"ROME, GA 30165",http://maps.google.com/maps?q=GEORGIA%20CVS%20PHARMACY%20LLC%2C1905%20MARTHA%20BERRY%20BLVD%2C+ROME%2C+GA+30165
"GEORGIA CVS PHARMACY, L.L.C.",300 MORGAN STREET,,"LA GRANGE, GA 30241",http://maps.google.com/maps?q=GEORGIA%20CVS%20PHARMACY%20LLC%2C300%20MORGAN%20STREET%2C+LA%20GRANGE%2C+GA+30241
"GEORGIA CVS PHARMACY, L.L.C.",3617 HILTON AVE.,,"COLUMBUS, GA 31904",http://maps.google.com/maps?q=GEORGIA%20CVS%20PHARMACY%20LLC%2C3617%20HILTON%20AVE.%2C+COLUMBUS%2C+GA+31904
"GEORGIA CVS PHARMACY, L.L.C.",736 HWY 78 WEST,,"VILLA RICA, GA 30180",http://maps.google.com/maps?q=GEORGIA%20CVS%20PHARMACY%20LLC%2C736%20HWY%2078%20WEST%2C+VILLA%20RICA%2C+GA+30180
"GEORGIA CVS PHARMACY, L.L.C.",887 BATTLEFIELD PARKWAY,,"FT OGLETHORPE, GA 30742",http://maps.google.com/maps?q=GEORGIA%20CVS%20PHARMACY%20LLC%2C887%20BATTLEFIELD%20PARKWAY%2C+FT%20OGLETHORPE%2C+GA+30742
GIBBS PHARMACY,1427B BADDOUR PKWY,,"LEBANON, TN 37087",http://maps.google.com/maps?q=GIBBS%20PHARMACY%2C1427B%20BADDOUR%20PKWY%2C+LEBANON%2C+TN+37087
H&M DRUGS,17216 HIGHWAY 431,,"WEDOWEE, AL 36278",http://maps.google.com/maps?q=HM%20DRUGS%2C17216%20HIGHWAY%20431%2C+WEDOWEE%2C+AL+36278
HALL FAMILY PHARMACY,433 WEST CENTRAL AVENUE,,"JAMESTOWN, TN 38556",http://maps.google.com/maps?q=HALL%20FAMILY%20PHARMACY%2C433%20WEST%20CENTRAL%20AVENUE%2C+JAMESTOWN%2C+TN+38556
"HOLIDAY CVS, L.L.C.",6501 CAROLINE ST HWY 90,,"MILTON, FL 32570",http://maps.google.com/maps?q=HOLIDAY%20CVS%20LLC%2C6501%20CAROLINE%20ST%20HWY%2090%2C+MILTON%2C+FL+32570
"HOLIDAY CVS, L.L.C.",6888 N 9TH AVE,,"PENSACOLA, FL 32504",http://maps.google.com/maps?q=HOLIDAY%20CVS%20LLC%2C6888%20N%209TH%20AVE%2C+PENSACOLA%2C+FL+32504
HUBBARD PHARMACY,1351 WEST FORT WILLIAMS ST,,"SYLACAUGA, AL 35150",http://maps.google.com/maps?q=HUBBARD%20PHARMACY%2C1351%20WEST%20FORT%20WILLIAMS%20ST%2C+SYLACAUGA%2C+AL+35150
"KENTUCKY CVS PHARMACY, L.L.C.",538 LONE OAK RD.,,"PADUCAH, KY 42003",http://maps.google.com/maps?q=KENTUCKY%20CVS%20PHARMACY%20LLC%2C538%20LONE%20OAK%20RD.%2C+PADUCAH%2C+KY+42003
LEE DRUG STORE,18530 FLORIDA ST,PO BOX 929,"ROBERTSDALE, AL 36567",http://maps.google.com/maps?q=LEE%20DRUG%20STORE%2C18530%20FLORIDA%20ST%2C+ROBERTSDALE%2C+AL+36567
LOURDES HOSPITAL INC PHARMACY,1530 LONE OAK RD,,"PADUCAH, KY 42003",http://maps.google.com/maps?q=LOURDES%20HOSPITAL%20INC%20PHARMACY%2C1530%20LONE%20OAK%20RD%2C+PADUCAH%2C+KY+42003
MEDICAL CENTER EAST PHARMACY,1215 21ST AVENUE SOUTH,SUITE 1006,"NASHVILLE, TN 37232",http://maps.google.com/maps?q=MEDICAL%20CENTER%20EAST%20PHARMACY%2C1215%2021ST%20AVENUE%20SOUTH%2C+NASHVILLE%2C+TN+37232
MIDDLE FLINT BEHAVIORAL HEALTHCARE PHARMACY,415 NORTH JACKSON STREET,,"AMERICUS, GA 31709",http://maps.google.com/maps?q=MIDDLE%20FLINT%20BEHAVIORAL%20HEALTHCARE%20PHARMACY%2C415%20NORTH%20JACKSON%20STREET%2C+AMERICUS%2C+GA+31709
MIDTOWN EXPRESS PHARMACY,"300 20TH AVENUE NORTH, SUITE 105",,"NASHVILLE, TN 37203",http://maps.google.com/maps?q=MIDTOWN%20EXPRESS%20PHARMACY%2C300%2020TH%20AVENUE%20NORTH%2C%20SUITE%20105%2C+NASHVILLE%2C+TN+37203
MURRAY-CALLOWAY CO HOSPITAL,803 POPLAR STREET,,"MURRAY, KY 42071",http://maps.google.com/maps?q=MURRAYCALLOWAY%20CO%20HOSPITAL%2C803%20POPLAR%20STREET%2C+MURRAY%2C+KY+42071
NORTHWOOD/MASSEY DRUGS,1702 N WOOD AVE,,"FLORENCE, AL 35630",http://maps.google.com/maps?q=NORTHWOODMASSEY%20DRUGS%2C1702%20N%20WOOD%20AVE%2C+FLORENCE%2C+AL+35630
RIVERSIDE PHARMACY,935 GREEN ST,,"GAINESVILLE, GA 30501",http://maps.google.com/maps?q=RIVERSIDE%20PHARMACY%2C935%20GREEN%20ST%2C+GAINESVILLE%2C+GA+30501
SURE SAVE PHARMACY,30694 HWY 72 WEST,SUITE A,"MADISON, AL 35756",http://maps.google.com/maps?q=SURE%20SAVE%20PHARMACY%2C30694%20HWY%2072%20WEST%2C+MADISON%2C+AL+35756
"TENNESSEE CVS PHARMACY, L.L.C.",103 FOOTHILLS MALL DR.,,"MARYVILLE, TN 37801",http://maps.google.com/maps?q=TENNESSEE%20CVS%20PHARMACY%20LLC%2C103%20FOOTHILLS%20MALL%20DR.%2C+MARYVILLE%2C+TN+37801
"TENNESSEE CVS PHARMACY, L.L.C.",111 S. HALL RD.,,"ALCOA, TN 37701",http://maps.google.com/maps?q=TENNESSEE%20CVS%20PHARMACY%20LLC%2C111%20S.%20HALL%20RD.%2C+ALCOA%2C+TN+37701
"TENNESSEE CVS PHARMACY, L.L.C.",1200 DODSON AVENUE,,"CHATTANOOGA, TN 37406",http://maps.google.com/maps?q=TENNESSEE%20CVS%20PHARMACY%20LLC%2C1200%20DODSON%20AVENUE%2C+CHATTANOOGA%2C+TN+37406
"TENNESSEE CVS PHARMACY, L.L.C.",1228 W MAIN STREET,,"LEBANON, TN 37087",http://maps.google.com/maps?q=TENNESSEE%20CVS%20PHARMACY%20LLC%2C1228%20W%20MAIN%20STREET%2C+LEBANON%2C+TN+37087
"TENNESSEE CVS PHARMACY, L.L.C.",1405 N. HIGHLAND AVENUE,,"JACKSON, TN 38301",http://maps.google.com/maps?q=TENNESSEE%20CVS%20PHARMACY%20LLC%2C1405%20N.%20HIGHLAND%20AVENUE%2C+JACKSON%2C+TN+38301
"TENNESSEE CVS PHARMACY, L.L.C.",2424 OCOEE ST.,,"CLEVELAND, TN 37311",http://maps.google.com/maps?q=TENNESSEE%20CVS%20PHARMACY%20LLC%2C2424%20OCOEE%20ST.%2C+CLEVELAND%2C+TN+37311
"TENNESSEE CVS PHARMACY, L.L.C.",417 EMORY ROAD,,"POWELL, TN 37849",http://maps.google.com/maps?q=TENNESSEE%20CVS%20PHARMACY%20LLC%2C417%20EMORY%20ROAD%2C+POWELL%2C+TN+37849
"TENNESSEE CVS PHARMACY, L.L.C.",5120 HIGHWAY 153,,"HIXSON, TN 37343",http://maps.google.com/maps?q=TENNESSEE%20CVS%20PHARMACY%20LLC%2C5120%20HIGHWAY%20153%2C+HIXSON%2C+TN+37343
"TENNESSEE CVS PHARMACY, L.L.C.",6005 KINGSTON PIKE,,"KNOXVILLE, TN 37919",http://maps.google.com/maps?q=TENNESSEE%20CVS%20PHARMACY%20LLC%2C6005%20KINGSTON%20PIKE%2C+KNOXVILLE%2C+TN+37919
"TENNESSEE CVS PHARMACY, L.L.C.",9175 KINGSTON PIKE,,"KNOXVILLE, TN 37923",http://maps.google.com/maps?q=TENNESSEE%20CVS%20PHARMACY%20LLC%2C9175%20KINGSTON%20PIKE%2C+KNOXVILLE%2C+TN+37923
THE MEDICINE SHOPPE,1144 AIRPORT DRIVE,,"ALEXANDER CITY, AL 35010",http://maps.google.com/maps?q=THE%20MEDICINE%20SHOPPE%2C1144%20AIRPORT%20DRIVE%2C+ALEXANDER%20CITY%2C+AL+35010
UNIVERSITY PHARMACY,1924 ALCOA HWY,SUITE NP100,"KNOXVILLE, TN 37920",http://maps.google.com/maps?q=UNIVERSITY%20PHARMACY%2C1924%20ALCOA%20HWY%2C+KNOXVILLE%2C+TN+37920
US ARMY - TOWN CENTER PHARMACY,98 MICHIGAN AVE,BLDG 98,"FORT CAMPBELL, KY 42223",http://maps.google.com/maps?q=US%20ARMY%20%20TOWN%20CENTER%20PHARMACY%2C98%20MICHIGAN%20AVE%2C+FORT%20CAMPBELL%2C+KY+42223
US ARMY- BLANCHFIELD  COMMUNITY,"MEDDAC, BLDG 650, RM 1BG01",,"FORT CAMPBELL, KY 42223",http://maps.google.com/maps?q=US%20ARMY%20BLANCHFIELD%20%20COMMUNITY%2CMEDDAC%2C%20BLDG%20650%2C%20RM%201BG01%2C+FORT%20CAMPBELL%2C+KY+42223
US ARMY- FOX HEALTH CENTER,GOSS ROAD,BUILDING 4100,"REDSTONE ARSENAL, AL 35809",http://maps.google.com/maps?q=US%20ARMY%20FOX%20HEALTH%20CENTER%2CGOSS%20ROAD%2C+REDSTONE%20ARSENAL%2C+AL+35809
US ARMY- LYSTER HOSPITAL,DEPARTMENT OF PHARMACY,BLDG 301 ANDREWS AVE.,"FORT RUCKER, AL 36362",http://maps.google.com/maps?q=US%20ARMY%20LYSTER%20HOSPITAL%2CDEPARTMENT%20OF%20PHARMACY%2C+FORT%20RUCKER%2C+AL+36362
USAF - KEESLER AFB MAIN PHARMACY,301 FISHER ST BLDG 0468,,"BILOXI, MS 39534",http://maps.google.com/maps?q=USAF%20%20KEESLER%20AFB%20MAIN%20PHARMACY%2C301%20FISHER%20ST%20BLDG%200468%2C+BILOXI%2C+MS+39534
USAF- 1ST SPECIAL OPERATIONS MEDICAL GROUP-SGSMM,131 HOWIE WALTERS RD.,BLDG 91042,"HURLBURT FIELD, FL 32544",http://maps.google.com/maps?q=USAF%20ST%20SPECIAL%20OPERATIONS%20MEDICAL%20GROUPSGSMM%2C131%20HOWIE%20WALTERS%20RD.%2C+HURLBURT%20FIELD%2C+FL+32544
USAF- KEESLER PHARMACY,301 FISHER ST BLDG 0468,,"KEESLER AFB, MS 39534",http://maps.google.com/maps?q=USAF%20KEESLER%20PHARMACY%2C301%20FISHER%20ST%20BLDG%200468%2C+KEESLER%20AFB%2C+MS+39534
USAF- MAXWELL HOSPITAL/SGL,300 TWINING ST,BLDG 760,"MAXWELL AFB, AL 36112",http://maps.google.com/maps?q=USAF%20MAXWELL%20HOSPITALSGL%2C300%20TWINING%20ST%2C+MAXWELL%20AFB%2C+AL+36112
USAF-EGLIN AFB SATELLITE PHARMACY,MEMORIAL TRAIL,BUILDING 1758,"EGLIN AFB, FL 32542",http://maps.google.com/maps?q=USAFEGLIN%20AFB%20SATELLITE%20PHARMACY%2CMEMORIAL%20TRAIL%2C+EGLIN%20AFB%2C+FL+32542
USAF-KEESLER MEDICAL CENTER,301 FISHER STREET BLDG 0468,,"KEESLER AFB, MS 39534",http://maps.google.com/maps?q=USAFKEESLER%20MEDICAL%20CENTER%2C301%20FISHER%20STREET%20BLDG%200468%2C+KEESLER%20AFB%2C+MS+39534
USN- NAVAL HOSPITAL,6000 W HIGHWAY 98 BLDG 2268,BUILDING 2268,"PENSACOLA, FL 32512",http://maps.google.com/maps?q=USN%20NAVAL%20HOSPITAL%2C6000%20W%20HIGHWAY%2098%20BLDG%202268%2C+PENSACOLA%2C+FL+32512
VANDERBILT CHILDREN'S OUTPATIENT PHARMACY,2200 CHILDREN'S WAY,VCH 2106,"NASHVILLE, TN 37232",http://maps.google.com/maps?q=VANDERBILT%20CHILDRENS%20OUTPATIENT%20PHARMACY%2C2200%20CHILDREN'S%20WAY%2C+NASHVILLE%2C+TN+37232
VANDERBILT HEALTH PHARMACY,719 THOMPSON LANE,SUITE 24130,"NASHVILLE, TN 37204",http://maps.google.com/maps?q=VANDERBILT%20HEALTH%20PHARMACY%2C719%20THOMPSON%20LANE%2C+NASHVILLE%2C+TN+37204
VANDERBILT OUTPATIENT PHARMACY,1211 MEDICAL CENTER DRIVE,TVC 1815,"NASHVILLE, TN 37232",http://maps.google.com/maps?q=VANDERBILT%20OUTPATIENT%20PHARMACY%2C1211%20MEDICAL%20CENTER%20DRIVE%2C+NASHVILLE%2C+TN+37232
VILLAGE DRUG SHOP,1001 AVALON AVE,,"MUSCLE SHOALS, AL 35661",http://maps.google.com/maps?q=VILLAGE%20DRUG%20SHOP%2C1001%20AVALON%20AVE%2C+MUSCLE%20SHOALS%2C+AL+35661
"VILLAGE PHARMACY, INC.",3697 HWY 5,SUITE 6,"DOUGLASVILLE, GA 30135",http://maps.google.com/maps?q=VILLAGE%20PHARMACY%20INC%2C3697%20HWY%205%2C+DOUGLASVILLE%2C+GA+30135
WALGREEN CO,4700 HIGHWAY 280 SUITE 1,,"BIRMINGHAM, AL 35242",http://maps.google.com/maps?q=WALGREEN%20CO%2C4700%20HIGHWAY%20280%20SUITE%201%2C+BIRMINGHAM%2C+AL+35242
WALGREEN CO,634 N. CHURCH STREET,,"THOMASTON, GA 30286",http://maps.google.com/maps?q=WALGREEN%20CO%2C634%20N.%20CHURCH%20STREET%2C+THOMASTON%2C+GA+30286
WALGREEN CO,9325 PARKWAY E,,"BIRMINGHAM, AL 35215",http://maps.google.com/maps?q=WALGREEN%20CO%2C9325%20PARKWAY%20E%2C+BIRMINGHAM%2C+AL+35215
WALGREEN CO.,101 GREEN SPRINGS HWY,,"BIRMINGHAM, AL 35209",http://maps.google.com/maps?q=WALGREEN%20CO%2C101%20GREEN%20SPRINGS%20HWY%2C+BIRMINGHAM%2C+AL+35209
WALGREEN CO.,106 W NORTHFIELD,,"MURFREESBORO, TN 37129",http://maps.google.com/maps?q=WALGREEN%20CO%2C106%20W%20NORTHFIELD%2C+MURFREESBORO%2C+TN+37129
WALGREEN CO.,1145 U.S. 31 W. BYPASS,,"BOWLING GREEN, KY 42101",http://maps.google.com/maps?q=WALGREEN%20CO%2C1145%20U.S.%2031%20W.%20BYPASS%2C+BOWLING%20GREEN%2C+KY+42101
WALGREEN CO.,1202 S JAMES CAMPBELL BLVD,,"COLUMBIA, TN 38401",http://maps.google.com/maps?q=WALGREEN%20CO%2C1202%20S%20JAMES%20CAMPBELL%20BLVD%2C+COLUMBIA%2C+TN+38401
WALGREEN CO.,1205 MAIN ST,,"MURRAY, KY 42071",http://maps.google.com/maps?q=WALGREEN%20CO%2C1205%20MAIN%20ST%2C+MURRAY%2C+KY+42071
WALGREEN CO.,121 N. NORTHSHORE DRIVE,,"KNOXVILLE, TN 37919",http://maps.google.com/maps?q=WALGREEN%20CO%2C121%20N.%20NORTHSHORE%20DRIVE%2C+KNOXVILLE%2C+TN+37919
WALGREEN CO.,1228 BATTLEFIELD PKWY,,"FT OGLETHORPE, GA 30742",http://maps.google.com/maps?q=WALGREEN%20CO%2C1228%20BATTLEFIELD%20PKWY%2C+FT%20OGLETHORPE%2C+GA+30742
WALGREEN CO.,1299 OAK RIDGE TURNPIKE,,"OAK RIDGE, TN 37830",http://maps.google.com/maps?q=WALGREEN%20CO%2C1299%20OAK%20RIDGE%20TURNPIKE%2C+OAK%20RIDGE%2C+TN+37830
WALGREEN CO.,1302 S CONGRESS PARKWAY,,"ATHENS, TN 37303",http://maps.google.com/maps?q=WALGREEN%20CO%2C1302%20S%20CONGRESS%20PARKWAY%2C+ATHENS%2C+TN+37303
WALGREEN CO.,1303 W MAIN,,"LEBANON, TN 37087",http://maps.google.com/maps?q=WALGREEN%20CO%2C1303%20W%20MAIN%2C+LEBANON%2C+TN+37087
WALGREEN CO.,1332 N HIGHLAND AVE.,,"JACKSON, TN 38301",http://maps.google.com/maps?q=WALGREEN%20CO%2C1332%20N%20HIGHLAND%20AVE.%2C+JACKSON%2C+TN+38301
WALGREEN CO.,15371 DEDEAUX RD.,,"GULFPORT, MS 39503",http://maps.google.com/maps?q=WALGREEN%20CO%2C15371%20DEDEAUX%20RD.%2C+GULFPORT%2C+MS+39503
WALGREEN CO.,1751 TINY TOWN RD.,,"CLARKSVILLE, TN 37042",http://maps.google.com/maps?q=WALGREEN%20CO%2C1751%20TINY%20TOWN%20RD.%2C+CLARKSVILLE%2C+TN+37042
WALGREEN CO.,1801 MONGOMERY HWY,,"HOOVER, AL 35244",http://maps.google.com/maps?q=WALGREEN%20CO%2C1801%20MONGOMERY%20HWY%2C+HOOVER%2C+AL+35244
WALGREEN CO.,1815 9TH AVE NORTH,,"BESSEMER, AL 35020",http://maps.google.com/maps?q=WALGREEN%20CO%2C1815%209TH%20AVE%20NORTH%2C+BESSEMER%2C+AL+35020
WALGREEN CO.,1954 MADISON STREET,,"CLARKSVILLE, TN 37043",http://maps.google.com/maps?q=WALGREEN%20CO%2C1954%20MADISON%20STREET%2C+CLARKSVILLE%2C+TN+37043
WALGREEN CO.,198 E MAIN ST,,"HENDERSONVILLE, TN 37075",http://maps.google.com/maps?q=WALGREEN%20CO%2C198%20E%20MAIN%20ST%2C+HENDERSONVILLE%2C+TN+37075
WALGREEN CO.,2 SOUTH GREENO RD,,"FAIRHOPE, AL 36532",http://maps.google.com/maps?q=WALGREEN%20CO%2C2%20SOUTH%20GREENO%20RD%2C+FAIRHOPE%2C+AL+36532
WALGREEN CO.,225 N HALL RD,,"ALCOA, TN 37701",http://maps.google.com/maps?q=WALGREEN%20CO%2C225%20N%20HALL%20RD%2C+ALCOA%2C+TN+37701
WALGREEN CO.,2289 GUNBARREL,,"CHATTANOOGA, TN 37421",http://maps.google.com/maps?q=WALGREEN%20CO%2C2289%20GUNBARREL%2C+CHATTANOOGA%2C+TN+37421
WALGREEN CO.,2400 BROADWAY,,"KNOXVILLE, TN 37917",http://maps.google.com/maps?q=WALGREEN%20CO%2C2400%20BROADWAY%2C+KNOXVILLE%2C+TN+37917
WALGREEN CO.,2515 CRAWFORD ROAD,,"PHENIX CITY, AL 36867",http://maps.google.com/maps?q=WALGREEN%20CO%2C2515%20CRAWFORD%20ROAD%2C+PHENIX%20CITY%2C+AL+36867
WALGREEN CO.,2940 WEST MAIN STREET,,"DOTHAN, AL 36305",http://maps.google.com/maps?q=WALGREEN%20CO%2C2940%20WEST%20MAIN%20STREET%2C+DOTHAN%2C+AL+36305
WALGREEN CO.,3130 CLARKSVILLE PIKE,,"NASHVILLE, TN 37218",http://maps.google.com/maps?q=WALGREEN%20CO%2C3130%20CLARKSVILLE%20PIKE%2C+NASHVILLE%2C+TN+37218
WALGREEN CO.,3740 CASCADE RD SW,,"ATLANTA, GA 30331",http://maps.google.com/maps?q=WALGREEN%20CO%2C3740%20CASCADE%20RD%20SW%2C+ATLANTA%2C+GA+30331
WALGREEN CO.,3800 PRINCETON LAKES PKWY SW,,"ATLANTA, GA 30331",http://maps.google.com/maps?q=WALGREEN%20CO%2C3800%20PRINCETON%20LAKES%20PKWY%20SW%2C+ATLANTA%2C+GA+30331
WALGREEN CO.,3948 AIRPORT BLVD,,"MOBILE, AL 36608",http://maps.google.com/maps?q=WALGREEN%20CO%2C3948%20AIRPORT%20BLVD%2C+MOBILE%2C+AL+36608
WALGREEN CO.,4001 CHAPMAN HIGHWAY,,"KNOXVILLE, TN 37920",http://maps.google.com/maps?q=WALGREEN%20CO%2C4001%20CHAPMAN%20HIGHWAY%2C+KNOXVILLE%2C+TN+37920
WALGREEN CO.,500 S WILLOW AVE,,"COOKEVILLE, TN 38501",http://maps.google.com/maps?q=WALGREEN%20CO%2C500%20S%20WILLOW%20AVE%2C+COOKEVILLE%2C+TN+38501
WALGREEN CO.,5006 N BROADWAY STREET,,"KNOXVILLE, TN 37918",http://maps.google.com/maps?q=WALGREEN%20CO%2C5006%20N%20BROADWAY%20STREET%2C+KNOXVILLE%2C+TN+37918
WALGREEN CO.,518 DONELSON PIKE,,"NASHVILLE, TN 37214",http://maps.google.com/maps?q=WALGREEN%20CO%2C518%20DONELSON%20PIKE%2C+NASHVILLE%2C+TN+37214
WALGREEN CO.,521 LONE OAK ROAD,,"PADUCAH, KY 42003",http://maps.google.com/maps?q=WALGREEN%20CO%2C521%20LONE%20OAK%20ROAD%2C+PADUCAH%2C+KY+42003
WALGREEN CO.,5478 HIGHWAY 153,,"HIXSON, TN 37343",http://maps.google.com/maps?q=WALGREEN%20CO%2C5478%20HIGHWAY%20153%2C+HIXSON%2C+TN+37343
WALGREEN CO.,5555 EDMONSON PIKE,,"NASHVILLE, TN 37211",http://maps.google.com/maps?q=WALGREEN%20CO%2C5555%20EDMONSON%20PIKE%2C+NASHVILLE%2C+TN+37211
WALGREEN CO.,6314 N 9TH AVE,,"PENSACOLA, FL 32504",http://maps.google.com/maps?q=WALGREEN%20CO%2C6314%20N%209TH%20AVE%2C+PENSACOLA%2C+FL+32504
WALGREEN CO.,6680 ATLANTA HWY,,"MONTGOMERY, AL 36117",http://maps.google.com/maps?q=WALGREEN%20CO%2C6680%20ATLANTA%20HWY%2C+MONTGOMERY%2C+AL+36117
WALGREEN CO.,7601 HWY 70 S,,"NASHVILLE, TN 37221",http://maps.google.com/maps?q=WALGREEN%20CO%2C7601%20HWY%2070%20S%2C+NASHVILLE%2C+TN+37221
WALGREEN CO.,7813 HIGHWAY 72 W,,"MADISON, AL 35758",http://maps.google.com/maps?q=WALGREEN%20CO%2C7813%20HIGHWAY%2072%20W%2C+MADISON%2C+AL+35758
WALGREEN CO.,794 SOUTH PARK ST,,"CARROLLTON, GA 30117",http://maps.google.com/maps?q=WALGREEN%20CO%2C794%20SOUTH%20PARK%20ST%2C+CARROLLTON%2C+GA+30117
WALGREEN CO.,82 ELMORE RD,,"CROSSVILLE, TN 38555",http://maps.google.com/maps?q=WALGREEN%20CO%2C82%20ELMORE%20RD%2C+CROSSVILLE%2C+TN+38555
WALGREEN CO.,900 RUCKER BLVD,,"ENTERPRISE, AL 36330",http://maps.google.com/maps?q=WALGREEN%20CO%2C900%20RUCKER%20BLVD%2C+ENTERPRISE%2C+AL+36330
WALGREEN CO.,9200 MIDDLEBROOK PIKE,,"KNOXVILLE, TN 37931",http://maps.google.com/maps?q=WALGREEN%20CO%2C9200%20MIDDLEBROOK%20PIKE%2C+KNOXVILLE%2C+TN+37931
