Business Name,Address 1,Address 2,"City, State Zip",Map URL
AHF PHARMACY,3920 CEDAR SPRINGS ROAD,,"DALLAS, TX 75219",http://maps.google.com/maps?q=AHF%20PHARMACY%2C3920%20CEDAR%20SPRINGS%20ROAD%2C+DALLAS%2C+TX+75219
AHF PHARMACY,"400 N BEACH STREET, STE 102",,"FORT WORTH, TX 76111",http://maps.google.com/maps?q=AHF%20PHARMACY%2C400%20N%20BEACH%20STREET%2C%20STE%20102%2C+FORT%20WORTH%2C+TX+76111
ALLIED PHARMACY SERVICES,JERRY W. JACKSON,"801 STADIUM DRIVE, #111","ARLINGTON, TX 76011",http://maps.google.com/maps?q=ALLIED%20PHARMACY%20SERVICES%2CJERRY%20W.%20JACKSON%2C+ARLINGTON%2C+TX+76011
AXTELL RITE VALUE PHRMCY,304-1/2 CHARLIE DRIVE,,"WHITESBORO, TX 76273",http://maps.google.com/maps?q=AXTELL%20RITE%20VALUE%20PHRMCY%2C304-1/2%20CHARLIE%20DRIVE%2C+WHITESBORO%2C+TX+76273
BENZER PHARMACY,2951 E TEXAS STREET SUITE E,,"BOSSIER CITY, LA 71111",http://maps.google.com/maps?q=BENZER%20PHARMACY%2C2951%20E%20TEXAS%20STREET%20SUITE%20E%2C+BOSSIER%20CITY%2C+LA+71111
BRICK STREET PHARMACY,314 WEST RUSK STREET,,"TYLER, TX 75701",http://maps.google.com/maps?q=BRICK%20STREET%20PHARMACY%2C314%20WEST%20RUSK%20STREET%2C+TYLER%2C+TX+75701
"CHANDLER DRUG, LLC",201 HIGHWAY 31 EAST,P O BOX 400,"CHANDLER, TX 75758",http://maps.google.com/maps?q=CHANDLER%20DRUG%20LLC%2C201%20HIGHWAY%2031%20EAST%2C+CHANDLER%2C+TX+75758
COOK CHILDREN'S PHARMACY 1,"801 7TH AVENUE, STE 1700",,"FORT WORTH, TX 76104",http://maps.google.com/maps?q=COOK%20CHILDRENS%20PHARMACY%2C801%207TH%20AVENUE%2C%20STE%201700%2C+FORT%20WORTH%2C+TX+76104
"CVS PHARMACY, INC.",100 SW WILSHIRE BLVD,,"BURLESON, TX 76028",http://maps.google.com/maps?q=CVS%20PHARMACY%20INC%2C100%20SW%20WILSHIRE%20BLVD%2C+BURLESON%2C+TX+76028
"CVS PHARMACY, INC.",100 W. CORPORATE DRIVE,,"LEWISVILLE, TX 75067",http://maps.google.com/maps?q=CVS%20PHARMACY%20INC%2C100%20W.%20CORPORATE%20DRIVE%2C+LEWISVILLE%2C+TX+75067
"CVS PHARMACY, INC.",101 N. RUFE SNOW DR.,,"KELLER, TX 76248",http://maps.google.com/maps?q=CVS%20PHARMACY%20INC%2C101%20N.%20RUFE%20SNOW%20DR.%2C+KELLER%2C+TX+76248
"CVS PHARMACY, INC.",105 HARRIS AVE,,"RED OAK, TX 75154",http://maps.google.com/maps?q=CVS%20PHARMACY%20INC%2C105%20HARRIS%20AVE%2C+RED%20OAK%2C+TX+75154
"CVS PHARMACY, INC.",116 W. UNIVERSITY DR,,"DENTON, TX 76201",http://maps.google.com/maps?q=CVS%20PHARMACY%20INC%2C116%20W.%20UNIVERSITY%20DR%2C+DENTON%2C+TX+76201
"CVS PHARMACY, INC.",11661 PRESTON RD. STE 218,,"DALLAS, TX 75230",http://maps.google.com/maps?q=CVS%20PHARMACY%20INC%2C11661%20PRESTON%20RD.%20STE%20218%2C+DALLAS%2C+TX+75230
"CVS PHARMACY, INC.",1220 HORIZON RD,,"ROCKWALL, TX 75032",http://maps.google.com/maps?q=CVS%20PHARMACY%20INC%2C1220%20HORIZON%20RD%2C+ROCKWALL%2C+TX+75032
"CVS PHARMACY, INC.",1235 S BUCKNER BLVD,,"DALLAS, TX 75217",http://maps.google.com/maps?q=CVS%20PHARMACY%20INC%2C1235%20S%20BUCKNER%20BLVD%2C+DALLAS%2C+TX+75217
"CVS PHARMACY, INC.",1525 W CAMERON AVE,,"ROCKDALE, TX 76567",http://maps.google.com/maps?q=CVS%20PHARMACY%20INC%2C1525%20W%20CAMERON%20AVE%2C+ROCKDALE%2C+TX+76567
"CVS PHARMACY, INC.",1919 S. LOOP 256,,"PALESTINE, TX 75801",http://maps.google.com/maps?q=CVS%20PHARMACY%20INC%2C1919%20S.%20LOOP%20256%2C+PALESTINE%2C+TX+75801
"CVS PHARMACY, INC.",2222 N STORY RD,,"IRVING, TX 75062",http://maps.google.com/maps?q=CVS%20PHARMACY%20INC%2C2222%20N%20STORY%20RD%2C+IRVING%2C+TX+75062
"CVS PHARMACY, INC.",2323 W ILLINOIS AVE,,"DALLAS, TX 75224",http://maps.google.com/maps?q=CVS%20PHARMACY%20INC%2C2323%20W%20ILLINOIS%20AVE%2C+DALLAS%2C+TX+75224
"CVS PHARMACY, INC.",2591 FM 423,,"LITTLE ELM, TX 75068",http://maps.google.com/maps?q=CVS%20PHARMACY%20INC%2C2591%20FM%20423%2C+LITTLE%20ELM%2C+TX+75068
"CVS PHARMACY, INC.",2712 HIGHWAY 365,,"NEDERLAND, TX 77627",http://maps.google.com/maps?q=CVS%20PHARMACY%20INC%2C2712%20HIGHWAY%20365%2C+NEDERLAND%2C+TX+77627
"CVS PHARMACY, INC.",2950 DOWLEN RD.,,"BEAUMONT, TX 77706",http://maps.google.com/maps?q=CVS%20PHARMACY%20INC%2C2950%20DOWLEN%20RD.%2C+BEAUMONT%2C+TX+77706
"CVS PHARMACY, INC.",3133 E. LEMMON AVENUE,,"DALLAS, TX 75204",http://maps.google.com/maps?q=CVS%20PHARMACY%20INC%2C3133%20E.%20LEMMON%20AVENUE%2C+DALLAS%2C+TX+75204
"CVS PHARMACY, INC.",3200 TEASLEY LN.,,"DENTON, TX 76210",http://maps.google.com/maps?q=CVS%20PHARMACY%20INC%2C3200%20TEASLEY%20LN.%2C+DENTON%2C+TX+76210
"CVS PHARMACY, INC.",4610 FRANKFORD RD,,"DALLAS, TX 75287",http://maps.google.com/maps?q=CVS%20PHARMACY%20INC%2C4610%20FRANKFORD%20RD%2C+DALLAS%2C+TX+75287
"CVS PHARMACY, INC.",5900 W. PLEASANT RIDGE RD.,,"ARLINGTON, TX 76016",http://maps.google.com/maps?q=CVS%20PHARMACY%20INC%2C5900%20W.%20PLEASANT%20RIDGE%20RD.%2C+ARLINGTON%2C+TX+76016
"CVS PHARMACY, INC.",6120 E. MOCKINGBIRD LN.,,"DALLAS, TX 75214",http://maps.google.com/maps?q=CVS%20PHARMACY%20INC%2C6120%20E.%20MOCKINGBIRD%20LN.%2C+DALLAS%2C+TX+75214
"CVS PHARMACY, INC.",7230 PRESTON RD,,"FRISCO, TX 75034",http://maps.google.com/maps?q=CVS%20PHARMACY%20INC%2C7230%20PRESTON%20RD%2C+FRISCO%2C+TX+75034
"CVS PHARMACY, INC.",750 W. FM 544,,"WYLIE, TX 75098",http://maps.google.com/maps?q=CVS%20PHARMACY%20INC%2C750%20W.%20FM%20544%2C+WYLIE%2C+TX+75098
"CVS PHARMACY, INC.",910 W DAVIS ST,,"CONROE, TX 77301",http://maps.google.com/maps?q=CVS%20PHARMACY%20INC%2C910%20W%20DAVIS%20ST%2C+CONROE%2C+TX+77301
"DALLAS BEHAVIORAL HEALTHCARE HOSPITAL,LLC",800 KIRNWOOD DRIVE,,"DESOTO, TX 75115",http://maps.google.com/maps?q=DALLAS%20BEHAVIORAL%20HEALTHCARE%20HOSPITALLLC%2C800%20KIRNWOOD%20DRIVE%2C+DESOTO%2C+TX+75115
EAGLE PHARMACY,1404 S. MAIN ST,,"LINDALE, TX 75771",http://maps.google.com/maps?q=EAGLE%20PHARMACY%2C1404%20S.%20MAIN%20ST%2C+LINDALE%2C+TX+75771
ESSENT PRMC LP,NORTH CAMPUS,865 DESHONG DRIVE,"PARIS, TX 75462",http://maps.google.com/maps?q=ESSENT%20PRMC%20LP%2CNORTH%20CAMPUS%2C+PARIS%2C+TX+75462
EUBANK DRUG,1510 NORTH BRAZOS,,"WHITNEY, TX 76692",http://maps.google.com/maps?q=EUBANK%20DRUG%2C1510%20NORTH%20BRAZOS%2C+WHITNEY%2C+TX+76692
EXTENDCARE PHARMACY SERVICES,"1246 S HWY 377, STE 200",,"PILOT POINT, TX 76258",http://maps.google.com/maps?q=EXTENDCARE%20PHARMACY%20SERVICES%2C1246%20S%20HWY%20377%2C%20STE%20200%2C+PILOT%20POINT%2C+TX+76258
FLOWER MOUND HERBAL PHARMACY,"1001 CROSSTIMBERS ROAD, SUITE 1170",,"FLOWER MOUND, TX 75028",http://maps.google.com/maps?q=FLOWER%20MOUND%20HERBAL%20PHARMACY%2C1001%20CROSSTIMBERS%20ROAD%2C%20SUITE%201170%2C+FLOWER%20MOUND%2C+TX+75028
GIBSON PRESCRIPTION PHARMACY,"205 W CEDAR CREEK PKWY, STE A-1",P O BOX 43642,"SEVEN POINTS, TX 75143",http://maps.google.com/maps?q=GIBSON%20PRESCRIPTION%20PHARMACY%2C205%20W%20CEDAR%20CREEK%20PKWY%2C%20STE%20A-1%2C+SEVEN%20POINTS%2C+TX+75143
GUFFEY'S DRUG STORE,"1610 9TH STREET, STE A",,"WICHITA FALLS, TX 76301",http://maps.google.com/maps?q=GUFFEYS%20DRUG%20STORE%2C1610%209TH%20STREET%2C%20STE%20A%2C+WICHITA%20FALLS%2C+TX+76301
HARRIS DRUG AND GIFTS LLC,205 DEQUEEN AVE.,,"DE QUEEN, AR 71832",http://maps.google.com/maps?q=HARRIS%20DRUG%20AND%20GIFTS%20LLC%2C205%20DEQUEEN%20AVE.%2C+DE%20QUEEN%2C+AR+71832
HENRIETTA PHARMACY INC,124 NORTH BRIDGE,,"HENRIETTA, TX 76365",http://maps.google.com/maps?q=HENRIETTA%20PHARMACY%20INC%2C124%20NORTH%20BRIDGE%2C+HENRIETTA%2C+TX+76365
HOSPITAL SERVICE DISTRICT NO. 2 OF,600 SOUTH PINE ST,,"DE RIDDER, LA 70634",http://maps.google.com/maps?q=HOSPITAL%20SERVICE%20DISTRICT%20NO%20%20OF%2C600%20SOUTH%20PINE%20ST%2C+DE%20RIDDER%2C+LA+70634
"INFINITY PHARMACY SOLUTIONS, LLC","3313 ESSEX DRIVE, STE 200",,"RICHARDSON, TX 75082",http://maps.google.com/maps?q=INFINITY%20PHARMACY%20SOLUTIONS%20LLC%2C3313%20ESSEX%20DRIVE%2C%20STE%20200%2C+RICHARDSON%2C+TX+75082
JPS HEALTH SYSTEM,1500 SOUTH MAIN STREET,SUITE OPC 1,"FORT WORTH, TX 76104",http://maps.google.com/maps?q=JPS%20HEALTH%20SYSTEM%2C1500%20SOUTH%20MAIN%20STREET%2C+FORT%20WORTH%2C+TX+76104
KING'S PHARMACY #4,DBA: L & J PHARMACIES INC,1948 9TH AVE,"PORT ARTHUR, TX 77642",http://maps.google.com/maps?q=KINGS%20PHARMACY%2CDBA%3A%20L%20&%20J%20PHARMACIES%20INC%2C+PORT%20ARTHUR%2C+TX+77642
KVG ENTERPRISES INC,RANDOL MILL PHARMACY,1014 NORTH FIELDER ROAD,"ARLINGTON, TX 76012",http://maps.google.com/maps?q=KVG%20ENTERPRISES%20INC%2CRANDOL%20MILL%20PHARMACY%2C+ARLINGTON%2C+TX+76012
LEONARD PHARMACY INC,122 W COLLINS,PO BOX 1229,"LEONARD, TX 75452",http://maps.google.com/maps?q=LEONARD%20PHARMACY%20INC%2C122%20W%20COLLINS%2C+LEONARD%2C+TX+75452
LOVE OAK PHARMACY,805 WEST MAIN STREET,,"EASTLAND, TX 76448",http://maps.google.com/maps?q=LOVE%20OAK%20PHARMACY%2C805%20WEST%20MAIN%20STREET%2C+EASTLAND%2C+TX+76448
MEDFRONT PHARMACY,"4041 W WHEATLAND ROAD, STE 204",,"DALLAS, TX 75237",http://maps.google.com/maps?q=MEDFRONT%20PHARMACY%2C4041%20W%20WHEATLAND%20ROAD%2C%20STE%20204%2C+DALLAS%2C+TX+75237
METHODIST DALLAS MEDICAL CNTR,PHARMACY DEPARTMENT,1441 N. BECKLEY AVENUE,"DALLAS, TX 75203",http://maps.google.com/maps?q=METHODIST%20DALLAS%20MEDICAL%20CNTR%2CPHARMACY%20DEPARTMENT%2C+DALLAS%2C+TX+75203
P & S REXALL PHARMACY INC,829 NORTH MAIN,PO BOX 957,"CORSICANA, TX 75110",http://maps.google.com/maps?q=P%20%20S%20REXALL%20PHARMACY%20INC%2C829%20NORTH%20MAIN%2C+CORSICANA%2C+TX+75110
"PERRONERX, LLC",3923 HWY 377 SOUTH,,"FORT WORTH, TX 76116",http://maps.google.com/maps?q=PERRONERX%20LLC%2C3923%20HWY%20377%20SOUTH%2C+FORT%20WORTH%2C+TX+76116
Q I C PHARMACY SERVICES,"1831 EAST BROAD STREET, STE 213",,"MANSFIELD, TX 76063",http://maps.google.com/maps?q=Q%20I%20C%20PHARMACY%20SERVICES%2C1831%20EAST%20BROAD%20STREET%2C%20STE%20213%2C+MANSFIELD%2C+TX+76063
RAY'S TOWN NORTH PHARMACY,975 N COOPER STREET,,"ARLINGTON, TX 76011",http://maps.google.com/maps?q=RAYS%20TOWN%20NORTH%20PHARMACY%2C975%20N%20COOPER%20STREET%2C+ARLINGTON%2C+TX+76011
RED RIVER HOSPITAL,1505 8TH STREET,,"WICHITA FALLS, TX 76301",http://maps.google.com/maps?q=RED%20RIVER%20HOSPITAL%2C1505%208TH%20STREET%2C+WICHITA%20FALLS%2C+TX+76301
RX CARE PHARMACY,202 SOUTH AVE,SUITE A,"VIVIAN, LA 71082",http://maps.google.com/maps?q=RX%20CARE%20PHARMACY%2C202%20SOUTH%20AVE%2C+VIVIAN%2C+LA+71082
SUNDANCE HOSPITAL DALLAS,"2696 W WALNUT ST, ATTN: PHARMACY DEPT",,"GARLAND, TX 75042",http://maps.google.com/maps?q=SUNDANCE%20HOSPITAL%20DALLAS%2C2696%20W%20WALNUT%20ST%2C%20ATTN%3A%20PHARMACY%20DEPT%2C+GARLAND%2C+TX+75042
TANGLEWOOD PHARMACY,DBA: TANGLEWOOD PHARMACY,2445-A N.W. LOOP,"STEPHENVILLE, TX 76401",http://maps.google.com/maps?q=TANGLEWOOD%20PHARMACY%2CDBA%3A%20TANGLEWOOD%20PHARMACY%2C+STEPHENVILLE%2C+TX+76401
TRINITY APOTHECARY,"2501 E HEBRON PKWY, STE 100B",,"CARROLLTON, TX 75010",http://maps.google.com/maps?q=TRINITY%20APOTHECARY%2C2501%20E%20HEBRON%20PKWY%2C%20STE%20100B%2C+CARROLLTON%2C+TX+75010
UNIVERSITY OF NORTH TEXAS PHARMACY,"1800 CHESTNUT, RM 102",1155 UNION CIRCLE #305160,"DENTON, TX 76203",http://maps.google.com/maps?q=UNIVERSITY%20OF%20NORTH%20TEXAS%20PHARMACY%2C1800%20CHESTNUT%2C%20RM%20102%2C+DENTON%2C+TX+76203
US ARMY- FT POLK CTMC,8091 GEORGIA AVE BLDG 3504,ROOM 1B104,"FORT POLK, LA 71459",http://maps.google.com/maps?q=US%20ARMY%20FT%20POLK%20CTMC%2C8091%20GEORGIA%20AVE%20BLDG%203504%2C+FORT%20POLK%2C+LA+71459
US ARMY- FT POLK MED ACTIVITY,BLDG 1585 3RD ST RM 1758,,"FORT POLK, LA 71459",http://maps.google.com/maps?q=US%20ARMY%20FT%20POLK%20MED%20ACTIVITY%2CBLDG%201585%203RD%20ST%20RM%201758%2C+FORT%20POLK%2C+LA+71459
USAF- SHEPPARD AFB CLINIC -  82ND MEDICAL GROUP,149 HART ST STE 7,82ND MEDICAL GROUP/SGSL,"SHEPPARD AFB, TX 76311",http://maps.google.com/maps?q=USAF%20SHEPPARD%20AFB%20CLINIC%20%20%20ND%20MEDICAL%20GROUP%2C149%20HART%20ST%20STE%207%2C+SHEPPARD%20AFB%2C+TX+76311
USAF-BARKSDALE AFB,2D MDSS/SGSM,"243 CURTISS ROAD, SUITE 101","BARKSDALE AFB, LA 71110",http://maps.google.com/maps?q=USAFBARKSDALE%20AFB%2C2D%20MDSS/SGSM%2C+BARKSDALE%20AFB%2C+LA+71110
VERDE PHARMACY AND MEDICAL SUPPLY LLC,"2929 N GALLOWAY AVE, STE 116",,"MESQUITE, TX 75150",http://maps.google.com/maps?q=VERDE%20PHARMACY%20AND%20MEDICAL%20SUPPLY%20LLC%2C2929%20N%20GALLOWAY%20AVE%2C%20STE%20116%2C+MESQUITE%2C+TX+75150
WALGREEN CO.,101 W UNIVERSITY,,"DENTON, TX 76201",http://maps.google.com/maps?q=WALGREEN%20CO%2C101%20W%20UNIVERSITY%2C+DENTON%2C+TX+76201
WALGREEN CO.,1317 S. MAIN ST.,,"WEATHERFORD, TX 76086",http://maps.google.com/maps?q=WALGREEN%20CO%2C1317%20S.%20MAIN%20ST.%2C+WEATHERFORD%2C+TX+76086
WALGREEN CO.,1651 W UNIVERSITY DRIVE,,"MCKINNEY, TX 75069",http://maps.google.com/maps?q=WALGREEN%20CO%2C1651%20W%20UNIVERSITY%20DRIVE%2C+MCKINNEY%2C+TX+75069
WALGREEN CO.,1804 E HEBRON PKWY,,"CARROLLTON, TX 75010",http://maps.google.com/maps?q=WALGREEN%20CO%2C1804%20E%20HEBRON%20PKWY%2C+CARROLLTON%2C+TX+75010
WALGREEN CO.,2001 CUSTER RD,,"PLANO, TX 75075",http://maps.google.com/maps?q=WALGREEN%20CO%2C2001%20CUSTER%20RD%2C+PLANO%2C+TX+75075
WALGREEN CO.,2911 RIDGE RD,,"ROCKWALL, TX 75032",http://maps.google.com/maps?q=WALGREEN%20CO%2C2911%20RIDGE%20RD%2C+ROCKWALL%2C+TX+75032
WALGREEN CO.,3312 E 29TH ST,,"BRYAN, TX 77802",http://maps.google.com/maps?q=WALGREEN%20CO%2C3312%20E%2029TH%20ST%2C+BRYAN%2C+TX+77802
WALGREEN CO.,3400 MATLOCK RD,,"ARLINGTON, TX 76015",http://maps.google.com/maps?q=WALGREEN%20CO%2C3400%20MATLOCK%20RD%2C+ARLINGTON%2C+TX+76015
WALGREEN CO.,3700 HWY 365,,"PORT ARTHUR, TX 77642",http://maps.google.com/maps?q=WALGREEN%20CO%2C3700%20HWY%20365%2C+PORT%20ARTHUR%2C+TX+77642
WALGREEN CO.,401 N GALLOWAY AVE,,"MESQUITE, TX 75149",http://maps.google.com/maps?q=WALGREEN%20CO%2C401%20N%20GALLOWAY%20AVE%2C+MESQUITE%2C+TX+75149
WALGREEN CO.,420 N FRAZIER ST,,"CONROE, TX 77301",http://maps.google.com/maps?q=WALGREEN%20CO%2C420%20N%20FRAZIER%20ST%2C+CONROE%2C+TX+77301
WALGREEN CO.,4520 WESTERN CENTER BLVD,,"HALTOM CITY, TX 76137",http://maps.google.com/maps?q=WALGREEN%20CO%2C4520%20WESTERN%20CENTER%20BLVD%2C+HALTOM%20CITY%2C+TX+76137
WALGREEN CO.,507 S CARRIER PKWY,,"GRAND PRAIRIE, TX 75051",http://maps.google.com/maps?q=WALGREEN%20CO%2C507%20S%20CARRIER%20PKWY%2C+GRAND%20PRAIRIE%2C+TX+75051
WALGREEN CO.,511 E MARSHALL AVENUE,,"LONGVIEW, TX 75601",http://maps.google.com/maps?q=WALGREEN%20CO%2C511%20E%20MARSHALL%20AVENUE%2C+LONGVIEW%2C+TX+75601
WALGREEN CO.,5742 E MOCKINGBIRD LANE,,"DALLAS, TX 75206",http://maps.google.com/maps?q=WALGREEN%20CO%2C5742%20E%20MOCKINGBIRD%20LANE%2C+DALLAS%2C+TX+75206
WALGREEN CO.,6205 WESTCREEK DR.,,"FT WORTH, TX 76133",http://maps.google.com/maps?q=WALGREEN%20CO%2C6205%20WESTCREEK%20DR.%2C+FT%20WORTH%2C+TX+76133
WALGREEN CO.,780 W. BEDFORD EULESS RD.,,"HURST, TX 76053",http://maps.google.com/maps?q=WALGREEN%20CO%2C780%20W.%20BEDFORD%20EULESS%20RD.%2C+HURST%2C+TX+76053
WALGREEN CO.,8120 S. COCKRELL HILL ROAD,,"DALLAS, TX 75236",http://maps.google.com/maps?q=WALGREEN%20CO%2C8120%20S.%20COCKRELL%20HILL%20ROAD%2C+DALLAS%2C+TX+75236
WALGREEN CO.,833 SW WILSHIRE BLVD.,,"BURLESON, TX 76028",http://maps.google.com/maps?q=WALGREEN%20CO%2C833%20SW%20WILSHIRE%20BLVD.%2C+BURLESON%2C+TX+76028
"WALGREEN LOUISIANA CO., INC.",1021 BEGLIS PKWY,,"SULPHUR, LA 70663",http://maps.google.com/maps?q=WALGREEN%20LOUISIANA%20CO%20INC%2C1021%20BEGLIS%20PKWY%2C+SULPHUR%2C+LA+70663
"WALGREEN LOUISIANA CO., INC.",2107 AIRLINE DRIVE,,"BOSSIER CITY, LA 71111",http://maps.google.com/maps?q=WALGREEN%20LOUISIANA%20CO%20INC%2C2107%20AIRLINE%20DRIVE%2C+BOSSIER%20CITY%2C+LA+71111
