Business Name,Address 1,Address 2,"City, State Zip",Map URL
ADRIAN PHARMACY LLC,1325 N MAIN ST STE H,,"ADRIAN, MI 49221",http://maps.google.com/maps?q=ADRIAN%20PHARMACY%20LLC%2C1325%20N%20MAIN%20ST%20STE%20H%2C+ADRIAN%2C+MI+49221
ADVANCED SPECIALTY RX LLC,4800 S. SAGINAW ST.,SUITE 1675,"FLINT, MI 48507",http://maps.google.com/maps?q=ADVANCED%20SPECIALTY%20RX%20LLC%2C4800%20S.%20SAGINAW%20ST.%2C+FLINT%2C+MI+48507
ALCONA HEALTH CENTER PHARMACY,177 N BARLOW,,"LINCOLN, MI 48742",http://maps.google.com/maps?q=ALCONA%20HEALTH%20CENTER%20PHARMACY%2C177%20N%20BARLOW%2C+LINCOLN%2C+MI+48742
ALCONA HEALTH CENTER PHARMACY SERVICES,1185 US 23 NORTH,,"ALPENA, MI 49707",http://maps.google.com/maps?q=ALCONA%20HEALTH%20CENTER%20PHARMACY%20SERVICES%2C1185%20US%2023%20NORTH%2C+ALPENA%2C+MI+49707
ALPHARM CORPORATION,DBA NORTHLAND MEDICAL BLDG.,20905 GREENFIELD ROAD,"SOUTHFIELD, MI 48075",http://maps.google.com/maps?q=ALPHARM%20CORPORATION%2CDBA%20NORTHLAND%20MEDICAL%20BLDG.%2C+SOUTHFIELD%2C+MI+48075
ANN ARBOR PROFESSIONAL PHARMACY,6 W. MICHIGAN AVE,,"YPSILANTI, MI 48197",http://maps.google.com/maps?q=ANN%20ARBOR%20PROFESSIONAL%20PHARMACY%2C6%20W.%20MICHIGAN%20AVE%2C+YPSILANTI%2C+MI+48197
"ARMITAGE PHARMACY, INC.",3650 W ARMITAGE AVE,STE 100,"CHICAGO, IL 60647",http://maps.google.com/maps?q=ARMITAGE%20PHARMACY%20INC%2C3650%20W%20ARMITAGE%20AVE%2C+CHICAGO%2C+IL+60647
ARROWHEAD BEHAVIORAL HEALTH,1725 TIMBER LINE ROAD,,"MAUMEE, OH 43537",http://maps.google.com/maps?q=ARROWHEAD%20BEHAVIORAL%20HEALTH%2C1725%20TIMBER%20LINE%20ROAD%2C+MAUMEE%2C+OH+43537
BAY PARK COMMUNITY HOSPITAL,2801 BAY PARK DRIVE,,"OREGON, OH 43616",http://maps.google.com/maps?q=BAY%20PARK%20COMMUNITY%20HOSPITAL%2C2801%20BAY%20PARK%20DRIVE%2C+OREGON%2C+OH+43616
BEDFORD WELLNESS PHARMACY,7473 SECOR ROAD,UNIT C,"LAMBERTVILLE, MI 48144",http://maps.google.com/maps?q=BEDFORD%20WELLNESS%20PHARMACY%2C7473%20SECOR%20ROAD%2C+LAMBERTVILLE%2C+MI+48144
"BELLAIRE PHARMACY, INC",120  NORTH BRIDGE STREET,PO BOX 272,"BELLAIRE, MI 49615",http://maps.google.com/maps?q=BELLAIRE%20PHARMACY%20INC%2C120%20%20NORTH%20BRIDGE%20STREET%2C+BELLAIRE%2C+MI+49615
BENZER PHARMACY,G-3333 BEECHER ROAD,SUITE B,"FLINT, MI 48532",http://maps.google.com/maps?q=BENZER%20PHARMACY%2CG-3333%20BEECHER%20ROAD%2C+FLINT%2C+MI+48532
BERKLEY PHARMACY,28577 SCHOENHERR ROAD,,"WARREN, MI 48088",http://maps.google.com/maps?q=BERKLEY%20PHARMACY%2C28577%20SCHOENHERR%20ROAD%2C+WARREN%2C+MI+48088
BLUE PHARMACY,6240 MICHIGAN AVE,,"DETROIT, MI 48210",http://maps.google.com/maps?q=BLUE%20PHARMACY%2C6240%20MICHIGAN%20AVE%2C+DETROIT%2C+MI+48210
BOB'S DRUGS LLC,194 N DIVISION STREET,,"HESPERIA, MI 49421",http://maps.google.com/maps?q=BOBS%20DRUGS%20LLC%2C194%20N%20DIVISION%20STREET%2C+HESPERIA%2C+MI+49421
"BOND DRUG COMPANY OF ILLINOIS, L.L.C.",111 S. HALSTED STREET,,"CHICAGO, IL 60661",http://maps.google.com/maps?q=BOND%20DRUG%20COMPANY%20OF%20ILLINOIS%20LLC%2C111%20S.%20HALSTED%20STREET%2C+CHICAGO%2C+IL+60661
"BOND DRUG COMPANY OF ILLINOIS, L.L.C.",1633 W. 95TH STREET,,"CHICAGO, IL 60643",http://maps.google.com/maps?q=BOND%20DRUG%20COMPANY%20OF%20ILLINOIS%20LLC%2C1633%20W.%2095TH%20STREET%2C+CHICAGO%2C+IL+60643
"BOND DRUG COMPANY OF ILLINOIS, L.L.C.",1931 W CERMAK RD,,"CHICAGO, IL 60608",http://maps.google.com/maps?q=BOND%20DRUG%20COMPANY%20OF%20ILLINOIS%20LLC%2C1931%20W%20CERMAK%20RD%2C+CHICAGO%2C+IL+60608
"BOND DRUG COMPANY OF ILLINOIS, L.L.C.",20950 GOVERNORS HWY.,,"OLYMPIA FIELDS, IL 60461",http://maps.google.com/maps?q=BOND%20DRUG%20COMPANY%20OF%20ILLINOIS%20LLC%2C20950%20GOVERNORS%20HWY.%2C+OLYMPIA%20FIELDS%2C+IL+60461
"BOND DRUG COMPANY OF ILLINOIS, L.L.C.",3201 N. BROADWAY ST.,,"CHICAGO, IL 60657",http://maps.google.com/maps?q=BOND%20DRUG%20COMPANY%20OF%20ILLINOIS%20LLC%2C3201%20N.%20BROADWAY%20ST.%2C+CHICAGO%2C+IL+60657
"BOND DRUG COMPANY OF ILLINOIS, L.L.C.",5625 N. RIDGE AVE,,"CHICAGO, IL 60660",http://maps.google.com/maps?q=BOND%20DRUG%20COMPANY%20OF%20ILLINOIS%20LLC%2C5625%20N.%20RIDGE%20AVE%2C+CHICAGO%2C+IL+60660
"BOND DRUG COMPANY OF ILLINOIS, L.L.C.",641 N CLARK ST,,"CHICAGO, IL 60654",http://maps.google.com/maps?q=BOND%20DRUG%20COMPANY%20OF%20ILLINOIS%20LLC%2C641%20N%20CLARK%20ST%2C+CHICAGO%2C+IL+60654
BROAD STREET PHARMACY,1115 W BROAD STREET,,"CHESANING, MI 48616",http://maps.google.com/maps?q=BROAD%20STREET%20PHARMACY%2C1115%20W%20BROAD%20STREET%2C+CHESANING%2C+MI+48616
BRONSON BATTLE CREEK OUTPATIENT PHARMACY,363 FREMONT ST.,SUITE 111,"BATTLE CREEK, MI 49017",http://maps.google.com/maps?q=BRONSON%20BATTLE%20CREEK%20OUTPATIENT%20PHARMACY%2C363%20FREMONT%20ST.%2C+BATTLE%20CREEK%2C+MI+49017
BYRON DRUGS,13355 DIX TOLEDO ROAD,,"SOUTHGATE, MI 48195",http://maps.google.com/maps?q=BYRON%20DRUGS%2C13355%20DIX%20TOLEDO%20ROAD%2C+SOUTHGATE%2C+MI+48195
"CADILLAC FAMILY PHARMACY, LLC",108 NORTH MITCHELL,,"CADILLAC, MI 49601",http://maps.google.com/maps?q=CADILLAC%20FAMILY%20PHARMACY%20LLC%2C108%20NORTH%20MITCHELL%2C+CADILLAC%2C+MI+49601
"CARECENTER PHARMACY, L.L.C.","800 CHRYSLER DR., STE W2001",,"AUBURN HILLS, MI 48326",http://maps.google.com/maps?q=CARECENTER%20PHARMACY%20LLC%2C800%20CHRYSLER%20DR.%2C%20STE%20W2001%2C+AUBURN%20HILLS%2C+MI+48326
CENTER FOR FAMILY HEALTH,505 NORTH JACKSON STREET,,"JACKSON, MI 49201",http://maps.google.com/maps?q=CENTER%20FOR%20FAMILY%20HEALTH%2C505%20NORTH%20JACKSON%20STREET%2C+JACKSON%2C+MI+49201
CENTRAL LAKE PHARMACY INC,2424 NORTH MAIN STREET,,"CENTRAL LAKE, MI 49622",http://maps.google.com/maps?q=CENTRAL%20LAKE%20PHARMACY%20INC%2C2424%20NORTH%20MAIN%20STREET%2C+CENTRAL%20LAKE%2C+MI+49622
"CENTRAL PHARMACY-EAST, LLC",3097 N. GENESEE RD,,"FLINT, MI 48506",http://maps.google.com/maps?q=CENTRAL%20PHARMACYEAST%20LLC%2C3097%20N.%20GENESEE%20RD%2C+FLINT%2C+MI+48506
COBB STREET PHARMACY,520 COBB STREET,,"CADILLAC, MI 49601",http://maps.google.com/maps?q=COBB%20STREET%20PHARMACY%2C520%20COBB%20STREET%2C+CADILLAC%2C+MI+49601
COLEMAN FAMILY PHARMACY,211 E RAILWAY,,"COLEMAN, MI 48618",http://maps.google.com/maps?q=COLEMAN%20FAMILY%20PHARMACY%2C211%20E%20RAILWAY%2C+COLEMAN%2C+MI+48618
COMMUNITY CARE PHARMACY,2700 BAKER STREET,,"MUSKEGON HEIGHTS, MI 49444",http://maps.google.com/maps?q=COMMUNITY%20CARE%20PHARMACY%2C2700%20BAKER%20STREET%2C+MUSKEGON%20HEIGHTS%2C+MI+49444
COMMUNITY HEALTH CENTER,274 EAST CHICAGO STREET,,"COLDWATER, MI 49036",http://maps.google.com/maps?q=COMMUNITY%20HEALTH%20CENTER%2C274%20EAST%20CHICAGO%20STREET%2C+COLDWATER%2C+MI+49036
CRARY DRUG,8941 LEWIS AVENUE,,"TEMPERANCE, MI 48182",http://maps.google.com/maps?q=CRARY%20DRUG%2C8941%20LEWIS%20AVENUE%2C+TEMPERANCE%2C+MI+48182
CURO PHARMACY,4665 44TH STREET SE,SUITE A-1106,"GRAND RAPIDS, MI 49512",http://maps.google.com/maps?q=CURO%20PHARMACY%2C4665%2044TH%20STREET%20SE%2C+GRAND%20RAPIDS%2C+MI+49512
DEARBORN HEIGHTS PHARMACY,25524 FORD ROAD,,"DEARBORN HEIGHTS, MI 48127",http://maps.google.com/maps?q=DEARBORN%20HEIGHTS%20PHARMACY%2C25524%20FORD%20ROAD%2C+DEARBORN%20HEIGHTS%2C+MI+48127
DIAL DRUGS,8226 NORTH MERRIMAN ROAD,,"WESTLAND, MI 48185",http://maps.google.com/maps?q=DIAL%20DRUGS%2C8226%20NORTH%20MERRIMAN%20ROAD%2C+WESTLAND%2C+MI+48185
DISCOUNT RX,4400 S. SAGINAW ST,SUITE 1335,"FLINT, MI 48507",http://maps.google.com/maps?q=DISCOUNT%20RX%2C4400%20S.%20SAGINAW%20ST%2C+FLINT%2C+MI+48507
EMMA L BIXBY MED CTR INC,818 RIVERSIDE AVENUE,,"ADRIAN, MI 49221",http://maps.google.com/maps?q=EMMA%20L%20BIXBY%20MED%20CTR%20INC%2C818%20RIVERSIDE%20AVENUE%2C+ADRIAN%2C+MI+49221
EVART PHARMACY PLLC,107 N. MAIN ST,,"EVART, MI 49631",http://maps.google.com/maps?q=EVART%20PHARMACY%20PLLC%2C107%20N.%20MAIN%20ST%2C+EVART%2C+MI+49631
FAIRWAY DRUGS INC,19332 E TEN MILE,,"EASTPOINTE, MI 48021",http://maps.google.com/maps?q=FAIRWAY%20DRUGS%20INC%2C19332%20E%20TEN%20MILE%2C+EASTPOINTE%2C+MI+48021
FAMILY HEALTH CARE PHARMACY,1035 E WILCOX,,"WHITE CLOUD, MI 49349",http://maps.google.com/maps?q=FAMILY%20HEALTH%20CARE%20PHARMACY%2C1035%20E%20WILCOX%2C+WHITE%20CLOUD%2C+MI+49349
FAMILY HEALTH CARE PHARMACY,11 NORTH MAPLE STREET,,"GRANT, MI 49327",http://maps.google.com/maps?q=FAMILY%20HEALTH%20CARE%20PHARMACY%2C11%20NORTH%20MAPLE%20STREET%2C+GRANT%2C+MI+49327
FAMILY HEALTH CARE PHARMACY,1615 MICHIGAN AVE,,"BALDWIN, MI 49304",http://maps.google.com/maps?q=FAMILY%20HEALTH%20CARE%20PHARMACY%2C1615%20MICHIGAN%20AVE%2C+BALDWIN%2C+MI+49304
"FAMILY HEALTH CENTER, INC",117 W PATERSON,,"KALAMAZOO, MI 49007",http://maps.google.com/maps?q=FAMILY%20HEALTH%20CENTER%20INC%2C117%20W%20PATERSON%2C+KALAMAZOO%2C+MI+49007
FARMINGTON DRUGS AND MEDICAL SUPPLIES,20434 FARMINGTON ROAD,,"LIVONIA, MI 48152",http://maps.google.com/maps?q=FARMINGTON%20DRUGS%20AND%20MEDICAL%20SUPPLIES%2C20434%20FARMINGTON%20ROAD%2C+LIVONIA%2C+MI+48152
FLOWER MEMORIAL HOSPITAL PHAR,5200 HARROUN ROAD,,"SYLVANIA, OH 43560",http://maps.google.com/maps?q=FLOWER%20MEMORIAL%20HOSPITAL%20PHAR%2C5200%20HARROUN%20ROAD%2C+SYLVANIA%2C+OH+43560
FOSTORIA COMMUNITY HOSPITAL,501 VAN BUREN STREET,,"FOSTORIA, OH 44830",http://maps.google.com/maps?q=FOSTORIA%20COMMUNITY%20HOSPITAL%2C501%20VAN%20BUREN%20STREET%2C+FOSTORIA%2C+OH+44830
FOWLERVILLE PHARMACY,119 E. GRAND RIVER,P.O. BOX 337,"FOWLERVILLE, MI 48836",http://maps.google.com/maps?q=FOWLERVILLE%20PHARMACY%2C119%20E.%20GRAND%20RIVER%2C+FOWLERVILLE%2C+MI+48836
FRANCISCAN HEALTH MICHIGAN CITY,301 W HOMER,,"MICHIGAN CITY, IN 46360",http://maps.google.com/maps?q=FRANCISCAN%20HEALTH%20MICHIGAN%20CITY%2C301%20W%20HOMER%2C+MICHIGAN%20CITY%2C+IN+46360
GULL POINTE PHARMACY,5585 GULL ROAD,SUITE #120,"KALAMAZOO, MI 49048",http://maps.google.com/maps?q=GULL%20POINTE%20PHARMACY%2C5585%20GULL%20ROAD%2C+KALAMAZOO%2C+MI+49048
H F MEDICAL CENTER PHARMACY,14500 HALL ROAD,,"STERLING HEIGHTS, MI 48313",http://maps.google.com/maps?q=H%20F%20MEDICAL%20CENTER%20PHARMACY%2C14500%20HALL%20ROAD%2C+STERLING%20HEIGHTS%2C+MI+48313
HACKLEY HEALTHCARE EQUIPMENT,6401 PRAIRIE,SUITE #1100,"MUSKEGON, MI 49444",http://maps.google.com/maps?q=HACKLEY%20HEALTHCARE%20EQUIPMENT%2C6401%20PRAIRIE%2C+MUSKEGON%2C+MI+49444
HACKLEY PHARMACY GLENSIDE,1631 W. SHERMAN,,"MUSKEGON, MI 49441",http://maps.google.com/maps?q=HACKLEY%20PHARMACY%20GLENSIDE%2C1631%20W.%20SHERMAN%2C+MUSKEGON%2C+MI+49441
HACKLEY PROFESSIONAL PHCY,1675 LEAHY ST,,"MUSKEGON, MI 49442",http://maps.google.com/maps?q=HACKLEY%20PROFESSIONAL%20PHCY%2C1675%20LEAHY%20ST%2C+MUSKEGON%2C+MI+49442
HARBOR BEACH COMM HOSP INC,210 SOUTH FIRST STREET,,"HARBOR BEACH, MI 48441",http://maps.google.com/maps?q=HARBOR%20BEACH%20COMM%20HOSP%20INC%2C210%20SOUTH%20FIRST%20STREET%2C+HARBOR%20BEACH%2C+MI+48441
HARBOR DRUG INC,DBA: HARBOR DRUG,114 S. HURON AVENUE,"HARBOR BEACH, MI 48441",http://maps.google.com/maps?q=HARBOR%20DRUG%20INC%2CDBA%3A%20HARBOR%20DRUG%2C+HARBOR%20BEACH%2C+MI+48441
HEMMINGSEN DRUG STORE,132 W. MICHIGAN AVE.,,"MARSHALL, MI 49068",http://maps.google.com/maps?q=HEMMINGSEN%20DRUG%20STORE%2C132%20W.%20MICHIGAN%20AVE.%2C+MARSHALL%2C+MI+49068
HENRY FORD HEALTH CENTER - BROWNSTOWN PHARMACY,23050 WEST ROAD,,"BROWNSTOWN TOWNSHIP, MI 48183",http://maps.google.com/maps?q=HENRY%20FORD%20HEALTH%20CENTER%20%20BROWNSTOWN%20PHARMACY%2C23050%20WEST%20ROAD%2C+BROWNSTOWN%20TOWNSHIP%2C+MI+48183
HENRY FORD HOSP W,6777 WEST MAPLE RD,,"WEST BLOOMFIELD, MI 48322",http://maps.google.com/maps?q=HENRY%20FORD%20HOSP%20W%2C6777%20WEST%20MAPLE%20RD%2C+WEST%20BLOOMFIELD%2C+MI+48322
HENRY FORD MACOMB,16151 19 MILE ROAD,,"CLINTON TOWNSHIP, MI 48038",http://maps.google.com/maps?q=HENRY%20FORD%20MACOMB%2C16151%2019%20MILE%20ROAD%2C+CLINTON%20TOWNSHIP%2C+MI+48038
HENRY FORD MACOMB AMBULATORY PHARMACY #2,30795 23 MILE ROAD,,"CHESTERFIELD TOWNSHIP, MI 48047",http://maps.google.com/maps?q=HENRY%20FORD%20MACOMB%20AMBULATORY%20PHARMACY%2C30795%2023%20MILE%20ROAD%2C+CHESTERFIELD%20TOWNSHIP%2C+MI+48047
HENRY FORD MEDICAL CENTER,131 KERCHEVAL,SUITE #110,"GROSSE POINTE FARMS, MI 48236",http://maps.google.com/maps?q=HENRY%20FORD%20MEDICAL%20CENTER%2C131%20KERCHEVAL%2C+GROSSE%20POINTE%20FARMS%2C+MI+48236
HENRY FORD MEDICAL CENTER,K-15 PHARMACY,2799 W. GRAND BLVD.,"DETROIT, MI 48202",http://maps.google.com/maps?q=HENRY%20FORD%20MEDICAL%20CENTER%2CK-15%20PHARMACY%2C+DETROIT%2C+MI+48202
HENRY FORD MEDICAL CENTER,MAIN CAMPUS PHARMACY (LOBBY),2799 W. GRAND BLVD,"DETROIT, MI 48202",http://maps.google.com/maps?q=HENRY%20FORD%20MEDICAL%20CENTER%2CMAIN%20CAMPUS%20PHARMACY%20(LOBBY)%2C+DETROIT%2C+MI+48202
HENRY FORD MEDICAL CENTER PHARMACY,1 FORD PLACE,,"DETROIT, MI 48209",http://maps.google.com/maps?q=HENRY%20FORD%20MEDICAL%20CENTER%20PHARMACY%2C1%20FORD%20PLACE%2C+DETROIT%2C+MI+48209
HENRY FORD MEDICAL CENTER PHARMACY -  FORD ROAD,5500 AUTO CLUB DRIVE,,"DEARBORN, MI 48126",http://maps.google.com/maps?q=HENRY%20FORD%20MEDICAL%20CENTER%20PHARMACY%20%20%20FORD%20ROAD%2C5500%20AUTO%20CLUB%20DRIVE%2C+DEARBORN%2C+MI+48126
HENRY FORD MEDICAL CENTER PHARMACY-WYANDOTTE HOSP,2333 BIDDLE AVENUE,,"WYANDOTTE, MI 48192",http://maps.google.com/maps?q=HENRY%20FORD%20MEDICAL%20CENTER%20PHARMACYWYANDOTTE%20HOSP%2C2333%20BIDDLE%20AVENUE%2C+WYANDOTTE%2C+MI+48192
HFMC - LIVONIA PHARMACY,29200 SCHOOLCRAFT,,"LIVONIA, MI 48150",http://maps.google.com/maps?q=HFMC%20%20LIVONIA%20PHARMACY%2C29200%20SCHOOLCRAFT%2C+LIVONIA%2C+MI+48150
HILLSDALE MARKET PHARMACY,DIVISION OF NASH DRUGS INC,208 W CARLETON ROAD,"HILLSDALE, MI 49242",http://maps.google.com/maps?q=HILLSDALE%20MARKET%20PHARMACY%2CDIVISION%20OF%20NASH%20DRUGS%20INC%2C+HILLSDALE%2C+MI+49242
"HOOK-SUPERX, L.L.C.",10 EAST 81ST AVENUE,,"MERRILLVILLE, IN 46410",http://maps.google.com/maps?q=HOOKSUPERX%20LLC%2C10%20EAST%2081ST%20AVENUE%2C+MERRILLVILLE%2C+IN+46410
"HOOK-SUPERX, L.L.C.",100 NORTH DETROIT ST,,"WARSAW, IN 46580",http://maps.google.com/maps?q=HOOKSUPERX%20LLC%2C100%20NORTH%20DETROIT%20ST%2C+WARSAW%2C+IN+46580
"HOOK-SUPERX, L.L.C.",1195 E RIDGE RD,,"GRIFFITH, IN 46319",http://maps.google.com/maps?q=HOOKSUPERX%20LLC%2C1195%20E%20RIDGE%20RD%2C+GRIFFITH%2C+IN+46319
"HOOK-SUPERX, L.L.C.",1301 119TH ST,,"WHITING, IN 46394",http://maps.google.com/maps?q=HOOKSUPERX%20LLC%2C1301%20119TH%20ST%2C+WHITING%2C+IN+46394
"HOOK-SUPERX, L.L.C.",1350 BROADWAY ST,,"GARY, IN 46407",http://maps.google.com/maps?q=HOOKSUPERX%20LLC%2C1350%20BROADWAY%20ST%2C+GARY%2C+IN+46407
"HOOK-SUPERX, L.L.C.",1407 LINCOLNWAY,,"LAPORTE, IN 46350",http://maps.google.com/maps?q=HOOKSUPERX%20LLC%2C1407%20LINCOLNWAY%2C+LAPORTE%2C+IN+46350
"HOOK-SUPERX, L.L.C.",1805 CALUMET AVE.,,"VALPARAISO, IN 46383",http://maps.google.com/maps?q=HOOKSUPERX%20LLC%2C1805%20CALUMET%20AVE.%2C+VALPARAISO%2C+IN+46383
"HOOK-SUPERX, L.L.C.",2106 BROADWAY ST,,"EAST CHICAGO, IN 46312",http://maps.google.com/maps?q=HOOKSUPERX%20LLC%2C2106%20BROADWAY%20ST%2C+EAST%20CHICAGO%2C+IN+46312
"HOOK-SUPERX, L.L.C.",2272 NORTH MAIN ST.,,"CROWNPOINT, IN 46307",http://maps.google.com/maps?q=HOOKSUPERX%20LLC%2C2272%20NORTH%20MAIN%20ST.%2C+CROWNPOINT%2C+IN+46307
"HOOK-SUPERX, L.L.C.",2802 EAST STATE BOULEVARD,,"FORT WAYNE, IN 46805",http://maps.google.com/maps?q=HOOKSUPERX%20LLC%2C2802%20EAST%20STATE%20BOULEVARD%2C+FORT%20WAYNE%2C+IN+46805
"HOOK-SUPERX, L.L.C.","3240 WILLOWCREEK RD.,",,"PORTAGE, IN 46368",http://maps.google.com/maps?q=HOOKSUPERX%20LLC%2C3240%20WILLOWCREEK%20RD.%2C%2C+PORTAGE%2C+IN+46368
"HOOK-SUPERX, L.L.C.",3253 FRANKLIN ST.,,"MICHIGAN CITY, IN 46360",http://maps.google.com/maps?q=HOOKSUPERX%20LLC%2C3253%20FRANKLIN%20ST.%2C+MICHIGAN%20CITY%2C+IN+46360
"HOOK-SUPERX, L.L.C.",3400 N CALUMET AVE,,"VALPARAISO, IN 46383",http://maps.google.com/maps?q=HOOKSUPERX%20LLC%2C3400%20N%20CALUMET%20AVE%2C+VALPARAISO%2C+IN+46383
"HOOK-SUPERX, L.L.C.",6445 CALUMET AVE.,,"HAMMOND, IN 46324",http://maps.google.com/maps?q=HOOKSUPERX%20LLC%2C6445%20CALUMET%20AVE.%2C+HAMMOND%2C+IN+46324
IPHARMACY,31193 PLYMOUTH RD,,"LIVONIA, MI 48150",http://maps.google.com/maps?q=IPHARMACY%2C31193%20PLYMOUTH%20RD%2C+LIVONIA%2C+MI+48150
KARMANOS CANCER HOSPITAL PHARMACY,4100 JOHN R,SUITE HP00RX,"DETROIT, MI 48201",http://maps.google.com/maps?q=KARMANOS%20CANCER%20HOSPITAL%20PHARMACY%2C4100%20JOHN%20R%2C+DETROIT%2C+MI+48201
KEYSTONE PHARMACY,4021 CASCADE ROAD SE,,"GRAND RAPIDS, MI 49546",http://maps.google.com/maps?q=KEYSTONE%20PHARMACY%2C4021%20CASCADE%20ROAD%20SE%2C+GRAND%20RAPIDS%2C+MI+49546
KRONNER PHARMACY INC,778 W HOUGHTON LAKE DR,PO BOX 116,"PRUDENVILLE, MI 48651",http://maps.google.com/maps?q=KRONNER%20PHARMACY%20INC%2C778%20W%20HOUGHTON%20LAKE%20DR%2C+PRUDENVILLE%2C+MI+48651
LAKELAND MEDICAL CENTER,31 NORTH ST JOSEPH STREET,,"NILES, MI 49120",http://maps.google.com/maps?q=LAKELAND%20MEDICAL%20CENTER%2C31%20NORTH%20ST%20JOSEPH%20STREET%2C+NILES%2C+MI+49120
LAKELAND MEDICAL CENTER ST JOSEPH,1234 NAPIER AVENUE,,"ST JOSEPH, MI 49085",http://maps.google.com/maps?q=LAKELAND%20MEDICAL%20CENTER%20ST%20JOSEPH%2C1234%20NAPIER%20AVENUE%2C+ST%20JOSEPH%2C+MI+49085
LAKELAND PHARMACY SHOPPE,3900 HOLLYWOOD ROAD,,"ST JOSEPH, MI 49085",http://maps.google.com/maps?q=LAKELAND%20PHARMACY%20SHOPPE%2C3900%20HOLLYWOOD%20ROAD%2C+ST%20JOSEPH%2C+MI+49085
LAKESHORE PHARMACIES INC,DBA ALLEGAN COMMUNITY PHARMACY,115 LOCUST STREET,"ALLEGAN, MI 49010",http://maps.google.com/maps?q=LAKESHORE%20PHARMACIES%20INC%2CDBA%20ALLEGAN%20COMMUNITY%20PHARMACY%2C+ALLEGAN%2C+MI+49010
LINCOLN DRUGS INC,25901 COOLIDGE RD,,"OAK PARK, MI 48237",http://maps.google.com/maps?q=LINCOLN%20DRUGS%20INC%2C25901%20COOLIDGE%20RD%2C+OAK%20PARK%2C+MI+48237
LONG TERM CARE NASH DRUGS,44 NORTH HOWELL STREET,SUITE A,"HILLSDALE, MI 49242",http://maps.google.com/maps?q=LONG%20TERM%20CARE%20NASH%20DRUGS%2C44%20NORTH%20HOWELL%20STREET%2C+HILLSDALE%2C+MI+49242
MCBAIN FAMILY PHARMACY,119 N ROLAND ST,,"MC BAIN, MI 49657",http://maps.google.com/maps?q=MCBAIN%20FAMILY%20PHARMACY%2C119%20N%20ROLAND%20ST%2C+MC%20BAIN%2C+MI+49657
MCLAREN DRUG SHOP-AMB,200 SOUTH WENONA STREET,,"BAY CITY, MI 48706",http://maps.google.com/maps?q=MCLAREN%20DRUG%20SHOPAMB%2C200%20SOUTH%20WENONA%20STREET%2C+BAY%20CITY%2C+MI+48706
MCLAREN DRUG SHOP-BRMC,1900 COLUMBUS AVENUE,,"BAY CITY, MI 48708",http://maps.google.com/maps?q=MCLAREN%20DRUG%20SHOPBRMC%2C1900%20COLUMBUS%20AVENUE%2C+BAY%20CITY%2C+MI+48708
MCLAREN DRUG SHOP-VASSAR,181 WEST HURON ROAD,,"VASSAR, MI 48768",http://maps.google.com/maps?q=MCLAREN%20DRUG%20SHOPVASSAR%2C181%20WEST%20HURON%20ROAD%2C+VASSAR%2C+MI+48768
MCLAREN DRUG SHOP-WSMM,4175 NORTH EUCLID AVENUE,,"BAY CITY, MI 48706",http://maps.google.com/maps?q=MCLAREN%20DRUG%20SHOPWSMM%2C4175%20NORTH%20EUCLID%20AVENUE%2C+BAY%20CITY%2C+MI+48706
MIDMICHIGAN COMMUNITY HEALTH SERVICES,9249 W LAKE CITY RD,,"HOUGHTON LAKE, MI 48629",http://maps.google.com/maps?q=MIDMICHIGAN%20COMMUNITY%20HEALTH%20SERVICES%2C9249%20W%20LAKE%20CITY%20RD%2C+HOUGHTON%20LAKE%2C+MI+48629
MIDMICHIGAN MEDICAL CENTER - ALPENA,1501 W. CHISHOLM ST.,,"ALPENA, MI 49707",http://maps.google.com/maps?q=MIDMICHIGAN%20MEDICAL%20CENTER%20%20ALPENA%2C1501%20W.%20CHISHOLM%20ST.%2C+ALPENA%2C+MI+49707
MIDMICHIGAN MEDICAL CENTER - MT PLEASANT,4851 E PICKARD ST,,"MOUNT PLEASANT, MI 48858",http://maps.google.com/maps?q=MIDMICHIGAN%20MEDICAL%20CENTER%20%20MT%20PLEASANT%2C4851%20E%20PICKARD%20ST%2C+MOUNT%20PLEASANT%2C+MI+48858
MILLINGTON PHARMACY LLC,8542 STATE RD,,"MILLINGTON, MI 48746",http://maps.google.com/maps?q=MILLINGTON%20PHARMACY%20LLC%2C8542%20STATE%20RD%2C+MILLINGTON%2C+MI+48746
MISSION PHARMACY LLC,926 S MISSION ST,,"MT PLEASANT, MI 48858",http://maps.google.com/maps?q=MISSION%20PHARMACY%20LLC%2C926%20S%20MISSION%20ST%2C+MT%20PLEASANT%2C+MI+48858
MUNSON HEALTHCARE MANISTEE HOSPITAL,1465 EAST PARKDALE AVENUE,,"MANISTEE, MI 49660",http://maps.google.com/maps?q=MUNSON%20HEALTHCARE%20MANISTEE%20HOSPITAL%2C1465%20EAST%20PARKDALE%20AVENUE%2C+MANISTEE%2C+MI+49660
MUSKEGON FAMILY CARE PHARMACY,2201 S GETTY STREET,,"MUSKEGON, MI 49444",http://maps.google.com/maps?q=MUSKEGON%20FAMILY%20CARE%20PHARMACY%2C2201%20S%20GETTY%20STREET%2C+MUSKEGON%2C+MI+49444
NASH DRUGS INC,237 E CHICAGO ST,,"JONESVILLE, MI 49250",http://maps.google.com/maps?q=NASH%20DRUGS%20INC%2C237%20E%20CHICAGO%20ST%2C+JONESVILLE%2C+MI+49250
NASH DRUGS INC,30 NORTH HOWELL STREET,,"HILLSDALE, MI 49242",http://maps.google.com/maps?q=NASH%20DRUGS%20INC%2C30%20NORTH%20HOWELL%20STREET%2C+HILLSDALE%2C+MI+49242
NEW HUDSON DISCOUNT PHCY,56270 GRAND RIVER,P.O. BOX 218,"NEW HUDSON, MI 48165",http://maps.google.com/maps?q=NEW%20HUDSON%20DISCOUNT%20PHCY%2C56270%20GRAND%20RIVER%2C+NEW%20HUDSON%2C+MI+48165
NIMKEE MEMORIAL WELLNESS CENTER,SAGINAW CHIPPEWA INDIAN TRIBE,2591 S LEATON ROAD,"MOUNT PLEASANT, MI 48858",http://maps.google.com/maps?q=NIMKEE%20MEMORIAL%20WELLNESS%20CENTER%2CSAGINAW%20CHIPPEWA%20INDIAN%20TRIBE%2C+MOUNT%20PLEASANT%2C+MI+48858
NORTH SAGINAW PHARMACY,2918 NORTH SAGINAW STREET,,"FLINT, MI 48505",http://maps.google.com/maps?q=NORTH%20SAGINAW%20PHARMACY%2C2918%20NORTH%20SAGINAW%20STREET%2C+FLINT%2C+MI+48505
NORTH SHORE PHARMACY,2490 CENTRAL AVENUE,,"LAKE STATION, IN 46405",http://maps.google.com/maps?q=NORTH%20SHORE%20PHARMACY%2C2490%20CENTRAL%20AVENUE%2C+LAKE%20STATION%2C+IN+46405
NORTHSHORE HEALTH CENTER,3564 SCOTTSDALE ST.,,"PORTAGE, IN 46368",http://maps.google.com/maps?q=NORTHSHORE%20HEALTH%20CENTER%2C3564%20SCOTTSDALE%20ST.%2C+PORTAGE%2C+IN+46368
NORTHWEST OHIO PSYCHIATRIC HOSPITAL,930 SOUTH DETROIT AVENUE,,"TOLEDO, OH 43614",http://maps.google.com/maps?q=NORTHWEST%20OHIO%20PSYCHIATRIC%20HOSPITAL%2C930%20SOUTH%20DETROIT%20AVENUE%2C+TOLEDO%2C+OH+43614
NORTHWESTERN MEMORIAL HOSP,251 E. HURON,,"CHICAGO, IL 60611",http://maps.google.com/maps?q=NORTHWESTERN%20MEMORIAL%20HOSP%2C251%20E.%20HURON%2C+CHICAGO%2C+IL+60611
"OHIO CVS STORES, L.L.C.",100 E. MAIN ST.,,"WOODVILLE, OH 43469",http://maps.google.com/maps?q=OHIO%20CVS%20STORES%20LLC%2C100%20E.%20MAIN%20ST.%2C+WOODVILLE%2C+OH+43469
"OHIO CVS STORES, L.L.C.",4121 MONROE STREET,,"TOLEDO, OH 43606",http://maps.google.com/maps?q=OHIO%20CVS%20STORES%20LLC%2C4121%20MONROE%20STREET%2C+TOLEDO%2C+OH+43606
OMEGA PHARMACY,420 W. HURON,,"PONTIAC, MI 48341",http://maps.google.com/maps?q=OMEGA%20PHARMACY%2C420%20W.%20HURON%2C+PONTIAC%2C+MI+48341
OSSINEKE PHARMACY,11745 US 23 SOUTH,,"OSSINEKE, MI 49766",http://maps.google.com/maps?q=OSSINEKE%20PHARMACY%2C11745%20US%2023%20SOUTH%2C+OSSINEKE%2C+MI+49766
PALM PHARMACY,6650 GREENFIELD RD,,"DEARBORN, MI 48126",http://maps.google.com/maps?q=PALM%20PHARMACY%2C6650%20GREENFIELD%20RD%2C+DEARBORN%2C+MI+48126
PATTERSONS PHARMACY,2144 HOYT STREET,,"MUSKEGON HEIGHTS, MI 49444",http://maps.google.com/maps?q=PATTERSONS%20PHARMACY%2C2144%20HOYT%20STREET%2C+MUSKEGON%20HEIGHTS%2C+MI+49444
PAULS PHARMACY INC,803 LINCOLN AVENUE,,"HOLLAND, MI 49423",http://maps.google.com/maps?q=PAULS%20PHARMACY%20INC%2C803%20LINCOLN%20AVENUE%2C+HOLLAND%2C+MI+49423
PAW PAW VILLAGE DRUGS,322 E. MICHIGAN AVENUE,,"PAW PAW, MI 49079",http://maps.google.com/maps?q=PAW%20PAW%20VILLAGE%20DRUGS%2C322%20E.%20MICHIGAN%20AVENUE%2C+PAW%20PAW%2C+MI+49079
PHILS DISCOUNT DRUGS,702 E. LINCOLNWAY,,"LAPORTE, IN 46350",http://maps.google.com/maps?q=PHILS%20DISCOUNT%20DRUGS%2C702%20E.%20LINCOLNWAY%2C+LAPORTE%2C+IN+46350
POKAGON BAND OF POTAWATOMI INDIANS,32652 KNO DRIVE,,"DOWAGIAC, MI 49047",http://maps.google.com/maps?q=POKAGON%20BAND%20OF%20POTAWATOMI%20INDIANS%2C32652%20KNO%20DRIVE%2C+DOWAGIAC%2C+MI+49047
PROFESSIONAL PHARMACY,9175 CHERRY VALLEY AVE SE,,"CALEDONIA, MI 49316",http://maps.google.com/maps?q=PROFESSIONAL%20PHARMACY%2C9175%20CHERRY%20VALLEY%20AVE%20SE%2C+CALEDONIA%2C+MI+49316
PROMEDICA DEFIANCE REGIONAL HOSPITAL,1200 RALSTON AVENUE,,"DEFIANCE, OH 43512",http://maps.google.com/maps?q=PROMEDICA%20DEFIANCE%20REGIONAL%20HOSPITAL%2C1200%20RALSTON%20AVENUE%2C+DEFIANCE%2C+OH+43512
PROMEDICA MEMORIAL HOSPITAL,PHARMACY,715 SOUTH TAFT AVE,"FREMONT, OH 43420",http://maps.google.com/maps?q=PROMEDICA%20MEMORIAL%20HOSPITAL%2CPHARMACY%2C+FREMONT%2C+OH+43420
R & R PRESCRIPTION SERVICES,560 WEST MITCHELL,SUITE #200,"PETOSKEY, MI 49770",http://maps.google.com/maps?q=R%20%20R%20PRESCRIPTION%20SERVICES%2C560%20WEST%20MITCHELL%2C+PETOSKEY%2C+MI+49770
RIVER PHARMACY INC,124 AMES ST,,"ELK RAPIDS, MI 49629",http://maps.google.com/maps?q=RIVER%20PHARMACY%20INC%2C124%20AMES%20ST%2C+ELK%20RAPIDS%2C+MI+49629
ROGERS PHARMACY,316 WEST NEPESSING STREET,,"LAPEER, MI 48446",http://maps.google.com/maps?q=ROGERS%20PHARMACY%2C316%20WEST%20NEPESSING%20STREET%2C+LAPEER%2C+MI+48446
ROGERS PHARMACY OF CAPAC,316 W NEPESSING ST,,"LAPEER, MI 48446",http://maps.google.com/maps?q=ROGERS%20PHARMACY%20OF%20CAPAC%2C316%20W%20NEPESSING%20ST%2C+LAPEER%2C+MI+48446
RX CARE OF MI LLC,25014 LITTLEMACK AVE,,"SAINT CLAIR SHORES, MI 48080",http://maps.google.com/maps?q=RX%20CARE%20OF%20MI%20LLC%2C25014%20LITTLEMACK%20AVE%2C+SAINT%20CLAIR%20SHORES%2C+MI+48080
SCHEURER FAMILY PHARMACY,168 N. CASEVILLE ROAD,,"PIGEON, MI 48755",http://maps.google.com/maps?q=SCHEURER%20FAMILY%20PHARMACY%2C168%20N.%20CASEVILLE%20ROAD%2C+PIGEON%2C+MI+48755
SCHEURER FAMILY PHARMACY,4970 RAILROAD STREET,,"ELKTON, MI 48731",http://maps.google.com/maps?q=SCHEURER%20FAMILY%20PHARMACY%2C4970%20RAILROAD%20STREET%2C+ELKTON%2C+MI+48731
SCHEURER FAMILY PHARMACY,6568 MAIN ST,,"CASEVILLE, MI 48725",http://maps.google.com/maps?q=SCHEURER%20FAMILY%20PHARMACY%2C6568%20MAIN%20ST%2C+CASEVILLE%2C+MI+48725
SCHEURER FAMILY PHARMACY,8866 S UNIONVILLE RD,,"SEBEWAING, MI 48759",http://maps.google.com/maps?q=SCHEURER%20FAMILY%20PHARMACY%2C8866%20S%20UNIONVILLE%20RD%2C+SEBEWAING%2C+MI+48759
SHAW'S PHARMACY INC,221 N SAGINAW STREET,,"DURAND, MI 48429",http://maps.google.com/maps?q=SHAWS%20PHARMACY%20INC%2C221%20N%20SAGINAW%20STREET%2C+DURAND%2C+MI+48429
SHELDON PHARMACY OF YALE INC,25 SOUTH MAIN ST,,"YALE, MI 48097",http://maps.google.com/maps?q=SHELDON%20PHARMACY%20OF%20YALE%20INC%2C25%20SOUTH%20MAIN%20ST%2C+YALE%2C+MI+48097
SINDECUSE HEALTH CENTER,NORTH GILKISON AVENUE,,"KALAMAZOO, MI 49008",http://maps.google.com/maps?q=SINDECUSE%20HEALTH%20CENTER%2CNORTH%20GILKISON%20AVENUE%2C+KALAMAZOO%2C+MI+49008
ST JOHN PHARMACY,17900 23 MILE ROAD,SUITE #104,"MACOMB TOWNSHIP, MI 48044",http://maps.google.com/maps?q=ST%20JOHN%20PHARMACY%2C17900%2023%20MILE%20ROAD%2C+MACOMB%20TOWNSHIP%2C+MI+48044
ST JOHN PHARMACY,22151 MOROSS ROAD,SUITE G-25,"DETROIT, MI 48236",http://maps.google.com/maps?q=ST%20JOHN%20PHARMACY%2C22151%20MOROSS%20ROAD%2C+DETROIT%2C+MI+48236
ST JOHN PHARMACY,26850 PROVIDENCE PARKWAY,SUITE 100,"NOVI, MI 48374",http://maps.google.com/maps?q=ST%20JOHN%20PHARMACY%2C26850%20PROVIDENCE%20PARKWAY%2C+NOVI%2C+MI+48374
ST JOHN PHARMACY,812 EAST JOLLY ROAD,SUITE #208,"LANSING, MI 48910",http://maps.google.com/maps?q=ST%20JOHN%20PHARMACY%2C812%20EAST%20JOLLY%20ROAD%2C+LANSING%2C+MI+48910
STATE STREET PHARMACY & WELLNESS CENTER,192 NORTH STATE STREET,,"CARO, MI 48723",http://maps.google.com/maps?q=STATE%20STREET%20PHARMACY%20%20WELLNESS%20CENTER%2C192%20NORTH%20STATE%20STREET%2C+CARO%2C+MI+48723
THE MEDICINE SHOPPE #1675,500 N JAMES STREET,,"GRAYLING, MI 49738",http://maps.google.com/maps?q=THE%20MEDICINE%20SHOPPE%2C500%20N%20JAMES%20STREET%2C+GRAYLING%2C+MI+49738
THE WELLNESS PLAN,2888 WEST GRAND BLVD.,,"DETROIT, MI 48202",http://maps.google.com/maps?q=THE%20WELLNESS%20PLAN%2C2888%20WEST%20GRAND%20BLVD.%2C+DETROIT%2C+MI+48202
THREE RIVERS HEALTH,701 S. HEALTH PARKWAY,,"THREE RIVERS, MI 49093",http://maps.google.com/maps?q=THREE%20RIVERS%20HEALTH%2C701%20S.%20HEALTH%20PARKWAY%2C+THREE%20RIVERS%2C+MI+49093
THUNDER BAY PHARMACY,11899 M-32,PO BOX 850,"ATLANTA, MI 49709",http://maps.google.com/maps?q=THUNDER%20BAY%20PHARMACY%2C11899%20M-32%2C+ATLANTA%2C+MI+49709
THUNDER BAY PHARMACY ONAWAY,21258 WEST M-68 HIGHWAY,PO BOX 722,"ONAWAY, MI 49765",http://maps.google.com/maps?q=THUNDER%20BAY%20PHARMACY%20ONAWAY%2C21258%20WEST%20M-68%20HIGHWAY%2C+ONAWAY%2C+MI+49765
TODDS PHARMACY INC,25871 FORD ROAD,,"DEARBORN HEIGHTS, MI 48127",http://maps.google.com/maps?q=TODDS%20PHARMACY%20INC%2C25871%20FORD%20ROAD%2C+DEARBORN%20HEIGHTS%2C+MI+48127
TOLEDO HOSPITAL,ATTENTION DEPT OF PHARMACY,2142 NORTH COVE BLVD,"TOLEDO, OH 43606",http://maps.google.com/maps?q=TOLEDO%20HOSPITAL%2CATTENTION%20DEPT%20OF%20PHARMACY%2C+TOLEDO%2C+OH+43606
TOWN CENTER PHARMACY,1201 FLUSHING ROAD,SUITE 2,"FLINT, MI 48504",http://maps.google.com/maps?q=TOWN%20CENTER%20PHARMACY%2C1201%20FLUSHING%20ROAD%2C+FLINT%2C+MI+48504
UNION PRESCRIPTION CENTER I INC,11830 NORTH SAGINAW STREET,,"MOUNT MORRIS, MI 48458",http://maps.google.com/maps?q=UNION%20PRESCRIPTION%20CENTER%20I%20INC%2C11830%20NORTH%20SAGINAW%20STREET%2C+MOUNT%20MORRIS%2C+MI+48458
UNIVERSITY OF CHICAGO DCAM OUTPATIENT PHARMACY,5758 S. MARYLAND AVENUE,MC0010,"CHICAGO, IL 60637",http://maps.google.com/maps?q=UNIVERSITY%20OF%20CHICAGO%20DCAM%20OUTPATIENT%20PHARMACY%2C5758%20S.%20MARYLAND%20AVENUE%2C+CHICAGO%2C+IL+60637
UNIVERSITY OF MICHIGAN,207 FLETCHER STREET,,"ANN ARBOR, MI 48109",http://maps.google.com/maps?q=UNIVERSITY%20OF%20MICHIGAN%2C207%20FLETCHER%20STREET%2C+ANN%20ARBOR%2C+MI+48109
VANS PHARMACY INC,807 NAPIER AVENUE,,"SAINT JOSEPH, MI 49085",http://maps.google.com/maps?q=VANS%20PHARMACY%20INC%2C807%20NAPIER%20AVENUE%2C+SAINT%20JOSEPH%2C+MI+49085
VENOY RX,4515 SOUTH TELEGRAPH RD,,"DEARBORN HEIGHTS, MI 48125",http://maps.google.com/maps?q=VENOY%20RX%2C4515%20SOUTH%20TELEGRAPH%20RD%2C+DEARBORN%20HEIGHTS%2C+MI+48125
VETERANS ADMIN OUTPATIENT,1200 SOUTH DETROIT AVENUE,PHARMACY 119,"TOLEDO, OH 43614",http://maps.google.com/maps?q=VETERANS%20ADMIN%20OUTPATIENT%2C1200%20SOUTH%20DETROIT%20AVENUE%2C+TOLEDO%2C+OH+43614
VETERANS ADMINISTRATION MEDICAL CENTER,PHARMACY SERVICES,2215 FULLER ROAD,"ANN ARBOR, MI 48105",http://maps.google.com/maps?q=VETERANS%20ADMINISTRATION%20MEDICAL%20CENTER%2CPHARMACY%20SERVICES%2C+ANN%20ARBOR%2C+MI+48105
VYTO'S PHARMACY,6949 KENNEDY AVENUE,UNIT C,"HAMMOND, IN 46323",http://maps.google.com/maps?q=VYTOS%20PHARMACY%2C6949%20KENNEDY%20AVENUE%2C+HAMMOND%2C+IN+46323
WALGREEN CO,25700 FORD RD,,"DEARBORN HEIGHTS, MI 48127",http://maps.google.com/maps?q=WALGREEN%20CO%2C25700%20FORD%20RD%2C+DEARBORN%20HEIGHTS%2C+MI+48127
WALGREEN CO.,10412 COLDWATER ROAD,,"FT WAYNE, IN 46845",http://maps.google.com/maps?q=WALGREEN%20CO%2C10412%20COLDWATER%20ROAD%2C+FT%20WAYNE%2C+IN+46845
WALGREEN CO.,1220 N MITCHELL,,"CADILLAC, MI 49601",http://maps.google.com/maps?q=WALGREEN%20CO%2C1220%20N%20MITCHELL%2C+CADILLAC%2C+MI+49601
WALGREEN CO.,1260 HILLTOP RD,,"SAINT JOSEPH, MI 49085",http://maps.google.com/maps?q=WALGREEN%20CO%2C1260%20HILLTOP%20RD%2C+SAINT%20JOSEPH%2C+MI+49085
WALGREEN CO.,1314 N WEST AVE,,"JACKSON, MI 49202",http://maps.google.com/maps?q=WALGREEN%20CO%2C1314%20N%20WEST%20AVE%2C+JACKSON%2C+MI+49202
WALGREEN CO.,151 N. STATE ST.,,"CHICAGO, IL 60601",http://maps.google.com/maps?q=WALGREEN%20CO%2C151%20N.%20STATE%20ST.%2C+CHICAGO%2C+IL+60601
WALGREEN CO.,16741 CANAL RD,,"CLINTON TOWNSHIP, MI 48038",http://maps.google.com/maps?q=WALGREEN%20CO%2C16741%20CANAL%20RD%2C+CLINTON%20TOWNSHIP%2C+MI+48038
WALGREEN CO.,1991 E APPLE AVE,,"MUSKEGON, MI 49442",http://maps.google.com/maps?q=WALGREEN%20CO%2C1991%20E%20APPLE%20AVE%2C+MUSKEGON%2C+MI+49442
WALGREEN CO.,2001 N MILWAUKEE AVE,,"CHICAGO, IL 60647",http://maps.google.com/maps?q=WALGREEN%20CO%2C2001%20N%20MILWAUKEE%20AVE%2C+CHICAGO%2C+IL+60647
WALGREEN CO.,2500 GRANT ST,,"GARY, IN 46404",http://maps.google.com/maps?q=WALGREEN%20CO%2C2500%20GRANT%20ST%2C+GARY%2C+IN+46404
WALGREEN CO.,29030 NORTHWESTERN HWY,,"SOUTHFIELD, MI 48034",http://maps.google.com/maps?q=WALGREEN%20CO%2C29030%20NORTHWESTERN%20HWY%2C+SOUTHFIELD%2C+MI+48034
WALGREEN CO.,30852 WOODWARD AVE,,"ROYAL OAK, MI 48073",http://maps.google.com/maps?q=WALGREEN%20CO%2C30852%20WOODWARD%20AVE%2C+ROYAL%20OAK%2C+MI+48073
WALGREEN CO.,31100 GROESBECK HWY.,,"FRASER, MI 48026",http://maps.google.com/maps?q=WALGREEN%20CO%2C31100%20GROESBECK%20HWY.%2C+FRASER%2C+MI+48026
WALGREEN CO.,3405 S KING DR,,"CHICAGO, IL 60616",http://maps.google.com/maps?q=WALGREEN%20CO%2C3405%20S%20KING%20DR%2C+CHICAGO%2C+IL+60616
WALGREEN CO.,410 E JOLLY ROAD,,"LANSING, MI 48910",http://maps.google.com/maps?q=WALGREEN%20CO%2C410%20E%20JOLLY%20ROAD%2C+LANSING%2C+MI+48910
WALGREEN CO.,4580 MONROE ST,,"TOLEDO, OH 43613",http://maps.google.com/maps?q=WALGREEN%20CO%2C4580%20MONROE%20ST%2C+TOLEDO%2C+OH+43613
WALGREEN CO.,494 BUTTERNUT,,"HOLLAND, MI 49424",http://maps.google.com/maps?q=WALGREEN%20CO%2C494%20BUTTERNUT%2C+HOLLAND%2C+MI+49424
WALGREEN CO.,4989 STATE ST,,"SAGINAW, MI 48603",http://maps.google.com/maps?q=WALGREEN%20CO%2C4989%20STATE%20ST%2C+SAGINAW%2C+MI+48603
WALGREEN CO.,5020 W MAIN,,"KALAMAZOO, MI 49009",http://maps.google.com/maps?q=WALGREEN%20CO%2C5020%20W%20MAIN%2C+KALAMAZOO%2C+MI+49009
WALGREEN CO.,522 TORRENCE AVE,,"CALUMET CITY, IL 60409",http://maps.google.com/maps?q=WALGREEN%20CO%2C522%20TORRENCE%20AVE%2C+CALUMET%20CITY%2C+IL+60409
WALGREEN CO.,5709 S TELEGRAPH RD,,"DEARBORN HEIGHTS, MI 48125",http://maps.google.com/maps?q=WALGREEN%20CO%2C5709%20S%20TELEGRAPH%20RD%2C+DEARBORN%20HEIGHTS%2C+MI+48125
WALGREEN CO.,6001 CENTRAL AVE,,"PORTAGE, IN 46368",http://maps.google.com/maps?q=WALGREEN%20CO%2C6001%20CENTRAL%20AVE%2C+PORTAGE%2C+IN+46368
WALGREEN CO.,6020 KALAMAZOO AVE. SE,,"KENTWOOD, MI 49508",http://maps.google.com/maps?q=WALGREEN%20CO%2C6020%20KALAMAZOO%20AVE.%20SE%2C+KENTWOOD%2C+MI+49508
WALGREEN CO.,6201 STELLHORN ROAD,,"FT WAYNE, IN 46815",http://maps.google.com/maps?q=WALGREEN%20CO%2C6201%20STELLHORN%20ROAD%2C+FT%20WAYNE%2C+IN+46815
WALGREEN CO.,6202 WEST JEFFERSON BLVD,,"FT WAYNE, IN 46804",http://maps.google.com/maps?q=WALGREEN%20CO%2C6202%20WEST%20JEFFERSON%20BLVD%2C+FT%20WAYNE%2C+IN+46804
WALGREEN CO.,651 W. US HWY 30,,"SCHERERVILLE, IN 46375",http://maps.google.com/maps?q=WALGREEN%20CO%2C651%20W.%20US%20HWY%2030%2C+SCHERERVILLE%2C+IN+46375
WALGREEN CO.,7110 DIXIE HIGHWAY,,"CLARKSTON, MI 48346",http://maps.google.com/maps?q=WALGREEN%20CO%2C7110%20DIXIE%20HIGHWAY%2C+CLARKSTON%2C+MI+48346
WALGREEN CO.,8628 S COTTAGE GROVE AVE,,"CHICAGO, IL 60619",http://maps.google.com/maps?q=WALGREEN%20CO%2C8628%20S%20COTTAGE%20GROVE%20AVE%2C+CHICAGO%2C+IL+60619
WALGREEN CO.,901 S STATE RD,,"DAVISON, MI 48423",http://maps.google.com/maps?q=WALGREEN%20CO%2C901%20S%20STATE%20RD%2C+DAVISON%2C+MI+48423
WALGREEN CO.,907 SOUTH 11TH ST,,"NILES, MI 49120",http://maps.google.com/maps?q=WALGREEN%20CO%2C907%20SOUTH%2011TH%20ST%2C+NILES%2C+MI+49120
WALGREEN CO.,950 S CENTERVILLE RD,,"STURGIS, MI 49091",http://maps.google.com/maps?q=WALGREEN%20CO%2C950%20S%20CENTERVILLE%20RD%2C+STURGIS%2C+MI+49091
WALKER PHARMACY,838 4TH AVENUE,,"LAKE ODESSA, MI 48849",http://maps.google.com/maps?q=WALKER%20PHARMACY%2C838%204TH%20AVENUE%2C+LAKE%20ODESSA%2C+MI+48849
WELL FUTURE PHARMACY LLC,1442 S. MICHIGAN AVE.,,"CHICAGO, IL 60605",http://maps.google.com/maps?q=WELL%20FUTURE%20PHARMACY%20LLC%2C1442%20S.%20MICHIGAN%20AVE.%2C+CHICAGO%2C+IL+60605
WEST GRANGE PHARMACY LLC,3390 WEST ROAD,,"TRENTON, MI 48183",http://maps.google.com/maps?q=WEST%20GRANGE%20PHARMACY%20LLC%2C3390%20WEST%20ROAD%2C+TRENTON%2C+MI+48183
WEST LAKE DRUG,8822 PORTAGE ROAD,,"PORTAGE, MI 49002",http://maps.google.com/maps?q=WEST%20LAKE%20DRUG%2C8822%20PORTAGE%20ROAD%2C+PORTAGE%2C+MI+49002
WEST SHORE PROFF PHARMACY,1150 E. SHERMAN BOULEVARD,SUITE 1400,"MUSKEGON, MI 49444",http://maps.google.com/maps?q=WEST%20SHORE%20PROFF%20PHARMACY%2C1150%20E.%20SHERMAN%20BOULEVARD%2C+MUSKEGON%2C+MI+49444
WILCOX PHARMACY,140 EAST ROAD,,"DIMONDALE, MI 48821",http://maps.google.com/maps?q=WILCOX%20PHARMACY%2C140%20EAST%20ROAD%2C+DIMONDALE%2C+MI+48821
WINGERTS PHARMACY,315 E MAIN ST,PO BOX 281,"MAYVILLE, MI 48744",http://maps.google.com/maps?q=WINGERTS%20PHARMACY%2C315%20E%20MAIN%20ST%2C+MAYVILLE%2C+MI+48744
"WOODWARD DETROIT CVS, L.L.C.",10011 WEST MCNICHOLS ROAD,,"DETROIT, MI 48221",http://maps.google.com/maps?q=WOODWARD%20DETROIT%20CVS%20LLC%2C10011%20WEST%20MCNICHOLS%20ROAD%2C+DETROIT%2C+MI+48221
"WOODWARD DETROIT CVS, L.L.C.",10915 BELLEVILLE ROAD,,"BELLEVILLE, MI 48111",http://maps.google.com/maps?q=WOODWARD%20DETROIT%20CVS%20LLC%2C10915%20BELLEVILLE%20ROAD%2C+BELLEVILLE%2C+MI+48111
"WOODWARD DETROIT CVS, L.L.C.",132 DOUGLAS AVE.,,"HOLLAND, MI 49424",http://maps.google.com/maps?q=WOODWARD%20DETROIT%20CVS%20LLC%2C132%20DOUGLAS%20AVE.%2C+HOLLAND%2C+MI+49424
"WOODWARD DETROIT CVS, L.L.C.",2235 EAST GRAND RIVER AVE.,,"HOWELL, MI 48843",http://maps.google.com/maps?q=WOODWARD%20DETROIT%20CVS%20LLC%2C2235%20EAST%20GRAND%20RIVER%20AVE.%2C+HOWELL%2C+MI+48843
"WOODWARD DETROIT CVS, L.L.C.",2400 FORT ST.,,"LINCOLN PARK, MI 48146",http://maps.google.com/maps?q=WOODWARD%20DETROIT%20CVS%20LLC%2C2400%20FORT%20ST.%2C+LINCOLN%20PARK%2C+MI+48146
"WOODWARD DETROIT CVS, L.L.C.",25109 RYAN,,"WARREN, MI 48091",http://maps.google.com/maps?q=WOODWARD%20DETROIT%20CVS%20LLC%2C25109%20RYAN%2C+WARREN%2C+MI+48091
"WOODWARD DETROIT CVS, L.L.C.",27435 FORD RD.,,"GARDEN CITY, MI 48135",http://maps.google.com/maps?q=WOODWARD%20DETROIT%20CVS%20LLC%2C27435%20FORD%20RD.%2C+GARDEN%20CITY%2C+MI+48135
"WOODWARD DETROIT CVS, L.L.C.",30900 WOODWARD,,"ROYAL OAK, MI 48073",http://maps.google.com/maps?q=WOODWARD%20DETROIT%20CVS%20LLC%2C30900%20WOODWARD%2C+ROYAL%20OAK%2C+MI+48073
"WOODWARD DETROIT CVS, L.L.C.",37050 GRATOIT,,"CLINTON TWP, MI 48036",http://maps.google.com/maps?q=WOODWARD%20DETROIT%20CVS%20LLC%2C37050%20GRATOIT%2C+CLINTON%20TWP%2C+MI+48036
"WOODWARD DETROIT CVS, L.L.C.",37340 FIVE MILE RD.,,"LIVONIA, MI 48154",http://maps.google.com/maps?q=WOODWARD%20DETROIT%20CVS%20LLC%2C37340%20FIVE%20MILE%20RD.%2C+LIVONIA%2C+MI+48154
"WOODWARD DETROIT CVS, L.L.C.",40925 GARFIELD ROAD,,"CLINTON TWP, MI 48038",http://maps.google.com/maps?q=WOODWARD%20DETROIT%20CVS%20LLC%2C40925%20GARFIELD%20ROAD%2C+CLINTON%20TWP%2C+MI+48038
"WOODWARD DETROIT CVS, L.L.C.",727 28TH ST. SE,,"GRAND RAPIDS, MI 49548",http://maps.google.com/maps?q=WOODWARD%20DETROIT%20CVS%20LLC%2C727%2028TH%20ST.%20SE%2C+GRAND%20RAPIDS%2C+MI+49548
"WOODWARD DETROIT CVS, LLC",18500 GRAND RIVER,,"DETROIT, MI 48223",http://maps.google.com/maps?q=WOODWARD%20DETROIT%20CVS%20LLC%2C18500%20GRAND%20RIVER%2C+DETROIT%2C+MI+48223
