Business Name,Address 1,Address 2,"City, State Zip",Map URL
ADEL HEALTHMART,113  N. 9TH ST,,"ADEL, IA 50003",http://maps.google.com/maps?q=ADEL%20HEALTHMART%2C113%20%20N.%209TH%20ST%2C+ADEL%2C+IA+50003
ALCONA HEALTH CENTER PHARMACY,177 N BARLOW,,"LINCOLN, MI 48742",http://maps.google.com/maps?q=ALCONA%20HEALTH%20CENTER%20PHARMACY%2C177%20N%20BARLOW%2C+LINCOLN%2C+MI+48742
ALCONA HEALTH CENTER PHARMACY SERVICES,1185 US 23 NORTH,,"ALPENA, MI 49707",http://maps.google.com/maps?q=ALCONA%20HEALTH%20CENTER%20PHARMACY%20SERVICES%2C1185%20US%2023%20NORTH%2C+ALPENA%2C+MI+49707
ALL CARE HEALTH CENTER,902 SOUTH 6TH STREET,,"COUNCIL BLUFFS, IA 51501",http://maps.google.com/maps?q=ALL%20CARE%20HEALTH%20CENTER%2C902%20SOUTH%206TH%20STREET%2C+COUNCIL%20BLUFFS%2C+IA+51501
ALLEN CLINIC PHARMACY,146 WEST DALE ST,STE 103,"WATERLOO, IA 50703",http://maps.google.com/maps?q=ALLEN%20CLINIC%20PHARMACY%2C146%20WEST%20DALE%20ST%2C+WATERLOO%2C+IA+50703
ANKENY MEDICAL PARK PHARMACY,3625 N ANKENY BLVD,SUITE A,"ANKENY, IA 50023",http://maps.google.com/maps?q=ANKENY%20MEDICAL%20PARK%20PHARMACY%2C3625%20N%20ANKENY%20BLVD%2C+ANKENY%2C+IA+50023
"ASPIRUS IRON RIVER HOSPITAL & CLINICS, INC",1400 WEST ICE LAKE ROAD,,"IRON RIVER, MI 49935",http://maps.google.com/maps?q=ASPIRUS%20IRON%20RIVER%20HOSPITAL%20%20CLINICS%20INC%2C1400%20WEST%20ICE%20LAKE%20ROAD%2C+IRON%20RIVER%2C+MI+49935
BAY MILLS PHARMACY,12124 WEST LAKE SHORE DRIVE,,"BRIMLEY, MI 49715",http://maps.google.com/maps?q=BAY%20MILLS%20PHARMACY%2C12124%20WEST%20LAKE%20SHORE%20DRIVE%2C+BRIMLEY%2C+MI+49715
"BELLAIRE PHARMACY, INC",120  NORTH BRIDGE STREET,PO BOX 272,"BELLAIRE, MI 49615",http://maps.google.com/maps?q=BELLAIRE%20PHARMACY%20INC%2C120%20%20NORTH%20BRIDGE%20STREET%2C+BELLAIRE%2C+MI+49615
BENNETT PHARMACY,1 WEST MAIN,P.O.BOX 111,"NEW HAMPTON, IA 50659",http://maps.google.com/maps?q=BENNETT%20PHARMACY%2C1%20WEST%20MAIN%2C+NEW%20HAMPTON%2C+IA+50659
BENZER IA 1 LLC,101 NORTH WALNUT STREET,,"COLFAX, IA 50054",http://maps.google.com/maps?q=BENZER%20IA%20%20LLC%2C101%20NORTH%20WALNUT%20STREET%2C+COLFAX%2C+IA+50054
BOB'S DRUGS LLC,194 N DIVISION STREET,,"HESPERIA, MI 49421",http://maps.google.com/maps?q=BOBS%20DRUGS%20LLC%2C194%20N%20DIVISION%20STREET%2C+HESPERIA%2C+MI+49421
BROAD STREET PHARMACY,1115 W BROAD STREET,,"CHESANING, MI 48616",http://maps.google.com/maps?q=BROAD%20STREET%20PHARMACY%2C1115%20W%20BROAD%20STREET%2C+CHESANING%2C+MI+48616
BROADLAWNS MEDICAL CENTER,1801 HICKMAN ROAD,,"DES MOINES, IA 50314",http://maps.google.com/maps?q=BROADLAWNS%20MEDICAL%20CENTER%2C1801%20HICKMAN%20ROAD%2C+DES%20MOINES%2C+IA+50314
BRONSON BATTLE CREEK OUTPATIENT PHARMACY,363 FREMONT ST.,SUITE 111,"BATTLE CREEK, MI 49017",http://maps.google.com/maps?q=BRONSON%20BATTLE%20CREEK%20OUTPATIENT%20PHARMACY%2C363%20FREMONT%20ST.%2C+BATTLE%20CREEK%2C+MI+49017
"CADILLAC FAMILY PHARMACY, LLC",108 NORTH MITCHELL,,"CADILLAC, MI 49601",http://maps.google.com/maps?q=CADILLAC%20FAMILY%20PHARMACY%20LLC%2C108%20NORTH%20MITCHELL%2C+CADILLAC%2C+MI+49601
CARROLL APOTHECARY,425 HIGHWAY 30 WEST STE. 140,PO BOX 157,"CARROLL, IA 51401",http://maps.google.com/maps?q=CARROLL%20APOTHECARY%2C425%20HIGHWAY%2030%20WEST%20STE.%20140%2C+CARROLL%2C+IA+51401
CENTER FOR FAMILY HEALTH,505 NORTH JACKSON STREET,,"JACKSON, MI 49201",http://maps.google.com/maps?q=CENTER%20FOR%20FAMILY%20HEALTH%2C505%20NORTH%20JACKSON%20STREET%2C+JACKSON%2C+MI+49201
CENTER PHARMACY,312 9TH SW,,"WAVERLY, IA 50677",http://maps.google.com/maps?q=CENTER%20PHARMACY%2C312%209TH%20SW%2C+WAVERLY%2C+IA+50677
CENTRAL LAKE PHARMACY INC,2424 NORTH MAIN STREET,,"CENTRAL LAKE, MI 49622",http://maps.google.com/maps?q=CENTRAL%20LAKE%20PHARMACY%20INC%2C2424%20NORTH%20MAIN%20STREET%2C+CENTRAL%20LAKE%2C+MI+49622
CHI HEALTH PHARMACY WEST BROADWAY,3135 W BROADWAY,SUITE 101,"COUNCIL BLUFFS, IA 51501",http://maps.google.com/maps?q=CHI%20HEALTH%20PHARMACY%20WEST%20BROADWAY%2C3135%20W%20BROADWAY%2C+COUNCIL%20BLUFFS%2C+IA+51501
CHIPPEWA CO WAR MEMORIAL HOSPITAL,500 OSBORN BLVD,,"SAULT S MARIE, MI 49783",http://maps.google.com/maps?q=CHIPPEWA%20CO%20WAR%20MEMORIAL%20HOSPITAL%2C500%20OSBORN%20BLVD%2C+SAULT%20S%20MARIE%2C+MI+49783
CLARK'S PHARMACY,1946 42ND STREET N.E.,,"CEDAR RAPIDS, IA 52402",http://maps.google.com/maps?q=CLARKS%20PHARMACY%2C1946%2042ND%20STREET%20N.E.%2C+CEDAR%20RAPIDS%2C+IA+52402
CLAYTON DRUG,100 EAST 1ST STREET,,"SUMNER, IA 50674",http://maps.google.com/maps?q=CLAYTON%20DRUG%2C100%20EAST%201ST%20STREET%2C+SUMNER%2C+IA+50674
COBB STREET PHARMACY,520 COBB STREET,,"CADILLAC, MI 49601",http://maps.google.com/maps?q=COBB%20STREET%20PHARMACY%2C520%20COBB%20STREET%2C+CADILLAC%2C+MI+49601
COLEMAN FAMILY PHARMACY,211 E RAILWAY,,"COLEMAN, MI 48618",http://maps.google.com/maps?q=COLEMAN%20FAMILY%20PHARMACY%2C211%20E%20RAILWAY%2C+COLEMAN%2C+MI+48618
COMMUNITY CARE PHARMACY,2700 BAKER STREET,,"MUSKEGON HEIGHTS, MI 49444",http://maps.google.com/maps?q=COMMUNITY%20CARE%20PHARMACY%2C2700%20BAKER%20STREET%2C+MUSKEGON%20HEIGHTS%2C+MI+49444
COMMUNITY HEALTH CENTER,215 13TH AVENUE SW,,"CLARION, IA 50525",http://maps.google.com/maps?q=COMMUNITY%20HEALTH%20CENTER%2C215%2013TH%20AVENUE%20SW%2C+CLARION%2C+IA+50525
COMMUNITY HEALTH CENTER,274 EAST CHICAGO STREET,,"COLDWATER, MI 49036",http://maps.google.com/maps?q=COMMUNITY%20HEALTH%20CENTER%2C274%20EAST%20CHICAGO%20STREET%2C+COLDWATER%2C+MI+49036
COMMUNITY PHARMACY,1321 WEST MAIN,,"LAKE CITY, IA 51449",http://maps.google.com/maps?q=COMMUNITY%20PHARMACY%2C1321%20WEST%20MAIN%2C+LAKE%20CITY%2C+IA+51449
COVENANT FAMILY PHARMACY,2710 ST FRANCIS DR,STE. 101,"WATERLOO, IA 50702",http://maps.google.com/maps?q=COVENANT%20FAMILY%20PHARMACY%2C2710%20ST%20FRANCIS%20DR%2C+WATERLOO%2C+IA+50702
CRIVITZ PHARMACY,"710 MAIN STREET, P.O. BOX 488",,"CRIVITZ, WI 54114",http://maps.google.com/maps?q=CRIVITZ%20PHARMACY%2C710%20MAIN%20STREET%2C%20P.O.%20BOX%20488%2C+CRIVITZ%2C+WI+54114
CURO PHARMACY,4665 44TH STREET SE,SUITE A-1106,"GRAND RAPIDS, MI 49512",http://maps.google.com/maps?q=CURO%20PHARMACY%2C4665%2044TH%20STREET%20SE%2C+GRAND%20RAPIDS%2C+MI+49512
DANIEL PHARMACY,1114 CENTRAL AVENUE,,"FORT DODGE, IA 50501",http://maps.google.com/maps?q=DANIEL%20PHARMACY%2C1114%20CENTRAL%20AVENUE%2C+FORT%20DODGE%2C+IA+50501
DBA NUCARA PHARMACY #10,621 BROAD ST.,,"STORY CITY, IA 50248",http://maps.google.com/maps?q=DBA%20NUCARA%20PHARMACY%2C621%20BROAD%20ST.%2C+STORY%20CITY%2C+IA+50248
DBA NUCARA PHARMACY #12,500 SECOND ST.,,"TRAER, IA 50675",http://maps.google.com/maps?q=DBA%20NUCARA%20PHARMACY%2C500%20SECOND%20ST.%2C+TRAER%2C+IA+50675
DBA NUCARA PHARMACY #16,107 W MAIN,,"OTTUMWA, IA 52501",http://maps.google.com/maps?q=DBA%20NUCARA%20PHARMACY%2C107%20W%20MAIN%2C+OTTUMWA%2C+IA+52501
DBA NUCARA PHARMACY #2,"1150 FIFTH ST., STE. 142",,"CORALVILLE, IA 52241",http://maps.google.com/maps?q=DBA%20NUCARA%20PHARMACY%2C1150%20FIFTH%20ST.%2C%20STE.%20142%2C+CORALVILLE%2C+IA+52241
DBA NUCARA PHARMACY #6,722 MAIN ST.,,"ACKLEY, IA 50601",http://maps.google.com/maps?q=DBA%20NUCARA%20PHARMACY%2C722%20MAIN%20ST.%2C+ACKLEY%2C+IA+50601
DBA NUCARA PHARMACY #7,110 CENTER STREET,,"CONRAD, IA 50621",http://maps.google.com/maps?q=DBA%20NUCARA%20PHARMACY%2C110%20CENTER%20STREET%2C+CONRAD%2C+IA+50621
DBA NUCARA PHARMACY #9,1002 SIXTH ST.,PO BOX 541,"NEVADA, IA 50201",http://maps.google.com/maps?q=DBA%20NUCARA%20PHARMACY%2C1002%20SIXTH%20ST.%2C+NEVADA%2C+IA+50201
"DOTZLER PHARMACIES, INC.",DBA PEXTON PHARMACY,1812 CHATBURN PLAZA,"HARLAN, IA 51537",http://maps.google.com/maps?q=DOTZLER%20PHARMACIES%20INC%2CDBA%20PEXTON%20PHARMACY%2C+HARLAN%2C+IA+51537
DOWD DRUG,307 STATE STREET,BOX 99,"GUTHRIE CENTER, IA 50115",http://maps.google.com/maps?q=DOWD%20DRUG%2C307%20STATE%20STREET%2C+GUTHRIE%20CENTER%2C+IA+50115
EAGLE PHARMACY,311 W BROADWAY,BOX 331,"EAGLE GROVE, IA 50533",http://maps.google.com/maps?q=EAGLE%20PHARMACY%2C311%20W%20BROADWAY%2C+EAGLE%20GROVE%2C+IA+50533
EBY DRUG STORE LOGAN INC,103 NORTH 4TH AVE,P O BOX 187,"LOGAN, IA 51546",http://maps.google.com/maps?q=EBY%20DRUG%20STORE%20LOGAN%20INC%2C103%20NORTH%204TH%20AVE%2C+LOGAN%2C+IA+51546
ELIZABETH'S PHARMACY ON MAIN INC,52 MAIN AVENUE NORTH,,"BRITT, IA 50423",http://maps.google.com/maps?q=ELIZABETHS%20PHARMACY%20ON%20MAIN%20INC%2C52%20MAIN%20AVENUE%20NORTH%2C+BRITT%2C+IA+50423
EVART PHARMACY PLLC,107 N. MAIN ST,,"EVART, MI 49631",http://maps.google.com/maps?q=EVART%20PHARMACY%20PLLC%2C107%20N.%20MAIN%20ST%2C+EVART%2C+MI+49631
FAMILY HEALTH CARE PHARMACY,1035 E WILCOX,,"WHITE CLOUD, MI 49349",http://maps.google.com/maps?q=FAMILY%20HEALTH%20CARE%20PHARMACY%2C1035%20E%20WILCOX%2C+WHITE%20CLOUD%2C+MI+49349
FAMILY HEALTH CARE PHARMACY,11 NORTH MAPLE STREET,,"GRANT, MI 49327",http://maps.google.com/maps?q=FAMILY%20HEALTH%20CARE%20PHARMACY%2C11%20NORTH%20MAPLE%20STREET%2C+GRANT%2C+MI+49327
FAMILY HEALTH CARE PHARMACY,1615 MICHIGAN AVE,,"BALDWIN, MI 49304",http://maps.google.com/maps?q=FAMILY%20HEALTH%20CARE%20PHARMACY%2C1615%20MICHIGAN%20AVE%2C+BALDWIN%2C+MI+49304
"FAMILY HEALTH CENTER, INC",117 W PATERSON,,"KALAMAZOO, MI 49007",http://maps.google.com/maps?q=FAMILY%20HEALTH%20CENTER%20INC%2C117%20W%20PATERSON%2C+KALAMAZOO%2C+MI+49007
GREENE COUNTY MED CTR,1000 W LINCOLNWAY,,"JEFFERSON, IA 50129",http://maps.google.com/maps?q=GREENE%20COUNTY%20MED%20CTR%2C1000%20W%20LINCOLNWAY%2C+JEFFERSON%2C+IA+50129
"GREENWOOD DRUG, INC.",2104 KIMBALL AVE.,,"WATERLOO, IA 50702",http://maps.google.com/maps?q=GREENWOOD%20DRUG%20INC%2C2104%20KIMBALL%20AVE.%2C+WATERLOO%2C+IA+50702
"GRX HOLDINGS, LLC DBA MEDICAP PHARMACY",107 NE DELAWARE AVENUE,STE. 6,"ANKENY, IA 50021",http://maps.google.com/maps?q=GRX%20HOLDINGS%20LLC%20DBA%20MEDICAP%20PHARMACY%2C107%20NE%20DELAWARE%20AVENUE%2C+ANKENY%2C+IA+50021
GULL POINTE PHARMACY,5585 GULL ROAD,SUITE #120,"KALAMAZOO, MI 49048",http://maps.google.com/maps?q=GULL%20POINTE%20PHARMACY%2C5585%20GULL%20ROAD%2C+KALAMAZOO%2C+MI+49048
GUTHRIE COUNTY HOSPITAL,710 NORTH 12TH STREET,,"GUTHRIE CENTER, IA 50115",http://maps.google.com/maps?q=GUTHRIE%20COUNTY%20HOSPITAL%2C710%20NORTH%2012TH%20STREET%2C+GUTHRIE%20CENTER%2C+IA+50115
HACKLEY HEALTHCARE EQUIPMENT,6401 PRAIRIE,SUITE #1100,"MUSKEGON, MI 49444",http://maps.google.com/maps?q=HACKLEY%20HEALTHCARE%20EQUIPMENT%2C6401%20PRAIRIE%2C+MUSKEGON%2C+MI+49444
HACKLEY PHARMACY GLENSIDE,1631 W. SHERMAN,,"MUSKEGON, MI 49441",http://maps.google.com/maps?q=HACKLEY%20PHARMACY%20GLENSIDE%2C1631%20W.%20SHERMAN%2C+MUSKEGON%2C+MI+49441
HACKLEY PROFESSIONAL PHCY,1675 LEAHY ST,,"MUSKEGON, MI 49442",http://maps.google.com/maps?q=HACKLEY%20PROFESSIONAL%20PHCY%2C1675%20LEAHY%20ST%2C+MUSKEGON%2C+MI+49442
HARTIG DRUG CO,701 MORMON TREK BLVD,,"IOWA CITY, IA 52246",http://maps.google.com/maps?q=HARTIG%20DRUG%20CO%2C701%20MORMON%20TREK%20BLVD%2C+IOWA%20CITY%2C+IA+52246
HARTIG DRUG CO #26,810 12TH ST,,"BELLE PLAINE, IA 52208",http://maps.google.com/maps?q=HARTIG%20DRUG%20CO%2C810%2012TH%20ST%2C+BELLE%20PLAINE%2C+IA+52208
HARTIG DRUG CO #27,517 COURT ST.,,"WILLIAMSBURG, IA 52361",http://maps.google.com/maps?q=HARTIG%20DRUG%20CO%2C517%20COURT%20ST.%2C+WILLIAMSBURG%2C+IA+52361
HEMMINGSEN DRUG STORE,132 W. MICHIGAN AVE.,,"MARSHALL, MI 49068",http://maps.google.com/maps?q=HEMMINGSEN%20DRUG%20STORE%2C132%20W.%20MICHIGAN%20AVE.%2C+MARSHALL%2C+MI+49068
HILLSDALE MARKET PHARMACY,DIVISION OF NASH DRUGS INC,208 W CARLETON ROAD,"HILLSDALE, MI 49242",http://maps.google.com/maps?q=HILLSDALE%20MARKET%20PHARMACY%2CDIVISION%20OF%20NASH%20DRUGS%20INC%2C+HILLSDALE%2C+MI+49242
HUMBOLDT COUNTY MEMORIAL HOSP,1000 15TH ST N,,"HUMBOLDT, IA 50548",http://maps.google.com/maps?q=HUMBOLDT%20COUNTY%20MEMORIAL%20HOSP%2C1000%2015TH%20ST%20N%2C+HUMBOLDT%2C+IA+50548
HY-VEE PHARMACY #1180,1300 WEST BURLINGTON AVENUE,,"FAIRFIELD, IA 52556",http://maps.google.com/maps?q=HYVEE%20PHARMACY%2C1300%20WEST%20BURLINGTON%20AVENUE%2C+FAIRFIELD%2C+IA+52556
HY-VEE PHARMACY (1481),"110 S ""D"" STREET",,"OSKALOOSA, IA 52577",http://maps.google.com/maps?q=HYVEE%20PHARMACY%2C110%20S%20%22D%22%20STREET%2C+OSKALOOSA%2C+IA+52577
HY-VEE PHARMACY (1619),500 S. FREMONT STREET,,"SHENANDOAH, IA 51601",http://maps.google.com/maps?q=HYVEE%20PHARMACY%2C500%20S.%20FREMONT%20STREET%2C+SHENANDOAH%2C+IA+51601
"HY-VEE,  INC.",1005 EAST HICKMAN,,"WAUKEE, IA 50263",http://maps.google.com/maps?q=HYVEE%20%20INC%2C1005%20EAST%20HICKMAN%2C+WAUKEE%2C+IA+50263
"HY-VEE, INC.",204 N MAIN ST.,,"LEON, IA 50144",http://maps.google.com/maps?q=HYVEE%20INC%2C204%20N%20MAIN%20ST.%2C+LEON%2C+IA+50144
"HY-VEE, INC.",510 W MCLANE,,"OSCEOLA, IA 50213",http://maps.google.com/maps?q=HYVEE%20INC%2C510%20W%20MCLANE%2C+OSCEOLA%2C+IA+50213
"HY-VEE, INC.",625 DAVIS AVE,,"CORNING, IA 50841",http://maps.google.com/maps?q=HYVEE%20INC%2C625%20DAVIS%20AVE%2C+CORNING%2C+IA+50841
JESUP PHARMACY,1094 220TH STREET,,"JESUP, IA 50648",http://maps.google.com/maps?q=JESUP%20PHARMACY%2C1094%20220TH%20STREET%2C+JESUP%2C+IA+50648
KEYSTONE PHARMACY,4021 CASCADE ROAD SE,,"GRAND RAPIDS, MI 49546",http://maps.google.com/maps?q=KEYSTONE%20PHARMACY%2C4021%20CASCADE%20ROAD%20SE%2C+GRAND%20RAPIDS%2C+MI+49546
KRHC FAMILY PHARMACY,1519 SOUTH PHILLIPS,,"ALGONA, IA 50511",http://maps.google.com/maps?q=KRHC%20FAMILY%20PHARMACY%2C1519%20SOUTH%20PHILLIPS%2C+ALGONA%2C+IA+50511
KRONNER PHARMACY INC,778 W HOUGHTON LAKE DR,PO BOX 116,"PRUDENVILLE, MI 48651",http://maps.google.com/maps?q=KRONNER%20PHARMACY%20INC%2C778%20W%20HOUGHTON%20LAKE%20DR%2C+PRUDENVILLE%2C+MI+48651
LAKELAND MEDICAL CENTER,31 NORTH ST JOSEPH STREET,,"NILES, MI 49120",http://maps.google.com/maps?q=LAKELAND%20MEDICAL%20CENTER%2C31%20NORTH%20ST%20JOSEPH%20STREET%2C+NILES%2C+MI+49120
LAKELAND MEDICAL CENTER ST JOSEPH,1234 NAPIER AVENUE,,"ST JOSEPH, MI 49085",http://maps.google.com/maps?q=LAKELAND%20MEDICAL%20CENTER%20ST%20JOSEPH%2C1234%20NAPIER%20AVENUE%2C+ST%20JOSEPH%2C+MI+49085
LAKELAND PHARMACY SHOPPE,3900 HOLLYWOOD ROAD,,"ST JOSEPH, MI 49085",http://maps.google.com/maps?q=LAKELAND%20PHARMACY%20SHOPPE%2C3900%20HOLLYWOOD%20ROAD%2C+ST%20JOSEPH%2C+MI+49085
LAKESHORE PHARMACIES INC,DBA ALLEGAN COMMUNITY PHARMACY,115 LOCUST STREET,"ALLEGAN, MI 49010",http://maps.google.com/maps?q=LAKESHORE%20PHARMACIES%20INC%2CDBA%20ALLEGAN%20COMMUNITY%20PHARMACY%2C+ALLEGAN%2C+MI+49010
LAPORTE CITY PHARMACY,601 HIGHWAY 218 NORTH,,"LA PORTE CITY, IA 50651",http://maps.google.com/maps?q=LAPORTE%20CITY%20PHARMACY%2C601%20HIGHWAY%20218%20NORTH%2C+LA%20PORTE%20CITY%2C+IA+50651
LARRY'S PHARMACY,1310 10TH AVE. N.,,"HUMBOLDT, IA 50548",http://maps.google.com/maps?q=LARRYS%20PHARMACY%2C1310%2010TH%20AVE.%20N.%2C+HUMBOLDT%2C+IA+50548
LEGAL NAME:  NUDAK VENTURES LLC,4927 MAPLE DR,,"PLEASANT HILL, IA 50327",http://maps.google.com/maps?q=LEGAL%20NAME%20%20NUDAK%20VENTURES%20LLC%2C4927%20MAPLE%20DR%2C+PLEASANT%20HILL%2C+IA+50327
LEWIS FAMILY DRUG #55,401 SECOND ST,,"IDA GROVE, IA 51445",http://maps.google.com/maps?q=LEWIS%20FAMILY%20DRUG%2C401%20SECOND%20ST%2C+IDA%20GROVE%2C+IA+51445
LONG TERM CARE NASH DRUGS,44 NORTH HOWELL STREET,SUITE A,"HILLSDALE, MI 49242",http://maps.google.com/maps?q=LONG%20TERM%20CARE%20NASH%20DRUGS%2C44%20NORTH%20HOWELL%20STREET%2C+HILLSDALE%2C+MI+49242
MAIER FAMILY PHARMACY,411 MAIN STREET,,"MAPLETON, IA 51034",http://maps.google.com/maps?q=MAIER%20FAMILY%20PHARMACY%2C411%20MAIN%20STREET%2C+MAPLETON%2C+IA+51034
MANNING PHARMACY,317 MAIN,,"MANNING, IA 51455",http://maps.google.com/maps?q=MANNING%20PHARMACY%2C317%20MAIN%2C+MANNING%2C+IA+51455
MANNING REGIONAL HLTHCARE CTR,1550 SIXTH ST,,"MANNING, IA 51455",http://maps.google.com/maps?q=MANNING%20REGIONAL%20HLTHCARE%20CTR%2C1550%20SIXTH%20ST%2C+MANNING%2C+IA+51455
MARSHFIELD CLINIC PHARMACY,9601 TOWNLINE ROAD,P.O.BOX 1390,"MINOCQUA, WI 54548",http://maps.google.com/maps?q=MARSHFIELD%20CLINIC%20PHARMACY%2C9601%20TOWNLINE%20ROAD%2C+MINOCQUA%2C+WI+54548
MARSHFIELD CLINIC-MERCER CENTER,5110 N. HWY 51,,"MERCER, WI 54547",http://maps.google.com/maps?q=MARSHFIELD%20CLINICMERCER%20CENTER%2C5110%20N.%20HWY%2051%2C+MERCER%2C+WI+54547
MCBAIN FAMILY PHARMACY,119 N ROLAND ST,,"MC BAIN, MI 49657",http://maps.google.com/maps?q=MCBAIN%20FAMILY%20PHARMACY%2C119%20N%20ROLAND%20ST%2C+MC%20BAIN%2C+MI+49657
MEDICAP PHARMACY,1300 EAST 14TH STREET,,"DES MOINES, IA 50316",http://maps.google.com/maps?q=MEDICAP%20PHARMACY%2C1300%20EAST%2014TH%20STREET%2C+DES%20MOINES%2C+IA+50316
MERCY MEDICAL CENTER PHARMACY,1111 6TH AVENUE,,"DES MOINES, IA 50314",http://maps.google.com/maps?q=MERCY%20MEDICAL%20CENTER%20PHARMACY%2C1111%206TH%20AVENUE%2C+DES%20MOINES%2C+IA+50314
MERCY WESTSIDE PHARMACY,910 N EISENHOWER AVE.,,"MASON CITY, IA 50401",http://maps.google.com/maps?q=MERCY%20WESTSIDE%20PHARMACY%2C910%20N%20EISENHOWER%20AVE.%2C+MASON%20CITY%2C+IA+50401
MEYER PHARMACY,110 10TH ST SW,PO BOX 785,"WAVERLY, IA 50677",http://maps.google.com/maps?q=MEYER%20PHARMACY%2C110%2010TH%20ST%20SW%2C+WAVERLY%2C+IA+50677
MIDMICHIGAN COMMUNITY HEALTH SERVICES,9249 W LAKE CITY RD,,"HOUGHTON LAKE, MI 48629",http://maps.google.com/maps?q=MIDMICHIGAN%20COMMUNITY%20HEALTH%20SERVICES%2C9249%20W%20LAKE%20CITY%20RD%2C+HOUGHTON%20LAKE%2C+MI+48629
MIDMICHIGAN MEDICAL CENTER - ALPENA,1501 W. CHISHOLM ST.,,"ALPENA, MI 49707",http://maps.google.com/maps?q=MIDMICHIGAN%20MEDICAL%20CENTER%20%20ALPENA%2C1501%20W.%20CHISHOLM%20ST.%2C+ALPENA%2C+MI+49707
MIDMICHIGAN MEDICAL CENTER - MT PLEASANT,4851 E PICKARD ST,,"MOUNT PLEASANT, MI 48858",http://maps.google.com/maps?q=MIDMICHIGAN%20MEDICAL%20CENTER%20%20MT%20PLEASANT%2C4851%20E%20PICKARD%20ST%2C+MOUNT%20PLEASANT%2C+MI+48858
MISSION PHARMACY LLC,926 S MISSION ST,,"MT PLEASANT, MI 48858",http://maps.google.com/maps?q=MISSION%20PHARMACY%20LLC%2C926%20S%20MISSION%20ST%2C+MT%20PLEASANT%2C+MI+48858
MODERN MEDICAL SERVICES INC,127 NORTH MAIN,P.O. BOX 345,"CHEBOYGAN, MI 49721",http://maps.google.com/maps?q=MODERN%20MEDICAL%20SERVICES%20INC%2C127%20NORTH%20MAIN%2C+CHEBOYGAN%2C+MI+49721
MONTROSS PHARMACY INC,118-120 N 1ST AVE,,"WINTERSET, IA 50273",http://maps.google.com/maps?q=MONTROSS%20PHARMACY%20INC%2C118-120%20N%201ST%20AVE%2C+WINTERSET%2C+IA+50273
MUNSON HEALTHCARE MANISTEE HOSPITAL,1465 EAST PARKDALE AVENUE,,"MANISTEE, MI 49660",http://maps.google.com/maps?q=MUNSON%20HEALTHCARE%20MANISTEE%20HOSPITAL%2C1465%20EAST%20PARKDALE%20AVENUE%2C+MANISTEE%2C+MI+49660
MUSKEGON FAMILY CARE PHARMACY,2201 S GETTY STREET,,"MUSKEGON, MI 49444",http://maps.google.com/maps?q=MUSKEGON%20FAMILY%20CARE%20PHARMACY%2C2201%20S%20GETTY%20STREET%2C+MUSKEGON%2C+MI+49444
NASH DRUGS INC,237 E CHICAGO ST,,"JONESVILLE, MI 49250",http://maps.google.com/maps?q=NASH%20DRUGS%20INC%2C237%20E%20CHICAGO%20ST%2C+JONESVILLE%2C+MI+49250
NASH DRUGS INC,30 NORTH HOWELL STREET,,"HILLSDALE, MI 49242",http://maps.google.com/maps?q=NASH%20DRUGS%20INC%2C30%20NORTH%20HOWELL%20STREET%2C+HILLSDALE%2C+MI+49242
NICOLET PHARMACY,15481 COMMERCIAL RD,SUITE A,"LAKEWOOD, WI 54138",http://maps.google.com/maps?q=NICOLET%20PHARMACY%2C15481%20COMMERCIAL%20RD%2C+LAKEWOOD%2C+WI+54138
NIMKEE MEMORIAL WELLNESS CENTER,SAGINAW CHIPPEWA INDIAN TRIBE,2591 S LEATON ROAD,"MOUNT PLEASANT, MI 48858",http://maps.google.com/maps?q=NIMKEE%20MEMORIAL%20WELLNESS%20CENTER%2CSAGINAW%20CHIPPEWA%20INDIAN%20TRIBE%2C+MOUNT%20PLEASANT%2C+MI+48858
NUCARA PHARMACY #24,303 NICHOLAS DR,,"MARSHALLTOWN, IA 50158",http://maps.google.com/maps?q=NUCARA%20PHARMACY%2C303%20NICHOLAS%20DR%2C+MARSHALLTOWN%2C+IA+50158
NUCARA PHARMACY #28,3600 UNIVERSITY BLVD STE 103,,"AMES, IA 50010",http://maps.google.com/maps?q=NUCARA%20PHARMACY%2C3600%20UNIVERSITY%20BLVD%20STE%20103%2C+AMES%2C+IA+50010
NUCARA PHARMACY #30,107 N MAIN ST,,"LENOX, IA 50851",http://maps.google.com/maps?q=NUCARA%20PHARMACY%2C107%20N%20MAIN%20ST%2C+LENOX%2C+IA+50851
NUDAK VENTURES LLC,2000 D SOUTH MAIN STREET,PO BOX 1027,"FAIRFIELD, IA 52556",http://maps.google.com/maps?q=NUDAK%20VENTURES%20LLC%2C2000%20D%20SOUTH%20MAIN%20STREET%2C+FAIRFIELD%2C+IA+52556
OSSINEKE PHARMACY,11745 US 23 SOUTH,,"OSSINEKE, MI 49766",http://maps.google.com/maps?q=OSSINEKE%20PHARMACY%2C11745%20US%2023%20SOUTH%2C+OSSINEKE%2C+MI+49766
PATTERSONS PHARMACY,2144 HOYT STREET,,"MUSKEGON HEIGHTS, MI 49444",http://maps.google.com/maps?q=PATTERSONS%20PHARMACY%2C2144%20HOYT%20STREET%2C+MUSKEGON%20HEIGHTS%2C+MI+49444
PAULS PHARMACY INC,803 LINCOLN AVENUE,,"HOLLAND, MI 49423",http://maps.google.com/maps?q=PAULS%20PHARMACY%20INC%2C803%20LINCOLN%20AVENUE%2C+HOLLAND%2C+MI+49423
PAW PAW VILLAGE DRUGS,322 E. MICHIGAN AVENUE,,"PAW PAW, MI 49079",http://maps.google.com/maps?q=PAW%20PAW%20VILLAGE%20DRUGS%2C322%20E.%20MICHIGAN%20AVENUE%2C+PAW%20PAW%2C+MI+49079
PETER CHRISTENSEN HEALTH CENTER PHARMACY,129 OLD ABE ROAD,,"LAC DU FLAMBEAU, WI 54538",http://maps.google.com/maps?q=PETER%20CHRISTENSEN%20HEALTH%20CENTER%20PHARMACY%2C129%20OLD%20ABE%20ROAD%2C+LAC%20DU%20FLAMBEAU%2C+WI+54538
POKAGON BAND OF POTAWATOMI INDIANS,32652 KNO DRIVE,,"DOWAGIAC, MI 49047",http://maps.google.com/maps?q=POKAGON%20BAND%20OF%20POTAWATOMI%20INDIANS%2C32652%20KNO%20DRIVE%2C+DOWAGIAC%2C+MI+49047
POTAWATOMI HEALTH & WELLNESS,8201 MISH KO SWEN ROAD,P.O. BOX 396,"CRANDON, WI 54520",http://maps.google.com/maps?q=POTAWATOMI%20HEALTH%20%20WELLNESS%2C8201%20MISH%20KO%20SWEN%20ROAD%2C+CRANDON%2C+WI+54520
PRAIRIE PARKWAY PHARMACY,5100 PRAIRIE PARKWAY STE 106,,"CEDAR FALLS, IA 50613",http://maps.google.com/maps?q=PRAIRIE%20PARKWAY%20PHARMACY%2C5100%20PRAIRIE%20PARKWAY%20STE%20106%2C+CEDAR%20FALLS%2C+IA+50613
PROFESSIONAL PHARMACY,9175 CHERRY VALLEY AVE SE,,"CALEDONIA, MI 49316",http://maps.google.com/maps?q=PROFESSIONAL%20PHARMACY%2C9175%20CHERRY%20VALLEY%20AVE%20SE%2C+CALEDONIA%2C+MI+49316
PUTVIN DRUG STORE,211 S CEDAR ST,,"MANISTIQUE, MI 49854",http://maps.google.com/maps?q=PUTVIN%20DRUG%20STORE%2C211%20S%20CEDAR%20ST%2C+MANISTIQUE%2C+MI+49854
R & R PRESCRIPTION SERVICES,560 WEST MITCHELL,SUITE #200,"PETOSKEY, MI 49770",http://maps.google.com/maps?q=R%20%20R%20PRESCRIPTION%20SERVICES%2C560%20WEST%20MITCHELL%2C+PETOSKEY%2C+MI+49770
RED CLIFF COMMUNITY HLTH CTR PHARMACY,36745 AIKEN RD.,,"BAYFIELD, WI 54814",http://maps.google.com/maps?q=RED%20CLIFF%20COMMUNITY%20HLTH%20CTR%20PHARMACY%2C36745%20AIKEN%20RD.%2C+BAYFIELD%2C+WI+54814
REX PHARMACY INC,507 CHESTNUT STREET,,"ATLANTIC, IA 50022",http://maps.google.com/maps?q=REX%20PHARMACY%20INC%2C507%20CHESTNUT%20STREET%2C+ATLANTIC%2C+IA+50022
RIVER PHARMACY INC,124 AMES ST,,"ELK RAPIDS, MI 49629",http://maps.google.com/maps?q=RIVER%20PHARMACY%20INC%2C124%20AMES%20ST%2C+ELK%20RAPIDS%2C+MI+49629
S-S PHARMACY,235 WEST BROADWAY,,"COUNCIL BLUFFS, IA 51503",http://maps.google.com/maps?q=SS%20PHARMACY%2C235%20WEST%20BROADWAY%2C+COUNCIL%20BLUFFS%2C+IA+51503
SHOPKO PHARMACY #2676,1901 COURT AVE,,"CHARITON, IA 50049",http://maps.google.com/maps?q=SHOPKO%20PHARMACY%2C1901%20COURT%20AVE%2C+CHARITON%2C+IA+50049
SHOPKO PHARMACY #2680,1305 141ST ST,,"PERRY, IA 50220",http://maps.google.com/maps?q=SHOPKO%20PHARMACY%2C1305%20141ST%20ST%2C+PERRY%2C+IA+50220
SHOPKO PHARMACY #2683,109 N MARKET ST,,"AUDUBON, IA 50025",http://maps.google.com/maps?q=SHOPKO%20PHARMACY%2C109%20N%20MARKET%20ST%2C+AUDUBON%2C+IA+50025
SHOPKO PHARMACY #2686,902 S LOCUST ST,,"GLENWOOD, IA 51534",http://maps.google.com/maps?q=SHOPKO%20PHARMACY%2C902%20S%20LOCUST%20ST%2C+GLENWOOD%2C+IA+51534
SHOPKO PHARMACY #2687,202 SW KENT ST,,"GREENFIELD, IA 50849",http://maps.google.com/maps?q=SHOPKO%20PHARMACY%2C202%20SW%20KENT%20ST%2C+GREENFIELD%2C+IA+50849
SHOPKO PHARMACY #2689,201 N FILLMORE ST,,"MOUNT AYR, IA 50854",http://maps.google.com/maps?q=SHOPKO%20PHARMACY%2C201%20N%20FILLMORE%20ST%2C+MOUNT%20AYR%2C+IA+50854
SINDECUSE HEALTH CENTER,NORTH GILKISON AVENUE,,"KALAMAZOO, MI 49008",http://maps.google.com/maps?q=SINDECUSE%20HEALTH%20CENTER%2CNORTH%20GILKISON%20AVENUE%2C+KALAMAZOO%2C+MI+49008
ST FRANCIS HOSPITAL,3401 LUDINGTON,,"ESCANABA, MI 49829",http://maps.google.com/maps?q=ST%20FRANCIS%20HOSPITAL%2C3401%20LUDINGTON%2C+ESCANABA%2C+MI+49829
ST JOHN PHARMACY,812 EAST JOLLY ROAD,SUITE #208,"LANSING, MI 48910",http://maps.google.com/maps?q=ST%20JOHN%20PHARMACY%2C812%20EAST%20JOLLY%20ROAD%2C+LANSING%2C+MI+48910
SUPER SAVER PHARMACY,1141 NORTH BROADWAY,,"COUNCIL BLUFFS, IA 51503",http://maps.google.com/maps?q=SUPER%20SAVER%20PHARMACY%2C1141%20NORTH%20BROADWAY%2C+COUNCIL%20BLUFFS%2C+IA+51503
THE MEDICINE SHOPPE #1675,500 N JAMES STREET,,"GRAYLING, MI 49738",http://maps.google.com/maps?q=THE%20MEDICINE%20SHOPPE%2C500%20N%20JAMES%20STREET%2C+GRAYLING%2C+MI+49738
THE NEBRASKA MEDICAL CENTER BELLEVUE PHARMACY,2510 BELLEVUE MEDICAL CENTER DR,STE 100,"BELLEVUE, NE 68123",http://maps.google.com/maps?q=THE%20NEBRASKA%20MEDICAL%20CENTER%20BELLEVUE%20PHARMACY%2C2510%20BELLEVUE%20MEDICAL%20CENTER%20DR%2C+BELLEVUE%2C+NE+68123
THREE RIVERS HEALTH,701 S. HEALTH PARKWAY,,"THREE RIVERS, MI 49093",http://maps.google.com/maps?q=THREE%20RIVERS%20HEALTH%2C701%20S.%20HEALTH%20PARKWAY%2C+THREE%20RIVERS%2C+MI+49093
THRIFTY WHITE DRUG #56,1320 BROADWAY,,"DENISON, IA 51442",http://maps.google.com/maps?q=THRIFTY%20WHITE%20DRUG%2C1320%20BROADWAY%2C+DENISON%2C+IA+51442
THRIFTY WHITE PHARMACY #049,848 SECOND ST,,"WEBSTER CITY, IA 50595",http://maps.google.com/maps?q=THRIFTY%20WHITE%20PHARMACY%2C848%20SECOND%20ST%2C+WEBSTER%20CITY%2C+IA+50595
THRIFTY WHITE PHARMACY #064,1907 US HIGHWAY 18 EAST,,"CLEAR LAKE, IA 50428",http://maps.google.com/maps?q=THRIFTY%20WHITE%20PHARMACY%2C1907%20US%20HIGHWAY%2018%20EAST%2C+CLEAR%20LAKE%2C+IA+50428
THRIFTY WHITE PHARMACY #079,701 W ELM AVENUE,,"POCAHONTAS, IA 50574",http://maps.google.com/maps?q=THRIFTY%20WHITE%20PHARMACY%2C701%20W%20ELM%20AVENUE%2C+POCAHONTAS%2C+IA+50574
THRIFTY WHITE PHARMACY #74,210 N. MAIN STREET,,"CLARION, IA 50525",http://maps.google.com/maps?q=THRIFTY%20WHITE%20PHARMACY%2C210%20N.%20MAIN%20STREET%2C+CLARION%2C+IA+50525
THUNDER BAY PHARMACY,11899 M-32,PO BOX 850,"ATLANTA, MI 49709",http://maps.google.com/maps?q=THUNDER%20BAY%20PHARMACY%2C11899%20M-32%2C+ATLANTA%2C+MI+49709
THUNDER BAY PHARMACY ONAWAY,21258 WEST M-68 HIGHWAY,PO BOX 722,"ONAWAY, MI 49765",http://maps.google.com/maps?q=THUNDER%20BAY%20PHARMACY%20ONAWAY%2C21258%20WEST%20M-68%20HIGHWAY%2C+ONAWAY%2C+MI+49765
TRINITY PHARMACY,802 KENYON ROAD,SUITE 120,"FORT DODGE, IA 50501",http://maps.google.com/maps?q=TRINITY%20PHARMACY%2C802%20KENYON%20ROAD%2C+FORT%20DODGE%2C+IA+50501
UI HEALTH CARE - RIVER CROSSING PHARMACY,3056 RIVER CROSSING COURT,SUITE A,"RIVERSIDE, IA 52327",http://maps.google.com/maps?q=UI%20HEALTH%20CARE%20%20RIVER%20CROSSING%20PHARMACY%2C3056%20RIVER%20CROSSING%20COURT%2C+RIVERSIDE%2C+IA+52327
UI HEALTHCARE-IOWA RIVER LANDING PHARMACY,105 E 9TH ST,,"CORALVILLE, IA 52241",http://maps.google.com/maps?q=UI%20HEALTHCAREIOWA%20RIVER%20LANDING%20PHARMACY%2C105%20E%209TH%20ST%2C+CORALVILLE%2C+IA+52241
UNIV OF IA HOSP & CLINICS,PHARMACY DEPARTMENT,200 HAWKINS DRIVE,"IOWA CITY, IA 52242",http://maps.google.com/maps?q=UNIV%20OF%20IA%20HOSP%20%20CLINICS%2CPHARMACY%20DEPARTMENT%2C+IOWA%20CITY%2C+IA+52242
UNIV OF NO IOWA HEALTH CTR,STUDENT HEALTH CTR UNIV OF N IOWA,23RD ST,"CEDAR FALLS, IA 50614",http://maps.google.com/maps?q=UNIV%20OF%20NO%20IOWA%20HEALTH%20CTR%2CSTUDENT%20HEALTH%20CTR%20UNIV%20OF%20N%20IOWA%2C+CEDAR%20FALLS%2C+IA+50614
USAF- OFFUTT AFB,"2501 CAPEHART RD, STE I105",ATTN:LOGISTICS VAULT CUSTODIAN,"OFFUTT AFB, NE 68113",http://maps.google.com/maps?q=USAF%20OFFUTT%20AFB%2C2501%20CAPEHART%20RD%2C%20STE%20I105%2C+OFFUTT%20AFB%2C+NE+68113
USAF-OFFUTT,502 CUSTER DRIVE,ATTN: LOGISTICS VAULT CUSTODIAN,"OFFUTT AFB, NE 68113",http://maps.google.com/maps?q=USAFOFFUTT%2C502%20CUSTER%20DRIVE%2C+OFFUTT%20AFB%2C+NE+68113
VALUMED PHARMACY,"4105 WESTCOR CT., STE. 1",,"CORALVILLE, IA 52241",http://maps.google.com/maps?q=VALUMED%20PHARMACY%2C4105%20WESTCOR%20CT.%2C%20STE.%201%2C+CORALVILLE%2C+IA+52241
VANS PHARMACY INC,807 NAPIER AVENUE,,"SAINT JOSEPH, MI 49085",http://maps.google.com/maps?q=VANS%20PHARMACY%20INC%2C807%20NAPIER%20AVENUE%2C+SAINT%20JOSEPH%2C+MI+49085
WALGREEN CO.,104 E EUCLID AVE,,"DES MOINES, IA 50313",http://maps.google.com/maps?q=WALGREEN%20CO%2C104%20E%20EUCLID%20AVE%2C+DES%20MOINES%2C+IA+50313
WALGREEN CO.,111 W RIDGEWAY AVE,,"WATERLOO, IA 50701",http://maps.google.com/maps?q=WALGREEN%20CO%2C111%20W%20RIDGEWAY%20AVE%2C+WATERLOO%2C+IA+50701
WALGREEN CO.,1220 N MITCHELL,,"CADILLAC, MI 49601",http://maps.google.com/maps?q=WALGREEN%20CO%2C1220%20N%20MITCHELL%2C+CADILLAC%2C+MI+49601
WALGREEN CO.,1260 HILLTOP RD,,"SAINT JOSEPH, MI 49085",http://maps.google.com/maps?q=WALGREEN%20CO%2C1260%20HILLTOP%20RD%2C+SAINT%20JOSEPH%2C+MI+49085
WALGREEN CO.,12753 UNIVERSITY AVE,,"CLIVE, IA 50325",http://maps.google.com/maps?q=WALGREEN%20CO%2C12753%20UNIVERSITY%20AVE%2C+CLIVE%2C+IA+50325
WALGREEN CO.,1314 N WEST AVE,,"JACKSON, MI 49202",http://maps.google.com/maps?q=WALGREEN%20CO%2C1314%20N%20WEST%20AVE%2C+JACKSON%2C+MI+49202
WALGREEN CO.,1991 E APPLE AVE,,"MUSKEGON, MI 49442",http://maps.google.com/maps?q=WALGREEN%20CO%2C1991%20E%20APPLE%20AVE%2C+MUSKEGON%2C+MI+49442
WALGREEN CO.,2301 HALL AVE,,"MARINETTE, WI 54143",http://maps.google.com/maps?q=WALGREEN%20CO%2C2301%20HALL%20AVE%2C+MARINETTE%2C+WI+54143
WALGREEN CO.,2301 LUDINGTON ST,,"ESCANABA, MI 49829",http://maps.google.com/maps?q=WALGREEN%20CO%2C2301%20LUDINGTON%20ST%2C+ESCANABA%2C+MI+49829
WALGREEN CO.,2508 W BROADWAY,,"COUNCIL BLUFFS, IA 51501",http://maps.google.com/maps?q=WALGREEN%20CO%2C2508%20W%20BROADWAY%2C+COUNCIL%20BLUFFS%2C+IA+51501
WALGREEN CO.,2545 E EUCLID,,"DES MOINES, IA 50317",http://maps.google.com/maps?q=WALGREEN%20CO%2C2545%20E%20EUCLID%2C+DES%20MOINES%2C+IA+50317
WALGREEN CO.,3140 SE 14TH ST,,"DES MOINES, IA 50320",http://maps.google.com/maps?q=WALGREEN%20CO%2C3140%20SE%2014TH%20ST%2C+DES%20MOINES%2C+IA+50320
WALGREEN CO.,3325 16TH AVENUE SW,,"CEDAR RAPIDS, IA 52404",http://maps.google.com/maps?q=WALGREEN%20CO%2C3325%2016TH%20AVENUE%20SW%2C+CEDAR%20RAPIDS%2C+IA+52404
WALGREEN CO.,410 E JOLLY ROAD,,"LANSING, MI 48910",http://maps.google.com/maps?q=WALGREEN%20CO%2C410%20E%20JOLLY%20ROAD%2C+LANSING%2C+MI+48910
WALGREEN CO.,4415 DOUGLAS AVE,,"DES MOINES, IA 50310",http://maps.google.com/maps?q=WALGREEN%20CO%2C4415%20DOUGLAS%20AVE%2C+DES%20MOINES%2C+IA+50310
WALGREEN CO.,494 BUTTERNUT,,"HOLLAND, MI 49424",http://maps.google.com/maps?q=WALGREEN%20CO%2C494%20BUTTERNUT%2C+HOLLAND%2C+MI+49424
WALGREEN CO.,5020 W MAIN,,"KALAMAZOO, MI 49009",http://maps.google.com/maps?q=WALGREEN%20CO%2C5020%20W%20MAIN%2C+KALAMAZOO%2C+MI+49009
WALGREEN CO.,535 E. BROADWAY,,"COUNCIL BLUFFS, IA 51503",http://maps.google.com/maps?q=WALGREEN%20CO%2C535%20E.%20BROADWAY%2C+COUNCIL%20BLUFFS%2C+IA+51503
WALGREEN CO.,6020 KALAMAZOO AVE. SE,,"KENTWOOD, MI 49508",http://maps.google.com/maps?q=WALGREEN%20CO%2C6020%20KALAMAZOO%20AVE.%20SE%2C+KENTWOOD%2C+MI+49508
WALGREEN CO.,901 N ANKENY BLVD,,"ANKENY, IA 50023",http://maps.google.com/maps?q=WALGREEN%20CO%2C901%20N%20ANKENY%20BLVD%2C+ANKENY%2C+IA+50023
WALGREEN CO.,907 SOUTH 11TH ST,,"NILES, MI 49120",http://maps.google.com/maps?q=WALGREEN%20CO%2C907%20SOUTH%2011TH%20ST%2C+NILES%2C+MI+49120
WALGREEN CO.,950 S CENTERVILLE RD,,"STURGIS, MI 49091",http://maps.google.com/maps?q=WALGREEN%20CO%2C950%20S%20CENTERVILLE%20RD%2C+STURGIS%2C+MI+49091
WALKER PHARMACY,838 4TH AVENUE,,"LAKE ODESSA, MI 48849",http://maps.google.com/maps?q=WALKER%20PHARMACY%2C838%204TH%20AVENUE%2C+LAKE%20ODESSA%2C+MI+48849
WEST LAKE DRUG,8822 PORTAGE ROAD,,"PORTAGE, MI 49002",http://maps.google.com/maps?q=WEST%20LAKE%20DRUG%2C8822%20PORTAGE%20ROAD%2C+PORTAGE%2C+MI+49002
WEST SHORE PROFF PHARMACY,1150 E. SHERMAN BOULEVARD,SUITE 1400,"MUSKEGON, MI 49444",http://maps.google.com/maps?q=WEST%20SHORE%20PROFF%20PHARMACY%2C1150%20E.%20SHERMAN%20BOULEVARD%2C+MUSKEGON%2C+MI+49444
WILCOX PHARMACY,140 EAST ROAD,,"DIMONDALE, MI 48821",http://maps.google.com/maps?q=WILCOX%20PHARMACY%2C140%20EAST%20ROAD%2C+DIMONDALE%2C+MI+48821
"WISCONSIN CVS PHARMACY, L.L.C.",1561 W. MASON ST.,,"GREEN BAY, WI 54303",http://maps.google.com/maps?q=WISCONSIN%20CVS%20PHARMACY%20LLC%2C1561%20W.%20MASON%20ST.%2C+GREEN%20BAY%2C+WI+54303
"WOODWARD DETROIT CVS, L.L.C.",132 DOUGLAS AVE.,,"HOLLAND, MI 49424",http://maps.google.com/maps?q=WOODWARD%20DETROIT%20CVS%20LLC%2C132%20DOUGLAS%20AVE.%2C+HOLLAND%2C+MI+49424
"WOODWARD DETROIT CVS, L.L.C.",727 28TH ST. SE,,"GRAND RAPIDS, MI 49548",http://maps.google.com/maps?q=WOODWARD%20DETROIT%20CVS%20LLC%2C727%2028TH%20ST.%20SE%2C+GRAND%20RAPIDS%2C+MI+49548
