Business Name,Address 1,Address 2,"City, State Zip",Map URL
ABALA PHARMACY,550-B WEST EATON AVENUE,,"TRACY, CA 95376",http://maps.google.com/maps?q=ABALA%20PHARMACY%2C550-B%20WEST%20EATON%20AVENUE%2C+TRACY%2C+CA+95376
AIDS HEALTHCARE FOUNDATION DBA AHF PHARMACY,4071 18TH STR.,,"SAN FRANCISCO, CA 94114",http://maps.google.com/maps?q=AIDS%20HEALTHCARE%20FOUNDATION%20DBA%20AHF%20PHARMACY%2C4071%2018TH%20STR.%2C+SAN%20FRANCISCO%2C+CA+94114
ALAMEDA HEALTH SYSTEM,2070 CLINTON AVENUE,,"ALAMEDA, CA 94501",http://maps.google.com/maps?q=ALAMEDA%20HEALTH%20SYSTEM%2C2070%20CLINTON%20AVENUE%2C+ALAMEDA%2C+CA+94501
AMC COMMUNITY PHARMACY,1381 UNIVERSITY ST SUITE A,,"HEALDSBURG, CA 95448",http://maps.google.com/maps?q=AMC%20COMMUNITY%20PHARMACY%2C1381%20UNIVERSITY%20ST%20SUITE%20A%2C+HEALDSBURG%2C+CA+95448
ANGKOR PHARMACY,4555 N. PERSHING AVE STE#7,,"STOCKTON, CA 95207",http://maps.google.com/maps?q=ANGKOR%20PHARMACY%2C4555%20N.%20PERSHING%20AVE%20STE#7%2C+STOCKTON%2C+CA+95207
BARNES ARCATA FAMILY DRUG,1080 G STREET,,"ARCATA, CA 95521",http://maps.google.com/maps?q=BARNES%20ARCATA%20FAMILY%20DRUG%2C1080%20G%20STREET%2C+ARCATA%2C+CA+95521
BJRX PHARMACY INC.,1801 E.MARCH LANE,SUITE:B280,"STOCKTON, CA 95210",http://maps.google.com/maps?q=BJRX%20PHARMACY%20INC%2C1801%20E.MARCH%20LANE%2C+STOCKTON%2C+CA+95210
CAPSULE PHARMACY,2557 MOWRY AVE,SUITE # 11,"FREMONT, CA 94538",http://maps.google.com/maps?q=CAPSULE%20PHARMACY%2C2557%20MOWRY%20AVE%2C+FREMONT%2C+CA+94538
CARMICHAEL VILLAGE PHARMACY,6633 COYLE AVE,STE 1,"CARMICHAEL, CA 95608",http://maps.google.com/maps?q=CARMICHAEL%20VILLAGE%20PHARMACY%2C6633%20COYLE%20AVE%2C+CARMICHAEL%2C+CA+95608
CENTRAL DRUG COMPANY,4494 MISSION STREET,,"SAN FRANCISCO, CA 94112",http://maps.google.com/maps?q=CENTRAL%20DRUG%20COMPANY%2C4494%20MISSION%20STREET%2C+SAN%20FRANCISCO%2C+CA+94112
CHARLIES DRUGS,1101 FILLMORE STREET,,"SAN FRANCISCO, CA 94115",http://maps.google.com/maps?q=CHARLIES%20DRUGS%2C1101%20FILLMORE%20STREET%2C+SAN%20FRANCISCO%2C+CA+94115
CHINESE HOSPITAL ASSN INC,845 JACKSON STREET,,"SAN FRANCISCO, CA 94133",http://maps.google.com/maps?q=CHINESE%20HOSPITAL%20ASSN%20INC%2C845%20JACKSON%20STREET%2C+SAN%20FRANCISCO%2C+CA+94133
CHINESE HOSPITAL PHARMACY,386 GELLERT BLVD,SUITE A,"DALY CITY, CA 94015",http://maps.google.com/maps?q=CHINESE%20HOSPITAL%20PHARMACY%2C386%20GELLERT%20BLVD%2C+DALY%20CITY%2C+CA+94015
CHINESE HOSPITAL PHARMACY,845 JACKSON ST ROOM 1102,,"SAN FRANCISCO, CA 94133",http://maps.google.com/maps?q=CHINESE%20HOSPITAL%20PHARMACY%2C845%20JACKSON%20ST%20ROOM%201102%2C+SAN%20FRANCISCO%2C+CA+94133
CLAY MED PHARMACY & MEDICAL,"929 CLAY STREET, 103",,"SAN FRANCISCO, CA 94108",http://maps.google.com/maps?q=CLAY%20MED%20PHARMACY%20%20MEDICAL%2C929%20CLAY%20STREET%2C%20103%2C+SAN%20FRANCISCO%2C+CA+94108
CLONEYS PHARMACY INC,1567 CITY CENTER ROAD #35,,"MCKINLEYVILLE, CA 95519",http://maps.google.com/maps?q=CLONEYS%20PHARMACY%20INC%2C1567%20CITY%20CENTER%20ROAD%20#35%2C+MCKINLEYVILLE%2C+CA+95519
CLONEYS PHARMACY INC,2515 HARRISON AVENUE,,"EUREKA, CA 95501",http://maps.google.com/maps?q=CLONEYS%20PHARMACY%20INC%2C2515%20HARRISON%20AVENUE%2C+EUREKA%2C+CA+95501
CLOVERDALE PHARMACY,790 SOUTH CLOVERDALE BOULEVARD,,"CLOVERDALE, CA 95425",http://maps.google.com/maps?q=CLOVERDALE%20PHARMACY%2C790%20SOUTH%20CLOVERDALE%20BOULEVARD%2C+CLOVERDALE%2C+CA+95425
CORNER DRUG COMPANY,602 MAIN STREET,,"WOODLAND, CA 95695",http://maps.google.com/maps?q=CORNER%20DRUG%20COMPANY%2C602%20MAIN%20STREET%2C+WOODLAND%2C+CA+95695
CZ SERVICES,860 HARBOUR WAY SOUTH,SUITE E,"RICHMOND, CA 94804",http://maps.google.com/maps?q=CZ%20SERVICES%2C860%20HARBOUR%20WAY%20SOUTH%2C+RICHMOND%2C+CA+94804
DAVIS COMPOUNDING SOLUTIONS,1205 DRAKE DRIVE,SUITE E,"DAVIS, CA 95616",http://maps.google.com/maps?q=DAVIS%20COMPOUNDING%20SOLUTIONS%2C1205%20DRAKE%20DRIVE%2C+DAVIS%2C+CA+95616
DEPT OF VETERANS AFFAIRS,"CARE SYSTEM, PHARMACY SERVICE","(119), 10535 HOSPITAL WAY","MATHER, CA 95655",http://maps.google.com/maps?q=DEPT%20OF%20VETERANS%20AFFAIRS%2CCARE%20SYSTEM%2C%20PHARMACY%20SERVICE%2C+MATHER%2C+CA+95655
DEPT OF VETERANS AFFAIRS,PHARMACY SERVICE (119),BLDG 778 103 BODIN CIRCLE,"TRAVIS AFB, CA 94535",http://maps.google.com/maps?q=DEPT%20OF%20VETERANS%20AFFAIRS%2CPHARMACY%20SERVICE%20(119)%2C+TRAVIS%20AFB%2C+CA+94535
DREW CENTER PHARMACY,2111 UNIVERSITY AVENUE,P.O.BOX 51216,"EAST PALO ALTO, CA 94303",http://maps.google.com/maps?q=DREW%20CENTER%20PHARMACY%2C2111%20UNIVERSITY%20AVENUE%2C+EAST%20PALO%20ALTO%2C+CA+94303
EDEN MEDICAL CENTER,20103 LAKE CHABOT RD,,"CASTRO VALLEY, CA 94546",http://maps.google.com/maps?q=EDEN%20MEDICAL%20CENTER%2C20103%20LAKE%20CHABOT%20RD%2C+CASTRO%20VALLEY%2C+CA+94546
EL DORADO DRUG STORE,BENNETT DOUGLAS EARL,2005 MARIPOSA ROAD,"STOCKTON, CA 95205",http://maps.google.com/maps?q=EL%20DORADO%20DRUG%20STORE%2CBENNETT%20DOUGLAS%20EARL%2C+STOCKTON%2C+CA+95205
"ELEVATION FAMILY PHARMACY, INC",1050 IRON POINT ROAD,,"FOLSOM, CA 95630",http://maps.google.com/maps?q=ELEVATION%20FAMILY%20PHARMACY%20INC%2C1050%20IRON%20POINT%20ROAD%2C+FOLSOM%2C+CA+95630
FAMILY DRUG,1805 OLD SONOMA RD,,"NAPA, CA 94559",http://maps.google.com/maps?q=FAMILY%20DRUG%2C1805%20OLD%20SONOMA%20RD%2C+NAPA%2C+CA+94559
FEATHER RIVER PHARMACY,5125 SKYWAY,,"PARADISE, CA 95969",http://maps.google.com/maps?q=FEATHER%20RIVER%20PHARMACY%2C5125%20SKYWAY%2C+PARADISE%2C+CA+95969
FORTY NINE DRUG CO,937 N YOSEMITE STREET,,"STOCKTON, CA 95203",http://maps.google.com/maps?q=FORTY%20NINE%20DRUG%20CO%2C937%20N%20YOSEMITE%20STREET%2C+STOCKTON%2C+CA+95203
GATEWAY PHARMACY,1330 GATEWAY BLVD,SUIT B-2,"FAIRFIELD, CA 94533",http://maps.google.com/maps?q=GATEWAY%20PHARMACY%2C1330%20GATEWAY%20BLVD%2C+FAIRFIELD%2C+CA+94533
GREEN'S FORTUNA PHARMACY,1058 MAIN ST,,"FORTUNA, CA 95540",http://maps.google.com/maps?q=GREENS%20FORTUNA%20PHARMACY%2C1058%20MAIN%20ST%2C+FORTUNA%2C+CA+95540
HALF MOON BAY PHARMACY,40 STONE PINE ROAD,SUITE I,"HALF MOON BAY, CA 94019",http://maps.google.com/maps?q=HALF%20MOON%20BAY%20PHARMACY%2C40%20STONE%20PINE%20ROAD%2C+HALF%20MOON%20BAY%2C+CA+94019
HALLER'S PHARMACY & MEDICAL SUPPLY,37323 FREMONT BLVD.,,"FREMONT, CA 94536",http://maps.google.com/maps?q=HALLERS%20PHARMACY%20%20MEDICAL%20SUPPLY%2C37323%20FREMONT%20BLVD.%2C+FREMONT%2C+CA+94536
HAROLD K REICH'S PHARMACY,39 W. TENTH STREET,,"TRACY, CA 95376",http://maps.google.com/maps?q=HAROLD%20K%20REICHS%20PHARMACY%2C39%20W.%20TENTH%20STREET%2C+TRACY%2C+CA+95376
HEALTH FIRST PHARMACY,9083 WINDSOR ROAD,,"WINDSOR, CA 95492",http://maps.google.com/maps?q=HEALTH%20FIRST%20PHARMACY%2C9083%20WINDSOR%20ROAD%2C+WINDSOR%2C+CA+95492
HIGHLAND GENERAL HOSPITAL,OUTPATIENT PHARMACY,1411 EAST 31ST STREET,"OAKLAND, CA 94602",http://maps.google.com/maps?q=HIGHLAND%20GENERAL%20HOSPITAL%2COUTPATIENT%20PHARMACY%2C+OAKLAND%2C+CA+94602
HRH PHARMACY INC.,1900 MCHENRY AVE. #202,,"ESCALON, CA 95320",http://maps.google.com/maps?q=HRH%20PHARMACY%20INC%2C1900%20MCHENRY%20AVE.%20#202%2C+ESCALON%2C+CA+95320
IONE PHARMACY,307 PRESTON AVE,P.O.BOX 1025,"IONE, CA 95640",http://maps.google.com/maps?q=IONE%20PHARMACY%2C307%20PRESTON%20AVE%2C+IONE%2C+CA+95640
JADE PHARMACY,34460 FREMONT BLVD SUITE B,,"FREMONT, CA 94555",http://maps.google.com/maps?q=JADE%20PHARMACY%2C34460%20FREMONT%20BLVD%20SUITE%20B%2C+FREMONT%2C+CA+94555
JEFFERSON PHARMACY,1029 JEFFERSON BOULEVARD,SUITE A,"WEST SACRAMENTO, CA 95691",http://maps.google.com/maps?q=JEFFERSON%20PHARMACY%2C1029%20JEFFERSON%20BOULEVARD%2C+WEST%20SACRAMENTO%2C+CA+95691
JEROLD PHELPS COMMUNITY HOSP,733 CEDAR STREET,,"GARBERVILLE, CA 95542",http://maps.google.com/maps?q=JEROLD%20PHELPS%20COMMUNITY%20HOSP%2C733%20CEDAR%20STREET%2C+GARBERVILLE%2C+CA+95542
KAISER FONDATION HEALTH PLAN,KFHP POINT WEST PHARMACY #626,1650 RESPONSE ROAD,"SACRAMENTO, CA 95815",http://maps.google.com/maps?q=KAISER%20FONDATION%20HEALTH%20PLAN%2CKFHP%20POINT%20WEST%20PHARMACY%20#626%2C+SACRAMENTO%2C+CA+95815
KAISER FOUND HEALTH PLAN INC,KFHP MOB 1 PHARMACY #684,7373 WEST LANE,"STOCKTON, CA 95210",http://maps.google.com/maps?q=KAISER%20FOUND%20HEALTH%20PLAN%20INC%2CKFHP%20MOB%201%20PHARMACY%20#684%2C+STOCKTON%2C+CA+95210
KAISER FOUND HLTH PLAN,KFHP BAYHILL PHARMACY #353,801 TRAEGER AVE,"SAN BRUNO, CA 94066",http://maps.google.com/maps?q=KAISER%20FOUND%20HLTH%20PLAN%2CKFHP%20BAYHILL%20PHARMACY%20#353%2C+SAN%20BRUNO%2C+CA+94066
KAISER FOUND HLTH PLAN,KFHP BIRCH PHARMACY #372,910 MARSHALL STREET,"REDWOOD CITY, CA 94063",http://maps.google.com/maps?q=KAISER%20FOUND%20HLTH%20PLAN%2CKFHP%20BIRCH%20PHARMACY%20#372%2C+REDWOOD%20CITY%2C+CA+94063
KAISER FOUNDA HLTH PLAN,KFHP FABIOLA 1 PHARMACY #115,3801 HOWE STREET,"OAKLAND, CA 94611",http://maps.google.com/maps?q=KAISER%20FOUNDA%20HLTH%20PLAN%2CKFHP%20FABIOLA%201%20PHARMACY%20#115%2C+OAKLAND%2C+CA+94611
KAISER FOUNDAT HLTH PLAN,3505 BROADWAY,,"OAKLAND, CA 94611",http://maps.google.com/maps?q=KAISER%20FOUNDAT%20HLTH%20PLAN%2C3505%20BROADWAY%2C+OAKLAND%2C+CA+94611
KAISER FOUNDATION HEALTH,PLAN PHARMACY,2238 GEARY BLVD. 1ST FLOOR,"SAN FRANCISCO, CA 94115",http://maps.google.com/maps?q=KAISER%20FOUNDATION%20HEALTH%2CPLAN%20PHARMACY%2C+SAN%20FRANCISCO%2C+CA+94115
KAISER FOUNDATION HEALTH PLAN,KFHP A&B PHARMACY #711,10725 INTERNATIONAL DRIVE,"RANCHO CORDOVA, CA 95670",http://maps.google.com/maps?q=KAISER%20FOUNDATION%20HEALTH%20PLAN%2CKFHP%20A&B%20PHARMACY%20#711%2C+RANCHO%20CORDOVA%2C+CA+95670
KAISER FOUNDATION HEALTH PLAN,KFHP CYPRESS MOB PHARMACY #371,1150 VETERANS BOULEVARD,"REDWOOD CITY, CA 94063",http://maps.google.com/maps?q=KAISER%20FOUNDATION%20HEALTH%20PLAN%2CKFHP%20CYPRESS%20MOB%20PHARMACY%20#371%2C+REDWOOD%20CITY%2C+CA+94063
KAISER FOUNDATION HEALTH PLAN,KFHP FRENCH O/P PHARMACY #322,4141 GEARY BLVD FIRST FLOOR,"SAN FRANCISCO, CA 94118",http://maps.google.com/maps?q=KAISER%20FOUNDATION%20HEALTH%20PLAN%2CKFHP%20FRENCH%20O/P%20PHARMACY%20#322%2C+SAN%20FRANCISCO%2C+CA+94118
KAISER FOUNDATION HEALTH PLAN,KFHP MAIN PHARMACY #591,1001 RIVERSIDE AVENUE,"ROSEVILLE, CA 95678",http://maps.google.com/maps?q=KAISER%20FOUNDATION%20HEALTH%20PLAN%2CKFHP%20MAIN%20PHARMACY%20#591%2C+ROSEVILLE%2C+CA+95678
KAISER FOUNDATION HEALTH PLAN,KFHP MANTECA PHARMACY #491,1721 WEST YOSEMITE,"MANTECA, CA 95337",http://maps.google.com/maps?q=KAISER%20FOUNDATION%20HEALTH%20PLAN%2CKFHP%20MANTECA%20PHARMACY%20#491%2C+MANTECA%2C+CA+95337
KAISER FOUNDATION HEALTH PLAN,KFHP SOUTH 1 PHARMACY #471,7601 STONERIDGE DRIVE,"PLEASANTON, CA 94588",http://maps.google.com/maps?q=KAISER%20FOUNDATION%20HEALTH%20PLAN%2CKFHP%20SOUTH%201%20PHARMACY%20#471%2C+PLEASANTON%2C+CA+94588
KAISER FOUNDATION HEALTH PLAN,MAIN PHARMACY #221,3285 CLAREMONT WAY,"NAPA, CA 94558",http://maps.google.com/maps?q=KAISER%20FOUNDATION%20HEALTH%20PLAN%2CMAIN%20PHARMACY%20#221%2C+NAPA%2C+CA+94558
KAISER FOUNDATION HEALTH PLAN,PLAN PHARMACY #361,97 SAN MARIN DRIVE,"NOVATO, CA 94945",http://maps.google.com/maps?q=KAISER%20FOUNDATION%20HEALTH%20PLAN%2CPLAN%20PHARMACY%20#361%2C+NOVATO%2C+CA+94945
"KAISER FOUNDATION HEALTH PLAN, INC",OHLONE PHARMACY #162,39400 PASEO PADRE PARKWAY,"FREMONT, CA 94538",http://maps.google.com/maps?q=KAISER%20FOUNDATION%20HEALTH%20PLAN%20INC%2COHLONE%20PHARMACY%20#162%2C+FREMONT%2C+CA+94538
KAISER FOUNDATION HLTH PLAN,KFHP PHARMACY #621,1955 COWELL BLVD,"DAVIS, CA 95618",http://maps.google.com/maps?q=KAISER%20FOUNDATION%20HLTH%20PLAN%2CKFHP%20PHARMACY%20#621%2C+DAVIS%2C+CA+95618
KAISER FOUNDATION HLTH PLN,KFHP MOB 1 PHARMACY,"1 QUALITY DR, MOB A 1ST FL","VACAVILLE, CA 95688",http://maps.google.com/maps?q=KAISER%20FOUNDATION%20HLTH%20PLN%2CKFHP%20MOB%201%20PHARMACY%2C+VACAVILLE%2C+CA+95688
KAISER FOUNDATION HOSP,99 MONTECILLO RD,,"SAN RAFAEL, CA 94903",http://maps.google.com/maps?q=KAISER%20FOUNDATION%20HOSP%2C99%20MONTECILLO%20RD%2C+SAN%20RAFAEL%2C+CA+94903
KAISER FOUNDATION HOSP INCS,KFH O/P HOSPITAL PHARMACY #123,"901 NEVIN AVE, MOB ADDITION","RICHMOND, CA 94801",http://maps.google.com/maps?q=KAISER%20FOUNDATION%20HOSP%20INCS%2CKFH%20O/P%20HOSPITAL%20PHARMACY%20#123%2C+RICHMOND%2C+CA+94801
KAISER PERMAENENTE PHRMCY #102,3701 BROADWAY,FLOOR 1,"OAKLAND, CA 94611",http://maps.google.com/maps?q=KAISER%20PERMAENENTE%20PHRMCY%2C3701%20BROADWAY%2C+OAKLAND%2C+CA+94611
KAISER PERMANENTE,KFHP SAC-FAIR OAKS PHARM,2345 FAIR OAKS BLVD,"SACRAMENTO, CA 95825",http://maps.google.com/maps?q=KAISER%20PERMANENTE%2CKFHP%20SAC-FAIR%20OAKS%20PHARM%2C+SACRAMENTO%2C+CA+95825
KAISER PERMANENTE PHARM #521,KFHP ROHNERT PARK MOB PHARMACY,5900 STATE FARM DRIVE,"ROHNERT PARK, CA 94928",http://maps.google.com/maps?q=KAISER%20PERMANENTE%20PHARM%2CKFHP%20ROHNERT%20PARK%20MOB%20PHARMACY%2C+ROHNERT%20PARK%2C+CA+94928
KAISER PERMANENTE PHARM 357,901 EL CAMINO REAL,,"SAN BRUNO, CA 94066",http://maps.google.com/maps?q=KAISER%20PERMANENTE%20PHARM%2C901%20EL%20CAMINO%20REAL%2C+SAN%20BRUNO%2C+CA+94066
KAISER PERMANENTE PHARMACY,4601 DALE ROAD,1ST FLOOR,"MODESTO, CA 95356",http://maps.google.com/maps?q=KAISER%20PERMANENTE%20PHARMACY%2C4601%20DALE%20ROAD%2C+MODESTO%2C+CA+95356
KAISER PERMANENTE PHARMACY #101,KFHP ALAMEDA MOB PHARMACY,2417 CENTRAL AVENUE,"ALAMEDA, CA 94501",http://maps.google.com/maps?q=KAISER%20PERMANENTE%20PHARMACY%2CKFHP%20ALAMEDA%20MOB%20PHARMACY%2C+ALAMEDA%2C+CA+94501
KAISER PERMANENTE PHARMACY #105,"3600 BROADWAY, FL 1",,"OAKLAND, CA 94611",http://maps.google.com/maps?q=KAISER%20PERMANENTE%20PHARMACY%2C3600%20BROADWAY%2C%20FL%201%2C+OAKLAND%2C+CA+94611
KAISER PERMANENTE PHARMACY #215,"975 SERENO DR, HOSP BLDG",24 HOUR PHARMACY,"VALLEJO, CA 94589",http://maps.google.com/maps?q=KAISER%20PERMANENTE%20PHARMACY%2C975%20SERENO%20DR%2C%20HOSP%20BLDG%2C+VALLEJO%2C+CA+94589
KAISER PERMANENTE PHARMACY #261,LINCOLN OUTPATIENT PHARMACY,1900 DRESDEN DRIVE,"LINCOLN, CA 95648",http://maps.google.com/maps?q=KAISER%20PERMANENTE%20PHARMACY%2CLINCOLN%20OUTPATIENT%20PHARMACY%2C+LINCOLN%2C+CA+95648
KAISER PERMANENTE PHARMACY #303,10305 PROMENADE PKWY FL 1,,"ELK GROVE, CA 95757",http://maps.google.com/maps?q=KAISER%20PERMANENTE%20PHARMACY%2C10305%20PROMENADE%20PKWY%20FL%201%2C+ELK%20GROVE%2C+CA+95757
KAISER PERMANENTE PHARMACY #339,1000 FRANKLIN PKWY W  FLOOR 1,,"SAN MATEO, CA 94403",http://maps.google.com/maps?q=KAISER%20PERMANENTE%20PHARMACY%2C1000%20FRANKLIN%20PKWY%20W%20%20FLOOR%201%2C+SAN%20MATEO%2C+CA+94403
KAISER PERMANENTE PHARMACY #351,1200 EL CAMINO REAL,,"SOUTH SAN FRANCISCO, CA 94080",http://maps.google.com/maps?q=KAISER%20PERMANENTE%20PHARMACY%2C1200%20EL%20CAMINO%20REAL%2C+SOUTH%20SAN%20FRANCISCO%2C+CA+94080
KAISER PERMANENTE PHARMACY #609,6600 BRUCEVILLE RD FL 1 SOUTH TOWER,,"SACRAMENTO, CA 95823",http://maps.google.com/maps?q=KAISER%20PERMANENTE%20PHARMACY%2C6600%20BRUCEVILLE%20RD%20FL%201%20SOUTH%20TOWER%2C+SACRAMENTO%2C+CA+95823
KAISER PERMANENTE PHARMACY #610,"2025 MORSE AVE, FL 2",,"SACRAMENTO, CA 95825",http://maps.google.com/maps?q=KAISER%20PERMANENTE%20PHARMACY%2C2025%20MORSE%20AVE%2C%20FL%202%2C+SACRAMENTO%2C+CA+95825
KAISER PERMANENTE PHARMACY #941,"1600 OWENS ST, 1ST FLOOR",,"SAN FRANCISCO, CA 94158",http://maps.google.com/maps?q=KAISER%20PERMANENTE%20PHARMACY%2C1600%20OWENS%20ST%2C%201ST%20FLOOR%2C+SAN%20FRANCISCO%2C+CA+94158
KAISER PERMANENTE PHMCY #281,2155 IRON POINT ROAD,,"FOLSOM, CA 95630",http://maps.google.com/maps?q=KAISER%20PERMANENTE%20PHMCY%2C2155%20IRON%20POINT%20ROAD%2C+FOLSOM%2C+CA+95630
KAISER PERMANENTE PHRMCY #120,1301 PINOLE VALLEY ROAD,1ST FLOOR,"PINOLE, CA 94564",http://maps.google.com/maps?q=KAISER%20PERMANENTE%20PHRMCY%2C1301%20PINOLE%20VALLEY%20ROAD%2C+PINOLE%2C+CA+94564
KAISER PERMANENTE PHRMCY #241,3000 LAS POSITAS RD,,"LIVERMORE, CA 94550",http://maps.google.com/maps?q=KAISER%20PERMANENTE%20PHRMCY%2C3000%20LAS%20POSITAS%20RD%2C+LIVERMORE%2C+CA+94550
KAISER PERMANENTE PHRMCY #266,"1600 EUREKA RD, MOB 2, FLR 1",,"ROSEVILLE, CA 95661",http://maps.google.com/maps?q=KAISER%20PERMANENTE%20PHRMCY%2C1600%20EUREKA%20RD%2C%20MOB%202%2C%20FLR%201%2C+ROSEVILLE%2C+CA+95661
KAISER PERMANENTE PHRMCY #301,9201 BIG HORN BLVD,1ST FLOOR,"ELK GROVE, CA 95758",http://maps.google.com/maps?q=KAISER%20PERMANENTE%20PHRMCY%2C9201%20BIG%20HORN%20BLVD%2C+ELK%20GROVE%2C+CA+95758
KAISER PERMANENTE PHRMCY #431,2185 W GRANT LINE RD,,"TRACY, CA 95377",http://maps.google.com/maps?q=KAISER%20PERMANENTE%20PHRMCY%2C2185%20W%20GRANT%20LINE%20RD%2C+TRACY%2C+CA+95377
KAISER PERMANENTE PHRMCY #571,KFHP DEER VALLEY MOB1,5601 DEER VALLEY ROAD,"ANTIOCH, CA 94531",http://maps.google.com/maps?q=KAISER%20PERMANENTE%20PHRMCY%2CKFHP%20DEER%20VALLEY%20MOB1%2C+ANTIOCH%2C+CA+94531
KAISER PERMANENTE PHRMCY #608,7300 WYNDHAM DR,,"SACRAMENTO, CA 95823",http://maps.google.com/maps?q=KAISER%20PERMANENTE%20PHRMCY%2C7300%20WYNDHAM%20DR%2C+SACRAMENTO%2C+CA+95823
KAISER PERMANENTE PHRMCY #673,"1 QUALITY DR, SPECIALTY CARE BLDG 1ST FLR",,"VACAVILLE, CA 95688",http://maps.google.com/maps?q=KAISER%20PERMANENTE%20PHRMCY%2C1%20QUALITY%20DR%2C%20SPECIALTY%20CARE%20BLDG%201ST%20FLR%2C+VACAVILLE%2C+CA+95688
KAISER PERMANENTE PHRMCY 341,395 HICKEY BLVD,FIRST FLOOR,"DALY CITY, CA 94015",http://maps.google.com/maps?q=KAISER%20PERMANENTE%20PHRMCY%2C395%20HICKEY%20BLVD%2C+DALY%20CITY%2C+CA+94015
KAISER PERMANENTE PHRMCY 587,3925 OLD REDWOOD HIGHWAY,,"SANTA ROSA, CA 95403",http://maps.google.com/maps?q=KAISER%20PERMANENTE%20PHRMCY%2C3925%20OLD%20REDWOOD%20HIGHWAY%2C+SANTA%20ROSA%2C+CA+95403
KAISER PERMANENTE UNION CITY,MAIN MOB 2 PHARMACY #132,3553 WHIPPLE ROAD,"UNION CITY, CA 94587",http://maps.google.com/maps?q=KAISER%20PERMANENTE%20UNION%20CITY%2CMAIN%20MOB%202%20PHARMACY%20#132%2C+UNION%20CITY%2C+CA+94587
KFHP DOWNTOWN SAN RAFAEL,PHARMACY NO 396,1033 THIRD STREET,"SAN RAFAEL, CA 94901",http://maps.google.com/maps?q=KFHP%20DOWNTOWN%20SAN%20RAFAEL%2CPHARMACY%20NO%20396%2C+SAN%20RAFAEL%2C+CA+94901
KLAMATH TRIBAL HEALTH PHMCY,330 CHILOQUIN BLVD,,"CHILOQUIN, OR 97624",http://maps.google.com/maps?q=KLAMATH%20TRIBAL%20HEALTH%20PHMCY%2C330%20CHILOQUIN%20BLVD%2C+CHILOQUIN%2C+OR+97624
KMART PHARMACY,111 W. MCNIGHT WAY,,"GRASS VALLEY, CA 95949",http://maps.google.com/maps?q=KMART%20PHARMACY%2C111%20W.%20MCNIGHT%20WAY%2C+GRASS%20VALLEY%2C+CA+95949
LAKE DISTRICT HOSPITAL,700 SOUTH J STREET,,"LAKEVIEW, OR 97630",http://maps.google.com/maps?q=LAKE%20DISTRICT%20HOSPITAL%2C700%20SOUTH%20J%20STREET%2C+LAKEVIEW%2C+OR+97630
LARK REXALL DRUGS INC,16251 MAIN STREET,,"GUERNEVILLE, CA 95446",http://maps.google.com/maps?q=LARK%20REXALL%20DRUGS%20INC%2C16251%20MAIN%20STREET%2C+GUERNEVILLE%2C+CA+95446
LASSEN DRUG,271 MAIN STREET,P.O.BOX 827,"CHESTER, CA 96020",http://maps.google.com/maps?q=LASSEN%20DRUG%2C271%20MAIN%20STREET%2C+CHESTER%2C+CA+96020
LODI HEALTH PHARMACY WEST,2415. W. VINE,SUITE 104B,"LODI, CA 95242",http://maps.google.com/maps?q=LODI%20HEALTH%20PHARMACY%20WEST%2C2415.%20W.%20VINE%2C+LODI%2C+CA+95242
"LONGS DRUG STORES CALIFORNIA, L.L.C.",1700 MCHENRY AVE.,,"MODESTO, CA 95350",http://maps.google.com/maps?q=LONGS%20DRUG%20STORES%20CALIFORNIA%20LLC%2C1700%20MCHENRY%20AVE.%2C+MODESTO%2C+CA+95350
"LONGS DRUG STORES CALIFORNIA, L.L.C.",2605 WEST MARCH LANE,,"STOCKTON, CA 95207",http://maps.google.com/maps?q=LONGS%20DRUG%20STORES%20CALIFORNIA%20LLC%2C2605%20WEST%20MARCH%20LANE%2C+STOCKTON%2C+CA+95207
"LONGS DRUG STORES CALIFORNIA, L.L.C.",5420 DEWEY DR,,"FAIR OAKS, CA 95628",http://maps.google.com/maps?q=LONGS%20DRUG%20STORES%20CALIFORNIA%20LLC%2C5420%20DEWEY%20DR%2C+FAIR%20OAKS%2C+CA+95628
LUCKY PHARMACY #783,777 E MONTE VISTA AVE,,"VACAVILLE, CA 95688",http://maps.google.com/maps?q=LUCKY%20PHARMACY%2C777%20E%20MONTE%20VISTA%20AVE%2C+VACAVILLE%2C+CA+95688
MARIN MEDICAL PHARMACY,NORTHGATE MEDICAL/DENTAL CTR,750 LAS GALLINAS AVE #104,"SAN RAFAEL, CA 94903",http://maps.google.com/maps?q=MARIN%20MEDICAL%20PHARMACY%2CNORTHGATE%20MEDICAL/DENTAL%20CTR%2C+SAN%20RAFAEL%2C+CA+94903
MIDTOWN PHARMACY PROFESSIONAL CORPORATION,2173 HARBOR BAY PARKWAY,,"ALAMEDA, CA 94502",http://maps.google.com/maps?q=MIDTOWN%20PHARMACY%20PROFESSIONAL%20CORPORATION%2C2173%20HARBOR%20BAY%20PARKWAY%2C+ALAMEDA%2C+CA+94502
MISSION PHARMACY,22138 MISSION BLVD,,"HAYWARD, CA 94541",http://maps.google.com/maps?q=MISSION%20PHARMACY%2C22138%20MISSION%20BLVD%2C+HAYWARD%2C+CA+94541
"MISSION WELLNESS HEALTHCARE, LLC",2424 MISSION STREET,,"SAN FRANCISCO, CA 94110",http://maps.google.com/maps?q=MISSION%20WELLNESS%20HEALTHCARE%20LLC%2C2424%20MISSION%20STREET%2C+SAN%20FRANCISCO%2C+CA+94110
MOWRY MEDICAL PHARMACY,1999 MOWRY AVENUE,SUITE #2A,"FREMONT, CA 94538",http://maps.google.com/maps?q=MOWRY%20MEDICAL%20PHARMACY%2C1999%20MOWRY%20AVENUE%2C+FREMONT%2C+CA+94538
NEMS - CLEMENT PHARMACY,1019 CLEMENT ST,,"SAN FRANCISCO, CA 94118",http://maps.google.com/maps?q=NEMS%20%20CLEMENT%20PHARMACY%2C1019%20CLEMENT%20ST%2C+SAN%20FRANCISCO%2C+CA+94118
NEMS- EASTMOOR PHARMACY,211 EASTMOOR AVE,,"DALY CITY, CA 94015",http://maps.google.com/maps?q=NEMS%20EASTMOOR%20PHARMACY%2C211%20EASTMOOR%20AVE%2C+DALY%20CITY%2C+CA+94015
NEMS-NORIEGA PHARMACY,1400 NORIEGA STREET,,"SAN FRANCISCO, CA 94122",http://maps.google.com/maps?q=NEMSNORIEGA%20PHARMACY%2C1400%20NORIEGA%20STREET%2C+SAN%20FRANCISCO%2C+CA+94122
NEMS-SAN BRUNO PHARMACY,2574 SAN BRUNO AVENUE,,"SAN FRANCISCO, CA 94134",http://maps.google.com/maps?q=NEMSSAN%20BRUNO%20PHARMACY%2C2574%20SAN%20BRUNO%20AVENUE%2C+SAN%20FRANCISCO%2C+CA+94134
NEW OAKLAND PHARMACY #1,333 NINTH STREET,,"OAKLAND, CA 94607",http://maps.google.com/maps?q=NEW%20OAKLAND%20PHARMACY%2C333%20NINTH%20STREET%2C+OAKLAND%2C+CA+94607
NEW OAKLAND PHARMACY - LAKE MERRITT,250 E18TH ST,3RD FLOOR,"OAKLAND, CA 94606",http://maps.google.com/maps?q=NEW%20OAKLAND%20PHARMACY%20%20LAKE%20MERRITT%2C250%20E18TH%20ST%2C+OAKLAND%2C+CA+94606
NEWARK HALLER'S PHARMACY,6170 THORNTON AVE SUITE E,,"NEWARK, CA 94560",http://maps.google.com/maps?q=NEWARK%20HALLERS%20PHARMACY%2C6170%20THORNTON%20AVE%20SUITE%20E%2C+NEWARK%2C+CA+94560
NORTH EAST MEDICAL SERVICES,1520 STOCKTON STREET,,"SAN FRANCISCO, CA 94133",http://maps.google.com/maps?q=NORTH%20EAST%20MEDICAL%20SERVICES%2C1520%20STOCKTON%20STREET%2C+SAN%20FRANCISCO%2C+CA+94133
OAKLAND PHARMACY INC.,388 - 9TH STREET,#108,"OAKLAND, CA 94607",http://maps.google.com/maps?q=OAKLAND%20PHARMACY%20INC%2C388%20-%209TH%20STREET%2C+OAKLAND%2C+CA+94607
"OMEGAMARG PHARMACY, INC",121 TUNSTEAD AVENUE,,"SAN ANSELMO, CA 94960",http://maps.google.com/maps?q=OMEGAMARG%20PHARMACY%20INC%2C121%20TUNSTEAD%20AVENUE%2C+SAN%20ANSELMO%2C+CA+94960
ONE COMMUNITY HEALTH PHARMACY,1500 21ST ST BLDG B STE 1-036,,"SACRAMENTO, CA 95811",http://maps.google.com/maps?q=ONE%20COMMUNITY%20HEALTH%20PHARMACY%2C1500%2021ST%20ST%20BLDG%20B%20STE%201-036%2C+SACRAMENTO%2C+CA+95811
ORCHARD HOSPITAL,POST OFFICE BOX 97,240 SPRUCE ST,"GRIDLEY, CA 95948",http://maps.google.com/maps?q=ORCHARD%20HOSPITAL%2CPOST%20OFFICE%20BOX%2097%2C+GRIDLEY%2C+CA+95948
OWENS PHARMACY  #3,2975 EAST ST,,"ANDERSON, CA 96007",http://maps.google.com/maps?q=OWENS%20PHARMACY%2C2975%20EAST%20ST%2C+ANDERSON%2C+CA+96007
OWENS PHARMACY #1,2025 COURT STREET,SUITE A,"REDDING, CA 96001",http://maps.google.com/maps?q=OWENS%20PHARMACY%2C2025%20COURT%20STREET%2C+REDDING%2C+CA+96001
OWENS PHARMACY #17,317 LAKE BLVD STE B,,"REDDING, CA 96003",http://maps.google.com/maps?q=OWENS%20PHARMACY%2C317%20LAKE%20BLVD%20STE%20B%2C+REDDING%2C+CA+96003
OWENS PHARMACY #18,"50 NUGGET LANE, STE C",PO BOX 1880,"WEAVERVILLE, CA 96093",http://maps.google.com/maps?q=OWENS%20PHARMACY%2C50%20NUGGET%20LANE%2C%20STE%20C%2C+WEAVERVILLE%2C+CA+96093
OWENS PHARMACY #2,2880 CHURN CREEK ROAD STE A,,"REDDING, CA 96002",http://maps.google.com/maps?q=OWENS%20PHARMACY%2C2880%20CHURN%20CREEK%20ROAD%20STE%20A%2C+REDDING%2C+CA+96002
PALCO PHARMACY,SUITE D,PO BOX 157,"SCOTIA, CA 95565",http://maps.google.com/maps?q=PALCO%20PHARMACY%2CSUITE%20D%2C+SCOTIA%2C+CA+95565
POST DIVISADERO MEDICAL PHCY,2299 POST STREET,SUITE 109,"SAN FRANCISCO, CA 94115",http://maps.google.com/maps?q=POST%20DIVISADERO%20MEDICAL%20PHCY%2C2299%20POST%20STREET%2C+SAN%20FRANCISCO%2C+CA+94115
PUCCI'S PHARMACY,2821 J STREET,,"SACRAMENTO, CA 95816",http://maps.google.com/maps?q=PUCCIS%20PHARMACY%2C2821%20J%20STREET%2C+SACRAMENTO%2C+CA+95816
QUINCY PHARMACY,411 MAIN ST.,,"QUINCY, CA 95971",http://maps.google.com/maps?q=QUINCY%20PHARMACY%2C411%20MAIN%20ST.%2C+QUINCY%2C+CA+95971
REDWOOD MEMORIAL HOSPITAL,3300 RENNER DRIVE,,"FORTUNA, CA 95540",http://maps.google.com/maps?q=REDWOOD%20MEMORIAL%20HOSPITAL%2C3300%20RENNER%20DRIVE%2C+FORTUNA%2C+CA+95540
"RELIABLE REXALL SUNSET PHARMACY, INC",801 IRVING STREET,,"SAN FRANCISCO, CA 94122",http://maps.google.com/maps?q=RELIABLE%20REXALL%20SUNSET%20PHARMACY%20INC%2C801%20IRVING%20STREET%2C+SAN%20FRANCISCO%2C+CA+94122
RENO-SPARKS TRIBAL HLTH CTR,1715 KUENZLI ST,PHARMACY DEPARTMENT,"RENO, NV 89502",http://maps.google.com/maps?q=RENOSPARKS%20TRIBAL%20HLTH%20CTR%2C1715%20KUENZLI%20ST%2C+RENO%2C+NV+89502
RINGS PHARMACY,362 MAIN STREET,PO BOX 577,"FERNDALE, CA 95536",http://maps.google.com/maps?q=RINGS%20PHARMACY%2C362%20MAIN%20STREET%2C+FERNDALE%2C+CA+95536
ROBINSON'S PHARMACY,359 MAIN STREET,,"PLACERVILLE, CA 95667",http://maps.google.com/maps?q=ROBINSONS%20PHARMACY%2C359%20MAIN%20STREET%2C+PLACERVILLE%2C+CA+95667
RODERICK PHARMACY GROUP INC,DBA RX EXPRESS PHARMACY,711 E MARKET STREET,"STOCKTON, CA 95202",http://maps.google.com/maps?q=RODERICK%20PHARMACY%20GROUP%20INC%2CDBA%20RX%20EXPRESS%20PHARMACY%2C+STOCKTON%2C+CA+95202
ROGUE COMMUNITY HEALTH PHARMACY,19 MYRTLE ST,,"MEDFORD, OR 97504",http://maps.google.com/maps?q=ROGUE%20COMMUNITY%20HEALTH%20PHARMACY%2C19%20MYRTLE%20ST%2C+MEDFORD%2C+OR+97504
ROGUE COMMUNITY HEALTH PHARMACY 2,8385 DIVISION ROAD,,"WHITE CITY, OR 97503",http://maps.google.com/maps?q=ROGUE%20COMMUNITY%20HEALTH%20PHARMACY%2C8385%20DIVISION%20ROAD%2C+WHITE%20CITY%2C+OR+97503
"SACRAMENTO STATE, STUDENT HEALTH SERVICES PHARMACY",THE WELL 6000 J STREET 1ST FL,,"SACRAMENTO, CA 95819",http://maps.google.com/maps?q=SACRAMENTO%20STATE%20STUDENT%20HEALTH%20SERVICES%20PHARMACY%2CTHE%20WELL%206000%20J%20STREET%201ST%20FL%2C+SACRAMENTO%2C+CA+95819
SAN LEANDRO HOSPITAL,13855 E 14TH STREET,,"SAN LEANDRO, CA 94578",http://maps.google.com/maps?q=SAN%20LEANDRO%20HOSPITAL%2C13855%20E%2014TH%20STREET%2C+SAN%20LEANDRO%2C+CA+94578
SAN MATEO MEDICAL CENTER,222 W. 39TH AVE,,"SAN MATEO, CA 94403",http://maps.google.com/maps?q=SAN%20MATEO%20MEDICAL%20CENTER%2C222%20W.%2039TH%20AVE%2C+SAN%20MATEO%2C+CA+94403
SAN MATEO NEIGHBORHOOD PHARMACY,9 37TH AVENUE,,"SAN MATEO, CA 94403",http://maps.google.com/maps?q=SAN%20MATEO%20NEIGHBORHOOD%20PHARMACY%2C9%2037TH%20AVENUE%2C+SAN%20MATEO%2C+CA+94403
SCRIPTDASH INC.,1400 TENNESSEE STREET UNIT 2,,"SAN FRANCISCO, CA 94107",http://maps.google.com/maps?q=SCRIPTDASH%20INC%2C1400%20TENNESSEE%20STREET%20UNIT%202%2C+SAN%20FRANCISCO%2C+CA+94107
SF GENERAL HOSPITAL MED CEN,DEPT OF PHARMACY ROOM 1P2,1001 POTRERO AVE,"SAN FRANCISCO, CA 94110",http://maps.google.com/maps?q=SF%20GENERAL%20HOSPITAL%20MED%20CEN%2CDEPT%20OF%20PHARMACY%20ROOM%201P2%2C+SAN%20FRANCISCO%2C+CA+94110
SHINGLE SPRINGS HEALTH AND WELLNESS CENTER,5168 HONPIE RD,,"PLACERVILLE, CA 95667",http://maps.google.com/maps?q=SHINGLE%20SPRINGS%20HEALTH%20AND%20WELLNESS%20CENTER%2C5168%20HONPIE%20RD%2C+PLACERVILLE%2C+CA+95667
STANFORD EMERYVILLE HEALTH CENTER PHARMACY,"5800 HOLLIS STREET, ROOM 2325",,"EMERYVILLE, CA 94608",http://maps.google.com/maps?q=STANFORD%20EMERYVILLE%20HEALTH%20CENTER%20PHARMACY%2C5800%20HOLLIS%20STREET%2C%20ROOM%202325%2C+EMERYVILLE%2C+CA+94608
STUDENT HLTH CENTER PHARMACY,SONOMA STATE UNIVERSITY,1801 EAST COTATI AVENUE,"ROHNERT PARK, CA 94928",http://maps.google.com/maps?q=STUDENT%20HLTH%20CENTER%20PHARMACY%2CSONOMA%20STATE%20UNIVERSITY%2C+ROHNERT%20PARK%2C+CA+94928
STUDENT HLTH SERVICE PHARMACY,SAN FRANCISCO STATE UNIVERSITY,1600 HOLLOWAY AVE,"SAN FRANCISCO, CA 94132",http://maps.google.com/maps?q=STUDENT%20HLTH%20SERVICE%20PHARMACY%2CSAN%20FRANCISCO%20STATE%20UNIVERSITY%2C+SAN%20FRANCISCO%2C+CA+94132
SUNSHINE CENTER PHARMACY,1166 OLD MISSION ROAD,,"SOUTH SAN FRANCISCO, CA 94080",http://maps.google.com/maps?q=SUNSHINE%20CENTER%20PHARMACY%2C1166%20OLD%20MISSION%20ROAD%2C+SOUTH%20SAN%20FRANCISCO%2C+CA+94080
TEDS DRUGS,27453 HESPERIAN BLVD.,,"HAYWARD, CA 94545",http://maps.google.com/maps?q=TEDS%20DRUGS%2C27453%20HESPERIAN%20BLVD.%2C+HAYWARD%2C+CA+94545
TENNYSON PHARMACY,589 WEST TENNYSON ROAD,,"HAYWARD, CA 94544",http://maps.google.com/maps?q=TENNYSON%20PHARMACY%2C589%20WEST%20TENNYSON%20ROAD%2C+HAYWARD%2C+CA+94544
THE MEDICINE SHOPPE PHARMACY,812 5TH ST.,,"MARYSVILLE, CA 95901",http://maps.google.com/maps?q=THE%20MEDICINE%20SHOPPE%20PHARMACY%2C812%205TH%20ST.%2C+MARYSVILLE%2C+CA+95901
UNITED INDIAN HEALTH SERVICES,1600 WEEOT WAY,,"ARCATA, CA 95521",http://maps.google.com/maps?q=UNITED%20INDIAN%20HEALTH%20SERVICES%2C1600%20WEEOT%20WAY%2C+ARCATA%2C+CA+95521
UNITED PHARMACY,2929 TELEGRAPH AVENUE,,"BERKELEY, CA 94705",http://maps.google.com/maps?q=UNITED%20PHARMACY%2C2929%20TELEGRAPH%20AVENUE%2C+BERKELEY%2C+CA+94705
UNIV OF CAL,"TANG CENTER, 2222 BANCROFT WAY",ROOM 1115,"BERKELEY, CA 94720",http://maps.google.com/maps?q=UNIV%20OF%20CAL%2CTANG%20CENTER%2C%202222%20BANCROFT%20WAY%2C+BERKELEY%2C+CA+94720
USAF 9MDG/SGSM FM4686,15301 WARREN SHINGLE RD,,"BEALE AFB, CA 95903",http://maps.google.com/maps?q=USAF%20MDGSGSM%20FM%2C15301%20WARREN%20SHINGLE%20RD%2C+BEALE%20AFB%2C+CA+95903
USAF- DAVID GRANT MEDICAL CENTER,BLDG 777 1ST FLOOR WEST WING,101 BODIN CIRCLE,"TRAVIS AFB, CA 94535",http://maps.google.com/maps?q=USAF%20DAVID%20GRANT%20MEDICAL%20CENTER%2CBLDG%20777%201ST%20FLOOR%20WEST%20WING%2C+TRAVIS%20AFB%2C+CA+94535
USAF-BASE EXCHANGE PHARMACY,461 SKYMASTER CIRCLE,"BLDG 650, ROOM 149","TRAVIS AFB, CA 94535",http://maps.google.com/maps?q=USAFBASE%20EXCHANGE%20PHARMACY%2C461%20SKYMASTER%20CIRCLE%2C+TRAVIS%20AFB%2C+CA+94535
VASCONI DRUGS,1381 MAIN ST,,"SAINT HELENA, CA 94574",http://maps.google.com/maps?q=VASCONI%20DRUGS%2C1381%20MAIN%20ST%2C+SAINT%20HELENA%2C+CA+94574
VET ADMINISTRATION,2221 MARTIN LUTHER KING JR WAY,PHARMACY SERVICE,"OAKLAND, CA 94612",http://maps.google.com/maps?q=VET%20ADMINISTRATION%2C2221%20MARTIN%20LUTHER%20KING%20JR%20WAY%2C+OAKLAND%2C+CA+94612
VILLAGE DRUG CO,225 MAIN STREET,,"GREENVILLE, CA 95947",http://maps.google.com/maps?q=VILLAGE%20DRUG%20CO%2C225%20MAIN%20STREET%2C+GREENVILLE%2C+CA+95947
VISITACION VALLEY PHARMACY,100 LELAND AVE,,"SAN FRANCISCO, CA 94134",http://maps.google.com/maps?q=VISITACION%20VALLEY%20PHARMACY%2C100%20LELAND%20AVE%2C+SAN%20FRANCISCO%2C+CA+94134
VITACARE PHARMACY,2447 TELEGRAPH AVE,,"OAKLAND, CA 94612",http://maps.google.com/maps?q=VITACARE%20PHARMACY%2C2447%20TELEGRAPH%20AVE%2C+OAKLAND%2C+CA+94612
WALGREEN CO.,1050 REDWOOD STREET,,"VALLEJO, CA 94590",http://maps.google.com/maps?q=WALGREEN%20CO%2C1050%20REDWOOD%20STREET%2C+VALLEJO%2C+CA+94590
WALGREEN CO.,111 UNION AVE,,"GRANTS PASS, OR 97527",http://maps.google.com/maps?q=WALGREEN%20CO%2C111%20UNION%20AVE%2C+GRANTS%20PASS%2C+OR+97527
WALGREEN CO.,11565 SAN PABLO AVE,,"EL CERRITO, CA 94530",http://maps.google.com/maps?q=WALGREEN%20CO%2C11565%20SAN%20PABLO%20AVE%2C+EL%20CERRITO%2C+CA+94530
WALGREEN CO.,1189 POTRERO AVE,,"SAN FRANCISCO, CA 94110",http://maps.google.com/maps?q=WALGREEN%20CO%2C1189%20POTRERO%20AVE%2C+SAN%20FRANCISCO%2C+CA+94110
WALGREEN CO.,15500 WASHINGTON AVE,,"SAN LEANDRO, CA 94579",http://maps.google.com/maps?q=WALGREEN%20CO%2C15500%20WASHINGTON%20AVE%2C+SAN%20LEANDRO%2C+CA+94579
WALGREEN CO.,1591 GEER ROAD,,"TURLOCK, CA 95380",http://maps.google.com/maps?q=WALGREEN%20CO%2C1591%20GEER%20ROAD%2C+TURLOCK%2C+CA+95380
WALGREEN CO.,2300 OTIS DRIVE,,"ALAMEDA, CA 94501",http://maps.google.com/maps?q=WALGREEN%20CO%2C2300%20OTIS%20DRIVE%2C+ALAMEDA%2C+CA+94501
WALGREEN CO.,260 EL CAMINO REAL,,"BURLINGAME, CA 94010",http://maps.google.com/maps?q=WALGREEN%20CO%2C260%20EL%20CAMINO%20REAL%2C+BURLINGAME%2C+CA+94010
WALGREEN CO.,275 SACRAMENTO ST,,"SAN FRANCISCO, CA 94111",http://maps.google.com/maps?q=WALGREEN%20CO%2C275%20SACRAMENTO%20ST%2C+SAN%20FRANCISCO%2C+CA+94111
WALGREEN CO.,2900 N MAIN ST,,"WALNUT CREEK, CA 94597",http://maps.google.com/maps?q=WALGREEN%20CO%2C2900%20N%20MAIN%20ST%2C+WALNUT%20CREEK%2C+CA+94597
WALGREEN CO.,3201 DIVISADERO ST,,"SAN FRANCISCO, CA 94123",http://maps.google.com/maps?q=WALGREEN%20CO%2C3201%20DIVISADERO%20ST%2C+SAN%20FRANCISCO%2C+CA+94123
WALGREEN CO.,4610 SONOMA HWY,,"SANTA ROSA, CA 95409",http://maps.google.com/maps?q=WALGREEN%20CO%2C4610%20SONOMA%20HWY%2C+SANTA%20ROSA%2C+CA+95409
WALGREEN CO.,498 CASTRO ST,,"SAN FRANCISCO, CA 94114",http://maps.google.com/maps?q=WALGREEN%20CO%2C498%20CASTRO%20ST%2C+SAN%20FRANCISCO%2C+CA+94114
WALGREEN CO.,5280 GEARY BLVD,,"SAN FRANCISCO, CA 94118",http://maps.google.com/maps?q=WALGREEN%20CO%2C5280%20GEARY%20BLVD%2C+SAN%20FRANCISCO%2C+CA+94118
WALGREEN CO.,6144 DEWEY DRIVE,,"CITRUS HEIGHTS, CA 95621",http://maps.google.com/maps?q=WALGREEN%20CO%2C6144%20DEWEY%20DRIVE%2C+CITRUS%20HEIGHTS%2C+CA+95621
WALGREEN CO.,7299 LAGUNA BLVD,,"ELK GROVE, CA 95758",http://maps.google.com/maps?q=WALGREEN%20CO%2C7299%20LAGUNA%20BLVD%2C+ELK%20GROVE%2C+CA+95758
WALGREEN CO.,75 NORTH HAM LANE,,"LODI, CA 95242",http://maps.google.com/maps?q=WALGREEN%20CO%2C75%20NORTH%20HAM%20LANE%2C+LODI%2C+CA+95242
WALGREEN CO.,750 N VIRGINIA ST,,"RENO, NV 89501",http://maps.google.com/maps?q=WALGREEN%20CO%2C750%20N%20VIRGINIA%20ST%2C+RENO%2C+NV+89501
WALGREEN CO.,855 COLUSA AVE,,"YUBA CITY, CA 95991",http://maps.google.com/maps?q=WALGREEN%20CO%2C855%20COLUSA%20AVE%2C+YUBA%20CITY%2C+CA+95991
WALGREEN CO.,860 EAST AVENUE,,"CHICO, CA 95926",http://maps.google.com/maps?q=WALGREEN%20CO%2C860%20EAST%20AVENUE%2C+CHICO%2C+CA+95926
WASHINGTON HOSPITAL PHARMACY,2000 MOWRY AVE,,"FREMONT, CA 94538",http://maps.google.com/maps?q=WASHINGTON%20HOSPITAL%20PHARMACY%2C2000%20MOWRY%20AVE%2C+FREMONT%2C+CA+94538
WASHOE BARTON MEDICAL CLINIC,1107 HIGHWAY 395,,"GARDNERVILLE, NV 89410",http://maps.google.com/maps?q=WASHOE%20BARTON%20MEDICAL%20CLINIC%2C1107%20HIGHWAY%20395%2C+GARDNERVILLE%2C+NV+89410
WELLSPRING PHARMACY,4184 PIEDMONT AVE STE C,,"OAKLAND, CA 94611",http://maps.google.com/maps?q=WELLSPRING%20PHARMACY%2C4184%20PIEDMONT%20AVE%20STE%20C%2C+OAKLAND%2C+CA+94611
WILLOW CREEK PHARMACY,39050 HIGHWAY 299,,"WILLOW CREEK, CA 95573",http://maps.google.com/maps?q=WILLOW%20CREEK%20PHARMACY%2C39050%20HIGHWAY%20299%2C+WILLOW%20CREEK%2C+CA+95573
"YANTIS ENTERPRISES, INC",29670 ELLENSBURG AVE,,"GOLD BEACH, OR 97444",http://maps.google.com/maps?q=YANTIS%20ENTERPRISES%20INC%2C29670%20ELLENSBURG%20AVE%2C+GOLD%20BEACH%2C+OR+97444
