Business Name,Address 1,Address 2,"City, State Zip",Map URL
"ARMITAGE PHARMACY, INC.",3650 W ARMITAGE AVE,STE 100,"CHICAGO, IL 60647",http://maps.google.com/maps?q=ARMITAGE%20PHARMACY%20INC%2C3650%20W%20ARMITAGE%20AVE%2C+CHICAGO%2C+IL+60647
BELOIT HEALTH SYSTEM,1969 WEST HART RD,,"BELOIT, WI 53511",http://maps.google.com/maps?q=BELOIT%20HEALTH%20SYSTEM%2C1969%20WEST%20HART%20RD%2C+BELOIT%2C+WI+53511
"BOND DRUG COMPANY OF ILLINOIS, L.L.C.",1000 OGDEN AVENUE,,"DOWNERS GROVE, IL 60515",http://maps.google.com/maps?q=BOND%20DRUG%20COMPANY%20OF%20ILLINOIS%20LLC%2C1000%20OGDEN%20AVENUE%2C+DOWNERS%20GROVE%2C+IL+60515
"BOND DRUG COMPANY OF ILLINOIS, L.L.C.",111 S. HALSTED STREET,,"CHICAGO, IL 60661",http://maps.google.com/maps?q=BOND%20DRUG%20COMPANY%20OF%20ILLINOIS%20LLC%2C111%20S.%20HALSTED%20STREET%2C+CHICAGO%2C+IL+60661
"BOND DRUG COMPANY OF ILLINOIS, L.L.C.",1311 N STATE ROUTE 48,,"DECATUR, IL 62526",http://maps.google.com/maps?q=BOND%20DRUG%20COMPANY%20OF%20ILLINOIS%20LLC%2C1311%20N%20STATE%20ROUTE%2048%2C+DECATUR%2C+IL+62526
"BOND DRUG COMPANY OF ILLINOIS, L.L.C.",15 N BUFFALO GROVE RD,,"BUFFALO GROVE, IL 60089",http://maps.google.com/maps?q=BOND%20DRUG%20COMPANY%20OF%20ILLINOIS%20LLC%2C15%20N%20BUFFALO%20GROVE%20RD%2C+BUFFALO%20GROVE%2C+IL+60089
"BOND DRUG COMPANY OF ILLINOIS, L.L.C.",1525 N VETERANS PKWY,,"BLOOMINGTON, IL 61704",http://maps.google.com/maps?q=BOND%20DRUG%20COMPANY%20OF%20ILLINOIS%20LLC%2C1525%20N%20VETERANS%20PKWY%2C+BLOOMINGTON%2C+IL+61704
"BOND DRUG COMPANY OF ILLINOIS, L.L.C.",1633 W. 95TH STREET,,"CHICAGO, IL 60643",http://maps.google.com/maps?q=BOND%20DRUG%20COMPANY%20OF%20ILLINOIS%20LLC%2C1633%20W.%2095TH%20STREET%2C+CHICAGO%2C+IL+60643
"BOND DRUG COMPANY OF ILLINOIS, L.L.C.",1713 W. SPRINGFIELD,,"CHAMPAIGN, IL 61821",http://maps.google.com/maps?q=BOND%20DRUG%20COMPANY%20OF%20ILLINOIS%20LLC%2C1713%20W.%20SPRINGFIELD%2C+CHAMPAIGN%2C+IL+61821
"BOND DRUG COMPANY OF ILLINOIS, L.L.C.",1799 DOUGLAS RD,,"MONTGOMERY, IL 60538",http://maps.google.com/maps?q=BOND%20DRUG%20COMPANY%20OF%20ILLINOIS%20LLC%2C1799%20DOUGLAS%20RD%2C+MONTGOMERY%2C+IL+60538
"BOND DRUG COMPANY OF ILLINOIS, L.L.C.",1801 INGALLS AVE,,"JOLIET, IL 60435",http://maps.google.com/maps?q=BOND%20DRUG%20COMPANY%20OF%20ILLINOIS%20LLC%2C1801%20INGALLS%20AVE%2C+JOLIET%2C+IL+60435
"BOND DRUG COMPANY OF ILLINOIS, L.L.C.",1811 BELVIDERE RD,,"WAUKEGAN, IL 60085",http://maps.google.com/maps?q=BOND%20DRUG%20COMPANY%20OF%20ILLINOIS%20LLC%2C1811%20BELVIDERE%20RD%2C+WAUKEGAN%2C+IL+60085
"BOND DRUG COMPANY OF ILLINOIS, L.L.C.",1931 W CERMAK RD,,"CHICAGO, IL 60608",http://maps.google.com/maps?q=BOND%20DRUG%20COMPANY%20OF%20ILLINOIS%20LLC%2C1931%20W%20CERMAK%20RD%2C+CHICAGO%2C+IL+60608
"BOND DRUG COMPANY OF ILLINOIS, L.L.C.",200 E ROOSEVELT,,"VILLA PARK, IL 60181",http://maps.google.com/maps?q=BOND%20DRUG%20COMPANY%20OF%20ILLINOIS%20LLC%2C200%20E%20ROOSEVELT%2C+VILLA%20PARK%2C+IL+60181
"BOND DRUG COMPANY OF ILLINOIS, L.L.C.",2020 COURT STREET,,"PEKIN, IL 61554",http://maps.google.com/maps?q=BOND%20DRUG%20COMPANY%20OF%20ILLINOIS%20LLC%2C2020%20COURT%20STREET%2C+PEKIN%2C+IL+61554
"BOND DRUG COMPANY OF ILLINOIS, L.L.C.",20950 GOVERNORS HWY.,,"OLYMPIA FIELDS, IL 60461",http://maps.google.com/maps?q=BOND%20DRUG%20COMPANY%20OF%20ILLINOIS%20LLC%2C20950%20GOVERNORS%20HWY.%2C+OLYMPIA%20FIELDS%2C+IL+60461
"BOND DRUG COMPANY OF ILLINOIS, L.L.C.",2323 CHARLES STREET,,"ROCKFORD, IL 61104",http://maps.google.com/maps?q=BOND%20DRUG%20COMPANY%20OF%20ILLINOIS%20LLC%2C2323%20CHARLES%20STREET%2C+ROCKFORD%2C+IL+61104
"BOND DRUG COMPANY OF ILLINOIS, L.L.C.",3201 N. BROADWAY ST.,,"CHICAGO, IL 60657",http://maps.google.com/maps?q=BOND%20DRUG%20COMPANY%20OF%20ILLINOIS%20LLC%2C3201%20N.%20BROADWAY%20ST.%2C+CHICAGO%2C+IL+60657
"BOND DRUG COMPANY OF ILLINOIS, L.L.C.",3925 W ELM STREET,,"MCHENRY, IL 60050",http://maps.google.com/maps?q=BOND%20DRUG%20COMPANY%20OF%20ILLINOIS%20LLC%2C3925%20W%20ELM%20STREET%2C+MCHENRY%2C+IL+60050
"BOND DRUG COMPANY OF ILLINOIS, L.L.C.",4343 N CENTRAL AVE,,"CHICAGO, IL 60634",http://maps.google.com/maps?q=BOND%20DRUG%20COMPANY%20OF%20ILLINOIS%20LLC%2C4343%20N%20CENTRAL%20AVE%2C+CHICAGO%2C+IL+60634
"BOND DRUG COMPANY OF ILLINOIS, L.L.C.",466 NELSON ROAD,,"NEW LENOX, IL 60451",http://maps.google.com/maps?q=BOND%20DRUG%20COMPANY%20OF%20ILLINOIS%20LLC%2C466%20NELSON%20ROAD%2C+NEW%20LENOX%2C+IL+60451
"BOND DRUG COMPANY OF ILLINOIS, L.L.C.",5600 W. FULLERTON,,"CHICAGO, IL 60639",http://maps.google.com/maps?q=BOND%20DRUG%20COMPANY%20OF%20ILLINOIS%20LLC%2C5600%20W.%20FULLERTON%2C+CHICAGO%2C+IL+60639
"BOND DRUG COMPANY OF ILLINOIS, L.L.C.",5625 N. RIDGE AVE,,"CHICAGO, IL 60660",http://maps.google.com/maps?q=BOND%20DRUG%20COMPANY%20OF%20ILLINOIS%20LLC%2C5625%20N.%20RIDGE%20AVE%2C+CHICAGO%2C+IL+60660
"BOND DRUG COMPANY OF ILLINOIS, L.L.C.",63 WEST 87TH ST,,"NAPERVILLE, IL 60565",http://maps.google.com/maps?q=BOND%20DRUG%20COMPANY%20OF%20ILLINOIS%20LLC%2C63%20WEST%2087TH%20ST%2C+NAPERVILLE%2C+IL+60565
"BOND DRUG COMPANY OF ILLINOIS, L.L.C.",641 N CLARK ST,,"CHICAGO, IL 60654",http://maps.google.com/maps?q=BOND%20DRUG%20COMPANY%20OF%20ILLINOIS%20LLC%2C641%20N%20CLARK%20ST%2C+CHICAGO%2C+IL+60654
"BOND DRUG COMPANY OF ILLINOIS, L.L.C.",7350 BARRINGTON RD.,,"HANOVER PARK, IL 60133",http://maps.google.com/maps?q=BOND%20DRUG%20COMPANY%20OF%20ILLINOIS%20LLC%2C7350%20BARRINGTON%20RD.%2C+HANOVER%20PARK%2C+IL+60133
"BOND DRUG COMPANY OF ILLINOIS, L.L.C.",780 WAUKEGAN RD,,"DEERFIELD, IL 60015",http://maps.google.com/maps?q=BOND%20DRUG%20COMPANY%20OF%20ILLINOIS%20LLC%2C780%20WAUKEGAN%20RD%2C+DEERFIELD%2C+IL+60015
"BOND DRUG COMPANY OF ILLINOIS, L.L.C.",9000 N. GREENWOOD AVE,,"NILES, IL 60714",http://maps.google.com/maps?q=BOND%20DRUG%20COMPANY%20OF%20ILLINOIS%20LLC%2C9000%20N.%20GREENWOOD%20AVE%2C+NILES%2C+IL+60714
CAPT. JAMES A. LOVELL FEDERAL HEALTH CARE CENTER,2410 SAMPSON STREET,BLDG 237 (PHARMACY DEPARTMENT),"GREAT LAKES, IL 60088",http://maps.google.com/maps?q=CAPT%20JAMES%20A%20LOVELL%20FEDERAL%20HEALTH%20CARE%20CENTER%2C2410%20SAMPSON%20STREET%2C+GREAT%20LAKES%2C+IL+60088
CAPT. JAMES A. LOVELL FEDERAL HEALTH CARE CENTER,2430 ILLINOIS STREET,BLDG 1007 (PHARMACY DEPARTMENT),"GREAT LAKES, IL 60088",http://maps.google.com/maps?q=CAPT%20JAMES%20A%20LOVELL%20FEDERAL%20HEALTH%20CARE%20CENTER%2C2430%20ILLINOIS%20STREET%2C+GREAT%20LAKES%2C+IL+60088
CAPT. JAMES A. LOVELL FEDERAL HEALTH CARE CENTER,2630 GREEN BAY ROAD,BLDG 3452 (PHARMACY DEPARTMENT),"GREAT LAKES, IL 60088",http://maps.google.com/maps?q=CAPT%20JAMES%20A%20LOVELL%20FEDERAL%20HEALTH%20CARE%20CENTER%2C2630%20GREEN%20BAY%20ROAD%2C+GREAT%20LAKES%2C+IL+60088
CAPT. JAMES A. LOVELL FEDERAL HEALTH CARE CENTER,3440 OHIO STREET,BLDG 1017 (PHARMACY DEPARTMENT),"GREAT LAKES, IL 60088",http://maps.google.com/maps?q=CAPT%20JAMES%20A%20LOVELL%20FEDERAL%20HEALTH%20CARE%20CENTER%2C3440%20OHIO%20STREET%2C+GREAT%20LAKES%2C+IL+60088
"CARECENTER PHARMACY, L.L.C.","2775 SANDERS RD., STE C1",,"NORTHBROOK, IL 60062",http://maps.google.com/maps?q=CARECENTER%20PHARMACY%20LLC%2C2775%20SANDERS%20RD.%2C%20STE%20C1%2C+NORTHBROOK%2C+IL+60062
CGH MEDICAL CENTER,100 EAST LEFEVRE RD,,"STERLING, IL 61081",http://maps.google.com/maps?q=CGH%20MEDICAL%20CENTER%2C100%20EAST%20LEFEVRE%20RD%2C+STERLING%2C+IL+61081
CLARK'S PHARMACY,1946 42ND STREET N.E.,,"CEDAR RAPIDS, IA 52402",http://maps.google.com/maps?q=CLARKS%20PHARMACY%2C1946%2042ND%20STREET%20N.E.%2C+CEDAR%20RAPIDS%2C+IA+52402
CLAYTON DRUG,135 N MAIN ST,,"ELKADER, IA 52043",http://maps.google.com/maps?q=CLAYTON%20DRUG%2C135%20N%20MAIN%20ST%2C+ELKADER%2C+IA+52043
COUNTY MARKET PHARMACY 228,1903 W. MONROE STREET,,"SPRINGFIELD, IL 62704",http://maps.google.com/maps?q=COUNTY%20MARKET%20PHARMACY%2C1903%20W.%20MONROE%20STREET%2C+SPRINGFIELD%2C+IL+62704
CUSTOM PLUS PHARMACY LLC,"482 WEST NAVAJO, SUITE A",,"WEST LAFAYETTE, IN 47906",http://maps.google.com/maps?q=CUSTOM%20PLUS%20PHARMACY%20LLC%2C482%20WEST%20NAVAJO%2C%20SUITE%20A%2C+WEST%20LAFAYETTE%2C+IN+47906
DAVIS DRUGS LLC,300 SOUTH PERRY STREET,,"ATTICA, IN 47918",http://maps.google.com/maps?q=DAVIS%20DRUGS%20LLC%2C300%20SOUTH%20PERRY%20STREET%2C+ATTICA%2C+IN+47918
DBA NUCARA PHARMACY #2,"1150 FIFTH ST., STE. 142",,"CORALVILLE, IA 52241",http://maps.google.com/maps?q=DBA%20NUCARA%20PHARMACY%2C1150%20FIFTH%20ST.%2C%20STE.%20142%2C+CORALVILLE%2C+IA+52241
DOUGLAS & OGDEN MED CTR PHAR,DBA DOUGLAS-MAIN PHARMACY,5207 MAIN ST STE#102,"DOWNERS GROVE, IL 60515",http://maps.google.com/maps?q=DOUGLAS%20%20OGDEN%20MED%20CTR%20PHAR%2CDBA%20DOUGLAS-MAIN%20PHARMACY%2C+DOWNERS%20GROVE%2C+IL+60515
"FARLAND PHARMACY, INC.",2 NORTH CASS AVE,,"WESTMONT, IL 60559",http://maps.google.com/maps?q=FARLAND%20PHARMACY%20INC%2C2%20NORTH%20CASS%20AVE%2C+WESTMONT%2C+IL+60559
"FORUM EXTENDED CARE SERVICES II, INC.",4201 W VICTORIA ST,,"CHICAGO, IL 60646",http://maps.google.com/maps?q=FORUM%20EXTENDED%20CARE%20SERVICES%20II%20INC%2C4201%20W%20VICTORIA%20ST%2C+CHICAGO%2C+IL+60646
FRANCISCAN HEALTH MICHIGAN CITY,301 W HOMER,,"MICHIGAN CITY, IN 46360",http://maps.google.com/maps?q=FRANCISCAN%20HEALTH%20MICHIGAN%20CITY%2C301%20W%20HOMER%2C+MICHIGAN%20CITY%2C+IN+46360
GOOD VALUE PHARMACY,3207 80TH STREET,SUITE 100,"KENOSHA, WI 53142",http://maps.google.com/maps?q=GOOD%20VALUE%20PHARMACY%2C3207%2080TH%20STREET%2C+KENOSHA%2C+WI+53142
HARRY'S PHARMACY,620 E JACKSON STREET,,"AUBURN, IL 62615",http://maps.google.com/maps?q=HARRYS%20PHARMACY%2C620%20E%20JACKSON%20STREET%2C+AUBURN%2C+IL+62615
HARTIG DRUG #3,2255 JOHN F KENNEDY ROAD,,"DUBUQUE, IA 52002",http://maps.google.com/maps?q=HARTIG%20DRUG%2C2255%20JOHN%20F%20KENNEDY%20ROAD%2C+DUBUQUE%2C+IA+52002
HARTIG DRUG CO,157 LOCUST ST,,"DUBUQUE, IA 52001",http://maps.google.com/maps?q=HARTIG%20DRUG%20CO%2C157%20LOCUST%20ST%2C+DUBUQUE%2C+IA+52001
HARTIG DRUG CO,1600 UNIVERSITY AVE,,"DUBUQUE, IA 52001",http://maps.google.com/maps?q=HARTIG%20DRUG%20CO%2C1600%20UNIVERSITY%20AVE%2C+DUBUQUE%2C+IA+52001
HARTIG DRUG CO,2225 CENTRAL AVE,,"DUBUQUE, IA 52001",http://maps.google.com/maps?q=HARTIG%20DRUG%20CO%2C2225%20CENTRAL%20AVE%2C+DUBUQUE%2C+IA+52001
HARTIG DRUG CO,701 MORMON TREK BLVD,,"IOWA CITY, IA 52246",http://maps.google.com/maps?q=HARTIG%20DRUG%20CO%2C701%20MORMON%20TREK%20BLVD%2C+IOWA%20CITY%2C+IA+52246
HARTIG DRUG CO #28,419 E 1ST ST,,"MONTICELLO, IA 52310",http://maps.google.com/maps?q=HARTIG%20DRUG%20CO%2C419%20E%201ST%20ST%2C+MONTICELLO%2C+IA+52310
HARTIG DRUG CO #30,200 MAIN ST,SUITE 1,"GUTTENBERG, IA 52052",http://maps.google.com/maps?q=HARTIG%20DRUG%20CO%2C200%20MAIN%20ST%2C+GUTTENBERG%2C+IA+52052
HARTIG DRUG COMPANY,STONE CREEK SHOPPING CENTER,711 16TH AVE SE,"DYERSVILLE, IA 52040",http://maps.google.com/maps?q=HARTIG%20DRUG%20COMPANY%2CSTONE%20CREEK%20SHOPPING%20CENTER%2C+DYERSVILLE%2C+IA+52040
HAYAT PHARMACY 10 LLC,5308 W BURLEIGH ST,,"MILWAUKEE, WI 53210",http://maps.google.com/maps?q=HAYAT%20PHARMACY%20%20LLC%2C5308%20W%20BURLEIGH%20ST%2C+MILWAUKEE%2C+WI+53210
HAYAT PHARMACY 2 LLC,5928 W. VLIET ST.,,"MILWAUKEE, WI 53208",http://maps.google.com/maps?q=HAYAT%20PHARMACY%20%20LLC%2C5928%20W.%20VLIET%20ST.%2C+MILWAUKEE%2C+WI+53208
"HEALTHDIRECT INSTITUTIONAL PHARMACY SERVICES, INC.",150 N. PATRICK BLVD,SUITE 250,"BROOKFIELD, WI 53045",http://maps.google.com/maps?q=HEALTHDIRECT%20INSTITUTIONAL%20PHARMACY%20SERVICES%20INC%2C150%20N.%20PATRICK%20BLVD%2C+BROOKFIELD%2C+WI+53045
HERITAGE FAMILY PHARMACY,1201 W AGENCY ROAD,,"WEST BURLINGTON, IA 52655",http://maps.google.com/maps?q=HERITAGE%20FAMILY%20PHARMACY%2C1201%20W%20AGENCY%20ROAD%2C+WEST%20BURLINGTON%2C+IA+52655
"HIGHLAND PARK CVS, L.L.C.",1004 SHOOTING PARK,,"PERU, IL 61354",http://maps.google.com/maps?q=HIGHLAND%20PARK%20CVS%20LLC%2C1004%20SHOOTING%20PARK%2C+PERU%2C+IL+61354
"HIGHLAND PARK CVS, L.L.C.",1034 W REYNOLDS ST.,,"PONTIAC, IL 61764",http://maps.google.com/maps?q=HIGHLAND%20PARK%20CVS%20LLC%2C1034%20W%20REYNOLDS%20ST.%2C+PONTIAC%2C+IL+61764
"HIGHLAND PARK CVS, L.L.C.",110 S. ALPINE RD.,,"ROCKFORD, IL 61108",http://maps.google.com/maps?q=HIGHLAND%20PARK%20CVS%20LLC%2C110%20S.%20ALPINE%20RD.%2C+ROCKFORD%2C+IL+61108
"HIGHLAND PARK CVS, L.L.C.",110 W. NORTH AVE.,,"ELMHURST, IL 60126",http://maps.google.com/maps?q=HIGHLAND%20PARK%20CVS%20LLC%2C110%20W.%20NORTH%20AVE.%2C+ELMHURST%2C+IL+60126
"HIGHLAND PARK CVS, L.L.C.",1101 S WATER ST,,"WILMINGTON, IL 60481",http://maps.google.com/maps?q=HIGHLAND%20PARK%20CVS%20LLC%2C1101%20S%20WATER%20ST%2C+WILMINGTON%2C+IL+60481
"HIGHLAND PARK CVS, L.L.C.",1305 RANDALL RD.,,"CRYSTAL LAKE, IL 60014",http://maps.google.com/maps?q=HIGHLAND%20PARK%20CVS%20LLC%2C1305%20RANDALL%20RD.%2C+CRYSTAL%20LAKE%2C+IL+60014
"HIGHLAND PARK CVS, L.L.C.",137 W. FRONT ST.,,"EL PASO, IL 61738",http://maps.google.com/maps?q=HIGHLAND%20PARK%20CVS%20LLC%2C137%20W.%20FRONT%20ST.%2C+EL%20PASO%2C+IL+61738
"HIGHLAND PARK CVS, L.L.C.",14290 SOUTH LA GRANGE RD.,,"ORLAND PARK, IL 60462",http://maps.google.com/maps?q=HIGHLAND%20PARK%20CVS%20LLC%2C14290%20SOUTH%20LA%20GRANGE%20RD.%2C+ORLAND%20PARK%2C+IL+60462
"HIGHLAND PARK CVS, L.L.C.",1500 LINCOLN HWY.,,"ST CHARLES, IL 60174",http://maps.google.com/maps?q=HIGHLAND%20PARK%20CVS%20LLC%2C1500%20LINCOLN%20HWY.%2C+ST%20CHARLES%2C+IL+60174
"HIGHLAND PARK CVS, L.L.C.",1539 CLAVEY RD.,,"HIGHLAND PARK, IL 60035",http://maps.google.com/maps?q=HIGHLAND%20PARK%20CVS%20LLC%2C1539%20CLAVEY%20RD.%2C+HIGHLAND%20PARK%2C+IL+60035
"HIGHLAND PARK CVS, L.L.C.",177 WEST VIRGINIA STREET,,"CRYSTAL LAKE, IL 60014",http://maps.google.com/maps?q=HIGHLAND%20PARK%20CVS%20LLC%2C177%20WEST%20VIRGINIA%20STREET%2C+CRYSTAL%20LAKE%2C+IL+60014
"HIGHLAND PARK CVS, L.L.C.",230 S COMET DR.,,"BRAIDWOOD, IL 60408",http://maps.google.com/maps?q=HIGHLAND%20PARK%20CVS%20LLC%2C230%20S%20COMET%20DR.%2C+BRAIDWOOD%2C+IL+60408
"HIGHLAND PARK CVS, L.L.C.",245 S BROADWAY ST.,,"COAL CITY, IL 60416",http://maps.google.com/maps?q=HIGHLAND%20PARK%20CVS%20LLC%2C245%20S%20BROADWAY%20ST.%2C+COAL%20CITY%2C+IL+60416
"HIGHLAND PARK CVS, L.L.C.",3900 WEST ELM ST.,,"MCHENRY, IL 60050",http://maps.google.com/maps?q=HIGHLAND%20PARK%20CVS%20LLC%2C3900%20WEST%20ELM%20ST.%2C+MCHENRY%2C+IL+60050
"HIGHLAND PARK CVS, L.L.C.",3951 W. 103RD ST.,,"CHICAGO, IL 60655",http://maps.google.com/maps?q=HIGHLAND%20PARK%20CVS%20LLC%2C3951%20W.%20103RD%20ST.%2C+CHICAGO%2C+IL+60655
"HIGHLAND PARK CVS, L.L.C.",47 S. LOCUST ST.,,"MANTENO, IL 60950",http://maps.google.com/maps?q=HIGHLAND%20PARK%20CVS%20LLC%2C47%20S.%20LOCUST%20ST.%2C+MANTENO%2C+IL+60950
HOMETOWN LONG TERM CARE PHARMACY,1571 IVORY DRIVE,,"SUN PRAIRIE, WI 53590",http://maps.google.com/maps?q=HOMETOWN%20LONG%20TERM%20CARE%20PHARMACY%2C1571%20IVORY%20DRIVE%2C+SUN%20PRAIRIE%2C+WI+53590
"HOOK-SUPERX, L.L.C.",10 EAST 81ST AVENUE,,"MERRILLVILLE, IN 46410",http://maps.google.com/maps?q=HOOKSUPERX%20LLC%2C10%20EAST%2081ST%20AVENUE%2C+MERRILLVILLE%2C+IN+46410
"HOOK-SUPERX, L.L.C.",106 EAST MARKET STREET,,"CRAWFORDSVILLE, IN 47933",http://maps.google.com/maps?q=HOOKSUPERX%20LLC%2C106%20EAST%20MARKET%20STREET%2C+CRAWFORDSVILLE%2C+IN+47933
"HOOK-SUPERX, L.L.C.",1195 E RIDGE RD,,"GRIFFITH, IN 46319",http://maps.google.com/maps?q=HOOKSUPERX%20LLC%2C1195%20E%20RIDGE%20RD%2C+GRIFFITH%2C+IN+46319
"HOOK-SUPERX, L.L.C.",1301 119TH ST,,"WHITING, IN 46394",http://maps.google.com/maps?q=HOOKSUPERX%20LLC%2C1301%20119TH%20ST%2C+WHITING%2C+IN+46394
"HOOK-SUPERX, L.L.C.",1350 BROADWAY ST,,"GARY, IN 46407",http://maps.google.com/maps?q=HOOKSUPERX%20LLC%2C1350%20BROADWAY%20ST%2C+GARY%2C+IN+46407
"HOOK-SUPERX, L.L.C.",1407 LINCOLNWAY,,"LAPORTE, IN 46350",http://maps.google.com/maps?q=HOOKSUPERX%20LLC%2C1407%20LINCOLNWAY%2C+LAPORTE%2C+IN+46350
"HOOK-SUPERX, L.L.C.",1805 CALUMET AVE.,,"VALPARAISO, IN 46383",http://maps.google.com/maps?q=HOOKSUPERX%20LLC%2C1805%20CALUMET%20AVE.%2C+VALPARAISO%2C+IN+46383
"HOOK-SUPERX, L.L.C.",2106 BROADWAY ST,,"EAST CHICAGO, IN 46312",http://maps.google.com/maps?q=HOOKSUPERX%20LLC%2C2106%20BROADWAY%20ST%2C+EAST%20CHICAGO%2C+IN+46312
"HOOK-SUPERX, L.L.C.",2272 NORTH MAIN ST.,,"CROWNPOINT, IN 46307",http://maps.google.com/maps?q=HOOKSUPERX%20LLC%2C2272%20NORTH%20MAIN%20ST.%2C+CROWNPOINT%2C+IN+46307
"HOOK-SUPERX, L.L.C.","3240 WILLOWCREEK RD.,",,"PORTAGE, IN 46368",http://maps.google.com/maps?q=HOOKSUPERX%20LLC%2C3240%20WILLOWCREEK%20RD.%2C%2C+PORTAGE%2C+IN+46368
"HOOK-SUPERX, L.L.C.",3253 FRANKLIN ST.,,"MICHIGAN CITY, IN 46360",http://maps.google.com/maps?q=HOOKSUPERX%20LLC%2C3253%20FRANKLIN%20ST.%2C+MICHIGAN%20CITY%2C+IN+46360
"HOOK-SUPERX, L.L.C.",3400 N CALUMET AVE,,"VALPARAISO, IN 46383",http://maps.google.com/maps?q=HOOKSUPERX%20LLC%2C3400%20N%20CALUMET%20AVE%2C+VALPARAISO%2C+IN+46383
"HOOK-SUPERX, L.L.C.",512 E. SEYMOUR ST.,,"KENTLAND, IN 47951",http://maps.google.com/maps?q=HOOKSUPERX%20LLC%2C512%20E.%20SEYMOUR%20ST.%2C+KENTLAND%2C+IN+47951
"HOOK-SUPERX, L.L.C.",512 SAGAMORE PKWY WEST,,"WEST LAFAYETTE, IN 47906",http://maps.google.com/maps?q=HOOKSUPERX%20LLC%2C512%20SAGAMORE%20PKWY%20WEST%2C+WEST%20LAFAYETTE%2C+IN+47906
"HOOK-SUPERX, L.L.C.",6445 CALUMET AVE.,,"HAMMOND, IN 46324",http://maps.google.com/maps?q=HOOKSUPERX%20LLC%2C6445%20CALUMET%20AVE.%2C+HAMMOND%2C+IN+46324
"HOOK-SUPERX, L.L.C.",713 S WASHINGTON ST,,"CRAWFORDSVILLE, IN 47933",http://maps.google.com/maps?q=HOOKSUPERX%20LLC%2C713%20S%20WASHINGTON%20ST%2C+CRAWFORDSVILLE%2C+IN+47933
HOPEDALE PHARMACY,107 TREMONT STREET,PO BOX 267,"HOPEDALE, IL 61747",http://maps.google.com/maps?q=HOPEDALE%20PHARMACY%2C107%20TREMONT%20STREET%2C+HOPEDALE%2C+IL+61747
HUDSON DRUG SHOP,108 N MARKET STREET,PO BOX 70,"PAXTON, IL 60957",http://maps.google.com/maps?q=HUDSON%20DRUG%20SHOP%2C108%20N%20MARKET%20STREET%2C+PAXTON%2C+IL+60957
HY-VEE PHARMACY #1180,1300 WEST BURLINGTON AVENUE,,"FAIRFIELD, IA 52556",http://maps.google.com/maps?q=HYVEE%20PHARMACY%2C1300%20WEST%20BURLINGTON%20AVENUE%2C+FAIRFIELD%2C+IA+52556
HY-VEE PHARMACY (1202),"2606 ""L"" AVE",,"FORT MADISON, IA 52627",http://maps.google.com/maps?q=HYVEE%20PHARMACY%2C2606%20%22L%22%20AVE%2C+FORT%20MADISON%2C+IA+52627
"INTERDEPENDENT PHARMACY, LLC",404 NORTH SEYMOUR AVENUE,,"MUNDELEIN, IL 60060",http://maps.google.com/maps?q=INTERDEPENDENT%20PHARMACY%20LLC%2C404%20NORTH%20SEYMOUR%20AVENUE%2C+MUNDELEIN%2C+IL+60060
IU HEALTH ARNETT RETAIL PHARMACY,5165 MCCARTY LN,ROOM A1009,"LAFAYETTE, IN 47905",http://maps.google.com/maps?q=IU%20HEALTH%20ARNETT%20RETAIL%20PHARMACY%2C5165%20MCCARTY%20LN%2C+LAFAYETTE%2C+IN+47905
LAKEVIEW NEUROREHAB CENTER,1701 SHARP ROAD,,"WATERFORD, WI 53185",http://maps.google.com/maps?q=LAKEVIEW%20NEUROREHAB%20CENTER%2C1701%20SHARP%20ROAD%2C+WATERFORD%2C+WI+53185
LAWNDALE CHRISTIAN HLTH CTR,PHARMACY,3860 WEST OGDEN AVENUE,"CHICAGO, IL 60623",http://maps.google.com/maps?q=LAWNDALE%20CHRISTIAN%20HLTH%20CTR%2CPHARMACY%2C+CHICAGO%2C+IL+60623
MEDICAL CENTER PHARMACY,1111 DELAFIELD STREET  SUITE 109,,"WAUKESHA, WI 53188",http://maps.google.com/maps?q=MEDICAL%20CENTER%20PHARMACY%2C1111%20DELAFIELD%20STREET%20%20SUITE%20109%2C+WAUKESHA%2C+WI+53188
"MEDICATION MANAGEMENT PARTNERS, LLC",13601 KENTON AVE,,"CRESTWOOD, IL 60418",http://maps.google.com/maps?q=MEDICATION%20MANAGEMENT%20PARTNERS%20LLC%2C13601%20KENTON%20AVE%2C+CRESTWOOD%2C+IL+60418
MENDOTA COMMUNITY HOSPITAL,1401 E 12TH ST.,,"MENDOTA, IL 61342",http://maps.google.com/maps?q=MENDOTA%20COMMUNITY%20HOSPITAL%2C1401%20E%2012TH%20ST.%2C+MENDOTA%2C+IL+61342
MERCY FAMILY PHARMACY,MERCY HEALTH SERVICES IOWA,1920 ELM STREET,"DUBUQUE, IA 52001",http://maps.google.com/maps?q=MERCY%20FAMILY%20PHARMACY%2CMERCY%20HEALTH%20SERVICES%20IOWA%2C+DUBUQUE%2C+IA+52001
"MTH, LLC",1919 W NORTH AVE,,"MILWAUKEE, WI 53205",http://maps.google.com/maps?q=MTH%20LLC%2C1919%20W%20NORTH%20AVE%2C+MILWAUKEE%2C+WI+53205
NORTH SHORE PHARMACY,2490 CENTRAL AVENUE,,"LAKE STATION, IN 46405",http://maps.google.com/maps?q=NORTH%20SHORE%20PHARMACY%2C2490%20CENTRAL%20AVENUE%2C+LAKE%20STATION%2C+IN+46405
NORTHSHORE HEALTH CENTER,3564 SCOTTSDALE ST.,,"PORTAGE, IN 46368",http://maps.google.com/maps?q=NORTHSHORE%20HEALTH%20CENTER%2C3564%20SCOTTSDALE%20ST.%2C+PORTAGE%2C+IN+46368
NORTHWESTERN MEMORIAL HOSP,251 E. HURON,,"CHICAGO, IL 60611",http://maps.google.com/maps?q=NORTHWESTERN%20MEMORIAL%20HOSP%2C251%20E.%20HURON%2C+CHICAGO%2C+IL+60611
NUDAK VENTURES LLC,2000 D SOUTH MAIN STREET,PO BOX 1027,"FAIRFIELD, IA 52556",http://maps.google.com/maps?q=NUDAK%20VENTURES%20LLC%2C2000%20D%20SOUTH%20MAIN%20STREET%2C+FAIRFIELD%2C+IA+52556
ONCOLOGY HEMATOLOGY ASSOC,8940 N. WOOD SAGE ROAD,,"PEORIA, IL 61615",http://maps.google.com/maps?q=ONCOLOGY%20HEMATOLOGY%20ASSOC%2C8940%20N.%20WOOD%20SAGE%20ROAD%2C+PEORIA%2C+IL+61615
OSF HEALTHCARE SYSTEM,5666 E. STATE STREET,,"ROCKFORD, IL 61108",http://maps.google.com/maps?q=OSF%20HEALTHCARE%20SYSTEM%2C5666%20E.%20STATE%20STREET%2C+ROCKFORD%2C+IL+61108
OSF HEALTHCARE SYSTEM D/B/A SAINT LUKE MEDICAL CEN,1051 W. SOUTH ST.,,"KEWANEE, IL 61443",http://maps.google.com/maps?q=OSF%20HEALTHCARE%20SYSTEM%20DBA%20SAINT%20LUKE%20MEDICAL%20CEN%2C1051%20W.%20SOUTH%20ST.%2C+KEWANEE%2C+IL+61443
OSF HOLY FAMILY MEDICAL CENTER,1000 WEST HARLEM AVENUE,,"MONMOUTH, IL 61462",http://maps.google.com/maps?q=OSF%20HOLY%20FAMILY%20MEDICAL%20CENTER%2C1000%20WEST%20HARLEM%20AVENUE%2C+MONMOUTH%2C+IL+61462
OSTERHAUS PHARMACY,918 W PLATT #2,,"MAQUOKETA, IA 52060",http://maps.google.com/maps?q=OSTERHAUS%20PHARMACY%2C918%20W%20PLATT%20#2%2C+MAQUOKETA%2C+IA+52060
OTTAWA REGIONAL HOSPITAL & HEALTHCARE CENTER,1100 E NORRIS DR,,"OTTAWA, IL 61350",http://maps.google.com/maps?q=OTTAWA%20REGIONAL%20HOSPITAL%20%20HEALTHCARE%20CENTER%2C1100%20E%20NORRIS%20DR%2C+OTTAWA%2C+IL+61350
PHARMACY MATTERS-LTC,"3526 DOLPHIN DRIVE, SE",,"IOWA CITY, IA 52240",http://maps.google.com/maps?q=PHARMACY%20MATTERSLTC%2C3526%20DOLPHIN%20DRIVE%2C%20SE%2C+IOWA%20CITY%2C+IA+52240
"PHARMACY PLUS, INC.",41 S MAIN,,"WINCHESTER, IL 62694",http://maps.google.com/maps?q=PHARMACY%20PLUS%20INC%2C41%20S%20MAIN%2C+WINCHESTER%2C+IL+62694
"PHARMACY PLUS, INC.",693 BAINBRIDGE ST,,"BARRY, IL 62312",http://maps.google.com/maps?q=PHARMACY%20PLUS%20INC%2C693%20BAINBRIDGE%20ST%2C+BARRY%2C+IL+62312
PHILS DISCOUNT DRUGS,702 E. LINCOLNWAY,,"LAPORTE, IN 46350",http://maps.google.com/maps?q=PHILS%20DISCOUNT%20DRUGS%2C702%20E.%20LINCOLNWAY%2C+LAPORTE%2C+IN+46350
PINNOW PHARMACY,1028 FIRST CENTER AVENUE,,"BRODHEAD, WI 53520",http://maps.google.com/maps?q=PINNOW%20PHARMACY%2C1028%20FIRST%20CENTER%20AVENUE%2C+BRODHEAD%2C+WI+53520
PRESENCE LIFE CONNECTIONS PHARMACY,670 N CONVENT STREET,,"BOURBONNAIS, IL 60914",http://maps.google.com/maps?q=PRESENCE%20LIFE%20CONNECTIONS%20PHARMACY%2C670%20N%20CONVENT%20STREET%2C+BOURBONNAIS%2C+IL+60914
PRESENCE RHC SENIOR SERVICES,100 N RIVER ROAD,,"DES PLAINES, IL 60016",http://maps.google.com/maps?q=PRESENCE%20RHC%20SENIOR%20SERVICES%2C100%20N%20RIVER%20ROAD%2C+DES%20PLAINES%2C+IL+60016
PROHEALTH CARE PHARMACY,791 SUMMIT AVE,,"OCONOMOWOC, WI 53066",http://maps.google.com/maps?q=PROHEALTH%20CARE%20PHARMACY%2C791%20SUMMIT%20AVE%2C+OCONOMOWOC%2C+WI+53066
PROHEALTH PHARMACY - PEWAUKEE,N16W24131 RIVERWOOD DR,,"WAUKESHA, WI 53188",http://maps.google.com/maps?q=PROHEALTH%20PHARMACY%20%20PEWAUKEE%2CN16W24131%20RIVERWOOD%20DR%2C+WAUKESHA%2C+WI+53188
PULASKI MEMORIAL HOSPITAL,616 E 13TH STREET,P O BOX 279,"WINAMAC, IN 46996",http://maps.google.com/maps?q=PULASKI%20MEMORIAL%20HOSPITAL%2C616%20E%2013TH%20STREET%2C+WINAMAC%2C+IN+46996
PURDUE UNIVERSITY PHARMACY,HEINE PHARMACY BUILDING RM 118,575 STADIUM MALL DRIVE,"WEST LAFAYETTE, IN 47907",http://maps.google.com/maps?q=PURDUE%20UNIVERSITY%20PHARMACY%2CHEINE%20PHARMACY%20BUILDING%20RM%20118%2C+WEST%20LAFAYETTE%2C+IN+47907
ROCHELLE COMMUNITY HOSPITAL ASSOC,900 N 2ND ST,,"ROCHELLE, IL 61068",http://maps.google.com/maps?q=ROCHELLE%20COMMUNITY%20HOSPITAL%20ASSOC%2C900%20N%202ND%20ST%2C+ROCHELLE%2C+IL+61068
SCOTT'S THRIFTY WHITE DRUG,629 6TH AVE,,"DE WITT, IA 52742",http://maps.google.com/maps?q=SCOTTS%20THRIFTY%20WHITE%20DRUG%2C629%206TH%20AVE%2C+DE%20WITT%2C+IA+52742
ST FRANCIS MEDICAL CENTER,530 NE GLEN OAK AVE,,"PEORIA, IL 61637",http://maps.google.com/maps?q=ST%20FRANCIS%20MEDICAL%20CENTER%2C530%20NE%20GLEN%20OAK%20AVE%2C+PEORIA%2C+IL+61637
ST JAMES HOSPITAL,2500 W REYNOLDS ST,,"PONTIAC, IL 61764",http://maps.google.com/maps?q=ST%20JAMES%20HOSPITAL%2C2500%20W%20REYNOLDS%20ST%2C+PONTIAC%2C+IL+61764
ST JOSEPH'S HOSPITAL MEDICAL,2200 E WASHINGTON,,"BLOOMINGTON, IL 61701",http://maps.google.com/maps?q=ST%20JOSEPHS%20HOSPITAL%20MEDICAL%2C2200%20E%20WASHINGTON%2C+BLOOMINGTON%2C+IL+61701
ST MARY'S MEDICAL CENTER,3333 N SEMINARY,,"GALESBURG, IL 61401",http://maps.google.com/maps?q=ST%20MARYS%20MEDICAL%20CENTER%2C3333%20N%20SEMINARY%2C+GALESBURG%2C+IL+61401
SYMBRIA RX SERVICES LLC,350 W. SCHAUMBURG ROAD,SUITE PWD,"SCHAUMBURG, IL 60194",http://maps.google.com/maps?q=SYMBRIA%20RX%20SERVICES%20LLC%2C350%20W.%20SCHAUMBURG%20ROAD%2C+SCHAUMBURG%2C+IL+60194
TECHNI MED INC,340 MARSHALL AVENUE,UNIT 100,"AURORA, IL 60506",http://maps.google.com/maps?q=TECHNI%20MED%20INC%2C340%20MARSHALL%20AVENUE%2C+AURORA%2C+IL+60506
THIES LOMBARD PHARMACY INC,805 S MAIN STREET,SUITE 8,"LOMBARD, IL 60148",http://maps.google.com/maps?q=THIES%20LOMBARD%20PHARMACY%20INC%2C805%20S%20MAIN%20STREET%2C+LOMBARD%2C+IL+60148
THRIFTY WHITE PHARMACY #080,2720 SOUTH 163RD STREET,,"NEW BERLIN, WI 53151",http://maps.google.com/maps?q=THRIFTY%20WHITE%20PHARMACY%2C2720%20SOUTH%20163RD%20STREET%2C+NEW%20BERLIN%2C+WI+53151
THRUSH FAMILY PHARMACY INC,900 FIRST AVENUE,,"OTTAWA, IL 61350",http://maps.google.com/maps?q=THRUSH%20FAMILY%20PHARMACY%20INC%2C900%20FIRST%20AVENUE%2C+OTTAWA%2C+IL+61350
UI HEALTH CARE - RIVER CROSSING PHARMACY,3056 RIVER CROSSING COURT,SUITE A,"RIVERSIDE, IA 52327",http://maps.google.com/maps?q=UI%20HEALTH%20CARE%20%20RIVER%20CROSSING%20PHARMACY%2C3056%20RIVER%20CROSSING%20COURT%2C+RIVERSIDE%2C+IA+52327
UI HEALTHCARE-IOWA RIVER LANDING PHARMACY,105 E 9TH ST,,"CORALVILLE, IA 52241",http://maps.google.com/maps?q=UI%20HEALTHCAREIOWA%20RIVER%20LANDING%20PHARMACY%2C105%20E%209TH%20ST%2C+CORALVILLE%2C+IA+52241
UNIV OF IA HOSP & CLINICS,PHARMACY DEPARTMENT,200 HAWKINS DRIVE,"IOWA CITY, IA 52242",http://maps.google.com/maps?q=UNIV%20OF%20IA%20HOSP%20%20CLINICS%2CPHARMACY%20DEPARTMENT%2C+IOWA%20CITY%2C+IA+52242
UNIVERSITY OF CHICAGO DCAM OUTPATIENT PHARMACY,5758 S. MARYLAND AVENUE,MC0010,"CHICAGO, IL 60637",http://maps.google.com/maps?q=UNIVERSITY%20OF%20CHICAGO%20DCAM%20OUTPATIENT%20PHARMACY%2C5758%20S.%20MARYLAND%20AVENUE%2C+CHICAGO%2C+IL+60637
US ARMY- HEALTH CLINIC PHARMACY,PHARMACY,ROCK ISLAND ARSENAL,"ROCK ISLAND, IL 61299",http://maps.google.com/maps?q=US%20ARMY%20HEALTH%20CLINIC%20PHARMACY%2CPHARMACY%2C+ROCK%20ISLAND%2C+IL+61299
UW HEALTH PHARMACY SERVICES,4602 EASTPARK BLVD,,"MADISON, WI 53718",http://maps.google.com/maps?q=UW%20HEALTH%20PHARMACY%20SERVICES%2C4602%20EASTPARK%20BLVD%2C+MADISON%2C+WI+53718
VALUMED PHARMACY,"4105 WESTCOR CT., STE. 1",,"CORALVILLE, IA 52241",http://maps.google.com/maps?q=VALUMED%20PHARMACY%2C4105%20WESTCOR%20CT.%2C%20STE.%201%2C+CORALVILLE%2C+IA+52241
VORAC PHARMACY LLC,114 S. STATE ST.,,"GENESEO, IL 61254",http://maps.google.com/maps?q=VORAC%20PHARMACY%20LLC%2C114%20S.%20STATE%20ST.%2C+GENESEO%2C+IL+61254
VYTO'S PHARMACY,6949 KENNEDY AVENUE,UNIT C,"HAMMOND, IN 46323",http://maps.google.com/maps?q=VYTOS%20PHARMACY%2C6949%20KENNEDY%20AVENUE%2C+HAMMOND%2C+IN+46323
WAGNER PHARMACY 1 CO,1726 N 2ND ST,,"CLINTON, IA 52732",http://maps.google.com/maps?q=WAGNER%20PHARMACY%20%20CO%2C1726%20N%202ND%20ST%2C+CLINTON%2C+IA+52732
WALGREEN CO.,1021 SUMMIT AVE.,,"OCONOMOWOC, WI 53066",http://maps.google.com/maps?q=WALGREEN%20CO%2C1021%20SUMMIT%20AVE.%2C+OCONOMOWOC%2C+WI+53066
WALGREEN CO.,1028 S ELMHURST ROAD,,"MT PROSPECT, IL 60056",http://maps.google.com/maps?q=WALGREEN%20CO%2C1028%20S%20ELMHURST%20ROAD%2C+MT%20PROSPECT%2C+IL+60056
WALGREEN CO.,1033 SHOOTING PARK ROAD,,"PERU, IL 61354",http://maps.google.com/maps?q=WALGREEN%20CO%2C1033%20SHOOTING%20PARK%20ROAD%2C+PERU%2C+IL+61354
WALGREEN CO.,108 WILMOT RD.,,"DEERFIELD, IL 60015",http://maps.google.com/maps?q=WALGREEN%20CO%2C108%20WILMOT%20RD.%2C+DEERFIELD%2C+IL+60015
WALGREEN CO.,1221 N LAKE STREET,,"AURORA, IL 60506",http://maps.google.com/maps?q=WALGREEN%20CO%2C1221%20N%20LAKE%20STREET%2C+AURORA%2C+IL+60506
WALGREEN CO.,1340 DEKALB AVE,,"SYCAMORE, IL 60178",http://maps.google.com/maps?q=WALGREEN%20CO%2C1340%20DEKALB%20AVE%2C+SYCAMORE%2C+IL+60178
WALGREEN CO.,14680 S LA GRANGE ROAD,,"ORLAND PARK, IL 60462",http://maps.google.com/maps?q=WALGREEN%20CO%2C14680%20S%20LA%20GRANGE%20ROAD%2C+ORLAND%20PARK%2C+IL+60462
WALGREEN CO.,151 N. STATE ST.,,"CHICAGO, IL 60601",http://maps.google.com/maps?q=WALGREEN%20CO%2C151%20N.%20STATE%20ST.%2C+CHICAGO%2C+IL+60601
WALGREEN CO.,1525 E KIMBERLY RD,,"DAVENPORT, IA 52807",http://maps.google.com/maps?q=WALGREEN%20CO%2C1525%20E%20KIMBERLY%20RD%2C+DAVENPORT%2C+IA+52807
WALGREEN CO.,15650 W GREENFIELD AVE,,"BROOKFIELD, WI 53005",http://maps.google.com/maps?q=WALGREEN%20CO%2C15650%20W%20GREENFIELD%20AVE%2C+BROOKFIELD%2C+WI+53005
WALGREEN CO.,1660 W LOCUST ST,,"DAVENPORT, IA 52804",http://maps.google.com/maps?q=WALGREEN%20CO%2C1660%20W%20LOCUST%20ST%2C+DAVENPORT%2C+IA+52804
WALGREEN CO.,1700 LARKIN AVE,,"ELGIN, IL 60123",http://maps.google.com/maps?q=WALGREEN%20CO%2C1700%20LARKIN%20AVE%2C+ELGIN%2C+IL+60123
WALGREEN CO.,1717 MILTON AVENUE,,"JANESVILLE, WI 53545",http://maps.google.com/maps?q=WALGREEN%20CO%2C1717%20MILTON%20AVENUE%2C+JANESVILLE%2C+WI+53545
WALGREEN CO.,2001 N MILWAUKEE AVE,,"CHICAGO, IL 60647",http://maps.google.com/maps?q=WALGREEN%20CO%2C2001%20N%20MILWAUKEE%20AVE%2C+CHICAGO%2C+IL+60647
WALGREEN CO.,2020 S MAC ARTHUR BLVD,,"SPRINGFIELD, IL 62704",http://maps.google.com/maps?q=WALGREEN%20CO%2C2020%20S%20MAC%20ARTHUR%20BLVD%2C+SPRINGFIELD%2C+IL+62704
WALGREEN CO.,2214 MUSCATINE AVE,,"IOWA CITY, IA 52240",http://maps.google.com/maps?q=WALGREEN%20CO%2C2214%20MUSCATINE%20AVE%2C+IOWA%20CITY%2C+IA+52240
WALGREEN CO.,2500 GRANT ST,,"GARY, IN 46404",http://maps.google.com/maps?q=WALGREEN%20CO%2C2500%20GRANT%20ST%2C+GARY%2C+IN+46404
WALGREEN CO.,324 ROOSEVELT ROAD,,"GLEN ELLYN, IL 60137",http://maps.google.com/maps?q=WALGREEN%20CO%2C324%20ROOSEVELT%20ROAD%2C+GLEN%20ELLYN%2C+IL+60137
WALGREEN CO.,3325 16TH AVENUE SW,,"CEDAR RAPIDS, IA 52404",http://maps.google.com/maps?q=WALGREEN%20CO%2C3325%2016TH%20AVENUE%20SW%2C+CEDAR%20RAPIDS%2C+IA+52404
WALGREEN CO.,3405 S KING DR,,"CHICAGO, IL 60616",http://maps.google.com/maps?q=WALGREEN%20CO%2C3405%20S%20KING%20DR%2C+CHICAGO%2C+IL+60616
WALGREEN CO.,3522 W WISCONSIN,,"MILWAUKEE, WI 53208",http://maps.google.com/maps?q=WALGREEN%20CO%2C3522%20W%20WISCONSIN%2C+MILWAUKEE%2C+WI+53208
WALGREEN CO.,3701 S HOWELL AVE,,"MILWAUKEE, WI 53207",http://maps.google.com/maps?q=WALGREEN%20CO%2C3701%20S%20HOWELL%20AVE%2C+MILWAUKEE%2C+WI+53207
WALGREEN CO.,3710 E WASHINGTON AVE,,"MADISON, WI 53704",http://maps.google.com/maps?q=WALGREEN%20CO%2C3710%20E%20WASHINGTON%20AVE%2C+MADISON%2C+WI+53704
WALGREEN CO.,3805 80TH ST.,,"KENOSHA, WI 53142",http://maps.google.com/maps?q=WALGREEN%20CO%2C3805%2080TH%20ST.%2C+KENOSHA%2C+WI+53142
WALGREEN CO.,4010 W LAWRENCE AVE,,"CHICAGO, IL 60630",http://maps.google.com/maps?q=WALGREEN%20CO%2C4010%20W%20LAWRENCE%20AVE%2C+CHICAGO%2C+IL+60630
WALGREEN CO.,4296 S 76TH STREET,,"GREENFIELD, WI 53220",http://maps.google.com/maps?q=WALGREEN%20CO%2C4296%20S%2076TH%20STREET%2C+GREENFIELD%2C+WI+53220
WALGREEN CO.,4810 WASHINGTON AVE,,"RACINE, WI 53406",http://maps.google.com/maps?q=WALGREEN%20CO%2C4810%20WASHINGTON%20AVE%2C+RACINE%2C+WI+53406
WALGREEN CO.,5065 HONONEGAH RD,,"ROSCOE, IL 61073",http://maps.google.com/maps?q=WALGREEN%20CO%2C5065%20HONONEGAH%20RD%2C+ROSCOE%2C+IL+61073
WALGREEN CO.,522 TORRENCE AVE,,"CALUMET CITY, IL 60409",http://maps.google.com/maps?q=WALGREEN%20CO%2C522%20TORRENCE%20AVE%2C+CALUMET%20CITY%2C+IL+60409
WALGREEN CO.,55 J F KENNEDY RD,,"DUBUQUE, IA 52002",http://maps.google.com/maps?q=WALGREEN%20CO%2C55%20J%20F%20KENNEDY%20RD%2C+DUBUQUE%2C+IA+52002
WALGREEN CO.,6001 CENTRAL AVE,,"PORTAGE, IN 46368",http://maps.google.com/maps?q=WALGREEN%20CO%2C6001%20CENTRAL%20AVE%2C+PORTAGE%2C+IN+46368
WALGREEN CO.,6016 W 63RD STREET,,"CHICAGO, IL 60638",http://maps.google.com/maps?q=WALGREEN%20CO%2C6016%20W%2063RD%20STREET%2C+CHICAGO%2C+IL+60638
WALGREEN CO.,6442 N 76TH STREET,,"MILWAUKEE, WI 53223",http://maps.google.com/maps?q=WALGREEN%20CO%2C6442%20N%2076TH%20STREET%2C+MILWAUKEE%2C+WI+53223
WALGREEN CO.,651 W. US HWY 30,,"SCHERERVILLE, IN 46375",http://maps.google.com/maps?q=WALGREEN%20CO%2C651%20W.%20US%20HWY%2030%2C+SCHERERVILLE%2C+IN+46375
WALGREEN CO.,7113 CERMAK RD,,"BERWYN, IL 60402",http://maps.google.com/maps?q=WALGREEN%20CO%2C7113%20CERMAK%20RD%2C+BERWYN%2C+IL+60402
WALGREEN CO.,7600 W CAPITOL DRIVE,,"MILWAUKEE, WI 53222",http://maps.google.com/maps?q=WALGREEN%20CO%2C7600%20W%20CAPITOL%20DRIVE%2C+MILWAUKEE%2C+WI+53222
WALGREEN CO.,7810 MINERAL POINT RD,,"MADISON, WI 53717",http://maps.google.com/maps?q=WALGREEN%20CO%2C7810%20MINERAL%20POINT%20RD%2C+MADISON%2C+WI+53717
WALGREEN CO.,8628 S COTTAGE GROVE AVE,,"CHICAGO, IL 60619",http://maps.google.com/maps?q=WALGREEN%20CO%2C8628%20S%20COTTAGE%20GROVE%20AVE%2C+CHICAGO%2C+IL+60619
WALGREEN CO.,N83W15701 APPLETON AVE,,"MENOMONEE FALLS, WI 53051",http://maps.google.com/maps?q=WALGREEN%20CO%2CN83W15701%20APPLETON%20AVE%2C+MENOMONEE%20FALLS%2C+WI+53051
WAUKESHA HEALTH SERVICES,725 AMERICAN AVE,,"WAUKESHA, WI 53188",http://maps.google.com/maps?q=WAUKESHA%20HEALTH%20SERVICES%2C725%20AMERICAN%20AVE%2C+WAUKESHA%2C+WI+53188
WELL FUTURE PHARMACY LLC,1442 S. MICHIGAN AVE.,,"CHICAGO, IL 60605",http://maps.google.com/maps?q=WELL%20FUTURE%20PHARMACY%20LLC%2C1442%20S.%20MICHIGAN%20AVE.%2C+CHICAGO%2C+IL+60605
"WILLIAM, BURKE, LTD",129 W LOCUST ST,,"DAVENPORT, IA 52803",http://maps.google.com/maps?q=WILLIAM%20BURKE%20LTD%2C129%20W%20LOCUST%20ST%2C+DAVENPORT%2C+IA+52803
"ZAIBAKPRN, LLC",8500 W. CAPITOL DR.,,"MILWAUKEE, WI 53222",http://maps.google.com/maps?q=ZAIBAKPRN%20LLC%2C8500%20W.%20CAPITOL%20DR.%2C+MILWAUKEE%2C+WI+53222
