Business Name,Address 1,Address 2,"City, State Zip",Map URL
ADIRONDACK APOTHECARY LLC,4315 MAIN STREET,,"PORT HENRY, NY 12974",http://maps.google.com/maps?q=ADIRONDACK%20APOTHECARY%20LLC%2C4315%20MAIN%20STREET%2C+PORT%20HENRY%2C+NY+12974
ALLURE SPECIALTY PHARMACY,4377 BRONX BLVD,,"BRONX, NY 10466",http://maps.google.com/maps?q=ALLURE%20SPECIALTY%20PHARMACY%2C4377%20BRONX%20BLVD%2C+BRONX%2C+NY+10466
AMI PHARMACY,4180 BROADWAY,,"NEW YORK, NY 10033",http://maps.google.com/maps?q=AMI%20PHARMACY%2C4180%20BROADWAY%2C+NEW%20YORK%2C+NY+10033
ANDREW BROWN'S DRUG STORE,1502 PITTSTON AVENUE,,"SCRANTON, PA 18505",http://maps.google.com/maps?q=ANDREW%20BROWNS%20DRUG%20STORE%2C1502%20PITTSTON%20AVENUE%2C+SCRANTON%2C+PA+18505
ASCAN PHARMACY INC.,101-21 METROPOLITAN AVENUE,,"FOREST HILLS, NY 11375",http://maps.google.com/maps?q=ASCAN%20PHARMACY%20INC%2C101-21%20METROPOLITAN%20AVENUE%2C+FOREST%20HILLS%2C+NY+11375
AVIGHNA RX LLC,7 BEDFORD PARK BLVD,,"BRONX, NY 10468",http://maps.google.com/maps?q=AVIGHNA%20RX%20LLC%2C7%20BEDFORD%20PARK%20BLVD%2C+BRONX%2C+NY+10468
AVONORA INC.,149-01 UNION TURNPIKE,,"FLUSHING, NY 11367",http://maps.google.com/maps?q=AVONORA%20INC%2C149-01%20UNION%20TURNPIKE%2C+FLUSHING%2C+NY+11367
"B & B PHARMACY, INC.",79-08 37TH AVE,,"JACKSON HEIGHTS, NY 11372",http://maps.google.com/maps?q=B%20%20B%20PHARMACY%20INC%2C79-08%2037TH%20AVE%2C+JACKSON%20HEIGHTS%2C+NY+11372
BARDONIA PHARMACY LLC,301 ROUTE 304,SUITE 4,"BARDONIA, NY 10954",http://maps.google.com/maps?q=BARDONIA%20PHARMACY%20LLC%2C301%20ROUTE%20304%2C+BARDONIA%2C+NY+10954
BARTLES PHARMACY INC,10 LAFAYETTE PARK,P.O.BOX 630,"OXFORD, NY 13830",http://maps.google.com/maps?q=BARTLES%20PHARMACY%20INC%2C10%20LAFAYETTE%20PARK%2C+OXFORD%2C+NY+13830
BAYSIDE PHARMACY INC.,221-36 HORACE HARDING EXPRESSWAY,,"OAKLAND GARDENS, NY 11364",http://maps.google.com/maps?q=BAYSIDE%20PHARMACY%20INC%2C221-36%20HORACE%20HARDING%20EXPRESSWAY%2C+OAKLAND%20GARDENS%2C+NY+11364
BAYSTATE MEDICAL CENTER INC,759 CHESTNUT ST,,"SPRINGFIELD, MA 01199",http://maps.google.com/maps?q=BAYSTATE%20MEDICAL%20CENTER%20INC%2C759%20CHESTNUT%20ST%2C+SPRINGFIELD%2C+MA+01199
BELLEVILLE PHARMACY,338 WASHINGTON AVE,,"BELLEVILLE, NJ 07109",http://maps.google.com/maps?q=BELLEVILLE%20PHARMACY%2C338%20WASHINGTON%20AVE%2C+BELLEVILLE%2C+NJ+07109
BLACK DRUGS INC,704 BLEECKER ST,,"UTICA, NY 13501",http://maps.google.com/maps?q=BLACK%20DRUGS%20INC%2C704%20BLEECKER%20ST%2C+UTICA%2C+NY+13501
BONAPARTE PHARMACY LLC,8210 MAIN STREET,,"HARRISVILLE, NY 13648",http://maps.google.com/maps?q=BONAPARTE%20PHARMACY%20LLC%2C8210%20MAIN%20STREET%2C+HARRISVILLE%2C+NY+13648
BRATTLEBORO MEMORIAL HOSP,PHARMACY DEPT.,17 BELMONT AVE.,"BRATTLEBORO, VT 05301",http://maps.google.com/maps?q=BRATTLEBORO%20MEMORIAL%20HOSP%2CPHARMACY%20DEPT.%2C+BRATTLEBORO%2C+VT+05301
BROWN'S PHARMACY,225 MAIN STREET,P.O. BOX 308,"UNADILLA, NY 13849",http://maps.google.com/maps?q=BROWNS%20PHARMACY%2C225%20MAIN%20STREET%2C+UNADILLA%2C+NY+13849
CARESITE PHARMACY,1000 E MOUNTAIN DRIVE,,"WILKES BARRE, PA 18711",http://maps.google.com/maps?q=CARESITE%20PHARMACY%2C1000%20E%20MOUNTAIN%20DRIVE%2C+WILKES%20BARRE%2C+PA+18711
CARESITE PHARMACY,114 LT. MICHAEL CLEARY DRIVE,,"DALLAS, PA 18612",http://maps.google.com/maps?q=CARESITE%20PHARMACY%2C114%20LT.%20MICHAEL%20CLEARY%20DRIVE%2C+DALLAS%2C+PA+18612
CARESITE PHARMACY,126 MARKET WAY,,"MOUNT POCONO, PA 18344",http://maps.google.com/maps?q=CARESITE%20PHARMACY%2C126%20MARKET%20WAY%2C+MOUNT%20POCONO%2C+PA+18344
CARESITE PHARMACY,175 SOUTH WILKES-BARRE BLVD,,"WILKES BARRE, PA 18702",http://maps.google.com/maps?q=CARESITE%20PHARMACY%2C175%20SOUTH%20WILKES-BARRE%20BLVD%2C+WILKES%20BARRE%2C+PA+18702
CARESITE PHARMACY,531 MT. PLEASANT DRIVE,,"SCRANTON, PA 18503",http://maps.google.com/maps?q=CARESITE%20PHARMACY%2C531%20MT.%20PLEASANT%20DRIVE%2C+SCRANTON%2C+PA+18503
CASTLE TOPP PHARMACY CORP.,1370A CASTLE HILL AVE,,"BRONX, NY 10462",http://maps.google.com/maps?q=CASTLE%20TOPP%20PHARMACY%20CORP%2C1370A%20CASTLE%20HILL%20AVE%2C+BRONX%2C+NY+10462
"CATSKILL CARE ENTERPRISES, INC.",ONE FOXCARE DRIVE,,"ONEONTA, NY 13820",http://maps.google.com/maps?q=CATSKILL%20CARE%20ENTERPRISES%20INC%2CONE%20FOXCARE%20DRIVE%2C+ONEONTA%2C+NY+13820
CEDARS PHARMACY,95-19 57 AVENUE,,"ELMHURST, NY 11373",http://maps.google.com/maps?q=CEDARS%20PHARMACY%2C95-19%2057%20AVENUE%2C+ELMHURST%2C+NY+11373
CHARTER OAK HEALTH CENTER,PHARMACY,21 GRAND STREET,"HARTFORD, CT 06106",http://maps.google.com/maps?q=CHARTER%20OAK%20HEALTH%20CENTER%2CPHARMACY%2C+HARTFORD%2C+CT+06106
CITIHEALTH RX INC,23 COURT STREET,,"NEWARK, NJ 07102",http://maps.google.com/maps?q=CITIHEALTH%20RX%20INC%2C23%20COURT%20STREET%2C+NEWARK%2C+NJ+07102
"CLCRESSLER, INC",1179 VESTAL AVE,SUITE 1,"BINGHAMTON, NY 13903",http://maps.google.com/maps?q=CLCRESSLER%20INC%2C1179%20VESTAL%20AVE%2C+BINGHAMTON%2C+NY+13903
COMMUNITY CARE RX INC.,86 FRONT STREET,,"HEMPSTEAD, NY 11550",http://maps.google.com/maps?q=COMMUNITY%20CARE%20RX%20INC%2C86%20FRONT%20STREET%2C+HEMPSTEAD%2C+NY+11550
COMMUNITY CARE RX NJ,225 W. RTE 46,SUITE 4,"TOTOWA, NJ 07512",http://maps.google.com/maps?q=COMMUNITY%20CARE%20RX%20NJ%2C225%20W.%20RTE%2046%2C+TOTOWA%2C+NJ+07512
COMMUNITY MED CTR PHARMACY,1822 MULBERRY ST,,"SCRANTON, PA 18510",http://maps.google.com/maps?q=COMMUNITY%20MED%20CTR%20PHARMACY%2C1822%20MULBERRY%20ST%2C+SCRANTON%2C+PA+18510
COMMUNITY MEMORIAL HOSPITAL,150 BROAD ST,PHARMACY DEPARTMENT,"HAMILTON, NY 13346",http://maps.google.com/maps?q=COMMUNITY%20MEMORIAL%20HOSPITAL%2C150%20BROAD%20ST%2C+HAMILTON%2C+NY+13346
CUREMED PHARMACY,353 CROOKS AVENUE,,"CLIFTON, NJ 07011",http://maps.google.com/maps?q=CUREMED%20PHARMACY%2C353%20CROOKS%20AVENUE%2C+CLIFTON%2C+NJ+07011
"CVS ALBANY, L.L.C.",100-02 QUEENS BOULEVARD,,"FOREST HILLS, NY 11375",http://maps.google.com/maps?q=CVS%20ALBANY%20LLC%2C100-02%20QUEENS%20BOULEVARD%2C+FOREST%20HILLS%2C+NY+11375
"CVS ALBANY, L.L.C.",12 WELCHER AVE.,,"PEEKSKILL, NY 10566",http://maps.google.com/maps?q=CVS%20ALBANY%20LLC%2C12%20WELCHER%20AVE.%2C+PEEKSKILL%2C+NY+10566
"CVS ALBANY, L.L.C.",1276 UPPER FRONT ST.,,"BINGHAMTON, NY 13901",http://maps.google.com/maps?q=CVS%20ALBANY%20LLC%2C1276%20UPPER%20FRONT%20ST.%2C+BINGHAMTON%2C+NY+13901
"CVS ALBANY, L.L.C.",1396 SECOND AVENUE,,"NEW YORK, NY 10021",http://maps.google.com/maps?q=CVS%20ALBANY%20LLC%2C1396%20SECOND%20AVENUE%2C+NEW%20YORK%2C+NY+10021
"CVS ALBANY, L.L.C.",150 EAST 42ND ST.,,"NEW YORK, NY 10017",http://maps.google.com/maps?q=CVS%20ALBANY%20LLC%2C150%20EAST%2042ND%20ST.%2C+NEW%20YORK%2C+NY+10017
"CVS ALBANY, L.L.C.",1827 MAIN ST.,,"PEEKSKILL, NY 10566",http://maps.google.com/maps?q=CVS%20ALBANY%20LLC%2C1827%20MAIN%20ST.%2C+PEEKSKILL%2C+NY+10566
"CVS ALBANY, L.L.C.",1916 WILLIAMSBRIDGE ROAD,,"BRONX, NY 10461",http://maps.google.com/maps?q=CVS%20ALBANY%20LLC%2C1916%20WILLIAMSBRIDGE%20ROAD%2C+BRONX%2C+NY+10461
"CVS ALBANY, L.L.C.",1944 DEER PARK AVE,DEER PARK S/C,"DEER PARK, NY 11729",http://maps.google.com/maps?q=CVS%20ALBANY%20LLC%2C1944%20DEER%20PARK%20AVE%2C+DEER%20PARK%2C+NY+11729
"CVS ALBANY, L.L.C.",2 E. JERICHO TPKE,,"HUNTINGTON STATION, NY 11746",http://maps.google.com/maps?q=CVS%20ALBANY%20LLC%2C2%20E.%20JERICHO%20TPKE%2C+HUNTINGTON%20STATION%2C+NY+11746
"CVS ALBANY, L.L.C.",201 GLEN ST.,,"GLEN COVE, NY 11542",http://maps.google.com/maps?q=CVS%20ALBANY%20LLC%2C201%20GLEN%20ST.%2C+GLEN%20COVE%2C+NY+11542
"CVS ALBANY, L.L.C.",202 OLD COUNTRY ROAD,,"HICKSVILLE, NY 11801",http://maps.google.com/maps?q=CVS%20ALBANY%20LLC%2C202%20OLD%20COUNTRY%20ROAD%2C+HICKSVILLE%2C+NY+11801
"CVS ALBANY, L.L.C.","2040 WESTERN AVENUE, ROUTE 155",,"ALBANY, NY 12203",http://maps.google.com/maps?q=CVS%20ALBANY%20LLC%2C2040%20WESTERN%20AVENUE%2C%20ROUTE%20155%2C+ALBANY%2C+NY+12203
"CVS ALBANY, L.L.C.",212-20 NORTHERN BOULEVARD,,"BAYSIDE, NY 11361",http://maps.google.com/maps?q=CVS%20ALBANY%20LLC%2C212-20%20NORTHERN%20BOULEVARD%2C+BAYSIDE%2C+NY+11361
"CVS ALBANY, L.L.C.",219-39 89TH AVENUE,,"QUEENS VILLAGE, NY 11427",http://maps.google.com/maps?q=CVS%20ALBANY%20LLC%2C219-39%2089TH%20AVENUE%2C+QUEENS%20VILLAGE%2C+NY+11427
"CVS ALBANY, L.L.C.",2290 CENTRAL PARK AVENUE,,"YONKERS, NY 10710",http://maps.google.com/maps?q=CVS%20ALBANY%20LLC%2C2290%20CENTRAL%20PARK%20AVENUE%2C+YONKERS%2C+NY+10710
"CVS ALBANY, L.L.C.",241 WEST 57TH STREET,,"NEW YORK, NY 10019",http://maps.google.com/maps?q=CVS%20ALBANY%20LLC%2C241%20WEST%2057TH%20STREET%2C+NEW%20YORK%2C+NY+10019
"CVS ALBANY, L.L.C.",2419 HEMPSTEAD TPKE.,,"EAST MEADOW, NY 11554",http://maps.google.com/maps?q=CVS%20ALBANY%20LLC%2C2419%20HEMPSTEAD%20TPKE.%2C+EAST%20MEADOW%2C+NY+11554
"CVS ALBANY, L.L.C.",253 FIRST AVENUE,,"NEW YORK, NY 10003",http://maps.google.com/maps?q=CVS%20ALBANY%20LLC%2C253%20FIRST%20AVENUE%2C+NEW%20YORK%2C+NY+10003
"CVS ALBANY, L.L.C.",260 DELAWARE AVENUE,,"DELMAR, NY 12054",http://maps.google.com/maps?q=CVS%20ALBANY%20LLC%2C260%20DELAWARE%20AVENUE%2C+DELMAR%2C+NY+12054
"CVS ALBANY, L.L.C.",280 SOUTH MAIN STREET,,"NEW CITY, NY 10956",http://maps.google.com/maps?q=CVS%20ALBANY%20LLC%2C280%20SOUTH%20MAIN%20STREET%2C+NEW%20CITY%2C+NY+10956
"CVS ALBANY, L.L.C.",294 KATONAH AVENUE,,"KATONAH, NY 10536",http://maps.google.com/maps?q=CVS%20ALBANY%20LLC%2C294%20KATONAH%20AVENUE%2C+KATONAH%2C+NY+10536
"CVS ALBANY, L.L.C.",309 MAIN ST.,,"NEW ROCHELLE, NY 10801",http://maps.google.com/maps?q=CVS%20ALBANY%20LLC%2C309%20MAIN%20ST.%2C+NEW%20ROCHELLE%2C+NY+10801
"CVS ALBANY, L.L.C.",3101 DITMARS BLVD.,,"ASTORIA, NY 11105",http://maps.google.com/maps?q=CVS%20ALBANY%20LLC%2C3101%20DITMARS%20BLVD.%2C+ASTORIA%2C+NY+11105
"CVS ALBANY, L.L.C.",325 MAMARONECK AVE.,,"WHITE PLAINS, NY 10605",http://maps.google.com/maps?q=CVS%20ALBANY%20LLC%2C325%20MAMARONECK%20AVE.%2C+WHITE%20PLAINS%2C+NY+10605
"CVS ALBANY, L.L.C.",34 CONGRESS ST.,,"SARATOGA SPRINGS, NY 12866",http://maps.google.com/maps?q=CVS%20ALBANY%20LLC%2C34%20CONGRESS%20ST.%2C+SARATOGA%20SPRINGS%2C+NY+12866
"CVS ALBANY, L.L.C.",3775 E. TREMONT AVE.,,"BRONX, NY 10465",http://maps.google.com/maps?q=CVS%20ALBANY%20LLC%2C3775%20E.%20TREMONT%20AVE.%2C+BRONX%2C+NY+10465
"CVS ALBANY, L.L.C.",4170 ALBANY POST RD.,,"HYDE PARK, NY 12538",http://maps.google.com/maps?q=CVS%20ALBANY%20LLC%2C4170%20ALBANY%20POST%20RD.%2C+HYDE%20PARK%2C+NY+12538
"CVS ALBANY, L.L.C.",4331 NESCONSET HWY.,,"PORT JEFFERSON STN, NY 11776",http://maps.google.com/maps?q=CVS%20ALBANY%20LLC%2C4331%20NESCONSET%20HWY.%2C+PORT%20JEFFERSON%20STN%2C+NY+11776
"CVS ALBANY, L.L.C.",499 MONTAUK HIGHWAY,,"WEST ISLIP, NY 11795",http://maps.google.com/maps?q=CVS%20ALBANY%20LLC%2C499%20MONTAUK%20HIGHWAY%2C+WEST%20ISLIP%2C+NY+11795
"CVS ALBANY, L.L.C.",5 INDIAN ROCK PLAZA,,"SUFFERN, NY 10901",http://maps.google.com/maps?q=CVS%20ALBANY%20LLC%2C5%20INDIAN%20ROCK%20PLAZA%2C+SUFFERN%2C+NY+10901
"CVS ALBANY, L.L.C.",540 AMSTERDAM AVENUE,,"NEW YORK, NY 10024",http://maps.google.com/maps?q=CVS%20ALBANY%20LLC%2C540%20AMSTERDAM%20AVENUE%2C+NEW%20YORK%2C+NY+10024
"CVS ALBANY, L.L.C.",598 COLUMBIA TURNPIKE,,"EAST GREENBUSH, NY 12061",http://maps.google.com/maps?q=CVS%20ALBANY%20LLC%2C598%20COLUMBIA%20TURNPIKE%2C+EAST%20GREENBUSH%2C+NY+12061
"CVS ALBANY, L.L.C.",630 LEXINGTON AVENUE,,"NEW YORK, NY 10022",http://maps.google.com/maps?q=CVS%20ALBANY%20LLC%2C630%20LEXINGTON%20AVENUE%2C+NEW%20YORK%2C+NY+10022
"CVS ALBANY, L.L.C.",75 N. MIDDLETOWN RD.,,"PEARL RIVER, NY 10965",http://maps.google.com/maps?q=CVS%20ALBANY%20LLC%2C75%20N.%20MIDDLETOWN%20RD.%2C+PEARL%20RIVER%2C+NY+10965
"CVS ALBANY, L.L.C.",7960 METROPOLITAN AVENUE,,"MIDDLE VILLAGE, NY 11379",http://maps.google.com/maps?q=CVS%20ALBANY%20LLC%2C7960%20METROPOLITAN%20AVENUE%2C+MIDDLE%20VILLAGE%2C+NY+11379
"CVS ALBANY, L.L.C.",839 RTE 146,,"CLIFTON PARK, NY 12065",http://maps.google.com/maps?q=CVS%20ALBANY%20LLC%2C839%20RTE%20146%2C+CLIFTON%20PARK%2C+NY+12065
"CVS ALBANY, L.L.C.",89-11 NORTHERN BLVD.,,"JACKSON HEIGHTS, NY 11372",http://maps.google.com/maps?q=CVS%20ALBANY%20LLC%2C89-11%20NORTHERN%20BLVD.%2C+JACKSON%20HEIGHTS%2C+NY+11372
"CVS PHARMACY, INC.",137 FEDERAL STREET,,"GREENFIELD, MA 01301",http://maps.google.com/maps?q=CVS%20PHARMACY%20INC%2C137%20FEDERAL%20STREET%2C+GREENFIELD%2C+MA+01301
"CVS PHARMACY, INC.",1616 MEMORIAL DR.,,"CHICOPEE, MA 01020",http://maps.google.com/maps?q=CVS%20PHARMACY%20INC%2C1616%20MEMORIAL%20DR.%2C+CHICOPEE%2C+MA+01020
"CVS PHARMACY, INC.",600 STATE ST,,"SPRINGFIELD, MA 01109",http://maps.google.com/maps?q=CVS%20PHARMACY%20INC%2C600%20STATE%20ST%2C+SPRINGFIELD%2C+MA+01109
"CVS PHARMACY, INC.",615-621 BELMONT AVENUE,,"SPRINGFIELD, MA 01108",http://maps.google.com/maps?q=CVS%20PHARMACY%20INC%2C615-621%20BELMONT%20AVENUE%2C+SPRINGFIELD%2C+MA+01108
D AND B PHARMACY CORP,222 OAKRIDGE COMMONS,,"SOUTH SALEM, NY 10590",http://maps.google.com/maps?q=D%20AND%20B%20PHARMACY%20CORP%2C222%20OAKRIDGE%20COMMONS%2C+SOUTH%20SALEM%2C+NY+10590
DEDRICK'S PHARMACY INC,86 NORTH FRONT STREET,,"KINGSTON, NY 12401",http://maps.google.com/maps?q=DEDRICKS%20PHARMACY%20INC%2C86%20NORTH%20FRONT%20STREET%2C+KINGSTON%2C+NY+12401
DEPIETRO'S PHARMACY,617 THIRD ST.,,"DUNMORE, PA 18512",http://maps.google.com/maps?q=DEPIETROS%20PHARMACY%2C617%20THIRD%20ST.%2C+DUNMORE%2C+PA+18512
DOBBS FERRY PHARMACY,18 CEDAR STREET,,"DOBBS FERRY, NY 10522",http://maps.google.com/maps?q=DOBBS%20FERRY%20PHARMACY%2C18%20CEDAR%20STREET%2C+DOBBS%20FERRY%2C+NY+10522
DPR EQUITY INC.,1987 STATE ROUTE 52,,"LIBERTY, NY 12754",http://maps.google.com/maps?q=DPR%20EQUITY%20INC%2C1987%20STATE%20ROUTE%2052%2C+LIBERTY%2C+NY+12754
DRUGDEX PHARMACY INC,1632 BRUCKNER BOULEVARD,,"BRONX, NY 10473",http://maps.google.com/maps?q=DRUGDEX%20PHARMACY%20INC%2C1632%20BRUCKNER%20BOULEVARD%2C+BRONX%2C+NY+10473
DUANE READE,1 UNION SQ SOUTH,,"NEW YORK, NY 10003",http://maps.google.com/maps?q=DUANE%20READE%2C1%20UNION%20SQ%20SOUTH%2C+NEW%20YORK%2C+NY+10003
DUANE READE,107-16 CONTINENTAL AVENUE,,"FOREST HILLS, NY 11375",http://maps.google.com/maps?q=DUANE%20READE%2C107-16%20CONTINENTAL%20AVENUE%2C+FOREST%20HILLS%2C+NY+11375
DUANE READE,1231 MADISON AVENUE,,"NEW YORK, NY 10128",http://maps.google.com/maps?q=DUANE%20READE%2C1231%20MADISON%20AVENUE%2C+NEW%20YORK%2C+NY+10128
DUANE READE,13602 ROOSEVELT AVENUE,,"FLUSHING, NY 11354",http://maps.google.com/maps?q=DUANE%20READE%2C13602%20ROOSEVELT%20AVENUE%2C+FLUSHING%2C+NY+11354
DUANE READE,1498 YORK AVENUE,,"NEW YORK, NY 10075",http://maps.google.com/maps?q=DUANE%20READE%2C1498%20YORK%20AVENUE%2C+NEW%20YORK%2C+NY+10075
DUANE READE,155 EAST 34TH STREET,,"NEW YORK, NY 10016",http://maps.google.com/maps?q=DUANE%20READE%2C155%20EAST%2034TH%20STREET%2C+NEW%20YORK%2C+NY+10016
DUANE READE,2522 BROADWAY,,"NEW YORK, NY 10025",http://maps.google.com/maps?q=DUANE%20READE%2C2522%20BROADWAY%2C+NEW%20YORK%2C+NY+10025
DUANE READE,40 WALL STREET,,"NEW YORK, NY 10005",http://maps.google.com/maps?q=DUANE%20READE%2C40%20WALL%20STREET%2C+NEW%20YORK%2C+NY+10005
DUANE READE,51 WEST 51ST STREET,,"NEW YORK, NY 10019",http://maps.google.com/maps?q=DUANE%20READE%2C51%20WEST%2051ST%20STREET%2C+NEW%20YORK%2C+NY+10019
DUANE READE,661 8TH AVENUE,,"NEW YORK, NY 10036",http://maps.google.com/maps?q=DUANE%20READE%2C661%208TH%20AVENUE%2C+NEW%20YORK%2C+NY+10036
DUANE READE,71 WEST 23RD STREET,,"NEW YORK, NY 10010",http://maps.google.com/maps?q=DUANE%20READE%2C71%20WEST%2023RD%20STREET%2C+NEW%20YORK%2C+NY+10010
DUANE READE,73-01 37TH AVENUE,,"JACKSON HEIGHTS, NY 11372",http://maps.google.com/maps?q=DUANE%20READE%2C73-01%2037TH%20AVENUE%2C+JACKSON%20HEIGHTS%2C+NY+11372
DUANE READE,775 COLUMBUS AVENUE,,"NEW YORK, NY 10025",http://maps.google.com/maps?q=DUANE%20READE%2C775%20COLUMBUS%20AVENUE%2C+NEW%20YORK%2C+NY+10025
DUANE READE,949 THIRD AVENUE,,"NEW YORK, NY 10022",http://maps.google.com/maps?q=DUANE%20READE%2C949%20THIRD%20AVENUE%2C+NEW%20YORK%2C+NY+10022
DUANE READE PHCY. DEPT.,110 NEWARK AVENUE,,"JERSEY CITY, NJ 07302",http://maps.google.com/maps?q=DUANE%20READE%20PHCY%20DEPT%2C110%20NEWARK%20AVENUE%2C+JERSEY%20CITY%2C+NJ+07302
DUTCHESS CHEMISTS INC,6032 ROUTE 82,,"STANFORDVILLE, NY 12581",http://maps.google.com/maps?q=DUTCHESS%20CHEMISTS%20INC%2C6032%20ROUTE%2082%2C+STANFORDVILLE%2C+NY+12581
ECHO PHARMACY,56 ECHO AVENUE,,"MILLER PLACE, NY 11764",http://maps.google.com/maps?q=ECHO%20PHARMACY%2C56%20ECHO%20AVENUE%2C+MILLER%20PLACE%2C+NY+11764
ELIZABETHTOWN COMMUNITY HOSP,75 PARK STREET,PO BOX 277,"ELIZABETHTOWN, NY 12932",http://maps.google.com/maps?q=ELIZABETHTOWN%20COMMUNITY%20HOSP%2C75%20PARK%20STREET%2C+ELIZABETHTOWN%2C+NY+12932
ESCO DRUG CO INC,687 9TH AVE,,"NEW YORK, NY 10036",http://maps.google.com/maps?q=ESCO%20DRUG%20CO%20INC%2C687%209TH%20AVE%2C+NEW%20YORK%2C+NY+10036
FAIRVIEW HILL REALTY CORP,4747 NESCONSET HWY,,"PORT JEFFERSON STATION, NY 11776",http://maps.google.com/maps?q=FAIRVIEW%20HILL%20REALTY%20CORP%2C4747%20NESCONSET%20HWY%2C+PORT%20JEFFERSON%20STATION%2C+NY+11776
FISHKILL PHARMACY LLC,1004 MAIN ST.,BUILDING 554,"FISHKILL, NY 12524",http://maps.google.com/maps?q=FISHKILL%20PHARMACY%20LLC%2C1004%20MAIN%20ST.%2C+FISHKILL%2C+NY+12524
FORTEEN STAR ENTERPRISES INC,346 CENTRAL AVE,,"ALBANY, NY 12206",http://maps.google.com/maps?q=FORTEEN%20STAR%20ENTERPRISES%20INC%2C346%20CENTRAL%20AVE%2C+ALBANY%2C+NY+12206
FOUR CORNERS PHARMACY LLC,360 DELAWARE AVENUE,,"DELMAR, NY 12054",http://maps.google.com/maps?q=FOUR%20CORNERS%20PHARMACY%20LLC%2C360%20DELAWARE%20AVENUE%2C+DELMAR%2C+NY+12054
FRANCO PHARMACY CORP,77-01 37TH AVE,,"JACKSON HEIGHTS, NY 11372",http://maps.google.com/maps?q=FRANCO%20PHARMACY%20CORP%2C77-01%2037TH%20AVE%2C+JACKSON%20HEIGHTS%2C+NY+11372
FRANHILL PHARMACY LLC,204-19 HILLSIDE AVENUE,,"HOLLIS, NY 11423",http://maps.google.com/maps?q=FRANHILL%20PHARMACY%20LLC%2C204-19%20HILLSIDE%20AVENUE%2C+HOLLIS%2C+NY+11423
FRANKLIN SQUARE PHARMACY INC,925 HEMPSTEAD TURNPIKE,ATTN: SUPERVISING PHARMACIST,"FRANKLIN SQUARE, NY 11010",http://maps.google.com/maps?q=FRANKLIN%20SQUARE%20PHARMACY%20INC%2C925%20HEMPSTEAD%20TURNPIKE%2C+FRANKLIN%20SQUARE%2C+NY+11010
FREDERICK H LANGE INC,2205 NOTT ST,,"SCHENECTADY, NY 12309",http://maps.google.com/maps?q=FREDERICK%20H%20LANGE%20INC%2C2205%20NOTT%20ST%2C+SCHENECTADY%2C+NY+12309
"G.S.P. LONGTERM CARE, INC",1567 CENTRAL PARK AVENUE,,"YONKERS, NY 10710",http://maps.google.com/maps?q=GSP%20LONGTERM%20CARE%20INC%2C1567%20CENTRAL%20PARK%20AVENUE%2C+YONKERS%2C+NY+10710
"GENOA HEALTHCARE, LLC",25 E SALEM STREET,,"HACKENSACK, NJ 07601",http://maps.google.com/maps?q=GENOA%20HEALTHCARE%20LLC%2C25%20E%20SALEM%20STREET%2C+HACKENSACK%2C+NJ+07601
GLEN COVE PHARM LLC,20 FOREST AVE,,"GLEN COVE, NY 11542",http://maps.google.com/maps?q=GLEN%20COVE%20PHARM%20LLC%2C20%20FOREST%20AVE%2C+GLEN%20COVE%2C+NY+11542
GRAMATAN PHARMACY CORP,120 GRAMATAN AVENUE,,"MOUNT VERNON, NY 10550",http://maps.google.com/maps?q=GRAMATAN%20PHARMACY%20CORP%2C120%20GRAMATAN%20AVENUE%2C+MOUNT%20VERNON%2C+NY+10550
GRASSY SPRAIN PHARMACY INC,640 TUCKAHOE ROAD,,"YONKERS, NY 10710",http://maps.google.com/maps?q=GRASSY%20SPRAIN%20PHARMACY%20INC%2C640%20TUCKAHOE%20ROAD%2C+YONKERS%2C+NY+10710
GREATER FALLS PHARMACY,78 ATKINSON ST,,"BELLOWS FALLS, VT 05101",http://maps.google.com/maps?q=GREATER%20FALLS%20PHARMACY%2C78%20ATKINSON%20ST%2C+BELLOWS%20FALLS%2C+VT+05101
HARPELL CHEMISTS INC,12-65 150TH STREET,,"WHITESTONE, NY 11357",http://maps.google.com/maps?q=HARPELL%20CHEMISTS%20INC%2C12-65%20150TH%20STREET%2C+WHITESTONE%2C+NY+11357
HARROLD'S PHARMACY,250 OLD RIVER ROAD,,"WILKES BARRE, PA 18702",http://maps.google.com/maps?q=HARROLDS%20PHARMACY%2C250%20OLD%20RIVER%20ROAD%2C+WILKES%20BARRE%2C+PA+18702
HEALTH SPECTRUM PHARMACY SERVICES POCONO,206 E. BROWN ST.,1ST FLOOR,"EAST STROUDSBURG, PA 18301",http://maps.google.com/maps?q=HEALTH%20SPECTRUM%20PHARMACY%20SERVICES%20POCONO%2C206%20E.%20BROWN%20ST.%2C+EAST%20STROUDSBURG%2C+PA+18301
HEALTHSMART,203 MAIN STREET,,"OSSINING, NY 10562",http://maps.google.com/maps?q=HEALTHSMART%2C203%20MAIN%20STREET%2C+OSSINING%2C+NY+10562
HIGH MOUNTAIN CORPORATION,DBA RUTLAND PHARMACY,75 ALLEN STREET,"RUTLAND, VT 05701",http://maps.google.com/maps?q=HIGH%20MOUNTAIN%20CORPORATION%2CDBA%20RUTLAND%20PHARMACY%2C+RUTLAND%2C+VT+05701
HOLYOKE HEALTH CENTER INC,505 FRONT STREET,,"CHICOPEE, MA 01013",http://maps.google.com/maps?q=HOLYOKE%20HEALTH%20CENTER%20INC%2C505%20FRONT%20STREET%2C+CHICOPEE%2C+MA+01013
"HOLYOKE HEALTH CENTER, INC.",PHARMACY DEPARTMENT,230 MAPLE STREET,"HOLYOKE, MA 01040",http://maps.google.com/maps?q=HOLYOKE%20HEALTH%20CENTER%20INC%2CPHARMACY%20DEPARTMENT%2C+HOLYOKE%2C+MA+01040
HOTEL PHARMACY,20 ELLIOT ST,,"BRATTLEBORO, VT 05301",http://maps.google.com/maps?q=HOTEL%20PHARMACY%2C20%20ELLIOT%20ST%2C+BRATTLEBORO%2C+VT+05301
I & O PHARMACY CORP,669 MANHATTAN AVENUE,,"BROOKLYN, NY 11222",http://maps.google.com/maps?q=I%20%20O%20PHARMACY%20CORP%2C669%20MANHATTAN%20AVENUE%2C+BROOKLYN%2C+NY+11222
ISLA DRUG STORES INC,1994 THIRD AVE,,"NEW YORK, NY 10029",http://maps.google.com/maps?q=ISLA%20DRUG%20STORES%20INC%2C1994%20THIRD%20AVE%2C+NEW%20YORK%2C+NY+10029
J A K PHARMA INC,2343 ARTHUR AVENUE,,"BRONX, NY 10458",http://maps.google.com/maps?q=J%20A%20K%20PHARMA%20INC%2C2343%20ARTHUR%20AVENUE%2C+BRONX%2C+NY+10458
JACKSON HEIGHTS DRUGS INC.,BANGLADESH FARMACIA,73-21 37TH ROAD,"JACKSON HEIGHTS, NY 11372",http://maps.google.com/maps?q=JACKSON%20HEIGHTS%20DRUGS%20INC%2CBANGLADESH%20FARMACIA%2C+JACKSON%20HEIGHTS%2C+NY+11372
JAN PHARMA INC,311 ST. NICHOLAS AVENUE,,"RIDGEWOOD, NY 11385",http://maps.google.com/maps?q=JAN%20PHARMA%20INC%2C311%20ST.%20NICHOLAS%20AVENUE%2C+RIDGEWOOD%2C+NY+11385
JOJAN PHARMA INC,121 ST.NICHOLAS AVENUE,,"BROOKLYN, NY 11237",http://maps.google.com/maps?q=JOJAN%20PHARMA%20INC%2C121%20ST.NICHOLAS%20AVENUE%2C+BROOKLYN%2C+NY+11237
KELLY'S PHARMACY INC.,34 HOPE PLAZA,,"WEST COXSACKIE, NY 12192",http://maps.google.com/maps?q=KELLYS%20PHARMACY%20INC%2C34%20HOPE%20PLAZA%2C+WEST%20COXSACKIE%2C+NY+12192
KELLY'S PHARMACY INC.,4852 RT 81,PO BOX 422,"GREENVILLE, NY 12083",http://maps.google.com/maps?q=KELLYS%20PHARMACY%20INC%2C4852%20RT%2081%2C+GREENVILLE%2C+NY+12083
KING KULLEN PHARMACIES CORP,1235 MIDDLE COUNTRY RD,,"MIDDLE ISLAND, NY 11953",http://maps.google.com/maps?q=KING%20KULLEN%20PHARMACIES%20CORP%2C1235%20MIDDLE%20COUNTRY%20RD%2C+MIDDLE%20ISLAND%2C+NY+11953
KING KULLEN PHARMACIES CORP,3284 HEMPSTEAD TURNPIKE,,"LEVITTOWN, NY 11756",http://maps.google.com/maps?q=KING%20KULLEN%20PHARMACIES%20CORP%2C3284%20HEMPSTEAD%20TURNPIKE%2C+LEVITTOWN%2C+NY+11756
KING KULLEN PHARMACIES CORP,440 SUNRISE HIGHWAY,,"NORTH PATCHOGUE, NY 11772",http://maps.google.com/maps?q=KING%20KULLEN%20PHARMACIES%20CORP%2C440%20SUNRISE%20HIGHWAY%2C+NORTH%20PATCHOGUE%2C+NY+11772
KING KULLEN PHARMACIES CORP,50 N. NEW YORK AVE,,"HUNTINGTON, NY 11743",http://maps.google.com/maps?q=KING%20KULLEN%20PHARMACIES%20CORP%2C50%20N.%20NEW%20YORK%20AVE%2C+HUNTINGTON%2C+NY+11743
KING KULLEN PHARMACIES CORP,5507-200 NESCONSET HWY RTE 347,,"MOUNT SINAI, NY 11766",http://maps.google.com/maps?q=KING%20KULLEN%20PHARMACIES%20CORP%2C5507-200%20NESCONSET%20HWY%20RTE%20347%2C+MOUNT%20SINAI%2C+NY+11766
KING KULLEN PHARMACIES CORP,552 MONTAUK HIGHWAY,,"CENTER MORICHES, NY 11934",http://maps.google.com/maps?q=KING%20KULLEN%20PHARMACIES%20CORP%2C552%20MONTAUK%20HIGHWAY%2C+CENTER%20MORICHES%2C+NY+11934
KING KULLEN PHARMACIES CORP,C/O PHARMACY,271 JERICHO TURNPIKE,"SYOSSET, NY 11791",http://maps.google.com/maps?q=KING%20KULLEN%20PHARMACIES%20CORP%2CC/O%20PHARMACY%2C+SYOSSET%2C+NY+11791
KING KULLEN PHARMACIES CORP,KING KULLEN PHARMACY #33,460 COUNTY ROAD 111,"MANORVILLE, NY 11949",http://maps.google.com/maps?q=KING%20KULLEN%20PHARMACIES%20CORP%2CKING%20KULLEN%20PHARMACY%20#33%2C+MANORVILLE%2C+NY+11949
KING KULLEN PHARMACIES CORP,KING KULLEN PHARMACY #46,598 STEWART AVENUE,"BETHPAGE, NY 11714",http://maps.google.com/maps?q=KING%20KULLEN%20PHARMACIES%20CORP%2CKING%20KULLEN%20PHARMACY%20#46%2C+BETHPAGE%2C+NY+11714
KINGSBRIDGE PHARMACY CORP.,145 W. KINGSBRIDGE RD.,,"BRONX, NY 10468",http://maps.google.com/maps?q=KINGSBRIDGE%20PHARMACY%20CORP%2C145%20W.%20KINGSBRIDGE%20RD.%2C+BRONX%2C+NY+10468
L & W CHEMISTS INC,25 SOUTHDOWN RD,,"HUNTINGTON, NY 11743",http://maps.google.com/maps?q=L%20%20W%20CHEMISTS%20INC%2C25%20SOUTHDOWN%20RD%2C+HUNTINGTON%2C+NY+11743
LE-MAC PHARMACY INC,623 MC LEAN AVE,,"YONKERS, NY 10705",http://maps.google.com/maps?q=LEMAC%20PHARMACY%20INC%2C623%20MC%20LEAN%20AVE%2C+YONKERS%2C+NY+10705
LECH'S PHARMACY,291 MAIN STREET,POB 600,"NICHOLSON, PA 18446",http://maps.google.com/maps?q=LECHS%20PHARMACY%2C291%20MAIN%20STREET%2C+NICHOLSON%2C+PA+18446
LENOX PHARMACY,5879 SR 92,SUITE 3 LENOX PLAZA,"KINGSLEY, PA 18826",http://maps.google.com/maps?q=LENOX%20PHARMACY%2C5879%20SR%2092%2C+KINGSLEY%2C+PA+18826
LEWIS COUNTY GENERAL HOSPITAL,PHARMACY DEPARTMENT,7785 NORTH STATE STREET,"LOWVILLE, NY 13367",http://maps.google.com/maps?q=LEWIS%20COUNTY%20GENERAL%20HOSPITAL%2CPHARMACY%20DEPARTMENT%2C+LOWVILLE%2C+NY+13367
LIFE PHARMA II INC,471 LENOX AVENUE,,"NEW YORK, NY 10037",http://maps.google.com/maps?q=LIFE%20PHARMA%20II%20INC%2C471%20LENOX%20AVENUE%2C+NEW%20YORK%2C+NY+10037
LORDS VALLEY VILLAGE PHCY INC,658 ROUTE 739 SUITE 5,,"HAWLEY, PA 18428",http://maps.google.com/maps?q=LORDS%20VALLEY%20VILLAGE%20PHCY%20INC%2C658%20ROUTE%20739%20SUITE%205%2C+HAWLEY%2C+PA+18428
LUDLOW PHARMACY INC.,57 POND ST,,"LUDLOW, VT 05149",http://maps.google.com/maps?q=LUDLOW%20PHARMACY%20INC%2C57%20POND%20ST%2C+LUDLOW%2C+VT+05149
MADISON PHARMACY,66 MAIN ST,,"MADISON, NJ 07940",http://maps.google.com/maps?q=MADISON%20PHARMACY%2C66%20MAIN%20ST%2C+MADISON%2C+NJ+07940
MARC'S VILLAGE PHARMACY INC,31 EAST MAIN STREET,,"ELMSFORD, NY 10523",http://maps.google.com/maps?q=MARCS%20VILLAGE%20PHARMACY%20INC%2C31%20EAST%20MAIN%20STREET%2C+ELMSFORD%2C+NY+10523
MARG PHARMACY,76 GRAHAM AVE.,,"BROOKLYN, NY 11206",http://maps.google.com/maps?q=MARG%20PHARMACY%2C76%20GRAHAM%20AVE.%2C+BROOKLYN%2C+NY+11206
MARGARETVILLE HOSPITAL PHARMACY,42084 STATE HIGHWAY,RT 28,"MARGARETVILLE, NY 12455",http://maps.google.com/maps?q=MARGARETVILLE%20HOSPITAL%20PHARMACY%2C42084%20STATE%20HIGHWAY%2C+MARGARETVILLE%2C+NY+12455
MARRA'S PHARMACY,217 REMSEN STREET,PO BOX 229,"COHOES, NY 12047",http://maps.google.com/maps?q=MARRAS%20PHARMACY%2C217%20REMSEN%20STREET%2C+COHOES%2C+NY+12047
"MARTIN'S FOODS OF SOUTH BURLINGTON, LLC",1400 ALTAMONT AVE,,"SCHENECTADY, NY 12303",http://maps.google.com/maps?q=MARTINS%20FOODS%20OF%20SOUTH%20BURLINGTON%20LLC%2C1400%20ALTAMONT%20AVE%2C+SCHENECTADY%2C+NY+12303
"MARTIN'S FOODS OF SOUTH BURLINGTON, LLC",2967 ROUTE 9,,"VALATIE, NY 12184",http://maps.google.com/maps?q=MARTINS%20FOODS%20OF%20SOUTH%20BURLINGTON%20LLC%2C2967%20ROUTE%209%2C+VALATIE%2C+NY+12184
"MEACHAM PHARMACY,  INC",107 MEACHAM AVENUE,,"ELMONT, NY 11003",http://maps.google.com/maps?q=MEACHAM%20PHARMACY%20%20INC%2C107%20MEACHAM%20AVENUE%2C+ELMONT%2C+NY+11003
MERU PHARMACY INC,2 PARK AVENUE,,"YONKERS, NY 10703",http://maps.google.com/maps?q=MERU%20PHARMACY%20INC%2C2%20PARK%20AVENUE%2C+YONKERS%2C+NY+10703
MIDTOWN DRUGS,581 KEARNY AVE,,"KEARNY, NJ 07032",http://maps.google.com/maps?q=MIDTOWN%20DRUGS%2C581%20KEARNY%20AVE%2C+KEARNY%2C+NJ+07032
MILLBROOK PHARMMACY LLC.,3272 FRANKLIN AVE.,,"MILLBROOK, NY 12545",http://maps.google.com/maps?q=MILLBROOK%20PHARMMACY%20LLC%2C3272%20FRANKLIN%20AVE.%2C+MILLBROOK%2C+NY+12545
MILLERS OF WYCKOFF INC,678 WYCKOFF AVE,,"WYCKOFF, NJ 07481",http://maps.google.com/maps?q=MILLERS%20OF%20WYCKOFF%20INC%2C678%20WYCKOFF%20AVE%2C+WYCKOFF%2C+NJ+07481
MT CARMEL PHARMACY,705 EAST 187TH STREET,,"BRONX, NY 10458",http://maps.google.com/maps?q=MT%20CARMEL%20PHARMACY%2C705%20EAST%20187TH%20STREET%2C+BRONX%2C+NY+10458
NASSAU PHARMACY INC,3541 US ROUTE 20,,"NASSAU, NY 12123",http://maps.google.com/maps?q=NASSAU%20PHARMACY%20INC%2C3541%20US%20ROUTE%2020%2C+NASSAU%2C+NY+12123
"NEW JERSEY CVS PHARMACY, L.L.C.",2287 MORRIS AVENUE,,"UNION, NJ 07083",http://maps.google.com/maps?q=NEW%20JERSEY%20CVS%20PHARMACY%20LLC%2C2287%20MORRIS%20AVENUE%2C+UNION%2C+NJ+07083
"NEW JERSEY CVS PHARMACY, L.L.C.",24-12 FAIR LAWN AVENUE,,"FAIR LAWN, NJ 07410",http://maps.google.com/maps?q=NEW%20JERSEY%20CVS%20PHARMACY%20LLC%2C24-12%20FAIR%20LAWN%20AVENUE%2C+FAIR%20LAWN%2C+NJ+07410
"NEW JERSEY CVS PHARMACY, L.L.C.",2440 HAMBURG TURNPIKE,,"WAYNE, NJ 07470",http://maps.google.com/maps?q=NEW%20JERSEY%20CVS%20PHARMACY%20LLC%2C2440%20HAMBURG%20TURNPIKE%2C+WAYNE%2C+NJ+07470
"NEW JERSEY CVS PHARMACY, L.L.C.",303 FRANKLIN AVENUE,,"WYCKOFF, NJ 07481",http://maps.google.com/maps?q=NEW%20JERSEY%20CVS%20PHARMACY%20LLC%2C303%20FRANKLIN%20AVENUE%2C+WYCKOFF%2C+NJ+07481
"NEW JERSEY CVS PHARMACY, L.L.C.",560 PASSIAC AVE,WEST CALDWELL S/C,"WEST CALDWELL, NJ 07006",http://maps.google.com/maps?q=NEW%20JERSEY%20CVS%20PHARMACY%20LLC%2C560%20PASSIAC%20AVE%2C+WEST%20CALDWELL%2C+NJ+07006
"NEW JERSEY CVS PHARMACY, L.L.C.",59 WASHINGTON ST,COURT STREET PLAZA,"HOBOKEN, NJ 07030",http://maps.google.com/maps?q=NEW%20JERSEY%20CVS%20PHARMACY%20LLC%2C59%20WASHINGTON%20ST%2C+HOBOKEN%2C+NJ+07030
"NEW JERSEY CVS PHARMACY, L.L.C.",9015 BERGENLINE AVENUE - 90TH STREET,,"NORTH BERGEN, NJ 07047",http://maps.google.com/maps?q=NEW%20JERSEY%20CVS%20PHARMACY%20LLC%2C9015%20BERGENLINE%20AVENUE%20-%2090TH%20STREET%2C+NORTH%20BERGEN%2C+NJ+07047
NEW PALTZ PHARMACY INC,DEDRICK'S PHARMACY OF NEW PALT,190 MAIN ST,"NEW PALTZ, NY 12561",http://maps.google.com/maps?q=NEW%20PALTZ%20PHARMACY%20INC%2CDEDRICK'S%20PHARMACY%20OF%20NEW%20PALT%2C+NEW%20PALTZ%2C+NY+12561
NEW ROCHELLE PRESCRIPTION CTR INC,551 MAIN ST.,,"NEW ROCHELLE, NY 10801",http://maps.google.com/maps?q=NEW%20ROCHELLE%20PRESCRIPTION%20CTR%20INC%2C551%20MAIN%20ST.%2C+NEW%20ROCHELLE%2C+NY+10801
NORTH COUNTRY DRUGS INC,227-229 EAST MAIN STREET,,"HUNTINGTON, NY 11743",http://maps.google.com/maps?q=NORTH%20COUNTRY%20DRUGS%20INC%2C227-229%20EAST%20MAIN%20STREET%2C+HUNTINGTON%2C+NY+11743
NORTHERN WESTCHESTER HOSPITAL,400 E MAIN ST,,"MOUNT KISCO, NY 10549",http://maps.google.com/maps?q=NORTHERN%20WESTCHESTER%20HOSPITAL%2C400%20E%20MAIN%20ST%2C+MOUNT%20KISCO%2C+NY+10549
NY DRUGS INC,CASTLE HILL COMMUNITY PHARMACY,706 CASTLE HILL AVENUE,"BRONX, NY 10473",http://maps.google.com/maps?q=NY%20DRUGS%20INC%2CCASTLE%20HILL%20COMMUNITY%20PHARMACY%2C+BRONX%2C+NY+10473
O'CONNOR HOSPITAL,C/O PHARMACY,460 ANDES ROAD,"DELHI, NY 13753",http://maps.google.com/maps?q=OCONNOR%20HOSPITAL%2CC/O%20PHARMACY%2C+DELHI%2C+NY+13753
"OUR LADY OF LOURDES MEMORIAL HOSPITAL, INC.",3101 SHIPPERS ROAD,SUITE 104,"VESTAL, NY 13850",http://maps.google.com/maps?q=OUR%20LADY%20OF%20LOURDES%20MEMORIAL%20HOSPITAL%20INC%2C3101%20SHIPPERS%20ROAD%2C+VESTAL%2C+NY+13850
"PAAK PHARMACY, INC",689 MEDFORD AVE,,"PATCHOGUE, NY 11772",http://maps.google.com/maps?q=PAAK%20PHARMACY%20INC%2C689%20MEDFORD%20AVE%2C+PATCHOGUE%2C+NY+11772
PEARL RIVER CHEMISTS INC,139 NORTH MIDDLETOWN ROAD,,"PEARL RIVER, NY 10965",http://maps.google.com/maps?q=PEARL%20RIVER%20CHEMISTS%20INC%2C139%20NORTH%20MIDDLETOWN%20ROAD%2C+PEARL%20RIVER%2C+NY+10965
"PENNSYLVANIA CVS PHARMACY, L.L.C.",1101 MOOSIC ST.,,"SCRANTON, PA 18505",http://maps.google.com/maps?q=PENNSYLVANIA%20CVS%20PHARMACY%20LLC%2C1101%20MOOSIC%20ST.%2C+SCRANTON%2C+PA+18505
"PENNSYLVANIA CVS PHARMACY, L.L.C.",5 CHURCH STREET,,"DALLAS, PA 18612",http://maps.google.com/maps?q=PENNSYLVANIA%20CVS%20PHARMACY%20LLC%2C5%20CHURCH%20STREET%2C+DALLAS%2C+PA+18612
"PHARMSCRIPT, LLC",441 COMMERCE ROAD,SUITE 2,"VESTAL, NY 13850",http://maps.google.com/maps?q=PHARMSCRIPT%20LLC%2C441%20COMMERCE%20ROAD%2C+VESTAL%2C+NY+13850
"PROGRESSION, LLC",79 TINKER STREET,,"WOODSTOCK, NY 12498",http://maps.google.com/maps?q=PROGRESSION%20LLC%2C79%20TINKER%20STREET%2C+WOODSTOCK%2C+NY+12498
PROHEALTH PHARMACY INC,385 A/B  SECOND AVE,,"NEW YORK, NY 10010",http://maps.google.com/maps?q=PROHEALTH%20PHARMACY%20INC%2C385%20A/B%20%20SECOND%20AVE%2C+NEW%20YORK%2C+NY+10010
R&P APOTHECARY,D/B/A EVERGREEN DRUGS,87-08 JUSTICE AVENUE,"ELMHURST, NY 11373",http://maps.google.com/maps?q=RP%20APOTHECARY%2CD/B/A%20EVERGREEN%20DRUGS%2C+ELMHURST%2C+NY+11373
RIVERSIDE REMEDIES RX CORP.,39 LOWER MAIN STREET,P.O. BOX 275,"CALLICOON, NY 12723",http://maps.google.com/maps?q=RIVERSIDE%20REMEDIES%20RX%20CORP%2C39%20LOWER%20MAIN%20STREET%2C+CALLICOON%2C+NY+12723
RND PHARMACY INC,52 WEST BURNSIDE AVE,,"BRONX, NY 10453",http://maps.google.com/maps?q=RND%20PHARMACY%20INC%2C52%20WEST%20BURNSIDE%20AVE%2C+BRONX%2C+NY+10453
RUTLAND REGIONAL MEDICAL CTR,160 ALLEN ST ATTN PHARM DEPT,,"RUTLAND, VT 05701",http://maps.google.com/maps?q=RUTLAND%20REGIONAL%20MEDICAL%20CTR%2C160%20ALLEN%20ST%20ATTN%20PHARM%20DEPT%2C+RUTLAND%2C+VT+05701
S & M PHARMACY INC,68-50 MAIN STREET,,"FLUSHING, NY 11367",http://maps.google.com/maps?q=S%20%20M%20PHARMACY%20INC%2C68-50%20MAIN%20STREET%2C+FLUSHING%2C+NY+11367
SARATOGA HOSPITAL THE,211 CHURCH STREET,,"SARATOGA SPRINGS, NY 12866",http://maps.google.com/maps?q=SARATOGA%20HOSPITAL%20THE%2C211%20CHURCH%20STREET%2C+SARATOGA%20SPRINGS%2C+NY+12866
SAUGERTIES PHARMACY LLC,250 MAIN ST,,"SAUGERTIES, NY 12477",http://maps.google.com/maps?q=SAUGERTIES%20PHARMACY%20LLC%2C250%20MAIN%20ST%2C+SAUGERTIES%2C+NY+12477
SCRIPTS PLUS INC,10 CENTRAL AVENUE,,"ILION, NY 13357",http://maps.google.com/maps?q=SCRIPTS%20PLUS%20INC%2C10%20CENTRAL%20AVENUE%2C+ILION%2C+NY+13357
SDJA CORPORATION,PO BOX 777,ATTN: SUPERVISING PHARMACIST,"ROCK HILL, NY 12775",http://maps.google.com/maps?q=SDJA%20CORPORATION%2CPO%20BOX%20777%2C+ROCK%20HILL%2C+NY+12775
SEA. J PHARMACY CORP,765-767 MORRIS PARK AVE,,"BRONX, NY 10462",http://maps.google.com/maps?q=SEA%20J%20PHARMACY%20CORP%2C765-767%20MORRIS%20PARK%20AVE%2C+BRONX%2C+NY+10462
SHEEHANS PHARMACY,79 EAST CAREY ST,,"PLAINS, PA 18705",http://maps.google.com/maps?q=SHEEHANS%20PHARMACY%2C79%20EAST%20CAREY%20ST%2C+PLAINS%2C+PA+18705
SOUTHSIDE HOSPITAL,PHARMACY DEPARTMENT,301 EAST MAIN STREET,"BAYSHORE, NY 11706",http://maps.google.com/maps?q=SOUTHSIDE%20HOSPITAL%2CPHARMACY%20DEPARTMENT%2C+BAYSHORE%2C+NY+11706
SOUTHWESTERN VERMONT MEDICAL CENTER,100 HOSPITAL DRIVE,,"BENNINGTON, VT 05201",http://maps.google.com/maps?q=SOUTHWESTERN%20VERMONT%20MEDICAL%20CENTER%2C100%20HOSPITAL%20DRIVE%2C+BENNINGTON%2C+VT+05201
SPRINGFIELD PHARMACY INC,262 RIVER STREET,,"SPRINGFIELD, VT 05156",http://maps.google.com/maps?q=SPRINGFIELD%20PHARMACY%20INC%2C262%20RIVER%20STREET%2C+SPRINGFIELD%2C+VT+05156
STERLING PHARMACY INC,38-01 BELL BLVD,,"BAYSIDE, NY 11361",http://maps.google.com/maps?q=STERLING%20PHARMACY%20INC%2C38-01%20BELL%20BLVD%2C+BAYSIDE%2C+NY+11361
STONE'S PHARMACY INC,BRIDGE & MAIN STREETS,,"LAKE LUZERNE, NY 12846",http://maps.google.com/maps?q=STONES%20PHARMACY%20INC%2CBRIDGE%20&%20MAIN%20STREETS%2C+LAKE%20LUZERNE%2C+NY+12846
T C FLYNN PHARMACY,173 ELM ST,,"PITTSFIELD, MA 01201",http://maps.google.com/maps?q=T%20C%20FLYNN%20PHARMACY%2C173%20ELM%20ST%2C+PITTSFIELD%2C+MA+01201
"TACONIC PHARMACY, INC",3659 LEE ROAD,,"JEFFERSON VALLEY, NY 10535",http://maps.google.com/maps?q=TACONIC%20PHARMACY%20INC%2C3659%20LEE%20ROAD%2C+JEFFERSON%20VALLEY%2C+NY+10535
THE MARY IMOGENE BASSETT HOSP,OUTPATIENT PHARMACY,1 ATWELL RD,"COOPERTOWN, NY 13326",http://maps.google.com/maps?q=THE%20MARY%20IMOGENE%20BASSETT%20HOSP%2COUTPATIENT%20PHARMACY%2C+COOPERTOWN%2C+NY+13326
"THE PHARMACY - NORTHSHIRE, LLC",34 WAYS LANE,,"MANCHESTER CENTER, VT 05255",http://maps.google.com/maps?q=THE%20PHARMACY%20%20NORTHSHIRE%20LLC%2C34%20WAYS%20LANE%2C+MANCHESTER%20CENTER%2C+VT+05255
TOWN CENTER PHARMACY,575 MAIN STREET,,"ARMONK, NY 10504",http://maps.google.com/maps?q=TOWN%20CENTER%20PHARMACY%2C575%20MAIN%20STREET%2C+ARMONK%2C+NY+10504
TOWNE CENTRE PHARMACY,2540 ROUTE 55,P.O. BOX 335,"POUGHQUAG, NY 12570",http://maps.google.com/maps?q=TOWNE%20CENTRE%20PHARMACY%2C2540%20ROUTE%2055%2C+POUGHQUAG%2C+NY+12570
"TRANSCRIPT PHARMACY OF NEW YORK, INC.",87 HEMPSTEAD TURNPIKE,,"FARMINGDALE, NY 11735",http://maps.google.com/maps?q=TRANSCRIPT%20PHARMACY%20OF%20NEW%20YORK%20INC%2C87%20HEMPSTEAD%20TURNPIKE%2C+FARMINGDALE%2C+NY+11735
TROTTA'S WEST STREET PHAR INC,15 HALSTEAD AVE,,"HARRISON, NY 10528",http://maps.google.com/maps?q=TROTTAS%20WEST%20STREET%20PHAR%20INC%2C15%20HALSTEAD%20AVE%2C+HARRISON%2C+NY+10528
U & I INC USA,PO BOX 1260,ATTN: SUPERVISING PHARMACIST,"VERNON, NY 13476",http://maps.google.com/maps?q=U%20%20I%20INC%20USA%2CPO%20BOX%201260%2C+VERNON%2C+NY+13476
US ARMY MALOGNE CADET HEALTH CLINIC,2 THAYER RD,,"WEST POINT, NY 10996",http://maps.google.com/maps?q=US%20ARMY%20MALOGNE%20CADET%20HEALTH%20CLINIC%2C2%20THAYER%20RD%2C+WEST%20POINT%2C+NY+10996
US ARMY- KELLER COMMUNITY HOSPITAL,900 WASHINGTON RD,,"WEST POINT, NY 10996",http://maps.google.com/maps?q=US%20ARMY%20KELLER%20COMMUNITY%20HOSPITAL%2C900%20WASHINGTON%20RD%2C+WEST%20POINT%2C+NY+10996
USN- NAVAL BRANCH HEALTH CLINIC SARATOGA SPRINGS,"ONE WEST AVE, SUITE 230",,"SARATOGA SPRINGS, NY 12866",http://maps.google.com/maps?q=USN%20NAVAL%20BRANCH%20HEALTH%20CLINIC%20SARATOGA%20SPRINGS%2CONE%20WEST%20AVE%2C%20SUITE%20230%2C+SARATOGA%20SPRINGS%2C+NY+12866
WALGREEN EASTERN CO INC,1230 NEPPERHAN AVE,,"YONKERS, NY 10703",http://maps.google.com/maps?q=WALGREEN%20EASTERN%20CO%20INC%2C1230%20NEPPERHAN%20AVE%2C+YONKERS%2C+NY+10703
"WALGREEN EASTERN CO., INC.",100 BROADWAY,,"ELMWOOD PARK, NJ 07407",http://maps.google.com/maps?q=WALGREEN%20EASTERN%20CO%20INC%2C100%20BROADWAY%2C+ELMWOOD%20PARK%2C+NJ+07407
"WALGREEN EASTERN CO., INC.",1561 JOHN F KENNEDY BLVD,,"JERSEY CITY, NJ 07305",http://maps.google.com/maps?q=WALGREEN%20EASTERN%20CO%20INC%2C1561%20JOHN%20F%20KENNEDY%20BLVD%2C+JERSEY%20CITY%2C+NJ+07305
"WALGREEN EASTERN CO., INC.",200 BALDWIN RD. SUITE 200,,"PARSIPPANY, NJ 07054",http://maps.google.com/maps?q=WALGREEN%20EASTERN%20CO%20INC%2C200%20BALDWIN%20RD.%20SUITE%20200%2C+PARSIPPANY%2C+NJ+07054
"WALGREEN EASTERN CO., INC.",201 S. JAMES ST.,,"ROME, NY 13440",http://maps.google.com/maps?q=WALGREEN%20EASTERN%20CO%20INC%2C201%20S.%20JAMES%20ST.%2C+ROME%2C+NY+13440
"WALGREEN EASTERN CO., INC.",210 S BROADWAY,,"HICKSVILLE, NY 11801",http://maps.google.com/maps?q=WALGREEN%20EASTERN%20CO%20INC%2C210%20S%20BROADWAY%2C+HICKSVILLE%2C+NY+11801
"WALGREEN EASTERN CO., INC.",2148 MORRIS AVE,,"UNION, NJ 07083",http://maps.google.com/maps?q=WALGREEN%20EASTERN%20CO%20INC%2C2148%20MORRIS%20AVE%2C+UNION%2C+NJ+07083
"WALGREEN EASTERN CO., INC.",2395 KENNEDY BLVD.,,"JERSEY CITY, NJ 07304",http://maps.google.com/maps?q=WALGREEN%20EASTERN%20CO%20INC%2C2395%20KENNEDY%20BLVD.%2C+JERSEY%20CITY%2C+NJ+07304
"WALGREEN EASTERN CO., INC.",298 FIRST AVE,,"NEW YORK, NY 10009",http://maps.google.com/maps?q=WALGREEN%20EASTERN%20CO%20INC%2C298%20FIRST%20AVE%2C+NEW%20YORK%2C+NY+10009
"WALGREEN EASTERN CO., INC.",31 CAVALRY DR.,,"NEW CITY, NY 10956",http://maps.google.com/maps?q=WALGREEN%20EASTERN%20CO%20INC%2C31%20CAVALRY%20DR.%2C+NEW%20CITY%2C+NY+10956
"WALGREEN EASTERN CO., INC.",393 FRONT ST,,"HEMPSTEAD, NY 11550",http://maps.google.com/maps?q=WALGREEN%20EASTERN%20CO%20INC%2C393%20FRONT%20ST%2C+HEMPSTEAD%2C+NY+11550
"WALGREEN EASTERN CO., INC.",4999 STATE HIGHWAY 30,,"AMSTERDAM, NY 12010",http://maps.google.com/maps?q=WALGREEN%20EASTERN%20CO%20INC%2C4999%20STATE%20HIGHWAY%2030%2C+AMSTERDAM%2C+NY+12010
"WALGREEN EASTERN CO., INC.",501 SUMNER AVENUE,,"SPRINGFIELD, MA 01108",http://maps.google.com/maps?q=WALGREEN%20EASTERN%20CO%20INC%2C501%20SUMNER%20AVENUE%2C+SPRINGFIELD%2C+MA+01108
"WALGREEN EASTERN CO., INC.",508 DR MARTIN LUTHER KING JR,,"EAST ORANGE, NJ 07018",http://maps.google.com/maps?q=WALGREEN%20EASTERN%20CO%20INC%2C508%20DR%20MARTIN%20LUTHER%20KING%20JR%2C+EAST%20ORANGE%2C+NJ+07018
"WALGREEN EASTERN CO., INC.",5564 BROADWAY,,"BRONX, NY 10463",http://maps.google.com/maps?q=WALGREEN%20EASTERN%20CO%20INC%2C5564%20BROADWAY%2C+BRONX%2C+NY+10463
"WALGREEN EASTERN CO., INC.",637 HOBOKEN ROAD,,"CARLSTADT, NJ 07072",http://maps.google.com/maps?q=WALGREEN%20EASTERN%20CO%20INC%2C637%20HOBOKEN%20ROAD%2C+CARLSTADT%2C+NJ+07072
"WALGREEN EASTERN CO., INC.",639 E 18TH ST,,"PATERSON, NJ 07501",http://maps.google.com/maps?q=WALGREEN%20EASTERN%20CO%20INC%2C639%20E%2018TH%20ST%2C+PATERSON%2C+NJ+07501
"WALGREEN EASTERN CO., INC.",655 MIDDLE COUNTRY RD,,"SELDEN, NY 11784",http://maps.google.com/maps?q=WALGREEN%20EASTERN%20CO%20INC%2C655%20MIDDLE%20COUNTRY%20RD%2C+SELDEN%2C+NY+11784
"WALGREEN EASTERN CO., INC.",72 CRESCENT AVE,,"WALDWICK, NJ 07463",http://maps.google.com/maps?q=WALGREEN%20EASTERN%20CO%20INC%2C72%20CRESCENT%20AVE%2C+WALDWICK%2C+NJ+07463
"WALGREEN EASTERN CO., INC.",8420 BROADWAY,,"ELMHURST, NY 11373",http://maps.google.com/maps?q=WALGREEN%20EASTERN%20CO%20INC%2C8420%20BROADWAY%2C+ELMHURST%2C+NY+11373
WEIS PHARMACY #152,1 WEIS PLAZA,,"NANTICOKE, PA 18634",http://maps.google.com/maps?q=WEIS%20PHARMACY%2C1%20WEIS%20PLAZA%2C+NANTICOKE%2C+PA+18634
WEIS PHARMACY #156,70 PHOENIX STREET,,"DURYEA, PA 18642",http://maps.google.com/maps?q=WEIS%20PHARMACY%2C70%20PHOENIX%20STREET%2C+DURYEA%2C+PA+18642
WELLNESS CENTER PHARMACY,4013 BROADWAY,,"ASTORIA, NY 11103",http://maps.google.com/maps?q=WELLNESS%20CENTER%20PHARMACY%2C4013%20BROADWAY%2C+ASTORIA%2C+NY+11103
WILCOX PHARMACY,252 STRATTON ROAD,,"RUTLAND, VT 05701",http://maps.google.com/maps?q=WILCOX%20PHARMACY%2C252%20STRATTON%20ROAD%2C+RUTLAND%2C+VT+05701
YASIK 2 INC,54-56A MYRTLE AVE,,"RIDGEWOOD, NY 11385",http://maps.google.com/maps?q=YASIK%20%20INC%2C54-56A%20MYRTLE%20AVE%2C+RIDGEWOOD%2C+NY+11385
"YOUNG'S PHARMACY & GENERAL STORE, LLC",1636 BURDEN LAKE ROAD,,"AVERILL PARK, NY 12018",http://maps.google.com/maps?q=YOUNGS%20PHARMACY%20%20GENERAL%20STORE%20LLC%2C1636%20BURDEN%20LAKE%20ROAD%2C+AVERILL%20PARK%2C+NY+12018
