Business Name,Address 1,Address 2,"City, State Zip",Map URL
ADRIAN PHARMACY LLC,1325 N MAIN ST STE H,,"ADRIAN, MI 49221",http://maps.google.com/maps?q=ADRIAN%20PHARMACY%20LLC%2C1325%20N%20MAIN%20ST%20STE%20H%2C+ADRIAN%2C+MI+49221
AHF PHARMACY,1230 N. HIGH STREET,,"COLUMBUS, OH 43201",http://maps.google.com/maps?q=AHF%20PHARMACY%2C1230%20N.%20HIGH%20STREET%2C+COLUMBUS%2C+OH+43201
"AMC OHIO LLC, DBA EQUITAS HEALTH PHARMACY #3",750 E LONG ST,SUITE 3100,"COLUMBUS, OH 43203",http://maps.google.com/maps?q=AMC%20OHIO%20LLC%20DBA%20EQUITAS%20HEALTH%20PHARMACY%2C750%20E%20LONG%20ST%2C+COLUMBUS%2C+OH+43203
ARROWHEAD BEHAVIORAL HEALTH,1725 TIMBER LINE ROAD,,"MAUMEE, OH 43537",http://maps.google.com/maps?q=ARROWHEAD%20BEHAVIORAL%20HEALTH%2C1725%20TIMBER%20LINE%20ROAD%2C+MAUMEE%2C+OH+43537
ATRIUM MEDICAL CENTER,ONE MEDICAL CENTER DRIVE,,"MIDDLETOWN, OH 45005",http://maps.google.com/maps?q=ATRIUM%20MEDICAL%20CENTER%2CONE%20MEDICAL%20CENTER%20DRIVE%2C+MIDDLETOWN%2C+OH+45005
B S D INC,716 MADISON AVENUE,,"COVINGTON, KY 41011",http://maps.google.com/maps?q=B%20S%20D%20INC%2C716%20MADISON%20AVENUE%2C+COVINGTON%2C+KY+41011
BARNESVILLE HOSPITAL ASSN INC,639 W MAIN ST,,"BARNESVILLE, OH 43713",http://maps.google.com/maps?q=BARNESVILLE%20HOSPITAL%20ASSN%20INC%2C639%20W%20MAIN%20ST%2C+BARNESVILLE%2C+OH+43713
BAY PARK COMMUNITY HOSPITAL,2801 BAY PARK DRIVE,,"OREGON, OH 43616",http://maps.google.com/maps?q=BAY%20PARK%20COMMUNITY%20HOSPITAL%2C2801%20BAY%20PARK%20DRIVE%2C+OREGON%2C+OH+43616
BEDFORD WELLNESS PHARMACY,7473 SECOR ROAD,UNIT C,"LAMBERTVILLE, MI 48144",http://maps.google.com/maps?q=BEDFORD%20WELLNESS%20PHARMACY%2C7473%20SECOR%20ROAD%2C+LAMBERTVILLE%2C+MI+48144
BELLWOOD DRUGS,135 SOUTH MAIN STREET,,"WOODSFIELD, OH 43793",http://maps.google.com/maps?q=BELLWOOD%20DRUGS%2C135%20SOUTH%20MAIN%20STREET%2C+WOODSFIELD%2C+OH+43793
BELMONT CO HLTH SERVICES,DBA MORRISTOWN PHCY,66840 BELMONT-MORRISTOWN RD,"BELMONT, OH 43718",http://maps.google.com/maps?q=BELMONT%20CO%20HLTH%20SERVICES%2CDBA%20MORRISTOWN%20PHCY%2C+BELMONT%2C+OH+43718
BERGER HOSPITAL,600 NORTH PICKAWAY STREET,ATTN PHARMACY,"CIRCLEVILLE, OH 43113",http://maps.google.com/maps?q=BERGER%20HOSPITAL%2C600%20NORTH%20PICKAWAY%20STREET%2C+CIRCLEVILLE%2C+OH+43113
"BHC VALLE VISTA HOSPITAL, INC.",898 EAST MAIN ST,,"GREENWOOD, IN 46143",http://maps.google.com/maps?q=BHC%20VALLE%20VISTA%20HOSPITAL%20INC%2C898%20EAST%20MAIN%20ST%2C+GREENWOOD%2C+IN+46143
BLACKBURN COMMUNITY HEALTH,CENTER PHARMACY,2700 DR. MARTIN LUTHER KING JR,"INDIANAPOLIS, IN 46208",http://maps.google.com/maps?q=BLACKBURN%20COMMUNITY%20HEALTH%2CCENTER%20PHARMACY%2C+INDIANAPOLIS%2C+IN+46208
"CAMERLIN ENTERPRISES, LLC",615 WELLS STREET,,"SISTERSVILLE, WV 26175",http://maps.google.com/maps?q=CAMERLIN%20ENTERPRISES%20LLC%2C615%20WELLS%20STREET%2C+SISTERSVILLE%2C+WV+26175
CANN MEDICAL CENTER,CINCINNATI HEALTH DEPARTMENT,5818 MADISON ROAD,"CINCINNATI, OH 45227",http://maps.google.com/maps?q=CANN%20MEDICAL%20CENTER%2CCINCINNATI%20HEALTH%20DEPARTMENT%2C+CINCINNATI%2C+OH+45227
CHEFFY DRUGS LLC,148 EAST MAIN ST,,"BARNESVILLE, OH 43713",http://maps.google.com/maps?q=CHEFFY%20DRUGS%20LLC%2C148%20EAST%20MAIN%20ST%2C+BARNESVILLE%2C+OH+43713
CHRISTIAN PHARMACY,DBA CORNER PHARMACY,102 WEST MAIN ST,"BARNESVILLE, OH 43713",http://maps.google.com/maps?q=CHRISTIAN%20PHARMACY%2CDBA%20CORNER%20PHARMACY%2C+BARNESVILLE%2C+OH+43713
CINCINNATI HEALTH DEPARTMENT,PRICE HILL HEALTH CENTER PHARMACY,2136 WEST 8TH STREET,"CINCINNATI, OH 45204",http://maps.google.com/maps?q=CINCINNATI%20HEALTH%20DEPARTMENT%2CPRICE%20HILL%20HEALTH%20CENTER%20PHARMACY%2C+CINCINNATI%2C+OH+45204
CINCINNATI HEALTH DEPT,2750 BEEKMAN STREET,,"CINCINNATI, OH 45225",http://maps.google.com/maps?q=CINCINNATI%20HEALTH%20DEPT%2C2750%20BEEKMAN%20STREET%2C+CINCINNATI%2C+OH+45225
CLERMONT MERCY HOSPITAL,3000 HOSPITAL DRIVE,,"BATAVIA, OH 45103",http://maps.google.com/maps?q=CLERMONT%20MERCY%20HOSPITAL%2C3000%20HOSPITAL%20DRIVE%2C+BATAVIA%2C+OH+45103
COLUMBUS REGIONAL HOSPITAL,ATTN PHCY,2400 E SEVENTEENTH STREET,"COLUMBUS, IN 47201",http://maps.google.com/maps?q=COLUMBUS%20REGIONAL%20HOSPITAL%2CATTN%20PHCY%2C+COLUMBUS%2C+IN+47201
COMMUNITY HEALTH CENTER,274 EAST CHICAGO STREET,,"COLDWATER, MI 49036",http://maps.google.com/maps?q=COMMUNITY%20HEALTH%20CENTER%2C274%20EAST%20CHICAGO%20STREET%2C+COLDWATER%2C+MI+49036
COMPASS PHARMACY,1634 11TH STREET,,"PORTSMOUTH, OH 45662",http://maps.google.com/maps?q=COMPASS%20PHARMACY%2C1634%2011TH%20STREET%2C+PORTSMOUTH%2C+OH+45662
COTTAGE CORNER COMMUNITY,HEALTH CENTER PHARMACY,1434 S. SHELBY ST,"INDIANAPOLIS, IN 46203",http://maps.google.com/maps?q=COTTAGE%20CORNER%20COMMUNITY%2CHEALTH%20CENTER%20PHARMACY%2C+INDIANAPOLIS%2C+IN+46203
CRARY DRUG,8941 LEWIS AVENUE,,"TEMPERANCE, MI 48182",http://maps.google.com/maps?q=CRARY%20DRUG%2C8941%20LEWIS%20AVENUE%2C+TEMPERANCE%2C+MI+48182
CROWDERS UPTOWN DRUG STORE,631 16TH STREET,P.O. BOX 966,"BEDFORD, IN 47421",http://maps.google.com/maps?q=CROWDERS%20UPTOWN%20DRUG%20STORE%2C631%2016TH%20STREET%2C+BEDFORD%2C+IN+47421
CUSTOM PLUS PHARMACY LLC,"482 WEST NAVAJO, SUITE A",,"WEST LAFAYETTE, IN 47906",http://maps.google.com/maps?q=CUSTOM%20PLUS%20PHARMACY%20LLC%2C482%20WEST%20NAVAJO%2C%20SUITE%20A%2C+WEST%20LAFAYETTE%2C+IN+47906
DAVE'S PHARMACY,411 W. 5TH STREET,,"MARYSVILLE, OH 43040",http://maps.google.com/maps?q=DAVES%20PHARMACY%2C411%20W.%205TH%20STREET%2C+MARYSVILLE%2C+OH+43040
DAVIS DRUGS LLC,300 SOUTH PERRY STREET,,"ATTICA, IN 47918",http://maps.google.com/maps?q=DAVIS%20DRUGS%20LLC%2C300%20SOUTH%20PERRY%20STREET%2C+ATTICA%2C+IN+47918
DECATUR CTY MEMORIAL HOSPITAL,720 NORTH LINCOLN ST,,"GREENSBURG, IN 47240",http://maps.google.com/maps?q=DECATUR%20CTY%20MEMORIAL%20HOSPITAL%2C720%20NORTH%20LINCOLN%20ST%2C+GREENSBURG%2C+IN+47240
DEVILLE PHARMACIES,DBA DILLSBORO DRUGS,12836 NORTH STREET,"DILLSBORO, IN 47018",http://maps.google.com/maps?q=DEVILLE%20PHARMACIES%2CDBA%20DILLSBORO%20DRUGS%2C+DILLSBORO%2C+IN+47018
ELM STREET HEALTH CENTER,ELM STREET HEALTH CENTER PHARMACY,1525 ELM STREET,"CINCINNATI, OH 45202",http://maps.google.com/maps?q=ELM%20STREET%20HEALTH%20CENTER%2CELM%20STREET%20HEALTH%20CENTER%20PHARMACY%2C+CINCINNATI%2C+OH+45202
EMMA L BIXBY MED CTR INC,818 RIVERSIDE AVENUE,,"ADRIAN, MI 49221",http://maps.google.com/maps?q=EMMA%20L%20BIXBY%20MED%20CTR%20INC%2C818%20RIVERSIDE%20AVENUE%2C+ADRIAN%2C+MI+49221
EQUITAS HEALTH PHARMACY,1033 N. HIGH ST.,,"COLUMBUS, OH 43201",http://maps.google.com/maps?q=EQUITAS%20HEALTH%20PHARMACY%2C1033%20N.%20HIGH%20ST.%2C+COLUMBUS%2C+OH+43201
EQUITAS HEALTH PHARMACY #2,1222 S. PATTERSON BLVD.,SUITE 110,"DAYTON, OH 45402",http://maps.google.com/maps?q=EQUITAS%20HEALTH%20PHARMACY%2C1222%20S.%20PATTERSON%20BLVD.%2C+DAYTON%2C+OH+45402
ESKENAZI HEALTH WEST 38TH STREET,5515 WEST 38TH STREET,SUITE 1200,"INDIANAPOLIS, IN 46254",http://maps.google.com/maps?q=ESKENAZI%20HEALTH%20WEST%20TH%20STREET%2C5515%20WEST%2038TH%20STREET%2C+INDIANAPOLIS%2C+IN+46254
FAMILY HEALTH SERVICES OF,DARKE COUNTY INC.,5735 MEEKER ROAD,"GREENVILLE, OH 45331",http://maps.google.com/maps?q=FAMILY%20HEALTH%20SERVICES%20OF%2CDARKE%20COUNTY%20INC.%2C+GREENVILLE%2C+OH+45331
FAST & FRIENDLY PHARMACY RC LLC,4 GARTON PLAZA,,"WESTON, WV 26452",http://maps.google.com/maps?q=FAST%20%20FRIENDLY%20PHARMACY%20RC%20LLC%2C4%20GARTON%20PLAZA%2C+WESTON%2C+WV+26452
FAYETTE MEMORIAL HOSPITAL,PHARMACY DEPT,1941 VIRGINIA AVENUE,"CONNERSVILLE, IN 47331",http://maps.google.com/maps?q=FAYETTE%20MEMORIAL%20HOSPITAL%2CPHARMACY%20DEPT%2C+CONNERSVILLE%2C+IN+47331
FLOWER MEMORIAL HOSPITAL PHAR,5200 HARROUN ROAD,,"SYLVANIA, OH 43560",http://maps.google.com/maps?q=FLOWER%20MEMORIAL%20HOSPITAL%20PHAR%2C5200%20HARROUN%20ROAD%2C+SYLVANIA%2C+OH+43560
FOREST MANOR COMMUNITY HEALTH,CENTER PHARMACY,3840 N. SHERMAN DR.,"INDIANAPOLIS, IN 46226",http://maps.google.com/maps?q=FOREST%20MANOR%20COMMUNITY%20HEALTH%2CCENTER%20PHARMACY%2C+INDIANAPOLIS%2C+IN+46226
FOSTORIA COMMUNITY HOSPITAL,501 VAN BUREN STREET,,"FOSTORIA, OH 44830",http://maps.google.com/maps?q=FOSTORIA%20COMMUNITY%20HOSPITAL%2C501%20VAN%20BUREN%20STREET%2C+FOSTORIA%2C+OH+44830
FRANCISCAN HEALTH MOORESVILLE,1201 HADLEY RD,,"MOORESVILLE, IN 46158",http://maps.google.com/maps?q=FRANCISCAN%20HEALTH%20MOORESVILLE%2C1201%20HADLEY%20RD%2C+MOORESVILLE%2C+IN+46158
FRED'S NEIGHBORHOOD PHARMACY,320 SOUTH MAIN STREET,,"NEW CASTLE, IN 47362",http://maps.google.com/maps?q=FREDS%20NEIGHBORHOOD%20PHARMACY%2C320%20SOUTH%20MAIN%20STREET%2C+NEW%20CASTLE%2C+IN+47362
FRUTH PHARMACY,DBA FRUTH PHCY OAKWOOD RD,864 OAKWOOD RD,"CHARLESTON, WV 25314",http://maps.google.com/maps?q=FRUTH%20PHARMACY%2CDBA%20FRUTH%20PHCY%20OAKWOOD%20RD%2C+CHARLESTON%2C+WV+25314
GARST RX,325 S MAIN ST,,"FORTVILLE, IN 46040",http://maps.google.com/maps?q=GARST%20RX%2C325%20S%20MAIN%20ST%2C+FORTVILLE%2C+IN+46040
"GENOA HEALTHCARE, LLC",1301 NORTH HIGH STREET,,"COLUMBUS, OH 43201",http://maps.google.com/maps?q=GENOA%20HEALTHCARE%20LLC%2C1301%20NORTH%20HIGH%20STREET%2C+COLUMBUS%2C+OH+43201
"GENOA HEALTHCARE, LLC",1445 W. MAIN STREET,,"NEWARK, OH 43055",http://maps.google.com/maps?q=GENOA%20HEALTHCARE%20LLC%2C1445%20W.%20MAIN%20STREET%2C+NEWARK%2C+OH+43055
"GENOA HEALTHCARE, LLC",1501 MADISON ROAD,3RD FL,"WALNUT HILLS, OH 45206",http://maps.google.com/maps?q=GENOA%20HEALTHCARE%20LLC%2C1501%20MADISON%20ROAD%2C+WALNUT%20HILLS%2C+OH+45206
"GENOA HEALTHCARE, LLC",1520 GERMANTOWN STREET,,"DAYTON, OH 45417",http://maps.google.com/maps?q=GENOA%20HEALTHCARE%20LLC%2C1520%20GERMANTOWN%20STREET%2C+DAYTON%2C+OH+45417
"GENOA HEALTHCARE, LLC","43 E MAIN STREET, STE 113",,"AMELIA, OH 45102",http://maps.google.com/maps?q=GENOA%20HEALTHCARE%20LLC%2C43%20E%20MAIN%20STREET%2C%20STE%20113%2C+AMELIA%2C+OH+45102
"GENOA HEALTHCARE, LLC","525 METRO PLACE N, STE 150",,"DUBLIN, OH 43017",http://maps.google.com/maps?q=GENOA%20HEALTHCARE%20LLC%2C525%20METRO%20PLACE%20N%2C%20STE%20150%2C+DUBLIN%2C+OH+43017
"GENOA HEALTHCARE, LLC",799 SOUTH MAIN STREET,,"LIMA, OH 45804",http://maps.google.com/maps?q=GENOA%20HEALTHCARE%20LLC%2C799%20SOUTH%20MAIN%20STREET%2C+LIMA%2C+OH+45804
"GENOA HEALTHCARE, LLC",901 WASHINGTON STREET,ROOM 135,"PORTSMOUTH, OH 45662",http://maps.google.com/maps?q=GENOA%20HEALTHCARE%20LLC%2C901%20WASHINGTON%20STREET%2C+PORTSMOUTH%2C+OH+45662
GILLESPIE'S DRUGS,44523 MARIETTA ROAD,,"CALDWELL, OH 43724",http://maps.google.com/maps?q=GILLESPIES%20DRUGS%2C44523%20MARIETTA%20ROAD%2C+CALDWELL%2C+OH+43724
GOOD SAMARITAN HOSPITAL,375 DIXMYTH AVENUE,,"CINCINNATI, OH 45220",http://maps.google.com/maps?q=GOOD%20SAMARITAN%20HOSPITAL%2C375%20DIXMYTH%20AVENUE%2C+CINCINNATI%2C+OH+45220
GRASSY CREEK COMMUNITY HEALTH,CENTER PHARMACY,9443 E. 38TH STREET,"INDIANAPOLIS, IN 46236",http://maps.google.com/maps?q=GRASSY%20CREEK%20COMMUNITY%20HEALTH%2CCENTER%20PHARMACY%2C+INDIANAPOLIS%2C+IN+46236
"GUARDIAN PHARMACY OF INDIANAPOLIS LTC, LLC",6530 CORPORATE DRIVE,,"INDIANAPOLIS, IN 46278",http://maps.google.com/maps?q=GUARDIAN%20PHARMACY%20OF%20INDIANAPOLIS%20LTC%20LLC%2C6530%20CORPORATE%20DRIVE%2C+INDIANAPOLIS%2C+IN+46278
HERBST APOTHECARY INC,201 N. DIXON RD.,,"KOKOMO, IN 46901",http://maps.google.com/maps?q=HERBST%20APOTHECARY%20INC%2C201%20N.%20DIXON%20RD.%2C+KOKOMO%2C+IN+46901
HILLSDALE MARKET PHARMACY,DIVISION OF NASH DRUGS INC,208 W CARLETON ROAD,"HILLSDALE, MI 49242",http://maps.google.com/maps?q=HILLSDALE%20MARKET%20PHARMACY%2CDIVISION%20OF%20NASH%20DRUGS%20INC%2C+HILLSDALE%2C+MI+49242
"HOOK-SUPERX, L.L.C.",106 EAST MARKET STREET,,"CRAWFORDSVILLE, IN 47933",http://maps.google.com/maps?q=HOOKSUPERX%20LLC%2C106%20EAST%20MARKET%20STREET%2C+CRAWFORDSVILLE%2C+IN+47933
"HOOK-SUPERX, L.L.C.",111 LAKEVIEW DR.,,"NOBLESVILLE, IN 46060",http://maps.google.com/maps?q=HOOKSUPERX%20LLC%2C111%20LAKEVIEW%20DR.%2C+NOBLESVILLE%2C+IN+46060
"HOOK-SUPERX, L.L.C.",1233 NORTH STATE ST.,,"GREENFIELD, IN 46140",http://maps.google.com/maps?q=HOOKSUPERX%20LLC%2C1233%20NORTH%20STATE%20ST.%2C+GREENFIELD%2C+IN+46140
"HOOK-SUPERX, L.L.C.",1375 WEST 86TH ST.,,"INDIANAPOLIS, IN 46260",http://maps.google.com/maps?q=HOOKSUPERX%20LLC%2C1375%20WEST%2086TH%20ST.%2C+INDIANAPOLIS%2C+IN+46260
"HOOK-SUPERX, L.L.C.",1421 S. RANGE LINE RD.,,"CARMEL, IN 46032",http://maps.google.com/maps?q=HOOKSUPERX%20LLC%2C1421%20S.%20RANGE%20LINE%20RD.%2C+CARMEL%2C+IN+46032
"HOOK-SUPERX, L.L.C.",1545 NORTH MERIDIAN ST.,,"INDIANAPOLIS, IN 46202",http://maps.google.com/maps?q=HOOKSUPERX%20LLC%2C1545%20NORTH%20MERIDIAN%20ST.%2C+INDIANAPOLIS%2C+IN+46202
"HOOK-SUPERX, L.L.C.",201 EAST TIPTON STREET,,"SEYMOUR, IN 47274",http://maps.google.com/maps?q=HOOKSUPERX%20LLC%2C201%20EAST%20TIPTON%20STREET%2C+SEYMOUR%2C+IN+47274
"HOOK-SUPERX, L.L.C.",201 S. TILLOTSON AVENUE,,"MUNCIE, IN 47304",http://maps.google.com/maps?q=HOOKSUPERX%20LLC%2C201%20S.%20TILLOTSON%20AVENUE%2C+MUNCIE%2C+IN+47304
"HOOK-SUPERX, L.L.C.",201 SOUTH JACKSON STREET,,"FRANKFORT, IN 46041",http://maps.google.com/maps?q=HOOKSUPERX%20LLC%2C201%20SOUTH%20JACKSON%20STREET%2C+FRANKFORT%2C+IN+46041
"HOOK-SUPERX, L.L.C.",21 WEST MAIN STREET,,"BROWNSBURG, IN 46112",http://maps.google.com/maps?q=HOOKSUPERX%20LLC%2C21%20WEST%20MAIN%20STREET%2C+BROWNSBURG%2C+IN+46112
"HOOK-SUPERX, L.L.C.",2340 W SYCAMORE,,"KOKOMO, IN 46901",http://maps.google.com/maps?q=HOOKSUPERX%20LLC%2C2340%20W%20SYCAMORE%2C+KOKOMO%2C+IN+46901
"HOOK-SUPERX, L.L.C.",2423 N. NATIONAL RD.,,"COLUMBUS, IN 47201",http://maps.google.com/maps?q=HOOKSUPERX%20LLC%2C2423%20N.%20NATIONAL%20RD.%2C+COLUMBUS%2C+IN+47201
"HOOK-SUPERX, L.L.C.",265 SO. SCATTERFIELD RD,,"ANDERSON, IN 46012",http://maps.google.com/maps?q=HOOKSUPERX%20LLC%2C265%20SO.%20SCATTERFIELD%20RD%2C+ANDERSON%2C+IN+46012
"HOOK-SUPERX, L.L.C.",2701 EAST 3RD ST.,,"BLOOMINGTON, IN 47401",http://maps.google.com/maps?q=HOOKSUPERX%20LLC%2C2701%20EAST%203RD%20ST.%2C+BLOOMINGTON%2C+IN+47401
"HOOK-SUPERX, L.L.C.",2802 EAST STATE BOULEVARD,,"FORT WAYNE, IN 46805",http://maps.google.com/maps?q=HOOKSUPERX%20LLC%2C2802%20EAST%20STATE%20BOULEVARD%2C+FORT%20WAYNE%2C+IN+46805
"HOOK-SUPERX, L.L.C.",3705 KENTUCKY AVE,,"INDIANAPOLIS, IN 46221",http://maps.google.com/maps?q=HOOKSUPERX%20LLC%2C3705%20KENTUCKY%20AVE%2C+INDIANAPOLIS%2C+IN+46221
"HOOK-SUPERX, L.L.C.",415 W. 3RD ST.,,"MARION, IN 46952",http://maps.google.com/maps?q=HOOKSUPERX%20LLC%2C415%20W.%203RD%20ST.%2C+MARION%2C+IN+46952
"HOOK-SUPERX, L.L.C.",512 E. SEYMOUR ST.,,"KENTLAND, IN 47951",http://maps.google.com/maps?q=HOOKSUPERX%20LLC%2C512%20E.%20SEYMOUR%20ST.%2C+KENTLAND%2C+IN+47951
"HOOK-SUPERX, L.L.C.",512 SAGAMORE PKWY WEST,,"WEST LAFAYETTE, IN 47906",http://maps.google.com/maps?q=HOOKSUPERX%20LLC%2C512%20SAGAMORE%20PKWY%20WEST%2C+WEST%20LAFAYETTE%2C+IN+47906
"HOOK-SUPERX, L.L.C.",523 SOUTH STATE ROAD 67,,"MOORESVILLE, IN 46158",http://maps.google.com/maps?q=HOOKSUPERX%20LLC%2C523%20SOUTH%20STATE%20ROAD%2067%2C+MOORESVILLE%2C+IN+46158
"HOOK-SUPERX, L.L.C.",5611 GEORGETOWN RD.,,"INDIANAPOLIS, IN 46254",http://maps.google.com/maps?q=HOOKSUPERX%20LLC%2C5611%20GEORGETOWN%20RD.%2C+INDIANAPOLIS%2C+IN+46254
"HOOK-SUPERX, L.L.C.",655 S. US HIGHWAY 31,,"GREENWOOD, IN 46142",http://maps.google.com/maps?q=HOOKSUPERX%20LLC%2C655%20S.%20US%20HIGHWAY%2031%2C+GREENWOOD%2C+IN+46142
"HOOK-SUPERX, L.L.C.",713 S WASHINGTON ST,,"CRAWFORDSVILLE, IN 47933",http://maps.google.com/maps?q=HOOKSUPERX%20LLC%2C713%20S%20WASHINGTON%20ST%2C+CRAWFORDSVILLE%2C+IN+47933
"HOOK-SUPERX, L.L.C.",7915-C SOUTH EMERSON AVE,,"INDIANAPOLIS, IN 46237",http://maps.google.com/maps?q=HOOKSUPERX%20LLC%2C7915-C%20SOUTH%20EMERSON%20AVE%2C+INDIANAPOLIS%2C+IN+46237
"HOOK-SUPERX, L.L.C.",7990 E US HIGHWAY 36,,"AVON, IN 46123",http://maps.google.com/maps?q=HOOKSUPERX%20LLC%2C7990%20E%20US%20HIGHWAY%2036%2C+AVON%2C+IN+46123
"HOOK-SUPERX, L.L.C.",8935 EAST 21ST STREET,,"INDIANAPOLIS, IN 46219",http://maps.google.com/maps?q=HOOKSUPERX%20LLC%2C8935%20EAST%2021ST%20STREET%2C+INDIANAPOLIS%2C+IN+46219
"HOOK-SUPERX, L.L.C.",8970 S. MERIDIAN ST.,,"INDIANAPOLIS, IN 46217",http://maps.google.com/maps?q=HOOKSUPERX%20LLC%2C8970%20S.%20MERIDIAN%20ST.%2C+INDIANAPOLIS%2C+IN+46217
"HOOK-SUPERX, L.L.C.",905 POPLAR ST.,,"TERRE HAUTE, IN 47807",http://maps.google.com/maps?q=HOOKSUPERX%20LLC%2C905%20POPLAR%20ST.%2C+TERRE%20HAUTE%2C+IN+47807
INDIANA HEMOPHILIA-THROMBOSIS,8326 NAAB RD,,"INDIANAPOLIS, IN 46260",http://maps.google.com/maps?q=INDIANA%20HEMOPHILIATHROMBOSIS%2C8326%20NAAB%20RD%2C+INDIANAPOLIS%2C+IN+46260
"INDIANA UNIVERSITY HEALTH, INC",1111 N. RONALD REAGAN PKWY,,"AVON, IN 46123",http://maps.google.com/maps?q=INDIANA%20UNIVERSITY%20HEALTH%20INC%2C1111%20N.%20RONALD%20REAGAN%20PKWY%2C+AVON%2C+IN+46123
"INDIANA UNIVERSITY HEALTH, INC",13100 E 136TH STREET,SUITE 1000,"FISHERS, IN 46037",http://maps.google.com/maps?q=INDIANA%20UNIVERSITY%20HEALTH%20INC%2C13100%20E%20136TH%20STREET%2C+FISHERS%2C+IN+46037
"INDIANA UNIVERSITY HEALTH, INC",2209 JOHN R WOODEN DR,,"MARTINSVILLE, IN 46151",http://maps.google.com/maps?q=INDIANA%20UNIVERSITY%20HEALTH%20INC%2C2209%20JOHN%20R%20WOODEN%20DR%2C+MARTINSVILLE%2C+IN+46151
"INDIANA UNIVERSITY HEALTH, INC.",11700 NORTH MERIDIAN STREET,B106,"CARMEL, IN 46032",http://maps.google.com/maps?q=INDIANA%20UNIVERSITY%20HEALTH%20INC%2C11700%20NORTH%20MERIDIAN%20STREET%2C+CARMEL%2C+IN+46032
"INDIANA UNIVERSITY HEALTH, INC.",1801 N SENATE BLVD,ROOM 105,"INDIANAPOLIS, IN 46202",http://maps.google.com/maps?q=INDIANA%20UNIVERSITY%20HEALTH%20INC%2C1801%20N%20SENATE%20BLVD%2C+INDIANAPOLIS%2C+IN+46202
"INDIANA UNIVERSITY HEALTH, INC.",550 N UNIVERSITY BLVD,UH1425,"INDIANAPOLIS, IN 46202",http://maps.google.com/maps?q=INDIANA%20UNIVERSITY%20HEALTH%20INC%2C550%20N%20UNIVERSITY%20BLVD%2C+INDIANAPOLIS%2C+IN+46202
"INDIANA UNIVERSITY HEALTH, INC.",705 RILEY HOSPITAL DR.,STE 1201,"INDIANAPOLIS, IN 46202",http://maps.google.com/maps?q=INDIANA%20UNIVERSITY%20HEALTH%20INC%2C705%20RILEY%20HOSPITAL%20DR.%2C+INDIANAPOLIS%2C+IN+46202
IU HEALTH ARNETT RETAIL PHARMACY,5165 MCCARTY LN,ROOM A1009,"LAFAYETTE, IN 47905",http://maps.google.com/maps?q=IU%20HEALTH%20ARNETT%20RETAIL%20PHARMACY%2C5165%20MCCARTY%20LN%2C+LAFAYETTE%2C+IN+47905
"IU HEALTH BALL MEMORIAL HOSPITAL, INC",3813 S. MADISON ST.,,"MUNCIE, IN 47302",http://maps.google.com/maps?q=IU%20HEALTH%20BALL%20MEMORIAL%20HOSPITAL%20INC%2C3813%20S.%20MADISON%20ST.%2C+MUNCIE%2C+IN+47302
"IU HEALTH BALL MEMORIAL HOSPITAL, INC.",1420 S. PILGRIM BLVD.,,"YORKTOWN, IN 47396",http://maps.google.com/maps?q=IU%20HEALTH%20BALL%20MEMORIAL%20HOSPITAL%20INC%2C1420%20S.%20PILGRIM%20BLVD.%2C+YORKTOWN%2C+IN+47396
"IU HEALTH BALL MEMORIAL HOSPITAL, INC.",2401 W. UNIVERSITY AVE.,OMP 1635,"MUNCIE, IN 47303",http://maps.google.com/maps?q=IU%20HEALTH%20BALL%20MEMORIAL%20HOSPITAL%20INC%2C2401%20W.%20UNIVERSITY%20AVE.%2C+MUNCIE%2C+IN+47303
"IU HEALTH BALL MEMORIAL HOSPITAL, INC.",400 PILGRIM BLVD.,,"HARTFORD CITY, IN 47348",http://maps.google.com/maps?q=IU%20HEALTH%20BALL%20MEMORIAL%20HOSPITAL%20INC%2C400%20PILGRIM%20BLVD.%2C+HARTFORD%20CITY%2C+IN+47348
"IU HEALTH BALL MEMORIAL HOSPITAL, INC.",5501 W. BETHEL AVE,,"MUNCIE, IN 47304",http://maps.google.com/maps?q=IU%20HEALTH%20BALL%20MEMORIAL%20HOSPITAL%20INC%2C5501%20W.%20BETHEL%20AVE%2C+MUNCIE%2C+IN+47304
IU HEALTH WEST HOSPITAL,INPATIENT PHARMACY,1111 N. RONALD REAGAN PARKWAY,"AVON, IN 46123",http://maps.google.com/maps?q=IU%20HEALTH%20WEST%20HOSPITAL%2CINPATIENT%20PHARMACY%2C+AVON%2C+IN+46123
JOINT TWNSHP DIST MEM'RL HOSP,PHARMACY DEPARTMENT,200 ST CLAIR STREET,"ST MARYS, OH 45885",http://maps.google.com/maps?q=JOINT%20TWNSHP%20DIST%20MEMRL%20HOSP%2CPHARMACY%20DEPARTMENT%2C+ST%20MARYS%2C+OH+45885
KINES FAMILY PHARMACY INC.,6097 SISSONVILLE DRIVE,,"CHARLESTON, WV 25312",http://maps.google.com/maps?q=KINES%20FAMILY%20PHARMACY%20INC%2C6097%20SISSONVILLE%20DRIVE%2C+CHARLESTON%2C+WV+25312
KING'S DAUGHTERS,613 23RD STREET SUITE 110,,"ASHLAND, KY 41101",http://maps.google.com/maps?q=KINGS%20DAUGHTERS%2C613%2023RD%20STREET%20SUITE%20110%2C+ASHLAND%2C+KY+41101
LIFELINE INSTITUTIONAL PHARMACY,3699 SYMMES RD,SUITE 1,"HAMILTON, OH 45015",http://maps.google.com/maps?q=LIFELINE%20INSTITUTIONAL%20PHARMACY%2C3699%20SYMMES%20RD%2C+HAMILTON%2C+OH+45015
LINCOLN PLAZA PHARMACY LLC,629 LINCOLN AVE,P.O. BOX 966,"BEDFORD, IN 47421",http://maps.google.com/maps?q=LINCOLN%20PLAZA%20PHARMACY%20LLC%2C629%20LINCOLN%20AVE%2C+BEDFORD%2C+IN+47421
LONG TERM CARE NASH DRUGS,44 NORTH HOWELL STREET,SUITE A,"HILLSDALE, MI 49242",http://maps.google.com/maps?q=LONG%20TERM%20CARE%20NASH%20DRUGS%2C44%20NORTH%20HOWELL%20STREET%2C+HILLSDALE%2C+MI+49242
"MARGARET MARY COMMUNITY HOSPITAL, INC",ATTN PHARMACY,321 MITCHELL AVENUE,"BATESVILLE, IN 47006",http://maps.google.com/maps?q=MARGARET%20MARY%20COMMUNITY%20HOSPITAL%20INC%2CATTN%20PHARMACY%2C+BATESVILLE%2C+IN+47006
MERCY HEALTH - WEST HOSPITAL,3300 MERCY HEALTH BOULEVARD,,"CINCINNATI, OH 45211",http://maps.google.com/maps?q=MERCY%20HEALTH%20%20WEST%20HOSPITAL%2C3300%20MERCY%20HEALTH%20BOULEVARD%2C+CINCINNATI%2C+OH+45211
MERCY HEALTH - WEST RETAIL PHARMACY,3300 MERCY HEALTH BOULEVARD,ATTN: PHARMACY DEPARTMENT,"CINCINNATI, OH 45211",http://maps.google.com/maps?q=MERCY%20HEALTH%20%20WEST%20RETAIL%20PHARMACY%2C3300%20MERCY%20HEALTH%20BOULEVARD%2C+CINCINNATI%2C+OH+45211
MERCY HLTH SYS WESTERN OHIO,DBA MERCY MEMORIAL HOSPITAL,904 SCIOTO STREET,"URBANA, OH 43078",http://maps.google.com/maps?q=MERCY%20HLTH%20SYS%20WESTERN%20OHIO%2CDBA%20MERCY%20MEMORIAL%20HOSPITAL%2C+URBANA%2C+OH+43078
MERCY HOSPITAL,3000 MACK ROAD,ATTENTION PHARMACY LOWER LEVEL,"FAIRFIELD, OH 45014",http://maps.google.com/maps?q=MERCY%20HOSPITAL%2C3000%20MACK%20ROAD%2C+FAIRFIELD%2C+OH+45014
MERCY HOSPITAL-ANDERSON,7500 STATE ROAD,,"CINCINNATI, OH 45255",http://maps.google.com/maps?q=MERCY%20HOSPITALANDERSON%2C7500%20STATE%20ROAD%2C+CINCINNATI%2C+OH+45255
MIAMI VALLEY HOSP,DEPT OF PHARMACY,ONE WYOMING ST,"DAYTON, OH 45409",http://maps.google.com/maps?q=MIAMI%20VALLEY%20HOSP%2CDEPT%20OF%20PHARMACY%2C+DAYTON%2C+OH+45409
MIAMI VALLEY HOSPITAL SOUTH,2400 MIAMI VALLEY DR,,"CENTERVILLE, OH 45459",http://maps.google.com/maps?q=MIAMI%20VALLEY%20HOSPITAL%20SOUTH%2C2400%20MIAMI%20VALLEY%20DR%2C+CENTERVILLE%2C+OH+45459
MIDTOWN COMMUNITY MENTAL HLTH,CENTER PHARMACY,1700 NORTH ILLINOIS,"INDIANAPOLIS, IN 46202",http://maps.google.com/maps?q=MIDTOWN%20COMMUNITY%20MENTAL%20HLTH%2CCENTER%20PHARMACY%2C+INDIANAPOLIS%2C+IN+46202
MOUNDSVILLE PHARMACY,118 NORTH LAFAYETTE AVENUE,,"MOUNDSVILLE, WV 26041",http://maps.google.com/maps?q=MOUNDSVILLE%20PHARMACY%2C118%20NORTH%20LAFAYETTE%20AVENUE%2C+MOUNDSVILLE%2C+WV+26041
MULLANEY'S LTC PHARMACY,6096 MONTGOMERY RD SUITE B,,"CINCINNATI, OH 45213",http://maps.google.com/maps?q=MULLANEYS%20LTC%20PHARMACY%2C6096%20MONTGOMERY%20RD%20SUITE%20B%2C+CINCINNATI%2C+OH+45213
NASH DRUGS INC,30 NORTH HOWELL STREET,,"HILLSDALE, MI 49242",http://maps.google.com/maps?q=NASH%20DRUGS%20INC%2C30%20NORTH%20HOWELL%20STREET%2C+HILLSDALE%2C+MI+49242
NORTH ARLINGTON COMMUNITY,HEALTH CENTER PHARMACY,2505 N. ALRLINGTON,"INDIANAPOLIS, IN 46219",http://maps.google.com/maps?q=NORTH%20ARLINGTON%20COMMUNITY%2CHEALTH%20CENTER%20PHARMACY%2C+INDIANAPOLIS%2C+IN+46219
NORTHSIDE CAMBRIDGE PHARMACY,1300 CLARK STREET,SUITE 4,"CAMBRIDGE, OH 43725",http://maps.google.com/maps?q=NORTHSIDE%20CAMBRIDGE%20PHARMACY%2C1300%20CLARK%20STREET%2C+CAMBRIDGE%2C+OH+43725
NORTHSIDE HEALTH CENTER,CINCINNATI HEALTH DEPARTMENT,3917 SPRING GROVE AVE,"CINCINNATI, OH 45223",http://maps.google.com/maps?q=NORTHSIDE%20HEALTH%20CENTER%2CCINCINNATI%20HEALTH%20DEPARTMENT%2C+CINCINNATI%2C+OH+45223
NORTHSIDE PHARMACY,2899 BELL STREET,,"ZANESVILLE, OH 43701",http://maps.google.com/maps?q=NORTHSIDE%20PHARMACY%2C2899%20BELL%20STREET%2C+ZANESVILLE%2C+OH+43701
NORTHSIDE SOMERSET PHARMACY,110 WEST MAIN STREET,,"SOMERSET, OH 43783",http://maps.google.com/maps?q=NORTHSIDE%20SOMERSET%20PHARMACY%2C110%20WEST%20MAIN%20STREET%2C+SOMERSET%2C+OH+43783
NORTHWEST OHIO PSYCHIATRIC HOSPITAL,930 SOUTH DETROIT AVENUE,,"TOLEDO, OH 43614",http://maps.google.com/maps?q=NORTHWEST%20OHIO%20PSYCHIATRIC%20HOSPITAL%2C930%20SOUTH%20DETROIT%20AVENUE%2C+TOLEDO%2C+OH+43614
"OHIO CVS STORES, L.L.C.",100 E. MAIN ST.,,"WOODVILLE, OH 43469",http://maps.google.com/maps?q=OHIO%20CVS%20STORES%20LLC%2C100%20E.%20MAIN%20ST.%2C+WOODVILLE%2C+OH+43469
"OHIO CVS STORES, L.L.C.",1100 HILL RD. N,,"PICKERINGTON, OH 43147",http://maps.google.com/maps?q=OHIO%20CVS%20STORES%20LLC%2C1100%20HILL%20RD.%20N%2C+PICKERINGTON%2C+OH+43147
"OHIO CVS STORES, L.L.C.",111 SOUTH MEMORIAL DRIVE,,"LANCASTER, OH 43130",http://maps.google.com/maps?q=OHIO%20CVS%20STORES%20LLC%2C111%20SOUTH%20MEMORIAL%20DRIVE%2C+LANCASTER%2C+OH+43130
"OHIO CVS STORES, L.L.C.",1331 NORTH FAIRFIELD ROAD,,"BEAVERCREEK, OH 45432",http://maps.google.com/maps?q=OHIO%20CVS%20STORES%20LLC%2C1331%20NORTH%20FAIRFIELD%20ROAD%2C+BEAVERCREEK%2C+OH+45432
"OHIO CVS STORES, L.L.C.",17 WILLIAM H. TAFT RD.,,"CINCINNATI, OH 45219",http://maps.google.com/maps?q=OHIO%20CVS%20STORES%20LLC%2C17%20WILLIAM%20H.%20TAFT%20RD.%2C+CINCINNATI%2C+OH+45219
"OHIO CVS STORES, L.L.C.",210 EAST EMMITT AVE.,,"WAVERLY, OH 45690",http://maps.google.com/maps?q=OHIO%20CVS%20STORES%20LLC%2C210%20EAST%20EMMITT%20AVE.%2C+WAVERLY%2C+OH+45690
"OHIO CVS STORES, L.L.C.",28 N. BROOKWOOD AVE.,,"HAMILTON, OH 45013",http://maps.google.com/maps?q=OHIO%20CVS%20STORES%20LLC%2C28%20N.%20BROOKWOOD%20AVE.%2C+HAMILTON%2C+OH+45013
"OHIO CVS STORES, L.L.C.",2987 DERR RD.,,"SPRINGFIELD, OH 45503",http://maps.google.com/maps?q=OHIO%20CVS%20STORES%20LLC%2C2987%20DERR%20RD.%2C+SPRINGFIELD%2C+OH+45503
"OHIO CVS STORES, L.L.C.",3920 LINDEN AVE.,,"DAYTON, OH 45432",http://maps.google.com/maps?q=OHIO%20CVS%20STORES%20LLC%2C3920%20LINDEN%20AVE.%2C+DAYTON%2C+OH+45432
"OHIO CVS STORES, L.L.C.",4121 MONROE STREET,,"TOLEDO, OH 43606",http://maps.google.com/maps?q=OHIO%20CVS%20STORES%20LLC%2C4121%20MONROE%20STREET%2C+TOLEDO%2C+OH+43606
"OHIO CVS STORES, L.L.C.",4548 E. MAIN ST.,,"WHITEHALL, OH 43213",http://maps.google.com/maps?q=OHIO%20CVS%20STORES%20LLC%2C4548%20E.%20MAIN%20ST.%2C+WHITEHALL%2C+OH+43213
"OHIO CVS STORES, L.L.C.",4801 W. BROAD ST.,,"COLUMBUS, OH 43228",http://maps.google.com/maps?q=OHIO%20CVS%20STORES%20LLC%2C4801%20W.%20BROAD%20ST.%2C+COLUMBUS%2C+OH+43228
"OHIO CVS STORES, L.L.C.",620 S. CLEVELAND AVE.,,"WESTERVILLE, OH 43081",http://maps.google.com/maps?q=OHIO%20CVS%20STORES%20LLC%2C620%20S.%20CLEVELAND%20AVE.%2C+WESTERVILLE%2C+OH+43081
"OHIO CVS STORES, L.L.C.",7217 CINCINNATI-DAYTON ROAD,,"WEST CHESTER, OH 45069",http://maps.google.com/maps?q=OHIO%20CVS%20STORES%20LLC%2C7217%20CINCINNATI-DAYTON%20ROAD%2C+WEST%20CHESTER%2C+OH+45069
"OHIO CVS STORES, L.L.C.",7470 SAWMILL RD.,,"DUBLIN, OH 43016",http://maps.google.com/maps?q=OHIO%20CVS%20STORES%20LLC%2C7470%20SAWMILL%20RD.%2C+DUBLIN%2C+OH+43016
"OHIO CVS STORES, L.L.C.",820 S BREIEL BLVD,,"MIDDLETOWN, OH 45044",http://maps.google.com/maps?q=OHIO%20CVS%20STORES%20LLC%2C820%20S%20BREIEL%20BLVD%2C+MIDDLETOWN%2C+OH+45044
"PCA-CORRECTIONS, LLC DBA CHOICE PHARMACY",4014 VENTURE COURT,,"COLUMBUS, OH 43228",http://maps.google.com/maps?q=PCACORRECTIONS%20LLC%20DBA%20CHOICE%20PHARMACY%2C4014%20VENTURE%20COURT%2C+COLUMBUS%2C+OH+43228
PECAR COMMUNITY HEALTH CENTER PHARMACY,6940 N MICHIGAN ROAD,,"INDIANAPOLIS, IN 46268",http://maps.google.com/maps?q=PECAR%20COMMUNITY%20HEALTH%20CENTER%20PHARMACY%2C6940%20N%20MICHIGAN%20ROAD%2C+INDIANAPOLIS%2C+IN+46268
"PHARMACY CARE SOLUTIONS, INC",2323 N. MARR ROAD,,"COLUMBUS, IN 47203",http://maps.google.com/maps?q=PHARMACY%20CARE%20SOLUTIONS%20INC%2C2323%20N.%20MARR%20ROAD%2C+COLUMBUS%2C+IN+47203
PHARMANEEK INC,7345 WOODLAND DR.,SUITE A,"INDIANAPOLIS, IN 46278",http://maps.google.com/maps?q=PHARMANEEK%20INC%2C7345%20WOODLAND%20DR.%2C+INDIANAPOLIS%2C+IN+46278
PROMEDICA DEFIANCE REGIONAL HOSPITAL,1200 RALSTON AVENUE,,"DEFIANCE, OH 43512",http://maps.google.com/maps?q=PROMEDICA%20DEFIANCE%20REGIONAL%20HOSPITAL%2C1200%20RALSTON%20AVENUE%2C+DEFIANCE%2C+OH+43512
PROMEDICA MEMORIAL HOSPITAL,PHARMACY,715 SOUTH TAFT AVE,"FREMONT, OH 43420",http://maps.google.com/maps?q=PROMEDICA%20MEMORIAL%20HOSPITAL%2CPHARMACY%2C+FREMONT%2C+OH+43420
PULASKI MEMORIAL HOSPITAL,616 E 13TH STREET,P O BOX 279,"WINAMAC, IN 46996",http://maps.google.com/maps?q=PULASKI%20MEMORIAL%20HOSPITAL%2C616%20E%2013TH%20STREET%2C+WINAMAC%2C+IN+46996
PURDUE UNIVERSITY PHARMACY,HEINE PHARMACY BUILDING RM 118,575 STADIUM MALL DRIVE,"WEST LAFAYETTE, IN 47907",http://maps.google.com/maps?q=PURDUE%20UNIVERSITY%20PHARMACY%2CHEINE%20PHARMACY%20BUILDING%20RM%20118%2C+WEST%20LAFAYETTE%2C+IN+47907
RUSH MEMORIAL HOSPITAL,1300 N. MAIN STREET,PO BOX 608,"RUSHVILLE, IN 46173",http://maps.google.com/maps?q=RUSH%20MEMORIAL%20HOSPITAL%2C1300%20N.%20MAIN%20STREET%2C+RUSHVILLE%2C+IN+46173
SAMARITAN NORTH HEALTH CENTER,9000 NORTH MAIN STREET,,"DAYTON, OH 45415",http://maps.google.com/maps?q=SAMARITAN%20NORTH%20HEALTH%20CENTER%2C9000%20NORTH%20MAIN%20STREET%2C+DAYTON%2C+OH+45415
SPRINGFIELD REGIONAL MEDICAL CENTER,100 MEDICAL CENTER DRIVE,,"SPRINGFIELD, OH 45504",http://maps.google.com/maps?q=SPRINGFIELD%20REGIONAL%20MEDICAL%20CENTER%2C100%20MEDICAL%20CENTER%20DRIVE%2C+SPRINGFIELD%2C+OH+45504
ST CLAIRE MEDICAL CENTER INC - RETAIL,222 MEDICAL CIRCLE,,"MOREHEAD, KY 40351",http://maps.google.com/maps?q=ST%20CLAIRE%20MEDICAL%20CENTER%20INC%20%20RETAIL%2C222%20MEDICAL%20CIRCLE%2C+MOREHEAD%2C+KY+40351
ST RITA'S MEDICAL CENTER,730 W MARKET ST,,"LIMA, OH 45801",http://maps.google.com/maps?q=ST%20RITAS%20MEDICAL%20CENTER%2C730%20W%20MARKET%20ST%2C+LIMA%2C+OH+45801
ST VINCENT JENNINGS HOSPITAL,301 HENRY STREET,,"NORTH VERNON, IN 47265",http://maps.google.com/maps?q=ST%20VINCENT%20JENNINGS%20HOSPITAL%2C301%20HENRY%20STREET%2C+NORTH%20VERNON%2C+IN+47265
ST. MARGARET'S PHARMACY AT ESKENAZI HEALTH,720 ESKENAZI AVENUE,,"INDIANAPOLIS, IN 46202",http://maps.google.com/maps?q=ST%20MARGARETS%20PHARMACY%20AT%20ESKENAZI%20HEALTH%2C720%20ESKENAZI%20AVENUE%2C+INDIANAPOLIS%2C+IN+46202
ST. VINCENT MERCY HOSPITAL,1331 SOUTH A STREET,,"ELWOOD, IN 46036",http://maps.google.com/maps?q=ST%20VINCENT%20MERCY%20HOSPITAL%2C1331%20SOUTH%20A%20STREET%2C+ELWOOD%2C+IN+46036
ST. VINCENT PHARMACY,2001 WEST 86TH STREET,,"INDIANAPOLIS, IN 46260",http://maps.google.com/maps?q=ST%20VINCENT%20PHARMACY%2C2001%20WEST%2086TH%20STREET%2C+INDIANAPOLIS%2C+IN+46260
"ST. VINCENT SALEM HOSPITAL, INC.",911 NORTH SHELBY STREET,,"SALEM, IN 47167",http://maps.google.com/maps?q=ST%20VINCENT%20SALEM%20HOSPITAL%20INC%2C911%20NORTH%20SHELBY%20STREET%2C+SALEM%2C+IN+47167
THE JEWISH HOSPITAL,4777 E. GALBRAITH ROAD,,"CINCINNATI, OH 45236",http://maps.google.com/maps?q=THE%20JEWISH%20HOSPITAL%2C4777%20E.%20GALBRAITH%20ROAD%2C+CINCINNATI%2C+OH+45236
THE OHIO STATE UNIVERSITY OUTPATIENT PHARMACY  - J,460 W 10TH AVE,ROOM L012,"COLUMBUS, OH 43210",http://maps.google.com/maps?q=THE%20OHIO%20STATE%20UNIVERSITY%20OUTPATIENT%20PHARMACY%20%20%20J%2C460%20W%2010TH%20AVE%2C+COLUMBUS%2C+OH+43210
TOLEDO HOSPITAL,ATTENTION DEPT OF PHARMACY,2142 NORTH COVE BLVD,"TOLEDO, OH 43606",http://maps.google.com/maps?q=TOLEDO%20HOSPITAL%2CATTENTION%20DEPT%20OF%20PHARMACY%2C+TOLEDO%2C+OH+43606
TOWN DRUG,12459 E US ROUTE 22/3,,"SABINA, OH 45169",http://maps.google.com/maps?q=TOWN%20DRUG%2C12459%20E%20US%20ROUTE%2022/3%2C+SABINA%2C+OH+45169
UPPER VALLEY MEDICAL CENTER,3130 N COUNTY ROAD 25A,,"TROY, OH 45373",http://maps.google.com/maps?q=UPPER%20VALLEY%20MEDICAL%20CENTER%2C3130%20N%20COUNTY%20ROAD%2025A%2C+TROY%2C+OH+45373
USAF- WRIGHT PATTERSON AFB,88MDSS/SGSM,4881 SUGAR MAPLE DR,"WRIGHT PATTERSON, OH 45433",http://maps.google.com/maps?q=USAF%20WRIGHT%20PATTERSON%20AFB%2C88MDSS/SGSM%2C+WRIGHT%20PATTERSON%2C+OH+45433
VETERANS ADMIN OUTPATIENT,1200 SOUTH DETROIT AVENUE,PHARMACY 119,"TOLEDO, OH 43614",http://maps.google.com/maps?q=VETERANS%20ADMIN%20OUTPATIENT%2C1200%20SOUTH%20DETROIT%20AVENUE%2C+TOLEDO%2C+OH+43614
WALGREEN CO,2400 W SYCAMORE STREET,,"KOKOMO, IN 46901",http://maps.google.com/maps?q=WALGREEN%20CO%2C2400%20W%20SYCAMORE%20STREET%2C+KOKOMO%2C+IN+46901
WALGREEN CO.,1032 HARRISON AVE,,"HARRISON, OH 45030",http://maps.google.com/maps?q=WALGREEN%20CO%2C1032%20HARRISON%20AVE%2C+HARRISON%2C+OH+45030
WALGREEN CO.,10412 COLDWATER ROAD,,"FT WAYNE, IN 46845",http://maps.google.com/maps?q=WALGREEN%20CO%2C10412%20COLDWATER%20ROAD%2C+FT%20WAYNE%2C+IN+46845
WALGREEN CO.,1090 HIGH ST,,"HAMILTON, OH 45011",http://maps.google.com/maps?q=WALGREEN%20CO%2C1090%20HIGH%20ST%2C+HAMILTON%2C+OH+45011
WALGREEN CO.,11020 PENDLETON PIKE,,"INDIANAPOLIS, IN 46236",http://maps.google.com/maps?q=WALGREEN%20CO%2C11020%20PENDLETON%20PIKE%2C+INDIANAPOLIS%2C+IN+46236
WALGREEN CO.,115 FIELDS STREET,,"MOORESVILLE, IN 46158",http://maps.google.com/maps?q=WALGREEN%20CO%2C115%20FIELDS%20STREET%2C+MOORESVILLE%2C+IN+46158
WALGREEN CO.,1195 N STATE STREET,,"GREENFIELD, IN 46140",http://maps.google.com/maps?q=WALGREEN%20CO%2C1195%20N%20STATE%20STREET%2C+GREENFIELD%2C+IN+46140
WALGREEN CO.,1260 E CENTRAL,,"MIAMISBURG, OH 45342",http://maps.google.com/maps?q=WALGREEN%20CO%2C1260%20E%20CENTRAL%2C+MIAMISBURG%2C+OH+45342
WALGREEN CO.,1290 N STATE RD 135,,"GREENWOOD, IN 46142",http://maps.google.com/maps?q=WALGREEN%20CO%2C1290%20N%20STATE%20RD%20135%2C+GREENWOOD%2C+IN+46142
WALGREEN CO.,1300 WABASH AVE,,"TERRE HAUTE, IN 47807",http://maps.google.com/maps?q=WALGREEN%20CO%2C1300%20WABASH%20AVE%2C+TERRE%20HAUTE%2C+IN+47807
WALGREEN CO.,1321 DELAWARE AVE.,,"MARION, OH 43302",http://maps.google.com/maps?q=WALGREEN%20CO%2C1321%20DELAWARE%20AVE.%2C+MARION%2C+OH+43302
WALGREEN CO.,1400 N RITTER AVE.,SUITE 140,"INDIANAPOLIS, IN 46219",http://maps.google.com/maps?q=WALGREEN%20CO%2C1400%20N%20RITTER%20AVE.%2C+INDIANAPOLIS%2C+IN+46219
WALGREEN CO.,1424 S RANGELINE RD,,"CARMEL, IN 46032",http://maps.google.com/maps?q=WALGREEN%20CO%2C1424%20S%20RANGELINE%20RD%2C+CARMEL%2C+IN+46032
WALGREEN CO.,1530 N MERIDIAN ST,,"INDIANAPOLIS, IN 46202",http://maps.google.com/maps?q=WALGREEN%20CO%2C1530%20N%20MERIDIAN%20ST%2C+INDIANAPOLIS%2C+IN+46202
WALGREEN CO.,1808 ALBANY ST,,"BEECH GROVE, IN 46107",http://maps.google.com/maps?q=WALGREEN%20CO%2C1808%20ALBANY%20ST%2C+BEECH%20GROVE%2C+IN+46107
WALGREEN CO.,2150 E DUBLIN GRANVILLE ROAD,,"COLUMBUS, OH 43229",http://maps.google.com/maps?q=WALGREEN%20CO%2C2150%20E%20DUBLIN%20GRANVILLE%20ROAD%2C+COLUMBUS%2C+OH+43229
WALGREEN CO.,2320 BOUDINOT AVE.,,"CINCINNATI, OH 45238",http://maps.google.com/maps?q=WALGREEN%20CO%2C2320%20BOUDINOT%20AVE.%2C+CINCINNATI%2C+OH+45238
WALGREEN CO.,2400 BEAM ROAD,,"COLUMBUS, IN 47203",http://maps.google.com/maps?q=WALGREEN%20CO%2C2400%20BEAM%20ROAD%2C+COLUMBUS%2C+IN+47203
WALGREEN CO.,2710 SALEM AVE.,,"DAYTON, OH 45406",http://maps.google.com/maps?q=WALGREEN%20CO%2C2710%20SALEM%20AVE.%2C+DAYTON%2C+OH+45406
WALGREEN CO.,2720 W JACKSON,,"MUNCIE, IN 47303",http://maps.google.com/maps?q=WALGREEN%20CO%2C2720%20W%20JACKSON%2C+MUNCIE%2C+IN+47303
WALGREEN CO.,3 W CORRY STREET,,"CINCINNATI, OH 45219",http://maps.google.com/maps?q=WALGREEN%20CO%2C3%20W%20CORRY%20STREET%2C+CINCINNATI%2C+OH+45219
WALGREEN CO.,3455 MANN ROAD,,"INDIANAPOLIS, IN 46221",http://maps.google.com/maps?q=WALGREEN%20CO%2C3455%20MANN%20ROAD%2C+INDIANAPOLIS%2C+IN+46221
WALGREEN CO.,3545 W 86TH STREET,,"INDIANAPOLIS, IN 46268",http://maps.google.com/maps?q=WALGREEN%20CO%2C3545%20W%2086TH%20STREET%2C+INDIANAPOLIS%2C+IN+46268
WALGREEN CO.,385 NORTHLAND BLVD,,"CINCINNATI, OH 45240",http://maps.google.com/maps?q=WALGREEN%20CO%2C385%20NORTHLAND%20BLVD%2C+CINCINNATI%2C+OH+45240
WALGREEN CO.,4090 E GALBRAITH RD,,"DEER PARK, OH 45236",http://maps.google.com/maps?q=WALGREEN%20CO%2C4090%20E%20GALBRAITH%20RD%2C+DEER%20PARK%2C+OH+45236
WALGREEN CO.,4580 MONROE ST,,"TOLEDO, OH 43613",http://maps.google.com/maps?q=WALGREEN%20CO%2C4580%20MONROE%20ST%2C+TOLEDO%2C+OH+43613
WALGREEN CO.,4605 MONTGOMERY ROAD,,"NORWOOD, OH 45212",http://maps.google.com/maps?q=WALGREEN%20CO%2C4605%20MONTGOMERY%20ROAD%2C+NORWOOD%2C+OH+45212
WALGREEN CO.,5403 N. BEND ROAD,,"CINCINNATI, OH 45247",http://maps.google.com/maps?q=WALGREEN%20CO%2C5403%20N.%20BEND%20ROAD%2C+CINCINNATI%2C+OH+45247
WALGREEN CO.,5690 W BROAD STREET,,"GALLOWAY, OH 43119",http://maps.google.com/maps?q=WALGREEN%20CO%2C5690%20W%20BROAD%20STREET%2C+GALLOWAY%2C+OH+43119
WALGREEN CO.,6201 STELLHORN ROAD,,"FT WAYNE, IN 46815",http://maps.google.com/maps?q=WALGREEN%20CO%2C6201%20STELLHORN%20ROAD%2C+FT%20WAYNE%2C+IN+46815
WALGREEN CO.,6202 WEST JEFFERSON BLVD,,"FT WAYNE, IN 46804",http://maps.google.com/maps?q=WALGREEN%20CO%2C6202%20WEST%20JEFFERSON%20BLVD%2C+FT%20WAYNE%2C+IN+46804
WALGREEN CO.,655 WASHINGTON ST. W,,"CHARLESTON, WV 25302",http://maps.google.com/maps?q=WALGREEN%20CO%2C655%20WASHINGTON%20ST.%20W%2C+CHARLESTON%2C+WV+25302
WALGREEN CO.,6918 HAMILTON AVE.,,"CINCINNATI, OH 45231",http://maps.google.com/maps?q=WALGREEN%20CO%2C6918%20HAMILTON%20AVE.%2C+CINCINNATI%2C+OH+45231
WALGREEN CO.,700 S BREIEL BLVD,,"MIDDLETOWN, OH 45044",http://maps.google.com/maps?q=WALGREEN%20CO%2C700%20S%20BREIEL%20BLVD%2C+MIDDLETOWN%2C+OH+45044
WALGREEN CO.,700 US HIGHWAY 31 S,,"GREENWOOD, IN 46143",http://maps.google.com/maps?q=WALGREEN%20CO%2C700%20US%20HIGHWAY%2031%20S%2C+GREENWOOD%2C+IN+46143
WALGREEN CO.,701 N CABLE ROAD,,"LIMA, OH 45805",http://maps.google.com/maps?q=WALGREEN%20CO%2C701%20N%20CABLE%20ROAD%2C+LIMA%2C+OH+45805
WALGREEN CO.,7975 E US HWY 36,,"AVON, IN 46123",http://maps.google.com/maps?q=WALGREEN%20CO%2C7975%20E%20US%20HWY%2036%2C+AVON%2C+IN+46123
WALGREEN CO.,8193 MALL ROAD,,"FLORENCE, KY 41042",http://maps.google.com/maps?q=WALGREEN%20CO%2C8193%20MALL%20ROAD%2C+FLORENCE%2C+KY+41042
WALGREEN CO.,850 NORTH BRIDGE STREET,,"CHILLICOTHE, OH 45601",http://maps.google.com/maps?q=WALGREEN%20CO%2C850%20NORTH%20BRIDGE%20STREET%2C+CHILLICOTHE%2C+OH+45601
WALGREEN CO.,859 E MAIN ST,,"LANCASTER, OH 43130",http://maps.google.com/maps?q=WALGREEN%20CO%2C859%20E%20MAIN%20ST%2C+LANCASTER%2C+OH+43130
WALGREEN CO.,8905 E 10TH ST,,"INDIANAPOLIS, IN 46219",http://maps.google.com/maps?q=WALGREEN%20CO%2C8905%20E%2010TH%20ST%2C+INDIANAPOLIS%2C+IN+46219
WALGREEN CO.,950 S CENTERVILLE RD,,"STURGIS, MI 49091",http://maps.google.com/maps?q=WALGREEN%20CO%2C950%20S%20CENTERVILLE%20RD%2C+STURGIS%2C+MI+49091
WALGREEN CO.,9775 COLERAIN AVENUE,,"CINCINNATI, OH 45251",http://maps.google.com/maps?q=WALGREEN%20CO%2C9775%20COLERAIN%20AVENUE%2C+CINCINNATI%2C+OH+45251
"WEST VIRGINIA CVS PHARMACY, L.L.C.",1327 PLAZA EAST,,"CHARLESTON, WV 25301",http://maps.google.com/maps?q=WEST%20VIRGINIA%20CVS%20PHARMACY%20LLC%2C1327%20PLAZA%20EAST%2C+CHARLESTON%2C+WV+25301
"WEST VIRGINIA CVS PHARMACY, L.L.C.",1605 7TH STREET,,"PARKERSBURG, WV 26101",http://maps.google.com/maps?q=WEST%20VIRGINIA%20CVS%20PHARMACY%20LLC%2C1605%207TH%20STREET%2C+PARKERSBURG%2C+WV+26101
"WEST VIRGINIA CVS PHARMACY, L.L.C.",221 CROSSINGS MALL ROAD,,"ELKVIEW, WV 25071",http://maps.google.com/maps?q=WEST%20VIRGINIA%20CVS%20PHARMACY%20LLC%2C221%20CROSSINGS%20MALL%20ROAD%2C+ELKVIEW%2C+WV+25071
"WEST VIRGINIA CVS PHARMACY, L.L.C.",2907 STATE STREET,,"GASSAWAY, WV 26624",http://maps.google.com/maps?q=WEST%20VIRGINIA%20CVS%20PHARMACY%20LLC%2C2907%20STATE%20STREET%2C+GASSAWAY%2C+WV+26624
"WEST VIRGINIA CVS PHARMACY, L.L.C.",701 E. MAIN STREET,,"CLARKSBURG, WV 26301",http://maps.google.com/maps?q=WEST%20VIRGINIA%20CVS%20PHARMACY%20LLC%2C701%20E.%20MAIN%20STREET%2C+CLARKSBURG%2C+WV+26301
"WEST VIRGINIA CVS PHARMACY, L.L.C.",74 WEST MAIN ST.,,"BUCKHANNON, WV 26201",http://maps.google.com/maps?q=WEST%20VIRGINIA%20CVS%20PHARMACY%20LLC%2C74%20WEST%20MAIN%20ST.%2C+BUCKHANNON%2C+WV+26201
WESTSIDE COMMUNITY HLTH CTR,PHARMACY,2732 W MICHIGANSTREET,"INDIANAPOLIS, IN 46222",http://maps.google.com/maps?q=WESTSIDE%20COMMUNITY%20HLTH%20CTR%2CPHARMACY%2C+INDIANAPOLIS%2C+IN+46222
"WILLIAMS BROS. HEALTH CARE PHARMACY, INC",104 E. BROADWAY ST.,,"LOOGOOTEE, IN 47553",http://maps.google.com/maps?q=WILLIAMS%20BROS%20HEALTH%20CARE%20PHARMACY%20INC%2C104%20E.%20BROADWAY%20ST.%2C+LOOGOOTEE%2C+IN+47553
WITSCHEY'SPHARMACY,155 NORTH STREET,,"NEW MARTINSVILLE, WV 26155",http://maps.google.com/maps?q=WITSCHEYSPHARMACY%2C155%20NORTH%20STREET%2C+NEW%20MARTINSVILLE%2C+WV+26155
