Business Name,Address 1,Address 2,"City, State Zip",Map URL
ALLEN CLINIC PHARMACY,146 WEST DALE ST,STE 103,"WATERLOO, IA 50703",http://maps.google.com/maps?q=ALLEN%20CLINIC%20PHARMACY%2C146%20WEST%20DALE%20ST%2C+WATERLOO%2C+IA+50703
"ALMOATASIM, LLC",110 W. MAIN ST.,,"CAMPBELLSPORT, WI 53010",http://maps.google.com/maps?q=ALMOATASIM%20LLC%2C110%20W.%20MAIN%20ST.%2C+CAMPBELLSPORT%2C+WI+53010
ANKENY MEDICAL PARK PHARMACY,3625 N ANKENY BLVD,SUITE A,"ANKENY, IA 50023",http://maps.google.com/maps?q=ANKENY%20MEDICAL%20PARK%20PHARMACY%2C3625%20N%20ANKENY%20BLVD%2C+ANKENY%2C+IA+50023
"ARMITAGE PHARMACY, INC.",3650 W ARMITAGE AVE,STE 100,"CHICAGO, IL 60647",http://maps.google.com/maps?q=ARMITAGE%20PHARMACY%20INC%2C3650%20W%20ARMITAGE%20AVE%2C+CHICAGO%2C+IL+60647
BELLIN HEALTH,744 SOUTH WEBSTER AVENUE,,"GREEN BAY, WI 54301",http://maps.google.com/maps?q=BELLIN%20HEALTH%2C744%20SOUTH%20WEBSTER%20AVENUE%2C+GREEN%20BAY%2C+WI+54301
BELLIN HEALTH PHARMACY,1630 COMMANCHE AVENUE,SUITE 102,"GREEN BAY, WI 54313",http://maps.google.com/maps?q=BELLIN%20HEALTH%20PHARMACY%2C1630%20COMMANCHE%20AVENUE%2C+GREEN%20BAY%2C+WI+54313
BELOIT HEALTH SYSTEM,1969 WEST HART RD,,"BELOIT, WI 53511",http://maps.google.com/maps?q=BELOIT%20HEALTH%20SYSTEM%2C1969%20WEST%20HART%20RD%2C+BELOIT%2C+WI+53511
BENNETT PHARMACY,1 WEST MAIN,P.O.BOX 111,"NEW HAMPTON, IA 50659",http://maps.google.com/maps?q=BENNETT%20PHARMACY%2C1%20WEST%20MAIN%2C+NEW%20HAMPTON%2C+IA+50659
BENZER IA 1 LLC,101 NORTH WALNUT STREET,,"COLFAX, IA 50054",http://maps.google.com/maps?q=BENZER%20IA%20%20LLC%2C101%20NORTH%20WALNUT%20STREET%2C+COLFAX%2C+IA+50054
"BOND DRUG COMPANY OF ILLINOIS, L.L.C.",1000 OGDEN AVENUE,,"DOWNERS GROVE, IL 60515",http://maps.google.com/maps?q=BOND%20DRUG%20COMPANY%20OF%20ILLINOIS%20LLC%2C1000%20OGDEN%20AVENUE%2C+DOWNERS%20GROVE%2C+IL+60515
"BOND DRUG COMPANY OF ILLINOIS, L.L.C.",111 S. HALSTED STREET,,"CHICAGO, IL 60661",http://maps.google.com/maps?q=BOND%20DRUG%20COMPANY%20OF%20ILLINOIS%20LLC%2C111%20S.%20HALSTED%20STREET%2C+CHICAGO%2C+IL+60661
"BOND DRUG COMPANY OF ILLINOIS, L.L.C.",15 N BUFFALO GROVE RD,,"BUFFALO GROVE, IL 60089",http://maps.google.com/maps?q=BOND%20DRUG%20COMPANY%20OF%20ILLINOIS%20LLC%2C15%20N%20BUFFALO%20GROVE%20RD%2C+BUFFALO%20GROVE%2C+IL+60089
"BOND DRUG COMPANY OF ILLINOIS, L.L.C.",1811 BELVIDERE RD,,"WAUKEGAN, IL 60085",http://maps.google.com/maps?q=BOND%20DRUG%20COMPANY%20OF%20ILLINOIS%20LLC%2C1811%20BELVIDERE%20RD%2C+WAUKEGAN%2C+IL+60085
"BOND DRUG COMPANY OF ILLINOIS, L.L.C.",1931 W CERMAK RD,,"CHICAGO, IL 60608",http://maps.google.com/maps?q=BOND%20DRUG%20COMPANY%20OF%20ILLINOIS%20LLC%2C1931%20W%20CERMAK%20RD%2C+CHICAGO%2C+IL+60608
"BOND DRUG COMPANY OF ILLINOIS, L.L.C.",200 E ROOSEVELT,,"VILLA PARK, IL 60181",http://maps.google.com/maps?q=BOND%20DRUG%20COMPANY%20OF%20ILLINOIS%20LLC%2C200%20E%20ROOSEVELT%2C+VILLA%20PARK%2C+IL+60181
"BOND DRUG COMPANY OF ILLINOIS, L.L.C.",2323 CHARLES STREET,,"ROCKFORD, IL 61104",http://maps.google.com/maps?q=BOND%20DRUG%20COMPANY%20OF%20ILLINOIS%20LLC%2C2323%20CHARLES%20STREET%2C+ROCKFORD%2C+IL+61104
"BOND DRUG COMPANY OF ILLINOIS, L.L.C.",3201 N. BROADWAY ST.,,"CHICAGO, IL 60657",http://maps.google.com/maps?q=BOND%20DRUG%20COMPANY%20OF%20ILLINOIS%20LLC%2C3201%20N.%20BROADWAY%20ST.%2C+CHICAGO%2C+IL+60657
"BOND DRUG COMPANY OF ILLINOIS, L.L.C.",3925 W ELM STREET,,"MCHENRY, IL 60050",http://maps.google.com/maps?q=BOND%20DRUG%20COMPANY%20OF%20ILLINOIS%20LLC%2C3925%20W%20ELM%20STREET%2C+MCHENRY%2C+IL+60050
"BOND DRUG COMPANY OF ILLINOIS, L.L.C.",4343 N CENTRAL AVE,,"CHICAGO, IL 60634",http://maps.google.com/maps?q=BOND%20DRUG%20COMPANY%20OF%20ILLINOIS%20LLC%2C4343%20N%20CENTRAL%20AVE%2C+CHICAGO%2C+IL+60634
"BOND DRUG COMPANY OF ILLINOIS, L.L.C.",5600 W. FULLERTON,,"CHICAGO, IL 60639",http://maps.google.com/maps?q=BOND%20DRUG%20COMPANY%20OF%20ILLINOIS%20LLC%2C5600%20W.%20FULLERTON%2C+CHICAGO%2C+IL+60639
"BOND DRUG COMPANY OF ILLINOIS, L.L.C.",5625 N. RIDGE AVE,,"CHICAGO, IL 60660",http://maps.google.com/maps?q=BOND%20DRUG%20COMPANY%20OF%20ILLINOIS%20LLC%2C5625%20N.%20RIDGE%20AVE%2C+CHICAGO%2C+IL+60660
"BOND DRUG COMPANY OF ILLINOIS, L.L.C.",641 N CLARK ST,,"CHICAGO, IL 60654",http://maps.google.com/maps?q=BOND%20DRUG%20COMPANY%20OF%20ILLINOIS%20LLC%2C641%20N%20CLARK%20ST%2C+CHICAGO%2C+IL+60654
"BOND DRUG COMPANY OF ILLINOIS, L.L.C.",7350 BARRINGTON RD.,,"HANOVER PARK, IL 60133",http://maps.google.com/maps?q=BOND%20DRUG%20COMPANY%20OF%20ILLINOIS%20LLC%2C7350%20BARRINGTON%20RD.%2C+HANOVER%20PARK%2C+IL+60133
"BOND DRUG COMPANY OF ILLINOIS, L.L.C.",780 WAUKEGAN RD,,"DEERFIELD, IL 60015",http://maps.google.com/maps?q=BOND%20DRUG%20COMPANY%20OF%20ILLINOIS%20LLC%2C780%20WAUKEGAN%20RD%2C+DEERFIELD%2C+IL+60015
"BOND DRUG COMPANY OF ILLINOIS, L.L.C.",9000 N. GREENWOOD AVE,,"NILES, IL 60714",http://maps.google.com/maps?q=BOND%20DRUG%20COMPANY%20OF%20ILLINOIS%20LLC%2C9000%20N.%20GREENWOOD%20AVE%2C+NILES%2C+IL+60714
BROADLAWNS MEDICAL CENTER,1801 HICKMAN ROAD,,"DES MOINES, IA 50314",http://maps.google.com/maps?q=BROADLAWNS%20MEDICAL%20CENTER%2C1801%20HICKMAN%20ROAD%2C+DES%20MOINES%2C+IA+50314
CAPT. JAMES A. LOVELL FEDERAL HEALTH CARE CENTER,2410 SAMPSON STREET,BLDG 237 (PHARMACY DEPARTMENT),"GREAT LAKES, IL 60088",http://maps.google.com/maps?q=CAPT%20JAMES%20A%20LOVELL%20FEDERAL%20HEALTH%20CARE%20CENTER%2C2410%20SAMPSON%20STREET%2C+GREAT%20LAKES%2C+IL+60088
CAPT. JAMES A. LOVELL FEDERAL HEALTH CARE CENTER,2430 ILLINOIS STREET,BLDG 1007 (PHARMACY DEPARTMENT),"GREAT LAKES, IL 60088",http://maps.google.com/maps?q=CAPT%20JAMES%20A%20LOVELL%20FEDERAL%20HEALTH%20CARE%20CENTER%2C2430%20ILLINOIS%20STREET%2C+GREAT%20LAKES%2C+IL+60088
CAPT. JAMES A. LOVELL FEDERAL HEALTH CARE CENTER,2630 GREEN BAY ROAD,BLDG 3452 (PHARMACY DEPARTMENT),"GREAT LAKES, IL 60088",http://maps.google.com/maps?q=CAPT%20JAMES%20A%20LOVELL%20FEDERAL%20HEALTH%20CARE%20CENTER%2C2630%20GREEN%20BAY%20ROAD%2C+GREAT%20LAKES%2C+IL+60088
CAPT. JAMES A. LOVELL FEDERAL HEALTH CARE CENTER,3440 OHIO STREET,BLDG 1017 (PHARMACY DEPARTMENT),"GREAT LAKES, IL 60088",http://maps.google.com/maps?q=CAPT%20JAMES%20A%20LOVELL%20FEDERAL%20HEALTH%20CARE%20CENTER%2C3440%20OHIO%20STREET%2C+GREAT%20LAKES%2C+IL+60088
"CARECENTER PHARMACY, L.L.C.","2775 SANDERS RD., STE C1",,"NORTHBROOK, IL 60062",http://maps.google.com/maps?q=CARECENTER%20PHARMACY%20LLC%2C2775%20SANDERS%20RD.%2C%20STE%20C1%2C+NORTHBROOK%2C+IL+60062
CENTER PHARMACY,312 9TH SW,,"WAVERLY, IA 50677",http://maps.google.com/maps?q=CENTER%20PHARMACY%2C312%209TH%20SW%2C+WAVERLY%2C+IA+50677
CGH MEDICAL CENTER,100 EAST LEFEVRE RD,,"STERLING, IL 61081",http://maps.google.com/maps?q=CGH%20MEDICAL%20CENTER%2C100%20EAST%20LEFEVRE%20RD%2C+STERLING%2C+IL+61081
CLARK'S PHARMACY,1946 42ND STREET N.E.,,"CEDAR RAPIDS, IA 52402",http://maps.google.com/maps?q=CLARKS%20PHARMACY%2C1946%2042ND%20STREET%20N.E.%2C+CEDAR%20RAPIDS%2C+IA+52402
CLAYTON DRUG,100 EAST 1ST STREET,,"SUMNER, IA 50674",http://maps.google.com/maps?q=CLAYTON%20DRUG%2C100%20EAST%201ST%20STREET%2C+SUMNER%2C+IA+50674
CLAYTON DRUG,104 WEST MISSION ST,,"STRAWBERRY POINT, IA 52076",http://maps.google.com/maps?q=CLAYTON%20DRUG%2C104%20WEST%20MISSION%20ST%2C+STRAWBERRY%20POINT%2C+IA+52076
CLAYTON DRUG,135 N MAIN ST,,"ELKADER, IA 52043",http://maps.google.com/maps?q=CLAYTON%20DRUG%2C135%20N%20MAIN%20ST%2C+ELKADER%2C+IA+52043
COVENANT FAMILY PHARMACY,2710 ST FRANCIS DR,STE. 101,"WATERLOO, IA 50702",http://maps.google.com/maps?q=COVENANT%20FAMILY%20PHARMACY%2C2710%20ST%20FRANCIS%20DR%2C+WATERLOO%2C+IA+50702
DBA NUCARA PHARMACY #12,500 SECOND ST.,,"TRAER, IA 50675",http://maps.google.com/maps?q=DBA%20NUCARA%20PHARMACY%2C500%20SECOND%20ST.%2C+TRAER%2C+IA+50675
DBA NUCARA PHARMACY #16,107 W MAIN,,"OTTUMWA, IA 52501",http://maps.google.com/maps?q=DBA%20NUCARA%20PHARMACY%2C107%20W%20MAIN%2C+OTTUMWA%2C+IA+52501
DBA NUCARA PHARMACY #2,"1150 FIFTH ST., STE. 142",,"CORALVILLE, IA 52241",http://maps.google.com/maps?q=DBA%20NUCARA%20PHARMACY%2C1150%20FIFTH%20ST.%2C%20STE.%20142%2C+CORALVILLE%2C+IA+52241
DBA NUCARA PHARMACY #6,722 MAIN ST.,,"ACKLEY, IA 50601",http://maps.google.com/maps?q=DBA%20NUCARA%20PHARMACY%2C722%20MAIN%20ST.%2C+ACKLEY%2C+IA+50601
DBA NUCARA PHARMACY #7,110 CENTER STREET,,"CONRAD, IA 50621",http://maps.google.com/maps?q=DBA%20NUCARA%20PHARMACY%2C110%20CENTER%20STREET%2C+CONRAD%2C+IA+50621
DBA NUCARA PHARMACY #9,1002 SIXTH ST.,PO BOX 541,"NEVADA, IA 50201",http://maps.google.com/maps?q=DBA%20NUCARA%20PHARMACY%2C1002%20SIXTH%20ST.%2C+NEVADA%2C+IA+50201
DOUGLAS & OGDEN MED CTR PHAR,DBA DOUGLAS-MAIN PHARMACY,5207 MAIN ST STE#102,"DOWNERS GROVE, IL 60515",http://maps.google.com/maps?q=DOUGLAS%20%20OGDEN%20MED%20CTR%20PHAR%2CDBA%20DOUGLAS-MAIN%20PHARMACY%2C+DOWNERS%20GROVE%2C+IL+60515
"FARLAND PHARMACY, INC.",2 NORTH CASS AVE,,"WESTMONT, IL 60559",http://maps.google.com/maps?q=FARLAND%20PHARMACY%20INC%2C2%20NORTH%20CASS%20AVE%2C+WESTMONT%2C+IL+60559
"FORUM EXTENDED CARE SERVICES II, INC.",4201 W VICTORIA ST,,"CHICAGO, IL 60646",http://maps.google.com/maps?q=FORUM%20EXTENDED%20CARE%20SERVICES%20II%20INC%2C4201%20W%20VICTORIA%20ST%2C+CHICAGO%2C+IL+60646
GOOD VALUE PHARMACY,3207 80TH STREET,SUITE 100,"KENOSHA, WI 53142",http://maps.google.com/maps?q=GOOD%20VALUE%20PHARMACY%2C3207%2080TH%20STREET%2C+KENOSHA%2C+WI+53142
"GREENWOOD DRUG, INC.",2104 KIMBALL AVE.,,"WATERLOO, IA 50702",http://maps.google.com/maps?q=GREENWOOD%20DRUG%20INC%2C2104%20KIMBALL%20AVE.%2C+WATERLOO%2C+IA+50702
"GRX HOLDINGS, LLC DBA MEDICAP PHARMACY",107 NE DELAWARE AVENUE,STE. 6,"ANKENY, IA 50021",http://maps.google.com/maps?q=GRX%20HOLDINGS%20LLC%20DBA%20MEDICAP%20PHARMACY%2C107%20NE%20DELAWARE%20AVENUE%2C+ANKENY%2C+IA+50021
HARTIG DRUG #3,2255 JOHN F KENNEDY ROAD,,"DUBUQUE, IA 52002",http://maps.google.com/maps?q=HARTIG%20DRUG%2C2255%20JOHN%20F%20KENNEDY%20ROAD%2C+DUBUQUE%2C+IA+52002
HARTIG DRUG CO,157 LOCUST ST,,"DUBUQUE, IA 52001",http://maps.google.com/maps?q=HARTIG%20DRUG%20CO%2C157%20LOCUST%20ST%2C+DUBUQUE%2C+IA+52001
HARTIG DRUG CO,1600 UNIVERSITY AVE,,"DUBUQUE, IA 52001",http://maps.google.com/maps?q=HARTIG%20DRUG%20CO%2C1600%20UNIVERSITY%20AVE%2C+DUBUQUE%2C+IA+52001
HARTIG DRUG CO,2225 CENTRAL AVE,,"DUBUQUE, IA 52001",http://maps.google.com/maps?q=HARTIG%20DRUG%20CO%2C2225%20CENTRAL%20AVE%2C+DUBUQUE%2C+IA+52001
HARTIG DRUG CO,701 MORMON TREK BLVD,,"IOWA CITY, IA 52246",http://maps.google.com/maps?q=HARTIG%20DRUG%20CO%2C701%20MORMON%20TREK%20BLVD%2C+IOWA%20CITY%2C+IA+52246
HARTIG DRUG CO #26,810 12TH ST,,"BELLE PLAINE, IA 52208",http://maps.google.com/maps?q=HARTIG%20DRUG%20CO%2C810%2012TH%20ST%2C+BELLE%20PLAINE%2C+IA+52208
HARTIG DRUG CO #27,517 COURT ST.,,"WILLIAMSBURG, IA 52361",http://maps.google.com/maps?q=HARTIG%20DRUG%20CO%2C517%20COURT%20ST.%2C+WILLIAMSBURG%2C+IA+52361
HARTIG DRUG CO #28,419 E 1ST ST,,"MONTICELLO, IA 52310",http://maps.google.com/maps?q=HARTIG%20DRUG%20CO%2C419%20E%201ST%20ST%2C+MONTICELLO%2C+IA+52310
HARTIG DRUG CO #30,200 MAIN ST,SUITE 1,"GUTTENBERG, IA 52052",http://maps.google.com/maps?q=HARTIG%20DRUG%20CO%2C200%20MAIN%20ST%2C+GUTTENBERG%2C+IA+52052
HARTIG DRUG CO INC,HARTIG DRUG CO #14,200 FIRST STREET EAST,"INDEPENDENCE, IA 50644",http://maps.google.com/maps?q=HARTIG%20DRUG%20CO%20INC%2CHARTIG%20DRUG%20CO%20#14%2C+INDEPENDENCE%2C+IA+50644
HARTIG DRUG COMPANY,STONE CREEK SHOPPING CENTER,711 16TH AVE SE,"DYERSVILLE, IA 52040",http://maps.google.com/maps?q=HARTIG%20DRUG%20COMPANY%2CSTONE%20CREEK%20SHOPPING%20CENTER%2C+DYERSVILLE%2C+IA+52040
HAYAT PHARMACY 10 LLC,5308 W BURLEIGH ST,,"MILWAUKEE, WI 53210",http://maps.google.com/maps?q=HAYAT%20PHARMACY%20%20LLC%2C5308%20W%20BURLEIGH%20ST%2C+MILWAUKEE%2C+WI+53210
HAYAT PHARMACY 2 LLC,5928 W. VLIET ST.,,"MILWAUKEE, WI 53208",http://maps.google.com/maps?q=HAYAT%20PHARMACY%20%20LLC%2C5928%20W.%20VLIET%20ST.%2C+MILWAUKEE%2C+WI+53208
"HEALTHDIRECT INSTITUTIONAL PHARMACY SERVICES, INC.",150 N. PATRICK BLVD,SUITE 250,"BROOKFIELD, WI 53045",http://maps.google.com/maps?q=HEALTHDIRECT%20INSTITUTIONAL%20PHARMACY%20SERVICES%20INC%2C150%20N.%20PATRICK%20BLVD%2C+BROOKFIELD%2C+WI+53045
HERITAGE FAMILY PHARMACY,1201 W AGENCY ROAD,,"WEST BURLINGTON, IA 52655",http://maps.google.com/maps?q=HERITAGE%20FAMILY%20PHARMACY%2C1201%20W%20AGENCY%20ROAD%2C+WEST%20BURLINGTON%2C+IA+52655
"HIGHLAND PARK CVS, L.L.C.",110 S. ALPINE RD.,,"ROCKFORD, IL 61108",http://maps.google.com/maps?q=HIGHLAND%20PARK%20CVS%20LLC%2C110%20S.%20ALPINE%20RD.%2C+ROCKFORD%2C+IL+61108
"HIGHLAND PARK CVS, L.L.C.",110 W. NORTH AVE.,,"ELMHURST, IL 60126",http://maps.google.com/maps?q=HIGHLAND%20PARK%20CVS%20LLC%2C110%20W.%20NORTH%20AVE.%2C+ELMHURST%2C+IL+60126
"HIGHLAND PARK CVS, L.L.C.",1305 RANDALL RD.,,"CRYSTAL LAKE, IL 60014",http://maps.google.com/maps?q=HIGHLAND%20PARK%20CVS%20LLC%2C1305%20RANDALL%20RD.%2C+CRYSTAL%20LAKE%2C+IL+60014
"HIGHLAND PARK CVS, L.L.C.",1500 LINCOLN HWY.,,"ST CHARLES, IL 60174",http://maps.google.com/maps?q=HIGHLAND%20PARK%20CVS%20LLC%2C1500%20LINCOLN%20HWY.%2C+ST%20CHARLES%2C+IL+60174
"HIGHLAND PARK CVS, L.L.C.",1539 CLAVEY RD.,,"HIGHLAND PARK, IL 60035",http://maps.google.com/maps?q=HIGHLAND%20PARK%20CVS%20LLC%2C1539%20CLAVEY%20RD.%2C+HIGHLAND%20PARK%2C+IL+60035
"HIGHLAND PARK CVS, L.L.C.",177 WEST VIRGINIA STREET,,"CRYSTAL LAKE, IL 60014",http://maps.google.com/maps?q=HIGHLAND%20PARK%20CVS%20LLC%2C177%20WEST%20VIRGINIA%20STREET%2C+CRYSTAL%20LAKE%2C+IL+60014
"HIGHLAND PARK CVS, L.L.C.",3900 WEST ELM ST.,,"MCHENRY, IL 60050",http://maps.google.com/maps?q=HIGHLAND%20PARK%20CVS%20LLC%2C3900%20WEST%20ELM%20ST.%2C+MCHENRY%2C+IL+60050
HOLY FAMILY HEALTH SERVICES,1650 S 41 ST,,"MANITOWOC, WI 54220",http://maps.google.com/maps?q=HOLY%20FAMILY%20HEALTH%20SERVICES%2C1650%20S%2041%20ST%2C+MANITOWOC%2C+WI+54220
HOMETOWN LONG TERM CARE PHARMACY,1571 IVORY DRIVE,,"SUN PRAIRIE, WI 53590",http://maps.google.com/maps?q=HOMETOWN%20LONG%20TERM%20CARE%20PHARMACY%2C1571%20IVORY%20DRIVE%2C+SUN%20PRAIRIE%2C+WI+53590
HY-VEE PHARMACY #1180,1300 WEST BURLINGTON AVENUE,,"FAIRFIELD, IA 52556",http://maps.google.com/maps?q=HYVEE%20PHARMACY%2C1300%20WEST%20BURLINGTON%20AVENUE%2C+FAIRFIELD%2C+IA+52556
HY-VEE PHARMACY (1202),"2606 ""L"" AVE",,"FORT MADISON, IA 52627",http://maps.google.com/maps?q=HYVEE%20PHARMACY%2C2606%20%22L%22%20AVE%2C+FORT%20MADISON%2C+IA+52627
HY-VEE PHARMACY (1481),"110 S ""D"" STREET",,"OSKALOOSA, IA 52577",http://maps.google.com/maps?q=HYVEE%20PHARMACY%2C110%20S%20%22D%22%20STREET%2C+OSKALOOSA%2C+IA+52577
"HY-VEE,  INC.",1005 EAST HICKMAN,,"WAUKEE, IA 50263",http://maps.google.com/maps?q=HYVEE%20%20INC%2C1005%20EAST%20HICKMAN%2C+WAUKEE%2C+IA+50263
"HY-VEE, INC.",204 N MAIN ST.,,"LEON, IA 50144",http://maps.google.com/maps?q=HYVEE%20INC%2C204%20N%20MAIN%20ST.%2C+LEON%2C+IA+50144
"HY-VEE, INC.",510 W MCLANE,,"OSCEOLA, IA 50213",http://maps.google.com/maps?q=HYVEE%20INC%2C510%20W%20MCLANE%2C+OSCEOLA%2C+IA+50213
"INTERDEPENDENT PHARMACY, LLC",404 NORTH SEYMOUR AVENUE,,"MUNDELEIN, IL 60060",http://maps.google.com/maps?q=INTERDEPENDENT%20PHARMACY%20LLC%2C404%20NORTH%20SEYMOUR%20AVENUE%2C+MUNDELEIN%2C+IL+60060
JESUP PHARMACY,1094 220TH STREET,,"JESUP, IA 50648",http://maps.google.com/maps?q=JESUP%20PHARMACY%2C1094%20220TH%20STREET%2C+JESUP%2C+IA+50648
LAKEVIEW NEUROREHAB CENTER,1701 SHARP ROAD,,"WATERFORD, WI 53185",http://maps.google.com/maps?q=LAKEVIEW%20NEUROREHAB%20CENTER%2C1701%20SHARP%20ROAD%2C+WATERFORD%2C+WI+53185
LAPORTE CITY PHARMACY,601 HIGHWAY 218 NORTH,,"LA PORTE CITY, IA 50651",http://maps.google.com/maps?q=LAPORTE%20CITY%20PHARMACY%2C601%20HIGHWAY%20218%20NORTH%2C+LA%20PORTE%20CITY%2C+IA+50651
LAWNDALE CHRISTIAN HLTH CTR,PHARMACY,3860 WEST OGDEN AVENUE,"CHICAGO, IL 60623",http://maps.google.com/maps?q=LAWNDALE%20CHRISTIAN%20HLTH%20CTR%2CPHARMACY%2C+CHICAGO%2C+IL+60623
LEGAL NAME:  NUDAK VENTURES LLC,4927 MAPLE DR,,"PLEASANT HILL, IA 50327",http://maps.google.com/maps?q=LEGAL%20NAME%20%20NUDAK%20VENTURES%20LLC%2C4927%20MAPLE%20DR%2C+PLEASANT%20HILL%2C+IA+50327
MEDICAL CENTER PHARMACY,1111 DELAFIELD STREET  SUITE 109,,"WAUKESHA, WI 53188",http://maps.google.com/maps?q=MEDICAL%20CENTER%20PHARMACY%2C1111%20DELAFIELD%20STREET%20%20SUITE%20109%2C+WAUKESHA%2C+WI+53188
MEDICAP PHARMACY,1300 EAST 14TH STREET,,"DES MOINES, IA 50316",http://maps.google.com/maps?q=MEDICAP%20PHARMACY%2C1300%20EAST%2014TH%20STREET%2C+DES%20MOINES%2C+IA+50316
MERCY FAMILY PHARMACY,MERCY HEALTH SERVICES IOWA,1920 ELM STREET,"DUBUQUE, IA 52001",http://maps.google.com/maps?q=MERCY%20FAMILY%20PHARMACY%2CMERCY%20HEALTH%20SERVICES%20IOWA%2C+DUBUQUE%2C+IA+52001
MERCY MEDICAL CENTER PHARMACY,1111 6TH AVENUE,,"DES MOINES, IA 50314",http://maps.google.com/maps?q=MERCY%20MEDICAL%20CENTER%20PHARMACY%2C1111%206TH%20AVENUE%2C+DES%20MOINES%2C+IA+50314
MEYER PHARMACY,110 10TH ST SW,PO BOX 785,"WAVERLY, IA 50677",http://maps.google.com/maps?q=MEYER%20PHARMACY%2C110%2010TH%20ST%20SW%2C+WAVERLY%2C+IA+50677
MONTROSS PHARMACY INC,118-120 N 1ST AVE,,"WINTERSET, IA 50273",http://maps.google.com/maps?q=MONTROSS%20PHARMACY%20INC%2C118-120%20N%201ST%20AVE%2C+WINTERSET%2C+IA+50273
"MTH, LLC",1919 W NORTH AVE,,"MILWAUKEE, WI 53205",http://maps.google.com/maps?q=MTH%20LLC%2C1919%20W%20NORTH%20AVE%2C+MILWAUKEE%2C+WI+53205
NORTHWESTERN MEMORIAL HOSP,251 E. HURON,,"CHICAGO, IL 60611",http://maps.google.com/maps?q=NORTHWESTERN%20MEMORIAL%20HOSP%2C251%20E.%20HURON%2C+CHICAGO%2C+IL+60611
NUCARA PHARMACY #20,119 N VINE,,"WEST UNION, IA 52175",http://maps.google.com/maps?q=NUCARA%20PHARMACY%2C119%20N%20VINE%2C+WEST%20UNION%2C+IA+52175
NUCARA PHARMACY #24,303 NICHOLAS DR,,"MARSHALLTOWN, IA 50158",http://maps.google.com/maps?q=NUCARA%20PHARMACY%2C303%20NICHOLAS%20DR%2C+MARSHALLTOWN%2C+IA+50158
NUDAK VENTURES LLC,2000 D SOUTH MAIN STREET,PO BOX 1027,"FAIRFIELD, IA 52556",http://maps.google.com/maps?q=NUDAK%20VENTURES%20LLC%2C2000%20D%20SOUTH%20MAIN%20STREET%2C+FAIRFIELD%2C+IA+52556
ONCOLOGY HEMATOLOGY ASSOC,8940 N. WOOD SAGE ROAD,,"PEORIA, IL 61615",http://maps.google.com/maps?q=ONCOLOGY%20HEMATOLOGY%20ASSOC%2C8940%20N.%20WOOD%20SAGE%20ROAD%2C+PEORIA%2C+IL+61615
OSF HEALTHCARE SYSTEM,5666 E. STATE STREET,,"ROCKFORD, IL 61108",http://maps.google.com/maps?q=OSF%20HEALTHCARE%20SYSTEM%2C5666%20E.%20STATE%20STREET%2C+ROCKFORD%2C+IL+61108
OSF HEALTHCARE SYSTEM D/B/A SAINT LUKE MEDICAL CEN,1051 W. SOUTH ST.,,"KEWANEE, IL 61443",http://maps.google.com/maps?q=OSF%20HEALTHCARE%20SYSTEM%20DBA%20SAINT%20LUKE%20MEDICAL%20CEN%2C1051%20W.%20SOUTH%20ST.%2C+KEWANEE%2C+IL+61443
OSF HOLY FAMILY MEDICAL CENTER,1000 WEST HARLEM AVENUE,,"MONMOUTH, IL 61462",http://maps.google.com/maps?q=OSF%20HOLY%20FAMILY%20MEDICAL%20CENTER%2C1000%20WEST%20HARLEM%20AVENUE%2C+MONMOUTH%2C+IL+61462
OSTERHAUS PHARMACY,918 W PLATT #2,,"MAQUOKETA, IA 52060",http://maps.google.com/maps?q=OSTERHAUS%20PHARMACY%2C918%20W%20PLATT%20#2%2C+MAQUOKETA%2C+IA+52060
PHARMACY MATTERS-LTC,"3526 DOLPHIN DRIVE, SE",,"IOWA CITY, IA 52240",http://maps.google.com/maps?q=PHARMACY%20MATTERSLTC%2C3526%20DOLPHIN%20DRIVE%2C%20SE%2C+IOWA%20CITY%2C+IA+52240
PINNOW PHARMACY,1028 FIRST CENTER AVENUE,,"BRODHEAD, WI 53520",http://maps.google.com/maps?q=PINNOW%20PHARMACY%2C1028%20FIRST%20CENTER%20AVENUE%2C+BRODHEAD%2C+WI+53520
PRAIRIE PARKWAY PHARMACY,5100 PRAIRIE PARKWAY STE 106,,"CEDAR FALLS, IA 50613",http://maps.google.com/maps?q=PRAIRIE%20PARKWAY%20PHARMACY%2C5100%20PRAIRIE%20PARKWAY%20STE%20106%2C+CEDAR%20FALLS%2C+IA+50613
PRESENCE RHC SENIOR SERVICES,100 N RIVER ROAD,,"DES PLAINES, IL 60016",http://maps.google.com/maps?q=PRESENCE%20RHC%20SENIOR%20SERVICES%2C100%20N%20RIVER%20ROAD%2C+DES%20PLAINES%2C+IL+60016
PROHEALTH CARE PHARMACY,791 SUMMIT AVE,,"OCONOMOWOC, WI 53066",http://maps.google.com/maps?q=PROHEALTH%20CARE%20PHARMACY%2C791%20SUMMIT%20AVE%2C+OCONOMOWOC%2C+WI+53066
PROHEALTH PHARMACY - PEWAUKEE,N16W24131 RIVERWOOD DR,,"WAUKESHA, WI 53188",http://maps.google.com/maps?q=PROHEALTH%20PHARMACY%20%20PEWAUKEE%2CN16W24131%20RIVERWOOD%20DR%2C+WAUKESHA%2C+WI+53188
RIPON MEDICAL CENTER,845 PARKSIDE STREET,,"RIPON, WI 54971",http://maps.google.com/maps?q=RIPON%20MEDICAL%20CENTER%2C845%20PARKSIDE%20STREET%2C+RIPON%2C+WI+54971
ROCHELLE COMMUNITY HOSPITAL ASSOC,900 N 2ND ST,,"ROCHELLE, IL 61068",http://maps.google.com/maps?q=ROCHELLE%20COMMUNITY%20HOSPITAL%20ASSOC%2C900%20N%202ND%20ST%2C+ROCHELLE%2C+IL+61068
RYAN PHARMACY,1600 FIRST STREET EAST,,"INDEPENDENCE, IA 50644",http://maps.google.com/maps?q=RYAN%20PHARMACY%2C1600%20FIRST%20STREET%20EAST%2C+INDEPENDENCE%2C+IA+50644
SCOTT PHARMACY,238 S MAIN,PO BOX 188,"FAYETTE, IA 52142",http://maps.google.com/maps?q=SCOTT%20PHARMACY%2C238%20S%20MAIN%2C+FAYETTE%2C+IA+52142
SCOTT'S THRIFTY WHITE DRUG,629 6TH AVE,,"DE WITT, IA 52742",http://maps.google.com/maps?q=SCOTTS%20THRIFTY%20WHITE%20DRUG%2C629%206TH%20AVE%2C+DE%20WITT%2C+IA+52742
SHOPKO PHARMACY #2676,1901 COURT AVE,,"CHARITON, IA 50049",http://maps.google.com/maps?q=SHOPKO%20PHARMACY%2C1901%20COURT%20AVE%2C+CHARITON%2C+IA+50049
SHOPKO PHARMACY #2684,106 SMITH ST,,"BLOOMFIELD, IA 52537",http://maps.google.com/maps?q=SHOPKO%20PHARMACY%2C106%20SMITH%20ST%2C+BLOOMFIELD%2C+IA+52537
ST AGNES HOSPITAL,DEPARTMENT OF PHARMACY,430 EAST DIVISION STREET,"FOND DU LAC, WI 54935",http://maps.google.com/maps?q=ST%20AGNES%20HOSPITAL%2CDEPARTMENT%20OF%20PHARMACY%2C+FOND%20DU%20LAC%2C+WI+54935
ST MARY'S MEDICAL CENTER,3333 N SEMINARY,,"GALESBURG, IL 61401",http://maps.google.com/maps?q=ST%20MARYS%20MEDICAL%20CENTER%2C3333%20N%20SEMINARY%2C+GALESBURG%2C+IL+61401
SWEET MEDICINE PRESCR PLUS,155 N MAIN STREET,PO BOX 284,"IOLA, WI 54945",http://maps.google.com/maps?q=SWEET%20MEDICINE%20PRESCR%20PLUS%2C155%20N%20MAIN%20STREET%2C+IOLA%2C+WI+54945
SYMBRIA RX SERVICES LLC,350 W. SCHAUMBURG ROAD,SUITE PWD,"SCHAUMBURG, IL 60194",http://maps.google.com/maps?q=SYMBRIA%20RX%20SERVICES%20LLC%2C350%20W.%20SCHAUMBURG%20ROAD%2C+SCHAUMBURG%2C+IL+60194
THIES LOMBARD PHARMACY INC,805 S MAIN STREET,SUITE 8,"LOMBARD, IL 60148",http://maps.google.com/maps?q=THIES%20LOMBARD%20PHARMACY%20INC%2C805%20S%20MAIN%20STREET%2C+LOMBARD%2C+IL+60148
THRIFTY WHITE PHARMACY #080,2720 SOUTH 163RD STREET,,"NEW BERLIN, WI 53151",http://maps.google.com/maps?q=THRIFTY%20WHITE%20PHARMACY%2C2720%20SOUTH%20163RD%20STREET%2C+NEW%20BERLIN%2C+WI+53151
UI HEALTH CARE - RIVER CROSSING PHARMACY,3056 RIVER CROSSING COURT,SUITE A,"RIVERSIDE, IA 52327",http://maps.google.com/maps?q=UI%20HEALTH%20CARE%20%20RIVER%20CROSSING%20PHARMACY%2C3056%20RIVER%20CROSSING%20COURT%2C+RIVERSIDE%2C+IA+52327
UI HEALTHCARE-IOWA RIVER LANDING PHARMACY,105 E 9TH ST,,"CORALVILLE, IA 52241",http://maps.google.com/maps?q=UI%20HEALTHCAREIOWA%20RIVER%20LANDING%20PHARMACY%2C105%20E%209TH%20ST%2C+CORALVILLE%2C+IA+52241
UNIV OF IA HOSP & CLINICS,PHARMACY DEPARTMENT,200 HAWKINS DRIVE,"IOWA CITY, IA 52242",http://maps.google.com/maps?q=UNIV%20OF%20IA%20HOSP%20%20CLINICS%2CPHARMACY%20DEPARTMENT%2C+IOWA%20CITY%2C+IA+52242
UNIV OF NO IOWA HEALTH CTR,STUDENT HEALTH CTR UNIV OF N IOWA,23RD ST,"CEDAR FALLS, IA 50614",http://maps.google.com/maps?q=UNIV%20OF%20NO%20IOWA%20HEALTH%20CTR%2CSTUDENT%20HEALTH%20CTR%20UNIV%20OF%20N%20IOWA%2C+CEDAR%20FALLS%2C+IA+50614
UNIVERSITY OF CHICAGO DCAM OUTPATIENT PHARMACY,5758 S. MARYLAND AVENUE,MC0010,"CHICAGO, IL 60637",http://maps.google.com/maps?q=UNIVERSITY%20OF%20CHICAGO%20DCAM%20OUTPATIENT%20PHARMACY%2C5758%20S.%20MARYLAND%20AVENUE%2C+CHICAGO%2C+IL+60637
US ARMY- HEALTH CLINIC PHARMACY,PHARMACY,ROCK ISLAND ARSENAL,"ROCK ISLAND, IL 61299",http://maps.google.com/maps?q=US%20ARMY%20HEALTH%20CLINIC%20PHARMACY%2CPHARMACY%2C+ROCK%20ISLAND%2C+IL+61299
UW HEALTH PHARMACY SERVICES,4602 EASTPARK BLVD,,"MADISON, WI 53718",http://maps.google.com/maps?q=UW%20HEALTH%20PHARMACY%20SERVICES%2C4602%20EASTPARK%20BLVD%2C+MADISON%2C+WI+53718
VALUMED PHARMACY,"4105 WESTCOR CT., STE. 1",,"CORALVILLE, IA 52241",http://maps.google.com/maps?q=VALUMED%20PHARMACY%2C4105%20WESTCOR%20CT.%2C%20STE.%201%2C+CORALVILLE%2C+IA+52241
VORAC PHARMACY LLC,114 S. STATE ST.,,"GENESEO, IL 61254",http://maps.google.com/maps?q=VORAC%20PHARMACY%20LLC%2C114%20S.%20STATE%20ST.%2C+GENESEO%2C+IL+61254
WAGNER PHARMACY 1 CO,1726 N 2ND ST,,"CLINTON, IA 52732",http://maps.google.com/maps?q=WAGNER%20PHARMACY%20%20CO%2C1726%20N%202ND%20ST%2C+CLINTON%2C+IA+52732
WALGREEN CO.,1021 SUMMIT AVE.,,"OCONOMOWOC, WI 53066",http://maps.google.com/maps?q=WALGREEN%20CO%2C1021%20SUMMIT%20AVE.%2C+OCONOMOWOC%2C+WI+53066
WALGREEN CO.,1028 S ELMHURST ROAD,,"MT PROSPECT, IL 60056",http://maps.google.com/maps?q=WALGREEN%20CO%2C1028%20S%20ELMHURST%20ROAD%2C+MT%20PROSPECT%2C+IL+60056
WALGREEN CO.,1029 N 14TH ST,,"SHEBOYGAN, WI 53081",http://maps.google.com/maps?q=WALGREEN%20CO%2C1029%20N%2014TH%20ST%2C+SHEBOYGAN%2C+WI+53081
WALGREEN CO.,104 E EUCLID AVE,,"DES MOINES, IA 50313",http://maps.google.com/maps?q=WALGREEN%20CO%2C104%20E%20EUCLID%20AVE%2C+DES%20MOINES%2C+IA+50313
WALGREEN CO.,108 WILMOT RD.,,"DEERFIELD, IL 60015",http://maps.google.com/maps?q=WALGREEN%20CO%2C108%20WILMOT%20RD.%2C+DEERFIELD%2C+IL+60015
WALGREEN CO.,111 W RIDGEWAY AVE,,"WATERLOO, IA 50701",http://maps.google.com/maps?q=WALGREEN%20CO%2C111%20W%20RIDGEWAY%20AVE%2C+WATERLOO%2C+IA+50701
WALGREEN CO.,12753 UNIVERSITY AVE,,"CLIVE, IA 50325",http://maps.google.com/maps?q=WALGREEN%20CO%2C12753%20UNIVERSITY%20AVE%2C+CLIVE%2C+IA+50325
WALGREEN CO.,1340 DEKALB AVE,,"SYCAMORE, IL 60178",http://maps.google.com/maps?q=WALGREEN%20CO%2C1340%20DEKALB%20AVE%2C+SYCAMORE%2C+IL+60178
WALGREEN CO.,151 N. STATE ST.,,"CHICAGO, IL 60601",http://maps.google.com/maps?q=WALGREEN%20CO%2C151%20N.%20STATE%20ST.%2C+CHICAGO%2C+IL+60601
WALGREEN CO.,1525 E KIMBERLY RD,,"DAVENPORT, IA 52807",http://maps.google.com/maps?q=WALGREEN%20CO%2C1525%20E%20KIMBERLY%20RD%2C+DAVENPORT%2C+IA+52807
WALGREEN CO.,15650 W GREENFIELD AVE,,"BROOKFIELD, WI 53005",http://maps.google.com/maps?q=WALGREEN%20CO%2C15650%20W%20GREENFIELD%20AVE%2C+BROOKFIELD%2C+WI+53005
WALGREEN CO.,1660 W LOCUST ST,,"DAVENPORT, IA 52804",http://maps.google.com/maps?q=WALGREEN%20CO%2C1660%20W%20LOCUST%20ST%2C+DAVENPORT%2C+IA+52804
WALGREEN CO.,1700 LARKIN AVE,,"ELGIN, IL 60123",http://maps.google.com/maps?q=WALGREEN%20CO%2C1700%20LARKIN%20AVE%2C+ELGIN%2C+IL+60123
WALGREEN CO.,1717 MILTON AVENUE,,"JANESVILLE, WI 53545",http://maps.google.com/maps?q=WALGREEN%20CO%2C1717%20MILTON%20AVENUE%2C+JANESVILLE%2C+WI+53545
WALGREEN CO.,2001 N MILWAUKEE AVE,,"CHICAGO, IL 60647",http://maps.google.com/maps?q=WALGREEN%20CO%2C2001%20N%20MILWAUKEE%20AVE%2C+CHICAGO%2C+IL+60647
WALGREEN CO.,2214 MUSCATINE AVE,,"IOWA CITY, IA 52240",http://maps.google.com/maps?q=WALGREEN%20CO%2C2214%20MUSCATINE%20AVE%2C+IOWA%20CITY%2C+IA+52240
WALGREEN CO.,2545 E EUCLID,,"DES MOINES, IA 50317",http://maps.google.com/maps?q=WALGREEN%20CO%2C2545%20E%20EUCLID%2C+DES%20MOINES%2C+IA+50317
WALGREEN CO.,3140 SE 14TH ST,,"DES MOINES, IA 50320",http://maps.google.com/maps?q=WALGREEN%20CO%2C3140%20SE%2014TH%20ST%2C+DES%20MOINES%2C+IA+50320
WALGREEN CO.,324 ROOSEVELT ROAD,,"GLEN ELLYN, IL 60137",http://maps.google.com/maps?q=WALGREEN%20CO%2C324%20ROOSEVELT%20ROAD%2C+GLEN%20ELLYN%2C+IL+60137
WALGREEN CO.,3325 16TH AVENUE SW,,"CEDAR RAPIDS, IA 52404",http://maps.google.com/maps?q=WALGREEN%20CO%2C3325%2016TH%20AVENUE%20SW%2C+CEDAR%20RAPIDS%2C+IA+52404
WALGREEN CO.,3405 S KING DR,,"CHICAGO, IL 60616",http://maps.google.com/maps?q=WALGREEN%20CO%2C3405%20S%20KING%20DR%2C+CHICAGO%2C+IL+60616
WALGREEN CO.,3522 W WISCONSIN,,"MILWAUKEE, WI 53208",http://maps.google.com/maps?q=WALGREEN%20CO%2C3522%20W%20WISCONSIN%2C+MILWAUKEE%2C+WI+53208
WALGREEN CO.,3701 S HOWELL AVE,,"MILWAUKEE, WI 53207",http://maps.google.com/maps?q=WALGREEN%20CO%2C3701%20S%20HOWELL%20AVE%2C+MILWAUKEE%2C+WI+53207
WALGREEN CO.,3710 E WASHINGTON AVE,,"MADISON, WI 53704",http://maps.google.com/maps?q=WALGREEN%20CO%2C3710%20E%20WASHINGTON%20AVE%2C+MADISON%2C+WI+53704
WALGREEN CO.,3805 80TH ST.,,"KENOSHA, WI 53142",http://maps.google.com/maps?q=WALGREEN%20CO%2C3805%2080TH%20ST.%2C+KENOSHA%2C+WI+53142
WALGREEN CO.,4010 W LAWRENCE AVE,,"CHICAGO, IL 60630",http://maps.google.com/maps?q=WALGREEN%20CO%2C4010%20W%20LAWRENCE%20AVE%2C+CHICAGO%2C+IL+60630
WALGREEN CO.,4296 S 76TH STREET,,"GREENFIELD, WI 53220",http://maps.google.com/maps?q=WALGREEN%20CO%2C4296%20S%2076TH%20STREET%2C+GREENFIELD%2C+WI+53220
WALGREEN CO.,4415 DOUGLAS AVE,,"DES MOINES, IA 50310",http://maps.google.com/maps?q=WALGREEN%20CO%2C4415%20DOUGLAS%20AVE%2C+DES%20MOINES%2C+IA+50310
WALGREEN CO.,4810 WASHINGTON AVE,,"RACINE, WI 53406",http://maps.google.com/maps?q=WALGREEN%20CO%2C4810%20WASHINGTON%20AVE%2C+RACINE%2C+WI+53406
WALGREEN CO.,5065 HONONEGAH RD,,"ROSCOE, IL 61073",http://maps.google.com/maps?q=WALGREEN%20CO%2C5065%20HONONEGAH%20RD%2C+ROSCOE%2C+IL+61073
WALGREEN CO.,55 J F KENNEDY RD,,"DUBUQUE, IA 52002",http://maps.google.com/maps?q=WALGREEN%20CO%2C55%20J%20F%20KENNEDY%20RD%2C+DUBUQUE%2C+IA+52002
WALGREEN CO.,6442 N 76TH STREET,,"MILWAUKEE, WI 53223",http://maps.google.com/maps?q=WALGREEN%20CO%2C6442%20N%2076TH%20STREET%2C+MILWAUKEE%2C+WI+53223
WALGREEN CO.,7113 CERMAK RD,,"BERWYN, IL 60402",http://maps.google.com/maps?q=WALGREEN%20CO%2C7113%20CERMAK%20RD%2C+BERWYN%2C+IL+60402
WALGREEN CO.,729 W. NORTHLAND AVE.,,"APPLETON, WI 54914",http://maps.google.com/maps?q=WALGREEN%20CO%2C729%20W.%20NORTHLAND%20AVE.%2C+APPLETON%2C+WI+54914
WALGREEN CO.,7600 W CAPITOL DRIVE,,"MILWAUKEE, WI 53222",http://maps.google.com/maps?q=WALGREEN%20CO%2C7600%20W%20CAPITOL%20DRIVE%2C+MILWAUKEE%2C+WI+53222
WALGREEN CO.,7810 MINERAL POINT RD,,"MADISON, WI 53717",http://maps.google.com/maps?q=WALGREEN%20CO%2C7810%20MINERAL%20POINT%20RD%2C+MADISON%2C+WI+53717
WALGREEN CO.,901 N ANKENY BLVD,,"ANKENY, IA 50023",http://maps.google.com/maps?q=WALGREEN%20CO%2C901%20N%20ANKENY%20BLVD%2C+ANKENY%2C+IA+50023
WALGREEN CO.,N83W15701 APPLETON AVE,,"MENOMONEE FALLS, WI 53051",http://maps.google.com/maps?q=WALGREEN%20CO%2CN83W15701%20APPLETON%20AVE%2C+MENOMONEE%20FALLS%2C+WI+53051
WAUKESHA HEALTH SERVICES,725 AMERICAN AVE,,"WAUKESHA, WI 53188",http://maps.google.com/maps?q=WAUKESHA%20HEALTH%20SERVICES%2C725%20AMERICAN%20AVE%2C+WAUKESHA%2C+WI+53188
WAUPUN MEMORIAL HOSPITAL,620 W. BROWN,,"WAUPUN, WI 53963",http://maps.google.com/maps?q=WAUPUN%20MEMORIAL%20HOSPITAL%2C620%20W.%20BROWN%2C+WAUPUN%2C+WI+53963
WELL FUTURE PHARMACY LLC,1442 S. MICHIGAN AVE.,,"CHICAGO, IL 60605",http://maps.google.com/maps?q=WELL%20FUTURE%20PHARMACY%20LLC%2C1442%20S.%20MICHIGAN%20AVE.%2C+CHICAGO%2C+IL+60605
"WILLIAM, BURKE, LTD",129 W LOCUST ST,,"DAVENPORT, IA 52803",http://maps.google.com/maps?q=WILLIAM%20BURKE%20LTD%2C129%20W%20LOCUST%20ST%2C+DAVENPORT%2C+IA+52803
"WISCONSIN CVS PHARMACY, L.L.C.",1561 W. MASON ST.,,"GREEN BAY, WI 54303",http://maps.google.com/maps?q=WISCONSIN%20CVS%20PHARMACY%20LLC%2C1561%20W.%20MASON%20ST.%2C+GREEN%20BAY%2C+WI+54303
"WISCONSIN CVS PHARMACY, L.L.C.",700 WEST WISCONSIN AVE.,,"APPLETON, WI 54914",http://maps.google.com/maps?q=WISCONSIN%20CVS%20PHARMACY%20LLC%2C700%20WEST%20WISCONSIN%20AVE.%2C+APPLETON%2C+WI+54914
"ZAIBAKPRN, LLC",8500 W. CAPITOL DR.,,"MILWAUKEE, WI 53222",http://maps.google.com/maps?q=ZAIBAKPRN%20LLC%2C8500%20W.%20CAPITOL%20DR.%2C+MILWAUKEE%2C+WI+53222
