Business Name,Address 1,Address 2,"City, State Zip",Map URL
AGH REDISCRIPTS PHARMACY,9733 HEALTHWAY DRIVE,,"BERLIN, MD 21811",http://maps.google.com/maps?q=AGH%20REDISCRIPTS%20PHARMACY%2C9733%20HEALTHWAY%20DRIVE%2C+BERLIN%2C+MD+21811
ALLIANCE PHARMACY CO,1245 HIGHLAND AVE,,"ABINGTON, PA 19001",http://maps.google.com/maps?q=ALLIANCE%20PHARMACY%20CO%2C1245%20HIGHLAND%20AVE%2C+ABINGTON%2C+PA+19001
APOTHECARY SOLUTIONS LLC,207 EAST MAIN STREET,,"REMINGTON, VA 22734",http://maps.google.com/maps?q=APOTHECARY%20SOLUTIONS%20LLC%2C207%20EAST%20MAIN%20STREET%2C+REMINGTON%2C+VA+22734
ARMED FORCES RETIREMENT HOME,"3700 NORTH CAPITOL ST, NW","SHERMAN BLDG, ROOM 103","WASHINGTON, DC 20011",http://maps.google.com/maps?q=ARMED%20FORCES%20RETIREMENT%20HOME%2C3700%20NORTH%20CAPITOL%20ST%2C%20NW%2C+WASHINGTON%2C+DC+20011
BELAIR MEDICINES INC,1911 BEL AIR RD,,"FALLSTON, MD 21047",http://maps.google.com/maps?q=BELAIR%20MEDICINES%20INC%2C1911%20BEL%20AIR%20RD%2C+FALLSTON%2C+MD+21047
"BELMONT BEHAVIORAL HOSPITAL, LLC",4200 MONUMENT ROAD,,"PHILADELPHIA, PA 19131",http://maps.google.com/maps?q=BELMONT%20BEHAVIORAL%20HOSPITAL%20LLC%2C4200%20MONUMENT%20ROAD%2C+PHILADELPHIA%2C+PA+19131
BROAD & LEHIGH PHARMACY,1300 WEST LEHIGH AVENUE,SUITE 102,"PHILADELPHIA, PA 19132",http://maps.google.com/maps?q=BROAD%20%20LEHIGH%20PHARMACY%2C1300%20WEST%20LEHIGH%20AVENUE%2C+PHILADELPHIA%2C+PA+19132
CLAYTON'S PHARMACY,404B WASHINGTON ST,,"CAMBRIDGE, MD 21613",http://maps.google.com/maps?q=CLAYTONS%20PHARMACY%2C404B%20WASHINGTON%20ST%2C+CAMBRIDGE%2C+MD+21613
CRISFIELD DISCOUNT PHARMACY,390 WEST MAIN STREET,UNIT-A,"CRISFIELD, MD 21817",http://maps.google.com/maps?q=CRISFIELD%20DISCOUNT%20PHARMACY%2C390%20WEST%20MAIN%20STREET%2C+CRISFIELD%2C+MD+21817
CUREXA,236 E JIMMIE LEEDS ROAD,SUITE C,"GALLOWAY, NJ 08205",http://maps.google.com/maps?q=CUREXA%2C236%20E%20JIMMIE%20LEEDS%20ROAD%2C+GALLOWAY%2C+NJ+08205
"DISTRICT OF COLUMBIA CVS PHARMACY, L.L.C.",320 40TH STREET NE,,"WASHINGTON, DC 20019",http://maps.google.com/maps?q=DISTRICT%20OF%20COLUMBIA%20CVS%20PHARMACY%20LLC%2C320%2040TH%20STREET%20NE%2C+WASHINGTON%2C+DC+20019
"DISTRICT OF COLUMBIA CVS PHARMACY, L.L.C.",6-7 DUPONT CIRCLE NW,,"WASHINGTON, DC 20036",http://maps.google.com/maps?q=DISTRICT%20OF%20COLUMBIA%20CVS%20PHARMACY%20LLC%2C6-7%20DUPONT%20CIRCLE%20NW%2C+WASHINGTON%2C+DC+20036
"DISTRICT OF COLUMBIA CVS PHARMACY, L.L.C.",6514 GEORGIA AVENUE NW,,"WASHINGTON, DC 20012",http://maps.google.com/maps?q=DISTRICT%20OF%20COLUMBIA%20CVS%20PHARMACY%20LLC%2C6514%20GEORGIA%20AVENUE%20NW%2C+WASHINGTON%2C+DC+20012
"DRUG CITY PHARMACY, LLC",2805 NORTH POINT RD,,"BALTIMORE, MD 21222",http://maps.google.com/maps?q=DRUG%20CITY%20PHARMACY%20LLC%2C2805%20NORTH%20POINT%20RD%2C+BALTIMORE%2C+MD+21222
ERIC'S RX SHOPPE LLC,810 WELSH ROAD,,"HORSHAM, PA 19044",http://maps.google.com/maps?q=ERICS%20RX%20SHOPPE%20LLC%2C810%20WELSH%20ROAD%2C+HORSHAM%2C+PA+19044
FAMILY CARE-REMINGTON INC.,208 E. MADISON ST.,,"REMINGTON, VA 22734",http://maps.google.com/maps?q=FAMILY%20CAREREMINGTON%20INC%2C208%20E.%20MADISON%20ST.%2C+REMINGTON%2C+VA+22734
FAMILY MEDS INC,12114 OLD LINE CENTER UNIT R-7A,,"WALDORF, MD 20602",http://maps.google.com/maps?q=FAMILY%20MEDS%20INC%2C12114%20OLD%20LINE%20CENTER%20UNIT%20R-7A%2C+WALDORF%2C+MD+20602
FAMILY PHARMACY SERVICES,303 WEST 10TH STREET,,"FRONT ROYAL, VA 22630",http://maps.google.com/maps?q=FAMILY%20PHARMACY%20SERVICES%2C303%20WEST%2010TH%20STREET%2C+FRONT%20ROYAL%2C+VA+22630
GLADWYNE PHARMACY,352 RIGHTERS MILL RD,,"GLADWYNE, PA 19035",http://maps.google.com/maps?q=GLADWYNE%20PHARMACY%2C352%20RIGHTERS%20MILL%20RD%2C+GLADWYNE%2C+PA+19035
"H&M SPECIALTY RX,INC",5454 WISCONSIN AVE,#400,"CHEVY CHASE, MD 20815",http://maps.google.com/maps?q=HM%20SPECIALTY%20RXINC%2C5454%20WISCONSIN%20AVE%2C+CHEVY%20CHASE%2C+MD+20815
HANSON PHARMACY,2110 CRAIN HWY,,"WALDORF, MD 20601",http://maps.google.com/maps?q=HANSON%20PHARMACY%2C2110%20CRAIN%20HWY%2C+WALDORF%2C+MD+20601
HAPPY HARRY'S INC.,1001 FORREST AVE,,"DOVER, DE 19904",http://maps.google.com/maps?q=HAPPY%20HARRYS%20INC%2C1001%20FORREST%20AVE%2C+DOVER%2C+DE+19904
HAPPY HARRY'S INC.,1120 PULASKI HIGHWAY,,"BEAR, DE 19701",http://maps.google.com/maps?q=HAPPY%20HARRYS%20INC%2C1120%20PULASKI%20HIGHWAY%2C+BEAR%2C+DE+19701
HAPPY HARRY'S INC.,17239 FIVE POINTS SQUARE,,"LEWES, DE 19958",http://maps.google.com/maps?q=HAPPY%20HARRYS%20INC%2C17239%20FIVE%20POINTS%20SQUARE%2C+LEWES%2C+DE+19958
HAPPY HARRY'S INC.,22898 SUSSEX HWY,,"SEAFORD, DE 19973",http://maps.google.com/maps?q=HAPPY%20HARRYS%20INC%2C22898%20SUSSEX%20HWY%2C+SEAFORD%2C+DE+19973
HAPPY HARRY'S INC.,6317 LIMESTONE ROAD,,"HOCKESSIN, DE 19707",http://maps.google.com/maps?q=HAPPY%20HARRYS%20INC%2C6317%20LIMESTONE%20ROAD%2C+HOCKESSIN%2C+DE+19707
HAPPY HARRY'S INC.,CHESTNUT RUN,1710 FAULKLAND ROAD,"WILMINGTON, DE 19805",http://maps.google.com/maps?q=HAPPY%20HARRYS%20INC%2CCHESTNUT%20RUN%2C+WILMINGTON%2C+DE+19805
HAPPY HARRY'S INC.,FAIRFAX SHOPPING CENTER,2119 CONCORD PIKE,"WILMINGTON, DE 19803",http://maps.google.com/maps?q=HAPPY%20HARRYS%20INC%2CFAIRFAX%20SHOPPING%20CENTER%2C+WILMINGTON%2C+DE+19803
HAPPY HARRY'S INC.,SUBURBAN PLAZA,216 SUBURBAN DRIVE,"NEWARK, DE 19711",http://maps.google.com/maps?q=HAPPY%20HARRYS%20INC%2CSUBURBAN%20PLAZA%2C+NEWARK%2C+DE+19711
"HAPPY HARRY'S, INC.",648 NW FRONT ST.,,"MILFORD, DE 19963",http://maps.google.com/maps?q=HAPPY%20HARRYS%20INC%2C648%20NW%20FRONT%20ST.%2C+MILFORD%2C+DE+19963
HIGH ST DISCOUNT PHARMACY,30 HIGH ST,,"WALDORF, MD 20602",http://maps.google.com/maps?q=HIGH%20ST%20DISCOUNT%20PHARMACY%2C30%20HIGH%20ST%2C+WALDORF%2C+MD+20602
INDIAN HEAD CARE PHARMACY,4115 INDIAN HEAD HWY.,,"INDIAN HEAD, MD 20640",http://maps.google.com/maps?q=INDIAN%20HEAD%20CARE%20PHARMACY%2C4115%20INDIAN%20HEAD%20HWY.%2C+INDIAN%20HEAD%2C+MD+20640
INOVA LOUDOUN HOSPITAL,44045 RIVERSIDE PARKWAY,,"LEESBURG, VA 20176",http://maps.google.com/maps?q=INOVA%20LOUDOUN%20HOSPITAL%2C44045%20RIVERSIDE%20PARKWAY%2C+LEESBURG%2C+VA+20176
INOVA PHARMACY PLUS AT INOVA FAIR OAKS,3600 JOSEPH SIEWICK DRIVE,,"FAIRFAX, VA 22033",http://maps.google.com/maps?q=INOVA%20PHARMACY%20PLUS%20AT%20INOVA%20FAIR%20OAKS%2C3600%20JOSEPH%20SIEWICK%20DRIVE%2C+FAIRFAX%2C+VA+22033
"JEFFEX, INC.",111 S 11TH STREET,SUITE 1850,"PHILADELPHIA, PA 19107",http://maps.google.com/maps?q=JEFFEX%20INC%2C111%20S%2011TH%20STREET%2C+PHILADELPHIA%2C+PA+19107
"JOHNS HOPKINS BAYVIEW MED CTR, INC",4940 EASTERN AVENUE,"BMO BUILDING, ROOM 01-0154","BALTIMORE, MD 21224",http://maps.google.com/maps?q=JOHNS%20HOPKINS%20BAYVIEW%20MED%20CTR%20INC%2C4940%20EASTERN%20AVENUE%2C+BALTIMORE%2C+MD+21224
JOHNS HOPKINS OUTPATIENT PHARMACY AT THE ARCADE,"ZAYED-BLOOMBERG BUILDING, M2125",1800 ORLEANS STREET,"BALTIMORE, MD 21287",http://maps.google.com/maps?q=JOHNS%20HOPKINS%20OUTPATIENT%20PHARMACY%20AT%20THE%20ARCADE%2CZAYED-BLOOMBERG%20BUILDING%2C%20M2125%2C+BALTIMORE%2C+MD+21287
KAISER,BURKE PHARMACY,5999 BURKE COMMONS ROAD,"BURKE, VA 22015",http://maps.google.com/maps?q=KAISER%2CBURKE%20PHARMACY%2C+BURKE%2C+VA+22015
KAISER PERM ASHBURN PHARMACY,43480 YUKON DRIVE SUITE 100,,"ASHBURN, VA 20147",http://maps.google.com/maps?q=KAISER%20PERM%20ASHBURN%20PHARMACY%2C43480%20YUKON%20DRIVE%20SUITE%20100%2C+ASHBURN%2C+VA+20147
KAISER PERMANENTE FREDERICKSBURG PHARMACY,1201 HOSPITAL DRIVE,,"FREDERICKSBURG, VA 22401",http://maps.google.com/maps?q=KAISER%20PERMANENTE%20FREDERICKSBURG%20PHARMACY%2C1201%20HOSPITAL%20DRIVE%2C+FREDERICKSBURG%2C+VA+22401
KAISER PERMANENTE MANASSAS PH,10701 ROSEMARY DRIVE,,"MANASSAS, VA 20109",http://maps.google.com/maps?q=KAISER%20PERMANENTE%20MANASSAS%20PH%2C10701%20ROSEMARY%20DRIVE%2C+MANASSAS%2C+VA+20109
KAISER PERMANENTE SPRINGFIELD,6501 LOISDALE COURT,,"SPRINGFIELD, VA 22150",http://maps.google.com/maps?q=KAISER%20PERMANENTE%20SPRINGFIELD%2C6501%20LOISDALE%20COURT%2C+SPRINGFIELD%2C+VA+22150
KAISER PERMANENTE TYSONS CORNER PHARMACY,8008 WESTPARK DRIVE,,"MCLEAN, VA 22102",http://maps.google.com/maps?q=KAISER%20PERMANENTE%20TYSONS%20CORNER%20PHARMACY%2C8008%20WESTPARK%20DRIVE%2C+MCLEAN%2C+VA+22102
KAISER-PERMANENTE RESTON PHCY,1890 METRO CENTER DRIVE,,"RESTON, VA 20190",http://maps.google.com/maps?q=KAISERPERMANENTE%20RESTON%20PHCY%2C1890%20METRO%20CENTER%20DRIVE%2C+RESTON%2C+VA+20190
LAPLATA PHARMACY,6501 CRAIN HIGHWAY,,"LA PLATA, MD 20646",http://maps.google.com/maps?q=LAPLATA%20PHARMACY%2C6501%20CRAIN%20HIGHWAY%2C+LA%20PLATA%2C+MD+20646
LESTER & MOWERY'S  PHARMACY,20 SOUTH STREET,,"FRONT ROYAL, VA 22630",http://maps.google.com/maps?q=LESTER%20%20MOWERYS%20%20PHARMACY%2C20%20SOUTH%20STREET%2C+FRONT%20ROYAL%2C+VA+22630
M TIMBERLAKE INC,322 E MAIN ST,,"CHARLOTTESVILLE, VA 22902",http://maps.google.com/maps?q=M%20TIMBERLAKE%20INC%2C322%20E%20MAIN%20ST%2C+CHARLOTTESVILLE%2C+VA+22902
MARION PHARMACY,26427 BURTON AVENUE,,"CRISFIELD, MD 21817",http://maps.google.com/maps?q=MARION%20PHARMACY%2C26427%20BURTON%20AVENUE%2C+CRISFIELD%2C+MD+21817
MARTHA JEFFERSON HOSPITAL,PHARMACY SERVICES,500 MARTHA JEFFERSON DRIVE,"CHARLOTTESVILLE, VA 22911",http://maps.google.com/maps?q=MARTHA%20JEFFERSON%20HOSPITAL%2CPHARMACY%20SERVICES%2C+CHARLOTTESVILLE%2C+VA+22911
"MARYLAND CVS PHARMACY, L.L.C",24288 THREE NOTCH RD.,,"HOLLYWOOD, MD 20636",http://maps.google.com/maps?q=MARYLAND%20CVS%20PHARMACY%20LLC%2C24288%20THREE%20NOTCH%20RD.%2C+HOLLYWOOD%2C+MD+20636
"MARYLAND CVS PHARMACY, L.L.C.",1001 YORK ROAD,,"TOWSON, MD 21204",http://maps.google.com/maps?q=MARYLAND%20CVS%20PHARMACY%20LLC%2C1001%20YORK%20ROAD%2C+TOWSON%2C+MD+21204
"MARYLAND CVS PHARMACY, L.L.C.",15100 BALTIMORE AVE.,,"LAUREL, MD 20707",http://maps.google.com/maps?q=MARYLAND%20CVS%20PHARMACY%20LLC%2C15100%20BALTIMORE%20AVE.%2C+LAUREL%2C+MD+20707
"MARYLAND CVS PHARMACY, L.L.C.",19100 MONTGOMERY VILLAGE AVE.,,"GAITHERSBURG, MD 20886",http://maps.google.com/maps?q=MARYLAND%20CVS%20PHARMACY%20LLC%2C19100%20MONTGOMERY%20VILLAGE%20AVE.%2C+GAITHERSBURG%2C+MD+20886
"MARYLAND CVS PHARMACY, L.L.C.",2003 DAVIDSONVILLE RD.,,"CROFTON, MD 21114",http://maps.google.com/maps?q=MARYLAND%20CVS%20PHARMACY%20LLC%2C2003%20DAVIDSONVILLE%20RD.%2C+CROFTON%2C+MD+21114
"MARYLAND CVS PHARMACY, L.L.C.",2601 RIVA RD.,,"ANNAPOLIS, MD 21401",http://maps.google.com/maps?q=MARYLAND%20CVS%20PHARMACY%20LLC%2C2601%20RIVA%20RD.%2C+ANNAPOLIS%2C+MD+21401
"MARYLAND CVS PHARMACY, L.L.C.",28 MAGOTHY BEACH RD.,,"PASADENA, MD 21122",http://maps.google.com/maps?q=MARYLAND%20CVS%20PHARMACY%20LLC%2C28%20MAGOTHY%20BEACH%20RD.%2C+PASADENA%2C+MD+21122
"MARYLAND CVS PHARMACY, L.L.C.",3110 OLNEY SANDY SPRING RD.,,"OLNEY, MD 20832",http://maps.google.com/maps?q=MARYLAND%20CVS%20PHARMACY%20LLC%2C3110%20OLNEY%20SANDY%20SPRING%20RD.%2C+OLNEY%2C+MD+20832
"MARYLAND CVS PHARMACY, L.L.C.",3300A CENTENNIAL LANE,,"ELLICOTT CITY, MD 21042",http://maps.google.com/maps?q=MARYLAND%20CVS%20PHARMACY%20LLC%2C3300A%20CENTENNIAL%20LANE%2C+ELLICOTT%20CITY%2C+MD+21042
"MARYLAND CVS PHARMACY, L.L.C.",3715 UNIVERSITY BOULEVARD WEST,,"KENSINGTON, MD 20895",http://maps.google.com/maps?q=MARYLAND%20CVS%20PHARMACY%20LLC%2C3715%20UNIVERSITY%20BOULEVARD%20WEST%2C+KENSINGTON%2C+MD+20895
"MARYLAND CVS PHARMACY, L.L.C.",402 SO. JEFFERSON STREET,,"FREDERICK, MD 21701",http://maps.google.com/maps?q=MARYLAND%20CVS%20PHARMACY%20LLC%2C402%20SO.%20JEFFERSON%20STREET%2C+FREDERICK%2C+MD+21701
"MARYLAND CVS PHARMACY, L.L.C.",5870 SILVER HILL RD,SILVER HILL PLAZA,"DISTRICT HEIGHTS, MD 20747",http://maps.google.com/maps?q=MARYLAND%20CVS%20PHARMACY%20LLC%2C5870%20SILVER%20HILL%20RD%2C+DISTRICT%20HEIGHTS%2C+MD+20747
"MARYLAND CVS PHARMACY, L.L.C.",6260 CRAIN HWY.,,"LA PLATA, MD 20646",http://maps.google.com/maps?q=MARYLAND%20CVS%20PHARMACY%20LLC%2C6260%20CRAIN%20HWY.%2C+LA%20PLATA%2C+MD+20646
"MARYLAND CVS PHARMACY, L.L.C.",6480 OLD WATERLOO RD,,"ELKRIDGE, MD 21075",http://maps.google.com/maps?q=MARYLAND%20CVS%20PHARMACY%20LLC%2C6480%20OLD%20WATERLOO%20RD%2C+ELKRIDGE%2C+MD+21075
"MARYLAND CVS PHARMACY, L.L.C.",7607 GREENBELT ROAD,,"GREENBELT, MD 20770",http://maps.google.com/maps?q=MARYLAND%20CVS%20PHARMACY%20LLC%2C7607%20GREENBELT%20ROAD%2C+GREENBELT%2C+MD+20770
"MARYLAND CVS PHARMACY, L.L.C.",7845 WISE AVE.,,"BALTIMORE, MD 21222",http://maps.google.com/maps?q=MARYLAND%20CVS%20PHARMACY%20LLC%2C7845%20WISE%20AVE.%2C+BALTIMORE%2C+MD+21222
"MARYLAND CVS PHARMACY, L.L.C.",7955 TUCKERMAN LANE,,"ROCKVILLE, MD 20854",http://maps.google.com/maps?q=MARYLAND%20CVS%20PHARMACY%20LLC%2C7955%20TUCKERMAN%20LANE%2C+ROCKVILLE%2C+MD+20854
"MARYLAND CVS PHARMACY, L.L.C.",8859 BRANCH AVENUE,,"CLINTON, MD 20735",http://maps.google.com/maps?q=MARYLAND%20CVS%20PHARMACY%20LLC%2C8859%20BRANCH%20AVENUE%2C+CLINTON%2C+MD+20735
"MARYLAND CVS PHARMACY, L.L.C.",9920 KEY WEST AVE,,"ROCKVILLE, MD 20850",http://maps.google.com/maps?q=MARYLAND%20CVS%20PHARMACY%20LLC%2C9920%20KEY%20WEST%20AVE%2C+ROCKVILLE%2C+MD+20850
MASONIC HOMES PHARMACY,99 MASONIC DRIVE,,"ELIZABETHTOWN, PA 17022",http://maps.google.com/maps?q=MASONIC%20HOMES%20PHARMACY%2C99%20MASONIC%20DRIVE%2C+ELIZABETHTOWN%2C+PA+17022
MCELROY PHARMACY INC,100 E MAIN ST,P.O. BOX 283,"LITITZ, PA 17543",http://maps.google.com/maps?q=MCELROY%20PHARMACY%20INC%2C100%20E%20MAIN%20ST%2C+LITITZ%2C+PA+17543
MEDICINE CHEST PHARMACY,6823 OLD DOMINION DRIVE,,"MCLEAN, VA 22101",http://maps.google.com/maps?q=MEDICINE%20CHEST%20PHARMACY%2C6823%20OLD%20DOMINION%20DRIVE%2C+MCLEAN%2C+VA+22101
MEDSTAR PHARMACY (STORE #7),3305 N. LEISUREWORLD BOULEVARD,,"SILVER SPRING, MD 20906",http://maps.google.com/maps?q=MEDSTAR%20PHARMACY%20STORE%2C3305%20N.%20LEISUREWORLD%20BOULEVARD%2C+SILVER%20SPRING%2C+MD+20906
MERCY PHARMACY,1503 LANSDOWNE AVENUE,SUITE 1000,"DARBY, PA 19023",http://maps.google.com/maps?q=MERCY%20PHARMACY%2C1503%20LANSDOWNE%20AVENUE%2C+DARBY%2C+PA+19023
METHODIST HOSPITAL APOTHECARY,2301 SOUTH BROAD STREET,,"PHILADELPHIA, PA 19148",http://maps.google.com/maps?q=METHODIST%20HOSPITAL%20APOTHECARY%2C2301%20SOUTH%20BROAD%20STREET%2C+PHILADELPHIA%2C+PA+19148
MT HERMON DISCOUNT PHARMACY,1207 MT HERMON RD,,"SALISBURY, MD 21804",http://maps.google.com/maps?q=MT%20HERMON%20DISCOUNT%20PHARMACY%2C1207%20MT%20HERMON%20RD%2C+SALISBURY%2C+MD+21804
NEIGHBORHOOD PHARMACY OF DEL RAY,2204 MT. VERNON AVE,,"ALEXANDRIA, VA 22301",http://maps.google.com/maps?q=NEIGHBORHOOD%20PHARMACY%20OF%20DEL%20RAY%2C2204%20MT.%20VERNON%20AVE%2C+ALEXANDRIA%2C+VA+22301
"NEW JERSEY CVS PHARMACY, L.L.C.",100 SPRINGDALE RD,,"CHERRY HILL, NJ 08003",http://maps.google.com/maps?q=NEW%20JERSEY%20CVS%20PHARMACY%20LLC%2C100%20SPRINGDALE%20RD%2C+CHERRY%20HILL%2C+NJ+08003
"NEW JERSEY CVS PHARMACY, L.L.C.",1099 RTE. 33 HAMILTON SQUARE,,"HAMILTON, NJ 08690",http://maps.google.com/maps?q=NEW%20JERSEY%20CVS%20PHARMACY%20LLC%2C1099%20RTE.%2033%20HAMILTON%20SQUARE%2C+HAMILTON%2C+NJ+08690
"NEW JERSEY CVS PHARMACY, L.L.C.",24 S. BLACK HORSE PIKE,,"MOUNT EPHRAIM, NJ 08059",http://maps.google.com/maps?q=NEW%20JERSEY%20CVS%20PHARMACY%20LLC%2C24%20S.%20BLACK%20HORSE%20PIKE%2C+MOUNT%20EPHRAIM%2C+NJ+08059
"NEW JERSEY CVS PHARMACY, L.L.C.",25 EAST RED BANK AVENUE,,"WOODBURY, NJ 08096",http://maps.google.com/maps?q=NEW%20JERSEY%20CVS%20PHARMACY%20LLC%2C25%20EAST%20RED%20BANK%20AVENUE%2C+WOODBURY%2C+NJ+08096
"NEW JERSEY CVS PHARMACY, L.L.C.",307 EGG HARBOR RD,,"SEWELL, NJ 08080",http://maps.google.com/maps?q=NEW%20JERSEY%20CVS%20PHARMACY%20LLC%2C307%20EGG%20HARBOR%20RD%2C+SEWELL%2C+NJ+08080
"NEW JERSEY CVS PHARMACY, L.L.C.",3110 ROUTE 38,,"MOUNT LAUREL, NJ 08054",http://maps.google.com/maps?q=NEW%20JERSEY%20CVS%20PHARMACY%20LLC%2C3110%20ROUTE%2038%2C+MOUNT%20LAUREL%2C+NJ+08054
"NEW JERSEY CVS PHARMACY, L.L.C.",600 KINGS HWY N,,"CHERRY HILL, NJ 08034",http://maps.google.com/maps?q=NEW%20JERSEY%20CVS%20PHARMACY%20LLC%2C600%20KINGS%20HWY%20N%2C+CHERRY%20HILL%2C+NJ+08034
"NEW JERSEY CVS PHARMACY, L.L.C.",6815 TILTON ROAD,,"EGG HARBOR TWP, NJ 08234",http://maps.google.com/maps?q=NEW%20JERSEY%20CVS%20PHARMACY%20LLC%2C6815%20TILTON%20ROAD%2C+EGG%20HARBOR%20TWP%2C+NJ+08234
NORTHGATE PHARMACY,3973 ST. CHARLES PKWY,,"WALDORF, MD 20602",http://maps.google.com/maps?q=NORTHGATE%20PHARMACY%2C3973%20ST.%20CHARLES%20PKWY%2C+WALDORF%2C+MD+20602
OMNICARE OF SOUTHERN NEW JERSEY,40 TWOSOME DRIVE UNIT 1,,"MOORESTOWN, NJ 08057",http://maps.google.com/maps?q=OMNICARE%20OF%20SOUTHERN%20NEW%20JERSEY%2C40%20TWOSOME%20DRIVE%20UNIT%201%2C+MOORESTOWN%2C+NJ+08057
PARKWAY PHARMACY,5771-ON THE SQUARE,PO BOX 8,"CROZET, VA 22932",http://maps.google.com/maps?q=PARKWAY%20PHARMACY%2C5771-ON%20THE%20SQUARE%2C+CROZET%2C+VA+22932
PEMBERTON PHARMACY & GIFT,1147 PEMBERTON DR,,"SALISBURY, MD 21801",http://maps.google.com/maps?q=PEMBERTON%20PHARMACY%20%20GIFT%2C1147%20PEMBERTON%20DR%2C+SALISBURY%2C+MD+21801
PEMBERTON PHARMACY & GIFT ST MICHAELS,204 S TALBOT ST,PO BOX 1139,"ST MICHAELS, MD 21663",http://maps.google.com/maps?q=PEMBERTON%20PHARMACY%20%20GIFT%20ST%20MICHAELS%2C204%20S%20TALBOT%20ST%2C+ST%20MICHAELS%2C+MD+21663
PENN MEDICINE AT UNIVERSITY CITY - APOTHECARY,3737 MARKET STREET,GROUND FLOOR,"PHILA, PA 19104",http://maps.google.com/maps?q=PENN%20MEDICINE%20AT%20UNIVERSITY%20CITY%20%20APOTHECARY%2C3737%20MARKET%20STREET%2C+PHILA%2C+PA+19104
PENN MEDICINE CHERRY HILL PHARMACY DEPARTMENT,1865 ROUTE 70 EAST,,"CHERRY HILL, NJ 08003",http://maps.google.com/maps?q=PENN%20MEDICINE%20CHERRY%20HILL%20PHARMACY%20DEPARTMENT%2C1865%20ROUTE%2070%20EAST%2C+CHERRY%20HILL%2C+NJ+08003
PENN-PRESBYTERIAN MED CTR-PHARMACY,51 NORTH 39TH STREET,,"PHILADELPHIA, PA 19104",http://maps.google.com/maps?q=PENNPRESBYTERIAN%20MED%20CTRPHARMACY%2C51%20NORTH%2039TH%20STREET%2C+PHILADELPHIA%2C+PA+19104
"PENNSYLVANIA CVS PHARMACY, L.L.C.",1405 SOUTH 10TH STREET,,"PHILADELPHIA, PA 19147",http://maps.google.com/maps?q=PENNSYLVANIA%20CVS%20PHARMACY%20LLC%2C1405%20SOUTH%2010TH%20STREET%2C+PHILADELPHIA%2C+PA+19147
"PENNSYLVANIA CVS PHARMACY, L.L.C.",1507 LITITZ PIKE,,"LANCASTER, PA 17601",http://maps.google.com/maps?q=PENNSYLVANIA%20CVS%20PHARMACY%20LLC%2C1507%20LITITZ%20PIKE%2C+LANCASTER%2C+PA+17601
"PENNSYLVANIA CVS PHARMACY, L.L.C.",159 N. MACDADE BLVD.,,"GLENOLDEN, PA 19036",http://maps.google.com/maps?q=PENNSYLVANIA%20CVS%20PHARMACY%20LLC%2C159%20N.%20MACDADE%20BLVD.%2C+GLENOLDEN%2C+PA+19036
"PENNSYLVANIA CVS PHARMACY, L.L.C.",1901 WEST OREGON AVENUE,,"PHILADELPHIA, PA 19145",http://maps.google.com/maps?q=PENNSYLVANIA%20CVS%20PHARMACY%20LLC%2C1901%20WEST%20OREGON%20AVENUE%2C+PHILADELPHIA%2C+PA+19145
"PENNSYLVANIA CVS PHARMACY, L.L.C.",2400 ARAMINGO AVENUE,,"PHILADELPHIA, PA 19125",http://maps.google.com/maps?q=PENNSYLVANIA%20CVS%20PHARMACY%20LLC%2C2400%20ARAMINGO%20AVENUE%2C+PHILADELPHIA%2C+PA+19125
"PENNSYLVANIA CVS PHARMACY, L.L.C.",317 W. LANCASTER AVE.,,"ARDMORE, PA 19003",http://maps.google.com/maps?q=PENNSYLVANIA%20CVS%20PHARMACY%20LLC%2C317%20W.%20LANCASTER%20AVE.%2C+ARDMORE%2C+PA+19003
"PENNSYLVANIA CVS PHARMACY, L.L.C.",3298 EDGEMONT AVE.,,"BROOKHAVEN, PA 19015",http://maps.google.com/maps?q=PENNSYLVANIA%20CVS%20PHARMACY%20LLC%2C3298%20EDGEMONT%20AVE.%2C+BROOKHAVEN%2C+PA+19015
"PENNSYLVANIA CVS PHARMACY, L.L.C.",4133 G ST.,,"PHILADELPHIA, PA 19124",http://maps.google.com/maps?q=PENNSYLVANIA%20CVS%20PHARMACY%20LLC%2C4133%20G%20ST.%2C+PHILADELPHIA%2C+PA+19124
"PENNSYLVANIA CVS PHARMACY, L.L.C.",504 S OXFORD VALLEY RD,,"FAIRLESS HILLS, PA 19030",http://maps.google.com/maps?q=PENNSYLVANIA%20CVS%20PHARMACY%20LLC%2C504%20S%20OXFORD%20VALLEY%20RD%2C+FAIRLESS%20HILLS%2C+PA+19030
"PENNSYLVANIA CVS PHARMACY, L.L.C.",6501 HARBISON AVENUE,,"PHILADELPHIA, PA 19149",http://maps.google.com/maps?q=PENNSYLVANIA%20CVS%20PHARMACY%20LLC%2C6501%20HARBISON%20AVENUE%2C+PHILADELPHIA%2C+PA+19149
"PENNSYLVANIA CVS PHARMACY, L.L.C.",7 YORK ROAD,,"WARMINSTER, PA 18974",http://maps.google.com/maps?q=PENNSYLVANIA%20CVS%20PHARMACY%20LLC%2C7%20YORK%20ROAD%2C+WARMINSTER%2C+PA+18974
"PENNSYLVANIA CVS PHARMACY, L.L.C.",802 LANSDOWNE AVENUE,,"DREXEL HILL, PA 19026",http://maps.google.com/maps?q=PENNSYLVANIA%20CVS%20PHARMACY%20LLC%2C802%20LANSDOWNE%20AVENUE%2C+DREXEL%20HILL%2C+PA+19026
"PENNSYLVANIA CVS PHARMACY, L.L.C.",835 OLD YORK ROAD,,"JENKINTOWN, PA 19046",http://maps.google.com/maps?q=PENNSYLVANIA%20CVS%20PHARMACY%20LLC%2C835%20OLD%20YORK%20ROAD%2C+JENKINTOWN%2C+PA+19046
PURCELLVILLE PHARMACY,609 E MAIN ST SUITE Q,,"PURCELLVILLE, VA 20132",http://maps.google.com/maps?q=PURCELLVILLE%20PHARMACY%2C609%20E%20MAIN%20ST%20SUITE%20Q%2C+PURCELLVILLE%2C+VA+20132
"RANN PHARMACY, INC.",377 MAIN ST,,"HARLEYSVILLE, PA 19438",http://maps.google.com/maps?q=RANN%20PHARMACY%20INC%2C377%20MAIN%20ST%2C+HARLEYSVILLE%2C+PA+19438
READING HOSPITAL AMBULATORY PHARMACY,420 S 5TH AVENUE,,"READING, PA 19611",http://maps.google.com/maps?q=READING%20HOSPITAL%20AMBULATORY%20PHARMACY%2C420%20S%205TH%20AVENUE%2C+READING%2C+PA+19611
RIVIERA DRUGS LLC,8541 FORTSMALL WOOD ROAD,UNIT G,"PASADENA, MD 21122",http://maps.google.com/maps?q=RIVIERA%20DRUGS%20LLC%2C8541%20FORTSMALL%20WOOD%20ROAD%2C+PASADENA%2C+MD+21122
SENTARA RMH MEDICAL CENTER,2010 HEALTH CAMPUS DRIVE,OUTPATIENT PHARMACY,"HARRISONBURG, VA 22801",http://maps.google.com/maps?q=SENTARA%20RMH%20MEDICAL%20CENTER%2C2010%20HEALTH%20CAMPUS%20DRIVE%2C+HARRISONBURG%2C+VA+22801
SPECTRUM HEALTHCARE RESOURCES - DUMFRIES HLTH CTR,3700 FETTLER PARK DRIVE,,"DUMFRIES, VA 22025",http://maps.google.com/maps?q=SPECTRUM%20HEALTHCARE%20RESOURCES%20%20DUMFRIES%20HLTH%20CTR%2C3700%20FETTLER%20PARK%20DRIVE%2C+DUMFRIES%2C+VA+22025
SPECTRUM HEALTHCARE RESOURCES - FAIRFAX HLTH CTR,10580 ARROWHEAD DRIVE,,"FAIRFAX, VA 22030",http://maps.google.com/maps?q=SPECTRUM%20HEALTHCARE%20RESOURCES%20%20FAIRFAX%20HLTH%20CTR%2C10580%20ARROWHEAD%20DRIVE%2C+FAIRFAX%2C+VA+22030
STRASBURG PHARMACY,33820 OLD VALLEY PIKE,SUITE 7,"STRASBURG, VA 22657",http://maps.google.com/maps?q=STRASBURG%20PHARMACY%2C33820%20OLD%20VALLEY%20PIKE%2C+STRASBURG%2C+VA+22657
SUMMIT HEALTH PHARMACY INC,3400 EDGMONT AVENUE,,"BROOKHAVEN, PA 19015",http://maps.google.com/maps?q=SUMMIT%20HEALTH%20PHARMACY%20INC%2C3400%20EDGMONT%20AVENUE%2C+BROOKHAVEN%2C+PA+19015
TACONY PHARMACY,7100 TORRESDALE AVE,,"PHILADELPHIA, PA 19135",http://maps.google.com/maps?q=TACONY%20PHARMACY%2C7100%20TORRESDALE%20AVE%2C+PHILADELPHIA%2C+PA+19135
TANG PHARMACY IV,900 N BROAD ST,,"PHILADELPHIA, PA 19130",http://maps.google.com/maps?q=TANG%20PHARMACY%20IV%2C900%20N%20BROAD%20ST%2C+PHILADELPHIA%2C+PA+19130
THE JOHNS HOPKINS HOSPITAL,1717 E MONUMENT ST,"PARK BUILDING, ROOM G-105","BALTIMORE, MD 21287",http://maps.google.com/maps?q=THE%20JOHNS%20HOPKINS%20HOSPITAL%2C1717%20E%20MONUMENT%20ST%2C+BALTIMORE%2C+MD+21287
THE JOHNS HOPKINS HOSPITAL,401 NORTH BROADWAY,SUITE 1001,"BALTIMORE, MD 21231",http://maps.google.com/maps?q=THE%20JOHNS%20HOPKINS%20HOSPITAL%2C401%20NORTH%20BROADWAY%2C+BALTIMORE%2C+MD+21231
THE JOHNS HOPKINS HOSPITAL,601 NORTH CAROLINE STREET,SUITE 1006,"BALTIMORE, MD 21287",http://maps.google.com/maps?q=THE%20JOHNS%20HOPKINS%20HOSPITAL%2C601%20NORTH%20CAROLINE%20STREET%2C+BALTIMORE%2C+MD+21287
THE JOHNS HOPKINS HOSPITAL,AT MONUMENT STREET,1810 E. MONUMENT STREET,"BALTIMORE, MD 21205",http://maps.google.com/maps?q=THE%20JOHNS%20HOPKINS%20HOSPITAL%2CAT%20MONUMENT%20STREET%2C+BALTIMORE%2C+MD+21205
"TOP NOTCH PHARMACY, LLC",943 PRESTON AVE,,"CHARLOTTESVILLE, VA 22903",http://maps.google.com/maps?q=TOP%20NOTCH%20PHARMACY%20LLC%2C943%20PRESTON%20AVE%2C+CHARLOTTESVILLE%2C+VA+22903
UNIV OF MD MEDICAL SYSTEMS,OUT-PATIENT PHARMCY,WEINBERG BUILDING,"BALTIMORE, MD 21201",http://maps.google.com/maps?q=UNIV%20OF%20MD%20MEDICAL%20SYSTEMS%2COUT-PATIENT%20PHARMCY%2C+BALTIMORE%2C+MD+21201
URBANCARE PHARMACY,169 W LEHIGH AVE,,"PHILADELPHIA, PA 19133",http://maps.google.com/maps?q=URBANCARE%20PHARMACY%2C169%20W%20LEHIGH%20AVE%2C+PHILADELPHIA%2C+PA+19133
US ARMY FBCH PHARMACY SERVICE,9300 DEWITT LOOP,ROOM C1382 MAIN VAULT,"FORT BELVOIR, VA 22060",http://maps.google.com/maps?q=US%20ARMY%20FBCH%20PHARMACY%20SERVICE%2C9300%20DEWITT%20LOOP%2C+FORT%20BELVOIR%2C+VA+22060
US ARMY KIRK HEALTH CLINIC,PHARMACY,ABERDEEN PROVING GROUND,"ABERDEEN PROVING GROUND, MD 21005",http://maps.google.com/maps?q=US%20ARMY%20KIRK%20HEALTH%20CLINIC%2CPHARMACY%2C+ABERDEEN%20PROVING%20GROUND%2C+MD+21005
US ARMY PHARMACY ANEX,8651 JOHN J KINGMAN ROAD,,"FORT BELVOIR, VA 22060",http://maps.google.com/maps?q=US%20ARMY%20PHARMACY%20ANEX%2C8651%20JOHN%20J%20KINGMAN%20ROAD%2C+FORT%20BELVOIR%2C+VA+22060
US ARMY- FT DETRICK HEALTH CLINIC,1434 PORTER STREET,FORT DETRICK,"FREDERICK, MD 21702",http://maps.google.com/maps?q=US%20ARMY%20FT%20DETRICK%20HEALTH%20CLINIC%2C1434%20PORTER%20STREET%2C+FREDERICK%2C+MD+21702
US ARMY- KIMBROUGH AMBULATORY CARE CENTER,DEPARTMENT OF PHARMACY,KIMBROUGH AMBULATORY CARE CENTER,"FORT MEADE, MD 20755",http://maps.google.com/maps?q=US%20ARMY%20KIMBROUGH%20AMBULATORY%20CARE%20CENTER%2CDEPARTMENT%20OF%20PHARMACY%2C+FORT%20MEADE%2C+MD+20755
US ARMY-ANTHONY DILORENZO,DILORENZO TRICARE HLTH CLINIC,PENTAGON 5801 DEFENSE PENTAGON,"WASHINGTON, DC 20310",http://maps.google.com/maps?q=US%20ARMYANTHONY%20DILORENZO%2CDILORENZO%20TRICARE%20HLTH%20CLINIC%2C+WASHINGTON%2C+DC+20310
USAF 11TH MDS PHARMACY,238 BROOKLEY AVENUE,,"WASHINGTON, DC 20032",http://maps.google.com/maps?q=USAF%20TH%20MDS%20PHARMACY%2C238%20BROOKLEY%20AVENUE%2C+WASHINGTON%2C+DC+20032
USAF 779TH MDG PHARMACY,1060 W. PERIMETER ROAD,,"ANDREWS AIR FORCE BASE, MD 20762",http://maps.google.com/maps?q=USAF%20TH%20MDG%20PHARMACY%2C1060%20W.%20PERIMETER%20ROAD%2C+ANDREWS%20AIR%20FORCE%20BASE%2C+MD+20762
USAF 779TH MDG SATELLITE PHARMACY,1683 BROOKLEY AVENUE,,"ANDREWS AIR FORCE BASE, MD 20762",http://maps.google.com/maps?q=USAF%20TH%20MDG%20SATELLITE%20PHARMACY%2C1683%20BROOKLEY%20AVENUE%2C+ANDREWS%20AIR%20FORCE%20BASE%2C+MD+20762
USAF- 436 MEDICAL GROUP/SGSM,436 MDG/SGSM,300 TUSKEGEE BLVD,"DOVER AFB, DE 19902",http://maps.google.com/maps?q=USAF%20%20MEDICAL%20GROUPSGSM%2C436%20MDG/SGSM%2C+DOVER%20AFB%2C+DE+19902
USAF- 87TH MED LOGISTICS/SGSM,3458 NEELY ROAD,,"MC GUIRE AFB, NJ 08641",http://maps.google.com/maps?q=USAF%20TH%20MED%20LOGISTICSSGSM%2C3458%20NEELY%20ROAD%2C+MC%20GUIRE%20AFB%2C+NJ+08641
USN- NAVAL BRANCH HEALTH CLINIC BANCROFT HALL,101 BUCHANAN ROAD,,"ANNAPOLIS, MD 21402",http://maps.google.com/maps?q=USN%20NAVAL%20BRANCH%20HEALTH%20CLINIC%20BANCROFT%20HALL%2C101%20BUCHANAN%20ROAD%2C+ANNAPOLIS%2C+MD+21402
USN- NAVAL MEDICAL CLINIC,3259 CATLIN AVENUE,,"QUANTICO, VA 22134",http://maps.google.com/maps?q=USN%20NAVAL%20MEDICAL%20CLINIC%2C3259%20CATLIN%20AVENUE%2C+QUANTICO%2C+VA+22134
USN- NAVAL MEDICAL CLINIC,695 KINKAID ROAD,PHARMACY DEPT.,"ANNAPOLIS, MD 21402",http://maps.google.com/maps?q=USN%20NAVAL%20MEDICAL%20CLINIC%2C695%20KINKAID%20ROAD%2C+ANNAPOLIS%2C+MD+21402
"USN-BRANCH HEALTH CLINIC, WASHINGTON NAVY YARD",915 N STREET S. E.,,"WASHINGTON, DC 20374",http://maps.google.com/maps?q=USNBRANCH%20HEALTH%20CLINIC%20WASHINGTON%20NAVY%20YARD%2C915%20N%20STREET%20S.%20E.%2C+WASHINGTON%2C+DC+20374
UVA PHARMACY,1240 LEE STREET ROOM 1407,,"CHARLOTTESVILLE, VA 22903",http://maps.google.com/maps?q=UVA%20PHARMACY%2C1240%20LEE%20STREET%20ROOM%201407%2C+CHARLOTTESVILLE%2C+VA+22903
"VIRGINIA CVS PHARMACY, L.L.C.",13031 LEE-JACKSON HIGHWAY,,"FAIRFAX, VA 22033",http://maps.google.com/maps?q=VIRGINIA%20CVS%20PHARMACY%20LLC%2C13031%20LEE-JACKSON%20HIGHWAY%2C+FAIRFAX%2C+VA+22033
"VIRGINIA CVS PHARMACY, L.L.C.",13600 JEFFERSON DAVIS HIGHWAY,,"WOODBRIDGE, VA 22191",http://maps.google.com/maps?q=VIRGINIA%20CVS%20PHARMACY%20LLC%2C13600%20JEFFERSON%20DAVIS%20HIGHWAY%2C+WOODBRIDGE%2C+VA+22191
"VIRGINIA CVS PHARMACY, L.L.C.",18048 JEFFERSON DAVIS HIGHWAY,,"RUTHER GLEN, VA 22546",http://maps.google.com/maps?q=VIRGINIA%20CVS%20PHARMACY%20LLC%2C18048%20JEFFERSON%20DAVIS%20HIGHWAY%2C+RUTHER%20GLEN%2C+VA+22546
"VIRGINIA CVS PHARMACY, L.L.C.",3117 LOCKHEED BLVD,,"ALEXANDRIA, VA 22306",http://maps.google.com/maps?q=VIRGINIA%20CVS%20PHARMACY%20LLC%2C3117%20LOCKHEED%20BLVD%2C+ALEXANDRIA%2C+VA+22306
"VIRGINIA CVS PHARMACY, L.L.C.",3133 LEE HIGHWAY,,"ARLINGTON, VA 22201",http://maps.google.com/maps?q=VIRGINIA%20CVS%20PHARMACY%20LLC%2C3133%20LEE%20HIGHWAY%2C+ARLINGTON%2C+VA+22201
"VIRGINIA CVS PHARMACY, L.L.C.",388 GARRISONVILLE ROAD,,"STAFFORD, VA 22554",http://maps.google.com/maps?q=VIRGINIA%20CVS%20PHARMACY%20LLC%2C388%20GARRISONVILLE%20ROAD%2C+STAFFORD%2C+VA+22554
"VIRGINIA CVS PHARMACY, L.L.C.",510 BLACKWELL RD.,,"WARRENTON, VA 20186",http://maps.google.com/maps?q=VIRGINIA%20CVS%20PHARMACY%20LLC%2C510%20BLACKWELL%20RD.%2C+WARRENTON%2C+VA+20186
"VIRGINIA CVS PHARMACY, L.L.C.",5652 PICKWICK RD.,,"CENTREVILLE, VA 20120",http://maps.google.com/maps?q=VIRGINIA%20CVS%20PHARMACY%20LLC%2C5652%20PICKWICK%20RD.%2C+CENTREVILLE%2C+VA+20120
"VIRGINIA CVS PHARMACY, L.L.C.",591 JEFFERSON DAVIS HIGHWAY,,"FREDERICKSBURG, VA 22401",http://maps.google.com/maps?q=VIRGINIA%20CVS%20PHARMACY%20LLC%2C591%20JEFFERSON%20DAVIS%20HIGHWAY%2C+FREDERICKSBURG%2C+VA+22401
"VIRGINIA CVS PHARMACY, L.L.C.",7205 LITTLE RIVER TURNPIKE,,"ANNANDALE, VA 22003",http://maps.google.com/maps?q=VIRGINIA%20CVS%20PHARMACY%20LLC%2C7205%20LITTLE%20RIVER%20TURNPIKE%2C+ANNANDALE%2C+VA+22003
"VIRGINIA CVS PHARMACY, L.L.C.",8124 ARLINGTON BLVD,YORKTOWN CTR,"FALLS CHURCH, VA 22042",http://maps.google.com/maps?q=VIRGINIA%20CVS%20PHARMACY%20LLC%2C8124%20ARLINGTON%20BLVD%2C+FALLS%20CHURCH%2C+VA+22042
"VIRGINIA CVS PHARMACY, L.L.C.",9200 CENTREVILLE RD.,,"MANASSAS, VA 20110",http://maps.google.com/maps?q=VIRGINIA%20CVS%20PHARMACY%20LLC%2C9200%20CENTREVILLE%20RD.%2C+MANASSAS%2C+VA+20110
W-S ASSOCIATES INC,T/A APPLE DISCOUNT DRUGS,404A N. FRUITLAND BLVD.,"SALISBURY, MD 21801",http://maps.google.com/maps?q=WS%20ASSOCIATES%20INC%2CT/A%20APPLE%20DISCOUNT%20DRUGS%2C+SALISBURY%2C+MD+21801
WALGREEN CO,1217 22ND ST. NW,,"WASHINGTON, DC 20037",http://maps.google.com/maps?q=WALGREEN%20CO%2C1217%2022ND%20ST.%20NW%2C+WASHINGTON%2C+DC+20037
WALGREEN CO,1260 LIBERTY RD,,"ELDERSBURG, MD 21784",http://maps.google.com/maps?q=WALGREEN%20CO%2C1260%20LIBERTY%20RD%2C+ELDERSBURG%2C+MD+21784
WALGREEN CO.,10097 BALTIMORE NATIONAL PIKE,,"ELLICOTT CITY, MD 21042",http://maps.google.com/maps?q=WALGREEN%20CO%2C10097%20BALTIMORE%20NATIONAL%20PIKE%2C+ELLICOTT%20CITY%2C+MD+21042
WALGREEN CO.,101 FORBES DR.,,"MARTINSBURG, WV 25404",http://maps.google.com/maps?q=WALGREEN%20CO%2C101%20FORBES%20DR.%2C+MARTINSBURG%2C+WV+25404
WALGREEN CO.,10600 ROLLINGWOOD DRIVE,,"FREDERICKSBURG, VA 22407",http://maps.google.com/maps?q=WALGREEN%20CO%2C10600%20ROLLINGWOOD%20DRIVE%2C+FREDERICKSBURG%2C+VA+22407
WALGREEN CO.,111 MICHIGAN AVE NW STE 1107,,"WASHINGTON, DC 20010",http://maps.google.com/maps?q=WALGREEN%20CO%2C111%20MICHIGAN%20AVE%20NW%20STE%201107%2C+WASHINGTON%2C+DC+20010
WALGREEN CO.,1155 F STREET NW,,"WASHINGTON, DC 20004",http://maps.google.com/maps?q=WALGREEN%20CO%2C1155%20F%20STREET%20NW%2C+WASHINGTON%2C+DC+20004
WALGREEN CO.,1329 UNIVERSITY BLVD. E,,"TAKOMA PARK, MD 20912",http://maps.google.com/maps?q=WALGREEN%20CO%2C1329%20UNIVERSITY%20BLVD.%20E%2C+TAKOMA%20PARK%2C+MD+20912
WALGREEN CO.,13926 LEE HWY.,,"CENTREVILLE, VA 20120",http://maps.google.com/maps?q=WALGREEN%20CO%2C13926%20LEE%20HWY.%2C+CENTREVILLE%2C+VA+20120
WALGREEN CO.,276 W LEE HWY,,"WARRENTON, VA 20186",http://maps.google.com/maps?q=WALGREEN%20CO%2C276%20W%20LEE%20HWY%2C+WARRENTON%2C+VA+20186
WALGREEN CO.,3005 EMMORTON ROAD,,"ABINGDON, MD 21009",http://maps.google.com/maps?q=WALGREEN%20CO%2C3005%20EMMORTON%20ROAD%2C+ABINGDON%2C+MD+21009
WALGREEN CO.,4020 EASTERN AVENUE,,"BALTIMORE, MD 21224",http://maps.google.com/maps?q=WALGREEN%20CO%2C4020%20EASTERN%20AVENUE%2C+BALTIMORE%2C+MD+21224
WALGREEN CO.,4300 BACKLICK RD,,"ANNANDALE, VA 22003",http://maps.google.com/maps?q=WALGREEN%20CO%2C4300%20BACKLICK%20RD%2C+ANNANDALE%2C+VA+22003
WALGREEN CO.,50 WHITE OAK RD,,"FREDERICKSBURG, VA 22405",http://maps.google.com/maps?q=WALGREEN%20CO%2C50%20WHITE%20OAK%20RD%2C+FREDERICKSBURG%2C+VA+22405
WALGREEN CO.,5657 BALTIMORE NATIONAL PIKE,,"CATONSVILLE, MD 21228",http://maps.google.com/maps?q=WALGREEN%20CO%2C5657%20BALTIMORE%20NATIONAL%20PIKE%2C+CATONSVILLE%2C+MD+21228
WALGREEN CO.,600 WASHINGTON BLVD. S,,"LAUREL, MD 20707",http://maps.google.com/maps?q=WALGREEN%20CO%2C600%20WASHINGTON%20BLVD.%20S%2C+LAUREL%2C+MD+20707
WALGREEN CO.,6700 RITCHIE HWY,,"GLEN BURNIE, MD 21061",http://maps.google.com/maps?q=WALGREEN%20CO%2C6700%20RITCHIE%20HWY%2C+GLEN%20BURNIE%2C+MD+21061
WALGREEN CO.,6717 RICHMOND HWY.,,"ALEXANDRIA, VA 22306",http://maps.google.com/maps?q=WALGREEN%20CO%2C6717%20RICHMOND%20HWY.%2C+ALEXANDRIA%2C+VA+22306
WALGREEN CO.,801 7TH ST NW,,"WASHINGTON, DC 20001",http://maps.google.com/maps?q=WALGREEN%20CO%2C801%207TH%20ST%20NW%2C+WASHINGTON%2C+DC+20001
WALGREEN CO.,8174 OCEAN GATEWAY,,"EASTON, MD 21601",http://maps.google.com/maps?q=WALGREEN%20CO%2C8174%20OCEAN%20GATEWAY%2C+EASTON%2C+MD+21601
WALGREEN CO.,8414 OLD KEENE MILL RD.,UNIT A,"SPRINGFIELD, VA 22152",http://maps.google.com/maps?q=WALGREEN%20CO%2C8414%20OLD%20KEENE%20MILL%20RD.%2C+SPRINGFIELD%2C+VA+22152
WALGREEN CO.,9001 WOODY TERRACE,SUITE B,"CLINTON, MD 20735",http://maps.google.com/maps?q=WALGREEN%20CO%2C9001%20WOODY%20TERRACE%2C+CLINTON%2C+MD+20735
WALGREEN CO.,9616 HARFORD ROAD,,"BALTIMORE, MD 21234",http://maps.google.com/maps?q=WALGREEN%20CO%2C9616%20HARFORD%20ROAD%2C+BALTIMORE%2C+MD+21234
WALGREEN EASTERN CO. INC.,1 SOUTH BROAD STREET,,"PHILADELPHIA, PA 19107",http://maps.google.com/maps?q=WALGREEN%20EASTERN%20CO%20INC%2C1%20SOUTH%20BROAD%20STREET%2C+PHILADELPHIA%2C+PA+19107
"WALGREEN EASTERN CO., INC.",10 YORK ROAD,,"WARMINSTER, PA 18974",http://maps.google.com/maps?q=WALGREEN%20EASTERN%20CO%20INC%2C10%20YORK%20ROAD%2C+WARMINSTER%2C+PA+18974
"WALGREEN EASTERN CO., INC.",1096 ROUTE 33,,"HAMILTON, NJ 08690",http://maps.google.com/maps?q=WALGREEN%20EASTERN%20CO%20INC%2C1096%20ROUTE%2033%2C+HAMILTON%2C+NJ+08690
"WALGREEN EASTERN CO., INC.",1111 NORTH HIGH STREET,,"MILLVILLE, NJ 08332",http://maps.google.com/maps?q=WALGREEN%20EASTERN%20CO%20INC%2C1111%20NORTH%20HIGH%20STREET%2C+MILLVILLE%2C+NJ+08332
"WALGREEN EASTERN CO., INC.",150 N MACDADE BLVD.,,"GLENOLDEN, PA 19036",http://maps.google.com/maps?q=WALGREEN%20EASTERN%20CO%20INC%2C150%20N%20MACDADE%20BLVD.%2C+GLENOLDEN%2C+PA+19036
"WALGREEN EASTERN CO., INC.",2014-24 S BROAD ST,,"PHILADELPHIA, PA 19145",http://maps.google.com/maps?q=WALGREEN%20EASTERN%20CO%20INC%2C2014-24%20S%20BROAD%20ST%2C+PHILADELPHIA%2C+PA+19145
"WALGREEN EASTERN CO., INC.",2247 OCEAN HEIGHTS AVE.,,"EGG HARBOR TOWNSHIP, NJ 08234",http://maps.google.com/maps?q=WALGREEN%20EASTERN%20CO%20INC%2C2247%20OCEAN%20HEIGHTS%20AVE.%2C+EGG%20HARBOR%20TOWNSHIP%2C+NJ+08234
"WALGREEN EASTERN CO., INC.",2310 W OREGON AVE,,"PHILADELPHIA, PA 19145",http://maps.google.com/maps?q=WALGREEN%20EASTERN%20CO%20INC%2C2310%20W%20OREGON%20AVE%2C+PHILADELPHIA%2C+PA+19145
"WALGREEN EASTERN CO., INC.",2350 E MARKET ST,,"YORK, PA 17402",http://maps.google.com/maps?q=WALGREEN%20EASTERN%20CO%20INC%2C2350%20E%20MARKET%20ST%2C+YORK%2C+PA+17402
"WALGREEN EASTERN CO., INC.",2803 W RIDGE PIKE,,"NORRISTOWN, PA 19403",http://maps.google.com/maps?q=WALGREEN%20EASTERN%20CO%20INC%2C2803%20W%20RIDGE%20PIKE%2C+NORRISTOWN%2C+PA+19403
"WALGREEN EASTERN CO., INC.",4001 KENSINGTON AVE.,,"PHILADELPHIA, PA 19124",http://maps.google.com/maps?q=WALGREEN%20EASTERN%20CO%20INC%2C4001%20KENSINGTON%20AVE.%2C+PHILADELPHIA%2C+PA+19124
"WALGREEN EASTERN CO., INC.",4098 EDGEMONT AVE.,,"BROOKHAVEN, PA 19015",http://maps.google.com/maps?q=WALGREEN%20EASTERN%20CO%20INC%2C4098%20EDGEMONT%20AVE.%2C+BROOKHAVEN%2C+PA+19015
"WALGREEN EASTERN CO., INC.",4601 WESTFIELD AVENUE,,"PENNSAUKEN, NJ 08110",http://maps.google.com/maps?q=WALGREEN%20EASTERN%20CO%20INC%2C4601%20WESTFIELD%20AVENUE%2C+PENNSAUKEN%2C+NJ+08110
"WALGREEN EASTERN CO., INC.",7001 FRANKFORD AVE,,"PHILADELPHIA, PA 19135",http://maps.google.com/maps?q=WALGREEN%20EASTERN%20CO%20INC%2C7001%20FRANKFORD%20AVE%2C+PHILADELPHIA%2C+PA+19135
"WALGREEN EASTERN CO., INC.",8500 NEW FALLS ROAD,,"LEVITTOWN, PA 19054",http://maps.google.com/maps?q=WALGREEN%20EASTERN%20CO%20INC%2C8500%20NEW%20FALLS%20ROAD%2C+LEVITTOWN%2C+PA+19054
WELLSPAN PHARMACY,183 N READING RD,SUITE 9,"EPHRATA, PA 17522",http://maps.google.com/maps?q=WELLSPAN%20PHARMACY%2C183%20N%20READING%20RD%2C+EPHRATA%2C+PA+17522
WELLSPAN PHARMACY,25 MONUMENT ROAD,SUITE 265,"YORK, PA 17403",http://maps.google.com/maps?q=WELLSPAN%20PHARMACY%2C25%20MONUMENT%20ROAD%2C+YORK%2C+PA+17403
WELLSPAN PHARMACY,252 S 4TH ST,,"LEBANON, PA 17042",http://maps.google.com/maps?q=WELLSPAN%20PHARMACY%2C252%20S%204TH%20ST%2C+LEBANON%2C+PA+17042
WELLSPAN PHARMACY,4910B FAIRFIELD ROAD,,"FAIRFIELD, PA 17320",http://maps.google.com/maps?q=WELLSPAN%20PHARMACY%2C4910B%20FAIRFIELD%20ROAD%2C+FAIRFIELD%2C+PA+17320
WRNMMC-WALTER REED NATIONAL MILITARY MEDICAL CENTE,PHARMACY DEPT BLDG 9,8901 WISCONSIN AVE,"BETHESDA, MD 20889",http://maps.google.com/maps?q=WRNMMCWALTER%20REED%20NATIONAL%20MILITARY%20MEDICAL%20CENTE%2CPHARMACY%20DEPT%20BLDG%209%2C+BETHESDA%2C+MD+20889
YORK HOSPITAL PHARMACY DEPT,1001 SOUTH GEORGE ST,,"YORK, PA 17405",http://maps.google.com/maps?q=YORK%20HOSPITAL%20PHARMACY%20DEPT%2C1001%20SOUTH%20GEORGE%20ST%2C+YORK%2C+PA+17405
