Business Name,Address 1,Address 2,"City, State Zip",Map URL
AGAPE PHARMACY,3685-A LEAPHART ROAD,,"WEST COLUMBIA, SC 29169",http://maps.google.com/maps?q=AGAPE%20PHARMACY%2C3685-A%20LEAPHART%20ROAD%2C+WEST%20COLUMBIA%2C+SC+29169
AHF PHARMACY,1858 CHESHIRE BRIDGE ROAD NE,,"ATLANTA, GA 30324",http://maps.google.com/maps?q=AHF%20PHARMACY%2C1858%20CHESHIRE%20BRIDGE%20ROAD%20NE%2C+ATLANTA%2C+GA+30324
AU MEDICAL CENTER INPATIENT PHARMACY,"1120 15TH STREET, ROOM BI-2101",,"AUGUSTA, GA 30912",http://maps.google.com/maps?q=AU%20MEDICAL%20CENTER%20INPATIENT%20PHARMACY%2C1120%2015TH%20STREET%2C%20ROOM%20BI-2101%2C+AUGUSTA%2C+GA+30912
BARNEY'S PHARMACY,2604 PEACH ORCHARD RD,,"AUGUSTA, GA 30906",http://maps.google.com/maps?q=BARNEYS%20PHARMACY%2C2604%20PEACH%20ORCHARD%20RD%2C+AUGUSTA%2C+GA+30906
BRISSON DRUGS INC,217 W BROAD ST,,"SAINT PAULS, NC 28384",http://maps.google.com/maps?q=BRISSON%20DRUGS%20INC%2C217%20W%20BROAD%20ST%2C+SAINT%20PAULS%2C+NC+28384
CANNON PHARMACY CONCORD,760 CABARRUS AVE W.,,"CONCORD, NC 28027",http://maps.google.com/maps?q=CANNON%20PHARMACY%20CONCORD%2C760%20CABARRUS%20AVE%20W.%2C+CONCORD%2C+NC+28027
CAPE FEAR DISCOUNT DRUG,2800-18 RAEFORD RD,,"FAYETTEVILLE, NC 28303",http://maps.google.com/maps?q=CAPE%20FEAR%20DISCOUNT%20DRUG%2C2800-18%20RAEFORD%20RD%2C+FAYETTEVILLE%2C+NC+28303
CAPE FEAR PHARMACY,5235 S COLLEGE RD,,"WILMINGTON, NC 28412",http://maps.google.com/maps?q=CAPE%20FEAR%20PHARMACY%2C5235%20S%20COLLEGE%20RD%2C+WILMINGTON%2C+NC+28412
CARE PLUS PHARMACY LLC,1665 HIGHWAY 34E,SUITE 100,"NEWNAN, GA 30265",http://maps.google.com/maps?q=CARE%20PLUS%20PHARMACY%20LLC%2C1665%20HIGHWAY%2034E%2C+NEWNAN%2C+GA+30265
"CARECENTER PHARMACY, L.L.C.",1 COCA COLA PLZ NW,,"ATLANTA, GA 30313",http://maps.google.com/maps?q=CARECENTER%20PHARMACY%20LLC%2C1%20COCA%20COLA%20PLZ%20NW%2C+ATLANTA%2C+GA+30313
CAROLINA FOREST PHARMACY,4036 RIVER OAKS DRIVE UNIT B-1,,"MYRTLE BEACH, SC 29579",http://maps.google.com/maps?q=CAROLINA%20FOREST%20PHARMACY%2C4036%20RIVER%20OAKS%20DRIVE%20UNIT%20B-1%2C+MYRTLE%20BEACH%2C+SC+29579
CAROLINA PHARMACY,725 CHERRY ROAD,SUITE 103,"ROCK HILL, SC 29732",http://maps.google.com/maps?q=CAROLINA%20PHARMACY%2C725%20CHERRY%20ROAD%2C+ROCK%20HILL%2C+SC+29732
CAROLINA PHARMACY OF THE LOWCOUNTRY,810 ELM STREET EAST,,"HAMPTON, SC 29924",http://maps.google.com/maps?q=CAROLINA%20PHARMACY%20OF%20THE%20LOWCOUNTRY%2C810%20ELM%20STREET%20EAST%2C+HAMPTON%2C+SC+29924
CENTER FOR HEALTH AND WELL BEING PHARMACY,LIMITED TO OFFICIAL UNIVERSITY DUTIES ONLY,1401 DEVINE STREET,"COLUMBIA, SC 29208",http://maps.google.com/maps?q=CENTER%20FOR%20HEALTH%20AND%20WELL%20BEING%20PHARMACY%2CLIMITED%20TO%20OFFICIAL%20UNIVERSITY%20DUTIES%20ONLY%2C+COLUMBIA%2C+SC+29208
CHEROKEE INDIAN HOSPITAL,CALLER BOX C-268,1 HOSPITAL ROAD,"CHEROKEE, NC 28719",http://maps.google.com/maps?q=CHEROKEE%20INDIAN%20HOSPITAL%2CCALLER%20BOX%20C-268%2C+CHEROKEE%2C+NC+28719
CLAY COUNTY HOSPITAL,83825 HWY 9,PO BOX 1270,"ASHLAND, AL 36251",http://maps.google.com/maps?q=CLAY%20COUNTY%20HOSPITAL%2C83825%20HWY%209%2C+ASHLAND%2C+AL+36251
"CLEBURNE PHARMACY, LLC",875 ROSS STREET,,"HEFLIN, AL 36264",http://maps.google.com/maps?q=CLEBURNE%20PHARMACY%20LLC%2C875%20ROSS%20STREET%2C+HEFLIN%2C+AL+36264
CLEMSON UNIVERSITY,LIMITED TO OFFICIAL UNIVERSITY DUTIES ONLY,735 MCMILLAN ROAD,"CLEMSON, SC 29634",http://maps.google.com/maps?q=CLEMSON%20UNIVERSITY%2CLIMITED%20TO%20OFFICIAL%20UNIVERSITY%20DUTIES%20ONLY%2C+CLEMSON%2C+SC+29634
COLUMBUS REGIONAL HEALTHCARE,500 JEFFERSON STREET,,"WHITEVILLE, NC 28472",http://maps.google.com/maps?q=COLUMBUS%20REGIONAL%20HEALTHCARE%2C500%20JEFFERSON%20STREET%2C+WHITEVILLE%2C+NC+28472
COOKE'S PHARMACY,3400 KEITH STREET,,"CLEVELAND, TN 37312",http://maps.google.com/maps?q=COOKES%20PHARMACY%2C3400%20KEITH%20STREET%2C+CLEVELAND%2C+TN+37312
COOKE'S PHARMACY #2,2010 BROOMFIELD ROAD,,"CLEVELAND, TN 37323",http://maps.google.com/maps?q=COOKES%20PHARMACY%2C2010%20BROOMFIELD%20ROAD%2C+CLEVELAND%2C+TN+37323
"DILWORTH DRUGS, LLC",1300 B EAST BLVD,,"CHARLOTTE, NC 28203",http://maps.google.com/maps?q=DILWORTH%20DRUGS%20LLC%2C1300%20B%20EAST%20BLVD%2C+CHARLOTTE%2C+NC+28203
"EAST BURKE PHARMACY, INC.",300 MAIN AVENUE WEST,,"HILDEBRAN, NC 28637",http://maps.google.com/maps?q=EAST%20BURKE%20PHARMACY%20INC%2C300%20MAIN%20AVENUE%20WEST%2C+HILDEBRAN%2C+NC+28637
ELDER CARE PHARMACY #2,4769 S. MAIN STREET,SUITE A,"ACWORTH, GA 30101",http://maps.google.com/maps?q=ELDER%20CARE%20PHARMACY%2C4769%20S.%20MAIN%20STREET%2C+ACWORTH%2C+GA+30101
ELDER-CARE PHARMACY-AUGUSTA,4315 BELAIR FRONTAGE ROAD,,"AUGUSTA, GA 30909",http://maps.google.com/maps?q=ELDERCARE%20PHARMACYAUGUSTA%2C4315%20BELAIR%20FRONTAGE%20ROAD%2C+AUGUSTA%2C+GA+30909
ELDERCARE PHARMACY ROYSTON,635 COOK STREET,,"ROYSTON, GA 30662",http://maps.google.com/maps?q=ELDERCARE%20PHARMACY%20ROYSTON%2C635%20COOK%20STREET%2C+ROYSTON%2C+GA+30662
FAIRFAX PHARMACY INC,PO BOX 366,1275 ALLENDALE-FAIRFAX HWY,"FAIRFAX, SC 29827",http://maps.google.com/maps?q=FAIRFAX%20PHARMACY%20INC%2CPO%20BOX%20366%2C+FAIRFAX%2C+SC+29827
"GEORGIA CVS PHARMACY, L.L.C.",100 OAK ST,,"BOWDON, GA 30108",http://maps.google.com/maps?q=GEORGIA%20CVS%20PHARMACY%20LLC%2C100%20OAK%20ST%2C+BOWDON%2C+GA+30108
"GEORGIA CVS PHARMACY, L.L.C.",103 JESSE JEWEL PARKWAY,,"GAINESVILLE, GA 30501",http://maps.google.com/maps?q=GEORGIA%20CVS%20PHARMACY%20LLC%2C103%20JESSE%20JEWEL%20PARKWAY%2C+GAINESVILLE%2C+GA+30501
"GEORGIA CVS PHARMACY, L.L.C.",1271 GRAY HIGHWAY,,"MACON, GA 31211",http://maps.google.com/maps?q=GEORGIA%20CVS%20PHARMACY%20LLC%2C1271%20GRAY%20HIGHWAY%2C+MACON%2C+GA+31211
"GEORGIA CVS PHARMACY, L.L.C.",1520 WALTON WAY,,"AUGUSTA, GA 30904",http://maps.google.com/maps?q=GEORGIA%20CVS%20PHARMACY%20LLC%2C1520%20WALTON%20WAY%2C+AUGUSTA%2C+GA+30904
"GEORGIA CVS PHARMACY, L.L.C.",1541 GEORGIA HIGHWAY 20,,"CONYERS, GA 30012",http://maps.google.com/maps?q=GEORGIA%20CVS%20PHARMACY%20LLC%2C1541%20GEORGIA%20HIGHWAY%2020%2C+CONYERS%2C+GA+30012
"GEORGIA CVS PHARMACY, L.L.C.",1600 TOWN LAKE PARKWAY,,"WOODSTOCK, GA 30189",http://maps.google.com/maps?q=GEORGIA%20CVS%20PHARMACY%20LLC%2C1600%20TOWN%20LAKE%20PARKWAY%2C+WOODSTOCK%2C+GA+30189
"GEORGIA CVS PHARMACY, L.L.C.",1905 MARTHA BERRY BLVD,,"ROME, GA 30165",http://maps.google.com/maps?q=GEORGIA%20CVS%20PHARMACY%20LLC%2C1905%20MARTHA%20BERRY%20BLVD%2C+ROME%2C+GA+30165
"GEORGIA CVS PHARMACY, L.L.C.",22 UPPER RIVERDALE ROAD,,"RIVERDALE, GA 30274",http://maps.google.com/maps?q=GEORGIA%20CVS%20PHARMACY%20LLC%2C22%20UPPER%20RIVERDALE%20ROAD%2C+RIVERDALE%2C+GA+30274
"GEORGIA CVS PHARMACY, L.L.C.",2738 NORTH DECATUR ROAD,,"DECATUR, GA 30033",http://maps.google.com/maps?q=GEORGIA%20CVS%20PHARMACY%20LLC%2C2738%20NORTH%20DECATUR%20ROAD%2C+DECATUR%2C+GA+30033
"GEORGIA CVS PHARMACY, L.L.C.",2782 NORTH COBB PARKWAY,,"KENNESAW, GA 30152",http://maps.google.com/maps?q=GEORGIA%20CVS%20PHARMACY%20LLC%2C2782%20NORTH%20COBB%20PARKWAY%2C+KENNESAW%2C+GA+30152
"GEORGIA CVS PHARMACY, L.L.C.",2830 N. DRUID HILLS RD. NE,,"ATLANTA, GA 30329",http://maps.google.com/maps?q=GEORGIA%20CVS%20PHARMACY%20LLC%2C2830%20N.%20DRUID%20HILLS%20RD.%20NE%2C+ATLANTA%2C+GA+30329
"GEORGIA CVS PHARMACY, L.L.C.",2902 PEACH ORCHARD ROAD,,"AUGUSTA, GA 30906",http://maps.google.com/maps?q=GEORGIA%20CVS%20PHARMACY%20LLC%2C2902%20PEACH%20ORCHARD%20ROAD%2C+AUGUSTA%2C+GA+30906
"GEORGIA CVS PHARMACY, L.L.C.",300 MORGAN STREET,,"LA GRANGE, GA 30241",http://maps.google.com/maps?q=GEORGIA%20CVS%20PHARMACY%20LLC%2C300%20MORGAN%20STREET%2C+LA%20GRANGE%2C+GA+30241
"GEORGIA CVS PHARMACY, L.L.C.",4183 HWY 278 NE,,"COVINGTON, GA 30014",http://maps.google.com/maps?q=GEORGIA%20CVS%20PHARMACY%20LLC%2C4183%20HWY%20278%20NE%2C+COVINGTON%2C+GA+30014
"GEORGIA CVS PHARMACY, L.L.C.",4717-C E HWY 80,,"SAVANNAH, GA 31410",http://maps.google.com/maps?q=GEORGIA%20CVS%20PHARMACY%20LLC%2C4717-C%20E%20HWY%2080%2C+SAVANNAH%2C+GA+31410
"GEORGIA CVS PHARMACY, L.L.C.",4725 WATERS AVE,,"SAVANNAH, GA 31404",http://maps.google.com/maps?q=GEORGIA%20CVS%20PHARMACY%20LLC%2C4725%20WATERS%20AVE%2C+SAVANNAH%2C+GA+31404
"GEORGIA CVS PHARMACY, L.L.C.",495 CHARLES HARDY PKWY,,"DALLAS, GA 30157",http://maps.google.com/maps?q=GEORGIA%20CVS%20PHARMACY%20LLC%2C495%20CHARLES%20HARDY%20PKWY%2C+DALLAS%2C+GA+30157
"GEORGIA CVS PHARMACY, L.L.C.",620 WEST PIKE STREET,,"LAWRENCEVILLE, GA 30046",http://maps.google.com/maps?q=GEORGIA%20CVS%20PHARMACY%20LLC%2C620%20WEST%20PIKE%20STREET%2C+LAWRENCEVILLE%2C+GA+30046
"GEORGIA CVS PHARMACY, L.L.C.",736 HWY 78 WEST,,"VILLA RICA, GA 30180",http://maps.google.com/maps?q=GEORGIA%20CVS%20PHARMACY%20LLC%2C736%20HWY%2078%20WEST%2C+VILLA%20RICA%2C+GA+30180
"GEORGIA CVS PHARMACY, L.L.C.",887 BATTLEFIELD PARKWAY,,"FT OGLETHORPE, GA 30742",http://maps.google.com/maps?q=GEORGIA%20CVS%20PHARMACY%20LLC%2C887%20BATTLEFIELD%20PARKWAY%2C+FT%20OGLETHORPE%2C+GA+30742
"GEORGIA CVS PHARMACY, L.L.C.","895 RALPH ABERNATHY BLVD., SW",,"ATLANTA, GA 30310",http://maps.google.com/maps?q=GEORGIA%20CVS%20PHARMACY%20LLC%2C895%20RALPH%20ABERNATHY%20BLVD.%2C%20SW%2C+ATLANTA%2C+GA+30310
"GEORGIA CVS PHARMACY, L.L.C.",965 JOE FRANK HARRIS PKWY SE,,"CARTERSVILLE, GA 30120",http://maps.google.com/maps?q=GEORGIA%20CVS%20PHARMACY%20LLC%2C965%20JOE%20FRANK%20HARRIS%20PKWY%20SE%2C+CARTERSVILLE%2C+GA+30120
"GIANT GENIE PHARMACY, LLC",2516 CENTRAL AVE,,"CHARLOTTE, NC 28205",http://maps.google.com/maps?q=GIANT%20GENIE%20PHARMACY%20LLC%2C2516%20CENTRAL%20AVE%2C+CHARLOTTE%2C+NC+28205
H&M DRUGS,17216 HIGHWAY 431,,"WEDOWEE, AL 36278",http://maps.google.com/maps?q=HM%20DRUGS%2C17216%20HIGHWAY%20431%2C+WEDOWEE%2C+AL+36278
HARRISBURG'S HOMETOWN PHARMACY,5006 HIGHWAY 49 SOUTH,P O BOX 1491,"HARRISBURG, NC 28075",http://maps.google.com/maps?q=HARRISBURGS%20HOMETOWN%20PHARMACY%2C5006%20HIGHWAY%2049%20SOUTH%2C+HARRISBURG%2C+NC+28075
HEALTH AND WELLNESS PHARMACY LLC,5405 DICK POND ROAD,UNIT C - 1,"MYRTLE BEACH, SC 29588",http://maps.google.com/maps?q=HEALTH%20AND%20WELLNESS%20PHARMACY%20LLC%2C5405%20DICK%20POND%20ROAD%2C+MYRTLE%20BEACH%2C+SC+29588
HELPING HANDS PHARMACY,206 GAMBLE DRIVE,SUITE C,"LINCOLNTON, NC 28092",http://maps.google.com/maps?q=HELPING%20HANDS%20PHARMACY%2C206%20GAMBLE%20DRIVE%2C+LINCOLNTON%2C+NC+28092
HIGHLAND HEALTH CENTER PHARMACY,609 N. HIGHLAND STREET,,"GASTONIA, NC 28052",http://maps.google.com/maps?q=HIGHLAND%20HEALTH%20CENTER%20PHARMACY%2C609%20N.%20HIGHLAND%20STREET%2C+GASTONIA%2C+NC+28052
INSTITUTIONAL PHARMACY SOLUTIONS,2050 MERCANTILE DRIVE,,"LELAND, NC 28451",http://maps.google.com/maps?q=INSTITUTIONAL%20PHARMACY%20SOLUTIONS%2C2050%20MERCANTILE%20DRIVE%2C+LELAND%2C+NC+28451
"INSTITUTIONAL PHARMACY SOLUTIONS, LLC",1715 SHARON ROAD WEST,,"CHARLOTTE, NC 28210",http://maps.google.com/maps?q=INSTITUTIONAL%20PHARMACY%20SOLUTIONS%20LLC%2C1715%20SHARON%20ROAD%20WEST%2C+CHARLOTTE%2C+NC+28210
KAISER PANOLA MED OFFICE PHARMACY,PANOLA MEDICAL OFFICE PHARMACY,5440 HILLANDALE DRIVE,"LITHONIA, GA 30058",http://maps.google.com/maps?q=KAISER%20PANOLA%20MED%20OFFICE%20PHARMACY%2CPANOLA%20MEDICAL%20OFFICE%20PHARMACY%2C+LITHONIA%2C+GA+30058
KAISER PERMANENTE ATHENS,"2142 W. BROAD STREET, BUILDING 200",,"ATHENS, GA 30606",http://maps.google.com/maps?q=KAISER%20PERMANENTE%20ATHENS%2C2142%20W.%20BROAD%20STREET%2C%20BUILDING%20200%2C+ATHENS%2C+GA+30606
KAISER PERMANENTE CRESCENT CENTRE,CRESCENT CENTRE CENTRAL PHCY,200 CRESCENT CENTRE PARKWAY,"TUCKER, GA 30084",http://maps.google.com/maps?q=KAISER%20PERMANENTE%20CRESCENT%20CENTRE%2CCRESCENT%20CENTRE%20CENTRAL%20PHCY%2C+TUCKER%2C+GA+30084
KAISER PERMANENTE CUMBERLAND,CUMBERLAND MED OFFICE PHARMACY,2525 CUMBERLAND PARKWAY,"ATLANTA, GA 30339",http://maps.google.com/maps?q=KAISER%20PERMANENTE%20CUMBERLAND%2CCUMBERLAND%20MED%20OFFICE%20PHARMACY%2C+ATLANTA%2C+GA+30339
KAISER PERMANENTE FORSYTH PHARMACY,1400 NORTHSIDE FORSYTH DR. SUITE 350,,"CUMMING, GA 30041",http://maps.google.com/maps?q=KAISER%20PERMANENTE%20FORSYTH%20PHARMACY%2C1400%20NORTHSIDE%20FORSYTH%20DR.%20SUITE%20350%2C+CUMMING%2C+GA+30041
KAISER PERMANENTE GLENLAKE MED OFFICE,GLENLAKE MEDICAL OFFICE PHCY.,20 GLENLAKE PARKWAY,"ATLANTA, GA 30328",http://maps.google.com/maps?q=KAISER%20PERMANENTE%20GLENLAKE%20MED%20OFFICE%2CGLENLAKE%20MEDICAL%20OFFICE%20PHCY.%2C+ATLANTA%2C+GA+30328
KAISER PERMANENTE GWINNETT,3650 STEVE REYNOLDS BLVD,,"DULUTH, GA 30096",http://maps.google.com/maps?q=KAISER%20PERMANENTE%20GWINNETT%2C3650%20STEVE%20REYNOLDS%20BLVD%2C+DULUTH%2C+GA+30096
KAISER PERMANENTE SANDY SPRINGS PHARMACY,1100 LAKE HEARN DRIVE NE,,"ATLANTA, GA 30342",http://maps.google.com/maps?q=KAISER%20PERMANENTE%20SANDY%20SPRINGS%20PHARMACY%2C1100%20LAKE%20HEARN%20DRIVE%20NE%2C+ATLANTA%2C+GA+30342
KAISER PERMANENTE STONECREST,MEDICAL CENTER PHARMACY,8011 MALL PARKWAY,"LITHONIA, GA 30038",http://maps.google.com/maps?q=KAISER%20PERMANENTE%20STONECREST%2CMEDICAL%20CENTER%20PHARMACY%2C+LITHONIA%2C+GA+30038
KAISER PERMANENTE SUGAR HILL - BUFORD,MEDICAL CENTER PHARMACY,1435 BROADMOOR BOULEVARD,"SUGAR HILL, GA 30518",http://maps.google.com/maps?q=KAISER%20PERMANENTE%20SUGAR%20HILL%20%20BUFORD%2CMEDICAL%20CENTER%20PHARMACY%2C+SUGAR%20HILL%2C+GA+30518
KAISER PERMANENTE TOWNPARK,TOWNPARK MEDICAL OFFICE PHCY,750 TOWNPARK LANE,"KENNESAW, GA 30144",http://maps.google.com/maps?q=KAISER%20PERMANENTE%20TOWNPARK%2CTOWNPARK%20MEDICAL%20OFFICE%20PHCY%2C+KENNESAW%2C+GA+30144
KAISER PERMANENTE WEST COBB,3640 TRAMORE POINT PARKWAY,ATTN: PHARMACY,"AUSTELL, GA 30106",http://maps.google.com/maps?q=KAISER%20PERMANENTE%20WEST%20COBB%2C3640%20TRAMORE%20POINT%20PARKWAY%2C+AUSTELL%2C+GA+30106
LAX COTSWALD LLC,4390 COLWICK RD,,"CHARLOTTE, NC 28211",http://maps.google.com/maps?q=LAX%20COTSWALD%20LLC%2C4390%20COLWICK%20RD%2C+CHARLOTTE%2C+NC+28211
LEE'S INLET APOTHECARY,3579 HWY 17 BUSINESS,,"MURRELLS INLET, SC 29576",http://maps.google.com/maps?q=LEES%20INLET%20APOTHECARY%2C3579%20HWY%2017%20BUSINESS%2C+MURRELLS%20INLET%2C+SC+29576
"LONGS DRUGS OF RIDGELAND, SC, INC",7752 WEST MAIN STREET,P.O. BOX 2188,"RIDGELAND, SC 29936",http://maps.google.com/maps?q=LONGS%20DRUGS%20OF%20RIDGELAND%20SC%20INC%2C7752%20WEST%20MAIN%20STREET%2C+RIDGELAND%2C+SC+29936
LUMBERTON DRUG COMPANY,4307 FAYETTEVILLE RD,,"LUMBERTON, NC 28358",http://maps.google.com/maps?q=LUMBERTON%20DRUG%20COMPANY%2C4307%20FAYETTEVILLE%20RD%2C+LUMBERTON%2C+NC+28358
"MEDI-SERVICE OF CHARLOTTE, INC",610 E. FRANKLIN STREET,,"MONROE, NC 28112",http://maps.google.com/maps?q=MEDISERVICE%20OF%20CHARLOTTE%20INC%2C610%20E.%20FRANKLIN%20STREET%2C+MONROE%2C+NC+28112
METTER PHARMACY,705 SOUTH LEWIS STREET,,"METTER, GA 30439",http://maps.google.com/maps?q=METTER%20PHARMACY%2C705%20SOUTH%20LEWIS%20STREET%2C+METTER%2C+GA+30439
MOOSE DRUG CO,8374 WEST FRANKLIN STREET,P O BOX 67,"MOUNT PLEASANT, NC 28124",http://maps.google.com/maps?q=MOOSE%20DRUG%20CO%2C8374%20WEST%20FRANKLIN%20STREET%2C+MOUNT%20PLEASANT%2C+NC+28124
MOUNTAINVIEW PHARMACY,1275 POWERS FERRY RD SE,SUITE 170,"MARIETTA, GA 30067",http://maps.google.com/maps?q=MOUNTAINVIEW%20PHARMACY%2C1275%20POWERS%20FERRY%20RD%20SE%2C+MARIETTA%2C+GA+30067
NHRMC OUTPATIENT/EMPLOYEE,2131 SOUTH 17TH STREET,PO BOX 9000,"WILMINGTON, NC 28402",http://maps.google.com/maps?q=NHRMC%20OUTPATIENTEMPLOYEE%2C2131%20SOUTH%2017TH%20STREET%2C+WILMINGTON%2C+NC+28402
"NORTH CAROLINA CVS PHARMACY, L.L.C.",1137 NORTH BRAGG BLVD.,,"SPRING LAKE, NC 28390",http://maps.google.com/maps?q=NORTH%20CAROLINA%20CVS%20PHARMACY%20LLC%2C1137%20NORTH%20BRAGG%20BLVD.%2C+SPRING%20LAKE%2C+NC+28390
"NORTH CAROLINA CVS PHARMACY, L.L.C.",128 CROSS ROAD DR.,,"MILLS RIVER, NC 28759",http://maps.google.com/maps?q=NORTH%20CAROLINA%20CVS%20PHARMACY%20LLC%2C128%20CROSS%20ROAD%20DR.%2C+MILLS%20RIVER%2C+NC+28759
"NORTH CAROLINA CVS PHARMACY, L.L.C.",1504 2ND ST NE,,"HICKORY, NC 28601",http://maps.google.com/maps?q=NORTH%20CAROLINA%20CVS%20PHARMACY%20LLC%2C1504%202ND%20ST%20NE%2C+HICKORY%2C+NC+28601
"NORTH CAROLINA CVS PHARMACY, L.L.C.",24 WESTGATE PKWY.,,"ASHEVILLE, NC 28806",http://maps.google.com/maps?q=NORTH%20CAROLINA%20CVS%20PHARMACY%20LLC%2C24%20WESTGATE%20PKWY.%2C+ASHEVILLE%2C+NC+28806
"NORTH CAROLINA CVS PHARMACY, L.L.C.","4300 HWY 49 S., P.O. BOX 10",,"HARRISBURG, NC 28075",http://maps.google.com/maps?q=NORTH%20CAROLINA%20CVS%20PHARMACY%20LLC%2C4300%20HWY%2049%20S.%2C%20P.O.%20BOX%2010%2C+HARRISBURG%2C+NC+28075
"NORTH CAROLINA CVS PHARMACY, L.L.C.",4600 OLEANDER DRIVE,,"WILMINGTON, NC 28403",http://maps.google.com/maps?q=NORTH%20CAROLINA%20CVS%20PHARMACY%20LLC%2C4600%20OLEANDER%20DRIVE%2C+WILMINGTON%2C+NC+28403
"NORTH CAROLINA CVS PHARMACY, L.L.C.",505 SMOKEY PARK HWY.,,"ASHEVILLE, NC 28806",http://maps.google.com/maps?q=NORTH%20CAROLINA%20CVS%20PHARMACY%20LLC%2C505%20SMOKEY%20PARK%20HWY.%2C+ASHEVILLE%2C+NC+28806
"NORTH CAROLINA CVS PHARMACY, L.L.C.",522 OWEN DR,,"FAYETTEVILLE, NC 28304",http://maps.google.com/maps?q=NORTH%20CAROLINA%20CVS%20PHARMACY%20LLC%2C522%20OWEN%20DR%2C+FAYETTEVILLE%2C+NC+28304
"NORTH CAROLINA CVS PHARMACY, L.L.C.",559 RIVER HWY,,"MOORESVILLE, NC 28117",http://maps.google.com/maps?q=NORTH%20CAROLINA%20CVS%20PHARMACY%20LLC%2C559%20RIVER%20HWY%2C+MOORESVILLE%2C+NC+28117
"NORTH CAROLINA CVS PHARMACY, L.L.C.",6750 WILKINSON BLVD.,,"BELMONT, NC 28012",http://maps.google.com/maps?q=NORTH%20CAROLINA%20CVS%20PHARMACY%20LLC%2C6750%20WILKINSON%20BLVD.%2C+BELMONT%2C+NC+28012
"NORTH CAROLINA CVS PHARMACY, L.L.C.",9931 GILEAD RD,,"HUNTERSVILLE, NC 28078",http://maps.google.com/maps?q=NORTH%20CAROLINA%20CVS%20PHARMACY%20LLC%2C9931%20GILEAD%20RD%2C+HUNTERSVILLE%2C+NC+28078
NOVANT HEALTH PHARMACY SERVICES LLC,200 HAWTHORNE ROAD,,"CHARLOTTE, NC 28204",http://maps.google.com/maps?q=NOVANT%20HEALTH%20PHARMACY%20SERVICES%20LLC%2C200%20HAWTHORNE%20ROAD%2C+CHARLOTTE%2C+NC+28204
NOVANT HEALTH PHARMACY SERVICES LLC,911 WEST HENDERSON STREET,SUITE L 20,"SALISBURY, NC 28144",http://maps.google.com/maps?q=NOVANT%20HEALTH%20PHARMACY%20SERVICES%20LLC%2C911%20WEST%20HENDERSON%20STREET%2C+SALISBURY%2C+NC+28144
P S A CLINIC PHARMACY,ASSO PHARMACEUTICAL SERVICES,2294 US HIGHWAY 70,"SWANNANOA, NC 28778",http://maps.google.com/maps?q=P%20S%20A%20CLINIC%20PHARMACY%2CASSO%20PHARMACEUTICAL%20SERVICES%2C+SWANNANOA%2C+NC+28778
PALLIATIVE PHARMACY SOLUTIONS,2338 MAIN ST,,"TUCKER, GA 30084",http://maps.google.com/maps?q=PALLIATIVE%20PHARMACY%20SOLUTIONS%2C2338%20MAIN%20ST%2C+TUCKER%2C+GA+30084
PARDEE OUTPATIENT PHARMACY,800 NORTH JUSTICE STREET,,"HENDERSONVILLE, NC 28791",http://maps.google.com/maps?q=PARDEE%20OUTPATIENT%20PHARMACY%2C800%20NORTH%20JUSTICE%20STREET%2C+HENDERSONVILLE%2C+NC+28791
PENDER MEMORIAL HOSPITAL,507 E. FREMONT STREET,,"BURGAW, NC 28425",http://maps.google.com/maps?q=PENDER%20MEMORIAL%20HOSPITAL%2C507%20E.%20FREMONT%20STREET%2C+BURGAW%2C+NC+28425
PINNACLE PHARMACY LLC,113 RAINBOW INDUSTRIAL BLVD,,"RAINBOW CITY, AL 35906",http://maps.google.com/maps?q=PINNACLE%20PHARMACY%20LLC%2C113%20RAINBOW%20INDUSTRIAL%20BLVD%2C+RAINBOW%20CITY%2C+AL+35906
"POSITIVE HEALTH SOLUTIONS, LLC",2925 SENNA DR,STE 100,"MATTHEWS, NC 28105",http://maps.google.com/maps?q=POSITIVE%20HEALTH%20SOLUTIONS%20LLC%2C2925%20SENNA%20DR%2C+MATTHEWS%2C+NC+28105
PREMIER DRUGSTORE,8446 CAMPBELLTON ST,,"DOUGLASVILLE, GA 30134",http://maps.google.com/maps?q=PREMIER%20DRUGSTORE%2C8446%20CAMPBELLTON%20ST%2C+DOUGLASVILLE%2C+GA+30134
PURE COMPOUNDING,3072 DICK POND ROAD,"HWY 544,  SUITE 2","MYRTLE BEACH, SC 29588",http://maps.google.com/maps?q=PURE%20COMPOUNDING%2C3072%20DICK%20POND%20ROAD%2C+MYRTLE%20BEACH%2C+SC+29588
RIVERSIDE PHARMACY,935 GREEN ST,,"GAINESVILLE, GA 30501",http://maps.google.com/maps?q=RIVERSIDE%20PHARMACY%2C935%20GREEN%20ST%2C+GAINESVILLE%2C+GA+30501
ROCKY POINT PAVILION PHARMACY,7910 US HWY 117,SUITE 110,"ROCKY POINT, NC 28457",http://maps.google.com/maps?q=ROCKY%20POINT%20PAVILION%20PHARMACY%2C7910%20US%20HWY%20117%2C+ROCKY%20POINT%2C+NC+28457
RX CARE 14 LLC,7701 SHARON LAKES RD,SUITE H,"CHARLOTTE, NC 28210",http://maps.google.com/maps?q=RX%20CARE%20%20LLC%2C7701%20SHARON%20LAKES%20RD%2C+CHARLOTTE%2C+NC+28210
RX CARE OF NC LLC,11304 HAWTHORNE DR,SUITE# 120,"MINT HILL, NC 28227",http://maps.google.com/maps?q=RX%20CARE%20OF%20NC%20LLC%2C11304%20HAWTHORNE%20DR%2C+MINT%20HILL%2C+NC+28227
RX CARE PHARMACY INC.,6018 THE PLAZA,,"CHARLOTTE, NC 28215",http://maps.google.com/maps?q=RX%20CARE%20PHARMACY%20INC%2C6018%20THE%20PLAZA%2C+CHARLOTTE%2C+NC+28215
SENIOR TOTAL LIFE CARE,1875 REMOUNT ROAD,,"GASTONIA, NC 28054",http://maps.google.com/maps?q=SENIOR%20TOTAL%20LIFE%20CARE%2C1875%20REMOUNT%20ROAD%2C+GASTONIA%2C+NC+28054
"SOUTH CAROLINA CVS PHARMACY, L.L.C.",1008 LAKE MURRAY BOULEVARD,,"IRMO, SC 29063",http://maps.google.com/maps?q=SOUTH%20CAROLINA%20CVS%20PHARMACY%20LLC%2C1008%20LAKE%20MURRAY%20BOULEVARD%2C+IRMO%2C+SC+29063
"SOUTH CAROLINA CVS PHARMACY, L.L.C.",11211 ASHEVILLE HWY.,,"INMAN, SC 29349",http://maps.google.com/maps?q=SOUTH%20CAROLINA%20CVS%20PHARMACY%20LLC%2C11211%20ASHEVILLE%20HWY.%2C+INMAN%2C+SC+29349
"SOUTH CAROLINA CVS PHARMACY, L.L.C.",1303 38TH AVE. N.,,"MYRTLE BEACH, SC 29577",http://maps.google.com/maps?q=SOUTH%20CAROLINA%20CVS%20PHARMACY%20LLC%2C1303%2038TH%20AVE.%20N.%2C+MYRTLE%20BEACH%2C+SC+29577
"SOUTH CAROLINA CVS PHARMACY, L.L.C.","2397 REIDVILLE ROAD,",,"SPARTANBURG, SC 29301",http://maps.google.com/maps?q=SOUTH%20CAROLINA%20CVS%20PHARMACY%20LLC%2C2397%20REIDVILLE%20ROAD%2C%2C+SPARTANBURG%2C+SC+29301
"SOUTH CAROLINA CVS PHARMACY, L.L.C.",2401 E NORTH ST,,"GREENVILLE, SC 29615",http://maps.google.com/maps?q=SOUTH%20CAROLINA%20CVS%20PHARMACY%20LLC%2C2401%20E%20NORTH%20ST%2C+GREENVILLE%2C+SC+29615
"SOUTH CAROLINA CVS PHARMACY, L.L.C.",2446 HUDSON RD,,"GREER, SC 29650",http://maps.google.com/maps?q=SOUTH%20CAROLINA%20CVS%20PHARMACY%20LLC%2C2446%20HUDSON%20RD%2C+GREER%2C+SC+29650
"SOUTH CAROLINA CVS PHARMACY, L.L.C.",2571 FOREST DRIVE,,"COLUMBIA, SC 29204",http://maps.google.com/maps?q=SOUTH%20CAROLINA%20CVS%20PHARMACY%20LLC%2C2571%20FOREST%20DRIVE%2C+COLUMBIA%2C+SC+29204
"SOUTH CAROLINA CVS PHARMACY, L.L.C.",27 US HIGHWAY 321 BYPASS S,,"WINNSBORO, SC 29180",http://maps.google.com/maps?q=SOUTH%20CAROLINA%20CVS%20PHARMACY%20LLC%2C27%20US%20HIGHWAY%20321%20BYPASS%20S%2C+WINNSBORO%2C+SC+29180
"SOUTH CAROLINA CVS PHARMACY, L.L.C.",2707 CELANESE RD.,,"ROCK HILL, SC 29732",http://maps.google.com/maps?q=SOUTH%20CAROLINA%20CVS%20PHARMACY%20LLC%2C2707%20CELANESE%20RD.%2C+ROCK%20HILL%2C+SC+29732
"SOUTH CAROLINA CVS PHARMACY, L.L.C.",2814 N MAIN ST.,,"ANDERSON, SC 29621",http://maps.google.com/maps?q=SOUTH%20CAROLINA%20CVS%20PHARMACY%20LLC%2C2814%20N%20MAIN%20ST.%2C+ANDERSON%2C+SC+29621
"SOUTH CAROLINA CVS PHARMACY, L.L.C.",301 N MAIN ST,,"SUMMERVILLE, SC 29483",http://maps.google.com/maps?q=SOUTH%20CAROLINA%20CVS%20PHARMACY%20LLC%2C301%20N%20MAIN%20ST%2C+SUMMERVILLE%2C+SC+29483
"SOUTH CAROLINA CVS PHARMACY, L.L.C.",3210 E PALMETTO ST,,"FLORENCE, SC 29506",http://maps.google.com/maps?q=SOUTH%20CAROLINA%20CVS%20PHARMACY%20LLC%2C3210%20E%20PALMETTO%20ST%2C+FLORENCE%2C+SC+29506
"SOUTH CAROLINA CVS PHARMACY, L.L.C.",3218 W BLUE RIDGE DR,,"GREENVILLE, SC 29611",http://maps.google.com/maps?q=SOUTH%20CAROLINA%20CVS%20PHARMACY%20LLC%2C3218%20W%20BLUE%20RIDGE%20DR%2C+GREENVILLE%2C+SC+29611
"SOUTH CAROLINA CVS PHARMACY, L.L.C.",4711-5 FOREST DRIVE,,"COLUMBIA, SC 29206",http://maps.google.com/maps?q=SOUTH%20CAROLINA%20CVS%20PHARMACY%20LLC%2C4711-5%20FOREST%20DRIVE%2C+COLUMBIA%2C+SC+29206
"SOUTH CAROLINA CVS PHARMACY, L.L.C.",5215 ASHLEY PHOSPHATE RD.,,"NORTH CHARLESTON, SC 29418",http://maps.google.com/maps?q=SOUTH%20CAROLINA%20CVS%20PHARMACY%20LLC%2C5215%20ASHLEY%20PHOSPHATE%20RD.%2C+NORTH%20CHARLESTON%2C+SC+29418
"SOUTH CAROLINA CVS PHARMACY, L.L.C.",523 S. MAIN ST,,"BISHOPVILLE, SC 29010",http://maps.google.com/maps?q=SOUTH%20CAROLINA%20CVS%20PHARMACY%20LLC%2C523%20S.%20MAIN%20ST%2C+BISHOPVILLE%2C+SC+29010
"SOUTH CAROLINA CVS PHARMACY, L.L.C.",5608 SUNSET BLVD.,,"LEXINGTON, SC 29072",http://maps.google.com/maps?q=SOUTH%20CAROLINA%20CVS%20PHARMACY%20LLC%2C5608%20SUNSET%20BLVD.%2C+LEXINGTON%2C+SC+29072
"SOUTH CAROLINA CVS PHARMACY, L.L.C.",65 SYCAMORE AVE,,"CHARLESTON, SC 29407",http://maps.google.com/maps?q=SOUTH%20CAROLINA%20CVS%20PHARMACY%20LLC%2C65%20SYCAMORE%20AVE%2C+CHARLESTON%2C+SC+29407
"SOUTH CAROLINA CVS PHARMACY, L.L.C.",698 FAIRVIEW ROAD,,"SIMPSONVILLE, SC 29680",http://maps.google.com/maps?q=SOUTH%20CAROLINA%20CVS%20PHARMACY%20LLC%2C698%20FAIRVIEW%20ROAD%2C+SIMPSONVILLE%2C+SC+29680
"SOUTH CAROLINA CVS PHARMACY, L.L.C.",718 MILLS AVENUE,,"GREENVILLE, SC 29605",http://maps.google.com/maps?q=SOUTH%20CAROLINA%20CVS%20PHARMACY%20LLC%2C718%20MILLS%20AVENUE%2C+GREENVILLE%2C+SC+29605
"SOUTH CAROLINA CVS PHARMACY, L.L.C.",733 S. IRBY ST.,,"FLORENCE, SC 29501",http://maps.google.com/maps?q=SOUTH%20CAROLINA%20CVS%20PHARMACY%20LLC%2C733%20S.%20IRBY%20ST.%2C+FLORENCE%2C+SC+29501
"SOUTH CAROLINA CVS PHARMACY, L.L.C.",901 MARKET ST.,,"CHERAW, SC 29520",http://maps.google.com/maps?q=SOUTH%20CAROLINA%20CVS%20PHARMACY%20LLC%2C901%20MARKET%20ST.%2C+CHERAW%2C+SC+29520
SPINDALE DRUG CO,109 W MAIN STREET,,"SPINDALE, NC 28160",http://maps.google.com/maps?q=SPINDALE%20DRUG%20CO%2C109%20W%20MAIN%20STREET%2C+SPINDALE%2C+NC+28160
STATESVILLE FAMILY MEDICINE PHARMACY,1022-C SHELTON AVE.,,"STATESVILLE, NC 28677",http://maps.google.com/maps?q=STATESVILLE%20FAMILY%20MEDICINE%20PHARMACY%2C1022-C%20SHELTON%20AVE.%2C+STATESVILLE%2C+NC+28677
SUMTER FAMILY HEALTH CENTER PHARMACY,1278 NORTH LAFAYETTE DRIVE,,"SUMTER, SC 29150",http://maps.google.com/maps?q=SUMTER%20FAMILY%20HEALTH%20CENTER%20PHARMACY%2C1278%20NORTH%20LAFAYETTE%20DRIVE%2C+SUMTER%2C+SC+29150
TABLE ROCK PHARMACY,200 W. FLEMING DR,,"MORGANTON, NC 28655",http://maps.google.com/maps?q=TABLE%20ROCK%20PHARMACY%2C200%20W.%20FLEMING%20DR%2C+MORGANTON%2C+NC+28655
"TENNESSEE CVS PHARMACY, L.L.C.",1200 DODSON AVENUE,,"CHATTANOOGA, TN 37406",http://maps.google.com/maps?q=TENNESSEE%20CVS%20PHARMACY%20LLC%2C1200%20DODSON%20AVENUE%2C+CHATTANOOGA%2C+TN+37406
"TENNESSEE CVS PHARMACY, L.L.C.",2424 OCOEE ST.,,"CLEVELAND, TN 37311",http://maps.google.com/maps?q=TENNESSEE%20CVS%20PHARMACY%20LLC%2C2424%20OCOEE%20ST.%2C+CLEVELAND%2C+TN+37311
"TENNESSEE CVS PHARMACY, L.L.C.",5120 HIGHWAY 153,,"HIXSON, TN 37343",http://maps.google.com/maps?q=TENNESSEE%20CVS%20PHARMACY%20LLC%2C5120%20HIGHWAY%20153%2C+HIXSON%2C+TN+37343
THE MEDICINE SHOPPE,1144 AIRPORT DRIVE,,"ALEXANDER CITY, AL 35010",http://maps.google.com/maps?q=THE%20MEDICINE%20SHOPPE%2C1144%20AIRPORT%20DRIVE%2C+ALEXANDER%20CITY%2C+AL+35010
"THE VILLAGE PHARMACY, LLC",5106 NC HWY 87 SOUTH,SUITE 100,"FAYETTEVILLE, NC 28306",http://maps.google.com/maps?q=THE%20VILLAGE%20PHARMACY%20LLC%2C5106%20NC%20HWY%2087%20SOUTH%2C+FAYETTEVILLE%2C+NC+28306
TIDEWATER PHARMACY & MEDICAL SUPPLIES LLC,421 JOHNNIE DODDS BOULEVARD,FIRST FLOOR,"MOUNT PLEASANT, SC 29464",http://maps.google.com/maps?q=TIDEWATER%20PHARMACY%20%20MEDICAL%20SUPPLIES%20LLC%2C421%20JOHNNIE%20DODDS%20BOULEVARD%2C+MOUNT%20PLEASANT%2C+SC+29464
UNIVERSITY HEALTH SERVICES,55 CARLTON STREET,,"ATHENS, GA 30602",http://maps.google.com/maps?q=UNIVERSITY%20HEALTH%20SERVICES%2C55%20CARLTON%20STREET%2C+ATHENS%2C+GA+30602
US  ARMY TUTTLE HEALTH CLINIC,ATTN: PHARMACY SERVICE,"230 DUNCAN DR, BLDG 1440","HUNTER AAF, GA 31409",http://maps.google.com/maps?q=US%20%20ARMY%20TUTTLE%20HEALTH%20CLINIC%2CATTN%3A%20PHARMACY%20SERVICE%2C+HUNTER%20AAF%2C+GA+31409
US ARMY- MONCRIEF COMMUNITY HOSPITAL,BUILDING 4500 STUART STREET,,"FORT JACKSON, SC 29207",http://maps.google.com/maps?q=US%20ARMY%20MONCRIEF%20COMMUNITY%20HOSPITAL%2CBUILDING%204500%20STUART%20STREET%2C+FORT%20JACKSON%2C+SC+29207
US ARMY- WOMACK MEDICAL CENTER,DEPT OF PHARMACY,BLDG 4-2817 REILLY RD,"FORT BRAGG, NC 28310",http://maps.google.com/maps?q=US%20ARMY%20WOMACK%20MEDICAL%20CENTER%2CDEPT%20OF%20PHARMACY%2C+FORT%20BRAGG%2C+NC+28310
US ARMY-CONNELLY HEALTH CLINIC PHARMACY,29709 B STREET,BUILDING T ROOM 104,"AUGUSTA, GA 30905",http://maps.google.com/maps?q=US%20ARMYCONNELLY%20HEALTH%20CLINIC%20PHARMACY%2C29709%20B%20STREET%2C+AUGUSTA%2C+GA+30905
US ARMY-MONCRIEF PX REFILL PHARMACY,4110 MOSBY STREET,,"FORT JACKSON, SC 29207",http://maps.google.com/maps?q=US%20ARMYMONCRIEF%20PX%20REFILL%20PHARMACY%2C4110%20MOSBY%20STREET%2C+FORT%20JACKSON%2C+SC+29207
US ARMY-PX REFILL PHARMACY,35200 3 RD AVE,BUILDING 38200,"FORT GORDON, GA 30905",http://maps.google.com/maps?q=US%20ARMYPX%20REFILL%20PHARMACY%2C35200%203%20RD%20AVE%2C+FORT%20GORDON%2C+GA+30905
USAF - SHAW AFB,370 RHODES AVENUE,,"SHAW AFB, SC 29152",http://maps.google.com/maps?q=USAF%20%20SHAW%20AFB%2C370%20RHODES%20AVENUE%2C+SHAW%20AFB%2C+SC+29152
USAF CLINIC CHARLESTON,628 MED GROUP/SGSM,204 W. HILL BLVD. BLDG. 364,"JOINT BASE CHARLESTON, SC 29404",http://maps.google.com/maps?q=USAF%20CLINIC%20CHARLESTON%2C628%20MED%20GROUP/SGSM%2C+JOINT%20BASE%20CHARLESTON%2C+SC+29404
USAF- SHAW AFB,420 POLIFKA DRIVE,ATTN: LOGISTICS,"SHAW AFB, SC 29152",http://maps.google.com/maps?q=USAF%20SHAW%20AFB%2C420%20POLIFKA%20DRIVE%2C+SHAW%20AFB%2C+SC+29152
USN - NAVAL HOSPITAL,ATTENTION: PHARMACY DEPARTMENT,1 PINCKNEY BOULEVARD,"BEAUFORT, SC 29902",http://maps.google.com/maps?q=USN%20%20NAVAL%20HOSPITAL%2CATTENTION%3A%20PHARMACY%20DEPARTMENT%2C+BEAUFORT%2C+SC+29902
USN- NAVAL HEALTH CLINIC CHARLESTON,110 NNPTC CIRCLE,,"GOOSE CREEK, SC 29445",http://maps.google.com/maps?q=USN%20NAVAL%20HEALTH%20CLINIC%20CHARLESTON%2C110%20NNPTC%20CIRCLE%2C+GOOSE%20CREEK%2C+SC+29445
"VILLAGE PHARMACY, INC.",3697 HWY 5,SUITE 6,"DOUGLASVILLE, GA 30135",http://maps.google.com/maps?q=VILLAGE%20PHARMACY%20INC%2C3697%20HWY%205%2C+DOUGLASVILLE%2C+GA+30135
WALGREEN CO,138 OKATIE CENTER BLVD S,,"OKATIE, SC 29909",http://maps.google.com/maps?q=WALGREEN%20CO%2C138%20OKATIE%20CENTER%20BLVD%20S%2C+OKATIE%2C+SC+29909
WALGREEN CO,634 N. CHURCH STREET,,"THOMASTON, GA 30286",http://maps.google.com/maps?q=WALGREEN%20CO%2C634%20N.%20CHURCH%20STREET%2C+THOMASTON%2C+GA+30286
WALGREEN CO,7155 US HIGHWAY 431,,"ALBERTVILLE, AL 35950",http://maps.google.com/maps?q=WALGREEN%20CO%2C7155%20US%20HIGHWAY%20431%2C+ALBERTVILLE%2C+AL+35950
WALGREEN CO.,10 EAST MAY STREET,,"WINDER, GA 30680",http://maps.google.com/maps?q=WALGREEN%20CO%2C10%20EAST%20MAY%20STREET%2C+WINDER%2C+GA+30680
WALGREEN CO.,1000 BROAD ST,,"SUMTER, SC 29150",http://maps.google.com/maps?q=WALGREEN%20CO%2C1000%20BROAD%20ST%2C+SUMTER%2C+SC+29150
WALGREEN CO.,1120 N MAIN STREET,,"SUMMERVILLE, SC 29483",http://maps.google.com/maps?q=WALGREEN%20CO%2C1120%20N%20MAIN%20STREET%2C+SUMMERVILLE%2C+SC+29483
WALGREEN CO.,120 MARIETTA HIGHWAY,,"CANTON, GA 30114",http://maps.google.com/maps?q=WALGREEN%20CO%2C120%20MARIETTA%20HIGHWAY%2C+CANTON%2C+GA+30114
WALGREEN CO.,1228 BATTLEFIELD PKWY,,"FT OGLETHORPE, GA 30742",http://maps.google.com/maps?q=WALGREEN%20CO%2C1228%20BATTLEFIELD%20PKWY%2C+FT%20OGLETHORPE%2C+GA+30742
WALGREEN CO.,1280 GRAY HWY,,"MACON, GA 31211",http://maps.google.com/maps?q=WALGREEN%20CO%2C1280%20GRAY%20HWY%2C+MACON%2C+GA+31211
WALGREEN CO.,1302 S CONGRESS PARKWAY,,"ATHENS, TN 37303",http://maps.google.com/maps?q=WALGREEN%20CO%2C1302%20S%20CONGRESS%20PARKWAY%2C+ATHENS%2C+TN+37303
WALGREEN CO.,1310 S CANNON BLVD,,"KANNAPOLIS, NC 28083",http://maps.google.com/maps?q=WALGREEN%20CO%2C1310%20S%20CANNON%20BLVD%2C+KANNAPOLIS%2C+NC+28083
WALGREEN CO.,1510 MILSTEAD AVE NE,,"CONYERS, GA 30012",http://maps.google.com/maps?q=WALGREEN%20CO%2C1510%20MILSTEAD%20AVE%20NE%2C+CONYERS%2C+GA+30012
WALGREEN CO.,1601 CHURCH STREET,,"CONWAY, SC 29526",http://maps.google.com/maps?q=WALGREEN%20CO%2C1601%20CHURCH%20STREET%2C+CONWAY%2C+SC+29526
WALGREEN CO.,1835 HENDERSONVILLE ROAD,,"ASHEVILLE, NC 28803",http://maps.google.com/maps?q=WALGREEN%20CO%2C1835%20HENDERSONVILLE%20ROAD%2C+ASHEVILLE%2C+NC+28803
WALGREEN CO.,1855 HUDSON BRIDGE RD,,"STOCKBRIDGE, GA 30281",http://maps.google.com/maps?q=WALGREEN%20CO%2C1855%20HUDSON%20BRIDGE%20RD%2C+STOCKBRIDGE%2C+GA+30281
WALGREEN CO.,2270 US HIGHWAY 17,,"RICHMOND HILL, GA 31324",http://maps.google.com/maps?q=WALGREEN%20CO%2C2270%20US%20HIGHWAY%2017%2C+RICHMOND%20HILL%2C+GA+31324
WALGREEN CO.,2289 GUNBARREL,,"CHATTANOOGA, TN 37421",http://maps.google.com/maps?q=WALGREEN%20CO%2C2289%20GUNBARREL%2C+CHATTANOOGA%2C+TN+37421
WALGREEN CO.,2410 REIDVILLE ROAD,,"SPARTANBURG, SC 29301",http://maps.google.com/maps?q=WALGREEN%20CO%2C2410%20REIDVILLE%20ROAD%2C+SPARTANBURG%2C+SC+29301
WALGREEN CO.,2464 ROSWELL RD.,,"MARIETTA, GA 30062",http://maps.google.com/maps?q=WALGREEN%20CO%2C2464%20ROSWELL%20RD.%2C+MARIETTA%2C+GA+30062
WALGREEN CO.,2670 COBB PARKWAY SE,,"SMYRNA, GA 30080",http://maps.google.com/maps?q=WALGREEN%20CO%2C2670%20COBB%20PARKWAY%20SE%2C+SMYRNA%2C+GA+30080
WALGREEN CO.,2779 N COBB PARKWAY,,"KENNESAW, GA 30152",http://maps.google.com/maps?q=WALGREEN%20CO%2C2779%20N%20COBB%20PARKWAY%2C+KENNESAW%2C+GA+30152
WALGREEN CO.,2811 N MAIN ST,,"ANDERSON, SC 29621",http://maps.google.com/maps?q=WALGREEN%20CO%2C2811%20N%20MAIN%20ST%2C+ANDERSON%2C+SC+29621
WALGREEN CO.,2990 FIVE FORKS TRICKUM RD,,"LAWRENCEVILLE, GA 30044",http://maps.google.com/maps?q=WALGREEN%20CO%2C2990%20FIVE%20FORKS%20TRICKUM%20RD%2C+LAWRENCEVILLE%2C+GA+30044
WALGREEN CO.,3003 FAYETTEVILLE RD,,"LUMBERTON, NC 28358",http://maps.google.com/maps?q=WALGREEN%20CO%2C3003%20FAYETTEVILLE%20RD%2C+LUMBERTON%2C+NC+28358
WALGREEN CO.,3204 PEACH ORCHARD ROAD,,"AUGUSTA, GA 30906",http://maps.google.com/maps?q=WALGREEN%20CO%2C3204%20PEACH%20ORCHARD%20ROAD%2C+AUGUSTA%2C+GA+30906
WALGREEN CO.,3681 BOILING SPRINGS ROAD,,"BOILING SPRINGS, SC 29316",http://maps.google.com/maps?q=WALGREEN%20CO%2C3681%20BOILING%20SPRINGS%20ROAD%2C+BOILING%20SPRINGS%2C+SC+29316
WALGREEN CO.,3740 CASCADE RD SW,,"ATLANTA, GA 30331",http://maps.google.com/maps?q=WALGREEN%20CO%2C3740%20CASCADE%20RD%20SW%2C+ATLANTA%2C+GA+30331
WALGREEN CO.,3800 PRINCETON LAKES PKWY SW,,"ATLANTA, GA 30331",http://maps.google.com/maps?q=WALGREEN%20CO%2C3800%20PRINCETON%20LAKES%20PKWY%20SW%2C+ATLANTA%2C+GA+30331
WALGREEN CO.,4120 AUSTELL RD,,"AUSTELL, GA 30106",http://maps.google.com/maps?q=WALGREEN%20CO%2C4120%20AUSTELL%20RD%2C+AUSTELL%2C+GA+30106
WALGREEN CO.,423 W MAIN ST,,"LEXINGTON, SC 29072",http://maps.google.com/maps?q=WALGREEN%20CO%2C423%20W%20MAIN%20ST%2C+LEXINGTON%2C+SC+29072
WALGREEN CO.,4398 ATLANTA HWY,,"LOGANVILLE, GA 30052",http://maps.google.com/maps?q=WALGREEN%20CO%2C4398%20ATLANTA%20HWY%2C+LOGANVILLE%2C+GA+30052
WALGREEN CO.,4521 OLEANDER DRIVE,,"WILMINGTON, NC 28403",http://maps.google.com/maps?q=WALGREEN%20CO%2C4521%20OLEANDER%20DRIVE%2C+WILMINGTON%2C+NC+28403
WALGREEN CO.,5320 MEMORIAL DR,,"STONE MOUNTAIN, GA 30083",http://maps.google.com/maps?q=WALGREEN%20CO%2C5320%20MEMORIAL%20DR%2C+STONE%20MOUNTAIN%2C+GA+30083
WALGREEN CO.,542 RIVER HWY,,"MOORESVILLE, NC 28117",http://maps.google.com/maps?q=WALGREEN%20CO%2C542%20RIVER%20HWY%2C+MOORESVILLE%2C+NC+28117
WALGREEN CO.,5478 HIGHWAY 153,,"HIXSON, TN 37343",http://maps.google.com/maps?q=WALGREEN%20CO%2C5478%20HIGHWAY%20153%2C+HIXSON%2C+TN+37343
WALGREEN CO.,5985 PEACHTREE PKWY,,"NORCROSS, GA 30092",http://maps.google.com/maps?q=WALGREEN%20CO%2C5985%20PEACHTREE%20PKWY%2C+NORCROSS%2C+GA+30092
WALGREEN CO.,6649 MORRISON BLVD,,"CHARLOTTE, NC 28211",http://maps.google.com/maps?q=WALGREEN%20CO%2C6649%20MORRISON%20BLVD%2C+CHARLOTTE%2C+NC+28211
WALGREEN CO.,6802 W WILKINSON BLVD,,"BELMONT, NC 28012",http://maps.google.com/maps?q=WALGREEN%20CO%2C6802%20W%20WILKINSON%20BLVD%2C+BELMONT%2C+NC+28012
WALGREEN CO.,700 EAST DERENNE AVE,,"SAVANNAH, GA 31405",http://maps.google.com/maps?q=WALGREEN%20CO%2C700%20EAST%20DERENNE%20AVE%2C+SAVANNAH%2C+GA+31405
WALGREEN CO.,701 MARTHA BERRY BLVD NW,,"ROME, GA 30165",http://maps.google.com/maps?q=WALGREEN%20CO%2C701%20MARTHA%20BERRY%20BLVD%20NW%2C+ROME%2C+GA+30165
WALGREEN CO.,7530 ROSWELL RD,,"ATLANTA, GA 30350",http://maps.google.com/maps?q=WALGREEN%20CO%2C7530%20ROSWELL%20RD%2C+ATLANTA%2C+GA+30350
WALGREEN CO.,794 SOUTH PARK ST,,"CARROLLTON, GA 30117",http://maps.google.com/maps?q=WALGREEN%20CO%2C794%20SOUTH%20PARK%20ST%2C+CARROLLTON%2C+GA+30117
WALGREEN CO.,8538 N TRYON ST,,"CHARLOTTE, NC 28262",http://maps.google.com/maps?q=WALGREEN%20CO%2C8538%20N%20TRYON%20ST%2C+CHARLOTTE%2C+NC+28262
WALGREEN CO.,898 HORIZON SOUTH PKWY,,"GROVETOWN, GA 30813",http://maps.google.com/maps?q=WALGREEN%20CO%2C898%20HORIZON%20SOUTH%20PKWY%2C+GROVETOWN%2C+GA+30813
YOUNG BROTHERS PHARMACY INC,2 WEST MAIN STREET,,"CARTERSVILLE, GA 30120",http://maps.google.com/maps?q=YOUNG%20BROTHERS%20PHARMACY%20INC%2C2%20WEST%20MAIN%20STREET%2C+CARTERSVILLE%2C+GA+30120
