Business Name,Address 1,Address 2,"City, State Zip",Map URL
ALL CARE HEALTH CENTER,902 SOUTH 6TH STREET,,"COUNCIL BLUFFS, IA 51501",http://maps.google.com/maps?q=ALL%20CARE%20HEALTH%20CENTER%2C902%20SOUTH%206TH%20STREET%2C+COUNCIL%20BLUFFS%2C+IA+51501
ATCHISON HOSPITAL ASSOCIATION,800 RAVEN HILL DRIVE,,"ATCHISON, KS 66002",http://maps.google.com/maps?q=ATCHISON%20HOSPITAL%20ASSOCIATION%2C800%20RAVEN%20HILL%20DRIVE%2C+ATCHISON%2C+KS+66002
AUBURN PHARMACY INC,1011 BAPTISTE DRIVE,,"PAOLA, KS 66071",http://maps.google.com/maps?q=AUBURN%20PHARMACY%20INC%2C1011%20BAPTISTE%20DRIVE%2C+PAOLA%2C+KS+66071
BEDFORD DRUG,419 MAIN ST,PO BOX 66,"BEDFORD, IA 50833",http://maps.google.com/maps?q=BEDFORD%20DRUG%2C419%20MAIN%20ST%2C+BEDFORD%2C+IA+50833
CHI HEALTH ST MARY'S,1301 GRUNDMAN BLVD,,"NEBRASKA CITY, NE 68410",http://maps.google.com/maps?q=CHI%20HEALTH%20ST%20MARYS%2C1301%20GRUNDMAN%20BLVD%2C+NEBRASKA%20CITY%2C+NE+68410
COMMUNITY MEDICAL CENTER INC,3307 BARADA ST,PO BOX 399,"FALLS CITY, NE 68355",http://maps.google.com/maps?q=COMMUNITY%20MEDICAL%20CENTER%20INC%2C3307%20BARADA%20ST%2C+FALLS%20CITY%2C+NE+68355
DBA NUCARA PHARMACY #16,107 W MAIN,,"OTTUMWA, IA 52501",http://maps.google.com/maps?q=DBA%20NUCARA%20PHARMACY%2C107%20W%20MAIN%2C+OTTUMWA%2C+IA+52501
ELMWOOD PHARMACY,808 S. 52ND,,"OMAHA, NE 68106",http://maps.google.com/maps?q=ELMWOOD%20PHARMACY%2C808%20S.%2052ND%2C+OMAHA%2C+NE+68106
FUTRELL PHARMACY,115 E BROADWAY,,"POCAHONTAS, AR 72455",http://maps.google.com/maps?q=FUTRELL%20PHARMACY%2C115%20E%20BROADWAY%2C+POCAHONTAS%2C+AR+72455
HY-VEE PHARMACY (1619),500 S. FREMONT STREET,,"SHENANDOAH, IA 51601",http://maps.google.com/maps?q=HYVEE%20PHARMACY%2C500%20S.%20FREMONT%20STREET%2C+SHENANDOAH%2C+IA+51601
"HY-VEE, INC.",204 N MAIN ST.,,"LEON, IA 50144",http://maps.google.com/maps?q=HYVEE%20INC%2C204%20N%20MAIN%20ST.%2C+LEON%2C+IA+50144
"HY-VEE, INC.",510 W MCLANE,,"OSCEOLA, IA 50213",http://maps.google.com/maps?q=HYVEE%20INC%2C510%20W%20MCLANE%2C+OSCEOLA%2C+IA+50213
"HY-VEE, INC.",625 DAVIS AVE,,"CORNING, IA 50841",http://maps.google.com/maps?q=HYVEE%20INC%2C625%20DAVIS%20AVE%2C+CORNING%2C+IA+50841
JOHNSON COUNTY HOSPITAL,202 HIGH STREET,P.O. BOX 599,"TECUMSEH, NE 68450",http://maps.google.com/maps?q=JOHNSON%20COUNTY%20HOSPITAL%2C202%20HIGH%20STREET%2C+TECUMSEH%2C+NE+68450
KOECHNER PHARMACIES LLC,807 MAIN STREET,,"ATCHISON, KS 66002",http://maps.google.com/maps?q=KOECHNER%20PHARMACIES%20LLC%2C807%20MAIN%20STREET%2C+ATCHISON%2C+KS+66002
KOHLL'S PHARMACY & HOMECARE,12739 Q STREET,,"OMAHA, NE 68137",http://maps.google.com/maps?q=KOHLLS%20PHARMACY%20%20HOMECARE%2C12739%20Q%20STREET%2C+OMAHA%2C+NE+68137
KOHLL/RXMPSS,5110 L STREET,,"OMAHA, NE 68117",http://maps.google.com/maps?q=KOHLLRXMPSS%2C5110%20L%20STREET%2C+OMAHA%2C+NE+68117
LOWELL PHARMACY,114 HARRISON AVENUE,PO BOX 56,"LOWELL, AR 72745",http://maps.google.com/maps?q=LOWELL%20PHARMACY%2C114%20HARRISON%20AVENUE%2C+LOWELL%2C+AR+72745
MEDICAL CENTER PHARMACY,8901 W. 74TH STREET,,"SHAWNEE MISSION, KS 66204",http://maps.google.com/maps?q=MEDICAL%20CENTER%20PHARMACY%2C8901%20W.%2074TH%20STREET%2C+SHAWNEE%20MISSION%2C+KS+66204
NE MEDICAL CTR CLINIC PHARM,989200 NEBRASKA MEDICAL CTR,,"OMAHA, NE 68198",http://maps.google.com/maps?q=NE%20MEDICAL%20CTR%20CLINIC%20PHARM%2C989200%20NEBRASKA%20MEDICAL%20CTR%2C+OMAHA%2C+NE+68198
NEIGHBORHOOD LTC PHARMACY,5115 SOUTH 111TH ST,,"OMAHA, NE 68137",http://maps.google.com/maps?q=NEIGHBORHOOD%20LTC%20PHARMACY%2C5115%20SOUTH%20111TH%20ST%2C+OMAHA%2C+NE+68137
NEMAHA COUNTY HOSPITAL,2022 13TH STREET,,"AUBURN, NE 68305",http://maps.google.com/maps?q=NEMAHA%20COUNTY%20HOSPITAL%2C2022%2013TH%20STREET%2C+AUBURN%2C+NE+68305
NUCARA PHARMACY #30,107 N MAIN ST,,"LENOX, IA 50851",http://maps.google.com/maps?q=NUCARA%20PHARMACY%2C107%20N%20MAIN%20ST%2C+LENOX%2C+IA+50851
"PHARMACY PLUS, INC.",693 BAINBRIDGE ST,,"BARRY, IL 62312",http://maps.google.com/maps?q=PHARMACY%20PLUS%20INC%2C693%20BAINBRIDGE%20ST%2C+BARRY%2C+IL+62312
SHOPKO PHARMACY #2676,1901 COURT AVE,,"CHARITON, IA 50049",http://maps.google.com/maps?q=SHOPKO%20PHARMACY%2C1901%20COURT%20AVE%2C+CHARITON%2C+IA+50049
SHOPKO PHARMACY #2684,106 SMITH ST,,"BLOOMFIELD, IA 52537",http://maps.google.com/maps?q=SHOPKO%20PHARMACY%2C106%20SMITH%20ST%2C+BLOOMFIELD%2C+IA+52537
SHOPKO PHARMACY #2686,902 S LOCUST ST,,"GLENWOOD, IA 51534",http://maps.google.com/maps?q=SHOPKO%20PHARMACY%2C902%20S%20LOCUST%20ST%2C+GLENWOOD%2C+IA+51534
SHOPKO PHARMACY #2689,201 N FILLMORE ST,,"MOUNT AYR, IA 50854",http://maps.google.com/maps?q=SHOPKO%20PHARMACY%2C201%20N%20FILLMORE%20ST%2C+MOUNT%20AYR%2C+IA+50854
ST LUKES SOUTH HOSPITAL,12300 METCALF AVENUE,,"OVERLAND PARK, KS 66213",http://maps.google.com/maps?q=ST%20LUKES%20SOUTH%20HOSPITAL%2C12300%20METCALF%20AVENUE%2C+OVERLAND%20PARK%2C+KS+66213
THE MEDICINE STORE,760 NORTHSTAR COURT,,"TONGANOXIE, KS 66086",http://maps.google.com/maps?q=THE%20MEDICINE%20STORE%2C760%20NORTHSTAR%20COURT%2C+TONGANOXIE%2C+KS+66086
THE NEBRASKA MEDICAL CENTER BELLEVUE PHARMACY,2510 BELLEVUE MEDICAL CENTER DR,STE 100,"BELLEVUE, NE 68123",http://maps.google.com/maps?q=THE%20NEBRASKA%20MEDICAL%20CENTER%20BELLEVUE%20PHARMACY%2C2510%20BELLEVUE%20MEDICAL%20CENTER%20DR%2C+BELLEVUE%2C+NE+68123
U-SAVE PHARMACY,1821 S. 11TH ST.,,"NEBRASKA CITY, NE 68410",http://maps.google.com/maps?q=USAVE%20PHARMACY%2C1821%20S.%2011TH%20ST.%2C+NEBRASKA%20CITY%2C+NE+68410
UNIV OF KANSAS HOSP AUTHORITY,2015 W 39TH,,"KANSAS CITY, KS 66103",http://maps.google.com/maps?q=UNIV%20OF%20KANSAS%20HOSP%20AUTHORITY%2C2015%20W%2039TH%2C+KANSAS%20CITY%2C+KS+66103
UNIVERSITY OF KANSAS HOSPITAL,CANCER CENTER PHARMACY,2330 SHAWNEE MISSION PARKWAY,"WESTWOOD, KS 66205",http://maps.google.com/maps?q=UNIVERSITY%20OF%20KANSAS%20HOSPITAL%2CCANCER%20CENTER%20PHARMACY%2C+WESTWOOD%2C+KS+66205
US ARMY - MUNSON  HEALTH CENTER,PHARMACY SERVICES,550 POPE AVE,"FT LEAVENWORTH, KS 66027",http://maps.google.com/maps?q=US%20ARMY%20%20MUNSON%20%20HEALTH%20CENTER%2CPHARMACY%20SERVICES%2C+FT%20LEAVENWORTH%2C+KS+66027
USAF- OFFUTT AFB,"2501 CAPEHART RD, STE I105",ATTN:LOGISTICS VAULT CUSTODIAN,"OFFUTT AFB, NE 68113",http://maps.google.com/maps?q=USAF%20OFFUTT%20AFB%2C2501%20CAPEHART%20RD%2C%20STE%20I105%2C+OFFUTT%20AFB%2C+NE+68113
USAF-OFFUTT,502 CUSTER DRIVE,ATTN: LOGISTICS VAULT CUSTODIAN,"OFFUTT AFB, NE 68113",http://maps.google.com/maps?q=USAFOFFUTT%2C502%20CUSTER%20DRIVE%2C+OFFUTT%20AFB%2C+NE+68113
WALGREEN CO,2229 S MAIN ST,,"FORT SCOTT, KS 66701",http://maps.google.com/maps?q=WALGREEN%20CO%2C2229%20S%20MAIN%20ST%2C+FORT%20SCOTT%2C+KS+66701
WALGREEN CO.,1001 SW TOPEKA BLVD.,,"TOPEKA, KS 66612",http://maps.google.com/maps?q=WALGREEN%20CO%2C1001%20SW%20TOPEKA%20BLVD.%2C+TOPEKA%2C+KS+66612
WALGREEN CO.,13155 W CENTER RD,,"OMAHA, NE 68144",http://maps.google.com/maps?q=WALGREEN%20CO%2C13155%20W%20CENTER%20RD%2C+OMAHA%2C+NE+68144
WALGREEN CO.,1445 S MAIN STREET,,"OTTAWA, KS 66067",http://maps.google.com/maps?q=WALGREEN%20CO%2C1445%20S%20MAIN%20STREET%2C+OTTAWA%2C+KS+66067
WALGREEN CO.,1722 W WALNUT ST,,"ROGERS, AR 72756",http://maps.google.com/maps?q=WALGREEN%20CO%2C1722%20W%20WALNUT%20ST%2C+ROGERS%2C+AR+72756
WALGREEN CO.,1911 N BROADWAY STREET,,"PITTSBURG, KS 66762",http://maps.google.com/maps?q=WALGREEN%20CO%2C1911%20N%20BROADWAY%20STREET%2C+PITTSBURG%2C+KS+66762
WALGREEN CO.,2605 S 171ST ST,,"OMAHA, NE 68130",http://maps.google.com/maps?q=WALGREEN%20CO%2C2605%20S%20171ST%20ST%2C+OMAHA%2C+NE+68130
WALGREEN CO.,2900 S 4TH ST,,"LEAVENWORTH, KS 66048",http://maps.google.com/maps?q=WALGREEN%20CO%2C2900%20S%204TH%20ST%2C+LEAVENWORTH%2C+KS+66048
WALGREEN CO.,3421 WEST 6TH ST,,"LAWRENCE, KS 66049",http://maps.google.com/maps?q=WALGREEN%20CO%2C3421%20WEST%206TH%20ST%2C+LAWRENCE%2C+KS+66049
WALGREEN CO.,350 HWY 62 EAST,,"MOUTAIN HOME, AR 72653",http://maps.google.com/maps?q=WALGREEN%20CO%2C350%20HWY%2062%20EAST%2C+MOUTAIN%20HOME%2C+AR+72653
WALGREEN CO.,5038 CENTER ST.,,"OMAHA, NE 68106",http://maps.google.com/maps?q=WALGREEN%20CO%2C5038%20CENTER%20ST.%2C+OMAHA%2C+NE+68106
WALGREEN CO.,7500 METCALF AVE,,"OVERLAND PARK, KS 66204",http://maps.google.com/maps?q=WALGREEN%20CO%2C7500%20METCALF%20AVE%2C+OVERLAND%20PARK%2C+KS+66204
WALGREEN CO.,7739 STATE AVE,,"KANSAS CITY, KS 66112",http://maps.google.com/maps?q=WALGREEN%20CO%2C7739%20STATE%20AVE%2C+KANSAS%20CITY%2C+KS+66112
