Business Name,Address 1,Address 2,"City, State Zip",Map URL
ACCUSCRIPTS PHARMACY L.L.C.,24340 SPERRY DR,,"WESTLAKE, OH 44145",http://maps.google.com/maps?q=ACCUSCRIPTS%20PHARMACY%20LLC%2C24340%20SPERRY%20DR%2C+WESTLAKE%2C+OH+44145
AHF PHARMACY,1230 N. HIGH STREET,,"COLUMBUS, OH 43201",http://maps.google.com/maps?q=AHF%20PHARMACY%2C1230%20N.%20HIGH%20STREET%2C+COLUMBUS%2C+OH+43201
ALLIANCE COMMUNITY HOSPITAL,200 E. STATE ST,,"ALLIANCE, OH 44601",http://maps.google.com/maps?q=ALLIANCE%20COMMUNITY%20HOSPITAL%2C200%20E.%20STATE%20ST%2C+ALLIANCE%2C+OH+44601
"AMC OHIO LLC, DBA EQUITAS HEALTH PHARMACY #3",750 E LONG ST,SUITE 3100,"COLUMBUS, OH 43203",http://maps.google.com/maps?q=AMC%20OHIO%20LLC%20DBA%20EQUITAS%20HEALTH%20PHARMACY%2C750%20E%20LONG%20ST%2C+COLUMBUS%2C+OH+43203
BARNESVILLE HOSPITAL ASSN INC,639 W MAIN ST,,"BARNESVILLE, OH 43713",http://maps.google.com/maps?q=BARNESVILLE%20HOSPITAL%20ASSN%20INC%2C639%20W%20MAIN%20ST%2C+BARNESVILLE%2C+OH+43713
BELLWOOD DRUGS,135 SOUTH MAIN STREET,,"WOODSFIELD, OH 43793",http://maps.google.com/maps?q=BELLWOOD%20DRUGS%2C135%20SOUTH%20MAIN%20STREET%2C+WOODSFIELD%2C+OH+43793
BELMONT CO HLTH SERVICES,DBA MORRISTOWN PHCY,66840 BELMONT-MORRISTOWN RD,"BELMONT, OH 43718",http://maps.google.com/maps?q=BELMONT%20CO%20HLTH%20SERVICES%2CDBA%20MORRISTOWN%20PHCY%2C+BELMONT%2C+OH+43718
BERGER HOSPITAL,600 NORTH PICKAWAY STREET,ATTN PHARMACY,"CIRCLEVILLE, OH 43113",http://maps.google.com/maps?q=BERGER%20HOSPITAL%2C600%20NORTH%20PICKAWAY%20STREET%2C+CIRCLEVILLE%2C+OH+43113
"CAMERLIN ENTERPRISES, LLC",615 WELLS STREET,,"SISTERSVILLE, WV 26175",http://maps.google.com/maps?q=CAMERLIN%20ENTERPRISES%20LLC%2C615%20WELLS%20STREET%2C+SISTERSVILLE%2C+WV+26175
CARE-FILL PHARMACY,STE 1,43 WILLIAMSON RD,"GREENVILLE, PA 16125",http://maps.google.com/maps?q=CAREFILL%20PHARMACY%2CSTE%201%2C+GREENVILLE%2C+PA+16125
CHEFFY DRUGS LLC,148 EAST MAIN ST,,"BARNESVILLE, OH 43713",http://maps.google.com/maps?q=CHEFFY%20DRUGS%20LLC%2C148%20EAST%20MAIN%20ST%2C+BARNESVILLE%2C+OH+43713
CHILDRENS HOSPITAL OF PITTSBURGH,4401 PENN AVENUE,,"PITTSBURGH, PA 15224",http://maps.google.com/maps?q=CHILDRENS%20HOSPITAL%20OF%20PITTSBURGH%2C4401%20PENN%20AVENUE%2C+PITTSBURGH%2C+PA+15224
CHRISTIAN PHARMACY,DBA CORNER PHARMACY,102 WEST MAIN ST,"BARNESVILLE, OH 43713",http://maps.google.com/maps?q=CHRISTIAN%20PHARMACY%2CDBA%20CORNER%20PHARMACY%2C+BARNESVILLE%2C+OH+43713
CLEVELAND CLINIC AVON AMBULATORY PHARMACY,33100 CLEVELAND CLINIC BLVD,,"AVON, OH 44011",http://maps.google.com/maps?q=CLEVELAND%20CLINIC%20AVON%20AMBULATORY%20PHARMACY%2C33100%20CLEVELAND%20CLINIC%20BLVD%2C+AVON%2C+OH+44011
CLEVELAND CLINIC HILLCREST AMBULATORY PHARMACY,6770 MAYFIELD RD.,,"MAYFIELD HEIGHTS, OH 44124",http://maps.google.com/maps?q=CLEVELAND%20CLINIC%20HILLCREST%20AMBULATORY%20PHARMACY%2C6770%20MAYFIELD%20RD.%2C+MAYFIELD%20HEIGHTS%2C+OH+44124
CLEVELAND CLINIC PHARMACY,9211 EUCLID AVENUE,,"CLEVELAND, OH 44195",http://maps.google.com/maps?q=CLEVELAND%20CLINIC%20PHARMACY%2C9211%20EUCLID%20AVENUE%2C+CLEVELAND%2C+OH+44195
DAVIS BROTHERS PHARMACY,615 N CHESTER ST,,"NEW CUMBERLAND, WV 26047",http://maps.google.com/maps?q=DAVIS%20BROTHERS%20PHARMACY%2C615%20N%20CHESTER%20ST%2C+NEW%20CUMBERLAND%2C+WV+26047
DAVIS BROTHERS PHARMACY - CHESTER,559 CAROLINA AVE STE B,,"CHESTER, WV 26034",http://maps.google.com/maps?q=DAVIS%20BROTHERS%20PHARMACY%20%20CHESTER%2C559%20CAROLINA%20AVE%20STE%20B%2C+CHESTER%2C+WV+26034
DONORA UNION PHARMACY,601 MCKEAN AVE,,"DONORA, PA 15033",http://maps.google.com/maps?q=DONORA%20UNION%20PHARMACY%2C601%20MCKEAN%20AVE%2C+DONORA%2C+PA+15033
DUSINI DRUG INC,315 EAST HIGH AVENUE,,"NEW PHILADELPHIA, OH 44663",http://maps.google.com/maps?q=DUSINI%20DRUG%20INC%2C315%20EAST%20HIGH%20AVENUE%2C+NEW%20PHILADELPHIA%2C+OH+44663
EQUITAS HEALTH PHARMACY,1033 N. HIGH ST.,,"COLUMBUS, OH 43201",http://maps.google.com/maps?q=EQUITAS%20HEALTH%20PHARMACY%2C1033%20N.%20HIGH%20ST.%2C+COLUMBUS%2C+OH+43201
FAST & FRIENDLY PHARMACY RC LLC,4 GARTON PLAZA,,"WESTON, WV 26452",http://maps.google.com/maps?q=FAST%20%20FRIENDLY%20PHARMACY%20RC%20LLC%2C4%20GARTON%20PLAZA%2C+WESTON%2C+WV+26452
FINNEY'S INSTITUTIONAL,5930 MAYFAIR RD. N.W.,,"NORTH CANTON, OH 44720",http://maps.google.com/maps?q=FINNEYS%20INSTITUTIONAL%2C5930%20MAYFAIR%20RD.%20N.W.%2C+NORTH%20CANTON%2C+OH+44720
FRANKLIN PHARM & HEALTH CARE,1732 YOUNGSTOWN RD,,"WARREN, OH 44484",http://maps.google.com/maps?q=FRANKLIN%20PHARM%20%20HEALTH%20CARE%2C1732%20YOUNGSTOWN%20RD%2C+WARREN%2C+OH+44484
FRONTIER PHARMACY,1216 WEST 6TH STREET,,"ERIE, PA 16507",http://maps.google.com/maps?q=FRONTIER%20PHARMACY%2C1216%20WEST%206TH%20STREET%2C+ERIE%2C+PA+16507
"GENOA HEALTHCARE, LLC","12557 RAVENWOOD DRIVE, STE 112",,"CHARDON, OH 44024",http://maps.google.com/maps?q=GENOA%20HEALTHCARE%20LLC%2C12557%20RAVENWOOD%20DRIVE%2C%20STE%20112%2C+CHARDON%2C+OH+44024
"GENOA HEALTHCARE, LLC",1301 NORTH HIGH STREET,,"COLUMBUS, OH 43201",http://maps.google.com/maps?q=GENOA%20HEALTHCARE%20LLC%2C1301%20NORTH%20HIGH%20STREET%2C+COLUMBUS%2C+OH+43201
"GENOA HEALTHCARE, LLC",1445 W. MAIN STREET,,"NEWARK, OH 43055",http://maps.google.com/maps?q=GENOA%20HEALTHCARE%20LLC%2C1445%20W.%20MAIN%20STREET%2C+NEWARK%2C+OH+43055
"GENOA HEALTHCARE, LLC",340 SOUTH BROADWAY STREET,,"AKRON, OH 44308",http://maps.google.com/maps?q=GENOA%20HEALTHCARE%20LLC%2C340%20SOUTH%20BROADWAY%20STREET%2C+AKRON%2C+OH+44308
"GENOA HEALTHCARE, LLC","525 METRO PLACE N, STE 150",,"DUBLIN, OH 43017",http://maps.google.com/maps?q=GENOA%20HEALTHCARE%20LLC%2C525%20METRO%20PLACE%20N%2C%20STE%20150%2C+DUBLIN%2C+OH+43017
"GENOA HEALTHCARE, LLC","624 MARKET STREET N, STE 140",,"CANTON, OH 44702",http://maps.google.com/maps?q=GENOA%20HEALTHCARE%20LLC%2C624%20MARKET%20STREET%20N%2C%20STE%20140%2C+CANTON%2C+OH+44702
"GENOA HEALTHCARE, LLC",625 CLEVELAND AVE NW,SUITE 301,"CANTON, OH 44702",http://maps.google.com/maps?q=GENOA%20HEALTHCARE%20LLC%2C625%20CLEVELAND%20AVE%20NW%2C+CANTON%2C+OH+44702
"GENOA HEALTHCARE, LLC",726 WICK AVE,,"YOUNGSTOWN, OH 44505",http://maps.google.com/maps?q=GENOA%20HEALTHCARE%20LLC%2C726%20WICK%20AVE%2C+YOUNGSTOWN%2C+OH+44505
"GENOA HEALTHCARE, LLC","741 SCHOLL ROAD, STE P1",,"MANSFIELD, OH 44907",http://maps.google.com/maps?q=GENOA%20HEALTHCARE%20LLC%2C741%20SCHOLL%20ROAD%2C%20STE%20P1%2C+MANSFIELD%2C+OH+44907
"GENOA HEALTHCARE, LLC",9220 MENTOR AVENUE,,"MENTOR, OH 44060",http://maps.google.com/maps?q=GENOA%20HEALTHCARE%20LLC%2C9220%20MENTOR%20AVENUE%2C+MENTOR%2C+OH+44060
GILLESPIE'S DRUGS,44523 MARIETTA ROAD,,"CALDWELL, OH 43724",http://maps.google.com/maps?q=GILLESPIES%20DRUGS%2C44523%20MARIETTA%20ROAD%2C+CALDWELL%2C+OH+43724
GRANE SUPPLY,105 GAMMA DRIVE,SUITE 100,"PITTSBURGH, PA 15238",http://maps.google.com/maps?q=GRANE%20SUPPLY%2C105%20GAMMA%20DRIVE%2C+PITTSBURGH%2C+PA+15238
HERITAGE VALLEY PHARMACY,BEAVER CAMPUS/PHARMACY DEPT,1000 DUTCH RIDGE ROAD,"BEAVER, PA 15009",http://maps.google.com/maps?q=HERITAGE%20VALLEY%20PHARMACY%2CBEAVER%20CAMPUS/PHARMACY%20DEPT%2C+BEAVER%2C+PA+15009
HERITAGE VALLEY PHARMACY SEWICKLEY CAMP,720 BLACKBURN ROAD,,"SEWICKLEY, PA 15143",http://maps.google.com/maps?q=HERITAGE%20VALLEY%20PHARMACY%20SEWICKLEY%20CAMP%2C720%20BLACKBURN%20ROAD%2C+SEWICKLEY%2C+PA+15143
HILLTOP PHARMACY,818 E. WARRINGTON AVENUE,,"PITTSBURGH, PA 15210",http://maps.google.com/maps?q=HILLTOP%20PHARMACY%2C818%20E.%20WARRINGTON%20AVENUE%2C+PITTSBURGH%2C+PA+15210
HYDE DRUG STORE,112 N LIBERTY ST,,"NEW CASTLE, PA 16102",http://maps.google.com/maps?q=HYDE%20DRUG%20STORE%2C112%20N%20LIBERTY%20ST%2C+NEW%20CASTLE%2C+PA+16102
JAMESTOWN PHARMACY,121 LIBERTY STREET,PO BOX 395,"JAMESTOWN, PA 16134",http://maps.google.com/maps?q=JAMESTOWN%20PHARMACY%2C121%20LIBERTY%20STREET%2C+JAMESTOWN%2C+PA+16134
MERCER PHARMACY,737 GREENVILLE ROAD,,"MERCER, PA 16137",http://maps.google.com/maps?q=MERCER%20PHARMACY%2C737%20GREENVILLE%20ROAD%2C+MERCER%2C+PA+16137
MOUNDSVILLE PHARMACY,118 NORTH LAFAYETTE AVENUE,,"MOUNDSVILLE, WV 26041",http://maps.google.com/maps?q=MOUNDSVILLE%20PHARMACY%2C118%20NORTH%20LAFAYETTE%20AVENUE%2C+MOUNDSVILLE%2C+WV+26041
NORTHCOAST BEHAVIORAL,PHARMACY DEPARTMENT,1756 SAGAMORE ROAD,"NORTHFIELD, OH 44067",http://maps.google.com/maps?q=NORTHCOAST%20BEHAVIORAL%2CPHARMACY%20DEPARTMENT%2C+NORTHFIELD%2C+OH+44067
NORTHSIDE CAMBRIDGE PHARMACY,1300 CLARK STREET,SUITE 4,"CAMBRIDGE, OH 43725",http://maps.google.com/maps?q=NORTHSIDE%20CAMBRIDGE%20PHARMACY%2C1300%20CLARK%20STREET%2C+CAMBRIDGE%2C+OH+43725
NORTHSIDE PHARMACY,2899 BELL STREET,,"ZANESVILLE, OH 43701",http://maps.google.com/maps?q=NORTHSIDE%20PHARMACY%2C2899%20BELL%20STREET%2C+ZANESVILLE%2C+OH+43701
NORTHSIDE SOMERSET PHARMACY,110 WEST MAIN STREET,,"SOMERSET, OH 43783",http://maps.google.com/maps?q=NORTHSIDE%20SOMERSET%20PHARMACY%2C110%20WEST%20MAIN%20STREET%2C+SOMERSET%2C+OH+43783
NORTHWEST PHARMACY SOLUTIONS,740 N MAIN ST EXT,STE 001,"MEADVILLE, PA 16335",http://maps.google.com/maps?q=NORTHWEST%20PHARMACY%20SOLUTIONS%2C740%20N%20MAIN%20ST%20EXT%2C+MEADVILLE%2C+PA+16335
"OHIO CVS STORES, L.L.C.",1100 HILL RD. N,,"PICKERINGTON, OH 43147",http://maps.google.com/maps?q=OHIO%20CVS%20STORES%20LLC%2C1100%20HILL%20RD.%20N%2C+PICKERINGTON%2C+OH+43147
"OHIO CVS STORES, L.L.C.",111 SOUTH MEMORIAL DRIVE,,"LANCASTER, OH 43130",http://maps.google.com/maps?q=OHIO%20CVS%20STORES%20LLC%2C111%20SOUTH%20MEMORIAL%20DRIVE%2C+LANCASTER%2C+OH+43130
"OHIO CVS STORES, L.L.C.",11223 GRANGER RD.,,"GARFIELD HEIGHTS, OH 44125",http://maps.google.com/maps?q=OHIO%20CVS%20STORES%20LLC%2C11223%20GRANGER%20RD.%2C+GARFIELD%20HEIGHTS%2C+OH+44125
"OHIO CVS STORES, L.L.C.",11706 CLIFTON BOULEVARD,,"LAKEWOOD, OH 44107",http://maps.google.com/maps?q=OHIO%20CVS%20STORES%20LLC%2C11706%20CLIFTON%20BOULEVARD%2C+LAKEWOOD%2C+OH+44107
"OHIO CVS STORES, L.L.C.",2007 BROOKPARK ROAD,,"CLEVELAND, OH 44109",http://maps.google.com/maps?q=OHIO%20CVS%20STORES%20LLC%2C2007%20BROOKPARK%20ROAD%2C+CLEVELAND%2C+OH+44109
"OHIO CVS STORES, L.L.C.",21 GRANT ST.,,"DENNISON, OH 44621",http://maps.google.com/maps?q=OHIO%20CVS%20STORES%20LLC%2C21%20GRANT%20ST.%2C+DENNISON%2C+OH+44621
"OHIO CVS STORES, L.L.C.",210 EAST EMMITT AVE.,,"WAVERLY, OH 45690",http://maps.google.com/maps?q=OHIO%20CVS%20STORES%20LLC%2C210%20EAST%20EMMITT%20AVE.%2C+WAVERLY%2C+OH+45690
"OHIO CVS STORES, L.L.C.",212 WEST BAGLEY ROAD,,"BEREA, OH 44017",http://maps.google.com/maps?q=OHIO%20CVS%20STORES%20LLC%2C212%20WEST%20BAGLEY%20ROAD%2C+BEREA%2C+OH+44017
"OHIO CVS STORES, L.L.C.",22001 LAKESHORE BLVD,,"EUCLID, OH 44123",http://maps.google.com/maps?q=OHIO%20CVS%20STORES%20LLC%2C22001%20LAKESHORE%20BLVD%2C+EUCLID%2C+OH+44123
"OHIO CVS STORES, L.L.C.",2210 TUSCARAWAS ST. W,,"CANTON, OH 44708",http://maps.google.com/maps?q=OHIO%20CVS%20STORES%20LLC%2C2210%20TUSCARAWAS%20ST.%20W%2C+CANTON%2C+OH+44708
"OHIO CVS STORES, L.L.C.",2846 MAHONING AVE,,"YOUNGSTOWN, OH 44509",http://maps.google.com/maps?q=OHIO%20CVS%20STORES%20LLC%2C2846%20MAHONING%20AVE%2C+YOUNGSTOWN%2C+OH+44509
"OHIO CVS STORES, L.L.C.",3728 PEARL RD,,"CLEVELAND, OH 44109",http://maps.google.com/maps?q=OHIO%20CVS%20STORES%20LLC%2C3728%20PEARL%20RD%2C+CLEVELAND%2C+OH+44109
"OHIO CVS STORES, L.L.C.",4548 E. MAIN ST.,,"WHITEHALL, OH 43213",http://maps.google.com/maps?q=OHIO%20CVS%20STORES%20LLC%2C4548%20E.%20MAIN%20ST.%2C+WHITEHALL%2C+OH+43213
"OHIO CVS STORES, L.L.C.",4801 W. BROAD ST.,,"COLUMBUS, OH 43228",http://maps.google.com/maps?q=OHIO%20CVS%20STORES%20LLC%2C4801%20W.%20BROAD%20ST.%2C+COLUMBUS%2C+OH+43228
"OHIO CVS STORES, L.L.C.",5812 RIDGE ROAD,,"PARMA, OH 44129",http://maps.google.com/maps?q=OHIO%20CVS%20STORES%20LLC%2C5812%20RIDGE%20ROAD%2C+PARMA%2C+OH+44129
"OHIO CVS STORES, L.L.C.",590 EAST MARKET STREET,,"AKRON, OH 44304",http://maps.google.com/maps?q=OHIO%20CVS%20STORES%20LLC%2C590%20EAST%20MARKET%20STREET%2C+AKRON%2C+OH+44304
"OHIO CVS STORES, L.L.C.",6005 SOM CENTER RD.,,"WILLOUGHBY, OH 44094",http://maps.google.com/maps?q=OHIO%20CVS%20STORES%20LLC%2C6005%20SOM%20CENTER%20RD.%2C+WILLOUGHBY%2C+OH+44094
"OHIO CVS STORES, L.L.C.",620 S. CLEVELAND AVE.,,"WESTERVILLE, OH 43081",http://maps.google.com/maps?q=OHIO%20CVS%20STORES%20LLC%2C620%20S.%20CLEVELAND%20AVE.%2C+WESTERVILLE%2C+OH+43081
"OHIO CVS STORES, L.L.C.",7470 SAWMILL RD.,,"DUBLIN, OH 43016",http://maps.google.com/maps?q=OHIO%20CVS%20STORES%20LLC%2C7470%20SAWMILL%20RD.%2C+DUBLIN%2C+OH+43016
OHIOGUIDESTONE PHARMACY,3500 CARNEGIE AVENUE,,"CLEVELAND, OH 44115",http://maps.google.com/maps?q=OHIOGUIDESTONE%20PHARMACY%2C3500%20CARNEGIE%20AVENUE%2C+CLEVELAND%2C+OH+44115
"PCA-CORRECTIONS, LLC DBA CHOICE PHARMACY",4014 VENTURE COURT,,"COLUMBUS, OH 43228",http://maps.google.com/maps?q=PCACORRECTIONS%20LLC%20DBA%20CHOICE%20PHARMACY%2C4014%20VENTURE%20COURT%2C+COLUMBUS%2C+OH+43228
"PENNSYLVANIA CVS PHARMACY, L.L.C.",1740 WASHINGTON RD,,"PITTSBURGH, PA 15241",http://maps.google.com/maps?q=PENNSYLVANIA%20CVS%20PHARMACY%20LLC%2C1740%20WASHINGTON%20RD%2C+PITTSBURGH%2C+PA+15241
"PENNSYLVANIA CVS PHARMACY, L.L.C.",204 EAST SECOND STREET,,"OIL CITY, PA 16301",http://maps.google.com/maps?q=PENNSYLVANIA%20CVS%20PHARMACY%20LLC%2C204%20EAST%20SECOND%20STREET%2C+OIL%20CITY%2C+PA+16301
"PENNSYLVANIA CVS PHARMACY, L.L.C.",3800 PINE AVE,,"ERIE, PA 16504",http://maps.google.com/maps?q=PENNSYLVANIA%20CVS%20PHARMACY%20LLC%2C3800%20PINE%20AVE%2C+ERIE%2C+PA+16504
"PENNSYLVANIA CVS PHARMACY, L.L.C.",4610 CENTRE AVE,,"PITTSBURGH, PA 15213",http://maps.google.com/maps?q=PENNSYLVANIA%20CVS%20PHARMACY%20LLC%2C4610%20CENTRE%20AVE%2C+PITTSBURGH%2C+PA+15213
"PENNSYLVANIA CVS PHARMACY, L.L.C.",520 PENN AVE,,"WILKINSBURG, PA 15221",http://maps.google.com/maps?q=PENNSYLVANIA%20CVS%20PHARMACY%20LLC%2C520%20PENN%20AVE%2C+WILKINSBURG%2C+PA+15221
PROMEDICA MEMORIAL HOSPITAL,PHARMACY,715 SOUTH TAFT AVE,"FREMONT, OH 43420",http://maps.google.com/maps?q=PROMEDICA%20MEMORIAL%20HOSPITAL%2CPHARMACY%2C+FREMONT%2C+OH+43420
"SBW PHARMACY, INC",3676 N. HERMITAGE RD.,P.O. BOX 103,"TRANSFER, PA 16154",http://maps.google.com/maps?q=SBW%20PHARMACY%20INC%2C3676%20N.%20HERMITAGE%20RD.%2C+TRANSFER%2C+PA+16154
SHARON PHARMACY,63 PITT STREET,SUITE 102,"SHARON, PA 16146",http://maps.google.com/maps?q=SHARON%20PHARMACY%2C63%20PITT%20STREET%2C+SHARON%2C+PA+16146
SIGNATURE HEALTH,38882 MENTOR AVE,,"WILLOUGHBY, OH 44094",http://maps.google.com/maps?q=SIGNATURE%20HEALTH%2C38882%20MENTOR%20AVE%2C+WILLOUGHBY%2C+OH+44094
SIGNATURE HEALTH INC,4726 MAIN AVE,,"ASHTABULA, OH 44004",http://maps.google.com/maps?q=SIGNATURE%20HEALTH%20INC%2C4726%20MAIN%20AVE%2C+ASHTABULA%2C+OH+44004
SIGNATURE HEALTH INCORPORATED PHARMACY,21100 SOUTHGATE PARK BLVD,,"MAPLE HEIGHTS, OH 44137",http://maps.google.com/maps?q=SIGNATURE%20HEALTH%20INCORPORATED%20PHARMACY%2C21100%20SOUTHGATE%20PARK%20BLVD%2C+MAPLE%20HEIGHTS%2C+OH+44137
ST MARGARET MEMORIAL HOSPITAL,815 FREEPORT RD,,"PITTSBURGH, PA 15215",http://maps.google.com/maps?q=ST%20MARGARET%20MEMORIAL%20HOSPITAL%2C815%20FREEPORT%20RD%2C+PITTSBURGH%2C+PA+15215
ST. ELIZABETH BOARDMAN HOSPITAL,8401 MARKET STREET,,"BOARDMAN, OH 44512",http://maps.google.com/maps?q=ST%20ELIZABETH%20BOARDMAN%20HOSPITAL%2C8401%20MARKET%20STREET%2C+BOARDMAN%2C+OH+44512
ST. ELIZABETH YOUNGSTOWN HOSPITAL,1044 BELMONT AVENUE,2ND FLOOR,"YOUNGSTOWN, OH 44501",http://maps.google.com/maps?q=ST%20ELIZABETH%20YOUNGSTOWN%20HOSPITAL%2C1044%20BELMONT%20AVENUE%2C+YOUNGSTOWN%2C+OH+44501
ST. JOSEPH WARREN HOSPITAL,ATTN: PHARMACY DEPARTMENT,"667 EASTLAND AVENUE, SE","WARREN, OH 44484",http://maps.google.com/maps?q=ST%20JOSEPH%20WARREN%20HOSPITAL%2CATTN%3A%20PHARMACY%20DEPARTMENT%2C+WARREN%2C+OH+44484
THE MEDICINE SHOPPE,1740 EAST STATE STREET,,"HERMITAGE, PA 16148",http://maps.google.com/maps?q=THE%20MEDICINE%20SHOPPE%2C1740%20EAST%20STATE%20STREET%2C+HERMITAGE%2C+PA+16148
THE MEDICINE SHOPPE,419 SOUTH MAIN ST,,"GREENVILLE, PA 16125",http://maps.google.com/maps?q=THE%20MEDICINE%20SHOPPE%2C419%20SOUTH%20MAIN%20ST%2C+GREENVILLE%2C+PA+16125
THE MEDICINE SHOPPE #1929,315 SOUTH ERIE STREET,SUITE A,"MERCER, PA 16137",http://maps.google.com/maps?q=THE%20MEDICINE%20SHOPPE%2C315%20SOUTH%20ERIE%20STREET%2C+MERCER%2C+PA+16137
THE OHIO STATE UNIVERSITY OUTPATIENT PHARMACY  - J,460 W 10TH AVE,ROOM L012,"COLUMBUS, OH 43210",http://maps.google.com/maps?q=THE%20OHIO%20STATE%20UNIVERSITY%20OUTPATIENT%20PHARMACY%20%20%20J%2C460%20W%2010TH%20AVE%2C+COLUMBUS%2C+OH+43210
TRI-STATE PHARMACY,"JOHN J. BERNABEI, RPH",651 COLLIERS WAY SUITE 204,"WEIRTON, WV 26062",http://maps.google.com/maps?q=TRISTATE%20PHARMACY%2CJOHN%20J.%20BERNABEI%2C%20RPH%2C+WEIRTON%2C+WV+26062
VANTAGE CARE APOTHECARY,1305 SOUTH MAIN STREET,US ROUTE 322,"MEADVILLE, PA 16335",http://maps.google.com/maps?q=VANTAGE%20CARE%20APOTHECARY%2C1305%20SOUTH%20MAIN%20STREET%2C+MEADVILLE%2C+PA+16335
WALGREEN CO.,100 CLEVELAND ST,,"ELYRIA, OH 44035",http://maps.google.com/maps?q=WALGREEN%20CO%2C100%20CLEVELAND%20ST%2C+ELYRIA%2C+OH+44035
WALGREEN CO.,11701 DETROIT AVE,,"LAKEWOOD, OH 44107",http://maps.google.com/maps?q=WALGREEN%20CO%2C11701%20DETROIT%20AVE%2C+LAKEWOOD%2C+OH+44107
WALGREEN CO.,1321 DELAWARE AVE.,,"MARION, OH 43302",http://maps.google.com/maps?q=WALGREEN%20CO%2C1321%20DELAWARE%20AVE.%2C+MARION%2C+OH+43302
WALGREEN CO.,16803 LORAIN AVE,,"CLEVELAND, OH 44111",http://maps.google.com/maps?q=WALGREEN%20CO%2C16803%20LORAIN%20AVE%2C+CLEVELAND%2C+OH+44111
WALGREEN CO.,2012 S UNION,,"ALLIANCE, OH 44601",http://maps.google.com/maps?q=WALGREEN%20CO%2C2012%20S%20UNION%2C+ALLIANCE%2C+OH+44601
WALGREEN CO.,2150 E DUBLIN GRANVILLE ROAD,,"COLUMBUS, OH 43229",http://maps.google.com/maps?q=WALGREEN%20CO%2C2150%20E%20DUBLIN%20GRANVILLE%20ROAD%2C+COLUMBUS%2C+OH+43229
WALGREEN CO.,22401 LAKE SHORE BLVD,,"EUCLID, OH 44123",http://maps.google.com/maps?q=WALGREEN%20CO%2C22401%20LAKE%20SHORE%20BLVD%2C+EUCLID%2C+OH+44123
WALGREEN CO.,2645 STATE RD,,"CUYAHOGA FALLS, OH 44223",http://maps.google.com/maps?q=WALGREEN%20CO%2C2645%20STATE%20RD%2C+CUYAHOGA%20FALLS%2C+OH+44223
WALGREEN CO.,5122 WEST TUSCARAWAS ST,,"CANTON, OH 44708",http://maps.google.com/maps?q=WALGREEN%20CO%2C5122%20WEST%20TUSCARAWAS%20ST%2C+CANTON%2C+OH+44708
WALGREEN CO.,5400 PEARL ROAD,,"PARMA, OH 44129",http://maps.google.com/maps?q=WALGREEN%20CO%2C5400%20PEARL%20ROAD%2C+PARMA%2C+OH+44129
WALGREEN CO.,5411 LEAVITT ROAD,,"LORAIN, OH 44053",http://maps.google.com/maps?q=WALGREEN%20CO%2C5411%20LEAVITT%20ROAD%2C+LORAIN%2C+OH+44053
WALGREEN CO.,5690 W BROAD STREET,,"GALLOWAY, OH 43119",http://maps.google.com/maps?q=WALGREEN%20CO%2C5690%20W%20BROAD%20STREET%2C+GALLOWAY%2C+OH+43119
WALGREEN CO.,5881 SOM CENTER RD.,,"WILLOUGHBY, OH 44094",http://maps.google.com/maps?q=WALGREEN%20CO%2C5881%20SOM%20CENTER%20RD.%2C+WILLOUGHBY%2C+OH+44094
WALGREEN CO.,6410 BROADWAY AVENUE,,"CLEVELAND, OH 44105",http://maps.google.com/maps?q=WALGREEN%20CO%2C6410%20BROADWAY%20AVENUE%2C+CLEVELAND%2C+OH+44105
WALGREEN CO.,7295 MARKET ST.,,"BOARDMAN, OH 44512",http://maps.google.com/maps?q=WALGREEN%20CO%2C7295%20MARKET%20ST.%2C+BOARDMAN%2C+OH+44512
WALGREEN CO.,850 NORTH BRIDGE STREET,,"CHILLICOTHE, OH 45601",http://maps.google.com/maps?q=WALGREEN%20CO%2C850%20NORTH%20BRIDGE%20STREET%2C+CHILLICOTHE%2C+OH+45601
WALGREEN CO.,859 E MAIN ST,,"LANCASTER, OH 43130",http://maps.google.com/maps?q=WALGREEN%20CO%2C859%20E%20MAIN%20ST%2C+LANCASTER%2C+OH+43130
WALGREEN CO.,897 CHESTNUT RIDGE RD,,"MORGANTOWN, WV 26505",http://maps.google.com/maps?q=WALGREEN%20CO%2C897%20CHESTNUT%20RIDGE%20RD%2C+MORGANTOWN%2C+WV+26505
"WALGREEN EASTERN CO., INC.",280 NEW CASTLE RD.,,"BUTLER, PA 16001",http://maps.google.com/maps?q=WALGREEN%20EASTERN%20CO%20INC%2C280%20NEW%20CASTLE%20RD.%2C+BUTLER%2C+PA+16001
"WEST VIRGINIA CVS PHARMACY, L.L.C.",1000 PINEVIEW DRIVE,,"MORGANTOWN, WV 26505",http://maps.google.com/maps?q=WEST%20VIRGINIA%20CVS%20PHARMACY%20LLC%2C1000%20PINEVIEW%20DRIVE%2C+MORGANTOWN%2C+WV+26505
"WEST VIRGINIA CVS PHARMACY, L.L.C.",1605 7TH STREET,,"PARKERSBURG, WV 26101",http://maps.google.com/maps?q=WEST%20VIRGINIA%20CVS%20PHARMACY%20LLC%2C1605%207TH%20STREET%2C+PARKERSBURG%2C+WV+26101
"WEST VIRGINIA CVS PHARMACY, L.L.C.",701 E. MAIN STREET,,"CLARKSBURG, WV 26301",http://maps.google.com/maps?q=WEST%20VIRGINIA%20CVS%20PHARMACY%20LLC%2C701%20E.%20MAIN%20STREET%2C+CLARKSBURG%2C+WV+26301
"WEST VIRGINIA CVS PHARMACY, L.L.C.",74 WEST MAIN ST.,,"BUCKHANNON, WV 26201",http://maps.google.com/maps?q=WEST%20VIRGINIA%20CVS%20PHARMACY%20LLC%2C74%20WEST%20MAIN%20ST.%2C+BUCKHANNON%2C+WV+26201
WITSCHEY'SPHARMACY,155 NORTH STREET,,"NEW MARTINSVILLE, WV 26155",http://maps.google.com/maps?q=WITSCHEYSPHARMACY%2C155%20NORTH%20STREET%2C+NEW%20MARTINSVILLE%2C+WV+26155
