Business Name,Address 1,Address 2,"City, State Zip",Map URL
AGH REDISCRIPTS PHARMACY,9733 HEALTHWAY DRIVE,,"BERLIN, MD 21811",http://maps.google.com/maps?q=AGH%20REDISCRIPTS%20PHARMACY%2C9733%20HEALTHWAY%20DRIVE%2C+BERLIN%2C+MD+21811
APOTHECARY SOLUTIONS LLC,207 EAST MAIN STREET,,"REMINGTON, VA 22734",http://maps.google.com/maps?q=APOTHECARY%20SOLUTIONS%20LLC%2C207%20EAST%20MAIN%20STREET%2C+REMINGTON%2C+VA+22734
ARMED FORCES RETIREMENT HOME,"3700 NORTH CAPITOL ST, NW","SHERMAN BLDG, ROOM 103","WASHINGTON, DC 20011",http://maps.google.com/maps?q=ARMED%20FORCES%20RETIREMENT%20HOME%2C3700%20NORTH%20CAPITOL%20ST%2C%20NW%2C+WASHINGTON%2C+DC+20011
ATRIUM PHARMACY AT DEPAUL,155 KINGSLEY LANE,STE 125,"NORFOLK, VA 23505",http://maps.google.com/maps?q=ATRIUM%20PHARMACY%20AT%20DEPAUL%2C155%20KINGSLEY%20LANE%2C+NORFOLK%2C+VA+23505
BETTER CARE PHARMACY LLC,4860 RUCKER RD #1,,"MONETA, VA 24121",http://maps.google.com/maps?q=BETTER%20CARE%20PHARMACY%20LLC%2C4860%20RUCKER%20RD%20#1%2C+MONETA%2C+VA+24121
BON SECOURS GOOD HEALTH PHARMACY AT REYNOLDS,6900 FOREST AVENUE,SUITE 100,"RICHMOND, VA 23230",http://maps.google.com/maps?q=BON%20SECOURS%20GOOD%20HEALTH%20PHARMACY%20AT%20REYNOLDS%2C6900%20FOREST%20AVENUE%2C+RICHMOND%2C+VA+23230
CLAYTON'S PHARMACY,404B WASHINGTON ST,,"CAMBRIDGE, MD 21613",http://maps.google.com/maps?q=CLAYTONS%20PHARMACY%2C404B%20WASHINGTON%20ST%2C+CAMBRIDGE%2C+MD+21613
CRISFIELD DISCOUNT PHARMACY,390 WEST MAIN STREET,UNIT-A,"CRISFIELD, MD 21817",http://maps.google.com/maps?q=CRISFIELD%20DISCOUNT%20PHARMACY%2C390%20WEST%20MAIN%20STREET%2C+CRISFIELD%2C+MD+21817
"DISTRICT OF COLUMBIA CVS PHARMACY, L.L.C.",320 40TH STREET NE,,"WASHINGTON, DC 20019",http://maps.google.com/maps?q=DISTRICT%20OF%20COLUMBIA%20CVS%20PHARMACY%20LLC%2C320%2040TH%20STREET%20NE%2C+WASHINGTON%2C+DC+20019
"DISTRICT OF COLUMBIA CVS PHARMACY, L.L.C.",6-7 DUPONT CIRCLE NW,,"WASHINGTON, DC 20036",http://maps.google.com/maps?q=DISTRICT%20OF%20COLUMBIA%20CVS%20PHARMACY%20LLC%2C6-7%20DUPONT%20CIRCLE%20NW%2C+WASHINGTON%2C+DC+20036
"DISTRICT OF COLUMBIA CVS PHARMACY, L.L.C.",6514 GEORGIA AVENUE NW,,"WASHINGTON, DC 20012",http://maps.google.com/maps?q=DISTRICT%20OF%20COLUMBIA%20CVS%20PHARMACY%20LLC%2C6514%20GEORGIA%20AVENUE%20NW%2C+WASHINGTON%2C+DC+20012
FAMILY CARE-REMINGTON INC.,208 E. MADISON ST.,,"REMINGTON, VA 22734",http://maps.google.com/maps?q=FAMILY%20CAREREMINGTON%20INC%2C208%20E.%20MADISON%20ST.%2C+REMINGTON%2C+VA+22734
FAMILY MEDS INC,12114 OLD LINE CENTER UNIT R-7A,,"WALDORF, MD 20602",http://maps.google.com/maps?q=FAMILY%20MEDS%20INC%2C12114%20OLD%20LINE%20CENTER%20UNIT%20R-7A%2C+WALDORF%2C+MD+20602
FAMILY PHARMACY SERVICES,303 WEST 10TH STREET,,"FRONT ROYAL, VA 22630",http://maps.google.com/maps?q=FAMILY%20PHARMACY%20SERVICES%2C303%20WEST%2010TH%20STREET%2C+FRONT%20ROYAL%2C+VA+22630
FT. LEE TMC2,BUILDING 18036,300 CENTRAL AVENUE,"FORT LEE, VA 23801",http://maps.google.com/maps?q=FT%20LEE%20TMC%2CBUILDING%2018036%2C+FORT%20LEE%2C+VA+23801
GOOD HEALTH PHARMACY AT HARBOUR VIEW,5818-D HARBOUR VIEW BLVD.,SUITE 100,"SUFFOLK, VA 23435",http://maps.google.com/maps?q=GOOD%20HEALTH%20PHARMACY%20AT%20HARBOUR%20VIEW%2C5818-D%20HARBOUR%20VIEW%20BLVD.%2C+SUFFOLK%2C+VA+23435
GOOD HEALTH PHARMACY AT MARY IMMACULATE HOSPITAL,12720 MCMANUS BOULEVARD,SUITE 100,"NEWPORT NEWS, VA 23602",http://maps.google.com/maps?q=GOOD%20HEALTH%20PHARMACY%20AT%20MARY%20IMMACULATE%20HOSPITAL%2C12720%20MCMANUS%20BOULEVARD%2C+NEWPORT%20NEWS%2C+VA+23602
GOOD HEALTH PHARMACY AT RICHMOND COMMUNITY,1510 N. 28TH STREET,SUITE 100,"RICHMOND, VA 23223",http://maps.google.com/maps?q=GOOD%20HEALTH%20PHARMACY%20AT%20RICHMOND%20COMMUNITY%2C1510%20N.%2028TH%20STREET%2C+RICHMOND%2C+VA+23223
GRANT MEMORIAL HOSPITAL,117 HOSPITAL DRIVE,P. O. BOX 1019,"PETERSBURG, WV 26847",http://maps.google.com/maps?q=GRANT%20MEMORIAL%20HOSPITAL%2C117%20HOSPITAL%20DRIVE%2C+PETERSBURG%2C+WV+26847
"H&M SPECIALTY RX,INC",5454 WISCONSIN AVE,#400,"CHEVY CHASE, MD 20815",http://maps.google.com/maps?q=HM%20SPECIALTY%20RXINC%2C5454%20WISCONSIN%20AVE%2C+CHEVY%20CHASE%2C+MD+20815
HANSON PHARMACY,2110 CRAIN HWY,,"WALDORF, MD 20601",http://maps.google.com/maps?q=HANSON%20PHARMACY%2C2110%20CRAIN%20HWY%2C+WALDORF%2C+MD+20601
HAPPY HARRY'S INC.,22898 SUSSEX HWY,,"SEAFORD, DE 19973",http://maps.google.com/maps?q=HAPPY%20HARRYS%20INC%2C22898%20SUSSEX%20HWY%2C+SEAFORD%2C+DE+19973
HEALTH CENTER PHARMACY,812 GORMAN AVE,,"ELKINS, WV 26241",http://maps.google.com/maps?q=HEALTH%20CENTER%20PHARMACY%2C812%20GORMAN%20AVE%2C+ELKINS%2C+WV+26241
HIGH ST DISCOUNT PHARMACY,30 HIGH ST,,"WALDORF, MD 20602",http://maps.google.com/maps?q=HIGH%20ST%20DISCOUNT%20PHARMACY%2C30%20HIGH%20ST%2C+WALDORF%2C+MD+20602
HOT SPRINGS PHARMACY,2833 MAIN STREET,POST OFFICE BOX 1180,"HOT SPRINGS, VA 24445",http://maps.google.com/maps?q=HOT%20SPRINGS%20PHARMACY%2C2833%20MAIN%20STREET%2C+HOT%20SPRINGS%2C+VA+24445
INDIAN HEAD CARE PHARMACY,4115 INDIAN HEAD HWY.,,"INDIAN HEAD, MD 20640",http://maps.google.com/maps?q=INDIAN%20HEAD%20CARE%20PHARMACY%2C4115%20INDIAN%20HEAD%20HWY.%2C+INDIAN%20HEAD%2C+MD+20640
INOVA LOUDOUN HOSPITAL,44045 RIVERSIDE PARKWAY,,"LEESBURG, VA 20176",http://maps.google.com/maps?q=INOVA%20LOUDOUN%20HOSPITAL%2C44045%20RIVERSIDE%20PARKWAY%2C+LEESBURG%2C+VA+20176
INOVA PHARMACY PLUS AT INOVA FAIR OAKS,3600 JOSEPH SIEWICK DRIVE,,"FAIRFAX, VA 22033",http://maps.google.com/maps?q=INOVA%20PHARMACY%20PLUS%20AT%20INOVA%20FAIR%20OAKS%2C3600%20JOSEPH%20SIEWICK%20DRIVE%2C+FAIRFAX%2C+VA+22033
JUDY'S DRUG STORE INC,24 NORTH MAIN ST,,"PETERSBURG, WV 26847",http://maps.google.com/maps?q=JUDYS%20DRUG%20STORE%20INC%2C24%20NORTH%20MAIN%20ST%2C+PETERSBURG%2C+WV+26847
KAISER,BURKE PHARMACY,5999 BURKE COMMONS ROAD,"BURKE, VA 22015",http://maps.google.com/maps?q=KAISER%2CBURKE%20PHARMACY%2C+BURKE%2C+VA+22015
KAISER PERM ASHBURN PHARMACY,43480 YUKON DRIVE SUITE 100,,"ASHBURN, VA 20147",http://maps.google.com/maps?q=KAISER%20PERM%20ASHBURN%20PHARMACY%2C43480%20YUKON%20DRIVE%20SUITE%20100%2C+ASHBURN%2C+VA+20147
KAISER PERMANENTE FREDERICKSBURG PHARMACY,1201 HOSPITAL DRIVE,,"FREDERICKSBURG, VA 22401",http://maps.google.com/maps?q=KAISER%20PERMANENTE%20FREDERICKSBURG%20PHARMACY%2C1201%20HOSPITAL%20DRIVE%2C+FREDERICKSBURG%2C+VA+22401
KAISER PERMANENTE MANASSAS PH,10701 ROSEMARY DRIVE,,"MANASSAS, VA 20109",http://maps.google.com/maps?q=KAISER%20PERMANENTE%20MANASSAS%20PH%2C10701%20ROSEMARY%20DRIVE%2C+MANASSAS%2C+VA+20109
KAISER PERMANENTE SPRINGFIELD,6501 LOISDALE COURT,,"SPRINGFIELD, VA 22150",http://maps.google.com/maps?q=KAISER%20PERMANENTE%20SPRINGFIELD%2C6501%20LOISDALE%20COURT%2C+SPRINGFIELD%2C+VA+22150
KAISER PERMANENTE TYSONS CORNER PHARMACY,8008 WESTPARK DRIVE,,"MCLEAN, VA 22102",http://maps.google.com/maps?q=KAISER%20PERMANENTE%20TYSONS%20CORNER%20PHARMACY%2C8008%20WESTPARK%20DRIVE%2C+MCLEAN%2C+VA+22102
KAISER-PERMANENTE RESTON PHCY,1890 METRO CENTER DRIVE,,"RESTON, VA 20190",http://maps.google.com/maps?q=KAISERPERMANENTE%20RESTON%20PHCY%2C1890%20METRO%20CENTER%20DRIVE%2C+RESTON%2C+VA+20190
KILMARNOCK PHARMACY,308 NORTH MAIN STREET,PO BOX 1299,"KILMARNOCK, VA 22482",http://maps.google.com/maps?q=KILMARNOCK%20PHARMACY%2C308%20NORTH%20MAIN%20STREET%2C+KILMARNOCK%2C+VA+22482
LAFAYETTE PHARMACY,1011 LAFAYETTE STREET,,"RICHMOND, VA 23221",http://maps.google.com/maps?q=LAFAYETTE%20PHARMACY%2C1011%20LAFAYETTE%20STREET%2C+RICHMOND%2C+VA+23221
LAPLATA PHARMACY,6501 CRAIN HIGHWAY,,"LA PLATA, MD 20646",http://maps.google.com/maps?q=LAPLATA%20PHARMACY%2C6501%20CRAIN%20HIGHWAY%2C+LA%20PLATA%2C+MD+20646
LESTER & MOWERY'S  PHARMACY,20 SOUTH STREET,,"FRONT ROYAL, VA 22630",http://maps.google.com/maps?q=LESTER%20%20MOWERYS%20%20PHARMACY%2C20%20SOUTH%20STREET%2C+FRONT%20ROYAL%2C+VA+22630
M TIMBERLAKE INC,322 E MAIN ST,,"CHARLOTTESVILLE, VA 22902",http://maps.google.com/maps?q=M%20TIMBERLAKE%20INC%2C322%20E%20MAIN%20ST%2C+CHARLOTTESVILLE%2C+VA+22902
MARION PHARMACY,26427 BURTON AVENUE,,"CRISFIELD, MD 21817",http://maps.google.com/maps?q=MARION%20PHARMACY%2C26427%20BURTON%20AVENUE%2C+CRISFIELD%2C+MD+21817
MARTHA JEFFERSON HOSPITAL,PHARMACY SERVICES,500 MARTHA JEFFERSON DRIVE,"CHARLOTTESVILLE, VA 22911",http://maps.google.com/maps?q=MARTHA%20JEFFERSON%20HOSPITAL%2CPHARMACY%20SERVICES%2C+CHARLOTTESVILLE%2C+VA+22911
"MARYLAND CVS PHARMACY, L.L.C",24288 THREE NOTCH RD.,,"HOLLYWOOD, MD 20636",http://maps.google.com/maps?q=MARYLAND%20CVS%20PHARMACY%20LLC%2C24288%20THREE%20NOTCH%20RD.%2C+HOLLYWOOD%2C+MD+20636
"MARYLAND CVS PHARMACY, L.L.C.",15100 BALTIMORE AVE.,,"LAUREL, MD 20707",http://maps.google.com/maps?q=MARYLAND%20CVS%20PHARMACY%20LLC%2C15100%20BALTIMORE%20AVE.%2C+LAUREL%2C+MD+20707
"MARYLAND CVS PHARMACY, L.L.C.",19100 MONTGOMERY VILLAGE AVE.,,"GAITHERSBURG, MD 20886",http://maps.google.com/maps?q=MARYLAND%20CVS%20PHARMACY%20LLC%2C19100%20MONTGOMERY%20VILLAGE%20AVE.%2C+GAITHERSBURG%2C+MD+20886
"MARYLAND CVS PHARMACY, L.L.C.",2003 DAVIDSONVILLE RD.,,"CROFTON, MD 21114",http://maps.google.com/maps?q=MARYLAND%20CVS%20PHARMACY%20LLC%2C2003%20DAVIDSONVILLE%20RD.%2C+CROFTON%2C+MD+21114
"MARYLAND CVS PHARMACY, L.L.C.",2601 RIVA RD.,,"ANNAPOLIS, MD 21401",http://maps.google.com/maps?q=MARYLAND%20CVS%20PHARMACY%20LLC%2C2601%20RIVA%20RD.%2C+ANNAPOLIS%2C+MD+21401
"MARYLAND CVS PHARMACY, L.L.C.",28 MAGOTHY BEACH RD.,,"PASADENA, MD 21122",http://maps.google.com/maps?q=MARYLAND%20CVS%20PHARMACY%20LLC%2C28%20MAGOTHY%20BEACH%20RD.%2C+PASADENA%2C+MD+21122
"MARYLAND CVS PHARMACY, L.L.C.",3110 OLNEY SANDY SPRING RD.,,"OLNEY, MD 20832",http://maps.google.com/maps?q=MARYLAND%20CVS%20PHARMACY%20LLC%2C3110%20OLNEY%20SANDY%20SPRING%20RD.%2C+OLNEY%2C+MD+20832
"MARYLAND CVS PHARMACY, L.L.C.",3300A CENTENNIAL LANE,,"ELLICOTT CITY, MD 21042",http://maps.google.com/maps?q=MARYLAND%20CVS%20PHARMACY%20LLC%2C3300A%20CENTENNIAL%20LANE%2C+ELLICOTT%20CITY%2C+MD+21042
"MARYLAND CVS PHARMACY, L.L.C.",3715 UNIVERSITY BOULEVARD WEST,,"KENSINGTON, MD 20895",http://maps.google.com/maps?q=MARYLAND%20CVS%20PHARMACY%20LLC%2C3715%20UNIVERSITY%20BOULEVARD%20WEST%2C+KENSINGTON%2C+MD+20895
"MARYLAND CVS PHARMACY, L.L.C.",402 SO. JEFFERSON STREET,,"FREDERICK, MD 21701",http://maps.google.com/maps?q=MARYLAND%20CVS%20PHARMACY%20LLC%2C402%20SO.%20JEFFERSON%20STREET%2C+FREDERICK%2C+MD+21701
"MARYLAND CVS PHARMACY, L.L.C.",5870 SILVER HILL RD,SILVER HILL PLAZA,"DISTRICT HEIGHTS, MD 20747",http://maps.google.com/maps?q=MARYLAND%20CVS%20PHARMACY%20LLC%2C5870%20SILVER%20HILL%20RD%2C+DISTRICT%20HEIGHTS%2C+MD+20747
"MARYLAND CVS PHARMACY, L.L.C.",6260 CRAIN HWY.,,"LA PLATA, MD 20646",http://maps.google.com/maps?q=MARYLAND%20CVS%20PHARMACY%20LLC%2C6260%20CRAIN%20HWY.%2C+LA%20PLATA%2C+MD+20646
"MARYLAND CVS PHARMACY, L.L.C.",6480 OLD WATERLOO RD,,"ELKRIDGE, MD 21075",http://maps.google.com/maps?q=MARYLAND%20CVS%20PHARMACY%20LLC%2C6480%20OLD%20WATERLOO%20RD%2C+ELKRIDGE%2C+MD+21075
"MARYLAND CVS PHARMACY, L.L.C.",7607 GREENBELT ROAD,,"GREENBELT, MD 20770",http://maps.google.com/maps?q=MARYLAND%20CVS%20PHARMACY%20LLC%2C7607%20GREENBELT%20ROAD%2C+GREENBELT%2C+MD+20770
"MARYLAND CVS PHARMACY, L.L.C.",7955 TUCKERMAN LANE,,"ROCKVILLE, MD 20854",http://maps.google.com/maps?q=MARYLAND%20CVS%20PHARMACY%20LLC%2C7955%20TUCKERMAN%20LANE%2C+ROCKVILLE%2C+MD+20854
"MARYLAND CVS PHARMACY, L.L.C.",8859 BRANCH AVENUE,,"CLINTON, MD 20735",http://maps.google.com/maps?q=MARYLAND%20CVS%20PHARMACY%20LLC%2C8859%20BRANCH%20AVENUE%2C+CLINTON%2C+MD+20735
"MARYLAND CVS PHARMACY, L.L.C.",9920 KEY WEST AVE,,"ROCKVILLE, MD 20850",http://maps.google.com/maps?q=MARYLAND%20CVS%20PHARMACY%20LLC%2C9920%20KEY%20WEST%20AVE%2C+ROCKVILLE%2C+MD+20850
MARYVIEW MED CTR OUTPAT PHY,3636 HIGH STREET,,"PORTSMOUTH, VA 23707",http://maps.google.com/maps?q=MARYVIEW%20MED%20CTR%20OUTPAT%20PHY%2C3636%20HIGH%20STREET%2C+PORTSMOUTH%2C+VA+23707
MEDICAL CENTER PHARMACY INC,2001 CRYSTAL SPRING DRIVE,SUITE 110,"ROANOKE, VA 24014",http://maps.google.com/maps?q=MEDICAL%20CENTER%20PHARMACY%20INC%2C2001%20CRYSTAL%20SPRING%20DRIVE%2C+ROANOKE%2C+VA+24014
MEDICINE CHEST PHARMACY,6823 OLD DOMINION DRIVE,,"MCLEAN, VA 22101",http://maps.google.com/maps?q=MEDICINE%20CHEST%20PHARMACY%2C6823%20OLD%20DOMINION%20DRIVE%2C+MCLEAN%2C+VA+22101
MEDSTAR PHARMACY (STORE #7),3305 N. LEISUREWORLD BOULEVARD,,"SILVER SPRING, MD 20906",http://maps.google.com/maps?q=MEDSTAR%20PHARMACY%20STORE%2C3305%20N.%20LEISUREWORLD%20BOULEVARD%2C+SILVER%20SPRING%2C+MD+20906
MIZELLES DISCOUNT DRUG CO INC,LOUIS E MIZELLE JR,925 E MEMORIAL DRIVE,"AHOSKIE, NC 27910",http://maps.google.com/maps?q=MIZELLES%20DISCOUNT%20DRUG%20CO%20INC%2CLOUIS%20E%20MIZELLE%20JR%2C+AHOSKIE%2C+NC+27910
MT HERMON DISCOUNT PHARMACY,1207 MT HERMON RD,,"SALISBURY, MD 21804",http://maps.google.com/maps?q=MT%20HERMON%20DISCOUNT%20PHARMACY%2C1207%20MT%20HERMON%20RD%2C+SALISBURY%2C+MD+21804
NEIGHBORHOOD PHARMACY OF DEL RAY,2204 MT. VERNON AVE,,"ALEXANDRIA, VA 22301",http://maps.google.com/maps?q=NEIGHBORHOOD%20PHARMACY%20OF%20DEL%20RAY%2C2204%20MT.%20VERNON%20AVE%2C+ALEXANDRIA%2C+VA+22301
NORTHGATE PHARMACY,3973 ST. CHARLES PKWY,,"WALDORF, MD 20602",http://maps.google.com/maps?q=NORTHGATE%20PHARMACY%2C3973%20ST.%20CHARLES%20PKWY%2C+WALDORF%2C+MD+20602
PARKWAY PHARMACY,5771-ON THE SQUARE,PO BOX 8,"CROZET, VA 22932",http://maps.google.com/maps?q=PARKWAY%20PHARMACY%2C5771-ON%20THE%20SQUARE%2C+CROZET%2C+VA+22932
PEMBERTON PHARMACY & GIFT,1147 PEMBERTON DR,,"SALISBURY, MD 21801",http://maps.google.com/maps?q=PEMBERTON%20PHARMACY%20%20GIFT%2C1147%20PEMBERTON%20DR%2C+SALISBURY%2C+MD+21801
PEMBERTON PHARMACY & GIFT ST MICHAELS,204 S TALBOT ST,PO BOX 1139,"ST MICHAELS, MD 21663",http://maps.google.com/maps?q=PEMBERTON%20PHARMACY%20%20GIFT%20ST%20MICHAELS%2C204%20S%20TALBOT%20ST%2C+ST%20MICHAELS%2C+MD+21663
PITTMAN'S PHARMACY,305 WEST GRANVILLE STREET,,"WINDSOR, NC 27983",http://maps.google.com/maps?q=PITTMANS%20PHARMACY%2C305%20WEST%20GRANVILLE%20STREET%2C+WINDSOR%2C+NC+27983
PURCELLVILLE PHARMACY,609 E MAIN ST SUITE Q,,"PURCELLVILLE, VA 20132",http://maps.google.com/maps?q=PURCELLVILLE%20PHARMACY%2C609%20E%20MAIN%20ST%20SUITE%20Q%2C+PURCELLVILLE%2C+VA+20132
RICHMOND APOTHECARIES INC,T/A BREMO PHARMACY INC,2024 STAPLES MILL RD,"RICHMOND, VA 23230",http://maps.google.com/maps?q=RICHMOND%20APOTHECARIES%20INC%2CT/A%20BREMO%20PHARMACY%20INC%2C+RICHMOND%2C+VA+23230
"RIVERSIDE HOSPITAL, INC.",500 J. CLYDE MORRIS BOULEVARD,ROOM 1-501,"NEWPORT NEWS, VA 23601",http://maps.google.com/maps?q=RIVERSIDE%20HOSPITAL%20INC%2C500%20J.%20CLYDE%20MORRIS%20BOULEVARD%2C+NEWPORT%20NEWS%2C+VA+23601
RIVIERA DRUGS LLC,8541 FORTSMALL WOOD ROAD,UNIT G,"PASADENA, MD 21122",http://maps.google.com/maps?q=RIVIERA%20DRUGS%20LLC%2C8541%20FORTSMALL%20WOOD%20ROAD%2C+PASADENA%2C+MD+21122
RUSTBURG FAMILY PHARMACY,"925 VILLAGE HWY, STE 2",PO BOX 1005,"RUSTBURG, VA 24588",http://maps.google.com/maps?q=RUSTBURG%20FAMILY%20PHARMACY%2C925%20VILLAGE%20HWY%2C%20STE%202%2C+RUSTBURG%2C+VA+24588
SENTARA RMH MEDICAL CENTER,2010 HEALTH CAMPUS DRIVE,OUTPATIENT PHARMACY,"HARRISONBURG, VA 22801",http://maps.google.com/maps?q=SENTARA%20RMH%20MEDICAL%20CENTER%2C2010%20HEALTH%20CAMPUS%20DRIVE%2C+HARRISONBURG%2C+VA+22801
SENTARA WILLIAMSBURG REGIONAL MEDICAL CENTER,100 SENTARA CIRCLE,,"WILLIAMSBURG, VA 23188",http://maps.google.com/maps?q=SENTARA%20WILLIAMSBURG%20REGIONAL%20MEDICAL%20CENTER%2C100%20SENTARA%20CIRCLE%2C+WILLIAMSBURG%2C+VA+23188
SEWELLS POINT BRANCH MEDICAL,SEWELLS POINT BRANCH MEDICAL CLINIC,1721 TAUSSIG BLVD,"NORFOLK, VA 23511",http://maps.google.com/maps?q=SEWELLS%20POINT%20BRANCH%20MEDICAL%2CSEWELLS%20POINT%20BRANCH%20MEDICAL%20CLINIC%2C+NORFOLK%2C+VA+23511
SPECTRUM HEALTHCARE RESOURCES - DUMFRIES HLTH CTR,3700 FETTLER PARK DRIVE,,"DUMFRIES, VA 22025",http://maps.google.com/maps?q=SPECTRUM%20HEALTHCARE%20RESOURCES%20%20DUMFRIES%20HLTH%20CTR%2C3700%20FETTLER%20PARK%20DRIVE%2C+DUMFRIES%2C+VA+22025
SPECTRUM HEALTHCARE RESOURCES - FAIRFAX HLTH CTR,10580 ARROWHEAD DRIVE,,"FAIRFAX, VA 22030",http://maps.google.com/maps?q=SPECTRUM%20HEALTHCARE%20RESOURCES%20%20FAIRFAX%20HLTH%20CTR%2C10580%20ARROWHEAD%20DRIVE%2C+FAIRFAX%2C+VA+22030
ST MARY'S COMMUNITY PHARMACY,5801 BREMO ROAD,,"RICHMOND, VA 23226",http://maps.google.com/maps?q=ST%20MARYS%20COMMUNITY%20PHARMACY%2C5801%20BREMO%20ROAD%2C+RICHMOND%2C+VA+23226
STRASBURG PHARMACY,33820 OLD VALLEY PIKE,SUITE 7,"STRASBURG, VA 22657",http://maps.google.com/maps?q=STRASBURG%20PHARMACY%2C33820%20OLD%20VALLEY%20PIKE%2C+STRASBURG%2C+VA+22657
TIMBERLAKE FAMILY PHARMACY,20276 TIMBERLAKE RD.,,"LYNCHBURG, VA 24502",http://maps.google.com/maps?q=TIMBERLAKE%20FAMILY%20PHARMACY%2C20276%20TIMBERLAKE%20RD.%2C+LYNCHBURG%2C+VA+24502
"TOP NOTCH PHARMACY, LLC",943 PRESTON AVE,,"CHARLOTTESVILLE, VA 22903",http://maps.google.com/maps?q=TOP%20NOTCH%20PHARMACY%20LLC%2C943%20PRESTON%20AVE%2C+CHARLOTTESVILLE%2C+VA+22903
US ARMY FBCH PHARMACY SERVICE,9300 DEWITT LOOP,ROOM C1382 MAIN VAULT,"FORT BELVOIR, VA 22060",http://maps.google.com/maps?q=US%20ARMY%20FBCH%20PHARMACY%20SERVICE%2C9300%20DEWITT%20LOOP%2C+FORT%20BELVOIR%2C+VA+22060
US ARMY PHARMACY ANEX,8651 JOHN J KINGMAN ROAD,,"FORT BELVOIR, VA 22060",http://maps.google.com/maps?q=US%20ARMY%20PHARMACY%20ANEX%2C8651%20JOHN%20J%20KINGMAN%20ROAD%2C+FORT%20BELVOIR%2C+VA+22060
US ARMY-  KENNER HEALTH CLINIC,700 24TH ST,,"FORT LEE, VA 23801",http://maps.google.com/maps?q=US%20ARMY%20%20KENNER%20HEALTH%20CLINIC%2C700%2024TH%20ST%2C+FORT%20LEE%2C+VA+23801
US ARMY- FT DETRICK HEALTH CLINIC,1434 PORTER STREET,FORT DETRICK,"FREDERICK, MD 21702",http://maps.google.com/maps?q=US%20ARMY%20FT%20DETRICK%20HEALTH%20CLINIC%2C1434%20PORTER%20STREET%2C+FREDERICK%2C+MD+21702
US ARMY- KIMBROUGH AMBULATORY CARE CENTER,DEPARTMENT OF PHARMACY,KIMBROUGH AMBULATORY CARE CENTER,"FORT MEADE, MD 20755",http://maps.google.com/maps?q=US%20ARMY%20KIMBROUGH%20AMBULATORY%20CARE%20CENTER%2CDEPARTMENT%20OF%20PHARMACY%2C+FORT%20MEADE%2C+MD+20755
US ARMY- MCDONALD HEALTH CENTER,"BLDG 576, JEFFERSON AVE",,"FORT EUSTIS, VA 23604",http://maps.google.com/maps?q=US%20ARMY%20MCDONALD%20HEALTH%20CENTER%2CBLDG%20576%2C%20JEFFERSON%20AVE%2C+FORT%20EUSTIS%2C+VA+23604
US ARMY-ANTHONY DILORENZO,DILORENZO TRICARE HLTH CLINIC,PENTAGON 5801 DEFENSE PENTAGON,"WASHINGTON, DC 20310",http://maps.google.com/maps?q=US%20ARMYANTHONY%20DILORENZO%2CDILORENZO%20TRICARE%20HLTH%20CLINIC%2C+WASHINGTON%2C+DC+20310
USAF 11TH MDS PHARMACY,238 BROOKLEY AVENUE,,"WASHINGTON, DC 20032",http://maps.google.com/maps?q=USAF%20TH%20MDS%20PHARMACY%2C238%20BROOKLEY%20AVENUE%2C+WASHINGTON%2C+DC+20032
USAF 779TH MDG PHARMACY,1060 W. PERIMETER ROAD,,"ANDREWS AIR FORCE BASE, MD 20762",http://maps.google.com/maps?q=USAF%20TH%20MDG%20PHARMACY%2C1060%20W.%20PERIMETER%20ROAD%2C+ANDREWS%20AIR%20FORCE%20BASE%2C+MD+20762
USAF 779TH MDG SATELLITE PHARMACY,1683 BROOKLEY AVENUE,,"ANDREWS AIR FORCE BASE, MD 20762",http://maps.google.com/maps?q=USAF%20TH%20MDG%20SATELLITE%20PHARMACY%2C1683%20BROOKLEY%20AVENUE%2C+ANDREWS%20AIR%20FORCE%20BASE%2C+MD+20762
USAF-633D MEDICAL GROUP MAIN PHARMACY,77 NEALY AVE RM 1B069,PHARMACY FLIGHT COMMANDER,"LANGLEY AFB, VA 23665",http://maps.google.com/maps?q=USAFD%20MEDICAL%20GROUP%20MAIN%20PHARMACY%2C77%20NEALY%20AVE%20RM%201B069%2C+LANGLEY%20AFB%2C+VA+23665
USAF-633D MEDICAL GROUP SATELLITE PHARMACY,57 SPAATZ DR,BLDG 293,"LANGLEY AFB, VA 23665",http://maps.google.com/maps?q=USAFD%20MEDICAL%20GROUP%20SATELLITE%20PHARMACY%2C57%20SPAATZ%20DR%2C+LANGLEY%20AFB%2C+VA+23665
USN- ADM J T BOONE BRANCH MEDICAL,1035 NIDER BLVD STE 100,,"VIRGINIA BEACH, VA 23459",http://maps.google.com/maps?q=USN%20ADM%20J%20T%20BOONE%20BRANCH%20MEDICAL%2C1035%20NIDER%20BLVD%20STE%20100%2C+VIRGINIA%20BEACH%2C+VA+23459
USN- NAS OCEANA BRANCH MEDICAL CLINIC,1550 TOMCAT BLVD.,OCEANA NAVAL AIR STATION,"VIRGINIA BEACH, VA 23460",http://maps.google.com/maps?q=USN%20NAS%20OCEANA%20BRANCH%20MEDICAL%20CLINIC%2C1550%20TOMCAT%20BLVD.%2C+VIRGINIA%20BEACH%2C+VA+23460
USN- NAVAL BRANCH HEALTH CLINIC BANCROFT HALL,101 BUCHANAN ROAD,,"ANNAPOLIS, MD 21402",http://maps.google.com/maps?q=USN%20NAVAL%20BRANCH%20HEALTH%20CLINIC%20BANCROFT%20HALL%2C101%20BUCHANAN%20ROAD%2C+ANNAPOLIS%2C+MD+21402
USN- NAVAL MEDICAL CENTER,620 JOHN PAUL JONES CIRCLE,BUILDING 2 2ND FLOOR,"PORTSMOUTH, VA 23708",http://maps.google.com/maps?q=USN%20NAVAL%20MEDICAL%20CENTER%2C620%20JOHN%20PAUL%20JONES%20CIRCLE%2C+PORTSMOUTH%2C+VA+23708
USN- NAVAL MEDICAL CLINIC,3259 CATLIN AVENUE,,"QUANTICO, VA 22134",http://maps.google.com/maps?q=USN%20NAVAL%20MEDICAL%20CLINIC%2C3259%20CATLIN%20AVENUE%2C+QUANTICO%2C+VA+22134
USN- NAVAL MEDICAL CLINIC,695 KINKAID ROAD,PHARMACY DEPT.,"ANNAPOLIS, MD 21402",http://maps.google.com/maps?q=USN%20NAVAL%20MEDICAL%20CLINIC%2C695%20KINKAID%20ROAD%2C+ANNAPOLIS%2C+MD+21402
"USN-BRANCH HEALTH CLINIC, WASHINGTON NAVY YARD",915 N STREET S. E.,,"WASHINGTON, DC 20374",http://maps.google.com/maps?q=USNBRANCH%20HEALTH%20CLINIC%20WASHINGTON%20NAVY%20YARD%2C915%20N%20STREET%20S.%20E.%2C+WASHINGTON%2C+DC+20374
UVA PHARMACY,1240 LEE STREET ROOM 1407,,"CHARLOTTESVILLE, VA 22903",http://maps.google.com/maps?q=UVA%20PHARMACY%2C1240%20LEE%20STREET%20ROOM%201407%2C+CHARLOTTESVILLE%2C+VA+22903
VCU STUDENT HEALTH PHARMACY,SUITE 2200,P.O.BOX 842022,"RICHMOND, VA 23284",http://maps.google.com/maps?q=VCU%20STUDENT%20HEALTH%20PHARMACY%2CSUITE%202200%2C+RICHMOND%2C+VA+23284
"VIRGINIA CVS PHARMACY, L.L.C.",10901 WEST BROAD STREET,,"GLEN ALLEN, VA 23060",http://maps.google.com/maps?q=VIRGINIA%20CVS%20PHARMACY%20LLC%2C10901%20WEST%20BROAD%20STREET%2C+GLEN%20ALLEN%2C+VA+23060
"VIRGINIA CVS PHARMACY, L.L.C.",12755 JEFFERSON AVENUE,,"NEWPORT NEWS, VA 23602",http://maps.google.com/maps?q=VIRGINIA%20CVS%20PHARMACY%20LLC%2C12755%20JEFFERSON%20AVENUE%2C+NEWPORT%20NEWS%2C+VA+23602
"VIRGINIA CVS PHARMACY, L.L.C.",13031 LEE-JACKSON HIGHWAY,,"FAIRFAX, VA 22033",http://maps.google.com/maps?q=VIRGINIA%20CVS%20PHARMACY%20LLC%2C13031%20LEE-JACKSON%20HIGHWAY%2C+FAIRFAX%2C+VA+22033
"VIRGINIA CVS PHARMACY, L.L.C.",1329 KEMPSVILLE RD.,,"CHESAPEAKE, VA 23320",http://maps.google.com/maps?q=VIRGINIA%20CVS%20PHARMACY%20LLC%2C1329%20KEMPSVILLE%20RD.%2C+CHESAPEAKE%2C+VA+23320
"VIRGINIA CVS PHARMACY, L.L.C.",13600 JEFFERSON DAVIS HIGHWAY,,"WOODBRIDGE, VA 22191",http://maps.google.com/maps?q=VIRGINIA%20CVS%20PHARMACY%20LLC%2C13600%20JEFFERSON%20DAVIS%20HIGHWAY%2C+WOODBRIDGE%2C+VA+22191
"VIRGINIA CVS PHARMACY, L.L.C.",13800 HULL STREET RD.,,"MIDLOTHIAN, VA 23112",http://maps.google.com/maps?q=VIRGINIA%20CVS%20PHARMACY%20LLC%2C13800%20HULL%20STREET%20RD.%2C+MIDLOTHIAN%2C+VA+23112
"VIRGINIA CVS PHARMACY, L.L.C.",1610 MAIN STREET,,"CLIFTON FORGE, VA 24422",http://maps.google.com/maps?q=VIRGINIA%20CVS%20PHARMACY%20LLC%2C1610%20MAIN%20STREET%2C+CLIFTON%20FORGE%2C+VA+24422
"VIRGINIA CVS PHARMACY, L.L.C.",16641 MOUNTAIN RD,,"MONTPELIER, VA 23192",http://maps.google.com/maps?q=VIRGINIA%20CVS%20PHARMACY%20LLC%2C16641%20MOUNTAIN%20RD%2C+MONTPELIER%2C+VA+23192
"VIRGINIA CVS PHARMACY, L.L.C.",18048 JEFFERSON DAVIS HIGHWAY,,"RUTHER GLEN, VA 22546",http://maps.google.com/maps?q=VIRGINIA%20CVS%20PHARMACY%20LLC%2C18048%20JEFFERSON%20DAVIS%20HIGHWAY%2C+RUTHER%20GLEN%2C+VA+22546
"VIRGINIA CVS PHARMACY, L.L.C.",2001 COLONIAL AVE. SW,,"ROANOKE, VA 24015",http://maps.google.com/maps?q=VIRGINIA%20CVS%20PHARMACY%20LLC%2C2001%20COLONIAL%20AVE.%20SW%2C+ROANOKE%2C+VA+24015
"VIRGINIA CVS PHARMACY, L.L.C.",2232 GENERAL BOOTH BLVD.,,"VIRGINIA BEACH, VA 23456",http://maps.google.com/maps?q=VIRGINIA%20CVS%20PHARMACY%20LLC%2C2232%20GENERAL%20BOOTH%20BLVD.%2C+VIRGINIA%20BEACH%2C+VA+23456
"VIRGINIA CVS PHARMACY, L.L.C.",2315 W. MERCURY BLVD.,,"HAMPTON, VA 23666",http://maps.google.com/maps?q=VIRGINIA%20CVS%20PHARMACY%20LLC%2C2315%20W.%20MERCURY%20BLVD.%2C+HAMPTON%2C+VA+23666
"VIRGINIA CVS PHARMACY, L.L.C.",2511 ANDERSON HIGHWAY,,"POWHATAN, VA 23139",http://maps.google.com/maps?q=VIRGINIA%20CVS%20PHARMACY%20LLC%2C2511%20ANDERSON%20HIGHWAY%2C+POWHATAN%2C+VA+23139
"VIRGINIA CVS PHARMACY, L.L.C.",2775 GODWIN BLVD,,"SUFFOLK, VA 23434",http://maps.google.com/maps?q=VIRGINIA%20CVS%20PHARMACY%20LLC%2C2775%20GODWIN%20BLVD%2C+SUFFOLK%2C+VA+23434
"VIRGINIA CVS PHARMACY, L.L.C.",3117 LOCKHEED BLVD,,"ALEXANDRIA, VA 22306",http://maps.google.com/maps?q=VIRGINIA%20CVS%20PHARMACY%20LLC%2C3117%20LOCKHEED%20BLVD%2C+ALEXANDRIA%2C+VA+22306
"VIRGINIA CVS PHARMACY, L.L.C.",3133 LEE HIGHWAY,,"ARLINGTON, VA 22201",http://maps.google.com/maps?q=VIRGINIA%20CVS%20PHARMACY%20LLC%2C3133%20LEE%20HIGHWAY%2C+ARLINGTON%2C+VA+22201
"VIRGINIA CVS PHARMACY, L.L.C.",388 GARRISONVILLE ROAD,,"STAFFORD, VA 22554",http://maps.google.com/maps?q=VIRGINIA%20CVS%20PHARMACY%20LLC%2C388%20GARRISONVILLE%20ROAD%2C+STAFFORD%2C+VA+22554
"VIRGINIA CVS PHARMACY, L.L.C.",510 BLACKWELL RD.,,"WARRENTON, VA 20186",http://maps.google.com/maps?q=VIRGINIA%20CVS%20PHARMACY%20LLC%2C510%20BLACKWELL%20RD.%2C+WARRENTON%2C+VA+20186
"VIRGINIA CVS PHARMACY, L.L.C.",5100 S. LABURNUM AVE,LABURNUM SQUARE,"RICHMOND, VA 23231",http://maps.google.com/maps?q=VIRGINIA%20CVS%20PHARMACY%20LLC%2C5100%20S.%20LABURNUM%20AVE%2C+RICHMOND%2C+VA+23231
"VIRGINIA CVS PHARMACY, L.L.C.",5652 PICKWICK RD.,,"CENTREVILLE, VA 20120",http://maps.google.com/maps?q=VIRGINIA%20CVS%20PHARMACY%20LLC%2C5652%20PICKWICK%20RD.%2C+CENTREVILLE%2C+VA+20120
"VIRGINIA CVS PHARMACY, L.L.C.",5829 HIGH ST. WEST,,"PORTSMOUTH, VA 23703",http://maps.google.com/maps?q=VIRGINIA%20CVS%20PHARMACY%20LLC%2C5829%20HIGH%20ST.%20WEST%2C+PORTSMOUTH%2C+VA+23703
"VIRGINIA CVS PHARMACY, L.L.C.",591 JEFFERSON DAVIS HIGHWAY,,"FREDERICKSBURG, VA 22401",http://maps.google.com/maps?q=VIRGINIA%20CVS%20PHARMACY%20LLC%2C591%20JEFFERSON%20DAVIS%20HIGHWAY%2C+FREDERICKSBURG%2C+VA+22401
"VIRGINIA CVS PHARMACY, L.L.C.",6400 IRON BRIDGE ROAD,,"RICHMOND, VA 23234",http://maps.google.com/maps?q=VIRGINIA%20CVS%20PHARMACY%20LLC%2C6400%20IRON%20BRIDGE%20ROAD%2C+RICHMOND%2C+VA+23234
"VIRGINIA CVS PHARMACY, L.L.C.",7048 MECHANICSVILLE TPKE,,"MECHANICSVILLE, VA 23111",http://maps.google.com/maps?q=VIRGINIA%20CVS%20PHARMACY%20LLC%2C7048%20MECHANICSVILLE%20TPKE%2C+MECHANICSVILLE%2C+VA+23111
"VIRGINIA CVS PHARMACY, L.L.C.",7205 LITTLE RIVER TURNPIKE,,"ANNANDALE, VA 22003",http://maps.google.com/maps?q=VIRGINIA%20CVS%20PHARMACY%20LLC%2C7205%20LITTLE%20RIVER%20TURNPIKE%2C+ANNANDALE%2C+VA+22003
"VIRGINIA CVS PHARMACY, L.L.C.",8121 MIDLOTHIAN TURNPIKE,,"RICHMOND, VA 23235",http://maps.google.com/maps?q=VIRGINIA%20CVS%20PHARMACY%20LLC%2C8121%20MIDLOTHIAN%20TURNPIKE%2C+RICHMOND%2C+VA+23235
"VIRGINIA CVS PHARMACY, L.L.C.",8124 ARLINGTON BLVD,YORKTOWN CTR,"FALLS CHURCH, VA 22042",http://maps.google.com/maps?q=VIRGINIA%20CVS%20PHARMACY%20LLC%2C8124%20ARLINGTON%20BLVD%2C+FALLS%20CHURCH%2C+VA+22042
"VIRGINIA CVS PHARMACY, L.L.C.",918 W. MERCURY BLVD,,"HAMPTON, VA 23666",http://maps.google.com/maps?q=VIRGINIA%20CVS%20PHARMACY%20LLC%2C918%20W.%20MERCURY%20BLVD%2C+HAMPTON%2C+VA+23666
"VIRGINIA CVS PHARMACY, L.L.C.",9200 CENTREVILLE RD.,,"MANASSAS, VA 20110",http://maps.google.com/maps?q=VIRGINIA%20CVS%20PHARMACY%20LLC%2C9200%20CENTREVILLE%20RD.%2C+MANASSAS%2C+VA+20110
"VIRGINIA CVS PHARMACY, L.L.C.",972 E. LITTLE CREEK RD.,,"NORFOLK, VA 23518",http://maps.google.com/maps?q=VIRGINIA%20CVS%20PHARMACY%20LLC%2C972%20E.%20LITTLE%20CREEK%20RD.%2C+NORFOLK%2C+VA+23518
W-S ASSOCIATES INC,T/A APPLE DISCOUNT DRUGS,404A N. FRUITLAND BLVD.,"SALISBURY, MD 21801",http://maps.google.com/maps?q=WS%20ASSOCIATES%20INC%2CT/A%20APPLE%20DISCOUNT%20DRUGS%2C+SALISBURY%2C+MD+21801
WALGREEN CO,1217 22ND ST. NW,,"WASHINGTON, DC 20037",http://maps.google.com/maps?q=WALGREEN%20CO%2C1217%2022ND%20ST.%20NW%2C+WASHINGTON%2C+DC+20037
WALGREEN CO.,10097 BALTIMORE NATIONAL PIKE,,"ELLICOTT CITY, MD 21042",http://maps.google.com/maps?q=WALGREEN%20CO%2C10097%20BALTIMORE%20NATIONAL%20PIKE%2C+ELLICOTT%20CITY%2C+MD+21042
WALGREEN CO.,101 FORBES DR.,,"MARTINSBURG, WV 25404",http://maps.google.com/maps?q=WALGREEN%20CO%2C101%20FORBES%20DR.%2C+MARTINSBURG%2C+WV+25404
WALGREEN CO.,10600 ROLLINGWOOD DRIVE,,"FREDERICKSBURG, VA 22407",http://maps.google.com/maps?q=WALGREEN%20CO%2C10600%20ROLLINGWOOD%20DRIVE%2C+FREDERICKSBURG%2C+VA+22407
WALGREEN CO.,1101 NIMMO PARKWAY,,"VIRGINIA BEACH, VA 23456",http://maps.google.com/maps?q=WALGREEN%20CO%2C1101%20NIMMO%20PARKWAY%2C+VIRGINIA%20BEACH%2C+VA+23456
WALGREEN CO.,111 MICHIGAN AVE NW STE 1107,,"WASHINGTON, DC 20010",http://maps.google.com/maps?q=WALGREEN%20CO%2C111%20MICHIGAN%20AVE%20NW%20STE%201107%2C+WASHINGTON%2C+DC+20010
WALGREEN CO.,11119 HULL STREET,,"MIDLOTHIAN, VA 23112",http://maps.google.com/maps?q=WALGREEN%20CO%2C11119%20HULL%20STREET%2C+MIDLOTHIAN%2C+VA+23112
WALGREEN CO.,115 W LITTLE CREEK RD,,"NORFOLK, VA 23505",http://maps.google.com/maps?q=WALGREEN%20CO%2C115%20W%20LITTLE%20CREEK%20RD%2C+NORFOLK%2C+VA+23505
WALGREEN CO.,1155 F STREET NW,,"WASHINGTON, DC 20004",http://maps.google.com/maps?q=WALGREEN%20CO%2C1155%20F%20STREET%20NW%2C+WASHINGTON%2C+DC+20004
WALGREEN CO.,12750 JEFFERSON AVE,,"NEWPORT NEWS, VA 23602",http://maps.google.com/maps?q=WALGREEN%20CO%2C12750%20JEFFERSON%20AVE%2C+NEWPORT%20NEWS%2C+VA+23602
WALGREEN CO.,1309 RICHMOND RD,,"WILLIAMSBURG, VA 23185",http://maps.google.com/maps?q=WALGREEN%20CO%2C1309%20RICHMOND%20RD%2C+WILLIAMSBURG%2C+VA+23185
WALGREEN CO.,1316 BATTLEFIELD BLVD NORTH,,"CHESAPEAKE, VA 23320",http://maps.google.com/maps?q=WALGREEN%20CO%2C1316%20BATTLEFIELD%20BLVD%20NORTH%2C+CHESAPEAKE%2C+VA+23320
WALGREEN CO.,1329 UNIVERSITY BLVD. E,,"TAKOMA PARK, MD 20912",http://maps.google.com/maps?q=WALGREEN%20CO%2C1329%20UNIVERSITY%20BLVD.%20E%2C+TAKOMA%20PARK%2C+MD+20912
WALGREEN CO.,13926 LEE HWY.,,"CENTREVILLE, VA 20120",http://maps.google.com/maps?q=WALGREEN%20CO%2C13926%20LEE%20HWY.%2C+CENTREVILLE%2C+VA+20120
WALGREEN CO.,20 BUFORD RD,,"NORTH CHESTERFIELD, VA 23235",http://maps.google.com/maps?q=WALGREEN%20CO%2C20%20BUFORD%20RD%2C+NORTH%20CHESTERFIELD%2C+VA+23235
WALGREEN CO.,276 W LEE HWY,,"WARRENTON, VA 20186",http://maps.google.com/maps?q=WALGREEN%20CO%2C276%20W%20LEE%20HWY%2C+WARRENTON%2C+VA+20186
WALGREEN CO.,2902 GODWIN BLVD.,,"SUFFOLK, VA 23434",http://maps.google.com/maps?q=WALGREEN%20CO%2C2902%20GODWIN%20BLVD.%2C+SUFFOLK%2C+VA+23434
WALGREEN CO.,3201 BOULEVARD,,"COLONIAL HEIGHTS, VA 23834",http://maps.google.com/maps?q=WALGREEN%20CO%2C3201%20BOULEVARD%2C+COLONIAL%20HEIGHTS%2C+VA+23834
WALGREEN CO.,3376 VIRGINIA BEACH BLVD,,"VIRGINIA BEACH, VA 23452",http://maps.google.com/maps?q=WALGREEN%20CO%2C3376%20VIRGINIA%20BEACH%20BLVD%2C+VIRGINIA%20BEACH%2C+VA+23452
WALGREEN CO.,3715 MECHANICSVILLE TURNPIKE,,"RICHMOND, VA 23223",http://maps.google.com/maps?q=WALGREEN%20CO%2C3715%20MECHANICSVILLE%20TURNPIKE%2C+RICHMOND%2C+VA+23223
WALGREEN CO.,4201 MEADOWDALE BLVD.,,"NORTH CHESTERFIELD, VA 23234",http://maps.google.com/maps?q=WALGREEN%20CO%2C4201%20MEADOWDALE%20BLVD.%2C+NORTH%20CHESTERFIELD%2C+VA+23234
WALGREEN CO.,4300 BACKLICK RD,,"ANNANDALE, VA 22003",http://maps.google.com/maps?q=WALGREEN%20CO%2C4300%20BACKLICK%20RD%2C+ANNANDALE%2C+VA+22003
WALGREEN CO.,4841 WILLIAMSON ROAD NW,,"ROANOKE, VA 24012",http://maps.google.com/maps?q=WALGREEN%20CO%2C4841%20WILLIAMSON%20ROAD%20NW%2C+ROANOKE%2C+VA+24012
WALGREEN CO.,4845 S LABURNUM AVE,,"RICHMOND, VA 23231",http://maps.google.com/maps?q=WALGREEN%20CO%2C4845%20S%20LABURNUM%20AVE%2C+RICHMOND%2C+VA+23231
WALGREEN CO.,50 WHITE OAK RD,,"FREDERICKSBURG, VA 22405",http://maps.google.com/maps?q=WALGREEN%20CO%2C50%20WHITE%20OAK%20RD%2C+FREDERICKSBURG%2C+VA+22405
WALGREEN CO.,5917 HIGH STREET W,,"PORTSMOUTH, VA 23703",http://maps.google.com/maps?q=WALGREEN%20CO%2C5917%20HIGH%20STREET%20W%2C+PORTSMOUTH%2C+VA+23703
WALGREEN CO.,600 J CLYDE MORRIS BLVD,,"NEWPORT NEWS, VA 23601",http://maps.google.com/maps?q=WALGREEN%20CO%2C600%20J%20CLYDE%20MORRIS%20BLVD%2C+NEWPORT%20NEWS%2C+VA+23601
WALGREEN CO.,600 WASHINGTON BLVD. S,,"LAUREL, MD 20707",http://maps.google.com/maps?q=WALGREEN%20CO%2C600%20WASHINGTON%20BLVD.%20S%2C+LAUREL%2C+MD+20707
WALGREEN CO.,645 FIRST COLONIAL RD,,"VIRGINIA BEACH, VA 23454",http://maps.google.com/maps?q=WALGREEN%20CO%2C645%20FIRST%20COLONIAL%20RD%2C+VIRGINIA%20BEACH%2C+VA+23454
WALGREEN CO.,6700 RITCHIE HWY,,"GLEN BURNIE, MD 21061",http://maps.google.com/maps?q=WALGREEN%20CO%2C6700%20RITCHIE%20HWY%2C+GLEN%20BURNIE%2C+MD+21061
WALGREEN CO.,6717 RICHMOND HWY.,,"ALEXANDRIA, VA 22306",http://maps.google.com/maps?q=WALGREEN%20CO%2C6717%20RICHMOND%20HWY.%2C+ALEXANDRIA%2C+VA+22306
WALGREEN CO.,6851 TEMIE LEE PKWY,,"MIDLOTHIAN, VA 23112",http://maps.google.com/maps?q=WALGREEN%20CO%2C6851%20TEMIE%20LEE%20PKWY%2C+MIDLOTHIAN%2C+VA+23112
WALGREEN CO.,700 FREDERICK BLVD,,"PORTSMOUTH, VA 23707",http://maps.google.com/maps?q=WALGREEN%20CO%2C700%20FREDERICK%20BLVD%2C+PORTSMOUTH%2C+VA+23707
WALGREEN CO.,7039 MECHANICSVILLE TURNPIKE,,"MECHANICSVILLE, VA 23111",http://maps.google.com/maps?q=WALGREEN%20CO%2C7039%20MECHANICSVILLE%20TURNPIKE%2C+MECHANICSVILLE%2C+VA+23111
WALGREEN CO.,801 7TH ST NW,,"WASHINGTON, DC 20001",http://maps.google.com/maps?q=WALGREEN%20CO%2C801%207TH%20ST%20NW%2C+WASHINGTON%2C+DC+20001
WALGREEN CO.,810 W 21ST STREET,,"NORFOLK, VA 23517",http://maps.google.com/maps?q=WALGREEN%20CO%2C810%20W%2021ST%20STREET%2C+NORFOLK%2C+VA+23517
WALGREEN CO.,8174 OCEAN GATEWAY,,"EASTON, MD 21601",http://maps.google.com/maps?q=WALGREEN%20CO%2C8174%20OCEAN%20GATEWAY%2C+EASTON%2C+MD+21601
WALGREEN CO.,8414 OLD KEENE MILL RD.,UNIT A,"SPRINGFIELD, VA 22152",http://maps.google.com/maps?q=WALGREEN%20CO%2C8414%20OLD%20KEENE%20MILL%20RD.%2C+SPRINGFIELD%2C+VA+22152
WALGREEN CO.,856 S MILITARY HWY,,"VIRGINIA BEACH, VA 23464",http://maps.google.com/maps?q=WALGREEN%20CO%2C856%20S%20MILITARY%20HWY%2C+VIRGINIA%20BEACH%2C+VA+23464
WALGREEN CO.,9001 WOODY TERRACE,SUITE B,"CLINTON, MD 20735",http://maps.google.com/maps?q=WALGREEN%20CO%2C9001%20WOODY%20TERRACE%2C+CLINTON%2C+MD+20735
WALGREEN CO.,919 W MERCURY BLVD,,"HAMPTON, VA 23666",http://maps.google.com/maps?q=WALGREEN%20CO%2C919%20W%20MERCURY%20BLVD%2C+HAMPTON%2C+VA+23666
WELLSPAN PHARMACY,4910B FAIRFIELD ROAD,,"FAIRFIELD, PA 17320",http://maps.google.com/maps?q=WELLSPAN%20PHARMACY%2C4910B%20FAIRFIELD%20ROAD%2C+FAIRFIELD%2C+PA+17320
"WEST VIRGINIA CVS PHARMACY, L.L.C.",505 RANDOLPH AVE,,"ELKINS, WV 26241",http://maps.google.com/maps?q=WEST%20VIRGINIA%20CVS%20PHARMACY%20LLC%2C505%20RANDOLPH%20AVE%2C+ELKINS%2C+WV+26241
WILLIAMSBURG DRUG CO,THE PROFESSIONAL PHCY OF WMSBG,1302 MT VERNON DRIVE,"WILLIAMSBURG, VA 23185",http://maps.google.com/maps?q=WILLIAMSBURG%20DRUG%20CO%2CTHE%20PROFESSIONAL%20PHCY%20OF%20WMSBG%2C+WILLIAMSBURG%2C+VA+23185
WILLIAMSBURG DRUG CO INC,240 MCLAWS CIRCLE,,"WILLIAMSBURG, VA 23185",http://maps.google.com/maps?q=WILLIAMSBURG%20DRUG%20CO%20INC%2C240%20MCLAWS%20CIRCLE%2C+WILLIAMSBURG%2C+VA+23185
WRNMMC-WALTER REED NATIONAL MILITARY MEDICAL CENTE,PHARMACY DEPT BLDG 9,8901 WISCONSIN AVE,"BETHESDA, MD 20889",http://maps.google.com/maps?q=WRNMMCWALTER%20REED%20NATIONAL%20MILITARY%20MEDICAL%20CENTE%2CPHARMACY%20DEPT%20BLDG%209%2C+BETHESDA%2C+MD+20889
