Business Name,Address 1,Address 2,"City, State Zip",Map URL
ALLIANCE COMMUNITY HOSPITAL,200 E. STATE ST,,"ALLIANCE, OH 44601",http://maps.google.com/maps?q=ALLIANCE%20COMMUNITY%20HOSPITAL%2C200%20E.%20STATE%20ST%2C+ALLIANCE%2C+OH+44601
APOTHECARY SOLUTIONS LLC,207 EAST MAIN STREET,,"REMINGTON, VA 22734",http://maps.google.com/maps?q=APOTHECARY%20SOLUTIONS%20LLC%2C207%20EAST%20MAIN%20STREET%2C+REMINGTON%2C+VA+22734
ARMED FORCES RETIREMENT HOME,"3700 NORTH CAPITOL ST, NW","SHERMAN BLDG, ROOM 103","WASHINGTON, DC 20011",http://maps.google.com/maps?q=ARMED%20FORCES%20RETIREMENT%20HOME%2C3700%20NORTH%20CAPITOL%20ST%2C%20NW%2C+WASHINGTON%2C+DC+20011
BARNESVILLE HOSPITAL ASSN INC,639 W MAIN ST,,"BARNESVILLE, OH 43713",http://maps.google.com/maps?q=BARNESVILLE%20HOSPITAL%20ASSN%20INC%2C639%20W%20MAIN%20ST%2C+BARNESVILLE%2C+OH+43713
BELLWOOD DRUGS,135 SOUTH MAIN STREET,,"WOODSFIELD, OH 43793",http://maps.google.com/maps?q=BELLWOOD%20DRUGS%2C135%20SOUTH%20MAIN%20STREET%2C+WOODSFIELD%2C+OH+43793
BELMONT CO HLTH SERVICES,DBA MORRISTOWN PHCY,66840 BELMONT-MORRISTOWN RD,"BELMONT, OH 43718",http://maps.google.com/maps?q=BELMONT%20CO%20HLTH%20SERVICES%2CDBA%20MORRISTOWN%20PHCY%2C+BELMONT%2C+OH+43718
BERGER HOSPITAL,600 NORTH PICKAWAY STREET,ATTN PHARMACY,"CIRCLEVILLE, OH 43113",http://maps.google.com/maps?q=BERGER%20HOSPITAL%2C600%20NORTH%20PICKAWAY%20STREET%2C+CIRCLEVILLE%2C+OH+43113
"CAMERLIN ENTERPRISES, LLC",615 WELLS STREET,,"SISTERSVILLE, WV 26175",http://maps.google.com/maps?q=CAMERLIN%20ENTERPRISES%20LLC%2C615%20WELLS%20STREET%2C+SISTERSVILLE%2C+WV+26175
CARILION CLINIC PHARMACY SALEM,3737 W. MAIN ST,STE 106,"SALEM, VA 24153",http://maps.google.com/maps?q=CARILION%20CLINIC%20PHARMACY%20SALEM%2C3737%20W.%20MAIN%20ST%2C+SALEM%2C+VA+24153
CHEFFY DRUGS LLC,148 EAST MAIN ST,,"BARNESVILLE, OH 43713",http://maps.google.com/maps?q=CHEFFY%20DRUGS%20LLC%2C148%20EAST%20MAIN%20ST%2C+BARNESVILLE%2C+OH+43713
CHILDRENS HOSPITAL OF PITTSBURGH,4401 PENN AVENUE,,"PITTSBURGH, PA 15224",http://maps.google.com/maps?q=CHILDRENS%20HOSPITAL%20OF%20PITTSBURGH%2C4401%20PENN%20AVENUE%2C+PITTSBURGH%2C+PA+15224
CHRISTIAN PHARMACY,DBA CORNER PHARMACY,102 WEST MAIN ST,"BARNESVILLE, OH 43713",http://maps.google.com/maps?q=CHRISTIAN%20PHARMACY%2CDBA%20CORNER%20PHARMACY%2C+BARNESVILLE%2C+OH+43713
CLAYPOOL HILL PHARMACY,12252 GOVERNOR G C PEERY HWY,PO BOX 690,"POUNDING MILL, VA 24637",http://maps.google.com/maps?q=CLAYPOOL%20HILL%20PHARMACY%2C12252%20GOVERNOR%20G%20C%20PEERY%20HWY%2C+POUNDING%20MILL%2C+VA+24637
COMMUNITY PHARM & MED SUPPLY,2900 TYLER ROAD,SUITE 1890,"CHRISTIANSBURG, VA 24073",http://maps.google.com/maps?q=COMMUNITY%20PHARM%20%20MED%20SUPPLY%2C2900%20TYLER%20ROAD%2C+CHRISTIANSBURG%2C+VA+24073
COMPASS PHARMACY,1634 11TH STREET,,"PORTSMOUTH, OH 45662",http://maps.google.com/maps?q=COMPASS%20PHARMACY%2C1634%2011TH%20STREET%2C+PORTSMOUTH%2C+OH+45662
DAVIS BROTHERS PHARMACY,615 N CHESTER ST,,"NEW CUMBERLAND, WV 26047",http://maps.google.com/maps?q=DAVIS%20BROTHERS%20PHARMACY%2C615%20N%20CHESTER%20ST%2C+NEW%20CUMBERLAND%2C+WV+26047
DAVIS BROTHERS PHARMACY - CHESTER,559 CAROLINA AVE STE B,,"CHESTER, WV 26034",http://maps.google.com/maps?q=DAVIS%20BROTHERS%20PHARMACY%20%20CHESTER%2C559%20CAROLINA%20AVE%20STE%20B%2C+CHESTER%2C+WV+26034
"DISTRICT OF COLUMBIA CVS PHARMACY, L.L.C.",320 40TH STREET NE,,"WASHINGTON, DC 20019",http://maps.google.com/maps?q=DISTRICT%20OF%20COLUMBIA%20CVS%20PHARMACY%20LLC%2C320%2040TH%20STREET%20NE%2C+WASHINGTON%2C+DC+20019
"DISTRICT OF COLUMBIA CVS PHARMACY, L.L.C.",6-7 DUPONT CIRCLE NW,,"WASHINGTON, DC 20036",http://maps.google.com/maps?q=DISTRICT%20OF%20COLUMBIA%20CVS%20PHARMACY%20LLC%2C6-7%20DUPONT%20CIRCLE%20NW%2C+WASHINGTON%2C+DC+20036
"DISTRICT OF COLUMBIA CVS PHARMACY, L.L.C.",6514 GEORGIA AVENUE NW,,"WASHINGTON, DC 20012",http://maps.google.com/maps?q=DISTRICT%20OF%20COLUMBIA%20CVS%20PHARMACY%20LLC%2C6514%20GEORGIA%20AVENUE%20NW%2C+WASHINGTON%2C+DC+20012
DONORA UNION PHARMACY,601 MCKEAN AVE,,"DONORA, PA 15033",http://maps.google.com/maps?q=DONORA%20UNION%20PHARMACY%2C601%20MCKEAN%20AVE%2C+DONORA%2C+PA+15033
DUSINI DRUG INC,315 EAST HIGH AVENUE,,"NEW PHILADELPHIA, OH 44663",http://maps.google.com/maps?q=DUSINI%20DRUG%20INC%2C315%20EAST%20HIGH%20AVENUE%2C+NEW%20PHILADELPHIA%2C+OH+44663
FAMILY CARE-REMINGTON INC.,208 E. MADISON ST.,,"REMINGTON, VA 22734",http://maps.google.com/maps?q=FAMILY%20CAREREMINGTON%20INC%2C208%20E.%20MADISON%20ST.%2C+REMINGTON%2C+VA+22734
FAMILY MEDS INC,12114 OLD LINE CENTER UNIT R-7A,,"WALDORF, MD 20602",http://maps.google.com/maps?q=FAMILY%20MEDS%20INC%2C12114%20OLD%20LINE%20CENTER%20UNIT%20R-7A%2C+WALDORF%2C+MD+20602
FAMILY PHARMACY SERVICES,303 WEST 10TH STREET,,"FRONT ROYAL, VA 22630",http://maps.google.com/maps?q=FAMILY%20PHARMACY%20SERVICES%2C303%20WEST%2010TH%20STREET%2C+FRONT%20ROYAL%2C+VA+22630
FAST & FRIENDLY PHARMACY RC LLC,4 GARTON PLAZA,,"WESTON, WV 26452",http://maps.google.com/maps?q=FAST%20%20FRIENDLY%20PHARMACY%20RC%20LLC%2C4%20GARTON%20PLAZA%2C+WESTON%2C+WV+26452
FINNEY'S INSTITUTIONAL,5930 MAYFAIR RD. N.W.,,"NORTH CANTON, OH 44720",http://maps.google.com/maps?q=FINNEYS%20INSTITUTIONAL%2C5930%20MAYFAIR%20RD.%20N.W.%2C+NORTH%20CANTON%2C+OH+44720
FRANKLIN PHARM & HEALTH CARE,1732 YOUNGSTOWN RD,,"WARREN, OH 44484",http://maps.google.com/maps?q=FRANKLIN%20PHARM%20%20HEALTH%20CARE%2C1732%20YOUNGSTOWN%20RD%2C+WARREN%2C+OH+44484
FRUTH PHARMACY,DBA FRUTH PHCY OAKWOOD RD,864 OAKWOOD RD,"CHARLESTON, WV 25314",http://maps.google.com/maps?q=FRUTH%20PHARMACY%2CDBA%20FRUTH%20PHCY%20OAKWOOD%20RD%2C+CHARLESTON%2C+WV+25314
"GENOA HEALTHCARE, LLC",1445 W. MAIN STREET,,"NEWARK, OH 43055",http://maps.google.com/maps?q=GENOA%20HEALTHCARE%20LLC%2C1445%20W.%20MAIN%20STREET%2C+NEWARK%2C+OH+43055
"GENOA HEALTHCARE, LLC",340 SOUTH BROADWAY STREET,,"AKRON, OH 44308",http://maps.google.com/maps?q=GENOA%20HEALTHCARE%20LLC%2C340%20SOUTH%20BROADWAY%20STREET%2C+AKRON%2C+OH+44308
"GENOA HEALTHCARE, LLC","624 MARKET STREET N, STE 140",,"CANTON, OH 44702",http://maps.google.com/maps?q=GENOA%20HEALTHCARE%20LLC%2C624%20MARKET%20STREET%20N%2C%20STE%20140%2C+CANTON%2C+OH+44702
"GENOA HEALTHCARE, LLC",625 CLEVELAND AVE NW,SUITE 301,"CANTON, OH 44702",http://maps.google.com/maps?q=GENOA%20HEALTHCARE%20LLC%2C625%20CLEVELAND%20AVE%20NW%2C+CANTON%2C+OH+44702
"GENOA HEALTHCARE, LLC",726 WICK AVE,,"YOUNGSTOWN, OH 44505",http://maps.google.com/maps?q=GENOA%20HEALTHCARE%20LLC%2C726%20WICK%20AVE%2C+YOUNGSTOWN%2C+OH+44505
"GENOA HEALTHCARE, LLC",901 WASHINGTON STREET,ROOM 135,"PORTSMOUTH, OH 45662",http://maps.google.com/maps?q=GENOA%20HEALTHCARE%20LLC%2C901%20WASHINGTON%20STREET%2C+PORTSMOUTH%2C+OH+45662
GILLESPIE'S DRUGS,44523 MARIETTA ROAD,,"CALDWELL, OH 43724",http://maps.google.com/maps?q=GILLESPIES%20DRUGS%2C44523%20MARIETTA%20ROAD%2C+CALDWELL%2C+OH+43724
GRANE SUPPLY,105 GAMMA DRIVE,SUITE 100,"PITTSBURGH, PA 15238",http://maps.google.com/maps?q=GRANE%20SUPPLY%2C105%20GAMMA%20DRIVE%2C+PITTSBURGH%2C+PA+15238
GRANT MEMORIAL HOSPITAL,117 HOSPITAL DRIVE,P. O. BOX 1019,"PETERSBURG, WV 26847",http://maps.google.com/maps?q=GRANT%20MEMORIAL%20HOSPITAL%2C117%20HOSPITAL%20DRIVE%2C+PETERSBURG%2C+WV+26847
"GREENBRIER MEDICAL ARTS PHARMACY, INC.",3558 JEFFERSON ST N STE 4,,"LEWISBURG, WV 24901",http://maps.google.com/maps?q=GREENBRIER%20MEDICAL%20ARTS%20PHARMACY%20INC%2C3558%20JEFFERSON%20ST%20N%20STE%204%2C+LEWISBURG%2C+WV+24901
"H&M SPECIALTY RX,INC",5454 WISCONSIN AVE,#400,"CHEVY CHASE, MD 20815",http://maps.google.com/maps?q=HM%20SPECIALTY%20RXINC%2C5454%20WISCONSIN%20AVE%2C+CHEVY%20CHASE%2C+MD+20815
HANSON PHARMACY,2110 CRAIN HWY,,"WALDORF, MD 20601",http://maps.google.com/maps?q=HANSON%20PHARMACY%2C2110%20CRAIN%20HWY%2C+WALDORF%2C+MD+20601
HEALTH CENTER PHARMACY,812 GORMAN AVE,,"ELKINS, WV 26241",http://maps.google.com/maps?q=HEALTH%20CENTER%20PHARMACY%2C812%20GORMAN%20AVE%2C+ELKINS%2C+WV+26241
HERITAGE VALLEY PHARMACY,BEAVER CAMPUS/PHARMACY DEPT,1000 DUTCH RIDGE ROAD,"BEAVER, PA 15009",http://maps.google.com/maps?q=HERITAGE%20VALLEY%20PHARMACY%2CBEAVER%20CAMPUS/PHARMACY%20DEPT%2C+BEAVER%2C+PA+15009
HERITAGE VALLEY PHARMACY SEWICKLEY CAMP,720 BLACKBURN ROAD,,"SEWICKLEY, PA 15143",http://maps.google.com/maps?q=HERITAGE%20VALLEY%20PHARMACY%20SEWICKLEY%20CAMP%2C720%20BLACKBURN%20ROAD%2C+SEWICKLEY%2C+PA+15143
HIGH ST DISCOUNT PHARMACY,30 HIGH ST,,"WALDORF, MD 20602",http://maps.google.com/maps?q=HIGH%20ST%20DISCOUNT%20PHARMACY%2C30%20HIGH%20ST%2C+WALDORF%2C+MD+20602
HILLTOP PHARMACY,818 E. WARRINGTON AVENUE,,"PITTSBURGH, PA 15210",http://maps.google.com/maps?q=HILLTOP%20PHARMACY%2C818%20E.%20WARRINGTON%20AVENUE%2C+PITTSBURGH%2C+PA+15210
HOT SPRINGS PHARMACY,2833 MAIN STREET,POST OFFICE BOX 1180,"HOT SPRINGS, VA 24445",http://maps.google.com/maps?q=HOT%20SPRINGS%20PHARMACY%2C2833%20MAIN%20STREET%2C+HOT%20SPRINGS%2C+VA+24445
HYDE DRUG STORE,112 N LIBERTY ST,,"NEW CASTLE, PA 16102",http://maps.google.com/maps?q=HYDE%20DRUG%20STORE%2C112%20N%20LIBERTY%20ST%2C+NEW%20CASTLE%2C+PA+16102
INDIAN HEAD CARE PHARMACY,4115 INDIAN HEAD HWY.,,"INDIAN HEAD, MD 20640",http://maps.google.com/maps?q=INDIAN%20HEAD%20CARE%20PHARMACY%2C4115%20INDIAN%20HEAD%20HWY.%2C+INDIAN%20HEAD%2C+MD+20640
INOVA LOUDOUN HOSPITAL,44045 RIVERSIDE PARKWAY,,"LEESBURG, VA 20176",http://maps.google.com/maps?q=INOVA%20LOUDOUN%20HOSPITAL%2C44045%20RIVERSIDE%20PARKWAY%2C+LEESBURG%2C+VA+20176
INOVA PHARMACY PLUS AT INOVA FAIR OAKS,3600 JOSEPH SIEWICK DRIVE,,"FAIRFAX, VA 22033",http://maps.google.com/maps?q=INOVA%20PHARMACY%20PLUS%20AT%20INOVA%20FAIR%20OAKS%2C3600%20JOSEPH%20SIEWICK%20DRIVE%2C+FAIRFAX%2C+VA+22033
JUDY'S DRUG STORE INC,24 NORTH MAIN ST,,"PETERSBURG, WV 26847",http://maps.google.com/maps?q=JUDYS%20DRUG%20STORE%20INC%2C24%20NORTH%20MAIN%20ST%2C+PETERSBURG%2C+WV+26847
KAISER,BURKE PHARMACY,5999 BURKE COMMONS ROAD,"BURKE, VA 22015",http://maps.google.com/maps?q=KAISER%2CBURKE%20PHARMACY%2C+BURKE%2C+VA+22015
KAISER PERM ASHBURN PHARMACY,43480 YUKON DRIVE SUITE 100,,"ASHBURN, VA 20147",http://maps.google.com/maps?q=KAISER%20PERM%20ASHBURN%20PHARMACY%2C43480%20YUKON%20DRIVE%20SUITE%20100%2C+ASHBURN%2C+VA+20147
KAISER PERMANENTE MANASSAS PH,10701 ROSEMARY DRIVE,,"MANASSAS, VA 20109",http://maps.google.com/maps?q=KAISER%20PERMANENTE%20MANASSAS%20PH%2C10701%20ROSEMARY%20DRIVE%2C+MANASSAS%2C+VA+20109
KAISER PERMANENTE SPRINGFIELD,6501 LOISDALE COURT,,"SPRINGFIELD, VA 22150",http://maps.google.com/maps?q=KAISER%20PERMANENTE%20SPRINGFIELD%2C6501%20LOISDALE%20COURT%2C+SPRINGFIELD%2C+VA+22150
KAISER PERMANENTE TYSONS CORNER PHARMACY,8008 WESTPARK DRIVE,,"MCLEAN, VA 22102",http://maps.google.com/maps?q=KAISER%20PERMANENTE%20TYSONS%20CORNER%20PHARMACY%2C8008%20WESTPARK%20DRIVE%2C+MCLEAN%2C+VA+22102
KAISER-PERMANENTE RESTON PHCY,1890 METRO CENTER DRIVE,,"RESTON, VA 20190",http://maps.google.com/maps?q=KAISERPERMANENTE%20RESTON%20PHCY%2C1890%20METRO%20CENTER%20DRIVE%2C+RESTON%2C+VA+20190
KINES FAMILY PHARMACY INC.,6097 SISSONVILLE DRIVE,,"CHARLESTON, WV 25312",http://maps.google.com/maps?q=KINES%20FAMILY%20PHARMACY%20INC%2C6097%20SISSONVILLE%20DRIVE%2C+CHARLESTON%2C+WV+25312
KING'S DAUGHTERS,613 23RD STREET SUITE 110,,"ASHLAND, KY 41101",http://maps.google.com/maps?q=KINGS%20DAUGHTERS%2C613%2023RD%20STREET%20SUITE%20110%2C+ASHLAND%2C+KY+41101
LAPLATA PHARMACY,6501 CRAIN HIGHWAY,,"LA PLATA, MD 20646",http://maps.google.com/maps?q=LAPLATA%20PHARMACY%2C6501%20CRAIN%20HIGHWAY%2C+LA%20PLATA%2C+MD+20646
LESTER & MOWERY'S  PHARMACY,20 SOUTH STREET,,"FRONT ROYAL, VA 22630",http://maps.google.com/maps?q=LESTER%20%20MOWERYS%20%20PHARMACY%2C20%20SOUTH%20STREET%2C+FRONT%20ROYAL%2C+VA+22630
"MARYLAND CVS PHARMACY, L.L.C.",15100 BALTIMORE AVE.,,"LAUREL, MD 20707",http://maps.google.com/maps?q=MARYLAND%20CVS%20PHARMACY%20LLC%2C15100%20BALTIMORE%20AVE.%2C+LAUREL%2C+MD+20707
"MARYLAND CVS PHARMACY, L.L.C.",19100 MONTGOMERY VILLAGE AVE.,,"GAITHERSBURG, MD 20886",http://maps.google.com/maps?q=MARYLAND%20CVS%20PHARMACY%20LLC%2C19100%20MONTGOMERY%20VILLAGE%20AVE.%2C+GAITHERSBURG%2C+MD+20886
"MARYLAND CVS PHARMACY, L.L.C.",3110 OLNEY SANDY SPRING RD.,,"OLNEY, MD 20832",http://maps.google.com/maps?q=MARYLAND%20CVS%20PHARMACY%20LLC%2C3110%20OLNEY%20SANDY%20SPRING%20RD.%2C+OLNEY%2C+MD+20832
"MARYLAND CVS PHARMACY, L.L.C.",3300A CENTENNIAL LANE,,"ELLICOTT CITY, MD 21042",http://maps.google.com/maps?q=MARYLAND%20CVS%20PHARMACY%20LLC%2C3300A%20CENTENNIAL%20LANE%2C+ELLICOTT%20CITY%2C+MD+21042
"MARYLAND CVS PHARMACY, L.L.C.",3715 UNIVERSITY BOULEVARD WEST,,"KENSINGTON, MD 20895",http://maps.google.com/maps?q=MARYLAND%20CVS%20PHARMACY%20LLC%2C3715%20UNIVERSITY%20BOULEVARD%20WEST%2C+KENSINGTON%2C+MD+20895
"MARYLAND CVS PHARMACY, L.L.C.",402 SO. JEFFERSON STREET,,"FREDERICK, MD 21701",http://maps.google.com/maps?q=MARYLAND%20CVS%20PHARMACY%20LLC%2C402%20SO.%20JEFFERSON%20STREET%2C+FREDERICK%2C+MD+21701
"MARYLAND CVS PHARMACY, L.L.C.",5870 SILVER HILL RD,SILVER HILL PLAZA,"DISTRICT HEIGHTS, MD 20747",http://maps.google.com/maps?q=MARYLAND%20CVS%20PHARMACY%20LLC%2C5870%20SILVER%20HILL%20RD%2C+DISTRICT%20HEIGHTS%2C+MD+20747
"MARYLAND CVS PHARMACY, L.L.C.",6260 CRAIN HWY.,,"LA PLATA, MD 20646",http://maps.google.com/maps?q=MARYLAND%20CVS%20PHARMACY%20LLC%2C6260%20CRAIN%20HWY.%2C+LA%20PLATA%2C+MD+20646
"MARYLAND CVS PHARMACY, L.L.C.",7607 GREENBELT ROAD,,"GREENBELT, MD 20770",http://maps.google.com/maps?q=MARYLAND%20CVS%20PHARMACY%20LLC%2C7607%20GREENBELT%20ROAD%2C+GREENBELT%2C+MD+20770
"MARYLAND CVS PHARMACY, L.L.C.",7955 TUCKERMAN LANE,,"ROCKVILLE, MD 20854",http://maps.google.com/maps?q=MARYLAND%20CVS%20PHARMACY%20LLC%2C7955%20TUCKERMAN%20LANE%2C+ROCKVILLE%2C+MD+20854
"MARYLAND CVS PHARMACY, L.L.C.",8859 BRANCH AVENUE,,"CLINTON, MD 20735",http://maps.google.com/maps?q=MARYLAND%20CVS%20PHARMACY%20LLC%2C8859%20BRANCH%20AVENUE%2C+CLINTON%2C+MD+20735
"MARYLAND CVS PHARMACY, L.L.C.",9920 KEY WEST AVE,,"ROCKVILLE, MD 20850",http://maps.google.com/maps?q=MARYLAND%20CVS%20PHARMACY%20LLC%2C9920%20KEY%20WEST%20AVE%2C+ROCKVILLE%2C+MD+20850
MEDICAL CENTER PHARMACY INC,2001 CRYSTAL SPRING DRIVE,SUITE 110,"ROANOKE, VA 24014",http://maps.google.com/maps?q=MEDICAL%20CENTER%20PHARMACY%20INC%2C2001%20CRYSTAL%20SPRING%20DRIVE%2C+ROANOKE%2C+VA+24014
MEDICINE CHEST PHARMACY,6823 OLD DOMINION DRIVE,,"MCLEAN, VA 22101",http://maps.google.com/maps?q=MEDICINE%20CHEST%20PHARMACY%2C6823%20OLD%20DOMINION%20DRIVE%2C+MCLEAN%2C+VA+22101
MEDSTAR PHARMACY (STORE #7),3305 N. LEISUREWORLD BOULEVARD,,"SILVER SPRING, MD 20906",http://maps.google.com/maps?q=MEDSTAR%20PHARMACY%20STORE%2C3305%20N.%20LEISUREWORLD%20BOULEVARD%2C+SILVER%20SPRING%2C+MD+20906
MERCER PHARMACY,737 GREENVILLE ROAD,,"MERCER, PA 16137",http://maps.google.com/maps?q=MERCER%20PHARMACY%2C737%20GREENVILLE%20ROAD%2C+MERCER%2C+PA+16137
MOUNDSVILLE PHARMACY,118 NORTH LAFAYETTE AVENUE,,"MOUNDSVILLE, WV 26041",http://maps.google.com/maps?q=MOUNDSVILLE%20PHARMACY%2C118%20NORTH%20LAFAYETTE%20AVENUE%2C+MOUNDSVILLE%2C+WV+26041
NEIGHBORHOOD PHARMACY OF DEL RAY,2204 MT. VERNON AVE,,"ALEXANDRIA, VA 22301",http://maps.google.com/maps?q=NEIGHBORHOOD%20PHARMACY%20OF%20DEL%20RAY%2C2204%20MT.%20VERNON%20AVE%2C+ALEXANDRIA%2C+VA+22301
NORTHERN BEDFORD PHARMACY,3499 BRUMBAUGH RD,,"NEW ENTERPRISE, PA 16664",http://maps.google.com/maps?q=NORTHERN%20BEDFORD%20PHARMACY%2C3499%20BRUMBAUGH%20RD%2C+NEW%20ENTERPRISE%2C+PA+16664
NORTHGATE PHARMACY,3973 ST. CHARLES PKWY,,"WALDORF, MD 20602",http://maps.google.com/maps?q=NORTHGATE%20PHARMACY%2C3973%20ST.%20CHARLES%20PKWY%2C+WALDORF%2C+MD+20602
NORTHSIDE CAMBRIDGE PHARMACY,1300 CLARK STREET,SUITE 4,"CAMBRIDGE, OH 43725",http://maps.google.com/maps?q=NORTHSIDE%20CAMBRIDGE%20PHARMACY%2C1300%20CLARK%20STREET%2C+CAMBRIDGE%2C+OH+43725
NORTHSIDE PHARMACY,2899 BELL STREET,,"ZANESVILLE, OH 43701",http://maps.google.com/maps?q=NORTHSIDE%20PHARMACY%2C2899%20BELL%20STREET%2C+ZANESVILLE%2C+OH+43701
NORTHSIDE SOMERSET PHARMACY,110 WEST MAIN STREET,,"SOMERSET, OH 43783",http://maps.google.com/maps?q=NORTHSIDE%20SOMERSET%20PHARMACY%2C110%20WEST%20MAIN%20STREET%2C+SOMERSET%2C+OH+43783
"NORTON COMMUNITY PHYSICIAN SERVICES,LLC",1490 PARK AVENUE NW,SUITE 7,"NORTON, VA 24273",http://maps.google.com/maps?q=NORTON%20COMMUNITY%20PHYSICIAN%20SERVICESLLC%2C1490%20PARK%20AVENUE%20NW%2C+NORTON%2C+VA+24273
"OHIO CVS STORES, L.L.C.",111 SOUTH MEMORIAL DRIVE,,"LANCASTER, OH 43130",http://maps.google.com/maps?q=OHIO%20CVS%20STORES%20LLC%2C111%20SOUTH%20MEMORIAL%20DRIVE%2C+LANCASTER%2C+OH+43130
"OHIO CVS STORES, L.L.C.",21 GRANT ST.,,"DENNISON, OH 44621",http://maps.google.com/maps?q=OHIO%20CVS%20STORES%20LLC%2C21%20GRANT%20ST.%2C+DENNISON%2C+OH+44621
"OHIO CVS STORES, L.L.C.",210 EAST EMMITT AVE.,,"WAVERLY, OH 45690",http://maps.google.com/maps?q=OHIO%20CVS%20STORES%20LLC%2C210%20EAST%20EMMITT%20AVE.%2C+WAVERLY%2C+OH+45690
"OHIO CVS STORES, L.L.C.",2210 TUSCARAWAS ST. W,,"CANTON, OH 44708",http://maps.google.com/maps?q=OHIO%20CVS%20STORES%20LLC%2C2210%20TUSCARAWAS%20ST.%20W%2C+CANTON%2C+OH+44708
"OHIO CVS STORES, L.L.C.",2846 MAHONING AVE,,"YOUNGSTOWN, OH 44509",http://maps.google.com/maps?q=OHIO%20CVS%20STORES%20LLC%2C2846%20MAHONING%20AVE%2C+YOUNGSTOWN%2C+OH+44509
"OHIO CVS STORES, L.L.C.",590 EAST MARKET STREET,,"AKRON, OH 44304",http://maps.google.com/maps?q=OHIO%20CVS%20STORES%20LLC%2C590%20EAST%20MARKET%20STREET%2C+AKRON%2C+OH+44304
"PENNSYLVANIA CVS PHARMACY, L.L.C.",105 S. SPORTING HILL RD.,,"MECHANICSBURG, PA 17050",http://maps.google.com/maps?q=PENNSYLVANIA%20CVS%20PHARMACY%20LLC%2C105%20S.%20SPORTING%20HILL%20RD.%2C+MECHANICSBURG%2C+PA+17050
"PENNSYLVANIA CVS PHARMACY, L.L.C.",1740 WASHINGTON RD,,"PITTSBURGH, PA 15241",http://maps.google.com/maps?q=PENNSYLVANIA%20CVS%20PHARMACY%20LLC%2C1740%20WASHINGTON%20RD%2C+PITTSBURGH%2C+PA+15241
"PENNSYLVANIA CVS PHARMACY, L.L.C.",4610 CENTRE AVE,,"PITTSBURGH, PA 15213",http://maps.google.com/maps?q=PENNSYLVANIA%20CVS%20PHARMACY%20LLC%2C4610%20CENTRE%20AVE%2C+PITTSBURGH%2C+PA+15213
"PENNSYLVANIA CVS PHARMACY, L.L.C.",520 PENN AVE,,"WILKINSBURG, PA 15221",http://maps.google.com/maps?q=PENNSYLVANIA%20CVS%20PHARMACY%20LLC%2C520%20PENN%20AVE%2C+WILKINSBURG%2C+PA+15221
PURCELLVILLE PHARMACY,609 E MAIN ST SUITE Q,,"PURCELLVILLE, VA 20132",http://maps.google.com/maps?q=PURCELLVILLE%20PHARMACY%2C609%20E%20MAIN%20ST%20SUITE%20Q%2C+PURCELLVILLE%2C+VA+20132
RAINELLE MED CENTER PHARMACY,176 MEDICAL CENTER DRIVE,,"RAINELLE, WV 25962",http://maps.google.com/maps?q=RAINELLE%20MED%20CENTER%20PHARMACY%2C176%20MEDICAL%20CENTER%20DRIVE%2C+RAINELLE%2C+WV+25962
SHARON PHARMACY,63 PITT STREET,SUITE 102,"SHARON, PA 16146",http://maps.google.com/maps?q=SHARON%20PHARMACY%2C63%20PITT%20STREET%2C+SHARON%2C+PA+16146
SPECTRUM HEALTHCARE RESOURCES - DUMFRIES HLTH CTR,3700 FETTLER PARK DRIVE,,"DUMFRIES, VA 22025",http://maps.google.com/maps?q=SPECTRUM%20HEALTHCARE%20RESOURCES%20%20DUMFRIES%20HLTH%20CTR%2C3700%20FETTLER%20PARK%20DRIVE%2C+DUMFRIES%2C+VA+22025
SPECTRUM HEALTHCARE RESOURCES - FAIRFAX HLTH CTR,10580 ARROWHEAD DRIVE,,"FAIRFAX, VA 22030",http://maps.google.com/maps?q=SPECTRUM%20HEALTHCARE%20RESOURCES%20%20FAIRFAX%20HLTH%20CTR%2C10580%20ARROWHEAD%20DRIVE%2C+FAIRFAX%2C+VA+22030
ST CLAIRE MEDICAL CENTER INC - RETAIL,222 MEDICAL CIRCLE,,"MOREHEAD, KY 40351",http://maps.google.com/maps?q=ST%20CLAIRE%20MEDICAL%20CENTER%20INC%20%20RETAIL%2C222%20MEDICAL%20CIRCLE%2C+MOREHEAD%2C+KY+40351
ST MARGARET MEMORIAL HOSPITAL,815 FREEPORT RD,,"PITTSBURGH, PA 15215",http://maps.google.com/maps?q=ST%20MARGARET%20MEMORIAL%20HOSPITAL%2C815%20FREEPORT%20RD%2C+PITTSBURGH%2C+PA+15215
ST. ELIZABETH BOARDMAN HOSPITAL,8401 MARKET STREET,,"BOARDMAN, OH 44512",http://maps.google.com/maps?q=ST%20ELIZABETH%20BOARDMAN%20HOSPITAL%2C8401%20MARKET%20STREET%2C+BOARDMAN%2C+OH+44512
ST. ELIZABETH YOUNGSTOWN HOSPITAL,1044 BELMONT AVENUE,2ND FLOOR,"YOUNGSTOWN, OH 44501",http://maps.google.com/maps?q=ST%20ELIZABETH%20YOUNGSTOWN%20HOSPITAL%2C1044%20BELMONT%20AVENUE%2C+YOUNGSTOWN%2C+OH+44501
ST. JOSEPH WARREN HOSPITAL,ATTN: PHARMACY DEPARTMENT,"667 EASTLAND AVENUE, SE","WARREN, OH 44484",http://maps.google.com/maps?q=ST%20JOSEPH%20WARREN%20HOSPITAL%2CATTN%3A%20PHARMACY%20DEPARTMENT%2C+WARREN%2C+OH+44484
STRASBURG PHARMACY,33820 OLD VALLEY PIKE,SUITE 7,"STRASBURG, VA 22657",http://maps.google.com/maps?q=STRASBURG%20PHARMACY%2C33820%20OLD%20VALLEY%20PIKE%2C+STRASBURG%2C+VA+22657
THE MEDICINE SHOPPE,1740 EAST STATE STREET,,"HERMITAGE, PA 16148",http://maps.google.com/maps?q=THE%20MEDICINE%20SHOPPE%2C1740%20EAST%20STATE%20STREET%2C+HERMITAGE%2C+PA+16148
THE MEDICINE SHOPPE #1929,315 SOUTH ERIE STREET,SUITE A,"MERCER, PA 16137",http://maps.google.com/maps?q=THE%20MEDICINE%20SHOPPE%2C315%20SOUTH%20ERIE%20STREET%2C+MERCER%2C+PA+16137
TIGERX PHARMACY INC,5638 REDBUD HIGHWAY,,"HONAKER, VA 24260",http://maps.google.com/maps?q=TIGERX%20PHARMACY%20INC%2C5638%20REDBUD%20HIGHWAY%2C+HONAKER%2C+VA+24260
TRI-STATE PHARMACY,"JOHN J. BERNABEI, RPH",651 COLLIERS WAY SUITE 204,"WEIRTON, WV 26062",http://maps.google.com/maps?q=TRISTATE%20PHARMACY%2CJOHN%20J.%20BERNABEI%2C%20RPH%2C+WEIRTON%2C+WV+26062
US ARMY  DUNHAM HEALTH CLINIC,CARLISLE BARRACKS,450 GIBNER RD/STE 1,"CARLISLE, PA 17013",http://maps.google.com/maps?q=US%20ARMY%20%20DUNHAM%20HEALTH%20CLINIC%2CCARLISLE%20BARRACKS%2C+CARLISLE%2C+PA+17013
US ARMY FBCH PHARMACY SERVICE,9300 DEWITT LOOP,ROOM C1382 MAIN VAULT,"FORT BELVOIR, VA 22060",http://maps.google.com/maps?q=US%20ARMY%20FBCH%20PHARMACY%20SERVICE%2C9300%20DEWITT%20LOOP%2C+FORT%20BELVOIR%2C+VA+22060
US ARMY PHARMACY ANEX,8651 JOHN J KINGMAN ROAD,,"FORT BELVOIR, VA 22060",http://maps.google.com/maps?q=US%20ARMY%20PHARMACY%20ANEX%2C8651%20JOHN%20J%20KINGMAN%20ROAD%2C+FORT%20BELVOIR%2C+VA+22060
US ARMY- FT DETRICK HEALTH CLINIC,1434 PORTER STREET,FORT DETRICK,"FREDERICK, MD 21702",http://maps.google.com/maps?q=US%20ARMY%20FT%20DETRICK%20HEALTH%20CLINIC%2C1434%20PORTER%20STREET%2C+FREDERICK%2C+MD+21702
US ARMY-ANTHONY DILORENZO,DILORENZO TRICARE HLTH CLINIC,PENTAGON 5801 DEFENSE PENTAGON,"WASHINGTON, DC 20310",http://maps.google.com/maps?q=US%20ARMYANTHONY%20DILORENZO%2CDILORENZO%20TRICARE%20HLTH%20CLINIC%2C+WASHINGTON%2C+DC+20310
USAF 11TH MDS PHARMACY,238 BROOKLEY AVENUE,,"WASHINGTON, DC 20032",http://maps.google.com/maps?q=USAF%20TH%20MDS%20PHARMACY%2C238%20BROOKLEY%20AVENUE%2C+WASHINGTON%2C+DC+20032
USAF 779TH MDG PHARMACY,1060 W. PERIMETER ROAD,,"ANDREWS AIR FORCE BASE, MD 20762",http://maps.google.com/maps?q=USAF%20TH%20MDG%20PHARMACY%2C1060%20W.%20PERIMETER%20ROAD%2C+ANDREWS%20AIR%20FORCE%20BASE%2C+MD+20762
USAF 779TH MDG SATELLITE PHARMACY,1683 BROOKLEY AVENUE,,"ANDREWS AIR FORCE BASE, MD 20762",http://maps.google.com/maps?q=USAF%20TH%20MDG%20SATELLITE%20PHARMACY%2C1683%20BROOKLEY%20AVENUE%2C+ANDREWS%20AIR%20FORCE%20BASE%2C+MD+20762
USN- NAVAL MEDICAL CLINIC,3259 CATLIN AVENUE,,"QUANTICO, VA 22134",http://maps.google.com/maps?q=USN%20NAVAL%20MEDICAL%20CLINIC%2C3259%20CATLIN%20AVENUE%2C+QUANTICO%2C+VA+22134
"USN-BRANCH HEALTH CLINIC, WASHINGTON NAVY YARD",915 N STREET S. E.,,"WASHINGTON, DC 20374",http://maps.google.com/maps?q=USNBRANCH%20HEALTH%20CLINIC%20WASHINGTON%20NAVY%20YARD%2C915%20N%20STREET%20S.%20E.%2C+WASHINGTON%2C+DC+20374
"VIRGINIA CVS PHARMACY, L.L.C.",13031 LEE-JACKSON HIGHWAY,,"FAIRFAX, VA 22033",http://maps.google.com/maps?q=VIRGINIA%20CVS%20PHARMACY%20LLC%2C13031%20LEE-JACKSON%20HIGHWAY%2C+FAIRFAX%2C+VA+22033
"VIRGINIA CVS PHARMACY, L.L.C.",13600 JEFFERSON DAVIS HIGHWAY,,"WOODBRIDGE, VA 22191",http://maps.google.com/maps?q=VIRGINIA%20CVS%20PHARMACY%20LLC%2C13600%20JEFFERSON%20DAVIS%20HIGHWAY%2C+WOODBRIDGE%2C+VA+22191
"VIRGINIA CVS PHARMACY, L.L.C.",1610 MAIN STREET,,"CLIFTON FORGE, VA 24422",http://maps.google.com/maps?q=VIRGINIA%20CVS%20PHARMACY%20LLC%2C1610%20MAIN%20STREET%2C+CLIFTON%20FORGE%2C+VA+24422
"VIRGINIA CVS PHARMACY, L.L.C.",2001 COLONIAL AVE. SW,,"ROANOKE, VA 24015",http://maps.google.com/maps?q=VIRGINIA%20CVS%20PHARMACY%20LLC%2C2001%20COLONIAL%20AVE.%20SW%2C+ROANOKE%2C+VA+24015
"VIRGINIA CVS PHARMACY, L.L.C.",3117 LOCKHEED BLVD,,"ALEXANDRIA, VA 22306",http://maps.google.com/maps?q=VIRGINIA%20CVS%20PHARMACY%20LLC%2C3117%20LOCKHEED%20BLVD%2C+ALEXANDRIA%2C+VA+22306
"VIRGINIA CVS PHARMACY, L.L.C.",3133 LEE HIGHWAY,,"ARLINGTON, VA 22201",http://maps.google.com/maps?q=VIRGINIA%20CVS%20PHARMACY%20LLC%2C3133%20LEE%20HIGHWAY%2C+ARLINGTON%2C+VA+22201
"VIRGINIA CVS PHARMACY, L.L.C.",510 BLACKWELL RD.,,"WARRENTON, VA 20186",http://maps.google.com/maps?q=VIRGINIA%20CVS%20PHARMACY%20LLC%2C510%20BLACKWELL%20RD.%2C+WARRENTON%2C+VA+20186
"VIRGINIA CVS PHARMACY, L.L.C.",5652 PICKWICK RD.,,"CENTREVILLE, VA 20120",http://maps.google.com/maps?q=VIRGINIA%20CVS%20PHARMACY%20LLC%2C5652%20PICKWICK%20RD.%2C+CENTREVILLE%2C+VA+20120
"VIRGINIA CVS PHARMACY, L.L.C.",709 E MAIN ST,,"FLOYD, VA 24091",http://maps.google.com/maps?q=VIRGINIA%20CVS%20PHARMACY%20LLC%2C709%20E%20MAIN%20ST%2C+FLOYD%2C+VA+24091
"VIRGINIA CVS PHARMACY, L.L.C.",7205 LITTLE RIVER TURNPIKE,,"ANNANDALE, VA 22003",http://maps.google.com/maps?q=VIRGINIA%20CVS%20PHARMACY%20LLC%2C7205%20LITTLE%20RIVER%20TURNPIKE%2C+ANNANDALE%2C+VA+22003
"VIRGINIA CVS PHARMACY, L.L.C.",8124 ARLINGTON BLVD,YORKTOWN CTR,"FALLS CHURCH, VA 22042",http://maps.google.com/maps?q=VIRGINIA%20CVS%20PHARMACY%20LLC%2C8124%20ARLINGTON%20BLVD%2C+FALLS%20CHURCH%2C+VA+22042
"VIRGINIA CVS PHARMACY, L.L.C.",9200 CENTREVILLE RD.,,"MANASSAS, VA 20110",http://maps.google.com/maps?q=VIRGINIA%20CVS%20PHARMACY%20LLC%2C9200%20CENTREVILLE%20RD.%2C+MANASSAS%2C+VA+20110
WALGREEN CO,1217 22ND ST. NW,,"WASHINGTON, DC 20037",http://maps.google.com/maps?q=WALGREEN%20CO%2C1217%2022ND%20ST.%20NW%2C+WASHINGTON%2C+DC+20037
WALGREEN CO,1260 LIBERTY RD,,"ELDERSBURG, MD 21784",http://maps.google.com/maps?q=WALGREEN%20CO%2C1260%20LIBERTY%20RD%2C+ELDERSBURG%2C+MD+21784
WALGREEN CO.,10097 BALTIMORE NATIONAL PIKE,,"ELLICOTT CITY, MD 21042",http://maps.google.com/maps?q=WALGREEN%20CO%2C10097%20BALTIMORE%20NATIONAL%20PIKE%2C+ELLICOTT%20CITY%2C+MD+21042
WALGREEN CO.,101 FORBES DR.,,"MARTINSBURG, WV 25404",http://maps.google.com/maps?q=WALGREEN%20CO%2C101%20FORBES%20DR.%2C+MARTINSBURG%2C+WV+25404
WALGREEN CO.,111 MICHIGAN AVE NW STE 1107,,"WASHINGTON, DC 20010",http://maps.google.com/maps?q=WALGREEN%20CO%2C111%20MICHIGAN%20AVE%20NW%20STE%201107%2C+WASHINGTON%2C+DC+20010
WALGREEN CO.,1155 F STREET NW,,"WASHINGTON, DC 20004",http://maps.google.com/maps?q=WALGREEN%20CO%2C1155%20F%20STREET%20NW%2C+WASHINGTON%2C+DC+20004
WALGREEN CO.,1329 UNIVERSITY BLVD. E,,"TAKOMA PARK, MD 20912",http://maps.google.com/maps?q=WALGREEN%20CO%2C1329%20UNIVERSITY%20BLVD.%20E%2C+TAKOMA%20PARK%2C+MD+20912
WALGREEN CO.,13926 LEE HWY.,,"CENTREVILLE, VA 20120",http://maps.google.com/maps?q=WALGREEN%20CO%2C13926%20LEE%20HWY.%2C+CENTREVILLE%2C+VA+20120
WALGREEN CO.,2012 S UNION,,"ALLIANCE, OH 44601",http://maps.google.com/maps?q=WALGREEN%20CO%2C2012%20S%20UNION%2C+ALLIANCE%2C+OH+44601
WALGREEN CO.,2645 STATE RD,,"CUYAHOGA FALLS, OH 44223",http://maps.google.com/maps?q=WALGREEN%20CO%2C2645%20STATE%20RD%2C+CUYAHOGA%20FALLS%2C+OH+44223
WALGREEN CO.,276 W LEE HWY,,"WARRENTON, VA 20186",http://maps.google.com/maps?q=WALGREEN%20CO%2C276%20W%20LEE%20HWY%2C+WARRENTON%2C+VA+20186
WALGREEN CO.,4300 BACKLICK RD,,"ANNANDALE, VA 22003",http://maps.google.com/maps?q=WALGREEN%20CO%2C4300%20BACKLICK%20RD%2C+ANNANDALE%2C+VA+22003
WALGREEN CO.,4841 WILLIAMSON ROAD NW,,"ROANOKE, VA 24012",http://maps.google.com/maps?q=WALGREEN%20CO%2C4841%20WILLIAMSON%20ROAD%20NW%2C+ROANOKE%2C+VA+24012
WALGREEN CO.,5122 WEST TUSCARAWAS ST,,"CANTON, OH 44708",http://maps.google.com/maps?q=WALGREEN%20CO%2C5122%20WEST%20TUSCARAWAS%20ST%2C+CANTON%2C+OH+44708
WALGREEN CO.,600 WASHINGTON BLVD. S,,"LAUREL, MD 20707",http://maps.google.com/maps?q=WALGREEN%20CO%2C600%20WASHINGTON%20BLVD.%20S%2C+LAUREL%2C+MD+20707
WALGREEN CO.,655 WASHINGTON ST. W,,"CHARLESTON, WV 25302",http://maps.google.com/maps?q=WALGREEN%20CO%2C655%20WASHINGTON%20ST.%20W%2C+CHARLESTON%2C+WV+25302
WALGREEN CO.,6717 RICHMOND HWY.,,"ALEXANDRIA, VA 22306",http://maps.google.com/maps?q=WALGREEN%20CO%2C6717%20RICHMOND%20HWY.%2C+ALEXANDRIA%2C+VA+22306
WALGREEN CO.,7295 MARKET ST.,,"BOARDMAN, OH 44512",http://maps.google.com/maps?q=WALGREEN%20CO%2C7295%20MARKET%20ST.%2C+BOARDMAN%2C+OH+44512
WALGREEN CO.,801 7TH ST NW,,"WASHINGTON, DC 20001",http://maps.google.com/maps?q=WALGREEN%20CO%2C801%207TH%20ST%20NW%2C+WASHINGTON%2C+DC+20001
WALGREEN CO.,8414 OLD KEENE MILL RD.,UNIT A,"SPRINGFIELD, VA 22152",http://maps.google.com/maps?q=WALGREEN%20CO%2C8414%20OLD%20KEENE%20MILL%20RD.%2C+SPRINGFIELD%2C+VA+22152
WALGREEN CO.,850 NORTH BRIDGE STREET,,"CHILLICOTHE, OH 45601",http://maps.google.com/maps?q=WALGREEN%20CO%2C850%20NORTH%20BRIDGE%20STREET%2C+CHILLICOTHE%2C+OH+45601
WALGREEN CO.,859 E MAIN ST,,"LANCASTER, OH 43130",http://maps.google.com/maps?q=WALGREEN%20CO%2C859%20E%20MAIN%20ST%2C+LANCASTER%2C+OH+43130
WALGREEN CO.,897 CHESTNUT RIDGE RD,,"MORGANTOWN, WV 26505",http://maps.google.com/maps?q=WALGREEN%20CO%2C897%20CHESTNUT%20RIDGE%20RD%2C+MORGANTOWN%2C+WV+26505
WALGREEN CO.,9001 WOODY TERRACE,SUITE B,"CLINTON, MD 20735",http://maps.google.com/maps?q=WALGREEN%20CO%2C9001%20WOODY%20TERRACE%2C+CLINTON%2C+MD+20735
"WALGREEN EASTERN CO., INC.",280 NEW CASTLE RD.,,"BUTLER, PA 16001",http://maps.google.com/maps?q=WALGREEN%20EASTERN%20CO%20INC%2C280%20NEW%20CASTLE%20RD.%2C+BUTLER%2C+PA+16001
WELLSPAN PHARMACY,4910B FAIRFIELD ROAD,,"FAIRFIELD, PA 17320",http://maps.google.com/maps?q=WELLSPAN%20PHARMACY%2C4910B%20FAIRFIELD%20ROAD%2C+FAIRFIELD%2C+PA+17320
"WEST VIRGINIA CVS PHARMACY, L.L.C.",1000 PINEVIEW DRIVE,,"MORGANTOWN, WV 26505",http://maps.google.com/maps?q=WEST%20VIRGINIA%20CVS%20PHARMACY%20LLC%2C1000%20PINEVIEW%20DRIVE%2C+MORGANTOWN%2C+WV+26505
"WEST VIRGINIA CVS PHARMACY, L.L.C.","105 S. STATE ST., PO BOX 1159",,"ATHENS, WV 24712",http://maps.google.com/maps?q=WEST%20VIRGINIA%20CVS%20PHARMACY%20LLC%2C105%20S.%20STATE%20ST.%2C%20PO%20BOX%201159%2C+ATHENS%2C+WV+24712
"WEST VIRGINIA CVS PHARMACY, L.L.C.",1298 STAFFORD DRIVE,,"PRINCETON, WV 24740",http://maps.google.com/maps?q=WEST%20VIRGINIA%20CVS%20PHARMACY%20LLC%2C1298%20STAFFORD%20DRIVE%2C+PRINCETON%2C+WV+24740
"WEST VIRGINIA CVS PHARMACY, L.L.C.",1327 PLAZA EAST,,"CHARLESTON, WV 25301",http://maps.google.com/maps?q=WEST%20VIRGINIA%20CVS%20PHARMACY%20LLC%2C1327%20PLAZA%20EAST%2C+CHARLESTON%2C+WV+25301
"WEST VIRGINIA CVS PHARMACY, L.L.C.",1414 N. EISENHOWER DR.,,"BECKLEY, WV 25801",http://maps.google.com/maps?q=WEST%20VIRGINIA%20CVS%20PHARMACY%20LLC%2C1414%20N.%20EISENHOWER%20DR.%2C+BECKLEY%2C+WV+25801
"WEST VIRGINIA CVS PHARMACY, L.L.C.",1605 7TH STREET,,"PARKERSBURG, WV 26101",http://maps.google.com/maps?q=WEST%20VIRGINIA%20CVS%20PHARMACY%20LLC%2C1605%207TH%20STREET%2C+PARKERSBURG%2C+WV+26101
"WEST VIRGINIA CVS PHARMACY, L.L.C.",1827 HARPER ROAD,,"BECKLEY, WV 25801",http://maps.google.com/maps?q=WEST%20VIRGINIA%20CVS%20PHARMACY%20LLC%2C1827%20HARPER%20ROAD%2C+BECKLEY%2C+WV+25801
"WEST VIRGINIA CVS PHARMACY, L.L.C.",1846 COAL HERITAGE RD.,,"BLUEFIELD, WV 24701",http://maps.google.com/maps?q=WEST%20VIRGINIA%20CVS%20PHARMACY%20LLC%2C1846%20COAL%20HERITAGE%20RD.%2C+BLUEFIELD%2C+WV+24701
"WEST VIRGINIA CVS PHARMACY, L.L.C.",221 CROSSINGS MALL ROAD,,"ELKVIEW, WV 25071",http://maps.google.com/maps?q=WEST%20VIRGINIA%20CVS%20PHARMACY%20LLC%2C221%20CROSSINGS%20MALL%20ROAD%2C+ELKVIEW%2C+WV+25071
"WEST VIRGINIA CVS PHARMACY, L.L.C.",2811 ROBERT C. BYRD DR.,,"BECKLEY, WV 25801",http://maps.google.com/maps?q=WEST%20VIRGINIA%20CVS%20PHARMACY%20LLC%2C2811%20ROBERT%20C.%20BYRD%20DR.%2C+BECKLEY%2C+WV+25801
"WEST VIRGINIA CVS PHARMACY, L.L.C.",2907 STATE STREET,,"GASSAWAY, WV 26624",http://maps.google.com/maps?q=WEST%20VIRGINIA%20CVS%20PHARMACY%20LLC%2C2907%20STATE%20STREET%2C+GASSAWAY%2C+WV+26624
"WEST VIRGINIA CVS PHARMACY, L.L.C.",300 FOURTH AVE,,"MONTGOMERY, WV 25136",http://maps.google.com/maps?q=WEST%20VIRGINIA%20CVS%20PHARMACY%20LLC%2C300%20FOURTH%20AVE%2C+MONTGOMERY%2C+WV+25136
"WEST VIRGINIA CVS PHARMACY, L.L.C.",505 RANDOLPH AVE,,"ELKINS, WV 26241",http://maps.google.com/maps?q=WEST%20VIRGINIA%20CVS%20PHARMACY%20LLC%2C505%20RANDOLPH%20AVE%2C+ELKINS%2C+WV+26241
"WEST VIRGINIA CVS PHARMACY, L.L.C.",700 NORTHSIDE DR.,,"SUMMERSVILLE, WV 26651",http://maps.google.com/maps?q=WEST%20VIRGINIA%20CVS%20PHARMACY%20LLC%2C700%20NORTHSIDE%20DR.%2C+SUMMERSVILLE%2C+WV+26651
"WEST VIRGINIA CVS PHARMACY, L.L.C.",701 E. MAIN STREET,,"CLARKSBURG, WV 26301",http://maps.google.com/maps?q=WEST%20VIRGINIA%20CVS%20PHARMACY%20LLC%2C701%20E.%20MAIN%20STREET%2C+CLARKSBURG%2C+WV+26301
"WEST VIRGINIA CVS PHARMACY, L.L.C.",72 WHITEWATER AVE.,,"FAYETTEVILLE, WV 25840",http://maps.google.com/maps?q=WEST%20VIRGINIA%20CVS%20PHARMACY%20LLC%2C72%20WHITEWATER%20AVE.%2C+FAYETTEVILLE%2C+WV+25840
"WEST VIRGINIA CVS PHARMACY, L.L.C.",74 WEST MAIN ST.,,"BUCKHANNON, WV 26201",http://maps.google.com/maps?q=WEST%20VIRGINIA%20CVS%20PHARMACY%20LLC%2C74%20WEST%20MAIN%20ST.%2C+BUCKHANNON%2C+WV+26201
"WEST VIRGINIA CVS PHARMACY, L.L.C.",9781 SENECA TRAIL S.,,"LEWISBURG, WV 24901",http://maps.google.com/maps?q=WEST%20VIRGINIA%20CVS%20PHARMACY%20LLC%2C9781%20SENECA%20TRAIL%20S.%2C+LEWISBURG%2C+WV+24901
"WEST VIRGINIA CVS PHARMACY, L.L.C.","RTE 19-21 RITTER DR., PO BOX 246",,"BEAVER, WV 25813",http://maps.google.com/maps?q=WEST%20VIRGINIA%20CVS%20PHARMACY%20LLC%2CRTE%2019-21%20RITTER%20DR.%2C%20PO%20BOX%20246%2C+BEAVER%2C+WV+25813
WITSCHEY'SPHARMACY,155 NORTH STREET,,"NEW MARTINSVILLE, WV 26155",http://maps.google.com/maps?q=WITSCHEYSPHARMACY%2C155%20NORTH%20STREET%2C+NEW%20MARTINSVILLE%2C+WV+26155
WRNMMC-WALTER REED NATIONAL MILITARY MEDICAL CENTE,PHARMACY DEPT BLDG 9,8901 WISCONSIN AVE,"BETHESDA, MD 20889",http://maps.google.com/maps?q=WRNMMCWALTER%20REED%20NATIONAL%20MILITARY%20MEDICAL%20CENTE%2CPHARMACY%20DEPT%20BLDG%209%2C+BETHESDA%2C+MD+20889
