Business Name,Address 1,Address 2,"City, State Zip",Map URL
APOTHECARY SOLUTIONS LLC,207 EAST MAIN STREET,,"REMINGTON, VA 22734",http://maps.google.com/maps?q=APOTHECARY%20SOLUTIONS%20LLC%2C207%20EAST%20MAIN%20STREET%2C+REMINGTON%2C+VA+22734
BARNESVILLE HOSPITAL ASSN INC,639 W MAIN ST,,"BARNESVILLE, OH 43713",http://maps.google.com/maps?q=BARNESVILLE%20HOSPITAL%20ASSN%20INC%2C639%20W%20MAIN%20ST%2C+BARNESVILLE%2C+OH+43713
BEDDINGFIELD DRUGS LLC,95 SPRINGBROOK AVENUE,SUITE 101,"CLAYTON, NC 27520",http://maps.google.com/maps?q=BEDDINGFIELD%20DRUGS%20LLC%2C95%20SPRINGBROOK%20AVENUE%2C+CLAYTON%2C+NC+27520
BELLWOOD DRUGS,135 SOUTH MAIN STREET,,"WOODSFIELD, OH 43793",http://maps.google.com/maps?q=BELLWOOD%20DRUGS%2C135%20SOUTH%20MAIN%20STREET%2C+WOODSFIELD%2C+OH+43793
BELMONT CO HLTH SERVICES,DBA MORRISTOWN PHCY,66840 BELMONT-MORRISTOWN RD,"BELMONT, OH 43718",http://maps.google.com/maps?q=BELMONT%20CO%20HLTH%20SERVICES%2CDBA%20MORRISTOWN%20PHCY%2C+BELMONT%2C+OH+43718
BERMUDA RUN PHARMACY,329 NC HWY 801 NORTH,PLAZA I,"BERMUDA RUN, NC 27006",http://maps.google.com/maps?q=BERMUDA%20RUN%20PHARMACY%2C329%20NC%20HWY%20801%20NORTH%2C+BERMUDA%20RUN%2C+NC+27006
BETTER CARE PHARMACY LLC,4860 RUCKER RD #1,,"MONETA, VA 24121",http://maps.google.com/maps?q=BETTER%20CARE%20PHARMACY%20LLC%2C4860%20RUCKER%20RD%20#1%2C+MONETA%2C+VA+24121
BOONE DRUG & HEALTH CARE,AT DEERFIELD,345 DEERFIELD ROAD,"BOONE, NC 28607",http://maps.google.com/maps?q=BOONE%20DRUG%20%20HEALTH%20CARE%2CAT%20DEERFIELD%2C+BOONE%2C+NC+28607
BOONE DRUG AT NEW MARKET,245 NEW MARKET CENTER,,"BOONE, NC 28607",http://maps.google.com/maps?q=BOONE%20DRUG%20AT%20NEW%20MARKET%2C245%20NEW%20MARKET%20CENTER%2C+BOONE%2C+NC+28607
BRISSON DRUGS INC,217 W BROAD ST,,"SAINT PAULS, NC 28384",http://maps.google.com/maps?q=BRISSON%20DRUGS%20INC%2C217%20W%20BROAD%20ST%2C+SAINT%20PAULS%2C+NC+28384
"CAMERLIN ENTERPRISES, LLC",615 WELLS STREET,,"SISTERSVILLE, WV 26175",http://maps.google.com/maps?q=CAMERLIN%20ENTERPRISES%20LLC%2C615%20WELLS%20STREET%2C+SISTERSVILLE%2C+WV+26175
CANNON PHARMACY CONCORD,760 CABARRUS AVE W.,,"CONCORD, NC 28027",http://maps.google.com/maps?q=CANNON%20PHARMACY%20CONCORD%2C760%20CABARRUS%20AVE%20W.%2C+CONCORD%2C+NC+28027
CAPE FEAR DISCOUNT DRUG,2800-18 RAEFORD RD,,"FAYETTEVILLE, NC 28303",http://maps.google.com/maps?q=CAPE%20FEAR%20DISCOUNT%20DRUG%2C2800-18%20RAEFORD%20RD%2C+FAYETTEVILLE%2C+NC+28303
CAROLINA BEHAVIORAL CARE PHARMACY,4102 BEN FRANKLIN BLVD,,"DURHAM, NC 27704",http://maps.google.com/maps?q=CAROLINA%20BEHAVIORAL%20CARE%20PHARMACY%2C4102%20BEN%20FRANKLIN%20BLVD%2C+DURHAM%2C+NC+27704
CAROLINA PHARMACY,725 CHERRY ROAD,SUITE 103,"ROCK HILL, SC 29732",http://maps.google.com/maps?q=CAROLINA%20PHARMACY%2C725%20CHERRY%20ROAD%2C+ROCK%20HILL%2C+SC+29732
CHEFFY DRUGS LLC,148 EAST MAIN ST,,"BARNESVILLE, OH 43713",http://maps.google.com/maps?q=CHEFFY%20DRUGS%20LLC%2C148%20EAST%20MAIN%20ST%2C+BARNESVILLE%2C+OH+43713
CHRISTIAN PHARMACY,DBA CORNER PHARMACY,102 WEST MAIN ST,"BARNESVILLE, OH 43713",http://maps.google.com/maps?q=CHRISTIAN%20PHARMACY%2CDBA%20CORNER%20PHARMACY%2C+BARNESVILLE%2C+OH+43713
"COMMUNITY GENERAL HEALTH PARTNERS, INC",D/B/A NOVANT HEALTH THOMASVILLE MEDICAL CENTER,"207 OLD LEXINGTON ROAD, PO BOX 789","THOMASVILLE, NC 27360",http://maps.google.com/maps?q=COMMUNITY%20GENERAL%20HEALTH%20PARTNERS%20INC%2CD/B/A%20NOVANT%20HEALTH%20THOMASVILLE%20MEDICAL%20CENTER%2C+THOMASVILLE%2C+NC+27360
COMMUNITY PHARM & MED SUPPLY,2900 TYLER ROAD,SUITE 1890,"CHRISTIANSBURG, VA 24073",http://maps.google.com/maps?q=COMMUNITY%20PHARM%20%20MED%20SUPPLY%2C2900%20TYLER%20ROAD%2C+CHRISTIANSBURG%2C+VA+24073
COMMUNITY PHARMACY,"321 MULBERRY STREET, SW",,"LENOIR, NC 28645",http://maps.google.com/maps?q=COMMUNITY%20PHARMACY%2C321%20MULBERRY%20STREET%2C%20SW%2C+LENOIR%2C+NC+28645
COMPREHENSIVE CANCER CENTER PHARMACY,MEDICAL CENTER BLVD,,"WINSTON SALEM, NC 27157",http://maps.google.com/maps?q=COMPREHENSIVE%20CANCER%20CENTER%20PHARMACY%2CMEDICAL%20CENTER%20BLVD%2C+WINSTON%20SALEM%2C+NC+27157
DAVIDSON MED MINISTRIES CLINIC PHCY,420 NORTH SALISBURY STREET,,"LEXINGTON, NC 27292",http://maps.google.com/maps?q=DAVIDSON%20MED%20MINISTRIES%20CLINIC%20PHCY%2C420%20NORTH%20SALISBURY%20STREET%2C+LEXINGTON%2C+NC+27292
"DILWORTH DRUGS, LLC",1300 B EAST BLVD,,"CHARLOTTE, NC 28203",http://maps.google.com/maps?q=DILWORTH%20DRUGS%20LLC%2C1300%20B%20EAST%20BLVD%2C+CHARLOTTE%2C+NC+28203
DONORA UNION PHARMACY,601 MCKEAN AVE,,"DONORA, PA 15033",http://maps.google.com/maps?q=DONORA%20UNION%20PHARMACY%2C601%20MCKEAN%20AVE%2C+DONORA%2C+PA+15033
DOWNTOWN HEALTH PLAZA PHARMACY,1200 MARTIN LUTHER KING JR DR,,"WINSTON-SALEM, NC 27101",http://maps.google.com/maps?q=DOWNTOWN%20HEALTH%20PLAZA%20PHARMACY%2C1200%20MARTIN%20LUTHER%20KING%20JR%20DR%2C+WINSTON-SALEM%2C+NC+27101
DUKE CAMPUS CENTER PHARMACY,305 TOWERVIEW DRIVE,,"DURHAM, NC 27708",http://maps.google.com/maps?q=DUKE%20CAMPUS%20CENTER%20PHARMACY%2C305%20TOWERVIEW%20DRIVE%2C+DURHAM%2C+NC+27708
DUKE UNIVERSITY HOSPITAL MAIN,2301 ERWIN ROAD,DUMC #3089,"DURHAM, NC 27710",http://maps.google.com/maps?q=DUKE%20UNIVERSITY%20HOSPITAL%20MAIN%2C2301%20ERWIN%20ROAD%2C+DURHAM%2C+NC+27710
"EAST BURKE PHARMACY, INC.",300 MAIN AVENUE WEST,,"HILDEBRAN, NC 28637",http://maps.google.com/maps?q=EAST%20BURKE%20PHARMACY%20INC%2C300%20MAIN%20AVENUE%20WEST%2C+HILDEBRAN%2C+NC+28637
EDEN DRUG STORE INC,103 W STADIUM DR,,"EDEN, NC 27288",http://maps.google.com/maps?q=EDEN%20DRUG%20STORE%20INC%2C103%20W%20STADIUM%20DR%2C+EDEN%2C+NC+27288
FAMILY CARE-REMINGTON INC.,208 E. MADISON ST.,,"REMINGTON, VA 22734",http://maps.google.com/maps?q=FAMILY%20CAREREMINGTON%20INC%2C208%20E.%20MADISON%20ST.%2C+REMINGTON%2C+VA+22734
FAMILY PHARMACY SERVICES,303 WEST 10TH STREET,,"FRONT ROYAL, VA 22630",http://maps.google.com/maps?q=FAMILY%20PHARMACY%20SERVICES%2C303%20WEST%2010TH%20STREET%2C+FRONT%20ROYAL%2C+VA+22630
FAST & FRIENDLY PHARMACY RC LLC,4 GARTON PLAZA,,"WESTON, WV 26452",http://maps.google.com/maps?q=FAST%20%20FRIENDLY%20PHARMACY%20RC%20LLC%2C4%20GARTON%20PLAZA%2C+WESTON%2C+WV+26452
FRIENDLY PHARMACY,3712 G LAWNDALE DRIVE,,"GREENSBORO, NC 27455",http://maps.google.com/maps?q=FRIENDLY%20PHARMACY%2C3712%20G%20LAWNDALE%20DRIVE%2C+GREENSBORO%2C+NC+27455
FRUTH PHARMACY,DBA FRUTH PHCY OAKWOOD RD,864 OAKWOOD RD,"CHARLESTON, WV 25314",http://maps.google.com/maps?q=FRUTH%20PHARMACY%2CDBA%20FRUTH%20PHCY%20OAKWOOD%20RD%2C+CHARLESTON%2C+WV+25314
"GIANT GENIE PHARMACY, LLC",2516 CENTRAL AVE,,"CHARLOTTE, NC 28205",http://maps.google.com/maps?q=GIANT%20GENIE%20PHARMACY%20LLC%2C2516%20CENTRAL%20AVE%2C+CHARLOTTE%2C+NC+28205
GILLESPIE'S DRUGS,44523 MARIETTA ROAD,,"CALDWELL, OH 43724",http://maps.google.com/maps?q=GILLESPIES%20DRUGS%2C44523%20MARIETTA%20ROAD%2C+CALDWELL%2C+OH+43724
GRANT MEMORIAL HOSPITAL,117 HOSPITAL DRIVE,P. O. BOX 1019,"PETERSBURG, WV 26847",http://maps.google.com/maps?q=GRANT%20MEMORIAL%20HOSPITAL%2C117%20HOSPITAL%20DRIVE%2C+PETERSBURG%2C+WV+26847
"GREENBRIER MEDICAL ARTS PHARMACY, INC.",3558 JEFFERSON ST N STE 4,,"LEWISBURG, WV 24901",http://maps.google.com/maps?q=GREENBRIER%20MEDICAL%20ARTS%20PHARMACY%20INC%2C3558%20JEFFERSON%20ST%20N%20STE%204%2C+LEWISBURG%2C+WV+24901
HARRISBURG'S HOMETOWN PHARMACY,5006 HIGHWAY 49 SOUTH,P O BOX 1491,"HARRISBURG, NC 28075",http://maps.google.com/maps?q=HARRISBURGS%20HOMETOWN%20PHARMACY%2C5006%20HIGHWAY%2049%20SOUTH%2C+HARRISBURG%2C+NC+28075
HAYDENS PHARMACY,505 NORTH FOURTH STREET,,"YOUNGWOOD, PA 15697",http://maps.google.com/maps?q=HAYDENS%20PHARMACY%2C505%20NORTH%20FOURTH%20STREET%2C+YOUNGWOOD%2C+PA+15697
HEALTH CENTER PHARMACY,812 GORMAN AVE,,"ELKINS, WV 26241",http://maps.google.com/maps?q=HEALTH%20CENTER%20PHARMACY%2C812%20GORMAN%20AVE%2C+ELKINS%2C+WV+26241
HELPING HANDS PHARMACY,206 GAMBLE DRIVE,SUITE C,"LINCOLNTON, NC 28092",http://maps.google.com/maps?q=HELPING%20HANDS%20PHARMACY%2C206%20GAMBLE%20DRIVE%2C+LINCOLNTON%2C+NC+28092
HIGHLAND HEALTH CENTER PHARMACY,609 N. HIGHLAND STREET,,"GASTONIA, NC 28052",http://maps.google.com/maps?q=HIGHLAND%20HEALTH%20CENTER%20PHARMACY%2C609%20N.%20HIGHLAND%20STREET%2C+GASTONIA%2C+NC+28052
HIGHLANDS HOSPITAL,401 EAST MURPHY AVE.,,"CONNELLSVILLE, PA 15425",http://maps.google.com/maps?q=HIGHLANDS%20HOSPITAL%2C401%20EAST%20MURPHY%20AVE.%2C+CONNELLSVILLE%2C+PA+15425
HILLSBOROUGH PHARMACY & NUTRITION LLC,110 BOONE SQUARE STREET,SUITE 29,"HILLSBOROUGH, NC 27278",http://maps.google.com/maps?q=HILLSBOROUGH%20PHARMACY%20%20NUTRITION%20LLC%2C110%20BOONE%20SQUARE%20STREET%2C+HILLSBOROUGH%2C+NC+27278
HILLTOP PHARMACY,818 E. WARRINGTON AVENUE,,"PITTSBURGH, PA 15210",http://maps.google.com/maps?q=HILLTOP%20PHARMACY%2C818%20E.%20WARRINGTON%20AVENUE%2C+PITTSBURGH%2C+PA+15210
HOLLY HILL CHILDRENS HOSPITAL,201 MICHAEL J. SMITH LANE,,"RALEIGH, NC 27610",http://maps.google.com/maps?q=HOLLY%20HILL%20CHILDRENS%20HOSPITAL%2C201%20MICHAEL%20J.%20SMITH%20LANE%2C+RALEIGH%2C+NC+27610
HOLLY HILL HOSPITAL,3019 FALSTAFF RD,,"RALEIGH, NC 27610",http://maps.google.com/maps?q=HOLLY%20HILL%20HOSPITAL%2C3019%20FALSTAFF%20RD%2C+RALEIGH%2C+NC+27610
HOT SPRINGS PHARMACY,2833 MAIN STREET,POST OFFICE BOX 1180,"HOT SPRINGS, VA 24445",http://maps.google.com/maps?q=HOT%20SPRINGS%20PHARMACY%2C2833%20MAIN%20STREET%2C+HOT%20SPRINGS%2C+VA+24445
"HUIE PHARMACY, LLC",1920 WEST PARK DRIVE,,"N WILKESBORO, NC 28659",http://maps.google.com/maps?q=HUIE%20PHARMACY%20LLC%2C1920%20WEST%20PARK%20DRIVE%2C+N%20WILKESBORO%2C+NC+28659
"HUIE PHARMACY, LLC",1920 WEST PARK DRIVE,,"NORTH WILKESBORO, NC 28659",http://maps.google.com/maps?q=HUIE%20PHARMACY%20LLC%2C1920%20WEST%20PARK%20DRIVE%2C+NORTH%20WILKESBORO%2C+NC+28659
INOVA LOUDOUN HOSPITAL,44045 RIVERSIDE PARKWAY,,"LEESBURG, VA 20176",http://maps.google.com/maps?q=INOVA%20LOUDOUN%20HOSPITAL%2C44045%20RIVERSIDE%20PARKWAY%2C+LEESBURG%2C+VA+20176
INSTITUTIONAL PHARMACY SOLUTIONS,3200 WATERFIELD ROAD,,"GARNER, NC 27529",http://maps.google.com/maps?q=INSTITUTIONAL%20PHARMACY%20SOLUTIONS%2C3200%20WATERFIELD%20ROAD%2C+GARNER%2C+NC+27529
"INSTITUTIONAL PHARMACY SOLUTIONS, LLC",1715 SHARON ROAD WEST,,"CHARLOTTE, NC 28210",http://maps.google.com/maps?q=INSTITUTIONAL%20PHARMACY%20SOLUTIONS%20LLC%2C1715%20SHARON%20ROAD%20WEST%2C+CHARLOTTE%2C+NC+28210
JUDY'S DRUG STORE INC,24 NORTH MAIN ST,,"PETERSBURG, WV 26847",http://maps.google.com/maps?q=JUDYS%20DRUG%20STORE%20INC%2C24%20NORTH%20MAIN%20ST%2C+PETERSBURG%2C+WV+26847
KAISER PERM ASHBURN PHARMACY,43480 YUKON DRIVE SUITE 100,,"ASHBURN, VA 20147",http://maps.google.com/maps?q=KAISER%20PERM%20ASHBURN%20PHARMACY%2C43480%20YUKON%20DRIVE%20SUITE%20100%2C+ASHBURN%2C+VA+20147
KAISER PERMANENTE MANASSAS PH,10701 ROSEMARY DRIVE,,"MANASSAS, VA 20109",http://maps.google.com/maps?q=KAISER%20PERMANENTE%20MANASSAS%20PH%2C10701%20ROSEMARY%20DRIVE%2C+MANASSAS%2C+VA+20109
KINES FAMILY PHARMACY INC.,6097 SISSONVILLE DRIVE,,"CHARLESTON, WV 25312",http://maps.google.com/maps?q=KINES%20FAMILY%20PHARMACY%20INC%2C6097%20SISSONVILLE%20DRIVE%2C+CHARLESTON%2C+WV+25312
LATROBE HOSPITAL ASSN,ATTENTION PHARMACY,ONE MELLON WAY,"LATROBE, PA 15650",http://maps.google.com/maps?q=LATROBE%20HOSPITAL%20ASSN%2CATTENTION%20PHARMACY%2C+LATROBE%2C+PA+15650
LAX COTSWALD LLC,4390 COLWICK RD,,"CHARLOTTE, NC 28211",http://maps.google.com/maps?q=LAX%20COTSWALD%20LLC%2C4390%20COLWICK%20RD%2C+CHARLOTTE%2C+NC+28211
LESTER & MOWERY'S  PHARMACY,20 SOUTH STREET,,"FRONT ROYAL, VA 22630",http://maps.google.com/maps?q=LESTER%20%20MOWERYS%20%20PHARMACY%2C20%20SOUTH%20STREET%2C+FRONT%20ROYAL%2C+VA+22630
LEWISVILLE DRUG COMPANY,6715 SHALLOWFORD RD,,"LEWISVILLE, NC 27023",http://maps.google.com/maps?q=LEWISVILLE%20DRUG%20COMPANY%2C6715%20SHALLOWFORD%20RD%2C+LEWISVILLE%2C+NC+27023
LUMBERTON DRUG COMPANY,4307 FAYETTEVILLE RD,,"LUMBERTON, NC 28358",http://maps.google.com/maps?q=LUMBERTON%20DRUG%20COMPANY%2C4307%20FAYETTEVILLE%20RD%2C+LUMBERTON%2C+NC+28358
M TIMBERLAKE INC,322 E MAIN ST,,"CHARLOTTESVILLE, VA 22902",http://maps.google.com/maps?q=M%20TIMBERLAKE%20INC%2C322%20E%20MAIN%20ST%2C+CHARLOTTESVILLE%2C+VA+22902
MARTHA JEFFERSON HOSPITAL,PHARMACY SERVICES,500 MARTHA JEFFERSON DRIVE,"CHARLOTTESVILLE, VA 22911",http://maps.google.com/maps?q=MARTHA%20JEFFERSON%20HOSPITAL%2CPHARMACY%20SERVICES%2C+CHARLOTTESVILLE%2C+VA+22911
"MEDI-SERVICE OF CHARLOTTE, INC",610 E. FRANKLIN STREET,,"MONROE, NC 28112",http://maps.google.com/maps?q=MEDISERVICE%20OF%20CHARLOTTE%20INC%2C610%20E.%20FRANKLIN%20STREET%2C+MONROE%2C+NC+28112
MEDICAL ARTS PHARMACY,253 RUIN CREEK ROAD,,"HENDERSON, NC 27536",http://maps.google.com/maps?q=MEDICAL%20ARTS%20PHARMACY%2C253%20RUIN%20CREEK%20ROAD%2C+HENDERSON%2C+NC+27536
MEDICAL PARK PHARMACY,2316 S MAIN STREET,,"LEXINGTON, NC 27292",http://maps.google.com/maps?q=MEDICAL%20PARK%20PHARMACY%2C2316%20S%20MAIN%20STREET%2C+LEXINGTON%2C+NC+27292
MEDICAL PLAZA-CLEMMONS PHARMACY,2311 LEWISVILLE-CLEMMONS ROAD,,"CLEMMONS, NC 27012",http://maps.google.com/maps?q=MEDICAL%20PLAZACLEMMONS%20PHARMACY%2C2311%20LEWISVILLE-CLEMMONS%20ROAD%2C+CLEMMONS%2C+NC+27012
MOOSE DRUG CO,8374 WEST FRANKLIN STREET,P O BOX 67,"MOUNT PLEASANT, NC 28124",http://maps.google.com/maps?q=MOOSE%20DRUG%20CO%2C8374%20WEST%20FRANKLIN%20STREET%2C+MOUNT%20PLEASANT%2C+NC+28124
MOUNDSVILLE PHARMACY,118 NORTH LAFAYETTE AVENUE,,"MOUNDSVILLE, WV 26041",http://maps.google.com/maps?q=MOUNDSVILLE%20PHARMACY%2C118%20NORTH%20LAFAYETTE%20AVENUE%2C+MOUNDSVILLE%2C+WV+26041
N C BAPTIST HOSP PHAR,MEDICAL CENTER BLVD.,NC BAPTIST HOSPITAL INC,"WINSTON SALEM, NC 27157",http://maps.google.com/maps?q=N%20C%20BAPTIST%20HOSP%20PHAR%2CMEDICAL%20CENTER%20BLVD.%2C+WINSTON%20SALEM%2C+NC+27157
NCSU STUDENT HEALTH SERVICE,2815 CATES AVENUE,,"RALEIGH, NC 27695",http://maps.google.com/maps?q=NCSU%20STUDENT%20HEALTH%20SERVICE%2C2815%20CATES%20AVENUE%2C+RALEIGH%2C+NC+27695
"NORTH CAROLINA CVS PHARMACY, L.L.C.",1137 NORTH BRAGG BLVD.,,"SPRING LAKE, NC 28390",http://maps.google.com/maps?q=NORTH%20CAROLINA%20CVS%20PHARMACY%20LLC%2C1137%20NORTH%20BRAGG%20BLVD.%2C+SPRING%20LAKE%2C+NC+28390
"NORTH CAROLINA CVS PHARMACY, L.L.C.",1180 N. BRIGHT LEAF BLVD.,,"SMITHFIELD, NC 27577",http://maps.google.com/maps?q=NORTH%20CAROLINA%20CVS%20PHARMACY%20LLC%2C1180%20N.%20BRIGHT%20LEAF%20BLVD.%2C+SMITHFIELD%2C+NC+27577
"NORTH CAROLINA CVS PHARMACY, L.L.C.",1504 2ND ST NE,,"HICKORY, NC 28601",http://maps.google.com/maps?q=NORTH%20CAROLINA%20CVS%20PHARMACY%20LLC%2C1504%202ND%20ST%20NE%2C+HICKORY%2C+NC+28601
"NORTH CAROLINA CVS PHARMACY, L.L.C.",1718 N FORDHAM BLVD.,,"CHAPEL HILL, NC 27514",http://maps.google.com/maps?q=NORTH%20CAROLINA%20CVS%20PHARMACY%20LLC%2C1718%20N%20FORDHAM%20BLVD.%2C+CHAPEL%20HILL%2C+NC+27514
"NORTH CAROLINA CVS PHARMACY, L.L.C.",200 FAYETTEVILLE ST,,"RALEIGH, NC 27601",http://maps.google.com/maps?q=NORTH%20CAROLINA%20CVS%20PHARMACY%20LLC%2C200%20FAYETTEVILLE%20ST%2C+RALEIGH%2C+NC+27601
"NORTH CAROLINA CVS PHARMACY, L.L.C.","204 LIBERTY PLAZA, PO BOX 1128",,"LIBERTY, NC 27298",http://maps.google.com/maps?q=NORTH%20CAROLINA%20CVS%20PHARMACY%20LLC%2C204%20LIBERTY%20PLAZA%2C%20PO%20BOX%201128%2C+LIBERTY%2C+NC+27298
"NORTH CAROLINA CVS PHARMACY, L.L.C.","2200 WESTCHESTER DR, STE #126",,"HIGH POINT, NC 27262",http://maps.google.com/maps?q=NORTH%20CAROLINA%20CVS%20PHARMACY%20LLC%2C2200%20WESTCHESTER%20DR%2C%20STE%20#126%2C+HIGH%20POINT%2C+NC+27262
"NORTH CAROLINA CVS PHARMACY, L.L.C.",2411 LANDMARK DR.,,"RALEIGH, NC 27607",http://maps.google.com/maps?q=NORTH%20CAROLINA%20CVS%20PHARMACY%20LLC%2C2411%20LANDMARK%20DR.%2C+RALEIGH%2C+NC+27607
"NORTH CAROLINA CVS PHARMACY, L.L.C.",309 EAST CORNWALLIS DRIVE,,"GREENSBORO, NC 27408",http://maps.google.com/maps?q=NORTH%20CAROLINA%20CVS%20PHARMACY%20LLC%2C309%20EAST%20CORNWALLIS%20DRIVE%2C+GREENSBORO%2C+NC+27408
"NORTH CAROLINA CVS PHARMACY, L.L.C.",3914 CAPITAL BLVD,,"RALEIGH, NC 27604",http://maps.google.com/maps?q=NORTH%20CAROLINA%20CVS%20PHARMACY%20LLC%2C3914%20CAPITAL%20BLVD%2C+RALEIGH%2C+NC+27604
"NORTH CAROLINA CVS PHARMACY, L.L.C.","4300 HWY 49 S., P.O. BOX 10",,"HARRISBURG, NC 28075",http://maps.google.com/maps?q=NORTH%20CAROLINA%20CVS%20PHARMACY%20LLC%2C4300%20HWY%2049%20S.%2C%20P.O.%20BOX%2010%2C+HARRISBURG%2C+NC+28075
"NORTH CAROLINA CVS PHARMACY, L.L.C.",4309 NEW BERN AVE (NWC),,"RALEIGH, NC 27610",http://maps.google.com/maps?q=NORTH%20CAROLINA%20CVS%20PHARMACY%20LLC%2C4309%20NEW%20BERN%20AVE%20(NWC)%2C+RALEIGH%2C+NC+27610
"NORTH CAROLINA CVS PHARMACY, L.L.C.",522 OWEN DR,,"FAYETTEVILLE, NC 28304",http://maps.google.com/maps?q=NORTH%20CAROLINA%20CVS%20PHARMACY%20LLC%2C522%20OWEN%20DR%2C+FAYETTEVILLE%2C+NC+28304
"NORTH CAROLINA CVS PHARMACY, L.L.C.",559 RIVER HWY,,"MOORESVILLE, NC 28117",http://maps.google.com/maps?q=NORTH%20CAROLINA%20CVS%20PHARMACY%20LLC%2C559%20RIVER%20HWY%2C+MOORESVILLE%2C+NC+28117
"NORTH CAROLINA CVS PHARMACY, L.L.C.",6750 WILKINSON BLVD.,,"BELMONT, NC 28012",http://maps.google.com/maps?q=NORTH%20CAROLINA%20CVS%20PHARMACY%20LLC%2C6750%20WILKINSON%20BLVD.%2C+BELMONT%2C+NC+28012
"NORTH CAROLINA CVS PHARMACY, L.L.C.",9931 GILEAD RD,,"HUNTERSVILLE, NC 28078",http://maps.google.com/maps?q=NORTH%20CAROLINA%20CVS%20PHARMACY%20LLC%2C9931%20GILEAD%20RD%2C+HUNTERSVILLE%2C+NC+28078
NORTHERN BEDFORD PHARMACY,3499 BRUMBAUGH RD,,"NEW ENTERPRISE, PA 16664",http://maps.google.com/maps?q=NORTHERN%20BEDFORD%20PHARMACY%2C3499%20BRUMBAUGH%20RD%2C+NEW%20ENTERPRISE%2C+PA+16664
NORTHSIDE CAMBRIDGE PHARMACY,1300 CLARK STREET,SUITE 4,"CAMBRIDGE, OH 43725",http://maps.google.com/maps?q=NORTHSIDE%20CAMBRIDGE%20PHARMACY%2C1300%20CLARK%20STREET%2C+CAMBRIDGE%2C+OH+43725
NORTHSIDE PHARMACY,2899 BELL STREET,,"ZANESVILLE, OH 43701",http://maps.google.com/maps?q=NORTHSIDE%20PHARMACY%2C2899%20BELL%20STREET%2C+ZANESVILLE%2C+OH+43701
NORTHSIDE SOMERSET PHARMACY,110 WEST MAIN STREET,,"SOMERSET, OH 43783",http://maps.google.com/maps?q=NORTHSIDE%20SOMERSET%20PHARMACY%2C110%20WEST%20MAIN%20STREET%2C+SOMERSET%2C+OH+43783
NOVANT HEALTH PHARMACY SERVICES LLC,200 HAWTHORNE ROAD,,"CHARLOTTE, NC 28204",http://maps.google.com/maps?q=NOVANT%20HEALTH%20PHARMACY%20SERVICES%20LLC%2C200%20HAWTHORNE%20ROAD%2C+CHARLOTTE%2C+NC+28204
NOVANT HEALTH PHARMACY SERVICES LLC,212 MOORE ROAD,,"KING, NC 27021",http://maps.google.com/maps?q=NOVANT%20HEALTH%20PHARMACY%20SERVICES%20LLC%2C212%20MOORE%20ROAD%2C+KING%2C+NC+27021
NOVANT HEALTH PHARMACY SERVICES LLC,255 CHARLOIS BLVD,,"WINSTON-SALEM, NC 27103",http://maps.google.com/maps?q=NOVANT%20HEALTH%20PHARMACY%20SERVICES%20LLC%2C255%20CHARLOIS%20BLVD%2C+WINSTON-SALEM%2C+NC+27103
NOVANT HEALTH PHARMACY SERVICES LLC,3333 SILAS CREEK PARKWAY,RETAIL PHARMACY - MAIN FLOOR - LOBBY,"WINSTON SALEM, NC 27103",http://maps.google.com/maps?q=NOVANT%20HEALTH%20PHARMACY%20SERVICES%20LLC%2C3333%20SILAS%20CREEK%20PARKWAY%2C+WINSTON%20SALEM%2C+NC+27103
NOVANT HEALTH PHARMACY SERVICES LLC,911 WEST HENDERSON STREET,SUITE L 20,"SALISBURY, NC 28144",http://maps.google.com/maps?q=NOVANT%20HEALTH%20PHARMACY%20SERVICES%20LLC%2C911%20WEST%20HENDERSON%20STREET%2C+SALISBURY%2C+NC+28144
"OHIO CVS STORES, L.L.C.",111 SOUTH MEMORIAL DRIVE,,"LANCASTER, OH 43130",http://maps.google.com/maps?q=OHIO%20CVS%20STORES%20LLC%2C111%20SOUTH%20MEMORIAL%20DRIVE%2C+LANCASTER%2C+OH+43130
"OHIO CVS STORES, L.L.C.",21 GRANT ST.,,"DENNISON, OH 44621",http://maps.google.com/maps?q=OHIO%20CVS%20STORES%20LLC%2C21%20GRANT%20ST.%2C+DENNISON%2C+OH+44621
PARKWAY PHARMACY,5771-ON THE SQUARE,PO BOX 8,"CROZET, VA 22932",http://maps.google.com/maps?q=PARKWAY%20PHARMACY%2C5771-ON%20THE%20SQUARE%2C+CROZET%2C+VA+22932
PEAK PHARMACY,841 OLD WINSTON ROAD,SUITE 93,"KERNERSVILLE, NC 27284",http://maps.google.com/maps?q=PEAK%20PHARMACY%2C841%20OLD%20WINSTON%20ROAD%2C+KERNERSVILLE%2C+NC+27284
"PENNSYLVANIA CVS PHARMACY, L.L.C.",1740 WASHINGTON RD,,"PITTSBURGH, PA 15241",http://maps.google.com/maps?q=PENNSYLVANIA%20CVS%20PHARMACY%20LLC%2C1740%20WASHINGTON%20RD%2C+PITTSBURGH%2C+PA+15241
PIEDMONT PLAZA PHARMACY,ONE PIEDMONT PLAZA,1920 WEST FIRST STREET,"WINSTON SALEM, NC 27104",http://maps.google.com/maps?q=PIEDMONT%20PLAZA%20PHARMACY%2CONE%20PIEDMONT%20PLAZA%2C+WINSTON%20SALEM%2C+NC+27104
"POSITIVE HEALTH SOLUTIONS, LLC",2925 SENNA DR,STE 100,"MATTHEWS, NC 28105",http://maps.google.com/maps?q=POSITIVE%20HEALTH%20SOLUTIONS%20LLC%2C2925%20SENNA%20DR%2C+MATTHEWS%2C+NC+28105
PROFESSIONAL PHARMACY,140 ROXBORO RD.,,"OXFORD, NC 27565",http://maps.google.com/maps?q=PROFESSIONAL%20PHARMACY%2C140%20ROXBORO%20RD.%2C+OXFORD%2C+NC+27565
PURCELLVILLE PHARMACY,609 E MAIN ST SUITE Q,,"PURCELLVILLE, VA 20132",http://maps.google.com/maps?q=PURCELLVILLE%20PHARMACY%2C609%20E%20MAIN%20ST%20SUITE%20Q%2C+PURCELLVILLE%2C+VA+20132
RAINELLE MED CENTER PHARMACY,176 MEDICAL CENTER DRIVE,,"RAINELLE, WV 25962",http://maps.google.com/maps?q=RAINELLE%20MED%20CENTER%20PHARMACY%2C176%20MEDICAL%20CENTER%20DRIVE%2C+RAINELLE%2C+WV+25962
ROCKY MOUNT FAMILY PHARMACY,1165 FRANKLIN STREET,,"ROCKY MOUNT, VA 24151",http://maps.google.com/maps?q=ROCKY%20MOUNT%20FAMILY%20PHARMACY%2C1165%20FRANKLIN%20STREET%2C+ROCKY%20MOUNT%2C+VA+24151
RX CARE 13 LLC,305 N JUDD PKWY,,"FUQUAY VARINA, NC 27526",http://maps.google.com/maps?q=RX%20CARE%20%20LLC%2C305%20N%20JUDD%20PKWY%2C+FUQUAY%20VARINA%2C+NC+27526
RX CARE 14 LLC,7701 SHARON LAKES RD,SUITE H,"CHARLOTTE, NC 28210",http://maps.google.com/maps?q=RX%20CARE%20%20LLC%2C7701%20SHARON%20LAKES%20RD%2C+CHARLOTTE%2C+NC+28210
RX CARE OF NC LLC,11304 HAWTHORNE DR,SUITE# 120,"MINT HILL, NC 28227",http://maps.google.com/maps?q=RX%20CARE%20OF%20NC%20LLC%2C11304%20HAWTHORNE%20DR%2C+MINT%20HILL%2C+NC+28227
RX CARE PHARMACY INC.,6018 THE PLAZA,,"CHARLOTTE, NC 28215",http://maps.google.com/maps?q=RX%20CARE%20PHARMACY%20INC%2C6018%20THE%20PLAZA%2C+CHARLOTTE%2C+NC+28215
SENIOR TOTAL LIFE CARE,1875 REMOUNT ROAD,,"GASTONIA, NC 28054",http://maps.google.com/maps?q=SENIOR%20TOTAL%20LIFE%20CARE%2C1875%20REMOUNT%20ROAD%2C+GASTONIA%2C+NC+28054
SENTARA RMH MEDICAL CENTER,2010 HEALTH CAMPUS DRIVE,OUTPATIENT PHARMACY,"HARRISONBURG, VA 22801",http://maps.google.com/maps?q=SENTARA%20RMH%20MEDICAL%20CENTER%2C2010%20HEALTH%20CAMPUS%20DRIVE%2C+HARRISONBURG%2C+VA+22801
"SOUTH CAROLINA CVS PHARMACY, L.L.C.",2707 CELANESE RD.,,"ROCK HILL, SC 29732",http://maps.google.com/maps?q=SOUTH%20CAROLINA%20CVS%20PHARMACY%20LLC%2C2707%20CELANESE%20RD.%2C+ROCK%20HILL%2C+SC+29732
"SOUTH CAROLINA CVS PHARMACY, L.L.C.",901 MARKET ST.,,"CHERAW, SC 29520",http://maps.google.com/maps?q=SOUTH%20CAROLINA%20CVS%20PHARMACY%20LLC%2C901%20MARKET%20ST.%2C+CHERAW%2C+SC+29520
SOUTH PARK FAMILY PHARMACY,1215 WEST CLEMMONSVILLE ROAD,SUITE A,"WINSTON SALEM, NC 27127",http://maps.google.com/maps?q=SOUTH%20PARK%20FAMILY%20PHARMACY%2C1215%20WEST%20CLEMMONSVILLE%20ROAD%2C+WINSTON%20SALEM%2C+NC+27127
STANLEYVILLE FAMILY PHARMACY,475 SUMMIT SQUARE BLVD,,"WINSTON SALEM, NC 27105",http://maps.google.com/maps?q=STANLEYVILLE%20FAMILY%20PHARMACY%2C475%20SUMMIT%20SQUARE%20BLVD%2C+WINSTON%20SALEM%2C+NC+27105
STATESVILLE FAMILY MEDICINE PHARMACY,1022-C SHELTON AVE.,,"STATESVILLE, NC 28677",http://maps.google.com/maps?q=STATESVILLE%20FAMILY%20MEDICINE%20PHARMACY%2C1022-C%20SHELTON%20AVE.%2C+STATESVILLE%2C+NC+28677
STRASBURG PHARMACY,33820 OLD VALLEY PIKE,SUITE 7,"STRASBURG, VA 22657",http://maps.google.com/maps?q=STRASBURG%20PHARMACY%2C33820%20OLD%20VALLEY%20PIKE%2C+STRASBURG%2C+VA+22657
STUDENT STORES PHARMACY,CB #1530 DANIELS BUILDING,207 SOUTH RD,"CHAPEL HILL, NC 27599",http://maps.google.com/maps?q=STUDENT%20STORES%20PHARMACY%2CCB%20#1530%20DANIELS%20BUILDING%2C+CHAPEL%20HILL%2C+NC+27599
TABLE ROCK PHARMACY,200 W. FLEMING DR,,"MORGANTON, NC 28655",http://maps.google.com/maps?q=TABLE%20ROCK%20PHARMACY%2C200%20W.%20FLEMING%20DR%2C+MORGANTON%2C+NC+28655
THE PLAZA PHARMACIST,3400 WAKE FOREST ROAD,,"RALEIGH, NC 27609",http://maps.google.com/maps?q=THE%20PLAZA%20PHARMACIST%2C3400%20WAKE%20FOREST%20ROAD%2C+RALEIGH%2C+NC+27609
"THE VILLAGE PHARMACY, LLC",5106 NC HWY 87 SOUTH,SUITE 100,"FAYETTEVILLE, NC 28306",http://maps.google.com/maps?q=THE%20VILLAGE%20PHARMACY%20LLC%2C5106%20NC%20HWY%2087%20SOUTH%2C+FAYETTEVILLE%2C+NC+28306
THOMASVILLE FAMILY PHARMACY,1116 LEXINGTON AVE,,"THOMASVILLE, NC 27360",http://maps.google.com/maps?q=THOMASVILLE%20FAMILY%20PHARMACY%2C1116%20LEXINGTON%20AVE%2C+THOMASVILLE%2C+NC+27360
"TOP NOTCH PHARMACY, LLC",943 PRESTON AVE,,"CHARLOTTESVILLE, VA 22903",http://maps.google.com/maps?q=TOP%20NOTCH%20PHARMACY%20LLC%2C943%20PRESTON%20AVE%2C+CHARLOTTESVILLE%2C+VA+22903
TRI-STATE PHARMACY,"JOHN J. BERNABEI, RPH",651 COLLIERS WAY SUITE 204,"WEIRTON, WV 26062",http://maps.google.com/maps?q=TRISTATE%20PHARMACY%2CJOHN%20J.%20BERNABEI%2C%20RPH%2C+WEIRTON%2C+WV+26062
UNC AMBULATORY PHARMACY CARE NETWORK-STORE #2,102 MASON FARM RD,AMBULATORY CARE CENTER PHARMACY,"CHAPEL HILL, NC 27599",http://maps.google.com/maps?q=UNC%20AMBULATORY%20PHARMACY%20CARE%20NETWORKSTORE%2C102%20MASON%20FARM%20RD%2C+CHAPEL%20HILL%2C+NC+27599
UNC CENTRAL OUTPATIENT PHARMACY,101 MANNING DRIVE,CB #7600,"CHAPEL HILL, NC 27514",http://maps.google.com/maps?q=UNC%20CENTRAL%20OUTPATIENT%20PHARMACY%2C101%20MANNING%20DRIVE%2C+CHAPEL%20HILL%2C+NC+27514
UNC EMPLOYEE PHARMACY,101 MANNING DRIVE,CB #7600,"CHAPEL HILL, NC 27514",http://maps.google.com/maps?q=UNC%20EMPLOYEE%20PHARMACY%2C101%20MANNING%20DRIVE%2C+CHAPEL%20HILL%2C+NC+27514
UNC HILLSBOROUGH OUTPATIENT PHARMACY,430 WATERSTONE DRIVE,,"HILLSBOROUGH, NC 27278",http://maps.google.com/maps?q=UNC%20HILLSBOROUGH%20OUTPATIENT%20PHARMACY%2C430%20WATERSTONE%20DRIVE%2C+HILLSBOROUGH%2C+NC+27278
UPCHURCH DRUGS,5108 N ROXBORO ROAD,,"DURHAM, NC 27704",http://maps.google.com/maps?q=UPCHURCH%20DRUGS%2C5108%20N%20ROXBORO%20ROAD%2C+DURHAM%2C+NC+27704
US ARMY- WOMACK MEDICAL CENTER,DEPT OF PHARMACY,BLDG 4-2817 REILLY RD,"FORT BRAGG, NC 28310",http://maps.google.com/maps?q=US%20ARMY%20WOMACK%20MEDICAL%20CENTER%2CDEPT%20OF%20PHARMACY%2C+FORT%20BRAGG%2C+NC+28310
UVA PHARMACY,1240 LEE STREET ROOM 1407,,"CHARLOTTESVILLE, VA 22903",http://maps.google.com/maps?q=UVA%20PHARMACY%2C1240%20LEE%20STREET%20ROOM%201407%2C+CHARLOTTESVILLE%2C+VA+22903
"VIRGINIA CVS PHARMACY, L.L.C.",1610 MAIN STREET,,"CLIFTON FORGE, VA 24422",http://maps.google.com/maps?q=VIRGINIA%20CVS%20PHARMACY%20LLC%2C1610%20MAIN%20STREET%2C+CLIFTON%20FORGE%2C+VA+24422
"VIRGINIA CVS PHARMACY, L.L.C.",510 BLACKWELL RD.,,"WARRENTON, VA 20186",http://maps.google.com/maps?q=VIRGINIA%20CVS%20PHARMACY%20LLC%2C510%20BLACKWELL%20RD.%2C+WARRENTON%2C+VA+20186
"VIRGINIA CVS PHARMACY, L.L.C.",709 E MAIN ST,,"FLOYD, VA 24091",http://maps.google.com/maps?q=VIRGINIA%20CVS%20PHARMACY%20LLC%2C709%20E%20MAIN%20ST%2C+FLOYD%2C+VA+24091
"VIRGINIA CVS PHARMACY, L.L.C.",762 E. CHURCH ST.,,"MARTINSVILLE, VA 24112",http://maps.google.com/maps?q=VIRGINIA%20CVS%20PHARMACY%20LLC%2C762%20E.%20CHURCH%20ST.%2C+MARTINSVILLE%2C+VA+24112
"VIRGINIA CVS PHARMACY, L.L.C.",9200 CENTREVILLE RD.,,"MANASSAS, VA 20110",http://maps.google.com/maps?q=VIRGINIA%20CVS%20PHARMACY%20LLC%2C9200%20CENTREVILLE%20RD.%2C+MANASSAS%2C+VA+20110
WAKE COUNTY HUMAN SERVICES PHAR,10 SUNNYBROOK ROAD,ROOM 107,"RALEIGH, NC 27610",http://maps.google.com/maps?q=WAKE%20COUNTY%20HUMAN%20SERVICES%20PHAR%2C10%20SUNNYBROOK%20ROAD%2C+RALEIGH%2C+NC+27610
WALGREEN CO.,101 FORBES DR.,,"MARTINSBURG, WV 25404",http://maps.google.com/maps?q=WALGREEN%20CO%2C101%20FORBES%20DR.%2C+MARTINSBURG%2C+WV+25404
WALGREEN CO.,1310 S CANNON BLVD,,"KANNAPOLIS, NC 28083",http://maps.google.com/maps?q=WALGREEN%20CO%2C1310%20S%20CANNON%20BLVD%2C+KANNAPOLIS%2C+NC+28083
WALGREEN CO.,1395 W D STREET,,"NORTH WILKESBORO, NC 28659",http://maps.google.com/maps?q=WALGREEN%20CO%2C1395%20W%20D%20STREET%2C+NORTH%20WILKESBORO%2C+NC+28659
WALGREEN CO.,1401 N MAIN STREET,,"FUQUAY VARINA, NC 27526",http://maps.google.com/maps?q=WALGREEN%20CO%2C1401%20N%20MAIN%20STREET%2C+FUQUAY%20VARINA%2C+NC+27526
WALGREEN CO.,1411 OXFORD ROAD,,"HENDERSON, NC 27536",http://maps.google.com/maps?q=WALGREEN%20CO%2C1411%20OXFORD%20ROAD%2C+HENDERSON%2C+NC+27536
WALGREEN CO.,1956 S HORNER BLVD,,"SANFORD, NC 27330",http://maps.google.com/maps?q=WALGREEN%20CO%2C1956%20S%20HORNER%20BLVD%2C+SANFORD%2C+NC+27330
WALGREEN CO.,2019 N MAIN STREET,,"HIGH POINT, NC 27262",http://maps.google.com/maps?q=WALGREEN%20CO%2C2019%20N%20MAIN%20STREET%2C+HIGH%20POINT%2C+NC+27262
WALGREEN CO.,207 N FAYETTEVILLE ST,,"ASHEBORO, NC 27203",http://maps.google.com/maps?q=WALGREEN%20CO%2C207%20N%20FAYETTEVILLE%20ST%2C+ASHEBORO%2C+NC+27203
WALGREEN CO.,276 W LEE HWY,,"WARRENTON, VA 20186",http://maps.google.com/maps?q=WALGREEN%20CO%2C276%20W%20LEE%20HWY%2C+WARRENTON%2C+VA+20186
WALGREEN CO.,3003 FAYETTEVILLE RD,,"LUMBERTON, NC 28358",http://maps.google.com/maps?q=WALGREEN%20CO%2C3003%20FAYETTEVILLE%20RD%2C+LUMBERTON%2C+NC+28358
WALGREEN CO.,3634 REYNOLDA ROAD,,"WINSTON SALEM, NC 27106",http://maps.google.com/maps?q=WALGREEN%20CO%2C3634%20REYNOLDA%20ROAD%2C+WINSTON%20SALEM%2C+NC+27106
WALGREEN CO.,3905 N ROXBORO ST,,"DURHAM, NC 27704",http://maps.google.com/maps?q=WALGREEN%20CO%2C3905%20N%20ROXBORO%20ST%2C+DURHAM%2C+NC+27704
WALGREEN CO.,511 W WILLIAMS ST,,"APEX, NC 27502",http://maps.google.com/maps?q=WALGREEN%20CO%2C511%20W%20WILLIAMS%20ST%2C+APEX%2C+NC+27502
WALGREEN CO.,542 RIVER HWY,,"MOORESVILLE, NC 28117",http://maps.google.com/maps?q=WALGREEN%20CO%2C542%20RIVER%20HWY%2C+MOORESVILLE%2C+NC+28117
WALGREEN CO.,6405 FAYETTEVILLE ROAD,,"DURHAM, NC 27713",http://maps.google.com/maps?q=WALGREEN%20CO%2C6405%20FAYETTEVILLE%20ROAD%2C+DURHAM%2C+NC+27713
WALGREEN CO.,655 WASHINGTON ST. W,,"CHARLESTON, WV 25302",http://maps.google.com/maps?q=WALGREEN%20CO%2C655%20WASHINGTON%20ST.%20W%2C+CHARLESTON%2C+WV+25302
WALGREEN CO.,6649 MORRISON BLVD,,"CHARLOTTE, NC 28211",http://maps.google.com/maps?q=WALGREEN%20CO%2C6649%20MORRISON%20BLVD%2C+CHARLOTTE%2C+NC+28211
WALGREEN CO.,6802 W WILKINSON BLVD,,"BELMONT, NC 28012",http://maps.google.com/maps?q=WALGREEN%20CO%2C6802%20W%20WILKINSON%20BLVD%2C+BELMONT%2C+NC+28012
WALGREEN CO.,8538 N TRYON ST,,"CHARLOTTE, NC 28262",http://maps.google.com/maps?q=WALGREEN%20CO%2C8538%20N%20TRYON%20ST%2C+CHARLOTTE%2C+NC+28262
WALGREEN CO.,859 E MAIN ST,,"LANCASTER, OH 43130",http://maps.google.com/maps?q=WALGREEN%20CO%2C859%20E%20MAIN%20ST%2C+LANCASTER%2C+OH+43130
WALGREEN CO.,897 CHESTNUT RIDGE RD,,"MORGANTOWN, WV 26505",http://maps.google.com/maps?q=WALGREEN%20CO%2C897%20CHESTNUT%20RIDGE%20RD%2C+MORGANTOWN%2C+WV+26505
WALGREENS OF NORTH CAROLINA INC.,3905 NORTH ROXBORO STREET,,"DURHAM, NC 27704",http://maps.google.com/maps?q=WALGREENS%20OF%20NORTH%20CAROLINA%20INC%2C3905%20NORTH%20ROXBORO%20STREET%2C+DURHAM%2C+NC+27704
"WEST VIRGINIA CVS PHARMACY, L.L.C.",1000 PINEVIEW DRIVE,,"MORGANTOWN, WV 26505",http://maps.google.com/maps?q=WEST%20VIRGINIA%20CVS%20PHARMACY%20LLC%2C1000%20PINEVIEW%20DRIVE%2C+MORGANTOWN%2C+WV+26505
"WEST VIRGINIA CVS PHARMACY, L.L.C.","105 S. STATE ST., PO BOX 1159",,"ATHENS, WV 24712",http://maps.google.com/maps?q=WEST%20VIRGINIA%20CVS%20PHARMACY%20LLC%2C105%20S.%20STATE%20ST.%2C%20PO%20BOX%201159%2C+ATHENS%2C+WV+24712
"WEST VIRGINIA CVS PHARMACY, L.L.C.",1327 PLAZA EAST,,"CHARLESTON, WV 25301",http://maps.google.com/maps?q=WEST%20VIRGINIA%20CVS%20PHARMACY%20LLC%2C1327%20PLAZA%20EAST%2C+CHARLESTON%2C+WV+25301
"WEST VIRGINIA CVS PHARMACY, L.L.C.",1414 N. EISENHOWER DR.,,"BECKLEY, WV 25801",http://maps.google.com/maps?q=WEST%20VIRGINIA%20CVS%20PHARMACY%20LLC%2C1414%20N.%20EISENHOWER%20DR.%2C+BECKLEY%2C+WV+25801
"WEST VIRGINIA CVS PHARMACY, L.L.C.",1605 7TH STREET,,"PARKERSBURG, WV 26101",http://maps.google.com/maps?q=WEST%20VIRGINIA%20CVS%20PHARMACY%20LLC%2C1605%207TH%20STREET%2C+PARKERSBURG%2C+WV+26101
"WEST VIRGINIA CVS PHARMACY, L.L.C.",1827 HARPER ROAD,,"BECKLEY, WV 25801",http://maps.google.com/maps?q=WEST%20VIRGINIA%20CVS%20PHARMACY%20LLC%2C1827%20HARPER%20ROAD%2C+BECKLEY%2C+WV+25801
"WEST VIRGINIA CVS PHARMACY, L.L.C.",221 CROSSINGS MALL ROAD,,"ELKVIEW, WV 25071",http://maps.google.com/maps?q=WEST%20VIRGINIA%20CVS%20PHARMACY%20LLC%2C221%20CROSSINGS%20MALL%20ROAD%2C+ELKVIEW%2C+WV+25071
"WEST VIRGINIA CVS PHARMACY, L.L.C.",2811 ROBERT C. BYRD DR.,,"BECKLEY, WV 25801",http://maps.google.com/maps?q=WEST%20VIRGINIA%20CVS%20PHARMACY%20LLC%2C2811%20ROBERT%20C.%20BYRD%20DR.%2C+BECKLEY%2C+WV+25801
"WEST VIRGINIA CVS PHARMACY, L.L.C.",2907 STATE STREET,,"GASSAWAY, WV 26624",http://maps.google.com/maps?q=WEST%20VIRGINIA%20CVS%20PHARMACY%20LLC%2C2907%20STATE%20STREET%2C+GASSAWAY%2C+WV+26624
"WEST VIRGINIA CVS PHARMACY, L.L.C.",300 FOURTH AVE,,"MONTGOMERY, WV 25136",http://maps.google.com/maps?q=WEST%20VIRGINIA%20CVS%20PHARMACY%20LLC%2C300%20FOURTH%20AVE%2C+MONTGOMERY%2C+WV+25136
"WEST VIRGINIA CVS PHARMACY, L.L.C.",505 RANDOLPH AVE,,"ELKINS, WV 26241",http://maps.google.com/maps?q=WEST%20VIRGINIA%20CVS%20PHARMACY%20LLC%2C505%20RANDOLPH%20AVE%2C+ELKINS%2C+WV+26241
"WEST VIRGINIA CVS PHARMACY, L.L.C.",700 NORTHSIDE DR.,,"SUMMERSVILLE, WV 26651",http://maps.google.com/maps?q=WEST%20VIRGINIA%20CVS%20PHARMACY%20LLC%2C700%20NORTHSIDE%20DR.%2C+SUMMERSVILLE%2C+WV+26651
"WEST VIRGINIA CVS PHARMACY, L.L.C.",701 E. MAIN STREET,,"CLARKSBURG, WV 26301",http://maps.google.com/maps?q=WEST%20VIRGINIA%20CVS%20PHARMACY%20LLC%2C701%20E.%20MAIN%20STREET%2C+CLARKSBURG%2C+WV+26301
"WEST VIRGINIA CVS PHARMACY, L.L.C.",72 WHITEWATER AVE.,,"FAYETTEVILLE, WV 25840",http://maps.google.com/maps?q=WEST%20VIRGINIA%20CVS%20PHARMACY%20LLC%2C72%20WHITEWATER%20AVE.%2C+FAYETTEVILLE%2C+WV+25840
"WEST VIRGINIA CVS PHARMACY, L.L.C.",74 WEST MAIN ST.,,"BUCKHANNON, WV 26201",http://maps.google.com/maps?q=WEST%20VIRGINIA%20CVS%20PHARMACY%20LLC%2C74%20WEST%20MAIN%20ST.%2C+BUCKHANNON%2C+WV+26201
"WEST VIRGINIA CVS PHARMACY, L.L.C.",9781 SENECA TRAIL S.,,"LEWISBURG, WV 24901",http://maps.google.com/maps?q=WEST%20VIRGINIA%20CVS%20PHARMACY%20LLC%2C9781%20SENECA%20TRAIL%20S.%2C+LEWISBURG%2C+WV+24901
"WEST VIRGINIA CVS PHARMACY, L.L.C.","RTE 19-21 RITTER DR., PO BOX 246",,"BEAVER, WV 25813",http://maps.google.com/maps?q=WEST%20VIRGINIA%20CVS%20PHARMACY%20LLC%2CRTE%2019-21%20RITTER%20DR.%2C%20PO%20BOX%20246%2C+BEAVER%2C+WV+25813
WESTMORELAND REGIONAL HOSP,532 W PITTSBURGH ST,,"GREENSBURG, PA 15601",http://maps.google.com/maps?q=WESTMORELAND%20REGIONAL%20HOSP%2C532%20W%20PITTSBURGH%20ST%2C+GREENSBURG%2C+PA+15601
WILKES FAMILY PHARMACY,1300-A WESTWOOD LANE,,"WILKESBORO, NC 28697",http://maps.google.com/maps?q=WILKES%20FAMILY%20PHARMACY%2C1300-A%20WESTWOOD%20LANE%2C+WILKESBORO%2C+NC+28697
WITSCHEY'SPHARMACY,155 NORTH STREET,,"NEW MARTINSVILLE, WV 26155",http://maps.google.com/maps?q=WITSCHEYSPHARMACY%2C155%20NORTH%20STREET%2C+NEW%20MARTINSVILLE%2C+WV+26155
YADKIN VALLEY PHARMACY,301 EAST LEE AVENUE,SUITE B,"YADKINVILLE, NC 27055",http://maps.google.com/maps?q=YADKIN%20VALLEY%20PHARMACY%2C301%20EAST%20LEE%20AVENUE%2C+YADKINVILLE%2C+NC+27055
