Business Name,Address 1,Address 2,"City, State Zip",Map URL
ACCUSCRIPTS PHARMACY L.L.C.,24340 SPERRY DR,,"WESTLAKE, OH 44145",http://maps.google.com/maps?q=ACCUSCRIPTS%20PHARMACY%20LLC%2C24340%20SPERRY%20DR%2C+WESTLAKE%2C+OH+44145
ADRIAN PHARMACY LLC,1325 N MAIN ST STE H,,"ADRIAN, MI 49221",http://maps.google.com/maps?q=ADRIAN%20PHARMACY%20LLC%2C1325%20N%20MAIN%20ST%20STE%20H%2C+ADRIAN%2C+MI+49221
AHF PHARMACY,1230 N. HIGH STREET,,"COLUMBUS, OH 43201",http://maps.google.com/maps?q=AHF%20PHARMACY%2C1230%20N.%20HIGH%20STREET%2C+COLUMBUS%2C+OH+43201
ALLIANCE COMMUNITY HOSPITAL,200 E. STATE ST,,"ALLIANCE, OH 44601",http://maps.google.com/maps?q=ALLIANCE%20COMMUNITY%20HOSPITAL%2C200%20E.%20STATE%20ST%2C+ALLIANCE%2C+OH+44601
"AMC OHIO LLC, DBA EQUITAS HEALTH PHARMACY #3",750 E LONG ST,SUITE 3100,"COLUMBUS, OH 43203",http://maps.google.com/maps?q=AMC%20OHIO%20LLC%20DBA%20EQUITAS%20HEALTH%20PHARMACY%2C750%20E%20LONG%20ST%2C+COLUMBUS%2C+OH+43203
ARROWHEAD BEHAVIORAL HEALTH,1725 TIMBER LINE ROAD,,"MAUMEE, OH 43537",http://maps.google.com/maps?q=ARROWHEAD%20BEHAVIORAL%20HEALTH%2C1725%20TIMBER%20LINE%20ROAD%2C+MAUMEE%2C+OH+43537
ATRIUM MEDICAL CENTER,ONE MEDICAL CENTER DRIVE,,"MIDDLETOWN, OH 45005",http://maps.google.com/maps?q=ATRIUM%20MEDICAL%20CENTER%2CONE%20MEDICAL%20CENTER%20DRIVE%2C+MIDDLETOWN%2C+OH+45005
B S D INC,716 MADISON AVENUE,,"COVINGTON, KY 41011",http://maps.google.com/maps?q=B%20S%20D%20INC%2C716%20MADISON%20AVENUE%2C+COVINGTON%2C+KY+41011
BAPTIST HEALTH LEXINGTON RETAIL PHARMACY,1700 NICHOLASVILLE ROAD,SUITE N1210,"LEXINGTON, KY 40503",http://maps.google.com/maps?q=BAPTIST%20HEALTH%20LEXINGTON%20RETAIL%20PHARMACY%2C1700%20NICHOLASVILLE%20ROAD%2C+LEXINGTON%2C+KY+40503
BARNESVILLE HOSPITAL ASSN INC,639 W MAIN ST,,"BARNESVILLE, OH 43713",http://maps.google.com/maps?q=BARNESVILLE%20HOSPITAL%20ASSN%20INC%2C639%20W%20MAIN%20ST%2C+BARNESVILLE%2C+OH+43713
BAY PARK COMMUNITY HOSPITAL,2801 BAY PARK DRIVE,,"OREGON, OH 43616",http://maps.google.com/maps?q=BAY%20PARK%20COMMUNITY%20HOSPITAL%2C2801%20BAY%20PARK%20DRIVE%2C+OREGON%2C+OH+43616
BEDFORD WELLNESS PHARMACY,7473 SECOR ROAD,UNIT C,"LAMBERTVILLE, MI 48144",http://maps.google.com/maps?q=BEDFORD%20WELLNESS%20PHARMACY%2C7473%20SECOR%20ROAD%2C+LAMBERTVILLE%2C+MI+48144
BELLWOOD DRUGS,135 SOUTH MAIN STREET,,"WOODSFIELD, OH 43793",http://maps.google.com/maps?q=BELLWOOD%20DRUGS%2C135%20SOUTH%20MAIN%20STREET%2C+WOODSFIELD%2C+OH+43793
BELMONT CO HLTH SERVICES,DBA MORRISTOWN PHCY,66840 BELMONT-MORRISTOWN RD,"BELMONT, OH 43718",http://maps.google.com/maps?q=BELMONT%20CO%20HLTH%20SERVICES%2CDBA%20MORRISTOWN%20PHCY%2C+BELMONT%2C+OH+43718
BERGER HOSPITAL,600 NORTH PICKAWAY STREET,ATTN PHARMACY,"CIRCLEVILLE, OH 43113",http://maps.google.com/maps?q=BERGER%20HOSPITAL%2C600%20NORTH%20PICKAWAY%20STREET%2C+CIRCLEVILLE%2C+OH+43113
BRAY PHARMACY INC.,662 EAST MAIN ST.,,"FRANKFORT, KY 40601",http://maps.google.com/maps?q=BRAY%20PHARMACY%20INC%2C662%20EAST%20MAIN%20ST.%2C+FRANKFORT%2C+KY+40601
"CAMERLIN ENTERPRISES, LLC",615 WELLS STREET,,"SISTERSVILLE, WV 26175",http://maps.google.com/maps?q=CAMERLIN%20ENTERPRISES%20LLC%2C615%20WELLS%20STREET%2C+SISTERSVILLE%2C+WV+26175
CANN MEDICAL CENTER,CINCINNATI HEALTH DEPARTMENT,5818 MADISON ROAD,"CINCINNATI, OH 45227",http://maps.google.com/maps?q=CANN%20MEDICAL%20CENTER%2CCINCINNATI%20HEALTH%20DEPARTMENT%2C+CINCINNATI%2C+OH+45227
CARE-FILL PHARMACY,STE 1,43 WILLIAMSON RD,"GREENVILLE, PA 16125",http://maps.google.com/maps?q=CAREFILL%20PHARMACY%2CSTE%201%2C+GREENVILLE%2C+PA+16125
CHEFFY DRUGS LLC,148 EAST MAIN ST,,"BARNESVILLE, OH 43713",http://maps.google.com/maps?q=CHEFFY%20DRUGS%20LLC%2C148%20EAST%20MAIN%20ST%2C+BARNESVILLE%2C+OH+43713
CHRISTIAN PHARMACY,DBA CORNER PHARMACY,102 WEST MAIN ST,"BARNESVILLE, OH 43713",http://maps.google.com/maps?q=CHRISTIAN%20PHARMACY%2CDBA%20CORNER%20PHARMACY%2C+BARNESVILLE%2C+OH+43713
CINCINNATI HEALTH DEPARTMENT,PRICE HILL HEALTH CENTER PHARMACY,2136 WEST 8TH STREET,"CINCINNATI, OH 45204",http://maps.google.com/maps?q=CINCINNATI%20HEALTH%20DEPARTMENT%2CPRICE%20HILL%20HEALTH%20CENTER%20PHARMACY%2C+CINCINNATI%2C+OH+45204
CINCINNATI HEALTH DEPT,2750 BEEKMAN STREET,,"CINCINNATI, OH 45225",http://maps.google.com/maps?q=CINCINNATI%20HEALTH%20DEPT%2C2750%20BEEKMAN%20STREET%2C+CINCINNATI%2C+OH+45225
CLERMONT MERCY HOSPITAL,3000 HOSPITAL DRIVE,,"BATAVIA, OH 45103",http://maps.google.com/maps?q=CLERMONT%20MERCY%20HOSPITAL%2C3000%20HOSPITAL%20DRIVE%2C+BATAVIA%2C+OH+45103
CLEVELAND CLINIC AVON AMBULATORY PHARMACY,33100 CLEVELAND CLINIC BLVD,,"AVON, OH 44011",http://maps.google.com/maps?q=CLEVELAND%20CLINIC%20AVON%20AMBULATORY%20PHARMACY%2C33100%20CLEVELAND%20CLINIC%20BLVD%2C+AVON%2C+OH+44011
CLEVELAND CLINIC HILLCREST AMBULATORY PHARMACY,6770 MAYFIELD RD.,,"MAYFIELD HEIGHTS, OH 44124",http://maps.google.com/maps?q=CLEVELAND%20CLINIC%20HILLCREST%20AMBULATORY%20PHARMACY%2C6770%20MAYFIELD%20RD.%2C+MAYFIELD%20HEIGHTS%2C+OH+44124
CLEVELAND CLINIC PHARMACY,9211 EUCLID AVENUE,,"CLEVELAND, OH 44195",http://maps.google.com/maps?q=CLEVELAND%20CLINIC%20PHARMACY%2C9211%20EUCLID%20AVENUE%2C+CLEVELAND%2C+OH+44195
COMPASS PHARMACY,1634 11TH STREET,,"PORTSMOUTH, OH 45662",http://maps.google.com/maps?q=COMPASS%20PHARMACY%2C1634%2011TH%20STREET%2C+PORTSMOUTH%2C+OH+45662
CRARY DRUG,8941 LEWIS AVENUE,,"TEMPERANCE, MI 48182",http://maps.google.com/maps?q=CRARY%20DRUG%2C8941%20LEWIS%20AVENUE%2C+TEMPERANCE%2C+MI+48182
DAVE'S PHARMACY,411 W. 5TH STREET,,"MARYSVILLE, OH 43040",http://maps.google.com/maps?q=DAVES%20PHARMACY%2C411%20W.%205TH%20STREET%2C+MARYSVILLE%2C+OH+43040
DAVIS BROTHERS PHARMACY,615 N CHESTER ST,,"NEW CUMBERLAND, WV 26047",http://maps.google.com/maps?q=DAVIS%20BROTHERS%20PHARMACY%2C615%20N%20CHESTER%20ST%2C+NEW%20CUMBERLAND%2C+WV+26047
DAVIS BROTHERS PHARMACY - CHESTER,559 CAROLINA AVE STE B,,"CHESTER, WV 26034",http://maps.google.com/maps?q=DAVIS%20BROTHERS%20PHARMACY%20%20CHESTER%2C559%20CAROLINA%20AVE%20STE%20B%2C+CHESTER%2C+WV+26034
DECATUR CTY MEMORIAL HOSPITAL,720 NORTH LINCOLN ST,,"GREENSBURG, IN 47240",http://maps.google.com/maps?q=DECATUR%20CTY%20MEMORIAL%20HOSPITAL%2C720%20NORTH%20LINCOLN%20ST%2C+GREENSBURG%2C+IN+47240
DEVILLE PHARMACIES,DBA DILLSBORO DRUGS,12836 NORTH STREET,"DILLSBORO, IN 47018",http://maps.google.com/maps?q=DEVILLE%20PHARMACIES%2CDBA%20DILLSBORO%20DRUGS%2C+DILLSBORO%2C+IN+47018
DUSINI DRUG INC,315 EAST HIGH AVENUE,,"NEW PHILADELPHIA, OH 44663",http://maps.google.com/maps?q=DUSINI%20DRUG%20INC%2C315%20EAST%20HIGH%20AVENUE%2C+NEW%20PHILADELPHIA%2C+OH+44663
ELM STREET HEALTH CENTER,ELM STREET HEALTH CENTER PHARMACY,1525 ELM STREET,"CINCINNATI, OH 45202",http://maps.google.com/maps?q=ELM%20STREET%20HEALTH%20CENTER%2CELM%20STREET%20HEALTH%20CENTER%20PHARMACY%2C+CINCINNATI%2C+OH+45202
EMMA L BIXBY MED CTR INC,818 RIVERSIDE AVENUE,,"ADRIAN, MI 49221",http://maps.google.com/maps?q=EMMA%20L%20BIXBY%20MED%20CTR%20INC%2C818%20RIVERSIDE%20AVENUE%2C+ADRIAN%2C+MI+49221
EQUITAS HEALTH PHARMACY,1033 N. HIGH ST.,,"COLUMBUS, OH 43201",http://maps.google.com/maps?q=EQUITAS%20HEALTH%20PHARMACY%2C1033%20N.%20HIGH%20ST.%2C+COLUMBUS%2C+OH+43201
EQUITAS HEALTH PHARMACY #2,1222 S. PATTERSON BLVD.,SUITE 110,"DAYTON, OH 45402",http://maps.google.com/maps?q=EQUITAS%20HEALTH%20PHARMACY%2C1222%20S.%20PATTERSON%20BLVD.%2C+DAYTON%2C+OH+45402
FAMILY HEALTH SERVICES OF,DARKE COUNTY INC.,5735 MEEKER ROAD,"GREENVILLE, OH 45331",http://maps.google.com/maps?q=FAMILY%20HEALTH%20SERVICES%20OF%2CDARKE%20COUNTY%20INC.%2C+GREENVILLE%2C+OH+45331
FAYETTE MEMORIAL HOSPITAL,PHARMACY DEPT,1941 VIRGINIA AVENUE,"CONNERSVILLE, IN 47331",http://maps.google.com/maps?q=FAYETTE%20MEMORIAL%20HOSPITAL%2CPHARMACY%20DEPT%2C+CONNERSVILLE%2C+IN+47331
FINNEY'S INSTITUTIONAL,5930 MAYFAIR RD. N.W.,,"NORTH CANTON, OH 44720",http://maps.google.com/maps?q=FINNEYS%20INSTITUTIONAL%2C5930%20MAYFAIR%20RD.%20N.W.%2C+NORTH%20CANTON%2C+OH+44720
FLOWER MEMORIAL HOSPITAL PHAR,5200 HARROUN ROAD,,"SYLVANIA, OH 43560",http://maps.google.com/maps?q=FLOWER%20MEMORIAL%20HOSPITAL%20PHAR%2C5200%20HARROUN%20ROAD%2C+SYLVANIA%2C+OH+43560
FOSTORIA COMMUNITY HOSPITAL,501 VAN BUREN STREET,,"FOSTORIA, OH 44830",http://maps.google.com/maps?q=FOSTORIA%20COMMUNITY%20HOSPITAL%2C501%20VAN%20BUREN%20STREET%2C+FOSTORIA%2C+OH+44830
FRANKLIN PHARM & HEALTH CARE,1732 YOUNGSTOWN RD,,"WARREN, OH 44484",http://maps.google.com/maps?q=FRANKLIN%20PHARM%20%20HEALTH%20CARE%2C1732%20YOUNGSTOWN%20RD%2C+WARREN%2C+OH+44484
FRED'S NEIGHBORHOOD PHARMACY,320 SOUTH MAIN STREET,,"NEW CASTLE, IN 47362",http://maps.google.com/maps?q=FREDS%20NEIGHBORHOOD%20PHARMACY%2C320%20SOUTH%20MAIN%20STREET%2C+NEW%20CASTLE%2C+IN+47362
"GENOA HEALTHCARE, LLC","12557 RAVENWOOD DRIVE, STE 112",,"CHARDON, OH 44024",http://maps.google.com/maps?q=GENOA%20HEALTHCARE%20LLC%2C12557%20RAVENWOOD%20DRIVE%2C%20STE%20112%2C+CHARDON%2C+OH+44024
"GENOA HEALTHCARE, LLC",1301 NORTH HIGH STREET,,"COLUMBUS, OH 43201",http://maps.google.com/maps?q=GENOA%20HEALTHCARE%20LLC%2C1301%20NORTH%20HIGH%20STREET%2C+COLUMBUS%2C+OH+43201
"GENOA HEALTHCARE, LLC",1445 W. MAIN STREET,,"NEWARK, OH 43055",http://maps.google.com/maps?q=GENOA%20HEALTHCARE%20LLC%2C1445%20W.%20MAIN%20STREET%2C+NEWARK%2C+OH+43055
"GENOA HEALTHCARE, LLC",1501 MADISON ROAD,3RD FL,"WALNUT HILLS, OH 45206",http://maps.google.com/maps?q=GENOA%20HEALTHCARE%20LLC%2C1501%20MADISON%20ROAD%2C+WALNUT%20HILLS%2C+OH+45206
"GENOA HEALTHCARE, LLC",1520 GERMANTOWN STREET,,"DAYTON, OH 45417",http://maps.google.com/maps?q=GENOA%20HEALTHCARE%20LLC%2C1520%20GERMANTOWN%20STREET%2C+DAYTON%2C+OH+45417
"GENOA HEALTHCARE, LLC",340 SOUTH BROADWAY STREET,,"AKRON, OH 44308",http://maps.google.com/maps?q=GENOA%20HEALTHCARE%20LLC%2C340%20SOUTH%20BROADWAY%20STREET%2C+AKRON%2C+OH+44308
"GENOA HEALTHCARE, LLC","43 E MAIN STREET, STE 113",,"AMELIA, OH 45102",http://maps.google.com/maps?q=GENOA%20HEALTHCARE%20LLC%2C43%20E%20MAIN%20STREET%2C%20STE%20113%2C+AMELIA%2C+OH+45102
"GENOA HEALTHCARE, LLC","525 METRO PLACE N, STE 150",,"DUBLIN, OH 43017",http://maps.google.com/maps?q=GENOA%20HEALTHCARE%20LLC%2C525%20METRO%20PLACE%20N%2C%20STE%20150%2C+DUBLIN%2C+OH+43017
"GENOA HEALTHCARE, LLC","624 MARKET STREET N, STE 140",,"CANTON, OH 44702",http://maps.google.com/maps?q=GENOA%20HEALTHCARE%20LLC%2C624%20MARKET%20STREET%20N%2C%20STE%20140%2C+CANTON%2C+OH+44702
"GENOA HEALTHCARE, LLC",625 CLEVELAND AVE NW,SUITE 301,"CANTON, OH 44702",http://maps.google.com/maps?q=GENOA%20HEALTHCARE%20LLC%2C625%20CLEVELAND%20AVE%20NW%2C+CANTON%2C+OH+44702
"GENOA HEALTHCARE, LLC",726 WICK AVE,,"YOUNGSTOWN, OH 44505",http://maps.google.com/maps?q=GENOA%20HEALTHCARE%20LLC%2C726%20WICK%20AVE%2C+YOUNGSTOWN%2C+OH+44505
"GENOA HEALTHCARE, LLC","741 SCHOLL ROAD, STE P1",,"MANSFIELD, OH 44907",http://maps.google.com/maps?q=GENOA%20HEALTHCARE%20LLC%2C741%20SCHOLL%20ROAD%2C%20STE%20P1%2C+MANSFIELD%2C+OH+44907
"GENOA HEALTHCARE, LLC",799 SOUTH MAIN STREET,,"LIMA, OH 45804",http://maps.google.com/maps?q=GENOA%20HEALTHCARE%20LLC%2C799%20SOUTH%20MAIN%20STREET%2C+LIMA%2C+OH+45804
"GENOA HEALTHCARE, LLC",901 WASHINGTON STREET,ROOM 135,"PORTSMOUTH, OH 45662",http://maps.google.com/maps?q=GENOA%20HEALTHCARE%20LLC%2C901%20WASHINGTON%20STREET%2C+PORTSMOUTH%2C+OH+45662
"GENOA HEALTHCARE, LLC",9220 MENTOR AVENUE,,"MENTOR, OH 44060",http://maps.google.com/maps?q=GENOA%20HEALTHCARE%20LLC%2C9220%20MENTOR%20AVENUE%2C+MENTOR%2C+OH+44060
GILLESPIE'S DRUGS,44523 MARIETTA ROAD,,"CALDWELL, OH 43724",http://maps.google.com/maps?q=GILLESPIES%20DRUGS%2C44523%20MARIETTA%20ROAD%2C+CALDWELL%2C+OH+43724
GOOD SAMARITAN HOSPITAL,375 DIXMYTH AVENUE,,"CINCINNATI, OH 45220",http://maps.google.com/maps?q=GOOD%20SAMARITAN%20HOSPITAL%2C375%20DIXMYTH%20AVENUE%2C+CINCINNATI%2C+OH+45220
HENRY FORD HEALTH CENTER - BROWNSTOWN PHARMACY,23050 WEST ROAD,,"BROWNSTOWN TOWNSHIP, MI 48183",http://maps.google.com/maps?q=HENRY%20FORD%20HEALTH%20CENTER%20%20BROWNSTOWN%20PHARMACY%2C23050%20WEST%20ROAD%2C+BROWNSTOWN%20TOWNSHIP%2C+MI+48183
HERITAGE VALLEY PHARMACY,BEAVER CAMPUS/PHARMACY DEPT,1000 DUTCH RIDGE ROAD,"BEAVER, PA 15009",http://maps.google.com/maps?q=HERITAGE%20VALLEY%20PHARMACY%2CBEAVER%20CAMPUS/PHARMACY%20DEPT%2C+BEAVER%2C+PA+15009
HERITAGE VALLEY PHARMACY SEWICKLEY CAMP,720 BLACKBURN ROAD,,"SEWICKLEY, PA 15143",http://maps.google.com/maps?q=HERITAGE%20VALLEY%20PHARMACY%20SEWICKLEY%20CAMP%2C720%20BLACKBURN%20ROAD%2C+SEWICKLEY%2C+PA+15143
"HOOK-SUPERX, L.L.C.",201 S. TILLOTSON AVENUE,,"MUNCIE, IN 47304",http://maps.google.com/maps?q=HOOKSUPERX%20LLC%2C201%20S.%20TILLOTSON%20AVENUE%2C+MUNCIE%2C+IN+47304
"HOOK-SUPERX, L.L.C.",265 SO. SCATTERFIELD RD,,"ANDERSON, IN 46012",http://maps.google.com/maps?q=HOOKSUPERX%20LLC%2C265%20SO.%20SCATTERFIELD%20RD%2C+ANDERSON%2C+IN+46012
"HOOK-SUPERX, L.L.C.",2802 EAST STATE BOULEVARD,,"FORT WAYNE, IN 46805",http://maps.google.com/maps?q=HOOKSUPERX%20LLC%2C2802%20EAST%20STATE%20BOULEVARD%2C+FORT%20WAYNE%2C+IN+46805
"HOOK-SUPERX, L.L.C.",415 W. 3RD ST.,,"MARION, IN 46952",http://maps.google.com/maps?q=HOOKSUPERX%20LLC%2C415%20W.%203RD%20ST.%2C+MARION%2C+IN+46952
HYDE DRUG STORE,112 N LIBERTY ST,,"NEW CASTLE, PA 16102",http://maps.google.com/maps?q=HYDE%20DRUG%20STORE%2C112%20N%20LIBERTY%20ST%2C+NEW%20CASTLE%2C+PA+16102
"IU HEALTH BALL MEMORIAL HOSPITAL, INC",3813 S. MADISON ST.,,"MUNCIE, IN 47302",http://maps.google.com/maps?q=IU%20HEALTH%20BALL%20MEMORIAL%20HOSPITAL%20INC%2C3813%20S.%20MADISON%20ST.%2C+MUNCIE%2C+IN+47302
"IU HEALTH BALL MEMORIAL HOSPITAL, INC.",1420 S. PILGRIM BLVD.,,"YORKTOWN, IN 47396",http://maps.google.com/maps?q=IU%20HEALTH%20BALL%20MEMORIAL%20HOSPITAL%20INC%2C1420%20S.%20PILGRIM%20BLVD.%2C+YORKTOWN%2C+IN+47396
"IU HEALTH BALL MEMORIAL HOSPITAL, INC.",2401 W. UNIVERSITY AVE.,OMP 1635,"MUNCIE, IN 47303",http://maps.google.com/maps?q=IU%20HEALTH%20BALL%20MEMORIAL%20HOSPITAL%20INC%2C2401%20W.%20UNIVERSITY%20AVE.%2C+MUNCIE%2C+IN+47303
"IU HEALTH BALL MEMORIAL HOSPITAL, INC.",400 PILGRIM BLVD.,,"HARTFORD CITY, IN 47348",http://maps.google.com/maps?q=IU%20HEALTH%20BALL%20MEMORIAL%20HOSPITAL%20INC%2C400%20PILGRIM%20BLVD.%2C+HARTFORD%20CITY%2C+IN+47348
"IU HEALTH BALL MEMORIAL HOSPITAL, INC.",5501 W. BETHEL AVE,,"MUNCIE, IN 47304",http://maps.google.com/maps?q=IU%20HEALTH%20BALL%20MEMORIAL%20HOSPITAL%20INC%2C5501%20W.%20BETHEL%20AVE%2C+MUNCIE%2C+IN+47304
JAMESTOWN PHARMACY,121 LIBERTY STREET,PO BOX 395,"JAMESTOWN, PA 16134",http://maps.google.com/maps?q=JAMESTOWN%20PHARMACY%2C121%20LIBERTY%20STREET%2C+JAMESTOWN%2C+PA+16134
JOINT TWNSHP DIST MEM'RL HOSP,PHARMACY DEPARTMENT,200 ST CLAIR STREET,"ST MARYS, OH 45885",http://maps.google.com/maps?q=JOINT%20TWNSHP%20DIST%20MEMRL%20HOSP%2CPHARMACY%20DEPARTMENT%2C+ST%20MARYS%2C+OH+45885
KENTUCKY CLINIC PHARMACY,740 SOUTH LIMESTONE STREET,J-134 KENTUCKY CLINIC,"LEXINGTON, KY 40536",http://maps.google.com/maps?q=KENTUCKY%20CLINIC%20PHARMACY%2C740%20SOUTH%20LIMESTONE%20STREET%2C+LEXINGTON%2C+KY+40536
"KENTUCKY CVS PHARMACY, L.L.C.",101 WEST SHOWALTER DRIVE,,"GEORGETOWN, KY 40324",http://maps.google.com/maps?q=KENTUCKY%20CVS%20PHARMACY%20LLC%2C101%20WEST%20SHOWALTER%20DRIVE%2C+GEORGETOWN%2C+KY+40324
"KENTUCKY CVS PHARMACY, L.L.C.",1227 US HWY 127 S,,"FRANKFORT, KY 40601",http://maps.google.com/maps?q=KENTUCKY%20CVS%20PHARMACY%20LLC%2C1227%20US%20HWY%20127%20S%2C+FRANKFORT%2C+KY+40601
"KENTUCKY CVS PHARMACY, L.L.C.",2000 HARRODSBURG ROAD,,"LEXINGTON, KY 40503",http://maps.google.com/maps?q=KENTUCKY%20CVS%20PHARMACY%20LLC%2C2000%20HARRODSBURG%20ROAD%2C+LEXINGTON%2C+KY+40503
"KENTUCKY CVS PHARMACY, L.L.C.",3097 TODDS RD.,,"LEXINGTON, KY 40509",http://maps.google.com/maps?q=KENTUCKY%20CVS%20PHARMACY%20LLC%2C3097%20TODDS%20RD.%2C+LEXINGTON%2C+KY+40509
KING'S DAUGHTERS,613 23RD STREET SUITE 110,,"ASHLAND, KY 41101",http://maps.google.com/maps?q=KINGS%20DAUGHTERS%2C613%2023RD%20STREET%20SUITE%20110%2C+ASHLAND%2C+KY+41101
LIFELINE INSTITUTIONAL PHARMACY,3699 SYMMES RD,SUITE 1,"HAMILTON, OH 45015",http://maps.google.com/maps?q=LIFELINE%20INSTITUTIONAL%20PHARMACY%2C3699%20SYMMES%20RD%2C+HAMILTON%2C+OH+45015
"MARGARET MARY COMMUNITY HOSPITAL, INC",ATTN PHARMACY,321 MITCHELL AVENUE,"BATESVILLE, IN 47006",http://maps.google.com/maps?q=MARGARET%20MARY%20COMMUNITY%20HOSPITAL%20INC%2CATTN%20PHARMACY%2C+BATESVILLE%2C+IN+47006
MERCER PHARMACY,737 GREENVILLE ROAD,,"MERCER, PA 16137",http://maps.google.com/maps?q=MERCER%20PHARMACY%2C737%20GREENVILLE%20ROAD%2C+MERCER%2C+PA+16137
MERCY HEALTH - WEST HOSPITAL,3300 MERCY HEALTH BOULEVARD,,"CINCINNATI, OH 45211",http://maps.google.com/maps?q=MERCY%20HEALTH%20%20WEST%20HOSPITAL%2C3300%20MERCY%20HEALTH%20BOULEVARD%2C+CINCINNATI%2C+OH+45211
MERCY HEALTH - WEST RETAIL PHARMACY,3300 MERCY HEALTH BOULEVARD,ATTN: PHARMACY DEPARTMENT,"CINCINNATI, OH 45211",http://maps.google.com/maps?q=MERCY%20HEALTH%20%20WEST%20RETAIL%20PHARMACY%2C3300%20MERCY%20HEALTH%20BOULEVARD%2C+CINCINNATI%2C+OH+45211
MERCY HLTH SYS WESTERN OHIO,DBA MERCY MEMORIAL HOSPITAL,904 SCIOTO STREET,"URBANA, OH 43078",http://maps.google.com/maps?q=MERCY%20HLTH%20SYS%20WESTERN%20OHIO%2CDBA%20MERCY%20MEMORIAL%20HOSPITAL%2C+URBANA%2C+OH+43078
MERCY HOSPITAL,3000 MACK ROAD,ATTENTION PHARMACY LOWER LEVEL,"FAIRFIELD, OH 45014",http://maps.google.com/maps?q=MERCY%20HOSPITAL%2C3000%20MACK%20ROAD%2C+FAIRFIELD%2C+OH+45014
MERCY HOSPITAL-ANDERSON,7500 STATE ROAD,,"CINCINNATI, OH 45255",http://maps.google.com/maps?q=MERCY%20HOSPITALANDERSON%2C7500%20STATE%20ROAD%2C+CINCINNATI%2C+OH+45255
MIAMI VALLEY HOSP,DEPT OF PHARMACY,ONE WYOMING ST,"DAYTON, OH 45409",http://maps.google.com/maps?q=MIAMI%20VALLEY%20HOSP%2CDEPT%20OF%20PHARMACY%2C+DAYTON%2C+OH+45409
MIAMI VALLEY HOSPITAL SOUTH,2400 MIAMI VALLEY DR,,"CENTERVILLE, OH 45459",http://maps.google.com/maps?q=MIAMI%20VALLEY%20HOSPITAL%20SOUTH%2C2400%20MIAMI%20VALLEY%20DR%2C+CENTERVILLE%2C+OH+45459
MOUNDSVILLE PHARMACY,118 NORTH LAFAYETTE AVENUE,,"MOUNDSVILLE, WV 26041",http://maps.google.com/maps?q=MOUNDSVILLE%20PHARMACY%2C118%20NORTH%20LAFAYETTE%20AVENUE%2C+MOUNDSVILLE%2C+WV+26041
MULLANEY'S LTC PHARMACY,6096 MONTGOMERY RD SUITE B,,"CINCINNATI, OH 45213",http://maps.google.com/maps?q=MULLANEYS%20LTC%20PHARMACY%2C6096%20MONTGOMERY%20RD%20SUITE%20B%2C+CINCINNATI%2C+OH+45213
NORTHCOAST BEHAVIORAL,PHARMACY DEPARTMENT,1756 SAGAMORE ROAD,"NORTHFIELD, OH 44067",http://maps.google.com/maps?q=NORTHCOAST%20BEHAVIORAL%2CPHARMACY%20DEPARTMENT%2C+NORTHFIELD%2C+OH+44067
NORTHSIDE CAMBRIDGE PHARMACY,1300 CLARK STREET,SUITE 4,"CAMBRIDGE, OH 43725",http://maps.google.com/maps?q=NORTHSIDE%20CAMBRIDGE%20PHARMACY%2C1300%20CLARK%20STREET%2C+CAMBRIDGE%2C+OH+43725
NORTHSIDE HEALTH CENTER,CINCINNATI HEALTH DEPARTMENT,3917 SPRING GROVE AVE,"CINCINNATI, OH 45223",http://maps.google.com/maps?q=NORTHSIDE%20HEALTH%20CENTER%2CCINCINNATI%20HEALTH%20DEPARTMENT%2C+CINCINNATI%2C+OH+45223
NORTHSIDE PHARMACY,2899 BELL STREET,,"ZANESVILLE, OH 43701",http://maps.google.com/maps?q=NORTHSIDE%20PHARMACY%2C2899%20BELL%20STREET%2C+ZANESVILLE%2C+OH+43701
NORTHSIDE SOMERSET PHARMACY,110 WEST MAIN STREET,,"SOMERSET, OH 43783",http://maps.google.com/maps?q=NORTHSIDE%20SOMERSET%20PHARMACY%2C110%20WEST%20MAIN%20STREET%2C+SOMERSET%2C+OH+43783
NORTHWEST OHIO PSYCHIATRIC HOSPITAL,930 SOUTH DETROIT AVENUE,,"TOLEDO, OH 43614",http://maps.google.com/maps?q=NORTHWEST%20OHIO%20PSYCHIATRIC%20HOSPITAL%2C930%20SOUTH%20DETROIT%20AVENUE%2C+TOLEDO%2C+OH+43614
"OHIO CVS STORES, L.L.C.",100 E. MAIN ST.,,"WOODVILLE, OH 43469",http://maps.google.com/maps?q=OHIO%20CVS%20STORES%20LLC%2C100%20E.%20MAIN%20ST.%2C+WOODVILLE%2C+OH+43469
"OHIO CVS STORES, L.L.C.",1100 HILL RD. N,,"PICKERINGTON, OH 43147",http://maps.google.com/maps?q=OHIO%20CVS%20STORES%20LLC%2C1100%20HILL%20RD.%20N%2C+PICKERINGTON%2C+OH+43147
"OHIO CVS STORES, L.L.C.",111 SOUTH MEMORIAL DRIVE,,"LANCASTER, OH 43130",http://maps.google.com/maps?q=OHIO%20CVS%20STORES%20LLC%2C111%20SOUTH%20MEMORIAL%20DRIVE%2C+LANCASTER%2C+OH+43130
"OHIO CVS STORES, L.L.C.",11223 GRANGER RD.,,"GARFIELD HEIGHTS, OH 44125",http://maps.google.com/maps?q=OHIO%20CVS%20STORES%20LLC%2C11223%20GRANGER%20RD.%2C+GARFIELD%20HEIGHTS%2C+OH+44125
"OHIO CVS STORES, L.L.C.",11706 CLIFTON BOULEVARD,,"LAKEWOOD, OH 44107",http://maps.google.com/maps?q=OHIO%20CVS%20STORES%20LLC%2C11706%20CLIFTON%20BOULEVARD%2C+LAKEWOOD%2C+OH+44107
"OHIO CVS STORES, L.L.C.",1331 NORTH FAIRFIELD ROAD,,"BEAVERCREEK, OH 45432",http://maps.google.com/maps?q=OHIO%20CVS%20STORES%20LLC%2C1331%20NORTH%20FAIRFIELD%20ROAD%2C+BEAVERCREEK%2C+OH+45432
"OHIO CVS STORES, L.L.C.",17 WILLIAM H. TAFT RD.,,"CINCINNATI, OH 45219",http://maps.google.com/maps?q=OHIO%20CVS%20STORES%20LLC%2C17%20WILLIAM%20H.%20TAFT%20RD.%2C+CINCINNATI%2C+OH+45219
"OHIO CVS STORES, L.L.C.",2007 BROOKPARK ROAD,,"CLEVELAND, OH 44109",http://maps.google.com/maps?q=OHIO%20CVS%20STORES%20LLC%2C2007%20BROOKPARK%20ROAD%2C+CLEVELAND%2C+OH+44109
"OHIO CVS STORES, L.L.C.",21 GRANT ST.,,"DENNISON, OH 44621",http://maps.google.com/maps?q=OHIO%20CVS%20STORES%20LLC%2C21%20GRANT%20ST.%2C+DENNISON%2C+OH+44621
"OHIO CVS STORES, L.L.C.",210 EAST EMMITT AVE.,,"WAVERLY, OH 45690",http://maps.google.com/maps?q=OHIO%20CVS%20STORES%20LLC%2C210%20EAST%20EMMITT%20AVE.%2C+WAVERLY%2C+OH+45690
"OHIO CVS STORES, L.L.C.",212 WEST BAGLEY ROAD,,"BEREA, OH 44017",http://maps.google.com/maps?q=OHIO%20CVS%20STORES%20LLC%2C212%20WEST%20BAGLEY%20ROAD%2C+BEREA%2C+OH+44017
"OHIO CVS STORES, L.L.C.",22001 LAKESHORE BLVD,,"EUCLID, OH 44123",http://maps.google.com/maps?q=OHIO%20CVS%20STORES%20LLC%2C22001%20LAKESHORE%20BLVD%2C+EUCLID%2C+OH+44123
"OHIO CVS STORES, L.L.C.",2210 TUSCARAWAS ST. W,,"CANTON, OH 44708",http://maps.google.com/maps?q=OHIO%20CVS%20STORES%20LLC%2C2210%20TUSCARAWAS%20ST.%20W%2C+CANTON%2C+OH+44708
"OHIO CVS STORES, L.L.C.",28 N. BROOKWOOD AVE.,,"HAMILTON, OH 45013",http://maps.google.com/maps?q=OHIO%20CVS%20STORES%20LLC%2C28%20N.%20BROOKWOOD%20AVE.%2C+HAMILTON%2C+OH+45013
"OHIO CVS STORES, L.L.C.",2846 MAHONING AVE,,"YOUNGSTOWN, OH 44509",http://maps.google.com/maps?q=OHIO%20CVS%20STORES%20LLC%2C2846%20MAHONING%20AVE%2C+YOUNGSTOWN%2C+OH+44509
"OHIO CVS STORES, L.L.C.",2987 DERR RD.,,"SPRINGFIELD, OH 45503",http://maps.google.com/maps?q=OHIO%20CVS%20STORES%20LLC%2C2987%20DERR%20RD.%2C+SPRINGFIELD%2C+OH+45503
"OHIO CVS STORES, L.L.C.",3728 PEARL RD,,"CLEVELAND, OH 44109",http://maps.google.com/maps?q=OHIO%20CVS%20STORES%20LLC%2C3728%20PEARL%20RD%2C+CLEVELAND%2C+OH+44109
"OHIO CVS STORES, L.L.C.",3920 LINDEN AVE.,,"DAYTON, OH 45432",http://maps.google.com/maps?q=OHIO%20CVS%20STORES%20LLC%2C3920%20LINDEN%20AVE.%2C+DAYTON%2C+OH+45432
"OHIO CVS STORES, L.L.C.",4121 MONROE STREET,,"TOLEDO, OH 43606",http://maps.google.com/maps?q=OHIO%20CVS%20STORES%20LLC%2C4121%20MONROE%20STREET%2C+TOLEDO%2C+OH+43606
"OHIO CVS STORES, L.L.C.",4548 E. MAIN ST.,,"WHITEHALL, OH 43213",http://maps.google.com/maps?q=OHIO%20CVS%20STORES%20LLC%2C4548%20E.%20MAIN%20ST.%2C+WHITEHALL%2C+OH+43213
"OHIO CVS STORES, L.L.C.",4801 W. BROAD ST.,,"COLUMBUS, OH 43228",http://maps.google.com/maps?q=OHIO%20CVS%20STORES%20LLC%2C4801%20W.%20BROAD%20ST.%2C+COLUMBUS%2C+OH+43228
"OHIO CVS STORES, L.L.C.",5812 RIDGE ROAD,,"PARMA, OH 44129",http://maps.google.com/maps?q=OHIO%20CVS%20STORES%20LLC%2C5812%20RIDGE%20ROAD%2C+PARMA%2C+OH+44129
"OHIO CVS STORES, L.L.C.",590 EAST MARKET STREET,,"AKRON, OH 44304",http://maps.google.com/maps?q=OHIO%20CVS%20STORES%20LLC%2C590%20EAST%20MARKET%20STREET%2C+AKRON%2C+OH+44304
"OHIO CVS STORES, L.L.C.",6005 SOM CENTER RD.,,"WILLOUGHBY, OH 44094",http://maps.google.com/maps?q=OHIO%20CVS%20STORES%20LLC%2C6005%20SOM%20CENTER%20RD.%2C+WILLOUGHBY%2C+OH+44094
"OHIO CVS STORES, L.L.C.",620 S. CLEVELAND AVE.,,"WESTERVILLE, OH 43081",http://maps.google.com/maps?q=OHIO%20CVS%20STORES%20LLC%2C620%20S.%20CLEVELAND%20AVE.%2C+WESTERVILLE%2C+OH+43081
"OHIO CVS STORES, L.L.C.",7217 CINCINNATI-DAYTON ROAD,,"WEST CHESTER, OH 45069",http://maps.google.com/maps?q=OHIO%20CVS%20STORES%20LLC%2C7217%20CINCINNATI-DAYTON%20ROAD%2C+WEST%20CHESTER%2C+OH+45069
"OHIO CVS STORES, L.L.C.",7470 SAWMILL RD.,,"DUBLIN, OH 43016",http://maps.google.com/maps?q=OHIO%20CVS%20STORES%20LLC%2C7470%20SAWMILL%20RD.%2C+DUBLIN%2C+OH+43016
"OHIO CVS STORES, L.L.C.",820 S BREIEL BLVD,,"MIDDLETOWN, OH 45044",http://maps.google.com/maps?q=OHIO%20CVS%20STORES%20LLC%2C820%20S%20BREIEL%20BLVD%2C+MIDDLETOWN%2C+OH+45044
OHIOGUIDESTONE PHARMACY,3500 CARNEGIE AVENUE,,"CLEVELAND, OH 44115",http://maps.google.com/maps?q=OHIOGUIDESTONE%20PHARMACY%2C3500%20CARNEGIE%20AVENUE%2C+CLEVELAND%2C+OH+44115
"PCA-CORRECTIONS, LLC DBA CHOICE PHARMACY",4014 VENTURE COURT,,"COLUMBUS, OH 43228",http://maps.google.com/maps?q=PCACORRECTIONS%20LLC%20DBA%20CHOICE%20PHARMACY%2C4014%20VENTURE%20COURT%2C+COLUMBUS%2C+OH+43228
"PENNSYLVANIA CVS PHARMACY, L.L.C.",1740 WASHINGTON RD,,"PITTSBURGH, PA 15241",http://maps.google.com/maps?q=PENNSYLVANIA%20CVS%20PHARMACY%20LLC%2C1740%20WASHINGTON%20RD%2C+PITTSBURGH%2C+PA+15241
PROMEDICA DEFIANCE REGIONAL HOSPITAL,1200 RALSTON AVENUE,,"DEFIANCE, OH 43512",http://maps.google.com/maps?q=PROMEDICA%20DEFIANCE%20REGIONAL%20HOSPITAL%2C1200%20RALSTON%20AVENUE%2C+DEFIANCE%2C+OH+43512
PROMEDICA MEMORIAL HOSPITAL,PHARMACY,715 SOUTH TAFT AVE,"FREMONT, OH 43420",http://maps.google.com/maps?q=PROMEDICA%20MEMORIAL%20HOSPITAL%2CPHARMACY%2C+FREMONT%2C+OH+43420
RUSH MEMORIAL HOSPITAL,1300 N. MAIN STREET,PO BOX 608,"RUSHVILLE, IN 46173",http://maps.google.com/maps?q=RUSH%20MEMORIAL%20HOSPITAL%2C1300%20N.%20MAIN%20STREET%2C+RUSHVILLE%2C+IN+46173
SAMARITAN NORTH HEALTH CENTER,9000 NORTH MAIN STREET,,"DAYTON, OH 45415",http://maps.google.com/maps?q=SAMARITAN%20NORTH%20HEALTH%20CENTER%2C9000%20NORTH%20MAIN%20STREET%2C+DAYTON%2C+OH+45415
"SBW PHARMACY, INC",3676 N. HERMITAGE RD.,P.O. BOX 103,"TRANSFER, PA 16154",http://maps.google.com/maps?q=SBW%20PHARMACY%20INC%2C3676%20N.%20HERMITAGE%20RD.%2C+TRANSFER%2C+PA+16154
SHARON PHARMACY,63 PITT STREET,SUITE 102,"SHARON, PA 16146",http://maps.google.com/maps?q=SHARON%20PHARMACY%2C63%20PITT%20STREET%2C+SHARON%2C+PA+16146
SIGNATURE HEALTH,38882 MENTOR AVE,,"WILLOUGHBY, OH 44094",http://maps.google.com/maps?q=SIGNATURE%20HEALTH%2C38882%20MENTOR%20AVE%2C+WILLOUGHBY%2C+OH+44094
SIGNATURE HEALTH INCORPORATED PHARMACY,21100 SOUTHGATE PARK BLVD,,"MAPLE HEIGHTS, OH 44137",http://maps.google.com/maps?q=SIGNATURE%20HEALTH%20INCORPORATED%20PHARMACY%2C21100%20SOUTHGATE%20PARK%20BLVD%2C+MAPLE%20HEIGHTS%2C+OH+44137
SPRINGFIELD REGIONAL MEDICAL CENTER,100 MEDICAL CENTER DRIVE,,"SPRINGFIELD, OH 45504",http://maps.google.com/maps?q=SPRINGFIELD%20REGIONAL%20MEDICAL%20CENTER%2C100%20MEDICAL%20CENTER%20DRIVE%2C+SPRINGFIELD%2C+OH+45504
ST CLAIRE MEDICAL CENTER INC - RETAIL,222 MEDICAL CIRCLE,,"MOREHEAD, KY 40351",http://maps.google.com/maps?q=ST%20CLAIRE%20MEDICAL%20CENTER%20INC%20%20RETAIL%2C222%20MEDICAL%20CIRCLE%2C+MOREHEAD%2C+KY+40351
ST RITA'S MEDICAL CENTER,730 W MARKET ST,,"LIMA, OH 45801",http://maps.google.com/maps?q=ST%20RITAS%20MEDICAL%20CENTER%2C730%20W%20MARKET%20ST%2C+LIMA%2C+OH+45801
ST VINCENT JENNINGS HOSPITAL,301 HENRY STREET,,"NORTH VERNON, IN 47265",http://maps.google.com/maps?q=ST%20VINCENT%20JENNINGS%20HOSPITAL%2C301%20HENRY%20STREET%2C+NORTH%20VERNON%2C+IN+47265
ST. ELIZABETH BOARDMAN HOSPITAL,8401 MARKET STREET,,"BOARDMAN, OH 44512",http://maps.google.com/maps?q=ST%20ELIZABETH%20BOARDMAN%20HOSPITAL%2C8401%20MARKET%20STREET%2C+BOARDMAN%2C+OH+44512
ST. ELIZABETH YOUNGSTOWN HOSPITAL,1044 BELMONT AVENUE,2ND FLOOR,"YOUNGSTOWN, OH 44501",http://maps.google.com/maps?q=ST%20ELIZABETH%20YOUNGSTOWN%20HOSPITAL%2C1044%20BELMONT%20AVENUE%2C+YOUNGSTOWN%2C+OH+44501
ST. JOSEPH WARREN HOSPITAL,ATTN: PHARMACY DEPARTMENT,"667 EASTLAND AVENUE, SE","WARREN, OH 44484",http://maps.google.com/maps?q=ST%20JOSEPH%20WARREN%20HOSPITAL%2CATTN%3A%20PHARMACY%20DEPARTMENT%2C+WARREN%2C+OH+44484
THE JEWISH HOSPITAL,4777 E. GALBRAITH ROAD,,"CINCINNATI, OH 45236",http://maps.google.com/maps?q=THE%20JEWISH%20HOSPITAL%2C4777%20E.%20GALBRAITH%20ROAD%2C+CINCINNATI%2C+OH+45236
THE MEDICINE SHOPPE,1740 EAST STATE STREET,,"HERMITAGE, PA 16148",http://maps.google.com/maps?q=THE%20MEDICINE%20SHOPPE%2C1740%20EAST%20STATE%20STREET%2C+HERMITAGE%2C+PA+16148
THE MEDICINE SHOPPE,419 SOUTH MAIN ST,,"GREENVILLE, PA 16125",http://maps.google.com/maps?q=THE%20MEDICINE%20SHOPPE%2C419%20SOUTH%20MAIN%20ST%2C+GREENVILLE%2C+PA+16125
THE MEDICINE SHOPPE #1929,315 SOUTH ERIE STREET,SUITE A,"MERCER, PA 16137",http://maps.google.com/maps?q=THE%20MEDICINE%20SHOPPE%2C315%20SOUTH%20ERIE%20STREET%2C+MERCER%2C+PA+16137
THE OHIO STATE UNIVERSITY OUTPATIENT PHARMACY  - J,460 W 10TH AVE,ROOM L012,"COLUMBUS, OH 43210",http://maps.google.com/maps?q=THE%20OHIO%20STATE%20UNIVERSITY%20OUTPATIENT%20PHARMACY%20%20%20J%2C460%20W%2010TH%20AVE%2C+COLUMBUS%2C+OH+43210
TOLEDO HOSPITAL,ATTENTION DEPT OF PHARMACY,2142 NORTH COVE BLVD,"TOLEDO, OH 43606",http://maps.google.com/maps?q=TOLEDO%20HOSPITAL%2CATTENTION%20DEPT%20OF%20PHARMACY%2C+TOLEDO%2C+OH+43606
TOWN DRUG,12459 E US ROUTE 22/3,,"SABINA, OH 45169",http://maps.google.com/maps?q=TOWN%20DRUG%2C12459%20E%20US%20ROUTE%2022/3%2C+SABINA%2C+OH+45169
TRI-STATE PHARMACY,"JOHN J. BERNABEI, RPH",651 COLLIERS WAY SUITE 204,"WEIRTON, WV 26062",http://maps.google.com/maps?q=TRISTATE%20PHARMACY%2CJOHN%20J.%20BERNABEI%2C%20RPH%2C+WEIRTON%2C+WV+26062
UK PHARMACY SERVICES - TURFLAND,2195 HARRODSBURG RD,,"LEXINGTON, KY 40504",http://maps.google.com/maps?q=UK%20PHARMACY%20SERVICES%20%20TURFLAND%2C2195%20HARRODSBURG%20RD%2C+LEXINGTON%2C+KY+40504
UNIVERSITY OF KENTUCKY,830 SOUTH LIMESTONE STREET,,"LEXINGTON, KY 40536",http://maps.google.com/maps?q=UNIVERSITY%20OF%20KENTUCKY%2C830%20SOUTH%20LIMESTONE%20STREET%2C+LEXINGTON%2C+KY+40536
UNIVERSITY OF KENTUCKY - GOOD SAMARITAN RETAIL,310 SOUTH LIMESTONE STREET,,"LEXINGTON, KY 40508",http://maps.google.com/maps?q=UNIVERSITY%20OF%20KENTUCKY%20%20GOOD%20SAMARITAN%20RETAIL%2C310%20SOUTH%20LIMESTONE%20STREET%2C+LEXINGTON%2C+KY+40508
UNIVERSITY OF KENTUCKY CHANDLER RETAIL PHARMACY,1000 SOUTH LIMESTONE STREET,RM A.01.114,"LEXINGTON, KY 40536",http://maps.google.com/maps?q=UNIVERSITY%20OF%20KENTUCKY%20CHANDLER%20RETAIL%20PHARMACY%2C1000%20SOUTH%20LIMESTONE%20STREET%2C+LEXINGTON%2C+KY+40536
UPPER VALLEY MEDICAL CENTER,3130 N COUNTY ROAD 25A,,"TROY, OH 45373",http://maps.google.com/maps?q=UPPER%20VALLEY%20MEDICAL%20CENTER%2C3130%20N%20COUNTY%20ROAD%2025A%2C+TROY%2C+OH+45373
USAF- WRIGHT PATTERSON AFB,88MDSS/SGSM,4881 SUGAR MAPLE DR,"WRIGHT PATTERSON, OH 45433",http://maps.google.com/maps?q=USAF%20WRIGHT%20PATTERSON%20AFB%2C88MDSS/SGSM%2C+WRIGHT%20PATTERSON%2C+OH+45433
VA MEDICAL CENTER,2250 LEESTOWN ROAD,,"LEXINGTON, KY 40511",http://maps.google.com/maps?q=VA%20MEDICAL%20CENTER%2C2250%20LEESTOWN%20ROAD%2C+LEXINGTON%2C+KY+40511
VANTAGE CARE APOTHECARY,1305 SOUTH MAIN STREET,US ROUTE 322,"MEADVILLE, PA 16335",http://maps.google.com/maps?q=VANTAGE%20CARE%20APOTHECARY%2C1305%20SOUTH%20MAIN%20STREET%2C+MEADVILLE%2C+PA+16335
VETERANS ADMIN OUTPATIENT,1200 SOUTH DETROIT AVENUE,PHARMACY 119,"TOLEDO, OH 43614",http://maps.google.com/maps?q=VETERANS%20ADMIN%20OUTPATIENT%2C1200%20SOUTH%20DETROIT%20AVENUE%2C+TOLEDO%2C+OH+43614
WALGREEN CO.,100 CLEVELAND ST,,"ELYRIA, OH 44035",http://maps.google.com/maps?q=WALGREEN%20CO%2C100%20CLEVELAND%20ST%2C+ELYRIA%2C+OH+44035
WALGREEN CO.,1032 HARRISON AVE,,"HARRISON, OH 45030",http://maps.google.com/maps?q=WALGREEN%20CO%2C1032%20HARRISON%20AVE%2C+HARRISON%2C+OH+45030
WALGREEN CO.,1090 HIGH ST,,"HAMILTON, OH 45011",http://maps.google.com/maps?q=WALGREEN%20CO%2C1090%20HIGH%20ST%2C+HAMILTON%2C+OH+45011
WALGREEN CO.,11701 DETROIT AVE,,"LAKEWOOD, OH 44107",http://maps.google.com/maps?q=WALGREEN%20CO%2C11701%20DETROIT%20AVE%2C+LAKEWOOD%2C+OH+44107
WALGREEN CO.,1260 E CENTRAL,,"MIAMISBURG, OH 45342",http://maps.google.com/maps?q=WALGREEN%20CO%2C1260%20E%20CENTRAL%2C+MIAMISBURG%2C+OH+45342
WALGREEN CO.,1321 DELAWARE AVE.,,"MARION, OH 43302",http://maps.google.com/maps?q=WALGREEN%20CO%2C1321%20DELAWARE%20AVE.%2C+MARION%2C+OH+43302
WALGREEN CO.,16803 LORAIN AVE,,"CLEVELAND, OH 44111",http://maps.google.com/maps?q=WALGREEN%20CO%2C16803%20LORAIN%20AVE%2C+CLEVELAND%2C+OH+44111
WALGREEN CO.,2001 HARRODSBURG RD,,"LEXINGTON, KY 40504",http://maps.google.com/maps?q=WALGREEN%20CO%2C2001%20HARRODSBURG%20RD%2C+LEXINGTON%2C+KY+40504
WALGREEN CO.,2012 S UNION,,"ALLIANCE, OH 44601",http://maps.google.com/maps?q=WALGREEN%20CO%2C2012%20S%20UNION%2C+ALLIANCE%2C+OH+44601
WALGREEN CO.,2150 E DUBLIN GRANVILLE ROAD,,"COLUMBUS, OH 43229",http://maps.google.com/maps?q=WALGREEN%20CO%2C2150%20E%20DUBLIN%20GRANVILLE%20ROAD%2C+COLUMBUS%2C+OH+43229
WALGREEN CO.,22401 LAKE SHORE BLVD,,"EUCLID, OH 44123",http://maps.google.com/maps?q=WALGREEN%20CO%2C22401%20LAKE%20SHORE%20BLVD%2C+EUCLID%2C+OH+44123
WALGREEN CO.,2320 BOUDINOT AVE.,,"CINCINNATI, OH 45238",http://maps.google.com/maps?q=WALGREEN%20CO%2C2320%20BOUDINOT%20AVE.%2C+CINCINNATI%2C+OH+45238
WALGREEN CO.,2645 STATE RD,,"CUYAHOGA FALLS, OH 44223",http://maps.google.com/maps?q=WALGREEN%20CO%2C2645%20STATE%20RD%2C+CUYAHOGA%20FALLS%2C+OH+44223
WALGREEN CO.,2710 SALEM AVE.,,"DAYTON, OH 45406",http://maps.google.com/maps?q=WALGREEN%20CO%2C2710%20SALEM%20AVE.%2C+DAYTON%2C+OH+45406
WALGREEN CO.,2720 W JACKSON,,"MUNCIE, IN 47303",http://maps.google.com/maps?q=WALGREEN%20CO%2C2720%20W%20JACKSON%2C+MUNCIE%2C+IN+47303
WALGREEN CO.,3 W CORRY STREET,,"CINCINNATI, OH 45219",http://maps.google.com/maps?q=WALGREEN%20CO%2C3%20W%20CORRY%20STREET%2C+CINCINNATI%2C+OH+45219
WALGREEN CO.,385 NORTHLAND BLVD,,"CINCINNATI, OH 45240",http://maps.google.com/maps?q=WALGREEN%20CO%2C385%20NORTHLAND%20BLVD%2C+CINCINNATI%2C+OH+45240
WALGREEN CO.,4090 E GALBRAITH RD,,"DEER PARK, OH 45236",http://maps.google.com/maps?q=WALGREEN%20CO%2C4090%20E%20GALBRAITH%20RD%2C+DEER%20PARK%2C+OH+45236
WALGREEN CO.,4580 MONROE ST,,"TOLEDO, OH 43613",http://maps.google.com/maps?q=WALGREEN%20CO%2C4580%20MONROE%20ST%2C+TOLEDO%2C+OH+43613
WALGREEN CO.,4605 MONTGOMERY ROAD,,"NORWOOD, OH 45212",http://maps.google.com/maps?q=WALGREEN%20CO%2C4605%20MONTGOMERY%20ROAD%2C+NORWOOD%2C+OH+45212
WALGREEN CO.,5122 WEST TUSCARAWAS ST,,"CANTON, OH 44708",http://maps.google.com/maps?q=WALGREEN%20CO%2C5122%20WEST%20TUSCARAWAS%20ST%2C+CANTON%2C+OH+44708
WALGREEN CO.,5400 PEARL ROAD,,"PARMA, OH 44129",http://maps.google.com/maps?q=WALGREEN%20CO%2C5400%20PEARL%20ROAD%2C+PARMA%2C+OH+44129
WALGREEN CO.,5403 N. BEND ROAD,,"CINCINNATI, OH 45247",http://maps.google.com/maps?q=WALGREEN%20CO%2C5403%20N.%20BEND%20ROAD%2C+CINCINNATI%2C+OH+45247
WALGREEN CO.,5411 LEAVITT ROAD,,"LORAIN, OH 44053",http://maps.google.com/maps?q=WALGREEN%20CO%2C5411%20LEAVITT%20ROAD%2C+LORAIN%2C+OH+44053
WALGREEN CO.,5690 W BROAD STREET,,"GALLOWAY, OH 43119",http://maps.google.com/maps?q=WALGREEN%20CO%2C5690%20W%20BROAD%20STREET%2C+GALLOWAY%2C+OH+43119
WALGREEN CO.,5881 SOM CENTER RD.,,"WILLOUGHBY, OH 44094",http://maps.google.com/maps?q=WALGREEN%20CO%2C5881%20SOM%20CENTER%20RD.%2C+WILLOUGHBY%2C+OH+44094
WALGREEN CO.,6201 STELLHORN ROAD,,"FT WAYNE, IN 46815",http://maps.google.com/maps?q=WALGREEN%20CO%2C6201%20STELLHORN%20ROAD%2C+FT%20WAYNE%2C+IN+46815
WALGREEN CO.,6202 WEST JEFFERSON BLVD,,"FT WAYNE, IN 46804",http://maps.google.com/maps?q=WALGREEN%20CO%2C6202%20WEST%20JEFFERSON%20BLVD%2C+FT%20WAYNE%2C+IN+46804
WALGREEN CO.,6410 BROADWAY AVENUE,,"CLEVELAND, OH 44105",http://maps.google.com/maps?q=WALGREEN%20CO%2C6410%20BROADWAY%20AVENUE%2C+CLEVELAND%2C+OH+44105
WALGREEN CO.,6918 HAMILTON AVE.,,"CINCINNATI, OH 45231",http://maps.google.com/maps?q=WALGREEN%20CO%2C6918%20HAMILTON%20AVE.%2C+CINCINNATI%2C+OH+45231
WALGREEN CO.,700 S BREIEL BLVD,,"MIDDLETOWN, OH 45044",http://maps.google.com/maps?q=WALGREEN%20CO%2C700%20S%20BREIEL%20BLVD%2C+MIDDLETOWN%2C+OH+45044
WALGREEN CO.,701 N CABLE ROAD,,"LIMA, OH 45805",http://maps.google.com/maps?q=WALGREEN%20CO%2C701%20N%20CABLE%20ROAD%2C+LIMA%2C+OH+45805
WALGREEN CO.,7295 MARKET ST.,,"BOARDMAN, OH 44512",http://maps.google.com/maps?q=WALGREEN%20CO%2C7295%20MARKET%20ST.%2C+BOARDMAN%2C+OH+44512
WALGREEN CO.,8193 MALL ROAD,,"FLORENCE, KY 41042",http://maps.google.com/maps?q=WALGREEN%20CO%2C8193%20MALL%20ROAD%2C+FLORENCE%2C+KY+41042
WALGREEN CO.,850 NORTH BRIDGE STREET,,"CHILLICOTHE, OH 45601",http://maps.google.com/maps?q=WALGREEN%20CO%2C850%20NORTH%20BRIDGE%20STREET%2C+CHILLICOTHE%2C+OH+45601
WALGREEN CO.,859 E MAIN ST,,"LANCASTER, OH 43130",http://maps.google.com/maps?q=WALGREEN%20CO%2C859%20E%20MAIN%20ST%2C+LANCASTER%2C+OH+43130
WALGREEN CO.,9775 COLERAIN AVENUE,,"CINCINNATI, OH 45251",http://maps.google.com/maps?q=WALGREEN%20CO%2C9775%20COLERAIN%20AVENUE%2C+CINCINNATI%2C+OH+45251
WEST GRANGE PHARMACY LLC,3390 WEST ROAD,,"TRENTON, MI 48183",http://maps.google.com/maps?q=WEST%20GRANGE%20PHARMACY%20LLC%2C3390%20WEST%20ROAD%2C+TRENTON%2C+MI+48183
WITSCHEY'SPHARMACY,155 NORTH STREET,,"NEW MARTINSVILLE, WV 26155",http://maps.google.com/maps?q=WITSCHEYSPHARMACY%2C155%20NORTH%20STREET%2C+NEW%20MARTINSVILLE%2C+WV+26155
