Business Name,Address 1,Address 2,"City, State Zip",Map URL
ALTRU CLINIC PHARMACY - FAMILY MED CTR INC,1380 COLUMBIA RD S,,"GRAND FORKS, ND 58201",http://maps.google.com/maps?q=ALTRU%20CLINIC%20PHARMACY%20%20FAMILY%20MED%20CTR%20INC%2C1380%20COLUMBIA%20RD%20S%2C+GRAND%20FORKS%2C+ND+58201
ALTRU HEALTH SYSTEM,1200 SOUTH COLUMBIA ROAD,,"GRAND FORKS, ND 58201",http://maps.google.com/maps?q=ALTRU%20HEALTH%20SYSTEM%2C1200%20SOUTH%20COLUMBIA%20ROAD%2C+GRAND%20FORKS%2C+ND+58201
"AMERIPHARM, INC",2503 E 54TH ST. N,,"SIOUX FALLS, SD 57104",http://maps.google.com/maps?q=AMERIPHARM%20INC%2C2503%20E%2054TH%20ST.%20N%2C+SIOUX%20FALLS%2C+SD+57104
APOTHECARY SOLUTIONS LLC,207 EAST MAIN STREET,,"REMINGTON, VA 22734",http://maps.google.com/maps?q=APOTHECARY%20SOLUTIONS%20LLC%2C207%20EAST%20MAIN%20STREET%2C+REMINGTON%2C+VA+22734
ARMED FORCES RETIREMENT HOME,"3700 NORTH CAPITOL ST, NW","SHERMAN BLDG, ROOM 103","WASHINGTON, DC 20011",http://maps.google.com/maps?q=ARMED%20FORCES%20RETIREMENT%20HOME%2C3700%20NORTH%20CAPITOL%20ST%2C%20NW%2C+WASHINGTON%2C+DC+20011
AVERA ST MARY'S HOSPITAL,801 E SIOUX AVE,,"PIERRE, SD 57501",http://maps.google.com/maps?q=AVERA%20ST%20MARYS%20HOSPITAL%2C801%20E%20SIOUX%20AVE%2C+PIERRE%2C+SD+57501
BELAIR MEDICINES INC,1911 BEL AIR RD,,"FALLSTON, MD 21047",http://maps.google.com/maps?q=BELAIR%20MEDICINES%20INC%2C1911%20BEL%20AIR%20RD%2C+FALLSTON%2C+MD+21047
BOOTH PHARMACY INC,903 CENTRAL AVENUE,PO BOX 233,"HAWARDEN, IA 51023",http://maps.google.com/maps?q=BOOTH%20PHARMACY%20INC%2C903%20CENTRAL%20AVENUE%2C+HAWARDEN%2C+IA+51023
BUDGET DRUG,"2015 LIBRARY CIRCLE, #102",,"GRAND FORKS, ND 58201",http://maps.google.com/maps?q=BUDGET%20DRUG%2C2015%20LIBRARY%20CIRCLE%2C%20#102%2C+GRAND%20FORKS%2C+ND+58201
CORNER DRUG STORE OF WAHPETON INC,619 DAKOTA AVENUE,,"WAHPETON, ND 58075",http://maps.google.com/maps?q=CORNER%20DRUG%20STORE%20OF%20WAHPETON%20INC%2C619%20DAKOTA%20AVENUE%2C+WAHPETON%2C+ND+58075
CORNWELL DRUG,P. O. BOX 490,701 MAIN STREET,"WEBSTER, SD 57274",http://maps.google.com/maps?q=CORNWELL%20DRUG%2CP.%20O.%20BOX%20490%2C+WEBSTER%2C+SD+57274
COTEAU DES PRAIRIES HOSPITAL,205 ORCHARD DRIVE,,"SISSETON, SD 57262",http://maps.google.com/maps?q=COTEAU%20DES%20PRAIRIES%20HOSPITAL%2C205%20ORCHARD%20DRIVE%2C+SISSETON%2C+SD+57262
DAKOTA CLINIC PHARMACY,1702 SOUTH UNIVERSITY DR,,"FARGO, ND 58103",http://maps.google.com/maps?q=DAKOTA%20CLINIC%20PHARMACY%2C1702%20SOUTH%20UNIVERSITY%20DR%2C+FARGO%2C+ND+58103
DAKOTA CLINIC PHARMACY ON 32 AVENUE,3000 32 AVENUE S,,"FARGO, ND 58103",http://maps.google.com/maps?q=DAKOTA%20CLINIC%20PHARMACY%20ON%20%20AVENUE%2C3000%2032%20AVENUE%20S%2C+FARGO%2C+ND+58103
DAKOTA MART INC,120 WEST SIOUX AVENUE,PO BOX 1158,"PIERRE, SD 57501",http://maps.google.com/maps?q=DAKOTA%20MART%20INC%2C120%20WEST%20SIOUX%20AVENUE%2C+PIERRE%2C+SD+57501
"DISTRICT OF COLUMBIA CVS PHARMACY, L.L.C.",320 40TH STREET NE,,"WASHINGTON, DC 20019",http://maps.google.com/maps?q=DISTRICT%20OF%20COLUMBIA%20CVS%20PHARMACY%20LLC%2C320%2040TH%20STREET%20NE%2C+WASHINGTON%2C+DC+20019
"DISTRICT OF COLUMBIA CVS PHARMACY, L.L.C.",6-7 DUPONT CIRCLE NW,,"WASHINGTON, DC 20036",http://maps.google.com/maps?q=DISTRICT%20OF%20COLUMBIA%20CVS%20PHARMACY%20LLC%2C6-7%20DUPONT%20CIRCLE%20NW%2C+WASHINGTON%2C+DC+20036
"DISTRICT OF COLUMBIA CVS PHARMACY, L.L.C.",6514 GEORGIA AVENUE NW,,"WASHINGTON, DC 20012",http://maps.google.com/maps?q=DISTRICT%20OF%20COLUMBIA%20CVS%20PHARMACY%20LLC%2C6514%20GEORGIA%20AVENUE%20NW%2C+WASHINGTON%2C+DC+20012
DRAYTON DRUG,104 E HWY 66,,"DRAYTON, ND 58225",http://maps.google.com/maps?q=DRAYTON%20DRUG%2C104%20E%20HWY%2066%2C+DRAYTON%2C+ND+58225
"DRUG CITY PHARMACY, LLC",2805 NORTH POINT RD,,"BALTIMORE, MD 21222",http://maps.google.com/maps?q=DRUG%20CITY%20PHARMACY%20LLC%2C2805%20NORTH%20POINT%20RD%2C+BALTIMORE%2C+MD+21222
ESSENTIA HEALTH BAXTER PHARMACY,13060 ISLE DR,,"BAXTER, MN 56425",http://maps.google.com/maps?q=ESSENTIA%20HEALTH%20BAXTER%20PHARMACY%2C13060%20ISLE%20DR%2C+BAXTER%2C+MN+56425
ESSENTIA HEALTH BRAINERD PHARMACY,2024 S. 6TH STREET,,"BRAINERD, MN 56401",http://maps.google.com/maps?q=ESSENTIA%20HEALTH%20BRAINERD%20PHARMACY%2C2024%20S.%206TH%20STREET%2C+BRAINERD%2C+MN+56401
ESSENTIA HEALTH DL PHARMACY,211 FRAZEE ST E,,"DETROIT LAKES, MN 56501",http://maps.google.com/maps?q=ESSENTIA%20HEALTH%20DL%20PHARMACY%2C211%20FRAZEE%20ST%20E%2C+DETROIT%20LAKES%2C+MN+56501
ESSENTIA HEALTH HIBBING PHARMACY,730 E. 34TH ST,SUITE A,"HIBBING, MN 55746",http://maps.google.com/maps?q=ESSENTIA%20HEALTH%20HIBBING%20PHARMACY%2C730%20E.%2034TH%20ST%2C+HIBBING%2C+MN+55746
ESSENTIA HEALTH INTERNATIONAL FALLS PHARMACY,2501 KEENAN DRIVE,SUITE A,"INTERNATIONAL FALLS, MN 56649",http://maps.google.com/maps?q=ESSENTIA%20HEALTH%20INTERNATIONAL%20FALLS%20PHARMACY%2C2501%20KEENAN%20DRIVE%2C+INTERNATIONAL%20FALLS%2C+MN+56649
ESSENTIA HEALTH VIRGINIA  PHARMACY,1101 9TH ST NO.,SUITE A,"VIRGINIA, MN 55792",http://maps.google.com/maps?q=ESSENTIA%20HEALTH%20VIRGINIA%20%20PHARMACY%2C1101%209TH%20ST%20NO.%2C+VIRGINIA%2C+MN+55792
FAMILY CARE-REMINGTON INC.,208 E. MADISON ST.,,"REMINGTON, VA 22734",http://maps.google.com/maps?q=FAMILY%20CAREREMINGTON%20INC%2C208%20E.%20MADISON%20ST.%2C+REMINGTON%2C+VA+22734
FAMILY HEALTHCARE PHARMACY,NDSU,301 NP AVENUE,"FARGO, ND 58102",http://maps.google.com/maps?q=FAMILY%20HEALTHCARE%20PHARMACY%2CNDSU%2C+FARGO%2C+ND+58102
FAMILY MEDICINE RESIDENCY PHARMACY,725 HAMLINE ST,,"GRAND FORKS, ND 58203",http://maps.google.com/maps?q=FAMILY%20MEDICINE%20RESIDENCY%20PHARMACY%2C725%20HAMLINE%20ST%2C+GRAND%20FORKS%2C+ND+58203
FAMILY MEDS INC,12114 OLD LINE CENTER UNIT R-7A,,"WALDORF, MD 20602",http://maps.google.com/maps?q=FAMILY%20MEDS%20INC%2C12114%20OLD%20LINE%20CENTER%20UNIT%20R-7A%2C+WALDORF%2C+MD+20602
FT.YATES  INDIAN HOSPITAL,P.H.S. INDIAN HOSPITAL,1010 RIVER ROAD,"FORT YATES, ND 58538",http://maps.google.com/maps?q=FTYATES%20%20INDIAN%20HOSPITAL%2CP.H.S.%20INDIAN%20HOSPITAL%2C+FORT%20YATES%2C+ND+58538
GRAND ITASCA PHARMACY,1601 GOLF COURSE ROAD,,"GRAND RAPIDS, MN 55744",http://maps.google.com/maps?q=GRAND%20ITASCA%20PHARMACY%2C1601%20GOLF%20COURSE%20ROAD%2C+GRAND%20RAPIDS%2C+MN+55744
"GRAND ST. PAUL CVS, L.L.C.",740 RAILROAD AVE.,P.O. BOX 550,"ALBANY, MN 56307",http://maps.google.com/maps?q=GRAND%20ST%20PAUL%20CVS%20LLC%2C740%20RAILROAD%20AVE.%2C+ALBANY%2C+MN+56307
"H&M SPECIALTY RX,INC",5454 WISCONSIN AVE,#400,"CHEVY CHASE, MD 20815",http://maps.google.com/maps?q=HM%20SPECIALTY%20RXINC%2C5454%20WISCONSIN%20AVE%2C+CHEVY%20CHASE%2C+MD+20815
HANKINSON DRUG,323 SOUTH MAIN AVENUE,PO BOX 160,"HANKINSON, ND 58041",http://maps.google.com/maps?q=HANKINSON%20DRUG%2C323%20SOUTH%20MAIN%20AVENUE%2C+HANKINSON%2C+ND+58041
HANSON PHARMACY,2110 CRAIN HWY,,"WALDORF, MD 20601",http://maps.google.com/maps?q=HANSON%20PHARMACY%2C2110%20CRAIN%20HWY%2C+WALDORF%2C+MD+20601
HEGG MEMORIAL HOSPITAL INC,1200 21ST AVENUE,,"ROCK VALLEY, IA 51247",http://maps.google.com/maps?q=HEGG%20MEMORIAL%20HOSPITAL%20INC%2C1200%2021ST%20AVENUE%2C+ROCK%20VALLEY%2C+IA+51247
HIGH ST DISCOUNT PHARMACY,30 HIGH ST,,"WALDORF, MD 20602",http://maps.google.com/maps?q=HIGH%20ST%20DISCOUNT%20PHARMACY%2C30%20HIGH%20ST%2C+WALDORF%2C+MD+20602
HILLSBORO REXALL DRUG INC,13 NORTH MAIN STREET,P.O. BOX 820,"HILLSBORO, ND 58045",http://maps.google.com/maps?q=HILLSBORO%20REXALL%20DRUG%20INC%2C13%20NORTH%20MAIN%20STREET%2C+HILLSBORO%2C+ND+58045
INDIAN HEAD CARE PHARMACY,4115 INDIAN HEAD HWY.,,"INDIAN HEAD, MD 20640",http://maps.google.com/maps?q=INDIAN%20HEAD%20CARE%20PHARMACY%2C4115%20INDIAN%20HEAD%20HWY.%2C+INDIAN%20HEAD%2C+MD+20640
INHEALTH SPECIALTY PHARMACY,2345 25TH ST. S.,,"FARGO, ND 58103",http://maps.google.com/maps?q=INHEALTH%20SPECIALTY%20PHARMACY%2C2345%2025TH%20ST.%20S.%2C+FARGO%2C+ND+58103
INOVA LOUDOUN HOSPITAL,44045 RIVERSIDE PARKWAY,,"LEESBURG, VA 20176",http://maps.google.com/maps?q=INOVA%20LOUDOUN%20HOSPITAL%2C44045%20RIVERSIDE%20PARKWAY%2C+LEESBURG%2C+VA+20176
INOVA PHARMACY PLUS AT INOVA FAIR OAKS,3600 JOSEPH SIEWICK DRIVE,,"FAIRFAX, VA 22033",http://maps.google.com/maps?q=INOVA%20PHARMACY%20PLUS%20AT%20INOVA%20FAIR%20OAKS%2C3600%20JOSEPH%20SIEWICK%20DRIVE%2C+FAIRFAX%2C+VA+22033
INSPIRE PHARMACY INC,360 DIVISION AVE,SUITE 100,"GRAND FORKS, ND 58201",http://maps.google.com/maps?q=INSPIRE%20PHARMACY%20INC%2C360%20DIVISION%20AVE%2C+GRAND%20FORKS%2C+ND+58201
"JOHNS HOPKINS BAYVIEW MED CTR, INC",4940 EASTERN AVENUE,"BMO BUILDING, ROOM 01-0154","BALTIMORE, MD 21224",http://maps.google.com/maps?q=JOHNS%20HOPKINS%20BAYVIEW%20MED%20CTR%20INC%2C4940%20EASTERN%20AVENUE%2C+BALTIMORE%2C+MD+21224
JOHNS HOPKINS OUTPATIENT PHARMACY AT THE ARCADE,"ZAYED-BLOOMBERG BUILDING, M2125",1800 ORLEANS STREET,"BALTIMORE, MD 21287",http://maps.google.com/maps?q=JOHNS%20HOPKINS%20OUTPATIENT%20PHARMACY%20AT%20THE%20ARCADE%2CZAYED-BLOOMBERG%20BUILDING%2C%20M2125%2C+BALTIMORE%2C+MD+21287
KAISER,BURKE PHARMACY,5999 BURKE COMMONS ROAD,"BURKE, VA 22015",http://maps.google.com/maps?q=KAISER%2CBURKE%20PHARMACY%2C+BURKE%2C+VA+22015
KAISER PERM ASHBURN PHARMACY,43480 YUKON DRIVE SUITE 100,,"ASHBURN, VA 20147",http://maps.google.com/maps?q=KAISER%20PERM%20ASHBURN%20PHARMACY%2C43480%20YUKON%20DRIVE%20SUITE%20100%2C+ASHBURN%2C+VA+20147
KAISER PERMANENTE FREDERICKSBURG PHARMACY,1201 HOSPITAL DRIVE,,"FREDERICKSBURG, VA 22401",http://maps.google.com/maps?q=KAISER%20PERMANENTE%20FREDERICKSBURG%20PHARMACY%2C1201%20HOSPITAL%20DRIVE%2C+FREDERICKSBURG%2C+VA+22401
KAISER PERMANENTE MANASSAS PH,10701 ROSEMARY DRIVE,,"MANASSAS, VA 20109",http://maps.google.com/maps?q=KAISER%20PERMANENTE%20MANASSAS%20PH%2C10701%20ROSEMARY%20DRIVE%2C+MANASSAS%2C+VA+20109
KAISER PERMANENTE SPRINGFIELD,6501 LOISDALE COURT,,"SPRINGFIELD, VA 22150",http://maps.google.com/maps?q=KAISER%20PERMANENTE%20SPRINGFIELD%2C6501%20LOISDALE%20COURT%2C+SPRINGFIELD%2C+VA+22150
KAISER PERMANENTE TYSONS CORNER PHARMACY,8008 WESTPARK DRIVE,,"MCLEAN, VA 22102",http://maps.google.com/maps?q=KAISER%20PERMANENTE%20TYSONS%20CORNER%20PHARMACY%2C8008%20WESTPARK%20DRIVE%2C+MCLEAN%2C+VA+22102
KAISER-PERMANENTE RESTON PHCY,1890 METRO CENTER DRIVE,,"RESTON, VA 20190",http://maps.google.com/maps?q=KAISERPERMANENTE%20RESTON%20PHCY%2C1890%20METRO%20CENTER%20DRIVE%2C+RESTON%2C+VA+20190
KB PHARMACY DBA GRAFTON DRUG,38 EAST12TH ST,,"GRAFTON, ND 58237",http://maps.google.com/maps?q=KB%20PHARMACY%20DBA%20GRAFTON%20DRUG%2C38%20EAST12TH%20ST%2C+GRAFTON%2C+ND+58237
LA MOURE DRUG STORE INC,"100 1ST AVE, SW",,"LAMOURE, ND 58458",http://maps.google.com/maps?q=LA%20MOURE%20DRUG%20STORE%20INC%2C100%201ST%20AVE%2C%20SW%2C+LAMOURE%2C+ND+58458
LAPLATA PHARMACY,6501 CRAIN HIGHWAY,,"LA PLATA, MD 20646",http://maps.google.com/maps?q=LAPLATA%20PHARMACY%2C6501%20CRAIN%20HIGHWAY%2C+LA%20PLATA%2C+MD+20646
LEWIS FAMILY DRUG # 68,111 CALUMET AVE SW,,"DE SMET, SD 57231",http://maps.google.com/maps?q=LEWIS%20FAMILY%20DRUG%2C111%20CALUMET%20AVE%20SW%2C+DE%20SMET%2C+SD+57231
LEWIS FAMILY DRUG #31,109 S MAIN ST,,"MILBANK, SD 57252",http://maps.google.com/maps?q=LEWIS%20FAMILY%20DRUG%2C109%20S%20MAIN%20ST%2C+MILBANK%2C+SD+57252
LEWIS FAMILY DRUG #39,1044 MAIN ST,,"HULL, IA 51239",http://maps.google.com/maps?q=LEWIS%20FAMILY%20DRUG%2C1044%20MAIN%20ST%2C+HULL%2C+IA+51239
LEWIS FAMILY DRUG #42,528 S 3RD ST,,"MOVILLE, IA 51039",http://maps.google.com/maps?q=LEWIS%20FAMILY%20DRUG%2C528%20S%203RD%20ST%2C+MOVILLE%2C+IA+51039
LEWIS FAMILY DRUG #52,610 PARK STREET,P.O. BOX 455,"SHELDON, IA 51201",http://maps.google.com/maps?q=LEWIS%20FAMILY%20DRUG%2C610%20PARK%20STREET%2C+SHELDON%2C+IA+51201
LEWIS FAMILY DRUG #58,104 W PARK AVENUE,,"VIBORG, SD 57070",http://maps.google.com/maps?q=LEWIS%20FAMILY%20DRUG%2C104%20W%20PARK%20AVENUE%2C+VIBORG%2C+SD+57070
LEWIS FAMILY DRUG #59,143 S MAIN AVE,,"SIOUX CENTER, IA 51250",http://maps.google.com/maps?q=LEWIS%20FAMILY%20DRUG%2C143%20S%20MAIN%20AVE%2C+SIOUX%20CENTER%2C+IA+51250
LEWIS FAMILY DRUG #61,106 N. BOONE STREET,,"ROCK RAPIDS, IA 51246",http://maps.google.com/maps?q=LEWIS%20FAMILY%20DRUG%2C106%20N.%20BOONE%20STREET%2C+ROCK%20RAPIDS%2C+IA+51246
LEWIS FAMILY DRUG #67,420 SECOND AVE,,"SIBLEY, IA 51249",http://maps.google.com/maps?q=LEWIS%20FAMILY%20DRUG%2C420%20SECOND%20AVE%2C+SIBLEY%2C+IA+51249
LEWIS FAMILY DRUG #73,201 N MAIN ST,,"CHAMBERLAIN, SD 57325",http://maps.google.com/maps?q=LEWIS%20FAMILY%20DRUG%2C201%20N%20MAIN%20ST%2C+CHAMBERLAIN%2C+SD+57325
LEWIS FAMILY DRUG #74,7 W SECOND ST,PO BOX 280,"KINGSLEY, IA 51028",http://maps.google.com/maps?q=LEWIS%20FAMILY%20DRUG%2C7%20W%20SECOND%20ST%2C+KINGSLEY%2C+IA+51028
"LEWIS FAMILY DRUG, LLC",1319 10TH STREET,,"ROCK VALLEY, IA 51247",http://maps.google.com/maps?q=LEWIS%20FAMILY%20DRUG%20LLC%2C1319%2010TH%20STREET%2C+ROCK%20VALLEY%2C+IA+51247
LEWIS MADISON DRUG,741 SOUTH WASHINGTON AVE,,"MADISON, SD 57042",http://maps.google.com/maps?q=LEWIS%20MADISON%20DRUG%2C741%20SOUTH%20WASHINGTON%20AVE%2C+MADISON%2C+SD+57042
LEWIS SOUTHGATE DRUG,2901 S MINNESOTA AVE,,"SIOUX FALLS, SD 57105",http://maps.google.com/maps?q=LEWIS%20SOUTHGATE%20DRUG%2C2901%20S%20MINNESOTA%20AVE%2C+SIOUX%20FALLS%2C+SD+57105
MAIER FAMILY PHARMACY,411 MAIN STREET,,"MAPLETON, IA 51034",http://maps.google.com/maps?q=MAIER%20FAMILY%20PHARMACY%2C411%20MAIN%20STREET%2C+MAPLETON%2C+IA+51034
"MARYLAND CVS PHARMACY, L.L.C",24288 THREE NOTCH RD.,,"HOLLYWOOD, MD 20636",http://maps.google.com/maps?q=MARYLAND%20CVS%20PHARMACY%20LLC%2C24288%20THREE%20NOTCH%20RD.%2C+HOLLYWOOD%2C+MD+20636
"MARYLAND CVS PHARMACY, L.L.C.",1001 YORK ROAD,,"TOWSON, MD 21204",http://maps.google.com/maps?q=MARYLAND%20CVS%20PHARMACY%20LLC%2C1001%20YORK%20ROAD%2C+TOWSON%2C+MD+21204
"MARYLAND CVS PHARMACY, L.L.C.",15100 BALTIMORE AVE.,,"LAUREL, MD 20707",http://maps.google.com/maps?q=MARYLAND%20CVS%20PHARMACY%20LLC%2C15100%20BALTIMORE%20AVE.%2C+LAUREL%2C+MD+20707
"MARYLAND CVS PHARMACY, L.L.C.",19100 MONTGOMERY VILLAGE AVE.,,"GAITHERSBURG, MD 20886",http://maps.google.com/maps?q=MARYLAND%20CVS%20PHARMACY%20LLC%2C19100%20MONTGOMERY%20VILLAGE%20AVE.%2C+GAITHERSBURG%2C+MD+20886
"MARYLAND CVS PHARMACY, L.L.C.",2003 DAVIDSONVILLE RD.,,"CROFTON, MD 21114",http://maps.google.com/maps?q=MARYLAND%20CVS%20PHARMACY%20LLC%2C2003%20DAVIDSONVILLE%20RD.%2C+CROFTON%2C+MD+21114
"MARYLAND CVS PHARMACY, L.L.C.",2601 RIVA RD.,,"ANNAPOLIS, MD 21401",http://maps.google.com/maps?q=MARYLAND%20CVS%20PHARMACY%20LLC%2C2601%20RIVA%20RD.%2C+ANNAPOLIS%2C+MD+21401
"MARYLAND CVS PHARMACY, L.L.C.",28 MAGOTHY BEACH RD.,,"PASADENA, MD 21122",http://maps.google.com/maps?q=MARYLAND%20CVS%20PHARMACY%20LLC%2C28%20MAGOTHY%20BEACH%20RD.%2C+PASADENA%2C+MD+21122
"MARYLAND CVS PHARMACY, L.L.C.",3110 OLNEY SANDY SPRING RD.,,"OLNEY, MD 20832",http://maps.google.com/maps?q=MARYLAND%20CVS%20PHARMACY%20LLC%2C3110%20OLNEY%20SANDY%20SPRING%20RD.%2C+OLNEY%2C+MD+20832
"MARYLAND CVS PHARMACY, L.L.C.",3300A CENTENNIAL LANE,,"ELLICOTT CITY, MD 21042",http://maps.google.com/maps?q=MARYLAND%20CVS%20PHARMACY%20LLC%2C3300A%20CENTENNIAL%20LANE%2C+ELLICOTT%20CITY%2C+MD+21042
"MARYLAND CVS PHARMACY, L.L.C.",3715 UNIVERSITY BOULEVARD WEST,,"KENSINGTON, MD 20895",http://maps.google.com/maps?q=MARYLAND%20CVS%20PHARMACY%20LLC%2C3715%20UNIVERSITY%20BOULEVARD%20WEST%2C+KENSINGTON%2C+MD+20895
"MARYLAND CVS PHARMACY, L.L.C.",402 SO. JEFFERSON STREET,,"FREDERICK, MD 21701",http://maps.google.com/maps?q=MARYLAND%20CVS%20PHARMACY%20LLC%2C402%20SO.%20JEFFERSON%20STREET%2C+FREDERICK%2C+MD+21701
"MARYLAND CVS PHARMACY, L.L.C.",5870 SILVER HILL RD,SILVER HILL PLAZA,"DISTRICT HEIGHTS, MD 20747",http://maps.google.com/maps?q=MARYLAND%20CVS%20PHARMACY%20LLC%2C5870%20SILVER%20HILL%20RD%2C+DISTRICT%20HEIGHTS%2C+MD+20747
"MARYLAND CVS PHARMACY, L.L.C.",6260 CRAIN HWY.,,"LA PLATA, MD 20646",http://maps.google.com/maps?q=MARYLAND%20CVS%20PHARMACY%20LLC%2C6260%20CRAIN%20HWY.%2C+LA%20PLATA%2C+MD+20646
"MARYLAND CVS PHARMACY, L.L.C.",6480 OLD WATERLOO RD,,"ELKRIDGE, MD 21075",http://maps.google.com/maps?q=MARYLAND%20CVS%20PHARMACY%20LLC%2C6480%20OLD%20WATERLOO%20RD%2C+ELKRIDGE%2C+MD+21075
"MARYLAND CVS PHARMACY, L.L.C.",7607 GREENBELT ROAD,,"GREENBELT, MD 20770",http://maps.google.com/maps?q=MARYLAND%20CVS%20PHARMACY%20LLC%2C7607%20GREENBELT%20ROAD%2C+GREENBELT%2C+MD+20770
"MARYLAND CVS PHARMACY, L.L.C.",7845 WISE AVE.,,"BALTIMORE, MD 21222",http://maps.google.com/maps?q=MARYLAND%20CVS%20PHARMACY%20LLC%2C7845%20WISE%20AVE.%2C+BALTIMORE%2C+MD+21222
"MARYLAND CVS PHARMACY, L.L.C.",7955 TUCKERMAN LANE,,"ROCKVILLE, MD 20854",http://maps.google.com/maps?q=MARYLAND%20CVS%20PHARMACY%20LLC%2C7955%20TUCKERMAN%20LANE%2C+ROCKVILLE%2C+MD+20854
"MARYLAND CVS PHARMACY, L.L.C.",8859 BRANCH AVENUE,,"CLINTON, MD 20735",http://maps.google.com/maps?q=MARYLAND%20CVS%20PHARMACY%20LLC%2C8859%20BRANCH%20AVENUE%2C+CLINTON%2C+MD+20735
"MARYLAND CVS PHARMACY, L.L.C.",9920 KEY WEST AVE,,"ROCKVILLE, MD 20850",http://maps.google.com/maps?q=MARYLAND%20CVS%20PHARMACY%20LLC%2C9920%20KEY%20WEST%20AVE%2C+ROCKVILLE%2C+MD+20850
MEDICAL PHARMACY SOUTH,4151 45TH ST SO,,"FARGO, ND 58104",http://maps.google.com/maps?q=MEDICAL%20PHARMACY%20SOUTH%2C4151%2045TH%20ST%20SO%2C+FARGO%2C+ND+58104
MEDICINE CHEST PHARMACY,6823 OLD DOMINION DRIVE,,"MCLEAN, VA 22101",http://maps.google.com/maps?q=MEDICINE%20CHEST%20PHARMACY%2C6823%20OLD%20DOMINION%20DRIVE%2C+MCLEAN%2C+VA+22101
MEDSTAR PHARMACY (STORE #7),3305 N. LEISUREWORLD BOULEVARD,,"SILVER SPRING, MD 20906",http://maps.google.com/maps?q=MEDSTAR%20PHARMACY%20STORE%2C3305%20N.%20LEISUREWORLD%20BOULEVARD%2C+SILVER%20SPRING%2C+MD+20906
NEIGHBORHOOD PHARMACY OF DEL RAY,2204 MT. VERNON AVE,,"ALEXANDRIA, VA 22301",http://maps.google.com/maps?q=NEIGHBORHOOD%20PHARMACY%20OF%20DEL%20RAY%2C2204%20MT.%20VERNON%20AVE%2C+ALEXANDRIA%2C+VA+22301
NORTHGATE PHARMACY,3973 ST. CHARLES PKWY,,"WALDORF, MD 20602",http://maps.google.com/maps?q=NORTHGATE%20PHARMACY%2C3973%20ST.%20CHARLES%20PKWY%2C+WALDORF%2C+MD+20602
P H S INDIAN HOSPITAL,ADMIN OFFICER,425 7TH ST NW,"CASS LAKE, MN 56633",http://maps.google.com/maps?q=P%20H%20S%20INDIAN%20HOSPITAL%2CADMIN%20OFFICER%2C+CASS%20LAKE%2C+MN+56633
PEMBERTON PHARMACY & GIFT ST MICHAELS,204 S TALBOT ST,PO BOX 1139,"ST MICHAELS, MD 21663",http://maps.google.com/maps?q=PEMBERTON%20PHARMACY%20%20GIFT%20ST%20MICHAELS%2C204%20S%20TALBOT%20ST%2C+ST%20MICHAELS%2C+MD+21663
PHS INDIAN HOSPITAL,24276 166TH STREET,AIRPORT ROAD,"EAGLE BUTTE, SD 57625",http://maps.google.com/maps?q=PHS%20INDIAN%20HOSPITAL%2C24276%20166TH%20STREET%2C+EAGLE%20BUTTE%2C+SD+57625
PURCELLVILLE PHARMACY,609 E MAIN ST SUITE Q,,"PURCELLVILLE, VA 20132",http://maps.google.com/maps?q=PURCELLVILLE%20PHARMACY%2C609%20E%20MAIN%20ST%20SUITE%20Q%2C+PURCELLVILLE%2C+VA+20132
RANDALL PHARMACY,1010 1/2 W 1ST STREET,PO BOX 499,"REDFIELD, SD 57469",http://maps.google.com/maps?q=RANDALL%20PHARMACY%2C1010%201/2%20W%201ST%20STREET%2C+REDFIELD%2C+SD+57469
RIVIERA DRUGS LLC,8541 FORTSMALL WOOD ROAD,UNIT G,"PASADENA, MD 21122",http://maps.google.com/maps?q=RIVIERA%20DRUGS%20LLC%2C8541%20FORTSMALL%20WOOD%20ROAD%2C+PASADENA%2C+MD+21122
SANFORD MEDICAL CENTER-MAYVILLE,42 6TH AVENUE SE,,"MAYVILLE, ND 58257",http://maps.google.com/maps?q=SANFORD%20MEDICAL%20CENTERMAYVILLE%2C42%206TH%20AVENUE%20SE%2C+MAYVILLE%2C+ND+58257
SANFORD PHARMACY 1611 ANNE ST,1611 ANNE ST NW,,"BEMIDJI, MN 56601",http://maps.google.com/maps?q=SANFORD%20PHARMACY%20%20ANNE%20ST%2C1611%20ANNE%20ST%20NW%2C+BEMIDJI%2C+MN+56601
SANFORD PHARMACY BROADWAY,737 BROADWAY,,"FARGO, ND 58102",http://maps.google.com/maps?q=SANFORD%20PHARMACY%20BROADWAY%2C737%20BROADWAY%2C+FARGO%2C+ND+58102
SANFORD PHARMACY MEDICAL CENTER FARGO,5225 23RD AVE S,,"FARGO, ND 58104",http://maps.google.com/maps?q=SANFORD%20PHARMACY%20MEDICAL%20CENTER%20FARGO%2C5225%2023RD%20AVE%20S%2C+FARGO%2C+ND+58104
SANFORD PHARMACY SOUTH UNIVERSITY,1720 SOUTH UNIVERSITY DRIVE,,"FARGO, ND 58103",http://maps.google.com/maps?q=SANFORD%20PHARMACY%20SOUTH%20UNIVERSITY%2C1720%20SOUTH%20UNIVERSITY%20DRIVE%2C+FARGO%2C+ND+58103
SCOTLAND PHARMACY,620 BILLARS ST,,"SCOTLAND, SD 57059",http://maps.google.com/maps?q=SCOTLAND%20PHARMACY%2C620%20BILLARS%20ST%2C+SCOTLAND%2C+SD+57059
SEIP PRESCRIPTION SHOPPE #12,5675 26TH AVE SOUTH SUITE 136A,,"FARGO, ND 58104",http://maps.google.com/maps?q=SEIP%20PRESCRIPTION%20SHOPPE%2C5675%2026TH%20AVE%20SOUTH%20SUITE%20136A%2C+FARGO%2C+ND+58104
SERGEANT BLUFF PHARMACY,"105 GAUL DR, SUITE A",,"SERGEANT BLUFF, IA 51054",http://maps.google.com/maps?q=SERGEANT%20BLUFF%20PHARMACY%2C105%20GAUL%20DR%2C%20SUITE%20A%2C+SERGEANT%20BLUFF%2C+IA+51054
SHOPKO PHARMACY #2677,2220 HWY 175,,"ONAWA, IA 51040",http://maps.google.com/maps?q=SHOPKO%20PHARMACY%2C2220%20HWY%20175%2C+ONAWA%2C+IA+51040
SIOUX CENTER HEALTH,1101 9 TH ST SE,,"SIOUX CENTER, IA 51250",http://maps.google.com/maps?q=SIOUX%20CENTER%20HEALTH%2C1101%209%20TH%20ST%20SE%2C+SIOUX%20CENTER%2C+IA+51250
SOUTHPOINTE PHARMACY,2400 32ND AVE S,,"FARGO, ND 58103",http://maps.google.com/maps?q=SOUTHPOINTE%20PHARMACY%2C2400%2032ND%20AVE%20S%2C+FARGO%2C+ND+58103
SPECTRUM HEALTHCARE RESOURCES - DUMFRIES HLTH CTR,3700 FETTLER PARK DRIVE,,"DUMFRIES, VA 22025",http://maps.google.com/maps?q=SPECTRUM%20HEALTHCARE%20RESOURCES%20%20DUMFRIES%20HLTH%20CTR%2C3700%20FETTLER%20PARK%20DRIVE%2C+DUMFRIES%2C+VA+22025
SPECTRUM HEALTHCARE RESOURCES - FAIRFAX HLTH CTR,10580 ARROWHEAD DRIVE,,"FAIRFAX, VA 22030",http://maps.google.com/maps?q=SPECTRUM%20HEALTHCARE%20RESOURCES%20%20FAIRFAX%20HLTH%20CTR%2C10580%20ARROWHEAD%20DRIVE%2C+FAIRFAX%2C+VA+22030
STANGEL PHARMACY INC,821 IOWA AVE,,"ONAWA, IA 51040",http://maps.google.com/maps?q=STANGEL%20PHARMACY%20INC%2C821%20IOWA%20AVE%2C+ONAWA%2C+IA+51040
STERLING LTC PHARMACY #32,607 10TH STREET,,"WORTHINGTON, MN 56187",http://maps.google.com/maps?q=STERLING%20LTC%20PHARMACY%2C607%2010TH%20STREET%2C+WORTHINGTON%2C+MN+56187
"TARA'S THRIFTY WHITE, LLC",610 MAIN AVENUE,,"OAKES, ND 58474",http://maps.google.com/maps?q=TARAS%20THRIFTY%20WHITE%20LLC%2C610%20MAIN%20AVENUE%2C+OAKES%2C+ND+58474
THE JOHNS HOPKINS HOSPITAL,1717 E MONUMENT ST,"PARK BUILDING, ROOM G-105","BALTIMORE, MD 21287",http://maps.google.com/maps?q=THE%20JOHNS%20HOPKINS%20HOSPITAL%2C1717%20E%20MONUMENT%20ST%2C+BALTIMORE%2C+MD+21287
THE JOHNS HOPKINS HOSPITAL,401 NORTH BROADWAY,SUITE 1001,"BALTIMORE, MD 21231",http://maps.google.com/maps?q=THE%20JOHNS%20HOPKINS%20HOSPITAL%2C401%20NORTH%20BROADWAY%2C+BALTIMORE%2C+MD+21231
THE JOHNS HOPKINS HOSPITAL,601 NORTH CAROLINE STREET,SUITE 1006,"BALTIMORE, MD 21287",http://maps.google.com/maps?q=THE%20JOHNS%20HOPKINS%20HOSPITAL%2C601%20NORTH%20CAROLINE%20STREET%2C+BALTIMORE%2C+MD+21287
THE JOHNS HOPKINS HOSPITAL,AT MONUMENT STREET,1810 E. MONUMENT STREET,"BALTIMORE, MD 21205",http://maps.google.com/maps?q=THE%20JOHNS%20HOPKINS%20HOSPITAL%2CAT%20MONUMENT%20STREET%2C+BALTIMORE%2C+MD+21205
THRIFTY DRUG SOUTHGATE,1532 32ND AVENUE SOUTH,,"FARGO, ND 58103",http://maps.google.com/maps?q=THRIFTY%20DRUG%20SOUTHGATE%2C1532%2032ND%20AVENUE%20SOUTH%2C+FARGO%2C+ND+58103
THRIFTY NYSTROM DRUG,223 SOUTH EIGHTH STREET,,"BRAINERD, MN 56401",http://maps.google.com/maps?q=THRIFTY%20NYSTROM%20DRUG%2C223%20SOUTH%20EIGHTH%20STREET%2C+BRAINERD%2C+MN+56401
THRIFTY WHITE DRUG #23,808 WASHINGTON AVE STE 29,,"DETROIT LAKES, MN 56501",http://maps.google.com/maps?q=THRIFTY%20WHITE%20DRUG%2C808%20WASHINGTON%20AVE%20STE%2029%2C+DETROIT%20LAKES%2C+MN+56501
THRIFTY WHITE PHARMACY #039,1401 33RD STREET SOUTHWEST,,"FARGO, ND 58103",http://maps.google.com/maps?q=THRIFTY%20WHITE%20PHARMACY%2C1401%2033RD%20STREET%20SOUTHWEST%2C+FARGO%2C+ND+58103
THRIFTY WHITE PHARMACY #046,1100 13TH AVENUE EAST,,"WEST FARGO, ND 58078",http://maps.google.com/maps?q=THRIFTY%20WHITE%20PHARMACY%2C1100%2013TH%20AVENUE%20EAST%2C+WEST%20FARGO%2C+ND+58078
THRIFTY WHITE PHARMACY #053,102 DIVISION AVENUE S,,"CAVALIER, ND 58220",http://maps.google.com/maps?q=THRIFTY%20WHITE%20PHARMACY%2C102%20DIVISION%20AVENUE%20S%2C+CAVALIER%2C+ND+58220
THRIFTY WHITE PHARMACY #065,737 WEST 12TH STREET,,"GRAFTON, ND 58237",http://maps.google.com/maps?q=THRIFTY%20WHITE%20PHARMACY%2C737%20WEST%2012TH%20STREET%2C+GRAFTON%2C+ND+58237
THRIFTY WHITE PHARMACY #068,4255 30TH AVE S,,"FARGO, ND 58104",http://maps.google.com/maps?q=THRIFTY%20WHITE%20PHARMACY%2C4255%2030TH%20AVE%20S%2C+FARGO%2C+ND+58104
THRIFTY WHITE PHARMACY #077,127 N. MAIN STREET,,"PAULLINA, IA 51046",http://maps.google.com/maps?q=THRIFTY%20WHITE%20PHARMACY%2C127%20N.%20MAIN%20STREET%2C+PAULLINA%2C+IA+51046
THRIFTY WHITE PHARMACY #081,1395 C SOUTH COLUMBIA ROAD,,"GRAND FORKS, ND 58201",http://maps.google.com/maps?q=THRIFTY%20WHITE%20PHARMACY%2C1395%20C%20SOUTH%20COLUMBIA%20ROAD%2C+GRAND%20FORKS%2C+ND+58201
THRIFTY WHITE PHARMACY #103,503 3RD AVE E # 100,,"ALEXANDRIA, MN 56308",http://maps.google.com/maps?q=THRIFTY%20WHITE%20PHARMACY%2C503%203RD%20AVE%20E%20#%20100%2C+ALEXANDRIA%2C+MN+56308
THRIFTY WHITE PHARMACY #728,1105 S POKEGAMA AVENUE,,"GRAND RAPIDS, MN 55744",http://maps.google.com/maps?q=THRIFTY%20WHITE%20PHARMACY%2C1105%20S%20POKEGAMA%20AVENUE%2C+GRAND%20RAPIDS%2C+MN+55744
THRIFTY WHITE PHARMACY #741,3517 E. BELTLINE,,"HIBBING, MN 55746",http://maps.google.com/maps?q=THRIFTY%20WHITE%20PHARMACY%2C3517%20E.%20BELTLINE%2C+HIBBING%2C+MN+55746
THRIFTY WHITE PHARMACY #746,31 N MAIN,PO BOX F,"BAGLEY, MN 56621",http://maps.google.com/maps?q=THRIFTY%20WHITE%20PHARMACY%2C31%20N%20MAIN%2C+BAGLEY%2C+MN+56621
THRIFTY WHITE PHARMACY #75,387 S 11TH STREET SUITE 2,,"WAHPETON, ND 58075",http://maps.google.com/maps?q=THRIFTY%20WHITE%20PHARMACY%2C387%20S%2011TH%20STREET%20SUITE%202%2C+WAHPETON%2C+ND+58075
THRIFTY WHITE PHARMACY #769,2000 PAUL BUNYAN DRIVE NW,,"BEMIDJI, MN 56601",http://maps.google.com/maps?q=THRIFTY%20WHITE%20PHARMACY%2C2000%20PAUL%20BUNYAN%20DRIVE%20NW%2C+BEMIDJI%2C+MN+56601
THRIFTY WHITE PHARMACY #770,724 HIGHWAY 7 E,,"MONTEVIDEO, MN 56265",http://maps.google.com/maps?q=THRIFTY%20WHITE%20PHARMACY%2C724%20HIGHWAY%207%20E%2C+MONTEVIDEO%2C+MN+56265
UNIV OF MD MEDICAL SYSTEMS,OUT-PATIENT PHARMCY,WEINBERG BUILDING,"BALTIMORE, MD 21201",http://maps.google.com/maps?q=UNIV%20OF%20MD%20MEDICAL%20SYSTEMS%2COUT-PATIENT%20PHARMCY%2C+BALTIMORE%2C+MD+21201
UNIV OF NO DAKOTA,MCCANNEL HALL ROOM 100,2891 2ND AVE N STOP 9038,"GRAND FORKS, ND 58202",http://maps.google.com/maps?q=UNIV%20OF%20NO%20DAKOTA%2CMCCANNEL%20HALL%20ROOM%20100%2C+GRAND%20FORKS%2C+ND+58202
US ARMY FBCH PHARMACY SERVICE,9300 DEWITT LOOP,ROOM C1382 MAIN VAULT,"FORT BELVOIR, VA 22060",http://maps.google.com/maps?q=US%20ARMY%20FBCH%20PHARMACY%20SERVICE%2C9300%20DEWITT%20LOOP%2C+FORT%20BELVOIR%2C+VA+22060
US ARMY KIRK HEALTH CLINIC,PHARMACY,ABERDEEN PROVING GROUND,"ABERDEEN PROVING GROUND, MD 21005",http://maps.google.com/maps?q=US%20ARMY%20KIRK%20HEALTH%20CLINIC%2CPHARMACY%2C+ABERDEEN%20PROVING%20GROUND%2C+MD+21005
US ARMY PHARMACY ANEX,8651 JOHN J KINGMAN ROAD,,"FORT BELVOIR, VA 22060",http://maps.google.com/maps?q=US%20ARMY%20PHARMACY%20ANEX%2C8651%20JOHN%20J%20KINGMAN%20ROAD%2C+FORT%20BELVOIR%2C+VA+22060
US ARMY- FT DETRICK HEALTH CLINIC,1434 PORTER STREET,FORT DETRICK,"FREDERICK, MD 21702",http://maps.google.com/maps?q=US%20ARMY%20FT%20DETRICK%20HEALTH%20CLINIC%2C1434%20PORTER%20STREET%2C+FREDERICK%2C+MD+21702
US ARMY- KIMBROUGH AMBULATORY CARE CENTER,DEPARTMENT OF PHARMACY,KIMBROUGH AMBULATORY CARE CENTER,"FORT MEADE, MD 20755",http://maps.google.com/maps?q=US%20ARMY%20KIMBROUGH%20AMBULATORY%20CARE%20CENTER%2CDEPARTMENT%20OF%20PHARMACY%2C+FORT%20MEADE%2C+MD+20755
US ARMY-ANTHONY DILORENZO,DILORENZO TRICARE HLTH CLINIC,PENTAGON 5801 DEFENSE PENTAGON,"WASHINGTON, DC 20310",http://maps.google.com/maps?q=US%20ARMYANTHONY%20DILORENZO%2CDILORENZO%20TRICARE%20HLTH%20CLINIC%2C+WASHINGTON%2C+DC+20310
USAF 11TH MDS PHARMACY,238 BROOKLEY AVENUE,,"WASHINGTON, DC 20032",http://maps.google.com/maps?q=USAF%20TH%20MDS%20PHARMACY%2C238%20BROOKLEY%20AVENUE%2C+WASHINGTON%2C+DC+20032
USAF 779TH MDG PHARMACY,1060 W. PERIMETER ROAD,,"ANDREWS AIR FORCE BASE, MD 20762",http://maps.google.com/maps?q=USAF%20TH%20MDG%20PHARMACY%2C1060%20W.%20PERIMETER%20ROAD%2C+ANDREWS%20AIR%20FORCE%20BASE%2C+MD+20762
USAF 779TH MDG SATELLITE PHARMACY,1683 BROOKLEY AVENUE,,"ANDREWS AIR FORCE BASE, MD 20762",http://maps.google.com/maps?q=USAF%20TH%20MDG%20SATELLITE%20PHARMACY%2C1683%20BROOKLEY%20AVENUE%2C+ANDREWS%20AIR%20FORCE%20BASE%2C+MD+20762
USAF- 319TH MEDICAL GROUP/SGSLM,1599 J STREET,BLDG. 109,"GRAND FORKS AFB, ND 58205",http://maps.google.com/maps?q=USAF%20TH%20MEDICAL%20GROUPSGSLM%2C1599%20J%20STREET%2C+GRAND%20FORKS%20AFB%2C+ND+58205
USN- NAVAL BRANCH HEALTH CLINIC BANCROFT HALL,101 BUCHANAN ROAD,,"ANNAPOLIS, MD 21402",http://maps.google.com/maps?q=USN%20NAVAL%20BRANCH%20HEALTH%20CLINIC%20BANCROFT%20HALL%2C101%20BUCHANAN%20ROAD%2C+ANNAPOLIS%2C+MD+21402
USN- NAVAL MEDICAL CLINIC,3259 CATLIN AVENUE,,"QUANTICO, VA 22134",http://maps.google.com/maps?q=USN%20NAVAL%20MEDICAL%20CLINIC%2C3259%20CATLIN%20AVENUE%2C+QUANTICO%2C+VA+22134
USN- NAVAL MEDICAL CLINIC,695 KINKAID ROAD,PHARMACY DEPT.,"ANNAPOLIS, MD 21402",http://maps.google.com/maps?q=USN%20NAVAL%20MEDICAL%20CLINIC%2C695%20KINKAID%20ROAD%2C+ANNAPOLIS%2C+MD+21402
"USN-BRANCH HEALTH CLINIC, WASHINGTON NAVY YARD",915 N STREET S. E.,,"WASHINGTON, DC 20374",http://maps.google.com/maps?q=USNBRANCH%20HEALTH%20CLINIC%20WASHINGTON%20NAVY%20YARD%2C915%20N%20STREET%20S.%20E.%2C+WASHINGTON%2C+DC+20374
USPHS INDIAN HEALTH CENTER,WHITE EARTH,40520 CO. HWY 34,"OGEMA, MN 56569",http://maps.google.com/maps?q=USPHS%20INDIAN%20HEALTH%20CENTER%2CWHITE%20EARTH%2C+OGEMA%2C+MN+56569
USPHS INDIAN HOSPITAL,U.S. HIGHWAY 77,,"WINNEBAGO, NE 68071",http://maps.google.com/maps?q=USPHS%20INDIAN%20HOSPITAL%2CU.S.%20HIGHWAY%2077%2C+WINNEBAGO%2C+NE+68071
"VIRGINIA CVS PHARMACY, L.L.C.",13031 LEE-JACKSON HIGHWAY,,"FAIRFAX, VA 22033",http://maps.google.com/maps?q=VIRGINIA%20CVS%20PHARMACY%20LLC%2C13031%20LEE-JACKSON%20HIGHWAY%2C+FAIRFAX%2C+VA+22033
"VIRGINIA CVS PHARMACY, L.L.C.",13600 JEFFERSON DAVIS HIGHWAY,,"WOODBRIDGE, VA 22191",http://maps.google.com/maps?q=VIRGINIA%20CVS%20PHARMACY%20LLC%2C13600%20JEFFERSON%20DAVIS%20HIGHWAY%2C+WOODBRIDGE%2C+VA+22191
"VIRGINIA CVS PHARMACY, L.L.C.",3117 LOCKHEED BLVD,,"ALEXANDRIA, VA 22306",http://maps.google.com/maps?q=VIRGINIA%20CVS%20PHARMACY%20LLC%2C3117%20LOCKHEED%20BLVD%2C+ALEXANDRIA%2C+VA+22306
"VIRGINIA CVS PHARMACY, L.L.C.",3133 LEE HIGHWAY,,"ARLINGTON, VA 22201",http://maps.google.com/maps?q=VIRGINIA%20CVS%20PHARMACY%20LLC%2C3133%20LEE%20HIGHWAY%2C+ARLINGTON%2C+VA+22201
"VIRGINIA CVS PHARMACY, L.L.C.",388 GARRISONVILLE ROAD,,"STAFFORD, VA 22554",http://maps.google.com/maps?q=VIRGINIA%20CVS%20PHARMACY%20LLC%2C388%20GARRISONVILLE%20ROAD%2C+STAFFORD%2C+VA+22554
"VIRGINIA CVS PHARMACY, L.L.C.",510 BLACKWELL RD.,,"WARRENTON, VA 20186",http://maps.google.com/maps?q=VIRGINIA%20CVS%20PHARMACY%20LLC%2C510%20BLACKWELL%20RD.%2C+WARRENTON%2C+VA+20186
"VIRGINIA CVS PHARMACY, L.L.C.",5652 PICKWICK RD.,,"CENTREVILLE, VA 20120",http://maps.google.com/maps?q=VIRGINIA%20CVS%20PHARMACY%20LLC%2C5652%20PICKWICK%20RD.%2C+CENTREVILLE%2C+VA+20120
"VIRGINIA CVS PHARMACY, L.L.C.",591 JEFFERSON DAVIS HIGHWAY,,"FREDERICKSBURG, VA 22401",http://maps.google.com/maps?q=VIRGINIA%20CVS%20PHARMACY%20LLC%2C591%20JEFFERSON%20DAVIS%20HIGHWAY%2C+FREDERICKSBURG%2C+VA+22401
"VIRGINIA CVS PHARMACY, L.L.C.",7205 LITTLE RIVER TURNPIKE,,"ANNANDALE, VA 22003",http://maps.google.com/maps?q=VIRGINIA%20CVS%20PHARMACY%20LLC%2C7205%20LITTLE%20RIVER%20TURNPIKE%2C+ANNANDALE%2C+VA+22003
"VIRGINIA CVS PHARMACY, L.L.C.",8124 ARLINGTON BLVD,YORKTOWN CTR,"FALLS CHURCH, VA 22042",http://maps.google.com/maps?q=VIRGINIA%20CVS%20PHARMACY%20LLC%2C8124%20ARLINGTON%20BLVD%2C+FALLS%20CHURCH%2C+VA+22042
"VIRGINIA CVS PHARMACY, L.L.C.",9200 CENTREVILLE RD.,,"MANASSAS, VA 20110",http://maps.google.com/maps?q=VIRGINIA%20CVS%20PHARMACY%20LLC%2C9200%20CENTREVILLE%20RD.%2C+MANASSAS%2C+VA+20110
W W INC,DBA THE MEDICINE SHOPPE,1605 SOUTH UNIVERSITY DRIVE,"FARGO, ND 58103",http://maps.google.com/maps?q=W%20W%20INC%2CDBA%20THE%20MEDICINE%20SHOPPE%2C+FARGO%2C+ND+58103
W W INC,DBA: THE MEDICINE SHOPPE,2800 NORTH BROADWAY,"FARGO, ND 58102",http://maps.google.com/maps?q=W%20W%20INC%2CDBA%3A%20THE%20MEDICINE%20SHOPPE%2C+FARGO%2C+ND+58102
WAHPETON DRUG CO,508 DAKOTA AVE,,"WAHPETON, ND 58075",http://maps.google.com/maps?q=WAHPETON%20DRUG%20CO%2C508%20DAKOTA%20AVE%2C+WAHPETON%2C+ND+58075
WALGREEN CO,1217 22ND ST. NW,,"WASHINGTON, DC 20037",http://maps.google.com/maps?q=WALGREEN%20CO%2C1217%2022ND%20ST.%20NW%2C+WASHINGTON%2C+DC+20037
WALGREEN CO,1260 LIBERTY RD,,"ELDERSBURG, MD 21784",http://maps.google.com/maps?q=WALGREEN%20CO%2C1260%20LIBERTY%20RD%2C+ELDERSBURG%2C+MD+21784
WALGREEN CO.,10097 BALTIMORE NATIONAL PIKE,,"ELLICOTT CITY, MD 21042",http://maps.google.com/maps?q=WALGREEN%20CO%2C10097%20BALTIMORE%20NATIONAL%20PIKE%2C+ELLICOTT%20CITY%2C+MD+21042
WALGREEN CO.,101 FORBES DR.,,"MARTINSBURG, WV 25404",http://maps.google.com/maps?q=WALGREEN%20CO%2C101%20FORBES%20DR.%2C+MARTINSBURG%2C+WV+25404
WALGREEN CO.,10600 ROLLINGWOOD DRIVE,,"FREDERICKSBURG, VA 22407",http://maps.google.com/maps?q=WALGREEN%20CO%2C10600%20ROLLINGWOOD%20DRIVE%2C+FREDERICKSBURG%2C+VA+22407
WALGREEN CO.,111 MICHIGAN AVE NW STE 1107,,"WASHINGTON, DC 20010",http://maps.google.com/maps?q=WALGREEN%20CO%2C111%20MICHIGAN%20AVE%20NW%20STE%201107%2C+WASHINGTON%2C+DC+20010
WALGREEN CO.,1155 F STREET NW,,"WASHINGTON, DC 20004",http://maps.google.com/maps?q=WALGREEN%20CO%2C1155%20F%20STREET%20NW%2C+WASHINGTON%2C+DC+20004
WALGREEN CO.,1329 UNIVERSITY BLVD. E,,"TAKOMA PARK, MD 20912",http://maps.google.com/maps?q=WALGREEN%20CO%2C1329%20UNIVERSITY%20BLVD.%20E%2C+TAKOMA%20PARK%2C+MD+20912
WALGREEN CO.,13926 LEE HWY.,,"CENTREVILLE, VA 20120",http://maps.google.com/maps?q=WALGREEN%20CO%2C13926%20LEE%20HWY.%2C+CENTREVILLE%2C+VA+20120
WALGREEN CO.,1900 HAMILTON BLVD,,"SIOUX CITY, IA 51104",http://maps.google.com/maps?q=WALGREEN%20CO%2C1900%20HAMILTON%20BLVD%2C+SIOUX%20CITY%2C+IA+51104
WALGREEN CO.,276 W LEE HWY,,"WARRENTON, VA 20186",http://maps.google.com/maps?q=WALGREEN%20CO%2C276%20W%20LEE%20HWY%2C+WARRENTON%2C+VA+20186
WALGREEN CO.,3005 EMMORTON ROAD,,"ABINGDON, MD 21009",http://maps.google.com/maps?q=WALGREEN%20CO%2C3005%20EMMORTON%20ROAD%2C+ABINGDON%2C+MD+21009
WALGREEN CO.,4020 EASTERN AVENUE,,"BALTIMORE, MD 21224",http://maps.google.com/maps?q=WALGREEN%20CO%2C4020%20EASTERN%20AVENUE%2C+BALTIMORE%2C+MD+21224
WALGREEN CO.,4300 BACKLICK RD,,"ANNANDALE, VA 22003",http://maps.google.com/maps?q=WALGREEN%20CO%2C4300%20BACKLICK%20RD%2C+ANNANDALE%2C+VA+22003
WALGREEN CO.,50 WHITE OAK RD,,"FREDERICKSBURG, VA 22405",http://maps.google.com/maps?q=WALGREEN%20CO%2C50%20WHITE%20OAK%20RD%2C+FREDERICKSBURG%2C+VA+22405
WALGREEN CO.,5657 BALTIMORE NATIONAL PIKE,,"CATONSVILLE, MD 21228",http://maps.google.com/maps?q=WALGREEN%20CO%2C5657%20BALTIMORE%20NATIONAL%20PIKE%2C+CATONSVILLE%2C+MD+21228
WALGREEN CO.,600 WASHINGTON BLVD. S,,"LAUREL, MD 20707",http://maps.google.com/maps?q=WALGREEN%20CO%2C600%20WASHINGTON%20BLVD.%20S%2C+LAUREL%2C+MD+20707
WALGREEN CO.,6700 RITCHIE HWY,,"GLEN BURNIE, MD 21061",http://maps.google.com/maps?q=WALGREEN%20CO%2C6700%20RITCHIE%20HWY%2C+GLEN%20BURNIE%2C+MD+21061
WALGREEN CO.,6717 RICHMOND HWY.,,"ALEXANDRIA, VA 22306",http://maps.google.com/maps?q=WALGREEN%20CO%2C6717%20RICHMOND%20HWY.%2C+ALEXANDRIA%2C+VA+22306
WALGREEN CO.,801 7TH ST NW,,"WASHINGTON, DC 20001",http://maps.google.com/maps?q=WALGREEN%20CO%2C801%207TH%20ST%20NW%2C+WASHINGTON%2C+DC+20001
WALGREEN CO.,8414 OLD KEENE MILL RD.,UNIT A,"SPRINGFIELD, VA 22152",http://maps.google.com/maps?q=WALGREEN%20CO%2C8414%20OLD%20KEENE%20MILL%20RD.%2C+SPRINGFIELD%2C+VA+22152
WALGREEN CO.,9001 WOODY TERRACE,SUITE B,"CLINTON, MD 20735",http://maps.google.com/maps?q=WALGREEN%20CO%2C9001%20WOODY%20TERRACE%2C+CLINTON%2C+MD+20735
WALGREEN CO.,9616 HARFORD ROAD,,"BALTIMORE, MD 21234",http://maps.google.com/maps?q=WALGREEN%20CO%2C9616%20HARFORD%20ROAD%2C+BALTIMORE%2C+MD+21234
WALHALLA PRESCRIPTION SHOP,1102 CENTRAL AVENUE,P.O. BOX 428,"WALHALLA, ND 58282",http://maps.google.com/maps?q=WALHALLA%20PRESCRIPTION%20SHOP%2C1102%20CENTRAL%20AVENUE%2C+WALHALLA%2C+ND+58282
WALL'S MEDICINE CENTER INC,708 S WASHINGTON ST,,"GRAND FORKS, ND 58201",http://maps.google.com/maps?q=WALLS%20MEDICINE%20CENTER%20INC%2C708%20S%20WASHINGTON%20ST%2C+GRAND%20FORKS%2C+ND+58201
WALLS ALTRU PHARM INC D/B/A WALLS HEALTHMART PHARM,4440 S WASHINGTON ST STE 101-D,,"GRAND FORKS, ND 58201",http://maps.google.com/maps?q=WALLS%20ALTRU%20PHARM%20INC%20DBA%20WALLS%20HEALTHMART%20PHARM%2C4440%20S%20WASHINGTON%20ST%20STE%20101-D%2C+GRAND%20FORKS%2C+ND+58201
WHITE DRUG #009,2475 32ND AVE S STE 1,,"GRAND FORKS, ND 58201",http://maps.google.com/maps?q=WHITE%20DRUG%2C2475%2032ND%20AVE%20S%20STE%201%2C+GRAND%20FORKS%2C+ND+58201
WHITE DRUG #66,109 W MAIN ST,P.O. BOX 329,"ASHLEY, ND 58413",http://maps.google.com/maps?q=WHITE%20DRUG%2C109%20W%20MAIN%20ST%2C+ASHLEY%2C+ND+58413
WHITE DRUG #71,121 NORTH BROADWAY,P.O. BOX 760,"LINTON, ND 58552",http://maps.google.com/maps?q=WHITE%20DRUG%2C121%20NORTH%20BROADWAY%2C+LINTON%2C+ND+58552
WHITE DRUG #72,404 MAIN STREET,P.O. BOX 770,"LISBON, ND 58054",http://maps.google.com/maps?q=WHITE%20DRUG%2C404%20MAIN%20STREET%2C+LISBON%2C+ND+58054
WOODROW WILSON KEEBLE MEMORIAL HEALTH CARE CTR,ATTN: PHARMACY,100 LAKE TRAVERSE DRIVE,"SISSETON, SD 57262",http://maps.google.com/maps?q=WOODROW%20WILSON%20KEEBLE%20MEMORIAL%20HEALTH%20CARE%20CTR%2CATTN%3A%20PHARMACY%2C+SISSETON%2C+SD+57262
WRNMMC-WALTER REED NATIONAL MILITARY MEDICAL CENTE,PHARMACY DEPT BLDG 9,8901 WISCONSIN AVE,"BETHESDA, MD 20889",http://maps.google.com/maps?q=WRNMMCWALTER%20REED%20NATIONAL%20MILITARY%20MEDICAL%20CENTE%2CPHARMACY%20DEPT%20BLDG%209%2C+BETHESDA%2C+MD+20889
YE OLDE MEDICINE SHOPPE,LAURELYN W LARSON R PH,503 PARK STREET WEST,"PARK RIVER, ND 58270",http://maps.google.com/maps?q=YE%20OLDE%20MEDICINE%20SHOPPE%2CLAURELYN%20W%20LARSON%20R%20PH%2C+PARK%20RIVER%2C+ND+58270
