Business Name,Address 1,Address 2,"City, State Zip",Map URL
"ANESTHESIA SERVICES ASSOCIATES, PLLC",495 DUNLOP LANE,SUITE 106,"CLARKSVILLE, TN 37040",http://maps.google.com/maps?q=ANESTHESIA%20SERVICES%20ASSOCIATES%20PLLC%2C495%20DUNLOP%20LANE%2C+CLARKSVILLE%2C+TN+37040
"APOTHECARE,LLC",82 MAIN STREET,PO BOX 919,"MEADVILLE, MS 39653",http://maps.google.com/maps?q=APOTHECARELLC%2C82%20MAIN%20STREET%2C+MEADVILLE%2C+MS+39653
ATRIUM PHARMACY,260 WEST MAIN STREET,SUITE 217,"HENDERSONVILLE, TN 37075",http://maps.google.com/maps?q=ATRIUM%20PHARMACY%2C260%20WEST%20MAIN%20STREET%2C+HENDERSONVILLE%2C+TN+37075
ATRIUM PHARMACY MEMPHIS,2565 HORIZON LAKE BLVD.,STE. 113,"MEMPHIS, TN 38133",http://maps.google.com/maps?q=ATRIUM%20PHARMACY%20MEMPHIS%2C2565%20HORIZON%20LAKE%20BLVD.%2C+MEMPHIS%2C+TN+38133
BELEW DRUG,2021 N BROADWAY,,"KNOXVILLE, TN 37917",http://maps.google.com/maps?q=BELEW%20DRUG%2C2021%20N%20BROADWAY%2C+KNOXVILLE%2C+TN+37917
BELEW DRUGS WASHINGTON PIKE INC,5908 WASHINGTON PIKE SUITE 102,,"KNOXVILLE, TN 37918",http://maps.google.com/maps?q=BELEW%20DRUGS%20WASHINGTON%20PIKE%20INC%2C5908%20WASHINGTON%20PIKE%20SUITE%20102%2C+KNOXVILLE%2C+TN+37918
"CARECENTER PHARMACY, LLC","2515 PARK PLAZA, SUITE 100",,"NASHVILLE, TN 37203",http://maps.google.com/maps?q=CARECENTER%20PHARMACY%20LLC%2C2515%20PARK%20PLAZA%2C%20SUITE%20100%2C+NASHVILLE%2C+TN+37203
CAREZONE PHARMACY LLC,800 AIRPARK CENTER DRIVE STE 809,,"NASHVILLE, TN 37217",http://maps.google.com/maps?q=CAREZONE%20PHARMACY%20LLC%2C800%20AIRPARK%20CENTER%20DRIVE%20STE%20809%2C+NASHVILLE%2C+TN+37217
CJ SANDLIN LLC,797 MILITARY STREET SOUTH,,"HAMILTON, AL 35570",http://maps.google.com/maps?q=CJ%20SANDLIN%20LLC%2C797%20MILITARY%20STREET%20SOUTH%2C+HAMILTON%2C+AL+35570
COOKE'S PHARMACY,3400 KEITH STREET,,"CLEVELAND, TN 37312",http://maps.google.com/maps?q=COOKES%20PHARMACY%2C3400%20KEITH%20STREET%2C+CLEVELAND%2C+TN+37312
COOKE'S PHARMACY #2,2010 BROOMFIELD ROAD,,"CLEVELAND, TN 37323",http://maps.google.com/maps?q=COOKES%20PHARMACY%2C2010%20BROOMFIELD%20ROAD%2C+CLEVELAND%2C+TN+37323
"CRESTWYN HEALTH GROUP,LLC",9485 CRESTWYN HILLS COVE,,"MEMPHIS, TN 38125",http://maps.google.com/maps?q=CRESTWYN%20HEALTH%20GROUPLLC%2C9485%20CRESTWYN%20HILLS%20COVE%2C+MEMPHIS%2C+TN+38125
DEBBIE'S DRUGS,1716 TEMPLE AVE N,,"FAYETTE, AL 35555",http://maps.google.com/maps?q=DEBBIES%20DRUGS%2C1716%20TEMPLE%20AVE%20N%2C+FAYETTE%2C+AL+35555
DICKSON APOTHECARY,104 HIGHWAY 70 E,,"DICKSON, TN 37055",http://maps.google.com/maps?q=DICKSON%20APOTHECARY%2C104%20HIGHWAY%2070%20E%2C+DICKSON%2C+TN+37055
DISNEY PHARMACY SEVICES,DBA VAUGHN PHARMACY,2141 EMORY ROAD,"POWELL, TN 37849",http://maps.google.com/maps?q=DISNEY%20PHARMACY%20SEVICES%2CDBA%20VAUGHN%20PHARMACY%2C+POWELL%2C+TN+37849
GIBBS PHARMACY,1427B BADDOUR PKWY,,"LEBANON, TN 37087",http://maps.google.com/maps?q=GIBBS%20PHARMACY%2C1427B%20BADDOUR%20PKWY%2C+LEBANON%2C+TN+37087
GREAT RIVER MEDICAL CENTER,1520 N. DIVISION,PO BOX 108,"BLYTHEVILLE, AR 72315",http://maps.google.com/maps?q=GREAT%20RIVER%20MEDICAL%20CENTER%2C1520%20N.%20DIVISION%2C+BLYTHEVILLE%2C+AR+72315
HALL FAMILY PHARMACY,433 WEST CENTRAL AVENUE,,"JAMESTOWN, TN 38556",http://maps.google.com/maps?q=HALL%20FAMILY%20PHARMACY%2C433%20WEST%20CENTRAL%20AVENUE%2C+JAMESTOWN%2C+TN+38556
"KENTUCKY CVS PHARMACY, L.L.C.",538 LONE OAK RD.,,"PADUCAH, KY 42003",http://maps.google.com/maps?q=KENTUCKY%20CVS%20PHARMACY%20LLC%2C538%20LONE%20OAK%20RD.%2C+PADUCAH%2C+KY+42003
LOURDES HOSPITAL INC PHARMACY,1530 LONE OAK RD,,"PADUCAH, KY 42003",http://maps.google.com/maps?q=LOURDES%20HOSPITAL%20INC%20PHARMACY%2C1530%20LONE%20OAK%20RD%2C+PADUCAH%2C+KY+42003
MEDICAL CENTER EAST PHARMACY,1215 21ST AVENUE SOUTH,SUITE 1006,"NASHVILLE, TN 37232",http://maps.google.com/maps?q=MEDICAL%20CENTER%20EAST%20PHARMACY%2C1215%2021ST%20AVENUE%20SOUTH%2C+NASHVILLE%2C+TN+37232
MIDTOWN EXPRESS PHARMACY,"300 20TH AVENUE NORTH, SUITE 105",,"NASHVILLE, TN 37203",http://maps.google.com/maps?q=MIDTOWN%20EXPRESS%20PHARMACY%2C300%2020TH%20AVENUE%20NORTH%2C%20SUITE%20105%2C+NASHVILLE%2C+TN+37203
MS STATE VETERANS HOME,120 VETERANS BLVD,,"OXFORD, MS 38655",http://maps.google.com/maps?q=MS%20STATE%20VETERANS%20HOME%2C120%20VETERANS%20BLVD%2C+OXFORD%2C+MS+38655
MURRAY-CALLOWAY CO HOSPITAL,803 POPLAR STREET,,"MURRAY, KY 42071",http://maps.google.com/maps?q=MURRAYCALLOWAY%20CO%20HOSPITAL%2C803%20POPLAR%20STREET%2C+MURRAY%2C+KY+42071
NORTHWOOD/MASSEY DRUGS,1702 N WOOD AVE,,"FLORENCE, AL 35630",http://maps.google.com/maps?q=NORTHWOODMASSEY%20DRUGS%2C1702%20N%20WOOD%20AVE%2C+FLORENCE%2C+AL+35630
S.M.C. REGIONAL MEDICAL CENTER,611 W. LEE STREET,PO BOX 607,"OSCEOLA, AR 72370",http://maps.google.com/maps?q=SMC%20REGIONAL%20MEDICAL%20CENTER%2C611%20W.%20LEE%20STREET%2C+OSCEOLA%2C+AR+72370
SURE SAVE PHARMACY,30694 HWY 72 WEST,SUITE A,"MADISON, AL 35756",http://maps.google.com/maps?q=SURE%20SAVE%20PHARMACY%2C30694%20HWY%2072%20WEST%2C+MADISON%2C+AL+35756
"TENNESSEE CVS PHARMACY, L.L.C.",103 FOOTHILLS MALL DR.,,"MARYVILLE, TN 37801",http://maps.google.com/maps?q=TENNESSEE%20CVS%20PHARMACY%20LLC%2C103%20FOOTHILLS%20MALL%20DR.%2C+MARYVILLE%2C+TN+37801
"TENNESSEE CVS PHARMACY, L.L.C.",111 S. HALL RD.,,"ALCOA, TN 37701",http://maps.google.com/maps?q=TENNESSEE%20CVS%20PHARMACY%20LLC%2C111%20S.%20HALL%20RD.%2C+ALCOA%2C+TN+37701
"TENNESSEE CVS PHARMACY, L.L.C.",116 COMMONS DR.,,"MARTIN, TN 38237",http://maps.google.com/maps?q=TENNESSEE%20CVS%20PHARMACY%20LLC%2C116%20COMMONS%20DR.%2C+MARTIN%2C+TN+38237
"TENNESSEE CVS PHARMACY, L.L.C.",1200 DODSON AVENUE,,"CHATTANOOGA, TN 37406",http://maps.google.com/maps?q=TENNESSEE%20CVS%20PHARMACY%20LLC%2C1200%20DODSON%20AVENUE%2C+CHATTANOOGA%2C+TN+37406
"TENNESSEE CVS PHARMACY, L.L.C.",1228 W MAIN STREET,,"LEBANON, TN 37087",http://maps.google.com/maps?q=TENNESSEE%20CVS%20PHARMACY%20LLC%2C1228%20W%20MAIN%20STREET%2C+LEBANON%2C+TN+37087
"TENNESSEE CVS PHARMACY, L.L.C.",1405 N. HIGHLAND AVENUE,,"JACKSON, TN 38301",http://maps.google.com/maps?q=TENNESSEE%20CVS%20PHARMACY%20LLC%2C1405%20N.%20HIGHLAND%20AVENUE%2C+JACKSON%2C+TN+38301
"TENNESSEE CVS PHARMACY, L.L.C.",2115 UNION AVE.,,"MEMPHIS, TN 38104",http://maps.google.com/maps?q=TENNESSEE%20CVS%20PHARMACY%20LLC%2C2115%20UNION%20AVE.%2C+MEMPHIS%2C+TN+38104
"TENNESSEE CVS PHARMACY, L.L.C.",2424 OCOEE ST.,,"CLEVELAND, TN 37311",http://maps.google.com/maps?q=TENNESSEE%20CVS%20PHARMACY%20LLC%2C2424%20OCOEE%20ST.%2C+CLEVELAND%2C+TN+37311
"TENNESSEE CVS PHARMACY, L.L.C.",4155 ELVIS PRESLEY BLVD,,"MEMPHIS, TN 38116",http://maps.google.com/maps?q=TENNESSEE%20CVS%20PHARMACY%20LLC%2C4155%20ELVIS%20PRESLEY%20BLVD%2C+MEMPHIS%2C+TN+38116
"TENNESSEE CVS PHARMACY, L.L.C.",417 EMORY ROAD,,"POWELL, TN 37849",http://maps.google.com/maps?q=TENNESSEE%20CVS%20PHARMACY%20LLC%2C417%20EMORY%20ROAD%2C+POWELL%2C+TN+37849
"TENNESSEE CVS PHARMACY, L.L.C.",5120 HIGHWAY 153,,"HIXSON, TN 37343",http://maps.google.com/maps?q=TENNESSEE%20CVS%20PHARMACY%20LLC%2C5120%20HIGHWAY%20153%2C+HIXSON%2C+TN+37343
"TENNESSEE CVS PHARMACY, L.L.C.",6005 KINGSTON PIKE,,"KNOXVILLE, TN 37919",http://maps.google.com/maps?q=TENNESSEE%20CVS%20PHARMACY%20LLC%2C6005%20KINGSTON%20PIKE%2C+KNOXVILLE%2C+TN+37919
"TENNESSEE CVS PHARMACY, L.L.C.",6620 WINCHESTER RD.,,"MEMPHIS, TN 38115",http://maps.google.com/maps?q=TENNESSEE%20CVS%20PHARMACY%20LLC%2C6620%20WINCHESTER%20RD.%2C+MEMPHIS%2C+TN+38115
"TENNESSEE CVS PHARMACY, L.L.C.",6670 STAGE ROAD,,"BARTLETT, TN 38134",http://maps.google.com/maps?q=TENNESSEE%20CVS%20PHARMACY%20LLC%2C6670%20STAGE%20ROAD%2C+BARTLETT%2C+TN+38134
"TENNESSEE CVS PHARMACY, L.L.C.",786 GERMANTOWN PKWY.,,"CORDOVA, TN 38018",http://maps.google.com/maps?q=TENNESSEE%20CVS%20PHARMACY%20LLC%2C786%20GERMANTOWN%20PKWY.%2C+CORDOVA%2C+TN+38018
"TENNESSEE CVS PHARMACY, L.L.C.",9175 KINGSTON PIKE,,"KNOXVILLE, TN 37923",http://maps.google.com/maps?q=TENNESSEE%20CVS%20PHARMACY%20LLC%2C9175%20KINGSTON%20PIKE%2C+KNOXVILLE%2C+TN+37923
THE DRUG STORE,153 HERNDON DRIVE,,"BELLS, TN 38006",http://maps.google.com/maps?q=THE%20DRUG%20STORE%2C153%20HERNDON%20DRIVE%2C+BELLS%2C+TN+38006
UNIVERSITY PHARMACY,1924 ALCOA HWY,SUITE NP100,"KNOXVILLE, TN 37920",http://maps.google.com/maps?q=UNIVERSITY%20PHARMACY%2C1924%20ALCOA%20HWY%2C+KNOXVILLE%2C+TN+37920
US ARMY - TOWN CENTER PHARMACY,98 MICHIGAN AVE,BLDG 98,"FORT CAMPBELL, KY 42223",http://maps.google.com/maps?q=US%20ARMY%20%20TOWN%20CENTER%20PHARMACY%2C98%20MICHIGAN%20AVE%2C+FORT%20CAMPBELL%2C+KY+42223
US ARMY- BLANCHFIELD  COMMUNITY,"MEDDAC, BLDG 650, RM 1BG01",,"FORT CAMPBELL, KY 42223",http://maps.google.com/maps?q=US%20ARMY%20BLANCHFIELD%20%20COMMUNITY%2CMEDDAC%2C%20BLDG%20650%2C%20RM%201BG01%2C+FORT%20CAMPBELL%2C+KY+42223
US ARMY- FOX HEALTH CENTER,GOSS ROAD,BUILDING 4100,"REDSTONE ARSENAL, AL 35809",http://maps.google.com/maps?q=US%20ARMY%20FOX%20HEALTH%20CENTER%2CGOSS%20ROAD%2C+REDSTONE%20ARSENAL%2C+AL+35809
USAF-14TH MEDICAL SQUADRON,201 INDEPENDENCE DR,STE 109 BLDG 1100,"COLUMBUS AFB, MS 39710",http://maps.google.com/maps?q=USAFTH%20MEDICAL%20SQUADRON%2C201%20INDEPENDENCE%20DR%2C+COLUMBUS%20AFB%2C+MS+39710
VANDERBILT CHILDREN'S OUTPATIENT PHARMACY,2200 CHILDREN'S WAY,VCH 2106,"NASHVILLE, TN 37232",http://maps.google.com/maps?q=VANDERBILT%20CHILDRENS%20OUTPATIENT%20PHARMACY%2C2200%20CHILDREN'S%20WAY%2C+NASHVILLE%2C+TN+37232
VANDERBILT HEALTH PHARMACY,719 THOMPSON LANE,SUITE 24130,"NASHVILLE, TN 37204",http://maps.google.com/maps?q=VANDERBILT%20HEALTH%20PHARMACY%2C719%20THOMPSON%20LANE%2C+NASHVILLE%2C+TN+37204
VANDERBILT OUTPATIENT PHARMACY,1211 MEDICAL CENTER DRIVE,TVC 1815,"NASHVILLE, TN 37232",http://maps.google.com/maps?q=VANDERBILT%20OUTPATIENT%20PHARMACY%2C1211%20MEDICAL%20CENTER%20DRIVE%2C+NASHVILLE%2C+TN+37232
VILLAGE DRUG SHOP,1001 AVALON AVE,,"MUSCLE SHOALS, AL 35661",http://maps.google.com/maps?q=VILLAGE%20DRUG%20SHOP%2C1001%20AVALON%20AVE%2C+MUSCLE%20SHOALS%2C+AL+35661
"VITAL CARE OF MISS-LOU, INC",6280 HIGHWAY 129,PO BOX 37,"MONTEREY, LA 71354",http://maps.google.com/maps?q=VITAL%20CARE%20OF%20MISSLOU%20INC%2C6280%20HIGHWAY%20129%2C+MONTEREY%2C+LA+71354
WALGREEN CO.,106 W NORTHFIELD,,"MURFREESBORO, TN 37129",http://maps.google.com/maps?q=WALGREEN%20CO%2C106%20W%20NORTHFIELD%2C+MURFREESBORO%2C+TN+37129
WALGREEN CO.,1145 U.S. 31 W. BYPASS,,"BOWLING GREEN, KY 42101",http://maps.google.com/maps?q=WALGREEN%20CO%2C1145%20U.S.%2031%20W.%20BYPASS%2C+BOWLING%20GREEN%2C+KY+42101
WALGREEN CO.,1202 S JAMES CAMPBELL BLVD,,"COLUMBIA, TN 38401",http://maps.google.com/maps?q=WALGREEN%20CO%2C1202%20S%20JAMES%20CAMPBELL%20BLVD%2C+COLUMBIA%2C+TN+38401
WALGREEN CO.,1205 MAIN ST,,"MURRAY, KY 42071",http://maps.google.com/maps?q=WALGREEN%20CO%2C1205%20MAIN%20ST%2C+MURRAY%2C+KY+42071
WALGREEN CO.,121 N. NORTHSHORE DRIVE,,"KNOXVILLE, TN 37919",http://maps.google.com/maps?q=WALGREEN%20CO%2C121%20N.%20NORTHSHORE%20DRIVE%2C+KNOXVILLE%2C+TN+37919
WALGREEN CO.,1299 OAK RIDGE TURNPIKE,,"OAK RIDGE, TN 37830",http://maps.google.com/maps?q=WALGREEN%20CO%2C1299%20OAK%20RIDGE%20TURNPIKE%2C+OAK%20RIDGE%2C+TN+37830
WALGREEN CO.,1302 S CONGRESS PARKWAY,,"ATHENS, TN 37303",http://maps.google.com/maps?q=WALGREEN%20CO%2C1302%20S%20CONGRESS%20PARKWAY%2C+ATHENS%2C+TN+37303
WALGREEN CO.,1303 W MAIN,,"LEBANON, TN 37087",http://maps.google.com/maps?q=WALGREEN%20CO%2C1303%20W%20MAIN%2C+LEBANON%2C+TN+37087
WALGREEN CO.,1332 N HIGHLAND AVE.,,"JACKSON, TN 38301",http://maps.google.com/maps?q=WALGREEN%20CO%2C1332%20N%20HIGHLAND%20AVE.%2C+JACKSON%2C+TN+38301
WALGREEN CO.,1497 CANTON MART RD,,"JACKSON, MS 39211",http://maps.google.com/maps?q=WALGREEN%20CO%2C1497%20CANTON%20MART%20RD%2C+JACKSON%2C+MS+39211
WALGREEN CO.,1751 TINY TOWN RD.,,"CLARKSVILLE, TN 37042",http://maps.google.com/maps?q=WALGREEN%20CO%2C1751%20TINY%20TOWN%20RD.%2C+CLARKSVILLE%2C+TN+37042
WALGREEN CO.,1863 UNION AVE,,"MEMPHIS, TN 38104",http://maps.google.com/maps?q=WALGREEN%20CO%2C1863%20UNION%20AVE%2C+MEMPHIS%2C+TN+38104
WALGREEN CO.,1954 MADISON STREET,,"CLARKSVILLE, TN 37043",http://maps.google.com/maps?q=WALGREEN%20CO%2C1954%20MADISON%20STREET%2C+CLARKSVILLE%2C+TN+37043
WALGREEN CO.,198 E MAIN ST,,"HENDERSONVILLE, TN 37075",http://maps.google.com/maps?q=WALGREEN%20CO%2C198%20E%20MAIN%20ST%2C+HENDERSONVILLE%2C+TN+37075
WALGREEN CO.,204 HIGHWAY 80 EAST,,"CLINTON, MS 39056",http://maps.google.com/maps?q=WALGREEN%20CO%2C204%20HIGHWAY%2080%20EAST%2C+CLINTON%2C+MS+39056
WALGREEN CO.,225 N HALL RD,,"ALCOA, TN 37701",http://maps.google.com/maps?q=WALGREEN%20CO%2C225%20N%20HALL%20RD%2C+ALCOA%2C+TN+37701
WALGREEN CO.,2289 GUNBARREL,,"CHATTANOOGA, TN 37421",http://maps.google.com/maps?q=WALGREEN%20CO%2C2289%20GUNBARREL%2C+CHATTANOOGA%2C+TN+37421
WALGREEN CO.,2400 BROADWAY,,"KNOXVILLE, TN 37917",http://maps.google.com/maps?q=WALGREEN%20CO%2C2400%20BROADWAY%2C+KNOXVILLE%2C+TN+37917
WALGREEN CO.,3130 CLARKSVILLE PIKE,,"NASHVILLE, TN 37218",http://maps.google.com/maps?q=WALGREEN%20CO%2C3130%20CLARKSVILLE%20PIKE%2C+NASHVILLE%2C+TN+37218
WALGREEN CO.,3670 RIVERDALE ROAD,,"MEMPHIS, TN 38115",http://maps.google.com/maps?q=WALGREEN%20CO%2C3670%20RIVERDALE%20ROAD%2C+MEMPHIS%2C+TN+38115
WALGREEN CO.,4001 CHAPMAN HIGHWAY,,"KNOXVILLE, TN 37920",http://maps.google.com/maps?q=WALGREEN%20CO%2C4001%20CHAPMAN%20HIGHWAY%2C+KNOXVILLE%2C+TN+37920
WALGREEN CO.,4154 ELVIS PRESLEY BLVD,,"MEMPHIS, TN 38116",http://maps.google.com/maps?q=WALGREEN%20CO%2C4154%20ELVIS%20PRESLEY%20BLVD%2C+MEMPHIS%2C+TN+38116
WALGREEN CO.,500 S WILLOW AVE,,"COOKEVILLE, TN 38501",http://maps.google.com/maps?q=WALGREEN%20CO%2C500%20S%20WILLOW%20AVE%2C+COOKEVILLE%2C+TN+38501
WALGREEN CO.,5006 N BROADWAY STREET,,"KNOXVILLE, TN 37918",http://maps.google.com/maps?q=WALGREEN%20CO%2C5006%20N%20BROADWAY%20STREET%2C+KNOXVILLE%2C+TN+37918
WALGREEN CO.,5080 STAGE RD,,"MEMPHIS, TN 38128",http://maps.google.com/maps?q=WALGREEN%20CO%2C5080%20STAGE%20RD%2C+MEMPHIS%2C+TN+38128
WALGREEN CO.,518 DONELSON PIKE,,"NASHVILLE, TN 37214",http://maps.google.com/maps?q=WALGREEN%20CO%2C518%20DONELSON%20PIKE%2C+NASHVILLE%2C+TN+37214
WALGREEN CO.,521 LONE OAK ROAD,,"PADUCAH, KY 42003",http://maps.google.com/maps?q=WALGREEN%20CO%2C521%20LONE%20OAK%20ROAD%2C+PADUCAH%2C+KY+42003
WALGREEN CO.,5478 HIGHWAY 153,,"HIXSON, TN 37343",http://maps.google.com/maps?q=WALGREEN%20CO%2C5478%20HIGHWAY%20153%2C+HIXSON%2C+TN+37343
WALGREEN CO.,5555 EDMONSON PIKE,,"NASHVILLE, TN 37211",http://maps.google.com/maps?q=WALGREEN%20CO%2C5555%20EDMONSON%20PIKE%2C+NASHVILLE%2C+TN+37211
WALGREEN CO.,600 S HWY 27,,"SOMERSET, KY 42501",http://maps.google.com/maps?q=WALGREEN%20CO%2C600%20S%20HWY%2027%2C+SOMERSET%2C+KY+42501
WALGREEN CO.,6130 HWY 49,,"HATTIESBURG, MS 39401",http://maps.google.com/maps?q=WALGREEN%20CO%2C6130%20HWY%2049%2C+HATTIESBURG%2C+MS+39401
WALGREEN CO.,6310 POPLAR AVENUE,,"MEMPHIS, TN 38119",http://maps.google.com/maps?q=WALGREEN%20CO%2C6310%20POPLAR%20AVENUE%2C+MEMPHIS%2C+TN+38119
WALGREEN CO.,6697 STAGE ROAD,,"BARTLETT, TN 38134",http://maps.google.com/maps?q=WALGREEN%20CO%2C6697%20STAGE%20ROAD%2C+BARTLETT%2C+TN+38134
WALGREEN CO.,7601 HWY 70 S,,"NASHVILLE, TN 37221",http://maps.google.com/maps?q=WALGREEN%20CO%2C7601%20HWY%2070%20S%2C+NASHVILLE%2C+TN+37221
WALGREEN CO.,7813 HIGHWAY 72 W,,"MADISON, AL 35758",http://maps.google.com/maps?q=WALGREEN%20CO%2C7813%20HIGHWAY%2072%20W%2C+MADISON%2C+AL+35758
WALGREEN CO.,817 W MAIN STREET,,"TUPELO, MS 38801",http://maps.google.com/maps?q=WALGREEN%20CO%2C817%20W%20MAIN%20STREET%2C+TUPELO%2C+MS+38801
WALGREEN CO.,82 ELMORE RD,,"CROSSVILLE, TN 38555",http://maps.google.com/maps?q=WALGREEN%20CO%2C82%20ELMORE%20RD%2C+CROSSVILLE%2C+TN+38555
WALGREEN CO.,9200 MIDDLEBROOK PIKE,,"KNOXVILLE, TN 37931",http://maps.google.com/maps?q=WALGREEN%20CO%2C9200%20MIDDLEBROOK%20PIKE%2C+KNOXVILLE%2C+TN+37931
