Business Name,Address 1,Address 2,"City, State Zip",Map URL
ALLIANCE COMMUNITY HOSPITAL,200 E. STATE ST,,"ALLIANCE, OH 44601",http://maps.google.com/maps?q=ALLIANCE%20COMMUNITY%20HOSPITAL%2C200%20E.%20STATE%20ST%2C+ALLIANCE%2C+OH+44601
BARNESVILLE HOSPITAL ASSN INC,639 W MAIN ST,,"BARNESVILLE, OH 43713",http://maps.google.com/maps?q=BARNESVILLE%20HOSPITAL%20ASSN%20INC%2C639%20W%20MAIN%20ST%2C+BARNESVILLE%2C+OH+43713
BELLWOOD DRUGS,135 SOUTH MAIN STREET,,"WOODSFIELD, OH 43793",http://maps.google.com/maps?q=BELLWOOD%20DRUGS%2C135%20SOUTH%20MAIN%20STREET%2C+WOODSFIELD%2C+OH+43793
BELMONT CO HLTH SERVICES,DBA MORRISTOWN PHCY,66840 BELMONT-MORRISTOWN RD,"BELMONT, OH 43718",http://maps.google.com/maps?q=BELMONT%20CO%20HLTH%20SERVICES%2CDBA%20MORRISTOWN%20PHCY%2C+BELMONT%2C+OH+43718
BROCKWAY DRUG COMPANY INC,1365 MAIN STREET,,"BROCKWAY, PA 15824",http://maps.google.com/maps?q=BROCKWAY%20DRUG%20COMPANY%20INC%2C1365%20MAIN%20STREET%2C+BROCKWAY%2C+PA+15824
"CAMERLIN ENTERPRISES, LLC",615 WELLS STREET,,"SISTERSVILLE, WV 26175",http://maps.google.com/maps?q=CAMERLIN%20ENTERPRISES%20LLC%2C615%20WELLS%20STREET%2C+SISTERSVILLE%2C+WV+26175
CARESITE PHARMACY,132 ABIGAIL LANE,,"PORT MATILDA, PA 16870",http://maps.google.com/maps?q=CARESITE%20PHARMACY%2C132%20ABIGAIL%20LANE%2C+PORT%20MATILDA%2C+PA+16870
CARESITE PHARMACY,21 GEISINGER LANE,,"LEWISTOWN, PA 17044",http://maps.google.com/maps?q=CARESITE%20PHARMACY%2C21%20GEISINGER%20LANE%2C+LEWISTOWN%2C+PA+17044
CARESITE PHARMACY,300 HIGHLAND AVENUE,,"LEWISTOWN, PA 17044",http://maps.google.com/maps?q=CARESITE%20PHARMACY%2C300%20HIGHLAND%20AVENUE%2C+LEWISTOWN%2C+PA+17044
CARESITE PHARMACY,4752 SR 655 SUITE A,BIG VALLEY AREA MEDICAL CENTER,"BELLEVILLE, PA 17004",http://maps.google.com/maps?q=CARESITE%20PHARMACY%2C4752%20SR%20655%20SUITE%20A%2C+BELLEVILLE%2C+PA+17004
CHEFFY DRUGS LLC,148 EAST MAIN ST,,"BARNESVILLE, OH 43713",http://maps.google.com/maps?q=CHEFFY%20DRUGS%20LLC%2C148%20EAST%20MAIN%20ST%2C+BARNESVILLE%2C+OH+43713
CHILDRENS HOSPITAL OF PITTSBURGH,4401 PENN AVENUE,,"PITTSBURGH, PA 15224",http://maps.google.com/maps?q=CHILDRENS%20HOSPITAL%20OF%20PITTSBURGH%2C4401%20PENN%20AVENUE%2C+PITTSBURGH%2C+PA+15224
CHRISTIAN PHARMACY,DBA CORNER PHARMACY,102 WEST MAIN ST,"BARNESVILLE, OH 43713",http://maps.google.com/maps?q=CHRISTIAN%20PHARMACY%2CDBA%20CORNER%20PHARMACY%2C+BARNESVILLE%2C+OH+43713
"CVS ALBANY, L.L.C.",19 S. MAIN ST.,,"JAMESTOWN, NY 14701",http://maps.google.com/maps?q=CVS%20ALBANY%20LLC%2C19%20S.%20MAIN%20ST.%2C+JAMESTOWN%2C+NY+14701
DAVIS BROTHERS PHARMACY,615 N CHESTER ST,,"NEW CUMBERLAND, WV 26047",http://maps.google.com/maps?q=DAVIS%20BROTHERS%20PHARMACY%2C615%20N%20CHESTER%20ST%2C+NEW%20CUMBERLAND%2C+WV+26047
DAVIS BROTHERS PHARMACY - CHESTER,559 CAROLINA AVE STE B,,"CHESTER, WV 26034",http://maps.google.com/maps?q=DAVIS%20BROTHERS%20PHARMACY%20%20CHESTER%2C559%20CAROLINA%20AVE%20STE%20B%2C+CHESTER%2C+WV+26034
DONORA UNION PHARMACY,601 MCKEAN AVE,,"DONORA, PA 15033",http://maps.google.com/maps?q=DONORA%20UNION%20PHARMACY%2C601%20MCKEAN%20AVE%2C+DONORA%2C+PA+15033
FAST & FRIENDLY PHARMACY RC LLC,4 GARTON PLAZA,,"WESTON, WV 26452",http://maps.google.com/maps?q=FAST%20%20FRIENDLY%20PHARMACY%20RC%20LLC%2C4%20GARTON%20PLAZA%2C+WESTON%2C+WV+26452
FRANKLIN PHARM & HEALTH CARE,1732 YOUNGSTOWN RD,,"WARREN, OH 44484",http://maps.google.com/maps?q=FRANKLIN%20PHARM%20%20HEALTH%20CARE%2C1732%20YOUNGSTOWN%20RD%2C+WARREN%2C+OH+44484
"GENOA HEALTHCARE, LLC","624 MARKET STREET N, STE 140",,"CANTON, OH 44702",http://maps.google.com/maps?q=GENOA%20HEALTHCARE%20LLC%2C624%20MARKET%20STREET%20N%2C%20STE%20140%2C+CANTON%2C+OH+44702
"GENOA HEALTHCARE, LLC",625 CLEVELAND AVE NW,SUITE 301,"CANTON, OH 44702",http://maps.google.com/maps?q=GENOA%20HEALTHCARE%20LLC%2C625%20CLEVELAND%20AVE%20NW%2C+CANTON%2C+OH+44702
"GENOA HEALTHCARE, LLC",726 WICK AVE,,"YOUNGSTOWN, OH 44505",http://maps.google.com/maps?q=GENOA%20HEALTHCARE%20LLC%2C726%20WICK%20AVE%2C+YOUNGSTOWN%2C+OH+44505
GRANE SUPPLY,105 GAMMA DRIVE,SUITE 100,"PITTSBURGH, PA 15238",http://maps.google.com/maps?q=GRANE%20SUPPLY%2C105%20GAMMA%20DRIVE%2C+PITTSBURGH%2C+PA+15238
HAYDENS PHARMACY,505 NORTH FOURTH STREET,,"YOUNGWOOD, PA 15697",http://maps.google.com/maps?q=HAYDENS%20PHARMACY%2C505%20NORTH%20FOURTH%20STREET%2C+YOUNGWOOD%2C+PA+15697
HERITAGE VALLEY PHARMACY,BEAVER CAMPUS/PHARMACY DEPT,1000 DUTCH RIDGE ROAD,"BEAVER, PA 15009",http://maps.google.com/maps?q=HERITAGE%20VALLEY%20PHARMACY%2CBEAVER%20CAMPUS/PHARMACY%20DEPT%2C+BEAVER%2C+PA+15009
HERITAGE VALLEY PHARMACY SEWICKLEY CAMP,720 BLACKBURN ROAD,,"SEWICKLEY, PA 15143",http://maps.google.com/maps?q=HERITAGE%20VALLEY%20PHARMACY%20SEWICKLEY%20CAMP%2C720%20BLACKBURN%20ROAD%2C+SEWICKLEY%2C+PA+15143
HERITAGE VILLAGE REHAB AND SKILLED NURSING INC,4600 RT 60,PO BOX 350,"GERRY, NY 14740",http://maps.google.com/maps?q=HERITAGE%20VILLAGE%20REHAB%20AND%20SKILLED%20NURSING%20INC%2C4600%20RT%2060%2C+GERRY%2C+NY+14740
HIGHLANDS HOSPITAL,401 EAST MURPHY AVE.,,"CONNELLSVILLE, PA 15425",http://maps.google.com/maps?q=HIGHLANDS%20HOSPITAL%2C401%20EAST%20MURPHY%20AVE.%2C+CONNELLSVILLE%2C+PA+15425
HILLTOP PHARMACY,818 E. WARRINGTON AVENUE,,"PITTSBURGH, PA 15210",http://maps.google.com/maps?q=HILLTOP%20PHARMACY%2C818%20E.%20WARRINGTON%20AVENUE%2C+PITTSBURGH%2C+PA+15210
HYDE DRUG STORE,112 N LIBERTY ST,,"NEW CASTLE, PA 16102",http://maps.google.com/maps?q=HYDE%20DRUG%20STORE%2C112%20N%20LIBERTY%20ST%2C+NEW%20CASTLE%2C+PA+16102
LATROBE HOSPITAL ASSN,ATTENTION PHARMACY,ONE MELLON WAY,"LATROBE, PA 15650",http://maps.google.com/maps?q=LATROBE%20HOSPITAL%20ASSN%2CATTENTION%20PHARMACY%2C+LATROBE%2C+PA+15650
"MARKS, JEFFREY A.",9 WEST MAIN STREET,PO BOX 128,"FRIENDSHIP, NY 14739",http://maps.google.com/maps?q=MARKS%20JEFFREY%20A%2C9%20WEST%20MAIN%20STREET%2C+FRIENDSHIP%2C+NY+14739
"MARYLAND CVS PHARMACY, L.L.C.",402 SO. JEFFERSON STREET,,"FREDERICK, MD 21701",http://maps.google.com/maps?q=MARYLAND%20CVS%20PHARMACY%20LLC%2C402%20SO.%20JEFFERSON%20STREET%2C+FREDERICK%2C+MD+21701
MERCER PHARMACY,737 GREENVILLE ROAD,,"MERCER, PA 16137",http://maps.google.com/maps?q=MERCER%20PHARMACY%2C737%20GREENVILLE%20ROAD%2C+MERCER%2C+PA+16137
MOUNDSVILLE PHARMACY,118 NORTH LAFAYETTE AVENUE,,"MOUNDSVILLE, WV 26041",http://maps.google.com/maps?q=MOUNDSVILLE%20PHARMACY%2C118%20NORTH%20LAFAYETTE%20AVENUE%2C+MOUNDSVILLE%2C+WV+26041
NICHOLSON PHARMACY,36 SCHUYLER STREET,,"BELMONT, NY 14813",http://maps.google.com/maps?q=NICHOLSON%20PHARMACY%2C36%20SCHUYLER%20STREET%2C+BELMONT%2C+NY+14813
NORTHERN BEDFORD PHARMACY,3499 BRUMBAUGH RD,,"NEW ENTERPRISE, PA 16664",http://maps.google.com/maps?q=NORTHERN%20BEDFORD%20PHARMACY%2C3499%20BRUMBAUGH%20RD%2C+NEW%20ENTERPRISE%2C+PA+16664
NORTHWEST PHARMACY SOLUTIONS,740 N MAIN ST EXT,STE 001,"MEADVILLE, PA 16335",http://maps.google.com/maps?q=NORTHWEST%20PHARMACY%20SOLUTIONS%2C740%20N%20MAIN%20ST%20EXT%2C+MEADVILLE%2C+PA+16335
"OHIO CVS STORES, L.L.C.",21 GRANT ST.,,"DENNISON, OH 44621",http://maps.google.com/maps?q=OHIO%20CVS%20STORES%20LLC%2C21%20GRANT%20ST.%2C+DENNISON%2C+OH+44621
"OHIO CVS STORES, L.L.C.",2210 TUSCARAWAS ST. W,,"CANTON, OH 44708",http://maps.google.com/maps?q=OHIO%20CVS%20STORES%20LLC%2C2210%20TUSCARAWAS%20ST.%20W%2C+CANTON%2C+OH+44708
"OHIO CVS STORES, L.L.C.",2846 MAHONING AVE,,"YOUNGSTOWN, OH 44509",http://maps.google.com/maps?q=OHIO%20CVS%20STORES%20LLC%2C2846%20MAHONING%20AVE%2C+YOUNGSTOWN%2C+OH+44509
"PENNSYLVANIA CVS PHARMACY, L.L.C.",10 DAVIS ST,,"BRADFORD, PA 16701",http://maps.google.com/maps?q=PENNSYLVANIA%20CVS%20PHARMACY%20LLC%2C10%20DAVIS%20ST%2C+BRADFORD%2C+PA+16701
"PENNSYLVANIA CVS PHARMACY, L.L.C.",1740 WASHINGTON RD,,"PITTSBURGH, PA 15241",http://maps.google.com/maps?q=PENNSYLVANIA%20CVS%20PHARMACY%20LLC%2C1740%20WASHINGTON%20RD%2C+PITTSBURGH%2C+PA+15241
"PENNSYLVANIA CVS PHARMACY, L.L.C.",204 EAST SECOND STREET,,"OIL CITY, PA 16301",http://maps.google.com/maps?q=PENNSYLVANIA%20CVS%20PHARMACY%20LLC%2C204%20EAST%20SECOND%20STREET%2C+OIL%20CITY%2C+PA+16301
"PENNSYLVANIA CVS PHARMACY, L.L.C.",4610 CENTRE AVE,,"PITTSBURGH, PA 15213",http://maps.google.com/maps?q=PENNSYLVANIA%20CVS%20PHARMACY%20LLC%2C4610%20CENTRE%20AVE%2C+PITTSBURGH%2C+PA+15213
"PENNSYLVANIA CVS PHARMACY, L.L.C.",520 PENN AVE,,"WILKINSBURG, PA 15221",http://maps.google.com/maps?q=PENNSYLVANIA%20CVS%20PHARMACY%20LLC%2C520%20PENN%20AVE%2C+WILKINSBURG%2C+PA+15221
PURCELLVILLE PHARMACY,609 E MAIN ST SUITE Q,,"PURCELLVILLE, VA 20132",http://maps.google.com/maps?q=PURCELLVILLE%20PHARMACY%2C609%20E%20MAIN%20ST%20SUITE%20Q%2C+PURCELLVILLE%2C+VA+20132
"SBW PHARMACY, INC",3676 N. HERMITAGE RD.,P.O. BOX 103,"TRANSFER, PA 16154",http://maps.google.com/maps?q=SBW%20PHARMACY%20INC%2C3676%20N.%20HERMITAGE%20RD.%2C+TRANSFER%2C+PA+16154
SHARON PHARMACY,63 PITT STREET,SUITE 102,"SHARON, PA 16146",http://maps.google.com/maps?q=SHARON%20PHARMACY%2C63%20PITT%20STREET%2C+SHARON%2C+PA+16146
ST MARGARET MEMORIAL HOSPITAL,815 FREEPORT RD,,"PITTSBURGH, PA 15215",http://maps.google.com/maps?q=ST%20MARGARET%20MEMORIAL%20HOSPITAL%2C815%20FREEPORT%20RD%2C+PITTSBURGH%2C+PA+15215
ST MARYS PHARMACY LAB,6 RAILROAD STREET,,"SAINT MARYS, PA 15857",http://maps.google.com/maps?q=ST%20MARYS%20PHARMACY%20LAB%2C6%20RAILROAD%20STREET%2C+SAINT%20MARYS%2C+PA+15857
ST. ELIZABETH BOARDMAN HOSPITAL,8401 MARKET STREET,,"BOARDMAN, OH 44512",http://maps.google.com/maps?q=ST%20ELIZABETH%20BOARDMAN%20HOSPITAL%2C8401%20MARKET%20STREET%2C+BOARDMAN%2C+OH+44512
ST. ELIZABETH YOUNGSTOWN HOSPITAL,1044 BELMONT AVENUE,2ND FLOOR,"YOUNGSTOWN, OH 44501",http://maps.google.com/maps?q=ST%20ELIZABETH%20YOUNGSTOWN%20HOSPITAL%2C1044%20BELMONT%20AVENUE%2C+YOUNGSTOWN%2C+OH+44501
ST. JOSEPH WARREN HOSPITAL,ATTN: PHARMACY DEPARTMENT,"667 EASTLAND AVENUE, SE","WARREN, OH 44484",http://maps.google.com/maps?q=ST%20JOSEPH%20WARREN%20HOSPITAL%2CATTN%3A%20PHARMACY%20DEPARTMENT%2C+WARREN%2C+OH+44484
THE MEDICINE SHOPPE,1740 EAST STATE STREET,,"HERMITAGE, PA 16148",http://maps.google.com/maps?q=THE%20MEDICINE%20SHOPPE%2C1740%20EAST%20STATE%20STREET%2C+HERMITAGE%2C+PA+16148
THE MEDICINE SHOPPE #1929,315 SOUTH ERIE STREET,SUITE A,"MERCER, PA 16137",http://maps.google.com/maps?q=THE%20MEDICINE%20SHOPPE%2C315%20SOUTH%20ERIE%20STREET%2C+MERCER%2C+PA+16137
TOPS MARKETS,2000 WASHINGTON ST,,"JAMESTOWN, NY 14701",http://maps.google.com/maps?q=TOPS%20MARKETS%2C2000%20WASHINGTON%20ST%2C+JAMESTOWN%2C+NY+14701
"TOPS MARKETS, LLC",2401 W. STATE STREET,,"OLEAN, NY 14760",http://maps.google.com/maps?q=TOPS%20MARKETS%20LLC%2C2401%20W.%20STATE%20STREET%2C+OLEAN%2C+NY+14760
TRI-STATE PHARMACY,"JOHN J. BERNABEI, RPH",651 COLLIERS WAY SUITE 204,"WEIRTON, WV 26062",http://maps.google.com/maps?q=TRISTATE%20PHARMACY%2CJOHN%20J.%20BERNABEI%2C%20RPH%2C+WEIRTON%2C+WV+26062
US ARMY- FT DETRICK HEALTH CLINIC,1434 PORTER STREET,FORT DETRICK,"FREDERICK, MD 21702",http://maps.google.com/maps?q=US%20ARMY%20FT%20DETRICK%20HEALTH%20CLINIC%2C1434%20PORTER%20STREET%2C+FREDERICK%2C+MD+21702
VANTAGE CARE APOTHECARY,1305 SOUTH MAIN STREET,US ROUTE 322,"MEADVILLE, PA 16335",http://maps.google.com/maps?q=VANTAGE%20CARE%20APOTHECARY%2C1305%20SOUTH%20MAIN%20STREET%2C+MEADVILLE%2C+PA+16335
VIC VENA PHARMACY INC,1322 WEST STATE ST,,"OLEAN, NY 14760",http://maps.google.com/maps?q=VIC%20VENA%20PHARMACY%20INC%2C1322%20WEST%20STATE%20ST%2C+OLEAN%2C+NY+14760
WALGREEN CO.,101 FORBES DR.,,"MARTINSBURG, WV 25404",http://maps.google.com/maps?q=WALGREEN%20CO%2C101%20FORBES%20DR.%2C+MARTINSBURG%2C+WV+25404
WALGREEN CO.,2012 S UNION,,"ALLIANCE, OH 44601",http://maps.google.com/maps?q=WALGREEN%20CO%2C2012%20S%20UNION%2C+ALLIANCE%2C+OH+44601
WALGREEN CO.,7295 MARKET ST.,,"BOARDMAN, OH 44512",http://maps.google.com/maps?q=WALGREEN%20CO%2C7295%20MARKET%20ST.%2C+BOARDMAN%2C+OH+44512
WALGREEN CO.,897 CHESTNUT RIDGE RD,,"MORGANTOWN, WV 26505",http://maps.google.com/maps?q=WALGREEN%20CO%2C897%20CHESTNUT%20RIDGE%20RD%2C+MORGANTOWN%2C+WV+26505
"WALGREEN EASTERN CO., INC.",280 NEW CASTLE RD.,,"BUTLER, PA 16001",http://maps.google.com/maps?q=WALGREEN%20EASTERN%20CO%20INC%2C280%20NEW%20CASTLE%20RD.%2C+BUTLER%2C+PA+16001
"WALGREEN EASTERN CO., INC.",508 E. PLANK RD.,,"ALTOONA, PA 16602",http://maps.google.com/maps?q=WALGREEN%20EASTERN%20CO%20INC%2C508%20E.%20PLANK%20RD.%2C+ALTOONA%2C+PA+16602
WEIS PHARMACY #14,1440 ALLEGHENY ST,,"JERSEY SHORE, PA 17740",http://maps.google.com/maps?q=WEIS%20PHARMACY%2C1440%20ALLEGHENY%20ST%2C+JERSEY%20SHORE%2C+PA+17740
WELLSPAN PHARMACY,4910B FAIRFIELD ROAD,,"FAIRFIELD, PA 17320",http://maps.google.com/maps?q=WELLSPAN%20PHARMACY%2C4910B%20FAIRFIELD%20ROAD%2C+FAIRFIELD%2C+PA+17320
"WEST VIRGINIA CVS PHARMACY, L.L.C.",1000 PINEVIEW DRIVE,,"MORGANTOWN, WV 26505",http://maps.google.com/maps?q=WEST%20VIRGINIA%20CVS%20PHARMACY%20LLC%2C1000%20PINEVIEW%20DRIVE%2C+MORGANTOWN%2C+WV+26505
"WEST VIRGINIA CVS PHARMACY, L.L.C.",701 E. MAIN STREET,,"CLARKSBURG, WV 26301",http://maps.google.com/maps?q=WEST%20VIRGINIA%20CVS%20PHARMACY%20LLC%2C701%20E.%20MAIN%20STREET%2C+CLARKSBURG%2C+WV+26301
WESTMORELAND REGIONAL HOSP,532 W PITTSBURGH ST,,"GREENSBURG, PA 15601",http://maps.google.com/maps?q=WESTMORELAND%20REGIONAL%20HOSP%2C532%20W%20PITTSBURGH%20ST%2C+GREENSBURG%2C+PA+15601
WITSCHEY'SPHARMACY,155 NORTH STREET,,"NEW MARTINSVILLE, WV 26155",http://maps.google.com/maps?q=WITSCHEYSPHARMACY%2C155%20NORTH%20STREET%2C+NEW%20MARTINSVILLE%2C+WV+26155
