Business Name,Address 1,Address 2,"City, State Zip",Map URL
ATCHISON HOSPITAL ASSOCIATION,800 RAVEN HILL DRIVE,,"ATCHISON, KS 66002",http://maps.google.com/maps?q=ATCHISON%20HOSPITAL%20ASSOCIATION%2C800%20RAVEN%20HILL%20DRIVE%2C+ATCHISON%2C+KS+66002
AUBURN PHARMACY INC,1011 BAPTISTE DRIVE,,"PAOLA, KS 66071",http://maps.google.com/maps?q=AUBURN%20PHARMACY%20INC%2C1011%20BAPTISTE%20DRIVE%2C+PAOLA%2C+KS+66071
CHI HEALTH ST MARY'S,1301 GRUNDMAN BLVD,,"NEBRASKA CITY, NE 68410",http://maps.google.com/maps?q=CHI%20HEALTH%20ST%20MARYS%2C1301%20GRUNDMAN%20BLVD%2C+NEBRASKA%20CITY%2C+NE+68410
CLABAUGH PHARMACY INC.,501 COURT STREET,,"BEATRICE, NE 68310",http://maps.google.com/maps?q=CLABAUGH%20PHARMACY%20INC%2C501%20COURT%20STREET%2C+BEATRICE%2C+NE+68310
COMMUNITY MEDICAL CENTER INC,3307 BARADA ST,PO BOX 399,"FALLS CITY, NE 68355",http://maps.google.com/maps?q=COMMUNITY%20MEDICAL%20CENTER%20INC%2C3307%20BARADA%20ST%2C+FALLS%20CITY%2C+NE+68355
FUTRELL PHARMACY,115 E BROADWAY,,"POCAHONTAS, AR 72455",http://maps.google.com/maps?q=FUTRELL%20PHARMACY%2C115%20E%20BROADWAY%2C+POCAHONTAS%2C+AR+72455
GREENWOOD COUNTY HOSPITAL,100 W 16TH,,"EUREKA, KS 67045",http://maps.google.com/maps?q=GREENWOOD%20COUNTY%20HOSPITAL%2C100%20W%2016TH%2C+EUREKA%2C+KS+67045
HUTCHINSON CLINIC PHARMACY,2101 N WALDRON ST SUITE A,,"HUTCHINSON, KS 67502",http://maps.google.com/maps?q=HUTCHINSON%20CLINIC%20PHARMACY%2C2101%20N%20WALDRON%20ST%20SUITE%20A%2C+HUTCHINSON%2C+KS+67502
JOHNSON COUNTY HOSPITAL,202 HIGH STREET,P.O. BOX 599,"TECUMSEH, NE 68450",http://maps.google.com/maps?q=JOHNSON%20COUNTY%20HOSPITAL%2C202%20HIGH%20STREET%2C+TECUMSEH%2C+NE+68450
KAY'S PHARMACY,2 W MAIN,,"HERINGTON, KS 67449",http://maps.google.com/maps?q=KAYS%20PHARMACY%2C2%20W%20MAIN%2C+HERINGTON%2C+KS+67449
KIOWA COUNTY PHARMACY LLC,721 WEST KANSAS,SUITE 101,"GREENSBURG, KS 67054",http://maps.google.com/maps?q=KIOWA%20COUNTY%20PHARMACY%20LLC%2C721%20WEST%20KANSAS%2C+GREENSBURG%2C+KS+67054
KOECHNER PHARMACIES LLC,807 MAIN STREET,,"ATCHISON, KS 66002",http://maps.google.com/maps?q=KOECHNER%20PHARMACIES%20LLC%2C807%20MAIN%20STREET%2C+ATCHISON%2C+KS+66002
LOWELL PHARMACY,114 HARRISON AVENUE,PO BOX 56,"LOWELL, AR 72745",http://maps.google.com/maps?q=LOWELL%20PHARMACY%2C114%20HARRISON%20AVENUE%2C+LOWELL%2C+AR+72745
MAIN STREET PHARMACY,PO BOX 236,113 EAST MAIN,"COLDWATER, KS 67029",http://maps.google.com/maps?q=MAIN%20STREET%20PHARMACY%2CPO%20BOX%20236%2C+COLDWATER%2C+KS+67029
MEDICAL CENTER PHARMACY,8901 W. 74TH STREET,,"SHAWNEE MISSION, KS 66204",http://maps.google.com/maps?q=MEDICAL%20CENTER%20PHARMACY%2C8901%20W.%2074TH%20STREET%2C+SHAWNEE%20MISSION%2C+KS+66204
MOFFET DRUG,102 S STATE STREET,,"NORTON, KS 67654",http://maps.google.com/maps?q=MOFFET%20DRUG%2C102%20S%20STATE%20STREET%2C+NORTON%2C+KS+67654
NEMAHA COUNTY HOSPITAL,2022 13TH STREET,,"AUBURN, NE 68305",http://maps.google.com/maps?q=NEMAHA%20COUNTY%20HOSPITAL%2C2022%2013TH%20STREET%2C+AUBURN%2C+NE+68305
POPKESS PHARMACY INC,524 EAST DON TYLER AVE,,"DEWEY, OK 74029",http://maps.google.com/maps?q=POPKESS%20PHARMACY%20INC%2C524%20EAST%20DON%20TYLER%20AVE%2C+DEWEY%2C+OK+74029
SCHEFFE PRESCRIPTION SHOP,127 EAST RANDOLPH,,"ENID, OK 73701",http://maps.google.com/maps?q=SCHEFFE%20PRESCRIPTION%20SHOP%2C127%20EAST%20RANDOLPH%2C+ENID%2C+OK+73701
ST LUKES SOUTH HOSPITAL,12300 METCALF AVENUE,,"OVERLAND PARK, KS 66213",http://maps.google.com/maps?q=ST%20LUKES%20SOUTH%20HOSPITAL%2C12300%20METCALF%20AVENUE%2C+OVERLAND%20PARK%2C+KS+66213
THE MEDICINE STORE,760 NORTHSTAR COURT,,"TONGANOXIE, KS 66086",http://maps.google.com/maps?q=THE%20MEDICINE%20STORE%2C760%20NORTHSTAR%20COURT%2C+TONGANOXIE%2C+KS+66086
U-SAVE PHARMACY,1821 S. 11TH ST.,,"NEBRASKA CITY, NE 68410",http://maps.google.com/maps?q=USAVE%20PHARMACY%2C1821%20S.%2011TH%20ST.%2C+NEBRASKA%20CITY%2C+NE+68410
UNIV OF KANSAS HOSP AUTHORITY,2015 W 39TH,,"KANSAS CITY, KS 66103",http://maps.google.com/maps?q=UNIV%20OF%20KANSAS%20HOSP%20AUTHORITY%2C2015%20W%2039TH%2C+KANSAS%20CITY%2C+KS+66103
UNIVERSITY OF KANSAS HOSPITAL,CANCER CENTER PHARMACY,2330 SHAWNEE MISSION PARKWAY,"WESTWOOD, KS 66205",http://maps.google.com/maps?q=UNIVERSITY%20OF%20KANSAS%20HOSPITAL%2CCANCER%20CENTER%20PHARMACY%2C+WESTWOOD%2C+KS+66205
US ARMY - MUNSON  HEALTH CENTER,PHARMACY SERVICES,550 POPE AVE,"FT LEAVENWORTH, KS 66027",http://maps.google.com/maps?q=US%20ARMY%20%20MUNSON%20%20HEALTH%20CENTER%2CPHARMACY%20SERVICES%2C+FT%20LEAVENWORTH%2C+KS+66027
US ARMY FORT RILEY IACH PHARMACY,650 HUEBNER ROAD,,"FORT RILEY, KS 66442",http://maps.google.com/maps?q=US%20ARMY%20FORT%20RILEY%20IACH%20PHARMACY%2C650%20HUEBNER%20ROAD%2C+FORT%20RILEY%2C+KS+66442
US ARMY- FT RILEY- IACH PHARMACY,650 HUEBNER ROAD,ATTN PHARMACY SERVICES,"FORT RILEY, KS 66442",http://maps.google.com/maps?q=US%20ARMY%20FT%20RILEY%20IACH%20PHARMACY%2C650%20HUEBNER%20ROAD%2C+FORT%20RILEY%2C+KS+66442
USAF- 22ND MEDGP/SGSLA,57950 LEAVENWORTH ST SUITE 321,,"MCCONNELL AFB, KS 67221",http://maps.google.com/maps?q=USAF%20ND%20MEDGPSGSLA%2C57950%20LEAVENWORTH%20ST%20SUITE%20321%2C+MCCONNELL%20AFB%2C+KS+67221
WALGREEN CO,2229 S MAIN ST,,"FORT SCOTT, KS 66701",http://maps.google.com/maps?q=WALGREEN%20CO%2C2229%20S%20MAIN%20ST%2C+FORT%20SCOTT%2C+KS+66701
WALGREEN CO.,1001 SW TOPEKA BLVD.,,"TOPEKA, KS 66612",http://maps.google.com/maps?q=WALGREEN%20CO%2C1001%20SW%20TOPEKA%20BLVD.%2C+TOPEKA%2C+KS+66612
WALGREEN CO.,108 E HIGHLAND DRIVE,,"JONESBORO, AR 72401",http://maps.google.com/maps?q=WALGREEN%20CO%2C108%20E%20HIGHLAND%20DRIVE%2C+JONESBORO%2C+AR+72401
WALGREEN CO.,1445 S MAIN STREET,,"OTTAWA, KS 66067",http://maps.google.com/maps?q=WALGREEN%20CO%2C1445%20S%20MAIN%20STREET%2C+OTTAWA%2C+KS+66067
WALGREEN CO.,1722 W WALNUT ST,,"ROGERS, AR 72756",http://maps.google.com/maps?q=WALGREEN%20CO%2C1722%20W%20WALNUT%20ST%2C+ROGERS%2C+AR+72756
WALGREEN CO.,1801 N 14TH AVE,,"DODGE CITY, KS 67801",http://maps.google.com/maps?q=WALGREEN%20CO%2C1801%20N%2014TH%20AVE%2C+DODGE%20CITY%2C+KS+67801
WALGREEN CO.,1911 N BROADWAY STREET,,"PITTSBURG, KS 66762",http://maps.google.com/maps?q=WALGREEN%20CO%2C1911%20N%20BROADWAY%20STREET%2C+PITTSBURG%2C+KS+66762
WALGREEN CO.,2900 S 4TH ST,,"LEAVENWORTH, KS 66048",http://maps.google.com/maps?q=WALGREEN%20CO%2C2900%20S%204TH%20ST%2C+LEAVENWORTH%2C+KS+66048
WALGREEN CO.,3150 S SENECA ST,,"WICHITA, KS 67217",http://maps.google.com/maps?q=WALGREEN%20CO%2C3150%20S%20SENECA%20ST%2C+WICHITA%2C+KS+67217
WALGREEN CO.,325 BLUEMONT AVE,,"MANHATTAN, KS 66502",http://maps.google.com/maps?q=WALGREEN%20CO%2C325%20BLUEMONT%20AVE%2C+MANHATTAN%2C+KS+66502
WALGREEN CO.,3333 E CENTRAL AVE,,"WICHITA, KS 67208",http://maps.google.com/maps?q=WALGREEN%20CO%2C3333%20E%20CENTRAL%20AVE%2C+WICHITA%2C+KS+67208
WALGREEN CO.,3421 WEST 6TH ST,,"LAWRENCE, KS 66049",http://maps.google.com/maps?q=WALGREEN%20CO%2C3421%20WEST%206TH%20ST%2C+LAWRENCE%2C+KS+66049
WALGREEN CO.,350 HWY 62 EAST,,"MOUTAIN HOME, AR 72653",http://maps.google.com/maps?q=WALGREEN%20CO%2C350%20HWY%2062%20EAST%2C+MOUTAIN%20HOME%2C+AR+72653
WALGREEN CO.,458 NORTH BALTIMORE AVENUE,,"DERBY, KS 67037",http://maps.google.com/maps?q=WALGREEN%20CO%2C458%20NORTH%20BALTIMORE%20AVENUE%2C+DERBY%2C+KS+67037
WALGREEN CO.,510 E 30TH AVE,,"HUTCHINSON, KS 67502",http://maps.google.com/maps?q=WALGREEN%20CO%2C510%20E%2030TH%20AVE%2C+HUTCHINSON%2C+KS+67502
WALGREEN CO.,555 N MAIZE ROAD,,"WICHITA, KS 67212",http://maps.google.com/maps?q=WALGREEN%20CO%2C555%20N%20MAIZE%20ROAD%2C+WICHITA%2C+KS+67212
WALGREEN CO.,601 W WILL ROGERS BLVD,,"CLAREMORE, OK 74017",http://maps.google.com/maps?q=WALGREEN%20CO%2C601%20W%20WILL%20ROGERS%20BLVD%2C+CLAREMORE%2C+OK+74017
WALGREEN CO.,7500 METCALF AVE,,"OVERLAND PARK, KS 66204",http://maps.google.com/maps?q=WALGREEN%20CO%2C7500%20METCALF%20AVE%2C+OVERLAND%20PARK%2C+KS+66204
WALGREEN CO.,7739 STATE AVE,,"KANSAS CITY, KS 66112",http://maps.google.com/maps?q=WALGREEN%20CO%2C7739%20STATE%20AVE%2C+KANSAS%20CITY%2C+KS+66112
WELLINGTON HEALTH MART PHARMACY,505 EAST 16TH STREET,SUITE 2,"WELLINGTON, KS 67152",http://maps.google.com/maps?q=WELLINGTON%20HEALTH%20MART%20PHARMACY%2C505%20EAST%2016TH%20STREET%2C+WELLINGTON%2C+KS+67152
