Business Name,Address 1,Address 2,"City, State Zip",Map URL
AIDS HEALTHCARE FOUNDATION DBA AHF PHARMACY,4890 BLUEBONNET BLVD.,,"BATON ROUGE, LA 70809",http://maps.google.com/maps?q=AIDS%20HEALTHCARE%20FOUNDATION%20DBA%20AHF%20PHARMACY%2C4890%20BLUEBONNET%20BLVD.%2C+BATON%20ROUGE%2C+LA+70809
ALGIERS PHARMACY,3648 GENERAL DEGAULLE DRIVE,,"NEW ORLEANS, LA 70114",http://maps.google.com/maps?q=ALGIERS%20PHARMACY%2C3648%20GENERAL%20DEGAULLE%20DRIVE%2C+NEW%20ORLEANS%2C+LA+70114
"APOTHECARE,LLC",82 MAIN STREET,PO BOX 919,"MEADVILLE, MS 39653",http://maps.google.com/maps?q=APOTHECARELLC%2C82%20MAIN%20STREET%2C+MEADVILLE%2C+MS+39653
"AXUM MEDICAL SUPPLIES, LLC.",721 WEST 5TH ST.,,"LAPLACE, LA 70068",http://maps.google.com/maps?q=AXUM%20MEDICAL%20SUPPLIES%20LLC%2C721%20WEST%205TH%20ST.%2C+LAPLACE%2C+LA+70068
BENZER LA1 LLC,2525 CANAL STREET,,"NEW ORLEANS, LA 70119",http://maps.google.com/maps?q=BENZER%20LA%20LLC%2C2525%20CANAL%20STREET%2C+NEW%20ORLEANS%2C+LA+70119
"CVS PHARMACY, INC.",2712 HIGHWAY 365,,"NEDERLAND, TX 77627",http://maps.google.com/maps?q=CVS%20PHARMACY%20INC%2C2712%20HIGHWAY%20365%2C+NEDERLAND%2C+TX+77627
"CVS PHARMACY, INC.",2950 DOWLEN RD.,,"BEAUMONT, TX 77706",http://maps.google.com/maps?q=CVS%20PHARMACY%20INC%2C2950%20DOWLEN%20RD.%2C+BEAUMONT%2C+TX+77706
HAXTUN HOSPITAL DISTRICT PHARMACY,235 W FLETCHER ST,,"HAXTUN, CO 80731",http://maps.google.com/maps?q=HAXTUN%20HOSPITAL%20DISTRICT%20PHARMACY%2C235%20W%20FLETCHER%20ST%2C+HAXTUN%2C+CO+80731
HOSPITAL SERVICE DISTRICT NO. 2 OF,600 SOUTH PINE ST,,"DE RIDDER, LA 70634",http://maps.google.com/maps?q=HOSPITAL%20SERVICE%20DISTRICT%20NO%20%20OF%2C600%20SOUTH%20PINE%20ST%2C+DE%20RIDDER%2C+LA+70634
ICARE COMMUNITY PHARMACY AND GIFTS LLC,2807 KALISTE SALOOM RD,,"LAFAYETTE, LA 70508",http://maps.google.com/maps?q=ICARE%20COMMUNITY%20PHARMACY%20AND%20GIFTS%20LLC%2C2807%20KALISTE%20SALOOM%20RD%2C+LAFAYETTE%2C+LA+70508
INSTITUTIONAL PHARMACIES OF LOUISIANA,106 ABIGAYLE'S ROW,,"SCOTT, LA 70583",http://maps.google.com/maps?q=INSTITUTIONAL%20PHARMACIES%20OF%20LOUISIANA%2C106%20ABIGAYLE'S%20ROW%2C+SCOTT%2C+LA+70583
KING'S PHARMACY #4,DBA: L & J PHARMACIES INC,1948 9TH AVE,"PORT ARTHUR, TX 77642",http://maps.google.com/maps?q=KINGS%20PHARMACY%2CDBA%3A%20L%20&%20J%20PHARMACIES%20INC%2C+PORT%20ARTHUR%2C+TX+77642
MAJORIA DRUGS,1805 METAIRIE RD,,"METAIRIE, LA 70005",http://maps.google.com/maps?q=MAJORIA%20DRUGS%2C1805%20METAIRIE%20RD%2C+METAIRIE%2C+LA+70005
MEDICAP PHARMACY,"2706 2ND AVENUE, SUITE A",,"KEARNEY, NE 68847",http://maps.google.com/maps?q=MEDICAP%20PHARMACY%2C2706%202ND%20AVENUE%2C%20SUITE%20A%2C+KEARNEY%2C+NE+68847
MOFFET DRUG,102 S STATE STREET,,"NORTON, KS 67654",http://maps.google.com/maps?q=MOFFET%20DRUG%2C102%20S%20STATE%20STREET%2C+NORTON%2C+KS+67654
OCHSNER PHARMACY AND WELLNESS - KENNER,200 WEST ESPLANADE AVE. SUITE 106,,"KENNER, LA 70065",http://maps.google.com/maps?q=OCHSNER%20PHARMACY%20AND%20WELLNESS%20%20KENNER%2C200%20WEST%20ESPLANADE%20AVE.%20SUITE%20106%2C+KENNER%2C+LA+70065
OCHSNER PHARMACY AND WELLNESS LLC,1514 JEFFERSON HWY,,"NEW ORLEANS, LA 70121",http://maps.google.com/maps?q=OCHSNER%20PHARMACY%20AND%20WELLNESS%20LLC%2C1514%20JEFFERSON%20HWY%2C+NEW%20ORLEANS%2C+LA+70121
PARKER'S PHARMACY,9600 FLORIDA BLVD,SUITE 5,"BATON ROUGE, LA 70815",http://maps.google.com/maps?q=PARKERS%20PHARMACY%2C9600%20FLORIDA%20BLVD%2C+BATON%20ROUGE%2C+LA+70815
PINECREST SUPPORTS AND SERVICES CENTER,100 PINECREST DR.,PO BOX 5191,"PINEVILLE, LA 71360",http://maps.google.com/maps?q=PINECREST%20SUPPORTS%20AND%20SERVICES%20CENTER%2C100%20PINECREST%20DR.%2C+PINEVILLE%2C+LA+71360
POINTE COUPEE GENERAL HOSP,2202 FALSE RIVER DR,,"NEW ROADS, LA 70760",http://maps.google.com/maps?q=POINTE%20COUPEE%20GENERAL%20HOSP%2C2202%20FALSE%20RIVER%20DR%2C+NEW%20ROADS%2C+LA+70760
SAVOY DRUG STORE,813 POINCIANA AVE,,"MAMOU, LA 70554",http://maps.google.com/maps?q=SAVOY%20DRUG%20STORE%2C813%20POINCIANA%20AVE%2C+MAMOU%2C+LA+70554
"TECHE DRUGS, INC.",509 JEFFERSON ST.,,"LAFAYETTE, LA 70501",http://maps.google.com/maps?q=TECHE%20DRUGS%20INC%2C509%20JEFFERSON%20ST.%2C+LAFAYETTE%2C+LA+70501
TERREBONNE GENERAL MEDIC CENT,8166 MAIN STREET,,"HOUMA, LA 70360",http://maps.google.com/maps?q=TERREBONNE%20GENERAL%20MEDIC%20CENT%2C8166%20MAIN%20STREET%2C+HOUMA%2C+LA+70360
TRAV'S U-SAVE PHARMACY,1414 16TH STREET,,"CENTRAL CITY, NE 68826",http://maps.google.com/maps?q=TRAVS%20USAVE%20PHARMACY%2C1414%2016TH%20STREET%2C+CENTRAL%20CITY%2C+NE+68826
US ARMY- FT POLK CTMC,8091 GEORGIA AVE BLDG 3504,ROOM 1B104,"FORT POLK, LA 71459",http://maps.google.com/maps?q=US%20ARMY%20FT%20POLK%20CTMC%2C8091%20GEORGIA%20AVE%20BLDG%203504%2C+FORT%20POLK%2C+LA+71459
US ARMY- FT POLK MED ACTIVITY,BLDG 1585 3RD ST RM 1758,,"FORT POLK, LA 71459",http://maps.google.com/maps?q=US%20ARMY%20FT%20POLK%20MED%20ACTIVITY%2CBLDG%201585%203RD%20ST%20RM%201758%2C+FORT%20POLK%2C+LA+71459
USAF - KEESLER AFB MAIN PHARMACY,301 FISHER ST BLDG 0468,,"BILOXI, MS 39534",http://maps.google.com/maps?q=USAF%20%20KEESLER%20AFB%20MAIN%20PHARMACY%2C301%20FISHER%20ST%20BLDG%200468%2C+BILOXI%2C+MS+39534
USAF- 90TH MEDICAL GROUP/SGSL,F.M. 4613,"6900 ALDEN DRIVE, BUILDING 160","FE WARREN AFB, WY 82005",http://maps.google.com/maps?q=USAF%20TH%20MEDICAL%20GROUPSGSL%2CF.M.%204613%2C+FE%20WARREN%20AFB%2C+WY+82005
USAF- KEESLER PHARMACY,301 FISHER ST BLDG 0468,,"KEESLER AFB, MS 39534",http://maps.google.com/maps?q=USAF%20KEESLER%20PHARMACY%2C301%20FISHER%20ST%20BLDG%200468%2C+KEESLER%20AFB%2C+MS+39534
USAF-KEESLER MEDICAL CENTER,301 FISHER STREET BLDG 0468,,"KEESLER AFB, MS 39534",http://maps.google.com/maps?q=USAFKEESLER%20MEDICAL%20CENTER%2C301%20FISHER%20STREET%20BLDG%200468%2C+KEESLER%20AFB%2C+MS+39534
VALLEY PHARMACY INC,211 W 33RD ST,,"KEARNEY, NE 68845",http://maps.google.com/maps?q=VALLEY%20PHARMACY%20INC%2C211%20W%2033RD%20ST%2C+KEARNEY%2C+NE+68845
"VITAL CARE OF MISS-LOU, INC",6280 HIGHWAY 129,PO BOX 37,"MONTEREY, LA 71354",http://maps.google.com/maps?q=VITAL%20CARE%20OF%20MISSLOU%20INC%2C6280%20HIGHWAY%20129%2C+MONTEREY%2C+LA+71354
WALGREEN CO.,15371 DEDEAUX RD.,,"GULFPORT, MS 39503",http://maps.google.com/maps?q=WALGREEN%20CO%2C15371%20DEDEAUX%20RD.%2C+GULFPORT%2C+MS+39503
WALGREEN CO.,2304 E LINCOLNWAY,,"CHEYENNE, WY 82001",http://maps.google.com/maps?q=WALGREEN%20CO%2C2304%20E%20LINCOLNWAY%2C+CHEYENNE%2C+WY+82001
WALGREEN CO.,2516 SECOND AVE.,,"KEARNEY, NE 68847",http://maps.google.com/maps?q=WALGREEN%20CO%2C2516%20SECOND%20AVE.%2C+KEARNEY%2C+NE+68847
WALGREEN CO.,3700 HWY 365,,"PORT ARTHUR, TX 77642",http://maps.google.com/maps?q=WALGREEN%20CO%2C3700%20HWY%20365%2C+PORT%20ARTHUR%2C+TX+77642
WALGREEN CO.,6130 HWY 49,,"HATTIESBURG, MS 39401",http://maps.google.com/maps?q=WALGREEN%20CO%2C6130%20HWY%2049%2C+HATTIESBURG%2C+MS+39401
"WALGREEN LOUISIANA CO., INC.",1021 BEGLIS PKWY,,"SULPHUR, LA 70663",http://maps.google.com/maps?q=WALGREEN%20LOUISIANA%20CO%20INC%2C1021%20BEGLIS%20PKWY%2C+SULPHUR%2C+LA+70663
"WALGREEN LOUISIANA CO., INC.",1203 BUSINESS HIGHWAY 190,,"COVINGTON, LA 70433",http://maps.google.com/maps?q=WALGREEN%20LOUISIANA%20CO%20INC%2C1203%20BUSINESS%20HIGHWAY%20190%2C+COVINGTON%2C+LA+70433
"WALGREEN LOUISIANA CO., INC.",1260 FRONT STREET,,"SLIDELL, LA 70458",http://maps.google.com/maps?q=WALGREEN%20LOUISIANA%20CO%20INC%2C1260%20FRONT%20STREET%2C+SLIDELL%2C+LA+70458
"WALGREEN LOUISIANA CO., INC.",1435 W TUNNEL BLVD,,"HOUMA, LA 70360",http://maps.google.com/maps?q=WALGREEN%20LOUISIANA%20CO%20INC%2C1435%20W%20TUNNEL%20BLVD%2C+HOUMA%2C+LA+70360
"WALGREEN LOUISIANA CO., INC.",2517 KALISTE SALOOM ROAD,,"LAFAYETTE, LA 70508",http://maps.google.com/maps?q=WALGREEN%20LOUISIANA%20CO%20INC%2C2517%20KALISTE%20SALOOM%20ROAD%2C+LAFAYETTE%2C+LA+70508
"WALGREEN LOUISIANA CO., INC.",3550 GOVERNMENT ST,,"BATON ROUGE, LA 70806",http://maps.google.com/maps?q=WALGREEN%20LOUISIANA%20CO%20INC%2C3550%20GOVERNMENT%20ST%2C+BATON%20ROUGE%2C+LA+70806
"WALGREEN LOUISIANA CO., INC.",410 CRESWELL LANE,,"OPELOUSAS, LA 70570",http://maps.google.com/maps?q=WALGREEN%20LOUISIANA%20CO%20INC%2C410%20CRESWELL%20LANE%2C+OPELOUSAS%2C+LA+70570
"WALGREEN LOUISIANA CO., INC.",4110 GENERAL DEGUALLE DR,,"NEW ORLEANS, LA 70131",http://maps.google.com/maps?q=WALGREEN%20LOUISIANA%20CO%20INC%2C4110%20GENERAL%20DEGUALLE%20DR%2C+NEW%20ORLEANS%2C+LA+70131
"WALGREEN LOUISIANA CO., INC.",4545 WEST ESPLANADE,,"METAIRIE, LA 70006",http://maps.google.com/maps?q=WALGREEN%20LOUISIANA%20CO%20INC%2C4545%20WEST%20ESPLANADE%2C+METAIRIE%2C+LA+70006
"WALGREEN LOUISIANA CO., INC.",4600 WESTBANK EXPRESSWAY,,"MARRERO, LA 70072",http://maps.google.com/maps?q=WALGREEN%20LOUISIANA%20CO%20INC%2C4600%20WESTBANK%20EXPRESSWAY%2C+MARRERO%2C+LA+70072
"WALGREEN LOUISIANA CO., INC.",4747 S SHERWOOD FOREST,,"BATON ROUGE, LA 70816",http://maps.google.com/maps?q=WALGREEN%20LOUISIANA%20CO%20INC%2C4747%20S%20SHERWOOD%20FOREST%2C+BATON%20ROUGE%2C+LA+70816
