name,source,address,postal,state,lat,lng
MUNCIE SANITARY DISTRICT,MedReturn_Box,"300 N HIGH ST, MUNCIE IN 47305",47305,IN,40.19574,-85.38708
Hamilton County Sheriff's Office,MedReturn_Box,"18100 Cumberland Road, Noblesville IN 46060",46060,IN,40.052043,-85.993252
Dunkirk Police Department,MedReturn_Box,"130 South Main Street, Dunkirk IN 47336",47336,IN,40.374751,-85.209985
FISHERS POLICE DEPARTMENT,MedReturn_Box,"4 MUNICIPAL DRIVE, FISHERS IN 46038",46038,IN,39.959532,-86.016231
WESTFIELD POLICE DEPT,MedReturn_Box,"17535 DARTOWN RD, WESTFIELD IN 46074",46074,IN,40.041764,-86.15027
GALVESTON POLICE DEPT,MedReturn_Box,"300 SOUTH CALIFORNIA, GALVESTON IN 46932",46932,IN,40.575086,-86.189202
Portland Police Department,MedReturn_Box,"319 N. Meridian , Portland IN 47371",47371,IN,40.435876,-84.97789
SPEEDWAY POLICE DEPT,MedReturn_Box,"1410 N LYNHURST DR, SPEEDWAY IN 46224",46224,IN,39.78539,-86.251108
UNION CITY CITY COURT,MedReturn_Box,"219 S HOWARD ST, UNION CITY IN 47390",47390,IN,40.196386,-84.809396
FLORA POLICE DEPT,MedReturn_Box,"27 W MAIN STREET, FLORA IN 46929",46929,IN,40.548104,-86.52406
Connersville Police Department,MedReturn_Box,"100 E 5th Street, Connersville IN 47331",47331,IN,39.64152,-85.138856
LOGANSPORT POLICE DEPT,MedReturn_Box,"601 E BROADWAY 2ND FLR, LOGANSPORT IN 46941",46941,IN,40.754233,-86.362541
MOORESVILLE POLICE DEPT,MedReturn_Box,"104 W MAIN ST, MOORESVILLE IN 46158",46158,IN,39.612981,-86.377646
CARROLL COUNTY SHERIFFS OFFICE,MedReturn_Box,"310 W MAIN ST, DELPHI IN 46923",46923,IN,40.584765,-86.676691
ROYAL CENTER TOWN HALL,MedReturn_Box,"104 EAST NORTH ST, ROYAL CENTER IN 46978",46978,IN,40.864877,-86.4988
MARTINSVILLE CITY POLICE DEPT,MedReturn_Box,"59 S JEFFERSON ST, MARTINSVILLE IN 46151",46151,IN,39.426166,-86.426952
CITY OF ST MARYS FIRE DEPT,MedReturn_Box,"222 INDIANA AVE, ST MARYS OH 45885",45885,OH,40.546058,-84.392339
Pulaski County Sheriff's Office,MedReturn_Box,"110 East Meridian St, Winamac IN 46996",46996,IN,41.050111,-86.603084
Greencastle Police Department,MedReturn_Box,"600 N. Jackson St., Greencastle IN 46135",46135,IN,39.648852,-86.865501
CITY OF ENGLEWOOD,MedReturn_Box,"1111 UNION ROAD, ENGLEWOOD OH 45322",45322,OH,39.856195,-84.311834
Miami County Sheriff's Office,MedReturn_Box,"201 W Main St, Troy OH 45373",45373,OH,40.040905,-84.204698
Auglaize County Sheriff's Office,MedReturn_Box,"1051 Dearbaugh Ave, Wapakoneta OH 45895",45895,OH,40.559613,-84.208537
Wapakoneta Police Department,MedReturn_Box,"701 Parlette Court, Wapakoneta OH 45895",45895,OH,40.577852,-84.202876
Versailles Police Department,MedReturn_Box,"118 West Water Street, Versailles IN 47042",47042,IN,39.070758,-85.253571
NAPPANEE POLICE DEPT,MedReturn_Box,"301 W LINCOLN STREET, NAPPANEE IN 46550",46550,IN,41.441673,-86.003848
Dayton Police Department,MedReturn_Box,"335 West Third Street, Dayton OH 45402",45402,OH,39.758938,-84.197657
KINGSTON OF MIAMISBURG,MedReturn_Box,"1120 S DUNAWAY ST, MIAMISBURG OH 45352",45352,OH,39.625048,-84.261832
COMMUNITY SERVICES OF STARKE COUNTY,MedReturn_Box,"311 E CULVER RD, KNOX IN 46534",46534,IN,41.288099,-86.619289
KNOX POLICE DEPARTMENT,MedReturn_Box,"101 WEST WASHINGTON ST, KNOX IN 46534",46534,IN,41.299129,-86.624075
MONROE POLICE DEPARTMENT,MedReturn_Box,"233 S MAIN ST, MONROE OH 45050",45050,OH,39.441002,-84.362906
WAKARUSA POLICE DEPT,MedReturn_Box,"102 S SPRING STREET, WAKARUSA IN 46573",46573,IN,41.535781,-86.017675
Jasper County Sheriff's Office,MedReturn_Box,"2171 N McKinley Ave, Rensselaer IN 47978",47978,IN,40.959884,-87.151319
GOSHEN POLICE DEPT,MedReturn_Box,"111 E JEFFERSON STREET, GOSHEN IN 46526",46526,IN,41.583698,-85.834279
TOWN OF MIDDLEBURY,MedReturn_Box,"418 N MAIN ST, MIDDLEBURY IN 46540",46540,IN,41.684378,-85.700652
ELKHART CITY POLICE DEPT,MedReturn_Box,"175 WATERFALL DRIVE, ELKHART IN 46516",46516,IN,41.684259,-85.969193
URBANA POLICE DEPT,MedReturn_Box,"205 SOUTH MAIN ST, URBANA OH 43078",43078,OH,40.106559,-83.752195
BRISTOL POLICE DEPT,MedReturn_Box,"301 EAST VISTULA, BRISTOL IN 46507",46507,IN,41.721266,-85.81467
INDIANA STATE POLICE - DISTRICT 21 TOLL ROAD,MedReturn_Box,"52422 CR 17, BRISTOL IN 46507",46507,IN,41.732065,-85.888462
ELKHART COUNTY SHERIFF'S DEPT,MedReturn_Box,"26861 CR 6, ELKHART IN 46516",46516,IN,41.724372,-85.982883
Terrace Park Police Department,MedReturn_Box,"428 Elm Avenue, Terrace Park OH 45174",45174,OH,39.163973,-84.309568
UNIVERSITY OF NOTRE DAME,MedReturn_Box,"100 MASON CENTER, NOTRE DAME IN 46556",46556,IN,41.710588,-86.236961
TERRE HAUTE POLICE DEPT,MedReturn_Box,"1211 WABASH AVE, TERRE HAUTE IN 47807",47807,IN,39.467328,-87.398823
Henry County Sheriff's Office,MedReturn_Box,"123 E. Washington St., Napoleon OH 43545",43545,OH,41.39116,-84.123776
Archbold Police Department,MedReturn_Box,"405 E. Lutz Rd., Archbold OH 43502",43502,OH,41.52831,-84.301947
Trimble County Sheriff's Office,MedReturn_Box,"30 Hwy 42 E, Bedford KY 40006",40006,KY,38.593378,-85.317346
London Police Department,MedReturn_Box,"10 East First Street, London OH 43140",43140,OH,39.885182,-83.44637
Fayette Police Department,MedReturn_Box,"102 W. Main Street, Fayette OH 43521",43521,OH,41.673894,-84.327817
Fulton COunty Sheriffs Office,MedReturn_Box,"129 Courthouse Plaza, Wauseon OH 43567",43567,OH,41.568584,-84.127144
North Baltimore Police Department,MedReturn_Box,"203 N. Main St, North Baltimore OH 45872",45872,OH,41.183238,-83.678382
THE VILLAGE OF WHITEHOUSE,MedReturn_Box,"6925 PROVIDENCE ST, WHITEHOUSE OH 43571",43571,OH,41.514206,-83.80223
SWANTON FIRE DEPT,MedReturn_Box,"432 CHURCH ST, SWANTON OH 43558",43558,OH,41.592001,-83.88364
Wood County Sheriff's Office,MedReturn_Box,"1960 E. Gypsy Ln. Rd., Bowling Green OH 43402",43402,OH,41.355019,-83.612007
Hilliard Division of Police,MedReturn_Box,"5171 Northwest Parkway, Hilliard OH 43026",43026,OH,40.036958,-83.154807
VILLAGE OF WATERVILLE,MedReturn_Box,"25 N SECOND STREET, WATERVILLE OH 43566",43566,OH,41.499898,-83.718853
MONCLOVA TOWNSHIP FIRE DEPT,MedReturn_Box,"4395 ALBON RD, MONCLOVA OH 43542",43542,OH,41.560356,-83.73532
Milltown Police Department,MedReturn_Box,"212 Hancock Street Suite B, Milltown IN 47145",47145,IN,38.341448,-86.277507
The City of Upper Arlington,MedReturn_Box,"3600 Tremont Road, Upper Arlington OH 43221",43221,OH,40.031193,-83.050922
TOWNSHIP OF SYLVANIA POLICE DEPT,MedReturn_Box,"4420 KING RD, SYLVANIA OH 43560",43560,OH,41.694638,-83.722212
Lucas County Coroner,MedReturn_Box,"2595 Arlington Ave., Toledo OH 43614",43614,OH,41.622574,-83.607321
Village of Ottawa Hills Police,MedReturn_Box,"2125 Richards Road, Toledo OH 43606",43606,OH,41.661726,-83.642277
CITY OF SYLVANIA POLICE DEPT,MedReturn_Box,"6635 MAPLEWOOD, SYLVANIA OH 43560",43560,OH,41.716766,-83.704511
UNIV OF TOLEDO-RECEIVING DEPT,MedReturn_Box,"328 N WESTWOOD, TOLEDO OH 43607",43607,OH,41.64219,-83.604192
WESTERVILLE POLICE DEPT,MedReturn_Box,"29 S STATE ST, WESTERVILLE OH 43081",43081,OH,40.125198,-82.931734
Walbridge Police Department,MedReturn_Box,"705 N. Main St., Walbridge OH 43465",43465,OH,41.594246,-83.494617
City of Toledo Department of Police Operations,MedReturn_Box,"525 N Erie, Toledo OH 43604",43604,OH,41.656033,-83.535637
Franklin County Sheriff,MedReturn_Box,"231 E. Main Street, Frankfort KY 40601",40601,KY,38.198028,-84.865348
Maysville Police Department,MedReturn_Box,"212 Government Street, Maysville KY 41034",41034,KY,38.645614,-83.761074
ADAMS COUNTY PROBATION DEPT,MedReturn_Box,"110 W MAIN STREET ROOM 235, WEST UNION OH 45693",45693,OH,38.7954,-83.546087
Huntingburg Police Department,MedReturn_Box,"503 E. 1st Street, Huntingburg IN 47542",47542,IN,38.291169,-86.953021
Reynoldsburg Division of Police,MedReturn_Box,"7240 East Main Street, Reynoldsburg OH 43068",43068,OH,39.956296,-82.805728
Georgetown Police Department,MedReturn_Box,"1 Quality Drive Suite C, Georgetown KY 40324",40324,KY,38.188627,-84.549807
WESTPOINT POLICE DEPT,MedReturn_Box,"509 ELM ST, WESTPOINT KY 40177",40177,KY,38.000319,-85.947507
MEAD COUNTY SHERIFF'S OFFICE,MedReturn_Box,"516 HILLCREST DR STE 14, BRANDENBURG KY 40108",40108,KY,38.000491,-86.173114
MULDRAUGH POLICE DEPT,MedReturn_Box,"120 S MAIN ST, MULDRAUGH KY 40155",40155,KY,37.93926,-85.993265
LEXINGTON DIVISION OF POLICE,MedReturn_Box,"150 EAST MAIN ST, LEXINGTON KY 40507",40507,KY,38.045195,-84.496353
IRVINGTON POLICE DEPT,MedReturn_Box,"109 W CAROLINE, IRVINGTON KY 40146",40146,KY,37.881375,-86.284015
CITY OF RADCLIFF POLICE DEPT,MedReturn_Box,"411 W LINCOLN TRAIL BLVD, RADCLIFF KY 40159",40159,KY,37.838015,-85.944038
Lewis County Sheriff Departemtn,MedReturn_Box,"112 Second Street Suite 102, Vanceburg KY 41179",41179,KY,38.604076,-83.319724
Tell City Police Department,MedReturn_Box,"707 Mozart Street, Tell City IN 47586",47586,IN,37.950718,-86.752795
VINE GROVE POLICE DEPT,MedReturn_Box,"300 W MAIN ST, VINE GROVE KY 40175",40175,KY,37.810844,-85.983837
Wilmore Police Department,MedReturn_Box,"335 East Main Street, Wilmore KY 40390",40390,KY,37.85835,-84.659076
CLOVERPORT POLICE DEPT,MedReturn_Box,"212 W MAIN ST, CLOVERPORT KY 40111",40111,KY,37.836962,-86.632244
KENTUCKY STATE POLICE,MedReturn_Box,"1055 N MULBERRY ST, ELIZABETHTOWN KY 42701",42701,KY,37.712465,-85.83189
BRECKENRIDGE COUNTY SHERIFF'S OFFICE,MedReturn_Box,"208 S MAIN ST, HARDINSBURG KY 40143",40143,KY,37.780917,-86.461554
ELIZABETHTOWN POLICE DEPARTMENT,MedReturn_Box,"300 SOUTH MULBERRY, ELIZABETHTOWN KY 42701",42701,KY,37.691367,-85.863023
CITY OF HODGENVILLE POLICE DEPT,MedReturn_Box,"200 S LINCOLN BLVD, HODGENVILLE KY 42748",42748,KY,37.572518,-85.740601
HENDERSON POLICE DEPT,MedReturn_Box,"1990 BARRETT CIRCLE, HENDERSON KY 42420",42420,KY,37.859321,-87.572183
GRAYSON COUNTY SHERIFF DEPT,MedReturn_Box,"44 PUBLIC SQUARE, LEITCHFIELD KY 42754",42754,KY,37.480076,-86.294175
LEITCHFIELD POLICE DEPT,MedReturn_Box,"117 S MAIN ST, LEITCHFIELD KY 42754",42754,KY,37.478117,-86.293695
CARTER COUNTY SHERIFFS OFFICE,MedReturn_Box,"300 W MAIN ST 2ND FLOOR, GRAYSON KY 41143",41143,KY,38.333551,-82.951759
CANEYVILLE POLICE DEPT,MedReturn_Box,"304 E MAPLE ST, CANEYVILLE KY 42721",42721,KY,37.424218,-86.488315
Campbellsville Police Department,MedReturn_Box,"100 Terri Street, Campbellsville KY 42718",42718,KY,37.340834,-85.34587
OHIO COUNTY SHERIFFS DEPT,MedReturn_Box,"301 S MAIN ST, HARTFORD KY 42347",42347,KY,37.450679,-86.908573
Avon Police Department,MedReturn_Box,"36145 Detroit Road, Avon OH 44011",44011,OH,41.458686,-82.022478
CITY OF AVON LAKE,MedReturn_Box,"32855 WALKER ROAD, AVON LAKE OH 44012",44012,OH,41.491731,-82.021791
Norton Police Dept,MedReturn_Box,"4060 Columbia Woods Dr., Norton OH 44203",44203,OH,41.023886,-81.647474
Barberton Police Department,MedReturn_Box,"576 West Park Avenue, Barberton OH 44203",44203,OH,41.01349,-81.610797
KENTUCKY STATE POLICE,MedReturn_Box,"1118 JAMESTOWN ST, COLUMBIA KY 42728",42728,KY,37.089312,-85.303729
CITY OF INDEPENDENCE POLICE DEPT,MedReturn_Box,"6800 BRECKSVILLE RD, INDEPENDENCE OH 44131",44131,OH,41.377777,-81.641721
Madisonville Police Department,MedReturn_Box,"99 East Center Street, Madisonville KY 42431",42431,KY,37.328396,-87.497144
Cleveland Division of Police,MedReturn_Box,"1300 Ontario Street, Cleveland OH 44113",44113,OH,41.501722,-81.696774
Cuyahoga Falls Police Department,MedReturn_Box,"2310 Second St, Cuyahoga Falls OH 44221",44221,OH,41.138734,-81.484019
Parkersburg Police Department,MedReturn_Box,"#1 Government Square, Parkersburg WV 26102",26102,WV,39.263696,-81.56244
LAUREL COUNTY SHERIFFS DEPT,MedReturn_Box,"203 S BROAD ST, LONDON KY 40741",40741,KY,37.12743,-84.083763
LONDON CITY POLICE DEPARTMENT,MedReturn_Box,"503 S MAIN ST, LONDON KY 40741",40741,KY,37.126309,-84.081778
CITY OF HURRICANE,MedReturn_Box,"3255 TEAYS VALLEY RD, HURRICANE WV 25526",25526,WV,38.445962,-81.967106
PUTNAM COUNTY SHERIFF,MedReturn_Box,"3389 WINFIELD ROAD, WINFIELD WV 25213",25213,WV,38.533305,-81.891756
TOWN OF WINFIELD,MedReturn_Box,"3232 WINFIELD ROAD, WINFIELD WV 25213",25213,WV,38.537073,-81.884058
CUMBERLAND COUNTY E-911,MedReturn_Box,"299 GLASGOW RD, BURKSVILLE KY 42717",42717,KY,36.793913,-85.369958
NITRO POLICE DEPARTMENT,MedReturn_Box,"2009 20TH STREET, NITRO WV 25143",25143,WV,38.42147,-81.840959
WIRT COUNTY SHERIFFS OFFICE,MedReturn_Box,"100 COURT SQUARE, ELIZABETH WV 26143",26143,WV,39.064308,-81.393655
MONROE COUNTY SHERIFF'S OFFICE,MedReturn_Box,"108 W COURT ST, WOODSFIELD OH 43793",43793,OH,39.76279,-81.116013
CORBIN COMMUNITY COALITION,MedReturn_Box,"805 SOUTH MAIN STREET, CORBIN KY 40701",40701,KY,36.941995,-84.094846
Mentor-on-the-Lake Police Department,MedReturn_Box,"5860 Andrews Rd, Mentor-on-the-Lake OH 44060",44060,OH,41.712257,-81.361956
DUNBAR POLICE DEPARTMENT,MedReturn_Box,"1227 LEONE LANE, DUNBAR WV 25064",25064,WV,38.360544,-81.74373
SOUTH CHARLESTON POLICE DEPT,MedReturn_Box,"235 FOURTH AVE, SOUTH CHARLESTON WV 25303",25303,WV,38.366125,-81.695568
Charleston Police Department,MedReturn_Box,"501 Virginia Street East, Charleston WV 25301",25301,WV,38.350791,-81.638485
BARBOURVILLE POLICE DEPT,MedReturn_Box,"196 DANIEL BOONE DR, BARBOURVILLE KY 40906",40906,KY,36.865572,-83.887324
PORTLAND POLICE DEPT,MedReturn_Box,"433 NORTH BROADWAY, PORTLAND TN 37148",37148,TN,36.587707,-86.520631
MARMET CITY HALL,MedReturn_Box,"9403 MACCORKLE AVE, MARMET WV 25315",25315,WV,38.245815,-81.56738
WHEELING POLICE DEPARTMENT,MedReturn_Box,"1500 CHAPLINE ST, WHEELING WV 26003",26003,WV,40.064749,-80.720508
BELL COUNTY SHERIFF'S OFFICE,MedReturn_Box,"101 COURTHOUSE SQUARE, PINEVILLE KY 40977",40977,KY,36.76203,-83.694918
TAG Law Enforcement Task Force,MedReturn_Box,"640 North River Rd., Suite A, Warren OH 44483",44483,OH,41.265516,-80.810288
HARLAN COUNTY SHERIFF DEPT,MedReturn_Box,"210 E CENTRAL ST STE 202, HARLAN KY 40831",40831,KY,36.847036,-83.319992
CUMBERLAND POLICE DEPT,MedReturn_Box,"414 W MAIN ST, CUMBERLAND KY 40823",40823,KY,36.974933,-82.992879
EVARTS POLICE DEPT,MedReturn_Box,"101 HARLAN STREET, EVARTS KY 40828",40828,KY,36.864128,-83.193205
SUMNER COUNTY SHERIFF OFFICE,MedReturn_Box,"117 W SMITH ST, GALLATIN TN 37066",37066,TN,36.386444,-86.446716
Springfield Township Police Dept,MedReturn_Box,"3475 East South Range Road, New Springfield OH 44443",44443,OH,40.942598,-80.58642
Poland Township Police,MedReturn_Box,"3339 Dobbins Road, Poland OH 44514",44514,OH,41.004871,-80.588156
Struthers Police Department,MedReturn_Box,"6 Elm Street, Struthers OH 44471",44471,OH,41.056126,-80.591506
MIDDLESBORO CITY POLICE DEPT,MedReturn_Box,"150 N 20TH ST, MIDDLESBORO KY 40965",40965,KY,36.608682,-83.714406
Lowellville Police Department,MedReturn_Box,"140 Liberty Street, Lowellville OH 44436",44436,OH,41.036886,-80.534714
Hubbard Township Police Department,MedReturn_Box,"2600 Elmwood Drive, Hubbard OH 44425",44425,OH,41.172653,-80.555609
TOWN OF OCEANA,MedReturn_Box,"1285 COOK PARKWAY, OCEANA WV 24870",24870,WV,37.692248,-81.63279
CITY OF LAFOLLETTE,MedReturn_Box,"207 SOUTH TENNESSEE AVE, LAFOLLETTE TN 37766",37766,TN,36.379459,-84.121585
LaFollette Police Department,MedReturn_Box,"215 South Tennessee Avenue, LaFollette TN 37766",37766,TN,36.379418,-84.121558
Lebanon Police Department,MedReturn_Box,"406 Tennessee Blvd., Lebanon TN 37087",37087,TN,36.199984,-86.283097
ASHLAND CITY POLICE CEPT,MedReturn_Box,"233 TN WALTZ PKWY, ASHLAND CITY TN 37015",37015,TN,36.263163,-87.065968
FAYETTE COUNTY SHERIFF'S OFFICE,MedReturn_Box,"100 NORTH COURT STREET, FAYETTEVILLE WV 25840",25840,WV,38.05284,-81.103776
Murray Police Department,MedReturn_Box,"407 Poplar, Murray KY 42071",42071,KY,36.608523,-88.302773
Belle Meade Police Department,MedReturn_Box,"4705 Harding Pike, Nashville TN 37205",37205,TN,36.120781,-86.852729
Burns Police Department,MedReturn_Box,"2715 Church Streeet, Burns TN 37029",37029,TN,36.052768,-87.312993
Star City Police Department,MedReturn_Box,"370 Broadway Avenue, Star City WV 26505",26505,WV,39.657692,-79.9865
SUMMERS COUNTY HOSPITAL,MedReturn_Box,"1500 TERRACE ST, HINTON WV 25951",25951,WV,37.650764,-80.858984
CITY OF BLUEFIELD,MedReturn_Box,"200 ROGERS ST, BLUEFIELD WV 24701",24701,WV,37.267839,-81.226955
COMMUNITY CONNECTIONS,MedReturn_Box,"215 SOUTH WALKER ST, PRINCETON WV 24740",24740,WV,37.363019,-81.10386
PRESTON COUNTY SHERIFF'S DEPT,MedReturn_Box,"103 W MAIN ST, KINGWOOD WV 26537",26537,WV,39.471589,-79.688298
Pocahontas County Sheriff's Department,MedReturn_Box,"900 10th Avenue, Marlinton WV 24954",24954,WV,38.218119,-80.088613
PENDLETON COUNTY SHERIFFS DEPT,MedReturn_Box,"100 SOUTH MAIN ST, FRANKLIN WV 26807",26807,WV,38.641756,-79.33162
GILES COUNTY SHERIFF'S OFFICE,MedReturn_Box,"200 Thomas Gatlin Dr, Pulaski TN 38478",38478,TN,35.21744,-87.056172
MINERAL COUNTY SHERIFFS OFFICE,MedReturn_Box,"100 E STREET, KEYSER WV 26726",26726,WV,39.443117,-78.986839
MOOREFIELD CITY POLICE,MedReturn_Box,"206 WINCHESTER AVE, MOOREFIELD WV 26836",26836,WV,39.062416,-78.967464
HAMPSHIRE CO. HEALTH DEPT,MedReturn_Box,"16189 NORTHWESTERN PIKE, AUGUSTA WV 26704",26704,WV,39.300028,-78.626084
WARDENSVILLE POLICE DEPARTMENT,MedReturn_Box,"25 WARRIOR WAY, WARDENSVILLE WV 26851",26851,WV,39.079959,-78.591271
SHEPHERDSTOWN POLICE DEPT,MedReturn_Box,"104 N KING ST, SHEPHERDSTOWN WV 25443",25443,WV,39.430561,-77.806221
NORTHSIDE PHARMACY,DEA,"2899 BELL STREET,  ZANESVILLE,  OH, 43701",43701,OH,39.97383,-82.01288
NORTHSIDE SOMERSET PHARMACY,DEA,"110 WEST MAIN STREET,  SOMERSET,  OH, 43783",43783,OH,39.806675,-82.300186
"WILLIAMS BROS. HEALTH CARE PHARMACY, INC",DEA,"104 E. BROADWAY ST.,  LOOGOOTEE,  IN, 47553",47553,IN,38.67533,-86.912834
BRAY PHARMACY INC.,DEA,"662 EAST MAIN ST.,  FRANKFORT,  KY, 40601",40601,KY,38.202984,-84.84794
NORTHSIDE CAMBRIDGE PHARMACY,DEA,"1300 CLARK STREET,  SUITE 4,  CAMBRIDGE,  OH, 43725",43725,OH,40.038853,-81.577095
DAVIS BROTHERS PHARMACY,DEA,"615 N CHESTER ST,  NEW CUMBERLAND,  WV, 26047",26047,WV,40.494556,-80.60663
DAVIS BROTHERS PHARMACY - CHESTER,DEA,"559 CAROLINA AVE STE B,  CHESTER,  WV, 26034",26034,WV,40.614338,-80.560646
WALGREEN CO.,DEA,"12101 SHELBYVILLE ROAD,  MIDDLETOWN,  KY, 40243",40243,KY,38.248585,-85.53128
RxDrugDropBox,RXDrugDrop,"951 Washington Street,  Dayton,  OH, 45408",45408,OH,39.749657,-84.205826
RxDrugDropBox,RXDrugDrop,"103 Lane Parkway,  Shelbyville,  TN, 37160",37160,TN,35.485355,-86.462975
CROWDERS UPTOWN DRUG STORE,DEA,"631 16TH STREET,  P.O. BOX 966,  BEDFORD,  IN, 47421",47421,IN,38.86108,-86.479904
RxDrugDropBox,RXDrugDrop,"950 Locust Corner Rd,  Cincinnati,  OH, 45245",45245,OH,39.0246,-84.27839
RxDrugDropBox,RXDrugDrop,"103 East Main Street,  Waverly,  TN, 37185",37185,TN,36.083176,-87.79387
LINCOLN PLAZA PHARMACY LLC,DEA,"629 LINCOLN AVE,  P.O. BOX 966,  BEDFORD,  IN, 47421",47421,IN,38.872807,-86.490425
WALGREEN CO.,DEA,"5201 S. THIRD ST.,  LOUISVILLE,  KY, 40214",40214,KY,38.172203,-85.76787
WALGREEN CO.,DEA,"2021 HIKES LANE,  LOUISIVILLE,  KY, 40218",40218,KY,38.195465,-85.66529
RxDrugDropBox,RXDrugDrop,"940 New Salem Highway,  Murfreesboro,  TN, 37130",37130,TN,35.836647,-86.40942
RxDrugDropBox,RXDrugDrop,"1044 Pleasant Grove Road,  Westmoreland,  TN, 37186",37186,TN,36.56203,-86.24667
RxDrugDropBox,RXDrugDrop,"104 East Main Street,  Smithville,  TN, 37166",37166,TN,35.960815,-85.81259
RxDrugDropBox,RXDrugDrop,"99 East Center Street,  Madisonville,  KY, 42431",42431,KY,37.32799,-87.49701
RxDrugDropBox,RXDrugDrop,"10500 Reading Rd,  Cincinnati,  OH, 45241",45241,OH,39.25456,-84.422325
RxDrugDropBox,RXDrugDrop,"88 First Street,  Lexington,  TN, 38351",38351,TN,35.64783,-88.39319
RxDrugDropBox,RXDrugDrop,"105 South Main Street,  Goodlettsville,  TN, 37072",37072,TN,36.319897,-86.71319
RxDrugDropBox,RXDrugDrop,"207 N. First Street,  Pierceton,  IN, 46562",46562,IN,41.200817,-85.70526
RxDrugDropBox,RXDrugDrop,"204 Red Road,  McMinnville,  TN, 37111",37111,TN,35.693645,-85.7617
RxDrugDropBox,RXDrugDrop,"202 South Main Street,  Dickson,  TN, 37055",37055,TN,36.07473,-87.390526
RxDrugDropBox,RXDrugDrop,"201 West Grundy Street,  Tullahoma,  TN, 37388",37388,TN,35.362514,-86.21222
RxDrugDropBox,RXDrugDrop,"936 E. Trinity Lane,  Nashville,  TN, 37207",37207,TN,36.20455,-86.74815
RxDrugDropBox,RXDrugDrop,"201 West Grundy Street,  Tullahoma,  TN, 37388",37388,TN,35.362514,-86.21222
RxDrugDropBox,RXDrugDrop,"934 Neeb Road,  Cincinnati,  OH, 45233",45233,OH,39.11261,-84.63576
RxDrugDropBox,RXDrugDrop,"201 W. Main Street,  Mentone,  IN, 46539",46539,IN,41.173336,-86.037834
RxDrugDropBox,RXDrugDrop,"911 Kentucky Street,  Bowling Green,  KY, 42104",42104,KY,36.99577,-86.443855
RxDrugDropBox,RXDrugDrop,"201 S Broadway Street,  Glasgow,  KY, 42141",42141,KY,36.9945,-85.91139
WALGREEN CO.,DEA,"701 N CABLE ROAD,  LIMA,  OH, 45805",45805,OH,40.748543,-84.14702
DUSINI DRUG INC,DEA,"315 EAST HIGH AVENUE,  NEW PHILADELPHIA,  OH, 44663",44663,OH,40.488796,-81.44058
GENOA A QOL HEALTHCARE COMPANY LLC,DEA,"1445 W. MAIN STREET,  NEWARK,  OH, 43055",43055,OH,40.045807,-82.45498
WALGREEN CO.,DEA,"655 WASHINGTON ST. W,  CHARLESTON,  WV, 25302",25302,WV,38.36498,-81.645096
BLUEGRASS PHARMACIES,DEA,"1128 N. MAIN ST.,  MADISONVILLE,  KY, 42431",42431,KY,37.345436,-87.49814
KINES FAMILY PHARMACY INC.,DEA,"6097 SISSONVILLE DRIVE,  CHARLESTON,  WV, 25312",25312,WV,38.462486,-81.66513
COMPASS PHARMACY,DEA,"1634 11TH STREET,  PORTSMOUTH,  OH, 45662",45662,OH,38.738884,-82.98201
WALGREEN CO.,DEA,"6201 STELLHORN ROAD,  FT WAYNE,  IN, 46815",46815,IN,41.120308,-85.0631
GENOA A QOL HEALTHCARE COMPANY LLC,DEA,"901 WASHINGTON STREET,  ROOM 135,  PORTSMOUTH,  OH, 45662",45662,OH,38.737473,-82.99849
WALGREEN CO.,DEA,"2720 W JACKSON,  MUNCIE,  IN, 47303",47303,IN,40.192978,-85.41821
PHARMACY NETWORK SERVICES,DEA,"527 N. STATE OF FRANKLIN RD,  SUITE 1,  JOHNSON CITY,  TN, 37604",37604,TN,36.31496,-82.38868
#N/A,#N/A,"7951 TN, 22,  Dresden,  TN, 38225",38225,TN,36.275715,-88.690155
WALGREEN CO.,DEA,"925 SOUTH GREEN RIVER ROAD,  EVANSVILLE,  IN, 47715",47715,IN,37.963036,-87.49267
RxDrugDropBox,RXDrugDrop,"79 College Street,  Munford,  TN, 38058",38058,TN,35.446896,-89.813705
WALGREEN CO.,DEA,"1650 E ANDREW JOHNSON HWY,  GREENEVILLE,  TN, 37745",37745,TN,36.176983,-82.79416
"IU HEALTH BALL MEMORIAL HOSPITAL, INC.",DEA,"5501 W. BETHEL AVE,  MUNCIE,  IN, 47304",47304,IN,40.225357,-85.44979
ST. VINCENT PHARMACY MOB,DEA,"801 ST. MARY'S DRIVE,  EVANSVILLE,  IN, 47714",47714,IN,37.96686,-87.50556
RxDrugDropBox,RXDrugDrop,"8100 Ewing Blvd,  Florence,  KY, 41042",41042,KY,38.999233,-84.64207
"IU HEALTH BALL MEMORIAL HOSPITAL, INC.",DEA,"1420 S. PILGRIM BLVD.,  YORKTOWN,  IN, 47396",47396,IN,40.180706,-85.47344
EMORY CENTRE PHARMACY,DEA,"527 EMORY DRIVE,  OWENSBORO,  KY, 42301",42301,KY,37.748047,-87.115074
RxDrugDropBox,RXDrugDrop,"106 S Main St reet,  Edmonton,  KY, 42129",42129,KY,36.979504,-85.61227
METHODIST HOSPITAL PHARMACY,DEA,"1305 N ELM ST,  HENDERSON,  KY, 42420",42420,KY,37.85278,-87.58191
RxDrugDropBox,RXDrugDrop,"8774 Constable Dr,  Alexandria,  KY, 41001",41001,KY,38.94921,-84.39136
RxDrugDropBox,RXDrugDrop,"10900 Reading Rd,  Sharonville,  OH, 45241",45241,OH,39.2654,-84.41456
HALL FAMILY PHARMACY,DEA,"433 WEST CENTRAL AVENUE,  JAMESTOWN,  TN, 38556",38556,TN,36.43127,-84.9428
GARST RX,DEA,"325 S MAIN ST,  FORTVILLE,  IN, 46040",46040,IN,39.932068,-85.84804
RxDrugDropBox,RXDrugDrop,"8188 S. St Rt 48,  Maineville,  OH, 45039",45039,OH,39.314465,-84.22058
MERCY HEALTH - MARCUM & WALLACE HOSPITAL LLC,DEA,"60 MERCY COURT,  IRVINE,  KY, 40336",40336,KY,37.70588,-83.977776
WILSON PHARMACY,DEA,"1657 EAST STONE DRIVE,  SUITE A,  KINGSPORT,  TN, 37660",37660,TN,36.547882,-82.51893
"IU HEALTH BALL MEMORIAL HOSPITAL, INC",DEA,"3813 S. MADISON ST.,  MUNCIE,  IN, 47302",47302,IN,40.159008,-85.38175
GOOD SAMARITAN HOSPITAL,DEA,"520 S 7TH ST,  VINCENNES,  IN, 47591",47591,IN,38.673965,-87.532166
"IU HEALTH BALL MEMORIAL HOSPITAL, INC.",DEA,"2401 W. UNIVERSITY AVE.,  OMP 1635,  MUNCIE,  IN, 47303",47303,IN,40.197598,-85.41418
RxDrugDropBox,RXDrugDrop,"1091 Hospital Road,  Franklin,  IN, 46131",46131,IN,39.477684,-86.083275
CROWDERS UPTOWN DRUG STORE,DEA,"631 16TH STREET,  P.O. BOX 966,  BEDFORD,  IN, 47421",47421,IN,38.86108,-86.479904
RxDrugDropBox,RXDrugDrop,"111 West Main Street,  Hohenwald,  TN, 38462",38462,TN,35.548077,-87.55376
EMORY CENTRE PHARMACY,DEA,"527 EMORY DRIVE,  OWENSBORO,  KY, 42301",42301,KY,37.748047,-87.115074
RxDrugDropBox,RXDrugDrop,"1106 Amsterdam Rd,  Park Hills,  KY, 41011",41011,KY,39.071354,-84.53295
"IU HEALTH BALL MEMORIAL HOSPITAL, INC.",DEA,"400 PILGRIM BLVD.,  HARTFORD CITY,  IN, 47348",47348,IN,40.468933,-85.37196
"INDIANA UNIVERSITY HEALTH, INC",DEA,"13100 E 136TH STREET,  SUITE 1000,  FISHERS,  IN, 46037",46037,IN,39.98783,-85.92868
LINCOLN PLAZA PHARMACY LLC,DEA,"629 LINCOLN AVE,  P.O. BOX 966,  BEDFORD,  IN, 47421",47421,IN,38.872807,-86.490425
RxDrugDropBox,RXDrugDrop,"112 W. 1st St,  Hopkinsville,  KY, 42240",42240,KY,36.870407,-87.4867
RxDrugDropBox,RXDrugDrop,"73 N Main St.,  West Alexandria,  OH, 45381",45381,OH,39.750088,-84.53251
RxDrugDropBox,RXDrugDrop,"73 N Main St.,  West Alexandria,  OH, 45381",45381,OH,39.750088,-84.53251
WALGREEN CO.,DEA,"6202 WEST JEFFERSON BLVD,  FT WAYNE,  IN, 46804",46804,IN,41.055473,-85.22547
WALGREEN CO.,DEA,"897 CHESTNUT RIDGE RD,  MORGANTOWN,  WV, 26505",26505,WV,39.658043,-79.95466
"PCA-CORRECTIONS, LLC DBA CHOICE PHARMACY",DEA,"4014 VENTURE COURT,  COLUMBUS,  OH, 43228",43228,OH,40.000458,-83.11513
NORTHSIDE SOMERSET PHARMACY,DEA,"110 WEST MAIN STREET,  SOMERSET,  OH, 43783",43783,OH,39.806675,-82.300186
GENOA A QOL HEALTHCARE COMPANY LLC,DEA,"525 METRO PLACE N,  STE 150,  DUBLIN,  OH, 43017",43017,OH,40.096214,-83.13056
WALGREEN CO.,DEA,"101 FORBES DR.,  MARTINSBURG,  WV, 25404",25404,WV,39.47445,-77.958336
THE OHIO STATE UNIVERSITY OUTPATIENT PHARMACY - J,DEA,"460 W 10TH AVE,  ROOM L012,  COLUMBUS,  OH, 43210",43210,OH,39.994408,-83.01511
WALGREEN CO.,DEA,"2150 E DUBLIN GRANVILLE ROAD,  COLUMBUS,  OH, 43229",43229,OH,40.086464,-82.95947
WALGREEN CO.,DEA,"4605 MONTGOMERY ROAD,  NORWOOD,  OH, 45212",45212,OH,39.160652,-84.45617
RxDrugDropBox,RXDrugDrop,"10 North First St.,  Miamisburg,  OH, 45342",45342,OH,39.641914,-84.28777
WALGREEN CO.,DEA,"859 E MAIN ST,  LANCASTER,  OH, 43130",43130,OH,39.7135,-82.58442
GENOA A QOL HEALTHCARE COMPANY LLC,DEA,"1501 MADISON ROAD,  3RD FL,  WALNUT HILLS,  OH, 45206",45206,OH,39.13011,-84.479744
RxDrugDropBox,RXDrugDrop,"10 East Broad Street,  Cookeville,  TN, 38501",38501,TN,36.163406,-85.505554
RxDrugDropBox,RXDrugDrop,"719 Rogers Rd,  Villa Hills,  KY, 41017",41017,KY,39.05337,-84.59697
THE JEWISH HOSPITAL,DEA,"4777 E. GALBRAITH ROAD,  CINCINNATI,  OH, 45236",45236,OH,39.20691,-84.38169
RxDrugDropBox,RXDrugDrop,"711 East Commercial Avenue,  Monterey,  TN, 38574",38574,TN,36.14203,-85.2616
MULLANEY'S LTC PHARMACY,DEA,"6096 MONTGOMERY RD SUITE B,  CINCINNATI,  OH, 45213",45213,OH,39.18211,-84.42746
EQUITAS HEALTH PHARMACY,DEA,"1033 N. HIGH ST.,  COLUMBUS,  OH, 43201",43201,OH,39.983475,-83.00481
RxDrugDropBox,RXDrugDrop,"222 E. 9th Street,  Owensboro, KY, 42303",42303,KY,37.76754,-87.10906
RxDrugDropBox,RXDrugDrop,"707 North Main Street,  Columbia,  TN, 38401",38401,TN,35.61608,-87.033676
RxDrugDropBox,RXDrugDrop,"2191 E. Fort Wayne Street,  Warsaw,  IN, 46580",46580,IN,41.239902,-85.82643
"AMC OHIO LLC, DBA EQUITAS HEALTH PHARMACY #3",DEA,"750 E LONG ST,  SUITE 3100,  COLUMBUS,  OH, 43203",43203,OH,39.967236,-82.981346
RxDrugDropBox,RXDrugDrop,"2171 N. McKinley Ave,  Rensselaer,  IN, 47978",47978,IN,40.960297,-87.15134
RxDrugDropBox,RXDrugDrop,"705 Hanover Street,  Hamilton,  OH, 45011",45011,OH,39.38989,-84.55573
AHF PHARMACY,DEA,"1230 N. HIGH STREET,  COLUMBUS,  OH, 43201",43201,OH,39.987526,-83.00559
CLERMONT MERCY HOSPITAL,DEA,"3000 HOSPITAL DRIVE,  BATAVIA,  OH, 45103",45103,OH,39.080856,-84.147415
RxDrugDropBox,RXDrugDrop,"217 South Main St,  Marion,  KY, 42064",42064,KY,37.334785,-88.08107
RxDrugDropBox,RXDrugDrop,"7029 Telecom Drive,  Milan,  TN, 38358",38358,TN,35.902252,-88.75714
"WILSON PHARMACY, INC.",DEA,"400 N STATE OF FRANKLIN RD,  JOHNSON CITY,  TN, 37604",37604,TN,36.308666,-82.386536
RxDrugDropBox,RXDrugDrop,"701 W. Sample St.,  South Bend, IN, 46601",46601,IN,41.66504,-86.2598
RxDrugDropBox,RXDrugDrop,"6757 Goshen Road,  Goshen,  OH, 45122",45122,OH,39.23051,-84.15805
RxDrugDropBox,RXDrugDrop,"100 Terri Street,  Campbellsville,  KY, 42718",42718,KY,37.34085,-85.34594
RxDrugDropBox,RXDrugDrop,"2231 26th Avenue North,  Nashville,  TN, 37208",37208,TN,36.188774,-86.81822
RxDrugDropBox,RXDrugDrop,"675 Highway 51 South,  Ripley,  TN, 37063",37063,TN,35.745914,-89.55413
RxDrugDropBox,RXDrugDrop,"100 South Smith St.,  Jamestown,  TN, 38556",38556,TN,36.426987,-84.933075
RxDrugDropBox,RXDrugDrop,"222 North Front Street,  Greenfield,  TN, 38230",38230,TN,36.15514,-88.80031
B S D INC,DEA,"716 MADISON AVENUE,  COVINGTON,  KY, 41011",41011,KY,39.083157,-84.51004
RxDrugDropBox,RXDrugDrop,"100 Public Square,  Mt. Pleasant,  TN, 38474",38474,TN,35.5342,-87.20753
GENOA A QOL HEALTHCARE COMPANY LLC,DEA,"43 E MAIN STREET,  STE 113,  AMELIA,  OH, 45102",45102,OH,39.025845,-84.21459
RxDrugDropBox,RXDrugDrop,"100 Powell Street,  Decherd,  TN, 37324",37324,TN,35.20971,-86.076485
MERCY HOSPITAL-ANDERSON,DEA,"7500 STATE ROAD,  CINCINNATI,  OH, 45255",45255,OH,39.084507,-84.35096
RxDrugDropBox,RXDrugDrop,"100 North Caldwell Street,  Paris,  TN, 38242",38242,TN,36.302013,-88.328384
RxDrugDropBox,RXDrugDrop,"233 S. Main St,  Monroe,  OH, 45050",45050,OH,39.441185,-84.36244
WILSON PHARMACY INC,DEA,"523 N. STATE OF FRANKLIN RD,  JOHNSON CITY,  TN, 37604",37604,TN,36.31494,-82.38867
RxDrugDropBox,RXDrugDrop,"229 Church Street,  Tiptonville,  TN, 38079",38079,TN,36.37839,-89.48458
CHEFFY DRUGS LLC,DEA,"148 EAST MAIN ST,  BARNESVILLE,  OH, 43713",43713,OH,39.988033,-81.17792
NORTHSIDE CAMBRIDGE PHARMACY,DEA,"1300 CLARK STREET,  SUITE 4,  CAMBRIDGE,  OH, 43725",43725,OH,40.038853,-81.577095
GENOA A QOL HEALTHCARE COMPANY LLC,DEA,"799 SOUTH MAIN STREET,  LIMA,  OH, 45804",45804,OH,40.727943,-84.10503
BELLWOOD DRUGS,DEA,"135 SOUTH MAIN STREET,  WOODSFIELD,  OH, 43793",43793,OH,39.761852,-81.116325
BARNESVILLE HOSPITAL ASSN INC,DEA,"639 W MAIN ST,  BARNESVILLE,  OH, 43713",43713,OH,39.991737,-81.187836
RxDrugDropBox,RXDrugDrop,"58 Elm Street South,  Lynchburg,  TN, 37352",37352,TN,35.281155,-86.37775
MOUNDSVILLE PHARMACY,DEA,"118 NORTH LAFAYETTE AVENUE,  MOUNDSVILLE,  WV, 26041",26041,WV,39.931747,-80.75214
"CAMERLIN ENTERPRISES, LLC",DEA,"615 WELLS STREET,  SISTERSVILLE,  WV, 26175",26175,WV,39.564564,-80.99506
RxDrugDropBox,RXDrugDrop,"101 University St.,  Martin,  TN, 38237",38237,TN,36.342075,-88.85071
RxDrugDropBox,RXDrugDrop,"620 Hospital Drive,  Gainesboro,  TN, 38562",38562,TN,36.35021,-85.65635
WALGREEN CO.,DEA,"700 S BREIEL BLVD,  MIDDLETOWN,  OH, 45044",45044,OH,39.503372,-84.355385
GENOA A QOL HEALTHCARE COMPANY LLC,DEA,"741 SCHOLL ROAD,  STE P1,  MANSFIELD,  OH, 44907",44907,OH,40.73698,-82.527245
RxDrugDropBox,RXDrugDrop,"1010 John T. Poindexter Drive,  Livingston,  TN, 38570",38570,TN,36.39634,-85.32411
COMPASS PHARMACY,DEA,"1634 11TH STREET,  PORTSMOUTH,  OH, 45662",45662,OH,38.738884,-82.98201
NORTHSIDE PHARMACY,DEA,"2899 BELL STREET,  ZANESVILLE,  OH, 43701",43701,OH,39.97383,-82.01288
RxDrugDropBox,RXDrugDrop,"6303 Harrison Ave,  Cincinnati,  OH, 45247",45247,OH,39.19227,-84.6585
RxDrugDropBox,RXDrugDrop,"101 University Street,  Martin,  TN, 38237",38237,TN,36.342075,-88.85071
BERGER HOSPITAL,DEA,"600 NORTH PICKAWAY STREET,  ATTN PHARMACY,  CIRCLEVILLE,  OH, 43113",43113,OH,39.60921,-82.93825
RxDrugDropBox,RXDrugDrop,"210 Broadway Street,  Hartsville,  TN, 37074",37074,TN,36.3935,-86.166435
DAVE'S PHARMACY,DEA,"411 W. 5TH STREET,  MARYSVILLE,  OH, 43040",43040,OH,40.236794,-83.37287
RxDrugDropBox,RXDrugDrop,"600 N. Jackson St,  Greencastle,  IN, 46135",46135,IN,39.648537,-86.865486
WALGREEN CO.,DEA,"1321 DELAWARE AVE.,  MARION,  OH, 43302",43302,OH,40.565434,-83.120514
RxDrugDropBox,RXDrugDrop,"6118 Vine Street,  Cincinnati,  OH, 45216",45216,OH,39.1868,-84.48824
RxDrugDropBox,RXDrugDrop,"212 Hancock Street,  Milltown, IN, 47145",47145,IN,38.3416,-86.277245
WALGREEN CO.,DEA,"850 NORTH BRIDGE STREET,  CHILLICOTHE,  OH, 45601",45601,OH,39.346466,-82.9765
RxDrugDropBox,RXDrugDrop,"210 Forest Heights,  Paris,  TN, 38242",38242,TN,36.329872,-88.23842
COMPASS PHARMACY,DEA,"1634 11TH STREET,  PORTSMOUTH,  OH, 45662",45662,OH,38.738884,-82.98201
RxDrugDropBox,RXDrugDrop,"212 St Ann St,  Owensboro,  KY, 42303",42303,KY,37.77463,-87.11236
RxDrugDropBox,RXDrugDrop,"103 East Main St,  Waverly,  TN, 37185",37185,TN,36.083176,-87.79387
RxDrugDropBox,RXDrugDrop,"600 Korean Veterans Boulevard,  Nashville,  TN, 37203",37203,TN,36.15585,-86.77734
RxDrugDropBox,RXDrugDrop,"215 West Main Street,  Algood,  TN, 38506",38506,TN,36.192715,-85.451225
MERCY HEALTH - WEST RETAIL PHARMACY,DEA,"3300 MERCY HEALTH BOULEVARD,  ATTN: PHARMACY DEPARTMENT,  CINCINNATI,  OH, 45211",45211,OH,39.179474,-84.60383
RxDrugDropBox,RXDrugDrop,"582 Bethel Road,  Linden,  TN, 37096",37096,TN,35.59019,-87.85273
RxDrugDropBox,RXDrugDrop,"215 West Main Street,  Algood,  TN, 38506",38506,TN,36.192715,-85.451225
WALGREEN CO.,DEA,"2320 BOUDINOT AVE.,  CINCINNATI,  OH, 45238",45238,OH,39.128372,-84.60541
RxDrugDropBox,RXDrugDrop,"215 West Main Street,  Algood,  TN, 38506",38506,TN,36.192715,-85.451225
RxDrugDropBox,RXDrugDrop,"1019 Charlie Daniels Parkway,  Mt. Juliet,  TN, 37122",37122,TN,36.221733,-86.514206
WALGREEN CO.,DEA,"9775 COLERAIN AVENUE,  CINCINNATI,  OH, 45251",45251,OH,39.249336,-84.59707
RxDrugDropBox,RXDrugDrop,"215 West Main Street,  Algood,  TN, 38506",38506,TN,36.192715,-85.451225
RxDrugDropBox,RXDrugDrop,"10150 Montgomery Rd,  Montgomery,  OH, 45242",45242,OH,39.242752,-84.34734
MERCY HEALTH - WEST RETAIL PHARMACY,DEA,"3300 MERCY HEALTH BOULEVARD,  CINCINNATI,  OH, 45211",45211,OH,39.179474,-84.60383
RxDrugDropBox,RXDrugDrop,"103 Duke Street,  Cave City,  KY, 42127",42127,KY,37.13922,-85.95818
MERCY HOSPITAL,DEA,"3000 MACK ROAD,  ATTENTION PHARMACY LOWER LEVEL,  FAIRFIELD,  OH, 45014",45014,OH,39.310986,-84.51871
RxDrugDropBox,RXDrugDrop,"215 West Main Street,  Algood,  TN, 38506",38506,TN,36.192715,-85.451225
LIFELINE INSTITUTIONAL PHARMACY,DEA,"3699 SYMMES RD,  SUITE 1,  HAMILTON,  OH, 45015",45015,OH,39.34333,-84.49795
RxDrugDropBox,RXDrugDrop,"123 W 4th St,  Connersville,  IN, 47331",47331,IN,39.640644,-85.14077
WALGREEN CO.,DEA,"6202 WEST JEFFERSON BLVD,  FT WAYNE,  IN, 46804",46804,IN,41.055473,-85.22547
WALGREEN CO.,DEA,"1205 MAIN ST,  MURRAY,  KY, 42071",42071,KY,36.610558,-88.31537
MURRAY-CALLOWAY CO HOSPITAL,DEA,"803 POPLAR STREET,  MURRAY,  KY, 42071",42071,KY,36.608643,-88.30875
LOURDES HOSPITAL INC PHARMACY,DEA,"1530 LONE OAK RD,  PADUCAH,  KY, 42003",42003,KY,37.053482,-88.64711
ST CLAIRE MEDICAL CENTER INC - RETAIL,DEA,"222 MEDICAL CIRCLE,  MOREHEAD,  KY, 40351",40351,KY,38.18026,-83.44319
RxDrugDropBox,RXDrugDrop,"520 Licking Pike,  Wilder, KY, 41071",41071,KY,39.056038,-84.486855
GENOA A QOL HEALTHCARE COMPANY LLC,DEA,"901 WASHINGTON STREET,  ROOM 135,  PORTSMOUTH,  OH, 45662",45662,OH,38.737473,-82.99849
RxDrugDropBox,RXDrugDrop,"546 East College Street,  Jackson,  TN, 38301",38301,TN,35.615654,-88.811165
RxDrugDropBox,RXDrugDrop,"12740 Lexington Street,  Huntingdon,  TN, 38344",38344,TN,35.99988,-88.42733
RxDrugDropBox,RXDrugDrop,"549 Main Street,  Whiteland,  IN, 46184",46184,IN,39.550056,-86.07895
RxDrugDropBox,RXDrugDrop,"130 N. Fort Thomas Ave,  Fort Thomas,  KY, 41075",41075,KY,39.081127,-84.44941
RxDrugDropBox,RXDrugDrop,"5230 Pleasant Ave,  Fairfield,  OH, 45014",45014,OH,39.336956,-84.560104
RxDrugDropBox,RXDrugDrop,"126 South Lebanon Road,  Loveland,  OH, 45140",45140,OH,39.27477,-84.28398
RxDrugDropBox,RXDrugDrop,"5230 Pleasant Ave,  Fairfield,  OH, 45014",45014,OH,39.336956,-84.560104
RxDrugDropBox,RXDrugDrop,"127 N. Main St,  New Castle,  IN, 47362",47362,IN,39.931393,-85.37028
RxDrugDropBox,RXDrugDrop,"56 N. Main St,  Madisonville,  KY, 42431",42431,KY,37.347733,-87.49827
RxDrugDropBox,RXDrugDrop,"5701 Delhi Rd,  Cincinnati,  OH, 45102",45102,OH,39.09631,-84.63754
RxDrugDropBox,RXDrugDrop,"133 E. Pleasant Avenue,  Covington,  TN, 38019",38019,TN,35.56373,-89.64566
RxDrugDropBox,RXDrugDrop,"550 Justice Drive,  Lebanon,  OH, 45036",45036,OH,39.424175,-84.20036
RxDrugDropBox,RXDrugDrop,"130 South Main Street,  Dunkirk,  IN, 47336",47336,IN,40.374874,-85.20988
RxDrugDropBox,RXDrugDrop,"5500 Charlotte Pike,  Nashville,  TN, 37209",37209,TN,36.150948,-86.854706
PROMEDICA DEFIANCE REGIONAL HOSPITAL,DEA,"1200 RALSTON AVENUE,  DEFIANCE,  OH, 43512",43512,OH,41.29952,-84.3737
WALGREEN CO.,DEA,"8193 MALL ROAD,  FLORENCE,  KY, 41042",41042,KY,38.982113,-84.65001
RxDrugDropBox,RXDrugDrop,"135 Commerce Street,  Clarksville,  TN, 37040",37040,TN,36.525795,-87.360886
GENOA A QOL HEALTHCARE COMPANY LLC,DEA,"901 WASHINGTON STREET,  ROOM 135,  PORTSMOUTH,  OH, 45662",45662,OH,38.737473,-82.99849
RxDrugDropBox,RXDrugDrop,"1443 12th Avenue South,  Nashville,  TN, 37203",37203,TN,36.13755,-86.78819
RxDrugDropBox,RXDrugDrop,"139 Wesley Reed,  Suite E,  Atoka,  TN, 38004",38004,TN,35.445305,-89.78472
JUDY'S DRUG STORE INC,DEA,"24 NORTH MAIN ST,  PETERSBURG,  WV, 26847",26847,WV,38.994465,-79.12428
WALGREEN CO.,DEA,"2320 BOUDINOT AVE.,  CINCINNATI,  OH, 45238",45238,OH,39.128372,-84.60541
METHODIST HOSPITAL PHARMACY,DEA,"1305 N ELM ST,  HENDERSON,  KY, 42420",42420,KY,37.85278,-87.58191
WALGREEN CO.,DEA,"925 SOUTH GREEN RIVER ROAD,  EVANSVILLE,  IN, 47715",47715,IN,37.963036,-87.49267
ATRIUM PHARMACY,DEA,"260 WEST MAIN STREET,  SUITE 217,  HENDERSONVILLE,  TN, 37075",37075,TN,36.305145,-86.618484
WALGREEN CO.,DEA,"198 E MAIN ST,  HENDERSONVILLE,  TN, 37075",37075,TN,36.306633,-86.60854
"ANESTHESIA SERVICES ASSOCIATES, PLLC",DEA,"495 DUNLOP LANE,  SUITE 106,  CLARKSVILLE,  TN, 37040",37040,TN,36.580624,-87.27658
BLUEGRASS PHARMACIES,DEA,"1128 N. MAIN ST.,  MADISONVILLE,  KY, 42431",42431,KY,37.345436,-87.49814
RxDrugDropBox,RXDrugDrop,"1445 Gardner Ln NW,  Corydon, IN, 47112",47112,IN,38.223156,-86.14211
RxDrugDropBox,RXDrugDrop,"1584 Vista Lane,  Clarksville,  TN, 37040",37040,TN,36.50708,-87.32044
RxDrugDropBox,RXDrugDrop,"16 S. Maple St,  Winchester,  KY, 40391",40391,KY,37.993565,-84.17884
WALGREEN CO.,DEA,"6201 STELLHORN ROAD,  FT WAYNE,  IN, 46815",46815,IN,41.120308,-85.0631
RxDrugDropBox,RXDrugDrop,"176 Johns Hill Rd,  Highland Heights,  KY, 41076",41076,KY,39.03062,-84.45588
ST. VINCENT PHARMACY MOB,DEA,"801 ST. MARY'S DRIVE,  EVANSVILLE,  IN, 47714",47714,IN,37.96686,-87.50556
RxDrugDropBox,RXDrugDrop,"1801 South College Street,  Covington,  TN, 38019",38019,TN,35.54412,-89.64927
WALGREEN CO.,DEA,"500 S WILLOW AVE,  COOKEVILLE,  TN, 38501",38501,TN,36.154556,-85.51426
RxDrugDropBox,RXDrugDrop,"18100 Cumberland Road,  Noblesville,  IN, 46060",46060,IN,40.051353,-85.995735
WALGREEN CO.,DEA,"9775 COLERAIN AVENUE,  CINCINNATI,  OH, 45251",45251,OH,39.249336,-84.59707
WALGREEN CO.,DEA,"4605 MONTGOMERY ROAD,  NORWOOD,  OH, 45212",45212,OH,39.160652,-84.45617
MERCY HEALTH - WEST RETAIL PHARMACY,DEA,"3300 MERCY HEALTH BOULEVARD,  CINCINNATI,  OH, 45211",45211,OH,39.179474,-84.60383
GENOA A QOL HEALTHCARE COMPANY LLC,DEA,"1501 MADISON ROAD,  3RD FL,  WALNUT HILLS,  OH, 45206",45206,OH,39.13011,-84.479744
MERCY HOSPITAL,DEA,"3000 MACK ROAD,  ATTENTION PHARMACY LOWER LEVEL,  FAIRFIELD,  OH, 45014",45014,OH,39.310986,-84.51871
ST VINCENT JENNINGS HOSPITAL,DEA,"301 HENRY STREET,  NORTH VERNON,  IN, 47265",47265,IN,39.01135,-85.64125
MERCY HOSPITAL-ANDERSON,DEA,"7500 STATE ROAD,  CINCINNATI,  OH, 45255",45255,OH,39.084507,-84.35096
MULLANEY'S LTC PHARMACY,DEA,"6096 MONTGOMERY RD SUITE B,  CINCINNATI,  OH, 45213",45213,OH,39.18211,-84.42746
"ANESTHESIA SERVICES ASSOCIATES, PLLC",DEA,"495 DUNLOP LANE,  SUITE 106,  CLARKSVILLE,  TN, 37040",37040,TN,36.580624,-87.27658
WALGREEN CO.,DEA,"3130 CLARKSVILLE PIKE,  NASHVILLE,  TN, 37218",37218,TN,36.19339,-86.83077
ATRIUM PHARMACY,DEA,"260 WEST MAIN STREET,  SUITE 217,  HENDERSONVILLE,  TN, 37075",37075,TN,36.305145,-86.618484
MIDTOWN EXPRESS PHARMACY,DEA,"300 20TH AVENUE NORTH,  SUITE 105,  NASHVILLE,  TN, 37203",37203,TN,36.15443,-86.801605
RxDrugDropBox,RXDrugDrop,"117 N Public Square,  Glasgow,  KY, 42141",42141,KY,36.99597,-85.91207
MEDICAL CENTER EAST PHARMACY,DEA,"1215 21ST AVENUE SOUTH,  SUITE 1006,  NASHVILLE,  TN, 37232",37232,TN,36.14242,-86.80008
RxDrugDropBox,RXDrugDrop,"117 Donelson Parkway,  Dover,  TN, 37058",37058,TN,36.487873,-87.870026
RxDrugDropBox,RXDrugDrop,"117 N Main St,  Morgantown,  KY, 42261",42261,KY,37.225773,-86.68334
RxDrugDropBox,RXDrugDrop,"116 S. State,  Greenfield,  IN, 46140",46140,IN,39.78366,-85.769196
WALGREEN CO.,DEA,"198 E MAIN ST,  HENDERSONVILLE,  TN, 37075",37075,TN,36.306633,-86.60854
RxDrugDropBox,RXDrugDrop,"11670 Memphis-Arlington Road,  Memphis,  TN, 38002",38002,TN,35.283543,-89.673805
MERCY HEALTH - WEST RETAIL PHARMACY,DEA,"3300 MERCY HEALTH BOULEVARD,  ATTN: PHARMACY DEPARTMENT,  CINCINNATI,  OH, 45211",45211,OH,39.179474,-84.60383
RxDrugDropBox,RXDrugDrop,"116 East Union Street,  Munfordville,  KY, 42765",42765,KY,37.27117,-85.891556
B S D INC,DEA,"716 MADISON AVENUE,  COVINGTON,  KY, 41011",41011,KY,39.083157,-84.51004
RxDrugDropBox,RXDrugDrop,"1139 Preble Dr,  Eaton,  OH, 45320",45320,OH,39.763725,-84.64379
CLERMONT MERCY HOSPITAL,DEA,"3000 HOSPITAL DRIVE,  BATAVIA,  OH, 45103",45103,OH,39.080856,-84.147415
WALGREEN CO.,DEA,"700 S BREIEL BLVD,  MIDDLETOWN,  OH, 45044",45044,OH,39.503372,-84.355385
RxDrugDropBox,RXDrugDrop,"117 West Smith Street,  Gallatin,  TN, 37066",37066,TN,36.38705,-86.44688
GENOA A QOL HEALTHCARE COMPANY LLC,DEA,"1520 GERMANTOWN STREET,  DAYTON,  OH, 45417",45417,OH,39.746586,-84.218735
EQUITAS HEALTH PHARMACY #2,DEA,"1222 S. PATTERSON BLVD.,  SUITE 110,  DAYTON,  OH, 45402",45402,OH,39.74028,-84.1918
"ST. VINCENT SALEM HOSPITAL, INC.",DEA,"911 NORTH SHELBY STREET,  SALEM,  IN, 47167",47167,IN,38.61029,-86.107635
WALGREEN CO.,DEA,"934 SPRING ST,  JEFFERSONVILLE,  IN, 47130",47130,IN,38.27821,-85.74528
DICKSON APOTHECARY,DEA,"104 HIGHWAY 70 E,  DICKSON,  TN, 37055",37055,TN,36.072113,-87.37482
VANDERBILT HEALTH PHARMACY,DEA,"719 THOMPSON LANE,  SUITE 24130,  NASHVILLE,  TN, 37204",37204,TN,36.111897,-86.76262
E. HARTMAN LLC DBA DEAL DRUGS,DEA,"397 WALLACE ROAD,  SUITE C405,  NASHVILLE,  TN, 37211",37211,TN,36.07786,-86.72401
CAREZONE PHARMACY LLC,DEA,"800 AIRPARK CENTER DRIVE STE 809,  NASHVILLE,  TN, 37217",37217,TN,36.094868,-86.68027
GIBBS PHARMACY,DEA,"1427B BADDOUR PKWY,  LEBANON,  TN, 37087",37087,TN,36.219513,-86.333084
WALGREEN CO.,DEA,"106 W NORTHFIELD,  MURFREESBORO,  TN, 37129",37129,TN,35.868095,-86.38749
WALGREEN CO.,DEA,"1202 S JAMES CAMPBELL BLVD,  COLUMBIA,  TN, 38401",38401,TN,35.60334,-87.0653
MURRAY-CALLOWAY CO HOSPITAL,DEA,"803 POPLAR STREET,  MURRAY,  KY, 42071",42071,KY,36.608643,-88.30875
WALGREEN CO.,DEA,"1205 MAIN ST,  MURRAY,  KY, 42071",42071,KY,36.610558,-88.31537
RxDrugDropBox,RXDrugDrop,"121 East Main Street,  Newbern,  TN, 38059",38059,TN,36.112667,-89.26408
RxDrugDropBox,RXDrugDrop,"121 S. Main Street,  Milford,  IN, 46542",46542,IN,41.40948,-85.846016
RxDrugDropBox,RXDrugDrop,"12102 State Route 725 W,  Germantown,  OH, 45327",45327,OH,39.623196,-84.40376
THE JEWISH HOSPITAL,DEA,"4777 E. GALBRAITH ROAD,  CINCINNATI,  OH, 45236",45236,OH,39.20691,-84.38169
MOUNDSVILLE PHARMACY,DEA,"118 North Lafayette Street,  Brownsville,  TN, 38012",38012,TN,35.595093,-89.26294
GENOA A QOL HEALTHCARE COMPANY LLC,DEA,"43 E MAIN STREET,  STE 113,  AMELIA,  OH, 45102",45102,OH,39.025845,-84.21459
RxDrugDropBox,RXDrugDrop,"118 West Water Street,  Versailles,  IN, 47042",47042,IN,39.070576,-85.25111
LIFELINE INSTITUTIONAL PHARMACY,DEA,"3699 SYMMES RD,  SUITE 1,  HAMILTON,  OH, 45015",45015,OH,39.34333,-84.49795
#N/A,#N/A,"4470 OH, 222,  Batavia,  OH, 45103",45103,OH,39.089676,-84.18563
RxDrugDropBox,RXDrugDrop,"437 Swan Avenue,  Hohenwald,  TN, 38462",38462,TN,35.553776,-87.54091
RxDrugDropBox,RXDrugDrop,"4705 Harding Road,  Nashville,  TN, 37205",37205,TN,36.121365,-86.852615
RxDrugDropBox,RXDrugDrop,"4705 Harding Rd,  Nashville,  TN, 37205",37205,TN,36.121365,-86.852615
RxDrugDropBox,RXDrugDrop,"421 East Spring Street,  Cookeville,  TN, 38501",38501,TN,36.162613,-85.51453
RxDrugDropBox,RXDrugDrop,"433 North Broadway,  Portland,  TN, 37148",37148,TN,36.587326,-86.52099
RxDrugDropBox,RXDrugDrop,"4200 Springdale Road,  Cincinnati,  OH, 45251",45251,OH,39.244846,-84.6095
RxDrugDropBox,RXDrugDrop,"4151 Thorton Taylor Parkway,  Fayetteville,  TN, 37334",37334,TN,35.161297,-86.558655
RxDrugDropBox,RXDrugDrop,"409 Kyle's Lane,  Fort Wright,  KY, 41011",41011,KY,39.052948,-84.53533
RxDrugDropBox,RXDrugDrop,"408 South Depot Street,  Union City,  TN, 38261",38261,TN,36.4227,-89.05683
RxDrugDropBox,RXDrugDrop,"408 Century Court,  Franklin,  TN, 37064",37064,TN,35.898323,-86.88482
#N/A,#N/A,"406 TN,  Blvd,  Lebanon,  TN, 37087",37087,TN,36.199417,-86.28436
RxDrugDropBox,RXDrugDrop,"401 East Cedar Street,  Dyersburg,  TN, 38024",38024,TN,36.030785,-89.38438
RxDrugDropBox,RXDrugDrop,"401 2nd Avenue SW,  Winchester,  TN, 37398",37398,TN,35.182873,-86.114044
RxDrugDropBox,RXDrugDrop,"420 Wilton Circle,  Winchester,  TN, 37398",37398,TN,35.175724,-86.13435
RxDrugDropBox,RXDrugDrop,"400 West Lake Avenue,  Celina,  TN, 38551",38551,TN,36.55027,-85.507256
RxDrugDropBox,RXDrugDrop,"505 Commonwealth Ave,  Erlanger,  KY, 41018",41018,KY,39.023556,-84.6082
RxDrugDropBox,RXDrugDrop,"503 E. 1st Street,  Huntingburg,  IN, 47542",47542,IN,38.291534,-86.95361
RxDrugDropBox,RXDrugDrop,"5101 Harding Place,  Nashville,  TN, 37211",37211,TN,36.10127,-86.86729
RxDrugDropBox,RXDrugDrop,"4835 State Route 29,  Celina,  OH, 45822",45822,OH,40.54547,-84.61556
RxDrugDropBox,RXDrugDrop,"310 N. Huntington Street,  Syracuse,  IN, 46567",46567,IN,41.42428,-85.7496
RxDrugDropBox,RXDrugDrop,"311 Harrison Ave,  Harrison,  OH, 45030",45030,OH,39.262035,-84.8169
RxDrugDropBox,RXDrugDrop,"301 Sycamore St.,  Brookville,  OH, 45309",45309,OH,39.834583,-84.40941
WALGREEN CO.,DEA,"4580 MONROE ST,  TOLEDO,  OH, 43613",43613,OH,41.68945,-83.62261
RxDrugDropBox,RXDrugDrop,"301 West Cherry Street,  New Paris,  OH, 45347",45347,OH,39.856403,-84.79675
ST RITA'S MEDICAL CENTER,DEA,"730 W MARKET ST,  LIMA,  OH, 45801",45801,OH,40.740063,-84.119415
VETERANS ADMIN OUTPATIENT,DEA,"1200 SOUTH DETROIT AVENUE,  PHARMACY 119,  TOLEDO,  OH, 43614",43614,OH,41.614742,-83.60195
RxDrugDropBox,RXDrugDrop,"3000 Conrad Lane,  Burlington,  KY, 41005",41005,KY,39.0374,-84.7226
ARROWHEAD BEHAVIORAL HEALTH,DEA,"1725 TIMBER LINE ROAD,  MAUMEE,  OH, 43537",43537,OH,41.589508,-83.68744
PROMEDICA DEFIANCE REGIONAL HOSPITAL,DEA,"1200 RALSTON AVENUE,  DEFIANCE,  OH, 43512",43512,OH,41.29952,-84.3737
WALGREEN CO.,DEA,"1299 OAK RIDGE TURNPIKE,  OAK RIDGE,  TN, 37830",37830,TN,36.014843,-84.25483
WALGREEN CO.,DEA,"132 E BROADWAY BLVD,  JEFFERSON CITY,  TN, 37760",37760,TN,36.115864,-83.490234
BELEW DRUGS WASHINGTON PIKE INC,DEA,"5908 WASHINGTON PIKE SUITE 102,  KNOXVILLE,  TN, 37918",37918,TN,36.052433,-83.87448
RxDrugDropBox,RXDrugDrop,"300 Industrial Park Drive,  Selmer,  TN, 38375",38375,TN,35.1585,-88.59487
BELEW DRUGS ASHEVILLE HIGHWAY LLC,DEA,"8622 ASHEVILLE HIGHWAY,  KNOXVILLE,  TN, 37924",37924,TN,36.025463,-83.73642
WALGREEN CO.,DEA,"1332 N HIGHLAND AVE.,  JACKSON,  TN, 38301",38301,TN,35.636772,-88.822235
HALL FAMILY PHARMACY,DEA,"433 WEST CENTRAL AVENUE,  JAMESTOWN,  TN, 38556",38556,TN,36.43127,-84.9428
RxDrugDropBox,RXDrugDrop,"2660 Lyons Road,  Miamisburg,  OH, 45342",45342,OH,39.627705,-84.21888
RxDrugDropBox,RXDrugDrop,"234 Institute Street,  Jackson,  TN, 38301",38301,TN,35.61046,-88.8152
UNIVERSITY PHARMACY,DEA,"1924 ALCOA HWY,  SUITE NP100,  KNOXVILLE,  TN, 37920",37920,TN,35.94163,-83.949135
BELEW DRUG,DEA,"2021 N BROADWAY,  KNOXVILLE,  TN, 37917",37917,TN,35.99014,-83.92012
WALGREEN CO.,DEA,"121 N. NORTHSHORE DRIVE,  KNOXVILLE,  TN, 37919",37919,TN,35.93307,-84.002594
RxDrugDropBox,RXDrugDrop,"400 Enon Springs Road East,  Smyrna,  TN, 37167",37167,TN,35.97239,-86.47971
RxDrugDropBox,RXDrugDrop,"400 Myatt Drive,  Nashville,  TN, 37115",37115,TN,36.27238,-86.68963
RxDrugDropBox,RXDrugDrop,"335 East Main Street,  Wilmore,  KY, 40390",40390,KY,37.858654,-84.65957
RxDrugDropBox,RXDrugDrop,"3814 Harrison Avenue,  Cheviot,  OH, 45211",45211,OH,39.15669,-84.61266
RxDrugDropBox,RXDrugDrop,"385 Dudley Rd,  Edgewood,  KY, 41017",41017,KY,39.008427,-84.566605
RxDrugDropBox,RXDrugDrop,"4 Municipal Dr,  Fishers,  IN, 46038",46038,IN,39.958344,-86.01645
RxDrugDropBox,RXDrugDrop,"4 Municipal Dr,  Fishers,  IN, 46038",46038,IN,39.958344,-86.01645
RxDrugDropBox,RXDrugDrop,"4 Municipal Dr,  Fishers,  IN, 46038",46038,IN,39.958344,-86.01645
RxDrugDropBox,RXDrugDrop,"400 Anderson St,  Franklin,  OH, 45005",45005,OH,39.55891,-84.30198
RxDrugDropBox,RXDrugDrop,"328 N. Maple Street,  Eaton,  OH, 45320",45320,OH,39.740864,-84.6331
RxDrugDropBox,RXDrugDrop,"333 Eric Bell Drive,  Henderson,  TN, 38340",38340,TN,35.43399,-88.64347
RxDrugDropBox,RXDrugDrop,"993 Dovecrest Road,  Memphis,  TN, 38134",38134,TN,35.1582,-89.85853
RxDrugDropBox,RXDrugDrop,"998 Monmouth St,  Newport,  KY, 41071",41071,KY,39.087254,-84.48891
RxDrugDropBox,RXDrugDrop,"315 S Ireland St,  Greensburg,  IN, 47240",47240,IN,39.33408,-85.48895
RxDrugDropBox,RXDrugDrop,"3133 Hamilton Cleves Rd,  Ross,  OH, 45013",45013,OH,39.338722,-84.62517
RxDrugDropBox,RXDrugDrop,"323 Long Street,  New Johnsville,  TN, 37134",37134,TN,36.016968,-87.963585
RxDrugDropBox,RXDrugDrop,"319 N Meridian St,  Portland,  IN, 47371",47371,IN,40.435493,-84.97791
"INDIANA UNIVERSITY HEALTH, INC",DEA,"1111 N. RONALD REAGAN PKWY,  AVON,  IN, 46123",46123,IN,39.78364,-86.34405
FRANCISCAN HEALTH MOORESVILLE,DEA,"1201 HADLEY RD,  MOORESVILLE,  IN, 46158",46158,IN,39.60935,-86.35575
DAVIS DRUGS LLC,DEA,"300 SOUTH PERRY STREET,  ATTICA,  IN, 47918",47918,IN,40.292675,-87.2496
CUSTOM PLUS PHARMACY LLC,DEA,"482 WEST NAVAJO,  SUITE A,  WEST LAFAYETTE,  IN, 47906",47906,IN,40.451427,-86.912476
"PHARMACY CARE SOLUTIONS, INC",DEA,"2323 N. MARR ROAD,  COLUMBUS,  IN, 47203",47203,IN,39.22179,-85.88453
WALGREEN CO.,DEA,"2400 BEAM ROAD,  COLUMBUS,  IN, 47203",47203,IN,39.222023,-85.88831
WALGREEN CO.,DEA,"1300 WABASH AVE,  TERRE HAUTE,  IN, 47807",47807,IN,39.46779,-87.39761
"INDIANA UNIVERSITY HEALTH, INC.",DEA,"705 RILEY HOSPITAL DR.,  STE 1201,  INDIANAPOLIS,  IN, 46202",46202,IN,39.77726,-86.18137
ST. MARGARET'S PHARMACY AT ESKENAZI HEALTH,DEA,"720 ESKENAZI AVENUE,  INDIANAPOLIS,  IN, 46202",46202,IN,39.77755,-86.18288
"INDIANA UNIVERSITY HEALTH, INC.",DEA,"550 N UNIVERSITY BLVD,  UH1425,  INDIANAPOLIS,  IN, 46202",46202,IN,39.77531,-86.17551
"GUARDIAN PHARMACY OF INDIANAPOLIS LTC, LLC",DEA,"6530 CORPORATE DRIVE,  INDIANAPOLIS,  IN, 46278",46278,IN,39.875214,-86.264854
PHARMANEEK INC,DEA,"7345 WOODLAND DR.,  SUITE A,  INDIANAPOLIS,  IN, 46278",46278,IN,39.88597,-86.26693
"BHC VALLE VISTA HOSPITAL, INC.",DEA,"898 EAST MAIN ST,  GREENWOOD,  IN, 46143",46143,IN,39.614223,-86.08656
ESKENAZI HEALTH WEST 38TH STREET,DEA,"5515 WEST 38TH STREET,  SUITE 1200,  INDIANAPOLIS,  IN, 46254",46254,IN,39.823845,-86.256744
WALGREEN CO.,DEA,"3545 W 86TH STREET,  INDIANAPOLIS,  IN, 46268",46268,IN,39.91168,-86.22101
WALGREEN CO.,DEA,"8905 E 10TH ST,  INDIANAPOLIS,  IN, 46219",46219,IN,39.782017,-86.01121
HERBST APOTHECARY INC,DEA,"201 N. DIXON RD.,  KOKOMO,  IN, 46901",46901,IN,40.48958,-86.165
WALGREEN CO,DEA,"2400 W SYCAMORE STREET,  KOKOMO,  IN, 46901",46901,IN,40.487743,-86.16503
"INDIANA UNIVERSITY HEALTH, INC.",DEA,"11700 NORTH MERIDIAN STREET,  B106,  CARMEL,  IN, 46032",46032,IN,39.95826,-86.157936
FRED'S NEIGHBORHOOD PHARMACY,DEA,"320 SOUTH MAIN STREET,  NEW CASTLE,  IN, 47362",47362,IN,39.929516,-85.37027
PECAR COMMUNITY HEALTH CENTER PHARMACY,DEA,"6940 N MICHIGAN ROAD,  INDIANAPOLIS,  IN, 46268",46268,IN,39.88154,-86.20823
ANDERSON BURRIS INC.,DEA,"1902 S. MEMORIAL DRIVE,  NEW CASTLE,  IN, 47362",47362,IN,39.91354,-85.3848
PULASKI MEMORIAL HOSPITAL,DEA,"616 E 13TH STREET,  P O BOX 279,  WINAMAC,  IN, 46996",46996,IN,41.05765,-86.60481
WALGREEN CO.,DEA,"6001 CENTRAL AVE,  PORTAGE,  IN, 46368",46368,IN,41.575813,-87.18292
NORTHSHORE HEALTH CENTER,DEA,"3564 SCOTTSDALE ST.,  PORTAGE,  IN, 46368",46368,IN,41.548958,-87.17181
DECATUR CTY MEMORIAL HOSPITAL,DEA,"720 NORTH LINCOLN ST,  GREENSBURG,  IN, 47240",47240,IN,39.343075,-85.47943
FRANCISCAN HEALTH MICHIGAN CITY,DEA,"301 W HOMER,  MICHIGAN CITY,  IN, 46360",46360,IN,41.706474,-86.89897
WALGREEN CO.,DEA,"2500 GRANT ST,  GARY,  IN, 46404",46404,IN,41.573143,-87.356186
VYTO'S PHARMACY,DEA,"6949 KENNEDY AVENUE,  UNIT C,  HAMMOND,  IN, 46323",46323,IN,41.587498,-87.46163
B S D INC,DEA,"716 MADISON AVENUE,  COVINGTON,  KY, 41011",41011,KY,39.083157,-84.51004
WALGREEN CO.,DEA,"214 BROAD ST,  ELIZABETHTON,  TN, 37643",37643,TN,36.35039,-82.22262
GENOA A QOL HEALTHCARE COMPANY LLC,DEA,"1501 MADISON ROAD,  3RD FL,  WALNUT HILLS,  OH, 45206",45206,OH,39.13011,-84.479744
"WILSON PHARMACY, INC.",DEA,"400 N STATE OF FRANKLIN RD,  JOHNSON CITY,  TN, 37604",37604,TN,36.308666,-82.386536
WILSON PHARMACY INC,DEA,"523 N. STATE OF FRANKLIN RD,  JOHNSON CITY,  TN, 37604",37604,TN,36.31494,-82.38867
PHARMACY NETWORK SERVICES,DEA,"527 N. STATE OF FRANKLIN RD,  SUITE 1,  JOHNSON CITY,  TN, 37604",37604,TN,36.31496,-82.38868
THE JEWISH HOSPITAL,DEA,"4777 E. GALBRAITH ROAD,  CINCINNATI,  OH, 45236",45236,OH,39.20691,-84.38169
MERCY HOSPITAL,DEA,"3000 MACK ROAD,  ATTENTION PHARMACY LOWER LEVEL,  FAIRFIELD,  OH, 45014",45014,OH,39.310986,-84.51871
MULLANEY'S LTC PHARMACY,DEA,"6096 MONTGOMERY RD SUITE B,  CINCINNATI,  OH, 45213",45213,OH,39.18211,-84.42746
WALGREEN CO.,DEA,"1650 E ANDREW JOHNSON HWY,  GREENEVILLE,  TN, 37745",37745,TN,36.176983,-82.79416
WALGREEN CO.,DEA,"4605 MONTGOMERY ROAD,  NORWOOD,  OH, 45212",45212,OH,39.160652,-84.45617
WILSON PHARMACY,DEA,"1657 EAST STONE DRIVE,  SUITE A,  KINGSPORT,  TN, 37660",37660,TN,36.547882,-82.51893
CLERMONT MERCY HOSPITAL,DEA,"3000 HOSPITAL DRIVE,  BATAVIA,  OH, 45103",45103,OH,39.080856,-84.147415
LIFELINE INSTITUTIONAL PHARMACY,DEA,"3699 SYMMES RD,  SUITE 1,  HAMILTON,  OH, 45015",45015,OH,39.34333,-84.49795
MERCY HOSPITAL-ANDERSON,DEA,"7500 STATE ROAD,  CINCINNATI,  OH, 45255",45255,OH,39.084507,-84.35096
WALGREEN CO.,DEA,"3670 RIVERDALE ROAD,  MEMPHIS,  TN, 38115",38115,TN,35.048016,-89.83009
WALGREEN CO.,DEA,"6310 POPLAR AVENUE,  MEMPHIS,  TN, 38119",38119,TN,35.10084,-89.853745
ATRIUM PHARMACY MEMPHIS,DEA,"2565 HORIZON LAKE BLVD.,  STE. 113,  MEMPHIS,  TN, 38133",38133,TN,35.195362,-89.797066
COOKE'S PHARMACY,DEA,"3400 KEITH STREET,  CLEVELAND,  TN, 37312",37312,TN,35.191154,-84.86395
COOKE'S PHARMACY #2,DEA,"2010 BROOMFIELD ROAD,  CLEVELAND,  TN, 37323",37323,TN,35.131054,-84.85836
WALGREEN CO.,DEA,"1863 UNION AVE,  MEMPHIS,  TN, 38104",38104,TN,35.13511,-89.999504
WALGREEN CO.,DEA,"5080 STAGE RD,  MEMPHIS,  TN, 38128",38128,TN,35.20697,-89.893936
WALGREEN CO.,DEA,"4154 ELVIS PRESLEY BLVD,  MEMPHIS,  TN, 38116",38116,TN,35.035275,-90.02515
WALGREEN CO.,DEA,"6697 STAGE ROAD,  BARTLETT,  TN, 38134",38134,TN,35.205067,-89.83996
WALGREEN CO.,DEA,"2320 BOUDINOT AVE.,  CINCINNATI,  OH, 45238",45238,OH,39.128372,-84.60541
MERCY HEALTH - WEST RETAIL PHARMACY,DEA,"3300 MERCY HEALTH BOULEVARD,  ATTN: PHARMACY DEPARTMENT,  CINCINNATI,  OH, 45211",45211,OH,39.179474,-84.60383
MERCY HEALTH - WEST RETAIL PHARMACY,DEA,"3300 MERCY HEALTH BOULEVARD,  CINCINNATI,  OH, 45211",45211,OH,39.179474,-84.60383
WALGREEN CO.,DEA,"8193 MALL ROAD,  FLORENCE,  KY, 41042",41042,KY,38.982113,-84.65001
WALGREEN CO.,DEA,"9775 COLERAIN AVENUE,  CINCINNATI,  OH, 45251",45251,OH,39.249336,-84.59707
WALGREEN CO.,DEA,"5478 HIGHWAY 153,  HIXSON,  TN, 37343",37343,TN,35.141567,-85.24864
WALGREEN CO.,DEA,"500 S WILLOW AVE,  COOKEVILLE,  TN, 38501",38501,TN,36.154556,-85.51426
WALGREEN CO.,DEA,"2289 GUNBARREL,  CHATTANOOGA,  TN, 37421",37421,TN,35.039818,-85.15025
RxDrugDropBox,RXDrugDrop,"200 James Robertson Parkway,  Nashville,  TN, 37203",37203,TN,36.16727,-86.77938
BLUEGRASS DRUG STORE,DEA,"150 WAR ADMIRAL,  STE 1,  DANVILLE,  KY, 40422",40422,KY,37.66083,-84.79469
RxDrugDropBox,RXDrugDrop,"200 South Main Streeet,  Edinburgh,  IN, 46124",46124,IN,39.353203,-85.96779
WALGREEN CO.,DEA,"5201 S. THIRD ST.,  LOUISVILLE,  KY, 40214",40214,KY,38.172203,-85.76787
RxDrugDropBox,RXDrugDrop,"200 Public Square,  Ashland City,  TN, 37015",37015,TN,36.274925,-87.06325
RxDrugDropBox,RXDrugDrop,"200 West Fort Street,  Manchester,  TN, 37355",37355,TN,35.48368,-86.08922
WALGREEN CO.,DEA,"8193 MALL ROAD,  FLORENCE,  KY, 41042",41042,KY,38.982113,-84.65001
RxDrugDropBox,RXDrugDrop,"200 Thomas Gatlin Drive,  Pulaski,  TN, 38478",38478,TN,35.217415,-87.05606
DECATUR CTY MEMORIAL HOSPITAL,DEA,"720 NORTH LINCOLN ST,  GREENSBURG,  IN, 47240",47240,IN,39.343075,-85.47943
GENOA A QOL HEALTHCARE COMPANY LLC,DEA,"1520 GERMANTOWN STREET,  DAYTON,  OH, 45417",45417,OH,39.746586,-84.218735
ST VINCENT JENNINGS HOSPITAL,DEA,"301 HENRY STREET,  NORTH VERNON,  IN, 47265",47265,IN,39.01135,-85.64125
GENOA A QOL HEALTHCARE COMPANY LLC,DEA,"43 E MAIN STREET,  STE 113,  AMELIA,  OH, 45102",45102,OH,39.025845,-84.21459
WALGREEN CO.,DEA,"700 S BREIEL BLVD,  MIDDLETOWN,  OH, 45044",45044,OH,39.503372,-84.355385
JABO'S PHARMACY,DEA,"602 EAST BROADWAY,  NEWPORT,  TN, 37821",37821,TN,35.963852,-83.17665
WALGREEN CO.,DEA,"2710 SALEM AVE.,  DAYTON,  OH, 45406",45406,OH,39.78745,-84.23514
EQUITAS HEALTH PHARMACY #2,DEA,"1222 S. PATTERSON BLVD.,  SUITE 110,  DAYTON,  OH, 45402",45402,OH,39.74028,-84.1918
PHARMBOY INVESTMENTS LLC,DEA,"1230 HIGH STREET,  PO BOX 455,  BRANDENBURG,  KY, 40108",40108,KY,37.992283,-86.18775
"ST. VINCENT SALEM HOSPITAL, INC.",DEA,"911 NORTH SHELBY STREET,  SALEM,  IN, 47167",47167,IN,38.61029,-86.107635
"WILLIAMS BROS. HEALTH CARE PHARMACY, INC",DEA,"104 E. BROADWAY ST.,  LOOGOOTEE,  IN, 47553",47553,IN,38.67533,-86.912834
RxDrugDropBox,RXDrugDrop,"186 Surina Way,  Greenwood,  IN, 46143",46143,IN,39.611176,-86.10378
RxDrugDropBox,RXDrugDrop,"1885 Ft. Campbell Blvd,  Clarksville,  TN, 37042",37042,TN,36.591743,-87.41618
RxDrugDropBox,RXDrugDrop,"200 James Robertson Parkway,  Nashville,  TN, 37203",37203,TN,36.16727,-86.77938
DAVIS BROTHERS PHARMACY,DEA,"615 N CHESTER ST,  NEW CUMBERLAND,  WV, 26047",26047,WV,40.494556,-80.60663
DAVIS BROTHERS PHARMACY - CHESTER,DEA,"559 CAROLINA AVE STE B,  CHESTER,  WV, 26034",26034,WV,40.614338,-80.560646
WALGREEN CO.,DEA,"934 SPRING ST,  JEFFERSONVILLE,  IN, 47130",47130,IN,38.27821,-85.74528
WALGREEN CO.,DEA,"2021 HIKES LANE,  LOUISIVILLE,  KY, 40218",40218,KY,38.195465,-85.66529
UNIVERSITY OF KENTUCKY - GOOD SAMARITAN RETAIL,DEA,"310 SOUTH LIMESTONE STREET,  LEXINGTON,  KY, 40508",40508,KY,38.043274,-84.50145
UNIVERSITY OF KENTUCKY,DEA,"830 SOUTH LIMESTONE STREET,  LEXINGTON,  KY, 40536",40536,KY,38.034576,-84.508446
GENOA A QOL HEALTHCARE COMPANY LLC,DEA,"625 CLEVELAND AVE NW,  SUITE 301,  CANTON,  OH, 44702",44702,OH,40.802628,-81.37519
WALGREEN CO.,DEA,"897 CHESTNUT RIDGE RD,  MORGANTOWN,  WV, 26505",26505,WV,39.658043,-79.95466
FINNEY'S INSTITUTIONAL,DEA,"5930 MAYFAIR RD. N.W.,  NORTH CANTON,  OH, 44720",44720,OH,40.909054,-81.42338
GENOA A QOL HEALTHCARE COMPANY LLC,DEA,"624 MARKET STREET N,  STE 140,  CANTON,  OH, 44702",44702,OH,40.80243,-81.37336
WALGREEN CO.,DEA,"12101 SHELBYVILLE ROAD,  MIDDLETOWN,  KY, 40243",40243,KY,38.248585,-85.53128
MOUNDSVILLE PHARMACY,DEA,"118 NORTH LAFAYETTE AVENUE,  MOUNDSVILLE,  WV, 26041",26041,WV,39.931747,-80.75214
BRAY PHARMACY INC.,DEA,"662 EAST MAIN ST.,  FRANKFORT,  KY, 40601",40601,KY,38.202984,-84.84794
CHEFFY DRUGS LLC,DEA,"148 EAST MAIN ST,  BARNESVILLE,  OH, 43713",43713,OH,39.988033,-81.17792
BARNESVILLE HOSPITAL ASSN INC,DEA,"639 W MAIN ST,  BARNESVILLE,  OH, 43713",43713,OH,39.991737,-81.187836
DUSINI DRUG INC,DEA,"315 EAST HIGH AVENUE,  NEW PHILADELPHIA,  OH, 44663",44663,OH,40.488796,-81.44058
BELLWOOD DRUGS,DEA,"135 SOUTH MAIN STREET,  WOODSFIELD,  OH, 43793",43793,OH,39.761852,-81.116325
"CAMERLIN ENTERPRISES, LLC",DEA,"615 WELLS STREET,  SISTERSVILLE,  WV, 26175",26175,WV,39.564564,-80.99506
