Business Name,Address 1,Address 2,"City, State Zip",Map URL
ADVENTIST HEALTH LODI MEMORIAL,2415 W VINE ST STE 104B,"LODI, CA 95242",http://maps.google.com/maps?q=ADVENTIST%20HEALTH%20LODI%20MEMORIAL%2C2415%20W%20VINE%20ST%20STE%20104B%2C+LODI%2C+CA+95242,
AMC COMMUNITY PHARMACY,1381 UNIVERSITY ST SUITE A,"HEALDSBURG, CA 95448",http://maps.google.com/maps?q=AMC%20COMMUNITY%20PHARMACY%2C1381%20UNIVERSITY%20ST%20SUITE%20A%2C+HEALDSBURG%2C+CA+95448,
ANDERSON BROS FLORIN SQUARE PHCY,2374 FLORIN RD,"SACRAMENTO, CA 95822",http://maps.google.com/maps?q=ANDERSON%20BROS%20FLORIN%20SQUARE%20PHCY%2C2374%20FLORIN%20RD%2C+SACRAMENTO%2C+CA+95822,
"AURORA BEHAVIORAL HEALTHCARE- SANTA ROSA, LLC",1287 FULTON RD,"SANTA ROSA, CA 95401",http://maps.google.com/maps?q=AURORA%20BEHAVIORAL%20HEALTHCARE%20SANTA%20ROSA%20LLC%2C1287%20FULTON%20RD%2C+SANTA%20ROSA%2C+CA+95401,
BARNES ARCATA FAMILY DRUG,1080 G STREET,"ARCATA, CA 95521",http://maps.google.com/maps?q=BARNES%20ARCATA%20FAMILY%20DRUG%2C1080%20G%20STREET%2C+ARCATA%2C+CA+95521,
CARMICHAEL VILLAGE PHARMACY,6633 COYLE AVE,STE 1,"CARMICHAEL, CA 95608",http://maps.google.com/maps?q=CARMICHAEL%20VILLAGE%20PHARMACY%2C6633%20COYLE%20AVE%2C+CARMICHAEL%2C+CA+95608
CLONEYS PHARMACY INC,1567 CITY CENTER ROAD #35,"MCKINLEYVILLE, CA 95519",http://maps.google.com/maps?q=CLONEYS%20PHARMACY%20INC%2C1567%20CITY%20CENTER%20ROAD%20#35%2C+MCKINLEYVILLE%2C+CA+95519,
CLONEYS PHARMACY INC,2515 HARRISON AVENUE,"EUREKA, CA 95501",http://maps.google.com/maps?q=CLONEYS%20PHARMACY%20INC%2C2515%20HARRISON%20AVENUE%2C+EUREKA%2C+CA+95501,
CLONEYS PHARMACY INC,525 5TH STREET,"EUREKA, CA 95501",http://maps.google.com/maps?q=CLONEYS%20PHARMACY%20INC%2C525%205TH%20STREET%2C+EUREKA%2C+CA+95501,
CLOVERDALE PHARMACY,790 SOUTH CLOVERDALE BOULEVARD,"CLOVERDALE, CA 95425",http://maps.google.com/maps?q=CLOVERDALE%20PHARMACY%2C790%20SOUTH%20CLOVERDALE%20BOULEVARD%2C+CLOVERDALE%2C+CA+95425,
CORNER DRUG COMPANY,602 MAIN ST,"WOODLAND, CA 95695",http://maps.google.com/maps?q=CORNER%20DRUG%20COMPANY%2C602%20MAIN%20ST%2C+WOODLAND%2C+CA+95695,
DAVIS COMPOUNDING SOLUTIONS,1205 DRAKE DRIVE,SUITE E,"DAVIS, CA 95616",http://maps.google.com/maps?q=DAVIS%20COMPOUNDING%20SOLUTIONS%2C1205%20DRAKE%20DRIVE%2C+DAVIS%2C+CA+95616
DEPT OF VETERANS AFFAIRS,"CARE SYSTEM, PHARMACY SERVICE","(119), 10535 HOSPITAL WAY","MATHER, CA 95655",http://maps.google.com/maps?q=DEPT%20OF%20VETERANS%20AFFAIRS%2CCARE%20SYSTEM%2C%20PHARMACY%20SERVICE%2C+MATHER%2C+CA+95655
DEPT OF VETERANS AFFAIRS,PHARMACY SERVICE (119),BLDG 778 103 BODIN CIRCLE,"TRAVIS AFB, CA 94535",http://maps.google.com/maps?q=DEPT%20OF%20VETERANS%20AFFAIRS%2CPHARMACY%20SERVICE%20(119)%2C+TRAVIS%20AFB%2C+CA+94535
"ELEVATION FAMILY PHARMACY, INC",1050 IRON POINT ROAD,"FOLSOM, CA 95630",http://maps.google.com/maps?q=ELEVATION%20FAMILY%20PHARMACY%20INC%2C1050%20IRON%20POINT%20ROAD%2C+FOLSOM%2C+CA+95630,
FAMILY DRUG,1805 OLD SONOMA RD,"NAPA, CA 94559",http://maps.google.com/maps?q=FAMILY%20DRUG%2C1805%20OLD%20SONOMA%20RD%2C+NAPA%2C+CA+94559,
FEATHER RIVER PHARMACY,5125 SKYWAY,"PARADISE, CA 95969",http://maps.google.com/maps?q=FEATHER%20RIVER%20PHARMACY%2C5125%20SKYWAY%2C+PARADISE%2C+CA+95969,
GATEWAY PHARMACY,1330 GATEWAY BLVD,SUIT B-2,"FAIRFIELD, CA 94533",http://maps.google.com/maps?q=GATEWAY%20PHARMACY%2C1330%20GATEWAY%20BLVD%2C+FAIRFIELD%2C+CA+94533
GREEN'S FORTUNA PHARMACY,1058 MAIN ST,"FORTUNA, CA 95540",http://maps.google.com/maps?q=GREENS%20FORTUNA%20PHARMACY%2C1058%20MAIN%20ST%2C+FORTUNA%2C+CA+95540,
HEALTH FIRST PHARMACY,9083 WINDSOR ROAD,"WINDSOR, CA 95492",http://maps.google.com/maps?q=HEALTH%20FIRST%20PHARMACY%2C9083%20WINDSOR%20ROAD%2C+WINDSOR%2C+CA+95492,
IONE PHARMACY,307 PRESTON AVE,P.O.BOX 1025,"IONE, CA 95640",http://maps.google.com/maps?q=IONE%20PHARMACY%2C307%20PRESTON%20AVE%2C+IONE%2C+CA+95640
JEFFERSON PHARMACY,1029 JEFFERSON BOULEVARD,SUITE A,"WEST SACRAMENTO, CA 95691",http://maps.google.com/maps?q=JEFFERSON%20PHARMACY%2C1029%20JEFFERSON%20BOULEVARD%2C+WEST%20SACRAMENTO%2C+CA+95691
JEROLD PHELPS COMMUNITY HOSP,733 CEDAR STREET,"GARBERVILLE, CA 95542",http://maps.google.com/maps?q=JEROLD%20PHELPS%20COMMUNITY%20HOSP%2C733%20CEDAR%20STREET%2C+GARBERVILLE%2C+CA+95542,
KAISER FONDATION HEALTH PLAN,KFHP POINT WEST PHARMACY #626,1650 RESPONSE ROAD,"SACRAMENTO, CA 95815",http://maps.google.com/maps?q=KAISER%20FONDATION%20HEALTH%20PLAN%2CKFHP%20POINT%20WEST%20PHARMACY%20#626%2C+SACRAMENTO%2C+CA+95815
KAISER FOUNDATION HEALTH PLAN,KFHP A&B PHARMACY #711,10725 INTERNATIONAL DRIVE,"RANCHO CORDOVA, CA 95670",http://maps.google.com/maps?q=KAISER%20FOUNDATION%20HEALTH%20PLAN%2CKFHP%20A&B%20PHARMACY%20#711%2C+RANCHO%20CORDOVA%2C+CA+95670
KAISER FOUNDATION HEALTH PLAN,KFHP MAIN PHARMACY #591,1001 RIVERSIDE AVENUE,"ROSEVILLE, CA 95678",http://maps.google.com/maps?q=KAISER%20FOUNDATION%20HEALTH%20PLAN%2CKFHP%20MAIN%20PHARMACY%20#591%2C+ROSEVILLE%2C+CA+95678
KAISER FOUNDATION HEALTH PLAN,MAIN PHARMACY #221,3285 CLAREMONT WAY,"NAPA, CA 94558",http://maps.google.com/maps?q=KAISER%20FOUNDATION%20HEALTH%20PLAN%2CMAIN%20PHARMACY%20#221%2C+NAPA%2C+CA+94558
KAISER FOUNDATION HEALTH PLAN,PLAN PHARMACY #361,97 SAN MARIN DRIVE,"NOVATO, CA 94945",http://maps.google.com/maps?q=KAISER%20FOUNDATION%20HEALTH%20PLAN%2CPLAN%20PHARMACY%20#361%2C+NOVATO%2C+CA+94945
KAISER FOUNDATION HLTH PLAN,KFHP PHARMACY #621,1955 COWELL BLVD,"DAVIS, CA 95618",http://maps.google.com/maps?q=KAISER%20FOUNDATION%20HLTH%20PLAN%2CKFHP%20PHARMACY%20#621%2C+DAVIS%2C+CA+95618
KAISER FOUNDATION HLTH PLN,KFHP MOB 1 PHARMACY,"1 QUALITY DR, MOB A 1ST FL","VACAVILLE, CA 95688",http://maps.google.com/maps?q=KAISER%20FOUNDATION%20HLTH%20PLN%2CKFHP%20MOB%201%20PHARMACY%2C+VACAVILLE%2C+CA+95688
KAISER PERMANENTE,KFHP SAC-FAIR OAKS PHARM,2345 FAIR OAKS BLVD,"SACRAMENTO, CA 95825",http://maps.google.com/maps?q=KAISER%20PERMANENTE%2CKFHP%20SAC-FAIR%20OAKS%20PHARM%2C+SACRAMENTO%2C+CA+95825
KAISER PERMANENTE PHARM #521,KFHP ROHNERT PARK MOB PHARMACY,5900 STATE FARM DRIVE,"ROHNERT PARK, CA 94928",http://maps.google.com/maps?q=KAISER%20PERMANENTE%20PHARM%2CKFHP%20ROHNERT%20PARK%20MOB%20PHARMACY%2C+ROHNERT%20PARK%2C+CA+94928
KAISER PERMANENTE PHARMACY #215,"975 SERENO DR, HOSP BLDG",24 HOUR PHARMACY,"VALLEJO, CA 94589",http://maps.google.com/maps?q=KAISER%20PERMANENTE%20PHARMACY%2C975%20SERENO%20DR%2C%20HOSP%20BLDG%2C+VALLEJO%2C+CA+94589
KAISER PERMANENTE PHARMACY #261,LINCOLN OUTPATIENT PHARMACY,1900 DRESDEN DRIVE,"LINCOLN, CA 95648",http://maps.google.com/maps?q=KAISER%20PERMANENTE%20PHARMACY%2CLINCOLN%20OUTPATIENT%20PHARMACY%2C+LINCOLN%2C+CA+95648
KAISER PERMANENTE PHARMACY #303,10305 PROMENADE PKWY FL 1,"ELK GROVE, CA 95757",http://maps.google.com/maps?q=KAISER%20PERMANENTE%20PHARMACY%2C10305%20PROMENADE%20PKWY%20FL%201%2C+ELK%20GROVE%2C+CA+95757,
KAISER PERMANENTE PHARMACY #609,6600 BRUCEVILLE RD FL 1 SOUTH TOWER,"SACRAMENTO, CA 95823",http://maps.google.com/maps?q=KAISER%20PERMANENTE%20PHARMACY%2C6600%20BRUCEVILLE%20RD%20FL%201%20SOUTH%20TOWER%2C+SACRAMENTO%2C+CA+95823,
KAISER PERMANENTE PHARMACY #610,"2025 MORSE AVE, FL 2","SACRAMENTO, CA 95825",http://maps.google.com/maps?q=KAISER%20PERMANENTE%20PHARMACY%2C2025%20MORSE%20AVE%2C%20FL%202%2C+SACRAMENTO%2C+CA+95825,
KAISER PERMANENTE PHARMACY #701,2240 MERCURY WAY,1ST FL MOB 6,"SANTA ROSA, CA 95407",http://maps.google.com/maps?q=KAISER%20PERMANENTE%20PHARMACY%2C2240%20MERCURY%20WAY%2C+SANTA%20ROSA%2C+CA+95407
KAISER PERMANENTE PHARMACY #971,501 J ST FL 1,"SACRAMENTO, CA 95814",http://maps.google.com/maps?q=KAISER%20PERMANENTE%20PHARMACY%2C501%20J%20ST%20FL%201%2C+SACRAMENTO%2C+CA+95814,
KAISER PERMANENTE PHMCY #281,2155 IRON POINT ROAD,"FOLSOM, CA 95630",http://maps.google.com/maps?q=KAISER%20PERMANENTE%20PHMCY%2C2155%20IRON%20POINT%20ROAD%2C+FOLSOM%2C+CA+95630,
KAISER PERMANENTE PHRMCY #266,"1600 EUREKA RD, MOB 2, FLR 1","ROSEVILLE, CA 95661",http://maps.google.com/maps?q=KAISER%20PERMANENTE%20PHRMCY%2C1600%20EUREKA%20RD%2C%20MOB%202%2C%20FLR%201%2C+ROSEVILLE%2C+CA+95661,
KAISER PERMANENTE PHRMCY #301,9201 BIG HORN BLVD,1ST FLOOR,"ELK GROVE, CA 95758",http://maps.google.com/maps?q=KAISER%20PERMANENTE%20PHRMCY%2C9201%20BIG%20HORN%20BLVD%2C+ELK%20GROVE%2C+CA+95758
KAISER PERMANENTE PHRMCY #608,7300 WYNDHAM DR,"SACRAMENTO, CA 95823",http://maps.google.com/maps?q=KAISER%20PERMANENTE%20PHRMCY%2C7300%20WYNDHAM%20DR%2C+SACRAMENTO%2C+CA+95823,
KAISER PERMANENTE PHRMCY #673,"1 QUALITY DR, SPECIALTY CARE BLDG 1ST FLR","VACAVILLE, CA 95688",http://maps.google.com/maps?q=KAISER%20PERMANENTE%20PHRMCY%2C1%20QUALITY%20DR%2C%20SPECIALTY%20CARE%20BLDG%201ST%20FLR%2C+VACAVILLE%2C+CA+95688,
KAISER PERMANENTE PHRMCY 587,3925 OLD REDWOOD HIGHWAY,"SANTA ROSA, CA 95403",http://maps.google.com/maps?q=KAISER%20PERMANENTE%20PHRMCY%2C3925%20OLD%20REDWOOD%20HIGHWAY%2C+SANTA%20ROSA%2C+CA+95403,
"KJL CONSULTANTS, INC",829 S MAIN ST,"YREKA, CA 96097",http://maps.google.com/maps?q=KJL%20CONSULTANTS%20INC%2C829%20S%20MAIN%20ST%2C+YREKA%2C+CA+96097,
KLAMATH TRIBAL HEALTH PHMCY,330 CHILOQUIN BLVD,"CHILOQUIN, OR 97624",http://maps.google.com/maps?q=KLAMATH%20TRIBAL%20HEALTH%20PHMCY%2C330%20CHILOQUIN%20BLVD%2C+CHILOQUIN%2C+OR+97624,
KMART PHARMACY,111 W. MCNIGHT WAY,"GRASS VALLEY, CA 95949",http://maps.google.com/maps?q=KMART%20PHARMACY%2C111%20W.%20MCNIGHT%20WAY%2C+GRASS%20VALLEY%2C+CA+95949,
LAKE DISTRICT HOSPITAL,700 SOUTH J STREET,"LAKEVIEW, OR 97630",http://maps.google.com/maps?q=LAKE%20DISTRICT%20HOSPITAL%2C700%20SOUTH%20J%20STREET%2C+LAKEVIEW%2C+OR+97630,
LARK REXALL DRUGS INC,16251 MAIN STREET,"GUERNEVILLE, CA 95446",http://maps.google.com/maps?q=LARK%20REXALL%20DRUGS%20INC%2C16251%20MAIN%20STREET%2C+GUERNEVILLE%2C+CA+95446,
LASSEN DRUG,271 MAIN STREET,P.O.BOX 827,"CHESTER, CA 96020",http://maps.google.com/maps?q=LASSEN%20DRUG%2C271%20MAIN%20STREET%2C+CHESTER%2C+CA+96020
LAST FRONTIER PHARMACY,120 S. MAIN STREET,SUITE B,"ALTURAS, CA 96101",http://maps.google.com/maps?q=LAST%20FRONTIER%20PHARMACY%2C120%20S.%20MAIN%20STREET%2C+ALTURAS%2C+CA+96101
LIMAS PROFESSIONAL PHARMACY 1,2097 HARRISON AVENUE,"EUREKA, CA 95501",http://maps.google.com/maps?q=LIMAS%20PROFESSIONAL%20PHARMACY%2C2097%20HARRISON%20AVENUE%2C+EUREKA%2C+CA+95501,
"LONGS DRUG STORES CALIFORNIA, L.L.C.",1695 ROBB DR,"RENO, NV 89523",http://maps.google.com/maps?q=LONGS%20DRUG%20STORES%20CALIFORNIA%20LLC%2C1695%20ROBB%20DR%2C+RENO%2C+NV+89523,
"LONGS DRUG STORES CALIFORNIA, L.L.C.",3240 US HIGHWAY 50 E,"CARSON CITY, NV 89701",http://maps.google.com/maps?q=LONGS%20DRUG%20STORES%20CALIFORNIA%20LLC%2C3240%20US%20HIGHWAY%2050%20E%2C+CARSON%20CITY%2C+NV+89701,
"LONGS DRUG STORES CALIFORNIA, L.L.C.",5420 DEWEY DR,"FAIR OAKS, CA 95628",http://maps.google.com/maps?q=LONGS%20DRUG%20STORES%20CALIFORNIA%20LLC%2C5420%20DEWEY%20DR%2C+FAIR%20OAKS%2C+CA+95628,
LUCKY PHARMACY #783,777 E MONTE VISTA AVE,"VACAVILLE, CA 95688",http://maps.google.com/maps?q=LUCKY%20PHARMACY%2C777%20E%20MONTE%20VISTA%20AVE%2C+VACAVILLE%2C+CA+95688,
"NEVADA CVS PHARMACY, L.L.C.",1081 STEAMBOAT PKWY.,"RENO, NV 89521",http://maps.google.com/maps?q=NEVADA%20CVS%20PHARMACY%20LLC%2C1081%20STEAMBOAT%20PKWY.%2C+RENO%2C+NV+89521,
"NEVADA CVS PHARMACY, L.L.C.",5151 SPARKS BLVD.,"SPARKS, NV 89436",http://maps.google.com/maps?q=NEVADA%20CVS%20PHARMACY%20LLC%2C5151%20SPARKS%20BLVD.%2C+SPARKS%2C+NV+89436,
"NEVADA CVS PHARMACY, L.L.C.",680 N. MCCARRAN BLVD.,"SPARKS, NV 89431",http://maps.google.com/maps?q=NEVADA%20CVS%20PHARMACY%20LLC%2C680%20N.%20MCCARRAN%20BLVD.%2C+SPARKS%2C+NV+89431,
ONE COMMUNITY HEALTH PHARMACY,1500 21ST ST BLDG B STE 1-036,"SACRAMENTO, CA 95811",http://maps.google.com/maps?q=ONE%20COMMUNITY%20HEALTH%20PHARMACY%2C1500%2021ST%20ST%20BLDG%20B%20STE%201-036%2C+SACRAMENTO%2C+CA+95811,
ORCHARD HOSPITAL,POST OFFICE BOX 97,240 SPRUCE ST,"GRIDLEY, CA 95948",http://maps.google.com/maps?q=ORCHARD%20HOSPITAL%2CPOST%20OFFICE%20BOX%2097%2C+GRIDLEY%2C+CA+95948
OWENS PHARMACY  #3,2975 EAST ST,"ANDERSON, CA 96007",http://maps.google.com/maps?q=OWENS%20PHARMACY%2C2975%20EAST%20ST%2C+ANDERSON%2C+CA+96007,
OWENS PHARMACY #1,2025 COURT STREET,SUITE A,"REDDING, CA 96001",http://maps.google.com/maps?q=OWENS%20PHARMACY%2C2025%20COURT%20STREET%2C+REDDING%2C+CA+96001
OWENS PHARMACY #17,317 LAKE BLVD STE B,"REDDING, CA 96003",http://maps.google.com/maps?q=OWENS%20PHARMACY%2C317%20LAKE%20BLVD%20STE%20B%2C+REDDING%2C+CA+96003,
OWENS PHARMACY #18,"50 NUGGET LANE, STE C",PO BOX 1880,"WEAVERVILLE, CA 96093",http://maps.google.com/maps?q=OWENS%20PHARMACY%2C50%20NUGGET%20LANE%2C%20STE%20C%2C+WEAVERVILLE%2C+CA+96093
OWENS PHARMACY #2,2880 CHURN CREEK ROAD STE A,"REDDING, CA 96002",http://maps.google.com/maps?q=OWENS%20PHARMACY%2C2880%20CHURN%20CREEK%20ROAD%20STE%20A%2C+REDDING%2C+CA+96002,
PALCO PHARMACY,SUITE D,PO BOX 157,"SCOTIA, CA 95565",http://maps.google.com/maps?q=PALCO%20PHARMACY%2CSUITE%20D%2C+SCOTIA%2C+CA+95565
PUCCI'S PHARMACY,2821 J STREET,"SACRAMENTO, CA 95816",http://maps.google.com/maps?q=PUCCIS%20PHARMACY%2C2821%20J%20STREET%2C+SACRAMENTO%2C+CA+95816,
QUINCY PHARMACY,411 MAIN ST.,"QUINCY, CA 95971",http://maps.google.com/maps?q=QUINCY%20PHARMACY%2C411%20MAIN%20ST.%2C+QUINCY%2C+CA+95971,
REDWOOD MEMORIAL HOSPITAL,3300 RENNER DRIVE,"FORTUNA, CA 95540",http://maps.google.com/maps?q=REDWOOD%20MEMORIAL%20HOSPITAL%2C3300%20RENNER%20DRIVE%2C+FORTUNA%2C+CA+95540,
"RENO BEHAVIORAL HEALTHCARE HOSPITAL, LLC",6940 SIERRA CENTER PARKWAY,"RENO, NV 89511",http://maps.google.com/maps?q=RENO%20BEHAVIORAL%20HEALTHCARE%20HOSPITAL%20LLC%2C6940%20SIERRA%20CENTER%20PARKWAY%2C+RENO%2C+NV+89511,
RENO-SPARKS TRIBAL HLTH CTR,1715 KUENZLI ST,PHARMACY DEPARTMENT,"RENO, NV 89502",http://maps.google.com/maps?q=RENOSPARKS%20TRIBAL%20HLTH%20CTR%2C1715%20KUENZLI%20ST%2C+RENO%2C+NV+89502
RIDEOUT MEMORIAL HOSPITAL PHARMACY,726 4TH STREET,"MARYSVILLE, CA 95901",http://maps.google.com/maps?q=RIDEOUT%20MEMORIAL%20HOSPITAL%20PHARMACY%2C726%204TH%20STREET%2C+MARYSVILLE%2C+CA+95901,
RINGS PHARMACY,362 MAIN STREET,PO BOX 577,"FERNDALE, CA 95536",http://maps.google.com/maps?q=RINGS%20PHARMACY%2C362%20MAIN%20STREET%2C+FERNDALE%2C+CA+95536
ROBINSON'S PHARMACY,359 MAIN STREET,"PLACERVILLE, CA 95667",http://maps.google.com/maps?q=ROBINSONS%20PHARMACY%2C359%20MAIN%20STREET%2C+PLACERVILLE%2C+CA+95667,
ROGUE COMMUNITY HEALTH PHARMACY,19 MYRTLE ST,"MEDFORD, OR 97504",http://maps.google.com/maps?q=ROGUE%20COMMUNITY%20HEALTH%20PHARMACY%2C19%20MYRTLE%20ST%2C+MEDFORD%2C+OR+97504,
ROGUE COMMUNITY HEALTH PHARMACY 2,8385 DIVISION ROAD,"WHITE CITY, OR 97503",http://maps.google.com/maps?q=ROGUE%20COMMUNITY%20HEALTH%20PHARMACY%2C8385%20DIVISION%20ROAD%2C+WHITE%20CITY%2C+OR+97503,
"SACRAMENTO STATE, STUDENT HEALTH SERVICES PHARMACY",THE WELL 6000 J STREET 1ST FL,"SACRAMENTO, CA 95819",http://maps.google.com/maps?q=SACRAMENTO%20STATE%20STUDENT%20HEALTH%20SERVICES%20PHARMACY%2CTHE%20WELL%206000%20J%20STREET%201ST%20FL%2C+SACRAMENTO%2C+CA+95819,
SHINGLE SPRINGS HEALTH AND WELLNESS CENTER,5168 HONPIE RD,"PLACERVILLE, CA 95667",http://maps.google.com/maps?q=SHINGLE%20SPRINGS%20HEALTH%20AND%20WELLNESS%20CENTER%2C5168%20HONPIE%20RD%2C+PLACERVILLE%2C+CA+95667,
STUDENT HLTH CENTER PHARMACY,SONOMA STATE UNIVERSITY,1801 EAST COTATI AVENUE,"ROHNERT PARK, CA 94928",http://maps.google.com/maps?q=STUDENT%20HLTH%20CENTER%20PHARMACY%2CSONOMA%20STATE%20UNIVERSITY%2C+ROHNERT%20PARK%2C+CA+94928
THE MEDICINE SHOPPE PHARMACY,812 5TH ST.,"MARYSVILLE, CA 95901",http://maps.google.com/maps?q=THE%20MEDICINE%20SHOPPE%20PHARMACY%2C812%205TH%20ST.%2C+MARYSVILLE%2C+CA+95901,
TWAIN HARTE PHARMACY,18711 TIFFENI DR,#45 & #47,"TWAIN HARTE, CA 95383",http://maps.google.com/maps?q=TWAIN%20HARTE%20PHARMACY%2C18711%20TIFFENI%20DR%2C+TWAIN%20HARTE%2C+CA+95383
UNITED INDIAN HEALTH SERVICES,1600 WEEOT WAY,"ARCATA, CA 95521",http://maps.google.com/maps?q=UNITED%20INDIAN%20HEALTH%20SERVICES%2C1600%20WEEOT%20WAY%2C+ARCATA%2C+CA+95521,
USAF 9MDG/SGSM FM4686,15301 WARREN SHINGLE RD,"BEALE AFB, CA 95903",http://maps.google.com/maps?q=USAF%20MDGSGSM%20FM%2C15301%20WARREN%20SHINGLE%20RD%2C+BEALE%20AFB%2C+CA+95903,
USAF- DAVID GRANT MEDICAL CENTER,BLDG 777 1ST FLOOR WEST WING,101 BODIN CIRCLE,"TRAVIS AFB, CA 94535",http://maps.google.com/maps?q=USAF%20DAVID%20GRANT%20MEDICAL%20CENTER%2CBLDG%20777%201ST%20FLOOR%20WEST%20WING%2C+TRAVIS%20AFB%2C+CA+94535
USAF-BASE EXCHANGE PHARMACY,461 SKYMASTER CIRCLE,"BLDG 650, ROOM 149","TRAVIS AFB, CA 94535",http://maps.google.com/maps?q=USAFBASE%20EXCHANGE%20PHARMACY%2C461%20SKYMASTER%20CIRCLE%2C+TRAVIS%20AFB%2C+CA+94535
VASCONI DRUGS,1381 MAIN ST,"SAINT HELENA, CA 94574",http://maps.google.com/maps?q=VASCONI%20DRUGS%2C1381%20MAIN%20ST%2C+SAINT%20HELENA%2C+CA+94574,
VILLAGE DRUG CO,225 MAIN STREET,"GREENVILLE, CA 95947",http://maps.google.com/maps?q=VILLAGE%20DRUG%20CO%2C225%20MAIN%20STREET%2C+GREENVILLE%2C+CA+95947,
WALGREEN CO,787 L ST,"CRESCENT CITY, CA 95531",http://maps.google.com/maps?q=WALGREEN%20CO%2C787%20L%20ST%2C+CRESCENT%20CITY%2C+CA+95531,
WALGREEN CO.,1050 REDWOOD STREET,"VALLEJO, CA 94590",http://maps.google.com/maps?q=WALGREEN%20CO%2C1050%20REDWOOD%20STREET%2C+VALLEJO%2C+CA+94590,
WALGREEN CO.,111 UNION AVE,"GRANTS PASS, OR 97527",http://maps.google.com/maps?q=WALGREEN%20CO%2C111%20UNION%20AVE%2C+GRANTS%20PASS%2C+OR+97527,
WALGREEN CO.,12120 NEW AIRPORT RD,"AUBURN, CA 95603",http://maps.google.com/maps?q=WALGREEN%20CO%2C12120%20NEW%20AIRPORT%20RD%2C+AUBURN%2C+CA+95603,
WALGREEN CO.,1351 W CAPITOL AVE,"WEST SACRAMENTO, CA 95691",http://maps.google.com/maps?q=WALGREEN%20CO%2C1351%20W%20CAPITOL%20AVE%2C+WEST%20SACRAMENTO%2C+CA+95691,
WALGREEN CO.,1424 BROADWAY STREET,"EUREKA, CA 95501",http://maps.google.com/maps?q=WALGREEN%20CO%2C1424%20BROADWAY%20STREET%2C+EUREKA%2C+CA+95501,
WALGREEN CO.,2201 ARDEN WAY,"SACRAMENTO, CA 95825",http://maps.google.com/maps?q=WALGREEN%20CO%2C2201%20ARDEN%20WAY%2C+SACRAMENTO%2C+CA+95825,
WALGREEN CO.,4610 SONOMA HWY,"SANTA ROSA, CA 95409",http://maps.google.com/maps?q=WALGREEN%20CO%2C4610%20SONOMA%20HWY%2C+SANTA%20ROSA%2C+CA+95409,
WALGREEN CO.,6144 DEWEY DRIVE,"CITRUS HEIGHTS, CA 95621",http://maps.google.com/maps?q=WALGREEN%20CO%2C6144%20DEWEY%20DRIVE%2C+CITRUS%20HEIGHTS%2C+CA+95621,
WALGREEN CO.,7299 LAGUNA BLVD,"ELK GROVE, CA 95758",http://maps.google.com/maps?q=WALGREEN%20CO%2C7299%20LAGUNA%20BLVD%2C+ELK%20GROVE%2C+CA+95758,
WALGREEN CO.,75 NORTH HAM LANE,"LODI, CA 95242",http://maps.google.com/maps?q=WALGREEN%20CO%2C75%20NORTH%20HAM%20LANE%2C+LODI%2C+CA+95242,
WALGREEN CO.,750 N VIRGINIA ST,"RENO, NV 89501",http://maps.google.com/maps?q=WALGREEN%20CO%2C750%20N%20VIRGINIA%20ST%2C+RENO%2C+NV+89501,
WALGREEN CO.,855 COLUSA AVE,"YUBA CITY, CA 95991",http://maps.google.com/maps?q=WALGREEN%20CO%2C855%20COLUSA%20AVE%2C+YUBA%20CITY%2C+CA+95991,
WALGREEN CO.,860 EAST AVENUE,"CHICO, CA 95926",http://maps.google.com/maps?q=WALGREEN%20CO%2C860%20EAST%20AVENUE%2C+CHICO%2C+CA+95926,
WASHOE BARTON MEDICAL CLINIC,1107 US HIGHWAY 395 N,"GARDNERVILLE, NV 89410",http://maps.google.com/maps?q=WASHOE%20BARTON%20MEDICAL%20CLINIC%2C1107%20US%20HIGHWAY%20395%20N%2C+GARDNERVILLE%2C+NV+89410,
WELL-CARE PHARMACY,"3645 NORTHGATE BLVD, STE F","SACRAMENTO, CA 95834",http://maps.google.com/maps?q=WELLCARE%20PHARMACY%2C3645%20NORTHGATE%20BLVD%2C%20STE%20F%2C+SACRAMENTO%2C+CA+95834,
WILLOW CREEK PHARMACY,39050 HIGHWAY 299,"WILLOW CREEK, CA 95573",http://maps.google.com/maps?q=WILLOW%20CREEK%20PHARMACY%2C39050%20HIGHWAY%20299%2C+WILLOW%20CREEK%2C+CA+95573,
http://maps.google.com/maps?q=KJL%20CONSULTANTS%20INC%2C829%20S%20MAIN%20ST%2C+YREKA%2C+CA+96097,,,,
http://maps.google.com/maps?q=OWENS%20PHARMACY%2C2025%20COURT%20STREET%2C+REDDING%2C+CA+96001,,,,
http://maps.google.com/maps?q=OWENS%20PHARMACY%2C2880%20CHURN%20CREEK%20ROAD%20STE%20A%2C+REDDING%2C+CA+96002,,,,
http://maps.google.com/maps?q=OWENS%20PHARMACY%2C2975%20EAST%20ST%2C+ANDERSON%2C+CA+96007,,,,
http://maps.google.com/maps?q=OWENS%20PHARMACY%2C317%20LAKE%20BLVD%20STE%20B%2C+REDDING%2C+CA+96003,,,,
http://maps.google.com/maps?q=OWENS%20PHARMACY%2C50%20NUGGET%20LANE%2C%20STE%20C%2C+WEAVERVILLE%2C+CA+96093,,,,
http://maps.google.com/maps?q=WILLOW%20CREEK%20PHARMACY%2C39050%20HIGHWAY%20299%2C+WILLOW%20CREEK%2C+CA+95573,,,,
