Business Name,Address 1,Address 2,"City, State Zip",Map URL
AIDS HEALTHCARE FOUNDATION DBA AHF PHARMACY,4890 BLUEBONNET BLVD.,"BATON ROUGE, LA 70809",http://maps.google.com/maps?q=AIDS%20HEALTHCARE%20FOUNDATION%20DBA%20AHF%20PHARMACY%2C4890%20BLUEBONNET%20BLVD.%2C+BATON%20ROUGE%2C+LA+70809,
"ALABAMA CVS PHARMACY, L.L.C.",14695 HWY 43,"RUSSELLVILLE, AL 35653",http://maps.google.com/maps?q=ALABAMA%20CVS%20PHARMACY%20LLC%2C14695%20HWY%2043%2C+RUSSELLVILLE%2C+AL+35653,
ANDERSON DRUGS,5796 US HWY 11,PO BOX 407,"PURVIS, MS 39475",http://maps.google.com/maps?q=ANDERSON%20DRUGS%2C5796%20US%20HWY%2011%2C+PURVIS%2C+MS+39475
"APOTHECARE,LLC",82 MAIN ST W,PO BOX 919,"MEADVILLE, MS 39653",http://maps.google.com/maps?q=APOTHECARELLC%2C82%20MAIN%20ST%20W%2C+MEADVILLE%2C+MS+39653
"BAHAM PHARMACY AND WELLNESS, LLC",3916 HIGHWAY 22,"MANDEVILLE, LA 70471",http://maps.google.com/maps?q=BAHAM%20PHARMACY%20AND%20WELLNESS%20LLC%2C3916%20HIGHWAY%2022%2C+MANDEVILLE%2C+LA+70471,
BEEMON DRUGS INC,1220 EAST NORTHSIDE DRIVE,POST OFFICE BOX 14166,"JACKSON, MS 39236",http://maps.google.com/maps?q=BEEMON%20DRUGS%20INC%2C1220%20EAST%20NORTHSIDE%20DRIVE%2C+JACKSON%2C+MS+39236
BENZER LA1 LLC,2525 CANAL ST,"NEW ORLEANS, LA 70119",http://maps.google.com/maps?q=BENZER%20LA%20LLC%2C2525%20CANAL%20ST%2C+NEW%20ORLEANS%2C+LA+70119,
BLOUNTSTOWN DRUG INC,20370 CENTRAL AVE W,"BLOUNTSTOWN, FL 32424",http://maps.google.com/maps?q=BLOUNTSTOWN%20DRUG%20INC%2C20370%20CENTRAL%20AVE%20W%2C+BLOUNTSTOWN%2C+FL+32424,
CALEB'S HOMETOWN PHARMACY,801 MAIN STREET,"COLLINS, MS 39428",http://maps.google.com/maps?q=CALEBS%20HOMETOWN%20PHARMACY%2C801%20MAIN%20STREET%2C+COLLINS%2C+MS+39428,
CJ SANDLIN LLC,797 MILITARY STREET SOUTH,"HAMILTON, AL 35570",http://maps.google.com/maps?q=CJ%20SANDLIN%20LLC%2C797%20MILITARY%20STREET%20SOUTH%2C+HAMILTON%2C+AL+35570,
"CROSSROADS HEALTHCARE, LLC",867 LEE ROAD 248,"SMITHS STATION, AL 36877",http://maps.google.com/maps?q=CROSSROADS%20HEALTHCARE%20LLC%2C867%20LEE%20ROAD%20248%2C+SMITHS%20STATION%2C+AL+36877,
DEBBIE'S DRUGS,1716 TEMPLE AVE N,"FAYETTE, AL 35555",http://maps.google.com/maps?q=DEBBIES%20DRUGS%2C1716%20TEMPLE%20AVE%20N%2C+FAYETTE%2C+AL+35555,
ELDER-CARE PHARMACY,SUITE A,PO BOX 997,"HAWKINSVILLE, GA 31036",http://maps.google.com/maps?q=ELDERCARE%20PHARMACY%2CSUITE%20A%2C+HAWKINSVILLE%2C+GA+31036
GENOA HEALTHCARE LLC,134 PREVATT ROAD,"DOTHAN, AL 36301",http://maps.google.com/maps?q=GENOA%20HEALTHCARE%20LLC%2C134%20PREVATT%20ROAD%2C+DOTHAN%2C+AL+36301,
"GEORGIA CVS PHARMACY, L.L.C.",3617 HILTON AVE.,"COLUMBUS, GA 31904",http://maps.google.com/maps?q=GEORGIA%20CVS%20PHARMACY%20LLC%2C3617%20HILTON%20AVE.%2C+COLUMBUS%2C+GA+31904,
"HOLIDAY CVS, L.L.C.",5466 THOMASVILLE RD N,"TALLAHASSEE, FL 32312",http://maps.google.com/maps?q=HOLIDAY%20CVS%20LLC%2C5466%20THOMASVILLE%20RD%20N%2C+TALLAHASSEE%2C+FL+32312,
"LOUISIANA CVS PHARMACY, L.L.C.",1013 EAST LANDRY STREET,"OPELOUSAS, LA 70570",http://maps.google.com/maps?q=LOUISIANA%20CVS%20PHARMACY%20LLC%2C1013%20EAST%20LANDRY%20STREET%2C+OPELOUSAS%2C+LA+70570,
"LOUISIANA CVS PHARMACY, L.L.C.",120 TUNICA DR. EAST,"MARKSVILLE, LA 71351",http://maps.google.com/maps?q=LOUISIANA%20CVS%20PHARMACY%20LLC%2C120%20TUNICA%20DR.%20EAST%2C+MARKSVILLE%2C+LA+71351,
"LOUISIANA CVS PHARMACY, L.L.C.",1305 GAUSE BLVD.,"SLIDELL, LA 70458",http://maps.google.com/maps?q=LOUISIANA%20CVS%20PHARMACY%20LLC%2C1305%20GAUSE%20BLVD.%2C+SLIDELL%2C+LA+70458,
"LOUISIANA CVS PHARMACY, L.L.C.",1850 N. HIGHWAY 190,"COVINGTON, LA 70433",http://maps.google.com/maps?q=LOUISIANA%20CVS%20PHARMACY%20LLC%2C1850%20N.%20HIGHWAY%20190%2C+COVINGTON%2C+LA+70433,
"LOUISIANA CVS PHARMACY, L.L.C.",285 WEST PINE,"PONCHATOULA, LA 70454",http://maps.google.com/maps?q=LOUISIANA%20CVS%20PHARMACY%20LLC%2C285%20WEST%20PINE%2C+PONCHATOULA%2C+LA+70454,
"LOUISIANA CVS PHARMACY, L.L.C.",29881 WALKER RD. SOUTH/ PO BOX 1448,"WALKER, LA 70785",http://maps.google.com/maps?q=LOUISIANA%20CVS%20PHARMACY%20LLC%2C29881%20WALKER%20RD.%20SOUTH/%20PO%20BOX%201448%2C+WALKER%2C+LA+70785,
"LOUISIANA CVS PHARMACY, L.L.C.",4901 PRYTANIA ST,"NEW ORLEANS, LA 70115",http://maps.google.com/maps?q=LOUISIANA%20CVS%20PHARMACY%20LLC%2C4901%20PRYTANIA%20ST%2C+NEW%20ORLEANS%2C+LA+70115,
"LOUISIANA CVS PHARMACY, L.L.C.",4950 W ESPLANADE AVE,"METAIRIE, LA 70006",http://maps.google.com/maps?q=LOUISIANA%20CVS%20PHARMACY%20LLC%2C4950%20W%20ESPLANADE%20AVE%2C+METAIRIE%2C+LA+70006,
MIDDLE FLINT BEHAVIORAL HEALTHCARE PHARMACY,415 NORTH JACKSON STREET,"AMERICUS, GA 31709",http://maps.google.com/maps?q=MIDDLE%20FLINT%20BEHAVIORAL%20HEALTHCARE%20PHARMACY%2C415%20NORTH%20JACKSON%20STREET%2C+AMERICUS%2C+GA+31709,
"MISSISSIPPI CVS PHARMACY, L.L.C.",112 STRIBLING LN,"BRANDON, MS 39042",http://maps.google.com/maps?q=MISSISSIPPI%20CVS%20PHARMACY%20LLC%2C112%20STRIBLING%20LN%2C+BRANDON%2C+MS+39042,
"MISSISSIPPI CVS PHARMACY, L.L.C.",1209 SUNSET DR.,"GRENADA, MS 38901",http://maps.google.com/maps?q=MISSISSIPPI%20CVS%20PHARMACY%20LLC%2C1209%20SUNSET%20DR.%2C+GRENADA%2C+MS+38901,
"MISSISSIPPI CVS PHARMACY, L.L.C.","135 HIGHWAY15, NORTH","PONTOTOC, MS 38863",http://maps.google.com/maps?q=MISSISSIPPI%20CVS%20PHARMACY%20LLC%2C135%20HIGHWAY15%2C%20NORTH%2C+PONTOTOC%2C+MS+38863,
"MISSISSIPPI CVS PHARMACY, L.L.C.",2190 BIENVILLE BLVD,"OCEAN SPRINGS, MS 39564",http://maps.google.com/maps?q=MISSISSIPPI%20CVS%20PHARMACY%20LLC%2C2190%20BIENVILLE%20BLVD%2C+OCEAN%20SPRINGS%2C+MS+39564,
"MISSISSIPPI CVS PHARMACY, L.L.C.",2401 NORTH HILLS STREET,"MERIDIAN, MS 39305",http://maps.google.com/maps?q=MISSISSIPPI%20CVS%20PHARMACY%20LLC%2C2401%20NORTH%20HILLS%20STREET%2C+MERIDIAN%2C+MS+39305,
"MISSISSIPPI CVS PHARMACY, L.L.C.",401 HWY 12 EAST,"STARKVILLE, MS 39759",http://maps.google.com/maps?q=MISSISSIPPI%20CVS%20PHARMACY%20LLC%2C401%20HWY%2012%20EAST%2C+STARKVILLE%2C+MS+39759,
"MISSISSIPPI CVS PHARMACY, L.L.C.",4422 KALANI DR.,"DIAMONDHEAD, MS 39525",http://maps.google.com/maps?q=MISSISSIPPI%20CVS%20PHARMACY%20LLC%2C4422%20KALANI%20DR.%2C+DIAMONDHEAD%2C+MS+39525,
"MISSISSIPPI CVS PHARMACY, L.L.C.",501 NORTH 16TH AVE.,"LAUREL, MS 39440",http://maps.google.com/maps?q=MISSISSIPPI%20CVS%20PHARMACY%20LLC%2C501%20NORTH%2016TH%20AVE.%2C+LAUREL%2C+MS+39440,
MS STATE VETERANS HOME,120 VETERANS BLVD,"OXFORD, MS 38655",http://maps.google.com/maps?q=MS%20STATE%20VETERANS%20HOME%2C120%20VETERANS%20BLVD%2C+OXFORD%2C+MS+38655,
OCHSNER PHARMACY AND WELLNESS - KENNER,200 WEST ESPLANADE AVE. SUITE 106,"KENNER, LA 70065",http://maps.google.com/maps?q=OCHSNER%20PHARMACY%20AND%20WELLNESS%20%20KENNER%2C200%20WEST%20ESPLANADE%20AVE.%20SUITE%20106%2C+KENNER%2C+LA+70065,
OCHSNER PHARMACY AND WELLNESS LLC,1514 JEFFERSON HWY,"NEW ORLEANS, LA 70121",http://maps.google.com/maps?q=OCHSNER%20PHARMACY%20AND%20WELLNESS%20LLC%2C1514%20JEFFERSON%20HWY%2C+NEW%20ORLEANS%2C+LA+70121,
PARKER'S PHARMACY,9600 FLORIDA BLVD,SUITE 5,"BATON ROUGE, LA 70815",http://maps.google.com/maps?q=PARKERS%20PHARMACY%2C9600%20FLORIDA%20BLVD%2C+BATON%20ROUGE%2C+LA+70815
POINTE COUPEE GENERAL HOSP,2202 FALSE RIVER DR,"NEW ROADS, LA 70760",http://maps.google.com/maps?q=POINTE%20COUPEE%20GENERAL%20HOSP%2C2202%20FALSE%20RIVER%20DR%2C+NEW%20ROADS%2C+LA+70760,
POMANK VENTURES,500 KATIE AVE,"HATTIESBURG, MS 39401",http://maps.google.com/maps?q=POMANK%20VENTURES%2C500%20KATIE%20AVE%2C+HATTIESBURG%2C+MS+39401,
RHODES AND ROBBY DRUGS,114 BROOKS ST,"PELAHATCHIE, MS 39145",http://maps.google.com/maps?q=RHODES%20AND%20ROBBY%20DRUGS%2C114%20BROOKS%20ST%2C+PELAHATCHIE%2C+MS+39145,
U-SAVE-IT PHARMACY-PALMYRA,#2,2112 PALMYRA RD,"ALBANY, GA 31701",http://maps.google.com/maps?q=USAVEIT%20PHARMACYPALMYRA%2C#2%2C+ALBANY%2C+GA+31701
US ARMY- LYSTER HOSPITAL,DEPARTMENT OF PHARMACY,BLDG 301 ANDREWS AVE.,"FORT RUCKER, AL 36362",http://maps.google.com/maps?q=US%20ARMY%20LYSTER%20HOSPITAL%2CDEPARTMENT%20OF%20PHARMACY%2C+FORT%20RUCKER%2C+AL+36362
USAF- KEESLER PHARMACY,561 LARCHER BLVD,"KEESLER AFB, MS 39534",http://maps.google.com/maps?q=USAF%20KEESLER%20PHARMACY%2C561%20LARCHER%20BLVD%2C+KEESLER%20AFB%2C+MS+39534,
USAF-14TH MEDICAL SQUADRON,201 INDEPENDENCE DR,STE 109 BLDG 1100,"COLUMBUS AFB, MS 39710",http://maps.google.com/maps?q=USAFTH%20MEDICAL%20SQUADRON%2C201%20INDEPENDENCE%20DR%2C+COLUMBUS%20AFB%2C+MS+39710
USAF-KEESLER MEDICAL CENTER,301 FISHER ST BLDG 468,81 MDSS,"KEESLER AFB, MS 39534",http://maps.google.com/maps?q=USAFKEESLER%20MEDICAL%20CENTER%2C301%20FISHER%20ST%20BLDG%20468%2C+KEESLER%20AFB%2C+MS+39534
"VITAL CARE OF MISS-LOU, INC",6280 HIGHWAY 129,PO BOX 37,"MONTEREY, LA 71354",http://maps.google.com/maps?q=VITAL%20CARE%20OF%20MISSLOU%20INC%2C6280%20HIGHWAY%20129%2C+MONTEREY%2C+LA+71354
WALGREEN CO,2414 SYLVESTER RD,"ALBANY, GA 31705",http://maps.google.com/maps?q=WALGREEN%20CO%2C2414%20SYLVESTER%20RD%2C+ALBANY%2C+GA+31705,
WALGREEN CO,5780 TERRY RD,"BYRAM, MS 39272",http://maps.google.com/maps?q=WALGREEN%20CO%2C5780%20TERRY%20RD%2C+BYRAM%2C+MS+39272,
WALGREEN CO,906 MARION AVENUE,"MCCOMB, MS 39648",http://maps.google.com/maps?q=WALGREEN%20CO%2C906%20MARION%20AVENUE%2C+MCCOMB%2C+MS+39648,
WALGREEN CO.,1402 OHIO AVENUE,"LYNN HAVEN, FL 32444",http://maps.google.com/maps?q=WALGREEN%20CO%2C1402%20OHIO%20AVENUE%2C+LYNN%20HAVEN%2C+FL+32444,
WALGREEN CO.,1497 CANTON MART RD,"JACKSON, MS 39211",http://maps.google.com/maps?q=WALGREEN%20CO%2C1497%20CANTON%20MART%20RD%2C+JACKSON%2C+MS+39211,
WALGREEN CO.,15371 DEDEAUX RD.,"GULFPORT, MS 39503",http://maps.google.com/maps?q=WALGREEN%20CO%2C15371%20DEDEAUX%20RD.%2C+GULFPORT%2C+MS+39503,
WALGREEN CO.,1728 HIGHWAY 45 NORTH,"COLUMBUS, MS 39705",http://maps.google.com/maps?q=WALGREEN%20CO%2C1728%20HIGHWAY%2045%20NORTH%2C+COLUMBUS%2C+MS+39705,
WALGREEN CO.,1790 W GOVERNMENT STREET,"BRANDON, MS 39042",http://maps.google.com/maps?q=WALGREEN%20CO%2C1790%20W%20GOVERNMENT%20STREET%2C+BRANDON%2C+MS+39042,
WALGREEN CO.,1808 UNIVERSITY AVE,"OXFORD, MS 38655",http://maps.google.com/maps?q=WALGREEN%20CO%2C1808%20UNIVERSITY%20AVE%2C+OXFORD%2C+MS+38655,
WALGREEN CO.,2 SOUTH GREENO RD,"FAIRHOPE, AL 36532",http://maps.google.com/maps?q=WALGREEN%20CO%2C2%20SOUTH%20GREENO%20RD%2C+FAIRHOPE%2C+AL+36532,
WALGREEN CO.,204 HIGHWAY 80 EAST,"CLINTON, MS 39056",http://maps.google.com/maps?q=WALGREEN%20CO%2C204%20HIGHWAY%2080%20EAST%2C+CLINTON%2C+MS+39056,
WALGREEN CO.,2515 CRAWFORD ROAD,"PHENIX CITY, AL 36867",http://maps.google.com/maps?q=WALGREEN%20CO%2C2515%20CRAWFORD%20ROAD%2C+PHENIX%20CITY%2C+AL+36867,
WALGREEN CO.,2940 WEST MAIN STREET,"DOTHAN, AL 36305",http://maps.google.com/maps?q=WALGREEN%20CO%2C2940%20WEST%20MAIN%20STREET%2C+DOTHAN%2C+AL+36305,
WALGREEN CO.,3531 THOMASVILLE ROAD,"TALLAHASSEE, FL 32309",http://maps.google.com/maps?q=WALGREEN%20CO%2C3531%20THOMASVILLE%20ROAD%2C+TALLAHASSEE%2C+FL+32309,
WALGREEN CO.,3948 AIRPORT BLVD,"MOBILE, AL 36608",http://maps.google.com/maps?q=WALGREEN%20CO%2C3948%20AIRPORT%20BLVD%2C+MOBILE%2C+AL+36608,
WALGREEN CO.,6130 HWY 49,"HATTIESBURG, MS 39401",http://maps.google.com/maps?q=WALGREEN%20CO%2C6130%20HWY%2049%2C+HATTIESBURG%2C+MS+39401,
WALGREEN CO.,817 W MAIN STREET,"TUPELO, MS 38801",http://maps.google.com/maps?q=WALGREEN%20CO%2C817%20W%20MAIN%20STREET%2C+TUPELO%2C+MS+38801,
WALGREEN CO.,900 RUCKER BLVD,"ENTERPRISE, AL 36330",http://maps.google.com/maps?q=WALGREEN%20CO%2C900%20RUCKER%20BLVD%2C+ENTERPRISE%2C+AL+36330,
"WALGREEN LOUISIANA CO., INC.",1203 BUSINESS 190,"COVINGTON, LA 70433",http://maps.google.com/maps?q=WALGREEN%20LOUISIANA%20CO%20INC%2C1203%20BUSINESS%20190%2C+COVINGTON%2C+LA+70433,
"WALGREEN LOUISIANA CO., INC.",1260 FRONT STREET,"SLIDELL, LA 70458",http://maps.google.com/maps?q=WALGREEN%20LOUISIANA%20CO%20INC%2C1260%20FRONT%20STREET%2C+SLIDELL%2C+LA+70458,
"WALGREEN LOUISIANA CO., INC.",34865 LA HWY 16,"DENHAM SPRINGS, LA 70706",http://maps.google.com/maps?q=WALGREEN%20LOUISIANA%20CO%20INC%2C34865%20LA%20HWY%2016%2C+DENHAM%20SPRINGS%2C+LA+70706,
"WALGREEN LOUISIANA CO., INC.",3550 GOVERNMENT ST,"BATON ROUGE, LA 70806",http://maps.google.com/maps?q=WALGREEN%20LOUISIANA%20CO%20INC%2C3550%20GOVERNMENT%20ST%2C+BATON%20ROUGE%2C+LA+70806,
"WALGREEN LOUISIANA CO., INC.",410 CRESWELL LANE,"OPELOUSAS, LA 70570",http://maps.google.com/maps?q=WALGREEN%20LOUISIANA%20CO%20INC%2C410%20CRESWELL%20LANE%2C+OPELOUSAS%2C+LA+70570,
"WALGREEN LOUISIANA CO., INC.",4110 GENERAL DEGUALLE DR,"NEW ORLEANS, LA 70131",http://maps.google.com/maps?q=WALGREEN%20LOUISIANA%20CO%20INC%2C4110%20GENERAL%20DEGUALLE%20DR%2C+NEW%20ORLEANS%2C+LA+70131,
"WALGREEN LOUISIANA CO., INC.",4545 WEST ESPLANADE,"METAIRIE, LA 70006",http://maps.google.com/maps?q=WALGREEN%20LOUISIANA%20CO%20INC%2C4545%20WEST%20ESPLANADE%2C+METAIRIE%2C+LA+70006,
"WALGREEN LOUISIANA CO., INC.",4600 WESTBANK EXPRESSWAY,"MARRERO, LA 70072",http://maps.google.com/maps?q=WALGREEN%20LOUISIANA%20CO%20INC%2C4600%20WESTBANK%20EXPRESSWAY%2C+MARRERO%2C+LA+70072,
"WALGREEN LOUISIANA CO., INC.",4747 S SHERWOOD FOREST,"BATON ROUGE, LA 70816",http://maps.google.com/maps?q=WALGREEN%20LOUISIANA%20CO%20INC%2C4747%20S%20SHERWOOD%20FOREST%2C+BATON%20ROUGE%2C+LA+70816,
"WALGREEN LOUISIANA CO., INC.",5112 ESSEN LANE,"BATON ROUGE, LA 70809",http://maps.google.com/maps?q=WALGREEN%20LOUISIANA%20CO%20INC%2C5112%20ESSEN%20LANE%2C+BATON%20ROUGE%2C+LA+70809,
"WALGREEN LOUISIANA CO., INC.",5298 HIGHLAND RD.,"BATON ROUGE, LA 70808",http://maps.google.com/maps?q=WALGREEN%20LOUISIANA%20CO%20INC%2C5298%20HIGHLAND%20RD.%2C+BATON%20ROUGE%2C+LA+70808,
"BEAUREGARD DRUGS, INC",7667 AL HIGHWAY 51 STE A,"OPELIKA, AL 36804",http://maps.google.com/maps?q=BEAUREGARD%20DRUGS%20INC%2C7667%20AL%20HIGHWAY%2051%20STE%20A%2C+OPELIKA%2C+AL+36804,
"OUR HOME PHARMACY, INC",2320 MOORES MILL ROAD,SUITE 100,"AUBURN, AL 36830",http://maps.google.com/maps?q=OUR%20HOME%20PHARMACY%20INC%2C2320%20MOORES%20MILL%20ROAD%2C+AUBURN%2C+AL+36830
WALGREEN CO,1081 GA HIGHWAY 96,"WARNER ROBINS, GA 31088",http://maps.google.com/maps?q=WALGREEN%20CO%2C1081%20GA%20HIGHWAY%2096%2C+WARNER%20ROBINS%2C+GA+31088,
"U-SAVE-IT PHARMACY, INC",202 GUNN ROAD,"CENTERVILLE, GA 31028",http://maps.google.com/maps?q=USAVEIT%20PHARMACY%20INC%2C202%20GUNN%20ROAD%2C+CENTERVILLE%2C+GA+31028,
"CARECENTER PHARMACY, L.L.C.",1 COCA COLA PLZ NW,"ATLANTA, GA 30313",http://maps.google.com/maps?q=CARECENTER%20PHARMACY%20LLC%2C1%20COCA%20COLA%20PLZ%20NW%2C+ATLANTA%2C+GA+30313,
"GEORGIA CVS PHARMACY, L.L.C.","895 RALPH ABERNATHY BLVD., SW","ATLANTA, GA 30310",http://maps.google.com/maps?q=GEORGIA%20CVS%20PHARMACY%20LLC%2C895%20RALPH%20ABERNATHY%20BLVD.%2C%20SW%2C+ATLANTA%2C+GA+30310,
WALGREEN CO.,3740 CASCADE RD SW,"ATLANTA, GA 30331",http://maps.google.com/maps?q=WALGREEN%20CO%2C3740%20CASCADE%20RD%20SW%2C+ATLANTA%2C+GA+30331,
"GEORGIA CVS PHARMACY, L.L.C.",2830 N. DRUID HILLS RD. NE,"ATLANTA, GA 30329",http://maps.google.com/maps?q=GEORGIA%20CVS%20PHARMACY%20LLC%2C2830%20N.%20DRUID%20HILLS%20RD.%20NE%2C+ATLANTA%2C+GA+30329,
"GEORGIA CVS PHARMACY, L.L.C.",2738 NORTH DECATUR ROAD,"DECATUR, GA 30033",http://maps.google.com/maps?q=GEORGIA%20CVS%20PHARMACY%20LLC%2C2738%20NORTH%20DECATUR%20ROAD%2C+DECATUR%2C+GA+30033,
RIVERWOODS BEHAVIORAL HLTH SYSTEM,223 MEDICAL CENTER DRIVE,"RIVERDALE, GA 30274",http://maps.google.com/maps?q=RIVERWOODS%20BEHAVIORAL%20HLTH%20SYSTEM%2C223%20MEDICAL%20CENTER%20DRIVE%2C+RIVERDALE%2C+GA+30274,
"GEORGIA CVS PHARMACY, L.L.C.",22 UPPER RIVERDALE ROAD,"RIVERDALE, GA 30274",http://maps.google.com/maps?q=GEORGIA%20CVS%20PHARMACY%20LLC%2C22%20UPPER%20RIVERDALE%20ROAD%2C+RIVERDALE%2C+GA+30274,
KAISER PERMANENTE CUMBERLAND,CUMBERLAND MED OFFICE PHARMACY,2525 CUMBERLAND PARKWAY,"ATLANTA, GA 30339",http://maps.google.com/maps?q=KAISER%20PERMANENTE%20CUMBERLAND%2CCUMBERLAND%20MED%20OFFICE%20PHARMACY%2C+ATLANTA%2C+GA+30339
KAISER PERMANENTE SANDY SPRINGS PHARMACY,1100 LAKE HEARN DRIVE NE,"ATLANTA, GA 30342",http://maps.google.com/maps?q=KAISER%20PERMANENTE%20SANDY%20SPRINGS%20PHARMACY%2C1100%20LAKE%20HEARN%20DRIVE%20NE%2C+ATLANTA%2C+GA+30342,
WALGREEN CO.,3800 PRINCETON LAKES PKWY SW,"ATLANTA, GA 30331",http://maps.google.com/maps?q=WALGREEN%20CO%2C3800%20PRINCETON%20LAKES%20PKWY%20SW%2C+ATLANTA%2C+GA+30331,
WALGREEN CO.,2670 COBB PARKWAY SE,"SMYRNA, GA 30080",http://maps.google.com/maps?q=WALGREEN%20CO%2C2670%20COBB%20PARKWAY%20SE%2C+SMYRNA%2C+GA+30080,
KAISER PERMANENTE GLENLAKE MED OFFICE,GLENLAKE MEDICAL OFFICE PHCY.,20 GLENLAKE PARKWAY,"ATLANTA, GA 30328",http://maps.google.com/maps?q=KAISER%20PERMANENTE%20GLENLAKE%20MED%20OFFICE%2CGLENLAKE%20MEDICAL%20OFFICE%20PHCY.%2C+ATLANTA%2C+GA+30328
WALGREEN CO.,5320 MEMORIAL DR,"STONE MOUNTAIN, GA 30083",http://maps.google.com/maps?q=WALGREEN%20CO%2C5320%20MEMORIAL%20DR%2C+STONE%20MOUNTAIN%2C+GA+30083,
KAISER PERMANENTE CRESCENT CENTRE,CRESCENT CENTRE CENTRAL PHCY,200 CRESCENT CENTRE PARKWAY,"TUCKER, GA 30084",http://maps.google.com/maps?q=KAISER%20PERMANENTE%20CRESCENT%20CENTRE%2CCRESCENT%20CENTRE%20CENTRAL%20PHCY%2C+TUCKER%2C+GA+30084
WALGREEN CO.,7530 ROSWELL RD,"ATLANTA, GA 30350",http://maps.google.com/maps?q=WALGREEN%20CO%2C7530%20ROSWELL%20RD%2C+ATLANTA%2C+GA+30350,
MOUNTAINVIEW PHARMACY,1275 POWERS FERRY RD SE,SUITE 170,"MARIETTA, GA 30067",http://maps.google.com/maps?q=MOUNTAINVIEW%20PHARMACY%2C1275%20POWERS%20FERRY%20RD%20SE%2C+MARIETTA%2C+GA+30067
KAISER PANOLA MED OFFICE PHARMACY,PANOLA MEDICAL OFFICE PHARMACY,5440 HILLANDALE DRIVE,"LITHONIA, GA 30058",http://maps.google.com/maps?q=KAISER%20PANOLA%20MED%20OFFICE%20PHARMACY%2CPANOLA%20MEDICAL%20OFFICE%20PHARMACY%2C+LITHONIA%2C+GA+30058
PALLIATIVE PHARMACY SOLUTIONS,2338-2340 MAIN ST,"TUCKER, GA 30084",http://maps.google.com/maps?q=PALLIATIVE%20PHARMACY%20SOLUTIONS%2C2338-2340%20MAIN%20ST%2C+TUCKER%2C+GA+30084,
WALGREEN CO.,2464 ROSWELL RD.,"MARIETTA, GA 30062",http://maps.google.com/maps?q=WALGREEN%20CO%2C2464%20ROSWELL%20RD.%2C+MARIETTA%2C+GA+30062,
WALGREEN CO.,4120 AUSTELL RD,"AUSTELL, GA 30106",http://maps.google.com/maps?q=WALGREEN%20CO%2C4120%20AUSTELL%20RD%2C+AUSTELL%2C+GA+30106,
KAISER PERMANENTE WEST COBB,3640 TRAMORE POINT PARKWAY,ATTN: PHARMACY,"AUSTELL, GA 30106",http://maps.google.com/maps?q=KAISER%20PERMANENTE%20WEST%20COBB%2C3640%20TRAMORE%20POINT%20PARKWAY%2C+AUSTELL%2C+GA+30106
PREMIER DRUGSTORE,8446 CAMPBELLTON ST,"DOUGLASVILLE, GA 30134",http://maps.google.com/maps?q=PREMIER%20DRUGSTORE%2C8446%20CAMPBELLTON%20ST%2C+DOUGLASVILLE%2C+GA+30134,
KAISER PERMANENTE STONECREST,MEDICAL CENTER PHARMACY,8011 MALL PARKWAY,"LITHONIA, GA 30038",http://maps.google.com/maps?q=KAISER%20PERMANENTE%20STONECREST%2CMEDICAL%20CENTER%20PHARMACY%2C+LITHONIA%2C+GA+30038
WALGREEN CO.,5985 PEACHTREE PKWY,"NORCROSS, GA 30092",http://maps.google.com/maps?q=WALGREEN%20CO%2C5985%20PEACHTREE%20PKWY%2C+NORCROSS%2C+GA+30092,
WALGREEN CO.,1855 HUDSON BRIDGE RD,"STOCKBRIDGE, GA 30281",http://maps.google.com/maps?q=WALGREEN%20CO%2C1855%20HUDSON%20BRIDGE%20RD%2C+STOCKBRIDGE%2C+GA+30281,
"VILLAGE PHARMACY, INC.",3697 HWY 5,SUITE 6,"DOUGLASVILLE, GA 30135",http://maps.google.com/maps?q=VILLAGE%20PHARMACY%20INC%2C3697%20HWY%205%2C+DOUGLASVILLE%2C+GA+30135
KAISER PERMANENTE GWINNETT,3650 STEVE REYNOLDS BLVD,"DULUTH, GA 30096",http://maps.google.com/maps?q=KAISER%20PERMANENTE%20GWINNETT%2C3650%20STEVE%20REYNOLDS%20BLVD%2C+DULUTH%2C+GA+30096,
WALGREEN CO.,1510 MILSTEAD AVE NE,"CONYERS, GA 30012",http://maps.google.com/maps?q=WALGREEN%20CO%2C1510%20MILSTEAD%20AVE%20NE%2C+CONYERS%2C+GA+30012,
"GEORGIA CVS PHARMACY, L.L.C.",1541 GEORGIA HIGHWAY 20,"CONYERS, GA 30012",http://maps.google.com/maps?q=GEORGIA%20CVS%20PHARMACY%20LLC%2C1541%20GEORGIA%20HIGHWAY%2020%2C+CONYERS%2C+GA+30012,
KAISER PERMANENTE TOWNPARK,TOWNPARK MEDICAL OFFICE PHCY,750 TOWNPARK LANE,"KENNESAW, GA 30144",http://maps.google.com/maps?q=KAISER%20PERMANENTE%20TOWNPARK%2CTOWNPARK%20MEDICAL%20OFFICE%20PHCY%2C+KENNESAW%2C+GA+30144
WALGREEN CO.,2990 FIVE FORKS TRICKUM RD,"LAWRENCEVILLE, GA 30044",http://maps.google.com/maps?q=WALGREEN%20CO%2C2990%20FIVE%20FORKS%20TRICKUM%20RD%2C+LAWRENCEVILLE%2C+GA+30044,
WALGREEN CO.,2779 N COBB PARKWAY,"KENNESAW, GA 30152",http://maps.google.com/maps?q=WALGREEN%20CO%2C2779%20N%20COBB%20PARKWAY%2C+KENNESAW%2C+GA+30152,
"GEORGIA CVS PHARMACY, L.L.C.",2782 NORTH COBB PARKWAY,"KENNESAW, GA 30152",http://maps.google.com/maps?q=GEORGIA%20CVS%20PHARMACY%20LLC%2C2782%20NORTH%20COBB%20PARKWAY%2C+KENNESAW%2C+GA+30152,
"GEORGIA CVS PHARMACY, L.L.C.",1600 TOWN LAKE PARKWAY,"WOODSTOCK, GA 30189",http://maps.google.com/maps?q=GEORGIA%20CVS%20PHARMACY%20LLC%2C1600%20TOWN%20LAKE%20PARKWAY%2C+WOODSTOCK%2C+GA+30189,
"GEORGIA CVS PHARMACY, L.L.C.",495 CHARLES HARDY PKWY,"DALLAS, GA 30157",http://maps.google.com/maps?q=GEORGIA%20CVS%20PHARMACY%20LLC%2C495%20CHARLES%20HARDY%20PKWY%2C+DALLAS%2C+GA+30157,
"GEORGIA CVS PHARMACY, L.L.C.",736 HWY 78 WEST,"VILLA RICA, GA 30180",http://maps.google.com/maps?q=GEORGIA%20CVS%20PHARMACY%20LLC%2C736%20HWY%2078%20WEST%2C+VILLA%20RICA%2C+GA+30180,
WALGREEN CO.,4398 ATLANTA HWY,"LOGANVILLE, GA 30052",http://maps.google.com/maps?q=WALGREEN%20CO%2C4398%20ATLANTA%20HWY%2C+LOGANVILLE%2C+GA+30052,
BENZER GA3 LLC,257 MAIN ST.,"LOGANVILLE, GA 30052",http://maps.google.com/maps?q=BENZER%20GA%20LLC%2C257%20MAIN%20ST.%2C+LOGANVILLE%2C+GA+30052,
WALGREEN CO.,120 MARIETTA HIGHWAY,"CANTON, GA 30114",http://maps.google.com/maps?q=WALGREEN%20CO%2C120%20MARIETTA%20HIGHWAY%2C+CANTON%2C+GA+30114,
ELDER CARE PHARMACY #2,4769 S. MAIN STREET,SUITE A,"ACWORTH, GA 30101",http://maps.google.com/maps?q=ELDER%20CARE%20PHARMACY%2C4769%20S.%20MAIN%20STREET%2C+ACWORTH%2C+GA+30101
"GEORGIA CVS PHARMACY, L.L.C.",620 WEST PIKE STREET,"LAWRENCEVILLE, GA 30046",http://maps.google.com/maps?q=GEORGIA%20CVS%20PHARMACY%20LLC%2C620%20WEST%20PIKE%20STREET%2C+LAWRENCEVILLE%2C+GA+30046,
KAISER PERMANENTE FORSYTH PHARMACY,1400 NORTHSIDE FORSYTH DR. SUITE 350,"CUMMING, GA 30041",http://maps.google.com/maps?q=KAISER%20PERMANENTE%20FORSYTH%20PHARMACY%2C1400%20NORTHSIDE%20FORSYTH%20DR.%20SUITE%20350%2C+CUMMING%2C+GA+30041,
CARE PLUS PHARMACY LLC,1665 HIGHWAY 34E,SUITE 100,"NEWNAN, GA 30265",http://maps.google.com/maps?q=CARE%20PLUS%20PHARMACY%20LLC%2C1665%20HIGHWAY%2034E%2C+NEWNAN%2C+GA+30265
"GEORGIA CVS PHARMACY, L.L.C.",4183 HWY 278 NE,"COVINGTON, GA 30014",http://maps.google.com/maps?q=GEORGIA%20CVS%20PHARMACY%20LLC%2C4183%20HWY%20278%20NE%2C+COVINGTON%2C+GA+30014,
KAISER PERMANENTE SUGAR HILL - BUFORD,MEDICAL CENTER PHARMACY,1435 BROADMOOR BOULEVARD,"SUGAR HILL, GA 30518",http://maps.google.com/maps?q=KAISER%20PERMANENTE%20SUGAR%20HILL%20%20BUFORD%2CMEDICAL%20CENTER%20PHARMACY%2C+SUGAR%20HILL%2C+GA+30518
YOUNG BROTHERS PHARMACY INC,2 WEST MAIN STREET,"CARTERSVILLE, GA 30120",http://maps.google.com/maps?q=YOUNG%20BROTHERS%20PHARMACY%20INC%2C2%20WEST%20MAIN%20STREET%2C+CARTERSVILLE%2C+GA+30120,
"GEORGIA CVS PHARMACY, L.L.C.",965 JOE FRANK HARRIS PKWY SE,"CARTERSVILLE, GA 30120",http://maps.google.com/maps?q=GEORGIA%20CVS%20PHARMACY%20LLC%2C965%20JOE%20FRANK%20HARRIS%20PKWY%20SE%2C+CARTERSVILLE%2C+GA+30120,
WALGREEN CO.,794 SOUTH PARK ST,"CARROLLTON, GA 30117",http://maps.google.com/maps?q=WALGREEN%20CO%2C794%20SOUTH%20PARK%20ST%2C+CARROLLTON%2C+GA+30117,
WALGREEN CO.,10 EAST MAY STREET,"WINDER, GA 30680",http://maps.google.com/maps?q=WALGREEN%20CO%2C10%20EAST%20MAY%20STREET%2C+WINDER%2C+GA+30680,
"GEORGIA CVS PHARMACY, L.L.C.",100 OAK ST,"BOWDON, GA 30108",http://maps.google.com/maps?q=GEORGIA%20CVS%20PHARMACY%20LLC%2C100%20OAK%20ST%2C+BOWDON%2C+GA+30108,
"GEORGIA CVS PHARMACY, L.L.C.",103 JESSE JEWEL PARKWAY,"GAINESVILLE, GA 30501",http://maps.google.com/maps?q=GEORGIA%20CVS%20PHARMACY%20LLC%2C103%20JESSE%20JEWEL%20PARKWAY%2C+GAINESVILLE%2C+GA+30501,
RIVERSIDE PHARMACY,935 GREEN ST,"GAINESVILLE, GA 30501",http://maps.google.com/maps?q=RIVERSIDE%20PHARMACY%2C935%20GREEN%20ST%2C+GAINESVILLE%2C+GA+30501,
WALGREEN CO.,701 MARTHA BERRY BLVD NW,"ROME, GA 30165",http://maps.google.com/maps?q=WALGREEN%20CO%2C701%20MARTHA%20BERRY%20BLVD%20NW%2C+ROME%2C+GA+30165,
"GEORGIA CVS PHARMACY, L.L.C.",1905 MARTHA BERRY BLVD,"ROME, GA 30165",http://maps.google.com/maps?q=GEORGIA%20CVS%20PHARMACY%20LLC%2C1905%20MARTHA%20BERRY%20BLVD%2C+ROME%2C+GA+30165,
"GEORGIA CVS PHARMACY, L.L.C.",300 MORGAN STREET,"LA GRANGE, GA 30241",http://maps.google.com/maps?q=GEORGIA%20CVS%20PHARMACY%20LLC%2C300%20MORGAN%20STREET%2C+LA%20GRANGE%2C+GA+30241,
