Business Name,Address 1,Address 2,"City, State Zip",Map URL
"ALABAMA CVS PHARMACY, L.L.C.",14695 HWY 43,"RUSSELLVILLE, AL 35653",http://maps.google.com/maps?q=ALABAMA%20CVS%20PHARMACY%20LLC%2C14695%20HWY%2043%2C+RUSSELLVILLE%2C+AL+35653,
"ANESTHESIA SERVICES ASSOCIATES, PLLC",495 DUNLOP LN STE 106,COMPREHENSIVE WELLNESS PHARMACY,"CLARKSVILLE, TN 37040",http://maps.google.com/maps?q=ANESTHESIA%20SERVICES%20ASSOCIATES%20PLLC%2C495%20DUNLOP%20LN%20STE%20106%2C+CLARKSVILLE%2C+TN+37040
BAPTIST HEALTH OUTPATIENT PHARMACY,1 TRILLIUM WAY,"CORBIN, KY 40701",http://maps.google.com/maps?q=BAPTIST%20HEALTH%20OUTPATIENT%20PHARMACY%2C1%20TRILLIUM%20WAY%2C+CORBIN%2C+KY+40701,
BAPTIST HEALTH RETAIL-PADUCAH,2601 KENTUCKY AVE,"MEDICAL PARK 1, SUITE 101","PADUCAH, KY 42003",http://maps.google.com/maps?q=BAPTIST%20HEALTH%20RETAILPADUCAH%2C2601%20KENTUCKY%20AVE%2C+PADUCAH%2C+KY+42003
BELEW DRUG,2021 N BROADWAY,"KNOXVILLE, TN 37917",http://maps.google.com/maps?q=BELEW%20DRUG%2C2021%20N%20BROADWAY%2C+KNOXVILLE%2C+TN+37917,
"BELEW DRUG CHOTO, INC.",1616 CHOTO MARKETS WAY,"KNOXVILLE, TN 37922",http://maps.google.com/maps?q=BELEW%20DRUG%20CHOTO%20INC%2C1616%20CHOTO%20MARKETS%20WAY%2C+KNOXVILLE%2C+TN+37922,
BELEW DRUGS WASHINGTON PIKE INC,5908 WASHINGTON PIKE SUITE 102,"KNOXVILLE, TN 37918",http://maps.google.com/maps?q=BELEW%20DRUGS%20WASHINGTON%20PIKE%20INC%2C5908%20WASHINGTON%20PIKE%20SUITE%20102%2C+KNOXVILLE%2C+TN+37918,
"CARECENTER PHARMACY, LLC","2515 PARK PLAZA, SUITE 100","NASHVILLE, TN 37203",http://maps.google.com/maps?q=CARECENTER%20PHARMACY%20LLC%2C2515%20PARK%20PLAZA%2C%20SUITE%20100%2C+NASHVILLE%2C+TN+37203,
CAREZONE PHARMACY LLC,800 AIRPARK CENTER DRIVE STE 809,"NASHVILLE, TN 37217",http://maps.google.com/maps?q=CAREZONE%20PHARMACY%20LLC%2C800%20AIRPARK%20CENTER%20DRIVE%20STE%20809%2C+NASHVILLE%2C+TN+37217,
CASE DRUG CO. #2,990 BROADWAY AVE.,"NEW JOHNSONVILLE, TN 37134",http://maps.google.com/maps?q=CASE%20DRUG%20CO%2C990%20BROADWAY%20AVE.%2C+NEW%20JOHNSONVILLE%2C+TN+37134,
CLARKSVILLE MEDICAL SOLUTIONS,2622 MADISON ST STE A,"CLARKSVILLE, TN 37043",http://maps.google.com/maps?q=CLARKSVILLE%20MEDICAL%20SOLUTIONS%2C2622%20MADISON%20ST%20STE%20A%2C+CLARKSVILLE%2C+TN+37043,
CLARKSVILLE PHARMACY I LLC,801 N 2ND ST,"CLARKSVILLE, TN 37040",http://maps.google.com/maps?q=CLARKSVILLE%20PHARMACY%20I%20LLC%2C801%20N%202ND%20ST%2C+CLARKSVILLE%2C+TN+37040,
COOKE'S FOOD STORE,3400 KEITH STREET NW,"CLEVELAND, TN 37312",http://maps.google.com/maps?q=COOKES%20FOOD%20STORE%2C3400%20KEITH%20STREET%20NW%2C+CLEVELAND%2C+TN+37312,
COOKE'S PHARMACY #2,2010 BROOMFIELD RD SE,"CLEVELAND, TN 37323",http://maps.google.com/maps?q=COOKES%20PHARMACY%2C2010%20BROOMFIELD%20RD%20SE%2C+CLEVELAND%2C+TN+37323,
"CRESTWYN HEALTH GROUP,LLC",9485 CRESTWYN HILLS CV,D B A CRESTWYN BEHAVIORAL HEALTH,"MEMPHIS, TN 38125",http://maps.google.com/maps?q=CRESTWYN%20HEALTH%20GROUPLLC%2C9485%20CRESTWYN%20HILLS%20CV%2C+MEMPHIS%2C+TN+38125
DICKSON APOTHECARY,104 HIGHWAY 70 E,"DICKSON, TN 37055",http://maps.google.com/maps?q=DICKSON%20APOTHECARY%2C104%20HIGHWAY%2070%20E%2C+DICKSON%2C+TN+37055,
DISNEY PHARMACY SERVICES,2141 W EMORY RD,DBA VAUGHN PHARMACY,"POWELL, TN 37849",http://maps.google.com/maps?q=DISNEY%20PHARMACY%20SERVICES%2C2141%20W%20EMORY%20RD%2C+POWELL%2C+TN+37849
DOVER FAMILY PHARMACY,1307 DONELSON PARKWAY,"DOVER, TN 37058",http://maps.google.com/maps?q=DOVER%20FAMILY%20PHARMACY%2C1307%20DONELSON%20PARKWAY%2C+DOVER%2C+TN+37058,
"DUR HURST CLINICAL SERVICES, LLC",110 KITTRELL ST,"HOHENWALD, TN 38462",http://maps.google.com/maps?q=DUR%20HURST%20CLINICAL%20SERVICES%20LLC%2C110%20KITTRELL%20ST%2C+HOHENWALD%2C+TN+38462,
DUREN CLINICAL SERVICES LLC,215 DEXTER L.  WOODS MEMORIAL BLVD.,PO BOX 736,"WAYNESBORO, TN 38485",http://maps.google.com/maps?q=DUREN%20CLINICAL%20SERVICES%20LLC%2C215%20DEXTER%20L.%20%20WOODS%20MEMORIAL%20BLVD.%2C+WAYNESBORO%2C+TN+38485
GIBBS PHARMACY,1427B BADDOUR PKWY,"LEBANON, TN 37087",http://maps.google.com/maps?q=GIBBS%20PHARMACY%2C1427B%20BADDOUR%20PKWY%2C+LEBANON%2C+TN+37087,
GREAT RIVER MEDICAL CENTER,1520 N. DIVISION,PO BOX 108,"BLYTHEVILLE, AR 72315",http://maps.google.com/maps?q=GREAT%20RIVER%20MEDICAL%20CENTER%2C1520%20N.%20DIVISION%2C+BLYTHEVILLE%2C+AR+72315
HALL FAMILY PHARMACY,433 WEST CENTRAL AVENUE,"JAMESTOWN, TN 38556",http://maps.google.com/maps?q=HALL%20FAMILY%20PHARMACY%2C433%20WEST%20CENTRAL%20AVENUE%2C+JAMESTOWN%2C+TN+38556,
IDEAL DRUG CO,510 SOUTH MAIN STREET,"SWEETWATER, TN 37874",http://maps.google.com/maps?q=IDEAL%20DRUG%20CO%2C510%20SOUTH%20MAIN%20STREET%2C+SWEETWATER%2C+TN+37874,
"KENTUCKY CVS PHARMACY, L.L.C.",538 LONE OAK RD.,"PADUCAH, KY 42003",http://maps.google.com/maps?q=KENTUCKY%20CVS%20PHARMACY%20LLC%2C538%20LONE%20OAK%20RD.%2C+PADUCAH%2C+KY+42003,
LEXINGTON DRUGS LLC,11601 HWY. 101,"LEXINGTON, AL 35648",http://maps.google.com/maps?q=LEXINGTON%20DRUGS%20LLC%2C11601%20HWY.%20101%2C+LEXINGTON%2C+AL+35648,
LOURDES HOSPITAL INC PHARMACY,1530 LONE OAK RD,"PADUCAH, KY 42003",http://maps.google.com/maps?q=LOURDES%20HOSPITAL%20INC%20PHARMACY%2C1530%20LONE%20OAK%20RD%2C+PADUCAH%2C+KY+42003,
MAC'S PHARMACY,2419 WASHINGTON PIKE,"KNOXVILLE, TN 37917",http://maps.google.com/maps?q=MACS%20PHARMACY%2C2419%20WASHINGTON%20PIKE%2C+KNOXVILLE%2C+TN+37917,
MCEWEN PRESCRIPTION SHOP,10033 HIGHWAY 70 EAST,"MCEWEN, TN 37101",http://maps.google.com/maps?q=MCEWEN%20PRESCRIPTION%20SHOP%2C10033%20HIGHWAY%2070%20EAST%2C+MCEWEN%2C+TN+37101,
MEDICAL CENTER EAST PHARMACY,1215 21ST AVENUE SOUTH,SUITE 1006,"NASHVILLE, TN 37232",http://maps.google.com/maps?q=MEDICAL%20CENTER%20EAST%20PHARMACY%2C1215%2021ST%20AVENUE%20SOUTH%2C+NASHVILLE%2C+TN+37232
MIDTOWN EXPRESS PHARMACY,"300 20TH AVENUE NORTH, SUITE 105","NASHVILLE, TN 37203",http://maps.google.com/maps?q=MIDTOWN%20EXPRESS%20PHARMACY%2C300%2020TH%20AVENUE%20NORTH%2C%20SUITE%20105%2C+NASHVILLE%2C+TN+37203,
"MISSISSIPPI CVS PHARMACY, L.L.C.",5025 HWY 305,"OLIVE BRANCH, MS 38654",http://maps.google.com/maps?q=MISSISSIPPI%20CVS%20PHARMACY%20LLC%2C5025%20HWY%20305%2C+OLIVE%20BRANCH%2C+MS+38654,
"MISSISSIPPI CVS PHARMACY, L.L.C.",575 CRAFT ST,"HOLLY SPRINGS, MS 38635",http://maps.google.com/maps?q=MISSISSIPPI%20CVS%20PHARMACY%20LLC%2C575%20CRAFT%20ST%2C+HOLLY%20SPRINGS%2C+MS+38635,
MS STATE VETERANS HOME,120 VETERANS BLVD,"OXFORD, MS 38655",http://maps.google.com/maps?q=MS%20STATE%20VETERANS%20HOME%2C120%20VETERANS%20BLVD%2C+OXFORD%2C+MS+38655,
MURRAY-CALLOWAY CO HOSPITAL,803 POPLAR STREET,"MURRAY, KY 42071",http://maps.google.com/maps?q=MURRAYCALLOWAY%20CO%20HOSPITAL%2C803%20POPLAR%20STREET%2C+MURRAY%2C+KY+42071,
NORTHWOOD/MASSEY DRUGS,1702 N WOOD AVE,"FLORENCE, AL 35630",http://maps.google.com/maps?q=NORTHWOODMASSEY%20DRUGS%2C1702%20N%20WOOD%20AVE%2C+FLORENCE%2C+AL+35630,
PERKINS DRUGS,532 HARTSVILLE PIKE,"GALLATIN, TN 37066",http://maps.google.com/maps?q=PERKINS%20DRUGS%2C532%20HARTSVILLE%20PIKE%2C+GALLATIN%2C+TN+37066,
PHIPPS PHARMACY #4,19 HUGHES DRIVE,"JACKSON, TN 38305",http://maps.google.com/maps?q=PHIPPS%20PHARMACY%2C19%20HUGHES%20DRIVE%2C+JACKSON%2C+TN+38305,
PHIPPS PHARMACY INC,205-B HOSPITAL DRIVE,"MC KENZIE, TN 38201",http://maps.google.com/maps?q=PHIPPS%20PHARMACY%20INC%2C205-B%20HOSPITAL%20DRIVE%2C+MC%20KENZIE%2C+TN+38201,
S.M.C. REGIONAL MEDICAL CENTER,611 W. LEE STREET,PO BOX 607,"OSCEOLA, AR 72370",http://maps.google.com/maps?q=SMC%20REGIONAL%20MEDICAL%20CENTER%2C611%20W.%20LEE%20STREET%2C+OSCEOLA%2C+AR+72370
SURE SAVE PHARMACY,30694 HWY 72 WEST,SUITE A,"MADISON, AL 35756",http://maps.google.com/maps?q=SURE%20SAVE%20PHARMACY%2C30694%20HWY%2072%20WEST%2C+MADISON%2C+AL+35756
TELLICO FAMILY WELLNESS CTR.,707 VETERAN'S MEMORIAL DRIVE,"TELLICO PLAINS, TN 37385",http://maps.google.com/maps?q=TELLICO%20FAMILY%20WELLNESS%20CTR%2C707%20VETERAN'S%20MEMORIAL%20DRIVE%2C+TELLICO%20PLAINS%2C+TN+37385,
"TENNESSEE CVS PHARMACY, L.L.C.",103 FOOTHILLS MALL DR.,"MARYVILLE, TN 37801",http://maps.google.com/maps?q=TENNESSEE%20CVS%20PHARMACY%20LLC%2C103%20FOOTHILLS%20MALL%20DR.%2C+MARYVILLE%2C+TN+37801,
"TENNESSEE CVS PHARMACY, L.L.C.",111 S. HALL RD.,"ALCOA, TN 37701",http://maps.google.com/maps?q=TENNESSEE%20CVS%20PHARMACY%20LLC%2C111%20S.%20HALL%20RD.%2C+ALCOA%2C+TN+37701,
"TENNESSEE CVS PHARMACY, L.L.C.",116 COMMONS DR.,"MARTIN, TN 38237",http://maps.google.com/maps?q=TENNESSEE%20CVS%20PHARMACY%20LLC%2C116%20COMMONS%20DR.%2C+MARTIN%2C+TN+38237,
"TENNESSEE CVS PHARMACY, L.L.C.",1200 DODSON AVENUE,"CHATTANOOGA, TN 37406",http://maps.google.com/maps?q=TENNESSEE%20CVS%20PHARMACY%20LLC%2C1200%20DODSON%20AVENUE%2C+CHATTANOOGA%2C+TN+37406,
"TENNESSEE CVS PHARMACY, L.L.C.",1228 W MAIN STREET,"LEBANON, TN 37087",http://maps.google.com/maps?q=TENNESSEE%20CVS%20PHARMACY%20LLC%2C1228%20W%20MAIN%20STREET%2C+LEBANON%2C+TN+37087,
"TENNESSEE CVS PHARMACY, L.L.C.",1405 N. HIGHLAND AVENUE,"JACKSON, TN 38301",http://maps.google.com/maps?q=TENNESSEE%20CVS%20PHARMACY%20LLC%2C1405%20N.%20HIGHLAND%20AVENUE%2C+JACKSON%2C+TN+38301,
"TENNESSEE CVS PHARMACY, L.L.C.",2424 OCOEE ST.,"CLEVELAND, TN 37311",http://maps.google.com/maps?q=TENNESSEE%20CVS%20PHARMACY%20LLC%2C2424%20OCOEE%20ST.%2C+CLEVELAND%2C+TN+37311,
"TENNESSEE CVS PHARMACY, L.L.C.",417 EMORY ROAD,"POWELL, TN 37849",http://maps.google.com/maps?q=TENNESSEE%20CVS%20PHARMACY%20LLC%2C417%20EMORY%20ROAD%2C+POWELL%2C+TN+37849,
"TENNESSEE CVS PHARMACY, L.L.C.",5120 HIGHWAY 153,"HIXSON, TN 37343",http://maps.google.com/maps?q=TENNESSEE%20CVS%20PHARMACY%20LLC%2C5120%20HIGHWAY%20153%2C+HIXSON%2C+TN+37343,
"TENNESSEE CVS PHARMACY, L.L.C.",6005 KINGSTON PIKE,"KNOXVILLE, TN 37919",http://maps.google.com/maps?q=TENNESSEE%20CVS%20PHARMACY%20LLC%2C6005%20KINGSTON%20PIKE%2C+KNOXVILLE%2C+TN+37919,
"TENNESSEE CVS PHARMACY, L.L.C.",6620 WINCHESTER RD.,"MEMPHIS, TN 38115",http://maps.google.com/maps?q=TENNESSEE%20CVS%20PHARMACY%20LLC%2C6620%20WINCHESTER%20RD.%2C+MEMPHIS%2C+TN+38115,
"TENNESSEE CVS PHARMACY, L.L.C.",6670 STAGE ROAD,"BARTLETT, TN 38134",http://maps.google.com/maps?q=TENNESSEE%20CVS%20PHARMACY%20LLC%2C6670%20STAGE%20ROAD%2C+BARTLETT%2C+TN+38134,
"TENNESSEE CVS PHARMACY, L.L.C.",735 HARDING PL.,"NASHVILLE, TN 37211",http://maps.google.com/maps?q=TENNESSEE%20CVS%20PHARMACY%20LLC%2C735%20HARDING%20PL.%2C+NASHVILLE%2C+TN+37211,
"TENNESSEE CVS PHARMACY, L.L.C.",786 GERMANTOWN PKWY.,"CORDOVA, TN 38018",http://maps.google.com/maps?q=TENNESSEE%20CVS%20PHARMACY%20LLC%2C786%20GERMANTOWN%20PKWY.%2C+CORDOVA%2C+TN+38018,
"TENNESSEE CVS PHARMACY, L.L.C.",9175 KINGSTON PIKE,"KNOXVILLE, TN 37923",http://maps.google.com/maps?q=TENNESSEE%20CVS%20PHARMACY%20LLC%2C9175%20KINGSTON%20PIKE%2C+KNOXVILLE%2C+TN+37923,
THE DRUG STORE,153 HERNDON DR,"BELLS, TN 38006",http://maps.google.com/maps?q=THE%20DRUG%20STORE%2C153%20HERNDON%20DR%2C+BELLS%2C+TN+38006,
THE PILL BOX PHARMACY,474 HIGHWAY 67 S,"DECATUR, AL 35603",http://maps.google.com/maps?q=THE%20PILL%20BOX%20PHARMACY%2C474%20HIGHWAY%2067%20S%2C+DECATUR%2C+AL+35603,
UNIVERSITY PHARMACY,1924 ALCOA HWY,SUITE NP100,"KNOXVILLE, TN 37920",http://maps.google.com/maps?q=UNIVERSITY%20PHARMACY%2C1924%20ALCOA%20HWY%2C+KNOXVILLE%2C+TN+37920
US ARMY - TOWN CENTER PHARMACY,98 MICHIGAN AVE,BLDG 98,"FORT CAMPBELL, KY 42223",http://maps.google.com/maps?q=US%20ARMY%20%20TOWN%20CENTER%20PHARMACY%2C98%20MICHIGAN%20AVE%2C+FORT%20CAMPBELL%2C+KY+42223
US ARMY- BLANCHFIELD  COMMUNITY,"MEDDAC, BLDG 650, RM 1BG01","FORT CAMPBELL, KY 42223",http://maps.google.com/maps?q=US%20ARMY%20BLANCHFIELD%20%20COMMUNITY%2CMEDDAC%2C%20BLDG%20650%2C%20RM%201BG01%2C+FORT%20CAMPBELL%2C+KY+42223,
US ARMY- FOX HEALTH CENTER,GOSS ROAD,BUILDING 4100,"REDSTONE ARSENAL, AL 35809",http://maps.google.com/maps?q=US%20ARMY%20FOX%20HEALTH%20CENTER%2CGOSS%20ROAD%2C+REDSTONE%20ARSENAL%2C+AL+35809
VANDERBILT CHILDREN'S OUTPATIENT PHARMACY,2200 CHILDREN'S WAY,VCH 2106,"NASHVILLE, TN 37232",http://maps.google.com/maps?q=VANDERBILT%20CHILDRENS%20OUTPATIENT%20PHARMACY%2C2200%20CHILDREN'S%20WAY%2C+NASHVILLE%2C+TN+37232
VANDERBILT HEALTH PHARMACY,719 THOMPSON LANE,SUITE 24130,"NASHVILLE, TN 37204",http://maps.google.com/maps?q=VANDERBILT%20HEALTH%20PHARMACY%2C719%20THOMPSON%20LANE%2C+NASHVILLE%2C+TN+37204
VANDERBILT OUTPATIENT PHARMACY,1211 MEDICAL CENTER DR,TVC 1815,"NASHVILLE, TN 37232",http://maps.google.com/maps?q=VANDERBILT%20OUTPATIENT%20PHARMACY%2C1211%20MEDICAL%20CENTER%20DR%2C+NASHVILLE%2C+TN+37232
VILLAGE DRUG SHOP,1001 AVALON AVE,"MUSCLE SHOALS, AL 35661",http://maps.google.com/maps?q=VILLAGE%20DRUG%20SHOP%2C1001%20AVALON%20AVE%2C+MUSCLE%20SHOALS%2C+AL+35661,
"VONORE DRUG FAMILY WELLNESS CENTER, INC.",1121 HIGHWAY 411,"VONORE, TN 37885",http://maps.google.com/maps?q=VONORE%20DRUG%20FAMILY%20WELLNESS%20CENTER%20INC%2C1121%20HIGHWAY%20411%2C+VONORE%2C+TN+37885,
WALGREEN CO.,106 W NORTHFIELD,"MURFREESBORO, TN 37129",http://maps.google.com/maps?q=WALGREEN%20CO%2C106%20W%20NORTHFIELD%2C+MURFREESBORO%2C+TN+37129,
WALGREEN CO.,1145 U.S. 31 W. BYPASS,"BOWLING GREEN, KY 42101",http://maps.google.com/maps?q=WALGREEN%20CO%2C1145%20U.S.%2031%20W.%20BYPASS%2C+BOWLING%20GREEN%2C+KY+42101,
WALGREEN CO.,1202 S JAMES CAMPBELL BLVD,"COLUMBIA, TN 38401",http://maps.google.com/maps?q=WALGREEN%20CO%2C1202%20S%20JAMES%20CAMPBELL%20BLVD%2C+COLUMBIA%2C+TN+38401,
WALGREEN CO.,1205 MAIN ST,"MURRAY, KY 42071",http://maps.google.com/maps?q=WALGREEN%20CO%2C1205%20MAIN%20ST%2C+MURRAY%2C+KY+42071,
WALGREEN CO.,121 N. NORTHSHORE DRIVE,"KNOXVILLE, TN 37919",http://maps.google.com/maps?q=WALGREEN%20CO%2C121%20N.%20NORTHSHORE%20DRIVE%2C+KNOXVILLE%2C+TN+37919,
WALGREEN CO.,1299 OAK RIDGE TURNPIKE,"OAK RIDGE, TN 37830",http://maps.google.com/maps?q=WALGREEN%20CO%2C1299%20OAK%20RIDGE%20TURNPIKE%2C+OAK%20RIDGE%2C+TN+37830,
WALGREEN CO.,1302 S CONGRESS PARKWAY,"ATHENS, TN 37303",http://maps.google.com/maps?q=WALGREEN%20CO%2C1302%20S%20CONGRESS%20PARKWAY%2C+ATHENS%2C+TN+37303,
WALGREEN CO.,1303 W MAIN,"LEBANON, TN 37087",http://maps.google.com/maps?q=WALGREEN%20CO%2C1303%20W%20MAIN%2C+LEBANON%2C+TN+37087,
WALGREEN CO.,1332 N HIGHLAND AVE.,"JACKSON, TN 38301",http://maps.google.com/maps?q=WALGREEN%20CO%2C1332%20N%20HIGHLAND%20AVE.%2C+JACKSON%2C+TN+38301,
WALGREEN CO.,1751 TINY TOWN RD.,"CLARKSVILLE, TN 37042",http://maps.google.com/maps?q=WALGREEN%20CO%2C1751%20TINY%20TOWN%20RD.%2C+CLARKSVILLE%2C+TN+37042,
WALGREEN CO.,1808 UNIVERSITY AVE,"OXFORD, MS 38655",http://maps.google.com/maps?q=WALGREEN%20CO%2C1808%20UNIVERSITY%20AVE%2C+OXFORD%2C+MS+38655,
WALGREEN CO.,1954 MADISON STREET,"CLARKSVILLE, TN 37043",http://maps.google.com/maps?q=WALGREEN%20CO%2C1954%20MADISON%20STREET%2C+CLARKSVILLE%2C+TN+37043,
WALGREEN CO.,198 E MAIN ST,"HENDERSONVILLE, TN 37075",http://maps.google.com/maps?q=WALGREEN%20CO%2C198%20E%20MAIN%20ST%2C+HENDERSONVILLE%2C+TN+37075,
WALGREEN CO.,225 N HALL RD,"ALCOA, TN 37701",http://maps.google.com/maps?q=WALGREEN%20CO%2C225%20N%20HALL%20RD%2C+ALCOA%2C+TN+37701,
WALGREEN CO.,2400 NORTH BROADWAY,"KNOXVILLE, TN 37917",http://maps.google.com/maps?q=WALGREEN%20CO%2C2400%20NORTH%20BROADWAY%2C+KNOXVILLE%2C+TN+37917,
WALGREEN CO.,3130 CLARKSVILLE PIKE,"NASHVILLE, TN 37218",http://maps.google.com/maps?q=WALGREEN%20CO%2C3130%20CLARKSVILLE%20PIKE%2C+NASHVILLE%2C+TN+37218,
WALGREEN CO.,3670 RIVERDALE ROAD,"MEMPHIS, TN 38115",http://maps.google.com/maps?q=WALGREEN%20CO%2C3670%20RIVERDALE%20ROAD%2C+MEMPHIS%2C+TN+38115,
WALGREEN CO.,4001 CHAPMAN HIGHWAY,"KNOXVILLE, TN 37920",http://maps.google.com/maps?q=WALGREEN%20CO%2C4001%20CHAPMAN%20HIGHWAY%2C+KNOXVILLE%2C+TN+37920,
WALGREEN CO.,500 S WILLOW AVE,"COOKEVILLE, TN 38501",http://maps.google.com/maps?q=WALGREEN%20CO%2C500%20S%20WILLOW%20AVE%2C+COOKEVILLE%2C+TN+38501,
WALGREEN CO.,5006 N BROADWAY STREET,"KNOXVILLE, TN 37918",http://maps.google.com/maps?q=WALGREEN%20CO%2C5006%20N%20BROADWAY%20STREET%2C+KNOXVILLE%2C+TN+37918,
WALGREEN CO.,5080 STAGE RD,"MEMPHIS, TN 38128",http://maps.google.com/maps?q=WALGREEN%20CO%2C5080%20STAGE%20RD%2C+MEMPHIS%2C+TN+38128,
WALGREEN CO.,518 DONELSON PIKE,"NASHVILLE, TN 37214",http://maps.google.com/maps?q=WALGREEN%20CO%2C518%20DONELSON%20PIKE%2C+NASHVILLE%2C+TN+37214,
WALGREEN CO.,521 LONE OAK ROAD,"PADUCAH, KY 42003",http://maps.google.com/maps?q=WALGREEN%20CO%2C521%20LONE%20OAK%20ROAD%2C+PADUCAH%2C+KY+42003,
WALGREEN CO.,5478 HIGHWAY 153,"HIXSON, TN 37343",http://maps.google.com/maps?q=WALGREEN%20CO%2C5478%20HIGHWAY%20153%2C+HIXSON%2C+TN+37343,
WALGREEN CO.,5555 EDMONSON PIKE,"NASHVILLE, TN 37211",http://maps.google.com/maps?q=WALGREEN%20CO%2C5555%20EDMONSON%20PIKE%2C+NASHVILLE%2C+TN+37211,
WALGREEN CO.,600 S HWY 27,"SOMERSET, KY 42501",http://maps.google.com/maps?q=WALGREEN%20CO%2C600%20S%20HWY%2027%2C+SOMERSET%2C+KY+42501,
WALGREEN CO.,6310 POPLAR AVENUE,"MEMPHIS, TN 38119",http://maps.google.com/maps?q=WALGREEN%20CO%2C6310%20POPLAR%20AVENUE%2C+MEMPHIS%2C+TN+38119,
WALGREEN CO.,6697 STAGE ROAD,"BARTLETT, TN 38134",http://maps.google.com/maps?q=WALGREEN%20CO%2C6697%20STAGE%20ROAD%2C+BARTLETT%2C+TN+38134,
WALGREEN CO.,6958 GOODMAN RD,"OLIVE BRANCH, MS 38654",http://maps.google.com/maps?q=WALGREEN%20CO%2C6958%20GOODMAN%20RD%2C+OLIVE%20BRANCH%2C+MS+38654,
WALGREEN CO.,7601 HWY 70 S,"NASHVILLE, TN 37221",http://maps.google.com/maps?q=WALGREEN%20CO%2C7601%20HWY%2070%20S%2C+NASHVILLE%2C+TN+37221,
WALGREEN CO.,7813 HIGHWAY 72 W,"MADISON, AL 35758",http://maps.google.com/maps?q=WALGREEN%20CO%2C7813%20HIGHWAY%2072%20W%2C+MADISON%2C+AL+35758,
WALGREEN CO.,82 ELMORE RD,"CROSSVILLE, TN 38555",http://maps.google.com/maps?q=WALGREEN%20CO%2C82%20ELMORE%20RD%2C+CROSSVILLE%2C+TN+38555,
WALGREEN CO.,9200 MIDDLEBROOK PIKE,"KNOXVILLE, TN 37931",http://maps.google.com/maps?q=WALGREEN%20CO%2C9200%20MIDDLEBROOK%20PIKE%2C+KNOXVILLE%2C+TN+37931,
WALGREEN CO.,2289 GUNBARREL,"CHATTANOOGA, TN 37421",http://maps.google.com/maps?q=WALGREEN%20CO%2C2289%20GUNBARREL%2C+CHATTANOOGA%2C+TN+37421,
"MISSISSIPPI CVS PHARMACY, L.L.C.","135 HIGHWAY15, NORTH","PONTOTOC, MS 38863",http://maps.google.com/maps?q=MISSISSIPPI%20CVS%20PHARMACY%20LLC%2C135%20HIGHWAY15%2C%20NORTH%2C+PONTOTOC%2C+MS+38863,
"MISSISSIPPI CVS PHARMACY, L.L.C.",1209 SUNSET DR.,"GRENADA, MS 38901",http://maps.google.com/maps?q=MISSISSIPPI%20CVS%20PHARMACY%20LLC%2C1209%20SUNSET%20DR.%2C+GRENADA%2C+MS+38901,
WALGREEN CO.,817 W MAIN STREET,"TUPELO, MS 38801",http://maps.google.com/maps?q=WALGREEN%20CO%2C817%20W%20MAIN%20STREET%2C+TUPELO%2C+MS+38801,
WALGREEN CO.,4154 ELVIS PRESLEY BLVD,"MEMPHIS, TN 38116",http://maps.google.com/maps?q=WALGREEN%20CO%2C4154%20ELVIS%20PRESLEY%20BLVD%2C+MEMPHIS%2C+TN+38116,
"TENNESSEE CVS PHARMACY, L.L.C.",4155 ELVIS PRESLEY BLVD,"MEMPHIS, TN 38116",http://maps.google.com/maps?q=TENNESSEE%20CVS%20PHARMACY%20LLC%2C4155%20ELVIS%20PRESLEY%20BLVD%2C+MEMPHIS%2C+TN+38116,
"TENNESSEE CVS PHARMACY, L.L.C.",2115 UNION AVE.,"MEMPHIS, TN 38104",http://maps.google.com/maps?q=TENNESSEE%20CVS%20PHARMACY%20LLC%2C2115%20UNION%20AVE.%2C+MEMPHIS%2C+TN+38104,
WALGREEN CO.,1863 UNION AVE,"MEMPHIS, TN 38104",http://maps.google.com/maps?q=WALGREEN%20CO%2C1863%20UNION%20AVE%2C+MEMPHIS%2C+TN+38104,
