Business Name,Address 1,Address 2,"City, State Zip",Map URL
"ARMITAGE PHARMACY, INC.",3650 W ARMITAGE AVE,"CHICAGO, IL 60647",http://maps.google.com/maps?q=ARMITAGE%20PHARMACY%20INC%2C3650%20W%20ARMITAGE%20AVE%2C+CHICAGO%2C+IL+60647,
ASMC PHARMACY,945 N 12TH STREET,"MILWAUKEE, WI 53233",http://maps.google.com/maps?q=ASMC%20PHARMACY%2C945%20N%2012TH%20STREET%2C+MILWAUKEE%2C+WI+53233,
AURORA PHARMACY INC,DBA: AURORA PHARMACY,2906 S. 20TH STREET,"MILWAUKEE, WI 53215",http://maps.google.com/maps?q=AURORA%20PHARMACY%20INC%2CDBA%3A%20AURORA%20PHARMACY%2C+MILWAUKEE%2C+WI+53215
BELOIT HEALTH SYSTEM,1969 WEST HART RD,"BELOIT, WI 53511",http://maps.google.com/maps?q=BELOIT%20HEALTH%20SYSTEM%2C1969%20WEST%20HART%20RD%2C+BELOIT%2C+WI+53511,
"BOND DRUG COMPANY OF ILLINOIS, L.L.C.",10 N. MILWAUKEE AVE.,"WHEELING, IL 60090",http://maps.google.com/maps?q=BOND%20DRUG%20COMPANY%20OF%20ILLINOIS%20LLC%2C10%20N.%20MILWAUKEE%20AVE.%2C+WHEELING%2C+IL+60090,
"BOND DRUG COMPANY OF ILLINOIS, L.L.C.",1000 OGDEN AVENUE,"DOWNERS GROVE, IL 60515",http://maps.google.com/maps?q=BOND%20DRUG%20COMPANY%20OF%20ILLINOIS%20LLC%2C1000%20OGDEN%20AVENUE%2C+DOWNERS%20GROVE%2C+IL+60515,
"BOND DRUG COMPANY OF ILLINOIS, L.L.C.",111 S. HALSTED STREET,"CHICAGO, IL 60661",http://maps.google.com/maps?q=BOND%20DRUG%20COMPANY%20OF%20ILLINOIS%20LLC%2C111%20S.%20HALSTED%20STREET%2C+CHICAGO%2C+IL+60661,
"BOND DRUG COMPANY OF ILLINOIS, L.L.C.",1470 S MILWAUKEE AVE,"LIBERTYVILLE, IL 60048",http://maps.google.com/maps?q=BOND%20DRUG%20COMPANY%20OF%20ILLINOIS%20LLC%2C1470%20S%20MILWAUKEE%20AVE%2C+LIBERTYVILLE%2C+IL+60048,
"BOND DRUG COMPANY OF ILLINOIS, L.L.C.",15 N BUFFALO GROVE RD,"BUFFALO GROVE, IL 60089",http://maps.google.com/maps?q=BOND%20DRUG%20COMPANY%20OF%20ILLINOIS%20LLC%2C15%20N%20BUFFALO%20GROVE%20RD%2C+BUFFALO%20GROVE%2C+IL+60089,
"BOND DRUG COMPANY OF ILLINOIS, L.L.C.",1811 BELVIDERE RD,"WAUKEGAN, IL 60085",http://maps.google.com/maps?q=BOND%20DRUG%20COMPANY%20OF%20ILLINOIS%20LLC%2C1811%20BELVIDERE%20RD%2C+WAUKEGAN%2C+IL+60085,
"BOND DRUG COMPANY OF ILLINOIS, L.L.C.",1931 W CERMAK RD,"CHICAGO, IL 60608",http://maps.google.com/maps?q=BOND%20DRUG%20COMPANY%20OF%20ILLINOIS%20LLC%2C1931%20W%20CERMAK%20RD%2C+CHICAGO%2C+IL+60608,
"BOND DRUG COMPANY OF ILLINOIS, L.L.C.",200 E ROOSEVELT,"VILLA PARK, IL 60181",http://maps.google.com/maps?q=BOND%20DRUG%20COMPANY%20OF%20ILLINOIS%20LLC%2C200%20E%20ROOSEVELT%2C+VILLA%20PARK%2C+IL+60181,
"BOND DRUG COMPANY OF ILLINOIS, L.L.C.",2323 CHARLES STREET,"ROCKFORD, IL 61104",http://maps.google.com/maps?q=BOND%20DRUG%20COMPANY%20OF%20ILLINOIS%20LLC%2C2323%20CHARLES%20STREET%2C+ROCKFORD%2C+IL+61104,
"BOND DRUG COMPANY OF ILLINOIS, L.L.C.",2560 W GOLF RD,"HOFFMAN ESTATES, IL 60169",http://maps.google.com/maps?q=BOND%20DRUG%20COMPANY%20OF%20ILLINOIS%20LLC%2C2560%20W%20GOLF%20RD%2C+HOFFMAN%20ESTATES%2C+IL+60169,
"BOND DRUG COMPANY OF ILLINOIS, L.L.C.",3153 W IRVING PARK RD,"CHICAGO, IL 60618",http://maps.google.com/maps?q=BOND%20DRUG%20COMPANY%20OF%20ILLINOIS%20LLC%2C3153%20W%20IRVING%20PARK%20RD%2C+CHICAGO%2C+IL+60618,
"BOND DRUG COMPANY OF ILLINOIS, L.L.C.",3201 N. BROADWAY ST.,"CHICAGO, IL 60657",http://maps.google.com/maps?q=BOND%20DRUG%20COMPANY%20OF%20ILLINOIS%20LLC%2C3201%20N.%20BROADWAY%20ST.%2C+CHICAGO%2C+IL+60657,
"BOND DRUG COMPANY OF ILLINOIS, L.L.C.",3925 W ELM STREET,"MCHENRY, IL 60050",http://maps.google.com/maps?q=BOND%20DRUG%20COMPANY%20OF%20ILLINOIS%20LLC%2C3925%20W%20ELM%20STREET%2C+MCHENRY%2C+IL+60050,
"BOND DRUG COMPANY OF ILLINOIS, L.L.C.",4343 N CENTRAL AVE,"CHICAGO, IL 60634",http://maps.google.com/maps?q=BOND%20DRUG%20COMPANY%20OF%20ILLINOIS%20LLC%2C4343%20N%20CENTRAL%20AVE%2C+CHICAGO%2C+IL+60634,
"BOND DRUG COMPANY OF ILLINOIS, L.L.C.",4748 W NORTH AVE,"CHICAGO, IL 60639",http://maps.google.com/maps?q=BOND%20DRUG%20COMPANY%20OF%20ILLINOIS%20LLC%2C4748%20W%20NORTH%20AVE%2C+CHICAGO%2C+IL+60639,
"BOND DRUG COMPANY OF ILLINOIS, L.L.C.",501 W ROOSEVELT RD,"CHICAGO, IL 60607",http://maps.google.com/maps?q=BOND%20DRUG%20COMPANY%20OF%20ILLINOIS%20LLC%2C501%20W%20ROOSEVELT%20RD%2C+CHICAGO%2C+IL+60607,
"BOND DRUG COMPANY OF ILLINOIS, L.L.C.",5435 S KEDZIE AVE,"CHICAGO, IL 60632",http://maps.google.com/maps?q=BOND%20DRUG%20COMPANY%20OF%20ILLINOIS%20LLC%2C5435%20S%20KEDZIE%20AVE%2C+CHICAGO%2C+IL+60632,
"BOND DRUG COMPANY OF ILLINOIS, L.L.C.",5600 W. FULLERTON,"CHICAGO, IL 60639",http://maps.google.com/maps?q=BOND%20DRUG%20COMPANY%20OF%20ILLINOIS%20LLC%2C5600%20W.%20FULLERTON%2C+CHICAGO%2C+IL+60639,
"BOND DRUG COMPANY OF ILLINOIS, L.L.C.",5625 N. RIDGE AVE,"CHICAGO, IL 60660",http://maps.google.com/maps?q=BOND%20DRUG%20COMPANY%20OF%20ILLINOIS%20LLC%2C5625%20N.%20RIDGE%20AVE%2C+CHICAGO%2C+IL+60660,
"BOND DRUG COMPANY OF ILLINOIS, L.L.C.",6 E NORTH AVE,"NORTHLAKE, IL 60164",http://maps.google.com/maps?q=BOND%20DRUG%20COMPANY%20OF%20ILLINOIS%20LLC%2C6%20E%20NORTH%20AVE%2C+NORTHLAKE%2C+IL+60164,
"BOND DRUG COMPANY OF ILLINOIS, L.L.C.",641 N CLARK ST,"CHICAGO, IL 60654",http://maps.google.com/maps?q=BOND%20DRUG%20COMPANY%20OF%20ILLINOIS%20LLC%2C641%20N%20CLARK%20ST%2C+CHICAGO%2C+IL+60654,
"BOND DRUG COMPANY OF ILLINOIS, L.L.C.",655 ELM,"HIGHLAND PARK, IL 60035",http://maps.google.com/maps?q=BOND%20DRUG%20COMPANY%20OF%20ILLINOIS%20LLC%2C655%20ELM%2C+HIGHLAND%20PARK%2C+IL+60035,
"BOND DRUG COMPANY OF ILLINOIS, L.L.C.",709 N. GREEN BAY ROAD,"WAUKEGAN, IL 60085",http://maps.google.com/maps?q=BOND%20DRUG%20COMPANY%20OF%20ILLINOIS%20LLC%2C709%20N.%20GREEN%20BAY%20ROAD%2C+WAUKEGAN%2C+IL+60085,
"BOND DRUG COMPANY OF ILLINOIS, L.L.C.",7251 LAKE STREET,"RIVER FOREST, IL 60305",http://maps.google.com/maps?q=BOND%20DRUG%20COMPANY%20OF%20ILLINOIS%20LLC%2C7251%20LAKE%20STREET%2C+RIVER%20FOREST%2C+IL+60305,
"BOND DRUG COMPANY OF ILLINOIS, L.L.C.",7350 BARRINGTON RD.,"HANOVER PARK, IL 60133",http://maps.google.com/maps?q=BOND%20DRUG%20COMPANY%20OF%20ILLINOIS%20LLC%2C7350%20BARRINGTON%20RD.%2C+HANOVER%20PARK%2C+IL+60133,
"BOND DRUG COMPANY OF ILLINOIS, L.L.C.",7501 GRAND AVE.,"GURNEE, IL 60031",http://maps.google.com/maps?q=BOND%20DRUG%20COMPANY%20OF%20ILLINOIS%20LLC%2C7501%20GRAND%20AVE.%2C+GURNEE%2C+IL+60031,
"BOND DRUG COMPANY OF ILLINOIS, L.L.C.",780 WAUKEGAN RD,"DEERFIELD, IL 60015",http://maps.google.com/maps?q=BOND%20DRUG%20COMPANY%20OF%20ILLINOIS%20LLC%2C780%20WAUKEGAN%20RD%2C+DEERFIELD%2C+IL+60015,
"BOND DRUG COMPANY OF ILLINOIS, L.L.C.",811 MADISON ST,"OAK PARK, IL 60302",http://maps.google.com/maps?q=BOND%20DRUG%20COMPANY%20OF%20ILLINOIS%20LLC%2C811%20MADISON%20ST%2C+OAK%20PARK%2C+IL+60302,
"BOND DRUG COMPANY OF ILLINOIS, L.L.C.",9000 N. GREENWOOD AVE,"NILES, IL 60714",http://maps.google.com/maps?q=BOND%20DRUG%20COMPANY%20OF%20ILLINOIS%20LLC%2C9000%20N.%20GREENWOOD%20AVE%2C+NILES%2C+IL+60714,
"BOND DRUG COMPANY OF ILLINOIS, L.L.C.",910 NORTH RAND RD.,"LAKE ZURICH, IL 60047",http://maps.google.com/maps?q=BOND%20DRUG%20COMPANY%20OF%20ILLINOIS%20LLC%2C910%20NORTH%20RAND%20RD.%2C+LAKE%20ZURICH%2C+IL+60047,
CAPT. JAMES A. LOVELL FEDERAL HEALTH CARE CENTER,2410 SAMPSON STREET,BLDG 237 (PHARMACY DEPARTMENT),"GREAT LAKES, IL 60088",http://maps.google.com/maps?q=CAPT%20JAMES%20A%20LOVELL%20FEDERAL%20HEALTH%20CARE%20CENTER%2C2410%20SAMPSON%20STREET%2C+GREAT%20LAKES%2C+IL+60088
CAPT. JAMES A. LOVELL FEDERAL HEALTH CARE CENTER,2430 ILLINOIS STREET,BLDG 1007 (PHARMACY DEPARTMENT),"GREAT LAKES, IL 60088",http://maps.google.com/maps?q=CAPT%20JAMES%20A%20LOVELL%20FEDERAL%20HEALTH%20CARE%20CENTER%2C2430%20ILLINOIS%20STREET%2C+GREAT%20LAKES%2C+IL+60088
CAPT. JAMES A. LOVELL FEDERAL HEALTH CARE CENTER,2630 GREEN BAY ROAD,BLDG 3452 (PHARMACY DEPARTMENT),"GREAT LAKES, IL 60088",http://maps.google.com/maps?q=CAPT%20JAMES%20A%20LOVELL%20FEDERAL%20HEALTH%20CARE%20CENTER%2C2630%20GREEN%20BAY%20ROAD%2C+GREAT%20LAKES%2C+IL+60088
CAPT. JAMES A. LOVELL FEDERAL HEALTH CARE CENTER,3440 OHIO STREET,BLDG 1017 (PHARMACY DEPARTMENT),"GREAT LAKES, IL 60088",http://maps.google.com/maps?q=CAPT%20JAMES%20A%20LOVELL%20FEDERAL%20HEALTH%20CARE%20CENTER%2C3440%20OHIO%20STREET%2C+GREAT%20LAKES%2C+IL+60088
"CARECENTER PHARMACY, L.L.C.","2775 SANDERS RD., STE C1","NORTHBROOK, IL 60062",http://maps.google.com/maps?q=CARECENTER%20PHARMACY%20LLC%2C2775%20SANDERS%20RD.%2C%20STE%20C1%2C+NORTHBROOK%2C+IL+60062,
CASS ST PHARMACY GUNDERSEN HEALTH SYSTEM,528 CASS ST.,"LA CROSSE, WI 54601",http://maps.google.com/maps?q=CASS%20ST%20PHARMACY%20GUNDERSEN%20HEALTH%20SYSTEM%2C528%20CASS%20ST.%2C+LA%20CROSSE%2C+WI+54601,
CEDAR LAKE CAMPUS PHARMACY,5595 HWY Z,"WEST BEND, WI 53095",http://maps.google.com/maps?q=CEDAR%20LAKE%20CAMPUS%20PHARMACY%2C5595%20HWY%20Z%2C+WEST%20BEND%2C+WI+53095,
CGH MEDICAL CENTER,100 EAST LEFEVRE RD,"STERLING, IL 61081",http://maps.google.com/maps?q=CGH%20MEDICAL%20CENTER%2C100%20EAST%20LEFEVRE%20RD%2C+STERLING%2C+IL+61081,
CLARK'S PHARMACY,1946 42ND STREET N.E.,"CEDAR RAPIDS, IA 52402",http://maps.google.com/maps?q=CLARKS%20PHARMACY%2C1946%2042ND%20STREET%20N.E.%2C+CEDAR%20RAPIDS%2C+IA+52402,
CLAYTON DRUG,104 WEST MISSION ST,"STRAWBERRY POINT, IA 52076",http://maps.google.com/maps?q=CLAYTON%20DRUG%2C104%20WEST%20MISSION%20ST%2C+STRAWBERRY%20POINT%2C+IA+52076,
CLAYTON DRUG,135 N MAIN ST,"ELKADER, IA 52043",http://maps.google.com/maps?q=CLAYTON%20DRUG%2C135%20N%20MAIN%20ST%2C+ELKADER%2C+IA+52043,
"DONLON DRUG, INC",201 W. WATER ST,"DECORAH, IA 52101",http://maps.google.com/maps?q=DONLON%20DRUG%20INC%2C201%20W.%20WATER%20ST%2C+DECORAH%2C+IA+52101,
DOUGLAS & OGDEN MED CTR PHAR,DBA DOUGLAS-MAIN PHARMACY,5207 MAIN ST STE#102,"DOWNERS GROVE, IL 60515",http://maps.google.com/maps?q=DOUGLAS%20%20OGDEN%20MED%20CTR%20PHAR%2CDBA%20DOUGLAS-MAIN%20PHARMACY%2C+DOWNERS%20GROVE%2C+IL+60515
ELMHURST MEMORIAL HOSPITAL,155 EAST BRUSH HILL ROAD,RM. DL 380,"ELMHURST, IL 60126",http://maps.google.com/maps?q=ELMHURST%20MEMORIAL%20HOSPITAL%2C155%20EAST%20BRUSH%20HILL%20ROAD%2C+ELMHURST%2C+IL+60126
"FARLAND PHARMACY, INC.",2 NORTH CASS AVE,"WESTMONT, IL 60559",http://maps.google.com/maps?q=FARLAND%20PHARMACY%20INC%2C2%20NORTH%20CASS%20AVE%2C+WESTMONT%2C+IL+60559,
"FORUM EXTENDED CARE SERVICES II, INC.",4201 W VICTORIA ST,"CHICAGO, IL 60646",http://maps.google.com/maps?q=FORUM%20EXTENDED%20CARE%20SERVICES%20II%20INC%2C4201%20W%20VICTORIA%20ST%2C+CHICAGO%2C+IL+60646,
GOOD VALUE PHARMACY,3207 80TH STREET,SUITE 100,"KENOSHA, WI 53142",http://maps.google.com/maps?q=GOOD%20VALUE%20PHARMACY%2C3207%2080TH%20STREET%2C+KENOSHA%2C+WI+53142
GUNDERSEN LUTHERAN CLIN PHARM,1836 SOUTH AVENUE,"LA CROSSE, WI 54601",http://maps.google.com/maps?q=GUNDERSEN%20LUTHERAN%20CLIN%20PHARM%2C1836%20SOUTH%20AVENUE%2C+LA%20CROSSE%2C+WI+54601,
GUNDERSEN LUTHERAN CLIN PHARM,3111 GUNDERSEN DRIVE,"ONALASKA, WI 54650",http://maps.google.com/maps?q=GUNDERSEN%20LUTHERAN%20CLIN%20PHARM%2C3111%20GUNDERSEN%20DRIVE%2C+ONALASKA%2C+WI+54650,
HARTIG DRUG #3,2255 JOHN F KENNEDY ROAD,"DUBUQUE, IA 52002",http://maps.google.com/maps?q=HARTIG%20DRUG%2C2255%20JOHN%20F%20KENNEDY%20ROAD%2C+DUBUQUE%2C+IA+52002,
HARTIG DRUG CO,157 LOCUST ST,"DUBUQUE, IA 52001",http://maps.google.com/maps?q=HARTIG%20DRUG%20CO%2C157%20LOCUST%20ST%2C+DUBUQUE%2C+IA+52001,
HARTIG DRUG CO,1600 UNIVERSITY AVE,"DUBUQUE, IA 52001",http://maps.google.com/maps?q=HARTIG%20DRUG%20CO%2C1600%20UNIVERSITY%20AVE%2C+DUBUQUE%2C+IA+52001,
HARTIG DRUG CO,2225 CENTRAL AVE,"DUBUQUE, IA 52001",http://maps.google.com/maps?q=HARTIG%20DRUG%20CO%2C2225%20CENTRAL%20AVE%2C+DUBUQUE%2C+IA+52001,
HARTIG DRUG CO #12,21 W MAIN ST,"WAUKON, IA 52172",http://maps.google.com/maps?q=HARTIG%20DRUG%20CO%2C21%20W%20MAIN%20ST%2C+WAUKON%2C+IA+52172,
HARTIG DRUG CO #28,419 E 1ST ST,"MONTICELLO, IA 52310",http://maps.google.com/maps?q=HARTIG%20DRUG%20CO%2C419%20E%201ST%20ST%2C+MONTICELLO%2C+IA+52310,
HARTIG DRUG CO #30,200 MAIN ST,SUITE 1,"GUTTENBERG, IA 52052",http://maps.google.com/maps?q=HARTIG%20DRUG%20CO%2C200%20MAIN%20ST%2C+GUTTENBERG%2C+IA+52052
HARTIG DRUG CO INC,HARTIG DRUG CO #14,200 FIRST STREET EAST,"INDEPENDENCE, IA 50644",http://maps.google.com/maps?q=HARTIG%20DRUG%20CO%20INC%2CHARTIG%20DRUG%20CO%20#14%2C+INDEPENDENCE%2C+IA+50644
HARTIG DRUG COMPANY,STONE CREEK SHOPPING CENTER,711 16TH AVE SE,"DYERSVILLE, IA 52040",http://maps.google.com/maps?q=HARTIG%20DRUG%20COMPANY%2CSTONE%20CREEK%20SHOPPING%20CENTER%2C+DYERSVILLE%2C+IA+52040
"HAYAT PHARMACY 1, LLC",3727 W WISCONSIN AVE,"MILWAUKEE, WI 53208",http://maps.google.com/maps?q=HAYAT%20PHARMACY%20%20LLC%2C3727%20W%20WISCONSIN%20AVE%2C+MILWAUKEE%2C+WI+53208,
HAYAT PHARMACY 10 LLC,5308 W BURLEIGH ST,"MILWAUKEE, WI 53210",http://maps.google.com/maps?q=HAYAT%20PHARMACY%20%20LLC%2C5308%20W%20BURLEIGH%20ST%2C+MILWAUKEE%2C+WI+53210,
"HAYAT PHARMACY 2, LLC",5928 W VLIET ST,"MILWAUKEE, WI 53208",http://maps.google.com/maps?q=HAYAT%20PHARMACY%20%20LLC%2C5928%20W%20VLIET%20ST%2C+MILWAUKEE%2C+WI+53208,
"HAYAT PHARMACY 3, LLC",8500 W. CAPITOL DR.,"MILWAUKEE, WI 53222",http://maps.google.com/maps?q=HAYAT%20PHARMACY%20%20LLC%2C8500%20W.%20CAPITOL%20DR.%2C+MILWAUKEE%2C+WI+53222,
"HAYAT PHARMACY 4, LLC",5434 W CAPITOL DRIVE,"MILWAUKEE, WI 53216",http://maps.google.com/maps?q=HAYAT%20PHARMACY%20%20LLC%2C5434%20W%20CAPITOL%20DRIVE%2C+MILWAUKEE%2C+WI+53216,
"HAYAT PHARMACY 5, LLC",1919 W NORTH AVE,"MILWAUKEE, WI 53205",http://maps.google.com/maps?q=HAYAT%20PHARMACY%20%20LLC%2C1919%20W%20NORTH%20AVE%2C+MILWAUKEE%2C+WI+53205,
HAYAT PHARMACY 6,4931 S 27TH STREET,SUITE 400,"GREENFIELD, WI 53221",http://maps.google.com/maps?q=HAYAT%20PHARMACY%2C4931%20S%2027TH%20STREET%2C+GREENFIELD%2C+WI+53221
"HAYAT PHARMACY 7, LLC",5312 W. VILLARD AVE.,"MILWAUKEE, WI 53218",http://maps.google.com/maps?q=HAYAT%20PHARMACY%20%20LLC%2C5312%20W.%20VILLARD%20AVE.%2C+MILWAUKEE%2C+WI+53218,
"HAYAT PHARMACY 8, LLC",110 W MAIN ST,"CAMPBELLSPORT, WI 53010",http://maps.google.com/maps?q=HAYAT%20PHARMACY%20%20LLC%2C110%20W%20MAIN%20ST%2C+CAMPBELLSPORT%2C+WI+53010,
HAYAT PHARMACY 9,8434 W. SILVER SPRING DRIVE,"MILWAUKEE, WI 53225",http://maps.google.com/maps?q=HAYAT%20PHARMACY%2C8434%20W.%20SILVER%20SPRING%20DRIVE%2C+MILWAUKEE%2C+WI+53225,
"HEALTHDIRECT INSTITUTIONAL PHARMACY SERVICES, INC.",150 N. PATRICK BLVD,SUITE 250,"BROOKFIELD, WI 53045",http://maps.google.com/maps?q=HEALTHDIRECT%20INSTITUTIONAL%20PHARMACY%20SERVICES%20INC%2C150%20N.%20PATRICK%20BLVD%2C+BROOKFIELD%2C+WI+53045
"HIGHLAND PARK CVS, L.L.C.",110 S. ALPINE RD.,"ROCKFORD, IL 61108",http://maps.google.com/maps?q=HIGHLAND%20PARK%20CVS%20LLC%2C110%20S.%20ALPINE%20RD.%2C+ROCKFORD%2C+IL+61108,
"HIGHLAND PARK CVS, L.L.C.",110 W. NORTH AVE.,"ELMHURST, IL 60126",http://maps.google.com/maps?q=HIGHLAND%20PARK%20CVS%20LLC%2C110%20W.%20NORTH%20AVE.%2C+ELMHURST%2C+IL+60126,
"HIGHLAND PARK CVS, L.L.C.",1305 RANDALL RD.,"CRYSTAL LAKE, IL 60014",http://maps.google.com/maps?q=HIGHLAND%20PARK%20CVS%20LLC%2C1305%20RANDALL%20RD.%2C+CRYSTAL%20LAKE%2C+IL+60014,
"HIGHLAND PARK CVS, L.L.C.",1500 LINCOLN HWY.,"ST CHARLES, IL 60174",http://maps.google.com/maps?q=HIGHLAND%20PARK%20CVS%20LLC%2C1500%20LINCOLN%20HWY.%2C+ST%20CHARLES%2C+IL+60174,
"HIGHLAND PARK CVS, L.L.C.",1539 CLAVEY RD.,"HIGHLAND PARK, IL 60035",http://maps.google.com/maps?q=HIGHLAND%20PARK%20CVS%20LLC%2C1539%20CLAVEY%20RD.%2C+HIGHLAND%20PARK%2C+IL+60035,
"HIGHLAND PARK CVS, L.L.C.",177 WEST VIRGINIA STREET,"CRYSTAL LAKE, IL 60014",http://maps.google.com/maps?q=HIGHLAND%20PARK%20CVS%20LLC%2C177%20WEST%20VIRGINIA%20STREET%2C+CRYSTAL%20LAKE%2C+IL+60014,
"HIGHLAND PARK CVS, L.L.C.",3134 11TH STREET,"ROCKFORD, IL 61109",http://maps.google.com/maps?q=HIGHLAND%20PARK%20CVS%20LLC%2C3134%2011TH%20STREET%2C+ROCKFORD%2C+IL+61109,
"HIGHLAND PARK CVS, L.L.C.",345 MADISON ST.,"OAK PARK, IL 60302",http://maps.google.com/maps?q=HIGHLAND%20PARK%20CVS%20LLC%2C345%20MADISON%20ST.%2C+OAK%20PARK%2C+IL+60302,
"HIGHLAND PARK CVS, L.L.C.",3900 WEST ELM ST.,"MCHENRY, IL 60050",http://maps.google.com/maps?q=HIGHLAND%20PARK%20CVS%20LLC%2C3900%20WEST%20ELM%20ST.%2C+MCHENRY%2C+IL+60050,
"HIGHLAND PARK CVS, L.L.C.",4843 BLUE STEM ROAD,"ROSCOE, IL 61073",http://maps.google.com/maps?q=HIGHLAND%20PARK%20CVS%20LLC%2C4843%20BLUE%20STEM%20ROAD%2C+ROSCOE%2C+IL+61073,
"HIGHLAND PARK CVS, L.L.C.",6506 ALPINE RD.,"LOVES PARK, IL 61111",http://maps.google.com/maps?q=HIGHLAND%20PARK%20CVS%20LLC%2C6506%20ALPINE%20RD.%2C+LOVES%20PARK%2C+IL+61111,
HOMETOWN LONG TERM CARE PHARMACY,1571 IVORY DRIVE,"SUN PRAIRIE, WI 53590",http://maps.google.com/maps?q=HOMETOWN%20LONG%20TERM%20CARE%20PHARMACY%2C1571%20IVORY%20DRIVE%2C+SUN%20PRAIRIE%2C+WI+53590,
"INTERDEPENDENT PHARMACY, LLC",404 NORTH SEYMOUR AVENUE,"MUNDELEIN, IL 60060",http://maps.google.com/maps?q=INTERDEPENDENT%20PHARMACY%20LLC%2C404%20NORTH%20SEYMOUR%20AVENUE%2C+MUNDELEIN%2C+IL+60060,
LAKEVIEW NEUROREHAB CENTER,1701 SHARP ROAD,"WATERFORD, WI 53185",http://maps.google.com/maps?q=LAKEVIEW%20NEUROREHAB%20CENTER%2C1701%20SHARP%20ROAD%2C+WATERFORD%2C+WI+53185,
LAWNDALE CHRISTIAN HLTH CTR,PHARMACY,3860 WEST OGDEN AVENUE,"CHICAGO, IL 60623",http://maps.google.com/maps?q=LAWNDALE%20CHRISTIAN%20HLTH%20CTR%2CPHARMACY%2C+CHICAGO%2C+IL+60623
MEDICAL CENTER PHARMACY,1111 DELAFIELD STREET  SUITE 109,"WAUKESHA, WI 53188",http://maps.google.com/maps?q=MEDICAL%20CENTER%20PHARMACY%2C1111%20DELAFIELD%20STREET%20%20SUITE%20109%2C+WAUKESHA%2C+WI+53188,
MERCY FAMILY PHARMACY,MERCY HEALTH SERVICES IOWA,1920 ELM STREET,"DUBUQUE, IA 52001",http://maps.google.com/maps?q=MERCY%20FAMILY%20PHARMACY%2CMERCY%20HEALTH%20SERVICES%20IOWA%2C+DUBUQUE%2C+IA+52001
NORTHWESTERN MEMORIAL HOSP,251 E. HURON,"CHICAGO, IL 60611",http://maps.google.com/maps?q=NORTHWESTERN%20MEMORIAL%20HOSP%2C251%20E.%20HURON%2C+CHICAGO%2C+IL+60611,
NUCARA PHARMACY #20,119 N VINE ST,"WEST UNION, IA 52175",http://maps.google.com/maps?q=NUCARA%20PHARMACY%2C119%20N%20VINE%20ST%2C+WEST%20UNION%2C+IA+52175,
OSF HEALTHCARE SYSTEM,5666 E. STATE STREET,"ROCKFORD, IL 61108",http://maps.google.com/maps?q=OSF%20HEALTHCARE%20SYSTEM%2C5666%20E.%20STATE%20STREET%2C+ROCKFORD%2C+IL+61108,
OSTERHAUS PHARMACY,918 W PLATT #2,"MAQUOKETA, IA 52060",http://maps.google.com/maps?q=OSTERHAUS%20PHARMACY%2C918%20W%20PLATT%20#2%2C+MAQUOKETA%2C+IA+52060,
PINNOW PHARMACY,1028 FIRST CENTER AVENUE,"BRODHEAD, WI 53520",http://maps.google.com/maps?q=PINNOW%20PHARMACY%2C1028%20FIRST%20CENTER%20AVENUE%2C+BRODHEAD%2C+WI+53520,
PRESENCE RHC SENIOR SERVICES,100 N RIVER ROAD,"DES PLAINES, IL 60016",http://maps.google.com/maps?q=PRESENCE%20RHC%20SENIOR%20SERVICES%2C100%20N%20RIVER%20ROAD%2C+DES%20PLAINES%2C+IL+60016,
PROHEALTH CARE PHARMACY,791 SUMMIT AVE,"OCONOMOWOC, WI 53066",http://maps.google.com/maps?q=PROHEALTH%20CARE%20PHARMACY%2C791%20SUMMIT%20AVE%2C+OCONOMOWOC%2C+WI+53066,
PROHEALTH PHARMACY - PEWAUKEE,N16W24131 RIVERWOOD DR,"WAUKESHA, WI 53188",http://maps.google.com/maps?q=PROHEALTH%20PHARMACY%20%20PEWAUKEE%2CN16W24131%20RIVERWOOD%20DR%2C+WAUKESHA%2C+WI+53188,
RIPON MEDICAL CENTER,845 PARKSIDE STREET,"RIPON, WI 54971",http://maps.google.com/maps?q=RIPON%20MEDICAL%20CENTER%2C845%20PARKSIDE%20STREET%2C+RIPON%2C+WI+54971,
ROCHELLE COMMUNITY HOSPITAL ASSOC,900 N 2ND ST,"ROCHELLE, IL 61068",http://maps.google.com/maps?q=ROCHELLE%20COMMUNITY%20HOSPITAL%20ASSOC%2C900%20N%202ND%20ST%2C+ROCHELLE%2C+IL+61068,
"ROCKMED LTC PHARMACY, LLC",711 N MAIN ST,"EDGERTON, WI 53534",http://maps.google.com/maps?q=ROCKMED%20LTC%20PHARMACY%20LLC%2C711%20N%20MAIN%20ST%2C+EDGERTON%2C+WI+53534,
RUSH UNIVERSITY MEDICAL CTR,ATTN CHIEF PHARMACIST,1653 WEST CONGRESS PARKWAY,"CHICAGO, IL 60612",http://maps.google.com/maps?q=RUSH%20UNIVERSITY%20MEDICAL%20CTR%2CATTN%20CHIEF%20PHARMACIST%2C+CHICAGO%2C+IL+60612
RYAN PHARMACY,1600 FIRST STREET EAST,"INDEPENDENCE, IA 50644",http://maps.google.com/maps?q=RYAN%20PHARMACY%2C1600%20FIRST%20STREET%20EAST%2C+INDEPENDENCE%2C+IA+50644,
SCOTT PHARMACY,238 S MAIN,PO BOX 188,"FAYETTE, IA 52142",http://maps.google.com/maps?q=SCOTT%20PHARMACY%2C238%20S%20MAIN%2C+FAYETTE%2C+IA+52142
SCOTT'S THRIFTY WHITE DRUG,629 6TH AVE,"DE WITT, IA 52742",http://maps.google.com/maps?q=SCOTTS%20THRIFTY%20WHITE%20DRUG%2C629%206TH%20AVE%2C+DE%20WITT%2C+IA+52742,
ST AGNES HOSPITAL,DEPARTMENT OF PHARMACY,430 EAST DIVISION STREET,"FOND DU LAC, WI 54935",http://maps.google.com/maps?q=ST%20AGNES%20HOSPITAL%2CDEPARTMENT%20OF%20PHARMACY%2C+FOND%20DU%20LAC%2C+WI+54935
SYMBRIA RX SERVICES LLC,350 W. SCHAUMBURG ROAD,SUITE PWD,"SCHAUMBURG, IL 60194",http://maps.google.com/maps?q=SYMBRIA%20RX%20SERVICES%20LLC%2C350%20W.%20SCHAUMBURG%20ROAD%2C+SCHAUMBURG%2C+IL+60194
THIES LOMBARD PHARMACY INC,211 S MAIN ST,"LOMBARD, IL 60148",http://maps.google.com/maps?q=THIES%20LOMBARD%20PHARMACY%20INC%2C211%20S%20MAIN%20ST%2C+LOMBARD%2C+IL+60148,
THRIFTY WHITE PHARMACY #080,2720 SOUTH 163RD STREET,"NEW BERLIN, WI 53151",http://maps.google.com/maps?q=THRIFTY%20WHITE%20PHARMACY%2C2720%20SOUTH%20163RD%20STREET%2C+NEW%20BERLIN%2C+WI+53151,
THRIFTY WHITE PHARMACY #76,702 MONTGOMERY ST,"DECORAH, IA 52101",http://maps.google.com/maps?q=THRIFTY%20WHITE%20PHARMACY%2C702%20MONTGOMERY%20ST%2C+DECORAH%2C+IA+52101,
UNIVERSITY OF CHICAGO DCAM OUTPATIENT PHARMACY,5758 S. MARYLAND AVE.,MC0010,"CHICAGO, IL 60637",http://maps.google.com/maps?q=UNIVERSITY%20OF%20CHICAGO%20DCAM%20OUTPATIENT%20PHARMACY%2C5758%20S.%20MARYLAND%20AVE.%2C+CHICAGO%2C+IL+60637
UW HEALTH PHARMACY SERVICES,4602 EASTPARK BLVD,"MADISON, WI 53718",http://maps.google.com/maps?q=UW%20HEALTH%20PHARMACY%20SERVICES%2C4602%20EASTPARK%20BLVD%2C+MADISON%2C+WI+53718,
W ALLIS MEMORIAL HOSP INC,PHARMACY DEPT,8901 W LINCOLN AVENUE,"WEST ALLIS, WI 53227",http://maps.google.com/maps?q=W%20ALLIS%20MEMORIAL%20HOSP%20INC%2CPHARMACY%20DEPT%2C+WEST%20ALLIS%2C+WI+53227
WAGNER PHARMACY 1 CO,1726 N 2ND ST,"CLINTON, IA 52732",http://maps.google.com/maps?q=WAGNER%20PHARMACY%20%20CO%2C1726%20N%202ND%20ST%2C+CLINTON%2C+IA+52732,
WALGREEN CO.,1000 N ROSELLE RD,"HOFFMAN ESTATES, IL 60169",http://maps.google.com/maps?q=WALGREEN%20CO%2C1000%20N%20ROSELLE%20RD%2C+HOFFMAN%20ESTATES%2C+IL+60169,
WALGREEN CO.,1021 SUMMIT AVE.,"OCONOMOWOC, WI 53066",http://maps.google.com/maps?q=WALGREEN%20CO%2C1021%20SUMMIT%20AVE.%2C+OCONOMOWOC%2C+WI+53066,
WALGREEN CO.,1028 S ELMHURST ROAD,"MT PROSPECT, IL 60056",http://maps.google.com/maps?q=WALGREEN%20CO%2C1028%20S%20ELMHURST%20ROAD%2C+MT%20PROSPECT%2C+IL+60056,
WALGREEN CO.,1029 N 14TH ST,"SHEBOYGAN, WI 53081",http://maps.google.com/maps?q=WALGREEN%20CO%2C1029%20N%2014TH%20ST%2C+SHEBOYGAN%2C+WI+53081,
WALGREEN CO.,108 WILMOT RD.,"DEERFIELD, IL 60015",http://maps.google.com/maps?q=WALGREEN%20CO%2C108%20WILMOT%20RD.%2C+DEERFIELD%2C+IL+60015,
WALGREEN CO.,12000 PRINCETON DRIVE,"HUNTLEY, IL 60142",http://maps.google.com/maps?q=WALGREEN%20CO%2C12000%20PRINCETON%20DRIVE%2C+HUNTLEY%2C+IL+60142,
WALGREEN CO.,1340 DEKALB AVE,"SYCAMORE, IL 60178",http://maps.google.com/maps?q=WALGREEN%20CO%2C1340%20DEKALB%20AVE%2C+SYCAMORE%2C+IL+60178,
WALGREEN CO.,1403 WAUKEGAN RD,"GLENVIEW, IL 60025",http://maps.google.com/maps?q=WALGREEN%20CO%2C1403%20WAUKEGAN%20RD%2C+GLENVIEW%2C+IL+60025,
WALGREEN CO.,151 N. STATE ST.,"CHICAGO, IL 60601",http://maps.google.com/maps?q=WALGREEN%20CO%2C151%20N.%20STATE%20ST.%2C+CHICAGO%2C+IL+60601,
WALGREEN CO.,15650 W GREENFIELD AVE,"BROOKFIELD, WI 53005",http://maps.google.com/maps?q=WALGREEN%20CO%2C15650%20W%20GREENFIELD%20AVE%2C+BROOKFIELD%2C+WI+53005,
WALGREEN CO.,1700 LARKIN AVE,"ELGIN, IL 60123",http://maps.google.com/maps?q=WALGREEN%20CO%2C1700%20LARKIN%20AVE%2C+ELGIN%2C+IL+60123,
WALGREEN CO.,1717 MILTON AVENUE,"JANESVILLE, WI 53545",http://maps.google.com/maps?q=WALGREEN%20CO%2C1717%20MILTON%20AVENUE%2C+JANESVILLE%2C+WI+53545,
WALGREEN CO.,192 N MAIN STREET,"FOND DU LAC, WI 54935",http://maps.google.com/maps?q=WALGREEN%20CO%2C192%20N%20MAIN%20STREET%2C+FOND%20DU%20LAC%2C+WI+54935,
WALGREEN CO.,1921 S. MAIN ST.,"WEST BEND, WI 53095",http://maps.google.com/maps?q=WALGREEN%20CO%2C1921%20S.%20MAIN%20ST.%2C+WEST%20BEND%2C+WI+53095,
WALGREEN CO.,2001 N MILWAUKEE AVE,"CHICAGO, IL 60647",http://maps.google.com/maps?q=WALGREEN%20CO%2C2001%20N%20MILWAUKEE%20AVE%2C+CHICAGO%2C+IL+60647,
WALGREEN CO.,221 E SUNSET DR,"WAUKESHA, WI 53189",http://maps.google.com/maps?q=WALGREEN%20CO%2C221%20E%20SUNSET%20DR%2C+WAUKESHA%2C+WI+53189,
WALGREEN CO.,275 DAVISON DR,"SUN PRAIRIE, WI 53590",http://maps.google.com/maps?q=WALGREEN%20CO%2C275%20DAVISON%20DR%2C+SUN%20PRAIRIE%2C+WI+53590,
WALGREEN CO.,305 SOUTH EASTWOOD DR,"WOODSTOCK, IL 60098",http://maps.google.com/maps?q=WALGREEN%20CO%2C305%20SOUTH%20EASTWOOD%20DR%2C+WOODSTOCK%2C+IL+60098,
WALGREEN CO.,324 ROOSEVELT ROAD,"GLEN ELLYN, IL 60137",http://maps.google.com/maps?q=WALGREEN%20CO%2C324%20ROOSEVELT%20ROAD%2C+GLEN%20ELLYN%2C+IL+60137,
WALGREEN CO.,3351 W MAIN STREET,"ST CHARLES, IL 60175",http://maps.google.com/maps?q=WALGREEN%20CO%2C3351%20W%20MAIN%20STREET%2C+ST%20CHARLES%2C+IL+60175,
WALGREEN CO.,3405 S KING DR,"CHICAGO, IL 60616",http://maps.google.com/maps?q=WALGREEN%20CO%2C3405%20S%20KING%20DR%2C+CHICAGO%2C+IL+60616,
WALGREEN CO.,351 N EDWARDS BLVD,"LAKE GENEVA, WI 53147",http://maps.google.com/maps?q=WALGREEN%20CO%2C351%20N%20EDWARDS%20BLVD%2C+LAKE%20GENEVA%2C+WI+53147,
WALGREEN CO.,3522 W WISCONSIN,"MILWAUKEE, WI 53208",http://maps.google.com/maps?q=WALGREEN%20CO%2C3522%20W%20WISCONSIN%2C+MILWAUKEE%2C+WI+53208,
WALGREEN CO.,3701 S HOWELL AVE,"MILWAUKEE, WI 53207",http://maps.google.com/maps?q=WALGREEN%20CO%2C3701%20S%20HOWELL%20AVE%2C+MILWAUKEE%2C+WI+53207,
WALGREEN CO.,3710 E WASHINGTON AVE,"MADISON, WI 53704",http://maps.google.com/maps?q=WALGREEN%20CO%2C3710%20E%20WASHINGTON%20AVE%2C+MADISON%2C+WI+53704,
WALGREEN CO.,3805 80TH ST.,"KENOSHA, WI 53142",http://maps.google.com/maps?q=WALGREEN%20CO%2C3805%2080TH%20ST.%2C+KENOSHA%2C+WI+53142,
WALGREEN CO.,3945 DEMPSTER ST,"SKOKIE, IL 60076",http://maps.google.com/maps?q=WALGREEN%20CO%2C3945%20DEMPSTER%20ST%2C+SKOKIE%2C+IL+60076,
WALGREEN CO.,4010 W LAWRENCE AVE,"CHICAGO, IL 60630",http://maps.google.com/maps?q=WALGREEN%20CO%2C4010%20W%20LAWRENCE%20AVE%2C+CHICAGO%2C+IL+60630,
WALGREEN CO.,4296 S 76TH STREET,"GREENFIELD, WI 53220",http://maps.google.com/maps?q=WALGREEN%20CO%2C4296%20S%2076TH%20STREET%2C+GREENFIELD%2C+WI+53220,
WALGREEN CO.,4800 W CERMAK RD,"CICERO, IL 60804",http://maps.google.com/maps?q=WALGREEN%20CO%2C4800%20W%20CERMAK%20RD%2C+CICERO%2C+IL+60804,
WALGREEN CO.,4810 WASHINGTON AVE,"RACINE, WI 53406",http://maps.google.com/maps?q=WALGREEN%20CO%2C4810%20WASHINGTON%20AVE%2C+RACINE%2C+WI+53406,
WALGREEN CO.,4820 N CUMBERLAND AVE,"NORRIDGE, IL 60706",http://maps.google.com/maps?q=WALGREEN%20CO%2C4820%20N%20CUMBERLAND%20AVE%2C+NORRIDGE%2C+IL+60706,
WALGREEN CO.,5005 DOUGLAS AVE,"RACINE, WI 53402",http://maps.google.com/maps?q=WALGREEN%20CO%2C5005%20DOUGLAS%20AVE%2C+RACINE%2C+WI+53402,
WALGREEN CO.,5065 HONONEGAH RD,"ROSCOE, IL 61073",http://maps.google.com/maps?q=WALGREEN%20CO%2C5065%20HONONEGAH%20RD%2C+ROSCOE%2C+IL+61073,
WALGREEN CO.,55 J F KENNEDY RD,"DUBUQUE, IA 52002",http://maps.google.com/maps?q=WALGREEN%20CO%2C55%20J%20F%20KENNEDY%20RD%2C+DUBUQUE%2C+IA+52002,
WALGREEN CO.,606 S WHITNEY WAY,"MADISON, WI 53711",http://maps.google.com/maps?q=WALGREEN%20CO%2C606%20S%20WHITNEY%20WAY%2C+MADISON%2C+WI+53711,
WALGREEN CO.,6442 N 76TH STREET,"MILWAUKEE, WI 53223",http://maps.google.com/maps?q=WALGREEN%20CO%2C6442%20N%2076TH%20STREET%2C+MILWAUKEE%2C+WI+53223,
WALGREEN CO.,7113 CERMAK RD,"BERWYN, IL 60402",http://maps.google.com/maps?q=WALGREEN%20CO%2C7113%20CERMAK%20RD%2C+BERWYN%2C+IL+60402,
WALGREEN CO.,7200 W. NORTH AVE.,"ELMWOOD PARK, IL 60707",http://maps.google.com/maps?q=WALGREEN%20CO%2C7200%20W.%20NORTH%20AVE.%2C+ELMWOOD%20PARK%2C+IL+60707,
WALGREEN CO.,7600 W CAPITOL DRIVE,"MILWAUKEE, WI 53222",http://maps.google.com/maps?q=WALGREEN%20CO%2C7600%20W%20CAPITOL%20DRIVE%2C+MILWAUKEE%2C+WI+53222,
WALGREEN CO.,7810 MINERAL POINT RD,"MADISON, WI 53717",http://maps.google.com/maps?q=WALGREEN%20CO%2C7810%20MINERAL%20POINT%20RD%2C+MADISON%2C+WI+53717,
WALGREEN CO.,900 WEST AVE S,"LA CROSSE, WI 54601",http://maps.google.com/maps?q=WALGREEN%20CO%2C900%20WEST%20AVE%20S%2C+LA%20CROSSE%2C+WI+54601,
WALGREEN CO.,950 S KOELLER ST,"OSHKOSH, WI 54902",http://maps.google.com/maps?q=WALGREEN%20CO%2C950%20S%20KOELLER%20ST%2C+OSHKOSH%2C+WI+54902,
WALGREEN CO.,N83W15701 APPLETON AVE,"MENOMONEE FALLS, WI 53051",http://maps.google.com/maps?q=WALGREEN%20CO%2CN83W15701%20APPLETON%20AVE%2C+MENOMONEE%20FALLS%2C+WI+53051,
"WATERTOWN MEDICAL CENTER, LLC",125 HOSPITAL DRIVE,"WATERTOWN, WI 53098",http://maps.google.com/maps?q=WATERTOWN%20MEDICAL%20CENTER%20LLC%2C125%20HOSPITAL%20DRIVE%2C+WATERTOWN%2C+WI+53098,
WAUKESHA HEALTH SERVICES,725 AMERICAN AVE,"WAUKESHA, WI 53188",http://maps.google.com/maps?q=WAUKESHA%20HEALTH%20SERVICES%2C725%20AMERICAN%20AVE%2C+WAUKESHA%2C+WI+53188,
WAUPUN MEMORIAL HOSPITAL,620 W. BROWN,"WAUPUN, WI 53963",http://maps.google.com/maps?q=WAUPUN%20MEMORIAL%20HOSPITAL%2C620%20W.%20BROWN%2C+WAUPUN%2C+WI+53963,
"WISCONSIN CVS PHARMACY, L.L.C.",7550 W. PERKINS PLACE,"MILWAUKEE, WI 53216",http://maps.google.com/maps?q=WISCONSIN%20CVS%20PHARMACY%20LLC%2C7550%20W.%20PERKINS%20PLACE%2C+MILWAUKEE%2C+WI+53216,
