Business Name,Address 1,Address 2,"City, State Zip",Map URL
"BOND DRUG COMPANY OF ILLINOIS, L.L.C.",401 BELTLINE,"COLLINSVILLE, IL 62234",http://maps.google.com/maps?q=BOND%20DRUG%20COMPANY%20OF%20ILLINOIS%20LLC%2C401%20BELTLINE%2C+COLLINSVILLE%2C+IL+62234,
"BOND DRUG COMPANY OF ILLINOIS, L.L.C.",5890 NORTH BELT WEST,"BELLEVILLE, IL 62226",http://maps.google.com/maps?q=BOND%20DRUG%20COMPANY%20OF%20ILLINOIS%20LLC%2C5890%20NORTH%20BELT%20WEST%2C+BELLEVILLE%2C+IL+62226,
BRIGHTON PHARMACY,908 N MAIN ST,PO BOX 788,"BRIGHTON, IL 62012",http://maps.google.com/maps?q=BRIGHTON%20PHARMACY%2C908%20N%20MAIN%20ST%2C+BRIGHTON%2C+IL+62012
COPPER BEND PHARMACY INC,2900 FRANK SCOTT PARKWAY WEST,SUITE 920-B,"BELLEVILLE, IL 62223",http://maps.google.com/maps?q=COPPER%20BEND%20PHARMACY%20INC%2C2900%20FRANK%20SCOTT%20PARKWAY%20WEST%2C+BELLEVILLE%2C+IL+62223
DAUBER PHARMACY,16 EAST MAIN ST,"MASCOUTAH, IL 62258",http://maps.google.com/maps?q=DAUBER%20PHARMACY%2C16%20EAST%20MAIN%20ST%2C+MASCOUTAH%2C+IL+62258,
DBA NUCARA PHARMACY #16,107 W MAIN ST,NUDAK VENTURES LLC,"OTTUMWA, IA 52501",http://maps.google.com/maps?q=DBA%20NUCARA%20PHARMACY%2C107%20W%20MAIN%20ST%2C+OTTUMWA%2C+IA+52501
DOEHRINGS PHARMACY,143 S WASHINGTON ST,"NASHVILLE, IL 62263",http://maps.google.com/maps?q=DOEHRINGS%20PHARMACY%2C143%20S%20WASHINGTON%20ST%2C+NASHVILLE%2C+IL+62263,
HARRY'S PHARMACY,620 E JACKSON ST,"AUBURN, IL 62615",http://maps.google.com/maps?q=HARRYS%20PHARMACY%2C620%20E%20JACKSON%20ST%2C+AUBURN%2C+IL+62615,
HERITAGE FAMILY PHARMACY,1201 W AGENCY ROAD,"WEST BURLINGTON, IA 52655",http://maps.google.com/maps?q=HERITAGE%20FAMILY%20PHARMACY%2C1201%20W%20AGENCY%20ROAD%2C+WEST%20BURLINGTON%2C+IA+52655,
"HIGHLAND PARK CVS, L.L.C.",1 WEST EDWARDSVILLE ROAD,"WOOD RIVER, IL 62095",http://maps.google.com/maps?q=HIGHLAND%20PARK%20CVS%20LLC%2C1%20WEST%20EDWARDSVILLE%20ROAD%2C+WOOD%20RIVER%2C+IL+62095,
"HIGHLAND PARK CVS, L.L.C.",2422 COLLEGE AVE.,"ALTON, IL 62002",http://maps.google.com/maps?q=HIGHLAND%20PARK%20CVS%20LLC%2C2422%20COLLEGE%20AVE.%2C+ALTON%2C+IL+62002,
"HIGHLAND PARK CVS, L.L.C.",2701 GODFREY RD,"GODFREY, IL 62035",http://maps.google.com/maps?q=HIGHLAND%20PARK%20CVS%20LLC%2C2701%20GODFREY%20RD%2C+GODFREY%2C+IL+62035,
"HIGHLAND PARK CVS, L.L.C.",3319 NAMEOKI RD.,"GRANITE CITY, IL 62040",http://maps.google.com/maps?q=HIGHLAND%20PARK%20CVS%20LLC%2C3319%20NAMEOKI%20RD.%2C+GRANITE%20CITY%2C+IL+62040,
"HIGHLAND PARK CVS, L.L.C.",436 NORTH 30TH STREET,"QUINCY, IL 62301",http://maps.google.com/maps?q=HIGHLAND%20PARK%20CVS%20LLC%2C436%20NORTH%2030TH%20STREET%2C+QUINCY%2C+IL+62301,
"HIGHLAND PARK CVS, L.L.C.",4609 W. MAIN ST.,"BELLEVILLE, IL 62226",http://maps.google.com/maps?q=HIGHLAND%20PARK%20CVS%20LLC%2C4609%20W.%20MAIN%20ST.%2C+BELLEVILLE%2C+IL+62226,
"HIGHLAND PARK CVS, L.L.C.",506 EAST MAIN STREET,"STAUNTON, IL 62088",http://maps.google.com/maps?q=HIGHLAND%20PARK%20CVS%20LLC%2C506%20EAST%20MAIN%20STREET%2C+STAUNTON%2C+IL+62088,
"HIGHLAND PARK CVS, L.L.C.",753 W HWY 50,"O'FALLON, IL 62269",http://maps.google.com/maps?q=HIGHLAND%20PARK%20CVS%20LLC%2C753%20W%20HWY%2050%2C+O'FALLON%2C+IL+62269,
HY-VEE PHARMACY #1180,1300 WEST BURLINGTON AVENUE,"FAIRFIELD, IA 52556",http://maps.google.com/maps?q=HYVEE%20PHARMACY%2C1300%20WEST%20BURLINGTON%20AVENUE%2C+FAIRFIELD%2C+IA+52556,
HY-VEE PHARMACY (1202),"2606 ""L"" AVE","FORT MADISON, IA 52627",http://maps.google.com/maps?q=HYVEE%20PHARMACY%2C2606%20%22L%22%20AVE%2C+FORT%20MADISON%2C+IA+52627,
ILLINI COMMUNITY HOSPITAL,640 W WASHINGTON,"PITTSFIELD, IL 62363",http://maps.google.com/maps?q=ILLINI%20COMMUNITY%20HOSPITAL%2C640%20W%20WASHINGTON%2C+PITTSFIELD%2C+IL+62363,
JAC STORES,105 EAST JACKSON STREET,PO BOX 228,"VIRDEN, IL 62690",http://maps.google.com/maps?q=JAC%20STORES%2C105%20EAST%20JACKSON%20STREET%2C+VIRDEN%2C+IL+62690
JAC STORES,DBA SAV-MOR DRUG,110 EAST STATE,"NOKOMIS, IL 62075",http://maps.google.com/maps?q=JAC%20STORES%2CDBA%20SAV-MOR%20DRUG%2C+NOKOMIS%2C+IL+62075
KHOURY PHARMACY,101 N. MAIN,"COLUMBIA, IL 62236",http://maps.google.com/maps?q=KHOURY%20PHARMACY%2C101%20N.%20MAIN%2C+COLUMBIA%2C+IL+62236,
"MICHELLE'S PHARMACY, INC",274 N BROAD,"CARLINVILLE, IL 62626",http://maps.google.com/maps?q=MICHELLES%20PHARMACY%20INC%2C274%20N%20BROAD%2C+CARLINVILLE%2C+IL+62626,
MILLSTADT PHARMACY,120 W. WASHINGTON,"MILLSTADT, IL 62260",http://maps.google.com/maps?q=MILLSTADT%20PHARMACY%2C120%20W.%20WASHINGTON%2C+MILLSTADT%2C+IL+62260,
MONROE COUNTY HOSPITAL,6580 165TH STREET,"ALBIA, IA 52531",http://maps.google.com/maps?q=MONROE%20COUNTY%20HOSPITAL%2C6580%20165TH%20STREET%2C+ALBIA%2C+IA+52531,
MOODY HEALTH MART PHARMACY,109 E BROADWAY,"SPARTA, IL 62286",http://maps.google.com/maps?q=MOODY%20HEALTH%20MART%20PHARMACY%2C109%20E%20BROADWAY%2C+SPARTA%2C+IL+62286,
NUDAK VENTURES LLC,2000 D SOUTH MAIN STREET,PO BOX 1027,"FAIRFIELD, IA 52556",http://maps.google.com/maps?q=NUDAK%20VENTURES%20LLC%2C2000%20D%20SOUTH%20MAIN%20STREET%2C+FAIRFIELD%2C+IA+52556
OSF HEALTHCARE SYSTEM D/B/A ST. ANTHONY'S HEALTH C,#1 SAINT ANTHONY'S WAY,"ALTON, IL 62002",http://maps.google.com/maps?q=OSF%20HEALTHCARE%20SYSTEM%20DBA%20ST%20ANTHONYS%20HEALTH%20C%2C#1%20SAINT%20ANTHONY'S%20WAY%2C+ALTON%2C+IL+62002,
OSF HOLY FAMILY MEDICAL CENTER,1000 WEST HARLEM AVENUE,"MONMOUTH, IL 61462",http://maps.google.com/maps?q=OSF%20HOLY%20FAMILY%20MEDICAL%20CENTER%2C1000%20WEST%20HARLEM%20AVENUE%2C+MONMOUTH%2C+IL+61462,
PHARMACY PLUS INC,508 NORTH MAIN,"CARROLLTON, IL 62016",http://maps.google.com/maps?q=PHARMACY%20PLUS%20INC%2C508%20NORTH%20MAIN%2C+CARROLLTON%2C+IL+62016,
"PHARMACY PLUS, INC.",116 N. MAIN,"WHITE HALL, IL 62092",http://maps.google.com/maps?q=PHARMACY%20PLUS%20INC%2C116%20N.%20MAIN%2C+WHITE%20HALL%2C+IL+62092,
"PHARMACY PLUS, INC.",41 S MAIN,"WINCHESTER, IL 62694",http://maps.google.com/maps?q=PHARMACY%20PLUS%20INC%2C41%20S%20MAIN%2C+WINCHESTER%2C+IL+62694,
"PHARMACY PLUS, INC.",693 BAINBRIDGE ST,"BARRY, IL 62312",http://maps.google.com/maps?q=PHARMACY%20PLUS%20INC%2C693%20BAINBRIDGE%20ST%2C+BARRY%2C+IL+62312,
SHOPKO PHARMACY #2684,106 SMITH ST,"BLOOMFIELD, IA 52537",http://maps.google.com/maps?q=SHOPKO%20PHARMACY%2C106%20SMITH%20ST%2C+BLOOMFIELD%2C+IA+52537,
SULLIVAN DRUG CO,101 E MAIN ST,"STAUNTON, IL 62088",http://maps.google.com/maps?q=SULLIVAN%20DRUG%20CO%2C101%20E%20MAIN%20ST%2C+STAUNTON%2C+IL+62088,
USAF- SCOTT AFB MEDICAL CENTER,310 W. LOSEY BLDG 1530,CLINIC PHARMACY,"SCOTT AFB, IL 62225",http://maps.google.com/maps?q=USAF%20SCOTT%20AFB%20MEDICAL%20CENTER%2C310%20W.%20LOSEY%20BLDG%201530%2C+SCOTT%20AFB%2C+IL+62225
WALGREEN CO.,2 COTTONWOOD RD,"GLEN CARBON, IL 62034",http://maps.google.com/maps?q=WALGREEN%20CO%2C2%20COTTONWOOD%20RD%2C+GLEN%20CARBON%2C+IL+62034,
