Business Name,Address 1,Address 2,"City, State Zip",Map URL
"ARMITAGE PHARMACY, INC.",3650 W ARMITAGE AVE,"CHICAGO, IL 60647",http://maps.google.com/maps?q=ARMITAGE%20PHARMACY%20INC%2C3650%20W%20ARMITAGE%20AVE%2C+CHICAGO%2C+IL+60647,
BELOIT HEALTH SYSTEM,1969 WEST HART RD,"BELOIT, WI 53511",http://maps.google.com/maps?q=BELOIT%20HEALTH%20SYSTEM%2C1969%20WEST%20HART%20RD%2C+BELOIT%2C+WI+53511,
"BOND DRUG COMPANY OF ILLINOIS, L.L.C.",10 N. MILWAUKEE AVE.,"WHEELING, IL 60090",http://maps.google.com/maps?q=BOND%20DRUG%20COMPANY%20OF%20ILLINOIS%20LLC%2C10%20N.%20MILWAUKEE%20AVE.%2C+WHEELING%2C+IL+60090,
"BOND DRUG COMPANY OF ILLINOIS, L.L.C.",1000 OGDEN AVENUE,"DOWNERS GROVE, IL 60515",http://maps.google.com/maps?q=BOND%20DRUG%20COMPANY%20OF%20ILLINOIS%20LLC%2C1000%20OGDEN%20AVENUE%2C+DOWNERS%20GROVE%2C+IL+60515,
"BOND DRUG COMPANY OF ILLINOIS, L.L.C.",101 LILY CACHE LANE,"BOLINGBROOK, IL 60440",http://maps.google.com/maps?q=BOND%20DRUG%20COMPANY%20OF%20ILLINOIS%20LLC%2C101%20LILY%20CACHE%20LANE%2C+BOLINGBROOK%2C+IL+60440,
"BOND DRUG COMPANY OF ILLINOIS, L.L.C.",111 S. HALSTED STREET,"CHICAGO, IL 60661",http://maps.google.com/maps?q=BOND%20DRUG%20COMPANY%20OF%20ILLINOIS%20LLC%2C111%20S.%20HALSTED%20STREET%2C+CHICAGO%2C+IL+60661,
"BOND DRUG COMPANY OF ILLINOIS, L.L.C.",1470 S MILWAUKEE AVE,"LIBERTYVILLE, IL 60048",http://maps.google.com/maps?q=BOND%20DRUG%20COMPANY%20OF%20ILLINOIS%20LLC%2C1470%20S%20MILWAUKEE%20AVE%2C+LIBERTYVILLE%2C+IL+60048,
"BOND DRUG COMPANY OF ILLINOIS, L.L.C.",15 N BUFFALO GROVE RD,"BUFFALO GROVE, IL 60089",http://maps.google.com/maps?q=BOND%20DRUG%20COMPANY%20OF%20ILLINOIS%20LLC%2C15%20N%20BUFFALO%20GROVE%20RD%2C+BUFFALO%20GROVE%2C+IL+60089,
"BOND DRUG COMPANY OF ILLINOIS, L.L.C.",1525 N VETERANS PKWY,"BLOOMINGTON, IL 61704",http://maps.google.com/maps?q=BOND%20DRUG%20COMPANY%20OF%20ILLINOIS%20LLC%2C1525%20N%20VETERANS%20PKWY%2C+BLOOMINGTON%2C+IL+61704,
"BOND DRUG COMPANY OF ILLINOIS, L.L.C.",1633 W. 95TH STREET,"CHICAGO, IL 60643",http://maps.google.com/maps?q=BOND%20DRUG%20COMPANY%20OF%20ILLINOIS%20LLC%2C1633%20W.%2095TH%20STREET%2C+CHICAGO%2C+IL+60643,
"BOND DRUG COMPANY OF ILLINOIS, L.L.C.",1799 DOUGLAS RD,"MONTGOMERY, IL 60538",http://maps.google.com/maps?q=BOND%20DRUG%20COMPANY%20OF%20ILLINOIS%20LLC%2C1799%20DOUGLAS%20RD%2C+MONTGOMERY%2C+IL+60538,
"BOND DRUG COMPANY OF ILLINOIS, L.L.C.",1801 INGALLS AVE,"JOLIET, IL 60435",http://maps.google.com/maps?q=BOND%20DRUG%20COMPANY%20OF%20ILLINOIS%20LLC%2C1801%20INGALLS%20AVE%2C+JOLIET%2C+IL+60435,
"BOND DRUG COMPANY OF ILLINOIS, L.L.C.",1811 BELVIDERE RD,"WAUKEGAN, IL 60085",http://maps.google.com/maps?q=BOND%20DRUG%20COMPANY%20OF%20ILLINOIS%20LLC%2C1811%20BELVIDERE%20RD%2C+WAUKEGAN%2C+IL+60085,
"BOND DRUG COMPANY OF ILLINOIS, L.L.C.",1931 W CERMAK RD,"CHICAGO, IL 60608",http://maps.google.com/maps?q=BOND%20DRUG%20COMPANY%20OF%20ILLINOIS%20LLC%2C1931%20W%20CERMAK%20RD%2C+CHICAGO%2C+IL+60608,
"BOND DRUG COMPANY OF ILLINOIS, L.L.C.",200 E ROOSEVELT,"VILLA PARK, IL 60181",http://maps.google.com/maps?q=BOND%20DRUG%20COMPANY%20OF%20ILLINOIS%20LLC%2C200%20E%20ROOSEVELT%2C+VILLA%20PARK%2C+IL+60181,
"BOND DRUG COMPANY OF ILLINOIS, L.L.C.",20002 WOLF RD,"MOKENA, IL 60448",http://maps.google.com/maps?q=BOND%20DRUG%20COMPANY%20OF%20ILLINOIS%20LLC%2C20002%20WOLF%20RD%2C+MOKENA%2C+IL+60448,
"BOND DRUG COMPANY OF ILLINOIS, L.L.C.",2020 COURT STREET,"PEKIN, IL 61554",http://maps.google.com/maps?q=BOND%20DRUG%20COMPANY%20OF%20ILLINOIS%20LLC%2C2020%20COURT%20STREET%2C+PEKIN%2C+IL+61554,
"BOND DRUG COMPANY OF ILLINOIS, L.L.C.",20950 GOVERNORS HWY.,"OLYMPIA FIELDS, IL 60461",http://maps.google.com/maps?q=BOND%20DRUG%20COMPANY%20OF%20ILLINOIS%20LLC%2C20950%20GOVERNORS%20HWY.%2C+OLYMPIA%20FIELDS%2C+IL+60461,
"BOND DRUG COMPANY OF ILLINOIS, L.L.C.",2323 CHARLES STREET,"ROCKFORD, IL 61104",http://maps.google.com/maps?q=BOND%20DRUG%20COMPANY%20OF%20ILLINOIS%20LLC%2C2323%20CHARLES%20STREET%2C+ROCKFORD%2C+IL+61104,
"BOND DRUG COMPANY OF ILLINOIS, L.L.C.",2560 W GOLF RD,"HOFFMAN ESTATES, IL 60169",http://maps.google.com/maps?q=BOND%20DRUG%20COMPANY%20OF%20ILLINOIS%20LLC%2C2560%20W%20GOLF%20RD%2C+HOFFMAN%20ESTATES%2C+IL+60169,
"BOND DRUG COMPANY OF ILLINOIS, L.L.C.",3035 BOOK RD,"NAPERVILLE, IL 60564",http://maps.google.com/maps?q=BOND%20DRUG%20COMPANY%20OF%20ILLINOIS%20LLC%2C3035%20BOOK%20RD%2C+NAPERVILLE%2C+IL+60564,
"BOND DRUG COMPANY OF ILLINOIS, L.L.C.",3153 W IRVING PARK RD,"CHICAGO, IL 60618",http://maps.google.com/maps?q=BOND%20DRUG%20COMPANY%20OF%20ILLINOIS%20LLC%2C3153%20W%20IRVING%20PARK%20RD%2C+CHICAGO%2C+IL+60618,
"BOND DRUG COMPANY OF ILLINOIS, L.L.C.",3201 N. BROADWAY ST.,"CHICAGO, IL 60657",http://maps.google.com/maps?q=BOND%20DRUG%20COMPANY%20OF%20ILLINOIS%20LLC%2C3201%20N.%20BROADWAY%20ST.%2C+CHICAGO%2C+IL+60657,
"BOND DRUG COMPANY OF ILLINOIS, L.L.C.",3564 RIDGE RD,"LANSING, IL 60438",http://maps.google.com/maps?q=BOND%20DRUG%20COMPANY%20OF%20ILLINOIS%20LLC%2C3564%20RIDGE%20RD%2C+LANSING%2C+IL+60438,
"BOND DRUG COMPANY OF ILLINOIS, L.L.C.",3925 W ELM STREET,"MCHENRY, IL 60050",http://maps.google.com/maps?q=BOND%20DRUG%20COMPANY%20OF%20ILLINOIS%20LLC%2C3925%20W%20ELM%20STREET%2C+MCHENRY%2C+IL+60050,
"BOND DRUG COMPANY OF ILLINOIS, L.L.C.",4343 N CENTRAL AVE,"CHICAGO, IL 60634",http://maps.google.com/maps?q=BOND%20DRUG%20COMPANY%20OF%20ILLINOIS%20LLC%2C4343%20N%20CENTRAL%20AVE%2C+CHICAGO%2C+IL+60634,
"BOND DRUG COMPANY OF ILLINOIS, L.L.C.",466 NELSON ROAD,"NEW LENOX, IL 60451",http://maps.google.com/maps?q=BOND%20DRUG%20COMPANY%20OF%20ILLINOIS%20LLC%2C466%20NELSON%20ROAD%2C+NEW%20LENOX%2C+IL+60451,
"BOND DRUG COMPANY OF ILLINOIS, L.L.C.",4748 W NORTH AVE,"CHICAGO, IL 60639",http://maps.google.com/maps?q=BOND%20DRUG%20COMPANY%20OF%20ILLINOIS%20LLC%2C4748%20W%20NORTH%20AVE%2C+CHICAGO%2C+IL+60639,
"BOND DRUG COMPANY OF ILLINOIS, L.L.C.",4800 148TH STREET,"MIDLOTHIAN, IL 60445",http://maps.google.com/maps?q=BOND%20DRUG%20COMPANY%20OF%20ILLINOIS%20LLC%2C4800%20148TH%20STREET%2C+MIDLOTHIAN%2C+IL+60445,
"BOND DRUG COMPANY OF ILLINOIS, L.L.C.",501 W ROOSEVELT RD,"CHICAGO, IL 60607",http://maps.google.com/maps?q=BOND%20DRUG%20COMPANY%20OF%20ILLINOIS%20LLC%2C501%20W%20ROOSEVELT%20RD%2C+CHICAGO%2C+IL+60607,
"BOND DRUG COMPANY OF ILLINOIS, L.L.C.",5435 S KEDZIE AVE,"CHICAGO, IL 60632",http://maps.google.com/maps?q=BOND%20DRUG%20COMPANY%20OF%20ILLINOIS%20LLC%2C5435%20S%20KEDZIE%20AVE%2C+CHICAGO%2C+IL+60632,
"BOND DRUG COMPANY OF ILLINOIS, L.L.C.",5600 W. FULLERTON,"CHICAGO, IL 60639",http://maps.google.com/maps?q=BOND%20DRUG%20COMPANY%20OF%20ILLINOIS%20LLC%2C5600%20W.%20FULLERTON%2C+CHICAGO%2C+IL+60639,
"BOND DRUG COMPANY OF ILLINOIS, L.L.C.",5625 N. RIDGE AVE,"CHICAGO, IL 60660",http://maps.google.com/maps?q=BOND%20DRUG%20COMPANY%20OF%20ILLINOIS%20LLC%2C5625%20N.%20RIDGE%20AVE%2C+CHICAGO%2C+IL+60660,
"BOND DRUG COMPANY OF ILLINOIS, L.L.C.",6 E NORTH AVE,"NORTHLAKE, IL 60164",http://maps.google.com/maps?q=BOND%20DRUG%20COMPANY%20OF%20ILLINOIS%20LLC%2C6%20E%20NORTH%20AVE%2C+NORTHLAKE%2C+IL+60164,
"BOND DRUG COMPANY OF ILLINOIS, L.L.C.",612 RAYMOND DR,"NAPERVILLE, IL 60563",http://maps.google.com/maps?q=BOND%20DRUG%20COMPANY%20OF%20ILLINOIS%20LLC%2C612%20RAYMOND%20DR%2C+NAPERVILLE%2C+IL+60563,
"BOND DRUG COMPANY OF ILLINOIS, L.L.C.",63 WEST 87TH ST,"NAPERVILLE, IL 60565",http://maps.google.com/maps?q=BOND%20DRUG%20COMPANY%20OF%20ILLINOIS%20LLC%2C63%20WEST%2087TH%20ST%2C+NAPERVILLE%2C+IL+60565,
"BOND DRUG COMPANY OF ILLINOIS, L.L.C.",641 N CLARK ST,"CHICAGO, IL 60654",http://maps.google.com/maps?q=BOND%20DRUG%20COMPANY%20OF%20ILLINOIS%20LLC%2C641%20N%20CLARK%20ST%2C+CHICAGO%2C+IL+60654,
"BOND DRUG COMPANY OF ILLINOIS, L.L.C.",655 ELM,"HIGHLAND PARK, IL 60035",http://maps.google.com/maps?q=BOND%20DRUG%20COMPANY%20OF%20ILLINOIS%20LLC%2C655%20ELM%2C+HIGHLAND%20PARK%2C+IL+60035,
"BOND DRUG COMPANY OF ILLINOIS, L.L.C.",709 N. GREEN BAY ROAD,"WAUKEGAN, IL 60085",http://maps.google.com/maps?q=BOND%20DRUG%20COMPANY%20OF%20ILLINOIS%20LLC%2C709%20N.%20GREEN%20BAY%20ROAD%2C+WAUKEGAN%2C+IL+60085,
"BOND DRUG COMPANY OF ILLINOIS, L.L.C.",7251 LAKE STREET,"RIVER FOREST, IL 60305",http://maps.google.com/maps?q=BOND%20DRUG%20COMPANY%20OF%20ILLINOIS%20LLC%2C7251%20LAKE%20STREET%2C+RIVER%20FOREST%2C+IL+60305,
"BOND DRUG COMPANY OF ILLINOIS, L.L.C.",7350 BARRINGTON RD.,"HANOVER PARK, IL 60133",http://maps.google.com/maps?q=BOND%20DRUG%20COMPANY%20OF%20ILLINOIS%20LLC%2C7350%20BARRINGTON%20RD.%2C+HANOVER%20PARK%2C+IL+60133,
"BOND DRUG COMPANY OF ILLINOIS, L.L.C.",7501 GRAND AVE.,"GURNEE, IL 60031",http://maps.google.com/maps?q=BOND%20DRUG%20COMPANY%20OF%20ILLINOIS%20LLC%2C7501%20GRAND%20AVE.%2C+GURNEE%2C+IL+60031,
"BOND DRUG COMPANY OF ILLINOIS, L.L.C.",780 WAUKEGAN RD,"DEERFIELD, IL 60015",http://maps.google.com/maps?q=BOND%20DRUG%20COMPANY%20OF%20ILLINOIS%20LLC%2C780%20WAUKEGAN%20RD%2C+DEERFIELD%2C+IL+60015,
"BOND DRUG COMPANY OF ILLINOIS, L.L.C.",811 MADISON ST,"OAK PARK, IL 60302",http://maps.google.com/maps?q=BOND%20DRUG%20COMPANY%20OF%20ILLINOIS%20LLC%2C811%20MADISON%20ST%2C+OAK%20PARK%2C+IL+60302,
"BOND DRUG COMPANY OF ILLINOIS, L.L.C.",9000 N. GREENWOOD AVE,"NILES, IL 60714",http://maps.google.com/maps?q=BOND%20DRUG%20COMPANY%20OF%20ILLINOIS%20LLC%2C9000%20N.%20GREENWOOD%20AVE%2C+NILES%2C+IL+60714,
"BOND DRUG COMPANY OF ILLINOIS, L.L.C.",910 NORTH RAND RD.,"LAKE ZURICH, IL 60047",http://maps.google.com/maps?q=BOND%20DRUG%20COMPANY%20OF%20ILLINOIS%20LLC%2C910%20NORTH%20RAND%20RD.%2C+LAKE%20ZURICH%2C+IL+60047,
CAPT. JAMES A. LOVELL FEDERAL HEALTH CARE CENTER,2410 SAMPSON STREET,BLDG 237 (PHARMACY DEPARTMENT),"GREAT LAKES, IL 60088",http://maps.google.com/maps?q=CAPT%20JAMES%20A%20LOVELL%20FEDERAL%20HEALTH%20CARE%20CENTER%2C2410%20SAMPSON%20STREET%2C+GREAT%20LAKES%2C+IL+60088
CAPT. JAMES A. LOVELL FEDERAL HEALTH CARE CENTER,2430 ILLINOIS STREET,BLDG 1007 (PHARMACY DEPARTMENT),"GREAT LAKES, IL 60088",http://maps.google.com/maps?q=CAPT%20JAMES%20A%20LOVELL%20FEDERAL%20HEALTH%20CARE%20CENTER%2C2430%20ILLINOIS%20STREET%2C+GREAT%20LAKES%2C+IL+60088
CAPT. JAMES A. LOVELL FEDERAL HEALTH CARE CENTER,2630 GREEN BAY ROAD,BLDG 3452 (PHARMACY DEPARTMENT),"GREAT LAKES, IL 60088",http://maps.google.com/maps?q=CAPT%20JAMES%20A%20LOVELL%20FEDERAL%20HEALTH%20CARE%20CENTER%2C2630%20GREEN%20BAY%20ROAD%2C+GREAT%20LAKES%2C+IL+60088
CAPT. JAMES A. LOVELL FEDERAL HEALTH CARE CENTER,3440 OHIO STREET,BLDG 1017 (PHARMACY DEPARTMENT),"GREAT LAKES, IL 60088",http://maps.google.com/maps?q=CAPT%20JAMES%20A%20LOVELL%20FEDERAL%20HEALTH%20CARE%20CENTER%2C3440%20OHIO%20STREET%2C+GREAT%20LAKES%2C+IL+60088
"CARECENTER PHARMACY, L.L.C.","2775 SANDERS RD., STE C1","NORTHBROOK, IL 60062",http://maps.google.com/maps?q=CARECENTER%20PHARMACY%20LLC%2C2775%20SANDERS%20RD.%2C%20STE%20C1%2C+NORTHBROOK%2C+IL+60062,
CGH MEDICAL CENTER,100 EAST LEFEVRE RD,"STERLING, IL 61081",http://maps.google.com/maps?q=CGH%20MEDICAL%20CENTER%2C100%20EAST%20LEFEVRE%20RD%2C+STERLING%2C+IL+61081,
DOUGLAS & OGDEN MED CTR PHAR,DBA DOUGLAS-MAIN PHARMACY,5207 MAIN ST STE#102,"DOWNERS GROVE, IL 60515",http://maps.google.com/maps?q=DOUGLAS%20%20OGDEN%20MED%20CTR%20PHAR%2CDBA%20DOUGLAS-MAIN%20PHARMACY%2C+DOWNERS%20GROVE%2C+IL+60515
EDWARD HOSPITAL,801 SOUTH WASHINGTON ST.,"NAPERVILLE, IL 60540",http://maps.google.com/maps?q=EDWARD%20HOSPITAL%2C801%20SOUTH%20WASHINGTON%20ST.%2C+NAPERVILLE%2C+IL+60540,
ELMHURST MEMORIAL HOSPITAL,155 EAST BRUSH HILL ROAD,RM. DL 380,"ELMHURST, IL 60126",http://maps.google.com/maps?q=ELMHURST%20MEMORIAL%20HOSPITAL%2C155%20EAST%20BRUSH%20HILL%20ROAD%2C+ELMHURST%2C+IL+60126
"FARLAND PHARMACY, INC.",2 NORTH CASS AVE,"WESTMONT, IL 60559",http://maps.google.com/maps?q=FARLAND%20PHARMACY%20INC%2C2%20NORTH%20CASS%20AVE%2C+WESTMONT%2C+IL+60559,
"FORUM EXTENDED CARE SERVICES II, INC.",4201 W VICTORIA ST,"CHICAGO, IL 60646",http://maps.google.com/maps?q=FORUM%20EXTENDED%20CARE%20SERVICES%20II%20INC%2C4201%20W%20VICTORIA%20ST%2C+CHICAGO%2C+IL+60646,
FRANCISCAN HEALTH MICHIGAN CITY,301 W HOMER,"MICHIGAN CITY, IN 46360",http://maps.google.com/maps?q=FRANCISCAN%20HEALTH%20MICHIGAN%20CITY%2C301%20W%20HOMER%2C+MICHIGAN%20CITY%2C+IN+46360,
GOOD VALUE PHARMACY,3207 80TH STREET,SUITE 100,"KENOSHA, WI 53142",http://maps.google.com/maps?q=GOOD%20VALUE%20PHARMACY%2C3207%2080TH%20STREET%2C+KENOSHA%2C+WI+53142
"HIGHLAND PARK CVS, L.L.C.",1004 SHOOTING PARK,"PERU, IL 61354",http://maps.google.com/maps?q=HIGHLAND%20PARK%20CVS%20LLC%2C1004%20SHOOTING%20PARK%2C+PERU%2C+IL+61354,
"HIGHLAND PARK CVS, L.L.C.",1034 W REYNOLDS ST.,"PONTIAC, IL 61764",http://maps.google.com/maps?q=HIGHLAND%20PARK%20CVS%20LLC%2C1034%20W%20REYNOLDS%20ST.%2C+PONTIAC%2C+IL+61764,
"HIGHLAND PARK CVS, L.L.C.",110 S. ALPINE RD.,"ROCKFORD, IL 61108",http://maps.google.com/maps?q=HIGHLAND%20PARK%20CVS%20LLC%2C110%20S.%20ALPINE%20RD.%2C+ROCKFORD%2C+IL+61108,
"HIGHLAND PARK CVS, L.L.C.",110 W. NORTH AVE.,"ELMHURST, IL 60126",http://maps.google.com/maps?q=HIGHLAND%20PARK%20CVS%20LLC%2C110%20W.%20NORTH%20AVE.%2C+ELMHURST%2C+IL+60126,
"HIGHLAND PARK CVS, L.L.C.",1101 S WATER ST,"WILMINGTON, IL 60481",http://maps.google.com/maps?q=HIGHLAND%20PARK%20CVS%20LLC%2C1101%20S%20WATER%20ST%2C+WILMINGTON%2C+IL+60481,
"HIGHLAND PARK CVS, L.L.C.",1130 S. VETERANS PKWY,"BLOOMINGTON, IL 61704",http://maps.google.com/maps?q=HIGHLAND%20PARK%20CVS%20LLC%2C1130%20S.%20VETERANS%20PKWY%2C+BLOOMINGTON%2C+IL+61704,
"HIGHLAND PARK CVS, L.L.C.",1212 13TH AVENUE,"MENDOTA, IL 61342",http://maps.google.com/maps?q=HIGHLAND%20PARK%20CVS%20LLC%2C1212%2013TH%20AVENUE%2C+MENDOTA%2C+IL+61342,
"HIGHLAND PARK CVS, L.L.C.",1305 RANDALL RD.,"CRYSTAL LAKE, IL 60014",http://maps.google.com/maps?q=HIGHLAND%20PARK%20CVS%20LLC%2C1305%20RANDALL%20RD.%2C+CRYSTAL%20LAKE%2C+IL+60014,
"HIGHLAND PARK CVS, L.L.C.",137 W. FRONT ST.,"EL PASO, IL 61738",http://maps.google.com/maps?q=HIGHLAND%20PARK%20CVS%20LLC%2C137%20W.%20FRONT%20ST.%2C+EL%20PASO%2C+IL+61738,
"HIGHLAND PARK CVS, L.L.C.",14290 SOUTH LA GRANGE RD.,"ORLAND PARK, IL 60462",http://maps.google.com/maps?q=HIGHLAND%20PARK%20CVS%20LLC%2C14290%20SOUTH%20LA%20GRANGE%20RD.%2C+ORLAND%20PARK%2C+IL+60462,
"HIGHLAND PARK CVS, L.L.C.",1500 LINCOLN HWY.,"ST CHARLES, IL 60174",http://maps.google.com/maps?q=HIGHLAND%20PARK%20CVS%20LLC%2C1500%20LINCOLN%20HWY.%2C+ST%20CHARLES%2C+IL+60174,
"HIGHLAND PARK CVS, L.L.C.",1539 CLAVEY RD.,"HIGHLAND PARK, IL 60035",http://maps.google.com/maps?q=HIGHLAND%20PARK%20CVS%20LLC%2C1539%20CLAVEY%20RD.%2C+HIGHLAND%20PARK%2C+IL+60035,
"HIGHLAND PARK CVS, L.L.C.",1701 FORT JESSE RD.,"NORMAL, IL 61761",http://maps.google.com/maps?q=HIGHLAND%20PARK%20CVS%20LLC%2C1701%20FORT%20JESSE%20RD.%2C+NORMAL%2C+IL+61761,
"HIGHLAND PARK CVS, L.L.C.",177 WEST VIRGINIA STREET,"CRYSTAL LAKE, IL 60014",http://maps.google.com/maps?q=HIGHLAND%20PARK%20CVS%20LLC%2C177%20WEST%20VIRGINIA%20STREET%2C+CRYSTAL%20LAKE%2C+IL+60014,
"HIGHLAND PARK CVS, L.L.C.",225 WEST COURT ST,"KANKAKEE, IL 60901",http://maps.google.com/maps?q=HIGHLAND%20PARK%20CVS%20LLC%2C225%20WEST%20COURT%20ST%2C+KANKAKEE%2C+IL+60901,
"HIGHLAND PARK CVS, L.L.C.",230 S COMET DR.,"BRAIDWOOD, IL 60408",http://maps.google.com/maps?q=HIGHLAND%20PARK%20CVS%20LLC%2C230%20S%20COMET%20DR.%2C+BRAIDWOOD%2C+IL+60408,
"HIGHLAND PARK CVS, L.L.C.",245 S BROADWAY ST.,"COAL CITY, IL 60416",http://maps.google.com/maps?q=HIGHLAND%20PARK%20CVS%20LLC%2C245%20S%20BROADWAY%20ST.%2C+COAL%20CITY%2C+IL+60416,
"HIGHLAND PARK CVS, L.L.C.",3134 11TH STREET,"ROCKFORD, IL 61109",http://maps.google.com/maps?q=HIGHLAND%20PARK%20CVS%20LLC%2C3134%2011TH%20STREET%2C+ROCKFORD%2C+IL+61109,
"HIGHLAND PARK CVS, L.L.C.",345 MADISON ST.,"OAK PARK, IL 60302",http://maps.google.com/maps?q=HIGHLAND%20PARK%20CVS%20LLC%2C345%20MADISON%20ST.%2C+OAK%20PARK%2C+IL+60302,
"HIGHLAND PARK CVS, L.L.C.",3900 WEST ELM ST.,"MCHENRY, IL 60050",http://maps.google.com/maps?q=HIGHLAND%20PARK%20CVS%20LLC%2C3900%20WEST%20ELM%20ST.%2C+MCHENRY%2C+IL+60050,
"HIGHLAND PARK CVS, L.L.C.",3951 W. 103RD ST.,"CHICAGO, IL 60655",http://maps.google.com/maps?q=HIGHLAND%20PARK%20CVS%20LLC%2C3951%20W.%20103RD%20ST.%2C+CHICAGO%2C+IL+60655,
"HIGHLAND PARK CVS, L.L.C.",47 S. LOCUST ST.,"MANTENO, IL 60950",http://maps.google.com/maps?q=HIGHLAND%20PARK%20CVS%20LLC%2C47%20S.%20LOCUST%20ST.%2C+MANTENO%2C+IL+60950,
"HIGHLAND PARK CVS, L.L.C.",470 S. TORRENCE AVE.,"CALUMET CITY, IL 60409",http://maps.google.com/maps?q=HIGHLAND%20PARK%20CVS%20LLC%2C470%20S.%20TORRENCE%20AVE.%2C+CALUMET%20CITY%2C+IL+60409,
"HIGHLAND PARK CVS, L.L.C.",4843 BLUE STEM ROAD,"ROSCOE, IL 61073",http://maps.google.com/maps?q=HIGHLAND%20PARK%20CVS%20LLC%2C4843%20BLUE%20STEM%20ROAD%2C+ROSCOE%2C+IL+61073,
"HIGHLAND PARK CVS, L.L.C.","6315 SOUTH PULASKI RD,","CHICAGO, IL 60629",http://maps.google.com/maps?q=HIGHLAND%20PARK%20CVS%20LLC%2C6315%20SOUTH%20PULASKI%20RD%2C%2C+CHICAGO%2C+IL+60629,
"HIGHLAND PARK CVS, L.L.C.",6506 ALPINE RD.,"LOVES PARK, IL 61111",http://maps.google.com/maps?q=HIGHLAND%20PARK%20CVS%20LLC%2C6506%20ALPINE%20RD.%2C+LOVES%20PARK%2C+IL+61111,
"HIGHLAND PARK CVS, L.L.C.",8712 SOUTH STONY ISLAND AVE.,"CHICAGO, IL 60617",http://maps.google.com/maps?q=HIGHLAND%20PARK%20CVS%20LLC%2C8712%20SOUTH%20STONY%20ISLAND%20AVE.%2C+CHICAGO%2C+IL+60617,
"HOOK-SUPERX, L.L.C.",10 EAST 81ST AVENUE,"MERRILLVILLE, IN 46410",http://maps.google.com/maps?q=HOOKSUPERX%20LLC%2C10%20EAST%2081ST%20AVENUE%2C+MERRILLVILLE%2C+IN+46410,
"HOOK-SUPERX, L.L.C.",1195 E RIDGE RD,"GRIFFITH, IN 46319",http://maps.google.com/maps?q=HOOKSUPERX%20LLC%2C1195%20E%20RIDGE%20RD%2C+GRIFFITH%2C+IN+46319,
"HOOK-SUPERX, L.L.C.",1301 119TH ST,"WHITING, IN 46394",http://maps.google.com/maps?q=HOOKSUPERX%20LLC%2C1301%20119TH%20ST%2C+WHITING%2C+IN+46394,
"HOOK-SUPERX, L.L.C.",1350 BROADWAY ST,"GARY, IN 46407",http://maps.google.com/maps?q=HOOKSUPERX%20LLC%2C1350%20BROADWAY%20ST%2C+GARY%2C+IN+46407,
"HOOK-SUPERX, L.L.C.",1407 LINCOLNWAY,"LAPORTE, IN 46350",http://maps.google.com/maps?q=HOOKSUPERX%20LLC%2C1407%20LINCOLNWAY%2C+LAPORTE%2C+IN+46350,
"HOOK-SUPERX, L.L.C.",1805 CALUMET AVE.,"VALPARAISO, IN 46383",http://maps.google.com/maps?q=HOOKSUPERX%20LLC%2C1805%20CALUMET%20AVE.%2C+VALPARAISO%2C+IN+46383,
"HOOK-SUPERX, L.L.C.",2106 BROADWAY ST,"EAST CHICAGO, IN 46312",http://maps.google.com/maps?q=HOOKSUPERX%20LLC%2C2106%20BROADWAY%20ST%2C+EAST%20CHICAGO%2C+IN+46312,
"HOOK-SUPERX, L.L.C.",2272 NORTH MAIN ST.,"CROWNPOINT, IN 46307",http://maps.google.com/maps?q=HOOKSUPERX%20LLC%2C2272%20NORTH%20MAIN%20ST.%2C+CROWNPOINT%2C+IN+46307,
"HOOK-SUPERX, L.L.C.","3240 WILLOWCREEK RD.,","PORTAGE, IN 46368",http://maps.google.com/maps?q=HOOKSUPERX%20LLC%2C3240%20WILLOWCREEK%20RD.%2C%2C+PORTAGE%2C+IN+46368,
"HOOK-SUPERX, L.L.C.",3253 FRANKLIN ST.,"MICHIGAN CITY, IN 46360",http://maps.google.com/maps?q=HOOKSUPERX%20LLC%2C3253%20FRANKLIN%20ST.%2C+MICHIGAN%20CITY%2C+IN+46360,
"HOOK-SUPERX, L.L.C.",3400 N CALUMET AVE,"VALPARAISO, IN 46383",http://maps.google.com/maps?q=HOOKSUPERX%20LLC%2C3400%20N%20CALUMET%20AVE%2C+VALPARAISO%2C+IN+46383,
"HOOK-SUPERX, L.L.C.",512 E. SEYMOUR ST.,"KENTLAND, IN 47951",http://maps.google.com/maps?q=HOOKSUPERX%20LLC%2C512%20E.%20SEYMOUR%20ST.%2C+KENTLAND%2C+IN+47951,
"HOOK-SUPERX, L.L.C.",6445 CALUMET AVE.,"HAMMOND, IN 46324",http://maps.google.com/maps?q=HOOKSUPERX%20LLC%2C6445%20CALUMET%20AVE.%2C+HAMMOND%2C+IN+46324,
HOPEDALE PHARMACY,107 TREMONT ST,"HOPEDALE, IL 61747",http://maps.google.com/maps?q=HOPEDALE%20PHARMACY%2C107%20TREMONT%20ST%2C+HOPEDALE%2C+IL+61747,
HUDSON DRUG SHOP,108 N MARKET ST,PO BOX 70,"PAXTON, IL 60957",http://maps.google.com/maps?q=HUDSON%20DRUG%20SHOP%2C108%20N%20MARKET%20ST%2C+PAXTON%2C+IL+60957
"INTERDEPENDENT PHARMACY, LLC",404 NORTH SEYMOUR AVENUE,"MUNDELEIN, IL 60060",http://maps.google.com/maps?q=INTERDEPENDENT%20PHARMACY%20LLC%2C404%20NORTH%20SEYMOUR%20AVENUE%2C+MUNDELEIN%2C+IL+60060,
J D BROWN & CO,837 PLAINFIELD ROAD,"JOLIET, IL 60435",http://maps.google.com/maps?q=J%20D%20BROWN%20%20CO%2C837%20PLAINFIELD%20ROAD%2C+JOLIET%2C+IL+60435,
LAWNDALE CHRISTIAN HLTH CTR,PHARMACY,3860 WEST OGDEN AVENUE,"CHICAGO, IL 60623",http://maps.google.com/maps?q=LAWNDALE%20CHRISTIAN%20HLTH%20CTR%2CPHARMACY%2C+CHICAGO%2C+IL+60623
"MEDICATION MANAGEMENT PARTNERS, LLC",13601 KENTON AVE,"CRESTWOOD, IL 60418",http://maps.google.com/maps?q=MEDICATION%20MANAGEMENT%20PARTNERS%20LLC%2C13601%20KENTON%20AVE%2C+CRESTWOOD%2C+IL+60418,
MENDOTA COMMUNITY HOSPITAL,1401 E 12TH ST.,"MENDOTA, IL 61342",http://maps.google.com/maps?q=MENDOTA%20COMMUNITY%20HOSPITAL%2C1401%20E%2012TH%20ST.%2C+MENDOTA%2C+IL+61342,
NORTH SHORE PHARMACY,2490 CENTRAL AVENUE,"LAKE STATION, IN 46405",http://maps.google.com/maps?q=NORTH%20SHORE%20PHARMACY%2C2490%20CENTRAL%20AVENUE%2C+LAKE%20STATION%2C+IN+46405,
NORTHSHORE HEALTH CENTER,3564 SCOTTSDALE ST.,"PORTAGE, IN 46368",http://maps.google.com/maps?q=NORTHSHORE%20HEALTH%20CENTER%2C3564%20SCOTTSDALE%20ST.%2C+PORTAGE%2C+IN+46368,
NORTHWESTERN MEMORIAL HOSP,251 E. HURON,"CHICAGO, IL 60611",http://maps.google.com/maps?q=NORTHWESTERN%20MEMORIAL%20HOSP%2C251%20E.%20HURON%2C+CHICAGO%2C+IL+60611,
ONCOLOGY HEMATOLOGY ASSOC,8940 N. WOOD SAGE ROAD,"PEORIA, IL 61615",http://maps.google.com/maps?q=ONCOLOGY%20HEMATOLOGY%20ASSOC%2C8940%20N.%20WOOD%20SAGE%20ROAD%2C+PEORIA%2C+IL+61615,
OSF HEALTHCARE SYSTEM,5666 E. STATE STREET,"ROCKFORD, IL 61108",http://maps.google.com/maps?q=OSF%20HEALTHCARE%20SYSTEM%2C5666%20E.%20STATE%20STREET%2C+ROCKFORD%2C+IL+61108,
OSF HEALTHCARE SYSTEM D/B/A SAINT LUKE MEDICAL CEN,1051 W. SOUTH ST.,"KEWANEE, IL 61443",http://maps.google.com/maps?q=OSF%20HEALTHCARE%20SYSTEM%20DBA%20SAINT%20LUKE%20MEDICAL%20CEN%2C1051%20W.%20SOUTH%20ST.%2C+KEWANEE%2C+IL+61443,
OTTAWA REGIONAL HOSPITAL & HEALTHCARE CENTER,1100 E NORRIS DR,"OTTAWA, IL 61350",http://maps.google.com/maps?q=OTTAWA%20REGIONAL%20HOSPITAL%20%20HEALTHCARE%20CENTER%2C1100%20E%20NORRIS%20DR%2C+OTTAWA%2C+IL+61350,
PHILS DISCOUNT DRUGS,702 E. LINCOLNWAY,"LAPORTE, IN 46350",http://maps.google.com/maps?q=PHILS%20DISCOUNT%20DRUGS%2C702%20E.%20LINCOLNWAY%2C+LAPORTE%2C+IN+46350,
PRESENCE LIFE CONNECTIONS PHARMACY,670 N CONVENT STREET,"BOURBONNAIS, IL 60914",http://maps.google.com/maps?q=PRESENCE%20LIFE%20CONNECTIONS%20PHARMACY%2C670%20N%20CONVENT%20STREET%2C+BOURBONNAIS%2C+IL+60914,
PRESENCE RHC SENIOR SERVICES,100 N RIVER ROAD,"DES PLAINES, IL 60016",http://maps.google.com/maps?q=PRESENCE%20RHC%20SENIOR%20SERVICES%2C100%20N%20RIVER%20ROAD%2C+DES%20PLAINES%2C+IL+60016,
PULASKI MEMORIAL HOSPITAL,616 E 13TH STREET,P O BOX 279,"WINAMAC, IN 46996",http://maps.google.com/maps?q=PULASKI%20MEMORIAL%20HOSPITAL%2C616%20E%2013TH%20STREET%2C+WINAMAC%2C+IN+46996
RIVERSIDE FAMILY PHARMACY,350 N WALL STREET,"KANKAKEE, IL 60901",http://maps.google.com/maps?q=RIVERSIDE%20FAMILY%20PHARMACY%2C350%20N%20WALL%20STREET%2C+KANKAKEE%2C+IL+60901,
ROCHELLE COMMUNITY HOSPITAL ASSOC,900 N 2ND ST,"ROCHELLE, IL 61068",http://maps.google.com/maps?q=ROCHELLE%20COMMUNITY%20HOSPITAL%20ASSOC%2C900%20N%202ND%20ST%2C+ROCHELLE%2C+IL+61068,
RUSH UNIVERSITY MEDICAL CTR,ATTN CHIEF PHARMACIST,1653 WEST CONGRESS PARKWAY,"CHICAGO, IL 60612",http://maps.google.com/maps?q=RUSH%20UNIVERSITY%20MEDICAL%20CTR%2CATTN%20CHIEF%20PHARMACIST%2C+CHICAGO%2C+IL+60612
ST FRANCIS MEDICAL CENTER,530 NE GLEN OAK AVE,"PEORIA, IL 61637",http://maps.google.com/maps?q=ST%20FRANCIS%20MEDICAL%20CENTER%2C530%20NE%20GLEN%20OAK%20AVE%2C+PEORIA%2C+IL+61637,
ST JAMES HOSPITAL,2500 W REYNOLDS ST,"PONTIAC, IL 61764",http://maps.google.com/maps?q=ST%20JAMES%20HOSPITAL%2C2500%20W%20REYNOLDS%20ST%2C+PONTIAC%2C+IL+61764,
ST JOSEPH'S HOSPITAL MEDICAL,2200 E WASHINGTON,"BLOOMINGTON, IL 61701",http://maps.google.com/maps?q=ST%20JOSEPHS%20HOSPITAL%20MEDICAL%2C2200%20E%20WASHINGTON%2C+BLOOMINGTON%2C+IL+61701,
SYMBRIA RX SERVICES LLC,350 W. SCHAUMBURG ROAD,SUITE PWD,"SCHAUMBURG, IL 60194",http://maps.google.com/maps?q=SYMBRIA%20RX%20SERVICES%20LLC%2C350%20W.%20SCHAUMBURG%20ROAD%2C+SCHAUMBURG%2C+IL+60194
TECHNI MED INC,340 MARSHALL AVENUE,UNIT 100,"AURORA, IL 60506",http://maps.google.com/maps?q=TECHNI%20MED%20INC%2C340%20MARSHALL%20AVENUE%2C+AURORA%2C+IL+60506
THIES LOMBARD PHARMACY INC,211 S MAIN ST,"LOMBARD, IL 60148",http://maps.google.com/maps?q=THIES%20LOMBARD%20PHARMACY%20INC%2C211%20S%20MAIN%20ST%2C+LOMBARD%2C+IL+60148,
THRUSH FAMILY PHARMACY INC,900 FIRST AVENUE,"OTTAWA, IL 61350",http://maps.google.com/maps?q=THRUSH%20FAMILY%20PHARMACY%20INC%2C900%20FIRST%20AVENUE%2C+OTTAWA%2C+IL+61350,
UNIVERSITY OF CHICAGO DCAM OUTPATIENT PHARMACY,5758 S. MARYLAND AVE.,MC0010,"CHICAGO, IL 60637",http://maps.google.com/maps?q=UNIVERSITY%20OF%20CHICAGO%20DCAM%20OUTPATIENT%20PHARMACY%2C5758%20S.%20MARYLAND%20AVE.%2C+CHICAGO%2C+IL+60637
V A OUTPATIENT CLINIC,VA OUTPATIENT CLINIC 119,7717 N ORANGE PRAIRIE ROAD,"PEORIA, IL 61615",http://maps.google.com/maps?q=V%20A%20OUTPATIENT%20CLINIC%2CVA%20OUTPATIENT%20CLINIC%20119%2C+PEORIA%2C+IL+61615
VYTO'S PHARMACY,6949 KENNEDY AVENUE,UNIT C,"HAMMOND, IN 46323",http://maps.google.com/maps?q=VYTOS%20PHARMACY%2C6949%20KENNEDY%20AVENUE%2C+HAMMOND%2C+IN+46323
WALGREEN CO.,100 W VETERANS PKWY,"YORKVILLE, IL 60560",http://maps.google.com/maps?q=WALGREEN%20CO%2C100%20W%20VETERANS%20PKWY%2C+YORKVILLE%2C+IL+60560,
WALGREEN CO.,1000 N ROSELLE RD,"HOFFMAN ESTATES, IL 60169",http://maps.google.com/maps?q=WALGREEN%20CO%2C1000%20N%20ROSELLE%20RD%2C+HOFFMAN%20ESTATES%2C+IL+60169,
WALGREEN CO.,1028 S ELMHURST ROAD,"MT PROSPECT, IL 60056",http://maps.google.com/maps?q=WALGREEN%20CO%2C1028%20S%20ELMHURST%20ROAD%2C+MT%20PROSPECT%2C+IL+60056,
WALGREEN CO.,1033 SHOOTING PARK ROAD,"PERU, IL 61354",http://maps.google.com/maps?q=WALGREEN%20CO%2C1033%20SHOOTING%20PARK%20ROAD%2C+PERU%2C+IL+61354,
WALGREEN CO.,108 WILMOT RD.,"DEERFIELD, IL 60015",http://maps.google.com/maps?q=WALGREEN%20CO%2C108%20WILMOT%20RD.%2C+DEERFIELD%2C+IL+60015,
WALGREEN CO.,12000 PRINCETON DRIVE,"HUNTLEY, IL 60142",http://maps.google.com/maps?q=WALGREEN%20CO%2C12000%20PRINCETON%20DRIVE%2C+HUNTLEY%2C+IL+60142,
WALGREEN CO.,1221 N LAKE STREET,"AURORA, IL 60506",http://maps.google.com/maps?q=WALGREEN%20CO%2C1221%20N%20LAKE%20STREET%2C+AURORA%2C+IL+60506,
WALGREEN CO.,1340 DEKALB AVE,"SYCAMORE, IL 60178",http://maps.google.com/maps?q=WALGREEN%20CO%2C1340%20DEKALB%20AVE%2C+SYCAMORE%2C+IL+60178,
WALGREEN CO.,1403 WAUKEGAN RD,"GLENVIEW, IL 60025",http://maps.google.com/maps?q=WALGREEN%20CO%2C1403%20WAUKEGAN%20RD%2C+GLENVIEW%2C+IL+60025,
WALGREEN CO.,14680 S LA GRANGE ROAD,"ORLAND PARK, IL 60462",http://maps.google.com/maps?q=WALGREEN%20CO%2C14680%20S%20LA%20GRANGE%20ROAD%2C+ORLAND%20PARK%2C+IL+60462,
WALGREEN CO.,151 N. STATE ST.,"CHICAGO, IL 60601",http://maps.google.com/maps?q=WALGREEN%20CO%2C151%20N.%20STATE%20ST.%2C+CHICAGO%2C+IL+60601,
WALGREEN CO.,1700 LARKIN AVE,"ELGIN, IL 60123",http://maps.google.com/maps?q=WALGREEN%20CO%2C1700%20LARKIN%20AVE%2C+ELGIN%2C+IL+60123,
WALGREEN CO.,1903 CALUMET AVE.,"VALPARAISO, IN 46383",http://maps.google.com/maps?q=WALGREEN%20CO%2C1903%20CALUMET%20AVE.%2C+VALPARAISO%2C+IN+46383,
WALGREEN CO.,2001 N MILWAUKEE AVE,"CHICAGO, IL 60647",http://maps.google.com/maps?q=WALGREEN%20CO%2C2001%20N%20MILWAUKEE%20AVE%2C+CHICAGO%2C+IL+60647,
WALGREEN CO.,226 N. HALLECK STREET,"DEMOTTE, IN 46310",http://maps.google.com/maps?q=WALGREEN%20CO%2C226%20N.%20HALLECK%20STREET%2C+DEMOTTE%2C+IN+46310,
WALGREEN CO.,2324 W WAR MEMORIAL DRIVE,"PEORIA, IL 61614",http://maps.google.com/maps?q=WALGREEN%20CO%2C2324%20W%20WAR%20MEMORIAL%20DRIVE%2C+PEORIA%2C+IL+61614,
WALGREEN CO.,2500 GRANT ST,"GARY, IN 46404",http://maps.google.com/maps?q=WALGREEN%20CO%2C2500%20GRANT%20ST%2C+GARY%2C+IN+46404,
WALGREEN CO.,30 W CHURCH STREET,"SANDWICH, IL 60548",http://maps.google.com/maps?q=WALGREEN%20CO%2C30%20W%20CHURCH%20STREET%2C+SANDWICH%2C+IL+60548,
WALGREEN CO.,305 SOUTH EASTWOOD DR,"WOODSTOCK, IL 60098",http://maps.google.com/maps?q=WALGREEN%20CO%2C305%20SOUTH%20EASTWOOD%20DR%2C+WOODSTOCK%2C+IL+60098,
WALGREEN CO.,324 ROOSEVELT ROAD,"GLEN ELLYN, IL 60137",http://maps.google.com/maps?q=WALGREEN%20CO%2C324%20ROOSEVELT%20ROAD%2C+GLEN%20ELLYN%2C+IL+60137,
WALGREEN CO.,3351 W MAIN STREET,"ST CHARLES, IL 60175",http://maps.google.com/maps?q=WALGREEN%20CO%2C3351%20W%20MAIN%20STREET%2C+ST%20CHARLES%2C+IL+60175,
WALGREEN CO.,3405 S KING DR,"CHICAGO, IL 60616",http://maps.google.com/maps?q=WALGREEN%20CO%2C3405%20S%20KING%20DR%2C+CHICAGO%2C+IL+60616,
WALGREEN CO.,351 N EDWARDS BLVD,"LAKE GENEVA, WI 53147",http://maps.google.com/maps?q=WALGREEN%20CO%2C351%20N%20EDWARDS%20BLVD%2C+LAKE%20GENEVA%2C+WI+53147,
WALGREEN CO.,3805 80TH ST.,"KENOSHA, WI 53142",http://maps.google.com/maps?q=WALGREEN%20CO%2C3805%2080TH%20ST.%2C+KENOSHA%2C+WI+53142,
WALGREEN CO.,3945 DEMPSTER ST,"SKOKIE, IL 60076",http://maps.google.com/maps?q=WALGREEN%20CO%2C3945%20DEMPSTER%20ST%2C+SKOKIE%2C+IL+60076,
WALGREEN CO.,4010 W LAWRENCE AVE,"CHICAGO, IL 60630",http://maps.google.com/maps?q=WALGREEN%20CO%2C4010%20W%20LAWRENCE%20AVE%2C+CHICAGO%2C+IL+60630,
WALGREEN CO.,4800 W CERMAK RD,"CICERO, IL 60804",http://maps.google.com/maps?q=WALGREEN%20CO%2C4800%20W%20CERMAK%20RD%2C+CICERO%2C+IL+60804,
WALGREEN CO.,4810 WASHINGTON AVE,"RACINE, WI 53406",http://maps.google.com/maps?q=WALGREEN%20CO%2C4810%20WASHINGTON%20AVE%2C+RACINE%2C+WI+53406,
WALGREEN CO.,4820 N CUMBERLAND AVE,"NORRIDGE, IL 60706",http://maps.google.com/maps?q=WALGREEN%20CO%2C4820%20N%20CUMBERLAND%20AVE%2C+NORRIDGE%2C+IL+60706,
WALGREEN CO.,501 N CONVENT ST,"BOURBONNAIS, IL 60914",http://maps.google.com/maps?q=WALGREEN%20CO%2C501%20N%20CONVENT%20ST%2C+BOURBONNAIS%2C+IL+60914,
WALGREEN CO.,5065 HONONEGAH RD,"ROSCOE, IL 61073",http://maps.google.com/maps?q=WALGREEN%20CO%2C5065%20HONONEGAH%20RD%2C+ROSCOE%2C+IL+61073,
WALGREEN CO.,522 TORRENCE AVE,"CALUMET CITY, IL 60409",http://maps.google.com/maps?q=WALGREEN%20CO%2C522%20TORRENCE%20AVE%2C+CALUMET%20CITY%2C+IL+60409,
WALGREEN CO.,6001 CENTRAL AVE,"PORTAGE, IN 46368",http://maps.google.com/maps?q=WALGREEN%20CO%2C6001%20CENTRAL%20AVE%2C+PORTAGE%2C+IN+46368,
WALGREEN CO.,6016 W 63RD STREET,"CHICAGO, IL 60638",http://maps.google.com/maps?q=WALGREEN%20CO%2C6016%20W%2063RD%20STREET%2C+CHICAGO%2C+IL+60638,
WALGREEN CO.,651 W. US HWY 30,"SCHERERVILLE, IN 46375",http://maps.google.com/maps?q=WALGREEN%20CO%2C651%20W.%20US%20HWY%2030%2C+SCHERERVILLE%2C+IN+46375,
WALGREEN CO.,7109 S JEFFERY BLVD,"CHICAGO, IL 60649",http://maps.google.com/maps?q=WALGREEN%20CO%2C7109%20S%20JEFFERY%20BLVD%2C+CHICAGO%2C+IL+60649,
WALGREEN CO.,7113 CERMAK RD,"BERWYN, IL 60402",http://maps.google.com/maps?q=WALGREEN%20CO%2C7113%20CERMAK%20RD%2C+BERWYN%2C+IL+60402,
WALGREEN CO.,7200 W. NORTH AVE.,"ELMWOOD PARK, IL 60707",http://maps.google.com/maps?q=WALGREEN%20CO%2C7200%20W.%20NORTH%20AVE.%2C+ELMWOOD%20PARK%2C+IL+60707,
WALGREEN CO.,8628 S COTTAGE GROVE AVE,"CHICAGO, IL 60619",http://maps.google.com/maps?q=WALGREEN%20CO%2C8628%20S%20COTTAGE%20GROVE%20AVE%2C+CHICAGO%2C+IL+60619,
