Business Name,Address 1,Address 2,"City, State Zip",Map URL
AIDS HEALTHCARE FOUNDATION,2097 WILTON DR,"WILTON MANORS, FL 33305",http://maps.google.com/maps?q=AIDS%20HEALTHCARE%20FOUNDATION%2C2097%20WILTON%20DR%2C+WILTON%20MANORS%2C+FL+33305,
AIDS HEALTHCARE FOUNDATION,2900 BISCAYNE BLVD,"MIAMI, FL 33137",http://maps.google.com/maps?q=AIDS%20HEALTHCARE%20FOUNDATION%2C2900%20BISCAYNE%20BLVD%2C+MIAMI%2C+FL+33137,
AIDS HEALTHCARE FOUNDATION,"6405 N FEDERAL HWY, STE 205","FT LAUDERDALE, FL 33308",http://maps.google.com/maps?q=AIDS%20HEALTHCARE%20FOUNDATION%2C6405%20N%20FEDERAL%20HWY%2C%20STE%20205%2C+FT%20LAUDERDALE%2C+FL+33308,
AIDS HEALTHCARE FOUNDATION,700 SE 3RD AVENUE,SUITE 100,"FT LAUDERDALE, FL 33316",http://maps.google.com/maps?q=AIDS%20HEALTHCARE%20FOUNDATION%2C700%20SE%203RD%20AVENUE%2C+FT%20LAUDERDALE%2C+FL+33316
"AIDS HEALTHCARE FOUNDATION, DBA AHF PHARMACY",1785 E. SUNRISE BLVD.,"FORT LAUDERDALE, FL 33304",http://maps.google.com/maps?q=AIDS%20HEALTHCARE%20FOUNDATION%20DBA%20AHF%20PHARMACY%2C1785%20E.%20SUNRISE%20BLVD.%2C+FORT%20LAUDERDALE%2C+FL+33304,
ARTH LLC,1446 LEE BLVD,"LEHIGH ACRES, FL 33936",http://maps.google.com/maps?q=ARTH%20LLC%2C1446%20LEE%20BLVD%2C+LEHIGH%20ACRES%2C+FL+33936,
BENZER PHARMACY FL1 LLC,1250 NW 7TH ST UNIT 101-102,BENZER PHARMACY,"MIAMI, FL 33125",http://maps.google.com/maps?q=BENZER%20PHARMACY%20FL%20LLC%2C1250%20NW%207TH%20ST%20UNIT%20101-102%2C+MIAMI%2C+FL+33125
BENZER PHARMACY FL2 LLC,60 NE 1ST ST,"POMPANO BEACH, FL 33060",http://maps.google.com/maps?q=BENZER%20PHARMACY%20FL%20LLC%2C60%20NE%201ST%20ST%2C+POMPANO%20BEACH%2C+FL+33060,
BROWARD ADDICTION RECOVERY CTR,325 SW 28TH ST,"FORT LAUDERDALE, FL 33315",http://maps.google.com/maps?q=BROWARD%20ADDICTION%20RECOVERY%20CTR%2C325%20SW%2028TH%20ST%2C+FORT%20LAUDERDALE%2C+FL+33315,
COLLIER HEALTH SERVICES,1454 MADISON AVE W,"IMMOKALEE, FL 34142",http://maps.google.com/maps?q=COLLIER%20HEALTH%20SERVICES%2C1454%20MADISON%20AVE%20W%2C+IMMOKALEE%2C+FL+34142,
COLLIER HEALTH SERVICES,1755 HERITAGE TRAIL SUITE 604,"NAPLES, FL 34112",http://maps.google.com/maps?q=COLLIER%20HEALTH%20SERVICES%2C1755%20HERITAGE%20TRAIL%20SUITE%20604%2C+NAPLES%2C+FL+34112,
EXPRESS RX PHARMACY INC,3421 SW 8TH ST,"MIAMI, FL 33135",http://maps.google.com/maps?q=EXPRESS%20RX%20PHARMACY%20INC%2C3421%20SW%208TH%20ST%2C+MIAMI%2C+FL+33135,
FOREST HILL PHARMACY LLC,2939 FOREST HILL BLVD,"WEST PALM BEACH, FL 33406",http://maps.google.com/maps?q=FOREST%20HILL%20PHARMACY%20LLC%2C2939%20FOREST%20HILL%20BLVD%2C+WEST%20PALM%20BEACH%2C+FL+33406,
GULF SHORE RX LLC,11669 COLLIER BLVD,"NAPLES, FL 34116",http://maps.google.com/maps?q=GULF%20SHORE%20RX%20LLC%2C11669%20COLLIER%20BLVD%2C+NAPLES%2C+FL+34116,
"HOLIDAY CVS, L.L.C.",101 HIALEAH DR,"HIALEAH, FL 33010",http://maps.google.com/maps?q=HOLIDAY%20CVS%20LLC%2C101%20HIALEAH%20DR%2C+HIALEAH%2C+FL+33010,
"HOLIDAY CVS, L.L.C.",10720 SW 72 STREET,"MIAMI, FL 33173",http://maps.google.com/maps?q=HOLIDAY%20CVS%20LLC%2C10720%20SW%2072%20STREET%2C+MIAMI%2C+FL+33173,
"HOLIDAY CVS, L.L.C.",11000 N. MILITARY TRAIL,"PALM BEACH GARDENS, FL 33410",http://maps.google.com/maps?q=HOLIDAY%20CVS%20LLC%2C11000%20N.%20MILITARY%20TRAIL%2C+PALM%20BEACH%20GARDENS%2C+FL+33410,
"HOLIDAY CVS, L.L.C.",1150 NE 26TH ST,"WILTON MANORS, FL 33305",http://maps.google.com/maps?q=HOLIDAY%20CVS%20LLC%2C1150%20NE%2026TH%20ST%2C+WILTON%20MANORS%2C+FL+33305,
"HOLIDAY CVS, L.L.C.",12650 SW 88TH ST.,"MIAMI, FL 33186",http://maps.google.com/maps?q=HOLIDAY%20CVS%20LLC%2C12650%20SW%2088TH%20ST.%2C+MIAMI%2C+FL+33186,
"HOLIDAY CVS, L.L.C.",1350 LEE BLVD,"LEHIGH ACRES, FL 33936",http://maps.google.com/maps?q=HOLIDAY%20CVS%20LLC%2C1350%20LEE%20BLVD%2C+LEHIGH%20ACRES%2C+FL+33936,
"HOLIDAY CVS, L.L.C.",13749 SW 152ND ST,"MIAMI, FL 33177",http://maps.google.com/maps?q=HOLIDAY%20CVS%20LLC%2C13749%20SW%20152ND%20ST%2C+MIAMI%2C+FL+33177,
"HOLIDAY CVS, L.L.C.",15395 NW 82ND AVE.,"MIAMI LAKES, FL 33016",http://maps.google.com/maps?q=HOLIDAY%20CVS%20LLC%2C15395%20NW%2082ND%20AVE.%2C+MIAMI%20LAKES%2C+FL+33016,
"HOLIDAY CVS, L.L.C.",1700 S. FEDERAL HWY.,"FORT LAUDERDALE, FL 33316",http://maps.google.com/maps?q=HOLIDAY%20CVS%20LLC%2C1700%20S.%20FEDERAL%20HWY.%2C+FORT%20LAUDERDALE%2C+FL+33316,
"HOLIDAY CVS, L.L.C.",2391 W. 68TH ST.,"HIALEAH, FL 33016",http://maps.google.com/maps?q=HOLIDAY%20CVS%20LLC%2C2391%20W.%2068TH%20ST.%2C+HIALEAH%2C+FL+33016,
"HOLIDAY CVS, L.L.C.",2500 SW 22ND ST,"MIAMI, FL 33145",http://maps.google.com/maps?q=HOLIDAY%20CVS%20LLC%2C2500%20SW%2022ND%20ST%2C+MIAMI%2C+FL+33145,
"HOLIDAY CVS, L.L.C.",3580 N FEDERAL HWY,"LIGHTHOUSE POINT, FL 33064",http://maps.google.com/maps?q=HOLIDAY%20CVS%20LLC%2C3580%20N%20FEDERAL%20HWY%2C+LIGHTHOUSE%20POINT%2C+FL+33064,
"HOLIDAY CVS, L.L.C.",4599 SHERIDAN ST.,"HOLLYWOOD, FL 33021",http://maps.google.com/maps?q=HOLIDAY%20CVS%20LLC%2C4599%20SHERIDAN%20ST.%2C+HOLLYWOOD%2C+FL+33021,
"HOLIDAY CVS, L.L.C.",6690 EAGLE NEST LN,"MIAMI LAKES, FL 33014",http://maps.google.com/maps?q=HOLIDAY%20CVS%20LLC%2C6690%20EAGLE%20NEST%20LN%2C+MIAMI%20LAKES%2C+FL+33014,
"HOLIDAY CVS, L.L.C.",690 NW 57TH AVE.,"MIAMI, FL 33126",http://maps.google.com/maps?q=HOLIDAY%20CVS%20LLC%2C690%20NW%2057TH%20AVE.%2C+MIAMI%2C+FL+33126,
"HOLIDAY CVS, L.L.C.",8695 CORAL WAY,"MIAMI, FL 33155",http://maps.google.com/maps?q=HOLIDAY%20CVS%20LLC%2C8695%20CORAL%20WAY%2C+MIAMI%2C+FL+33155,
"HOLIDAY CVS, L.L.C.",8765 S. DIXIE HWY.,"MIAMI, FL 33143",http://maps.google.com/maps?q=HOLIDAY%20CVS%20LLC%2C8765%20S.%20DIXIE%20HWY.%2C+MIAMI%2C+FL+33143,
"HOLIDAY CVS, L.L.C.",9031 SW 107TH AVE,"MIAMI, FL 33176",http://maps.google.com/maps?q=HOLIDAY%20CVS%20LLC%2C9031%20SW%20107TH%20AVE%2C+MIAMI%2C+FL+33176,
"HOLIDAY CVS, L.L.C.",9940 YAMATO RD.,"BOCA RATON, FL 33434",http://maps.google.com/maps?q=HOLIDAY%20CVS%20LLC%2C9940%20YAMATO%20RD.%2C+BOCA%20RATON%2C+FL+33434,
RX CARE 10 LLC,3795 TAMIAMI TRAIL E,"NAPLES, FL 34112",http://maps.google.com/maps?q=RX%20CARE%20%20LLC%2C3795%20TAMIAMI%20TRAIL%20E%2C+NAPLES%2C+FL+34112,
RX CARE 11 LLC,1201 PIPER BLVD STE 12,"NAPLES, FL 34110",http://maps.google.com/maps?q=RX%20CARE%20%20LLC%2C1201%20PIPER%20BLVD%20STE%2012%2C+NAPLES%2C+FL+34110,
RX CARE 12 LLC,2309 WEST WOOLBRIGHT ROAD,SUITE 4,"BOYNTON BEACH, FL 33426",http://maps.google.com/maps?q=RX%20CARE%20%20LLC%2C2309%20WEST%20WOOLBRIGHT%20ROAD%2C+BOYNTON%20BEACH%2C+FL+33426
"RX CARE 17, LLC",5431 N STATE RD 7,"TAMARAC, FL 33319",http://maps.google.com/maps?q=RX%20CARE%20%20LLC%2C5431%20N%20STATE%20RD%207%2C+TAMARAC%2C+FL+33319,
SOFKO LLC,4900 LINTON BLVD,STE 24,"DELRAY BEACH, FL 33445",http://maps.google.com/maps?q=SOFKO%20LLC%2C4900%20LINTON%20BLVD%2C+DELRAY%20BEACH%2C+FL+33445
WALGREEN CO.,11079 S MILITARY TRAIL,"BOYNTON BEACH, FL 33436",http://maps.google.com/maps?q=WALGREEN%20CO%2C11079%20S%20MILITARY%20TRAIL%2C+BOYNTON%20BEACH%2C+FL+33436,
WALGREEN CO.,11690 SW 72ND ST,"MIAMI, FL 33173",http://maps.google.com/maps?q=WALGREEN%20CO%2C11690%20SW%2072ND%20ST%2C+MIAMI%2C+FL+33173,
WALGREEN CO.,12001 SOUTHERN BLVD,"LOXAHATCHEE, FL 33470",http://maps.google.com/maps?q=WALGREEN%20CO%2C12001%20SOUTHERN%20BLVD%2C+LOXAHATCHEE%2C+FL+33470,
WALGREEN CO.,1300 E HALLANDALE BEACH BLVD,"HALLANDALE BEACH, FL 33009",http://maps.google.com/maps?q=WALGREEN%20CO%2C1300%20E%20HALLANDALE%20BEACH%20BLVD%2C+HALLANDALE%20BEACH%2C+FL+33009,
WALGREEN CO.,15255 SW 137TH AVENUE,"MIAMI, FL 33177",http://maps.google.com/maps?q=WALGREEN%20CO%2C15255%20SW%20137TH%20AVENUE%2C+MIAMI%2C+FL+33177,
WALGREEN CO.,15295 COLLIER BLVD,"NAPLES, FL 34119",http://maps.google.com/maps?q=WALGREEN%20CO%2C15295%20COLLIER%20BLVD%2C+NAPLES%2C+FL+34119,
WALGREEN CO.,15911 PINES BLVD.,"PEMBROKE PINES, FL 33027",http://maps.google.com/maps?q=WALGREEN%20CO%2C15911%20PINES%20BLVD.%2C+PEMBROKE%20PINES%2C+FL+33027,
WALGREEN CO.,1661 NW ST LUCIE WEST BLVD,"PORT ST LUCIE, FL 34986",http://maps.google.com/maps?q=WALGREEN%20CO%2C1661%20NW%20ST%20LUCIE%20WEST%20BLVD%2C+PORT%20ST%20LUCIE%2C+FL+34986,
WALGREEN CO.,1669 COLLINS AVENUE,"MIAMI BEACH, FL 33139",http://maps.google.com/maps?q=WALGREEN%20CO%2C1669%20COLLINS%20AVENUE%2C+MIAMI%20BEACH%2C+FL+33139,
WALGREEN CO.,1705 US HWY 1,"VERO BEACH, FL 32960",http://maps.google.com/maps?q=WALGREEN%20CO%2C1705%20US%20HWY%201%2C+VERO%20BEACH%2C+FL+32960,
WALGREEN CO.,1751 BONAVENTURE BLVD,"WESTON, FL 33326",http://maps.google.com/maps?q=WALGREEN%20CO%2C1751%20BONAVENTURE%20BLVD%2C+WESTON%2C+FL+33326,
WALGREEN CO.,17534 COLLINS AVE,"SUNNY ISLES BEACH, FL 33160",http://maps.google.com/maps?q=WALGREEN%20CO%2C17534%20COLLINS%20AVE%2C+SUNNY%20ISLES%20BEACH%2C+FL+33160,
WALGREEN CO.,1780 N. UNIVERSITY  DR.,"PLANTATION, FL 33322",http://maps.google.com/maps?q=WALGREEN%20CO%2C1780%20N.%20UNIVERSITY%20%20DR.%2C+PLANTATION%2C+FL+33322,
WALGREEN CO.,1800 W INDIANTOWN RD,"JUPITER, FL 33458",http://maps.google.com/maps?q=WALGREEN%20CO%2C1800%20W%20INDIANTOWN%20RD%2C+JUPITER%2C+FL+33458,
WALGREEN CO.,19935 NW 2ND AVE,"MIAMI, FL 33169",http://maps.google.com/maps?q=WALGREEN%20CO%2C19935%20NW%202ND%20AVE%2C+MIAMI%2C+FL+33169,
WALGREEN CO.,200 SW 13TH ST,"MIAMI, FL 33130",http://maps.google.com/maps?q=WALGREEN%20CO%2C200%20SW%2013TH%20ST%2C+MIAMI%2C+FL+33130,
WALGREEN CO.,21880 STATE ROAD 7,"BOCA RATON, FL 33428",http://maps.google.com/maps?q=WALGREEN%20CO%2C21880%20STATE%20ROAD%207%2C+BOCA%20RATON%2C+FL+33428,
WALGREEN CO.,2355 NE 26TH STREET,"FT LAUDERDALE, FL 33305",http://maps.google.com/maps?q=WALGREEN%20CO%2C2355%20NE%2026TH%20STREET%2C+FT%20LAUDERDALE%2C+FL+33305,
WALGREEN CO.,2700 W. FLAGLER STREET,"MIAMI, FL 33135",http://maps.google.com/maps?q=WALGREEN%20CO%2C2700%20W.%20FLAGLER%20STREET%2C+MIAMI%2C+FL+33135,
WALGREEN CO.,3053 SW MARTIN DOWNS BLVD,"PALM CITY, FL 34990",http://maps.google.com/maps?q=WALGREEN%20CO%2C3053%20SW%20MARTIN%20DOWNS%20BLVD%2C+PALM%20CITY%2C+FL+34990,
WALGREEN CO.,3184 S CONGRESS AVE,"PALM SPRINGS, FL 33461",http://maps.google.com/maps?q=WALGREEN%20CO%2C3184%20S%20CONGRESS%20AVE%2C+PALM%20SPRINGS%2C+FL+33461,
WALGREEN CO.,3595 SW 22ND STREET,"MIAMI, FL 33145",http://maps.google.com/maps?q=WALGREEN%20CO%2C3595%20SW%2022ND%20STREET%2C+MIAMI%2C+FL+33145,
WALGREEN CO.,38 HOMESTEAD RD N,"LEHIGH ACRES, FL 33936",http://maps.google.com/maps?q=WALGREEN%20CO%2C38%20HOMESTEAD%20RD%20N%2C+LEHIGH%20ACRES%2C+FL+33936,
WALGREEN CO.,3895 W BROWARD BLVD,"FORT LAUDERDALE, FL 33312",http://maps.google.com/maps?q=WALGREEN%20CO%2C3895%20W%20BROWARD%20BLVD%2C+FORT%20LAUDERDALE%2C+FL+33312,
WALGREEN CO.,4010 S W 137TH AVE,"MIAMI, FL 33175",http://maps.google.com/maps?q=WALGREEN%20CO%2C4010%20S%20W%20137TH%20AVE%2C+MIAMI%2C+FL+33175,
WALGREEN CO.,4200 SW 8TH STREET,"CORAL GABLES, FL 33134",http://maps.google.com/maps?q=WALGREEN%20CO%2C4200%20SW%208TH%20STREET%2C+CORAL%20GABLES%2C+FL+33134,
WALGREEN CO.,4895 PALM AVENUE,"HIALEAH, FL 33012",http://maps.google.com/maps?q=WALGREEN%20CO%2C4895%20PALM%20AVENUE%2C+HIALEAH%2C+FL+33012,
WALGREEN CO.,5701 NW 183RD ST,"HIALEAH, FL 33015",http://maps.google.com/maps?q=WALGREEN%20CO%2C5701%20NW%20183RD%20ST%2C+HIALEAH%2C+FL+33015,
WALGREEN CO.,5800 SE FEDERAL HWY,"STUART, FL 34997",http://maps.google.com/maps?q=WALGREEN%20CO%2C5800%20SE%20FEDERAL%20HWY%2C+STUART%2C+FL+34997,
WALGREEN CO.,601 E COMMERCIAL BLVD,"OAKLAND PARK, FL 33334",http://maps.google.com/maps?q=WALGREEN%20CO%2C601%20E%20COMMERCIAL%20BLVD%2C+OAKLAND%20PARK%2C+FL+33334,
WALGREEN CO.,6458 LINTON BLVD.,"DELRAY BEACH, FL 33484",http://maps.google.com/maps?q=WALGREEN%20CO%2C6458%20LINTON%20BLVD.%2C+DELRAY%20BEACH%2C+FL+33484,
WALGREEN CO.,7150 W ATLANTIC BLVD,"MARGATE, FL 33063",http://maps.google.com/maps?q=WALGREEN%20CO%2C7150%20W%20ATLANTIC%20BLVD%2C+MARGATE%2C+FL+33063,
WALGREEN CO.,750 NW 119TH ST.,"MIAMI, FL 33168",http://maps.google.com/maps?q=WALGREEN%20CO%2C750%20NW%20119TH%20ST.%2C+MIAMI%2C+FL+33168,
WALGREEN CO.,8450 SW 24TH STREET,"MIAMI, FL 33155",http://maps.google.com/maps?q=WALGREEN%20CO%2C8450%20SW%2024TH%20STREET%2C+MIAMI%2C+FL+33155,
WALGREEN CO.,861 NE 8TH STREET,"HOMESTEAD, FL 33030",http://maps.google.com/maps?q=WALGREEN%20CO%2C861%20NE%208TH%20STREET%2C+HOMESTEAD%2C+FL+33030,
