Business Name,Address 1,Address 2,"City, State Zip",Map URL
13TH AVENUE PHARMACY INC,5211 13TH AVENUE,"BROOKLYN, NY 11219",http://maps.google.com/maps?q=TH%20AVENUE%20PHARMACY%20INC%2C5211%2013TH%20AVENUE%2C+BROOKLYN%2C+NY+11219,
AIDS HEALTHCARE FOUNDATION,475 ATLANTIC AVE,"BROOKLYN, NY 11217",http://maps.google.com/maps?q=AIDS%20HEALTHCARE%20FOUNDATION%2C475%20ATLANTIC%20AVE%2C+BROOKLYN%2C+NY+11217,
ALAN COHEN ENTERPRISES INC & ALAN B COHEN,524 BROADWAY,"MONTICELLO, NY 12701",http://maps.google.com/maps?q=ALAN%20COHEN%20ENTERPRISES%20INC%20%20ALAN%20B%20COHEN%2C524%20BROADWAY%2C+MONTICELLO%2C+NY+12701,
ALLIANCE PHARMACY CO,1245 HIGHLAND AVE,"ABINGTON, PA 19001",http://maps.google.com/maps?q=ALLIANCE%20PHARMACY%20CO%2C1245%20HIGHLAND%20AVE%2C+ABINGTON%2C+PA+19001,
ALLURE SPECIALTY PHARMACY,4377 BRONX BLVD,"BRONX, NY 10466",http://maps.google.com/maps?q=ALLURE%20SPECIALTY%20PHARMACY%2C4377%20BRONX%20BLVD%2C+BRONX%2C+NY+10466,
AMI PHARMACY,4180 BROADWAY,"NEW YORK, NY 10033",http://maps.google.com/maps?q=AMI%20PHARMACY%2C4180%20BROADWAY%2C+NEW%20YORK%2C+NY+10033,
ANDREW BROWN'S DRUG STORE,1502 PITTSTON AVENUE,"SCRANTON, PA 18505",http://maps.google.com/maps?q=ANDREW%20BROWNS%20DRUG%20STORE%2C1502%20PITTSTON%20AVENUE%2C+SCRANTON%2C+PA+18505,
APPLE VALLEY PHARMACY,8 WEST STREET,"WARWICK, NY 10990",http://maps.google.com/maps?q=APPLE%20VALLEY%20PHARMACY%2C8%20WEST%20STREET%2C+WARWICK%2C+NY+10990,
ARLINGTON PHARMACY INC,187 MILL STREET,"LIBERTY, NY 12754",http://maps.google.com/maps?q=ARLINGTON%20PHARMACY%20INC%2C187%20MILL%20STREET%2C+LIBERTY%2C+NY+12754,
ASCAN PHARMACY INC.,101-21 METROPOLITAN AVENUE,"FOREST HILLS, NY 11375",http://maps.google.com/maps?q=ASCAN%20PHARMACY%20INC%2C101-21%20METROPOLITAN%20AVENUE%2C+FOREST%20HILLS%2C+NY+11375,
AVIGHNA RX LLC,7 BEDFORD PARK BLVD,"BRONX, NY 10468",http://maps.google.com/maps?q=AVIGHNA%20RX%20LLC%2C7%20BEDFORD%20PARK%20BLVD%2C+BRONX%2C+NY+10468,
AVK RX INC.,3904 CHURCH AVE,"BROOKLYN, NY 11203",http://maps.google.com/maps?q=AVK%20RX%20INC%2C3904%20CHURCH%20AVE%2C+BROOKLYN%2C+NY+11203,
AVONORA INC,14901 UNION TPKE,"FLUSHING, NY 11367",http://maps.google.com/maps?q=AVONORA%20INC%2C14901%20UNION%20TPKE%2C+FLUSHING%2C+NY+11367,
"B & B PHARMACY, INC.",79-08 37TH AVE,"JACKSON HEIGHTS, NY 11372",http://maps.google.com/maps?q=B%20%20B%20PHARMACY%20INC%2C79-08%2037TH%20AVE%2C+JACKSON%20HEIGHTS%2C+NY+11372,
BANDSTAND CORPORATION,226 PROSPECT PARK W,"BROOKLYN, NY 11215",http://maps.google.com/maps?q=BANDSTAND%20CORPORATION%2C226%20PROSPECT%20PARK%20W%2C+BROOKLYN%2C+NY+11215,
BARDONIA PHARMACY LLC,301 ROUTE 304,SUITE 4,"BARDONIA, NY 10954",http://maps.google.com/maps?q=BARDONIA%20PHARMACY%20LLC%2C301%20ROUTE%20304%2C+BARDONIA%2C+NY+10954
BARON'S FAMILY PHARMACY INC,243 E BROAD STREET,"WESTFIELD, NJ 07090",http://maps.google.com/maps?q=BARONS%20FAMILY%20PHARMACY%20INC%2C243%20E%20BROAD%20STREET%2C+WESTFIELD%2C+NJ+07090,
BELLEVILLE PHARMACY,338 WASHINGTON AVE,"BELLEVILLE, NJ 07109",http://maps.google.com/maps?q=BELLEVILLE%20PHARMACY%2C338%20WASHINGTON%20AVE%2C+BELLEVILLE%2C+NJ+07109,
"BELMONT BEHAVIORAL HOSPITAL, LLC",4200 MONUMENT ROAD,"PHILADELPHIA, PA 19131",http://maps.google.com/maps?q=BELMONT%20BEHAVIORAL%20HOSPITAL%20LLC%2C4200%20MONUMENT%20ROAD%2C+PHILADELPHIA%2C+PA+19131,
BESAEL CORP,DBA OAK PARK PHARMACY,205 PROSPECT PARK WEST,"BROOKLYN, NY 11215",http://maps.google.com/maps?q=BESAEL%20CORP%2CDBA%20OAK%20PARK%20PHARMACY%2C+BROOKLYN%2C+NY+11215
BEST QUALITY CARE LLC,5015 8TH AVENUE,"BROOKLYN, NY 11220",http://maps.google.com/maps?q=BEST%20QUALITY%20CARE%20LLC%2C5015%208TH%20AVENUE%2C+BROOKLYN%2C+NY+11220,
BOICEVILLE PHARMACY,P.O. BOX 474,ATTN: SUPERVISING PHARMACIST,"BOICEVILLE, NY 12412",http://maps.google.com/maps?q=BOICEVILLE%20PHARMACY%2CP.O.%20BOX%20474%2C+BOICEVILLE%2C+NY+12412
BOOTHWYN APOTHECARY,2341 CHICHESTER AVE,"BOOTHWYN, PA 19061",http://maps.google.com/maps?q=BOOTHWYN%20APOTHECARY%2C2341%20CHICHESTER%20AVE%2C+BOOTHWYN%2C+PA+19061,
BRAUNAGEL & BRAUNAGEL INC,12 SUSSEX STREET,"PORT JERVIS, NY 12771",http://maps.google.com/maps?q=BRAUNAGEL%20%20BRAUNAGEL%20INC%2C12%20SUSSEX%20STREET%2C+PORT%20JERVIS%2C+NY+12771,
BROAD & LEHIGH PHARMACY,1300 WEST LEHIGH AVENUE,SUITE 102,"PHILADELPHIA, PA 19132",http://maps.google.com/maps?q=BROAD%20%20LEHIGH%20PHARMACY%2C1300%20WEST%20LEHIGH%20AVENUE%2C+PHILADELPHIA%2C+PA+19132
CAREMART PHARMACY LLC,95-02 VAN WYCK EXPY,"S RICHMOND HILL, NY 11419",http://maps.google.com/maps?q=CAREMART%20PHARMACY%20LLC%2C95-02%20VAN%20WYCK%20EXPY%2C+S%20RICHMOND%20HILL%2C+NY+11419,
CARESITE PHARMACY,1000 E MOUNTAIN DRIVE,"WILKES BARRE, PA 18711",http://maps.google.com/maps?q=CARESITE%20PHARMACY%2C1000%20E%20MOUNTAIN%20DRIVE%2C+WILKES%20BARRE%2C+PA+18711,
CARESITE PHARMACY,114 LT. MICHAEL CLEARY DRIVE,"DALLAS, PA 18612",http://maps.google.com/maps?q=CARESITE%20PHARMACY%2C114%20LT.%20MICHAEL%20CLEARY%20DRIVE%2C+DALLAS%2C+PA+18612,
CARESITE PHARMACY,126 MARKET WAY,"MOUNT POCONO, PA 18344",http://maps.google.com/maps?q=CARESITE%20PHARMACY%2C126%20MARKET%20WAY%2C+MOUNT%20POCONO%2C+PA+18344,
CARESITE PHARMACY,16 WOODBINE LANE,"DANVILLE, PA 17821",http://maps.google.com/maps?q=CARESITE%20PHARMACY%2C16%20WOODBINE%20LANE%2C+DANVILLE%2C+PA+17821,
CARESITE PHARMACY,175 SOUTH WILKES-BARRE BLVD,"WILKES BARRE, PA 18702",http://maps.google.com/maps?q=CARESITE%20PHARMACY%2C175%20SOUTH%20WILKES-BARRE%20BLVD%2C+WILKES%20BARRE%2C+PA+18702,
CARESITE PHARMACY,21 GEISINGER LANE,"LEWISTOWN, PA 17044",http://maps.google.com/maps?q=CARESITE%20PHARMACY%2C21%20GEISINGER%20LANE%2C+LEWISTOWN%2C+PA+17044,
CARESITE PHARMACY,400 HIGHLAND AVE. SUITE B,"LEWISTOWN, PA 17044",http://maps.google.com/maps?q=CARESITE%20PHARMACY%2C400%20HIGHLAND%20AVE.%20SUITE%20B%2C+LEWISTOWN%2C+PA+17044,
CARESITE PHARMACY,531 MT. PLEASANT DRIVE,"SCRANTON, PA 18503",http://maps.google.com/maps?q=CARESITE%20PHARMACY%2C531%20MT.%20PLEASANT%20DRIVE%2C+SCRANTON%2C+PA+18503,
CARESITE PHARMACY,THE LEWIS FANELLI BUILDING,529 TERRY REILEY WAY,"POTTSVILLE, PA 17901",http://maps.google.com/maps?q=CARESITE%20PHARMACY%2CTHE%20LEWIS%20FANELLI%20BUILDING%2C+POTTSVILLE%2C+PA+17901
CASTLE HILL DRUGS INC.,674 CASTLE HILL  AVENUE,"BRONX, NY 10473",http://maps.google.com/maps?q=CASTLE%20HILL%20DRUGS%20INC%2C674%20CASTLE%20HILL%20%20AVENUE%2C+BRONX%2C+NY+10473,
CASTLE TOPP PHARMACY CORP.,1370A CASTLE HILL AVE,"BRONX, NY 10462",http://maps.google.com/maps?q=CASTLE%20TOPP%20PHARMACY%20CORP%2C1370A%20CASTLE%20HILL%20AVE%2C+BRONX%2C+NY+10462,
CEDARS PHARMACY,95-19 57 AVENUE,"ELMHURST, NY 11373",http://maps.google.com/maps?q=CEDARS%20PHARMACY%2C95-19%2057%20AVENUE%2C+ELMHURST%2C+NY+11373,
CENTRASTATE SPECIALTY SCRIPT,901 W MAIN ST,SUITE 162,"FREEHOLD, NJ 07728",http://maps.google.com/maps?q=CENTRASTATE%20SPECIALTY%20SCRIPT%2C901%20W%20MAIN%20ST%2C+FREEHOLD%2C+NJ+07728
CITY CHEMIST CORP.,324 MAIN STREET,"POUGHKEEPSIE, NY 12601",http://maps.google.com/maps?q=CITY%20CHEMIST%20CORP%2C324%20MAIN%20STREET%2C+POUGHKEEPSIE%2C+NY+12601,
COMMUNITY CARE RX NJ,225 W. RTE 46,SUITE 4,"TOTOWA, NJ 07512",http://maps.google.com/maps?q=COMMUNITY%20CARE%20RX%20NJ%2C225%20W.%20RTE%2046%2C+TOTOWA%2C+NJ+07512
COMMUNITY MED CTR PHARMACY,1822 MULBERRY ST,"SCRANTON, PA 18510",http://maps.google.com/maps?q=COMMUNITY%20MED%20CTR%20PHARMACY%2C1822%20MULBERRY%20ST%2C+SCRANTON%2C+PA+18510,
CONCEPT MEDICAL,639 CHESTNUT STREET,"ASHLAND, PA 17921",http://maps.google.com/maps?q=CONCEPT%20MEDICAL%2C639%20CHESTNUT%20STREET%2C+ASHLAND%2C+PA+17921,
CROSSBAY CHEMISTS CORP,157-02 CROSSBAY BOULEVARD,"HOWARD BEACH, NY 11414",http://maps.google.com/maps?q=CROSSBAY%20CHEMISTS%20CORP%2C157-02%20CROSSBAY%20BOULEVARD%2C+HOWARD%20BEACH%2C+NY+11414,
CUREMED PHARMACY,353 CROOKS AVENUE,"CLIFTON, NJ 07011",http://maps.google.com/maps?q=CUREMED%20PHARMACY%2C353%20CROOKS%20AVENUE%2C+CLIFTON%2C+NJ+07011,
"CVS ALBANY, L.L.C.",100-02 QUEENS BOULEVARD,"FOREST HILLS, NY 11375",http://maps.google.com/maps?q=CVS%20ALBANY%20LLC%2C100-02%20QUEENS%20BOULEVARD%2C+FOREST%20HILLS%2C+NY+11375,
"CVS ALBANY, L.L.C.",12 WELCHER AVE.,"PEEKSKILL, NY 10566",http://maps.google.com/maps?q=CVS%20ALBANY%20LLC%2C12%20WELCHER%20AVE.%2C+PEEKSKILL%2C+NY+10566,
"CVS ALBANY, L.L.C.",1276 UPPER FRONT ST.,"BINGHAMTON, NY 13901",http://maps.google.com/maps?q=CVS%20ALBANY%20LLC%2C1276%20UPPER%20FRONT%20ST.%2C+BINGHAMTON%2C+NY+13901,
"CVS ALBANY, L.L.C.",1361 HYLAN BLVD.,"STATEN ISLAND, NY 10305",http://maps.google.com/maps?q=CVS%20ALBANY%20LLC%2C1361%20HYLAN%20BLVD.%2C+STATEN%20ISLAND%2C+NY+10305,
"CVS ALBANY, L.L.C.",1396 SECOND AVENUE,"NEW YORK, NY 10021",http://maps.google.com/maps?q=CVS%20ALBANY%20LLC%2C1396%20SECOND%20AVENUE%2C+NEW%20YORK%2C+NY+10021,
"CVS ALBANY, L.L.C.",150 EAST 42ND ST.,"NEW YORK, NY 10017",http://maps.google.com/maps?q=CVS%20ALBANY%20LLC%2C150%20EAST%2042ND%20ST.%2C+NEW%20YORK%2C+NY+10017,
"CVS ALBANY, L.L.C.",1827 MAIN ST.,"PEEKSKILL, NY 10566",http://maps.google.com/maps?q=CVS%20ALBANY%20LLC%2C1827%20MAIN%20ST.%2C+PEEKSKILL%2C+NY+10566,
"CVS ALBANY, L.L.C.",1916 WILLIAMSBRIDGE ROAD,"BRONX, NY 10461",http://maps.google.com/maps?q=CVS%20ALBANY%20LLC%2C1916%20WILLIAMSBRIDGE%20ROAD%2C+BRONX%2C+NY+10461,
"CVS ALBANY, L.L.C.",1933 VICTORY BLVD.,"STATEN ISLAND, NY 10314",http://maps.google.com/maps?q=CVS%20ALBANY%20LLC%2C1933%20VICTORY%20BLVD.%2C+STATEN%20ISLAND%2C+NY+10314,
"CVS ALBANY, L.L.C.",212-20 NORTHERN BOULEVARD,"BAYSIDE, NY 11361",http://maps.google.com/maps?q=CVS%20ALBANY%20LLC%2C212-20%20NORTHERN%20BOULEVARD%2C+BAYSIDE%2C+NY+11361,
"CVS ALBANY, L.L.C.",2290 CENTRAL PARK AVENUE,"YONKERS, NY 10710",http://maps.google.com/maps?q=CVS%20ALBANY%20LLC%2C2290%20CENTRAL%20PARK%20AVENUE%2C+YONKERS%2C+NY+10710,
"CVS ALBANY, L.L.C.",241 WEST 57TH STREET,"NEW YORK, NY 10019",http://maps.google.com/maps?q=CVS%20ALBANY%20LLC%2C241%20WEST%2057TH%20STREET%2C+NEW%20YORK%2C+NY+10019,
"CVS ALBANY, L.L.C.",253 FIRST AVENUE,"NEW YORK, NY 10003",http://maps.google.com/maps?q=CVS%20ALBANY%20LLC%2C253%20FIRST%20AVENUE%2C+NEW%20YORK%2C+NY+10003,
"CVS ALBANY, L.L.C.",280 SOUTH MAIN STREET,"NEW CITY, NY 10956",http://maps.google.com/maps?q=CVS%20ALBANY%20LLC%2C280%20SOUTH%20MAIN%20STREET%2C+NEW%20CITY%2C+NY+10956,
"CVS ALBANY, L.L.C.",2925 KINGS HIGHWAY,"BROOKLYN, NY 11229",http://maps.google.com/maps?q=CVS%20ALBANY%20LLC%2C2925%20KINGS%20HIGHWAY%2C+BROOKLYN%2C+NY+11229,
"CVS ALBANY, L.L.C.",309 MAIN ST.,"NEW ROCHELLE, NY 10801",http://maps.google.com/maps?q=CVS%20ALBANY%20LLC%2C309%20MAIN%20ST.%2C+NEW%20ROCHELLE%2C+NY+10801,
"CVS ALBANY, L.L.C.",3101 DITMARS BLVD.,"ASTORIA, NY 11105",http://maps.google.com/maps?q=CVS%20ALBANY%20LLC%2C3101%20DITMARS%20BLVD.%2C+ASTORIA%2C+NY+11105,
"CVS ALBANY, L.L.C.",325 MAMARONECK AVE.,"WHITE PLAINS, NY 10605",http://maps.google.com/maps?q=CVS%20ALBANY%20LLC%2C325%20MAMARONECK%20AVE.%2C+WHITE%20PLAINS%2C+NY+10605,
"CVS ALBANY, L.L.C.",3775 E. TREMONT AVE.,"BRONX, NY 10465",http://maps.google.com/maps?q=CVS%20ALBANY%20LLC%2C3775%20E.%20TREMONT%20AVE.%2C+BRONX%2C+NY+10465,
"CVS ALBANY, L.L.C.",4170 ALBANY POST RD.,"HYDE PARK, NY 12538",http://maps.google.com/maps?q=CVS%20ALBANY%20LLC%2C4170%20ALBANY%20POST%20RD.%2C+HYDE%20PARK%2C+NY+12538,
"CVS ALBANY, L.L.C.",4901 KINGS HIGHWAY,"BROOKLYN, NY 11234",http://maps.google.com/maps?q=CVS%20ALBANY%20LLC%2C4901%20KINGS%20HIGHWAY%2C+BROOKLYN%2C+NY+11234,
"CVS ALBANY, L.L.C.",5 INDIAN ROCK PLAZA,"SUFFERN, NY 10901",http://maps.google.com/maps?q=CVS%20ALBANY%20LLC%2C5%20INDIAN%20ROCK%20PLAZA%2C+SUFFERN%2C+NY+10901,
"CVS ALBANY, L.L.C.",540 AMSTERDAM AVENUE,"NEW YORK, NY 10024",http://maps.google.com/maps?q=CVS%20ALBANY%20LLC%2C540%20AMSTERDAM%20AVENUE%2C+NEW%20YORK%2C+NY+10024,
"CVS ALBANY, L.L.C.",630 LEXINGTON AVENUE,"NEW YORK, NY 10022",http://maps.google.com/maps?q=CVS%20ALBANY%20LLC%2C630%20LEXINGTON%20AVENUE%2C+NEW%20YORK%2C+NY+10022,
"CVS ALBANY, L.L.C.",640 ARTHUR KILL ROAD,"STATEN ISLAND, NY 10308",http://maps.google.com/maps?q=CVS%20ALBANY%20LLC%2C640%20ARTHUR%20KILL%20ROAD%2C+STATEN%20ISLAND%2C+NY+10308,
"CVS ALBANY, L.L.C.",75 N. MIDDLETOWN RD.,"PEARL RIVER, NY 10965",http://maps.google.com/maps?q=CVS%20ALBANY%20LLC%2C75%20N.%20MIDDLETOWN%20RD.%2C+PEARL%20RIVER%2C+NY+10965,
"CVS ALBANY, L.L.C.",7960 METROPOLITAN AVENUE,"MIDDLE VILLAGE, NY 11379",http://maps.google.com/maps?q=CVS%20ALBANY%20LLC%2C7960%20METROPOLITAN%20AVENUE%2C+MIDDLE%20VILLAGE%2C+NY+11379,
"CVS ALBANY, L.L.C.",812 FOREST AVE.,"STATEN ISLAND, NY 10310",http://maps.google.com/maps?q=CVS%20ALBANY%20LLC%2C812%20FOREST%20AVE.%2C+STATEN%20ISLAND%2C+NY+10310,
"CVS ALBANY, L.L.C.",89-11 NORTHERN BLVD.,"JACKSON HEIGHTS, NY 11372",http://maps.google.com/maps?q=CVS%20ALBANY%20LLC%2C89-11%20NORTHERN%20BLVD.%2C+JACKSON%20HEIGHTS%2C+NY+11372,
DEDRICK'S PHARMACY INC,86 N FRONT ST,"KINGSTON, NY 12401",http://maps.google.com/maps?q=DEDRICKS%20PHARMACY%20INC%2C86%20N%20FRONT%20ST%2C+KINGSTON%2C+NY+12401,
"DELAWARE CVS PHARMACY, L.L.C.",1545 PULASKI HIGHWAY,"BEAR, DE 19701",http://maps.google.com/maps?q=DELAWARE%20CVS%20PHARMACY%20LLC%2C1545%20PULASKI%20HIGHWAY%2C+BEAR%2C+DE+19701,
"DELAWARE CVS PHARMACY, L.L.C.",4020 CONCORD PIKE,"WILMINGTON, DE 19803",http://maps.google.com/maps?q=DELAWARE%20CVS%20PHARMACY%20LLC%2C4020%20CONCORD%20PIKE%2C+WILMINGTON%2C+DE+19803,
DELCO DRUGS & SPECIALTY PHARMACY INC.,3833 RICHMOND AVE,"STATEN ISLAND, NY 10312",http://maps.google.com/maps?q=DELCO%20DRUGS%20%20SPECIALTY%20PHARMACY%20INC%2C3833%20RICHMOND%20AVE%2C+STATEN%20ISLAND%2C+NY+10312,
DEPIETRO'S PHARMACY,617 THIRD ST.,"DUNMORE, PA 18512",http://maps.google.com/maps?q=DEPIETROS%20PHARMACY%2C617%20THIRD%20ST.%2C+DUNMORE%2C+PA+18512,
DEVINES PHARMACY INC,1949 OAK TREE ROAD,"EDISON, NJ 08820",http://maps.google.com/maps?q=DEVINES%20PHARMACY%20INC%2C1949%20OAK%20TREE%20ROAD%2C+EDISON%2C+NJ+08820,
DONGAN HILLS PHARMACY,1560 RICHMOND RD,"STATEN ISLAND, NY 10304",http://maps.google.com/maps?q=DONGAN%20HILLS%20PHARMACY%2C1560%20RICHMOND%20RD%2C+STATEN%20ISLAND%2C+NY+10304,
DPR EQUITY INC.,1987 STATE ROUTE 52,"LIBERTY, NY 12754",http://maps.google.com/maps?q=DPR%20EQUITY%20INC%2C1987%20STATE%20ROUTE%2052%2C+LIBERTY%2C+NY+12754,
DRUGDEX PHARMACY INC,1632 BRUCKNER BOULEVARD,"BRONX, NY 10473",http://maps.google.com/maps?q=DRUGDEX%20PHARMACY%20INC%2C1632%20BRUCKNER%20BOULEVARD%2C+BRONX%2C+NY+10473,
DUANE READE,1 UNION SQ SOUTH,"NEW YORK, NY 10003",http://maps.google.com/maps?q=DUANE%20READE%2C1%20UNION%20SQ%20SOUTH%2C+NEW%20YORK%2C+NY+10003,
DUANE READE,107-16 CONTINENTAL AVENUE,"FOREST HILLS, NY 11375",http://maps.google.com/maps?q=DUANE%20READE%2C107-16%20CONTINENTAL%20AVENUE%2C+FOREST%20HILLS%2C+NY+11375,
DUANE READE,1231 MADISON AVENUE,"NEW YORK, NY 10128",http://maps.google.com/maps?q=DUANE%20READE%2C1231%20MADISON%20AVENUE%2C+NEW%20YORK%2C+NY+10128,
DUANE READE,13602 ROOSEVELT AVENUE,"FLUSHING, NY 11354",http://maps.google.com/maps?q=DUANE%20READE%2C13602%20ROOSEVELT%20AVENUE%2C+FLUSHING%2C+NY+11354,
DUANE READE,1498 YORK AVENUE,"NEW YORK, NY 10075",http://maps.google.com/maps?q=DUANE%20READE%2C1498%20YORK%20AVENUE%2C+NEW%20YORK%2C+NY+10075,
DUANE READE,155 EAST 34TH STREET,"NEW YORK, NY 10016",http://maps.google.com/maps?q=DUANE%20READE%2C155%20EAST%2034TH%20STREET%2C+NEW%20YORK%2C+NY+10016,
DUANE READE,2522 BROADWAY,"NEW YORK, NY 10025",http://maps.google.com/maps?q=DUANE%20READE%2C2522%20BROADWAY%2C+NEW%20YORK%2C+NY+10025,
DUANE READE,2864 BROADWAY,"NEW YORK, NY 10025",http://maps.google.com/maps?q=DUANE%20READE%2C2864%20BROADWAY%2C+NEW%20YORK%2C+NY+10025,
DUANE READE,296 FLATBUSH AVE,"BROOKLYN, NY 11217",http://maps.google.com/maps?q=DUANE%20READE%2C296%20FLATBUSH%20AVE%2C+BROOKLYN%2C+NY+11217,
DUANE READE,40 WALL STREET,"NEW YORK, NY 10005",http://maps.google.com/maps?q=DUANE%20READE%2C40%20WALL%20STREET%2C+NEW%20YORK%2C+NY+10005,
DUANE READE,5008 5TH AVE,"BROOKLYN, NY 11220",http://maps.google.com/maps?q=DUANE%20READE%2C5008%205TH%20AVE%2C+BROOKLYN%2C+NY+11220,
DUANE READE,51 WEST 51ST STREET,"NEW YORK, NY 10019",http://maps.google.com/maps?q=DUANE%20READE%2C51%20WEST%2051ST%20STREET%2C+NEW%20YORK%2C+NY+10019,
DUANE READE,661 8TH AVENUE,"NEW YORK, NY 10036",http://maps.google.com/maps?q=DUANE%20READE%2C661%208TH%20AVENUE%2C+NEW%20YORK%2C+NY+10036,
DUANE READE,71 WEST 23RD STREET,"NEW YORK, NY 10010",http://maps.google.com/maps?q=DUANE%20READE%2C71%20WEST%2023RD%20STREET%2C+NEW%20YORK%2C+NY+10010,
DUANE READE,73-01 37TH AVENUE,"JACKSON HEIGHTS, NY 11372",http://maps.google.com/maps?q=DUANE%20READE%2C73-01%2037TH%20AVENUE%2C+JACKSON%20HEIGHTS%2C+NY+11372,
DUANE READE,775 COLUMBUS AVENUE,"NEW YORK, NY 10025",http://maps.google.com/maps?q=DUANE%20READE%2C775%20COLUMBUS%20AVENUE%2C+NEW%20YORK%2C+NY+10025,
DUANE READE,949 THIRD AVENUE,"NEW YORK, NY 10022",http://maps.google.com/maps?q=DUANE%20READE%2C949%20THIRD%20AVENUE%2C+NEW%20YORK%2C+NY+10022,
DUANE READE PHCY. DEPT.,110 NEWARK AVENUE,"JERSEY CITY, NJ 07302",http://maps.google.com/maps?q=DUANE%20READE%20PHCY%20DEPT%2C110%20NEWARK%20AVENUE%2C+JERSEY%20CITY%2C+NJ+07302,
EAGLEVILLE HOSPITAL,100 EAGLEVILLE ROAD,"EAGLEVILLE, PA 19403",http://maps.google.com/maps?q=EAGLEVILLE%20HOSPITAL%2C100%20EAGLEVILLE%20ROAD%2C+EAGLEVILLE%2C+PA+19403,
EAST 16 STREET PHARMACY INC,1526 CORTELYOU RD,"BROOKLYN, NY 11226",http://maps.google.com/maps?q=EAST%20%20STREET%20PHARMACY%20INC%2C1526%20CORTELYOU%20RD%2C+BROOKLYN%2C+NY+11226,
"EAST MAIN STREET CHEMISTS, INC.",707 EAST MAIN STREET,"MIDDLETOWN, NY 10940",http://maps.google.com/maps?q=EAST%20MAIN%20STREET%20CHEMISTS%20INC%2C707%20EAST%20MAIN%20STREET%2C+MIDDLETOWN%2C+NY+10940,
ELLENVILLE REGIONAL HOSPITAL,10 HEALTHY WAY,"ELLENVILLE, NY 12428",http://maps.google.com/maps?q=ELLENVILLE%20REGIONAL%20HOSPITAL%2C10%20HEALTHY%20WAY%2C+ELLENVILLE%2C+NY+12428,
ERIC'S RX SHOPPE LLC,810 WELSH RD,"HORSHAM, PA 19044",http://maps.google.com/maps?q=ERICS%20RX%20SHOPPE%20LLC%2C810%20WELSH%20RD%2C+HORSHAM%2C+PA+19044,
ERX PHARMACEUTICAL LLC,159 RALPH AVE,"BROOKLYN, NY 11233",http://maps.google.com/maps?q=ERX%20PHARMACEUTICAL%20LLC%2C159%20RALPH%20AVE%2C+BROOKLYN%2C+NY+11233,
ESCO DRUG CO INC,687 9TH AVE,"NEW YORK, NY 10036",http://maps.google.com/maps?q=ESCO%20DRUG%20CO%20INC%2C687%209TH%20AVE%2C+NEW%20YORK%2C+NY+10036,
EXPRESS CARE PHARMACY,"1727 W LIBERTY STREET, UNIT 2","ALLENTOWN, PA 18104",http://maps.google.com/maps?q=EXPRESS%20CARE%20PHARMACY%2C1727%20W%20LIBERTY%20STREET%2C%20UNIT%202%2C+ALLENTOWN%2C+PA+18104,
FISHKILL PHARMACY LLC,1004 MAIN ST.,BUILDING 554,"FISHKILL, NY 12524",http://maps.google.com/maps?q=FISHKILL%20PHARMACY%20LLC%2C1004%20MAIN%20ST.%2C+FISHKILL%2C+NY+12524
FLATBUSH RX CORP,1855 FLATBUSH AVE,"BROOKLYN, NY 11210",http://maps.google.com/maps?q=FLATBUSH%20RX%20CORP%2C1855%20FLATBUSH%20AVE%2C+BROOKLYN%2C+NY+11210,
FOX CHASE CANCER CENTER PHARMACY,333 COTTMAN AVENUE,"PHILADELPHIA, PA 19111",http://maps.google.com/maps?q=FOX%20CHASE%20CANCER%20CENTER%20PHARMACY%2C333%20COTTMAN%20AVENUE%2C+PHILADELPHIA%2C+PA+19111,
FRANCO PHARMACY CORP,77-01 37TH AVE,"JACKSON HEIGHTS, NY 11372",http://maps.google.com/maps?q=FRANCO%20PHARMACY%20CORP%2C77-01%2037TH%20AVE%2C+JACKSON%20HEIGHTS%2C+NY+11372,
FULL CARE PHARMACY INC,2913 SURF AVE,"BROOKLYN, NY 11224",http://maps.google.com/maps?q=FULL%20CARE%20PHARMACY%20INC%2C2913%20SURF%20AVE%2C+BROOKLYN%2C+NY+11224,
"G.S.P. LONGTERM CARE, INC",1567 CENTRAL PARK AVENUE,"YONKERS, NY 10710",http://maps.google.com/maps?q=GSP%20LONGTERM%20CARE%20INC%2C1567%20CENTRAL%20PARK%20AVENUE%2C+YONKERS%2C+NY+10710,
GEISINGER - SHAMOKIN AREA COMMUNITY HOSPITAL,4200 HOSPITAL ROAD,"COAL TOWNSHIP, PA 17866",http://maps.google.com/maps?q=GEISINGER%20%20SHAMOKIN%20AREA%20COMMUNITY%20HOSPITAL%2C4200%20HOSPITAL%20ROAD%2C+COAL%20TOWNSHIP%2C+PA+17866,
GEISINGER MEDICAL CENTER,100 N ACADEMY AVE,"DANVILLE, PA 17822",http://maps.google.com/maps?q=GEISINGER%20MEDICAL%20CENTER%2C100%20N%20ACADEMY%20AVE%2C+DANVILLE%2C+PA+17822,
GEISINGER-BLOOMSBURG HOSPITAL PHARMACY,549 E FAIR STREET,"BLOOMSBURG, PA 17815",http://maps.google.com/maps?q=GEISINGERBLOOMSBURG%20HOSPITAL%20PHARMACY%2C549%20E%20FAIR%20STREET%2C+BLOOMSBURG%2C+PA+17815,
"GENOA HEALTHCARE, LLC",25 E SALEM STREET,"HACKENSACK, NJ 07601",http://maps.google.com/maps?q=GENOA%20HEALTHCARE%20LLC%2C25%20E%20SALEM%20STREET%2C+HACKENSACK%2C+NJ+07601,
GLADWYNE PHARMACY,352 RIGHTERS MILL RD,"GLADWYNE, PA 19035",http://maps.google.com/maps?q=GLADWYNE%20PHARMACY%2C352%20RIGHTERS%20MILL%20RD%2C+GLADWYNE%2C+PA+19035,
GRAMATAN PHARMACY CORP,120 GRAMATAN AVENUE,"MOUNT VERNON, NY 10550",http://maps.google.com/maps?q=GRAMATAN%20PHARMACY%20CORP%2C120%20GRAMATAN%20AVENUE%2C+MOUNT%20VERNON%2C+NY+10550,
GRASSY SPRAIN PHARMACY INC,640 TUCKAHOE ROAD,"YONKERS, NY 10710",http://maps.google.com/maps?q=GRASSY%20SPRAIN%20PHARMACY%20INC%2C640%20TUCKAHOE%20ROAD%2C+YONKERS%2C+NY+10710,
GUTHRIE TOWANDA MEMORIAL HOSPITAL,91 HOSPITAL DRIVE,"TOWANDA, PA 18848",http://maps.google.com/maps?q=GUTHRIE%20TOWANDA%20MEMORIAL%20HOSPITAL%2C91%20HOSPITAL%20DRIVE%2C+TOWANDA%2C+PA+18848,
HAPPY HARRY'S INC.,1120 PULASKI HIGHWAY,"BEAR, DE 19701",http://maps.google.com/maps?q=HAPPY%20HARRYS%20INC%2C1120%20PULASKI%20HIGHWAY%2C+BEAR%2C+DE+19701,
HAPPY HARRY'S INC.,6317 LIMESTONE ROAD,"HOCKESSIN, DE 19707",http://maps.google.com/maps?q=HAPPY%20HARRYS%20INC%2C6317%20LIMESTONE%20ROAD%2C+HOCKESSIN%2C+DE+19707,
HAPPY HARRY'S INC.,CHESTNUT RUN,1710 FAULKLAND ROAD,"WILMINGTON, DE 19805",http://maps.google.com/maps?q=HAPPY%20HARRYS%20INC%2CCHESTNUT%20RUN%2C+WILMINGTON%2C+DE+19805
HAPPY HARRY'S INC.,FAIRFAX SHOPPING CENTER,2119 CONCORD PIKE,"WILMINGTON, DE 19803",http://maps.google.com/maps?q=HAPPY%20HARRYS%20INC%2CFAIRFAX%20SHOPPING%20CENTER%2C+WILMINGTON%2C+DE+19803
HAPPY HARRY'S INC.,SUBURBAN PLAZA,216 SUBURBAN DRIVE,"NEWARK, DE 19711",http://maps.google.com/maps?q=HAPPY%20HARRYS%20INC%2CSUBURBAN%20PLAZA%2C+NEWARK%2C+DE+19711
HARPELL CHEMISTS INC,12-65 150TH STREET,"WHITESTONE, NY 11357",http://maps.google.com/maps?q=HARPELL%20CHEMISTS%20INC%2C12-65%20150TH%20STREET%2C+WHITESTONE%2C+NY+11357,
HARROLD'S PHARMACY,250 OLD RIVER ROAD,"WILKES BARRE, PA 18702",http://maps.google.com/maps?q=HARROLDS%20PHARMACY%2C250%20OLD%20RIVER%20ROAD%2C+WILKES%20BARRE%2C+PA+18702,
HARTZELLS PHARMACY INC,300 AMERICAN STREET,"CATASAUQUA, PA 18032",http://maps.google.com/maps?q=HARTZELLS%20PHARMACY%20INC%2C300%20AMERICAN%20STREET%2C+CATASAUQUA%2C+PA+18032,
HEALTH SERVICES PHARMACY,1201 GRAMPIAN BLVD,"WILLIAMSPORT, PA 17701",http://maps.google.com/maps?q=HEALTH%20SERVICES%20PHARMACY%2C1201%20GRAMPIAN%20BLVD%2C+WILLIAMSPORT%2C+PA+17701,
HEALTH SPECTRUM PHARMACY SERVICES POCONO,206 E. BROWN ST.,1ST FLOOR,"EAST STROUDSBURG, PA 18301",http://maps.google.com/maps?q=HEALTH%20SPECTRUM%20PHARMACY%20SERVICES%20POCONO%2C206%20E.%20BROWN%20ST.%2C+EAST%20STROUDSBURG%2C+PA+18301
HEALTHALLIANCE HOSPITAL,C/O PHARMACY,105 MARY'S AVE,"KINGSTON, NY 12401",http://maps.google.com/maps?q=HEALTHALLIANCE%20HOSPITAL%2CC/O%20PHARMACY%2C+KINGSTON%2C+NY+12401
HEALTHSMART,203 MAIN ST,"OSSINING, NY 10562",http://maps.google.com/maps?q=HEALTHSMART%2C203%20MAIN%20ST%2C+OSSINING%2C+NY+10562,
HERSHEY MEDICAL CENTER,MAIL CODE CH79,500 UNIVERSITY DR,"HERSHEY, PA 17033",http://maps.google.com/maps?q=HERSHEY%20MEDICAL%20CENTER%2CMAIL%20CODE%20CH79%2C+HERSHEY%2C+PA+17033
HILL RX CORP,9216 4TH AVENUE,"BROOKLYN, NY 11209",http://maps.google.com/maps?q=HILL%20RX%20CORP%2C9216%204TH%20AVENUE%2C+BROOKLYN%2C+NY+11209,
HOLY SPIRIT HOSPITAL,503 NORTH 21ST STREET,PHARMACY DEPT,"CAMP HILL, PA 17011",http://maps.google.com/maps?q=HOLY%20SPIRIT%20HOSPITAL%2C503%20NORTH%2021ST%20STREET%2C+CAMP%20HILL%2C+PA+17011
HOSPITAL OF THE UNIV OF PA,PHARMACY SERVICE,3400 SPRUCE STREET,"PHILADELPHIA, PA 19104",http://maps.google.com/maps?q=HOSPITAL%20OF%20THE%20UNIV%20OF%20PA%2CPHARMACY%20SERVICE%2C+PHILADELPHIA%2C+PA+19104
HOSPITAL OF THE UNIVERSITY OF PENNSYLVANIA,250 KING OF PRUSSIA ROAD /,ROOM 202,"RADNOR, PA 19087",http://maps.google.com/maps?q=HOSPITAL%20OF%20THE%20UNIVERSITY%20OF%20PENNSYLVANIA%2C250%20KING%20OF%20PRUSSIA%20ROAD%20/%2C+RADNOR%2C+PA+19087
HUP- PERELMAN PHARMACY,3400 CIVIC CENTER BLVD,ROOM 101W,"PHILADELPHIA, PA 19104",http://maps.google.com/maps?q=HUP%20PERELMAN%20PHARMACY%2C3400%20CIVIC%20CENTER%20BLVD%2C+PHILADELPHIA%2C+PA+19104
HUP-VALLEY FORGE PHARMACY,1001 CHESTERBROOK BLVD,1ST FLOOR,"BERWYN, PA 19312",http://maps.google.com/maps?q=HUPVALLEY%20FORGE%20PHARMACY%2C1001%20CHESTERBROOK%20BLVD%2C+BERWYN%2C+PA+19312
I & O PHARMACY CORP,669 MANHATTAN AVE,"BROOKLYN, NY 11222",http://maps.google.com/maps?q=I%20%20O%20PHARMACY%20CORP%2C669%20MANHATTAN%20AVE%2C+BROOKLYN%2C+NY+11222,
ISLA DRUG STORES INC,1994 THIRD AVE,"NEW YORK, NY 10029",http://maps.google.com/maps?q=ISLA%20DRUG%20STORES%20INC%2C1994%20THIRD%20AVE%2C+NEW%20YORK%2C+NY+10029,
J A K PHARMA INC,2343 ARTHUR AVENUE,"BRONX, NY 10458",http://maps.google.com/maps?q=J%20A%20K%20PHARMA%20INC%2C2343%20ARTHUR%20AVENUE%2C+BRONX%2C+NY+10458,
JACKSON HEIGHTS DRUGS INC.,BANGLADESH FARMACIA,73-21 37TH ROAD,"JACKSON HEIGHTS, NY 11372",http://maps.google.com/maps?q=JACKSON%20HEIGHTS%20DRUGS%20INC%2CBANGLADESH%20FARMACIA%2C+JACKSON%20HEIGHTS%2C+NY+11372
JAN PHARMA INC,311 ST. NICHOLAS AVENUE,"RIDGEWOOD, NY 11385",http://maps.google.com/maps?q=JAN%20PHARMA%20INC%2C311%20ST.%20NICHOLAS%20AVENUE%2C+RIDGEWOOD%2C+NY+11385,
JEFFERSON PHARMACY,833 CHESTNUT ST,SUITE 125,"PHILADELPHIA, PA 19107",http://maps.google.com/maps?q=JEFFERSON%20PHARMACY%2C833%20CHESTNUT%20ST%2C+PHILADELPHIA%2C+PA+19107
"JEFFEX, INC.",111 S 11TH ST STE 1850,"PHILADELPHIA, PA 19107",http://maps.google.com/maps?q=JEFFEX%20INC%2C111%20S%2011TH%20ST%20STE%201850%2C+PHILADELPHIA%2C+PA+19107,
JOJAN PHARMA INC,121 ST.NICHOLAS AVENUE,"BROOKLYN, NY 11237",http://maps.google.com/maps?q=JOJAN%20PHARMA%20INC%2C121%20ST.NICHOLAS%20AVENUE%2C+BROOKLYN%2C+NY+11237,
KCAID PHARMACY INC.,1771 BROADWAY,"BROOKLYN, NY 11207",http://maps.google.com/maps?q=KCAID%20PHARMACY%20INC%2C1771%20BROADWAY%2C+BROOKLYN%2C+NY+11207,
KINGSBRIDGE PHARMACY CORP.,145 W. KINGSBRIDGE RD.,"BRONX, NY 10468",http://maps.google.com/maps?q=KINGSBRIDGE%20PHARMACY%20CORP%2C145%20W.%20KINGSBRIDGE%20RD.%2C+BRONX%2C+NY+10468,
KINGSTON HOSPITAL,ATTN: PHARMACY DEPARTMENT,396 BROADWAY,"KINGSTON, NY 12401",http://maps.google.com/maps?q=KINGSTON%20HOSPITAL%2CATTN%3A%20PHARMACY%20DEPARTMENT%2C+KINGSTON%2C+NY+12401
KOHLERMAN PHARMACY INC,101 W KING STREET,"MALVERN, PA 19355",http://maps.google.com/maps?q=KOHLERMAN%20PHARMACY%20INC%2C101%20W%20KING%20STREET%2C+MALVERN%2C+PA+19355,
LE-MAC PHARMACY INC,623 MC LEAN AVE,"YONKERS, NY 10705",http://maps.google.com/maps?q=LEMAC%20PHARMACY%20INC%2C623%20MC%20LEAN%20AVE%2C+YONKERS%2C+NY+10705,
LECH'S PHARMACY,291 MAIN STREET,POB 600,"NICHOLSON, PA 18446",http://maps.google.com/maps?q=LECHS%20PHARMACY%2C291%20MAIN%20STREET%2C+NICHOLSON%2C+PA+18446
"LENLAK, INC",325 NEW DORP LANE,"STATEN ISLAND, NY 10306",http://maps.google.com/maps?q=LENLAK%20INC%2C325%20NEW%20DORP%20LANE%2C+STATEN%20ISLAND%2C+NY+10306,
LENOX PHARMACY,5879 SR 92,SUITE 3 LENOX PLAZA,"KINGSLEY, PA 18826",http://maps.google.com/maps?q=LENOX%20PHARMACY%2C5879%20SR%2092%2C+KINGSLEY%2C+PA+18826
LENOX TERRACE PHARMACY INC,DBA: LENOX TERRACE DRUG,20 WEST 135TH STREET,"NEW YORK, NY 10037",http://maps.google.com/maps?q=LENOX%20TERRACE%20PHARMACY%20INC%2CDBA%3A%20LENOX%20TERRACE%20DRUG%2C+NEW%20YORK%2C+NY+10037
LEWISBURG PHARMACY,50 N 2ND STREET,"LEWISBURG, PA 17837",http://maps.google.com/maps?q=LEWISBURG%20PHARMACY%2C50%20N%202ND%20STREET%2C+LEWISBURG%2C+PA+17837,
LIFE PHARMA II INC,471 LENOX AVENUE,"NEW YORK, NY 10037",http://maps.google.com/maps?q=LIFE%20PHARMA%20II%20INC%2C471%20LENOX%20AVENUE%2C+NEW%20YORK%2C+NY+10037,
LORDS VALLEY VILLAGE PHCY INC,658 ROUTE 739 SUITE 5,"HAWLEY, PA 18428",http://maps.google.com/maps?q=LORDS%20VALLEY%20VILLAGE%20PHCY%20INC%2C658%20ROUTE%20739%20SUITE%205%2C+HAWLEY%2C+PA+18428,
"LUXBURY VENTURES, LLC DBA OAKSIDE CARE PHARMACY",440 LEHIGH STREET,"READING, PA 19601",http://maps.google.com/maps?q=LUXBURY%20VENTURES%20LLC%20DBA%20OAKSIDE%20CARE%20PHARMACY%2C440%20LEHIGH%20STREET%2C+READING%2C+PA+19601,
MADISON PHARMACY,66 MAIN ST,"MADISON, NJ 07940",http://maps.google.com/maps?q=MADISON%20PHARMACY%2C66%20MAIN%20ST%2C+MADISON%2C+NJ+07940,
MARC'S VILLAGE PHARMACY INC,31 EAST MAIN STREET,"ELMSFORD, NY 10523",http://maps.google.com/maps?q=MARCS%20VILLAGE%20PHARMACY%20INC%2C31%20EAST%20MAIN%20STREET%2C+ELMSFORD%2C+NY+10523,
MARG PHARMACY,76 GRAHAM AVE.,"BROOKLYN, NY 11206",http://maps.google.com/maps?q=MARG%20PHARMACY%2C76%20GRAHAM%20AVE.%2C+BROOKLYN%2C+NY+11206,
MARGARETVILLE HOSPITAL PHARMACY,42084 STATE HIGHWAY,RT 28,"MARGARETVILLE, NY 12455",http://maps.google.com/maps?q=MARGARETVILLE%20HOSPITAL%20PHARMACY%2C42084%20STATE%20HIGHWAY%2C+MARGARETVILLE%2C+NY+12455
MASONIC VILLAGE PHARMACY,99 MASONIC DRIVE,"ELIZABETHTOWN, PA 17022",http://maps.google.com/maps?q=MASONIC%20VILLAGE%20PHARMACY%2C99%20MASONIC%20DRIVE%2C+ELIZABETHTOWN%2C+PA+17022,
MCELROY PHARMACY INC,100 E MAIN ST,P.O. BOX 283,"LITITZ, PA 17543",http://maps.google.com/maps?q=MCELROY%20PHARMACY%20INC%2C100%20E%20MAIN%20ST%2C+LITITZ%2C+PA+17543
MEDICAP PHARMACY,518 BURKE BYPASS,"OLYPHANT, PA 18447",http://maps.google.com/maps?q=MEDICAP%20PHARMACY%2C518%20BURKE%20BYPASS%2C+OLYPHANT%2C+PA+18447,
MEDLIFE PHARMACY,2000 RT   27 NORTH,"NORTH BRUNSWICK, NJ 08902",http://maps.google.com/maps?q=MEDLIFE%20PHARMACY%2C2000%20RT%20%20%2027%20NORTH%2C+NORTH%20BRUNSWICK%2C+NJ+08902,
MERCY PHARMACY,1503 LANSDOWNE AVENUE,SUITE 1000,"DARBY, PA 19023",http://maps.google.com/maps?q=MERCY%20PHARMACY%2C1503%20LANSDOWNE%20AVENUE%2C+DARBY%2C+PA+19023
MERU PHARMACY INC,2 PARK AVENUE,"YONKERS, NY 10703",http://maps.google.com/maps?q=MERU%20PHARMACY%20INC%2C2%20PARK%20AVENUE%2C+YONKERS%2C+NY+10703,
METHODIST HOSPITAL APOTHECARY,2301 SOUTH BROAD STREET,"PHILADELPHIA, PA 19148",http://maps.google.com/maps?q=METHODIST%20HOSPITAL%20APOTHECARY%2C2301%20SOUTH%20BROAD%20STREET%2C+PHILADELPHIA%2C+PA+19148,
MIDTOWN DRUGS,581 KEARNY AVE,"KEARNY, NJ 07032",http://maps.google.com/maps?q=MIDTOWN%20DRUGS%2C581%20KEARNY%20AVE%2C+KEARNY%2C+NJ+07032,
MILLERS OF WYCKOFF INC,678 WYCKOFF AVE,"WYCKOFF, NJ 07481",http://maps.google.com/maps?q=MILLERS%20OF%20WYCKOFF%20INC%2C678%20WYCKOFF%20AVE%2C+WYCKOFF%2C+NJ+07481,
MONTGOMERY'S PHARMACY,49 NORTH RAILROAD STREET,"HUGHESVILLE, PA 17737",http://maps.google.com/maps?q=MONTGOMERYS%20PHARMACY%2C49%20NORTH%20RAILROAD%20STREET%2C+HUGHESVILLE%2C+PA+17737,
MRR PHARMA INC,6220-6222 11TH AVENUE,"BROOKLYN, NY 11219",http://maps.google.com/maps?q=MRR%20PHARMA%20INC%2C6220-6222%2011TH%20AVENUE%2C+BROOKLYN%2C+NY+11219,
MT CARMEL PHARMACY,705 EAST 187TH STREET,"BRONX, NY 10458",http://maps.google.com/maps?q=MT%20CARMEL%20PHARMACY%2C705%20EAST%20187TH%20STREET%2C+BRONX%2C+NY+10458,
MY HOPE PHARMACY LLC,141-14 NORTHERN BLVD.,"FLUSHING, NY 11354",http://maps.google.com/maps?q=MY%20HOPE%20PHARMACY%20LLC%2C141-14%20NORTHERN%20BLVD.%2C+FLUSHING%2C+NY+11354,
NEEL-PATH LLC,6845 STATE ROUTE 434,PO BOX 376,"APALACHIN, NY 13732",http://maps.google.com/maps?q=NEELPATH%20LLC%2C6845%20STATE%20ROUTE%20434%2C+APALACHIN%2C+NY+13732
"NEW JERSEY CVS PHARMACY, L.L.C.",100 SPRINGDALE RD,"CHERRY HILL, NJ 08003",http://maps.google.com/maps?q=NEW%20JERSEY%20CVS%20PHARMACY%20LLC%2C100%20SPRINGDALE%20RD%2C+CHERRY%20HILL%2C+NJ+08003,
"NEW JERSEY CVS PHARMACY, L.L.C.",107 EAST FIRST AVENUE,"ROSELLE, NJ 07203",http://maps.google.com/maps?q=NEW%20JERSEY%20CVS%20PHARMACY%20LLC%2C107%20EAST%20FIRST%20AVENUE%2C+ROSELLE%2C+NJ+07203,
"NEW JERSEY CVS PHARMACY, L.L.C.",1099 RTE. 33 HAMILTON SQUARE,"HAMILTON, NJ 08690",http://maps.google.com/maps?q=NEW%20JERSEY%20CVS%20PHARMACY%20LLC%2C1099%20RTE.%2033%20HAMILTON%20SQUARE%2C+HAMILTON%2C+NJ+08690,
"NEW JERSEY CVS PHARMACY, L.L.C.",138 VILLAGE CENTER DR,RAINTREE S/C,"FREEHOLD, NJ 07728",http://maps.google.com/maps?q=NEW%20JERSEY%20CVS%20PHARMACY%20LLC%2C138%20VILLAGE%20CENTER%20DR%2C+FREEHOLD%2C+NJ+07728
"NEW JERSEY CVS PHARMACY, L.L.C.",2287 MORRIS AVENUE,"UNION, NJ 07083",http://maps.google.com/maps?q=NEW%20JERSEY%20CVS%20PHARMACY%20LLC%2C2287%20MORRIS%20AVENUE%2C+UNION%2C+NJ+07083,
"NEW JERSEY CVS PHARMACY, L.L.C.",24 S. BLACK HORSE PIKE,"MOUNT EPHRAIM, NJ 08059",http://maps.google.com/maps?q=NEW%20JERSEY%20CVS%20PHARMACY%20LLC%2C24%20S.%20BLACK%20HORSE%20PIKE%2C+MOUNT%20EPHRAIM%2C+NJ+08059,
"NEW JERSEY CVS PHARMACY, L.L.C.",24-12 FAIR LAWN AVENUE,"FAIR LAWN, NJ 07410",http://maps.google.com/maps?q=NEW%20JERSEY%20CVS%20PHARMACY%20LLC%2C24-12%20FAIR%20LAWN%20AVENUE%2C+FAIR%20LAWN%2C+NJ+07410,
"NEW JERSEY CVS PHARMACY, L.L.C.",2440 HAMBURG TURNPIKE,"WAYNE, NJ 07470",http://maps.google.com/maps?q=NEW%20JERSEY%20CVS%20PHARMACY%20LLC%2C2440%20HAMBURG%20TURNPIKE%2C+WAYNE%2C+NJ+07470,
"NEW JERSEY CVS PHARMACY, L.L.C.",25 EAST RED BANK AVENUE,"WOODBURY, NJ 08096",http://maps.google.com/maps?q=NEW%20JERSEY%20CVS%20PHARMACY%20LLC%2C25%20EAST%20RED%20BANK%20AVENUE%2C+WOODBURY%2C+NJ+08096,
"NEW JERSEY CVS PHARMACY, L.L.C.",303 FRANKLIN AVENUE,"WYCKOFF, NJ 07481",http://maps.google.com/maps?q=NEW%20JERSEY%20CVS%20PHARMACY%20LLC%2C303%20FRANKLIN%20AVENUE%2C+WYCKOFF%2C+NJ+07481,
"NEW JERSEY CVS PHARMACY, L.L.C.",307 EGG HARBOR RD,"SEWELL, NJ 08080",http://maps.google.com/maps?q=NEW%20JERSEY%20CVS%20PHARMACY%20LLC%2C307%20EGG%20HARBOR%20RD%2C+SEWELL%2C+NJ+08080,
"NEW JERSEY CVS PHARMACY, L.L.C.",3110 ROUTE 38,"MOUNT LAUREL, NJ 08054",http://maps.google.com/maps?q=NEW%20JERSEY%20CVS%20PHARMACY%20LLC%2C3110%20ROUTE%2038%2C+MOUNT%20LAUREL%2C+NJ+08054,
"NEW JERSEY CVS PHARMACY, L.L.C.",560 PASSIAC AVE,WEST CALDWELL S/C,"WEST CALDWELL, NJ 07006",http://maps.google.com/maps?q=NEW%20JERSEY%20CVS%20PHARMACY%20LLC%2C560%20PASSIAC%20AVE%2C+WEST%20CALDWELL%2C+NJ+07006
"NEW JERSEY CVS PHARMACY, L.L.C.",59 WASHINGTON ST,COURT STREET PLAZA,"HOBOKEN, NJ 07030",http://maps.google.com/maps?q=NEW%20JERSEY%20CVS%20PHARMACY%20LLC%2C59%20WASHINGTON%20ST%2C+HOBOKEN%2C+NJ+07030
"NEW JERSEY CVS PHARMACY, L.L.C.",600 KINGS HWY N,"CHERRY HILL, NJ 08034",http://maps.google.com/maps?q=NEW%20JERSEY%20CVS%20PHARMACY%20LLC%2C600%20KINGS%20HWY%20N%2C+CHERRY%20HILL%2C+NJ+08034,
"NEW JERSEY CVS PHARMACY, L.L.C.",890 SAINT GEORGE'S AVENUE,"RAHWAY, NJ 07065",http://maps.google.com/maps?q=NEW%20JERSEY%20CVS%20PHARMACY%20LLC%2C890%20SAINT%20GEORGE'S%20AVENUE%2C+RAHWAY%2C+NJ+07065,
"NEW JERSEY CVS PHARMACY, L.L.C.",9015 BERGENLINE AVENUE - 90TH STREET,"NORTH BERGEN, NJ 07047",http://maps.google.com/maps?q=NEW%20JERSEY%20CVS%20PHARMACY%20LLC%2C9015%20BERGENLINE%20AVENUE%20-%2090TH%20STREET%2C+NORTH%20BERGEN%2C+NJ+07047,
NEW PALTZ PHARMACY INC,DEDRICK'S PHARMACY OF NEW PALT,190 MAIN ST,"NEW PALTZ, NY 12561",http://maps.google.com/maps?q=NEW%20PALTZ%20PHARMACY%20INC%2CDEDRICK'S%20PHARMACY%20OF%20NEW%20PALT%2C+NEW%20PALTZ%2C+NY+12561
NEW ROCHELLE PRESCRIPTION CTR INC,551 MAIN ST.,"NEW ROCHELLE, NY 10801",http://maps.google.com/maps?q=NEW%20ROCHELLE%20PRESCRIPTION%20CTR%20INC%2C551%20MAIN%20ST.%2C+NEW%20ROCHELLE%2C+NY+10801,
NY DRUGS INC,CASTLE HILL COMMUNITY PHARMACY,706 CASTLE HILL AVENUE,"BRONX, NY 10473",http://maps.google.com/maps?q=NY%20DRUGS%20INC%2CCASTLE%20HILL%20COMMUNITY%20PHARMACY%2C+BRONX%2C+NY+10473
NY FIRST AVE CORPORATION,206 FIRST AVE,"NEW YORK, NY 10009",http://maps.google.com/maps?q=NY%20FIRST%20AVE%20CORPORATION%2C206%20FIRST%20AVE%2C+NEW%20YORK%2C+NY+10009,
NY SOC FOR THE RELIEF OF RUPTURED AND CRIPPLED,"535 E 70TH STREET, 6TH FLOOR",ATTN PHARMACY,"NEW YORK, NY 10021",http://maps.google.com/maps?q=NY%20SOC%20FOR%20THE%20RELIEF%20OF%20RUPTURED%20AND%20CRIPPLED%2C535%20E%2070TH%20STREET%2C%206TH%20FLOOR%2C+NEW%20YORK%2C+NY+10021
O'CONNOR HOSPITAL,C/O PHARMACY,460 ANDES ROAD,"DELHI, NY 13753",http://maps.google.com/maps?q=OCONNOR%20HOSPITAL%2CC/O%20PHARMACY%2C+DELHI%2C+NY+13753
OCEAN BREEZE ASSOCIATES LLC,1817 HYLAN BOULEVARD,"STATEN ISLAND, NY 10305",http://maps.google.com/maps?q=OCEAN%20BREEZE%20ASSOCIATES%20LLC%2C1817%20HYLAN%20BOULEVARD%2C+STATEN%20ISLAND%2C+NY+10305,
OMNICARE OF SOUTHERN NEW JERSEY,40 TWOSOME DRIVE UNIT 1,"MOORESTOWN, NJ 08057",http://maps.google.com/maps?q=OMNICARE%20OF%20SOUTHERN%20NEW%20JERSEY%2C40%20TWOSOME%20DRIVE%20UNIT%201%2C+MOORESTOWN%2C+NJ+08057,
"OUR LADY OF LOURDES MEMORIAL HOSPITAL, INC.",3101 SHIPPERS ROAD,SUITE 104,"VESTAL, NY 13850",http://maps.google.com/maps?q=OUR%20LADY%20OF%20LOURDES%20MEMORIAL%20HOSPITAL%20INC%2C3101%20SHIPPERS%20ROAD%2C+VESTAL%2C+NY+13850
PEARL RIVER CHEMISTS INC,139 NORTH MIDDLETOWN ROAD,"PEARL RIVER, NY 10965",http://maps.google.com/maps?q=PEARL%20RIVER%20CHEMISTS%20INC%2C139%20NORTH%20MIDDLETOWN%20ROAD%2C+PEARL%20RIVER%2C+NY+10965,
PENN MEDICINE AT UNIVERSITY CITY - APOTHECARY,3737 MARKET STREET,GROUND FLOOR,"PHILA, PA 19104",http://maps.google.com/maps?q=PENN%20MEDICINE%20AT%20UNIVERSITY%20CITY%20%20APOTHECARY%2C3737%20MARKET%20STREET%2C+PHILA%2C+PA+19104
PENN MEDICINE CHERRY HILL PHARMACY DEPARTMENT,1865 ROUTE 70 EAST,"CHERRY HILL, NJ 08003",http://maps.google.com/maps?q=PENN%20MEDICINE%20CHERRY%20HILL%20PHARMACY%20DEPARTMENT%2C1865%20ROUTE%2070%20EAST%2C+CHERRY%20HILL%2C+NJ+08003,
PENN-PRESBYTERIAN MED CTR-PHARMACY,51 NORTH 39TH STREET,"PHILADELPHIA, PA 19104",http://maps.google.com/maps?q=PENNPRESBYTERIAN%20MED%20CTRPHARMACY%2C51%20NORTH%2039TH%20STREET%2C+PHILADELPHIA%2C+PA+19104,
"PENNSYLVANIA CVS PHARMACY, L.L.C.",105 S. SPORTING HILL RD.,"MECHANICSBURG, PA 17050",http://maps.google.com/maps?q=PENNSYLVANIA%20CVS%20PHARMACY%20LLC%2C105%20S.%20SPORTING%20HILL%20RD.%2C+MECHANICSBURG%2C+PA+17050,
"PENNSYLVANIA CVS PHARMACY, L.L.C.",1101 MOOSIC ST.,"SCRANTON, PA 18505",http://maps.google.com/maps?q=PENNSYLVANIA%20CVS%20PHARMACY%20LLC%2C1101%20MOOSIC%20ST.%2C+SCRANTON%2C+PA+18505,
"PENNSYLVANIA CVS PHARMACY, L.L.C.",1405 SOUTH 10TH STREET,"PHILADELPHIA, PA 19147",http://maps.google.com/maps?q=PENNSYLVANIA%20CVS%20PHARMACY%20LLC%2C1405%20SOUTH%2010TH%20STREET%2C+PHILADELPHIA%2C+PA+19147,
"PENNSYLVANIA CVS PHARMACY, L.L.C.",1507 LITITZ PIKE,"LANCASTER, PA 17601",http://maps.google.com/maps?q=PENNSYLVANIA%20CVS%20PHARMACY%20LLC%2C1507%20LITITZ%20PIKE%2C+LANCASTER%2C+PA+17601,
"PENNSYLVANIA CVS PHARMACY, L.L.C.",159 N. MACDADE BLVD.,"GLENOLDEN, PA 19036",http://maps.google.com/maps?q=PENNSYLVANIA%20CVS%20PHARMACY%20LLC%2C159%20N.%20MACDADE%20BLVD.%2C+GLENOLDEN%2C+PA+19036,
"PENNSYLVANIA CVS PHARMACY, L.L.C.",1601 W. LIBERTY STREET,"ALLENTOWN, PA 18102",http://maps.google.com/maps?q=PENNSYLVANIA%20CVS%20PHARMACY%20LLC%2C1601%20W.%20LIBERTY%20STREET%2C+ALLENTOWN%2C+PA+18102,
"PENNSYLVANIA CVS PHARMACY, L.L.C.",1849 LYCOMING CREEK ROAD,"WILLIAMSPORT, PA 17701",http://maps.google.com/maps?q=PENNSYLVANIA%20CVS%20PHARMACY%20LLC%2C1849%20LYCOMING%20CREEK%20ROAD%2C+WILLIAMSPORT%2C+PA+17701,
"PENNSYLVANIA CVS PHARMACY, L.L.C.",1901 WEST OREGON AVENUE,"PHILADELPHIA, PA 19145",http://maps.google.com/maps?q=PENNSYLVANIA%20CVS%20PHARMACY%20LLC%2C1901%20WEST%20OREGON%20AVENUE%2C+PHILADELPHIA%2C+PA+19145,
"PENNSYLVANIA CVS PHARMACY, L.L.C.",2400 ARAMINGO AVENUE,"PHILADELPHIA, PA 19125",http://maps.google.com/maps?q=PENNSYLVANIA%20CVS%20PHARMACY%20LLC%2C2400%20ARAMINGO%20AVENUE%2C+PHILADELPHIA%2C+PA+19125,
"PENNSYLVANIA CVS PHARMACY, L.L.C.",315 WEST EMAUS AVENUE,"ALLENTOWN, PA 18103",http://maps.google.com/maps?q=PENNSYLVANIA%20CVS%20PHARMACY%20LLC%2C315%20WEST%20EMAUS%20AVENUE%2C+ALLENTOWN%2C+PA+18103,
"PENNSYLVANIA CVS PHARMACY, L.L.C.",317 W. LANCASTER AVE.,"ARDMORE, PA 19003",http://maps.google.com/maps?q=PENNSYLVANIA%20CVS%20PHARMACY%20LLC%2C317%20W.%20LANCASTER%20AVE.%2C+ARDMORE%2C+PA+19003,
"PENNSYLVANIA CVS PHARMACY, L.L.C.",3298 EDGEMONT AVE.,"BROOKHAVEN, PA 19015",http://maps.google.com/maps?q=PENNSYLVANIA%20CVS%20PHARMACY%20LLC%2C3298%20EDGEMONT%20AVE.%2C+BROOKHAVEN%2C+PA+19015,
"PENNSYLVANIA CVS PHARMACY, L.L.C.",4133 G ST.,"PHILADELPHIA, PA 19124",http://maps.google.com/maps?q=PENNSYLVANIA%20CVS%20PHARMACY%20LLC%2C4133%20G%20ST.%2C+PHILADELPHIA%2C+PA+19124,
"PENNSYLVANIA CVS PHARMACY, L.L.C.",5 CHURCH STREET,"DALLAS, PA 18612",http://maps.google.com/maps?q=PENNSYLVANIA%20CVS%20PHARMACY%20LLC%2C5%20CHURCH%20STREET%2C+DALLAS%2C+PA+18612,
"PENNSYLVANIA CVS PHARMACY, L.L.C.",504 S OXFORD VALLEY RD,"FAIRLESS HILLS, PA 19030",http://maps.google.com/maps?q=PENNSYLVANIA%20CVS%20PHARMACY%20LLC%2C504%20S%20OXFORD%20VALLEY%20RD%2C+FAIRLESS%20HILLS%2C+PA+19030,
"PENNSYLVANIA CVS PHARMACY, L.L.C.",6007 ALLENTOWN BLVD,PAXTON SQUARE,"HARRISBURG, PA 17112",http://maps.google.com/maps?q=PENNSYLVANIA%20CVS%20PHARMACY%20LLC%2C6007%20ALLENTOWN%20BLVD%2C+HARRISBURG%2C+PA+17112
"PENNSYLVANIA CVS PHARMACY, L.L.C.",6501 HARBISON AVENUE,"PHILADELPHIA, PA 19149",http://maps.google.com/maps?q=PENNSYLVANIA%20CVS%20PHARMACY%20LLC%2C6501%20HARBISON%20AVENUE%2C+PHILADELPHIA%2C+PA+19149,
"PENNSYLVANIA CVS PHARMACY, L.L.C.",7 YORK ROAD,"WARMINSTER, PA 18974",http://maps.google.com/maps?q=PENNSYLVANIA%20CVS%20PHARMACY%20LLC%2C7%20YORK%20ROAD%2C+WARMINSTER%2C+PA+18974,
"PENNSYLVANIA CVS PHARMACY, L.L.C.",802 LANSDOWNE AVENUE,"DREXEL HILL, PA 19026",http://maps.google.com/maps?q=PENNSYLVANIA%20CVS%20PHARMACY%20LLC%2C802%20LANSDOWNE%20AVENUE%2C+DREXEL%20HILL%2C+PA+19026,
"PENNSYLVANIA CVS PHARMACY, L.L.C.",835 OLD YORK ROAD,"JENKINTOWN, PA 19046",http://maps.google.com/maps?q=PENNSYLVANIA%20CVS%20PHARMACY%20LLC%2C835%20OLD%20YORK%20ROAD%2C+JENKINTOWN%2C+PA+19046,
PENNSYLVANIA HOSPITAL,800 SPRUCE STREET,1ST FLOOR PRESTON BUILDING,"PHILADELPHIA, PA 19107",http://maps.google.com/maps?q=PENNSYLVANIA%20HOSPITAL%2C800%20SPRUCE%20STREET%2C+PHILADELPHIA%2C+PA+19107
"PHARMSCRIPT, LLC",441 COMMERCE ROAD,SUITE 2,"VESTAL, NY 13850",http://maps.google.com/maps?q=PHARMSCRIPT%20LLC%2C441%20COMMERCE%20ROAD%2C+VESTAL%2C+NY+13850
PHELPS MEMORIAL HOSPITAL ASSOCIATION,701 NORTH BROADWAY,"SLEEPY HOLLOW, NY 10591",http://maps.google.com/maps?q=PHELPS%20MEMORIAL%20HOSPITAL%20ASSOCIATION%2C701%20NORTH%20BROADWAY%2C+SLEEPY%20HOLLOW%2C+NY+10591,
PRIMECARE PHARMACY SERVICES,310 ADAMS AVE,SECOND FLOOR,"SCRANTON, PA 18503",http://maps.google.com/maps?q=PRIMECARE%20PHARMACY%20SERVICES%2C310%20ADAMS%20AVE%2C+SCRANTON%2C+PA+18503
"PROGRESSION, LLC",79 TINKER STREET,"WOODSTOCK, NY 12498",http://maps.google.com/maps?q=PROGRESSION%20LLC%2C79%20TINKER%20STREET%2C+WOODSTOCK%2C+NY+12498,
PROHEALTH PHARMACY INC,385 A/B  SECOND AVE,"NEW YORK, NY 10010",http://maps.google.com/maps?q=PROHEALTH%20PHARMACY%20INC%2C385%20A/B%20%20SECOND%20AVE%2C+NEW%20YORK%2C+NY+10010,
R&P APOTHECARY,D/B/A EVERGREEN DRUGS,87-08 JUSTICE AVENUE,"ELMHURST, NY 11373",http://maps.google.com/maps?q=RP%20APOTHECARY%2CD/B/A%20EVERGREEN%20DRUGS%2C+ELMHURST%2C+NY+11373
"RANN PHARMACY, INC.",377 MAIN ST,"HARLEYSVILLE, PA 19438",http://maps.google.com/maps?q=RANN%20PHARMACY%20INC%2C377%20MAIN%20ST%2C+HARLEYSVILLE%2C+PA+19438,
READING HOSPITAL AMBULATORY PHARMACY,420 S 5TH AVENUE,"READING, PA 19611",http://maps.google.com/maps?q=READING%20HOSPITAL%20AMBULATORY%20PHARMACY%2C420%20S%205TH%20AVENUE%2C+READING%2C+PA+19611,
"RITE AID OF PENNSYLVANIA, INC.",1137 MARKET STREET,"LEMOYNE, PA 17043",http://maps.google.com/maps?q=RITE%20AID%20OF%20PENNSYLVANIA%20INC%2C1137%20MARKET%20STREET%2C+LEMOYNE%2C+PA+17043,
RIVERDALE HEALTHY LIFE INC.,D/B/A TRI-ROAD PHARMACY,791 WESTCHESTER AVENUE,"BRONX, NY 10455",http://maps.google.com/maps?q=RIVERDALE%20HEALTHY%20LIFE%20INC%2CD/B/A%20TRI-ROAD%20PHARMACY%2C+BRONX%2C+NY+10455
RIVERSIDE REMEDIES RX CORP.,39 LOWER MAIN STREET,P.O. BOX 275,"CALLICOON, NY 12723",http://maps.google.com/maps?q=RIVERSIDE%20REMEDIES%20RX%20CORP%2C39%20LOWER%20MAIN%20STREET%2C+CALLICOON%2C+NY+12723
RND PHARMACY INC,52 WEST BURNSIDE AVE,"BRONX, NY 10453",http://maps.google.com/maps?q=RND%20PHARMACY%20INC%2C52%20WEST%20BURNSIDE%20AVE%2C+BRONX%2C+NY+10453,
S & M PHARMACY INC,68-50 MAIN STREET,"FLUSHING, NY 11367",http://maps.google.com/maps?q=S%20%20M%20PHARMACY%20INC%2C68-50%20MAIN%20STREET%2C+FLUSHING%2C+NY+11367,
SACRED HEART HOSPITAL,4TH & CHEW ST,PHARMACY DEPT,"ALLENTOWN, PA 18102",http://maps.google.com/maps?q=SACRED%20HEART%20HOSPITAL%2C4TH%20&%20CHEW%20ST%2C+ALLENTOWN%2C+PA+18102
SAUGERTIES PHARMACY LLC,250 MAIN ST,"SAUGERTIES, NY 12477",http://maps.google.com/maps?q=SAUGERTIES%20PHARMACY%20LLC%2C250%20MAIN%20ST%2C+SAUGERTIES%2C+NY+12477,
SDJA CORPORATION,PO BOX 777,ATTN: SUPERVISING PHARMACIST,"ROCK HILL, NY 12775",http://maps.google.com/maps?q=SDJA%20CORPORATION%2CPO%20BOX%20777%2C+ROCK%20HILL%2C+NY+12775
SEA. J PHARMACY CORP,765-767 MORRIS PARK AVE,"BRONX, NY 10462",http://maps.google.com/maps?q=SEA%20J%20PHARMACY%20CORP%2C765-767%20MORRIS%20PARK%20AVE%2C+BRONX%2C+NY+10462,
SHADE MOUNTAIN PHARMACY,9627 ROUTE 35,SUITE 20,"MT PLEASANT MILLS, PA 17853",http://maps.google.com/maps?q=SHADE%20MOUNTAIN%20PHARMACY%2C9627%20ROUTE%2035%2C+MT%20PLEASANT%20MILLS%2C+PA+17853
SHALOM'S PHARMACY INC,1106 AVENUE K 1ST FLOOR,"BROOKLYN, NY 11230",http://maps.google.com/maps?q=SHALOMS%20PHARMACY%20INC%2C1106%20AVENUE%20K%201ST%20FLOOR%2C+BROOKLYN%2C+NY+11230,
SHEEHANS PHARMACY,79 EAST CAREY ST,"PLAINS, PA 18705",http://maps.google.com/maps?q=SHEEHANS%20PHARMACY%2C79%20EAST%20CAREY%20ST%2C+PLAINS%2C+PA+18705,
SIDDIQUI CORPORATION,1109 CONEY ISLAND AVE,"BROOKLYN, NY 11230",http://maps.google.com/maps?q=SIDDIQUI%20CORPORATION%2C1109%20CONEY%20ISLAND%20AVE%2C+BROOKLYN%2C+NY+11230,
ST GEORGE PHARMACY,99 STUYVESANT PL,"STATEN ISLAND, NY 10301",http://maps.google.com/maps?q=ST%20GEORGE%20PHARMACY%2C99%20STUYVESANT%20PL%2C+STATEN%20ISLAND%2C+NY+10301,
"STAT RX PHARMACY, INC.",235 EAST 167TH STREET,"BRONX, NY 10456",http://maps.google.com/maps?q=STAT%20RX%20PHARMACY%20INC%2C235%20EAST%20167TH%20STREET%2C+BRONX%2C+NY+10456,
STERLING PHARMACY INC,38-01 BELL BLVD,"BAYSIDE, NY 11361",http://maps.google.com/maps?q=STERLING%20PHARMACY%20INC%2C38-01%20BELL%20BLVD%2C+BAYSIDE%2C+NY+11361,
SUMMIT HEALTH PHARMACY INC,3400 EDGMONT AVENUE,"BROOKHAVEN, PA 19015",http://maps.google.com/maps?q=SUMMIT%20HEALTH%20PHARMACY%20INC%2C3400%20EDGMONT%20AVENUE%2C+BROOKHAVEN%2C+PA+19015,
SUPER HEALTH PHARMACY LLC,6400 AMBOY ROAD,"STATEN ISLAND, NY 10309",http://maps.google.com/maps?q=SUPER%20HEALTH%20PHARMACY%20LLC%2C6400%20AMBOY%20ROAD%2C+STATEN%20ISLAND%2C+NY+10309,
SUSQUEHANNA HEALTH PHARMACY,740 HIGH ST SUITE 1001,"WILLIAMSPORT, PA 17701",http://maps.google.com/maps?q=SUSQUEHANNA%20HEALTH%20PHARMACY%2C740%20HIGH%20ST%20SUITE%201001%2C+WILLIAMSPORT%2C+PA+17701,
SVA PHARMACY CORP,119-01 JAMAICA AVE,"RICHMOND HILL, NY 11418",http://maps.google.com/maps?q=SVA%20PHARMACY%20CORP%2C119-01%20JAMAICA%20AVE%2C+RICHMOND%20HILL%2C+NY+11418,
SYMART DRUG CO INC,162 CROTON AVE,"OSSINING, NY 10562",http://maps.google.com/maps?q=SYMART%20DRUG%20CO%20INC%2C162%20CROTON%20AVE%2C+OSSINING%2C+NY+10562,
"TACONIC PHARMACY, INC",3659 LEE ROAD,"JEFFERSON VALLEY, NY 10535",http://maps.google.com/maps?q=TACONIC%20PHARMACY%20INC%2C3659%20LEE%20ROAD%2C+JEFFERSON%20VALLEY%2C+NY+10535,
TACONY PHARMACY,7100 TORRESDALE AVE,"PHILADELPHIA, PA 19135",http://maps.google.com/maps?q=TACONY%20PHARMACY%2C7100%20TORRESDALE%20AVE%2C+PHILADELPHIA%2C+PA+19135,
"TAFT'S PHARMACY, INC.",6024 5TH AVENUE,"BROOKLYN, NY 11220",http://maps.google.com/maps?q=TAFTS%20PHARMACY%20INC%2C6024%205TH%20AVENUE%2C+BROOKLYN%2C+NY+11220,
TANG PHARMACY IV,900 N BROAD ST,"PHILADELPHIA, PA 19130",http://maps.google.com/maps?q=TANG%20PHARMACY%20IV%2C900%20N%20BROAD%20ST%2C+PHILADELPHIA%2C+PA+19130,
THE PRESCRIPTION CENTER,310 ADAMS AVENUE,"SCRANTON, PA 18503",http://maps.google.com/maps?q=THE%20PRESCRIPTION%20CENTER%2C310%20ADAMS%20AVENUE%2C+SCRANTON%2C+PA+18503,
THREE J'S PHARMACY INC,90-12 ELMHURST AVE,"JACKSON HEIGHTS, NY 11372",http://maps.google.com/maps?q=THREE%20JS%20PHARMACY%20INC%2C90-12%20ELMHURST%20AVE%2C+JACKSON%20HEIGHTS%2C+NY+11372,
TIFFANY NATURAL PHARMACY,"1115 SOUTH AVENUE W,","WESTFIELD, NJ 07090",http://maps.google.com/maps?q=TIFFANY%20NATURAL%20PHARMACY%2C1115%20SOUTH%20AVENUE%20W%2C%2C+WESTFIELD%2C+NJ+07090,
"TOTAL CARE RX, INC.",57-37 MAIN STREET,"FLUSHING, NY 11355",http://maps.google.com/maps?q=TOTAL%20CARE%20RX%20INC%2C57-37%20MAIN%20STREET%2C+FLUSHING%2C+NY+11355,
TOWNVILLE PHARMACY,2195 ROUTE 442 HWY,"MUNCY, PA 17756",http://maps.google.com/maps?q=TOWNVILLE%20PHARMACY%2C2195%20ROUTE%20442%20HWY%2C+MUNCY%2C+PA+17756,
TWIN CITY PHARMACY,1708 PARK AVENUE,"SOUTH PLAINFIELD, NJ 07080",http://maps.google.com/maps?q=TWIN%20CITY%20PHARMACY%2C1708%20PARK%20AVENUE%2C+SOUTH%20PLAINFIELD%2C+NJ+07080,
URBANCARE PHARMACY,169 W LEHIGH AVE,"PHILADELPHIA, PA 19133",http://maps.google.com/maps?q=URBANCARE%20PHARMACY%2C169%20W%20LEHIGH%20AVE%2C+PHILADELPHIA%2C+PA+19133,
US ARMY  DUNHAM HEALTH CLINIC,CARLISLE BARRACKS,450 GIBNER RD/STE 1,"CARLISLE, PA 17013",http://maps.google.com/maps?q=US%20ARMY%20%20DUNHAM%20HEALTH%20CLINIC%2CCARLISLE%20BARRACKS%2C+CARLISLE%2C+PA+17013
US ARMY MALOGNE CADET HEALTH CLINIC,CADET HEALTH CLINIC,2 THAYER ROAD BLDG. 606,"WEST POINT, NY 10996",http://maps.google.com/maps?q=US%20ARMY%20MALOGNE%20CADET%20HEALTH%20CLINIC%2CCADET%20HEALTH%20CLINIC%2C+WEST%20POINT%2C+NY+10996
US ARMY- KELLER COMMUNITY HOSPITAL,900 WASHINGTON RD,"WEST POINT, NY 10996",http://maps.google.com/maps?q=US%20ARMY%20KELLER%20COMMUNITY%20HOSPITAL%2C900%20WASHINGTON%20RD%2C+WEST%20POINT%2C+NY+10996,
USAF- 87TH MED LOGISTICS/SGSM,3458 NEELY ROAD,"MC GUIRE AFB, NJ 08641",http://maps.google.com/maps?q=USAF%20TH%20MED%20LOGISTICSSGSM%2C3458%20NEELY%20ROAD%2C+MC%20GUIRE%20AFB%2C+NJ+08641,
USMAN INC,3001 CLARENDON RD,"BROOKLYN, NY 11226",http://maps.google.com/maps?q=USMAN%20INC%2C3001%20CLARENDON%20RD%2C+BROOKLYN%2C+NY+11226,
VICTORY RX LLC,395 FOREST AVENUE,"STATEN ISLAND, NY 10301",http://maps.google.com/maps?q=VICTORY%20RX%20LLC%2C395%20FOREST%20AVENUE%2C+STATEN%20ISLAND%2C+NY+10301,
VIJAN PHARMA INC,312 RALPH AVE,"BROOKLYN, NY 11233",http://maps.google.com/maps?q=VIJAN%20PHARMA%20INC%2C312%20RALPH%20AVE%2C+BROOKLYN%2C+NY+11233,
WALGREEN EASTERN CO INC,1230 NEPPERHAN AVE,"YONKERS, NY 10703",http://maps.google.com/maps?q=WALGREEN%20EASTERN%20CO%20INC%2C1230%20NEPPERHAN%20AVE%2C+YONKERS%2C+NY+10703,
WALGREEN EASTERN CO. INC.,1 SOUTH BROAD STREET,"PHILADELPHIA, PA 19107",http://maps.google.com/maps?q=WALGREEN%20EASTERN%20CO%20INC%2C1%20SOUTH%20BROAD%20STREET%2C+PHILADELPHIA%2C+PA+19107,
"WALGREEN EASTERN CO., INC.",10 YORK ROAD,"WARMINSTER, PA 18974",http://maps.google.com/maps?q=WALGREEN%20EASTERN%20CO%20INC%2C10%20YORK%20ROAD%2C+WARMINSTER%2C+PA+18974,
"WALGREEN EASTERN CO., INC.",100 BROADWAY,"ELMWOOD PARK, NJ 07407",http://maps.google.com/maps?q=WALGREEN%20EASTERN%20CO%20INC%2C100%20BROADWAY%2C+ELMWOOD%20PARK%2C+NJ+07407,
"WALGREEN EASTERN CO., INC.",104-25-31 QUEENS BLV,"FOREST HILLS, NY 11375",http://maps.google.com/maps?q=WALGREEN%20EASTERN%20CO%20INC%2C104-25-31%20QUEENS%20BLV%2C+FOREST%20HILLS%2C+NY+11375,
"WALGREEN EASTERN CO., INC.",1096 ROUTE 33,"HAMILTON, NJ 08690",http://maps.google.com/maps?q=WALGREEN%20EASTERN%20CO%20INC%2C1096%20ROUTE%2033%2C+HAMILTON%2C+NJ+08690,
"WALGREEN EASTERN CO., INC.",114 BEVERLEY RD.,"BROOKLYN, NY 11218",http://maps.google.com/maps?q=WALGREEN%20EASTERN%20CO%20INC%2C114%20BEVERLEY%20RD.%2C+BROOKLYN%2C+NY+11218,
"WALGREEN EASTERN CO., INC.",119-02 ROCKAWAY BLVD.,"SOUTH OZONE PARK, NY 11420",http://maps.google.com/maps?q=WALGREEN%20EASTERN%20CO%20INC%2C119-02%20ROCKAWAY%20BLVD.%2C+SOUTH%20OZONE%20PARK%2C+NY+11420,
"WALGREEN EASTERN CO., INC.",12704 GUY R BREWER BLVD,"JAMAICA, NY 11434",http://maps.google.com/maps?q=WALGREEN%20EASTERN%20CO%20INC%2C12704%20GUY%20R%20BREWER%20BLVD%2C+JAMAICA%2C+NY+11434,
"WALGREEN EASTERN CO., INC.",1281 FULTON ST.,"BROOKLYN, NY 11216",http://maps.google.com/maps?q=WALGREEN%20EASTERN%20CO%20INC%2C1281%20FULTON%20ST.%2C+BROOKLYN%2C+NY+11216,
"WALGREEN EASTERN CO., INC.",129 SOMERSET ST,"SOMERVILLE, NJ 08876",http://maps.google.com/maps?q=WALGREEN%20EASTERN%20CO%20INC%2C129%20SOMERSET%20ST%2C+SOMERVILLE%2C+NJ+08876,
"WALGREEN EASTERN CO., INC.",150 N MACDADE BLVD.,"GLENOLDEN, PA 19036",http://maps.google.com/maps?q=WALGREEN%20EASTERN%20CO%20INC%2C150%20N%20MACDADE%20BLVD.%2C+GLENOLDEN%2C+PA+19036,
"WALGREEN EASTERN CO., INC.",1551 RICHMOND AVE,"STATEN ISLAND, NY 10314",http://maps.google.com/maps?q=WALGREEN%20EASTERN%20CO%20INC%2C1551%20RICHMOND%20AVE%2C+STATEN%20ISLAND%2C+NY+10314,
"WALGREEN EASTERN CO., INC.",1561 JOHN F KENNEDY BLVD,"JERSEY CITY, NJ 07305",http://maps.google.com/maps?q=WALGREEN%20EASTERN%20CO%20INC%2C1561%20JOHN%20F%20KENNEDY%20BLVD%2C+JERSEY%20CITY%2C+NJ+07305,
"WALGREEN EASTERN CO., INC.",1702 TILGHMAN,"ALLENTOWN, PA 18104",http://maps.google.com/maps?q=WALGREEN%20EASTERN%20CO%20INC%2C1702%20TILGHMAN%2C+ALLENTOWN%2C+PA+18104,
"WALGREEN EASTERN CO., INC.",200 BALDWIN RD. SUITE 200,"PARSIPPANY, NJ 07054",http://maps.google.com/maps?q=WALGREEN%20EASTERN%20CO%20INC%2C200%20BALDWIN%20RD.%20SUITE%20200%2C+PARSIPPANY%2C+NJ+07054,
"WALGREEN EASTERN CO., INC.",2014-24 S BROAD ST,"PHILADELPHIA, PA 19145",http://maps.google.com/maps?q=WALGREEN%20EASTERN%20CO%20INC%2C2014-24%20S%20BROAD%20ST%2C+PHILADELPHIA%2C+PA+19145,
"WALGREEN EASTERN CO., INC.",2148 MORRIS AVE,"UNION, NJ 07083",http://maps.google.com/maps?q=WALGREEN%20EASTERN%20CO%20INC%2C2148%20MORRIS%20AVE%2C+UNION%2C+NJ+07083,
"WALGREEN EASTERN CO., INC.",22 EAST ST GEORGES AVENUE,"LINDEN, NJ 07036",http://maps.google.com/maps?q=WALGREEN%20EASTERN%20CO%20INC%2C22%20EAST%20ST%20GEORGES%20AVENUE%2C+LINDEN%2C+NJ+07036,
"WALGREEN EASTERN CO., INC.",2310 W OREGON AVE,"PHILADELPHIA, PA 19145",http://maps.google.com/maps?q=WALGREEN%20EASTERN%20CO%20INC%2C2310%20W%20OREGON%20AVE%2C+PHILADELPHIA%2C+PA+19145,
"WALGREEN EASTERN CO., INC.",2350 E MARKET ST,"YORK, PA 17402",http://maps.google.com/maps?q=WALGREEN%20EASTERN%20CO%20INC%2C2350%20E%20MARKET%20ST%2C+YORK%2C+PA+17402,
"WALGREEN EASTERN CO., INC.",2395 KENNEDY BLVD.,"JERSEY CITY, NJ 07304",http://maps.google.com/maps?q=WALGREEN%20EASTERN%20CO%20INC%2C2395%20KENNEDY%20BLVD.%2C+JERSEY%20CITY%2C+NJ+07304,
"WALGREEN EASTERN CO., INC.",2803 W RIDGE PIKE,"NORRISTOWN, PA 19403",http://maps.google.com/maps?q=WALGREEN%20EASTERN%20CO%20INC%2C2803%20W%20RIDGE%20PIKE%2C+NORRISTOWN%2C+PA+19403,
"WALGREEN EASTERN CO., INC.",298 FIRST AVE,"NEW YORK, NY 10009",http://maps.google.com/maps?q=WALGREEN%20EASTERN%20CO%20INC%2C298%20FIRST%20AVE%2C+NEW%20YORK%2C+NY+10009,
"WALGREEN EASTERN CO., INC.",31 CAVALRY DR.,"NEW CITY, NY 10956",http://maps.google.com/maps?q=WALGREEN%20EASTERN%20CO%20INC%2C31%20CAVALRY%20DR.%2C+NEW%20CITY%2C+NY+10956,
"WALGREEN EASTERN CO., INC.",4001 KENSINGTON AVE.,"PHILADELPHIA, PA 19124",http://maps.google.com/maps?q=WALGREEN%20EASTERN%20CO%20INC%2C4001%20KENSINGTON%20AVE.%2C+PHILADELPHIA%2C+PA+19124,
"WALGREEN EASTERN CO., INC.",4098 EDGEMONT AVE.,"BROOKHAVEN, PA 19015",http://maps.google.com/maps?q=WALGREEN%20EASTERN%20CO%20INC%2C4098%20EDGEMONT%20AVE.%2C+BROOKHAVEN%2C+PA+19015,
"WALGREEN EASTERN CO., INC.",421 RYDERS LANE,"EAST BRUNSWICK, NJ 08816",http://maps.google.com/maps?q=WALGREEN%20EASTERN%20CO%20INC%2C421%20RYDERS%20LANE%2C+EAST%20BRUNSWICK%2C+NJ+08816,
"WALGREEN EASTERN CO., INC.",425 W MAIN ST,"FREEHOLD, NJ 07728",http://maps.google.com/maps?q=WALGREEN%20EASTERN%20CO%20INC%2C425%20W%20MAIN%20ST%2C+FREEHOLD%2C+NJ+07728,
"WALGREEN EASTERN CO., INC.",4601 WESTFIELD AVENUE,"PENNSAUKEN, NJ 08110",http://maps.google.com/maps?q=WALGREEN%20EASTERN%20CO%20INC%2C4601%20WESTFIELD%20AVENUE%2C+PENNSAUKEN%2C+NJ+08110,
"WALGREEN EASTERN CO., INC.",508 DR MARTIN LUTHER KING JR,"EAST ORANGE, NJ 07018",http://maps.google.com/maps?q=WALGREEN%20EASTERN%20CO%20INC%2C508%20DR%20MARTIN%20LUTHER%20KING%20JR%2C+EAST%20ORANGE%2C+NJ+07018,
"WALGREEN EASTERN CO., INC.",520 CONVERY BLVD.,"PERTH AMBOY, NJ 08861",http://maps.google.com/maps?q=WALGREEN%20EASTERN%20CO%20INC%2C520%20CONVERY%20BLVD.%2C+PERTH%20AMBOY%2C+NJ+08861,
"WALGREEN EASTERN CO., INC.",5564 BROADWAY,"BRONX, NY 10463",http://maps.google.com/maps?q=WALGREEN%20EASTERN%20CO%20INC%2C5564%20BROADWAY%2C+BRONX%2C+NY+10463,
"WALGREEN EASTERN CO., INC.",600 NEWARK AVE,"ELIZABETH, NJ 07208",http://maps.google.com/maps?q=WALGREEN%20EASTERN%20CO%20INC%2C600%20NEWARK%20AVE%2C+ELIZABETH%2C+NJ+07208,
"WALGREEN EASTERN CO., INC.",637 HOBOKEN ROAD,"CARLSTADT, NJ 07072",http://maps.google.com/maps?q=WALGREEN%20EASTERN%20CO%20INC%2C637%20HOBOKEN%20ROAD%2C+CARLSTADT%2C+NJ+07072,
"WALGREEN EASTERN CO., INC.",639 E 18TH ST,"PATERSON, NJ 07501",http://maps.google.com/maps?q=WALGREEN%20EASTERN%20CO%20INC%2C639%20E%2018TH%20ST%2C+PATERSON%2C+NJ+07501,
"WALGREEN EASTERN CO., INC.",7001 FRANKFORD AVE,"PHILADELPHIA, PA 19135",http://maps.google.com/maps?q=WALGREEN%20EASTERN%20CO%20INC%2C7001%20FRANKFORD%20AVE%2C+PHILADELPHIA%2C+PA+19135,
"WALGREEN EASTERN CO., INC.",72 CRESCENT AVE,"WALDWICK, NJ 07463",http://maps.google.com/maps?q=WALGREEN%20EASTERN%20CO%20INC%2C72%20CRESCENT%20AVE%2C+WALDWICK%2C+NJ+07463,
"WALGREEN EASTERN CO., INC.",758 ARTHUR KILL RD,"STATEN ISLAND, NY 10312",http://maps.google.com/maps?q=WALGREEN%20EASTERN%20CO%20INC%2C758%20ARTHUR%20KILL%20RD%2C+STATEN%20ISLAND%2C+NY+10312,
"WALGREEN EASTERN CO., INC.",8420 BROADWAY,"ELMHURST, NY 11373",http://maps.google.com/maps?q=WALGREEN%20EASTERN%20CO%20INC%2C8420%20BROADWAY%2C+ELMHURST%2C+NY+11373,
"WALGREEN EASTERN CO., INC.",8500 NEW FALLS ROAD,"LEVITTOWN, PA 19054",http://maps.google.com/maps?q=WALGREEN%20EASTERN%20CO%20INC%2C8500%20NEW%20FALLS%20ROAD%2C+LEVITTOWN%2C+PA+19054,
WEIS PHARMACY #14,1440 ALLEGHENY ST,"JERSEY SHORE, PA 17740",http://maps.google.com/maps?q=WEIS%20PHARMACY%2C1440%20ALLEGHENY%20ST%2C+JERSEY%20SHORE%2C+PA+17740,
WEIS PHARMACY #152,1 WEIS PLAZA,"NANTICOKE, PA 18634",http://maps.google.com/maps?q=WEIS%20PHARMACY%2C1%20WEIS%20PLAZA%2C+NANTICOKE%2C+PA+18634,
WEIS PHARMACY #156,70 PHOENIX STREET,"DURYEA, PA 18642",http://maps.google.com/maps?q=WEIS%20PHARMACY%2C70%20PHOENIX%20STREET%2C+DURYEA%2C+PA+18642,
WEIS PHARMACY #176,4521 WILLIAM PENN HIGHWAY,"MIFFLINTOWN, PA 17059",http://maps.google.com/maps?q=WEIS%20PHARMACY%2C4521%20WILLIAM%20PENN%20HIGHWAY%2C+MIFFLINTOWN%2C+PA+17059,
WEIS PHARMACY #177,1272 EAST PENN STREET,"MUNCY, PA 17756",http://maps.google.com/maps?q=WEIS%20PHARMACY%2C1272%20EAST%20PENN%20STREET%2C+MUNCY%2C+PA+17756,
WEIS PHARMACY #197,65 MEADOW GREEN DRIVE,"MIFFLINBURG, PA 17844",http://maps.google.com/maps?q=WEIS%20PHARMACY%2C65%20MEADOW%20GREEN%20DRIVE%2C+MIFFLINBURG%2C+PA+17844,
WEIS PHARMACY #205,2 ANTHRA PLAZA,"COAL TOWNSHIP, PA 17866",http://maps.google.com/maps?q=WEIS%20PHARMACY%2C2%20ANTHRA%20PLAZA%2C+COAL%20TOWNSHIP%2C+PA+17866,
WEIS PHARMACY #226,719 ROUTE 522,"SELINSGROVE, PA 17870",http://maps.google.com/maps?q=WEIS%20PHARMACY%2C719%20ROUTE%20522%2C+SELINSGROVE%2C+PA+17870,
WEIS PHARMACY #31,6901 WESTBRANCH HIGHWAY,"LEWISBURG, PA 17837",http://maps.google.com/maps?q=WEIS%20PHARMACY%2C6901%20WESTBRANCH%20HIGHWAY%2C+LEWISBURG%2C+PA+17837,
WEIS PHARMACY #36,1100 NORTH FOURTH STREET,"SUNBURY, PA 17801",http://maps.google.com/maps?q=WEIS%20PHARMACY%2C1100%20NORTH%20FOURTH%20STREET%2C+SUNBURY%2C+PA+17801,
WEIS PHARMACY #37,801 LOYALSOCK AVENUE,"MONTOURSVILLE, PA 17754",http://maps.google.com/maps?q=WEIS%20PHARMACY%2C801%20LOYALSOCK%20AVENUE%2C+MONTOURSVILLE%2C+PA+17754,
WEIS PHARMACY #4,339 WEST WALNUT ST,"SHAMOKIN, PA 17872",http://maps.google.com/maps?q=WEIS%20PHARMACY%2C339%20WEST%20WALNUT%20ST%2C+SHAMOKIN%2C+PA+17872,
WEIS PHARMACY #52,1916 LYCOMING CREEK RD,"WILLIAMSPORT, PA 17701",http://maps.google.com/maps?q=WEIS%20PHARMACY%2C1916%20LYCOMING%20CREEK%20RD%2C+WILLIAMSPORT%2C+PA+17701,
WEIS PHARMACY #7,553 - 555 MAHONING STREET,"MILTON, PA 17847",http://maps.google.com/maps?q=WEIS%20PHARMACY%2C553%20-%20555%20MAHONING%20STREET%2C+MILTON%2C+PA+17847,
WEIS PHARMACY #9,305 RIVER AVENUE,"WILLIAMSPORT, PA 17701",http://maps.google.com/maps?q=WEIS%20PHARMACY%2C305%20RIVER%20AVENUE%2C+WILLIAMSPORT%2C+PA+17701,
WELLNESS CENTER PHARMACY,4013 BROADWAY,"ASTORIA, NY 11103",http://maps.google.com/maps?q=WELLNESS%20CENTER%20PHARMACY%2C4013%20BROADWAY%2C+ASTORIA%2C+NY+11103,
WELLSPAN PHARMACY,183 N READING RD,SUITE 9,"EPHRATA, PA 17522",http://maps.google.com/maps?q=WELLSPAN%20PHARMACY%2C183%20N%20READING%20RD%2C+EPHRATA%2C+PA+17522
WELLSPAN PHARMACY,25 MONUMENT ROAD,SUITE 265,"YORK, PA 17403",http://maps.google.com/maps?q=WELLSPAN%20PHARMACY%2C25%20MONUMENT%20ROAD%2C+YORK%2C+PA+17403
WELLSPAN PHARMACY,252 S 4TH ST,"LEBANON, PA 17042",http://maps.google.com/maps?q=WELLSPAN%20PHARMACY%2C252%20S%204TH%20ST%2C+LEBANON%2C+PA+17042,
WEST READING DRUG STORE,538 PENN AVE,"WEST READING, PA 19611",http://maps.google.com/maps?q=WEST%20READING%20DRUG%20STORE%2C538%20PENN%20AVE%2C+WEST%20READING%2C+PA+19611,
YASIK 2 INC,54-56A MYRTLE AVE,"RIDGEWOOD, NY 11385",http://maps.google.com/maps?q=YASIK%20%20INC%2C54-56A%20MYRTLE%20AVE%2C+RIDGEWOOD%2C+NY+11385,
YORK HOSPITAL PHARMACY DEPT,1001 SOUTH GEORGE ST,"YORK, PA 17405",http://maps.google.com/maps?q=YORK%20HOSPITAL%20PHARMACY%20DEPT%2C1001%20SOUTH%20GEORGE%20ST%2C+YORK%2C+PA+17405,
ROBERT PACKER HOSPITAL,ONE GUTHRIE SQUARE,SUITE EC101,"SAYRE, PA 18840",http://maps.google.com/maps?q=ROBERT%20PACKER%20HOSPITAL%2CONE%20GUTHRIE%20SQUARE%2C+SAYRE%2C+PA+18840
BROWN'S PHARMACY,225 MAIN STREET,P.O. BOX 308,"UNADILLA, NY 13849",http://maps.google.com/maps?q=BROWNS%20PHARMACY%2C225%20MAIN%20STREET%2C+UNADILLA%2C+NY+13849
