Business Name,Address 1,Address 2,"City, State Zip",Map URL
ATRIUM MEDICAL CENTER,ONE MEDICAL CENTER DRIVE,"MIDDLETOWN, OH 45005",http://maps.google.com/maps?q=ATRIUM%20MEDICAL%20CENTER%2CONE%20MEDICAL%20CENTER%20DRIVE%2C+MIDDLETOWN%2C+OH+45005,
B S D INC,716 MADISON AVENUE,"COVINGTON, KY 41011",http://maps.google.com/maps?q=B%20S%20D%20INC%2C716%20MADISON%20AVENUE%2C+COVINGTON%2C+KY+41011,
BAPTIST HEALTH LEXINGTON RETAIL PHARMACY,1700 NICHOLASVILLE RD STE N1210,"LEXINGTON, KY 40503",http://maps.google.com/maps?q=BAPTIST%20HEALTH%20LEXINGTON%20RETAIL%20PHARMACY%2C1700%20NICHOLASVILLE%20RD%20STE%20N1210%2C+LEXINGTON%2C+KY+40503,
BAPTIST HEALTH LOUISVILLE OUTPATIENT PHARMACY,4000 KRESGE WAY,"LOUISVILLE, KY 40207",http://maps.google.com/maps?q=BAPTIST%20HEALTH%20LOUISVILLE%20OUTPATIENT%20PHARMACY%2C4000%20KRESGE%20WAY%2C+LOUISVILLE%2C+KY+40207,
BAPTIST HEALTH OUTPATIENT PHARMACY,1 TRILLIUM WAY,"CORBIN, KY 40701",http://maps.google.com/maps?q=BAPTIST%20HEALTH%20OUTPATIENT%20PHARMACY%2C1%20TRILLIUM%20WAY%2C+CORBIN%2C+KY+40701,
BAPTIST HEALTH RICHMOND PROFESSIONAL PHARMACY,793 EASTERN BY-PASS,STE G-1,"RICHMOND, KY 40475",http://maps.google.com/maps?q=BAPTIST%20HEALTH%20RICHMOND%20PROFESSIONAL%20PHARMACY%2C793%20EASTERN%20BY-PASS%2C+RICHMOND%2C+KY+40475
BETHESDA HOSPITAL BUTLER COUNTY,3125 HAMILTON MASON RD,"HAMILTON, OH 45011",http://maps.google.com/maps?q=BETHESDA%20HOSPITAL%20BUTLER%20COUNTY%2C3125%20HAMILTON%20MASON%20RD%2C+HAMILTON%2C+OH+45011,
BETHESDA HOSPITAL NORTH,DEPT PHARMACY,10500 MONTGOMERY ROAD,"CINCINNATI, OH 45242",http://maps.google.com/maps?q=BETHESDA%20HOSPITAL%20NORTH%2CDEPT%20PHARMACY%2C+CINCINNATI%2C+OH+45242
BRAY PHARMACY INC.,662 EAST MAIN ST.,"FRANKFORT, KY 40601",http://maps.google.com/maps?q=BRAY%20PHARMACY%20INC%2C662%20EAST%20MAIN%20ST.%2C+FRANKFORT%2C+KY+40601,
BROOKSIDE DISCOUNT PHARMACY,1901 BROOKSIDE ROAD,"KINGSPORT, TN 37660",http://maps.google.com/maps?q=BROOKSIDE%20DISCOUNT%20PHARMACY%2C1901%20BROOKSIDE%20ROAD%2C+KINGSPORT%2C+TN+37660,
CANN MEDICAL CENTER,CINCINNATI HEALTH DEPARTMENT,5818 MADISON ROAD,"CINCINNATI, OH 45227",http://maps.google.com/maps?q=CANN%20MEDICAL%20CENTER%2CCINCINNATI%20HEALTH%20DEPARTMENT%2C+CINCINNATI%2C+OH+45227
CARILION TAZEWELL COMMUNITY HOSPITAL PHARMACY,388 BEN BOLT AVE.,"TAZEWELL, VA 24651",http://maps.google.com/maps?q=CARILION%20TAZEWELL%20COMMUNITY%20HOSPITAL%20PHARMACY%2C388%20BEN%20BOLT%20AVE.%2C+TAZEWELL%2C+VA+24651,
CINCINNATI HEALTH DEPARTMENT,PRICE HILL HEALTH CENTER PHARMACY,2136 WEST 8TH STREET,"CINCINNATI, OH 45204",http://maps.google.com/maps?q=CINCINNATI%20HEALTH%20DEPARTMENT%2CPRICE%20HILL%20HEALTH%20CENTER%20PHARMACY%2C+CINCINNATI%2C+OH+45204
CINCINNATI HEALTH DEPT,2750 BEEKMAN STREET,"CINCINNATI, OH 45225",http://maps.google.com/maps?q=CINCINNATI%20HEALTH%20DEPT%2C2750%20BEEKMAN%20STREET%2C+CINCINNATI%2C+OH+45225,
CLARK MEMORIAL HOSPITAL,1220 MISSOURI AVE,"JEFFERSONVILLE, IN 47130",http://maps.google.com/maps?q=CLARK%20MEMORIAL%20HOSPITAL%2C1220%20MISSOURI%20AVE%2C+JEFFERSONVILLE%2C+IN+47130,
CLAYPOOL HILL PHARMACY,12252 GOVERNOR G C PEERY HWY,PO BOX 690,"POUNDING MILL, VA 24637",http://maps.google.com/maps?q=CLAYPOOL%20HILL%20PHARMACY%2C12252%20GOVERNOR%20G%20C%20PEERY%20HWY%2C+POUNDING%20MILL%2C+VA+24637
CLERMONT MERCY HOSPITAL,3000 HOSPITAL DRIVE,"BATAVIA, OH 45103",http://maps.google.com/maps?q=CLERMONT%20MERCY%20HOSPITAL%2C3000%20HOSPITAL%20DRIVE%2C+BATAVIA%2C+OH+45103,
COLUMBUS REGIONAL HOSPITAL,ATTN PHCY,2400 E SEVENTEENTH STREET,"COLUMBUS, IN 47201",http://maps.google.com/maps?q=COLUMBUS%20REGIONAL%20HOSPITAL%2CATTN%20PHCY%2C+COLUMBUS%2C+IN+47201
COMPASS PHARMACY,1634 11TH STREET,"PORTSMOUTH, OH 45662",http://maps.google.com/maps?q=COMPASS%20PHARMACY%2C1634%2011TH%20STREET%2C+PORTSMOUTH%2C+OH+45662,
DECATUR CTY MEMORIAL HOSPITAL,720 NORTH LINCOLN ST,"GREENSBURG, IN 47240",http://maps.google.com/maps?q=DECATUR%20CTY%20MEMORIAL%20HOSPITAL%2C720%20NORTH%20LINCOLN%20ST%2C+GREENSBURG%2C+IN+47240,
DEVILLE PHARMACIES,DBA DILLSBORO DRUGS,12836 NORTH ST,"DILLSBORO, IN 47018",http://maps.google.com/maps?q=DEVILLE%20PHARMACIES%2CDBA%20DILLSBORO%20DRUGS%2C+DILLSBORO%2C+IN+47018
ELM STREET HEALTH CENTER,ELM STREET HEALTH CENTER PHARMACY,1525 ELM STREET,"CINCINNATI, OH 45202",http://maps.google.com/maps?q=ELM%20STREET%20HEALTH%20CENTER%2CELM%20STREET%20HEALTH%20CENTER%20PHARMACY%2C+CINCINNATI%2C+OH+45202
EQUITAS HEALTH PHARMACY #2,1222 S. PATTERSON BLVD.,SUITE 110,"DAYTON, OH 45402",http://maps.google.com/maps?q=EQUITAS%20HEALTH%20PHARMACY%2C1222%20S.%20PATTERSON%20BLVD.%2C+DAYTON%2C+OH+45402
FRUTH PHARMACY,DBA FRUTH PHCY OAKWOOD RD,864 OAKWOOD RD,"CHARLESTON, WV 25314",http://maps.google.com/maps?q=FRUTH%20PHARMACY%2CDBA%20FRUTH%20PHCY%20OAKWOOD%20RD%2C+CHARLESTON%2C+WV+25314
"GENOA HEALTHCARE, LLC",1501 MADISON ROAD,3RD FL,"WALNUT HILLS, OH 45206",http://maps.google.com/maps?q=GENOA%20HEALTHCARE%20LLC%2C1501%20MADISON%20ROAD%2C+WALNUT%20HILLS%2C+OH+45206
"GENOA HEALTHCARE, LLC",1520 GERMANTOWN STREET,"DAYTON, OH 45417",http://maps.google.com/maps?q=GENOA%20HEALTHCARE%20LLC%2C1520%20GERMANTOWN%20STREET%2C+DAYTON%2C+OH+45417,
"GENOA HEALTHCARE, LLC","43 E MAIN STREET, STE 113","AMELIA, OH 45102",http://maps.google.com/maps?q=GENOA%20HEALTHCARE%20LLC%2C43%20E%20MAIN%20STREET%2C%20STE%20113%2C+AMELIA%2C+OH+45102,
"GENOA HEALTHCARE, LLC",901 WASHINGTON STREET,ROOM 135,"PORTSMOUTH, OH 45662",http://maps.google.com/maps?q=GENOA%20HEALTHCARE%20LLC%2C901%20WASHINGTON%20STREET%2C+PORTSMOUTH%2C+OH+45662
GOOD SAMARITAN HOSPITAL,375 DIXMYTH AVENUE,"CINCINNATI, OH 45220",http://maps.google.com/maps?q=GOOD%20SAMARITAN%20HOSPITAL%2C375%20DIXMYTH%20AVENUE%2C+CINCINNATI%2C+OH+45220,
"HOOK-SUPERX, L.L.C.",1002 SPRING STREET,"JEFFERSONVILLE, IN 47130",http://maps.google.com/maps?q=HOOKSUPERX%20LLC%2C1002%20SPRING%20STREET%2C+JEFFERSONVILLE%2C+IN+47130,
"HOOK-SUPERX, L.L.C.",1950 STATE STREET,"NEW ALBANY, IN 47150",http://maps.google.com/maps?q=HOOKSUPERX%20LLC%2C1950%20STATE%20STREET%2C+NEW%20ALBANY%2C+IN+47150,
"HOOK-SUPERX, L.L.C.",201 EAST TIPTON STREET,"SEYMOUR, IN 47274",http://maps.google.com/maps?q=HOOKSUPERX%20LLC%2C201%20EAST%20TIPTON%20STREET%2C+SEYMOUR%2C+IN+47274,
"HOOK-SUPERX, L.L.C.",2423 N. NATIONAL RD.,"COLUMBUS, IN 47201",http://maps.google.com/maps?q=HOOKSUPERX%20LLC%2C2423%20N.%20NATIONAL%20RD.%2C+COLUMBUS%2C+IN+47201,
KENTUCKY CLINIC PHARMACY,740 SOUTH LIMESTONE STREET,J-134 KENTUCKY CLINIC,"LEXINGTON, KY 40536",http://maps.google.com/maps?q=KENTUCKY%20CLINIC%20PHARMACY%2C740%20SOUTH%20LIMESTONE%20STREET%2C+LEXINGTON%2C+KY+40536
"KENTUCKY CVS PHARMACY, L.L.C.",101 WEST SHOWALTER DRIVE,"GEORGETOWN, KY 40324",http://maps.google.com/maps?q=KENTUCKY%20CVS%20PHARMACY%20LLC%2C101%20WEST%20SHOWALTER%20DRIVE%2C+GEORGETOWN%2C+KY+40324,
"KENTUCKY CVS PHARMACY, L.L.C.",1227 US HWY 127 S,"FRANKFORT, KY 40601",http://maps.google.com/maps?q=KENTUCKY%20CVS%20PHARMACY%20LLC%2C1227%20US%20HWY%20127%20S%2C+FRANKFORT%2C+KY+40601,
"KENTUCKY CVS PHARMACY, L.L.C.",2000 HARRODSBURG ROAD,"LEXINGTON, KY 40503",http://maps.google.com/maps?q=KENTUCKY%20CVS%20PHARMACY%20LLC%2C2000%20HARRODSBURG%20ROAD%2C+LEXINGTON%2C+KY+40503,
"KENTUCKY CVS PHARMACY, L.L.C.",2222 BARDSTOWN RD.,"LOUISVILLE, KY 40205",http://maps.google.com/maps?q=KENTUCKY%20CVS%20PHARMACY%20LLC%2C2222%20BARDSTOWN%20RD.%2C+LOUISVILLE%2C+KY+40205,
"KENTUCKY CVS PHARMACY, L.L.C.",3097 TODDS RD.,"LEXINGTON, KY 40509",http://maps.google.com/maps?q=KENTUCKY%20CVS%20PHARMACY%20LLC%2C3097%20TODDS%20RD.%2C+LEXINGTON%2C+KY+40509,
"KENTUCKY CVS PHARMACY, L.L.C.",3700 BARDSTOWN RD,"LOUISVILLE, KY 40218",http://maps.google.com/maps?q=KENTUCKY%20CVS%20PHARMACY%20LLC%2C3700%20BARDSTOWN%20RD%2C+LOUISVILLE%2C+KY+40218,
"KENTUCKY CVS PHARMACY, L.L.C.",5121 ANTLE DRIVE,"LOUISVILLE, KY 40229",http://maps.google.com/maps?q=KENTUCKY%20CVS%20PHARMACY%20LLC%2C5121%20ANTLE%20DRIVE%2C+LOUISVILLE%2C+KY+40229,
"KENTUCKY PHARMACY #1,LLC",182 FRANKFORT ROAD,"SHELBYVILLE, KY 40065",http://maps.google.com/maps?q=KENTUCKY%20PHARMACY%20LLC%2C182%20FRANKFORT%20ROAD%2C+SHELBYVILLE%2C+KY+40065,
KINES FAMILY PHARMACY INC.,6097 SISSONVILLE DRIVE,"CHARLESTON, WV 25312",http://maps.google.com/maps?q=KINES%20FAMILY%20PHARMACY%20INC%2C6097%20SISSONVILLE%20DRIVE%2C+CHARLESTON%2C+WV+25312,
KING'S DAUGHTERS,613 23RD STREET SUITE 110,"ASHLAND, KY 41101",http://maps.google.com/maps?q=KINGS%20DAUGHTERS%2C613%2023RD%20STREET%20SUITE%20110%2C+ASHLAND%2C+KY+41101,
LIFELINE INSTITUTIONAL PHARMACY,3699 SYMMES RD,SUITE 1,"HAMILTON, OH 45015",http://maps.google.com/maps?q=LIFELINE%20INSTITUTIONAL%20PHARMACY%2C3699%20SYMMES%20RD%2C+HAMILTON%2C+OH+45015
"MARGARET MARY COMMUNITY HOSPITAL, INC",ATTN PHARMACY,321 MITCHELL AVENUE,"BATESVILLE, IN 47006",http://maps.google.com/maps?q=MARGARET%20MARY%20COMMUNITY%20HOSPITAL%20INC%2CATTN%20PHARMACY%2C+BATESVILLE%2C+IN+47006
MERCY HEALTH - MARCUM & WALLACE HOSPITAL LLC,60 MERCY COURT,"IRVINE, KY 40336",http://maps.google.com/maps?q=MERCY%20HEALTH%20%20MARCUM%20%20WALLACE%20HOSPITAL%20LLC%2C60%20MERCY%20COURT%2C+IRVINE%2C+KY+40336,
MERCY HEALTH - WEST HOSPITAL,3300 MERCY HEALTH BOULEVARD,"CINCINNATI, OH 45211",http://maps.google.com/maps?q=MERCY%20HEALTH%20%20WEST%20HOSPITAL%2C3300%20MERCY%20HEALTH%20BOULEVARD%2C+CINCINNATI%2C+OH+45211,
MERCY HEALTH - WEST RETAIL PHARMACY,3300 MERCY HEALTH BOULEVARD,ATTN: PHARMACY DEPARTMENT,"CINCINNATI, OH 45211",http://maps.google.com/maps?q=MERCY%20HEALTH%20%20WEST%20RETAIL%20PHARMACY%2C3300%20MERCY%20HEALTH%20BOULEVARD%2C+CINCINNATI%2C+OH+45211
MERCY HOSPITAL,3000 MACK ROAD,ATTENTION PHARMACY LOWER LEVEL,"FAIRFIELD, OH 45014",http://maps.google.com/maps?q=MERCY%20HOSPITAL%2C3000%20MACK%20ROAD%2C+FAIRFIELD%2C+OH+45014
MERCY HOSPITAL-ANDERSON,7500 STATE ROAD,"CINCINNATI, OH 45255",http://maps.google.com/maps?q=MERCY%20HOSPITALANDERSON%2C7500%20STATE%20ROAD%2C+CINCINNATI%2C+OH+45255,
MIAMI VALLEY HOSP,DEPT OF PHARMACY,ONE WYOMING ST,"DAYTON, OH 45409",http://maps.google.com/maps?q=MIAMI%20VALLEY%20HOSP%2CDEPT%20OF%20PHARMACY%2C+DAYTON%2C+OH+45409
MIAMI VALLEY HOSPITAL SOUTH,2400 MIAMI VALLEY DR,"CENTERVILLE, OH 45459",http://maps.google.com/maps?q=MIAMI%20VALLEY%20HOSPITAL%20SOUTH%2C2400%20MIAMI%20VALLEY%20DR%2C+CENTERVILLE%2C+OH+45459,
MINGO HEALTH PARTNERS LLC,859 ALDERSON ST,"WILLIAMSON, WV 25661",http://maps.google.com/maps?q=MINGO%20HEALTH%20PARTNERS%20LLC%2C859%20ALDERSON%20ST%2C+WILLIAMSON%2C+WV+25661,
MULLANEY'S LTC PHARMACY,6096 MONTGOMERY RD SUITE B,"CINCINNATI, OH 45213",http://maps.google.com/maps?q=MULLANEYS%20LTC%20PHARMACY%2C6096%20MONTGOMERY%20RD%20SUITE%20B%2C+CINCINNATI%2C+OH+45213,
MY RX LLC DBA MY PHARMACY,170 DR ARLA WAY STE 105,"LOUISVILLE, KY 40229",http://maps.google.com/maps?q=MY%20RX%20LLC%20DBA%20MY%20PHARMACY%2C170%20DR%20ARLA%20WAY%20STE%20105%2C+LOUISVILLE%2C+KY+40229,
NORTHSIDE HEALTH CENTER,CINCINNATI HEALTH DEPARTMENT,3917 SPRING GROVE AVE,"CINCINNATI, OH 45223",http://maps.google.com/maps?q=NORTHSIDE%20HEALTH%20CENTER%2CCINCINNATI%20HEALTH%20DEPARTMENT%2C+CINCINNATI%2C+OH+45223
"NORTON COMMUNITY PHYSICIAN SERVICES,LLC",1490 PARK AVENUE NW,SUITE 7,"NORTON, VA 24273",http://maps.google.com/maps?q=NORTON%20COMMUNITY%20PHYSICIAN%20SERVICESLLC%2C1490%20PARK%20AVENUE%20NW%2C+NORTON%2C+VA+24273
"OHIO CVS STORES, L.L.C.",1331 NORTH FAIRFIELD ROAD,"BEAVERCREEK, OH 45432",http://maps.google.com/maps?q=OHIO%20CVS%20STORES%20LLC%2C1331%20NORTH%20FAIRFIELD%20ROAD%2C+BEAVERCREEK%2C+OH+45432,
"OHIO CVS STORES, L.L.C.",17 WILLIAM H. TAFT RD.,"CINCINNATI, OH 45219",http://maps.google.com/maps?q=OHIO%20CVS%20STORES%20LLC%2C17%20WILLIAM%20H.%20TAFT%20RD.%2C+CINCINNATI%2C+OH+45219,
"OHIO CVS STORES, L.L.C.",210 EAST EMMITT AVE.,"WAVERLY, OH 45690",http://maps.google.com/maps?q=OHIO%20CVS%20STORES%20LLC%2C210%20EAST%20EMMITT%20AVE.%2C+WAVERLY%2C+OH+45690,
"OHIO CVS STORES, L.L.C.",28 N. BROOKWOOD AVE.,"HAMILTON, OH 45013",http://maps.google.com/maps?q=OHIO%20CVS%20STORES%20LLC%2C28%20N.%20BROOKWOOD%20AVE.%2C+HAMILTON%2C+OH+45013,
"OHIO CVS STORES, L.L.C.",3920 LINDEN AVE.,"DAYTON, OH 45432",http://maps.google.com/maps?q=OHIO%20CVS%20STORES%20LLC%2C3920%20LINDEN%20AVE.%2C+DAYTON%2C+OH+45432,
"OHIO CVS STORES, L.L.C.",7217 CINCINNATI-DAYTON ROAD,"WEST CHESTER, OH 45069",http://maps.google.com/maps?q=OHIO%20CVS%20STORES%20LLC%2C7217%20CINCINNATI-DAYTON%20ROAD%2C+WEST%20CHESTER%2C+OH+45069,
"OHIO CVS STORES, L.L.C.",820 S BREIEL BLVD,"MIDDLETOWN, OH 45044",http://maps.google.com/maps?q=OHIO%20CVS%20STORES%20LLC%2C820%20S%20BREIEL%20BLVD%2C+MIDDLETOWN%2C+OH+45044,
P C A CORRECTIONS,2701 CHESTNUT STATION COURT,"LOUISVILLE, KY 40299",http://maps.google.com/maps?q=P%20C%20A%20CORRECTIONS%2C2701%20CHESTNUT%20STATION%20COURT%2C+LOUISVILLE%2C+KY+40299,
"PHARMACY CARE SOLUTIONS, INC",2323 N. MARR ROAD,"COLUMBUS, IN 47203",http://maps.google.com/maps?q=PHARMACY%20CARE%20SOLUTIONS%20INC%2C2323%20N.%20MARR%20ROAD%2C+COLUMBUS%2C+IN+47203,
RUSH MEMORIAL HOSPITAL,1300 N. MAIN STREET,PO BOX 608,"RUSHVILLE, IN 46173",http://maps.google.com/maps?q=RUSH%20MEMORIAL%20HOSPITAL%2C1300%20N.%20MAIN%20STREET%2C+RUSHVILLE%2C+IN+46173
SCHNECK MEDICAL CENTER,411 WEST TIPTON STREET,"SEYMOUR, IN 47274",http://maps.google.com/maps?q=SCHNECK%20MEDICAL%20CENTER%2C411%20WEST%20TIPTON%20STREET%2C+SEYMOUR%2C+IN+47274,
ST CLAIRE MEDICAL CENTER INC - RETAIL,222 MEDICAL CIRCLE,"MOREHEAD, KY 40351",http://maps.google.com/maps?q=ST%20CLAIRE%20MEDICAL%20CENTER%20INC%20%20RETAIL%2C222%20MEDICAL%20CIRCLE%2C+MOREHEAD%2C+KY+40351,
ST VINCENT JENNINGS HOSPITAL,301 HENRY STREET,"NORTH VERNON, IN 47265",http://maps.google.com/maps?q=ST%20VINCENT%20JENNINGS%20HOSPITAL%2C301%20HENRY%20STREET%2C+NORTH%20VERNON%2C+IN+47265,
"TENNESSEE CVS PHARMACY, L.L.C.",128 W. STONE DR.,"KINGSPORT, TN 37660",http://maps.google.com/maps?q=TENNESSEE%20CVS%20PHARMACY%20LLC%2C128%20W.%20STONE%20DR.%2C+KINGSPORT%2C+TN+37660,
THE JEWISH HOSPITAL,4777 E GALBRAITH RD,"CINCINNATI, OH 45236",http://maps.google.com/maps?q=THE%20JEWISH%20HOSPITAL%2C4777%20E%20GALBRAITH%20RD%2C+CINCINNATI%2C+OH+45236,
THE PHARMACY @ HIMG,5170 U. S. ROUTE 60 EAST STE 150,"HUNTINGTON, WV 25705",http://maps.google.com/maps?q=THE%20PHARMACY%20%20HIMG%2C5170%20U.%20S.%20ROUTE%2060%20EAST%20STE%20150%2C+HUNTINGTON%2C+WV+25705,
TIGERX PHARMACY INC,5638 REDBUD HIGHWAY,"HONAKER, VA 24260",http://maps.google.com/maps?q=TIGERX%20PHARMACY%20INC%2C5638%20REDBUD%20HIGHWAY%2C+HONAKER%2C+VA+24260,
TOTAL PHARMACY CARE,533 HAMBLEY BLVD.,SUITE 6,"PIKEVILLE, KY 41501",http://maps.google.com/maps?q=TOTAL%20PHARMACY%20CARE%2C533%20HAMBLEY%20BLVD.%2C+PIKEVILLE%2C+KY+41501
TOWN DRUG,12459 E US ROUTE 22/3,"SABINA, OH 45169",http://maps.google.com/maps?q=TOWN%20DRUG%2C12459%20E%20US%20ROUTE%2022/3%2C+SABINA%2C+OH+45169,
TRIVILLIAN'S PHARMACY,215 35 ST,"CHARLESTON, WV 25304",http://maps.google.com/maps?q=TRIVILLIANS%20PHARMACY%2C215%2035%20ST%2C+CHARLESTON%2C+WV+25304,
UK JUNE BUCHANAN PHARMACY,59 COWTOWN RD,"HINDMAN, KY 41822",http://maps.google.com/maps?q=UK%20JUNE%20BUCHANAN%20PHARMACY%2C59%20COWTOWN%20RD%2C+HINDMAN%2C+KY+41822,
UK NORTH FORK VALLEY COMMUNITY HEALTH CENTER PHARM,750 MORTON BLVD,"HAZARD, KY 41701",http://maps.google.com/maps?q=UK%20NORTH%20FORK%20VALLEY%20COMMUNITY%20HEALTH%20CENTER%20PHARM%2C750%20MORTON%20BLVD%2C+HAZARD%2C+KY+41701,
UK PHARMACY SERVICES - TURFLAND,2195 HARRODSBURG RD,"LEXINGTON, KY 40504",http://maps.google.com/maps?q=UK%20PHARMACY%20SERVICES%20%20TURFLAND%2C2195%20HARRODSBURG%20RD%2C+LEXINGTON%2C+KY+40504,
UNIVERSITY MEDICAL CENTER,AMBULATORY CARE PHARMACY,530 SOUTH JACKSON STREET,"LOUISVILLE, KY 40202",http://maps.google.com/maps?q=UNIVERSITY%20MEDICAL%20CENTER%2CAMBULATORY%20CARE%20PHARMACY%2C+LOUISVILLE%2C+KY+40202
UNIVERSITY OF KENTUCKY,830 SOUTH LIMESTONE STREET,"LEXINGTON, KY 40536",http://maps.google.com/maps?q=UNIVERSITY%20OF%20KENTUCKY%2C830%20SOUTH%20LIMESTONE%20STREET%2C+LEXINGTON%2C+KY+40536,
UNIVERSITY OF KENTUCKY - GOOD SAMARITAN RETAIL,310 SOUTH LIMESTONE STREET,"LEXINGTON, KY 40508",http://maps.google.com/maps?q=UNIVERSITY%20OF%20KENTUCKY%20%20GOOD%20SAMARITAN%20RETAIL%2C310%20SOUTH%20LIMESTONE%20STREET%2C+LEXINGTON%2C+KY+40508,
UNIVERSITY OF KENTUCKY CHANDLER RETAIL PHARMACY,1000 SOUTH LIMESTONE STREET,RM A.01.114,"LEXINGTON, KY 40536",http://maps.google.com/maps?q=UNIVERSITY%20OF%20KENTUCKY%20CHANDLER%20RETAIL%20PHARMACY%2C1000%20SOUTH%20LIMESTONE%20STREET%2C+LEXINGTON%2C+KY+40536
UNIVERSITY OF LOUISVILLE HOSPITAL,401 EAST CHESTNUT STREET,"LOUISVILLE, KY 40202",http://maps.google.com/maps?q=UNIVERSITY%20OF%20LOUISVILLE%20HOSPITAL%2C401%20EAST%20CHESTNUT%20STREET%2C+LOUISVILLE%2C+KY+40202,
USAF- WRIGHT PATTERSON AFB,88MDSS/SGSM,4881 SUGAR MAPLE DR,"WRIGHT PATTERSON, OH 45433",http://maps.google.com/maps?q=USAF%20WRIGHT%20PATTERSON%20AFB%2C88MDSS/SGSM%2C+WRIGHT%20PATTERSON%2C+OH+45433
VA MEDICAL CENTER,2250 LEESTOWN ROAD,"LEXINGTON, KY 40511",http://maps.google.com/maps?q=VA%20MEDICAL%20CENTER%2C2250%20LEESTOWN%20ROAD%2C+LEXINGTON%2C+KY+40511,
WALGREEN CO.,101 GOFF MOUNTAIN RD.,"CROSS LANES, WV 25313",http://maps.google.com/maps?q=WALGREEN%20CO%2C101%20GOFF%20MOUNTAIN%20RD.%2C+CROSS%20LANES%2C+WV+25313,
WALGREEN CO.,1032 HARRISON AVE,"HARRISON, OH 45030",http://maps.google.com/maps?q=WALGREEN%20CO%2C1032%20HARRISON%20AVE%2C+HARRISON%2C+OH+45030,
WALGREEN CO.,1090 HIGH ST,"HAMILTON, OH 45011",http://maps.google.com/maps?q=WALGREEN%20CO%2C1090%20HIGH%20ST%2C+HAMILTON%2C+OH+45011,
WALGREEN CO.,111 4TH AVE.,"HUNTINGTON, WV 25701",http://maps.google.com/maps?q=WALGREEN%20CO%2C111%204TH%20AVE.%2C+HUNTINGTON%2C+WV+25701,
WALGREEN CO.,11930 STANDIFORD PLAZA DR,"LOUISVILLE, KY 40229",http://maps.google.com/maps?q=WALGREEN%20CO%2C11930%20STANDIFORD%20PLAZA%20DR%2C+LOUISVILLE%2C+KY+40229,
WALGREEN CO.,12101 SHELBYVILLE ROAD,"MIDDLETOWN, KY 40243",http://maps.google.com/maps?q=WALGREEN%20CO%2C12101%20SHELBYVILLE%20ROAD%2C+MIDDLETOWN%2C+KY+40243,
WALGREEN CO.,1260 E CENTRAL,"MIAMISBURG, OH 45342",http://maps.google.com/maps?q=WALGREEN%20CO%2C1260%20E%20CENTRAL%2C+MIAMISBURG%2C+OH+45342,
WALGREEN CO.,2001 HARRODSBURG RD,"LEXINGTON, KY 40504",http://maps.google.com/maps?q=WALGREEN%20CO%2C2001%20HARRODSBURG%20RD%2C+LEXINGTON%2C+KY+40504,
WALGREEN CO.,2015 STATE ST,"NEW ALBANY, IN 47150",http://maps.google.com/maps?q=WALGREEN%20CO%2C2015%20STATE%20ST%2C+NEW%20ALBANY%2C+IN+47150,
WALGREEN CO.,2021 HIKES LANE,"LOUISIVILLE, KY 40218",http://maps.google.com/maps?q=WALGREEN%20CO%2C2021%20HIKES%20LANE%2C+LOUISIVILLE%2C+KY+40218,
WALGREEN CO.,2320 BOUDINOT AVE.,"CINCINNATI, OH 45238",http://maps.google.com/maps?q=WALGREEN%20CO%2C2320%20BOUDINOT%20AVE.%2C+CINCINNATI%2C+OH+45238,
WALGREEN CO.,2360 STONY BROOK DRIVE,"LOUISVILLE, KY 40220",http://maps.google.com/maps?q=WALGREEN%20CO%2C2360%20STONY%20BROOK%20DRIVE%2C+LOUISVILLE%2C+KY+40220,
WALGREEN CO.,2400 BEAM ROAD,"COLUMBUS, IN 47203",http://maps.google.com/maps?q=WALGREEN%20CO%2C2400%20BEAM%20ROAD%2C+COLUMBUS%2C+IN+47203,
WALGREEN CO.,2710 SALEM AVE.,"DAYTON, OH 45406",http://maps.google.com/maps?q=WALGREEN%20CO%2C2710%20SALEM%20AVE.%2C+DAYTON%2C+OH+45406,
WALGREEN CO.,2811 HOLMANS LANE,"JEFFERSONVILLE, IN 47130",http://maps.google.com/maps?q=WALGREEN%20CO%2C2811%20HOLMANS%20LANE%2C+JEFFERSONVILLE%2C+IN+47130,
WALGREEN CO.,2933 ROBERT C. BYRD DR.,"BECKLEY, WV 25801",http://maps.google.com/maps?q=WALGREEN%20CO%2C2933%20ROBERT%20C.%20BYRD%20DR.%2C+BECKLEY%2C+WV+25801,
WALGREEN CO.,3 W CORRY STREET,"CINCINNATI, OH 45219",http://maps.google.com/maps?q=WALGREEN%20CO%2C3%20W%20CORRY%20STREET%2C+CINCINNATI%2C+OH+45219,
WALGREEN CO.,3000 TEAYS VALLEY RD.,"HURRICANE, WV 25526",http://maps.google.com/maps?q=WALGREEN%20CO%2C3000%20TEAYS%20VALLEY%20RD.%2C+HURRICANE%2C+WV+25526,
WALGREEN CO.,385 NORTHLAND BLVD,"CINCINNATI, OH 45240",http://maps.google.com/maps?q=WALGREEN%20CO%2C385%20NORTHLAND%20BLVD%2C+CINCINNATI%2C+OH+45240,
WALGREEN CO.,3980 DIXIE HWY,"LOUISVILLE, KY 40216",http://maps.google.com/maps?q=WALGREEN%20CO%2C3980%20DIXIE%20HWY%2C+LOUISVILLE%2C+KY+40216,
WALGREEN CO.,4090 E GALBRAITH RD,"DEER PARK, OH 45236",http://maps.google.com/maps?q=WALGREEN%20CO%2C4090%20E%20GALBRAITH%20RD%2C+DEER%20PARK%2C+OH+45236,
WALGREEN CO.,4605 MONTGOMERY ROAD,"NORWOOD, OH 45212",http://maps.google.com/maps?q=WALGREEN%20CO%2C4605%20MONTGOMERY%20ROAD%2C+NORWOOD%2C+OH+45212,
WALGREEN CO.,5201 S. THIRD ST.,"LOUISVILLE, KY 40214",http://maps.google.com/maps?q=WALGREEN%20CO%2C5201%20S.%20THIRD%20ST.%2C+LOUISVILLE%2C+KY+40214,
WALGREEN CO.,5403 N. BEND ROAD,"CINCINNATI, OH 45247",http://maps.google.com/maps?q=WALGREEN%20CO%2C5403%20N.%20BEND%20ROAD%2C+CINCINNATI%2C+OH+45247,
WALGREEN CO.,600 S HWY 27,"SOMERSET, KY 42501",http://maps.google.com/maps?q=WALGREEN%20CO%2C600%20S%20HWY%2027%2C+SOMERSET%2C+KY+42501,
WALGREEN CO.,6414 US RTE 60 E,"BARBOURSVILLE, WV 25504",http://maps.google.com/maps?q=WALGREEN%20CO%2C6414%20US%20RTE%2060%20E%2C+BARBOURSVILLE%2C+WV+25504,
WALGREEN CO.,655 WASHINGTON ST. W,"CHARLESTON, WV 25302",http://maps.google.com/maps?q=WALGREEN%20CO%2C655%20WASHINGTON%20ST.%20W%2C+CHARLESTON%2C+WV+25302,
WALGREEN CO.,6918 HAMILTON AVE.,"CINCINNATI, OH 45231",http://maps.google.com/maps?q=WALGREEN%20CO%2C6918%20HAMILTON%20AVE.%2C+CINCINNATI%2C+OH+45231,
WALGREEN CO.,700 S BREIEL BLVD,"MIDDLETOWN, OH 45044",http://maps.google.com/maps?q=WALGREEN%20CO%2C700%20S%20BREIEL%20BLVD%2C+MIDDLETOWN%2C+OH+45044,
WALGREEN CO.,7338 DIXIE HWY,"LOUISVILLE, KY 40258",http://maps.google.com/maps?q=WALGREEN%20CO%2C7338%20DIXIE%20HWY%2C+LOUISVILLE%2C+KY+40258,
WALGREEN CO.,8193 MALL ROAD,"FLORENCE, KY 41042",http://maps.google.com/maps?q=WALGREEN%20CO%2C8193%20MALL%20ROAD%2C+FLORENCE%2C+KY+41042,
WALGREEN CO.,850 NORTH BRIDGE STREET,"CHILLICOTHE, OH 45601",http://maps.google.com/maps?q=WALGREEN%20CO%2C850%20NORTH%20BRIDGE%20STREET%2C+CHILLICOTHE%2C+OH+45601,
WALGREEN CO.,934 SPRING ST,"JEFFERSONVILLE, IN 47130",http://maps.google.com/maps?q=WALGREEN%20CO%2C934%20SPRING%20ST%2C+JEFFERSONVILLE%2C+IN+47130,
WALGREEN CO.,9775 COLERAIN AVENUE,"CINCINNATI, OH 45251",http://maps.google.com/maps?q=WALGREEN%20CO%2C9775%20COLERAIN%20AVENUE%2C+CINCINNATI%2C+OH+45251,
"WEST VIRGINIA CVS PHARMACY, L.L.C.",1327 PLAZA EAST,"CHARLESTON, WV 25301",http://maps.google.com/maps?q=WEST%20VIRGINIA%20CVS%20PHARMACY%20LLC%2C1327%20PLAZA%20EAST%2C+CHARLESTON%2C+WV+25301,
"WEST VIRGINIA CVS PHARMACY, L.L.C.",1846 COAL HERITAGE RD.,"BLUEFIELD, WV 24701",http://maps.google.com/maps?q=WEST%20VIRGINIA%20CVS%20PHARMACY%20LLC%2C1846%20COAL%20HERITAGE%20RD.%2C+BLUEFIELD%2C+WV+24701,
"WEST VIRGINIA CVS PHARMACY, L.L.C.",221 CROSSINGS MALL ROAD,"ELKVIEW, WV 25071",http://maps.google.com/maps?q=WEST%20VIRGINIA%20CVS%20PHARMACY%20LLC%2C221%20CROSSINGS%20MALL%20ROAD%2C+ELKVIEW%2C+WV+25071,
"WEST VIRGINIA CVS PHARMACY, L.L.C.",2811 ROBERT C. BYRD DR.,"BECKLEY, WV 25801",http://maps.google.com/maps?q=WEST%20VIRGINIA%20CVS%20PHARMACY%20LLC%2C2811%20ROBERT%20C.%20BYRD%20DR.%2C+BECKLEY%2C+WV+25801,
"WEST VIRGINIA CVS PHARMACY, L.L.C.",300 FOURTH AVE,"MONTGOMERY, WV 25136",http://maps.google.com/maps?q=WEST%20VIRGINIA%20CVS%20PHARMACY%20LLC%2C300%20FOURTH%20AVE%2C+MONTGOMERY%2C+WV+25136,
WILSON PHARMACY,1657 E STONE DR STE A,"KINGSPORT, TN 37660",http://maps.google.com/maps?q=WILSON%20PHARMACY%2C1657%20E%20STONE%20DR%20STE%20A%2C+KINGSPORT%2C+TN+37660,
WILSON PHARMACY INC.  DBA MOUNTAIN STATES PHARMACY,16000 JOHNSTON MEMORIAL DR,"ABINGDON, VA 24211",http://maps.google.com/maps?q=WILSON%20PHARMACY%20INC%20%20DBA%20MOUNTAIN%20STATES%20PHARMACY%2C16000%20JOHNSTON%20MEMORIAL%20DR%2C+ABINGDON%2C+VA+24211,
"WEST VIRGINIA CVS PHARMACY, L.L.C.",1827 HARPER ROAD,"BECKLEY, WV 25801",http://maps.google.com/maps?q=WEST%20VIRGINIA%20CVS%20PHARMACY%20LLC%2C1827%20HARPER%20ROAD%2C+BECKLEY%2C+WV+25801,
"WEST VIRGINIA CVS PHARMACY, L.L.C.",1414 N. EISENHOWER DR.,"BECKLEY, WV 25801",http://maps.google.com/maps?q=WEST%20VIRGINIA%20CVS%20PHARMACY%20LLC%2C1414%20N.%20EISENHOWER%20DR.%2C+BECKLEY%2C+WV+25801,
MAIN STREET PHARMACY,435 MAIN STREET STE 1,STE 1,"OAK HILL, WV 25901",http://maps.google.com/maps?q=MAIN%20STREET%20PHARMACY%2C435%20MAIN%20STREET%20STE%201%2C+OAK%20HILL%2C+WV+25901
"WEST VIRGINIA CVS PHARMACY, L.L.C.",72 WHITEWATER AVE.,"FAYETTEVILLE, WV 25840",http://maps.google.com/maps?q=WEST%20VIRGINIA%20CVS%20PHARMACY%20LLC%2C72%20WHITEWATER%20AVE.%2C+FAYETTEVILLE%2C+WV+25840,
