Business Name,Address 1,Address 2,"City, State Zip",Map URL
"BAYHEALTH MEDICAL CENTER, INC  DBA",640 SOUTH STATE STREET,"DOVER, DE 19901",http://maps.google.com/maps?q=BAYHEALTH%20MEDICAL%20CENTER%20INC%20%20DBA%2C640%20SOUTH%20STATE%20STREET%2C+DOVER%2C+DE+19901,
BELAIR MEDICINES INC,1911 BEL AIR RD,"FALLSTON, MD 21047",http://maps.google.com/maps?q=BELAIR%20MEDICINES%20INC%2C1911%20BEL%20AIR%20RD%2C+FALLSTON%2C+MD+21047,
BOOTHWYN APOTHECARY,2341 CHICHESTER AVE,"BOOTHWYN, PA 19061",http://maps.google.com/maps?q=BOOTHWYN%20APOTHECARY%2C2341%20CHICHESTER%20AVE%2C+BOOTHWYN%2C+PA+19061,
CARESITE PHARMACY,1000 E MOUNTAIN DRIVE,"WILKES BARRE, PA 18711",http://maps.google.com/maps?q=CARESITE%20PHARMACY%2C1000%20E%20MOUNTAIN%20DRIVE%2C+WILKES%20BARRE%2C+PA+18711,
CARESITE PHARMACY,114 LT. MICHAEL CLEARY DRIVE,"DALLAS, PA 18612",http://maps.google.com/maps?q=CARESITE%20PHARMACY%2C114%20LT.%20MICHAEL%20CLEARY%20DRIVE%2C+DALLAS%2C+PA+18612,
CARESITE PHARMACY,132 ABIGAIL LANE,"PORT MATILDA, PA 16870",http://maps.google.com/maps?q=CARESITE%20PHARMACY%2C132%20ABIGAIL%20LANE%2C+PORT%20MATILDA%2C+PA+16870,
CARESITE PHARMACY,16 WOODBINE LANE,"DANVILLE, PA 17821",http://maps.google.com/maps?q=CARESITE%20PHARMACY%2C16%20WOODBINE%20LANE%2C+DANVILLE%2C+PA+17821,
CARESITE PHARMACY,175 SOUTH WILKES-BARRE BLVD,"WILKES BARRE, PA 18702",http://maps.google.com/maps?q=CARESITE%20PHARMACY%2C175%20SOUTH%20WILKES-BARRE%20BLVD%2C+WILKES%20BARRE%2C+PA+18702,
CARESITE PHARMACY,21 GEISINGER LANE,"LEWISTOWN, PA 17044",http://maps.google.com/maps?q=CARESITE%20PHARMACY%2C21%20GEISINGER%20LANE%2C+LEWISTOWN%2C+PA+17044,
CARESITE PHARMACY,400 HIGHLAND AVE. SUITE B,"LEWISTOWN, PA 17044",http://maps.google.com/maps?q=CARESITE%20PHARMACY%2C400%20HIGHLAND%20AVE.%20SUITE%20B%2C+LEWISTOWN%2C+PA+17044,
CARESITE PHARMACY,4752 SR 655 SUITE A,BIG VALLEY AREA MEDICAL CENTER,"BELLEVILLE, PA 17004",http://maps.google.com/maps?q=CARESITE%20PHARMACY%2C4752%20SR%20655%20SUITE%20A%2C+BELLEVILLE%2C+PA+17004
CARESITE PHARMACY,THE LEWIS FANELLI BUILDING,529 TERRY REILEY WAY,"POTTSVILLE, PA 17901",http://maps.google.com/maps?q=CARESITE%20PHARMACY%2CTHE%20LEWIS%20FANELLI%20BUILDING%2C+POTTSVILLE%2C+PA+17901
CONCEPT MEDICAL,639 CHESTNUT STREET,"ASHLAND, PA 17921",http://maps.google.com/maps?q=CONCEPT%20MEDICAL%2C639%20CHESTNUT%20STREET%2C+ASHLAND%2C+PA+17921,
"DELAWARE CVS PHARMACY, L.L.C.",1545 PULASKI HIGHWAY,"BEAR, DE 19701",http://maps.google.com/maps?q=DELAWARE%20CVS%20PHARMACY%20LLC%2C1545%20PULASKI%20HIGHWAY%2C+BEAR%2C+DE+19701,
"DELAWARE CVS PHARMACY, L.L.C.",4020 CONCORD PIKE,"WILMINGTON, DE 19803",http://maps.google.com/maps?q=DELAWARE%20CVS%20PHARMACY%20LLC%2C4020%20CONCORD%20PIKE%2C+WILMINGTON%2C+DE+19803,
"DRUG CITY PHARMACY, LLC",2805 NORTH POINT RD,"BALTIMORE, MD 21222",http://maps.google.com/maps?q=DRUG%20CITY%20PHARMACY%20LLC%2C2805%20NORTH%20POINT%20RD%2C+BALTIMORE%2C+MD+21222,
E.A. HAWSE PHARMACY,P.O. BOX 97,17978 STATE ROUTE 55,"BAKER, WV 26801",http://maps.google.com/maps?q=EA%20HAWSE%20PHARMACY%2CP.O.%20BOX%2097%2C+BAKER%2C+WV+26801
EAGLEVILLE HOSPITAL,100 EAGLEVILLE ROAD,"EAGLEVILLE, PA 19403",http://maps.google.com/maps?q=EAGLEVILLE%20HOSPITAL%2C100%20EAGLEVILLE%20ROAD%2C+EAGLEVILLE%2C+PA+19403,
EXPRESS CARE PHARMACY,"1727 W LIBERTY STREET, UNIT 2","ALLENTOWN, PA 18104",http://maps.google.com/maps?q=EXPRESS%20CARE%20PHARMACY%2C1727%20W%20LIBERTY%20STREET%2C%20UNIT%202%2C+ALLENTOWN%2C+PA+18104,
GEISINGER - SHAMOKIN AREA COMMUNITY HOSPITAL,4200 HOSPITAL ROAD,"COAL TOWNSHIP, PA 17866",http://maps.google.com/maps?q=GEISINGER%20%20SHAMOKIN%20AREA%20COMMUNITY%20HOSPITAL%2C4200%20HOSPITAL%20ROAD%2C+COAL%20TOWNSHIP%2C+PA+17866,
GEISINGER MEDICAL CENTER,100 N ACADEMY AVE,"DANVILLE, PA 17822",http://maps.google.com/maps?q=GEISINGER%20MEDICAL%20CENTER%2C100%20N%20ACADEMY%20AVE%2C+DANVILLE%2C+PA+17822,
GEISINGER-BLOOMSBURG HOSPITAL PHARMACY,549 E FAIR STREET,"BLOOMSBURG, PA 17815",http://maps.google.com/maps?q=GEISINGERBLOOMSBURG%20HOSPITAL%20PHARMACY%2C549%20E%20FAIR%20STREET%2C+BLOOMSBURG%2C+PA+17815,
HAPPY HARRY'S INC.,1001 FORREST AVE,"DOVER, DE 19904",http://maps.google.com/maps?q=HAPPY%20HARRYS%20INC%2C1001%20FORREST%20AVE%2C+DOVER%2C+DE+19904,
HAPPY HARRY'S INC.,1120 PULASKI HIGHWAY,"BEAR, DE 19701",http://maps.google.com/maps?q=HAPPY%20HARRYS%20INC%2C1120%20PULASKI%20HIGHWAY%2C+BEAR%2C+DE+19701,
HAPPY HARRY'S INC.,6317 LIMESTONE ROAD,"HOCKESSIN, DE 19707",http://maps.google.com/maps?q=HAPPY%20HARRYS%20INC%2C6317%20LIMESTONE%20ROAD%2C+HOCKESSIN%2C+DE+19707,
HAPPY HARRY'S INC.,CHESTNUT RUN,1710 FAULKLAND ROAD,"WILMINGTON, DE 19805",http://maps.google.com/maps?q=HAPPY%20HARRYS%20INC%2CCHESTNUT%20RUN%2C+WILMINGTON%2C+DE+19805
HAPPY HARRY'S INC.,FAIRFAX SHOPPING CENTER,2119 CONCORD PIKE,"WILMINGTON, DE 19803",http://maps.google.com/maps?q=HAPPY%20HARRYS%20INC%2CFAIRFAX%20SHOPPING%20CENTER%2C+WILMINGTON%2C+DE+19803
HAPPY HARRY'S INC.,SUBURBAN PLAZA,216 SUBURBAN DRIVE,"NEWARK, DE 19711",http://maps.google.com/maps?q=HAPPY%20HARRYS%20INC%2CSUBURBAN%20PLAZA%2C+NEWARK%2C+DE+19711
HARROLD'S PHARMACY,250 OLD RIVER ROAD,"WILKES BARRE, PA 18702",http://maps.google.com/maps?q=HARROLDS%20PHARMACY%2C250%20OLD%20RIVER%20ROAD%2C+WILKES%20BARRE%2C+PA+18702,
HARTZELLS PHARMACY INC,300 AMERICAN STREET,"CATASAUQUA, PA 18032",http://maps.google.com/maps?q=HARTZELLS%20PHARMACY%20INC%2C300%20AMERICAN%20STREET%2C+CATASAUQUA%2C+PA+18032,
HEALTH SERVICES PHARMACY,1201 GRAMPIAN BLVD,"WILLIAMSPORT, PA 17701",http://maps.google.com/maps?q=HEALTH%20SERVICES%20PHARMACY%2C1201%20GRAMPIAN%20BLVD%2C+WILLIAMSPORT%2C+PA+17701,
HERSHEY MEDICAL CENTER,MAIL CODE CH79,500 UNIVERSITY DR,"HERSHEY, PA 17033",http://maps.google.com/maps?q=HERSHEY%20MEDICAL%20CENTER%2CMAIL%20CODE%20CH79%2C+HERSHEY%2C+PA+17033
HOLY SPIRIT HOSPITAL,503 NORTH 21ST STREET,PHARMACY DEPT,"CAMP HILL, PA 17011",http://maps.google.com/maps?q=HOLY%20SPIRIT%20HOSPITAL%2C503%20NORTH%2021ST%20STREET%2C+CAMP%20HILL%2C+PA+17011
"HOSE PHARMACIES, INC.",17316 SHEPHERDSTOWN PIKE,"SHARPSBURG, MD 21782",http://maps.google.com/maps?q=HOSE%20PHARMACIES%20INC%2C17316%20SHEPHERDSTOWN%20PIKE%2C+SHARPSBURG%2C+MD+21782,
HOSPITAL OF THE UNIVERSITY OF PENNSYLVANIA,250 KING OF PRUSSIA ROAD /,ROOM 202,"RADNOR, PA 19087",http://maps.google.com/maps?q=HOSPITAL%20OF%20THE%20UNIVERSITY%20OF%20PENNSYLVANIA%2C250%20KING%20OF%20PRUSSIA%20ROAD%20/%2C+RADNOR%2C+PA+19087
HUP-VALLEY FORGE PHARMACY,1001 CHESTERBROOK BLVD,1ST FLOOR,"BERWYN, PA 19312",http://maps.google.com/maps?q=HUPVALLEY%20FORGE%20PHARMACY%2C1001%20CHESTERBROOK%20BLVD%2C+BERWYN%2C+PA+19312
INOVA LOUDOUN HOSPITAL,44045 RIVERSIDE PARKWAY,"LEESBURG, VA 20176",http://maps.google.com/maps?q=INOVA%20LOUDOUN%20HOSPITAL%2C44045%20RIVERSIDE%20PARKWAY%2C+LEESBURG%2C+VA+20176,
"JOHNS HOPKINS BAYVIEW MED CTR, INC",4940 EASTERN AVENUE,"BMO BUILDING, ROOM 01-0154","BALTIMORE, MD 21224",http://maps.google.com/maps?q=JOHNS%20HOPKINS%20BAYVIEW%20MED%20CTR%20INC%2C4940%20EASTERN%20AVENUE%2C+BALTIMORE%2C+MD+21224
JOHNS HOPKINS OUTPATIENT PHARMACY AT THE ARCADE,"ZAYED-BLOOMBERG BUILDING, M2125",1800 ORLEANS STREET,"BALTIMORE, MD 21287",http://maps.google.com/maps?q=JOHNS%20HOPKINS%20OUTPATIENT%20PHARMACY%20AT%20THE%20ARCADE%2CZAYED-BLOOMBERG%20BUILDING%2C%20M2125%2C+BALTIMORE%2C+MD+21287
KAISER PERM ASHBURN PHARMACY,43480 YUKON DRIVE SUITE 100,"ASHBURN, VA 20147",http://maps.google.com/maps?q=KAISER%20PERM%20ASHBURN%20PHARMACY%2C43480%20YUKON%20DRIVE%20SUITE%20100%2C+ASHBURN%2C+VA+20147,
KOHLERMAN PHARMACY INC,101 W KING STREET,"MALVERN, PA 19355",http://maps.google.com/maps?q=KOHLERMAN%20PHARMACY%20INC%2C101%20W%20KING%20STREET%2C+MALVERN%2C+PA+19355,
LEWISBURG PHARMACY,50 N 2ND STREET,"LEWISBURG, PA 17837",http://maps.google.com/maps?q=LEWISBURG%20PHARMACY%2C50%20N%202ND%20STREET%2C+LEWISBURG%2C+PA+17837,
LIFEBRIDGE PHARMACY AT NORTHWEST HOSPITAL,5401 OLD COURT RD,"RANDALLSTOWN, MD 21133",http://maps.google.com/maps?q=LIFEBRIDGE%20PHARMACY%20AT%20NORTHWEST%20HOSPITAL%2C5401%20OLD%20COURT%20RD%2C+RANDALLSTOWN%2C+MD+21133,
"LUXBURY VENTURES, LLC DBA OAKSIDE CARE PHARMACY",440 LEHIGH STREET,"READING, PA 19601",http://maps.google.com/maps?q=LUXBURY%20VENTURES%20LLC%20DBA%20OAKSIDE%20CARE%20PHARMACY%2C440%20LEHIGH%20STREET%2C+READING%2C+PA+19601,
"MARYLAND CVS PHARMACY, L.L.C.",1001 YORK ROAD,"TOWSON, MD 21204",http://maps.google.com/maps?q=MARYLAND%20CVS%20PHARMACY%20LLC%2C1001%20YORK%20ROAD%2C+TOWSON%2C+MD+21204,
"MARYLAND CVS PHARMACY, L.L.C.",15100 BALTIMORE AVE.,"LAUREL, MD 20707",http://maps.google.com/maps?q=MARYLAND%20CVS%20PHARMACY%20LLC%2C15100%20BALTIMORE%20AVE.%2C+LAUREL%2C+MD+20707,
"MARYLAND CVS PHARMACY, L.L.C.",19100 MONTGOMERY VILLAGE AVE.,"GAITHERSBURG, MD 20886",http://maps.google.com/maps?q=MARYLAND%20CVS%20PHARMACY%20LLC%2C19100%20MONTGOMERY%20VILLAGE%20AVE.%2C+GAITHERSBURG%2C+MD+20886,
"MARYLAND CVS PHARMACY, L.L.C.",2003 DAVIDSONVILLE RD.,"CROFTON, MD 21114",http://maps.google.com/maps?q=MARYLAND%20CVS%20PHARMACY%20LLC%2C2003%20DAVIDSONVILLE%20RD.%2C+CROFTON%2C+MD+21114,
"MARYLAND CVS PHARMACY, L.L.C.",28 MAGOTHY BEACH RD.,"PASADENA, MD 21122",http://maps.google.com/maps?q=MARYLAND%20CVS%20PHARMACY%20LLC%2C28%20MAGOTHY%20BEACH%20RD.%2C+PASADENA%2C+MD+21122,
"MARYLAND CVS PHARMACY, L.L.C.",3110 OLNEY SANDY SPRING RD.,"OLNEY, MD 20832",http://maps.google.com/maps?q=MARYLAND%20CVS%20PHARMACY%20LLC%2C3110%20OLNEY%20SANDY%20SPRING%20RD.%2C+OLNEY%2C+MD+20832,
"MARYLAND CVS PHARMACY, L.L.C.",3300A CENTENNIAL LANE,"ELLICOTT CITY, MD 21042",http://maps.google.com/maps?q=MARYLAND%20CVS%20PHARMACY%20LLC%2C3300A%20CENTENNIAL%20LANE%2C+ELLICOTT%20CITY%2C+MD+21042,
"MARYLAND CVS PHARMACY, L.L.C.",3715 UNIVERSITY BOULEVARD WEST,"KENSINGTON, MD 20895",http://maps.google.com/maps?q=MARYLAND%20CVS%20PHARMACY%20LLC%2C3715%20UNIVERSITY%20BOULEVARD%20WEST%2C+KENSINGTON%2C+MD+20895,
"MARYLAND CVS PHARMACY, L.L.C.",402 SO. JEFFERSON STREET,"FREDERICK, MD 21701",http://maps.google.com/maps?q=MARYLAND%20CVS%20PHARMACY%20LLC%2C402%20SO.%20JEFFERSON%20STREET%2C+FREDERICK%2C+MD+21701,
"MARYLAND CVS PHARMACY, L.L.C.",6480 OLD WATERLOO RD,"ELKRIDGE, MD 21075",http://maps.google.com/maps?q=MARYLAND%20CVS%20PHARMACY%20LLC%2C6480%20OLD%20WATERLOO%20RD%2C+ELKRIDGE%2C+MD+21075,
"MARYLAND CVS PHARMACY, L.L.C.",7845 WISE AVE.,"BALTIMORE, MD 21222",http://maps.google.com/maps?q=MARYLAND%20CVS%20PHARMACY%20LLC%2C7845%20WISE%20AVE.%2C+BALTIMORE%2C+MD+21222,
"MARYLAND CVS PHARMACY, L.L.C.",7955 TUCKERMAN LANE,"ROCKVILLE, MD 20854",http://maps.google.com/maps?q=MARYLAND%20CVS%20PHARMACY%20LLC%2C7955%20TUCKERMAN%20LANE%2C+ROCKVILLE%2C+MD+20854,
"MARYLAND CVS PHARMACY, L.L.C.",9920 KEY WEST AVE,"ROCKVILLE, MD 20850",http://maps.google.com/maps?q=MARYLAND%20CVS%20PHARMACY%20LLC%2C9920%20KEY%20WEST%20AVE%2C+ROCKVILLE%2C+MD+20850,
MASONIC VILLAGE PHARMACY,99 MASONIC DRIVE,"ELIZABETHTOWN, PA 17022",http://maps.google.com/maps?q=MASONIC%20VILLAGE%20PHARMACY%2C99%20MASONIC%20DRIVE%2C+ELIZABETHTOWN%2C+PA+17022,
MCELROY PHARMACY INC,100 E MAIN ST,P.O. BOX 283,"LITITZ, PA 17543",http://maps.google.com/maps?q=MCELROY%20PHARMACY%20INC%2C100%20E%20MAIN%20ST%2C+LITITZ%2C+PA+17543
MEDSTAR PHARMACY (STORE # 11),18101 PRINCE PHILIP DRIVE,"OLNEY, MD 20832",http://maps.google.com/maps?q=MEDSTAR%20PHARMACY%20STORE%2C18101%20PRINCE%20PHILIP%20DRIVE%2C+OLNEY%2C+MD+20832,
MEDSTAR PHARMACY (STORE #7),3305 N. LEISUREWORLD BOULEVARD,"SILVER SPRING, MD 20906",http://maps.google.com/maps?q=MEDSTAR%20PHARMACY%20STORE%2C3305%20N.%20LEISUREWORLD%20BOULEVARD%2C+SILVER%20SPRING%2C+MD+20906,
MEDSTAR PHARMACY AT GSH,5601 LOCH RAVEN BOULEVARD,"BALTIMORE, MD 21239",http://maps.google.com/maps?q=MEDSTAR%20PHARMACY%20AT%20GSH%2C5601%20LOCH%20RAVEN%20BOULEVARD%2C+BALTIMORE%2C+MD+21239,
MEDSTAR PHARMACY AT HARBOR HOSPITAL,3001 S HANOVER STREET,"BALTIMORE, MD 21225",http://maps.google.com/maps?q=MEDSTAR%20PHARMACY%20AT%20HARBOR%20HOSPITAL%2C3001%20S%20HANOVER%20STREET%2C+BALTIMORE%2C+MD+21225,
MEDSTAR PHARMACY AT UMH,201 E. UNIVERSITY PARKWAY,"BALTIMORE, MD 21218",http://maps.google.com/maps?q=MEDSTAR%20PHARMACY%20AT%20UMH%2C201%20E.%20UNIVERSITY%20PARKWAY%2C+BALTIMORE%2C+MD+21218,
MEDSTAR PHARMACY STORE # 12,9000 FRANKLIN SQUARE DRIVE,"ROSEDALE, MD 21237",http://maps.google.com/maps?q=MEDSTAR%20PHARMACY%20STORE%2C9000%20FRANKLIN%20SQUARE%20DRIVE%2C+ROSEDALE%2C+MD+21237,
MONTGOMERY'S PHARMACY,49 NORTH RAILROAD STREET,"HUGHESVILLE, PA 17737",http://maps.google.com/maps?q=MONTGOMERYS%20PHARMACY%2C49%20NORTH%20RAILROAD%20STREET%2C+HUGHESVILLE%2C+PA+17737,
NORTHERN BEDFORD PHARMACY,3499 BRUMBAUGH RD,"NEW ENTERPRISE, PA 16664",http://maps.google.com/maps?q=NORTHERN%20BEDFORD%20PHARMACY%2C3499%20BRUMBAUGH%20RD%2C+NEW%20ENTERPRISE%2C+PA+16664,
ORBY PHARMACY INC,626 WATER STREET SUITE 3,PO BOX 367,"ORBISONIA, PA 17243",http://maps.google.com/maps?q=ORBY%20PHARMACY%20INC%2C626%20WATER%20STREET%20SUITE%203%2C+ORBISONIA%2C+PA+17243
"PENNSYLVANIA CVS PHARMACY, L.L.C.",105 S. SPORTING HILL RD.,"MECHANICSBURG, PA 17050",http://maps.google.com/maps?q=PENNSYLVANIA%20CVS%20PHARMACY%20LLC%2C105%20S.%20SPORTING%20HILL%20RD.%2C+MECHANICSBURG%2C+PA+17050,
"PENNSYLVANIA CVS PHARMACY, L.L.C.",1507 LITITZ PIKE,"LANCASTER, PA 17601",http://maps.google.com/maps?q=PENNSYLVANIA%20CVS%20PHARMACY%20LLC%2C1507%20LITITZ%20PIKE%2C+LANCASTER%2C+PA+17601,
"PENNSYLVANIA CVS PHARMACY, L.L.C.",1601 W. LIBERTY STREET,"ALLENTOWN, PA 18102",http://maps.google.com/maps?q=PENNSYLVANIA%20CVS%20PHARMACY%20LLC%2C1601%20W.%20LIBERTY%20STREET%2C+ALLENTOWN%2C+PA+18102,
"PENNSYLVANIA CVS PHARMACY, L.L.C.",1849 LYCOMING CREEK ROAD,"WILLIAMSPORT, PA 17701",http://maps.google.com/maps?q=PENNSYLVANIA%20CVS%20PHARMACY%20LLC%2C1849%20LYCOMING%20CREEK%20ROAD%2C+WILLIAMSPORT%2C+PA+17701,
"PENNSYLVANIA CVS PHARMACY, L.L.C.",315 WEST EMAUS AVENUE,"ALLENTOWN, PA 18103",http://maps.google.com/maps?q=PENNSYLVANIA%20CVS%20PHARMACY%20LLC%2C315%20WEST%20EMAUS%20AVENUE%2C+ALLENTOWN%2C+PA+18103,
"PENNSYLVANIA CVS PHARMACY, L.L.C.",3298 EDGEMONT AVE.,"BROOKHAVEN, PA 19015",http://maps.google.com/maps?q=PENNSYLVANIA%20CVS%20PHARMACY%20LLC%2C3298%20EDGEMONT%20AVE.%2C+BROOKHAVEN%2C+PA+19015,
"PENNSYLVANIA CVS PHARMACY, L.L.C.",5 CHURCH STREET,"DALLAS, PA 18612",http://maps.google.com/maps?q=PENNSYLVANIA%20CVS%20PHARMACY%20LLC%2C5%20CHURCH%20STREET%2C+DALLAS%2C+PA+18612,
"PENNSYLVANIA CVS PHARMACY, L.L.C.",6007 ALLENTOWN BLVD,PAXTON SQUARE,"HARRISBURG, PA 17112",http://maps.google.com/maps?q=PENNSYLVANIA%20CVS%20PHARMACY%20LLC%2C6007%20ALLENTOWN%20BLVD%2C+HARRISBURG%2C+PA+17112
PURCELLVILLE PHARMACY,609 E MAIN ST SUITE Q,"PURCELLVILLE, VA 20132",http://maps.google.com/maps?q=PURCELLVILLE%20PHARMACY%2C609%20E%20MAIN%20ST%20SUITE%20Q%2C+PURCELLVILLE%2C+VA+20132,
"RANN PHARMACY, INC.",377 MAIN ST,"HARLEYSVILLE, PA 19438",http://maps.google.com/maps?q=RANN%20PHARMACY%20INC%2C377%20MAIN%20ST%2C+HARLEYSVILLE%2C+PA+19438,
READING HOSPITAL AMBULATORY PHARMACY,420 S 5TH AVENUE,"READING, PA 19611",http://maps.google.com/maps?q=READING%20HOSPITAL%20AMBULATORY%20PHARMACY%2C420%20S%205TH%20AVENUE%2C+READING%2C+PA+19611,
"RITE AID OF PENNSYLVANIA, INC.",1137 MARKET STREET,"LEMOYNE, PA 17043",http://maps.google.com/maps?q=RITE%20AID%20OF%20PENNSYLVANIA%20INC%2C1137%20MARKET%20STREET%2C+LEMOYNE%2C+PA+17043,
RIVIERA DRUGS LLC,8541 FORTSMALL WOOD ROAD,UNIT G,"PASADENA, MD 21122",http://maps.google.com/maps?q=RIVIERA%20DRUGS%20LLC%2C8541%20FORTSMALL%20WOOD%20ROAD%2C+PASADENA%2C+MD+21122
SACRED HEART HOSPITAL,4TH & CHEW ST,PHARMACY DEPT,"ALLENTOWN, PA 18102",http://maps.google.com/maps?q=SACRED%20HEART%20HOSPITAL%2C4TH%20&%20CHEW%20ST%2C+ALLENTOWN%2C+PA+18102
SHADE MOUNTAIN PHARMACY,9627 ROUTE 35,SUITE 20,"MT PLEASANT MILLS, PA 17853",http://maps.google.com/maps?q=SHADE%20MOUNTAIN%20PHARMACY%2C9627%20ROUTE%2035%2C+MT%20PLEASANT%20MILLS%2C+PA+17853
SHEEHANS PHARMACY,79 EAST CAREY ST,"PLAINS, PA 18705",http://maps.google.com/maps?q=SHEEHANS%20PHARMACY%2C79%20EAST%20CAREY%20ST%2C+PLAINS%2C+PA+18705,
STRASBURG PHARMACY,33820 OLD VALLEY PIKE,SUITE 7,"STRASBURG, VA 22657",http://maps.google.com/maps?q=STRASBURG%20PHARMACY%2C33820%20OLD%20VALLEY%20PIKE%2C+STRASBURG%2C+VA+22657
SUMMIT HEALTH PHARMACY INC,3400 EDGMONT AVENUE,"BROOKHAVEN, PA 19015",http://maps.google.com/maps?q=SUMMIT%20HEALTH%20PHARMACY%20INC%2C3400%20EDGMONT%20AVENUE%2C+BROOKHAVEN%2C+PA+19015,
SUSQUEHANNA HEALTH PHARMACY,740 HIGH ST SUITE 1001,"WILLIAMSPORT, PA 17701",http://maps.google.com/maps?q=SUSQUEHANNA%20HEALTH%20PHARMACY%2C740%20HIGH%20ST%20SUITE%201001%2C+WILLIAMSPORT%2C+PA+17701,
THE JOHNS HOPKINS HOSPITAL,1717 E MONUMENT ST,"PARK BUILDING, ROOM G-105","BALTIMORE, MD 21287",http://maps.google.com/maps?q=THE%20JOHNS%20HOPKINS%20HOSPITAL%2C1717%20E%20MONUMENT%20ST%2C+BALTIMORE%2C+MD+21287
THE JOHNS HOPKINS HOSPITAL,401 NORTH BROADWAY,SUITE 1001,"BALTIMORE, MD 21231",http://maps.google.com/maps?q=THE%20JOHNS%20HOPKINS%20HOSPITAL%2C401%20NORTH%20BROADWAY%2C+BALTIMORE%2C+MD+21231
THE JOHNS HOPKINS HOSPITAL,601 NORTH CAROLINE STREET,SUITE 1006,"BALTIMORE, MD 21287",http://maps.google.com/maps?q=THE%20JOHNS%20HOPKINS%20HOSPITAL%2C601%20NORTH%20CAROLINE%20STREET%2C+BALTIMORE%2C+MD+21287
THE JOHNS HOPKINS HOSPITAL,AT MONUMENT STREET,1810 E. MONUMENT STREET,"BALTIMORE, MD 21205",http://maps.google.com/maps?q=THE%20JOHNS%20HOPKINS%20HOSPITAL%2CAT%20MONUMENT%20STREET%2C+BALTIMORE%2C+MD+21205
THE LIFEBRIDGE PHARMACY AT SINAI HOSPITAL,2401 W. BELVEDERE AVE,"BALTIMORE, MD 21215",http://maps.google.com/maps?q=THE%20LIFEBRIDGE%20PHARMACY%20AT%20SINAI%20HOSPITAL%2C2401%20W.%20BELVEDERE%20AVE%2C+BALTIMORE%2C+MD+21215,
TOWNVILLE PHARMACY,2195 ROUTE 442 HWY,"MUNCY, PA 17756",http://maps.google.com/maps?q=TOWNVILLE%20PHARMACY%2C2195%20ROUTE%20442%20HWY%2C+MUNCY%2C+PA+17756,
UMMC MIDTOWN CAMPUS PHARMACY,821 NORTH EUTAW STREET,"BALTIMORE, MD 21201",http://maps.google.com/maps?q=UMMC%20MIDTOWN%20CAMPUS%20PHARMACY%2C821%20NORTH%20EUTAW%20STREET%2C+BALTIMORE%2C+MD+21201,
UNIV OF MD MEDICAL SYSTEMS,22 SOUTH GREENE STREET,1ST FLOOR,"BALTIMORE, MD 21201",http://maps.google.com/maps?q=UNIV%20OF%20MD%20MEDICAL%20SYSTEMS%2C22%20SOUTH%20GREENE%20STREET%2C+BALTIMORE%2C+MD+21201
UNIVERSITY OF MARYLAND MEDICAL CENTER,11 SOUTH PACA STREET,"BALTIMORE, MD 21201",http://maps.google.com/maps?q=UNIVERSITY%20OF%20MARYLAND%20MEDICAL%20CENTER%2C11%20SOUTH%20PACA%20STREET%2C+BALTIMORE%2C+MD+21201,
US ARMY  DUNHAM HEALTH CLINIC,CARLISLE BARRACKS,450 GIBNER RD/STE 1,"CARLISLE, PA 17013",http://maps.google.com/maps?q=US%20ARMY%20%20DUNHAM%20HEALTH%20CLINIC%2CCARLISLE%20BARRACKS%2C+CARLISLE%2C+PA+17013
US ARMY KIRK HEALTH CLINIC,PHARMACY,ABERDEEN PROVING GROUND,"ABERDEEN PROVING GROUND, MD 21005",http://maps.google.com/maps?q=US%20ARMY%20KIRK%20HEALTH%20CLINIC%2CPHARMACY%2C+ABERDEEN%20PROVING%20GROUND%2C+MD+21005
US ARMY- FT DETRICK HEALTH CLINIC,1434 PORTER STREET,FORT DETRICK,"FREDERICK, MD 21702",http://maps.google.com/maps?q=US%20ARMY%20FT%20DETRICK%20HEALTH%20CLINIC%2C1434%20PORTER%20STREET%2C+FREDERICK%2C+MD+21702
US ARMY- KIMBROUGH AMBULATORY CARE CENTER,DEPARTMENT OF PHARMACY,KIMBROUGH AMBULATORY CARE CENTER,"FORT MEADE, MD 20755",http://maps.google.com/maps?q=US%20ARMY%20KIMBROUGH%20AMBULATORY%20CARE%20CENTER%2CDEPARTMENT%20OF%20PHARMACY%2C+FORT%20MEADE%2C+MD+20755
USAF- 436 MEDICAL GROUP/SGSM,436 MDG/SGSM,300 TUSKEGEE BLVD,"DOVER AFB, DE 19902",http://maps.google.com/maps?q=USAF%20%20MEDICAL%20GROUPSGSM%2C436%20MDG/SGSM%2C+DOVER%20AFB%2C+DE+19902
WALGREEN CO,1260 LIBERTY RD,"ELDERSBURG, MD 21784",http://maps.google.com/maps?q=WALGREEN%20CO%2C1260%20LIBERTY%20RD%2C+ELDERSBURG%2C+MD+21784,
WALGREEN CO.,10097 BALTIMORE NATIONAL PIKE,"ELLICOTT CITY, MD 21042",http://maps.google.com/maps?q=WALGREEN%20CO%2C10097%20BALTIMORE%20NATIONAL%20PIKE%2C+ELLICOTT%20CITY%2C+MD+21042,
WALGREEN CO.,101 FORBES DR.,"MARTINSBURG, WV 25404",http://maps.google.com/maps?q=WALGREEN%20CO%2C101%20FORBES%20DR.%2C+MARTINSBURG%2C+WV+25404,
WALGREEN CO.,3005 EMMORTON ROAD,"ABINGDON, MD 21009",http://maps.google.com/maps?q=WALGREEN%20CO%2C3005%20EMMORTON%20ROAD%2C+ABINGDON%2C+MD+21009,
WALGREEN CO.,40 FLOWING SPRINGS WAY,"CHARLES TOWN, WV 25414",http://maps.google.com/maps?q=WALGREEN%20CO%2C40%20FLOWING%20SPRINGS%20WAY%2C+CHARLES%20TOWN%2C+WV+25414,
WALGREEN CO.,4020 EASTERN AVENUE,"BALTIMORE, MD 21224",http://maps.google.com/maps?q=WALGREEN%20CO%2C4020%20EASTERN%20AVENUE%2C+BALTIMORE%2C+MD+21224,
WALGREEN CO.,5657 BALTIMORE NATIONAL PIKE,"CATONSVILLE, MD 21228",http://maps.google.com/maps?q=WALGREEN%20CO%2C5657%20BALTIMORE%20NATIONAL%20PIKE%2C+CATONSVILLE%2C+MD+21228,
WALGREEN CO.,600 WASHINGTON BLVD. S,"LAUREL, MD 20707",http://maps.google.com/maps?q=WALGREEN%20CO%2C600%20WASHINGTON%20BLVD.%20S%2C+LAUREL%2C+MD+20707,
WALGREEN CO.,6700 RITCHIE HWY,"GLEN BURNIE, MD 21061",http://maps.google.com/maps?q=WALGREEN%20CO%2C6700%20RITCHIE%20HWY%2C+GLEN%20BURNIE%2C+MD+21061,
WALGREEN CO.,9616 HARFORD ROAD,"BALTIMORE, MD 21234",http://maps.google.com/maps?q=WALGREEN%20CO%2C9616%20HARFORD%20ROAD%2C+BALTIMORE%2C+MD+21234,
"WALGREEN EASTERN CO., INC.",1702 TILGHMAN,"ALLENTOWN, PA 18104",http://maps.google.com/maps?q=WALGREEN%20EASTERN%20CO%20INC%2C1702%20TILGHMAN%2C+ALLENTOWN%2C+PA+18104,
"WALGREEN EASTERN CO., INC.",2350 E MARKET ST,"YORK, PA 17402",http://maps.google.com/maps?q=WALGREEN%20EASTERN%20CO%20INC%2C2350%20E%20MARKET%20ST%2C+YORK%2C+PA+17402,
"WALGREEN EASTERN CO., INC.",2803 W RIDGE PIKE,"NORRISTOWN, PA 19403",http://maps.google.com/maps?q=WALGREEN%20EASTERN%20CO%20INC%2C2803%20W%20RIDGE%20PIKE%2C+NORRISTOWN%2C+PA+19403,
"WALGREEN EASTERN CO., INC.",4098 EDGEMONT AVE.,"BROOKHAVEN, PA 19015",http://maps.google.com/maps?q=WALGREEN%20EASTERN%20CO%20INC%2C4098%20EDGEMONT%20AVE.%2C+BROOKHAVEN%2C+PA+19015,
"WALGREEN EASTERN CO., INC.",508 E. PLANK RD.,"ALTOONA, PA 16602",http://maps.google.com/maps?q=WALGREEN%20EASTERN%20CO%20INC%2C508%20E.%20PLANK%20RD.%2C+ALTOONA%2C+PA+16602,
WARDENSVILLE PHARMACY,333 EAST MAIN ST,P.O. BOX 97,"WARDENSVILLE, WV 26851",http://maps.google.com/maps?q=WARDENSVILLE%20PHARMACY%2C333%20EAST%20MAIN%20ST%2C+WARDENSVILLE%2C+WV+26851
WEIS PHARMACY #14,1440 ALLEGHENY ST,"JERSEY SHORE, PA 17740",http://maps.google.com/maps?q=WEIS%20PHARMACY%2C1440%20ALLEGHENY%20ST%2C+JERSEY%20SHORE%2C+PA+17740,
WEIS PHARMACY #152,1 WEIS PLAZA,"NANTICOKE, PA 18634",http://maps.google.com/maps?q=WEIS%20PHARMACY%2C1%20WEIS%20PLAZA%2C+NANTICOKE%2C+PA+18634,
WEIS PHARMACY #176,4521 WILLIAM PENN HIGHWAY,"MIFFLINTOWN, PA 17059",http://maps.google.com/maps?q=WEIS%20PHARMACY%2C4521%20WILLIAM%20PENN%20HIGHWAY%2C+MIFFLINTOWN%2C+PA+17059,
WEIS PHARMACY #177,1272 EAST PENN STREET,"MUNCY, PA 17756",http://maps.google.com/maps?q=WEIS%20PHARMACY%2C1272%20EAST%20PENN%20STREET%2C+MUNCY%2C+PA+17756,
WEIS PHARMACY #197,65 MEADOW GREEN DRIVE,"MIFFLINBURG, PA 17844",http://maps.google.com/maps?q=WEIS%20PHARMACY%2C65%20MEADOW%20GREEN%20DRIVE%2C+MIFFLINBURG%2C+PA+17844,
WEIS PHARMACY #205,2 ANTHRA PLAZA,"COAL TOWNSHIP, PA 17866",http://maps.google.com/maps?q=WEIS%20PHARMACY%2C2%20ANTHRA%20PLAZA%2C+COAL%20TOWNSHIP%2C+PA+17866,
WEIS PHARMACY #226,719 ROUTE 522,"SELINSGROVE, PA 17870",http://maps.google.com/maps?q=WEIS%20PHARMACY%2C719%20ROUTE%20522%2C+SELINSGROVE%2C+PA+17870,
WEIS PHARMACY #31,6901 WESTBRANCH HIGHWAY,"LEWISBURG, PA 17837",http://maps.google.com/maps?q=WEIS%20PHARMACY%2C6901%20WESTBRANCH%20HIGHWAY%2C+LEWISBURG%2C+PA+17837,
WEIS PHARMACY #36,1100 NORTH FOURTH STREET,"SUNBURY, PA 17801",http://maps.google.com/maps?q=WEIS%20PHARMACY%2C1100%20NORTH%20FOURTH%20STREET%2C+SUNBURY%2C+PA+17801,
WEIS PHARMACY #37,801 LOYALSOCK AVENUE,"MONTOURSVILLE, PA 17754",http://maps.google.com/maps?q=WEIS%20PHARMACY%2C801%20LOYALSOCK%20AVENUE%2C+MONTOURSVILLE%2C+PA+17754,
WEIS PHARMACY #4,339 WEST WALNUT ST,"SHAMOKIN, PA 17872",http://maps.google.com/maps?q=WEIS%20PHARMACY%2C339%20WEST%20WALNUT%20ST%2C+SHAMOKIN%2C+PA+17872,
WEIS PHARMACY #52,1916 LYCOMING CREEK RD,"WILLIAMSPORT, PA 17701",http://maps.google.com/maps?q=WEIS%20PHARMACY%2C1916%20LYCOMING%20CREEK%20RD%2C+WILLIAMSPORT%2C+PA+17701,
WEIS PHARMACY #7,553 - 555 MAHONING STREET,"MILTON, PA 17847",http://maps.google.com/maps?q=WEIS%20PHARMACY%2C553%20-%20555%20MAHONING%20STREET%2C+MILTON%2C+PA+17847,
WEIS PHARMACY #9,305 RIVER AVENUE,"WILLIAMSPORT, PA 17701",http://maps.google.com/maps?q=WEIS%20PHARMACY%2C305%20RIVER%20AVENUE%2C+WILLIAMSPORT%2C+PA+17701,
WELLSPAN PHARMACY,183 N READING RD,SUITE 9,"EPHRATA, PA 17522",http://maps.google.com/maps?q=WELLSPAN%20PHARMACY%2C183%20N%20READING%20RD%2C+EPHRATA%2C+PA+17522
WELLSPAN PHARMACY,25 MONUMENT ROAD,SUITE 265,"YORK, PA 17403",http://maps.google.com/maps?q=WELLSPAN%20PHARMACY%2C25%20MONUMENT%20ROAD%2C+YORK%2C+PA+17403
WELLSPAN PHARMACY,252 S 4TH ST,"LEBANON, PA 17042",http://maps.google.com/maps?q=WELLSPAN%20PHARMACY%2C252%20S%204TH%20ST%2C+LEBANON%2C+PA+17042,
WELLSPAN PHARMACY,4910B FAIRFIELD ROAD,"FAIRFIELD, PA 17320",http://maps.google.com/maps?q=WELLSPAN%20PHARMACY%2C4910B%20FAIRFIELD%20ROAD%2C+FAIRFIELD%2C+PA+17320,
WEST READING DRUG STORE,538 PENN AVE,"WEST READING, PA 19611",http://maps.google.com/maps?q=WEST%20READING%20DRUG%20STORE%2C538%20PENN%20AVE%2C+WEST%20READING%2C+PA+19611,
WRNMMC-WALTER REED NATIONAL MILITARY MEDICAL CENTE,PHARMACY DEPT BLDG 9,8901 WISCONSIN AVE,"BETHESDA, MD 20889",http://maps.google.com/maps?q=WRNMMCWALTER%20REED%20NATIONAL%20MILITARY%20MEDICAL%20CENTE%2CPHARMACY%20DEPT%20BLDG%209%2C+BETHESDA%2C+MD+20889
YORK HOSPITAL PHARMACY DEPT,1001 SOUTH GEORGE ST,"YORK, PA 17405",http://maps.google.com/maps?q=YORK%20HOSPITAL%20PHARMACY%20DEPT%2C1001%20SOUTH%20GEORGE%20ST%2C+YORK%2C+PA+17405,
