Business Name,Address 1,Address 2,"City, State Zip",Map URL
A & O SPECIALTY PHARMACY,536 ABBOTT ST,"SALINAS, CA 93901",http://maps.google.com/maps?q=A%20%20O%20SPECIALTY%20PHARMACY%2C536%20ABBOTT%20ST%2C+SALINAS%2C+CA+93901,
ABALA PHARMACY,550 W EATON AVE STE B,"TRACY, CA 95376",http://maps.google.com/maps?q=ABALA%20PHARMACY%2C550%20W%20EATON%20AVE%20STE%20B%2C+TRACY%2C+CA+95376,
ADVENTIST HEALTH LODI MEMORIAL,2415 W VINE ST STE 104B,"LODI, CA 95242",http://maps.google.com/maps?q=ADVENTIST%20HEALTH%20LODI%20MEMORIAL%2C2415%20W%20VINE%20ST%20STE%20104B%2C+LODI%2C+CA+95242,
AIDS HEALTHCARE FOUNDATION DBA AHF PHARMACY,4071 18TH STR.,"SAN FRANCISCO, CA 94114",http://maps.google.com/maps?q=AIDS%20HEALTHCARE%20FOUNDATION%20DBA%20AHF%20PHARMACY%2C4071%2018TH%20STR.%2C+SAN%20FRANCISCO%2C+CA+94114,
ALAMEDA HEALTH SYSTEM,2070 CLINTON AVENUE,"ALAMEDA, CA 94501",http://maps.google.com/maps?q=ALAMEDA%20HEALTH%20SYSTEM%2C2070%20CLINTON%20AVENUE%2C+ALAMEDA%2C+CA+94501,
ALLCARE PHARMACY,331 MAIN ST,"SALINAS, CA 93901",http://maps.google.com/maps?q=ALLCARE%20PHARMACY%2C331%20MAIN%20ST%2C+SALINAS%2C+CA+93901,
ALUM ROCK PHARMACY INC,1855 ALUM ROCK AVE SUITE A,"SAN JOSE, CA 95116",http://maps.google.com/maps?q=ALUM%20ROCK%20PHARMACY%20INC%2C1855%20ALUM%20ROCK%20AVE%20SUITE%20A%2C+SAN%20JOSE%2C+CA+95116,
AMC COMMUNITY PHARMACY,1381 UNIVERSITY ST SUITE A,"HEALDSBURG, CA 95448",http://maps.google.com/maps?q=AMC%20COMMUNITY%20PHARMACY%2C1381%20UNIVERSITY%20ST%20SUITE%20A%2C+HEALDSBURG%2C+CA+95448,
ANDERSON BROS FLORIN SQUARE PHCY,2374 FLORIN RD,"SACRAMENTO, CA 95822",http://maps.google.com/maps?q=ANDERSON%20BROS%20FLORIN%20SQUARE%20PHCY%2C2374%20FLORIN%20RD%2C+SACRAMENTO%2C+CA+95822,
ANGKOR PHARMACY,4555 N PERSHING AVE STE 7,"STOCKTON, CA 95207",http://maps.google.com/maps?q=ANGKOR%20PHARMACY%2C4555%20N%20PERSHING%20AVE%20STE%207%2C+STOCKTON%2C+CA+95207,
"AURORA BEHAVIORAL HEALTHCARE- SANTA ROSA, LLC",1287 FULTON RD,"SANTA ROSA, CA 95401",http://maps.google.com/maps?q=AURORA%20BEHAVIORAL%20HEALTHCARE%20SANTA%20ROSA%20LLC%2C1287%20FULTON%20RD%2C+SANTA%20ROSA%2C+CA+95401,
BARNES ARCATA FAMILY DRUG,1080 G STREET,"ARCATA, CA 95521",http://maps.google.com/maps?q=BARNES%20ARCATA%20FAMILY%20DRUG%2C1080%20G%20STREET%2C+ARCATA%2C+CA+95521,
BASCOM PHARMAACY LLC,105 N BASCOM AVE #101,SUITE #101,"SAN JOSE, CA 95128",http://maps.google.com/maps?q=BASCOM%20PHARMAACY%20LLC%2C105%20N%20BASCOM%20AVE%20#101%2C+SAN%20JOSE%2C+CA+95128
BJRX PHARMACY INC.,1801 E.MARCH LANE,SUITE:B280,"STOCKTON, CA 95210",http://maps.google.com/maps?q=BJRX%20PHARMACY%20INC%2C1801%20E.MARCH%20LANE%2C+STOCKTON%2C+CA+95210
BOULDER CREEK DRUG STORE,13081 CENTRAL AVE,PO BOX 910,"BOULDER CREEK, CA 95006",http://maps.google.com/maps?q=BOULDER%20CREEK%20DRUG%20STORE%2C13081%20CENTRAL%20AVE%2C+BOULDER%20CREEK%2C+CA+95006
CALAVERAS PHARMACY,"114 S. PARK VICTORIA DRIVE,","MILPITAS, CA 95035",http://maps.google.com/maps?q=CALAVERAS%20PHARMACY%2C114%20S.%20PARK%20VICTORIA%20DRIVE%2C%2C+MILPITAS%2C+CA+95035,
CAPSULE PHARMACY,2557 MOWRY AVE,SUITE # 11,"FREMONT, CA 94538",http://maps.google.com/maps?q=CAPSULE%20PHARMACY%2C2557%20MOWRY%20AVE%2C+FREMONT%2C+CA+94538
CARMICHAEL VILLAGE PHARMACY,6633 COYLE AVE,STE 1,"CARMICHAEL, CA 95608",http://maps.google.com/maps?q=CARMICHAEL%20VILLAGE%20PHARMACY%2C6633%20COYLE%20AVE%2C+CARMICHAEL%2C+CA+95608
CENTRAL AVENUE PHARMACY,MAIN FLOOR SE CORNER,133 15TH STREET,"PACIFIC GROVE, CA 93950",http://maps.google.com/maps?q=CENTRAL%20AVENUE%20PHARMACY%2CMAIN%20FLOOR%20SE%20CORNER%2C+PACIFIC%20GROVE%2C+CA+93950
CENTRAL DRUG COMPANY,4494 MISSION STREET,"SAN FRANCISCO, CA 94112",http://maps.google.com/maps?q=CENTRAL%20DRUG%20COMPANY%2C4494%20MISSION%20STREET%2C+SAN%20FRANCISCO%2C+CA+94112,
CHARLIES DRUGS,1101 FILLMORE STREET,"SAN FRANCISCO, CA 94115",http://maps.google.com/maps?q=CHARLIES%20DRUGS%2C1101%20FILLMORE%20STREET%2C+SAN%20FRANCISCO%2C+CA+94115,
CHINESE HOSPITAL ASSN INC,845 JACKSON STREET,"SAN FRANCISCO, CA 94133",http://maps.google.com/maps?q=CHINESE%20HOSPITAL%20ASSN%20INC%2C845%20JACKSON%20STREET%2C+SAN%20FRANCISCO%2C+CA+94133,
CHINESE HOSPITAL PHARMACY,386 GELLERT BLVD,SUITE A,"DALY CITY, CA 94015",http://maps.google.com/maps?q=CHINESE%20HOSPITAL%20PHARMACY%2C386%20GELLERT%20BLVD%2C+DALY%20CITY%2C+CA+94015
CHINESE HOSPITAL PHARMACY,845 JACKSON ST ROOM 1102,"SAN FRANCISCO, CA 94133",http://maps.google.com/maps?q=CHINESE%20HOSPITAL%20PHARMACY%2C845%20JACKSON%20ST%20ROOM%201102%2C+SAN%20FRANCISCO%2C+CA+94133,
CLAY MED PHARMACY & MEDICAL,"929 CLAY STREET, 103","SAN FRANCISCO, CA 94108",http://maps.google.com/maps?q=CLAY%20MED%20PHARMACY%20%20MEDICAL%2C929%20CLAY%20STREET%2C%20103%2C+SAN%20FRANCISCO%2C+CA+94108,
CLONEYS PHARMACY INC,1567 CITY CENTER ROAD #35,"MCKINLEYVILLE, CA 95519",http://maps.google.com/maps?q=CLONEYS%20PHARMACY%20INC%2C1567%20CITY%20CENTER%20ROAD%20#35%2C+MCKINLEYVILLE%2C+CA+95519,
CLONEYS PHARMACY INC,2515 HARRISON AVENUE,"EUREKA, CA 95501",http://maps.google.com/maps?q=CLONEYS%20PHARMACY%20INC%2C2515%20HARRISON%20AVENUE%2C+EUREKA%2C+CA+95501,
CLONEYS PHARMACY INC,525 5TH STREET,"EUREKA, CA 95501",http://maps.google.com/maps?q=CLONEYS%20PHARMACY%20INC%2C525%205TH%20STREET%2C+EUREKA%2C+CA+95501,
CLOVERDALE PHARMACY,790 SOUTH CLOVERDALE BOULEVARD,"CLOVERDALE, CA 95425",http://maps.google.com/maps?q=CLOVERDALE%20PHARMACY%2C790%20SOUTH%20CLOVERDALE%20BOULEVARD%2C+CLOVERDALE%2C+CA+95425,
COMMUNITY HOSPITAL,23625 HOLMAN HWY,PO BOX HH,"MONTEREY, CA 93940",http://maps.google.com/maps?q=COMMUNITY%20HOSPITAL%2C23625%20HOLMAN%20HWY%2C+MONTEREY%2C+CA+93940
CORNER DRUG COMPANY,602 MAIN ST,"WOODLAND, CA 95695",http://maps.google.com/maps?q=CORNER%20DRUG%20COMPANY%2C602%20MAIN%20ST%2C+WOODLAND%2C+CA+95695,
CURE PHARMACY INC DBA JACKSON MEDICAL PHARMACY,266 N JACKSON AVE,#8,"SAN JOSE, CA 95116",http://maps.google.com/maps?q=CURE%20PHARMACY%20INC%20DBA%20JACKSON%20MEDICAL%20PHARMACY%2C266%20N%20JACKSON%20AVE%2C+SAN%20JOSE%2C+CA+95116
CZ SERVICES,860 HARBOUR WAY S,SUITE E,"RICHMOND, CA 94804",http://maps.google.com/maps?q=CZ%20SERVICES%2C860%20HARBOUR%20WAY%20S%2C+RICHMOND%2C+CA+94804
DAVIS COMPOUNDING SOLUTIONS,1205 DRAKE DRIVE,SUITE E,"DAVIS, CA 95616",http://maps.google.com/maps?q=DAVIS%20COMPOUNDING%20SOLUTIONS%2C1205%20DRAKE%20DRIVE%2C+DAVIS%2C+CA+95616
DEPT OF VETERANS AFFAIRS,"CARE SYSTEM, PHARMACY SERVICE","(119), 10535 HOSPITAL WAY","MATHER, CA 95655",http://maps.google.com/maps?q=DEPT%20OF%20VETERANS%20AFFAIRS%2CCARE%20SYSTEM%2C%20PHARMACY%20SERVICE%2C+MATHER%2C+CA+95655
DEPT OF VETERANS AFFAIRS,PHARMACY SERVICE (119),BLDG 778 103 BODIN CIRCLE,"TRAVIS AFB, CA 94535",http://maps.google.com/maps?q=DEPT%20OF%20VETERANS%20AFFAIRS%2CPHARMACY%20SERVICE%20(119)%2C+TRAVIS%20AFB%2C+CA+94535
EDEN MEDICAL CENTER,20103 LAKE CHABOT RD,"CASTRO VALLEY, CA 94546",http://maps.google.com/maps?q=EDEN%20MEDICAL%20CENTER%2C20103%20LAKE%20CHABOT%20RD%2C+CASTRO%20VALLEY%2C+CA+94546,
EL DORADO DRUG STORE,BENNETT DOUGLAS EARL,2005 MARIPOSA ROAD,"STOCKTON, CA 95205",http://maps.google.com/maps?q=EL%20DORADO%20DRUG%20STORE%2CBENNETT%20DOUGLAS%20EARL%2C+STOCKTON%2C+CA+95205
"ELEVATION FAMILY PHARMACY, INC",1050 IRON POINT ROAD,"FOLSOM, CA 95630",http://maps.google.com/maps?q=ELEVATION%20FAMILY%20PHARMACY%20INC%2C1050%20IRON%20POINT%20ROAD%2C+FOLSOM%2C+CA+95630,
EVERGREEN PHARMACY,2365 QUIMBY RD STE 150,"SAN JOSE, CA 95122",http://maps.google.com/maps?q=EVERGREEN%20PHARMACY%2C2365%20QUIMBY%20RD%20STE%20150%2C+SAN%20JOSE%2C+CA+95122,
EVERGREEN PHARMACY,"2690 SOUTH WHITE RD, SUITE 200-A","SAN JOSE, CA 95148",http://maps.google.com/maps?q=EVERGREEN%20PHARMACY%2C2690%20SOUTH%20WHITE%20RD%2C%20SUITE%20200-A%2C+SAN%20JOSE%2C+CA+95148,
FAMILY DRUG,1805 OLD SONOMA RD,"NAPA, CA 94559",http://maps.google.com/maps?q=FAMILY%20DRUG%2C1805%20OLD%20SONOMA%20RD%2C+NAPA%2C+CA+94559,
FARMACIA SAN JOSE LLC,25 NORTH 14TH ST STE 110,"SAN JOSE, CA 95112",http://maps.google.com/maps?q=FARMACIA%20SAN%20JOSE%20LLC%2C25%20NORTH%2014TH%20ST%20STE%20110%2C+SAN%20JOSE%2C+CA+95112,
FORTY NINE DRUG CO,937 N YOSEMITE STREET,"STOCKTON, CA 95203",http://maps.google.com/maps?q=FORTY%20NINE%20DRUG%20CO%2C937%20N%20YOSEMITE%20STREET%2C+STOCKTON%2C+CA+95203,
FRANKS PHARMACY,7548 SOQUEL DR,"APTOS, CA 95003",http://maps.google.com/maps?q=FRANKS%20PHARMACY%2C7548%20SOQUEL%20DR%2C+APTOS%2C+CA+95003,
FRIENDLY PHARMACY INC,485 LEWIS RD,SUITE D,"SAN JOSE, CA 95111",http://maps.google.com/maps?q=FRIENDLY%20PHARMACY%20INC%2C485%20LEWIS%20RD%2C+SAN%20JOSE%2C+CA+95111
"GARFIELD BEACH CVS, L.L.C.",1059 HYDE ST.,"SAN FRANCISCO, CA 94109",http://maps.google.com/maps?q=GARFIELD%20BEACH%20CVS%20LLC%2C1059%20HYDE%20ST.%2C+SAN%20FRANCISCO%2C+CA+94109,
"GARFIELD BEACH CVS, L.L.C.",1101 MARKET STREET,"SAN FRANCISCO, CA 94103",http://maps.google.com/maps?q=GARFIELD%20BEACH%20CVS%20LLC%2C1101%20MARKET%20STREET%2C+SAN%20FRANCISCO%2C+CA+94103,
"GARFIELD BEACH CVS, L.L.C.",1285 SUTTER ST,"SAN FRANCISCO, CA 94109",http://maps.google.com/maps?q=GARFIELD%20BEACH%20CVS%20LLC%2C1285%20SUTTER%20ST%2C+SAN%20FRANCISCO%2C+CA+94109,
"GARFIELD BEACH CVS, L.L.C.",135 PIERCE STREET,"DALY CITY, CA 94015",http://maps.google.com/maps?q=GARFIELD%20BEACH%20CVS%20LLC%2C135%20PIERCE%20STREET%2C+DALY%20CITY%2C+CA+94015,
"GARFIELD BEACH CVS, L.L.C.",1599 TIBURON BLVD,"TIBURON, CA 94920",http://maps.google.com/maps?q=GARFIELD%20BEACH%20CVS%20LLC%2C1599%20TIBURON%20BLVD%2C+TIBURON%2C+CA+94920,
"GARFIELD BEACH CVS, L.L.C.",1900 19TH AVENUE,"SAN FRANCISCO, CA 94116",http://maps.google.com/maps?q=GARFIELD%20BEACH%20CVS%20LLC%2C1900%2019TH%20AVENUE%2C+SAN%20FRANCISCO%2C+CA+94116,
"GARFIELD BEACH CVS, L.L.C.",26059 MISSION BLVD,"HAYWARD, CA 94544",http://maps.google.com/maps?q=GARFIELD%20BEACH%20CVS%20LLC%2C26059%20MISSION%20BLVD%2C+HAYWARD%2C+CA+94544,
"GARFIELD BEACH CVS, L.L.C.",2655 TELEGRAPH AVE.,"BERKELEY, CA 94704",http://maps.google.com/maps?q=GARFIELD%20BEACH%20CVS%20LLC%2C2655%20TELEGRAPH%20AVE.%2C+BERKELEY%2C+CA+94704,
"GARFIELD BEACH CVS, L.L.C.",2964 BROADWAY,"OAKLAND, CA 94611",http://maps.google.com/maps?q=GARFIELD%20BEACH%20CVS%20LLC%2C2964%20BROADWAY%2C+OAKLAND%2C+CA+94611,
"GARFIELD BEACH CVS, L.L.C.",3010 BERNAL AVENUE,"PLEASANTON, CA 94566",http://maps.google.com/maps?q=GARFIELD%20BEACH%20CVS%20LLC%2C3010%20BERNAL%20AVENUE%2C+PLEASANTON%2C+CA+94566,
"GARFIELD BEACH CVS, L.L.C.",351 CALIFORNIA STREET,"SAN FRANCISCO, CA 94104",http://maps.google.com/maps?q=GARFIELD%20BEACH%20CVS%20LLC%2C351%20CALIFORNIA%20STREET%2C+SAN%20FRANCISCO%2C+CA+94104,
"GARFIELD BEACH CVS, L.L.C.",3600 GEARY BLVD,"SAN FRANCISCO, CA 94118",http://maps.google.com/maps?q=GARFIELD%20BEACH%20CVS%20LLC%2C3600%20GEARY%20BLVD%2C+SAN%20FRANCISCO%2C+CA+94118,
"GARFIELD BEACH CVS, L.L.C.",377 32ND AVENUE,"SAN FRANCISCO, CA 94121",http://maps.google.com/maps?q=GARFIELD%20BEACH%20CVS%20LLC%2C377%2032ND%20AVENUE%2C+SAN%20FRANCISCO%2C+CA+94121,
"GARFIELD BEACH CVS, L.L.C.",400 SUTTER ST.,"SAN FRANCISCO, CA 94108",http://maps.google.com/maps?q=GARFIELD%20BEACH%20CVS%20LLC%2C400%20SUTTER%20ST.%2C+SAN%20FRANCISCO%2C+CA+94108,
"GARFIELD BEACH CVS, L.L.C.",4110 NORTH FIRST ST.,"SAN JOSE, CA 95134",http://maps.google.com/maps?q=GARFIELD%20BEACH%20CVS%20LLC%2C4110%20NORTH%20FIRST%20ST.%2C+SAN%20JOSE%2C+CA+95134,
"GARFIELD BEACH CVS, L.L.C.",4987 N. FRESNO ST.,"FRESNO, CA 93726",http://maps.google.com/maps?q=GARFIELD%20BEACH%20CVS%20LLC%2C4987%20N.%20FRESNO%20ST.%2C+FRESNO%2C+CA+93726,
"GARFIELD BEACH CVS, L.L.C.",499 HAIGHT STREET,"SAN FRANCISCO, CA 94117",http://maps.google.com/maps?q=GARFIELD%20BEACH%20CVS%20LLC%2C499%20HAIGHT%20STREET%2C+SAN%20FRANCISCO%2C+CA+94117,
"GARFIELD BEACH CVS, L.L.C.",581 MARKET ST,"SAN FRANCISCO, CA 94105",http://maps.google.com/maps?q=GARFIELD%20BEACH%20CVS%20LLC%2C581%20MARKET%20ST%2C+SAN%20FRANCISCO%2C+CA+94105,
"GARFIELD BEACH CVS, L.L.C.",601 MISSION STREET,"SAN FRANCISCO, CA 94105",http://maps.google.com/maps?q=GARFIELD%20BEACH%20CVS%20LLC%2C601%20MISSION%20STREET%2C+SAN%20FRANCISCO%2C+CA+94105,
"GARFIELD BEACH CVS, L.L.C.",6750 BERNAL AVE.,"PLEASANTON, CA 94566",http://maps.google.com/maps?q=GARFIELD%20BEACH%20CVS%20LLC%2C6750%20BERNAL%20AVE.%2C+PLEASANTON%2C+CA+94566,
"GARFIELD BEACH CVS, L.L.C.",700 EL CAMINO REAL,"MENLO PARK, CA 94025",http://maps.google.com/maps?q=GARFIELD%20BEACH%20CVS%20LLC%2C700%20EL%20CAMINO%20REAL%2C+MENLO%20PARK%2C+CA+94025,
"GARFIELD BEACH CVS, L.L.C.",701 PORTOLA DR,"SAN FRANCISCO, CA 94127",http://maps.google.com/maps?q=GARFIELD%20BEACH%20CVS%20LLC%2C701%20PORTOLA%20DR%2C+SAN%20FRANCISCO%2C+CA+94127,
"GARFIELD BEACH CVS, L.L.C.",7200 BANCROFT AVE.,"OAKLAND, CA 94605",http://maps.google.com/maps?q=GARFIELD%20BEACH%20CVS%20LLC%2C7200%20BANCROFT%20AVE.%2C+OAKLAND%2C+CA+94605,
"GARFIELD BEACH CVS, L.L.C.",731 MARKET ST.,"SAN FRANCISCO, CA 94103",http://maps.google.com/maps?q=GARFIELD%20BEACH%20CVS%20LLC%2C731%20MARKET%20ST.%2C+SAN%20FRANCISCO%2C+CA+94103,
"GARFIELD BEACH CVS, L.L.C.",799 BEACH STREET,"SAN FRANCISCO, CA 94109",http://maps.google.com/maps?q=GARFIELD%20BEACH%20CVS%20LLC%2C799%20BEACH%20STREET%2C+SAN%20FRANCISCO%2C+CA+94109,
"GARFIELD BEACH CVS, L.L.C.",909 GRAND ST.,"SAN RAFAEL, CA 94901",http://maps.google.com/maps?q=GARFIELD%20BEACH%20CVS%20LLC%2C909%20GRAND%20ST.%2C+SAN%20RAFAEL%2C+CA+94901,
"GARFIELD BEACH CVS, L.L.C.",995 MARKET STREET,"SAN FRANCISCO, CA 94103",http://maps.google.com/maps?q=GARFIELD%20BEACH%20CVS%20LLC%2C995%20MARKET%20STREET%2C+SAN%20FRANCISCO%2C+CA+94103,
GATEWAY PHARMACY,1330 GATEWAY BLVD,SUIT B-2,"FAIRFIELD, CA 94533",http://maps.google.com/maps?q=GATEWAY%20PHARMACY%2C1330%20GATEWAY%20BLVD%2C+FAIRFIELD%2C+CA+94533
GKN RX INC,"1471 B STREET, SUITE:R","LIVINGSTON, CA 95334",http://maps.google.com/maps?q=GKN%20RX%20INC%2C1471%20B%20STREET%2C%20SUITE%3AR%2C+LIVINGSTON%2C+CA+95334,
GREEN'S FORTUNA PHARMACY,1058 MAIN ST,"FORTUNA, CA 95540",http://maps.google.com/maps?q=GREENS%20FORTUNA%20PHARMACY%2C1058%20MAIN%20ST%2C+FORTUNA%2C+CA+95540,
HALF MOON BAY PHARMACY,40 STONE PINE ROAD,SUITE I,"HALF MOON BAY, CA 94019",http://maps.google.com/maps?q=HALF%20MOON%20BAY%20PHARMACY%2C40%20STONE%20PINE%20ROAD%2C+HALF%20MOON%20BAY%2C+CA+94019
HALLER'S PHARMACY & MEDICAL SUPPLY,37323 FREMONT BLVD.,"FREMONT, CA 94536",http://maps.google.com/maps?q=HALLERS%20PHARMACY%20%20MEDICAL%20SUPPLY%2C37323%20FREMONT%20BLVD.%2C+FREMONT%2C+CA+94536,
HAROLD K REICH'S PHARMACY,39 W. TENTH STREET,"TRACY, CA 95376",http://maps.google.com/maps?q=HAROLD%20K%20REICHS%20PHARMACY%2C39%20W.%20TENTH%20STREET%2C+TRACY%2C+CA+95376,
HEALTH FIRST PHARMACY,9083 WINDSOR ROAD,"WINDSOR, CA 95492",http://maps.google.com/maps?q=HEALTH%20FIRST%20PHARMACY%2C9083%20WINDSOR%20ROAD%2C+WINDSOR%2C+CA+95492,
HIGHLAND GENERAL HOSPITAL,OUTPATIENT PHARMACY,1411 EAST 31ST STREET,"OAKLAND, CA 94602",http://maps.google.com/maps?q=HIGHLAND%20GENERAL%20HOSPITAL%2COUTPATIENT%20PHARMACY%2C+OAKLAND%2C+CA+94602
HORSNYDER PHARMACY,1226 SOQUEL AVE,"SANTA CRUZ, CA 95062",http://maps.google.com/maps?q=HORSNYDER%20PHARMACY%2C1226%20SOQUEL%20AVE%2C+SANTA%20CRUZ%2C+CA+95062,
HRH PHARMACY INC.,1900 MCHENRY AVE. #202,"ESCALON, CA 95320",http://maps.google.com/maps?q=HRH%20PHARMACY%20INC%2C1900%20MCHENRY%20AVE.%20#202%2C+ESCALON%2C+CA+95320,
ICARE PHARMACY,1727-B BERRYESSA RD,"SAN JOSE, CA 95133",http://maps.google.com/maps?q=ICARE%20PHARMACY%2C1727-B%20BERRYESSA%20RD%2C+SAN%20JOSE%2C+CA+95133,
IONE PHARMACY,307 PRESTON AVE,P.O.BOX 1025,"IONE, CA 95640",http://maps.google.com/maps?q=IONE%20PHARMACY%2C307%20PRESTON%20AVE%2C+IONE%2C+CA+95640
JADE PHARMACY,34460 FREMONT BLVD SUITE B,"FREMONT, CA 94555",http://maps.google.com/maps?q=JADE%20PHARMACY%2C34460%20FREMONT%20BLVD%20SUITE%20B%2C+FREMONT%2C+CA+94555,
JEFFERSON PHARMACY,1029 JEFFERSON BOULEVARD,SUITE A,"WEST SACRAMENTO, CA 95691",http://maps.google.com/maps?q=JEFFERSON%20PHARMACY%2C1029%20JEFFERSON%20BOULEVARD%2C+WEST%20SACRAMENTO%2C+CA+95691
JEROLD PHELPS COMMUNITY HOSP,733 CEDAR STREET,"GARBERVILLE, CA 95542",http://maps.google.com/maps?q=JEROLD%20PHELPS%20COMMUNITY%20HOSP%2C733%20CEDAR%20STREET%2C+GARBERVILLE%2C+CA+95542,
KAISER CAMPBELL PHARMACY,220 HACIENDA AVENUE,"CAMPBELL, CA 95008",http://maps.google.com/maps?q=KAISER%20CAMPBELL%20PHARMACY%2C220%20HACIENDA%20AVENUE%2C+CAMPBELL%2C+CA+95008,
KAISER FONDATION HEALTH PLAN,KFHP POINT WEST PHARMACY #626,1650 RESPONSE ROAD,"SACRAMENTO, CA 95815",http://maps.google.com/maps?q=KAISER%20FONDATION%20HEALTH%20PLAN%2CKFHP%20POINT%20WEST%20PHARMACY%20#626%2C+SACRAMENTO%2C+CA+95815
KAISER FOUND HEALTH PLAN,1 NORTH PHARMACY#631,260 INTERNATIONAL CIRCLE,"SAN JOSE, CA 95119",http://maps.google.com/maps?q=KAISER%20FOUND%20HEALTH%20PLAN%2C1%20NORTH%20PHARMACY#631%2C+SAN%20JOSE%2C+CA+95119
KAISER FOUND HEALTH PLAN INC,KFHP MOB 1 PHARMACY #684,7373 WEST LANE,"STOCKTON, CA 95210",http://maps.google.com/maps?q=KAISER%20FOUND%20HEALTH%20PLAN%20INC%2CKFHP%20MOB%201%20PHARMACY%20#684%2C+STOCKTON%2C+CA+95210
KAISER FOUND HLTH PLAN,3400 DELTA FAIR BLVD,KFHP MAIN PHARMACY #551,"ANTIOCH, CA 94509",http://maps.google.com/maps?q=KAISER%20FOUND%20HLTH%20PLAN%2C3400%20DELTA%20FAIR%20BLVD%2C+ANTIOCH%2C+CA+94509
KAISER FOUND HLTH PLAN,KFHP BAYHILL PHARMACY #353,801 TRAEGER AVE,"SAN BRUNO, CA 94066",http://maps.google.com/maps?q=KAISER%20FOUND%20HLTH%20PLAN%2CKFHP%20BAYHILL%20PHARMACY%20#353%2C+SAN%20BRUNO%2C+CA+94066
KAISER FOUND HLTH PLAN,KFHP BIRCH PHARMACY #372,910 MARSHALL STREET,"REDWOOD CITY, CA 94063",http://maps.google.com/maps?q=KAISER%20FOUND%20HLTH%20PLAN%2CKFHP%20BIRCH%20PHARMACY%20#372%2C+REDWOOD%20CITY%2C+CA+94063
KAISER FOUNDA HLTH PLAN,KFHP FABIOLA 1 PHARMACY #115,3801 HOWE STREET,"OAKLAND, CA 94611",http://maps.google.com/maps?q=KAISER%20FOUNDA%20HLTH%20PLAN%2CKFHP%20FABIOLA%201%20PHARMACY%20#115%2C+OAKLAND%2C+CA+94611
KAISER FOUNDAT HLTH PLAN,3505 BROADWAY,"OAKLAND, CA 94611",http://maps.google.com/maps?q=KAISER%20FOUNDAT%20HLTH%20PLAN%2C3505%20BROADWAY%2C+OAKLAND%2C+CA+94611,
KAISER FOUNDATION HEALTH,PLAN PHARMACY,2238 GEARY BLVD. 1ST FLOOR,"SAN FRANCISCO, CA 94115",http://maps.google.com/maps?q=KAISER%20FOUNDATION%20HEALTH%2CPLAN%20PHARMACY%2C+SAN%20FRANCISCO%2C+CA+94115
KAISER FOUNDATION HEALTH PLAN,7520 ARROYO CIR,KFHP MAIN PHARMACY #752,"GILROY, CA 95020",http://maps.google.com/maps?q=KAISER%20FOUNDATION%20HEALTH%20PLAN%2C7520%20ARROYO%20CIR%2C+GILROY%2C+CA+95020
KAISER FOUNDATION HEALTH PLAN,KFHP A&B PHARMACY #711,10725 INTERNATIONAL DRIVE,"RANCHO CORDOVA, CA 95670",http://maps.google.com/maps?q=KAISER%20FOUNDATION%20HEALTH%20PLAN%2CKFHP%20A&B%20PHARMACY%20#711%2C+RANCHO%20CORDOVA%2C+CA+95670
KAISER FOUNDATION HEALTH PLAN,KFHP B PHARMACY #722,7300 N FRESNO ST FLR 1 CYPRESS,"FRESNO, CA 93720",http://maps.google.com/maps?q=KAISER%20FOUNDATION%20HEALTH%20PLAN%2CKFHP%20B%20PHARMACY%20#722%2C+FRESNO%2C+CA+93720
KAISER FOUNDATION HEALTH PLAN,KFHP CYPRESS MOB PHARMACY #371,1150 VETERANS BOULEVARD,"REDWOOD CITY, CA 94063",http://maps.google.com/maps?q=KAISER%20FOUNDATION%20HEALTH%20PLAN%2CKFHP%20CYPRESS%20MOB%20PHARMACY%20#371%2C+REDWOOD%20CITY%2C+CA+94063
KAISER FOUNDATION HEALTH PLAN,KFHP FRENCH O/P PHARMACY #322,4141 GEARY BLVD FIRST FLOOR,"SAN FRANCISCO, CA 94118",http://maps.google.com/maps?q=KAISER%20FOUNDATION%20HEALTH%20PLAN%2CKFHP%20FRENCH%20O/P%20PHARMACY%20#322%2C+SAN%20FRANCISCO%2C+CA+94118
KAISER FOUNDATION HEALTH PLAN,KFHP MAIN PHARMACY #381,770 CALAVERAS BOULEVARD,"MILPITAS, CA 95035",http://maps.google.com/maps?q=KAISER%20FOUNDATION%20HEALTH%20PLAN%2CKFHP%20MAIN%20PHARMACY%20#381%2C+MILPITAS%2C+CA+95035
KAISER FOUNDATION HEALTH PLAN,KFHP MAIN PHARMACY #591,1001 RIVERSIDE AVENUE,"ROSEVILLE, CA 95678",http://maps.google.com/maps?q=KAISER%20FOUNDATION%20HEALTH%20PLAN%2CKFHP%20MAIN%20PHARMACY%20#591%2C+ROSEVILLE%2C+CA+95678
KAISER FOUNDATION HEALTH PLAN,KFHP MANTECA PHARMACY #491,1721 WEST YOSEMITE,"MANTECA, CA 95337",http://maps.google.com/maps?q=KAISER%20FOUNDATION%20HEALTH%20PLAN%2CKFHP%20MANTECA%20PHARMACY%20#491%2C+MANTECA%2C+CA+95337
KAISER FOUNDATION HEALTH PLAN,KFHP MOB 1 PHARMACY #511,1425 SOUTH MAIN ST,"WALNUT CREEK, CA 94596",http://maps.google.com/maps?q=KAISER%20FOUNDATION%20HEALTH%20PLAN%2CKFHP%20MOB%201%20PHARMACY%20#511%2C+WALNUT%20CREEK%2C+CA+94596
KAISER FOUNDATION HEALTH PLAN,KFHP MOB PHARMACY #541,400 MUIR ROAD,"MARTINEZ, CA 94553",http://maps.google.com/maps?q=KAISER%20FOUNDATION%20HEALTH%20PLAN%2CKFHP%20MOB%20PHARMACY%20#541%2C+MARTINEZ%2C+CA+94553
KAISER FOUNDATION HEALTH PLAN,KFHP PARK SHADELANDS PHMCY 501,320 LENNON LANE,"WALNUT CREEK, CA 94598",http://maps.google.com/maps?q=KAISER%20FOUNDATION%20HEALTH%20PLAN%2CKFHP%20PARK%20SHADELANDS%20PHMCY%20501%2C+WALNUT%20CREEK%2C+CA+94598
KAISER FOUNDATION HEALTH PLAN,KFHP PHARAMACY #421,555 CASTRO STREET,"MOUNTAIN VIEW, CA 94041",http://maps.google.com/maps?q=KAISER%20FOUNDATION%20HEALTH%20PLAN%2CKFHP%20PHARAMACY%20#421%2C+MOUNTAIN%20VIEW%2C+CA+94041
KAISER FOUNDATION HEALTH PLAN,KFHP SOUTH 1 PHARMACY #471,7601 STONERIDGE DRIVE,"PLEASANTON, CA 94588",http://maps.google.com/maps?q=KAISER%20FOUNDATION%20HEALTH%20PLAN%2CKFHP%20SOUTH%201%20PHARMACY%20#471%2C+PLEASANTON%2C+CA+94588
KAISER FOUNDATION HEALTH PLAN,KFHP SOUTH PHARMACY #383,611 SOUTH MILPITAS BLVD,"MILPITAS, CA 95035",http://maps.google.com/maps?q=KAISER%20FOUNDATION%20HEALTH%20PLAN%2CKFHP%20SOUTH%20PHARMACY%20#383%2C+MILPITAS%2C+CA+95035
KAISER FOUNDATION HEALTH PLAN,MAIN PHARMACY #221,3285 CLAREMONT WAY,"NAPA, CA 94558",http://maps.google.com/maps?q=KAISER%20FOUNDATION%20HEALTH%20PLAN%2CMAIN%20PHARMACY%20#221%2C+NAPA%2C+CA+94558
KAISER FOUNDATION HEALTH PLAN,PLAN PHARMACY #361,97 SAN MARIN DRIVE,"NOVATO, CA 94945",http://maps.google.com/maps?q=KAISER%20FOUNDATION%20HEALTH%20PLAN%2CPLAN%20PHARMACY%20#361%2C+NOVATO%2C+CA+94945
"KAISER FOUNDATION HEALTH PLAN, INC",OHLONE PHARMACY #162,39400 PASEO PADRE PARKWAY,"FREMONT, CA 94538",http://maps.google.com/maps?q=KAISER%20FOUNDATION%20HEALTH%20PLAN%20INC%2COHLONE%20PHARMACY%20#162%2C+FREMONT%2C+CA+94538
KAISER FOUNDATION HLTH PLAN,KFHP PHARMACY #621,1955 COWELL BLVD,"DAVIS, CA 95618",http://maps.google.com/maps?q=KAISER%20FOUNDATION%20HLTH%20PLAN%2CKFHP%20PHARMACY%20#621%2C+DAVIS%2C+CA+95618
KAISER FOUNDATION HLTH PLN,KFHP MOB 1 PHARMACY,"1 QUALITY DR, MOB A 1ST FL","VACAVILLE, CA 95688",http://maps.google.com/maps?q=KAISER%20FOUNDATION%20HLTH%20PLN%2CKFHP%20MOB%201%20PHARMACY%2C+VACAVILLE%2C+CA+95688
KAISER FOUNDATION HOSP,99 MONTECILLO RD,"SAN RAFAEL, CA 94903",http://maps.google.com/maps?q=KAISER%20FOUNDATION%20HOSP%2C99%20MONTECILLO%20RD%2C+SAN%20RAFAEL%2C+CA+94903,
KAISER FOUNDATION HOSP INCS,KFH O/P HOSPITAL PHARMACY #123,"901 NEVIN AVE, MOB ADDITION","RICHMOND, CA 94801",http://maps.google.com/maps?q=KAISER%20FOUNDATION%20HOSP%20INCS%2CKFH%20O/P%20HOSPITAL%20PHARMACY%20#123%2C+RICHMOND%2C+CA+94801
KAISER PERMAENENTE PHRMCY #102,3701 BROADWAY,FLOOR 1,"OAKLAND, CA 94611",http://maps.google.com/maps?q=KAISER%20PERMAENENTE%20PHRMCY%2C3701%20BROADWAY%2C+OAKLAND%2C+CA+94611
KAISER PERMANENTE,KFHP SAC-FAIR OAKS PHARM,2345 FAIR OAKS BLVD,"SACRAMENTO, CA 95825",http://maps.google.com/maps?q=KAISER%20PERMANENTE%2CKFHP%20SAC-FAIR%20OAKS%20PHARM%2C+SACRAMENTO%2C+CA+95825
KAISER PERMANENTE PHARM #521,KFHP ROHNERT PARK MOB PHARMACY,5900 STATE FARM DRIVE,"ROHNERT PARK, CA 94928",http://maps.google.com/maps?q=KAISER%20PERMANENTE%20PHARM%2CKFHP%20ROHNERT%20PARK%20MOB%20PHARMACY%2C+ROHNERT%20PARK%2C+CA+94928
KAISER PERMANENTE PHARM 357,901 EL CAMINO REAL,"SAN BRUNO, CA 94066",http://maps.google.com/maps?q=KAISER%20PERMANENTE%20PHARM%2C901%20EL%20CAMINO%20REAL%2C+SAN%20BRUNO%2C+CA+94066,
KAISER PERMANENTE PHARMACY,4601 DALE ROAD,1ST FLOOR,"MODESTO, CA 95356",http://maps.google.com/maps?q=KAISER%20PERMANENTE%20PHARMACY%2C4601%20DALE%20ROAD%2C+MODESTO%2C+CA+95356
KAISER PERMANENTE PHARMACY #101,KFHP ALAMEDA MOB PHARMACY,2417 CENTRAL AVENUE,"ALAMEDA, CA 94501",http://maps.google.com/maps?q=KAISER%20PERMANENTE%20PHARMACY%2CKFHP%20ALAMEDA%20MOB%20PHARMACY%2C+ALAMEDA%2C+CA+94501
KAISER PERMANENTE PHARMACY #105,"3600 BROADWAY, FL 1","OAKLAND, CA 94611",http://maps.google.com/maps?q=KAISER%20PERMANENTE%20PHARMACY%2C3600%20BROADWAY%2C%20FL%201%2C+OAKLAND%2C+CA+94611,
KAISER PERMANENTE PHARMACY #215,"975 SERENO DR, HOSP BLDG",24 HOUR PHARMACY,"VALLEJO, CA 94589",http://maps.google.com/maps?q=KAISER%20PERMANENTE%20PHARMACY%2C975%20SERENO%20DR%2C%20HOSP%20BLDG%2C+VALLEJO%2C+CA+94589
KAISER PERMANENTE PHARMACY #261,LINCOLN OUTPATIENT PHARMACY,1900 DRESDEN DRIVE,"LINCOLN, CA 95648",http://maps.google.com/maps?q=KAISER%20PERMANENTE%20PHARMACY%2CLINCOLN%20OUTPATIENT%20PHARMACY%2C+LINCOLN%2C+CA+95648
KAISER PERMANENTE PHARMACY #303,10305 PROMENADE PKWY FL 1,"ELK GROVE, CA 95757",http://maps.google.com/maps?q=KAISER%20PERMANENTE%20PHARMACY%2C10305%20PROMENADE%20PKWY%20FL%201%2C+ELK%20GROVE%2C+CA+95757,
KAISER PERMANENTE PHARMACY #339,1000 FRANKLIN PKWY W  FLOOR 1,"SAN MATEO, CA 94403",http://maps.google.com/maps?q=KAISER%20PERMANENTE%20PHARMACY%2C1000%20FRANKLIN%20PKWY%20W%20%20FLOOR%201%2C+SAN%20MATEO%2C+CA+94403,
KAISER PERMANENTE PHARMACY #351,1200 EL CAMINO REAL,"SOUTH SAN FRANCISCO, CA 94080",http://maps.google.com/maps?q=KAISER%20PERMANENTE%20PHARMACY%2C1200%20EL%20CAMINO%20REAL%2C+SOUTH%20SAN%20FRANCISCO%2C+CA+94080,
KAISER PERMANENTE PHARMACY #442,710 LAWRENCE EXPRESSWAY,1ST FLOOR,"SANTA CLARA, CA 95051",http://maps.google.com/maps?q=KAISER%20PERMANENTE%20PHARMACY%2C710%20LAWRENCE%20EXPRESSWAY%2C+SANTA%20CLARA%2C+CA+95051
KAISER PERMANENTE PHARMACY #572,"4501 SAND CREEK RD, 1ST FLR, RM 1125",SAND CREEK MOB PHARMACY,"ANTIOCH, CA 94531",http://maps.google.com/maps?q=KAISER%20PERMANENTE%20PHARMACY%2C4501%20SAND%20CREEK%20RD%2C%201ST%20FLR%2C%20RM%201125%2C+ANTIOCH%2C+CA+94531
KAISER PERMANENTE PHARMACY #609,6600 BRUCEVILLE RD FL 1 SOUTH TOWER,"SACRAMENTO, CA 95823",http://maps.google.com/maps?q=KAISER%20PERMANENTE%20PHARMACY%2C6600%20BRUCEVILLE%20RD%20FL%201%20SOUTH%20TOWER%2C+SACRAMENTO%2C+CA+95823,
KAISER PERMANENTE PHARMACY #610,"2025 MORSE AVE, FL 2","SACRAMENTO, CA 95825",http://maps.google.com/maps?q=KAISER%20PERMANENTE%20PHARMACY%2C2025%20MORSE%20AVE%2C%20FL%202%2C+SACRAMENTO%2C+CA+95825,
KAISER PERMANENTE PHARMACY #634,250 HOSPITAL PKWY LBBY FLOOR,"SAN JOSE, CA 95119",http://maps.google.com/maps?q=KAISER%20PERMANENTE%20PHARMACY%2C250%20HOSPITAL%20PKWY%20LBBY%20FLOOR%2C+SAN%20JOSE%2C+CA+95119,
KAISER PERMANENTE PHARMACY #641,1931 MAIN ST,"WATSONVILLE, CA 95076",http://maps.google.com/maps?q=KAISER%20PERMANENTE%20PHARMACY%2C1931%20MAIN%20ST%2C+WATSONVILLE%2C+CA+95076,
KAISER PERMANENTE PHARMACY #701,2240 MERCURY WAY,1ST FL MOB 6,"SANTA ROSA, CA 95407",http://maps.google.com/maps?q=KAISER%20PERMANENTE%20PHARMACY%2C2240%20MERCURY%20WAY%2C+SANTA%20ROSA%2C+CA+95407
KAISER PERMANENTE PHARMACY #771,5615 SCOTTS VALLEY DR STE 145,"SCOTTS VALLEY, CA 95066",http://maps.google.com/maps?q=KAISER%20PERMANENTE%20PHARMACY%2C5615%20SCOTTS%20VALLEY%20DR%20STE%20145%2C+SCOTTS%20VALLEY%2C+CA+95066,
KAISER PERMANENTE PHARMACY #791,1721 TECHNOLOGY DR FL 1,"SAN JOSE, CA 95110",http://maps.google.com/maps?q=KAISER%20PERMANENTE%20PHARMACY%2C1721%20TECHNOLOGY%20DR%20FL%201%2C+SAN%20JOSE%2C+CA+95110,
KAISER PERMANENTE PHARMACY #931,2300 CAMINO RAMON FL 1,"SAN RAMON, CA 94583",http://maps.google.com/maps?q=KAISER%20PERMANENTE%20PHARMACY%2C2300%20CAMINO%20RAMON%20FL%201%2C+SAN%20RAMON%2C+CA+94583,
KAISER PERMANENTE PHARMACY #941,1600 OWENS ST FL 1,"SAN FRANCISCO, CA 94158",http://maps.google.com/maps?q=KAISER%20PERMANENTE%20PHARMACY%2C1600%20OWENS%20ST%20FL%201%2C+SAN%20FRANCISCO%2C+CA+94158,
KAISER PERMANENTE PHARMACY #971,501 J ST FL 1,"SACRAMENTO, CA 95814",http://maps.google.com/maps?q=KAISER%20PERMANENTE%20PHARMACY%2C501%20J%20ST%20FL%201%2C+SACRAMENTO%2C+CA+95814,
KAISER PERMANENTE PHARMACY515,1425 SOUTH MAIN STREET,1ST FLOOR CENTRAL,"WALNUT CREEK, CA 94596",http://maps.google.com/maps?q=KAISER%20PERMANENTE%20PHARMACY%2C1425%20SOUTH%20MAIN%20STREET%2C+WALNUT%20CREEK%2C+CA+94596
KAISER PERMANENTE PHMCY #281,2155 IRON POINT ROAD,"FOLSOM, CA 95630",http://maps.google.com/maps?q=KAISER%20PERMANENTE%20PHMCY%2C2155%20IRON%20POINT%20ROAD%2C+FOLSOM%2C+CA+95630,
KAISER PERMANENTE PHRMCY #120,1301 PINOLE VALLEY ROAD,1ST FLOOR,"PINOLE, CA 94564",http://maps.google.com/maps?q=KAISER%20PERMANENTE%20PHRMCY%2C1301%20PINOLE%20VALLEY%20ROAD%2C+PINOLE%2C+CA+94564
KAISER PERMANENTE PHRMCY #241,3000 LAS POSITAS RD,"LIVERMORE, CA 94550",http://maps.google.com/maps?q=KAISER%20PERMANENTE%20PHRMCY%2C3000%20LAS%20POSITAS%20RD%2C+LIVERMORE%2C+CA+94550,
KAISER PERMANENTE PHRMCY #266,"1600 EUREKA RD, MOB 2, FLR 1","ROSEVILLE, CA 95661",http://maps.google.com/maps?q=KAISER%20PERMANENTE%20PHRMCY%2C1600%20EUREKA%20RD%2C%20MOB%202%2C%20FLR%201%2C+ROSEVILLE%2C+CA+95661,
KAISER PERMANENTE PHRMCY #301,9201 BIG HORN BLVD,1ST FLOOR,"ELK GROVE, CA 95758",http://maps.google.com/maps?q=KAISER%20PERMANENTE%20PHRMCY%2C9201%20BIG%20HORN%20BLVD%2C+ELK%20GROVE%2C+CA+95758
KAISER PERMANENTE PHRMCY #431,2185 W GRANT LINE RD,"TRACY, CA 95377",http://maps.google.com/maps?q=KAISER%20PERMANENTE%20PHRMCY%2C2185%20W%20GRANT%20LINE%20RD%2C+TRACY%2C+CA+95377,
KAISER PERMANENTE PHRMCY #571,KFHP DEER VALLEY MOB1,5601 DEER VALLEY ROAD,"ANTIOCH, CA 94531",http://maps.google.com/maps?q=KAISER%20PERMANENTE%20PHRMCY%2CKFHP%20DEER%20VALLEY%20MOB1%2C+ANTIOCH%2C+CA+94531
KAISER PERMANENTE PHRMCY #608,7300 WYNDHAM DR,"SACRAMENTO, CA 95823",http://maps.google.com/maps?q=KAISER%20PERMANENTE%20PHRMCY%2C7300%20WYNDHAM%20DR%2C+SACRAMENTO%2C+CA+95823,
KAISER PERMANENTE PHRMCY #673,"1 QUALITY DR, SPECIALTY CARE BLDG 1ST FLR","VACAVILLE, CA 95688",http://maps.google.com/maps?q=KAISER%20PERMANENTE%20PHRMCY%2C1%20QUALITY%20DR%2C%20SPECIALTY%20CARE%20BLDG%201ST%20FLR%2C+VACAVILLE%2C+CA+95688,
KAISER PERMANENTE PHRMCY 341,395 HICKEY BLVD,FIRST FLOOR,"DALY CITY, CA 94015",http://maps.google.com/maps?q=KAISER%20PERMANENTE%20PHRMCY%2C395%20HICKEY%20BLVD%2C+DALY%20CITY%2C+CA+94015
KAISER PERMANENTE PHRMCY 587,3925 OLD REDWOOD HIGHWAY,"SANTA ROSA, CA 95403",http://maps.google.com/maps?q=KAISER%20PERMANENTE%20PHRMCY%2C3925%20OLD%20REDWOOD%20HIGHWAY%2C+SANTA%20ROSA%2C+CA+95403,
KAISER PERMANENTE UNION CITY,MAIN MOB 2 PHARMACY #132,3553 WHIPPLE ROAD,"UNION CITY, CA 94587",http://maps.google.com/maps?q=KAISER%20PERMANENTE%20UNION%20CITY%2CMAIN%20MOB%202%20PHARMACY%20#132%2C+UNION%20CITY%2C+CA+94587
KFHP DOWNTOWN SAN RAFAEL,PHARMACY NO 396,1033 THIRD STREET,"SAN RAFAEL, CA 94901",http://maps.google.com/maps?q=KFHP%20DOWNTOWN%20SAN%20RAFAEL%2CPHARMACY%20NO%20396%2C+SAN%20RAFAEL%2C+CA+94901
KMART PHARMACY #3725,1702 FREEDOM BLVD,"FREEDOM, CA 95019",http://maps.google.com/maps?q=KMART%20PHARMACY%2C1702%20FREEDOM%20BLVD%2C+FREEDOM%2C+CA+95019,
LARK REXALL DRUGS INC,16251 MAIN STREET,"GUERNEVILLE, CA 95446",http://maps.google.com/maps?q=LARK%20REXALL%20DRUGS%20INC%2C16251%20MAIN%20STREET%2C+GUERNEVILLE%2C+CA+95446,
LAUDEN PHARMACY,1820 41ST AVENUE,SUITE F,"CAPITOLA, CA 95010",http://maps.google.com/maps?q=LAUDEN%20PHARMACY%2C1820%2041ST%20AVENUE%2C+CAPITOLA%2C+CA+95010
LIMAS PROFESSIONAL PHARMACY 1,2097 HARRISON AVENUE,"EUREKA, CA 95501",http://maps.google.com/maps?q=LIMAS%20PROFESSIONAL%20PHARMACY%2C2097%20HARRISON%20AVENUE%2C+EUREKA%2C+CA+95501,
"LONGS DRUG STORES CALIFORNIA, L.L.C.",10 BAYHILL SHOPPING CTR,"SAN BRUNO, CA 94066",http://maps.google.com/maps?q=LONGS%20DRUG%20STORES%20CALIFORNIA%20LLC%2C10%20BAYHILL%20SHOPPING%20CTR%2C+SAN%20BRUNO%2C+CA+94066,
"LONGS DRUG STORES CALIFORNIA, L.L.C.",100 N SAN TOMAS AQUINO RD,"CAMPBELL, CA 95008",http://maps.google.com/maps?q=LONGS%20DRUG%20STORES%20CALIFORNIA%20LLC%2C100%20N%20SAN%20TOMAS%20AQUINO%20RD%2C+CAMPBELL%2C+CA+95008,
"LONGS DRUG STORES CALIFORNIA, L.L.C.",1039 EL CAMINO REAL,"REDWOOD CITY, CA 94063",http://maps.google.com/maps?q=LONGS%20DRUG%20STORES%20CALIFORNIA%20LLC%2C1039%20EL%20CAMINO%20REAL%2C+REDWOOD%20CITY%2C+CA+94063,
"LONGS DRUG STORES CALIFORNIA, L.L.C.",1041 EL MONTE AVE,"MOUNTAIN VIEW, CA 94040",http://maps.google.com/maps?q=LONGS%20DRUG%20STORES%20CALIFORNIA%20LLC%2C1041%20EL%20MONTE%20AVE%2C+MOUNTAIN%20VIEW%2C+CA+94040,
"LONGS DRUG STORES CALIFORNIA, L.L.C.",10455 S DE ANZA BLVD,"CUPERTINO, CA 95014",http://maps.google.com/maps?q=LONGS%20DRUG%20STORES%20CALIFORNIA%20LLC%2C10455%20S%20DE%20ANZA%20BLVD%2C+CUPERTINO%2C+CA+95014,
"LONGS DRUG STORES CALIFORNIA, L.L.C.",10650 SAN PABLO AVE,"EL CERRITO, CA 94530",http://maps.google.com/maps?q=LONGS%20DRUG%20STORES%20CALIFORNIA%20LLC%2C10650%20SAN%20PABLO%20AVE%2C+EL%20CERRITO%2C+CA+94530,
"LONGS DRUG STORES CALIFORNIA, L.L.C.",1097 LEIGH AVE,"SAN JOSE, CA 95126",http://maps.google.com/maps?q=LONGS%20DRUG%20STORES%20CALIFORNIA%20LLC%2C1097%20LEIGH%20AVE%2C+SAN%20JOSE%2C+CA+95126,
"LONGS DRUG STORES CALIFORNIA, L.L.C.",11 EL CAMINO REAL,"SAN CARLOS, CA 94070",http://maps.google.com/maps?q=LONGS%20DRUG%20STORES%20CALIFORNIA%20LLC%2C11%20EL%20CAMINO%20REAL%2C+SAN%20CARLOS%2C+CA+94070,
"LONGS DRUG STORES CALIFORNIA, L.L.C.",111 E MERCED ST,"FOWLER, CA 93625",http://maps.google.com/maps?q=LONGS%20DRUG%20STORES%20CALIFORNIA%20LLC%2C111%20E%20MERCED%20ST%2C+FOWLER%2C+CA+93625,
"LONGS DRUG STORES CALIFORNIA, L.L.C.",1123 S CALIFORNIA BLVD,"WALNUT CREEK, CA 94596",http://maps.google.com/maps?q=LONGS%20DRUG%20STORES%20CALIFORNIA%20LLC%2C1123%20S%20CALIFORNIA%20BLVD%2C+WALNUT%20CREEK%2C+CA+94596,
"LONGS DRUG STORES CALIFORNIA, L.L.C.",1125 BRANHAM LN,"SAN JOSE, CA 95118",http://maps.google.com/maps?q=LONGS%20DRUG%20STORES%20CALIFORNIA%20LLC%2C1125%20BRANHAM%20LN%2C+SAN%20JOSE%2C+CA+95118,
"LONGS DRUG STORES CALIFORNIA, L.L.C.",1140 S MAIN ST,"SALINAS, CA 93901",http://maps.google.com/maps?q=LONGS%20DRUG%20STORES%20CALIFORNIA%20LLC%2C1140%20S%20MAIN%20ST%2C+SALINAS%2C+CA+93901,
"LONGS DRUG STORES CALIFORNIA, L.L.C.",1165 W EL CAMINO REAL,"SUNNYVALE, CA 94087",http://maps.google.com/maps?q=LONGS%20DRUG%20STORES%20CALIFORNIA%20LLC%2C1165%20W%20EL%20CAMINO%20REAL%2C+SUNNYVALE%2C+CA+94087,
"LONGS DRUG STORES CALIFORNIA, L.L.C.",1175 2ND ST,"BRENTWOOD, CA 94513",http://maps.google.com/maps?q=LONGS%20DRUG%20STORES%20CALIFORNIA%20LLC%2C1175%202ND%20ST%2C+BRENTWOOD%2C+CA+94513,
"LONGS DRUG STORES CALIFORNIA, L.L.C.",124 DE ANZA BLVD,"SAN MATEO, CA 94402",http://maps.google.com/maps?q=LONGS%20DRUG%20STORES%20CALIFORNIA%20LLC%2C124%20DE%20ANZA%20BLVD%2C+SAN%20MATEO%2C+CA+94402,
"LONGS DRUG STORES CALIFORNIA, L.L.C.",1285 LINCOLN AVE,"SAN JOSE, CA 95125",http://maps.google.com/maps?q=LONGS%20DRUG%20STORES%20CALIFORNIA%20LLC%2C1285%20LINCOLN%20AVE%2C+SAN%20JOSE%2C+CA+95125,
"LONGS DRUG STORES CALIFORNIA, L.L.C.",12940 SARATOGA SUNNYVALE RD,"SARATOGA, CA 95070",http://maps.google.com/maps?q=LONGS%20DRUG%20STORES%20CALIFORNIA%20LLC%2C12940%20SARATOGA%20SUNNYVALE%20RD%2C+SARATOGA%2C+CA+95070,
"LONGS DRUG STORES CALIFORNIA, L.L.C.",1301 BROADWAY ST,"REDWOOD CITY, CA 94063",http://maps.google.com/maps?q=LONGS%20DRUG%20STORES%20CALIFORNIA%20LLC%2C1301%20BROADWAY%20ST%2C+REDWOOD%20CITY%2C+CA+94063,
"LONGS DRUG STORES CALIFORNIA, L.L.C.",1324 SAN CARLOS AVE,"SAN CARLOS, CA 94070",http://maps.google.com/maps?q=LONGS%20DRUG%20STORES%20CALIFORNIA%20LLC%2C1324%20SAN%20CARLOS%20AVE%2C+SAN%20CARLOS%2C+CA+94070,
"LONGS DRUG STORES CALIFORNIA, L.L.C.",1401 TARA HILLS DR,"PINOLE, CA 94564",http://maps.google.com/maps?q=LONGS%20DRUG%20STORES%20CALIFORNIA%20LLC%2C1401%20TARA%20HILLS%20DR%2C+PINOLE%2C+CA+94564,
"LONGS DRUG STORES CALIFORNIA, L.L.C.",1401 WASHINGTON AVE,"SAN LEANDRO, CA 94577",http://maps.google.com/maps?q=LONGS%20DRUG%20STORES%20CALIFORNIA%20LLC%2C1401%20WASHINGTON%20AVE%2C+SAN%20LEANDRO%2C+CA+94577,
"LONGS DRUG STORES CALIFORNIA, L.L.C.",1405 FOXWORTHY AVE,"SAN JOSE, CA 95118",http://maps.google.com/maps?q=LONGS%20DRUG%20STORES%20CALIFORNIA%20LLC%2C1405%20FOXWORTHY%20AVE%2C+SAN%20JOSE%2C+CA+95118,
"LONGS DRUG STORES CALIFORNIA, L.L.C.",1451 SHATTUCK AVE,"BERKELEY, CA 94709",http://maps.google.com/maps?q=LONGS%20DRUG%20STORES%20CALIFORNIA%20LLC%2C1451%20SHATTUCK%20AVE%2C+BERKELEY%2C+CA+94709,
"LONGS DRUG STORES CALIFORNIA, L.L.C.",14830 HIGHWAY 4,"DISCOVERY BAY, CA 94505",http://maps.google.com/maps?q=LONGS%20DRUG%20STORES%20CALIFORNIA%20LLC%2C14830%20HIGHWAY%204%2C+DISCOVERY%20BAY%2C+CA+94505,
"LONGS DRUG STORES CALIFORNIA, L.L.C.",14869 E 14TH ST,"SAN LEANDRO, CA 94578",http://maps.google.com/maps?q=LONGS%20DRUG%20STORES%20CALIFORNIA%20LLC%2C14869%20E%2014TH%20ST%2C+SAN%20LEANDRO%2C+CA+94578,
"LONGS DRUG STORES CALIFORNIA, L.L.C.",1496 POLLARD RD,"LOS GATOS, CA 95032",http://maps.google.com/maps?q=LONGS%20DRUG%20STORES%20CALIFORNIA%20LLC%2C1496%20POLLARD%20RD%2C+LOS%20GATOS%2C+CA+95032,
"LONGS DRUG STORES CALIFORNIA, L.L.C.",150 DONAHUE ST,"SAUSALITO, CA 94965",http://maps.google.com/maps?q=LONGS%20DRUG%20STORES%20CALIFORNIA%20LLC%2C150%20DONAHUE%20ST%2C+SAUSALITO%2C+CA+94965,
"LONGS DRUG STORES CALIFORNIA, L.L.C.",1500 1ST ST,"LIVERMORE, CA 94550",http://maps.google.com/maps?q=LONGS%20DRUG%20STORES%20CALIFORNIA%20LLC%2C1500%201ST%20ST%2C+LIVERMORE%2C+CA+94550,
"LONGS DRUG STORES CALIFORNIA, L.L.C.",1550 EAST 14TH STREET,"SAN LEANDRO, CA 94577",http://maps.google.com/maps?q=LONGS%20DRUG%20STORES%20CALIFORNIA%20LLC%2C1550%20EAST%2014TH%20STREET%2C+SAN%20LEANDRO%2C+CA+94577,
"LONGS DRUG STORES CALIFORNIA, L.L.C.",1675 HOLLENBECK AVE,"SUNNYVALE, CA 94087",http://maps.google.com/maps?q=LONGS%20DRUG%20STORES%20CALIFORNIA%20LLC%2C1675%20HOLLENBECK%20AVE%2C+SUNNYVALE%2C+CA+94087,
"LONGS DRUG STORES CALIFORNIA, L.L.C.",1685 TULLY RD,"SAN JOSE, CA 95122",http://maps.google.com/maps?q=LONGS%20DRUG%20STORES%20CALIFORNIA%20LLC%2C1685%20TULLY%20RD%2C+SAN%20JOSE%2C+CA+95122,
"LONGS DRUG STORES CALIFORNIA, L.L.C.",16995 WALNUT GROVE DRIVE,"MORGAN HILL, CA 95037",http://maps.google.com/maps?q=LONGS%20DRUG%20STORES%20CALIFORNIA%20LLC%2C16995%20WALNUT%20GROVE%20DRIVE%2C+MORGAN%20HILL%2C+CA+95037,
"LONGS DRUG STORES CALIFORNIA, L.L.C.",1700 MCHENRY AVE.,"MODESTO, CA 95350",http://maps.google.com/maps?q=LONGS%20DRUG%20STORES%20CALIFORNIA%20LLC%2C1700%20MCHENRY%20AVE.%2C+MODESTO%2C+CA+95350,
"LONGS DRUG STORES CALIFORNIA, L.L.C.",1707 GRANT AVE,"NOVATO, CA 94945",http://maps.google.com/maps?q=LONGS%20DRUG%20STORES%20CALIFORNIA%20LLC%2C1707%20GRANT%20AVE%2C+NOVATO%2C+CA+94945,
"LONGS DRUG STORES CALIFORNIA, L.L.C.",1720 S BASCOM AVE,"CAMPBELL, CA 95008",http://maps.google.com/maps?q=LONGS%20DRUG%20STORES%20CALIFORNIA%20LLC%2C1720%20S%20BASCOM%20AVE%2C+CAMPBELL%2C+CA+95008,
"LONGS DRUG STORES CALIFORNIA, L.L.C.",175 41ST ST,"OAKLAND, CA 94611",http://maps.google.com/maps?q=LONGS%20DRUG%20STORES%20CALIFORNIA%20LLC%2C175%2041ST%20ST%2C+OAKLAND%2C+CA+94611,
"LONGS DRUG STORES CALIFORNIA, L.L.C.",1750 41ST AVE,"CAPITOLA, CA 95010",http://maps.google.com/maps?q=LONGS%20DRUG%20STORES%20CALIFORNIA%20LLC%2C1750%2041ST%20AVE%2C+CAPITOLA%2C+CA+95010,
"LONGS DRUG STORES CALIFORNIA, L.L.C.",1798 MIRAMONTE AVE,"MOUNTAIN VIEW, CA 94040",http://maps.google.com/maps?q=LONGS%20DRUG%20STORES%20CALIFORNIA%20LLC%2C1798%20MIRAMONTE%20AVE%2C+MOUNTAIN%20VIEW%2C+CA+94040,
"LONGS DRUG STORES CALIFORNIA, L.L.C.",1800 SARATOGA AVENUE,"SAN JOSE, CA 95129",http://maps.google.com/maps?q=LONGS%20DRUG%20STORES%20CALIFORNIA%20LLC%2C1800%20SARATOGA%20AVENUE%2C+SAN%20JOSE%2C+CA+95129,
"LONGS DRUG STORES CALIFORNIA, L.L.C.",1871 EL CAMINO REAL,"BURLINGAME, CA 94010",http://maps.google.com/maps?q=LONGS%20DRUG%20STORES%20CALIFORNIA%20LLC%2C1871%20EL%20CAMINO%20REAL%2C+BURLINGAME%2C+CA+94010,
"LONGS DRUG STORES CALIFORNIA, L.L.C.",1960 TICE VALLEY BLVD,"WALNUT CREEK, CA 94595",http://maps.google.com/maps?q=LONGS%20DRUG%20STORES%20CALIFORNIA%20LLC%2C1960%20TICE%20VALLEY%20BLVD%2C+WALNUT%20CREEK%2C+CA+94595,
"LONGS DRUG STORES CALIFORNIA, L.L.C.",1966 MAIN ST,"WATSONVILLE, CA 95076",http://maps.google.com/maps?q=LONGS%20DRUG%20STORES%20CALIFORNIA%20LLC%2C1966%20MAIN%20ST%2C+WATSONVILLE%2C+CA+95076,
"LONGS DRUG STORES CALIFORNIA, L.L.C.",2000 DRISCOLL RD,"FREMONT, CA 94539",http://maps.google.com/maps?q=LONGS%20DRUG%20STORES%20CALIFORNIA%20LLC%2C2000%20DRISCOLL%20RD%2C+FREMONT%2C+CA+94539,
"LONGS DRUG STORES CALIFORNIA, L.L.C.",2035 NOVATO BLVD,"NOVATO, CA 94947",http://maps.google.com/maps?q=LONGS%20DRUG%20STORES%20CALIFORNIA%20LLC%2C2035%20NOVATO%20BLVD%2C+NOVATO%2C+CA+94947,
"LONGS DRUG STORES CALIFORNIA, L.L.C.",2069 CAMDEN AVE,"SAN JOSE, CA 95124",http://maps.google.com/maps?q=LONGS%20DRUG%20STORES%20CALIFORNIA%20LLC%2C2069%20CAMDEN%20AVE%2C+SAN%20JOSE%2C+CA+95124,
"LONGS DRUG STORES CALIFORNIA, L.L.C.",2151 MEEKER AVE,"RICHMOND, CA 94804",http://maps.google.com/maps?q=LONGS%20DRUG%20STORES%20CALIFORNIA%20LLC%2C2151%20MEEKER%20AVE%2C+RICHMOND%2C+CA+94804,
"LONGS DRUG STORES CALIFORNIA, L.L.C.",222 SARATOGA AVE,"SANTA CLARA, CA 95050",http://maps.google.com/maps?q=LONGS%20DRUG%20STORES%20CALIFORNIA%20LLC%2C222%20SARATOGA%20AVE%2C+SANTA%20CLARA%2C+CA+95050,
"LONGS DRUG STORES CALIFORNIA, L.L.C.",22501 FOOTHILL BLVD,"HAYWARD, CA 94541",http://maps.google.com/maps?q=LONGS%20DRUG%20STORES%20CALIFORNIA%20LLC%2C22501%20FOOTHILL%20BLVD%2C+HAYWARD%2C+CA+94541,
"LONGS DRUG STORES CALIFORNIA, L.L.C.",230 ATLANTIC AVE,"PITTSBURG, CA 94565",http://maps.google.com/maps?q=LONGS%20DRUG%20STORES%20CALIFORNIA%20LLC%2C230%20ATLANTIC%20AVE%2C+PITTSBURG%2C+CA+94565,
"LONGS DRUG STORES CALIFORNIA, L.L.C.",2300 SHATTUCK AVE,"BERKELEY, CA 94704",http://maps.google.com/maps?q=LONGS%20DRUG%20STORES%20CALIFORNIA%20LLC%2C2300%20SHATTUCK%20AVE%2C+BERKELEY%2C+CA+94704,
"LONGS DRUG STORES CALIFORNIA, L.L.C.",2314 SANTA CLARA AVE,"ALAMEDA, CA 94501",http://maps.google.com/maps?q=LONGS%20DRUG%20STORES%20CALIFORNIA%20LLC%2C2314%20SANTA%20CLARA%20AVE%2C+ALAMEDA%2C+CA+94501,
"LONGS DRUG STORES CALIFORNIA, L.L.C.",243 W JACKSON ST,"HAYWARD, CA 94544",http://maps.google.com/maps?q=LONGS%20DRUG%20STORES%20CALIFORNIA%20LLC%2C243%20W%20JACKSON%20ST%2C+HAYWARD%2C+CA+94544,
"LONGS DRUG STORES CALIFORNIA, L.L.C.",2455 SAN RAMON VALLEY BLVD,"SAN RAMON, CA 94583",http://maps.google.com/maps?q=LONGS%20DRUG%20STORES%20CALIFORNIA%20LLC%2C2455%20SAN%20RAMON%20VALLEY%20BLVD%2C+SAN%20RAMON%2C+CA+94583,
"LONGS DRUG STORES CALIFORNIA, L.L.C.",2514 BERRYESSA RD,"SAN JOSE, CA 95132",http://maps.google.com/maps?q=LONGS%20DRUG%20STORES%20CALIFORNIA%20LLC%2C2514%20BERRYESSA%20RD%2C+SAN%20JOSE%2C+CA+95132,
"LONGS DRUG STORES CALIFORNIA, L.L.C.",257 MOUNT HERMON RD,"SCOTTS VALLEY, CA 95066",http://maps.google.com/maps?q=LONGS%20DRUG%20STORES%20CALIFORNIA%20LLC%2C257%20MOUNT%20HERMON%20RD%2C+SCOTTS%20VALLEY%2C+CA+95066,
"LONGS DRUG STORES CALIFORNIA, L.L.C.",2605 WEST MARCH LANE,"STOCKTON, CA 95207",http://maps.google.com/maps?q=LONGS%20DRUG%20STORES%20CALIFORNIA%20LLC%2C2605%20WEST%20MARCH%20LANE%2C+STOCKTON%2C+CA+95207,
"LONGS DRUG STORES CALIFORNIA, L.L.C.",2630 W EL CAMINO REAL,"MOUNTAIN VIEW, CA 94040",http://maps.google.com/maps?q=LONGS%20DRUG%20STORES%20CALIFORNIA%20LLC%2C2630%20W%20EL%20CAMINO%20REAL%2C+MOUNTAIN%20VIEW%2C+CA+94040,
"LONGS DRUG STORES CALIFORNIA, L.L.C.",2677 CLAYTON RD,"CONCORD, CA 94519",http://maps.google.com/maps?q=LONGS%20DRUG%20STORES%20CALIFORNIA%20LLC%2C2677%20CLAYTON%20RD%2C+CONCORD%2C+CA+94519,
"LONGS DRUG STORES CALIFORNIA, L.L.C.",2700 HOMESTEAD RD,"SANTA CLARA, CA 95051",http://maps.google.com/maps?q=LONGS%20DRUG%20STORES%20CALIFORNIA%20LLC%2C2700%20HOMESTEAD%20RD%2C+SANTA%20CLARA%2C+CA+95051,
"LONGS DRUG STORES CALIFORNIA, L.L.C.",2701 MIDDLEFIELD RD,"PALO ALTO, CA 94306",http://maps.google.com/maps?q=LONGS%20DRUG%20STORES%20CALIFORNIA%20LLC%2C2701%20MIDDLEFIELD%20RD%2C+PALO%20ALTO%2C+CA+94306,
"LONGS DRUG STORES CALIFORNIA, L.L.C.",3074 STORY RD,"SAN JOSE, CA 95127",http://maps.google.com/maps?q=LONGS%20DRUG%20STORES%20CALIFORNIA%20LLC%2C3074%20STORY%20RD%2C+SAN%20JOSE%2C+CA+95127,
"LONGS DRUG STORES CALIFORNIA, L.L.C.",3081 STEVENS CREEK BLVD,"SANTA CLARA, CA 95050",http://maps.google.com/maps?q=LONGS%20DRUG%20STORES%20CALIFORNIA%20LLC%2C3081%20STEVENS%20CREEK%20BLVD%2C+SANTA%20CLARA%2C+CA+95050,
"LONGS DRUG STORES CALIFORNIA, L.L.C.",3130 BUCHANAN ROAD,"ANTIOCH, CA 94509",http://maps.google.com/maps?q=LONGS%20DRUG%20STORES%20CALIFORNIA%20LLC%2C3130%20BUCHANAN%20ROAD%2C+ANTIOCH%2C+CA+94509,
"LONGS DRUG STORES CALIFORNIA, L.L.C.",3158 DANVILLE BLVD,"ALAMO, CA 94507",http://maps.google.com/maps?q=LONGS%20DRUG%20STORES%20CALIFORNIA%20LLC%2C3158%20DANVILLE%20BLVD%2C+ALAMO%2C+CA+94507,
"LONGS DRUG STORES CALIFORNIA, L.L.C.",3171 BALFOUR RD,"BRENTWOOD, CA 94513",http://maps.google.com/maps?q=LONGS%20DRUG%20STORES%20CALIFORNIA%20LLC%2C3171%20BALFOUR%20RD%2C+BRENTWOOD%2C+CA+94513,
"LONGS DRUG STORES CALIFORNIA, L.L.C.",3220 S WHITE RD,"SAN JOSE, CA 95148",http://maps.google.com/maps?q=LONGS%20DRUG%20STORES%20CALIFORNIA%20LLC%2C3220%20S%20WHITE%20RD%2C+SAN%20JOSE%2C+CA+95148,
"LONGS DRUG STORES CALIFORNIA, L.L.C.",330 BON AIR SHOPPING CTR,"GREENBRAE, CA 94904",http://maps.google.com/maps?q=LONGS%20DRUG%20STORES%20CALIFORNIA%20LLC%2C330%20BON%20AIR%20SHOPPING%20CTR%2C+GREENBRAE%2C+CA+94904,
"LONGS DRUG STORES CALIFORNIA, L.L.C.",3320 FRUITVALE AVE,"OAKLAND, CA 94602",http://maps.google.com/maps?q=LONGS%20DRUG%20STORES%20CALIFORNIA%20LLC%2C3320%20FRUITVALE%20AVE%2C+OAKLAND%2C+CA+94602,
"LONGS DRUG STORES CALIFORNIA, L.L.C.",3420 CAMINO TASSAJARA,"DANVILLE, CA 94506",http://maps.google.com/maps?q=LONGS%20DRUG%20STORES%20CALIFORNIA%20LLC%2C3420%20CAMINO%20TASSAJARA%2C+DANVILLE%2C+CA+94506,
"LONGS DRUG STORES CALIFORNIA, L.L.C.",344 THOMAS L. BERKLEY WAY,"OAKLAND, CA 94612",http://maps.google.com/maps?q=LONGS%20DRUG%20STORES%20CALIFORNIA%20LLC%2C344%20THOMAS%20L.%20BERKLEY%20WAY%2C+OAKLAND%2C+CA+94612,
"LONGS DRUG STORES CALIFORNIA, L.L.C.",3475 MCKEE RD,"SAN JOSE, CA 95127",http://maps.google.com/maps?q=LONGS%20DRUG%20STORES%20CALIFORNIA%20LLC%2C3475%20MCKEE%20RD%2C+SAN%20JOSE%2C+CA+95127,
"LONGS DRUG STORES CALIFORNIA, L.L.C.",35080 NEWARK BLVD,"NEWARK, CA 94560",http://maps.google.com/maps?q=LONGS%20DRUG%20STORES%20CALIFORNIA%20LLC%2C35080%20NEWARK%20BLVD%2C+NEWARK%2C+CA+94560,
"LONGS DRUG STORES CALIFORNIA, L.L.C.",352 UNIVERSITY AVE,"PALO ALTO, CA 94301",http://maps.google.com/maps?q=LONGS%20DRUG%20STORES%20CALIFORNIA%20LLC%2C352%20UNIVERSITY%20AVE%2C+PALO%20ALTO%2C+CA+94301,
"LONGS DRUG STORES CALIFORNIA, L.L.C.",35720 FREMONT BLVD,"FREMONT, CA 94536",http://maps.google.com/maps?q=LONGS%20DRUG%20STORES%20CALIFORNIA%20LLC%2C35720%20FREMONT%20BLVD%2C+FREMONT%2C+CA+94536,
"LONGS DRUG STORES CALIFORNIA, L.L.C.",3625 MT DIABLO BLVD,"LAFAYETTE, CA 94549",http://maps.google.com/maps?q=LONGS%20DRUG%20STORES%20CALIFORNIA%20LLC%2C3625%20MT%20DIABLO%20BLVD%2C+LAFAYETTE%2C+CA+94549,
"LONGS DRUG STORES CALIFORNIA, L.L.C.",3667 CASTRO VALLEY BLVD,"CASTRO VALLEY, CA 94546",http://maps.google.com/maps?q=LONGS%20DRUG%20STORES%20CALIFORNIA%20LLC%2C3667%20CASTRO%20VALLEY%20BLVD%2C+CASTRO%20VALLEY%2C+CA+94546,
"LONGS DRUG STORES CALIFORNIA, L.L.C.",375 GELLERT BLVD,"DALY CITY, CA 94015",http://maps.google.com/maps?q=LONGS%20DRUG%20STORES%20CALIFORNIA%20LLC%2C375%20GELLERT%20BLVD%2C+DALY%20CITY%2C+CA+94015,
"LONGS DRUG STORES CALIFORNIA, L.L.C.",3999 SANTA RITA ROAD,"PLEASANTON, CA 94588",http://maps.google.com/maps?q=LONGS%20DRUG%20STORES%20CALIFORNIA%20LLC%2C3999%20SANTA%20RITA%20ROAD%2C+PLEASANTON%2C+CA+94588,
"LONGS DRUG STORES CALIFORNIA, L.L.C.",4020 FREMONT HUB,"FREMONT, CA 94538",http://maps.google.com/maps?q=LONGS%20DRUG%20STORES%20CALIFORNIA%20LLC%2C4020%20FREMONT%20HUB%2C+FREMONT%2C+CA+94538,
"LONGS DRUG STORES CALIFORNIA, L.L.C.",4028 LONE TREE WAY,"ANTIOCH, CA 94531",http://maps.google.com/maps?q=LONGS%20DRUG%20STORES%20CALIFORNIA%20LLC%2C4028%20LONE%20TREE%20WAY%2C+ANTIOCH%2C+CA+94531,
"LONGS DRUG STORES CALIFORNIA, L.L.C.",4100 REDWOOD RD,"OAKLAND, CA 94619",http://maps.google.com/maps?q=LONGS%20DRUG%20STORES%20CALIFORNIA%20LLC%2C4100%20REDWOOD%20RD%2C+OAKLAND%2C+CA+94619,
"LONGS DRUG STORES CALIFORNIA, L.L.C.",4242 S EL CAMINO REAL,"SAN MATEO, CA 94403",http://maps.google.com/maps?q=LONGS%20DRUG%20STORES%20CALIFORNIA%20LLC%2C4242%20S%20EL%20CAMINO%20REAL%2C+SAN%20MATEO%2C+CA+94403,
"LONGS DRUG STORES CALIFORNIA, L.L.C.",4349 SAN PABLO AVE,"EMERYVILLE, CA 94608",http://maps.google.com/maps?q=LONGS%20DRUG%20STORES%20CALIFORNIA%20LLC%2C4349%20SAN%20PABLO%20AVE%2C+EMERYVILLE%2C+CA+94608,
"LONGS DRUG STORES CALIFORNIA, L.L.C.",4405 1ST ST,"LIVERMORE, CA 94551",http://maps.google.com/maps?q=LONGS%20DRUG%20STORES%20CALIFORNIA%20LLC%2C4405%201ST%20ST%2C+LIVERMORE%2C+CA+94551,
"LONGS DRUG STORES CALIFORNIA, L.L.C.",442 LAS GALLINAS AVE,"SAN RAFAEL, CA 94903",http://maps.google.com/maps?q=LONGS%20DRUG%20STORES%20CALIFORNIA%20LLC%2C442%20LAS%20GALLINAS%20AVE%2C+SAN%20RAFAEL%2C+CA+94903,
"LONGS DRUG STORES CALIFORNIA, L.L.C.",4424 TREAT BLVD,"CONCORD, CA 94521",http://maps.google.com/maps?q=LONGS%20DRUG%20STORES%20CALIFORNIA%20LLC%2C4424%20TREAT%20BLVD%2C+CONCORD%2C+CA+94521,
"LONGS DRUG STORES CALIFORNIA, L.L.C.",45 N MILPITAS BLVD,"MILPITAS, CA 95035",http://maps.google.com/maps?q=LONGS%20DRUG%20STORES%20CALIFORNIA%20LLC%2C45%20N%20MILPITAS%20BLVD%2C+MILPITAS%2C+CA+95035,
"LONGS DRUG STORES CALIFORNIA, L.L.C.",4550 MERIDIAN AVE,"SAN JOSE, CA 95124",http://maps.google.com/maps?q=LONGS%20DRUG%20STORES%20CALIFORNIA%20LLC%2C4550%20MERIDIAN%20AVE%2C+SAN%20JOSE%2C+CA+95124,
"LONGS DRUG STORES CALIFORNIA, L.L.C.",46445 MISSION BLVD,"FREMONT, CA 94539",http://maps.google.com/maps?q=LONGS%20DRUG%20STORES%20CALIFORNIA%20LLC%2C46445%20MISSION%20BLVD%2C+FREMONT%2C+CA+94539,
"LONGS DRUG STORES CALIFORNIA, L.L.C.",470 BLOSSOM HILL RD,"SAN JOSE, CA 95123",http://maps.google.com/maps?q=LONGS%20DRUG%20STORES%20CALIFORNIA%20LLC%2C470%20BLOSSOM%20HILL%20RD%2C+SAN%20JOSE%2C+CA+95123,
"LONGS DRUG STORES CALIFORNIA, L.L.C.",4850 SAN FELIPE RD,"SAN JOSE, CA 95135",http://maps.google.com/maps?q=LONGS%20DRUG%20STORES%20CALIFORNIA%20LLC%2C4850%20SAN%20FELIPE%20RD%2C+SAN%20JOSE%2C+CA+95135,
"LONGS DRUG STORES CALIFORNIA, L.L.C.",490 MARKET PL,"SAN RAMON, CA 94583",http://maps.google.com/maps?q=LONGS%20DRUG%20STORES%20CALIFORNIA%20LLC%2C490%20MARKET%20PL%2C+SAN%20RAMON%2C+CA+94583,
"LONGS DRUG STORES CALIFORNIA, L.L.C.",490 RODRIGUEZ ST,"WATSONVILLE, CA 95076",http://maps.google.com/maps?q=LONGS%20DRUG%20STORES%20CALIFORNIA%20LLC%2C490%20RODRIGUEZ%20ST%2C+WATSONVILLE%2C+CA+95076,
"LONGS DRUG STORES CALIFORNIA, L.L.C.",50 MORAGA WAY,"ORINDA, CA 94563",http://maps.google.com/maps?q=LONGS%20DRUG%20STORES%20CALIFORNIA%20LLC%2C50%20MORAGA%20WAY%2C+ORINDA%2C+CA+94563,
"LONGS DRUG STORES CALIFORNIA, L.L.C.",5170 MOORPARK AVE,"SAN JOSE, CA 95129",http://maps.google.com/maps?q=LONGS%20DRUG%20STORES%20CALIFORNIA%20LLC%2C5170%20MOORPARK%20AVE%2C+SAN%20JOSE%2C+CA+95129,
"LONGS DRUG STORES CALIFORNIA, L.L.C.",525 W CAPITOL EXPY,"SAN JOSE, CA 95136",http://maps.google.com/maps?q=LONGS%20DRUG%20STORES%20CALIFORNIA%20LLC%2C525%20W%20CAPITOL%20EXPY%2C+SAN%20JOSE%2C+CA+95136,
"LONGS DRUG STORES CALIFORNIA, L.L.C.",5407 CAMDEN AVE,"SAN JOSE, CA 95124",http://maps.google.com/maps?q=LONGS%20DRUG%20STORES%20CALIFORNIA%20LLC%2C5407%20CAMDEN%20AVE%2C+SAN%20JOSE%2C+CA+95124,
"LONGS DRUG STORES CALIFORNIA, L.L.C.",5408 YGNACIO VALLEY RD,"CONCORD, CA 94521",http://maps.google.com/maps?q=LONGS%20DRUG%20STORES%20CALIFORNIA%20LLC%2C5408%20YGNACIO%20VALLEY%20RD%2C+CONCORD%2C+CA+94521,
"LONGS DRUG STORES CALIFORNIA, L.L.C.",5420 DEWEY DR,"FAIR OAKS, CA 95628",http://maps.google.com/maps?q=LONGS%20DRUG%20STORES%20CALIFORNIA%20LLC%2C5420%20DEWEY%20DR%2C+FAIR%20OAKS%2C+CA+95628,
"LONGS DRUG STORES CALIFORNIA, L.L.C.",560 CENTER AVE,"MARTINEZ, CA 94553",http://maps.google.com/maps?q=LONGS%20DRUG%20STORES%20CALIFORNIA%20LLC%2C560%20CENTER%20AVE%2C+MARTINEZ%2C+CA+94553,
"LONGS DRUG STORES CALIFORNIA, L.L.C.",576 E EL CAMINO REAL,"SUNNYVALE, CA 94087",http://maps.google.com/maps?q=LONGS%20DRUG%20STORES%20CALIFORNIA%20LLC%2C576%20E%20EL%20CAMINO%20REAL%2C+SUNNYVALE%2C+CA+94087,
"LONGS DRUG STORES CALIFORNIA, L.L.C.",580 MORAGA RD,"MORAGA, CA 94556",http://maps.google.com/maps?q=LONGS%20DRUG%20STORES%20CALIFORNIA%20LLC%2C580%20MORAGA%20RD%2C+MORAGA%2C+CA+94556,
"LONGS DRUG STORES CALIFORNIA, L.L.C.",60 CABRILLO HWY N,"HALF MOON BAY, CA 94019",http://maps.google.com/maps?q=LONGS%20DRUG%20STORES%20CALIFORNIA%20LLC%2C60%20CABRILLO%20HWY%20N%2C+HALF%20MOON%20BAY%2C+CA+94019,
"LONGS DRUG STORES CALIFORNIA, L.L.C.",6247 GRAHAM HILL RD,"FELTON, CA 95018",http://maps.google.com/maps?q=LONGS%20DRUG%20STORES%20CALIFORNIA%20LLC%2C6247%20GRAHAM%20HILL%20RD%2C+FELTON%2C+CA+95018,
"LONGS DRUG STORES CALIFORNIA, L.L.C.",6490 CLAYTON RD,"CLAYTON, CA 94517",http://maps.google.com/maps?q=LONGS%20DRUG%20STORES%20CALIFORNIA%20LLC%2C6490%20CLAYTON%20RD%2C+CLAYTON%2C+CA+94517,
"LONGS DRUG STORES CALIFORNIA, L.L.C.",650 SAN RAMON VALLEY BLVD,"DANVILLE, CA 94526",http://maps.google.com/maps?q=LONGS%20DRUG%20STORES%20CALIFORNIA%20LLC%2C650%20SAN%20RAMON%20VALLEY%20BLVD%2C+DANVILLE%2C+CA+94526,
"LONGS DRUG STORES CALIFORNIA, L.L.C.",670 EL CERRITO PLZ,"EL CERRITO, CA 94530",http://maps.google.com/maps?q=LONGS%20DRUG%20STORES%20CALIFORNIA%20LLC%2C670%20EL%20CERRITO%20PLZ%2C+EL%20CERRITO%2C+CA+94530,
"LONGS DRUG STORES CALIFORNIA, L.L.C.",6910 ALMADEN EXPY,"SAN JOSE, CA 95120",http://maps.google.com/maps?q=LONGS%20DRUG%20STORES%20CALIFORNIA%20LLC%2C6910%20ALMADEN%20EXPY%2C+SAN%20JOSE%2C+CA+95120,
"LONGS DRUG STORES CALIFORNIA, L.L.C.",699 LEWELLING BLVD,"SAN LEANDRO, CA 94579",http://maps.google.com/maps?q=LONGS%20DRUG%20STORES%20CALIFORNIA%20LLC%2C699%20LEWELLING%20BLVD%2C+SAN%20LEANDRO%2C+CA+94579,
"LONGS DRUG STORES CALIFORNIA, L.L.C.",7201 REGIONAL ST,"DUBLIN, CA 94568",http://maps.google.com/maps?q=LONGS%20DRUG%20STORES%20CALIFORNIA%20LLC%2C7201%20REGIONAL%20ST%2C+DUBLIN%2C+CA+94568,
"LONGS DRUG STORES CALIFORNIA, L.L.C.",738 BANCROFT RD,"WALNUT CREEK, CA 94598",http://maps.google.com/maps?q=LONGS%20DRUG%20STORES%20CALIFORNIA%20LLC%2C738%20BANCROFT%20RD%2C+WALNUT%20CREEK%2C+CA+94598,
"LONGS DRUG STORES CALIFORNIA, L.L.C.",750 BLOSSOM HILL RD,"LOS GATOS, CA 95032",http://maps.google.com/maps?q=LONGS%20DRUG%20STORES%20CALIFORNIA%20LLC%2C750%20BLOSSOM%20HILL%20RD%2C+LOS%20GATOS%2C+CA+95032,
"LONGS DRUG STORES CALIFORNIA, L.L.C.",759 E BLITHEDALE AVE,"MILL VALLEY, CA 94941",http://maps.google.com/maps?q=LONGS%20DRUG%20STORES%20CALIFORNIA%20LLC%2C759%20E%20BLITHEDALE%20AVE%2C+MILL%20VALLEY%2C+CA+94941,
"LONGS DRUG STORES CALIFORNIA, L.L.C.",77 BOVET RD,"SAN MATEO, CA 94402",http://maps.google.com/maps?q=LONGS%20DRUG%20STORES%20CALIFORNIA%20LLC%2C77%20BOVET%20RD%2C+SAN%20MATEO%2C+CA+94402,
"LONGS DRUG STORES CALIFORNIA, L.L.C.",783 RIO DEL MAR BLVD STE 3,"APTOS, CA 95003",http://maps.google.com/maps?q=LONGS%20DRUG%20STORES%20CALIFORNIA%20LLC%2C783%20RIO%20DEL%20MAR%20BLVD%20STE%203%2C+APTOS%2C+CA+95003,
"LONGS DRUG STORES CALIFORNIA, L.L.C.",800 FIRST STREET,"GILROY, CA 95020",http://maps.google.com/maps?q=LONGS%20DRUG%20STORES%20CALIFORNIA%20LLC%2C800%20FIRST%20STREET%2C+GILROY%2C+CA+95020,
"LONGS DRUG STORES CALIFORNIA, L.L.C.",809 BAY AVE,"CAPITOLA, CA 95010",http://maps.google.com/maps?q=LONGS%20DRUG%20STORES%20CALIFORNIA%20LLC%2C809%20BAY%20AVE%2C+CAPITOLA%2C+CA+95010,
"LONGS DRUG STORES CALIFORNIA, L.L.C.",821 THE ALAMEDA,"SAN JOSE, CA 95126",http://maps.google.com/maps?q=LONGS%20DRUG%20STORES%20CALIFORNIA%20LLC%2C821%20THE%20ALAMEDA%2C+SAN%20JOSE%2C+CA+95126,
"LONGS DRUG STORES CALIFORNIA, L.L.C.",850 CALIFORNIA ST,"MOUNTAIN VIEW, CA 94041",http://maps.google.com/maps?q=LONGS%20DRUG%20STORES%20CALIFORNIA%20LLC%2C850%20CALIFORNIA%20ST%2C+MOUNTAIN%20VIEW%2C+CA+94041,
"LONGS DRUG STORES CALIFORNIA, L.L.C.",872 N DELAWARE ST,"SAN MATEO, CA 94401",http://maps.google.com/maps?q=LONGS%20DRUG%20STORES%20CALIFORNIA%20LLC%2C872%20N%20DELAWARE%20ST%2C+SAN%20MATEO%2C+CA+94401,
"LONGS DRUG STORES CALIFORNIA, L.L.C.",880 SIR FRANCIS DRAKE BLVD,"SAN ANSELMO, CA 94960",http://maps.google.com/maps?q=LONGS%20DRUG%20STORES%20CALIFORNIA%20LLC%2C880%20SIR%20FRANCIS%20DRAKE%20BLVD%2C+SAN%20ANSELMO%2C+CA+94960,
"LONGS DRUG STORES CALIFORNIA, L.L.C.",885 ISLAND DR STE A,"ALAMEDA, CA 94502",http://maps.google.com/maps?q=LONGS%20DRUG%20STORES%20CALIFORNIA%20LLC%2C885%20ISLAND%20DR%20STE%20A%2C+ALAMEDA%2C+CA+94502,
"LONGS DRUG STORES CALIFORNIA, L.L.C.",9120 ALCOSTA BLVD,"SAN RAMON, CA 94583",http://maps.google.com/maps?q=LONGS%20DRUG%20STORES%20CALIFORNIA%20LLC%2C9120%20ALCOSTA%20BLVD%2C+SAN%20RAMON%2C+CA+94583,
"LONGS DRUG STORES CALIFORNIA, L.L.C.",931 MARINA VILLAGE PKWY,"ALAMEDA, CA 94501",http://maps.google.com/maps?q=LONGS%20DRUG%20STORES%20CALIFORNIA%20LLC%2C931%20MARINA%20VILLAGE%20PKWY%2C+ALAMEDA%2C+CA+94501,
"LONGS DRUG STORES CALIFORNIA, L.L.C.",987 E HILLSDALE BLVD,"FOSTER CITY, CA 94404",http://maps.google.com/maps?q=LONGS%20DRUG%20STORES%20CALIFORNIA%20LLC%2C987%20E%20HILLSDALE%20BLVD%2C+FOSTER%20CITY%2C+CA+94404,
LOS ALAMITOS PHARMACY INC,115 N. JACKSON AVENUE #103,"SAN JOSE, CA 95116",http://maps.google.com/maps?q=LOS%20ALAMITOS%20PHARMACY%20INC%2C115%20N.%20JACKSON%20AVENUE%20#103%2C+SAN%20JOSE%2C+CA+95116,
LUCKY PHARMACY #783,777 E MONTE VISTA AVE,"VACAVILLE, CA 95688",http://maps.google.com/maps?q=LUCKY%20PHARMACY%2C777%20E%20MONTE%20VISTA%20AVE%2C+VACAVILLE%2C+CA+95688,
MARIN MEDICAL PHARMACY,NORTHGATE MEDICAL/DENTAL CTR,750 LAS GALLINAS AVE #104,"SAN RAFAEL, CA 94903",http://maps.google.com/maps?q=MARIN%20MEDICAL%20PHARMACY%2CNORTHGATE%20MEDICAL/DENTAL%20CTR%2C+SAN%20RAFAEL%2C+CA+94903
MAXIMART PHARMACY,240 CAMBRIDGE,"PALO ALTO, CA 94306",http://maps.google.com/maps?q=MAXIMART%20PHARMACY%2C240%20CAMBRIDGE%2C+PALO%20ALTO%2C+CA+94306,
MEDEX DRUGS,401-405 EAST SANTA CLARA ST,"SAN JOSE, CA 95113",http://maps.google.com/maps?q=MEDEX%20DRUGS%2C401-405%20EAST%20SANTA%20CLARA%20ST%2C+SAN%20JOSE%2C+CA+95113,
MEDICAL PAVILION PHARMACY,9460 NO NAME UNO #100,"GILROY, CA 95020",http://maps.google.com/maps?q=MEDICAL%20PAVILION%20PHARMACY%2C9460%20NO%20NAME%20UNO%20#100%2C+GILROY%2C+CA+95020,
MIDTOWN PHARMACY PROFESSIONAL CORPORATION,2173 HARBOR BAY PARKWAY,"ALAMEDA, CA 94502",http://maps.google.com/maps?q=MIDTOWN%20PHARMACY%20PROFESSIONAL%20CORPORATION%2C2173%20HARBOR%20BAY%20PARKWAY%2C+ALAMEDA%2C+CA+94502,
MISSION PHARMACY,22138 MISSION BLVD,"HAYWARD, CA 94541",http://maps.google.com/maps?q=MISSION%20PHARMACY%2C22138%20MISSION%20BLVD%2C+HAYWARD%2C+CA+94541,
"MISSION WELLNESS HEALTHCARE, LLC",2424 MISSION STREET,"SAN FRANCISCO, CA 94110",http://maps.google.com/maps?q=MISSION%20WELLNESS%20HEALTHCARE%20LLC%2C2424%20MISSION%20STREET%2C+SAN%20FRANCISCO%2C+CA+94110,
MOWRY MEDICAL PHARMACY,1999 MOWRY AVENUE,SUITE #2A,"FREMONT, CA 94538",http://maps.google.com/maps?q=MOWRY%20MEDICAL%20PHARMACY%2C1999%20MOWRY%20AVENUE%2C+FREMONT%2C+CA+94538
NEMS - CLEMENT PHARMACY,1019 CLEMENT ST,"SAN FRANCISCO, CA 94118",http://maps.google.com/maps?q=NEMS%20%20CLEMENT%20PHARMACY%2C1019%20CLEMENT%20ST%2C+SAN%20FRANCISCO%2C+CA+94118,
NEMS- EASTMOOR PHARMACY,211 EASTMOOR AVE,"DALY CITY, CA 94015",http://maps.google.com/maps?q=NEMS%20EASTMOOR%20PHARMACY%2C211%20EASTMOOR%20AVE%2C+DALY%20CITY%2C+CA+94015,
NEMS- LUNDY PHARMACY,1870 LUNDY AVE,"SAN JOSE, CA 95131",http://maps.google.com/maps?q=NEMS%20LUNDY%20PHARMACY%2C1870%20LUNDY%20AVE%2C+SAN%20JOSE%2C+CA+95131,
NEMS-NORIEGA PHARMACY,1400 NORIEGA ST,"SAN FRANCISCO, CA 94122",http://maps.google.com/maps?q=NEMSNORIEGA%20PHARMACY%2C1400%20NORIEGA%20ST%2C+SAN%20FRANCISCO%2C+CA+94122,
NEMS-SAN BRUNO PHARMACY,2574 SAN BRUNO AVE,"SAN FRANCISCO, CA 94134",http://maps.google.com/maps?q=NEMSSAN%20BRUNO%20PHARMACY%2C2574%20SAN%20BRUNO%20AVE%2C+SAN%20FRANCISCO%2C+CA+94134,
NEW OAKLAND PHARMACY - LAKE MERRITT,250 E18TH ST,3RD FLOOR,"OAKLAND, CA 94606",http://maps.google.com/maps?q=NEW%20OAKLAND%20PHARMACY%20%20LAKE%20MERRITT%2C250%20E18TH%20ST%2C+OAKLAND%2C+CA+94606
NEW OAKLAND PHARMACY_#1,333 9TH ST,"OAKLAND, CA 94607",http://maps.google.com/maps?q=NEW%20OAKLAND%20PHARMACY%2C333%209TH%20ST%2C+OAKLAND%2C+CA+94607,
NEWARK HALLER'S PHARMACY,6170 THORNTON AVE SUITE E,"NEWARK, CA 94560",http://maps.google.com/maps?q=NEWARK%20HALLERS%20PHARMACY%2C6170%20THORNTON%20AVE%20SUITE%20E%2C+NEWARK%2C+CA+94560,
"NOR-CAL PHARMACIES, INC",14090 E. HIGHWAY 88,"LOCKEFORD, CA 95237",http://maps.google.com/maps?q=NORCAL%20PHARMACIES%20INC%2C14090%20E.%20HIGHWAY%2088%2C+LOCKEFORD%2C+CA+95237,
NORTH EAST MEDICAL SERVICES,1520 STOCKTON STREET,"SAN FRANCISCO, CA 94133",http://maps.google.com/maps?q=NORTH%20EAST%20MEDICAL%20SERVICES%2C1520%20STOCKTON%20STREET%2C+SAN%20FRANCISCO%2C+CA+94133,
OAKLAND PHARMACY INC.,388 - 9TH STREET,#108,"OAKLAND, CA 94607",http://maps.google.com/maps?q=OAKLAND%20PHARMACY%20INC%2C388%20-%209TH%20STREET%2C+OAKLAND%2C+CA+94607
"OMEGAMARG PHARMACY, INC",121 TUNSTEAD AVENUE,"SAN ANSELMO, CA 94960",http://maps.google.com/maps?q=OMEGAMARG%20PHARMACY%20INC%2C121%20TUNSTEAD%20AVENUE%2C+SAN%20ANSELMO%2C+CA+94960,
ONE COMMUNITY HEALTH PHARMACY,1500 21ST ST BLDG B STE 1-036,"SACRAMENTO, CA 95811",http://maps.google.com/maps?q=ONE%20COMMUNITY%20HEALTH%20PHARMACY%2C1500%2021ST%20ST%20BLDG%20B%20STE%201-036%2C+SACRAMENTO%2C+CA+95811,
ONESOURCE COMPOUNDING PHARMACY,104 WHISPERING PINES DRIVE SUITE 105,"SCOTTS VALLEY, CA 95066",http://maps.google.com/maps?q=ONESOURCE%20COMPOUNDING%20PHARMACY%2C104%20WHISPERING%20PINES%20DRIVE%20SUITE%20105%2C+SCOTTS%20VALLEY%2C+CA+95066,
ORCHARD HOSPITAL,POST OFFICE BOX 97,240 SPRUCE ST,"GRIDLEY, CA 95948",http://maps.google.com/maps?q=ORCHARD%20HOSPITAL%2CPOST%20OFFICE%20BOX%2097%2C+GRIDLEY%2C+CA+95948
OWENS PHARMACY  #3,2975 EAST ST,"ANDERSON, CA 96007",http://maps.google.com/maps?q=OWENS%20PHARMACY%2C2975%20EAST%20ST%2C+ANDERSON%2C+CA+96007,
OWENS PHARMACY #18,"50 NUGGET LANE, STE C",PO BOX 1880,"WEAVERVILLE, CA 96093",http://maps.google.com/maps?q=OWENS%20PHARMACY%2C50%20NUGGET%20LANE%2C%20STE%20C%2C+WEAVERVILLE%2C+CA+96093
PALCO PHARMACY,SUITE D,PO BOX 157,"SCOTIA, CA 95565",http://maps.google.com/maps?q=PALCO%20PHARMACY%2CSUITE%20D%2C+SCOTIA%2C+CA+95565
POST DIVISADERO MEDICAL PHCY,2299 POST STREET,SUITE 109,"SAN FRANCISCO, CA 94115",http://maps.google.com/maps?q=POST%20DIVISADERO%20MEDICAL%20PHCY%2C2299%20POST%20STREET%2C+SAN%20FRANCISCO%2C+CA+94115
PUCCI'S PHARMACY,2821 J STREET,"SACRAMENTO, CA 95816",http://maps.google.com/maps?q=PUCCIS%20PHARMACY%2C2821%20J%20STREET%2C+SACRAMENTO%2C+CA+95816,
REDWOOD MEMORIAL HOSPITAL,3300 RENNER DRIVE,"FORTUNA, CA 95540",http://maps.google.com/maps?q=REDWOOD%20MEMORIAL%20HOSPITAL%2C3300%20RENNER%20DRIVE%2C+FORTUNA%2C+CA+95540,
"RELIABLE REXALL SUNSET PHARMACY, INC",801 IRVING STREET,"SAN FRANCISCO, CA 94122",http://maps.google.com/maps?q=RELIABLE%20REXALL%20SUNSET%20PHARMACY%20INC%2C801%20IRVING%20STREET%2C+SAN%20FRANCISCO%2C+CA+94122,
RINGS PHARMACY,362 MAIN STREET,PO BOX 577,"FERNDALE, CA 95536",http://maps.google.com/maps?q=RINGS%20PHARMACY%2C362%20MAIN%20STREET%2C+FERNDALE%2C+CA+95536
RIVER OAK PHARMACY,1080 W F ST STE D,"OAKDALE, CA 95361",http://maps.google.com/maps?q=RIVER%20OAK%20PHARMACY%2C1080%20W%20F%20ST%20STE%20D%2C+OAKDALE%2C+CA+95361,
ROBINSON'S PHARMACY,359 MAIN STREET,"PLACERVILLE, CA 95667",http://maps.google.com/maps?q=ROBINSONS%20PHARMACY%2C359%20MAIN%20STREET%2C+PLACERVILLE%2C+CA+95667,
RODERICK PHARMACY GROUP INC,DBA RX EXPRESS PHARMACY,711 E MARKET STREET,"STOCKTON, CA 95202",http://maps.google.com/maps?q=RODERICK%20PHARMACY%20GROUP%20INC%2CDBA%20RX%20EXPRESS%20PHARMACY%2C+STOCKTON%2C+CA+95202
ROMIE LANE PHARMACY INC DBA STAR PHARMACY,1273 SOUTH MAIN STREET,"SALINAS, CA 93901",http://maps.google.com/maps?q=ROMIE%20LANE%20PHARMACY%20INC%20DBA%20STAR%20PHARMACY%2C1273%20SOUTH%20MAIN%20STREET%2C+SALINAS%2C+CA+93901,
"SACRAMENTO STATE, STUDENT HEALTH SERVICES PHARMACY",THE WELL 6000 J STREET 1ST FL,"SACRAMENTO, CA 95819",http://maps.google.com/maps?q=SACRAMENTO%20STATE%20STUDENT%20HEALTH%20SERVICES%20PHARMACY%2CTHE%20WELL%206000%20J%20STREET%201ST%20FL%2C+SACRAMENTO%2C+CA+95819,
SAN JOAQUIN DRUG,9215 EAST HIGHWAY 140,P.O. BOX 1636,"PLANADA, CA 95365",http://maps.google.com/maps?q=SAN%20JOAQUIN%20DRUG%2C9215%20EAST%20HIGHWAY%20140%2C+PLANADA%2C+CA+95365
SAN JOSE STATE UNIV PHARMACY,STUDENT HEALTH SERVICES,1 WASHINGTON SQUARE,"SAN JOSE, CA 95192",http://maps.google.com/maps?q=SAN%20JOSE%20STATE%20UNIV%20PHARMACY%2CSTUDENT%20HEALTH%20SERVICES%2C+SAN%20JOSE%2C+CA+95192
SAN LEANDRO HOSPITAL,13855 E 14TH STREET,"SAN LEANDRO, CA 94578",http://maps.google.com/maps?q=SAN%20LEANDRO%20HOSPITAL%2C13855%20E%2014TH%20STREET%2C+SAN%20LEANDRO%2C+CA+94578,
SAN MATEO MEDICAL CENTER,222 W. 39TH AVE,"SAN MATEO, CA 94403",http://maps.google.com/maps?q=SAN%20MATEO%20MEDICAL%20CENTER%2C222%20W.%2039TH%20AVE%2C+SAN%20MATEO%2C+CA+94403,
SAN MATEO NEIGHBORHOOD PHARMACY,9 37TH AVENUE,"SAN MATEO, CA 94403",http://maps.google.com/maps?q=SAN%20MATEO%20NEIGHBORHOOD%20PHARMACY%2C9%2037TH%20AVENUE%2C+SAN%20MATEO%2C+CA+94403,
SAVCO PHARMACY,455 OCONNOR DR,SUITE 190,"SAN JOSE, CA 95128",http://maps.google.com/maps?q=SAVCO%20PHARMACY%2C455%20OCONNOR%20DR%2C+SAN%20JOSE%2C+CA+95128
SCRIPTDASH INC.,1400 TENNESSEE STREET UNIT 2,"SAN FRANCISCO, CA 94107",http://maps.google.com/maps?q=SCRIPTDASH%20INC%2C1400%20TENNESSEE%20STREET%20UNIT%202%2C+SAN%20FRANCISCO%2C+CA+94107,
SENTER PHARMACY INC.,2643-A SENTER ROAD,STE A,"SAN JOSE, CA 95111",http://maps.google.com/maps?q=SENTER%20PHARMACY%20INC%2C2643-A%20SENTER%20ROAD%2C+SAN%20JOSE%2C+CA+95111
SF GENERAL HOSPITAL MED CEN,DEPT OF PHARMACY ROOM 1P2,1001 POTRERO AVE,"SAN FRANCISCO, CA 94110",http://maps.google.com/maps?q=SF%20GENERAL%20HOSPITAL%20MED%20CEN%2CDEPT%20OF%20PHARMACY%20ROOM%201P2%2C+SAN%20FRANCISCO%2C+CA+94110
SHINGLE SPRINGS HEALTH AND WELLNESS CENTER,5168 HONPIE RD,"PLACERVILLE, CA 95667",http://maps.google.com/maps?q=SHINGLE%20SPRINGS%20HEALTH%20AND%20WELLNESS%20CENTER%2C5168%20HONPIE%20RD%2C+PLACERVILLE%2C+CA+95667,
SORCI HEALTHCARE PHARMACY,15714 LOS GATOS BLVD STE A,"LOS GATOS, CA 95032",http://maps.google.com/maps?q=SORCI%20HEALTHCARE%20PHARMACY%2C15714%20LOS%20GATOS%20BLVD%20STE%20A%2C+LOS%20GATOS%2C+CA+95032,
SOUTH VALLEY PHARMACY SERVICES,7496 EIGLEBERRY ST.,"GILROY, CA 95020",http://maps.google.com/maps?q=SOUTH%20VALLEY%20PHARMACY%20SERVICES%2C7496%20EIGLEBERRY%20ST.%2C+GILROY%2C+CA+95020,
STANFORD EMERYVILLE HEALTH CENTER PHARMACY,"5800 HOLLIS STREET, ROOM 2325","EMERYVILLE, CA 94608",http://maps.google.com/maps?q=STANFORD%20EMERYVILLE%20HEALTH%20CENTER%20PHARMACY%2C5800%20HOLLIS%20STREET%2C%20ROOM%202325%2C+EMERYVILLE%2C+CA+94608,
STANFORD HEALTH CARE PHARMACY,875 BLAKE WILBUR DR STE CC1102,"PALO ALTO, CA 94305",http://maps.google.com/maps?q=STANFORD%20HEALTH%20CARE%20PHARMACY%2C875%20BLAKE%20WILBUR%20DR%20STE%20CC1102%2C+PALO%20ALTO%2C+CA+94305,
STUDENT HLTH CENTER PHARMACY,SONOMA STATE UNIVERSITY,1801 EAST COTATI AVENUE,"ROHNERT PARK, CA 94928",http://maps.google.com/maps?q=STUDENT%20HLTH%20CENTER%20PHARMACY%2CSONOMA%20STATE%20UNIVERSITY%2C+ROHNERT%20PARK%2C+CA+94928
STUDENT HLTH SERVICE PHARMACY,SAN FRANCISCO STATE UNIVERSITY,1600 HOLLOWAY AVE,"SAN FRANCISCO, CA 94132",http://maps.google.com/maps?q=STUDENT%20HLTH%20SERVICE%20PHARMACY%2CSAN%20FRANCISCO%20STATE%20UNIVERSITY%2C+SAN%20FRANCISCO%2C+CA+94132
SUN PHARMACY,2559 S. KING ROAD STE B10,"SAN JOSE, CA 95122",http://maps.google.com/maps?q=SUN%20PHARMACY%2C2559%20S.%20KING%20ROAD%20STE%20B10%2C+SAN%20JOSE%2C+CA+95122,
SUNSHINE CENTER PHARMACY,1166 OLD MISSION ROAD,"SOUTH SAN FRANCISCO, CA 94080",http://maps.google.com/maps?q=SUNSHINE%20CENTER%20PHARMACY%2C1166%20OLD%20MISSION%20ROAD%2C+SOUTH%20SAN%20FRANCISCO%2C+CA+94080,
TEDS DRUGS,27453 HESPERIAN BLVD.,"HAYWARD, CA 94545",http://maps.google.com/maps?q=TEDS%20DRUGS%2C27453%20HESPERIAN%20BLVD.%2C+HAYWARD%2C+CA+94545,
TENNYSON PHARMACY,589 WEST TENNYSON ROAD,"HAYWARD, CA 94544",http://maps.google.com/maps?q=TENNYSON%20PHARMACY%2C589%20WEST%20TENNYSON%20ROAD%2C+HAYWARD%2C+CA+94544,
TIFFANY THU INC DBA KING PHARMACY & DME,2323 MONTPELIER DR STE D,"SAN JOSE, CA 95116",http://maps.google.com/maps?q=TIFFANY%20THU%20INC%20DBA%20KING%20PHARMACY%20%20DME%2C2323%20MONTPELIER%20DR%20STE%20D%2C+SAN%20JOSE%2C+CA+95116,
"TT PHARMACY, INC",1863 ALUM ROCK AVE STE A,"SAN JOSE, CA 95116",http://maps.google.com/maps?q=TT%20PHARMACY%20INC%2C1863%20ALUM%20ROCK%20AVE%20STE%20A%2C+SAN%20JOSE%2C+CA+95116,
TWAIN HARTE PHARMACY,18711 TIFFENI DR,#45 & #47,"TWAIN HARTE, CA 95383",http://maps.google.com/maps?q=TWAIN%20HARTE%20PHARMACY%2C18711%20TIFFENI%20DR%2C+TWAIN%20HARTE%2C+CA+95383
UNITED INDIAN HEALTH SERVICES,1600 WEEOT WAY,"ARCATA, CA 95521",http://maps.google.com/maps?q=UNITED%20INDIAN%20HEALTH%20SERVICES%2C1600%20WEEOT%20WAY%2C+ARCATA%2C+CA+95521,
UNITED PHARMACY,2929 TELEGRAPH AVENUE,"BERKELEY, CA 94705",http://maps.google.com/maps?q=UNITED%20PHARMACY%2C2929%20TELEGRAPH%20AVENUE%2C+BERKELEY%2C+CA+94705,
UNIV OF CAL,"TANG CENTER, 2222 BANCROFT WAY",ROOM 1115,"BERKELEY, CA 94720",http://maps.google.com/maps?q=UNIV%20OF%20CAL%2CTANG%20CENTER%2C%202222%20BANCROFT%20WAY%2C+BERKELEY%2C+CA+94720
US ARMY- PRESIDIO HEALTH CLINIC,473 CABRILLO ST STE A1A,"MONTEREY, CA 93944",http://maps.google.com/maps?q=US%20ARMY%20PRESIDIO%20HEALTH%20CLINIC%2C473%20CABRILLO%20ST%20STE%20A1A%2C+MONTEREY%2C+CA+93944,
USAF- DAVID GRANT MEDICAL CENTER,BLDG 777 1ST FLOOR WEST WING,101 BODIN CIRCLE,"TRAVIS AFB, CA 94535",http://maps.google.com/maps?q=USAF%20DAVID%20GRANT%20MEDICAL%20CENTER%2CBLDG%20777%201ST%20FLOOR%20WEST%20WING%2C+TRAVIS%20AFB%2C+CA+94535
USAF-BASE EXCHANGE PHARMACY,461 SKYMASTER CIRCLE,"BLDG 650, ROOM 149","TRAVIS AFB, CA 94535",http://maps.google.com/maps?q=USAFBASE%20EXCHANGE%20PHARMACY%2C461%20SKYMASTER%20CIRCLE%2C+TRAVIS%20AFB%2C+CA+94535
VASCONI DRUGS,1381 MAIN ST,"SAINT HELENA, CA 94574",http://maps.google.com/maps?q=VASCONI%20DRUGS%2C1381%20MAIN%20ST%2C+SAINT%20HELENA%2C+CA+94574,
VET ADMINISTRATION,2221 MARTIN LUTHER KING JR WAY,PHARMACY SERVICE,"OAKLAND, CA 94612",http://maps.google.com/maps?q=VET%20ADMINISTRATION%2C2221%20MARTIN%20LUTHER%20KING%20JR%20WAY%2C+OAKLAND%2C+CA+94612
VISITACION VALLEY PHARMACY,100 LELAND AVE,"SAN FRANCISCO, CA 94134",http://maps.google.com/maps?q=VISITACION%20VALLEY%20PHARMACY%2C100%20LELAND%20AVE%2C+SAN%20FRANCISCO%2C+CA+94134,
VITACARE PHARMACY,2447 TELEGRAPH AVE,"OAKLAND, CA 94612",http://maps.google.com/maps?q=VITACARE%20PHARMACY%2C2447%20TELEGRAPH%20AVE%2C+OAKLAND%2C+CA+94612,
WALGREEN CO,45 S EL CAMINO REAL,"MILLBRAE, CA 94030",http://maps.google.com/maps?q=WALGREEN%20CO%2C45%20S%20EL%20CAMINO%20REAL%2C+MILLBRAE%2C+CA+94030,
WALGREEN CO,787 L ST,"CRESCENT CITY, CA 95531",http://maps.google.com/maps?q=WALGREEN%20CO%2C787%20L%20ST%2C+CRESCENT%20CITY%2C+CA+95531,
WALGREEN CO.,1016 W SHAW AVE,"FRESNO, CA 93711",http://maps.google.com/maps?q=WALGREEN%20CO%2C1016%20W%20SHAW%20AVE%2C+FRESNO%2C+CA+93711,
WALGREEN CO.,1050 REDWOOD STREET,"VALLEJO, CA 94590",http://maps.google.com/maps?q=WALGREEN%20CO%2C1050%20REDWOOD%20STREET%2C+VALLEJO%2C+CA+94590,
WALGREEN CO.,1055 FREMONT BLVD,"SEASIDE, CA 93955",http://maps.google.com/maps?q=WALGREEN%20CO%2C1055%20FREMONT%20BLVD%2C+SEASIDE%2C+CA+93955,
WALGREEN CO.,111 UNION AVE,"GRANTS PASS, OR 97527",http://maps.google.com/maps?q=WALGREEN%20CO%2C111%20UNION%20AVE%2C+GRANTS%20PASS%2C+OR+97527,
WALGREEN CO.,11565 SAN PABLO AVE,"EL CERRITO, CA 94530",http://maps.google.com/maps?q=WALGREEN%20CO%2C11565%20SAN%20PABLO%20AVE%2C+EL%20CERRITO%2C+CA+94530,
WALGREEN CO.,1189 POTRERO AVE,"SAN FRANCISCO, CA 94110",http://maps.google.com/maps?q=WALGREEN%20CO%2C1189%20POTRERO%20AVE%2C+SAN%20FRANCISCO%2C+CA+94110,
WALGREEN CO.,121 E EL CAMINO REAL,"MOUNTAIN VIEW, CA 94040",http://maps.google.com/maps?q=WALGREEN%20CO%2C121%20E%20EL%20CAMINO%20REAL%2C+MOUNTAIN%20VIEW%2C+CA+94040,
WALGREEN CO.,12120 NEW AIRPORT RD,"AUBURN, CA 95603",http://maps.google.com/maps?q=WALGREEN%20CO%2C12120%20NEW%20AIRPORT%20RD%2C+AUBURN%2C+CA+95603,
WALGREEN CO.,1351 W CAPITOL AVE,"WEST SACRAMENTO, CA 95691",http://maps.google.com/maps?q=WALGREEN%20CO%2C1351%20W%20CAPITOL%20AVE%2C+WEST%20SACRAMENTO%2C+CA+95691,
WALGREEN CO.,1424 BROADWAY STREET,"EUREKA, CA 95501",http://maps.google.com/maps?q=WALGREEN%20CO%2C1424%20BROADWAY%20STREET%2C+EUREKA%2C+CA+95501,
WALGREEN CO.,15500 WASHINGTON AVE,"SAN LEANDRO, CA 94579",http://maps.google.com/maps?q=WALGREEN%20CO%2C15500%20WASHINGTON%20AVE%2C+SAN%20LEANDRO%2C+CA+94579,
WALGREEN CO.,1591 GEER ROAD,"TURLOCK, CA 95380",http://maps.google.com/maps?q=WALGREEN%20CO%2C1591%20GEER%20ROAD%2C+TURLOCK%2C+CA+95380,
WALGREEN CO.,1718 SOQUEL AVENUE,"SANTA CRUZ, CA 95062",http://maps.google.com/maps?q=WALGREEN%20CO%2C1718%20SOQUEL%20AVENUE%2C+SANTA%20CRUZ%2C+CA+95062,
WALGREEN CO.,1810 FREEDOM BLVD,"FREEDOM, CA 95019",http://maps.google.com/maps?q=WALGREEN%20CO%2C1810%20FREEDOM%20BLVD%2C+FREEDOM%2C+CA+95019,
WALGREEN CO.,201 FRONT ST.,"SANTA CRUZ, CA 95060",http://maps.google.com/maps?q=WALGREEN%20CO%2C201%20FRONT%20ST.%2C+SANTA%20CRUZ%2C+CA+95060,
WALGREEN CO.,205 W SHAW AVENUE,"CLOVIS, CA 93612",http://maps.google.com/maps?q=WALGREEN%20CO%2C205%20W%20SHAW%20AVENUE%2C+CLOVIS%2C+CA+93612,
WALGREEN CO.,210 MT HERMON RD,"SCOTTS VALLEY, CA 95066",http://maps.google.com/maps?q=WALGREEN%20CO%2C210%20MT%20HERMON%20RD%2C+SCOTTS%20VALLEY%2C+CA+95066,
WALGREEN CO.,2201 ARDEN WAY,"SACRAMENTO, CA 95825",http://maps.google.com/maps?q=WALGREEN%20CO%2C2201%20ARDEN%20WAY%2C+SACRAMENTO%2C+CA+95825,
WALGREEN CO.,226 RESERVATION RD.,"MARINA, CA 93933",http://maps.google.com/maps?q=WALGREEN%20CO%2C226%20RESERVATION%20RD.%2C+MARINA%2C+CA+93933,
WALGREEN CO.,2300 OTIS DRIVE,"ALAMEDA, CA 94501",http://maps.google.com/maps?q=WALGREEN%20CO%2C2300%20OTIS%20DRIVE%2C+ALAMEDA%2C+CA+94501,
WALGREEN CO.,260 EL CAMINO REAL,"BURLINGAME, CA 94010",http://maps.google.com/maps?q=WALGREEN%20CO%2C260%20EL%20CAMINO%20REAL%2C+BURLINGAME%2C+CA+94010,
WALGREEN CO.,275 SACRAMENTO ST,"SAN FRANCISCO, CA 94111",http://maps.google.com/maps?q=WALGREEN%20CO%2C275%20SACRAMENTO%20ST%2C+SAN%20FRANCISCO%2C+CA+94111,
WALGREEN CO.,2900 N MAIN ST,"WALNUT CREEK, CA 94597",http://maps.google.com/maps?q=WALGREEN%20CO%2C2900%20N%20MAIN%20ST%2C+WALNUT%20CREEK%2C+CA+94597,
WALGREEN CO.,300 UNIVERSITY AVE,"PALO ALTO, CA 94301",http://maps.google.com/maps?q=WALGREEN%20CO%2C300%20UNIVERSITY%20AVE%2C+PALO%20ALTO%2C+CA+94301,
WALGREEN CO.,3201 DIVISADERO ST,"SAN FRANCISCO, CA 94123",http://maps.google.com/maps?q=WALGREEN%20CO%2C3201%20DIVISADERO%20ST%2C+SAN%20FRANCISCO%2C+CA+94123,
WALGREEN CO.,3416 DEER VALLEY RD.,"ANTIOCH, CA 94531",http://maps.google.com/maps?q=WALGREEN%20CO%2C3416%20DEER%20VALLEY%20RD.%2C+ANTIOCH%2C+CA+94531,
WALGREEN CO.,350 N CAPITOL AVE,"SAN JOSE, CA 95133",http://maps.google.com/maps?q=WALGREEN%20CO%2C350%20N%20CAPITOL%20AVE%2C+SAN%20JOSE%2C+CA+95133,
WALGREEN CO.,399 EL CAMINO REAL,"SOUTH SAN FRANCISCO, CA 94080",http://maps.google.com/maps?q=WALGREEN%20CO%2C399%20EL%20CAMINO%20REAL%2C+SOUTH%20SAN%20FRANCISCO%2C+CA+94080,
WALGREEN CO.,4070 S EL CAMINO REAL,"SAN MATEO, CA 94403",http://maps.google.com/maps?q=WALGREEN%20CO%2C4070%20S%20EL%20CAMINO%20REAL%2C+SAN%20MATEO%2C+CA+94403,
WALGREEN CO.,423 N SANTA CRUZ AVE,"LOS GATOS, CA 95030",http://maps.google.com/maps?q=WALGREEN%20CO%2C423%20N%20SANTA%20CRUZ%20AVE%2C+LOS%20GATOS%2C+CA+95030,
WALGREEN CO.,4610 SONOMA HWY,"SANTA ROSA, CA 95409",http://maps.google.com/maps?q=WALGREEN%20CO%2C4610%20SONOMA%20HWY%2C+SANTA%20ROSA%2C+CA+95409,
WALGREEN CO.,498 CASTRO ST,"SAN FRANCISCO, CA 94114",http://maps.google.com/maps?q=WALGREEN%20CO%2C498%20CASTRO%20ST%2C+SAN%20FRANCISCO%2C+CA+94114,
WALGREEN CO.,500 PARNASSUS AVENUE,"LEVEL J, ROOM MU-145","SAN FRANCISCO, CA 94143",http://maps.google.com/maps?q=WALGREEN%20CO%2C500%20PARNASSUS%20AVENUE%2C+SAN%20FRANCISCO%2C+CA+94143
WALGREEN CO.,5280 GEARY BLVD,"SAN FRANCISCO, CA 94118",http://maps.google.com/maps?q=WALGREEN%20CO%2C5280%20GEARY%20BLVD%2C+SAN%20FRANCISCO%2C+CA+94118,
WALGREEN CO.,600 TRES PINOS RD,"HOLLISTER, CA 95023",http://maps.google.com/maps?q=WALGREEN%20CO%2C600%20TRES%20PINOS%20RD%2C+HOLLISTER%2C+CA+95023,
WALGREEN CO.,6144 DEWEY DRIVE,"CITRUS HEIGHTS, CA 95621",http://maps.google.com/maps?q=WALGREEN%20CO%2C6144%20DEWEY%20DRIVE%2C+CITRUS%20HEIGHTS%2C+CA+95621,
WALGREEN CO.,626 S CLOVIS AVE,"FRESNO, CA 93727",http://maps.google.com/maps?q=WALGREEN%20CO%2C626%20S%20CLOVIS%20AVE%2C+FRESNO%2C+CA+93727,
WALGREEN CO.,7299 LAGUNA BLVD,"ELK GROVE, CA 95758",http://maps.google.com/maps?q=WALGREEN%20CO%2C7299%20LAGUNA%20BLVD%2C+ELK%20GROVE%2C+CA+95758,
WALGREEN CO.,75 NORTH HAM LANE,"LODI, CA 95242",http://maps.google.com/maps?q=WALGREEN%20CO%2C75%20NORTH%20HAM%20LANE%2C+LODI%2C+CA+95242,
WALGREEN CO.,770 1ST ST,"GILROY, CA 95020",http://maps.google.com/maps?q=WALGREEN%20CO%2C770%201ST%20ST%2C+GILROY%2C+CA+95020,
WALGREEN CO.,855 COLUSA AVE,"YUBA CITY, CA 95991",http://maps.google.com/maps?q=WALGREEN%20CO%2C855%20COLUSA%20AVE%2C+YUBA%20CITY%2C+CA+95991,
WALGREEN CO.,860 EAST AVENUE,"CHICO, CA 95926",http://maps.google.com/maps?q=WALGREEN%20CO%2C860%20EAST%20AVENUE%2C+CHICO%2C+CA+95926,
WASHINGTON HOSPITAL PHARMACY,2000 MOWRY AVE,"FREMONT, CA 94538",http://maps.google.com/maps?q=WASHINGTON%20HOSPITAL%20PHARMACY%2C2000%20MOWRY%20AVE%2C+FREMONT%2C+CA+94538,
WASHOE BARTON MEDICAL CLINIC,1107 US HIGHWAY 395 N,"GARDNERVILLE, NV 89410",http://maps.google.com/maps?q=WASHOE%20BARTON%20MEDICAL%20CLINIC%2C1107%20US%20HIGHWAY%20395%20N%2C+GARDNERVILLE%2C+NV+89410,
WATSONVILLE PHARMACY,1433 FREEDOM BLVD,"WATSONVILLE, CA 95076",http://maps.google.com/maps?q=WATSONVILLE%20PHARMACY%2C1433%20FREEDOM%20BLVD%2C+WATSONVILLE%2C+CA+95076,
WELL-CARE PHARMACY,"3645 NORTHGATE BLVD, STE F","SACRAMENTO, CA 95834",http://maps.google.com/maps?q=WELLCARE%20PHARMACY%2C3645%20NORTHGATE%20BLVD%2C%20STE%20F%2C+SACRAMENTO%2C+CA+95834,
WELLNESS PHARMACY,14777 LOS GATOS BLVD #101,"LOS GATOS, CA 95032",http://maps.google.com/maps?q=WELLNESS%20PHARMACY%2C14777%20LOS%20GATOS%20BLVD%20#101%2C+LOS%20GATOS%2C+CA+95032,
WELLSPRING PHARMACY,4184 PIEDMONT AVE STE C,"OAKLAND, CA 94611",http://maps.google.com/maps?q=WELLSPRING%20PHARMACY%2C4184%20PIEDMONT%20AVE%20STE%20C%2C+OAKLAND%2C+CA+94611,
WILLOW CREEK PHARMACY,39050 HIGHWAY 299,"WILLOW CREEK, CA 95573",http://maps.google.com/maps?q=WILLOW%20CREEK%20PHARMACY%2C39050%20HIGHWAY%20299%2C+WILLOW%20CREEK%2C+CA+95573,
ROGUE COMMUNITY HEALTH PHARMACY,19 MYRTLE ST,"MEDFORD, OR 97504",http://maps.google.com/maps?q=ROGUE%20COMMUNITY%20HEALTH%20PHARMACY%2C19%20MYRTLE%20ST%2C+MEDFORD%2C+OR+97504,
