Business Name,Address 1,Address 2,"City, State Zip",Map URL
"ARKANSAS CVS PHARMACY, L.L.C.",110 SOUTHWEST DRIVE,"JONESBORO, AR 72401",http://maps.google.com/maps?q=ARKANSAS%20CVS%20PHARMACY%20LLC%2C110%20SOUTHWEST%20DRIVE%2C+JONESBORO%2C+AR+72401,
ATCHISON HOSPITAL ASSOCIATION,800 RAVEN HILL DRIVE,"ATCHISON, KS 66002",http://maps.google.com/maps?q=ATCHISON%20HOSPITAL%20ASSOCIATION%2C800%20RAVEN%20HILL%20DRIVE%2C+ATCHISON%2C+KS+66002,
AUBURN PHARMACY INC,1011 BAPTISTE DRIVE,"PAOLA, KS 66071",http://maps.google.com/maps?q=AUBURN%20PHARMACY%20INC%2C1011%20BAPTISTE%20DRIVE%2C+PAOLA%2C+KS+66071,
BAPTIST HEALTH RETAIL-PADUCAH,2601 KENTUCKY AVE,"MEDICAL PARK 1, SUITE 101","PADUCAH, KY 42003",http://maps.google.com/maps?q=BAPTIST%20HEALTH%20RETAILPADUCAH%2C2601%20KENTUCKY%20AVE%2C+PADUCAH%2C+KY+42003
"BOND DRUG COMPANY OF ILLINOIS, L.L.C.",206 S. WALL ST.,"CARBONDALE, IL 62901",http://maps.google.com/maps?q=BOND%20DRUG%20COMPANY%20OF%20ILLINOIS%20LLC%2C206%20S.%20WALL%20ST.%2C+CARBONDALE%2C+IL+62901,
"BOND DRUG COMPANY OF ILLINOIS, L.L.C.",401 BELTLINE,"COLLINSVILLE, IL 62234",http://maps.google.com/maps?q=BOND%20DRUG%20COMPANY%20OF%20ILLINOIS%20LLC%2C401%20BELTLINE%2C+COLLINSVILLE%2C+IL+62234,
"BOND DRUG COMPANY OF ILLINOIS, L.L.C.",5890 NORTH BELT WEST,"BELLEVILLE, IL 62226",http://maps.google.com/maps?q=BOND%20DRUG%20COMPANY%20OF%20ILLINOIS%20LLC%2C5890%20NORTH%20BELT%20WEST%2C+BELLEVILLE%2C+IL+62226,
COMMUNITY MEDICAL CENTER INC,3307 BARADA ST,PO BOX 399,"FALLS CITY, NE 68355",http://maps.google.com/maps?q=COMMUNITY%20MEDICAL%20CENTER%20INC%2C3307%20BARADA%20ST%2C+FALLS%20CITY%2C+NE+68355
COPPER BEND PHARMACY INC,2900 FRANK SCOTT PARKWAY WEST,SUITE 920-B,"BELLEVILLE, IL 62223",http://maps.google.com/maps?q=COPPER%20BEND%20PHARMACY%20INC%2C2900%20FRANK%20SCOTT%20PARKWAY%20WEST%2C+BELLEVILLE%2C+IL+62223
DAUBER PHARMACY,16 EAST MAIN ST,"MASCOUTAH, IL 62258",http://maps.google.com/maps?q=DAUBER%20PHARMACY%2C16%20EAST%20MAIN%20ST%2C+MASCOUTAH%2C+IL+62258,
DBA NUCARA PHARMACY #16,107 W MAIN ST,NUDAK VENTURES LLC,"OTTUMWA, IA 52501",http://maps.google.com/maps?q=DBA%20NUCARA%20PHARMACY%2C107%20W%20MAIN%20ST%2C+OTTUMWA%2C+IA+52501
DOEHRINGS PHARMACY,143 S WASHINGTON ST,"NASHVILLE, IL 62263",http://maps.google.com/maps?q=DOEHRINGS%20PHARMACY%2C143%20S%20WASHINGTON%20ST%2C+NASHVILLE%2C+IL+62263,
FUTRELL PHARMACY,115 E BROADWAY,"POCAHONTAS, AR 72455",http://maps.google.com/maps?q=FUTRELL%20PHARMACY%2C115%20E%20BROADWAY%2C+POCAHONTAS%2C+AR+72455,
GREAT RIVER MEDICAL CENTER,1520 N. DIVISION,PO BOX 108,"BLYTHEVILLE, AR 72315",http://maps.google.com/maps?q=GREAT%20RIVER%20MEDICAL%20CENTER%2C1520%20N.%20DIVISION%2C+BLYTHEVILLE%2C+AR+72315
HASKELL HEALTH CTR,2415 MASSACHUSETTS,"LAWRENCE, KS 66046",http://maps.google.com/maps?q=HASKELL%20HEALTH%20CTR%2C2415%20MASSACHUSETTS%2C+LAWRENCE%2C+KS+66046,
HERITAGE FAMILY PHARMACY,1201 W AGENCY ROAD,"WEST BURLINGTON, IA 52655",http://maps.google.com/maps?q=HERITAGE%20FAMILY%20PHARMACY%2C1201%20W%20AGENCY%20ROAD%2C+WEST%20BURLINGTON%2C+IA+52655,
HERRIN HOSPITAL PHARMACY,201 S 14TH ST,"HERRIN, IL 62948",http://maps.google.com/maps?q=HERRIN%20HOSPITAL%20PHARMACY%2C201%20S%2014TH%20ST%2C+HERRIN%2C+IL+62948,
"HIGHLAND PARK CVS, L.L.C.",2431 W. MAIN ST.,"CARBONDALE, IL 62901",http://maps.google.com/maps?q=HIGHLAND%20PARK%20CVS%20LLC%2C2431%20W.%20MAIN%20ST.%2C+CARBONDALE%2C+IL+62901,
"HIGHLAND PARK CVS, L.L.C.",3319 NAMEOKI RD.,"GRANITE CITY, IL 62040",http://maps.google.com/maps?q=HIGHLAND%20PARK%20CVS%20LLC%2C3319%20NAMEOKI%20RD.%2C+GRANITE%20CITY%2C+IL+62040,
"HIGHLAND PARK CVS, L.L.C.",436 NORTH 30TH STREET,"QUINCY, IL 62301",http://maps.google.com/maps?q=HIGHLAND%20PARK%20CVS%20LLC%2C436%20NORTH%2030TH%20STREET%2C+QUINCY%2C+IL+62301,
"HIGHLAND PARK CVS, L.L.C.",4609 W. MAIN ST.,"BELLEVILLE, IL 62226",http://maps.google.com/maps?q=HIGHLAND%20PARK%20CVS%20LLC%2C4609%20W.%20MAIN%20ST.%2C+BELLEVILLE%2C+IL+62226,
"HIGHLAND PARK CVS, L.L.C.",705 WEST MAINST.,"BENTON, IL 62812",http://maps.google.com/maps?q=HIGHLAND%20PARK%20CVS%20LLC%2C705%20WEST%20MAINST.%2C+BENTON%2C+IL+62812,
"HIGHLAND PARK CVS, L.L.C.",753 W HWY 50,"O'FALLON, IL 62269",http://maps.google.com/maps?q=HIGHLAND%20PARK%20CVS%20LLC%2C753%20W%20HWY%2050%2C+O'FALLON%2C+IL+62269,
"HIGHLAND PARK CVS, L.L.C.",801 W. MAIN ST.,"MARION, IL 62959",http://maps.google.com/maps?q=HIGHLAND%20PARK%20CVS%20LLC%2C801%20W.%20MAIN%20ST.%2C+MARION%2C+IL+62959,
HY-VEE PHARMACY #1180,1300 WEST BURLINGTON AVENUE,"FAIRFIELD, IA 52556",http://maps.google.com/maps?q=HYVEE%20PHARMACY%2C1300%20WEST%20BURLINGTON%20AVENUE%2C+FAIRFIELD%2C+IA+52556,
HY-VEE PHARMACY (1202),"2606 ""L"" AVE","FORT MADISON, IA 52627",http://maps.google.com/maps?q=HYVEE%20PHARMACY%2C2606%20%22L%22%20AVE%2C+FORT%20MADISON%2C+IA+52627,
"HY-VEE, INC.",204 N MAIN ST.,"LEON, IA 50144",http://maps.google.com/maps?q=HYVEE%20INC%2C204%20N%20MAIN%20ST.%2C+LEON%2C+IA+50144,
"HY-VEE, INC.",510 W MCLANE,"OSCEOLA, IA 50213",http://maps.google.com/maps?q=HYVEE%20INC%2C510%20W%20MCLANE%2C+OSCEOLA%2C+IA+50213,
INDIAN HEALTH CENTER CLINIC,3349 B THRASHER ROAD,"WHITE CLOUD, KS 66094",http://maps.google.com/maps?q=INDIAN%20HEALTH%20CENTER%20CLINIC%2C3349%20B%20THRASHER%20ROAD%2C+WHITE%20CLOUD%2C+KS+66094,
"KANSAS CVS PHARMACY, L.L.C.",1075 W. SANTA FE STREET,"OLATHE, KS 66061",http://maps.google.com/maps?q=KANSAS%20CVS%20PHARMACY%20LLC%2C1075%20W.%20SANTA%20FE%20STREET%2C+OLATHE%2C+KS+66061,
"KANSAS CVS PHARMACY, L.L.C.",13502 WEST 87TH STREET PARKWAY,"LENEXA, KS 66215",http://maps.google.com/maps?q=KANSAS%20CVS%20PHARMACY%20LLC%2C13502%20WEST%2087TH%20STREET%20PARKWAY%2C+LENEXA%2C+KS+66215,
"KANSAS CVS PHARMACY, L.L.C.",3901 SW 21ST ST.,"TOPEKA, KS 66604",http://maps.google.com/maps?q=KANSAS%20CVS%20PHARMACY%20LLC%2C3901%20SW%2021ST%20ST.%2C+TOPEKA%2C+KS+66604,
"KANSAS CVS PHARMACY, L.L.C.",8101 STATE AVE.,"KANSAS CITY, KS 66112",http://maps.google.com/maps?q=KANSAS%20CVS%20PHARMACY%20LLC%2C8101%20STATE%20AVE.%2C+KANSAS%20CITY%2C+KS+66112,
"KENTUCKY CVS PHARMACY, L.L.C.",538 LONE OAK RD.,"PADUCAH, KY 42003",http://maps.google.com/maps?q=KENTUCKY%20CVS%20PHARMACY%20LLC%2C538%20LONE%20OAK%20RD.%2C+PADUCAH%2C+KY+42003,
KHOURY PHARMACY,101 N. MAIN,"COLUMBIA, IL 62236",http://maps.google.com/maps?q=KHOURY%20PHARMACY%2C101%20N.%20MAIN%2C+COLUMBIA%2C+IL+62236,
KOECHNER PHARMACIES LLC,807 MAIN STREET,"ATCHISON, KS 66002",http://maps.google.com/maps?q=KOECHNER%20PHARMACIES%20LLC%2C807%20MAIN%20STREET%2C+ATCHISON%2C+KS+66002,
LOURDES HOSPITAL INC PHARMACY,1530 LONE OAK RD,"PADUCAH, KY 42003",http://maps.google.com/maps?q=LOURDES%20HOSPITAL%20INC%20PHARMACY%2C1530%20LONE%20OAK%20RD%2C+PADUCAH%2C+KY+42003,
MEDICAL CENTER PHARMACY,9100 W 74TH ST,"SHAWNEE MISSION, KS 66204",http://maps.google.com/maps?q=MEDICAL%20CENTER%20PHARMACY%2C9100%20W%2074TH%20ST%2C+SHAWNEE%20MISSION%2C+KS+66204,
MEMORIAL HOSPITAL OF CARBONDALE,ATTN:  PHARMACY,405 W. JACKSON,"CARBONDALE, IL 62902",http://maps.google.com/maps?q=MEMORIAL%20HOSPITAL%20OF%20CARBONDALE%2CATTN%3A%20%20PHARMACY%2C+CARBONDALE%2C+IL+62902
MILLSTADT PHARMACY,120 W. WASHINGTON,"MILLSTADT, IL 62260",http://maps.google.com/maps?q=MILLSTADT%20PHARMACY%2C120%20W.%20WASHINGTON%2C+MILLSTADT%2C+IL+62260,
MONROE COUNTY HOSPITAL,6580 165TH STREET,"ALBIA, IA 52531",http://maps.google.com/maps?q=MONROE%20COUNTY%20HOSPITAL%2C6580%20165TH%20STREET%2C+ALBIA%2C+IA+52531,
MOODY HEALTH MART PHARMACY,109 E BROADWAY,"SPARTA, IL 62286",http://maps.google.com/maps?q=MOODY%20HEALTH%20MART%20PHARMACY%2C109%20E%20BROADWAY%2C+SPARTA%2C+IL+62286,
MURRAY-CALLOWAY CO HOSPITAL,803 POPLAR STREET,"MURRAY, KY 42071",http://maps.google.com/maps?q=MURRAYCALLOWAY%20CO%20HOSPITAL%2C803%20POPLAR%20STREET%2C+MURRAY%2C+KY+42071,
NUDAK VENTURES LLC,2000 D SOUTH MAIN STREET,PO BOX 1027,"FAIRFIELD, IA 52556",http://maps.google.com/maps?q=NUDAK%20VENTURES%20LLC%2C2000%20D%20SOUTH%20MAIN%20STREET%2C+FAIRFIELD%2C+IA+52556
"PHARMACY PLUS, INC.",693 BAINBRIDGE ST,"BARRY, IL 62312",http://maps.google.com/maps?q=PHARMACY%20PLUS%20INC%2C693%20BAINBRIDGE%20ST%2C+BARRY%2C+IL+62312,
PHIPPS PHARMACY #4,19 HUGHES DRIVE,"JACKSON, TN 38305",http://maps.google.com/maps?q=PHIPPS%20PHARMACY%2C19%20HUGHES%20DRIVE%2C+JACKSON%2C+TN+38305,
PHIPPS PHARMACY INC,205-B HOSPITAL DRIVE,"MC KENZIE, TN 38201",http://maps.google.com/maps?q=PHIPPS%20PHARMACY%20INC%2C205-B%20HOSPITAL%20DRIVE%2C+MC%20KENZIE%2C+TN+38201,
S.M.C. REGIONAL MEDICAL CENTER,611 W. LEE STREET,PO BOX 607,"OSCEOLA, AR 72370",http://maps.google.com/maps?q=SMC%20REGIONAL%20MEDICAL%20CENTER%2C611%20W.%20LEE%20STREET%2C+OSCEOLA%2C+AR+72370
SHAWNEE HEALTH CARE PHARMACY,7 SOUTH HOSPITAL DRIVE,"MURPHYSBORO, IL 62966",http://maps.google.com/maps?q=SHAWNEE%20HEALTH%20CARE%20PHARMACY%2C7%20SOUTH%20HOSPITAL%20DRIVE%2C+MURPHYSBORO%2C+IL+62966,
SHOPKO PHARMACY #2676,1901 COURT AVE,"CHARITON, IA 50049",http://maps.google.com/maps?q=SHOPKO%20PHARMACY%2C1901%20COURT%20AVE%2C+CHARITON%2C+IA+50049,
SHOPKO PHARMACY #2684,106 SMITH ST,"BLOOMFIELD, IA 52537",http://maps.google.com/maps?q=SHOPKO%20PHARMACY%2C106%20SMITH%20ST%2C+BLOOMFIELD%2C+IA+52537,
SOUTHERN ILL HOSP SERVICES AT,ST.JOSEPH HOSPITAL,2 SOUTH HOSPITAL DRIVE,"MURPHYSBORO, IL 62966",http://maps.google.com/maps?q=SOUTHERN%20ILL%20HOSP%20SERVICES%20AT%2CST.JOSEPH%20HOSPITAL%2C+MURPHYSBORO%2C+IL+62966
SOUTHERN ILLINOIS HOSPITAL SERVICES,1400 PIN OAK DRIVE,PHARMACY DEPARTMENT,"CARTERVILLE, IL 62918",http://maps.google.com/maps?q=SOUTHERN%20ILLINOIS%20HOSPITAL%20SERVICES%2C1400%20PIN%20OAK%20DRIVE%2C+CARTERVILLE%2C+IL+62918
ST LUKES SOUTH HOSPITAL,12300 METCALF AVENUE,"OVERLAND PARK, KS 66213",http://maps.google.com/maps?q=ST%20LUKES%20SOUTH%20HOSPITAL%2C12300%20METCALF%20AVENUE%2C+OVERLAND%20PARK%2C+KS+66213,
"TENNESSEE CVS PHARMACY, L.L.C.",116 COMMONS DR.,"MARTIN, TN 38237",http://maps.google.com/maps?q=TENNESSEE%20CVS%20PHARMACY%20LLC%2C116%20COMMONS%20DR.%2C+MARTIN%2C+TN+38237,
"TENNESSEE CVS PHARMACY, L.L.C.",1405 N. HIGHLAND AVENUE,"JACKSON, TN 38301",http://maps.google.com/maps?q=TENNESSEE%20CVS%20PHARMACY%20LLC%2C1405%20N.%20HIGHLAND%20AVENUE%2C+JACKSON%2C+TN+38301,
THE DRUG STORE,153 HERNDON DR,"BELLS, TN 38006",http://maps.google.com/maps?q=THE%20DRUG%20STORE%2C153%20HERNDON%20DR%2C+BELLS%2C+TN+38006,
THE MEDICINE STORE,760 NORTHSTAR COURT,"TONGANOXIE, KS 66086",http://maps.google.com/maps?q=THE%20MEDICINE%20STORE%2C760%20NORTHSTAR%20COURT%2C+TONGANOXIE%2C+KS+66086,
UNIV OF KANSAS HOSP AUTHORITY,2015 W 39TH,"KANSAS CITY, KS 66103",http://maps.google.com/maps?q=UNIV%20OF%20KANSAS%20HOSP%20AUTHORITY%2C2015%20W%2039TH%2C+KANSAS%20CITY%2C+KS+66103,
UNIVERSITY OF KANSAS HOSPITAL,CANCER CENTER PHARMACY,2330 SHAWNEE MISSION PARKWAY,"WESTWOOD, KS 66205",http://maps.google.com/maps?q=UNIVERSITY%20OF%20KANSAS%20HOSPITAL%2CCANCER%20CENTER%20PHARMACY%2C+WESTWOOD%2C+KS+66205
US ARMY - MUNSON  HEALTH CENTER,PHARMACY SERVICES,550 POPE AVE,"FT LEAVENWORTH, KS 66027",http://maps.google.com/maps?q=US%20ARMY%20%20MUNSON%20%20HEALTH%20CENTER%2CPHARMACY%20SERVICES%2C+FT%20LEAVENWORTH%2C+KS+66027
USAF- SCOTT AFB MEDICAL CENTER,310 W. LOSEY BLDG 1530,CLINIC PHARMACY,"SCOTT AFB, IL 62225",http://maps.google.com/maps?q=USAF%20SCOTT%20AFB%20MEDICAL%20CENTER%2C310%20W.%20LOSEY%20BLDG%201530%2C+SCOTT%20AFB%2C+IL+62225
WALGREEN CO.,1001 SW TOPEKA BLVD.,"TOPEKA, KS 66612",http://maps.google.com/maps?q=WALGREEN%20CO%2C1001%20SW%20TOPEKA%20BLVD.%2C+TOPEKA%2C+KS+66612,
WALGREEN CO.,108 E HIGHLAND DRIVE,"JONESBORO, AR 72401",http://maps.google.com/maps?q=WALGREEN%20CO%2C108%20E%20HIGHLAND%20DRIVE%2C+JONESBORO%2C+AR+72401,
WALGREEN CO.,1205 MAIN ST,"MURRAY, KY 42071",http://maps.google.com/maps?q=WALGREEN%20CO%2C1205%20MAIN%20ST%2C+MURRAY%2C+KY+42071,
WALGREEN CO.,1332 N HIGHLAND AVE.,"JACKSON, TN 38301",http://maps.google.com/maps?q=WALGREEN%20CO%2C1332%20N%20HIGHLAND%20AVE.%2C+JACKSON%2C+TN+38301,
WALGREEN CO.,1445 S MAIN STREET,"OTTAWA, KS 66067",http://maps.google.com/maps?q=WALGREEN%20CO%2C1445%20S%20MAIN%20STREET%2C+OTTAWA%2C+KS+66067,
WALGREEN CO.,2 COTTONWOOD RD,"GLEN CARBON, IL 62034",http://maps.google.com/maps?q=WALGREEN%20CO%2C2%20COTTONWOOD%20RD%2C+GLEN%20CARBON%2C+IL+62034,
WALGREEN CO.,2900 S 4TH ST,"LEAVENWORTH, KS 66048",http://maps.google.com/maps?q=WALGREEN%20CO%2C2900%20S%204TH%20ST%2C+LEAVENWORTH%2C+KS+66048,
WALGREEN CO.,3421 WEST 6TH ST,"LAWRENCE, KS 66049",http://maps.google.com/maps?q=WALGREEN%20CO%2C3421%20WEST%206TH%20ST%2C+LAWRENCE%2C+KS+66049,
WALGREEN CO.,521 LONE OAK ROAD,"PADUCAH, KY 42003",http://maps.google.com/maps?q=WALGREEN%20CO%2C521%20LONE%20OAK%20ROAD%2C+PADUCAH%2C+KY+42003,
WALGREEN CO.,7500 METCALF AVE,"OVERLAND PARK, KS 66204",http://maps.google.com/maps?q=WALGREEN%20CO%2C7500%20METCALF%20AVE%2C+OVERLAND%20PARK%2C+KS+66204,
WALGREEN CO.,7739 STATE AVE,"KANSAS CITY, KS 66112",http://maps.google.com/maps?q=WALGREEN%20CO%2C7739%20STATE%20AVE%2C+KANSAS%20CITY%2C+KS+66112,
