Business Name,Address 1,Address 2,"City, State Zip",Map URL
ADDISON'S APOTHECARY,36 MAIN ST,"ADDISON, NY 14801",http://maps.google.com/maps?q=ADDISONS%20APOTHECARY%2C36%20MAIN%20ST%2C+ADDISON%2C+NY+14801,
ADIRONDACK APOTHECARY LLC,4315 MAIN ST,"PORT HENRY, NY 12974",http://maps.google.com/maps?q=ADIRONDACK%20APOTHECARY%20LLC%2C4315%20MAIN%20ST%2C+PORT%20HENRY%2C+NY+12974,
ADIRONDACK MEDICAL CENTER,2233 STATE ROUTE 86,C/O PHARMACY,"SARANAC LAKE, NY 12983",http://maps.google.com/maps?q=ADIRONDACK%20MEDICAL%20CENTER%2C2233%20STATE%20ROUTE%2086%2C+SARANAC%20LAKE%2C+NY+12983
ALFRED PHARMACY,36 N MAIN ST,"ALFRED, NY 14802",http://maps.google.com/maps?q=ALFRED%20PHARMACY%2C36%20N%20MAIN%20ST%2C+ALFRED%2C+NY+14802,
ALICE HYDE MEDICAL CENTER,133 PARK STREET,"MALONE, NY 12953",http://maps.google.com/maps?q=ALICE%20HYDE%20MEDICAL%20CENTER%2C133%20PARK%20STREET%2C+MALONE%2C+NY+12953,
ARNOT-OGDEN MEDICAL CENTER,600 ROE AVENUE,"ELMIRA, NY 14905",http://maps.google.com/maps?q=ARNOTOGDEN%20MEDICAL%20CENTER%2C600%20ROE%20AVENUE%2C+ELMIRA%2C+NY+14905,
BARRE PHARMACY LLC,20 SOUTH MAIN STREET SUITE 1,"BARRE, VT 05641",http://maps.google.com/maps?q=BARRE%20PHARMACY%20LLC%2C20%20SOUTH%20MAIN%20STREET%20SUITE%201%2C+BARRE%2C+VT+05641,
BARTLES PHARMACY INC,10 LAFAYETTE PARK,P.O.BOX 630,"OXFORD, NY 13830",http://maps.google.com/maps?q=BARTLES%20PHARMACY%20INC%2C10%20LAFAYETTE%20PARK%2C+OXFORD%2C+NY+13830
BEAVERS PHARMACY,7 MAIN STREET,"CANISTEO, NY 14823",http://maps.google.com/maps?q=BEAVERS%20PHARMACY%2C7%20MAIN%20STREET%2C+CANISTEO%2C+NY+14823,
BLACK DRUGS INC,704 BLEECKER ST,"UTICA, NY 13501",http://maps.google.com/maps?q=BLACK%20DRUGS%20INC%2C704%20BLEECKER%20ST%2C+UTICA%2C+NY+13501,
BONAPARTE PHARMACY LLC,8210 MAIN STREET,"HARRISVILLE, NY 13648",http://maps.google.com/maps?q=BONAPARTE%20PHARMACY%20LLC%2C8210%20MAIN%20STREET%2C+HARRISVILLE%2C+NY+13648,
BROWN'S PHARMACY,225 MAIN STREET,P.O. BOX 308,"UNADILLA, NY 13849",http://maps.google.com/maps?q=BROWNS%20PHARMACY%2C225%20MAIN%20STREET%2C+UNADILLA%2C+NY+13849
CARTHAGE AREA HOSPITAL,ATTN: PHARMACY DEPT,1001 WEST STREET,"CARTHAGE, NY 13619",http://maps.google.com/maps?q=CARTHAGE%20AREA%20HOSPITAL%2CATTN%3A%20PHARMACY%20DEPT%2C+CARTHAGE%2C+NY+13619
"CATSKILL CARE ENTERPRISES, INC.",ONE FOXCARE DRIVE,"ONEONTA, NY 13820",http://maps.google.com/maps?q=CATSKILL%20CARE%20ENTERPRISES%20INC%2CONE%20FOXCARE%20DRIVE%2C+ONEONTA%2C+NY+13820,
CAYUGA MEDICAL CENTER AT ITHACA,101 DATES DR FL 3,"ITHACA, NY 14850",http://maps.google.com/maps?q=CAYUGA%20MEDICAL%20CENTER%20AT%20ITHACA%2C101%20DATES%20DR%20FL%203%2C+ITHACA%2C+NY+14850,
"CENTRAL VERMONT MEDICAL CTR INC,",130 FISHER ROAD,PO BOX 547,"BERLIN, VT 05602",http://maps.google.com/maps?q=CENTRAL%20VERMONT%20MEDICAL%20CTR%20INC%2C130%20FISHER%20ROAD%2C+BERLIN%2C+VT+05602
CHAMPLAIN VALLEY PHYSICIANS HOSPITAL,C/O PHARMACY,214 CORNELIA STREET,"PLATTSBURGH, NY 12901",http://maps.google.com/maps?q=CHAMPLAIN%20VALLEY%20PHYSICIANS%20HOSPITAL%2CC/O%20PHARMACY%2C+PLATTSBURGH%2C+NY+12901
CLAXTON HEPBURN MEDICAL CENTER,C/O PHARMACY,214 KING ST,"OGDENSBURG, NY 13669",http://maps.google.com/maps?q=CLAXTON%20HEPBURN%20MEDICAL%20CENTER%2CC/O%20PHARMACY%2C+OGDENSBURG%2C+NY+13669
CLIFTON SPRINGS HOSPITAL & CLINIC,PHARMACY DEPT,2 COULTER ROAD,"CLIFTON SPRINGS, NY 14432",http://maps.google.com/maps?q=CLIFTON%20SPRINGS%20HOSPITAL%20%20CLINIC%2CPHARMACY%20DEPT%2C+CLIFTON%20SPRINGS%2C+NY+14432
COMMUNITY MEMORIAL HOSPITAL,150 BROAD ST,PHARMACY DEPARTMENT,"HAMILTON, NY 13346",http://maps.google.com/maps?q=COMMUNITY%20MEMORIAL%20HOSPITAL%2C150%20BROAD%20ST%2C+HAMILTON%2C+NY+13346
"CONDO PHARMACY, INC",28 MONTCALM AVE,"PLATTSBURGH, NY 12901",http://maps.google.com/maps?q=CONDO%20PHARMACY%20INC%2C28%20MONTCALM%20AVE%2C+PLATTSBURGH%2C+NY+12901,
COPLEY HOSPITAL,RR 3 BOX 760,528 WASHINGTON HIGHWAY,"MORRISVILLE, VT 05661",http://maps.google.com/maps?q=COPLEY%20HOSPITAL%2CRR%203%20BOX%20760%2C+MORRISVILLE%2C+VT+05661
CORNERSTONE DRUG & GIFT INC,72 CHAMPLAIN STREET,ATTN: SUPERVISING PHARMACIST,"ROUSES POINT, NY 12979",http://maps.google.com/maps?q=CORNERSTONE%20DRUG%20%20GIFT%20INC%2C72%20CHAMPLAIN%20STREET%2C+ROUSES%20POINT%2C+NY+12979
CORNING HOSPITAL INC,1 GUTHRIE DRIVE,"CORNING, NY 14830",http://maps.google.com/maps?q=CORNING%20HOSPITAL%20INC%2C1%20GUTHRIE%20DRIVE%2C+CORNING%2C+NY+14830,
"CVS ALBANY, L.L.C.",1276 UPPER FRONT ST.,"BINGHAMTON, NY 13901",http://maps.google.com/maps?q=CVS%20ALBANY%20LLC%2C1276%20UPPER%20FRONT%20ST.%2C+BINGHAMTON%2C+NY+13901,
"CVS ALBANY, L.L.C.",15 HONEOYE COMMONS,"HONEOYE, NY 14471",http://maps.google.com/maps?q=CVS%20ALBANY%20LLC%2C15%20HONEOYE%20COMMONS%2C+HONEOYE%2C+NY+14471,
"CVS ALBANY, L.L.C.",2100 MONROE AVENUE,"ROCHESTER, NY 14618",http://maps.google.com/maps?q=CVS%20ALBANY%20LLC%2C2100%20MONROE%20AVENUE%2C+ROCHESTER%2C+NY+14618,
"CVS ALBANY, L.L.C.",525 SPENCERPORT RD,GATES SHOPPING PLZ,"ROCHESTER, NY 14606",http://maps.google.com/maps?q=CVS%20ALBANY%20LLC%2C525%20SPENCERPORT%20RD%2C+ROCHESTER%2C+NY+14606
ELIZABETHTOWN COMMUNITY HOSP,75 PARK STREET,PO BOX 277,"ELIZABETHTOWN, NY 12932",http://maps.google.com/maps?q=ELIZABETHTOWN%20COMMUNITY%20HOSP%2C75%20PARK%20STREET%2C+ELIZABETHTOWN%2C+NY+12932
ERIE CANAL LLC,60 FINN ROAD SUITE B,"HENRIETTA, NY 14467",http://maps.google.com/maps?q=ERIE%20CANAL%20LLC%2C60%20FINN%20ROAD%20SUITE%20B%2C+HENRIETTA%2C+NY+14467,
FAXTON - ST. LUKE'S HC/MOHAWK VALLEY HEALTH SYSTEM,1676 SUNSET AVE,"UTICA, NY 13502",http://maps.google.com/maps?q=FAXTON%20%20ST%20LUKES%20HCMOHAWK%20VALLEY%20HEALTH%20SYSTEM%2C1676%20SUNSET%20AVE%2C+UTICA%2C+NY+13502,
FAXTON-ST LUKE'S HEALTHCARE,1656 CHAMPLIN AVE.,"UTICA, NY 13502",http://maps.google.com/maps?q=FAXTONST%20LUKES%20HEALTHCARE%2C1656%20CHAMPLIN%20AVE.%2C+UTICA%2C+NY+13502,
FREDERICK FERRIS THOMPSON HOS,350 PARRISH ST,"CANANDAIGUA, NY 14424",http://maps.google.com/maps?q=FREDERICK%20FERRIS%20THOMPSON%20HOS%2C350%20PARRISH%20ST%2C+CANANDAIGUA%2C+NY+14424,
GALENS INC,17 SODUS STREET,"CLYDE, NY 14433",http://maps.google.com/maps?q=GALENS%20INC%2C17%20SODUS%20STREET%2C+CLYDE%2C+NY+14433,
GEROULD'S PROF PHARMACY,98 W PULTENEY ST,"CORNING, NY 14830",http://maps.google.com/maps?q=GEROULDS%20PROF%20PHARMACY%2C98%20W%20PULTENEY%20ST%2C+CORNING%2C+NY+14830,
GEROULD'S PROF PHCY INC,215 HOFFMAN STREET,"ELMIRA, NY 14905",http://maps.google.com/maps?q=GEROULDS%20PROF%20PHCY%20INC%2C215%20HOFFMAN%20STREET%2C+ELMIRA%2C+NY+14905,
GEROULD'S PROFESSIONAL PHARMACY INC,130 SO MAIN STREET,"ELMIRA, NY 14904",http://maps.google.com/maps?q=GEROULDS%20PROFESSIONAL%20PHARMACY%20INC%2C130%20SO%20MAIN%20STREET%2C+ELMIRA%2C+NY+14904,
GIFFORD MEMORIAL HOSPITAL INC,44 SOUTH MAIN ST,"RANDOLPH, VT 05060",http://maps.google.com/maps?q=GIFFORD%20MEMORIAL%20HOSPITAL%20INC%2C44%20SOUTH%20MAIN%20ST%2C+RANDOLPH%2C+VT+05060,
GOUVERNEUR HOSPITAL,77 W BARNEY STREET,"GOUVERNEUR, NY 13642",http://maps.google.com/maps?q=GOUVERNEUR%20HOSPITAL%2C77%20W%20BARNEY%20STREET%2C+GOUVERNEUR%2C+NY+13642,
GUTHRIE TOWANDA MEMORIAL HOSPITAL,91 HOSPITAL DRIVE,"TOWANDA, PA 18848",http://maps.google.com/maps?q=GUTHRIE%20TOWANDA%20MEMORIAL%20HOSPITAL%2C91%20HOSPITAL%20DRIVE%2C+TOWANDA%2C+PA+18848,
HARBOR PHARMACY LLC,813 FAY RD STE P1,"SYRACUSE, NY 13219",http://maps.google.com/maps?q=HARBOR%20PHARMACY%20LLC%2C813%20FAY%20RD%20STE%20P1%2C+SYRACUSE%2C+NY+13219,
"HEALTHDIRECT INSTITUTIONAL PHARMACY SERVICES, INC.",515 STEWART DRIVE WEST,"NORTH SYRACUSE, NY 13212",http://maps.google.com/maps?q=HEALTHDIRECT%20INSTITUTIONAL%20PHARMACY%20SERVICES%20INC%2C515%20STEWART%20DRIVE%20WEST%2C+NORTH%20SYRACUSE%2C+NY+13212,
HERBST PHARMACY   INC,1 CHURCH STREET,"PORT BYRON, NY 13140",http://maps.google.com/maps?q=HERBST%20PHARMACY%20%20%20INC%2C1%20CHURCH%20STREET%2C+PORT%20BYRON%2C+NY+13140,
HIGH MOUNTAIN CORPORATION,DBA RUTLAND PHARMACY,75 ALLEN STREET,"RUTLAND, VT 05701",http://maps.google.com/maps?q=HIGH%20MOUNTAIN%20CORPORATION%2CDBA%20RUTLAND%20PHARMACY%2C+RUTLAND%2C+VT+05701
HIGHLAND HOSPITAL OF ROCHESTER,1000 SOUTH AVENUE,1ST FLOOR,"ROCHESTER, NY 14620",http://maps.google.com/maps?q=HIGHLAND%20HOSPITAL%20OF%20ROCHESTER%2C1000%20SOUTH%20AVENUE%2C+ROCHESTER%2C+NY+14620
IRA DAVENPORT MEMORIAL HOSPITAL INC,7571 STATE ROUTE 54,"BATH, NY 14810",http://maps.google.com/maps?q=IRA%20DAVENPORT%20MEMORIAL%20HOSPITAL%20INC%2C7571%20STATE%20ROUTE%2054%2C+BATH%2C+NY+14810,
KEESEVILLE PHARMACY INC,1730 FRONT STREET,"KEESEVILLE, NY 12944",http://maps.google.com/maps?q=KEESEVILLE%20PHARMACY%20INC%2C1730%20FRONT%20STREET%2C+KEESEVILLE%2C+NY+12944,
"KPH HEALTHCARE SERVICES, INC.","5091 MAIN STREET, #7",P.O. BOX 52,"WAITSFIELD, VT 05673",http://maps.google.com/maps?q=KPH%20HEALTHCARE%20SERVICES%20INC%2C5091%20MAIN%20STREET%2C%20#7%2C+WAITSFIELD%2C+VT+05673
"KPH HEALTHCARE SERVICES, INC.",80 S MAIN STREET,"WATERBURY, VT 05676",http://maps.google.com/maps?q=KPH%20HEALTHCARE%20SERVICES%20INC%2C80%20S%20MAIN%20STREET%2C+WATERBURY%2C+VT+05676,
LAKESIDE PHARMACY INC,242 PEARL ST,"BURLINGTON, VT 05401",http://maps.google.com/maps?q=LAKESIDE%20PHARMACY%20INC%2C242%20PEARL%20ST%2C+BURLINGTON%2C+VT+05401,
LENOX PHARMACY,5879 SR 92,SUITE 3 LENOX PLAZA,"KINGSLEY, PA 18826",http://maps.google.com/maps?q=LENOX%20PHARMACY%2C5879%20SR%2092%2C+KINGSLEY%2C+PA+18826
LEWIS COUNTY GENERAL HOSPITAL,PHARMACY DEPARTMENT,7785 NORTH STATE STREET,"LOWVILLE, NY 13367",http://maps.google.com/maps?q=LEWIS%20COUNTY%20GENERAL%20HOSPITAL%2CPHARMACY%20DEPARTMENT%2C+LOWVILLE%2C+NY+13367
LIVONIA-LAKEVILLE PHARMACY,5975 BIG TREE RD,P.O. BOX 414,"LAKEVILLE, NY 14480",http://maps.google.com/maps?q=LIVONIALAKEVILLE%20PHARMACY%2C5975%20BIG%20TREE%20RD%2C+LAKEVILLE%2C+NY+14480
LUDLOW PHARMACY INC.,57 POND ST,"LUDLOW, VT 05149",http://maps.google.com/maps?q=LUDLOW%20PHARMACY%20INC%2C57%20POND%20ST%2C+LUDLOW%2C+VT+05149,
MARBLE WORKS PHARMACY,187 MAIN STREET,"VERGENNES, VT 05491",http://maps.google.com/maps?q=MARBLE%20WORKS%20PHARMACY%2C187%20MAIN%20STREET%2C+VERGENNES%2C+VT+05491,
MARBLE WORKS PHARMACY,61 PINE STREET,SUITE 401,"BRISTOL, VT 05443",http://maps.google.com/maps?q=MARBLE%20WORKS%20PHARMACY%2C61%20PINE%20STREET%2C+BRISTOL%2C+VT+05443
MARBLE WORKS PHARMACY,99 MAPLE ST,STE 19,"MIDDLEBURY, VT 05753",http://maps.google.com/maps?q=MARBLE%20WORKS%20PHARMACY%2C99%20MAPLE%20ST%2C+MIDDLEBURY%2C+VT+05753
MARKET STREET APOTHECARY LLC,78 WEST MARKET STREET,"CORNING, NY 14830",http://maps.google.com/maps?q=MARKET%20STREET%20APOTHECARY%20LLC%2C78%20WEST%20MARKET%20STREET%2C+CORNING%2C+NY+14830,
MEDICAL ADMIN ASSOC INC,777 SOUTH  CLINTON AVENUE,"ROCHESTER, NY 14620",http://maps.google.com/maps?q=MEDICAL%20ADMIN%20ASSOC%20INC%2C777%20SOUTH%20%20CLINTON%20AVENUE%2C+ROCHESTER%2C+NY+14620,
MEDICINE SHOPPE #2004,1315 W GENESEE ST SUITE A,"CHITTENANGO, NY 13037",http://maps.google.com/maps?q=MEDICINE%20SHOPPE%2C1315%20W%20GENESEE%20ST%20SUITE%20A%2C+CHITTENANGO%2C+NY+13037,
NEEL-PATH LLC,6845 STATE ROUTE 434,PO BOX 376,"APALACHIN, NY 13732",http://maps.google.com/maps?q=NEELPATH%20LLC%2C6845%20STATE%20ROUTE%20434%2C+APALACHIN%2C+NY+13732
"NIKLAS-MOORE, INC.","5700 ROUTE 100, UNIT C-10","LONDONDERRY, VT 05148",http://maps.google.com/maps?q=NIKLASMOORE%20INC%2C5700%20ROUTE%20100%2C%20UNIT%20C-10%2C+LONDONDERRY%2C+VT+05148,
"NORTHWESTERN MEDICAL CTR, INC",133 FAIRFIELD STREET,"ST ALBANS, VT 05478",http://maps.google.com/maps?q=NORTHWESTERN%20MEDICAL%20CTR%20INC%2C133%20FAIRFIELD%20STREET%2C+ST%20ALBANS%2C+VT+05478,
O'CONNOR HOSPITAL,C/O PHARMACY,460 ANDES ROAD,"DELHI, NY 13753",http://maps.google.com/maps?q=OCONNOR%20HOSPITAL%2CC/O%20PHARMACY%2C+DELHI%2C+NY+13753
OLDE CANAL PHARMACY INC,201 SCOTTSVILLE - WEST HENRIETTA ROAD,SUITE 1,"WEST HENRIETTA, NY 14586",http://maps.google.com/maps?q=OLDE%20CANAL%20PHARMACY%20INC%2C201%20SCOTTSVILLE%20-%20WEST%20HENRIETTA%20ROAD%2C+WEST%20HENRIETTA%2C+NY+14586
OSWEGO VALLEY PHARMACY INC,464 MAIN STREET,"PHOENIX, NY 13135",http://maps.google.com/maps?q=OSWEGO%20VALLEY%20PHARMACY%20INC%2C464%20MAIN%20STREET%2C+PHOENIX%2C+NY+13135,
"OUR LADY OF LOURDES MEMORIAL HOSPITAL, INC.",3101 SHIPPERS ROAD,SUITE 104,"VESTAL, NY 13850",http://maps.google.com/maps?q=OUR%20LADY%20OF%20LOURDES%20MEMORIAL%20HOSPITAL%20INC%2C3101%20SHIPPERS%20ROAD%2C+VESTAL%2C+NY+13850
PARK RIDGE APOTHECARY,1561 LONG POND RD,SUITE 104,"ROCHESTER, NY 14626",http://maps.google.com/maps?q=PARK%20RIDGE%20APOTHECARY%2C1561%20LONG%20POND%20RD%2C+ROCHESTER%2C+NY+14626
PARK RIDGE APOTHECARY INC,DBA GENESEE CAMPUS APOTHECARY,89 GENESEE STREET,"ROCHESTER, NY 14611",http://maps.google.com/maps?q=PARK%20RIDGE%20APOTHECARY%20INC%2CDBA%20GENESEE%20CAMPUS%20APOTHECARY%2C+ROCHESTER%2C+NY+14611
"PHARMSCRIPT, LLC",441 COMMERCE ROAD,SUITE 2,"VESTAL, NY 13850",http://maps.google.com/maps?q=PHARMSCRIPT%20LLC%2C441%20COMMERCE%20ROAD%2C+VESTAL%2C+NY+13850
PINE HILL HOMETOWN PHARMACY INC.,2949 STATE ROUTE 370,"CATO, NY 13033",http://maps.google.com/maps?q=PINE%20HILL%20HOMETOWN%20PHARMACY%20INC%2C2949%20STATE%20ROUTE%20370%2C+CATO%2C+NY+13033,
PORTER HOSPITAL,C/O DIRECTOR OF PHARMACY,115 PORTER DRIVE,"MIDDLEBURY, VT 05753",http://maps.google.com/maps?q=PORTER%20HOSPITAL%2CC/O%20DIRECTOR%20OF%20PHARMACY%2C+MIDDLEBURY%2C+VT+05753
RAINA PHARMACY LLC,113 SOUTH MAIN ST,"MANCHESTER, NY 14504",http://maps.google.com/maps?q=RAINA%20PHARMACY%20LLC%2C113%20SOUTH%20MAIN%20ST%2C+MANCHESTER%2C+NY+14504,
RICHFORD HEALTH CENTER INC,44 MAIN STREET,SUITE 201,"RICHFORD, VT 05476",http://maps.google.com/maps?q=RICHFORD%20HEALTH%20CENTER%20INC%2C44%20MAIN%20STREET%2C+RICHFORD%2C+VT+05476
RMH RETAIL PHARMACY,1500 NORTH JAMES STREET,"ROME, NY 13440",http://maps.google.com/maps?q=RMH%20RETAIL%20PHARMACY%2C1500%20NORTH%20JAMES%20STREET%2C+ROME%2C+NY+13440,
ROBERT PACKER HOSPITAL,ONE GUTHRIE SQUARE,SUITE EC101,"SAYRE, PA 18840",http://maps.google.com/maps?q=ROBERT%20PACKER%20HOSPITAL%2CONE%20GUTHRIE%20SQUARE%2C+SAYRE%2C+PA+18840
ROCHESTER GENERAL HOSPITAL,1425 PORTLAND AVE,"ROCHESTER, NY 14621",http://maps.google.com/maps?q=ROCHESTER%20GENERAL%20HOSPITAL%2C1425%20PORTLAND%20AVE%2C+ROCHESTER%2C+NY+14621,
RUTLAND REGIONAL MEDICAL CTR,160 ALLEN ST ATTN PHARM DEPT,"RUTLAND, VT 05701",http://maps.google.com/maps?q=RUTLAND%20REGIONAL%20MEDICAL%20CTR%2C160%20ALLEN%20ST%20ATTN%20PHARM%20DEPT%2C+RUTLAND%2C+VT+05701,
RX CITY PHARMACY INC,161 GENESEE ST,SUITE 105,"AUBURN, NY 13021",http://maps.google.com/maps?q=RX%20CITY%20PHARMACY%20INC%2C161%20GENESEE%20ST%2C+AUBURN%2C+NY+13021
SCRIPTS PLUS INC,10 CENTRAL AVENUE,"ILION, NY 13357",http://maps.google.com/maps?q=SCRIPTS%20PLUS%20INC%2C10%20CENTRAL%20AVENUE%2C+ILION%2C+NY+13357,
SOUTH HERO PHARMACY LLC,330-334 ROUTE 2,"SOUTH HERO, VT 05486",http://maps.google.com/maps?q=SOUTH%20HERO%20PHARMACY%20LLC%2C330-334%20ROUTE%202%2C+SOUTH%20HERO%2C+VT+05486,
"SPECIALTY RX NY, INC.",153-W COMMERICAL ST,"EAST ROCHESTER, NY 14445",http://maps.google.com/maps?q=SPECIALTY%20RX%20NY%20INC%2C153-W%20COMMERICAL%20ST%2C+EAST%20ROCHESTER%2C+NY+14445,
ST ELIZABETH MEDICAL CENTER,C/O PHARMACY DEPT,2209 GENESEE STREET,"UTICA, NY 13501",http://maps.google.com/maps?q=ST%20ELIZABETH%20MEDICAL%20CENTER%2CC/O%20PHARMACY%20DEPT%2C+UTICA%2C+NY+13501
ST JOSEPH'S HOSPITAL,C/O PHARMACY DEPARTMENT,555 ST JOSEPHS BOULEVARD,"ELMIRA, NY 14901",http://maps.google.com/maps?q=ST%20JOSEPHS%20HOSPITAL%2CC/O%20PHARMACY%20DEPARTMENT%2C+ELMIRA%2C+NY+14901
ST JOSEPHS HOSP HEALTH CTR,301 PROSPECT AVE,"SYRACUSE, NY 13203",http://maps.google.com/maps?q=ST%20JOSEPHS%20HOSP%20HEALTH%20CTR%2C301%20PROSPECT%20AVE%2C+SYRACUSE%2C+NY+13203,
STANWOOD PHARMACY INC,18 KELLOGG RD,"NEW HARTFORD, NY 13413",http://maps.google.com/maps?q=STANWOOD%20PHARMACY%20INC%2C18%20KELLOGG%20RD%2C+NEW%20HARTFORD%2C+NY+13413,
STONE'S PHARMACY INC,BRIDGE & MAIN STREETS,"LAKE LUZERNE, NY 12846",http://maps.google.com/maps?q=STONES%20PHARMACY%20INC%2CBRIDGE%20&%20MAIN%20STREETS%2C+LAKE%20LUZERNE%2C+NY+12846,
STRONG MEMORIAL HOSPITAL,601 ELMWOOD AVENUE BOX 638,OUTPATIENT PHARMACY,"ROCHESTER, NY 14642",http://maps.google.com/maps?q=STRONG%20MEMORIAL%20HOSPITAL%2C601%20ELMWOOD%20AVENUE%20BOX%20638%2C+ROCHESTER%2C+NY+14642
STRONG MEMORIAL HOSPITAL-UNIV OF ROCHESTER,2613 WEST HENRIETTA ROAD,C/O PHARMACY,"ROCHESTER, NY 14623",http://maps.google.com/maps?q=STRONG%20MEMORIAL%20HOSPITALUNIV%20OF%20ROCHESTER%2C2613%20WEST%20HENRIETTA%20ROAD%2C+ROCHESTER%2C+NY+14623
THE MARY IMOGENE BASSETT HOSP,OUTPATIENT PHARMACY,1 ATWELL RD,"COOPERTOWN, NY 13326",http://maps.google.com/maps?q=THE%20MARY%20IMOGENE%20BASSETT%20HOSP%2COUTPATIENT%20PHARMACY%2C+COOPERTOWN%2C+NY+13326
TOPS MARKETS,309 W MORRIS STREET,"BATH, NY 14810",http://maps.google.com/maps?q=TOPS%20MARKETS%2C309%20W%20MORRIS%20STREET%2C+BATH%2C+NY+14810,
TOPS MARKETS,3507 MT. READ BLVD,"GREECE, NY 14616",http://maps.google.com/maps?q=TOPS%20MARKETS%2C3507%20MT.%20READ%20BLVD%2C+GREECE%2C+NY+14616,
TOPS MARKETS,700 FIRST NORTH STREET,"SYRACUSE, NY 13208",http://maps.google.com/maps?q=TOPS%20MARKETS%2C700%20FIRST%20NORTH%20STREET%2C+SYRACUSE%2C+NY+13208,
TOPS MARKETS LLC,C/O PHARMACY,35 FRANKLIN PLAZA,"DANSVILLE, NY 14437",http://maps.google.com/maps?q=TOPS%20MARKETS%20LLC%2CC/O%20PHARMACY%2C+DANSVILLE%2C+NY+14437
"TOPS PT, LLC",CREGO & DOWNER ROADS,"BALDWINSVILLE, NY 13027",http://maps.google.com/maps?q=TOPS%20PT%20LLC%2CCREGO%20&%20DOWNER%20ROADS%2C+BALDWINSVILLE%2C+NY+13027,
"TRILLIUM HEALTH, INC.",259 MONROE AVE.,ATTN: SUPERVISING PHARMACIST,"ROCHESTER, NY 14607",http://maps.google.com/maps?q=TRILLIUM%20HEALTH%20INC%2C259%20MONROE%20AVE.%2C+ROCHESTER%2C+NY+14607
U & I INC USA,PO BOX 1260,ATTN: SUPERVISING PHARMACIST,"VERNON, NY 13476",http://maps.google.com/maps?q=U%20%20I%20INC%20USA%2CPO%20BOX%201260%2C+VERNON%2C+NY+13476
UNIVERSITY HOSPITAL-PHARMACY,AT SYRACUSE,750 EAST ADAMS STREET,"SYRACUSE, NY 13210",http://maps.google.com/maps?q=UNIVERSITY%20HOSPITALPHARMACY%2CAT%20SYRACUSE%2C+SYRACUSE%2C+NY+13210
UNIVERSITY OF VERMONT MEDICAL CENTER,1 SOUTH PROSPECT STREET,"BURLINGTON, VT 05401",http://maps.google.com/maps?q=UNIVERSITY%20OF%20VERMONT%20MEDICAL%20CENTER%2C1%20SOUTH%20PROSPECT%20STREET%2C+BURLINGTON%2C+VT+05401,
UNIVERSITY OF VERMONT MEDICAL CENTER,111 COLCHESTER AVENUE,"BURLINGTON, VT 05401",http://maps.google.com/maps?q=UNIVERSITY%20OF%20VERMONT%20MEDICAL%20CENTER%2C111%20COLCHESTER%20AVENUE%2C+BURLINGTON%2C+VT+05401,
UNIVERSITY OF VERMONT MEDICAL CENTER,792 COLLEGE PARKWAY SUITE 103,"COLCHESTER, VT 05446",http://maps.google.com/maps?q=UNIVERSITY%20OF%20VERMONT%20MEDICAL%20CENTER%2C792%20COLLEGE%20PARKWAY%20SUITE%20103%2C+COLCHESTER%2C+VT+05446,
US ARMY- CONNER TROOP MEDICAL CLINIC,10504 KORENGAL VALLEY BLVD,"FORT DRUM, NY 13602",http://maps.google.com/maps?q=US%20ARMY%20CONNER%20TROOP%20MEDICAL%20CLINIC%2C10504%20KORENGAL%20VALLEY%20BLVD%2C+FORT%20DRUM%2C+NY+13602,
"VERMONT CVS PHARMACY, L.L.C.",31-33 MAIN STREET,"RUTLAND, VT 05701",http://maps.google.com/maps?q=VERMONT%20CVS%20PHARMACY%20LLC%2C31-33%20MAIN%20STREET%2C+RUTLAND%2C+VT+05701,
"VERMONT CVS PHARMACY, L.L.C.",7 ESSEX WAY,"ESSEX, VT 05452",http://maps.google.com/maps?q=VERMONT%20CVS%20PHARMACY%20LLC%2C7%20ESSEX%20WAY%2C+ESSEX%2C+VT+05452,
VERMONT FAMILY PHARMACY INC,1219 NORTH AVENUE,"BURLINGTON, VT 05408",http://maps.google.com/maps?q=VERMONT%20FAMILY%20PHARMACY%20INC%2C1219%20NORTH%20AVENUE%2C+BURLINGTON%2C+VT+05408,
"WALGREEN EASTERN CO., INC.",150 GRANT AVENUE,"AUBURN, NY 13021",http://maps.google.com/maps?q=WALGREEN%20EASTERN%20CO%20INC%2C150%20GRANT%20AVENUE%2C+AUBURN%2C+NY+13021,
"WALGREEN EASTERN CO., INC.",201 S. JAMES ST.,"ROME, NY 13440",http://maps.google.com/maps?q=WALGREEN%20EASTERN%20CO%20INC%2C201%20S.%20JAMES%20ST.%2C+ROME%2C+NY+13440,
"WALGREEN EASTERN CO., INC.",2100 RIDGE RD E,"IRONDEQUOIT, NY 14622",http://maps.google.com/maps?q=WALGREEN%20EASTERN%20CO%20INC%2C2100%20RIDGE%20RD%20E%2C+IRONDEQUOIT%2C+NY+14622,
"WALGREEN EASTERN CO., INC.",321 W. WASHINGTON ST.,"BATH, NY 14810",http://maps.google.com/maps?q=WALGREEN%20EASTERN%20CO%20INC%2C321%20W.%20WASHINGTON%20ST.%2C+BATH%2C+NY+14810,
"WALGREEN EASTERN CO., INC.",514 FARRELL ST.,"BURLINGTON, VT 05401",http://maps.google.com/maps?q=WALGREEN%20EASTERN%20CO%20INC%2C514%20FARRELL%20ST.%2C+BURLINGTON%2C+VT+05401,
"WAYNE LTC PHARMACY, INC",12018 E MAIN ST,"WOLCOTT, NY 14590",http://maps.google.com/maps?q=WAYNE%20LTC%20PHARMACY%20INC%2C12018%20E%20MAIN%20ST%2C+WOLCOTT%2C+NY+14590,
WILCOX PHARMACY,252 STRATTON ROAD,"RUTLAND, VT 05701",http://maps.google.com/maps?q=WILCOX%20PHARMACY%2C252%20STRATTON%20ROAD%2C+RUTLAND%2C+VT+05701,
"WALGREEN EASTERN CO., INC.",4999 STATE HIGHWAY 30,"AMSTERDAM, NY 12010",http://maps.google.com/maps?q=WALGREEN%20EASTERN%20CO%20INC%2C4999%20STATE%20HIGHWAY%2030%2C+AMSTERDAM%2C+NY+12010,
