Business Name,Address 1,Address 2,"City, State Zip",Map URL
ARKANSAS CHILDRENS HOSPITAL,1 CHILDRENS WAY,"LITTLE ROCK, AR 72202",http://maps.google.com/maps?q=ARKANSAS%20CHILDRENS%20HOSPITAL%2C1%20CHILDRENS%20WAY%2C+LITTLE%20ROCK%2C+AR+72202,
"ARKANSAS CVS PHARMACY, L.L.C.",110 SOUTHWEST DRIVE,"JONESBORO, AR 72401",http://maps.google.com/maps?q=ARKANSAS%20CVS%20PHARMACY%20LLC%2C110%20SOUTHWEST%20DRIVE%2C+JONESBORO%2C+AR+72401,
"ARKANSAS CVS PHARMACY, L.L.C.",3630 CENTRAL AVENUE,"HOT SPRINGS, AR 71913",http://maps.google.com/maps?q=ARKANSAS%20CVS%20PHARMACY%20LLC%2C3630%20CENTRAL%20AVENUE%2C+HOT%20SPRINGS%2C+AR+71913,
"ARKANSAS CVS PHARMACY, L.L.C.",3908 N. STATELINE AVE.,"TEXARKANA, AR 71854",http://maps.google.com/maps?q=ARKANSAS%20CVS%20PHARMACY%20LLC%2C3908%20N.%20STATELINE%20AVE.%2C+TEXARKANA%2C+AR+71854,
"ARKANSAS CVS PHARMACY, L.L.C.",609 MILITARY ROAD,"BENTON, AR 72015",http://maps.google.com/maps?q=ARKANSAS%20CVS%20PHARMACY%20LLC%2C609%20MILITARY%20ROAD%2C+BENTON%2C+AR+72015,
"ARKANSAS CVS PHARMACY, L.L.C.",825 OAK STREET,"CONWAY, AR 72032",http://maps.google.com/maps?q=ARKANSAS%20CVS%20PHARMACY%20LLC%2C825%20OAK%20STREET%2C+CONWAY%2C+AR+72032,
"ARKANSAS HEART HOSPITAL, LLC",#7 SHACKLEFORD WEST BOULEVARD,"LITTLE ROCK, AR 72211",http://maps.google.com/maps?q=ARKANSAS%20HEART%20HOSPITAL%20LLC%2C#7%20SHACKLEFORD%20WEST%20BOULEVARD%2C+LITTLE%20ROCK%2C+AR+72211,
BENZER PHARMACY,2951 E TEXAS STREET SUITE E,"BOSSIER CITY, LA 71111",http://maps.google.com/maps?q=BENZER%20PHARMACY%2C2951%20E%20TEXAS%20STREET%20SUITE%20E%2C+BOSSIER%20CITY%2C+LA+71111,
CHOCTAW NATION HLTH CARE CTR,ONE CHOCTAW WAY,"TALIHINA, OK 74571",http://maps.google.com/maps?q=CHOCTAW%20NATION%20HLTH%20CARE%20CTR%2CONE%20CHOCTAW%20WAY%2C+TALIHINA%2C+OK+74571,
CHOCTAW NATION INDIAN HEALTH,RUBIN WHITE HEALTH CLINIC,109 KERR AVE,"POTEAU, OK 74953",http://maps.google.com/maps?q=CHOCTAW%20NATION%20INDIAN%20HEALTH%2CRUBIN%20WHITE%20HEALTH%20CLINIC%2C+POTEAU%2C+OK+74953
"CONWAY BEHAVIORAL HEALTH, LLC",2255 STURGIS ROAD,"CONWAY, AR 72034",http://maps.google.com/maps?q=CONWAY%20BEHAVIORAL%20HEALTH%20LLC%2C2255%20STURGIS%20ROAD%2C+CONWAY%2C+AR+72034,
FUTRELL PHARMACY,115 E BROADWAY,"POCAHONTAS, AR 72455",http://maps.google.com/maps?q=FUTRELL%20PHARMACY%2C115%20E%20BROADWAY%2C+POCAHONTAS%2C+AR+72455,
HARRIS DRUG AND GIFTS LLC,205 W DEQUEEN AVE,"DE QUEEN, AR 71832",http://maps.google.com/maps?q=HARRIS%20DRUG%20AND%20GIFTS%20LLC%2C205%20W%20DEQUEEN%20AVE%2C+DE%20QUEEN%2C+AR+71832,
HEALTHCARE PHARMACY,"3401 ATWOOD RD.,SUITE F","LITTLE ROCK, AR 72206",http://maps.google.com/maps?q=HEALTHCARE%20PHARMACY%2C3401%20ATWOOD%20RD.%2CSUITE%20F%2C+LITTLE%20ROCK%2C+AR+72206,
HOT SPRINGS NATIONAL PARK,1910 MALVERN AVE,"HOT SPRINGS, AR 71901",http://maps.google.com/maps?q=HOT%20SPRINGS%20NATIONAL%20PARK%2C1910%20MALVERN%20AVE%2C+HOT%20SPRINGS%2C+AR+71901,
LOUIS MORGAN DRUG NO 4,110 JOHNSTON ST,"LONGVIEW, TX 75601",http://maps.google.com/maps?q=LOUIS%20MORGAN%20DRUG%20NO%2C110%20JOHNSTON%20ST%2C+LONGVIEW%2C+TX+75601,
"LOUISIANA CVS PHARMACY, L.L.C.",4890 BARKSDALE BLVD.,"BOSSIER CITY, LA 71112",http://maps.google.com/maps?q=LOUISIANA%20CVS%20PHARMACY%20LLC%2C4890%20BARKSDALE%20BLVD.%2C+BOSSIER%20CITY%2C+LA+71112,
"LOUISIANA CVS PHARMACY, L.L.C.",606 HOMER RD.,"MINDEN, LA 71055",http://maps.google.com/maps?q=LOUISIANA%20CVS%20PHARMACY%20LLC%2C606%20HOMER%20RD.%2C+MINDEN%2C+LA+71055,
RIVENDELL BEHAVIORAL HEALTH SERVICES,100 RIVENDELL DRIVE,"BENTON, AR 72019",http://maps.google.com/maps?q=RIVENDELL%20BEHAVIORAL%20HEALTH%20SERVICES%2C100%20RIVENDELL%20DRIVE%2C+BENTON%2C+AR+72019,
RX CARE PHARMACY,202 SOUTH AVE,SUITE A,"VIVIAN, LA 71082",http://maps.google.com/maps?q=RX%20CARE%20PHARMACY%2C202%20SOUTH%20AVE%2C+VIVIAN%2C+LA+71082
ST VINCENT INFIRMARY,TWO ST VINCENT CR,ATTN: PHARMACY; TODD LOCK,"LITTLE ROCK, AR 72205",http://maps.google.com/maps?q=ST%20VINCENT%20INFIRMARY%2CTWO%20ST%20VINCENT%20CR%2C+LITTLE%20ROCK%2C+AR+72205
TED'S PHARMACY,1866 MAIN ST,"HAYNESVILLE, LA 71038",http://maps.google.com/maps?q=TEDS%20PHARMACY%2C1866%20MAIN%20ST%2C+HAYNESVILLE%2C+LA+71038,
USAF- MEDICAL LOGISTICS OFFICER,19TH MEDICAL GROUP,1090 ARNOLD DRIVE,"LITTLE ROCK AFB, AR 72099",http://maps.google.com/maps?q=USAF%20MEDICAL%20LOGISTICS%20OFFICER%2C19TH%20MEDICAL%20GROUP%2C+LITTLE%20ROCK%20AFB%2C+AR+72099
USAF-BARKSDALE AFB,2D MDSS/SGSM,"243 CURTISS ROAD, SUITE 101","BARKSDALE AFB, LA 71110",http://maps.google.com/maps?q=USAFBARKSDALE%20AFB%2C2D%20MDSS/SGSM%2C+BARKSDALE%20AFB%2C+LA+71110
WAGNER'S MOUNT IDA PHARMACY,744 HWY 270 EAST,PO BOX 66,"MOUNT IDA, AR 71957",http://maps.google.com/maps?q=WAGNERS%20MOUNT%20IDA%20PHARMACY%2C744%20HWY%20270%20EAST%2C+MOUNT%20IDA%2C+AR+71957
WALGREEN CO.,108 E HIGHLAND DRIVE,"JONESBORO, AR 72401",http://maps.google.com/maps?q=WALGREEN%20CO%2C108%20E%20HIGHLAND%20DRIVE%2C+JONESBORO%2C+AR+72401,
WALGREEN CO.,1100 E MAIN ST,"RUSSELLVILLE, AR 72801",http://maps.google.com/maps?q=WALGREEN%20CO%2C1100%20E%20MAIN%20ST%2C+RUSSELLVILLE%2C+AR+72801,
WALGREEN CO.,111 N BOWMAN RD,"LITTLE ROCK, AR 72211",http://maps.google.com/maps?q=WALGREEN%20CO%2C111%20N%20BOWMAN%20RD%2C+LITTLE%20ROCK%2C+AR+72211,
WALGREEN CO.,200 E RACE AVE,"SEARCY, AR 72143",http://maps.google.com/maps?q=WALGREEN%20CO%2C200%20E%20RACE%20AVE%2C+SEARCY%2C+AR+72143,
WALGREEN CO.,2503 W 28TH AVE,"PINE BLUFF, AR 71603",http://maps.google.com/maps?q=WALGREEN%20CO%2C2503%20W%2028TH%20AVE%2C+PINE%20BLUFF%2C+AR+71603,
WALGREEN CO.,350 HWY 62 EAST,"MOUTAIN HOME, AR 72653",http://maps.google.com/maps?q=WALGREEN%20CO%2C350%20HWY%2062%20EAST%2C+MOUTAIN%20HOME%2C+AR+72653,
WALGREEN CO.,3631 CENTRAL AVE,"HOT SPRINGS, AR 71913",http://maps.google.com/maps?q=WALGREEN%20CO%2C3631%20CENTRAL%20AVE%2C+HOT%20SPRINGS%2C+AR+71913,
WALGREEN CO.,4823 JFK BLVD,"NORTH LITTLE ROCK, AR 72116",http://maps.google.com/maps?q=WALGREEN%20CO%2C4823%20JFK%20BLVD%2C+NORTH%20LITTLE%20ROCK%2C+AR+72116,
WALGREEN CO.,511 E MARSHALL AVENUE,"LONGVIEW, TX 75601",http://maps.google.com/maps?q=WALGREEN%20CO%2C511%20E%20MARSHALL%20AVENUE%2C+LONGVIEW%2C+TX+75601,
WALGREEN CO.,850 OAK STREET,"CONWAY, AR 72032",http://maps.google.com/maps?q=WALGREEN%20CO%2C850%20OAK%20STREET%2C+CONWAY%2C+AR+72032,
"WALGREEN LOUISIANA CO., INC.",2107 AIRLINE DRIVE,"BOSSIER CITY, LA 71111",http://maps.google.com/maps?q=WALGREEN%20LOUISIANA%20CO%20INC%2C2107%20AIRLINE%20DRIVE%2C+BOSSIER%20CITY%2C+LA+71111,
"WALGREEN LOUISIANA CO., INC.",3400 AIRLINE DR,"BOSSIER CITY, LA 71111",http://maps.google.com/maps?q=WALGREEN%20LOUISIANA%20CO%20INC%2C3400%20AIRLINE%20DR%2C+BOSSIER%20CITY%2C+LA+71111,
