Business Name,Address 1,Address 2,"City, State Zip",Map URL
AGH APOTHECARY,320 E. NORTH AVE,SUITE 111,"PITTSBURGH, PA 15212",http://maps.google.com/maps?q=AGH%20APOTHECARY%2C320%20E.%20NORTH%20AVE%2C+PITTSBURGH%2C+PA+15212
AHF PHARMACY,1230 N HIGH ST,"COLUMBUS, OH 43201",http://maps.google.com/maps?q=AHF%20PHARMACY%2C1230%20N%20HIGH%20ST%2C+COLUMBUS%2C+OH+43201,
AHN PHARMACY,SUITE F,12311 PERRY HIGHWAY,"WEXFORD, PA 15090",http://maps.google.com/maps?q=AHN%20PHARMACY%2CSUITE%20F%2C+WEXFORD%2C+PA+15090
AHN PHARMACY #5,SUITE 300,120 FIFTH AVENUE,"PITTSBURGH, PA 15222",http://maps.google.com/maps?q=AHN%20PHARMACY%2CSUITE%20300%2C+PITTSBURGH%2C+PA+15222
ALLIANCE COMMUNITY HOSPITAL,200 E. STATE ST,"ALLIANCE, OH 44601",http://maps.google.com/maps?q=ALLIANCE%20COMMUNITY%20HOSPITAL%2C200%20E.%20STATE%20ST%2C+ALLIANCE%2C+OH+44601,
"AMC OHIO LLC, DBA EQUITAS HEALTH PHARMACY #3",750 E LONG ST,SUITE 3100,"COLUMBUS, OH 43203",http://maps.google.com/maps?q=AMC%20OHIO%20LLC%20DBA%20EQUITAS%20HEALTH%20PHARMACY%2C750%20E%20LONG%20ST%2C+COLUMBUS%2C+OH+43203
ARROWHEAD BEHAVIORAL HEALTH,1725 TIMBER LINE ROAD,"MAUMEE, OH 43537",http://maps.google.com/maps?q=ARROWHEAD%20BEHAVIORAL%20HEALTH%2C1725%20TIMBER%20LINE%20ROAD%2C+MAUMEE%2C+OH+43537,
ASCENSION MICHIGAN PHARMACY,22151 MOROSS RD,STE G25,"DETROIT, MI 48236",http://maps.google.com/maps?q=ASCENSION%20MICHIGAN%20PHARMACY%2C22151%20MOROSS%20RD%2C+DETROIT%2C+MI+48236
"AVITA ONTARIO HOSPITAL, LLC",715 RICHLAND MALL,"MANSFIELD, OH 44906",http://maps.google.com/maps?q=AVITA%20ONTARIO%20HOSPITAL%20LLC%2C715%20RICHLAND%20MALL%2C+MANSFIELD%2C+OH+44906,
BARNESVILLE HOSPITAL ASSN INC,639 W MAIN ST,"BARNESVILLE, OH 43713",http://maps.google.com/maps?q=BARNESVILLE%20HOSPITAL%20ASSN%20INC%2C639%20W%20MAIN%20ST%2C+BARNESVILLE%2C+OH+43713,
BAY PARK COMMUNITY HOSPITAL,2801 BAY PARK DRIVE,"OREGON, OH 43616",http://maps.google.com/maps?q=BAY%20PARK%20COMMUNITY%20HOSPITAL%2C2801%20BAY%20PARK%20DRIVE%2C+OREGON%2C+OH+43616,
BEDFORD WELLNESS PHARMACY,7473 SECOR ROAD,UNIT C,"LAMBERTVILLE, MI 48144",http://maps.google.com/maps?q=BEDFORD%20WELLNESS%20PHARMACY%2C7473%20SECOR%20ROAD%2C+LAMBERTVILLE%2C+MI+48144
BELLWOOD DRUGS,135 SOUTH MAIN STREET,"WOODSFIELD, OH 43793",http://maps.google.com/maps?q=BELLWOOD%20DRUGS%2C135%20SOUTH%20MAIN%20STREET%2C+WOODSFIELD%2C+OH+43793,
BELMONT CO HLTH SERVICES,DBA MORRISTOWN PHCY,66840 BELMONT-MORRISTOWN RD,"BELMONT, OH 43718",http://maps.google.com/maps?q=BELMONT%20CO%20HLTH%20SERVICES%2CDBA%20MORRISTOWN%20PHCY%2C+BELMONT%2C+OH+43718
BENZER PHARMACY,13355 DIX TOLEDO RD,"SOUTHGATE, MI 48195",http://maps.google.com/maps?q=BENZER%20PHARMACY%2C13355%20DIX%20TOLEDO%20RD%2C+SOUTHGATE%2C+MI+48195,
BERGER HOSPITAL,600 NORTH PICKAWAY STREET,ATTN PHARMACY,"CIRCLEVILLE, OH 43113",http://maps.google.com/maps?q=BERGER%20HOSPITAL%2C600%20NORTH%20PICKAWAY%20STREET%2C+CIRCLEVILLE%2C+OH+43113
BLUE PHARMACY,6240 MICHIGAN AVE,"DETROIT, MI 48210",http://maps.google.com/maps?q=BLUE%20PHARMACY%2C6240%20MICHIGAN%20AVE%2C+DETROIT%2C+MI+48210,
BRONSON BATTLE CREEK OUTPATIENT PHARMACY,363 FREMONT ST,STE 111,"BATTLE CREEK, MI 49017",http://maps.google.com/maps?q=BRONSON%20BATTLE%20CREEK%20OUTPATIENT%20PHARMACY%2C363%20FREMONT%20ST%2C+BATTLE%20CREEK%2C+MI+49017
BUCYRUS COMMUNITY HOSPITAL,629 N SANDUSKY AVE,"BUCYRUS, OH 44820",http://maps.google.com/maps?q=BUCYRUS%20COMMUNITY%20HOSPITAL%2C629%20N%20SANDUSKY%20AVE%2C+BUCYRUS%2C+OH+44820,
CENTER FOR FAMILY HEALTH,505 NORTH JACKSON STREET,"JACKSON, MI 49201",http://maps.google.com/maps?q=CENTER%20FOR%20FAMILY%20HEALTH%2C505%20NORTH%20JACKSON%20STREET%2C+JACKSON%2C+MI+49201,
CHEFFY DRUGS LLC,148 E MAIN ST,"BARNESVILLE, OH 43713",http://maps.google.com/maps?q=CHEFFY%20DRUGS%20LLC%2C148%20E%20MAIN%20ST%2C+BARNESVILLE%2C+OH+43713,
CHRISTIAN PHARMACY,DBA CORNER PHARMACY,102 WEST MAIN ST,"BARNESVILLE, OH 43713",http://maps.google.com/maps?q=CHRISTIAN%20PHARMACY%2CDBA%20CORNER%20PHARMACY%2C+BARNESVILLE%2C+OH+43713
CLARK PROFESSIONAL PHARMACY,3280 WASHTENAW AVE.,STE B,"ANN ARBOR, MI 48104",http://maps.google.com/maps?q=CLARK%20PROFESSIONAL%20PHARMACY%2C3280%20WASHTENAW%20AVE.%2C+ANN%20ARBOR%2C+MI+48104
CLEVELAND CLINIC AVON AMBULATORY PHARMACY,33100 CLEVELAND CLINIC BLVD,"AVON, OH 44011",http://maps.google.com/maps?q=CLEVELAND%20CLINIC%20AVON%20AMBULATORY%20PHARMACY%2C33100%20CLEVELAND%20CLINIC%20BLVD%2C+AVON%2C+OH+44011,
COMMUNITY CARE OF WEST VIRGINIA,597 LIBERTY STREET,"WEST MILFORD, WV 26451",http://maps.google.com/maps?q=COMMUNITY%20CARE%20OF%20WEST%20VIRGINIA%2C597%20LIBERTY%20STREET%2C+WEST%20MILFORD%2C+WV+26451,
"COMMUNITY CARE OF WEST VIRGINIA, INC",DBA COMMUNITY CARE PHARMACY OF BUCKHANNON,37 W MAIN ST,"BUCKHANNON, WV 26201",http://maps.google.com/maps?q=COMMUNITY%20CARE%20OF%20WEST%20VIRGINIA%20INC%2CDBA%20COMMUNITY%20CARE%20PHARMACY%20OF%20BUCKHANNON%2C+BUCKHANNON%2C+WV+26201
COMMUNITY HEALTH CENTER,274 EAST CHICAGO STREET,"COLDWATER, MI 49036",http://maps.google.com/maps?q=COMMUNITY%20HEALTH%20CENTER%2C274%20EAST%20CHICAGO%20STREET%2C+COLDWATER%2C+MI+49036,
COMMUNITY MARKET 320 PHARMACY,262 SANDUSKY ST,"PLYMOUTH, OH 44865",http://maps.google.com/maps?q=COMMUNITY%20MARKET%20%20PHARMACY%2C262%20SANDUSKY%20ST%2C+PLYMOUTH%2C+OH+44865,
COMMUNITY MARKETS PHARMACY,702 MAIN STREET,"DELTA, OH 43515",http://maps.google.com/maps?q=COMMUNITY%20MARKETS%20PHARMACY%2C702%20MAIN%20STREET%2C+DELTA%2C+OH+43515,
CRARY DRUG,8941 LEWIS AVENUE,"TEMPERANCE, MI 48182",http://maps.google.com/maps?q=CRARY%20DRUG%2C8941%20LEWIS%20AVENUE%2C+TEMPERANCE%2C+MI+48182,
DAVIS BROTHERS PHARMACY,615 N CHESTER ST,"NEW CUMBERLAND, WV 26047",http://maps.google.com/maps?q=DAVIS%20BROTHERS%20PHARMACY%2C615%20N%20CHESTER%20ST%2C+NEW%20CUMBERLAND%2C+WV+26047,
DAVIS BROTHERS PHARMACY - CHESTER,559 CAROLINA AVE STE B,"CHESTER, WV 26034",http://maps.google.com/maps?q=DAVIS%20BROTHERS%20PHARMACY%20%20CHESTER%2C559%20CAROLINA%20AVE%20STE%20B%2C+CHESTER%2C+WV+26034,
DEARBORN HEIGHTS PHARMACY,25524 FORD ROAD,"DEARBORN HEIGHTS, MI 48127",http://maps.google.com/maps?q=DEARBORN%20HEIGHTS%20PHARMACY%2C25524%20FORD%20ROAD%2C+DEARBORN%20HEIGHTS%2C+MI+48127,
DIAL DRUGS,8226 N MERRIMAN RD,"WESTLAND, MI 48185",http://maps.google.com/maps?q=DIAL%20DRUGS%2C8226%20N%20MERRIMAN%20RD%2C+WESTLAND%2C+MI+48185,
DONORA UNION PHARMACY,601 MCKEAN AVE,"DONORA, PA 15033",http://maps.google.com/maps?q=DONORA%20UNION%20PHARMACY%2C601%20MCKEAN%20AVE%2C+DONORA%2C+PA+15033,
DUSINI DRUG INC,315 E HIGH AVE,"NEW PHILADELPHIA, OH 44663",http://maps.google.com/maps?q=DUSINI%20DRUG%20INC%2C315%20E%20HIGH%20AVE%2C+NEW%20PHILADELPHIA%2C+OH+44663,
EMMA L BIXBY MED CTR INC,818 RIVERSIDE AVE,"ADRIAN, MI 49221",http://maps.google.com/maps?q=EMMA%20L%20BIXBY%20MED%20CTR%20INC%2C818%20RIVERSIDE%20AVE%2C+ADRIAN%2C+MI+49221,
EQUITAS HEALTH PHARMACY,1033 N. HIGH ST.,"COLUMBUS, OH 43201",http://maps.google.com/maps?q=EQUITAS%20HEALTH%20PHARMACY%2C1033%20N.%20HIGH%20ST.%2C+COLUMBUS%2C+OH+43201,
"FAMILY HEALTH CENTER, INC",117 W PATERSON,"KALAMAZOO, MI 49007",http://maps.google.com/maps?q=FAMILY%20HEALTH%20CENTER%20INC%2C117%20W%20PATERSON%2C+KALAMAZOO%2C+MI+49007,
FAST & FRIENDLY PHARMACY RC LLC,4 GARTON PLAZA,"WESTON, WV 26452",http://maps.google.com/maps?q=FAST%20%20FRIENDLY%20PHARMACY%20RC%20LLC%2C4%20GARTON%20PLAZA%2C+WESTON%2C+WV+26452,
FINNEY'S INSTITUTIONAL,5930 MAYFAIR RD. N.W.,"NORTH CANTON, OH 44720",http://maps.google.com/maps?q=FINNEYS%20INSTITUTIONAL%2C5930%20MAYFAIR%20RD.%20N.W.%2C+NORTH%20CANTON%2C+OH+44720,
FIRELANDS REGIONAL MEDICAL CENTER,1111 HAYES AVENUE,PHARMACY DEPARTMENT,"SANDUSKY, OH 44870",http://maps.google.com/maps?q=FIRELANDS%20REGIONAL%20MEDICAL%20CENTER%2C1111%20HAYES%20AVENUE%2C+SANDUSKY%2C+OH+44870
FLOWER MEMORIAL HOSPITAL PHAR,5200 HARROUN ROAD,"SYLVANIA, OH 43560",http://maps.google.com/maps?q=FLOWER%20MEMORIAL%20HOSPITAL%20PHAR%2C5200%20HARROUN%20ROAD%2C+SYLVANIA%2C+OH+43560,
FOSTORIA COMMUNITY HOSPITAL,501 VAN BUREN STREET,"FOSTORIA, OH 44830",http://maps.google.com/maps?q=FOSTORIA%20COMMUNITY%20HOSPITAL%2C501%20VAN%20BUREN%20STREET%2C+FOSTORIA%2C+OH+44830,
FRANKLIN PHARM & HEALTH CARE,1732 YOUNGSTOWN RD,"WARREN, OH 44484",http://maps.google.com/maps?q=FRANKLIN%20PHARM%20%20HEALTH%20CARE%2C1732%20YOUNGSTOWN%20RD%2C+WARREN%2C+OH+44484,
"GENOA HEALTHCARE, LLC","525 METRO PLACE N, STE 150","DUBLIN, OH 43017",http://maps.google.com/maps?q=GENOA%20HEALTHCARE%20LLC%2C525%20METRO%20PLACE%20N%2C%20STE%20150%2C+DUBLIN%2C+OH+43017,
"GENOA HEALTHCARE, LLC","624 MARKET STREET N, STE 140","CANTON, OH 44702",http://maps.google.com/maps?q=GENOA%20HEALTHCARE%20LLC%2C624%20MARKET%20STREET%20N%2C%20STE%20140%2C+CANTON%2C+OH+44702,
"GENOA HEALTHCARE, LLC",625 CLEVELAND AVE NW,SUITE 301,"CANTON, OH 44702",http://maps.google.com/maps?q=GENOA%20HEALTHCARE%20LLC%2C625%20CLEVELAND%20AVE%20NW%2C+CANTON%2C+OH+44702
"GENOA HEALTHCARE, LLC",65 MESSIMER DRIVE,"NEWARK, OH 43055",http://maps.google.com/maps?q=GENOA%20HEALTHCARE%20LLC%2C65%20MESSIMER%20DRIVE%2C+NEWARK%2C+OH+43055,
"GENOA HEALTHCARE, LLC",726 WICK AVE,"YOUNGSTOWN, OH 44505",http://maps.google.com/maps?q=GENOA%20HEALTHCARE%20LLC%2C726%20WICK%20AVE%2C+YOUNGSTOWN%2C+OH+44505,
"GENOA HEALTHCARE, LLC","741 SCHOLL ROAD, STE P1","MANSFIELD, OH 44907",http://maps.google.com/maps?q=GENOA%20HEALTHCARE%20LLC%2C741%20SCHOLL%20ROAD%2C%20STE%20P1%2C+MANSFIELD%2C+OH+44907,
"GENOA HEALTHCARE, LLC",799 SOUTH MAIN STREET,"LIMA, OH 45804",http://maps.google.com/maps?q=GENOA%20HEALTHCARE%20LLC%2C799%20SOUTH%20MAIN%20STREET%2C+LIMA%2C+OH+45804,
GILLESPIE'S DRUGS,44523 MARIETTA ROAD,"CALDWELL, OH 43724",http://maps.google.com/maps?q=GILLESPIES%20DRUGS%2C44523%20MARIETTA%20ROAD%2C+CALDWELL%2C+OH+43724,
GRANE SUPPLY,105 GAMMA DR,SUITE 100,"PITTSBURGH, PA 15238",http://maps.google.com/maps?q=GRANE%20SUPPLY%2C105%20GAMMA%20DR%2C+PITTSBURGH%2C+PA+15238
GREAT SCOT 90 PHARMACY,13710 DESHLER RD,"NORTH BALTIMORE, OH 45872",http://maps.google.com/maps?q=GREAT%20SCOT%20%20PHARMACY%2C13710%20DESHLER%20RD%2C+NORTH%20BALTIMORE%2C+OH+45872,
GULL POINTE PHARMACY,5585 GULL ROAD,SUITE #120,"KALAMAZOO, MI 49048",http://maps.google.com/maps?q=GULL%20POINTE%20PHARMACY%2C5585%20GULL%20ROAD%2C+KALAMAZOO%2C+MI+49048
HEMMINGSEN DRUG STORE,132 W. MICHIGAN AVE.,"MARSHALL, MI 49068",http://maps.google.com/maps?q=HEMMINGSEN%20DRUG%20STORE%2C132%20W.%20MICHIGAN%20AVE.%2C+MARSHALL%2C+MI+49068,
HENRY FORD HEALTH CENTER - BROWNSTOWN PHARMACY,23050 WEST RD,"BROWNSTOWN TWP, MI 48183",http://maps.google.com/maps?q=HENRY%20FORD%20HEALTH%20CENTER%20%20BROWNSTOWN%20PHARMACY%2C23050%20WEST%20RD%2C+BROWNSTOWN%20TWP%2C+MI+48183,
HENRY FORD MEDICAL CENTER,131 KERCHEVAL AVE STE 110,"GROSSE POINTE FARMS, MI 48236",http://maps.google.com/maps?q=HENRY%20FORD%20MEDICAL%20CENTER%2C131%20KERCHEVAL%20AVE%20STE%20110%2C+GROSSE%20POINTE%20FARMS%2C+MI+48236,
HENRY FORD MEDICAL CENTER,2799 W GRAND BLVD,"DETROIT, MI 48202",http://maps.google.com/maps?q=HENRY%20FORD%20MEDICAL%20CENTER%2C2799%20W%20GRAND%20BLVD%2C+DETROIT%2C+MI+48202,
HENRY FORD MEDICAL CENTER,2799 W GRAND BLVD,K-15 PHARMACY,"DETROIT, MI 48202",http://maps.google.com/maps?q=HENRY%20FORD%20MEDICAL%20CENTER%2C2799%20W%20GRAND%20BLVD%2C+DETROIT%2C+MI+48202
HENRY FORD MEDICAL CENTER PHARMACY,1 FORD PL,"DETROIT, MI 48202",http://maps.google.com/maps?q=HENRY%20FORD%20MEDICAL%20CENTER%20PHARMACY%2C1%20FORD%20PL%2C+DETROIT%2C+MI+48202,
HENRY FORD MEDICAL CENTER PHARMACY -  FORD ROAD,5500 AUTO CLUB DRIVE,"DEARBORN, MI 48126",http://maps.google.com/maps?q=HENRY%20FORD%20MEDICAL%20CENTER%20PHARMACY%20%20%20FORD%20ROAD%2C5500%20AUTO%20CLUB%20DRIVE%2C+DEARBORN%2C+MI+48126,
HENRY FORD MEDICAL CENTER PHARMACY-WYANDOTTE HOSP,2333 BIDDLE AVE,"WYANDOTTE, MI 48192",http://maps.google.com/maps?q=HENRY%20FORD%20MEDICAL%20CENTER%20PHARMACYWYANDOTTE%20HOSP%2C2333%20BIDDLE%20AVE%2C+WYANDOTTE%2C+MI+48192,
HERITAGE VALLEY PHARMACY,BEAVER CAMPUS/PHARMACY DEPT,1000 DUTCH RIDGE ROAD,"BEAVER, PA 15009",http://maps.google.com/maps?q=HERITAGE%20VALLEY%20PHARMACY%2CBEAVER%20CAMPUS/PHARMACY%20DEPT%2C+BEAVER%2C+PA+15009
HERITAGE VALLEY PHARMACY SEWICKLEY CAMP,720 BLACKBURN ROAD,"SEWICKLEY, PA 15143",http://maps.google.com/maps?q=HERITAGE%20VALLEY%20PHARMACY%20SEWICKLEY%20CAMP%2C720%20BLACKBURN%20ROAD%2C+SEWICKLEY%2C+PA+15143,
HFMC - LIVONIA PHARMACY,29200 SCHOOLCRAFT,"LIVONIA, MI 48150",http://maps.google.com/maps?q=HFMC%20%20LIVONIA%20PHARMACY%2C29200%20SCHOOLCRAFT%2C+LIVONIA%2C+MI+48150,
HILLSDALE MARKET PHARMACY,DIVISION OF NASH DRUGS INC,208 W CARLETON ROAD,"HILLSDALE, MI 49242",http://maps.google.com/maps?q=HILLSDALE%20MARKET%20PHARMACY%2CDIVISION%20OF%20NASH%20DRUGS%20INC%2C+HILLSDALE%2C+MI+49242
HILLTOP PHARMACY,818 E. WARRINGTON AVENUE,"PITTSBURGH, PA 15210",http://maps.google.com/maps?q=HILLTOP%20PHARMACY%2C818%20E.%20WARRINGTON%20AVENUE%2C+PITTSBURGH%2C+PA+15210,
"HOOK-SUPERX, L.L.C.",2802 EAST STATE BOULEVARD,"FORT WAYNE, IN 46805",http://maps.google.com/maps?q=HOOKSUPERX%20LLC%2C2802%20EAST%20STATE%20BOULEVARD%2C+FORT%20WAYNE%2C+IN+46805,
HYDE DRUG STORE,112 N LIBERTY ST,"NEW CASTLE, PA 16102",http://maps.google.com/maps?q=HYDE%20DRUG%20STORE%2C112%20N%20LIBERTY%20ST%2C+NEW%20CASTLE%2C+PA+16102,
IGA COMMUNITY MARKET,279 W WATER STREET,"OAK HARBOR, OH 43449",http://maps.google.com/maps?q=IGA%20COMMUNITY%20MARKET%2C279%20W%20WATER%20STREET%2C+OAK%20HARBOR%2C+OH+43449,
IPHARMACY,31193 PLYMOUTH RD,"LIVONIA, MI 48150",http://maps.google.com/maps?q=IPHARMACY%2C31193%20PLYMOUTH%20RD%2C+LIVONIA%2C+MI+48150,
JOINT TWNSHP DIST MEM'RL HOSP,PHARMACY DEPARTMENT,200 ST CLAIR STREET,"ST MARYS, OH 45885",http://maps.google.com/maps?q=JOINT%20TWNSHP%20DIST%20MEMRL%20HOSP%2CPHARMACY%20DEPARTMENT%2C+ST%20MARYS%2C+OH+45885
KARMANOS CANCER HOSPITAL PHARMACY,4100 JOHN R,SUITE HP00RX,"DETROIT, MI 48201",http://maps.google.com/maps?q=KARMANOS%20CANCER%20HOSPITAL%20PHARMACY%2C4100%20JOHN%20R%2C+DETROIT%2C+MI+48201
LIMA MEMORIAL JOINT,DBA:LIMA MEMORIAL HLTH SYS,1001 BELLEFONTAINE AVENUE,"LIMA, OH 45804",http://maps.google.com/maps?q=LIMA%20MEMORIAL%20JOINT%2CDBA%3ALIMA%20MEMORIAL%20HLTH%20SYS%2C+LIMA%2C+OH+45804
LINWORTHS PHARMACY,2245 W DUBLIN-GRANVILLE RD,SUITE 103,"WORTHINGTON, OH 43085",http://maps.google.com/maps?q=LINWORTHS%20PHARMACY%2C2245%20W%20DUBLIN-GRANVILLE%20RD%2C+WORTHINGTON%2C+OH+43085
LONG TERM CARE NASH DRUGS,44 NORTH HOWELL STREET,SUITE A,"HILLSDALE, MI 49242",http://maps.google.com/maps?q=LONG%20TERM%20CARE%20NASH%20DRUGS%2C44%20NORTH%20HOWELL%20STREET%2C+HILLSDALE%2C+MI+49242
MERCER PHARMACY,737 GREENVILLE ROAD,"MERCER, PA 16137",http://maps.google.com/maps?q=MERCER%20PHARMACY%2C737%20GREENVILLE%20ROAD%2C+MERCER%2C+PA+16137,
MOUNDSVILLE PHARMACY,118 NORTH LAFAYETTE AVENUE,"MOUNDSVILLE, WV 26041",http://maps.google.com/maps?q=MOUNDSVILLE%20PHARMACY%2C118%20NORTH%20LAFAYETTE%20AVENUE%2C+MOUNDSVILLE%2C+WV+26041,
NASH DRUGS INC,237 E CHICAGO ST,"JONESVILLE, MI 49250",http://maps.google.com/maps?q=NASH%20DRUGS%20INC%2C237%20E%20CHICAGO%20ST%2C+JONESVILLE%2C+MI+49250,
NASH DRUGS INC,30 NORTH HOWELL STREET,"HILLSDALE, MI 49242",http://maps.google.com/maps?q=NASH%20DRUGS%20INC%2C30%20NORTH%20HOWELL%20STREET%2C+HILLSDALE%2C+MI+49242,
NATIONWIDE CHILDREN'S HOSPITAL,700 CHILDRENS DR,"COLUMBUS, OH 43205",http://maps.google.com/maps?q=NATIONWIDE%20CHILDRENS%20HOSPITAL%2C700%20CHILDRENS%20DR%2C+COLUMBUS%2C+OH+43205,
NCH YELLOW PHARMACY,380 BUTTERFLY GARDENS DRIVE,"COLUMBUS, OH 43215",http://maps.google.com/maps?q=NCH%20YELLOW%20PHARMACY%2C380%20BUTTERFLY%20GARDENS%20DRIVE%2C+COLUMBUS%2C+OH+43215,
NEW MARTINSVILLE PHARMACY,155 NORTH STREET,"NEW MARTINSVILLE, WV 26155",http://maps.google.com/maps?q=NEW%20MARTINSVILLE%20PHARMACY%2C155%20NORTH%20STREET%2C+NEW%20MARTINSVILLE%2C+WV+26155,
NORTHSIDE CAMBRIDGE PHARMACY,1300 CLARK STREET,SUITE 4,"CAMBRIDGE, OH 43725",http://maps.google.com/maps?q=NORTHSIDE%20CAMBRIDGE%20PHARMACY%2C1300%20CLARK%20STREET%2C+CAMBRIDGE%2C+OH+43725
NORTHSIDE PHARMACY,2899 BELL STREET,"ZANESVILLE, OH 43701",http://maps.google.com/maps?q=NORTHSIDE%20PHARMACY%2C2899%20BELL%20STREET%2C+ZANESVILLE%2C+OH+43701,
NORTHSIDE SOMERSET PHARMACY,110 WEST MAIN STREET,"SOMERSET, OH 43783",http://maps.google.com/maps?q=NORTHSIDE%20SOMERSET%20PHARMACY%2C110%20WEST%20MAIN%20STREET%2C+SOMERSET%2C+OH+43783,
NORTHWEST OHIO PSYCHIATRIC HOSPITAL,930 SOUTH DETROIT AVENUE,"TOLEDO, OH 43614",http://maps.google.com/maps?q=NORTHWEST%20OHIO%20PSYCHIATRIC%20HOSPITAL%2C930%20SOUTH%20DETROIT%20AVENUE%2C+TOLEDO%2C+OH+43614,
"OHIO CVS STORES, L.L.C.",100 E. MAIN ST.,"WOODVILLE, OH 43469",http://maps.google.com/maps?q=OHIO%20CVS%20STORES%20LLC%2C100%20E.%20MAIN%20ST.%2C+WOODVILLE%2C+OH+43469,
"OHIO CVS STORES, L.L.C.",1100 HILL RD. N,"PICKERINGTON, OH 43147",http://maps.google.com/maps?q=OHIO%20CVS%20STORES%20LLC%2C1100%20HILL%20RD.%20N%2C+PICKERINGTON%2C+OH+43147,
"OHIO CVS STORES, L.L.C.",111 SOUTH MEMORIAL DRIVE,"LANCASTER, OH 43130",http://maps.google.com/maps?q=OHIO%20CVS%20STORES%20LLC%2C111%20SOUTH%20MEMORIAL%20DRIVE%2C+LANCASTER%2C+OH+43130,
"OHIO CVS STORES, L.L.C.",21 GRANT ST.,"DENNISON, OH 44621",http://maps.google.com/maps?q=OHIO%20CVS%20STORES%20LLC%2C21%20GRANT%20ST.%2C+DENNISON%2C+OH+44621,
"OHIO CVS STORES, L.L.C.",210 EAST EMMITT AVE.,"WAVERLY, OH 45690",http://maps.google.com/maps?q=OHIO%20CVS%20STORES%20LLC%2C210%20EAST%20EMMITT%20AVE.%2C+WAVERLY%2C+OH+45690,
"OHIO CVS STORES, L.L.C.",212 E. WOOSTER STREET,"BOWLING GREEN, OH 43402",http://maps.google.com/maps?q=OHIO%20CVS%20STORES%20LLC%2C212%20E.%20WOOSTER%20STREET%2C+BOWLING%20GREEN%2C+OH+43402,
"OHIO CVS STORES, L.L.C.",2210 TUSCARAWAS ST. W,"CANTON, OH 44708",http://maps.google.com/maps?q=OHIO%20CVS%20STORES%20LLC%2C2210%20TUSCARAWAS%20ST.%20W%2C+CANTON%2C+OH+44708,
"OHIO CVS STORES, L.L.C.",2846 MAHONING AVE,"YOUNGSTOWN, OH 44509",http://maps.google.com/maps?q=OHIO%20CVS%20STORES%20LLC%2C2846%20MAHONING%20AVE%2C+YOUNGSTOWN%2C+OH+44509,
"OHIO CVS STORES, L.L.C.",4121 MONROE STREET,"TOLEDO, OH 43606",http://maps.google.com/maps?q=OHIO%20CVS%20STORES%20LLC%2C4121%20MONROE%20STREET%2C+TOLEDO%2C+OH+43606,
"OHIO CVS STORES, L.L.C.",4548 E. MAIN ST.,"WHITEHALL, OH 43213",http://maps.google.com/maps?q=OHIO%20CVS%20STORES%20LLC%2C4548%20E.%20MAIN%20ST.%2C+WHITEHALL%2C+OH+43213,
"OHIO CVS STORES, L.L.C.",4801 W. BROAD ST.,"COLUMBUS, OH 43228",http://maps.google.com/maps?q=OHIO%20CVS%20STORES%20LLC%2C4801%20W.%20BROAD%20ST.%2C+COLUMBUS%2C+OH+43228,
"OHIO CVS STORES, L.L.C.",590 EAST MARKET STREET,"AKRON, OH 44304",http://maps.google.com/maps?q=OHIO%20CVS%20STORES%20LLC%2C590%20EAST%20MARKET%20STREET%2C+AKRON%2C+OH+44304,
"OHIO CVS STORES, L.L.C.",620 S. CLEVELAND AVE.,"WESTERVILLE, OH 43081",http://maps.google.com/maps?q=OHIO%20CVS%20STORES%20LLC%2C620%20S.%20CLEVELAND%20AVE.%2C+WESTERVILLE%2C+OH+43081,
"OHIO CVS STORES, L.L.C.",7470 SAWMILL RD.,"DUBLIN, OH 43016",http://maps.google.com/maps?q=OHIO%20CVS%20STORES%20LLC%2C7470%20SAWMILL%20RD.%2C+DUBLIN%2C+OH+43016,
PALM PHARMACY,6650 GREENFIELD RD,"DEARBORN, MI 48126",http://maps.google.com/maps?q=PALM%20PHARMACY%2C6650%20GREENFIELD%20RD%2C+DEARBORN%2C+MI+48126,
"PCA-CORRECTIONS, LLC DBA CHOICE PHARMACY",4014 VENTURE COURT,"COLUMBUS, OH 43228",http://maps.google.com/maps?q=PCACORRECTIONS%20LLC%20DBA%20CHOICE%20PHARMACY%2C4014%20VENTURE%20COURT%2C+COLUMBUS%2C+OH+43228,
"PENNSYLVANIA CVS PHARMACY, L.L.C.",1740 WASHINGTON RD,"PITTSBURGH, PA 15241",http://maps.google.com/maps?q=PENNSYLVANIA%20CVS%20PHARMACY%20LLC%2C1740%20WASHINGTON%20RD%2C+PITTSBURGH%2C+PA+15241,
"PENNSYLVANIA CVS PHARMACY, L.L.C.",4610 CENTRE AVE,"PITTSBURGH, PA 15213",http://maps.google.com/maps?q=PENNSYLVANIA%20CVS%20PHARMACY%20LLC%2C4610%20CENTRE%20AVE%2C+PITTSBURGH%2C+PA+15213,
"PENNSYLVANIA CVS PHARMACY, L.L.C.",520 PENN AVE,"WILKINSBURG, PA 15221",http://maps.google.com/maps?q=PENNSYLVANIA%20CVS%20PHARMACY%20LLC%2C520%20PENN%20AVE%2C+WILKINSBURG%2C+PA+15221,
PROMEDICA DEFIANCE REGIONAL HOSPITAL,1200 RALSTON AVENUE,"DEFIANCE, OH 43512",http://maps.google.com/maps?q=PROMEDICA%20DEFIANCE%20REGIONAL%20HOSPITAL%2C1200%20RALSTON%20AVENUE%2C+DEFIANCE%2C+OH+43512,
PROMEDICA MEMORIAL HOSPITAL,PHARMACY,715 SOUTH TAFT AVE,"FREMONT, OH 43420",http://maps.google.com/maps?q=PROMEDICA%20MEMORIAL%20HOSPITAL%2CPHARMACY%2C+FREMONT%2C+OH+43420
"RX INSTITUTIONAL SERVICES, LLC",1419 BOARDMAN CANFIELD RD,STE 340,"BOARDMAN, OH 44512",http://maps.google.com/maps?q=RX%20INSTITUTIONAL%20SERVICES%20LLC%2C1419%20BOARDMAN%20CANFIELD%20RD%2C+BOARDMAN%2C+OH+44512
"SBW PHARMACY, INC",3676 N. HERMITAGE RD.,P.O. BOX 103,"TRANSFER, PA 16154",http://maps.google.com/maps?q=SBW%20PHARMACY%20INC%2C3676%20N.%20HERMITAGE%20RD.%2C+TRANSFER%2C+PA+16154
SHARON PHARMACY,63 PITT STREET,SUITE 102,"SHARON, PA 16146",http://maps.google.com/maps?q=SHARON%20PHARMACY%2C63%20PITT%20STREET%2C+SHARON%2C+PA+16146
SINDECUSE HEALTH CENTER,NORTH GILKISON AVENUE,"KALAMAZOO, MI 49008",http://maps.google.com/maps?q=SINDECUSE%20HEALTH%20CENTER%2CNORTH%20GILKISON%20AVENUE%2C+KALAMAZOO%2C+MI+49008,
ST MARGARET MEMORIAL HOSPITAL,815 FREEPORT RD,"PITTSBURGH, PA 15215",http://maps.google.com/maps?q=ST%20MARGARET%20MEMORIAL%20HOSPITAL%2C815%20FREEPORT%20RD%2C+PITTSBURGH%2C+PA+15215,
ST RITA'S MEDICAL CENTER,730 W MARKET ST,"LIMA, OH 45801",http://maps.google.com/maps?q=ST%20RITAS%20MEDICAL%20CENTER%2C730%20W%20MARKET%20ST%2C+LIMA%2C+OH+45801,
ST. ELIZABETH BOARDMAN HOSPITAL,8401 MARKET STREET,"BOARDMAN, OH 44512",http://maps.google.com/maps?q=ST%20ELIZABETH%20BOARDMAN%20HOSPITAL%2C8401%20MARKET%20STREET%2C+BOARDMAN%2C+OH+44512,
ST. ELIZABETH YOUNGSTOWN HOSPITAL,1044 BELMONT AVENUE,2ND FLOOR,"YOUNGSTOWN, OH 44501",http://maps.google.com/maps?q=ST%20ELIZABETH%20YOUNGSTOWN%20HOSPITAL%2C1044%20BELMONT%20AVENUE%2C+YOUNGSTOWN%2C+OH+44501
ST. JOSEPH WARREN HOSPITAL,ATTN: PHARMACY DEPARTMENT,"667 EASTLAND AVENUE, SE","WARREN, OH 44484",http://maps.google.com/maps?q=ST%20JOSEPH%20WARREN%20HOSPITAL%2CATTN%3A%20PHARMACY%20DEPARTMENT%2C+WARREN%2C+OH+44484
THE MEDICINE SHOPPE,1740 EAST STATE STREET,"HERMITAGE, PA 16148",http://maps.google.com/maps?q=THE%20MEDICINE%20SHOPPE%2C1740%20EAST%20STATE%20STREET%2C+HERMITAGE%2C+PA+16148,
THE MEDICINE SHOPPE #1929,315 SOUTH ERIE STREET,SUITE A,"MERCER, PA 16137",http://maps.google.com/maps?q=THE%20MEDICINE%20SHOPPE%2C315%20SOUTH%20ERIE%20STREET%2C+MERCER%2C+PA+16137
THE OHIO STATE UNIVERSITY OUTPATIENT PHARMACY  - J,460 W 10TH AVE,ROOM L012,"COLUMBUS, OH 43210",http://maps.google.com/maps?q=THE%20OHIO%20STATE%20UNIVERSITY%20OUTPATIENT%20PHARMACY%20%20%20J%2C460%20W%2010TH%20AVE%2C+COLUMBUS%2C+OH+43210
THE WELLNESS PLAN,2888 WEST GRAND BLVD.,"DETROIT, MI 48202",http://maps.google.com/maps?q=THE%20WELLNESS%20PLAN%2C2888%20WEST%20GRAND%20BLVD.%2C+DETROIT%2C+MI+48202,
THREE RIVERS HEALTH,701 S. HEALTH PARKWAY,"THREE RIVERS, MI 49093",http://maps.google.com/maps?q=THREE%20RIVERS%20HEALTH%2C701%20S.%20HEALTH%20PARKWAY%2C+THREE%20RIVERS%2C+MI+49093,
TODDS PHARMACY INC,25871 FORD ROAD,"DEARBORN HEIGHTS, MI 48127",http://maps.google.com/maps?q=TODDS%20PHARMACY%20INC%2C25871%20FORD%20ROAD%2C+DEARBORN%20HEIGHTS%2C+MI+48127,
TOLEDO HOSPITAL,ATTENTION DEPT OF PHARMACY,2142 NORTH COVE BLVD,"TOLEDO, OH 43606",http://maps.google.com/maps?q=TOLEDO%20HOSPITAL%2CATTENTION%20DEPT%20OF%20PHARMACY%2C+TOLEDO%2C+OH+43606
"TRI-CO HEALTH CLINIC, INC DBA CLAY-BATTELLE PHARM",5851 MASON-DIXON HWY.,PO BOX 21,"BLACKSVILLE, WV 26521",http://maps.google.com/maps?q=TRICO%20HEALTH%20CLINIC%20INC%20DBA%20CLAYBATTELLE%20PHARM%2C5851%20MASON-DIXON%20HWY.%2C+BLACKSVILLE%2C+WV+26521
TRI-STATE PHARMACY,651 COLLIERS WAY STE 204,"JOHN J. BERNABEI, RPH","WEIRTON, WV 26062",http://maps.google.com/maps?q=TRISTATE%20PHARMACY%2C651%20COLLIERS%20WAY%20STE%20204%2C+WEIRTON%2C+WV+26062
UNITED SPECIALTY PHARMACY LLC,25205 TROWBRIDGE ST.,"DEARBORN, MI 48124",http://maps.google.com/maps?q=UNITED%20SPECIALTY%20PHARMACY%20LLC%2C25205%20TROWBRIDGE%20ST.%2C+DEARBORN%2C+MI+48124,
UNIVERSITY OF MICHIGAN,207 FLETCHER STREET,"ANN ARBOR, MI 48109",http://maps.google.com/maps?q=UNIVERSITY%20OF%20MICHIGAN%2C207%20FLETCHER%20STREET%2C+ANN%20ARBOR%2C+MI+48109,
UNIVERSITY OF MICHIGAN MEDICAL CENTER,UH-B2D301,1500 EAST MEDICAL CENTER DRIVE,"ANN ARBOR, MI 48109",http://maps.google.com/maps?q=UNIVERSITY%20OF%20MICHIGAN%20MEDICAL%20CENTER%2CUH-B2D301%2C+ANN%20ARBOR%2C+MI+48109
UNIVERSITY PHARMACY,103 UNIVERSITY PLACE,"PITTSBURGH, PA 15260",http://maps.google.com/maps?q=UNIVERSITY%20PHARMACY%2C103%20UNIVERSITY%20PLACE%2C+PITTSBURGH%2C+PA+15260,
UPMC CHILDRENS HOSPITAL OF PITTSBURGH,4401 PENN AVENUE,"PITTSBURGH, PA 15224",http://maps.google.com/maps?q=UPMC%20CHILDRENS%20HOSPITAL%20OF%20PITTSBURGH%2C4401%20PENN%20AVENUE%2C+PITTSBURGH%2C+PA+15224,
UPMC NORTHWEST,100 FAIRFIELD DRIVE,"SENECA, PA 16346",http://maps.google.com/maps?q=UPMC%20NORTHWEST%2C100%20FAIRFIELD%20DRIVE%2C+SENECA%2C+PA+16346,
UPMC PRESBYTERIAN SHADYSIDE,PHARMACY DEPT/SHADYSIDE CAMPUS,5230 CENTRE AVENUE,"PITTSBURGH, PA 15232",http://maps.google.com/maps?q=UPMC%20PRESBYTERIAN%20SHADYSIDE%2CPHARMACY%20DEPT/SHADYSIDE%20CAMPUS%2C+PITTSBURGH%2C+PA+15232
VETERANS ADMIN OUTPATIENT,1200 SOUTH DETROIT AVENUE,PHARMACY 119,"TOLEDO, OH 43614",http://maps.google.com/maps?q=VETERANS%20ADMIN%20OUTPATIENT%2C1200%20SOUTH%20DETROIT%20AVENUE%2C+TOLEDO%2C+OH+43614
VETERANS ADMINISTRATION MEDICAL CENTER,PHARMACY SERVICES,2215 FULLER ROAD,"ANN ARBOR, MI 48105",http://maps.google.com/maps?q=VETERANS%20ADMINISTRATION%20MEDICAL%20CENTER%2CPHARMACY%20SERVICES%2C+ANN%20ARBOR%2C+MI+48105
VETERANS AFFAIRS MEDICAL CENTER,4646 JOHN R,"DETROIT, MI 48201",http://maps.google.com/maps?q=VETERANS%20AFFAIRS%20MEDICAL%20CENTER%2C4646%20JOHN%20R%2C+DETROIT%2C+MI+48201,
WALGREEN CO,25700 FORD RD,"DEARBORN HEIGHTS, MI 48127",http://maps.google.com/maps?q=WALGREEN%20CO%2C25700%20FORD%20RD%2C+DEARBORN%20HEIGHTS%2C+MI+48127,
WALGREEN CO.,100 CLEVELAND ST,"ELYRIA, OH 44035",http://maps.google.com/maps?q=WALGREEN%20CO%2C100%20CLEVELAND%20ST%2C+ELYRIA%2C+OH+44035,
WALGREEN CO.,10412 COLDWATER ROAD,"FT WAYNE, IN 46845",http://maps.google.com/maps?q=WALGREEN%20CO%2C10412%20COLDWATER%20ROAD%2C+FT%20WAYNE%2C+IN+46845,
WALGREEN CO.,1240 W. MAIN ST.,"BRIDGEPORT, WV 26330",http://maps.google.com/maps?q=WALGREEN%20CO%2C1240%20W.%20MAIN%20ST.%2C+BRIDGEPORT%2C+WV+26330,
WALGREEN CO.,1285 N MONROE ST,"MONROE, MI 48162",http://maps.google.com/maps?q=WALGREEN%20CO%2C1285%20N%20MONROE%20ST%2C+MONROE%2C+MI+48162,
WALGREEN CO.,1314 N WEST AVE,"JACKSON, MI 49202",http://maps.google.com/maps?q=WALGREEN%20CO%2C1314%20N%20WEST%20AVE%2C+JACKSON%2C+MI+49202,
WALGREEN CO.,1321 DELAWARE AVE.,"MARION, OH 43302",http://maps.google.com/maps?q=WALGREEN%20CO%2C1321%20DELAWARE%20AVE.%2C+MARION%2C+OH+43302,
WALGREEN CO.,1804 N JEFFERSON,"HUNTINGTON, IN 46750",http://maps.google.com/maps?q=WALGREEN%20CO%2C1804%20N%20JEFFERSON%2C+HUNTINGTON%2C+IN+46750,
WALGREEN CO.,2012 N WAYNE ST,"ANGOLA, IN 46703",http://maps.google.com/maps?q=WALGREEN%20CO%2C2012%20N%20WAYNE%20ST%2C+ANGOLA%2C+IN+46703,
WALGREEN CO.,2012 S UNION,"ALLIANCE, OH 44601",http://maps.google.com/maps?q=WALGREEN%20CO%2C2012%20S%20UNION%2C+ALLIANCE%2C+OH+44601,
WALGREEN CO.,2150 E DUBLIN GRANVILLE ROAD,"COLUMBUS, OH 43229",http://maps.google.com/maps?q=WALGREEN%20CO%2C2150%20E%20DUBLIN%20GRANVILLE%20ROAD%2C+COLUMBUS%2C+OH+43229,
WALGREEN CO.,2645 STATE RD,"CUYAHOGA FALLS, OH 44223",http://maps.google.com/maps?q=WALGREEN%20CO%2C2645%20STATE%20RD%2C+CUYAHOGA%20FALLS%2C+OH+44223,
WALGREEN CO.,4580 MONROE ST,"TOLEDO, OH 43613",http://maps.google.com/maps?q=WALGREEN%20CO%2C4580%20MONROE%20ST%2C+TOLEDO%2C+OH+43613,
WALGREEN CO.,50 COLUMBIA AVENUE W,"BATTLE CREEK, MI 49015",http://maps.google.com/maps?q=WALGREEN%20CO%2C50%20COLUMBIA%20AVENUE%20W%2C+BATTLE%20CREEK%2C+MI+49015,
WALGREEN CO.,5020 W MAIN,"KALAMAZOO, MI 49009",http://maps.google.com/maps?q=WALGREEN%20CO%2C5020%20W%20MAIN%2C+KALAMAZOO%2C+MI+49009,
WALGREEN CO.,5122 WEST TUSCARAWAS ST,"CANTON, OH 44708",http://maps.google.com/maps?q=WALGREEN%20CO%2C5122%20WEST%20TUSCARAWAS%20ST%2C+CANTON%2C+OH+44708,
WALGREEN CO.,5411 LEAVITT ROAD,"LORAIN, OH 44053",http://maps.google.com/maps?q=WALGREEN%20CO%2C5411%20LEAVITT%20ROAD%2C+LORAIN%2C+OH+44053,
WALGREEN CO.,5690 W BROAD STREET,"GALLOWAY, OH 43119",http://maps.google.com/maps?q=WALGREEN%20CO%2C5690%20W%20BROAD%20STREET%2C+GALLOWAY%2C+OH+43119,
WALGREEN CO.,5709 S TELEGRAPH RD,"DEARBORN HEIGHTS, MI 48125",http://maps.google.com/maps?q=WALGREEN%20CO%2C5709%20S%20TELEGRAPH%20RD%2C+DEARBORN%20HEIGHTS%2C+MI+48125,
WALGREEN CO.,6201 STELLHORN ROAD,"FT WAYNE, IN 46815",http://maps.google.com/maps?q=WALGREEN%20CO%2C6201%20STELLHORN%20ROAD%2C+FT%20WAYNE%2C+IN+46815,
WALGREEN CO.,6202 WEST JEFFERSON BLVD,"FT WAYNE, IN 46804",http://maps.google.com/maps?q=WALGREEN%20CO%2C6202%20WEST%20JEFFERSON%20BLVD%2C+FT%20WAYNE%2C+IN+46804,
WALGREEN CO.,701 N CABLE ROAD,"LIMA, OH 45805",http://maps.google.com/maps?q=WALGREEN%20CO%2C701%20N%20CABLE%20ROAD%2C+LIMA%2C+OH+45805,
WALGREEN CO.,7295 MARKET ST.,"BOARDMAN, OH 44512",http://maps.google.com/maps?q=WALGREEN%20CO%2C7295%20MARKET%20ST.%2C+BOARDMAN%2C+OH+44512,
WALGREEN CO.,7920 SHAVER RD,"PORTAGE, MI 49024",http://maps.google.com/maps?q=WALGREEN%20CO%2C7920%20SHAVER%20RD%2C+PORTAGE%2C+MI+49024,
WALGREEN CO.,850 NORTH BRIDGE STREET,"CHILLICOTHE, OH 45601",http://maps.google.com/maps?q=WALGREEN%20CO%2C850%20NORTH%20BRIDGE%20STREET%2C+CHILLICOTHE%2C+OH+45601,
WALGREEN CO.,859 E MAIN ST,"LANCASTER, OH 43130",http://maps.google.com/maps?q=WALGREEN%20CO%2C859%20E%20MAIN%20ST%2C+LANCASTER%2C+OH+43130,
WALGREEN CO.,897 CHESTNUT RIDGE RD,"MORGANTOWN, WV 26505",http://maps.google.com/maps?q=WALGREEN%20CO%2C897%20CHESTNUT%20RIDGE%20RD%2C+MORGANTOWN%2C+WV+26505,
WALGREEN CO.,950 S CENTERVILLE RD,"STURGIS, MI 49091",http://maps.google.com/maps?q=WALGREEN%20CO%2C950%20S%20CENTERVILLE%20RD%2C+STURGIS%2C+MI+49091,
"WALGREEN EASTERN CO., INC.",280 NEW CASTLE RD.,"BUTLER, PA 16001",http://maps.google.com/maps?q=WALGREEN%20EASTERN%20CO%20INC%2C280%20NEW%20CASTLE%20RD.%2C+BUTLER%2C+PA+16001,
WEST GRANGE PHARMACY LLC,3390 WEST ROAD,"TRENTON, MI 48183",http://maps.google.com/maps?q=WEST%20GRANGE%20PHARMACY%20LLC%2C3390%20WEST%20ROAD%2C+TRENTON%2C+MI+48183,
"WEST VIRGINIA CVS PHARMACY, L.L.C.",1000 PINEVIEW DRIVE,"MORGANTOWN, WV 26505",http://maps.google.com/maps?q=WEST%20VIRGINIA%20CVS%20PHARMACY%20LLC%2C1000%20PINEVIEW%20DRIVE%2C+MORGANTOWN%2C+WV+26505,
"WEST VIRGINIA CVS PHARMACY, L.L.C.",1605 7TH STREET,"PARKERSBURG, WV 26101",http://maps.google.com/maps?q=WEST%20VIRGINIA%20CVS%20PHARMACY%20LLC%2C1605%207TH%20STREET%2C+PARKERSBURG%2C+WV+26101,
"WEST VIRGINIA CVS PHARMACY, L.L.C.",701 E. MAIN STREET,"CLARKSBURG, WV 26301",http://maps.google.com/maps?q=WEST%20VIRGINIA%20CVS%20PHARMACY%20LLC%2C701%20E.%20MAIN%20STREET%2C+CLARKSBURG%2C+WV+26301,
"WEST VIRGINIA CVS PHARMACY, L.L.C.",74 WEST MAIN ST.,"BUCKHANNON, WV 26201",http://maps.google.com/maps?q=WEST%20VIRGINIA%20CVS%20PHARMACY%20LLC%2C74%20WEST%20MAIN%20ST.%2C+BUCKHANNON%2C+WV+26201,
WITSCHEY'SPHARMACY,155 NORTH STREET,"NEW MARTINSVILLE, WV 26155",http://maps.google.com/maps?q=WITSCHEYSPHARMACY%2C155%20NORTH%20STREET%2C+NEW%20MARTINSVILLE%2C+WV+26155,
"WOODWARD DETROIT CVS, L.L.C.",10011 WEST MCNICHOLS ROAD,"DETROIT, MI 48221",http://maps.google.com/maps?q=WOODWARD%20DETROIT%20CVS%20LLC%2C10011%20WEST%20MCNICHOLS%20ROAD%2C+DETROIT%2C+MI+48221,
"WOODWARD DETROIT CVS, L.L.C.",10915 BELLEVILLE ROAD,"BELLEVILLE, MI 48111",http://maps.google.com/maps?q=WOODWARD%20DETROIT%20CVS%20LLC%2C10915%20BELLEVILLE%20ROAD%2C+BELLEVILLE%2C+MI+48111,
"WOODWARD DETROIT CVS, L.L.C.",2400 FORT ST.,"LINCOLN PARK, MI 48146",http://maps.google.com/maps?q=WOODWARD%20DETROIT%20CVS%20LLC%2C2400%20FORT%20ST.%2C+LINCOLN%20PARK%2C+MI+48146,
"WOODWARD DETROIT CVS, L.L.C.",27435 FORD RD.,"GARDEN CITY, MI 48135",http://maps.google.com/maps?q=WOODWARD%20DETROIT%20CVS%20LLC%2C27435%20FORD%20RD.%2C+GARDEN%20CITY%2C+MI+48135,
"WOODWARD DETROIT CVS, L.L.C.",37340 FIVE MILE RD.,"LIVONIA, MI 48154",http://maps.google.com/maps?q=WOODWARD%20DETROIT%20CVS%20LLC%2C37340%20FIVE%20MILE%20RD.%2C+LIVONIA%2C+MI+48154,
"WOODWARD DETROIT CVS, LLC",18500 GRAND RIVER,"DETROIT, MI 48223",http://maps.google.com/maps?q=WOODWARD%20DETROIT%20CVS%20LLC%2C18500%20GRAND%20RIVER%2C+DETROIT%2C+MI+48223,
WV UNIVERSITY HOSPITALS INC,1 MEDICAL CENTER DR,"MORGANTOWN, WV 26506",http://maps.google.com/maps?q=WV%20UNIVERSITY%20HOSPITALS%20INC%2C1%20MEDICAL%20CENTER%20DR%2C+MORGANTOWN%2C+WV+26506,
WV UNIVERSITY HOSPITALS INC.,390 BIRCH STREET,"MORGANTOWN, WV 26505",http://maps.google.com/maps?q=WV%20UNIVERSITY%20HOSPITALS%20INC%2C390%20BIRCH%20STREET%2C+MORGANTOWN%2C+WV+26505,
