Business Name,Address 1,Address 2,"City, State Zip",Map URL
BEAR LAKE COMMUNITY HEALTH CENTER PHARMACY,325 WEST LOGAN HIGHWAY,P. O. BOX 328,"GARDEN CITY, UT 84028",http://maps.google.com/maps?q=BEAR%20LAKE%20COMMUNITY%20HEALTH%20CENTER%20PHARMACY%2C325%20WEST%20LOGAN%20HIGHWAY%2C+GARDEN%20CITY%2C+UT+84028
BENEWAH COMMUNITY HOSPITAL,229 S. 7TH STREET,"ST MARIES, ID 83861",http://maps.google.com/maps?q=BENEWAH%20COMMUNITY%20HOSPITAL%2C229%20S.%207TH%20STREET%2C+ST%20MARIES%2C+ID+83861,
BENGAL PHARMACY,990 SOUTH 8TH AVE,"POCATELLO, ID 83209",http://maps.google.com/maps?q=BENGAL%20PHARMACY%2C990%20SOUTH%208TH%20AVE%2C+POCATELLO%2C+ID+83209,
BENGAL PHARMACY - ARCO,REMOTE PHARMACY,551 HIGHLAND DR,"ARCO, ID 83213",http://maps.google.com/maps?q=BENGAL%20PHARMACY%20%20ARCO%2CREMOTE%20PHARMACY%2C+ARCO%2C+ID+83213
BENGAL PHARMACY LLC,DBA BENGAL PHARMACY AT CHALLIS,609 CLINIC RD,"CHALLIS, ID 83226",http://maps.google.com/maps?q=BENGAL%20PHARMACY%20LLC%2CDBA%20BENGAL%20PHARMACY%20AT%20CHALLIS%2C+CHALLIS%2C+ID+83226
BINGHAM MEMORIAL HOSPITAL,98 POPLAR STREET,"BLACKFOOT, ID 83221",http://maps.google.com/maps?q=BINGHAM%20MEMORIAL%20HOSPITAL%2C98%20POPLAR%20STREET%2C+BLACKFOOT%2C+ID+83221,
BRIGHAM COMMUNITY PHARMACY,1017 SOUTH MEDICAL DRIVE,"BRIGHAM CITY, UT 84302",http://maps.google.com/maps?q=BRIGHAM%20COMMUNITY%20PHARMACY%2C1017%20SOUTH%20MEDICAL%20DRIVE%2C+BRIGHAM%20CITY%2C+UT+84302,
CACHE VALLEY COMMUNITY HEALTH CENTER PHARMACY,1515 NORTH 400 EAST,SUITE 104,"NORTH LOGAN, UT 84341",http://maps.google.com/maps?q=CACHE%20VALLEY%20COMMUNITY%20HEALTH%20CENTER%20PHARMACY%2C1515%20NORTH%20400%20EAST%2C+NORTH%20LOGAN%2C+UT+84341
COMMUNITY HOSPITAL OF ANACONDA PHARMACY,401 W PENNSYLVANIA,"ANACONDA, MT 59711",http://maps.google.com/maps?q=COMMUNITY%20HOSPITAL%20OF%20ANACONDA%20PHARMACY%2C401%20W%20PENNSYLVANIA%2C+ANACONDA%2C+MT+59711,
CUSTOM RX LLC,173 W 4TH ST,"KUNA, ID 83634",http://maps.google.com/maps?q=CUSTOM%20RX%20LLC%2C173%20W%204TH%20ST%2C+KUNA%2C+ID+83634,
HEARTLAND PHARMACY,3250 E. 17TH STREET,"IDAHO FALLS, ID 83406",http://maps.google.com/maps?q=HEARTLAND%20PHARMACY%2C3250%20E.%2017TH%20STREET%2C+IDAHO%20FALLS%2C+ID+83406,
ID STATE VETERANS HOME-BOISE,320 COLLINS RD,"BOISE, ID 83702",http://maps.google.com/maps?q=ID%20STATE%20VETERANS%20HOMEBOISE%2C320%20COLLINS%20RD%2C+BOISE%2C+ID+83702,
IDAHO STATE VETERANS HOME,LEWISTON,821 21ST AVENUE,"LEWISTON, ID 83501",http://maps.google.com/maps?q=IDAHO%20STATE%20VETERANS%20HOME%2CLEWISTON%2C+LEWISTON%2C+ID+83501
IDAHO STATE VETERANS HOME,POCATELLO,1957 ALVIN RICKEN DRIVE,"POCATELLO, ID 83201",http://maps.google.com/maps?q=IDAHO%20STATE%20VETERANS%20HOME%2CPOCATELLO%2C+POCATELLO%2C+ID+83201
IHC HLTH CENTER PHCY-LOGAN,1350 NORTH 500 EAST,"LOGAN, UT 84341",http://maps.google.com/maps?q=IHC%20HLTH%20CENTER%20PHCYLOGAN%2C1350%20NORTH%20500%20EAST%2C+LOGAN%2C+UT+84341,
KJ'S PHARMACY,615 FILER AVE,"TWIN FALLS, ID 83301",http://maps.google.com/maps?q=KJS%20PHARMACY%2C615%20FILER%20AVE%2C+TWIN%20FALLS%2C+ID+83301,
KURT'S PRESCRIPTION CTR PHCY,1203 FILER AVE E.,"TWIN FALLS, ID 83301",http://maps.google.com/maps?q=KURTS%20PRESCRIPTION%20CTR%20PHCY%2C1203%20FILER%20AVE%20E.%2C+TWIN%20FALLS%2C+ID+83301,
LEE'S MARKETPLACE PHARMACY,850 SOUTH MAIN,"SMITHFIELD, UT 84335",http://maps.google.com/maps?q=LEES%20MARKETPLACE%20PHARMACY%2C850%20SOUTH%20MAIN%2C+SMITHFIELD%2C+UT+84335,
LOGAN CLINIC PHARMACY,412 N 200 E,"LOGAN, UT 84321",http://maps.google.com/maps?q=LOGAN%20CLINIC%20PHARMACY%2C412%20N%20200%20E%2C+LOGAN%2C+UT+84321,
LUKE'S FAMILY PHARMACY,101 S. MAIN ST.,"HAILEY, ID 83333",http://maps.google.com/maps?q=LUKES%20FAMILY%20PHARMACY%2C101%20S.%20MAIN%20ST.%2C+HAILEY%2C+ID+83333,
MARCUS DALY MEMORIAL HOSP INC,ATTN: PHARMACY,1200 WESTWOOD DR,"HAMILTON, MT 59840",http://maps.google.com/maps?q=MARCUS%20DALY%20MEMORIAL%20HOSP%20INC%2CATTN%3A%20PHARMACY%2C+HAMILTON%2C+MT+59840
"MONTANA CVS PHARMACY, L.L.C.",1300 E. PARK AVE.,"ANACONDA, MT 59711",http://maps.google.com/maps?q=MONTANA%20CVS%20PHARMACY%20LLC%2C1300%20E.%20PARK%20AVE.%2C+ANACONDA%2C+MT+59711,
"PHARMA DONNA, LLC",201 N. WASHINGTON AVE,PO BOX 6464,"KETCHUM, ID 83340",http://maps.google.com/maps?q=PHARMA%20DONNA%20LLC%2C201%20N.%20WASHINGTON%20AVE%2C+KETCHUM%2C+ID+83340
SHOPKO PHARMACY #2529,125 E GLENDALE ST,"DILLON, MT 59725",http://maps.google.com/maps?q=SHOPKO%20PHARMACY%2C125%20E%20GLENDALE%20ST%2C+DILLON%2C+MT+59725,
SILVERTIP PHARMACY,"120 NORTH CANYON STREET, SUITE F",P.O. BOX 30,"WEST YELLOWSTONE, MT 59758",http://maps.google.com/maps?q=SILVERTIP%20PHARMACY%2C120%20NORTH%20CANYON%20STREET%2C%20SUITE%20F%2C+WEST%20YELLOWSTONE%2C+MT+59758
ST LUKE'S MERIDIAN MEDICAL,520 S. EAGLE ROAD,SUITE 1000,"MERIDIAN, ID 83642",http://maps.google.com/maps?q=ST%20LUKES%20MERIDIAN%20MEDICAL%2C520%20S.%20EAGLE%20ROAD%2C+MERIDIAN%2C+ID+83642
ST LUKE'S REGIONAL MEDICAL CENTER,OUTPATIENT PHARMACY,190 EAST BANNOCK,"BOISE, ID 83712",http://maps.google.com/maps?q=ST%20LUKES%20REGIONAL%20MEDICAL%20CENTER%2COUTPATIENT%20PHARMACY%2C+BOISE%2C+ID+83712
ST LUKE'S WOOD RIVER,100 HOSPITAL DRIVE,PO BOX 100,"KETCHUM, ID 83340",http://maps.google.com/maps?q=ST%20LUKES%20WOOD%20RIVER%2C100%20HOSPITAL%20DRIVE%2C+KETCHUM%2C+ID+83340
ST. LUKE'S MOUNTAIN STATES TUMOR INSTITUTE,725 POLE LINE RD W,"TWIN FALLS, ID 83301",http://maps.google.com/maps?q=ST%20LUKES%20MOUNTAIN%20STATES%20TUMOR%20INSTITUTE%2C725%20POLE%20LINE%20RD%20W%2C+TWIN%20FALLS%2C+ID+83301,
ST. LUKE'S NAMPA MEDICAL CENTER,9850 W. ST. LUKE'S DRIVE,OUTPATIENT PHARMACY,"NAMPA, ID 83687",http://maps.google.com/maps?q=ST%20LUKES%20NAMPA%20MEDICAL%20CENTER%2C9850%20W.%20ST.%20LUKE'S%20DRIVE%2C+NAMPA%2C+ID+83687
STEELE MEMORIAL MEDICAL CENTER,203 S DAISY,"SALMON, ID 83467",http://maps.google.com/maps?q=STEELE%20MEMORIAL%20MEDICAL%20CENTER%2C203%20S%20DAISY%2C+SALMON%2C+ID+83467,
STOKES PHARMACY ANACONDA INC.,1525 WEST PARK AVENUE,"ANACONDA, MT 59711",http://maps.google.com/maps?q=STOKES%20PHARMACY%20ANACONDA%20INC%2C1525%20WEST%20PARK%20AVENUE%2C+ANACONDA%2C+MT+59711,
TEKOA PHARMACY,124 N CROSBY,PO BOX 808,"TEKOA, WA 99033",http://maps.google.com/maps?q=TEKOA%20PHARMACY%2C124%20N%20CROSBY%2C+TEKOA%2C+WA+99033
"TETON CLINICAL PHARMACY, INC.",2470 JAFER CT,"IDAHO FALLS, ID 83404",http://maps.google.com/maps?q=TETON%20CLINICAL%20PHARMACY%20INC%2C2470%20JAFER%20CT%2C+IDAHO%20FALLS%2C+ID+83404,
TETON PHARMACY IN AMMON,"3160 E. 17TH ST., SUITE 164","AMMON, ID 83406",http://maps.google.com/maps?q=TETON%20PHARMACY%20IN%20AMMON%2C3160%20E.%2017TH%20ST.%2C%20SUITE%20164%2C+AMMON%2C+ID+83406,
TETON PHARMACY OF RIGBY,"527 RIGBY LAKE DRIVE, SUITE C","RIGBY, ID 83442",http://maps.google.com/maps?q=TETON%20PHARMACY%20OF%20RIGBY%2C527%20RIGBY%20LAKE%20DRIVE%2C%20SUITE%20C%2C+RIGBY%2C+ID+83442,
TETON PHARMACY OF ST. ANTHONY,104 N. BRIDGE ST.,STE 112,"SAINT ANTHONY, ID 83445",http://maps.google.com/maps?q=TETON%20PHARMACY%20OF%20ST%20ANTHONY%2C104%20N.%20BRIDGE%20ST.%2C+SAINT%20ANTHONY%2C+ID+83445
TETON PHARMACY ON BROADWAY,1855 WEST BROADWAY,"IDAHO FALLS, ID 83402",http://maps.google.com/maps?q=TETON%20PHARMACY%20ON%20BROADWAY%2C1855%20WEST%20BROADWAY%2C+IDAHO%20FALLS%2C+ID+83402,
"TETON VALLEY HEALTH CARE, INC",120 E HOWARD  AVE,"DRIGGS, ID 83422",http://maps.google.com/maps?q=TETON%20VALLEY%20HEALTH%20CARE%20INC%2C120%20E%20HOWARD%20%20AVE%2C+DRIGGS%2C+ID+83422,
THE DRUGSTORE,91 E CROY STREET,BOX 2700,"HAILEY, ID 83333",http://maps.google.com/maps?q=THE%20DRUGSTORE%2C91%20E%20CROY%20STREET%2C+HAILEY%2C+ID+83333
THE PRESCRIPTION PAD,1118 NW 16TH ST,STE 150B,"FRUITLAND, ID 83619",http://maps.google.com/maps?q=THE%20PRESCRIPTION%20PAD%2C1118%20NW%2016TH%20ST%2C+FRUITLAND%2C+ID+83619
THRIFTY DRUG STORE,201 EAST PARK,"ANACONDA, MT 59711",http://maps.google.com/maps?q=THRIFTY%20DRUG%20STORE%2C201%20EAST%20PARK%2C+ANACONDA%2C+MT+59711,
U S DEPT OF H H S,FT HALL INDIAN HEALTH CTR,"33 N MISSION RD, P.O. BOX 717","FORT HALL, ID 83203",http://maps.google.com/maps?q=U%20S%20DEPT%20OF%20H%20H%20S%2CFT%20HALL%20INDIAN%20HEALTH%20CTR%2C+FORT%20HALL%2C+ID+83203
USAF- FM4897,90 HOPE DRIVE,BLDG 6000,"MOUNTAIN HOME AFB, ID 83648",http://maps.google.com/maps?q=USAF%20FM%2C90%20HOPE%20DRIVE%2C+MOUNTAIN%20HOME%20AFB%2C+ID+83648
VIC'S FAMILY PHARMACY INC,1513 12TH AVENUE ROAD,"NAMPA, ID 83686",http://maps.google.com/maps?q=VICS%20FAMILY%20PHARMACY%20INC%2C1513%2012TH%20AVENUE%20ROAD%2C+NAMPA%2C+ID+83686,
WALGREEN CO.,1732 WASHINGTON ST N,"TWIN FALLS, ID 83301",http://maps.google.com/maps?q=WALGREEN%20CO%2C1732%20WASHINGTON%20ST%20N%2C+TWIN%20FALLS%2C+ID+83301,
WALGREEN CO.,2102 NEZ PERCE DR,"LEWISTON, ID 83501",http://maps.google.com/maps?q=WALGREEN%20CO%2C2102%20NEZ%20PERCE%20DR%2C+LEWISTON%2C+ID+83501,
WALGREEN CO.,3475 E 17TH ST,"AMMON, ID 83406",http://maps.google.com/maps?q=WALGREEN%20CO%2C3475%20E%2017TH%20ST%2C+AMMON%2C+ID+83406,
WALGREEN CO.,414 N MAIN ST,"MOSCOW, ID 83843",http://maps.google.com/maps?q=WALGREEN%20CO%2C414%20N%20MAIN%20ST%2C+MOSCOW%2C+ID+83843,
WALGREEN CO.,700 12TH AVENUE S,"NAMPA, ID 83651",http://maps.google.com/maps?q=WALGREEN%20CO%2C700%2012TH%20AVENUE%20S%2C+NAMPA%2C+ID+83651,
WALGREEN CO.,8100 W FAIRVIEW AVE.,"BOISE, ID 83704",http://maps.google.com/maps?q=WALGREEN%20CO%2C8100%20W%20FAIRVIEW%20AVE.%2C+BOISE%2C+ID+83704,
WALGREEN CO.,905 YELLOWSTONE AVE,"POCATELLO, ID 83201",http://maps.google.com/maps?q=WALGREEN%20CO%2C905%20YELLOWSTONE%20AVE%2C+POCATELLO%2C+ID+83201,
