Business Name,Address 1,Address 2,"City, State Zip",Map URL
AGH REDISCRIPTS PHARMACY,9733 HEALTHWAY DRIVE,"BERLIN, MD 21811",http://maps.google.com/maps?q=AGH%20REDISCRIPTS%20PHARMACY%2C9733%20HEALTHWAY%20DRIVE%2C+BERLIN%2C+MD+21811,
APOTHECARY SOLUTIONS INC,207 EAST MAIN STREET,"REMINGTON, VA 22734",http://maps.google.com/maps?q=APOTHECARY%20SOLUTIONS%20INC%2C207%20EAST%20MAIN%20STREET%2C+REMINGTON%2C+VA+22734,
ARNOLD PROFESSIONAL PHARMACY,1460 RITCHIE HIGHWAY,SUITE #103,"ARNOLD, MD 21012",http://maps.google.com/maps?q=ARNOLD%20PROFESSIONAL%20PHARMACY%2C1460%20RITCHIE%20HIGHWAY%2C+ARNOLD%2C+MD+21012
"BAYHEALTH MEDICAL CENTER, INC  DBA",640 SOUTH STATE STREET,"DOVER, DE 19901",http://maps.google.com/maps?q=BAYHEALTH%20MEDICAL%20CENTER%20INC%20%20DBA%2C640%20SOUTH%20STATE%20STREET%2C+DOVER%2C+DE+19901,
BELAIR MEDICINES INC,1911 BEL AIR RD,"FALLSTON, MD 21047",http://maps.google.com/maps?q=BELAIR%20MEDICINES%20INC%2C1911%20BEL%20AIR%20RD%2C+FALLSTON%2C+MD+21047,
"BELMONT BEHAVIORAL HOSPITAL, LLC",4200 MONUMENT ROAD,"PHILADELPHIA, PA 19131",http://maps.google.com/maps?q=BELMONT%20BEHAVIORAL%20HOSPITAL%20LLC%2C4200%20MONUMENT%20ROAD%2C+PHILADELPHIA%2C+PA+19131,
BOOTHWYN APOTHECARY,2341 CHICHESTER AVE,"BOOTHWYN, PA 19061",http://maps.google.com/maps?q=BOOTHWYN%20APOTHECARY%2C2341%20CHICHESTER%20AVE%2C+BOOTHWYN%2C+PA+19061,
BROAD & LEHIGH PHARMACY,1300 WEST LEHIGH AVENUE,SUITE 102,"PHILADELPHIA, PA 19132",http://maps.google.com/maps?q=BROAD%20%20LEHIGH%20PHARMACY%2C1300%20WEST%20LEHIGH%20AVENUE%2C+PHILADELPHIA%2C+PA+19132
CLAYTON'S PHARMACY,404B WASHINGTON ST,"CAMBRIDGE, MD 21613",http://maps.google.com/maps?q=CLAYTONS%20PHARMACY%2C404B%20WASHINGTON%20ST%2C+CAMBRIDGE%2C+MD+21613,
"COMMUNITY CARE OF WEST VIRGINIA, INC",DBA COMMUNITY CARE PHARMACY OF BUCKHANNON,37 W MAIN ST,"BUCKHANNON, WV 26201",http://maps.google.com/maps?q=COMMUNITY%20CARE%20OF%20WEST%20VIRGINIA%20INC%2CDBA%20COMMUNITY%20CARE%20PHARMACY%20OF%20BUCKHANNON%2C+BUCKHANNON%2C+WV+26201
COMMUNITY CARE PHARMACY,149 IVY LANE,"PARSONS, WV 26287",http://maps.google.com/maps?q=COMMUNITY%20CARE%20PHARMACY%2C149%20IVY%20LANE%2C+PARSONS%2C+WV+26287,
CRISFIELD DISCOUNT PHARMACY,390 WEST MAIN STREET,UNIT-A,"CRISFIELD, MD 21817",http://maps.google.com/maps?q=CRISFIELD%20DISCOUNT%20PHARMACY%2C390%20WEST%20MAIN%20STREET%2C+CRISFIELD%2C+MD+21817
"DELAWARE CVS PHARMACY, L.L.C.",1545 PULASKI HIGHWAY,"BEAR, DE 19701",http://maps.google.com/maps?q=DELAWARE%20CVS%20PHARMACY%20LLC%2C1545%20PULASKI%20HIGHWAY%2C+BEAR%2C+DE+19701,
"DELAWARE CVS PHARMACY, L.L.C.",17229 N VILLAGE MAIN BLVD,"LEWES, DE 19958",http://maps.google.com/maps?q=DELAWARE%20CVS%20PHARMACY%20LLC%2C17229%20N%20VILLAGE%20MAIN%20BLVD%2C+LEWES%2C+DE+19958,
"DELAWARE CVS PHARMACY, L.L.C.",4020 CONCORD PIKE,"WILMINGTON, DE 19803",http://maps.google.com/maps?q=DELAWARE%20CVS%20PHARMACY%20LLC%2C4020%20CONCORD%20PIKE%2C+WILMINGTON%2C+DE+19803,
"DISTRICT OF COLUMBIA CVS PHARMACY, L.L.C.",320 40TH STREET NE,"WASHINGTON, DC 20019",http://maps.google.com/maps?q=DISTRICT%20OF%20COLUMBIA%20CVS%20PHARMACY%20LLC%2C320%2040TH%20STREET%20NE%2C+WASHINGTON%2C+DC+20019,
"DISTRICT OF COLUMBIA CVS PHARMACY, L.L.C.",6-7 DUPONT CIRCLE NW,"WASHINGTON, DC 20036",http://maps.google.com/maps?q=DISTRICT%20OF%20COLUMBIA%20CVS%20PHARMACY%20LLC%2C6-7%20DUPONT%20CIRCLE%20NW%2C+WASHINGTON%2C+DC+20036,
"DISTRICT OF COLUMBIA CVS PHARMACY, L.L.C.",6514 GEORGIA AVENUE NW,"WASHINGTON, DC 20012",http://maps.google.com/maps?q=DISTRICT%20OF%20COLUMBIA%20CVS%20PHARMACY%20LLC%2C6514%20GEORGIA%20AVENUE%20NW%2C+WASHINGTON%2C+DC+20012,
DONORA UNION PHARMACY,601 MCKEAN AVE,"DONORA, PA 15033",http://maps.google.com/maps?q=DONORA%20UNION%20PHARMACY%2C601%20MCKEAN%20AVE%2C+DONORA%2C+PA+15033,
"DRUG CITY PHARMACY, LLC",2805 NORTH POINT RD,"BALTIMORE, MD 21222",http://maps.google.com/maps?q=DRUG%20CITY%20PHARMACY%20LLC%2C2805%20NORTH%20POINT%20RD%2C+BALTIMORE%2C+MD+21222,
E.A. HAWSE PHARMACY,P.O. BOX 97,17978 STATE ROUTE 55,"BAKER, WV 26801",http://maps.google.com/maps?q=EA%20HAWSE%20PHARMACY%2CP.O.%20BOX%2097%2C+BAKER%2C+WV+26801
EAGLEVILLE HOSPITAL,100 EAGLEVILLE ROAD,"EAGLEVILLE, PA 19403",http://maps.google.com/maps?q=EAGLEVILLE%20HOSPITAL%2C100%20EAGLEVILLE%20ROAD%2C+EAGLEVILLE%2C+PA+19403,
EXPRESS PHARMACY,1690 OLD BRIDGE RD,"WOODBRIDGE, VA 22192",http://maps.google.com/maps?q=EXPRESS%20PHARMACY%2C1690%20OLD%20BRIDGE%20RD%2C+WOODBRIDGE%2C+VA+22192,
FAMILY CARE-REMINGTON INC.,208 E. MADISON ST.,"REMINGTON, VA 22734",http://maps.google.com/maps?q=FAMILY%20CAREREMINGTON%20INC%2C208%20E.%20MADISON%20ST.%2C+REMINGTON%2C+VA+22734,
FAMILY MEDS INC,12114 OLD LINE CTR UNIT R-7A,"WALDORF, MD 20602",http://maps.google.com/maps?q=FAMILY%20MEDS%20INC%2C12114%20OLD%20LINE%20CTR%20UNIT%20R-7A%2C+WALDORF%2C+MD+20602,
FAMILY PHARMACY SERVICES,303 WEST 10TH STREET,"FRONT ROYAL, VA 22630",http://maps.google.com/maps?q=FAMILY%20PHARMACY%20SERVICES%2C303%20WEST%2010TH%20STREET%2C+FRONT%20ROYAL%2C+VA+22630,
FRICK HOSPITAL,508 SOUTH CHURCH STREET,"MT PLEASANT, PA 15666",http://maps.google.com/maps?q=FRICK%20HOSPITAL%2C508%20SOUTH%20CHURCH%20STREET%2C+MT%20PLEASANT%2C+PA+15666,
GLADWYNE PHARMACY,352 RIGHTERS MILL RD,"GLADWYNE, PA 19035",http://maps.google.com/maps?q=GLADWYNE%20PHARMACY%2C352%20RIGHTERS%20MILL%20RD%2C+GLADWYNE%2C+PA+19035,
GRANT MEMORIAL HOSPITAL,117 HOSPITAL DR,P. O. BOX 1019,"PETERSBURG, WV 26847",http://maps.google.com/maps?q=GRANT%20MEMORIAL%20HOSPITAL%2C117%20HOSPITAL%20DR%2C+PETERSBURG%2C+WV+26847
"H&M SPECIALTY RX,INC",5454 WISCONSIN AVE STE 400,#400,"CHEVY CHASE, MD 20815",http://maps.google.com/maps?q=HM%20SPECIALTY%20RXINC%2C5454%20WISCONSIN%20AVE%20STE%20400%2C+CHEVY%20CHASE%2C+MD+20815
HANSON PHARMACY,2110 CRAIN HWY,"WALDORF, MD 20601",http://maps.google.com/maps?q=HANSON%20PHARMACY%2C2110%20CRAIN%20HWY%2C+WALDORF%2C+MD+20601,
HAPPY HARRY'S INC.,1001 FORREST AVE,"DOVER, DE 19904",http://maps.google.com/maps?q=HAPPY%20HARRYS%20INC%2C1001%20FORREST%20AVE%2C+DOVER%2C+DE+19904,
HAPPY HARRY'S INC.,1120 PULASKI HIGHWAY,"BEAR, DE 19701",http://maps.google.com/maps?q=HAPPY%20HARRYS%20INC%2C1120%20PULASKI%20HIGHWAY%2C+BEAR%2C+DE+19701,
HAPPY HARRY'S INC.,17239 FIVE POINTS SQUARE,"LEWES, DE 19958",http://maps.google.com/maps?q=HAPPY%20HARRYS%20INC%2C17239%20FIVE%20POINTS%20SQUARE%2C+LEWES%2C+DE+19958,
HAPPY HARRY'S INC.,22898 SUSSEX HWY,"SEAFORD, DE 19973",http://maps.google.com/maps?q=HAPPY%20HARRYS%20INC%2C22898%20SUSSEX%20HWY%2C+SEAFORD%2C+DE+19973,
HAPPY HARRY'S INC.,6317 LIMESTONE ROAD,"HOCKESSIN, DE 19707",http://maps.google.com/maps?q=HAPPY%20HARRYS%20INC%2C6317%20LIMESTONE%20ROAD%2C+HOCKESSIN%2C+DE+19707,
HAPPY HARRY'S INC.,CHESTNUT RUN,1710 FAULKLAND ROAD,"WILMINGTON, DE 19805",http://maps.google.com/maps?q=HAPPY%20HARRYS%20INC%2CCHESTNUT%20RUN%2C+WILMINGTON%2C+DE+19805
HAPPY HARRY'S INC.,FAIRFAX SHOPPING CENTER,2119 CONCORD PIKE,"WILMINGTON, DE 19803",http://maps.google.com/maps?q=HAPPY%20HARRYS%20INC%2CFAIRFAX%20SHOPPING%20CENTER%2C+WILMINGTON%2C+DE+19803
HAPPY HARRY'S INC.,SUBURBAN PLAZA,216 SUBURBAN DRIVE,"NEWARK, DE 19711",http://maps.google.com/maps?q=HAPPY%20HARRYS%20INC%2CSUBURBAN%20PLAZA%2C+NEWARK%2C+DE+19711
"HAPPY HARRY'S, INC.",648 NW FRONT ST.,"MILFORD, DE 19963",http://maps.google.com/maps?q=HAPPY%20HARRYS%20INC%2C648%20NW%20FRONT%20ST.%2C+MILFORD%2C+DE+19963,
HAYDENS PHARMACY,505 N 4TH ST,"YOUNGWOOD, PA 15697",http://maps.google.com/maps?q=HAYDENS%20PHARMACY%2C505%20N%204TH%20ST%2C+YOUNGWOOD%2C+PA+15697,
HEALTH CENTER PHARMACY,812 GORMAN AVE,"ELKINS, WV 26241",http://maps.google.com/maps?q=HEALTH%20CENTER%20PHARMACY%2C812%20GORMAN%20AVE%2C+ELKINS%2C+WV+26241,
HERSHEY MEDICAL CENTER,MAIL CODE CH79,500 UNIVERSITY DR,"HERSHEY, PA 17033",http://maps.google.com/maps?q=HERSHEY%20MEDICAL%20CENTER%2CMAIL%20CODE%20CH79%2C+HERSHEY%2C+PA+17033
HIGH ST DISCOUNT PHARMACY,30 HIGH ST,"WALDORF, MD 20602",http://maps.google.com/maps?q=HIGH%20ST%20DISCOUNT%20PHARMACY%2C30%20HIGH%20ST%2C+WALDORF%2C+MD+20602,
HIGHLANDS HOSPITAL,401 EAST MURPHY AVE.,"CONNELLSVILLE, PA 15425",http://maps.google.com/maps?q=HIGHLANDS%20HOSPITAL%2C401%20EAST%20MURPHY%20AVE.%2C+CONNELLSVILLE%2C+PA+15425,
HOLY SPIRIT HOSPITAL,503 NORTH 21ST STREET,PHARMACY DEPT,"CAMP HILL, PA 17011",http://maps.google.com/maps?q=HOLY%20SPIRIT%20HOSPITAL%2C503%20NORTH%2021ST%20STREET%2C+CAMP%20HILL%2C+PA+17011
"HOSE PHARMACIES, INC.",17316 SHEPHERDSTOWN PIKE,"SHARPSBURG, MD 21782",http://maps.google.com/maps?q=HOSE%20PHARMACIES%20INC%2C17316%20SHEPHERDSTOWN%20PIKE%2C+SHARPSBURG%2C+MD+21782,
HOSPITAL OF THE UNIV OF PA,PHARMACY SERVICE,3400 SPRUCE STREET,"PHILADELPHIA, PA 19104",http://maps.google.com/maps?q=HOSPITAL%20OF%20THE%20UNIV%20OF%20PA%2CPHARMACY%20SERVICE%2C+PHILADELPHIA%2C+PA+19104
HOSPITAL OF THE UNIVERSITY OF PENNSYLVANIA,250 KING OF PRUSSIA ROAD /,ROOM 202,"RADNOR, PA 19087",http://maps.google.com/maps?q=HOSPITAL%20OF%20THE%20UNIVERSITY%20OF%20PENNSYLVANIA%2C250%20KING%20OF%20PRUSSIA%20ROAD%20/%2C+RADNOR%2C+PA+19087
HUP- PERELMAN PHARMACY,3400 CIVIC CENTER BLVD,ROOM 101W,"PHILADELPHIA, PA 19104",http://maps.google.com/maps?q=HUP%20PERELMAN%20PHARMACY%2C3400%20CIVIC%20CENTER%20BLVD%2C+PHILADELPHIA%2C+PA+19104
HUP-VALLEY FORGE PHARMACY,1001 CHESTERBROOK BLVD,1ST FLOOR,"BERWYN, PA 19312",http://maps.google.com/maps?q=HUPVALLEY%20FORGE%20PHARMACY%2C1001%20CHESTERBROOK%20BLVD%2C+BERWYN%2C+PA+19312
INDIAN HEAD CARE PHARMACY,4115 INDIAN HEAD HWY.,"INDIAN HEAD, MD 20640",http://maps.google.com/maps?q=INDIAN%20HEAD%20CARE%20PHARMACY%2C4115%20INDIAN%20HEAD%20HWY.%2C+INDIAN%20HEAD%2C+MD+20640,
INOVA ALEXANDRIA HOSPITAL,C/O PHARMACY,4320 SEMINARY RD,"ALEXANDRIA, VA 22304",http://maps.google.com/maps?q=INOVA%20ALEXANDRIA%20HOSPITAL%2CC/O%20PHARMACY%2C+ALEXANDRIA%2C+VA+22304
INOVA LOUDOUN HOSPITAL,44045 RIVERSIDE PARKWAY,"LEESBURG, VA 20176",http://maps.google.com/maps?q=INOVA%20LOUDOUN%20HOSPITAL%2C44045%20RIVERSIDE%20PARKWAY%2C+LEESBURG%2C+VA+20176,
INOVA MOUNT VERNON HOSPITAL,2501 PARKERS LN,PHARMACY DEPARTMENT,"ALEXANDRIA, VA 22306",http://maps.google.com/maps?q=INOVA%20MOUNT%20VERNON%20HOSPITAL%2C2501%20PARKERS%20LN%2C+ALEXANDRIA%2C+VA+22306
INOVA PHARMACY PLUS AT INOVA FAIR OAKS,3600 JOSEPH SIEWICK DRIVE,"FAIRFAX, VA 22033",http://maps.google.com/maps?q=INOVA%20PHARMACY%20PLUS%20AT%20INOVA%20FAIR%20OAKS%2C3600%20JOSEPH%20SIEWICK%20DRIVE%2C+FAIRFAX%2C+VA+22033,
INOVA PHARMACY PLUS AT INOVA FAIRFAX ED,EMERGENCY DEPARTMENT,3300 GALLOWS RD.,"FALLS CHURCH, VA 22042",http://maps.google.com/maps?q=INOVA%20PHARMACY%20PLUS%20AT%20INOVA%20FAIRFAX%20ED%2CEMERGENCY%20DEPARTMENT%2C+FALLS%20CHURCH%2C+VA+22042
INOVA PHARMACY PLUS AT INOVA FAIRFAX IHVI,INOVA HEART AND VASCULAR INSTITUTE,3300 GALLOWS RD,"FALLS CHURCH, VA 22042",http://maps.google.com/maps?q=INOVA%20PHARMACY%20PLUS%20AT%20INOVA%20FAIRFAX%20IHVI%2CINOVA%20HEART%20AND%20VASCULAR%20INSTITUTE%2C+FALLS%20CHURCH%2C+VA+22042
JEFFERSON PHARMACY,833 CHESTNUT ST,SUITE 125,"PHILADELPHIA, PA 19107",http://maps.google.com/maps?q=JEFFERSON%20PHARMACY%2C833%20CHESTNUT%20ST%2C+PHILADELPHIA%2C+PA+19107
"JEFFEX, INC.",111 S 11TH ST STE 1850,"PHILADELPHIA, PA 19107",http://maps.google.com/maps?q=JEFFEX%20INC%2C111%20S%2011TH%20ST%20STE%201850%2C+PHILADELPHIA%2C+PA+19107,
"JOHNS HOPKINS BAYVIEW MED CTR, INC",4940 EASTERN AVENUE,"BMO BUILDING, ROOM 01-0154","BALTIMORE, MD 21224",http://maps.google.com/maps?q=JOHNS%20HOPKINS%20BAYVIEW%20MED%20CTR%20INC%2C4940%20EASTERN%20AVENUE%2C+BALTIMORE%2C+MD+21224
JOHNS HOPKINS OUTPATIENT PHARMACY AT THE ARCADE,"ZAYED-BLOOMBERG BUILDING, M2125",1800 ORLEANS STREET,"BALTIMORE, MD 21287",http://maps.google.com/maps?q=JOHNS%20HOPKINS%20OUTPATIENT%20PHARMACY%20AT%20THE%20ARCADE%2CZAYED-BLOOMBERG%20BUILDING%2C%20M2125%2C+BALTIMORE%2C+MD+21287
JUDY'S DRUG STORE INC,24 NORTH MAIN ST,"PETERSBURG, WV 26847",http://maps.google.com/maps?q=JUDYS%20DRUG%20STORE%20INC%2C24%20NORTH%20MAIN%20ST%2C+PETERSBURG%2C+WV+26847,
KAISER,BURKE PHARMACY,5999 BURKE COMMONS ROAD,"BURKE, VA 22015",http://maps.google.com/maps?q=KAISER%2CBURKE%20PHARMACY%2C+BURKE%2C+VA+22015
KAISER PERM ASHBURN PHARMACY,43480 YUKON DRIVE SUITE 100,"ASHBURN, VA 20147",http://maps.google.com/maps?q=KAISER%20PERM%20ASHBURN%20PHARMACY%2C43480%20YUKON%20DRIVE%20SUITE%20100%2C+ASHBURN%2C+VA+20147,
KAISER PERMANENTE FREDERICKSBURG PHARMACY,1201 HOSPITAL DRIVE,"FREDERICKSBURG, VA 22401",http://maps.google.com/maps?q=KAISER%20PERMANENTE%20FREDERICKSBURG%20PHARMACY%2C1201%20HOSPITAL%20DRIVE%2C+FREDERICKSBURG%2C+VA+22401,
KAISER PERMANENTE MANASSAS PH,10701 ROSEMARY DRIVE,"MANASSAS, VA 20109",http://maps.google.com/maps?q=KAISER%20PERMANENTE%20MANASSAS%20PH%2C10701%20ROSEMARY%20DRIVE%2C+MANASSAS%2C+VA+20109,
KAISER PERMANENTE SPRINGFIELD,6501 LOISDALE COURT,"SPRINGFIELD, VA 22150",http://maps.google.com/maps?q=KAISER%20PERMANENTE%20SPRINGFIELD%2C6501%20LOISDALE%20COURT%2C+SPRINGFIELD%2C+VA+22150,
KAISER PERMANENTE TYSONS CORNER PHARMACY,8008 WESTPARK DRIVE,"MCLEAN, VA 22102",http://maps.google.com/maps?q=KAISER%20PERMANENTE%20TYSONS%20CORNER%20PHARMACY%2C8008%20WESTPARK%20DRIVE%2C+MCLEAN%2C+VA+22102,
KAISER-PERMANENTE RESTON PHCY,1890 METRO CENTER DRIVE,"RESTON, VA 20190",http://maps.google.com/maps?q=KAISERPERMANENTE%20RESTON%20PHCY%2C1890%20METRO%20CENTER%20DRIVE%2C+RESTON%2C+VA+20190,
KILMARNOCK PHARMACY,308 NORTH MAIN STREET,PO BOX 1299,"KILMARNOCK, VA 22482",http://maps.google.com/maps?q=KILMARNOCK%20PHARMACY%2C308%20NORTH%20MAIN%20STREET%2C+KILMARNOCK%2C+VA+22482
KOHLERMAN PHARMACY INC,101 W KING STREET,"MALVERN, PA 19355",http://maps.google.com/maps?q=KOHLERMAN%20PHARMACY%20INC%2C101%20W%20KING%20STREET%2C+MALVERN%2C+PA+19355,
LAPLATA PHARMACY,6501 CRAIN HIGHWAY,"LA PLATA, MD 20646",http://maps.google.com/maps?q=LAPLATA%20PHARMACY%2C6501%20CRAIN%20HIGHWAY%2C+LA%20PLATA%2C+MD+20646,
LATROBE HOSPITAL ASSN,ATTENTION PHARMACY,ONE MELLON WAY,"LATROBE, PA 15650",http://maps.google.com/maps?q=LATROBE%20HOSPITAL%20ASSN%2CATTENTION%20PHARMACY%2C+LATROBE%2C+PA+15650
LESTER & MOWERY'S  PHARMACY,20 SOUTH STREET,"FRONT ROYAL, VA 22630",http://maps.google.com/maps?q=LESTER%20%20MOWERYS%20%20PHARMACY%2C20%20SOUTH%20STREET%2C+FRONT%20ROYAL%2C+VA+22630,
LIFEBRIDGE PHARMACY AT NORTHWEST HOSPITAL,5401 OLD COURT RD,"RANDALLSTOWN, MD 21133",http://maps.google.com/maps?q=LIFEBRIDGE%20PHARMACY%20AT%20NORTHWEST%20HOSPITAL%2C5401%20OLD%20COURT%20RD%2C+RANDALLSTOWN%2C+MD+21133,
"LUXBURY VENTURES, LLC DBA OAKSIDE CARE PHARMACY",440 LEHIGH STREET,"READING, PA 19601",http://maps.google.com/maps?q=LUXBURY%20VENTURES%20LLC%20DBA%20OAKSIDE%20CARE%20PHARMACY%2C440%20LEHIGH%20STREET%2C+READING%2C+PA+19601,
MARION PHARMACY,26427 BURTON AVENUE,"CRISFIELD, MD 21817",http://maps.google.com/maps?q=MARION%20PHARMACY%2C26427%20BURTON%20AVENUE%2C+CRISFIELD%2C+MD+21817,
"MARYLAND CVS PHARMACY, L.L.C",24288 THREE NOTCH RD.,"HOLLYWOOD, MD 20636",http://maps.google.com/maps?q=MARYLAND%20CVS%20PHARMACY%20LLC%2C24288%20THREE%20NOTCH%20RD.%2C+HOLLYWOOD%2C+MD+20636,
"MARYLAND CVS PHARMACY, L.L.C.",1001 YORK ROAD,"TOWSON, MD 21204",http://maps.google.com/maps?q=MARYLAND%20CVS%20PHARMACY%20LLC%2C1001%20YORK%20ROAD%2C+TOWSON%2C+MD+21204,
"MARYLAND CVS PHARMACY, L.L.C.",15100 BALTIMORE AVE.,"LAUREL, MD 20707",http://maps.google.com/maps?q=MARYLAND%20CVS%20PHARMACY%20LLC%2C15100%20BALTIMORE%20AVE.%2C+LAUREL%2C+MD+20707,
"MARYLAND CVS PHARMACY, L.L.C.",19100 MONTGOMERY VILLAGE AVE.,"GAITHERSBURG, MD 20886",http://maps.google.com/maps?q=MARYLAND%20CVS%20PHARMACY%20LLC%2C19100%20MONTGOMERY%20VILLAGE%20AVE.%2C+GAITHERSBURG%2C+MD+20886,
"MARYLAND CVS PHARMACY, L.L.C.",2003 DAVIDSONVILLE RD.,"CROFTON, MD 21114",http://maps.google.com/maps?q=MARYLAND%20CVS%20PHARMACY%20LLC%2C2003%20DAVIDSONVILLE%20RD.%2C+CROFTON%2C+MD+21114,
"MARYLAND CVS PHARMACY, L.L.C.",2601 RIVA RD.,"ANNAPOLIS, MD 21401",http://maps.google.com/maps?q=MARYLAND%20CVS%20PHARMACY%20LLC%2C2601%20RIVA%20RD.%2C+ANNAPOLIS%2C+MD+21401,
"MARYLAND CVS PHARMACY, L.L.C.",28 MAGOTHY BEACH RD.,"PASADENA, MD 21122",http://maps.google.com/maps?q=MARYLAND%20CVS%20PHARMACY%20LLC%2C28%20MAGOTHY%20BEACH%20RD.%2C+PASADENA%2C+MD+21122,
"MARYLAND CVS PHARMACY, L.L.C.",3110 OLNEY SANDY SPRING RD.,"OLNEY, MD 20832",http://maps.google.com/maps?q=MARYLAND%20CVS%20PHARMACY%20LLC%2C3110%20OLNEY%20SANDY%20SPRING%20RD.%2C+OLNEY%2C+MD+20832,
"MARYLAND CVS PHARMACY, L.L.C.",3300A CENTENNIAL LANE,"ELLICOTT CITY, MD 21042",http://maps.google.com/maps?q=MARYLAND%20CVS%20PHARMACY%20LLC%2C3300A%20CENTENNIAL%20LANE%2C+ELLICOTT%20CITY%2C+MD+21042,
"MARYLAND CVS PHARMACY, L.L.C.",3715 UNIVERSITY BOULEVARD WEST,"KENSINGTON, MD 20895",http://maps.google.com/maps?q=MARYLAND%20CVS%20PHARMACY%20LLC%2C3715%20UNIVERSITY%20BOULEVARD%20WEST%2C+KENSINGTON%2C+MD+20895,
"MARYLAND CVS PHARMACY, L.L.C.",402 SO. JEFFERSON STREET,"FREDERICK, MD 21701",http://maps.google.com/maps?q=MARYLAND%20CVS%20PHARMACY%20LLC%2C402%20SO.%20JEFFERSON%20STREET%2C+FREDERICK%2C+MD+21701,
"MARYLAND CVS PHARMACY, L.L.C.",5870 SILVER HILL RD,SILVER HILL PLAZA,"DISTRICT HEIGHTS, MD 20747",http://maps.google.com/maps?q=MARYLAND%20CVS%20PHARMACY%20LLC%2C5870%20SILVER%20HILL%20RD%2C+DISTRICT%20HEIGHTS%2C+MD+20747
"MARYLAND CVS PHARMACY, L.L.C.",6260 CRAIN HWY.,"LA PLATA, MD 20646",http://maps.google.com/maps?q=MARYLAND%20CVS%20PHARMACY%20LLC%2C6260%20CRAIN%20HWY.%2C+LA%20PLATA%2C+MD+20646,
"MARYLAND CVS PHARMACY, L.L.C.",6480 OLD WATERLOO RD,"ELKRIDGE, MD 21075",http://maps.google.com/maps?q=MARYLAND%20CVS%20PHARMACY%20LLC%2C6480%20OLD%20WATERLOO%20RD%2C+ELKRIDGE%2C+MD+21075,
"MARYLAND CVS PHARMACY, L.L.C.",7607 GREENBELT ROAD,"GREENBELT, MD 20770",http://maps.google.com/maps?q=MARYLAND%20CVS%20PHARMACY%20LLC%2C7607%20GREENBELT%20ROAD%2C+GREENBELT%2C+MD+20770,
"MARYLAND CVS PHARMACY, L.L.C.",7845 WISE AVE.,"BALTIMORE, MD 21222",http://maps.google.com/maps?q=MARYLAND%20CVS%20PHARMACY%20LLC%2C7845%20WISE%20AVE.%2C+BALTIMORE%2C+MD+21222,
"MARYLAND CVS PHARMACY, L.L.C.",7955 TUCKERMAN LANE,"ROCKVILLE, MD 20854",http://maps.google.com/maps?q=MARYLAND%20CVS%20PHARMACY%20LLC%2C7955%20TUCKERMAN%20LANE%2C+ROCKVILLE%2C+MD+20854,
"MARYLAND CVS PHARMACY, L.L.C.",8859 BRANCH AVENUE,"CLINTON, MD 20735",http://maps.google.com/maps?q=MARYLAND%20CVS%20PHARMACY%20LLC%2C8859%20BRANCH%20AVENUE%2C+CLINTON%2C+MD+20735,
"MARYLAND CVS PHARMACY, L.L.C.",9920 KEY WEST AVE,"ROCKVILLE, MD 20850",http://maps.google.com/maps?q=MARYLAND%20CVS%20PHARMACY%20LLC%2C9920%20KEY%20WEST%20AVE%2C+ROCKVILLE%2C+MD+20850,
MASONIC VILLAGE PHARMACY,99 MASONIC DRIVE,"ELIZABETHTOWN, PA 17022",http://maps.google.com/maps?q=MASONIC%20VILLAGE%20PHARMACY%2C99%20MASONIC%20DRIVE%2C+ELIZABETHTOWN%2C+PA+17022,
MCELROY PHARMACY INC,100 E MAIN ST,P.O. BOX 283,"LITITZ, PA 17543",http://maps.google.com/maps?q=MCELROY%20PHARMACY%20INC%2C100%20E%20MAIN%20ST%2C+LITITZ%2C+PA+17543
MEDICINE CHEST PHARMACY,6823 OLD DOMINION DRIVE,"MCLEAN, VA 22101",http://maps.google.com/maps?q=MEDICINE%20CHEST%20PHARMACY%2C6823%20OLD%20DOMINION%20DRIVE%2C+MCLEAN%2C+VA+22101,
MEDSTAR PHARMACY  STORE #10,MEDSTAR PHARMACY AT GEORGETOWN UNIV HOSPITAL,3800 RESERVOIR RD NW PASQUERILLA,"WASHINGTON, DC 20007",http://maps.google.com/maps?q=MEDSTAR%20PHARMACY%20%20STORE%2CMEDSTAR%20PHARMACY%20AT%20GEORGETOWN%20UNIV%20HOSPITAL%2C+WASHINGTON%2C+DC+20007
MEDSTAR PHARMACY (STORE # 11),18101 PRINCE PHILIP DRIVE,"OLNEY, MD 20832",http://maps.google.com/maps?q=MEDSTAR%20PHARMACY%20STORE%2C18101%20PRINCE%20PHILIP%20DRIVE%2C+OLNEY%2C+MD+20832,
MEDSTAR PHARMACY (STORE #7),3305 N. LEISUREWORLD BOULEVARD,"SILVER SPRING, MD 20906",http://maps.google.com/maps?q=MEDSTAR%20PHARMACY%20STORE%2C3305%20N.%20LEISUREWORLD%20BOULEVARD%2C+SILVER%20SPRING%2C+MD+20906,
MEDSTAR PHARMACY (STORE #9),25500 POINT LOOKOUT ROAD,"LEONARDTOWN, MD 20650",http://maps.google.com/maps?q=MEDSTAR%20PHARMACY%20STORE%2C25500%20POINT%20LOOKOUT%20ROAD%2C+LEONARDTOWN%2C+MD+20650,
MEDSTAR PHARMACY AT GSH,5601 LOCH RAVEN BOULEVARD,"BALTIMORE, MD 21239",http://maps.google.com/maps?q=MEDSTAR%20PHARMACY%20AT%20GSH%2C5601%20LOCH%20RAVEN%20BOULEVARD%2C+BALTIMORE%2C+MD+21239,
MEDSTAR PHARMACY AT HARBOR HOSPITAL,3001 S HANOVER STREET,"BALTIMORE, MD 21225",http://maps.google.com/maps?q=MEDSTAR%20PHARMACY%20AT%20HARBOR%20HOSPITAL%2C3001%20S%20HANOVER%20STREET%2C+BALTIMORE%2C+MD+21225,
MEDSTAR PHARMACY AT UMH,201 E. UNIVERSITY PARKWAY,"BALTIMORE, MD 21218",http://maps.google.com/maps?q=MEDSTAR%20PHARMACY%20AT%20UMH%2C201%20E.%20UNIVERSITY%20PARKWAY%2C+BALTIMORE%2C+MD+21218,
MEDSTAR PHARMACY STORE # 12,9000 FRANKLIN SQUARE DRIVE,"ROSEDALE, MD 21237",http://maps.google.com/maps?q=MEDSTAR%20PHARMACY%20STORE%2C9000%20FRANKLIN%20SQUARE%20DRIVE%2C+ROSEDALE%2C+MD+21237,
MEDSTAR PHARMACY STORE #5,WASHINGTON HOSPITAL CENTER,106 IRVING ST NW#1200,"WASHINGTON, DC 20010",http://maps.google.com/maps?q=MEDSTAR%20PHARMACY%20STORE%2CWASHINGTON%20HOSPITAL%20CENTER%2C+WASHINGTON%2C+DC+20010
MEDSURG PHARMACY,3037 MARSHALL HALL RD,"BRYANS ROAD, MD 20616",http://maps.google.com/maps?q=MEDSURG%20PHARMACY%2C3037%20MARSHALL%20HALL%20RD%2C+BRYANS%20ROAD%2C+MD+20616,
MERCY PHARMACY,1503 LANSDOWNE AVENUE,SUITE 1000,"DARBY, PA 19023",http://maps.google.com/maps?q=MERCY%20PHARMACY%2C1503%20LANSDOWNE%20AVENUE%2C+DARBY%2C+PA+19023
METHODIST HOSPITAL APOTHECARY,2301 SOUTH BROAD STREET,"PHILADELPHIA, PA 19148",http://maps.google.com/maps?q=METHODIST%20HOSPITAL%20APOTHECARY%2C2301%20SOUTH%20BROAD%20STREET%2C+PHILADELPHIA%2C+PA+19148,
MT HERMON DISCOUNT PHARMACY,1207 MT HERMON RD,"SALISBURY, MD 21804",http://maps.google.com/maps?q=MT%20HERMON%20DISCOUNT%20PHARMACY%2C1207%20MT%20HERMON%20RD%2C+SALISBURY%2C+MD+21804,
NEIGHBORHOOD PHARMACY OF DEL RAY,2204 MT. VERNON AVE,"ALEXANDRIA, VA 22301",http://maps.google.com/maps?q=NEIGHBORHOOD%20PHARMACY%20OF%20DEL%20RAY%2C2204%20MT.%20VERNON%20AVE%2C+ALEXANDRIA%2C+VA+22301,
"NEW JERSEY CVS PHARMACY, L.L.C.",25 EAST RED BANK AVENUE,"WOODBURY, NJ 08096",http://maps.google.com/maps?q=NEW%20JERSEY%20CVS%20PHARMACY%20LLC%2C25%20EAST%20RED%20BANK%20AVENUE%2C+WOODBURY%2C+NJ+08096,
"NEW JERSEY CVS PHARMACY, L.L.C.",307 EGG HARBOR RD,"SEWELL, NJ 08080",http://maps.google.com/maps?q=NEW%20JERSEY%20CVS%20PHARMACY%20LLC%2C307%20EGG%20HARBOR%20RD%2C+SEWELL%2C+NJ+08080,
NORTHERN BEDFORD PHARMACY,3499 BRUMBAUGH RD,"NEW ENTERPRISE, PA 16664",http://maps.google.com/maps?q=NORTHERN%20BEDFORD%20PHARMACY%2C3499%20BRUMBAUGH%20RD%2C+NEW%20ENTERPRISE%2C+PA+16664,
NORTHGATE PHARMACY INC.,3973 SAINT CHARLES PKWY,"WALDORF, MD 20602",http://maps.google.com/maps?q=NORTHGATE%20PHARMACY%20INC%2C3973%20SAINT%20CHARLES%20PKWY%2C+WALDORF%2C+MD+20602,
ORBY PHARMACY INC,626 WATER STREET SUITE 3,PO BOX 367,"ORBISONIA, PA 17243",http://maps.google.com/maps?q=ORBY%20PHARMACY%20INC%2C626%20WATER%20STREET%20SUITE%203%2C+ORBISONIA%2C+PA+17243
PEMBERTON PHARMACY & GIFT,1147 PEMBERTON DR,"SALISBURY, MD 21801",http://maps.google.com/maps?q=PEMBERTON%20PHARMACY%20%20GIFT%2C1147%20PEMBERTON%20DR%2C+SALISBURY%2C+MD+21801,
PEMBERTON PHARMACY & GIFT ST MICHAELS,204 S TALBOT ST,PO BOX 1139,"ST MICHAELS, MD 21663",http://maps.google.com/maps?q=PEMBERTON%20PHARMACY%20%20GIFT%20ST%20MICHAELS%2C204%20S%20TALBOT%20ST%2C+ST%20MICHAELS%2C+MD+21663
PENN MEDICINE AT UNIVERSITY CITY - APOTHECARY,3737 MARKET STREET,GROUND FLOOR,"PHILA, PA 19104",http://maps.google.com/maps?q=PENN%20MEDICINE%20AT%20UNIVERSITY%20CITY%20%20APOTHECARY%2C3737%20MARKET%20STREET%2C+PHILA%2C+PA+19104
PENN-PRESBYTERIAN MED CTR-PHARMACY,51 NORTH 39TH STREET,"PHILADELPHIA, PA 19104",http://maps.google.com/maps?q=PENNPRESBYTERIAN%20MED%20CTRPHARMACY%2C51%20NORTH%2039TH%20STREET%2C+PHILADELPHIA%2C+PA+19104,
"PENNSYLVANIA CVS PHARMACY, L.L.C.",105 S. SPORTING HILL RD.,"MECHANICSBURG, PA 17050",http://maps.google.com/maps?q=PENNSYLVANIA%20CVS%20PHARMACY%20LLC%2C105%20S.%20SPORTING%20HILL%20RD.%2C+MECHANICSBURG%2C+PA+17050,
"PENNSYLVANIA CVS PHARMACY, L.L.C.",1405 SOUTH 10TH STREET,"PHILADELPHIA, PA 19147",http://maps.google.com/maps?q=PENNSYLVANIA%20CVS%20PHARMACY%20LLC%2C1405%20SOUTH%2010TH%20STREET%2C+PHILADELPHIA%2C+PA+19147,
"PENNSYLVANIA CVS PHARMACY, L.L.C.",1507 LITITZ PIKE,"LANCASTER, PA 17601",http://maps.google.com/maps?q=PENNSYLVANIA%20CVS%20PHARMACY%20LLC%2C1507%20LITITZ%20PIKE%2C+LANCASTER%2C+PA+17601,
"PENNSYLVANIA CVS PHARMACY, L.L.C.",159 N. MACDADE BLVD.,"GLENOLDEN, PA 19036",http://maps.google.com/maps?q=PENNSYLVANIA%20CVS%20PHARMACY%20LLC%2C159%20N.%20MACDADE%20BLVD.%2C+GLENOLDEN%2C+PA+19036,
"PENNSYLVANIA CVS PHARMACY, L.L.C.",1740 WASHINGTON RD,"PITTSBURGH, PA 15241",http://maps.google.com/maps?q=PENNSYLVANIA%20CVS%20PHARMACY%20LLC%2C1740%20WASHINGTON%20RD%2C+PITTSBURGH%2C+PA+15241,
"PENNSYLVANIA CVS PHARMACY, L.L.C.",1901 WEST OREGON AVENUE,"PHILADELPHIA, PA 19145",http://maps.google.com/maps?q=PENNSYLVANIA%20CVS%20PHARMACY%20LLC%2C1901%20WEST%20OREGON%20AVENUE%2C+PHILADELPHIA%2C+PA+19145,
"PENNSYLVANIA CVS PHARMACY, L.L.C.",317 W. LANCASTER AVE.,"ARDMORE, PA 19003",http://maps.google.com/maps?q=PENNSYLVANIA%20CVS%20PHARMACY%20LLC%2C317%20W.%20LANCASTER%20AVE.%2C+ARDMORE%2C+PA+19003,
"PENNSYLVANIA CVS PHARMACY, L.L.C.",3298 EDGEMONT AVE.,"BROOKHAVEN, PA 19015",http://maps.google.com/maps?q=PENNSYLVANIA%20CVS%20PHARMACY%20LLC%2C3298%20EDGEMONT%20AVE.%2C+BROOKHAVEN%2C+PA+19015,
"PENNSYLVANIA CVS PHARMACY, L.L.C.",6007 ALLENTOWN BLVD,PAXTON SQUARE,"HARRISBURG, PA 17112",http://maps.google.com/maps?q=PENNSYLVANIA%20CVS%20PHARMACY%20LLC%2C6007%20ALLENTOWN%20BLVD%2C+HARRISBURG%2C+PA+17112
"PENNSYLVANIA CVS PHARMACY, L.L.C.",802 LANSDOWNE AVENUE,"DREXEL HILL, PA 19026",http://maps.google.com/maps?q=PENNSYLVANIA%20CVS%20PHARMACY%20LLC%2C802%20LANSDOWNE%20AVENUE%2C+DREXEL%20HILL%2C+PA+19026,
PENNSYLVANIA HOSPITAL,800 SPRUCE STREET,1ST FLOOR PRESTON BUILDING,"PHILADELPHIA, PA 19107",http://maps.google.com/maps?q=PENNSYLVANIA%20HOSPITAL%2C800%20SPRUCE%20STREET%2C+PHILADELPHIA%2C+PA+19107
PURCELLVILLE PHARMACY,609 E MAIN ST SUITE Q,"PURCELLVILLE, VA 20132",http://maps.google.com/maps?q=PURCELLVILLE%20PHARMACY%2C609%20E%20MAIN%20ST%20SUITE%20Q%2C+PURCELLVILLE%2C+VA+20132,
"RANN PHARMACY, INC.",377 MAIN ST,"HARLEYSVILLE, PA 19438",http://maps.google.com/maps?q=RANN%20PHARMACY%20INC%2C377%20MAIN%20ST%2C+HARLEYSVILLE%2C+PA+19438,
READING HOSPITAL AMBULATORY PHARMACY,420 S 5TH AVENUE,"READING, PA 19611",http://maps.google.com/maps?q=READING%20HOSPITAL%20AMBULATORY%20PHARMACY%2C420%20S%205TH%20AVENUE%2C+READING%2C+PA+19611,
"RITE AID OF PENNSYLVANIA, INC.",1137 MARKET STREET,"LEMOYNE, PA 17043",http://maps.google.com/maps?q=RITE%20AID%20OF%20PENNSYLVANIA%20INC%2C1137%20MARKET%20STREET%2C+LEMOYNE%2C+PA+17043,
RIVIERA DRUGS LLC,8541 FORTSMALL WOOD ROAD,UNIT G,"PASADENA, MD 21122",http://maps.google.com/maps?q=RIVIERA%20DRUGS%20LLC%2C8541%20FORTSMALL%20WOOD%20ROAD%2C+PASADENA%2C+MD+21122
SPECTRUM HEALTHCARE RESOURCES - DUMFRIES HLTH CTR,3700 FETTLER PARK DRIVE,"DUMFRIES, VA 22025",http://maps.google.com/maps?q=SPECTRUM%20HEALTHCARE%20RESOURCES%20%20DUMFRIES%20HLTH%20CTR%2C3700%20FETTLER%20PARK%20DRIVE%2C+DUMFRIES%2C+VA+22025,
SPECTRUM HEALTHCARE RESOURCES - FAIRFAX HLTH CTR,10580 ARROWHEAD DRIVE,"FAIRFAX, VA 22030",http://maps.google.com/maps?q=SPECTRUM%20HEALTHCARE%20RESOURCES%20%20FAIRFAX%20HLTH%20CTR%2C10580%20ARROWHEAD%20DRIVE%2C+FAIRFAX%2C+VA+22030,
STRASBURG PHARMACY,33820 OLD VALLEY PIKE,SUITE 7,"STRASBURG, VA 22657",http://maps.google.com/maps?q=STRASBURG%20PHARMACY%2C33820%20OLD%20VALLEY%20PIKE%2C+STRASBURG%2C+VA+22657
SUMMIT HEALTH PHARMACY INC,3400 EDGMONT AVENUE,"BROOKHAVEN, PA 19015",http://maps.google.com/maps?q=SUMMIT%20HEALTH%20PHARMACY%20INC%2C3400%20EDGMONT%20AVENUE%2C+BROOKHAVEN%2C+PA+19015,
TANG PHARMACY IV,900 N BROAD ST,"PHILADELPHIA, PA 19130",http://maps.google.com/maps?q=TANG%20PHARMACY%20IV%2C900%20N%20BROAD%20ST%2C+PHILADELPHIA%2C+PA+19130,
THE JOHNS HOPKINS HOSPITAL,1717 E MONUMENT ST,"PARK BUILDING, ROOM G-105","BALTIMORE, MD 21287",http://maps.google.com/maps?q=THE%20JOHNS%20HOPKINS%20HOSPITAL%2C1717%20E%20MONUMENT%20ST%2C+BALTIMORE%2C+MD+21287
THE JOHNS HOPKINS HOSPITAL,401 NORTH BROADWAY,SUITE 1001,"BALTIMORE, MD 21231",http://maps.google.com/maps?q=THE%20JOHNS%20HOPKINS%20HOSPITAL%2C401%20NORTH%20BROADWAY%2C+BALTIMORE%2C+MD+21231
THE JOHNS HOPKINS HOSPITAL,601 NORTH CAROLINE STREET,SUITE 1006,"BALTIMORE, MD 21287",http://maps.google.com/maps?q=THE%20JOHNS%20HOPKINS%20HOSPITAL%2C601%20NORTH%20CAROLINE%20STREET%2C+BALTIMORE%2C+MD+21287
THE JOHNS HOPKINS HOSPITAL,AT MONUMENT STREET,1810 E. MONUMENT STREET,"BALTIMORE, MD 21205",http://maps.google.com/maps?q=THE%20JOHNS%20HOPKINS%20HOSPITAL%2CAT%20MONUMENT%20STREET%2C+BALTIMORE%2C+MD+21205
THE LIFEBRIDGE PHARMACY AT SINAI HOSPITAL,2401 W. BELVEDERE AVE,"BALTIMORE, MD 21215",http://maps.google.com/maps?q=THE%20LIFEBRIDGE%20PHARMACY%20AT%20SINAI%20HOSPITAL%2C2401%20W.%20BELVEDERE%20AVE%2C+BALTIMORE%2C+MD+21215,
"TRI-CO HEALTH CLINIC, INC DBA CLAY-BATTELLE PHARM",5851 MASON-DIXON HWY.,PO BOX 21,"BLACKSVILLE, WV 26521",http://maps.google.com/maps?q=TRICO%20HEALTH%20CLINIC%20INC%20DBA%20CLAYBATTELLE%20PHARM%2C5851%20MASON-DIXON%20HWY.%2C+BLACKSVILLE%2C+WV+26521
TRI-COUNTY PHARMACY,123 QUEENS ALLEY ROAD,"ROCK CAVE, WV 26234",http://maps.google.com/maps?q=TRICOUNTY%20PHARMACY%2C123%20QUEENS%20ALLEY%20ROAD%2C+ROCK%20CAVE%2C+WV+26234,
UMMC MIDTOWN CAMPUS PHARMACY,821 NORTH EUTAW STREET,"BALTIMORE, MD 21201",http://maps.google.com/maps?q=UMMC%20MIDTOWN%20CAMPUS%20PHARMACY%2C821%20NORTH%20EUTAW%20STREET%2C+BALTIMORE%2C+MD+21201,
UNIV OF MD MEDICAL SYSTEMS,22 SOUTH GREENE STREET,1ST FLOOR,"BALTIMORE, MD 21201",http://maps.google.com/maps?q=UNIV%20OF%20MD%20MEDICAL%20SYSTEMS%2C22%20SOUTH%20GREENE%20STREET%2C+BALTIMORE%2C+MD+21201
UNIVERSITY OF MARYLAND MEDICAL CENTER,11 SOUTH PACA STREET,"BALTIMORE, MD 21201",http://maps.google.com/maps?q=UNIVERSITY%20OF%20MARYLAND%20MEDICAL%20CENTER%2C11%20SOUTH%20PACA%20STREET%2C+BALTIMORE%2C+MD+21201,
URBANCARE PHARMACY,169 W LEHIGH AVE,"PHILADELPHIA, PA 19133",http://maps.google.com/maps?q=URBANCARE%20PHARMACY%2C169%20W%20LEHIGH%20AVE%2C+PHILADELPHIA%2C+PA+19133,
US ARMY  DUNHAM HEALTH CLINIC,CARLISLE BARRACKS,450 GIBNER RD/STE 1,"CARLISLE, PA 17013",http://maps.google.com/maps?q=US%20ARMY%20%20DUNHAM%20HEALTH%20CLINIC%2CCARLISLE%20BARRACKS%2C+CARLISLE%2C+PA+17013
US ARMY FBCH PHARMACY SERVICE,9300 DEWITT LOOP,ROOM C1382 MAIN VAULT,"FORT BELVOIR, VA 22060",http://maps.google.com/maps?q=US%20ARMY%20FBCH%20PHARMACY%20SERVICE%2C9300%20DEWITT%20LOOP%2C+FORT%20BELVOIR%2C+VA+22060
US ARMY KIRK HEALTH CLINIC,PHARMACY,ABERDEEN PROVING GROUND,"ABERDEEN PROVING GROUND, MD 21005",http://maps.google.com/maps?q=US%20ARMY%20KIRK%20HEALTH%20CLINIC%2CPHARMACY%2C+ABERDEEN%20PROVING%20GROUND%2C+MD+21005
US ARMY PHARMACY ANEX,8651 JOHN J KINGMAN ROAD,"FORT BELVOIR, VA 22060",http://maps.google.com/maps?q=US%20ARMY%20PHARMACY%20ANEX%2C8651%20JOHN%20J%20KINGMAN%20ROAD%2C+FORT%20BELVOIR%2C+VA+22060,
US ARMY- FT DETRICK HEALTH CLINIC,1434 PORTER STREET,FORT DETRICK,"FREDERICK, MD 21702",http://maps.google.com/maps?q=US%20ARMY%20FT%20DETRICK%20HEALTH%20CLINIC%2C1434%20PORTER%20STREET%2C+FREDERICK%2C+MD+21702
US ARMY- KIMBROUGH AMBULATORY CARE CENTER,DEPARTMENT OF PHARMACY,KIMBROUGH AMBULATORY CARE CENTER,"FORT MEADE, MD 20755",http://maps.google.com/maps?q=US%20ARMY%20KIMBROUGH%20AMBULATORY%20CARE%20CENTER%2CDEPARTMENT%20OF%20PHARMACY%2C+FORT%20MEADE%2C+MD+20755
US ARMY-ANTHONY DILORENZO,DILORENZO TRICARE HLTH CLINIC,PENTAGON 5801 DEFENSE PENTAGON,"WASHINGTON, DC 20310",http://maps.google.com/maps?q=US%20ARMYANTHONY%20DILORENZO%2CDILORENZO%20TRICARE%20HLTH%20CLINIC%2C+WASHINGTON%2C+DC+20310
USAF 11TH MDS PHARMACY,238 BROOKLEY AVENUE,"WASHINGTON, DC 20032",http://maps.google.com/maps?q=USAF%20TH%20MDS%20PHARMACY%2C238%20BROOKLEY%20AVENUE%2C+WASHINGTON%2C+DC+20032,
USAF 779TH MDG PHARMACY,1060 W. PERIMETER ROAD,"ANDREWS AIR FORCE BASE, MD 20762",http://maps.google.com/maps?q=USAF%20TH%20MDG%20PHARMACY%2C1060%20W.%20PERIMETER%20ROAD%2C+ANDREWS%20AIR%20FORCE%20BASE%2C+MD+20762,
USAF 779TH MDG SATELLITE PHARMACY,1683 BROOKLEY AVENUE,"ANDREWS AIR FORCE BASE, MD 20762",http://maps.google.com/maps?q=USAF%20TH%20MDG%20SATELLITE%20PHARMACY%2C1683%20BROOKLEY%20AVENUE%2C+ANDREWS%20AIR%20FORCE%20BASE%2C+MD+20762,
USAF- 436 MEDICAL GROUP/SGSM,436 MDG/SGSM,300 TUSKEGEE BLVD,"DOVER AFB, DE 19902",http://maps.google.com/maps?q=USAF%20%20MEDICAL%20GROUPSGSM%2C436%20MDG/SGSM%2C+DOVER%20AFB%2C+DE+19902
USN- NAVAL BRANCH HEALTH CLINIC BANCROFT HALL,101 BUCHANAN ROAD,"ANNAPOLIS, MD 21402",http://maps.google.com/maps?q=USN%20NAVAL%20BRANCH%20HEALTH%20CLINIC%20BANCROFT%20HALL%2C101%20BUCHANAN%20ROAD%2C+ANNAPOLIS%2C+MD+21402,
USN- NAVAL MEDICAL CLINIC,3259 CATLIN AVENUE,"QUANTICO, VA 22134",http://maps.google.com/maps?q=USN%20NAVAL%20MEDICAL%20CLINIC%2C3259%20CATLIN%20AVENUE%2C+QUANTICO%2C+VA+22134,
USN- NAVAL MEDICAL CLINIC,695 KINKAID ROAD,PHARMACY DEPT.,"ANNAPOLIS, MD 21402",http://maps.google.com/maps?q=USN%20NAVAL%20MEDICAL%20CLINIC%2C695%20KINKAID%20ROAD%2C+ANNAPOLIS%2C+MD+21402
"USN-BRANCH HEALTH CLINIC, WASHINGTON NAVY YARD",915 N STREET S. E.,"WASHINGTON, DC 20374",http://maps.google.com/maps?q=USNBRANCH%20HEALTH%20CLINIC%20WASHINGTON%20NAVY%20YARD%2C915%20N%20STREET%20S.%20E.%2C+WASHINGTON%2C+DC+20374,
"VIRGINIA CVS PHARMACY, L.L.C.",13031 LEE-JACKSON HIGHWAY,"FAIRFAX, VA 22033",http://maps.google.com/maps?q=VIRGINIA%20CVS%20PHARMACY%20LLC%2C13031%20LEE-JACKSON%20HIGHWAY%2C+FAIRFAX%2C+VA+22033,
"VIRGINIA CVS PHARMACY, L.L.C.",13600 JEFFERSON DAVIS HIGHWAY,"WOODBRIDGE, VA 22191",http://maps.google.com/maps?q=VIRGINIA%20CVS%20PHARMACY%20LLC%2C13600%20JEFFERSON%20DAVIS%20HIGHWAY%2C+WOODBRIDGE%2C+VA+22191,
"VIRGINIA CVS PHARMACY, L.L.C.",3117 LOCKHEED BLVD,"ALEXANDRIA, VA 22306",http://maps.google.com/maps?q=VIRGINIA%20CVS%20PHARMACY%20LLC%2C3117%20LOCKHEED%20BLVD%2C+ALEXANDRIA%2C+VA+22306,
"VIRGINIA CVS PHARMACY, L.L.C.",3133 LEE HIGHWAY,"ARLINGTON, VA 22201",http://maps.google.com/maps?q=VIRGINIA%20CVS%20PHARMACY%20LLC%2C3133%20LEE%20HIGHWAY%2C+ARLINGTON%2C+VA+22201,
"VIRGINIA CVS PHARMACY, L.L.C.",388 GARRISONVILLE ROAD,"STAFFORD, VA 22554",http://maps.google.com/maps?q=VIRGINIA%20CVS%20PHARMACY%20LLC%2C388%20GARRISONVILLE%20ROAD%2C+STAFFORD%2C+VA+22554,
"VIRGINIA CVS PHARMACY, L.L.C.",510 BLACKWELL RD.,"WARRENTON, VA 20186",http://maps.google.com/maps?q=VIRGINIA%20CVS%20PHARMACY%20LLC%2C510%20BLACKWELL%20RD.%2C+WARRENTON%2C+VA+20186,
"VIRGINIA CVS PHARMACY, L.L.C.",5652 PICKWICK RD.,"CENTREVILLE, VA 20120",http://maps.google.com/maps?q=VIRGINIA%20CVS%20PHARMACY%20LLC%2C5652%20PICKWICK%20RD.%2C+CENTREVILLE%2C+VA+20120,
"VIRGINIA CVS PHARMACY, L.L.C.",591 JEFFERSON DAVIS HIGHWAY,"FREDERICKSBURG, VA 22401",http://maps.google.com/maps?q=VIRGINIA%20CVS%20PHARMACY%20LLC%2C591%20JEFFERSON%20DAVIS%20HIGHWAY%2C+FREDERICKSBURG%2C+VA+22401,
"VIRGINIA CVS PHARMACY, L.L.C.",7205 LITTLE RIVER TURNPIKE,"ANNANDALE, VA 22003",http://maps.google.com/maps?q=VIRGINIA%20CVS%20PHARMACY%20LLC%2C7205%20LITTLE%20RIVER%20TURNPIKE%2C+ANNANDALE%2C+VA+22003,
"VIRGINIA CVS PHARMACY, L.L.C.",8124 ARLINGTON BLVD,YORKTOWN CTR,"FALLS CHURCH, VA 22042",http://maps.google.com/maps?q=VIRGINIA%20CVS%20PHARMACY%20LLC%2C8124%20ARLINGTON%20BLVD%2C+FALLS%20CHURCH%2C+VA+22042
"VIRGINIA CVS PHARMACY, L.L.C.",9200 CENTREVILLE RD.,"MANASSAS, VA 20110",http://maps.google.com/maps?q=VIRGINIA%20CVS%20PHARMACY%20LLC%2C9200%20CENTREVILLE%20RD.%2C+MANASSAS%2C+VA+20110,
W-S ASSOCIATES INC,T/A APPLE DISCOUNT DRUGS,404A N. FRUITLAND BLVD.,"SALISBURY, MD 21801",http://maps.google.com/maps?q=WS%20ASSOCIATES%20INC%2CT/A%20APPLE%20DISCOUNT%20DRUGS%2C+SALISBURY%2C+MD+21801
WALGREEN CO,1217 22ND ST. NW,"WASHINGTON, DC 20037",http://maps.google.com/maps?q=WALGREEN%20CO%2C1217%2022ND%20ST.%20NW%2C+WASHINGTON%2C+DC+20037,
WALGREEN CO,1260 LIBERTY RD,"ELDERSBURG, MD 21784",http://maps.google.com/maps?q=WALGREEN%20CO%2C1260%20LIBERTY%20RD%2C+ELDERSBURG%2C+MD+21784,
WALGREEN CO.,10097 BALTIMORE NATIONAL PIKE,"ELLICOTT CITY, MD 21042",http://maps.google.com/maps?q=WALGREEN%20CO%2C10097%20BALTIMORE%20NATIONAL%20PIKE%2C+ELLICOTT%20CITY%2C+MD+21042,
WALGREEN CO.,101 FORBES DR.,"MARTINSBURG, WV 25404",http://maps.google.com/maps?q=WALGREEN%20CO%2C101%20FORBES%20DR.%2C+MARTINSBURG%2C+WV+25404,
WALGREEN CO.,10600 ROLLINGWOOD DRIVE,"FREDERICKSBURG, VA 22407",http://maps.google.com/maps?q=WALGREEN%20CO%2C10600%20ROLLINGWOOD%20DRIVE%2C+FREDERICKSBURG%2C+VA+22407,
WALGREEN CO.,111 MICHIGAN AVE NW STE 1107,"WASHINGTON, DC 20010",http://maps.google.com/maps?q=WALGREEN%20CO%2C111%20MICHIGAN%20AVE%20NW%20STE%201107%2C+WASHINGTON%2C+DC+20010,
WALGREEN CO.,1155 F STREET NW,"WASHINGTON, DC 20004",http://maps.google.com/maps?q=WALGREEN%20CO%2C1155%20F%20STREET%20NW%2C+WASHINGTON%2C+DC+20004,
WALGREEN CO.,1240 W. MAIN ST.,"BRIDGEPORT, WV 26330",http://maps.google.com/maps?q=WALGREEN%20CO%2C1240%20W.%20MAIN%20ST.%2C+BRIDGEPORT%2C+WV+26330,
WALGREEN CO.,1329 UNIVERSITY BLVD. E,"TAKOMA PARK, MD 20912",http://maps.google.com/maps?q=WALGREEN%20CO%2C1329%20UNIVERSITY%20BLVD.%20E%2C+TAKOMA%20PARK%2C+MD+20912,
WALGREEN CO.,13926 LEE HWY.,"CENTREVILLE, VA 20120",http://maps.google.com/maps?q=WALGREEN%20CO%2C13926%20LEE%20HWY.%2C+CENTREVILLE%2C+VA+20120,
WALGREEN CO.,276 W LEE HWY,"WARRENTON, VA 20186",http://maps.google.com/maps?q=WALGREEN%20CO%2C276%20W%20LEE%20HWY%2C+WARRENTON%2C+VA+20186,
WALGREEN CO.,3005 EMMORTON ROAD,"ABINGDON, MD 21009",http://maps.google.com/maps?q=WALGREEN%20CO%2C3005%20EMMORTON%20ROAD%2C+ABINGDON%2C+MD+21009,
WALGREEN CO.,40 FLOWING SPRINGS WAY,"CHARLES TOWN, WV 25414",http://maps.google.com/maps?q=WALGREEN%20CO%2C40%20FLOWING%20SPRINGS%20WAY%2C+CHARLES%20TOWN%2C+WV+25414,
WALGREEN CO.,4020 EASTERN AVENUE,"BALTIMORE, MD 21224",http://maps.google.com/maps?q=WALGREEN%20CO%2C4020%20EASTERN%20AVENUE%2C+BALTIMORE%2C+MD+21224,
WALGREEN CO.,4300 BACKLICK RD,"ANNANDALE, VA 22003",http://maps.google.com/maps?q=WALGREEN%20CO%2C4300%20BACKLICK%20RD%2C+ANNANDALE%2C+VA+22003,
WALGREEN CO.,50 WHITE OAK RD,"FREDERICKSBURG, VA 22405",http://maps.google.com/maps?q=WALGREEN%20CO%2C50%20WHITE%20OAK%20RD%2C+FREDERICKSBURG%2C+VA+22405,
WALGREEN CO.,5657 BALTIMORE NATIONAL PIKE,"CATONSVILLE, MD 21228",http://maps.google.com/maps?q=WALGREEN%20CO%2C5657%20BALTIMORE%20NATIONAL%20PIKE%2C+CATONSVILLE%2C+MD+21228,
WALGREEN CO.,600 WASHINGTON BLVD. S,"LAUREL, MD 20707",http://maps.google.com/maps?q=WALGREEN%20CO%2C600%20WASHINGTON%20BLVD.%20S%2C+LAUREL%2C+MD+20707,
WALGREEN CO.,6700 RITCHIE HWY,"GLEN BURNIE, MD 21061",http://maps.google.com/maps?q=WALGREEN%20CO%2C6700%20RITCHIE%20HWY%2C+GLEN%20BURNIE%2C+MD+21061,
WALGREEN CO.,6717 RICHMOND HWY.,"ALEXANDRIA, VA 22306",http://maps.google.com/maps?q=WALGREEN%20CO%2C6717%20RICHMOND%20HWY.%2C+ALEXANDRIA%2C+VA+22306,
WALGREEN CO.,801 7TH ST NW,"WASHINGTON, DC 20001",http://maps.google.com/maps?q=WALGREEN%20CO%2C801%207TH%20ST%20NW%2C+WASHINGTON%2C+DC+20001,
WALGREEN CO.,8174 OCEAN GATEWAY,"EASTON, MD 21601",http://maps.google.com/maps?q=WALGREEN%20CO%2C8174%20OCEAN%20GATEWAY%2C+EASTON%2C+MD+21601,
WALGREEN CO.,8414 OLD KEENE MILL RD.,UNIT A,"SPRINGFIELD, VA 22152",http://maps.google.com/maps?q=WALGREEN%20CO%2C8414%20OLD%20KEENE%20MILL%20RD.%2C+SPRINGFIELD%2C+VA+22152
WALGREEN CO.,897 CHESTNUT RIDGE RD,"MORGANTOWN, WV 26505",http://maps.google.com/maps?q=WALGREEN%20CO%2C897%20CHESTNUT%20RIDGE%20RD%2C+MORGANTOWN%2C+WV+26505,
WALGREEN CO.,9001 WOODY TERRACE,SUITE B,"CLINTON, MD 20735",http://maps.google.com/maps?q=WALGREEN%20CO%2C9001%20WOODY%20TERRACE%2C+CLINTON%2C+MD+20735
WALGREEN CO.,9616 HARFORD ROAD,"BALTIMORE, MD 21234",http://maps.google.com/maps?q=WALGREEN%20CO%2C9616%20HARFORD%20ROAD%2C+BALTIMORE%2C+MD+21234,
WALGREEN EASTERN CO. INC.,1 SOUTH BROAD STREET,"PHILADELPHIA, PA 19107",http://maps.google.com/maps?q=WALGREEN%20EASTERN%20CO%20INC%2C1%20SOUTH%20BROAD%20STREET%2C+PHILADELPHIA%2C+PA+19107,
"WALGREEN EASTERN CO., INC.",1111 NORTH HIGH STREET,"MILLVILLE, NJ 08332",http://maps.google.com/maps?q=WALGREEN%20EASTERN%20CO%20INC%2C1111%20NORTH%20HIGH%20STREET%2C+MILLVILLE%2C+NJ+08332,
"WALGREEN EASTERN CO., INC.",150 N MACDADE BLVD.,"GLENOLDEN, PA 19036",http://maps.google.com/maps?q=WALGREEN%20EASTERN%20CO%20INC%2C150%20N%20MACDADE%20BLVD.%2C+GLENOLDEN%2C+PA+19036,
"WALGREEN EASTERN CO., INC.",2014-24 S BROAD ST,"PHILADELPHIA, PA 19145",http://maps.google.com/maps?q=WALGREEN%20EASTERN%20CO%20INC%2C2014-24%20S%20BROAD%20ST%2C+PHILADELPHIA%2C+PA+19145,
"WALGREEN EASTERN CO., INC.",2310 W OREGON AVE,"PHILADELPHIA, PA 19145",http://maps.google.com/maps?q=WALGREEN%20EASTERN%20CO%20INC%2C2310%20W%20OREGON%20AVE%2C+PHILADELPHIA%2C+PA+19145,
"WALGREEN EASTERN CO., INC.",2350 E MARKET ST,"YORK, PA 17402",http://maps.google.com/maps?q=WALGREEN%20EASTERN%20CO%20INC%2C2350%20E%20MARKET%20ST%2C+YORK%2C+PA+17402,
"WALGREEN EASTERN CO., INC.",2803 W RIDGE PIKE,"NORRISTOWN, PA 19403",http://maps.google.com/maps?q=WALGREEN%20EASTERN%20CO%20INC%2C2803%20W%20RIDGE%20PIKE%2C+NORRISTOWN%2C+PA+19403,
"WALGREEN EASTERN CO., INC.",4098 EDGEMONT AVE.,"BROOKHAVEN, PA 19015",http://maps.google.com/maps?q=WALGREEN%20EASTERN%20CO%20INC%2C4098%20EDGEMONT%20AVE.%2C+BROOKHAVEN%2C+PA+19015,
WARDENSVILLE PHARMACY,333 EAST MAIN ST,P.O. BOX 97,"WARDENSVILLE, WV 26851",http://maps.google.com/maps?q=WARDENSVILLE%20PHARMACY%2C333%20EAST%20MAIN%20ST%2C+WARDENSVILLE%2C+WV+26851
WELLSPAN PHARMACY,183 N READING RD,SUITE 9,"EPHRATA, PA 17522",http://maps.google.com/maps?q=WELLSPAN%20PHARMACY%2C183%20N%20READING%20RD%2C+EPHRATA%2C+PA+17522
WELLSPAN PHARMACY,25 MONUMENT ROAD,SUITE 265,"YORK, PA 17403",http://maps.google.com/maps?q=WELLSPAN%20PHARMACY%2C25%20MONUMENT%20ROAD%2C+YORK%2C+PA+17403
WELLSPAN PHARMACY,252 S 4TH ST,"LEBANON, PA 17042",http://maps.google.com/maps?q=WELLSPAN%20PHARMACY%2C252%20S%204TH%20ST%2C+LEBANON%2C+PA+17042,
WELLSPAN PHARMACY,4910B FAIRFIELD ROAD,"FAIRFIELD, PA 17320",http://maps.google.com/maps?q=WELLSPAN%20PHARMACY%2C4910B%20FAIRFIELD%20ROAD%2C+FAIRFIELD%2C+PA+17320,
WEST READING DRUG STORE,538 PENN AVE,"WEST READING, PA 19611",http://maps.google.com/maps?q=WEST%20READING%20DRUG%20STORE%2C538%20PENN%20AVE%2C+WEST%20READING%2C+PA+19611,
"WEST VIRGINIA CVS PHARMACY, L.L.C.",1000 PINEVIEW DRIVE,"MORGANTOWN, WV 26505",http://maps.google.com/maps?q=WEST%20VIRGINIA%20CVS%20PHARMACY%20LLC%2C1000%20PINEVIEW%20DRIVE%2C+MORGANTOWN%2C+WV+26505,
"WEST VIRGINIA CVS PHARMACY, L.L.C.",505 RANDOLPH AVE,"ELKINS, WV 26241",http://maps.google.com/maps?q=WEST%20VIRGINIA%20CVS%20PHARMACY%20LLC%2C505%20RANDOLPH%20AVE%2C+ELKINS%2C+WV+26241,
"WEST VIRGINIA CVS PHARMACY, L.L.C.",701 E. MAIN STREET,"CLARKSBURG, WV 26301",http://maps.google.com/maps?q=WEST%20VIRGINIA%20CVS%20PHARMACY%20LLC%2C701%20E.%20MAIN%20STREET%2C+CLARKSBURG%2C+WV+26301,
"WEST VIRGINIA CVS PHARMACY, L.L.C.",74 WEST MAIN ST.,"BUCKHANNON, WV 26201",http://maps.google.com/maps?q=WEST%20VIRGINIA%20CVS%20PHARMACY%20LLC%2C74%20WEST%20MAIN%20ST.%2C+BUCKHANNON%2C+WV+26201,
WESTMORELAND REGIONAL HOSP,532 W PITTSBURGH ST,"GREENSBURG, PA 15601",http://maps.google.com/maps?q=WESTMORELAND%20REGIONAL%20HOSP%2C532%20W%20PITTSBURGH%20ST%2C+GREENSBURG%2C+PA+15601,
WRNMMC-WALTER REED NATIONAL MILITARY MEDICAL CENTE,PHARMACY DEPT BLDG 9,8901 WISCONSIN AVE,"BETHESDA, MD 20889",http://maps.google.com/maps?q=WRNMMCWALTER%20REED%20NATIONAL%20MILITARY%20MEDICAL%20CENTE%2CPHARMACY%20DEPT%20BLDG%209%2C+BETHESDA%2C+MD+20889
WV UNIVERSITY HOSPITALS INC,1 MEDICAL CENTER DR,"MORGANTOWN, WV 26506",http://maps.google.com/maps?q=WV%20UNIVERSITY%20HOSPITALS%20INC%2C1%20MEDICAL%20CENTER%20DR%2C+MORGANTOWN%2C+WV+26506,
WV UNIVERSITY HOSPITALS INC.,390 BIRCH STREET,"MORGANTOWN, WV 26505",http://maps.google.com/maps?q=WV%20UNIVERSITY%20HOSPITALS%20INC%2C390%20BIRCH%20STREET%2C+MORGANTOWN%2C+WV+26505,
YORK HOSPITAL PHARMACY DEPT,1001 SOUTH GEORGE ST,"YORK, PA 17405",http://maps.google.com/maps?q=YORK%20HOSPITAL%20PHARMACY%20DEPT%2C1001%20SOUTH%20GEORGE%20ST%2C+YORK%2C+PA+17405,
"NEW JERSEY CVS PHARMACY, L.L.C.",24 S. BLACK HORSE PIKE,"MOUNT EPHRAIM, NJ 08059",http://maps.google.com/maps?q=NEW%20JERSEY%20CVS%20PHARMACY%20LLC%2C24%20S.%20BLACK%20HORSE%20PIKE%2C+MOUNT%20EPHRAIM%2C+NJ+08059,
"WALGREEN EASTERN CO., INC.",4601 WESTFIELD AVENUE,"PENNSAUKEN, NJ 08110",http://maps.google.com/maps?q=WALGREEN%20EASTERN%20CO%20INC%2C4601%20WESTFIELD%20AVENUE%2C+PENNSAUKEN%2C+NJ+08110,
"NEW JERSEY CVS PHARMACY, L.L.C.",600 KINGS HWY N,"CHERRY HILL, NJ 08034",http://maps.google.com/maps?q=NEW%20JERSEY%20CVS%20PHARMACY%20LLC%2C600%20KINGS%20HWY%20N%2C+CHERRY%20HILL%2C+NJ+08034,
