Business Name,Address 1,Address 2,"City, State Zip",Map URL
"ALABAMA CVS PHARMACY, L.L.C.",105 INVERNESS PLAZA HWY 280,"BIRMINGHAM, AL 35242",http://maps.google.com/maps?q=ALABAMA%20CVS%20PHARMACY%20LLC%2C105%20INVERNESS%20PLAZA%20HWY%20280%2C+BIRMINGHAM%2C+AL+35242,
"ALABAMA CVS PHARMACY, L.L.C.",14695 HWY 43,"RUSSELLVILLE, AL 35653",http://maps.google.com/maps?q=ALABAMA%20CVS%20PHARMACY%20LLC%2C14695%20HWY%2043%2C+RUSSELLVILLE%2C+AL+35653,
"ALABAMA CVS PHARMACY, L.L.C.",220 GADSDEN HIGHWAY,"BIRMINGHAM, AL 35235",http://maps.google.com/maps?q=ALABAMA%20CVS%20PHARMACY%20LLC%2C220%20GADSDEN%20HIGHWAY%2C+BIRMINGHAM%2C+AL+35235,
"ALABAMA CVS PHARMACY, L.L.C.",418 WEST VALLEY AVE,"HOMEWOOD, AL 35209",http://maps.google.com/maps?q=ALABAMA%20CVS%20PHARMACY%20LLC%2C418%20WEST%20VALLEY%20AVE%2C+HOMEWOOD%2C+AL+35209,
"ALABAMA CVS PHARMACY, L.L.C.",520 HIGHWAY 119,"ALABASTER, AL 35007",http://maps.google.com/maps?q=ALABAMA%20CVS%20PHARMACY%20LLC%2C520%20HIGHWAY%20119%2C+ALABASTER%2C+AL+35007,
"BEAUREGARD DRUGS, INC",7667 AL HIGHWAY 51 STE A,"OPELIKA, AL 36804",http://maps.google.com/maps?q=BEAUREGARD%20DRUGS%20INC%2C7667%20AL%20HIGHWAY%2051%20STE%20A%2C+OPELIKA%2C+AL+36804,
CARTER DRUG CO INCOR,133 BROAD STREET,PO BOX 949,"SELMA, AL 36702",http://maps.google.com/maps?q=CARTER%20DRUG%20CO%20INCOR%2C133%20BROAD%20STREET%2C+SELMA%2C+AL+36702
CJ SANDLIN LLC,797 MILITARY STREET SOUTH,"HAMILTON, AL 35570",http://maps.google.com/maps?q=CJ%20SANDLIN%20LLC%2C797%20MILITARY%20STREET%20SOUTH%2C+HAMILTON%2C+AL+35570,
CLAY COUNTY HOSPITAL,83825 HWY 9,PO BOX 1270,"ASHLAND, AL 36251",http://maps.google.com/maps?q=CLAY%20COUNTY%20HOSPITAL%2C83825%20HWY%209%2C+ASHLAND%2C+AL+36251
"CLEBURNE PHARMACY, LLC",875 ROSS ST,"HEFLIN, AL 36264",http://maps.google.com/maps?q=CLEBURNE%20PHARMACY%20LLC%2C875%20ROSS%20ST%2C+HEFLIN%2C+AL+36264,
"CROSSROADS HEALTHCARE, LLC",867 LEE ROAD 248,"SMITHS STATION, AL 36877",http://maps.google.com/maps?q=CROSSROADS%20HEALTHCARE%20LLC%2C867%20LEE%20ROAD%20248%2C+SMITHS%20STATION%2C+AL+36877,
DEBBIE'S DRUGS,1716 TEMPLE AVE N,"FAYETTE, AL 35555",http://maps.google.com/maps?q=DEBBIES%20DRUGS%2C1716%20TEMPLE%20AVE%20N%2C+FAYETTE%2C+AL+35555,
EAMC-LANIER,4800 48TH STREET,PO BOX 348,"VALLEY, AL 36854",http://maps.google.com/maps?q=EAMCLANIER%2C4800%2048TH%20STREET%2C+VALLEY%2C+AL+36854
EAST ALABAMA HEALTH CARE AUTH,DBA EAST ALABAMA MEDICAL CENTE,2000 PEPPERELL PARKWAY,"OPELIKA, AL 36801",http://maps.google.com/maps?q=EAST%20ALABAMA%20HEALTH%20CARE%20AUTH%2CDBA%20EAST%20ALABAMA%20MEDICAL%20CENTE%2C+OPELIKA%2C+AL+36801
EDMONDSON DRUG CO INC,445 AL HIGHWAY 69 S STE D,"HANCEVILLE, AL 35077",http://maps.google.com/maps?q=EDMONDSON%20DRUG%20CO%20INC%2C445%20AL%20HIGHWAY%2069%20S%20STE%20D%2C+HANCEVILLE%2C+AL+35077,
FOREST HILL PHARMACY LLC,2939 FOREST HILL BLVD,"WEST PALM BEACH, FL 33406",http://maps.google.com/maps?q=FOREST%20HILL%20PHARMACY%20LLC%2C2939%20FOREST%20HILL%20BLVD%2C+WEST%20PALM%20BEACH%2C+FL+33406,
"GEORGIA CVS PHARMACY, L.L.C.",100 OAK ST,"BOWDON, GA 30108",http://maps.google.com/maps?q=GEORGIA%20CVS%20PHARMACY%20LLC%2C100%20OAK%20ST%2C+BOWDON%2C+GA+30108,
H&M DRUGS,17216 HIGHWAY 431,"WEDOWEE, AL 36278",http://maps.google.com/maps?q=HM%20DRUGS%2C17216%20HIGHWAY%20431%2C+WEDOWEE%2C+AL+36278,
"HOLIDAY CVS, L.L.C.",11000 N. MILITARY TRAIL,"PALM BEACH GARDENS, FL 33410",http://maps.google.com/maps?q=HOLIDAY%20CVS%20LLC%2C11000%20N.%20MILITARY%20TRAIL%2C+PALM%20BEACH%20GARDENS%2C+FL+33410,
"HOLIDAY CVS, L.L.C.",9940 YAMATO RD.,"BOCA RATON, FL 33434",http://maps.google.com/maps?q=HOLIDAY%20CVS%20LLC%2C9940%20YAMATO%20RD.%2C+BOCA%20RATON%2C+FL+33434,
HUBBARD PHARMACY,1351 W FORT WILLIAMS ST,"SYLACAUGA, AL 35150",http://maps.google.com/maps?q=HUBBARD%20PHARMACY%2C1351%20W%20FORT%20WILLIAMS%20ST%2C+SYLACAUGA%2C+AL+35150,
JERKINS INC DBA BUBBA'S MEDICINE SHOP,512 2ND AVE,"OPELIKA, AL 36801",http://maps.google.com/maps?q=JERKINS%20INC%20DBA%20BUBBAS%20MEDICINE%20SHOP%2C512%202ND%20AVE%2C+OPELIKA%2C+AL+36801,
LEXINGTON DRUGS LLC,11601 HWY. 101,"LEXINGTON, AL 35648",http://maps.google.com/maps?q=LEXINGTON%20DRUGS%20LLC%2C11601%20HWY.%20101%2C+LEXINGTON%2C+AL+35648,
MILLS PHARMACY AT BLUFF PARK,758 SHADES MTN PLAZA,"HOOVER, AL 35226",http://maps.google.com/maps?q=MILLS%20PHARMACY%20AT%20BLUFF%20PARK%2C758%20SHADES%20MTN%20PLAZA%2C+HOOVER%2C+AL+35226,
MILLS PHARMACY AT LEEDS,8420 1ST AVE,"LEEDS, AL 35094",http://maps.google.com/maps?q=MILLS%20PHARMACY%20AT%20LEEDS%2C8420%201ST%20AVE%2C+LEEDS%2C+AL+35094,
MILLS PHARMACY AT PARKWAY,9709 PARKWAY EAST,SUITE F,"BIRMINGHAM, AL 35215",http://maps.google.com/maps?q=MILLS%20PHARMACY%20AT%20PARKWAY%2C9709%20PARKWAY%20EAST%2C+BIRMINGHAM%2C+AL+35215
NORTHWOOD/MASSEY DRUGS,1702 N WOOD AVE,"FLORENCE, AL 35630",http://maps.google.com/maps?q=NORTHWOODMASSEY%20DRUGS%2C1702%20N%20WOOD%20AVE%2C+FLORENCE%2C+AL+35630,
"OUR HOME PHARMACY, INC",2320 MOORES MILL ROAD,SUITE 100,"AUBURN, AL 36830",http://maps.google.com/maps?q=OUR%20HOME%20PHARMACY%20INC%2C2320%20MOORES%20MILL%20ROAD%2C+AUBURN%2C+AL+36830
PINNACLE PHARMACY LLC,113 RAINBOW INDUSTRIAL BLVD,"RAINBOW CITY, AL 35906",http://maps.google.com/maps?q=PINNACLE%20PHARMACY%20LLC%2C113%20RAINBOW%20INDUSTRIAL%20BLVD%2C+RAINBOW%20CITY%2C+AL+35906,
RX CARE 12 LLC,2309 WEST WOOLBRIGHT ROAD,SUITE 4,"BOYNTON BEACH, FL 33426",http://maps.google.com/maps?q=RX%20CARE%20%20LLC%2C2309%20WEST%20WOOLBRIGHT%20ROAD%2C+BOYNTON%20BEACH%2C+FL+33426
SOFKO LLC,4900 LINTON BLVD,STE 24,"DELRAY BEACH, FL 33445",http://maps.google.com/maps?q=SOFKO%20LLC%2C4900%20LINTON%20BLVD%2C+DELRAY%20BEACH%2C+FL+33445
SURE SAVE PHARMACY,30694 HWY 72 WEST,SUITE A,"MADISON, AL 35756",http://maps.google.com/maps?q=SURE%20SAVE%20PHARMACY%2C30694%20HWY%2072%20WEST%2C+MADISON%2C+AL+35756
THE MEDICINE SHOPPE,1144 AIRPORT DRIVE,"ALEXANDER CITY, AL 35010",http://maps.google.com/maps?q=THE%20MEDICINE%20SHOPPE%2C1144%20AIRPORT%20DRIVE%2C+ALEXANDER%20CITY%2C+AL+35010,
THE PILL BOX PHARMACY,474 HIGHWAY 67 S,"DECATUR, AL 35603",http://maps.google.com/maps?q=THE%20PILL%20BOX%20PHARMACY%2C474%20HIGHWAY%2067%20S%2C+DECATUR%2C+AL+35603,
US ARMY- FOX HEALTH CENTER,GOSS ROAD,BUILDING 4100,"REDSTONE ARSENAL, AL 35809",http://maps.google.com/maps?q=US%20ARMY%20FOX%20HEALTH%20CENTER%2CGOSS%20ROAD%2C+REDSTONE%20ARSENAL%2C+AL+35809
USAF- MAXWELL HOSPITAL/SGL,300 TWINING ST,BLDG 760,"MAXWELL AFB, AL 36112",http://maps.google.com/maps?q=USAF%20MAXWELL%20HOSPITALSGL%2C300%20TWINING%20ST%2C+MAXWELL%20AFB%2C+AL+36112
VILLAGE DRUG SHOP,1001 AVALON AVE,"MUSCLE SHOALS, AL 35661",http://maps.google.com/maps?q=VILLAGE%20DRUG%20SHOP%2C1001%20AVALON%20AVE%2C+MUSCLE%20SHOALS%2C+AL+35661,
WALGREEN CO,4700 HIGHWAY 280 SUITE 1,"BIRMINGHAM, AL 35242",http://maps.google.com/maps?q=WALGREEN%20CO%2C4700%20HIGHWAY%20280%20SUITE%201%2C+BIRMINGHAM%2C+AL+35242,
WALGREEN CO,7155 US HIGHWAY 431,"ALBERTVILLE, AL 35950",http://maps.google.com/maps?q=WALGREEN%20CO%2C7155%20US%20HIGHWAY%20431%2C+ALBERTVILLE%2C+AL+35950,
WALGREEN CO,9325 PARKWAY E,"BIRMINGHAM, AL 35215",http://maps.google.com/maps?q=WALGREEN%20CO%2C9325%20PARKWAY%20E%2C+BIRMINGHAM%2C+AL+35215,
WALGREEN CO.,101 GREEN SPRINGS HWY,"BIRMINGHAM, AL 35209",http://maps.google.com/maps?q=WALGREEN%20CO%2C101%20GREEN%20SPRINGS%20HWY%2C+BIRMINGHAM%2C+AL+35209,
WALGREEN CO.,11079 S MILITARY TRAIL,"BOYNTON BEACH, FL 33436",http://maps.google.com/maps?q=WALGREEN%20CO%2C11079%20S%20MILITARY%20TRAIL%2C+BOYNTON%20BEACH%2C+FL+33436,
WALGREEN CO.,12001 SOUTHERN BLVD,"LOXAHATCHEE, FL 33470",http://maps.google.com/maps?q=WALGREEN%20CO%2C12001%20SOUTHERN%20BLVD%2C+LOXAHATCHEE%2C+FL+33470,
WALGREEN CO.,1661 NW ST LUCIE WEST BLVD,"PORT ST LUCIE, FL 34986",http://maps.google.com/maps?q=WALGREEN%20CO%2C1661%20NW%20ST%20LUCIE%20WEST%20BLVD%2C+PORT%20ST%20LUCIE%2C+FL+34986,
WALGREEN CO.,1705 US HWY 1,"VERO BEACH, FL 32960",http://maps.google.com/maps?q=WALGREEN%20CO%2C1705%20US%20HWY%201%2C+VERO%20BEACH%2C+FL+32960,
WALGREEN CO.,1800 W INDIANTOWN RD,"JUPITER, FL 33458",http://maps.google.com/maps?q=WALGREEN%20CO%2C1800%20W%20INDIANTOWN%20RD%2C+JUPITER%2C+FL+33458,
WALGREEN CO.,1801 MONGOMERY HWY,"HOOVER, AL 35244",http://maps.google.com/maps?q=WALGREEN%20CO%2C1801%20MONGOMERY%20HWY%2C+HOOVER%2C+AL+35244,
WALGREEN CO.,1815 9TH AVE NORTH,"BESSEMER, AL 35020",http://maps.google.com/maps?q=WALGREEN%20CO%2C1815%209TH%20AVE%20NORTH%2C+BESSEMER%2C+AL+35020,
WALGREEN CO.,3053 SW MARTIN DOWNS BLVD,"PALM CITY, FL 34990",http://maps.google.com/maps?q=WALGREEN%20CO%2C3053%20SW%20MARTIN%20DOWNS%20BLVD%2C+PALM%20CITY%2C+FL+34990,
WALGREEN CO.,3184 S CONGRESS AVE,"PALM SPRINGS, FL 33461",http://maps.google.com/maps?q=WALGREEN%20CO%2C3184%20S%20CONGRESS%20AVE%2C+PALM%20SPRINGS%2C+FL+33461,
WALGREEN CO.,5800 SE FEDERAL HWY,"STUART, FL 34997",http://maps.google.com/maps?q=WALGREEN%20CO%2C5800%20SE%20FEDERAL%20HWY%2C+STUART%2C+FL+34997,
WALGREEN CO.,6458 LINTON BLVD.,"DELRAY BEACH, FL 33484",http://maps.google.com/maps?q=WALGREEN%20CO%2C6458%20LINTON%20BLVD.%2C+DELRAY%20BEACH%2C+FL+33484,
WALGREEN CO.,6680 ATLANTA HWY,"MONTGOMERY, AL 36117",http://maps.google.com/maps?q=WALGREEN%20CO%2C6680%20ATLANTA%20HWY%2C+MONTGOMERY%2C+AL+36117,
WALGREEN CO.,7813 HIGHWAY 72 W,"MADISON, AL 35758",http://maps.google.com/maps?q=WALGREEN%20CO%2C7813%20HIGHWAY%2072%20W%2C+MADISON%2C+AL+35758,
WALGREEN CO.,794 SOUTH PARK ST,"CARROLLTON, GA 30117",http://maps.google.com/maps?q=WALGREEN%20CO%2C794%20SOUTH%20PARK%20ST%2C+CARROLLTON%2C+GA+30117,
http://maps.google.com/maps?q=ALABAMA%20CVS%20PHARMACY%20LLC%2C105%20INVERNESS%20PLAZA%20HWY%20280%2C+BIRMINGHAM%2C+AL+35242,,,,
http://maps.google.com/maps?q=ALABAMA%20CVS%20PHARMACY%20LLC%2C220%20GADSDEN%20HIGHWAY%2C+BIRMINGHAM%2C+AL+35235,,,,
http://maps.google.com/maps?q=ALABAMA%20CVS%20PHARMACY%20LLC%2C418%20WEST%20VALLEY%20AVE%2C+HOMEWOOD%2C+AL+35209,,,,
http://maps.google.com/maps?q=ALABAMA%20CVS%20PHARMACY%20LLC%2C520%20HIGHWAY%20119%2C+ALABASTER%2C+AL+35007,,,,
http://maps.google.com/maps?q=EDMONDSON%20DRUG%20CO%20INC%2C445%20AL%20HIGHWAY%2069%20S%20STE%20D%2C+HANCEVILLE%2C+AL+35077,,,,
http://maps.google.com/maps?q=HUBBARD%20PHARMACY%2C1351%20W%20FORT%20WILLIAMS%20ST%2C+SYLACAUGA%2C+AL+35150,,,,
http://maps.google.com/maps?q=MILLS%20PHARMACY%20AT%20BLUFF%20PARK%2C758%20SHADES%20MTN%20PLAZA%2C+HOOVER%2C+AL+35226,,,,
http://maps.google.com/maps?q=MILLS%20PHARMACY%20AT%20LEEDS%2C8420%201ST%20AVE%2C+LEEDS%2C+AL+35094,,,,
http://maps.google.com/maps?q=MILLS%20PHARMACY%20AT%20PARKWAY%2C9709%20PARKWAY%20EAST%2C+BIRMINGHAM%2C+AL+35215,,,,
http://maps.google.com/maps?q=PINNACLE%20PHARMACY%20LLC%2C113%20RAINBOW%20INDUSTRIAL%20BLVD%2C+RAINBOW%20CITY%2C+AL+35906,,,,
http://maps.google.com/maps?q=THE%20MEDICINE%20SHOPPE%2C1144%20AIRPORT%20DRIVE%2C+ALEXANDER%20CITY%2C+AL+35010,,,,
http://maps.google.com/maps?q=WALGREEN%20CO%2C101%20GREEN%20SPRINGS%20HWY%2C+BIRMINGHAM%2C+AL+35209,,,,
http://maps.google.com/maps?q=WALGREEN%20CO%2C1801%20MONGOMERY%20HWY%2C+HOOVER%2C+AL+35244,,,,
http://maps.google.com/maps?q=WALGREEN%20CO%2C1815%209TH%20AVE%20NORTH%2C+BESSEMER%2C+AL+35020,,,,
http://maps.google.com/maps?q=WALGREEN%20CO%2C4700%20HIGHWAY%20280%20SUITE%201%2C+BIRMINGHAM%2C+AL+35242,,,,
http://maps.google.com/maps?q=WALGREEN%20CO%2C9325%20PARKWAY%20E%2C+BIRMINGHAM%2C+AL+35215,,,,
WALGREEN CO.,1728 HIGHWAY 45 NORTH,"COLUMBUS, MS 39705",http://maps.google.com/maps?q=WALGREEN%20CO%2C1728%20HIGHWAY%2045%20NORTH%2C+COLUMBUS%2C+MS+39705,
USAF-14TH MEDICAL SQUADRON,201 INDEPENDENCE DR,STE 109 BLDG 1100,"COLUMBUS AFB, MS 39710",http://maps.google.com/maps?q=USAFTH%20MEDICAL%20SQUADRON%2C201%20INDEPENDENCE%20DR%2C+COLUMBUS%20AFB%2C+MS+39710
"MISSISSIPPI CVS PHARMACY, L.L.C.",401 HWY 12 EAST,"STARKVILLE, MS 39759",http://maps.google.com/maps?q=MISSISSIPPI%20CVS%20PHARMACY%20LLC%2C401%20HWY%2012%20EAST%2C+STARKVILLE%2C+MS+39759,
"MISSISSIPPI CVS PHARMACY, L.L.C.",2401 NORTH HILLS STREET,"MERIDIAN, MS 39305",http://maps.google.com/maps?q=MISSISSIPPI%20CVS%20PHARMACY%20LLC%2C2401%20NORTH%20HILLS%20STREET%2C+MERIDIAN%2C+MS+39305,
