Business Name,Address 1,Address 2,"City, State Zip",Map URL
ALL CARE HEALTH CENTER,902 S 6TH ST,"COUNCIL BLUFFS, IA 51501",http://maps.google.com/maps?q=ALL%20CARE%20HEALTH%20CENTER%2C902%20S%206TH%20ST%2C+COUNCIL%20BLUFFS%2C+IA+51501,
AVERA 7TH AVENUE PHARMACY,1200 S. 7TH AVENUE,SUITE 101,"SIOUX FALLS, SD 57105",http://maps.google.com/maps?q=AVERA%20TH%20AVENUE%20PHARMACY%2C1200%20S.%207TH%20AVENUE%2C+SIOUX%20FALLS%2C+SD+57105
AVERA MCKENNAN,4400 W 69TH STREET,SUITE 300,"SIOUX FALLS, SD 57108",http://maps.google.com/maps?q=AVERA%20MCKENNAN%2C4400%20W%2069TH%20STREET%2C+SIOUX%20FALLS%2C+SD+57108
AVERA MCKENNAN CAMPUS PHARMACY,STE CP,"SIOUX FALLS, SD 57105",http://maps.google.com/maps?q=AVERA%20MCKENNAN%20CAMPUS%20PHARMACY%2CSTE%20CP%2C+SIOUX%20FALLS%2C+SD+57105,
AVERA SPECIALTY PHARMACY,1301 S CLIFF AVE,STE 200,"SIOUX FALLS, SD 57105",http://maps.google.com/maps?q=AVERA%20SPECIALTY%20PHARMACY%2C1301%20S%20CLIFF%20AVE%2C+SIOUX%20FALLS%2C+SD+57105
BOOTH PHARMACY INC,903 CENTRAL AVENUE,PO BOX 233,"HAWARDEN, IA 51023",http://maps.google.com/maps?q=BOOTH%20PHARMACY%20INC%2C903%20CENTRAL%20AVENUE%2C+HAWARDEN%2C+IA+51023
CHI HEALTH PHARMACY WEST BROADWAY,3135 W BROADWAY,SUITE 101,"COUNCIL BLUFFS, IA 51501",http://maps.google.com/maps?q=CHI%20HEALTH%20PHARMACY%20WEST%20BROADWAY%2C3135%20W%20BROADWAY%2C+COUNCIL%20BLUFFS%2C+IA+51501
EBY DRUG STORE LOGAN INC,103 NORTH 4TH AVE,P O BOX 187,"LOGAN, IA 51546",http://maps.google.com/maps?q=EBY%20DRUG%20STORE%20LOGAN%20INC%2C103%20NORTH%204TH%20AVE%2C+LOGAN%2C+IA+51546
ELMWOOD PHARMACY,808 S. 52ND,"OMAHA, NE 68106",http://maps.google.com/maps?q=ELMWOOD%20PHARMACY%2C808%20S.%2052ND%2C+OMAHA%2C+NE+68106,
GRAHAM CO HOSP,304 W PROUT ST,"HILL CITY, KS 67642",http://maps.google.com/maps?q=GRAHAM%20CO%20HOSP%2C304%20W%20PROUT%20ST%2C+HILL%20CITY%2C+KS+67642,
HEGG MEMORIAL HOSPITAL INC,1200 21ST AVE,"ROCK VALLEY, IA 51247",http://maps.google.com/maps?q=HEGG%20MEMORIAL%20HOSPITAL%20INC%2C1200%2021ST%20AVE%2C+ROCK%20VALLEY%2C+IA+51247,
JOHNSON COUNTY HOSPITAL,202 HIGH STREET,P.O. BOX 599,"TECUMSEH, NE 68450",http://maps.google.com/maps?q=JOHNSON%20COUNTY%20HOSPITAL%2C202%20HIGH%20STREET%2C+TECUMSEH%2C+NE+68450
KOHLL'S PHARMACY & HOMECARE,12739 Q STREET,"OMAHA, NE 68137",http://maps.google.com/maps?q=KOHLLS%20PHARMACY%20%20HOMECARE%2C12739%20Q%20STREET%2C+OMAHA%2C+NE+68137,
KOHLL'S PHARMACY & HOMECARE,5000 DODGE STREET,"OMAHA, NE 68132",http://maps.google.com/maps?q=KOHLLS%20PHARMACY%20%20HOMECARE%2C5000%20DODGE%20STREET%2C+OMAHA%2C+NE+68132,
KOHLL'S PHARMACY & HOMECARE,800 N 27TH ST,"LINCOLN, NE 68503",http://maps.google.com/maps?q=KOHLLS%20PHARMACY%20%20HOMECARE%2C800%20N%2027TH%20ST%2C+LINCOLN%2C+NE+68503,
KOHLL/RXMPSS,5110 L STREET,"OMAHA, NE 68117",http://maps.google.com/maps?q=KOHLLRXMPSS%2C5110%20L%20STREET%2C+OMAHA%2C+NE+68117,
LEWIS DRUG #1,2901 S MINNESOTA AVE,"SIOUX FALLS, SD 57105",http://maps.google.com/maps?q=LEWIS%20DRUG%2C2901%20S%20MINNESOTA%20AVE%2C+SIOUX%20FALLS%2C+SD+57105,
LEWIS FAMILY DRUG #39,1044 MAIN ST,"HULL, IA 51239",http://maps.google.com/maps?q=LEWIS%20FAMILY%20DRUG%2C1044%20MAIN%20ST%2C+HULL%2C+IA+51239,
LEWIS FAMILY DRUG #42,528 S 3RD ST,"MOVILLE, IA 51039",http://maps.google.com/maps?q=LEWIS%20FAMILY%20DRUG%2C528%20S%203RD%20ST%2C+MOVILLE%2C+IA+51039,
LEWIS FAMILY DRUG #52,610 PARK STREET,P.O. BOX 455,"SHELDON, IA 51201",http://maps.google.com/maps?q=LEWIS%20FAMILY%20DRUG%2C610%20PARK%20STREET%2C+SHELDON%2C+IA+51201
LEWIS FAMILY DRUG #58,104 W PARK AVENUE,"VIBORG, SD 57070",http://maps.google.com/maps?q=LEWIS%20FAMILY%20DRUG%2C104%20W%20PARK%20AVENUE%2C+VIBORG%2C+SD+57070,
LEWIS FAMILY DRUG #59,143 S MAIN AVE,"SIOUX CENTER, IA 51250",http://maps.google.com/maps?q=LEWIS%20FAMILY%20DRUG%2C143%20S%20MAIN%20AVE%2C+SIOUX%20CENTER%2C+IA+51250,
LEWIS FAMILY DRUG #61,106 N. BOONE STREET,"ROCK RAPIDS, IA 51246",http://maps.google.com/maps?q=LEWIS%20FAMILY%20DRUG%2C106%20N.%20BOONE%20STREET%2C+ROCK%20RAPIDS%2C+IA+51246,
LEWIS FAMILY DRUG #69,1319 10TH STREET,"ROCK VALLEY, IA 51247",http://maps.google.com/maps?q=LEWIS%20FAMILY%20DRUG%2C1319%2010TH%20STREET%2C+ROCK%20VALLEY%2C+IA+51247,
LEWIS FAMILY DRUG #74,7 W SECOND ST,PO BOX 280,"KINGSLEY, IA 51028",http://maps.google.com/maps?q=LEWIS%20FAMILY%20DRUG%2C7%20W%20SECOND%20ST%2C+KINGSLEY%2C+IA+51028
MAIER FAMILY PHARMACY,411 MAIN STREET,"MAPLETON, IA 51034",http://maps.google.com/maps?q=MAIER%20FAMILY%20PHARMACY%2C411%20MAIN%20STREET%2C+MAPLETON%2C+IA+51034,
MEDICAP PHARMACY,"2706 2ND AVENUE, SUITE A","KEARNEY, NE 68847",http://maps.google.com/maps?q=MEDICAP%20PHARMACY%2C2706%202ND%20AVENUE%2C%20SUITE%20A%2C+KEARNEY%2C+NE+68847,
MOFFET DRUG,102 S STATE STREET,"NORTON, KS 67654",http://maps.google.com/maps?q=MOFFET%20DRUG%2C102%20S%20STATE%20STREET%2C+NORTON%2C+KS+67654,
NE MEDICAL CTR CLINIC PHARM,989200 NEBRASKA MEDICAL CTR,"OMAHA, NE 68198",http://maps.google.com/maps?q=NE%20MEDICAL%20CTR%20CLINIC%20PHARM%2C989200%20NEBRASKA%20MEDICAL%20CTR%2C+OMAHA%2C+NE+68198,
NEIGHBORHOOD LTC PHARMACY,5115 S 111TH ST,"OMAHA, NE 68137",http://maps.google.com/maps?q=NEIGHBORHOOD%20LTC%20PHARMACY%2C5115%20S%20111TH%20ST%2C+OMAHA%2C+NE+68137,
NEIGHBORHOOD LTC PHARMACY INC.,"5625 O ST, SUITE 101","LINCOLN, NE 68510",http://maps.google.com/maps?q=NEIGHBORHOOD%20LTC%20PHARMACY%20INC%2C5625%20O%20ST%2C%20SUITE%20101%2C+LINCOLN%2C+NE+68510,
RELYCARE PHARMACY LINCOLN,1221 N. COTNER BLVD,SUITE 1,"LINCOLN, NE 68505",http://maps.google.com/maps?q=RELYCARE%20PHARMACY%20LINCOLN%2C1221%20N.%20COTNER%20BLVD%2C+LINCOLN%2C+NE+68505
S & S DRUG INC,110 S MILL ST,PO BOX 525,"BELOIT, KS 67420",http://maps.google.com/maps?q=S%20%20S%20DRUG%20INC%2C110%20S%20MILL%20ST%2C+BELOIT%2C+KS+67420
S-S PHARMACY,235 WEST BROADWAY,"COUNCIL BLUFFS, IA 51503",http://maps.google.com/maps?q=SS%20PHARMACY%2C235%20WEST%20BROADWAY%2C+COUNCIL%20BLUFFS%2C+IA+51503,
SANFORD SHELDON MEDICAL CENTER,118 N 7TH AVE,P.O. BOX 250,"SHELDON, IA 51201",http://maps.google.com/maps?q=SANFORD%20SHELDON%20MEDICAL%20CENTER%2C118%20N%207TH%20AVE%2C+SHELDON%2C+IA+51201
SCOTLAND PHARMACY,620 BILLARS ST,"SCOTLAND, SD 57059",http://maps.google.com/maps?q=SCOTLAND%20PHARMACY%2C620%20BILLARS%20ST%2C+SCOTLAND%2C+SD+57059,
SERGEANT BLUFF PHARMACY,"105 GAUL DR, SUITE A","SERGEANT BLUFF, IA 51054",http://maps.google.com/maps?q=SERGEANT%20BLUFF%20PHARMACY%2C105%20GAUL%20DR%2C%20SUITE%20A%2C+SERGEANT%20BLUFF%2C+IA+51054,
SHOPKO PHARMACY #2677,2220 HWY 175,"ONAWA, IA 51040",http://maps.google.com/maps?q=SHOPKO%20PHARMACY%2C2220%20HWY%20175%2C+ONAWA%2C+IA+51040,
SIOUX CENTER HEALTH,1101 9 TH ST SE,"SIOUX CENTER, IA 51250",http://maps.google.com/maps?q=SIOUX%20CENTER%20HEALTH%2C1101%209%20TH%20ST%20SE%2C+SIOUX%20CENTER%2C+IA+51250,
SMITH COUNTY MEMORIAL HOSPITAL PHARMACY,921 E HIGHWAY 36,"SMITH CENTER, KS 66967",http://maps.google.com/maps?q=SMITH%20COUNTY%20MEMORIAL%20HOSPITAL%20PHARMACY%2C921%20E%20HIGHWAY%2036%2C+SMITH%20CENTER%2C+KS+66967,
SOUTHEAST NEBRASKA HEMATOLOGY AND ONCOLOGY CONS PC,201 S 68TH STREET PLACE,SUITE 200,"LINCOLN, NE 68510",http://maps.google.com/maps?q=SOUTHEAST%20NEBRASKA%20HEMATOLOGY%20AND%20ONCOLOGY%20CONS%20PC%2C201%20S%2068TH%20STREET%20PLACE%2C+LINCOLN%2C+NE+68510
STANGEL PHARMACY INC,821 IOWA AVE,"ONAWA, IA 51040",http://maps.google.com/maps?q=STANGEL%20PHARMACY%20INC%2C821%20IOWA%20AVE%2C+ONAWA%2C+IA+51040,
SUPER SAVER PHARMACY,1141 NORTH BROADWAY,"COUNCIL BLUFFS, IA 51503",http://maps.google.com/maps?q=SUPER%20SAVER%20PHARMACY%2C1141%20NORTH%20BROADWAY%2C+COUNCIL%20BLUFFS%2C+IA+51503,
THE NEBRASKA MEDICAL CENTER BELLEVUE PHARMACY,2510 BELLEVUE MEDICAL CENTER DR,STE 100,"BELLEVUE, NE 68123",http://maps.google.com/maps?q=THE%20NEBRASKA%20MEDICAL%20CENTER%20BELLEVUE%20PHARMACY%2C2510%20BELLEVUE%20MEDICAL%20CENTER%20DR%2C+BELLEVUE%2C+NE+68123
THRIFTY WHITE PHARMACY #077,127 N. MAIN STREET,"PAULLINA, IA 51046",http://maps.google.com/maps?q=THRIFTY%20WHITE%20PHARMACY%2C127%20N.%20MAIN%20STREET%2C+PAULLINA%2C+IA+51046,
TRAV'S U-SAVE PHARMACY,1414 16TH ST,"CENTRAL CITY, NE 68826",http://maps.google.com/maps?q=TRAVS%20USAVE%20PHARMACY%2C1414%2016TH%20ST%2C+CENTRAL%20CITY%2C+NE+68826,
UNIV HEALTH CENTER PHARMACY,550 N 19TH STREET,"LINCOLN, NE 68508",http://maps.google.com/maps?q=UNIV%20HEALTH%20CENTER%20PHARMACY%2C550%20N%2019TH%20STREET%2C+LINCOLN%2C+NE+68508,
USAF- OFFUTT AFB,"2501 CAPEHART RD, STE I105",ATTN:LOGISTICS VAULT CUSTODIAN,"OFFUTT AFB, NE 68113",http://maps.google.com/maps?q=USAF%20OFFUTT%20AFB%2C2501%20CAPEHART%20RD%2C%20STE%20I105%2C+OFFUTT%20AFB%2C+NE+68113
USAF-OFFUTT,502 CUSTER DRIVE,ATTN: LOGISTICS VAULT CUSTODIAN,"OFFUTT AFB, NE 68113",http://maps.google.com/maps?q=USAFOFFUTT%2C502%20CUSTER%20DRIVE%2C+OFFUTT%20AFB%2C+NE+68113
USPHS INDIAN HOSPITAL,U.S. HIGHWAY 77,"WINNEBAGO, NE 68071",http://maps.google.com/maps?q=USPHS%20INDIAN%20HOSPITAL%2CU.S.%20HIGHWAY%2077%2C+WINNEBAGO%2C+NE+68071,
VALLEY PHARMACY INC,211 W 33RD ST,"KEARNEY, NE 68845",http://maps.google.com/maps?q=VALLEY%20PHARMACY%20INC%2C211%20W%2033RD%20ST%2C+KEARNEY%2C+NE+68845,
VIA RX,825 N 90TH ST,"OMAHA, NE 68114",http://maps.google.com/maps?q=VIA%20RX%2C825%20N%2090TH%20ST%2C+OMAHA%2C+NE+68114,
WALGREEN CO.,13155 W CENTER RD,"OMAHA, NE 68144",http://maps.google.com/maps?q=WALGREEN%20CO%2C13155%20W%20CENTER%20RD%2C+OMAHA%2C+NE+68144,
WALGREEN CO.,1701 SOUTH ST,"LINCOLN, NE 68502",http://maps.google.com/maps?q=WALGREEN%20CO%2C1701%20SOUTH%20ST%2C+LINCOLN%2C+NE+68502,
WALGREEN CO.,1900 HAMILTON BLVD,"SIOUX CITY, IA 51104",http://maps.google.com/maps?q=WALGREEN%20CO%2C1900%20HAMILTON%20BLVD%2C+SIOUX%20CITY%2C+IA+51104,
WALGREEN CO.,2320 23RD ST,"COLUMBUS, NE 68601",http://maps.google.com/maps?q=WALGREEN%20CO%2C2320%2023RD%20ST%2C+COLUMBUS%2C+NE+68601,
WALGREEN CO.,2508 W BROADWAY,"COUNCIL BLUFFS, IA 51501",http://maps.google.com/maps?q=WALGREEN%20CO%2C2508%20W%20BROADWAY%2C+COUNCIL%20BLUFFS%2C+IA+51501,
WALGREEN CO.,2516 SECOND AVE.,"KEARNEY, NE 68847",http://maps.google.com/maps?q=WALGREEN%20CO%2C2516%20SECOND%20AVE.%2C+KEARNEY%2C+NE+68847,
WALGREEN CO.,2605 S 171ST ST,"OMAHA, NE 68130",http://maps.google.com/maps?q=WALGREEN%20CO%2C2605%20S%20171ST%20ST%2C+OMAHA%2C+NE+68130,
WALGREEN CO.,3701 N. 132ND STREET,"OMAHA, NE 68164",http://maps.google.com/maps?q=WALGREEN%20CO%2C3701%20N.%20132ND%20STREET%2C+OMAHA%2C+NE+68164,
WALGREEN CO.,5038 CENTER ST.,"OMAHA, NE 68106",http://maps.google.com/maps?q=WALGREEN%20CO%2C5038%20CENTER%20ST.%2C+OMAHA%2C+NE+68106,
WALGREEN CO.,535 E. BROADWAY,"COUNCIL BLUFFS, IA 51503",http://maps.google.com/maps?q=WALGREEN%20CO%2C535%20E.%20BROADWAY%2C+COUNCIL%20BLUFFS%2C+IA+51503,
WALGREEN CO.,7045 O STREET,"LINCOLN, NE 68510",http://maps.google.com/maps?q=WALGREEN%20CO%2C7045%20O%20STREET%2C+LINCOLN%2C+NE+68510,
WALGREEN CO.,9001 BLONDO STREET,"OMAHA, NE 68134",http://maps.google.com/maps?q=WALGREEN%20CO%2C9001%20BLONDO%20STREET%2C+OMAHA%2C+NE+68134,
WARD DRUG,142 SOUTH PENN,"OBERLIN, KS 67749",http://maps.google.com/maps?q=WARD%20DRUG%2C142%20SOUTH%20PENN%2C+OBERLIN%2C+KS+67749,
HAXTUN HOSPITAL DISTRICT PHARMACY,235 W FLETCHER ST,"HAXTUN, CO 80731",http://maps.google.com/maps?q=HAXTUN%20HOSPITAL%20DISTRICT%20PHARMACY%2C235%20W%20FLETCHER%20ST%2C+HAXTUN%2C+CO+80731,
SHERIDAN COUNTY HOSPITAL,826 18TH ST,PO BOX 167,"HOXIE, KS 67740",http://maps.google.com/maps?q=SHERIDAN%20COUNTY%20HOSPITAL%2C826%2018TH%20ST%2C+HOXIE%2C+KS+67740
