Business Name,Address 1,Address 2,"City, State Zip",Map URL
ALIXA RX LLC,10132 WEST 76TH STREET,"EDEN PRAIRIE, MN 55344",http://maps.google.com/maps?q=ALIXA%20RX%20LLC%2C10132%20WEST%2076TH%20STREET%2C+EDEN%20PRAIRIE%2C+MN+55344,
ALLINA HEALTH APPLE VALLEY PHARMACY,14655 GALAXIE WAY,"APPLE VALLEY, MN 55124",http://maps.google.com/maps?q=ALLINA%20HEALTH%20APPLE%20VALLEY%20PHARMACY%2C14655%20GALAXIE%20WAY%2C+APPLE%20VALLEY%2C+MN+55124,
ALLINA HEALTH CAMBRIDGE PHARMACY,701 SOUTH DELLWOOD,"CAMBRIDGE, MN 55008",http://maps.google.com/maps?q=ALLINA%20HEALTH%20CAMBRIDGE%20PHARMACY%2C701%20SOUTH%20DELLWOOD%2C+CAMBRIDGE%2C+MN+55008,
ALLINA HEALTH COTTAGE GROVE PHARMACY,COTTAGE GROVEPHARMACY,8611 WEST POINT DOUGLAS ROAD S,"COTTAGE GROVE, MN 55016",http://maps.google.com/maps?q=ALLINA%20HEALTH%20COTTAGE%20GROVE%20PHARMACY%2CCOTTAGE%20GROVEPHARMACY%2C+COTTAGE%20GROVE%2C+MN+55016
ALLINA HEALTH DISTRICT ONE PHARMACY,200 STATE AVE.,"FARIBAULT, MN 55021",http://maps.google.com/maps?q=ALLINA%20HEALTH%20DISTRICT%20ONE%20PHARMACY%2C200%20STATE%20AVE.%2C+FARIBAULT%2C+MN+55021,
ALLINA HEALTH HEART HOSPITAL PHARMACY,920 E. 28TH ST.,SUITE 92005,"MINNEAPOLIS, MN 55407",http://maps.google.com/maps?q=ALLINA%20HEALTH%20HEART%20HOSPITAL%20PHARMACY%2C920%20E.%2028TH%20ST.%2C+MINNEAPOLIS%2C+MN+55407
ALLINA HEALTH MERCY PHARMACY,11850 BLACKFOOT ST. NW,SUITE 190,"COON RAPIDS, MN 55433",http://maps.google.com/maps?q=ALLINA%20HEALTH%20MERCY%20PHARMACY%2C11850%20BLACKFOOT%20ST.%20NW%2C+COON%20RAPIDS%2C+MN+55433
ALLINA HEALTH OWATONNA PHARMACY,2250 26TH STREET NW,"OWATONNA, MN 55060",http://maps.google.com/maps?q=ALLINA%20HEALTH%20OWATONNA%20PHARMACY%2C2250%2026TH%20STREET%20NW%2C+OWATONNA%2C+MN+55060,
ALLINA HEALTH PHILLIPS EYE INSTITUTE PHARMACY,2215 PARK AVE SOUTH,"MINNEAPOLIS, MN 55404",http://maps.google.com/maps?q=ALLINA%20HEALTH%20PHILLIPS%20EYE%20INSTITUTE%20PHARMACY%2C2215%20PARK%20AVE%20SOUTH%2C+MINNEAPOLIS%2C+MN+55404,
ALLINA HEALTH PIPER BUILDING PHARMACY,913 E 26TH ST,1ST FLOOR PIPER BUILDING,"MINNEAPOLIS, MN 55404",http://maps.google.com/maps?q=ALLINA%20HEALTH%20PIPER%20BUILDING%20PHARMACY%2C913%20E%2026TH%20ST%2C+MINNEAPOLIS%2C+MN+55404
ALLINA HEALTH ST. FRANCIS PHARMACY,1455 ST. FRANCIS AVE.,SUITE 100 OUTPATIENT PHARMACY,"SHAKOPEE, MN 55379",http://maps.google.com/maps?q=ALLINA%20HEALTH%20ST%20FRANCIS%20PHARMACY%2C1455%20ST.%20FRANCIS%20AVE.%2C+SHAKOPEE%2C+MN+55379
ALLINA HEALTH UNITED PHARMACY,333 NORTH SMITH AVE.,"SAINT PAUL, MN 55102",http://maps.google.com/maps?q=ALLINA%20HEALTH%20UNITED%20PHARMACY%2C333%20NORTH%20SMITH%20AVE.%2C+SAINT%20PAUL%2C+MN+55102,
ALLINA HEALTH UNITY  PHARMACY,550 OSBORNE RD NE,"FRIDLEY, MN 55432",http://maps.google.com/maps?q=ALLINA%20HEALTH%20UNITY%20%20PHARMACY%2C550%20OSBORNE%20RD%20NE%2C+FRIDLEY%2C+MN+55432,
ALLINA HEALTH WESTHEALTH PHARMACY,2855 CAMPUS DRIVE,"PLYMOUTH, MN 55441",http://maps.google.com/maps?q=ALLINA%20HEALTH%20WESTHEALTH%20PHARMACY%2C2855%20CAMPUS%20DRIVE%2C+PLYMOUTH%2C+MN+55441,
ALLINA HEALTH WOODBURY PHARMACY,8675 VALLEY CREEK ROAD,"WOODBURY, MN 55125",http://maps.google.com/maps?q=ALLINA%20HEALTH%20WOODBURY%20PHARMACY%2C8675%20VALLEY%20CREEK%20ROAD%2C+WOODBURY%2C+MN+55125,
AMERY REGIONAL MEDICAL CENTER,265 E GRIFFIN ST,"AMERY, WI 54001",http://maps.google.com/maps?q=AMERY%20REGIONAL%20MEDICAL%20CENTER%2C265%20E%20GRIFFIN%20ST%2C+AMERY%2C+WI+54001,
ASMC PHARMACY,945 N 12TH STREET,"MILWAUKEE, WI 53233",http://maps.google.com/maps?q=ASMC%20PHARMACY%2C945%20N%2012TH%20STREET%2C+MILWAUKEE%2C+WI+53233,
"ASPIRUS IRON RIVER HOSPITAL & CLINICS, INC",1400 WEST ICE LAKE ROAD,"IRON RIVER, MI 49935",http://maps.google.com/maps?q=ASPIRUS%20IRON%20RIVER%20HOSPITAL%20%20CLINICS%20INC%2C1400%20WEST%20ICE%20LAKE%20ROAD%2C+IRON%20RIVER%2C+MI+49935,
ASTRUP DRUG INC,1601 STATE AVE NW,PHARMACY,"OWATONNA, MN 55060",http://maps.google.com/maps?q=ASTRUP%20DRUG%20INC%2C1601%20STATE%20AVE%20NW%2C+OWATONNA%2C+MN+55060
AURORA PHARMACY INC,DBA: AURORA PHARMACY,2906 S. 20TH STREET,"MILWAUKEE, WI 53215",http://maps.google.com/maps?q=AURORA%20PHARMACY%20INC%2CDBA%3A%20AURORA%20PHARMACY%2C+MILWAUKEE%2C+WI+53215
BELLIN HEALTH,744 SOUTH WEBSTER AVENUE,"GREEN BAY, WI 54301",http://maps.google.com/maps?q=BELLIN%20HEALTH%2C744%20SOUTH%20WEBSTER%20AVENUE%2C+GREEN%20BAY%2C+WI+54301,
BELLIN HEALTH PHARMACY,1630 COMMANCHE AVE,"GREEN BAY, WI 54313",http://maps.google.com/maps?q=BELLIN%20HEALTH%20PHARMACY%2C1630%20COMMANCHE%20AVE%2C+GREEN%20BAY%2C+WI+54313,
BURNETT MEDICAL CENTER,257 W ST GEORGE AVE,"GRANTSBURG, WI 54840",http://maps.google.com/maps?q=BURNETT%20MEDICAL%20CENTER%2C257%20W%20ST%20GEORGE%20AVE%2C+GRANTSBURG%2C+WI+54840,
CASS ST PHARMACY GUNDERSEN HEALTH SYSTEM,528 CASS ST.,"LA CROSSE, WI 54601",http://maps.google.com/maps?q=CASS%20ST%20PHARMACY%20GUNDERSEN%20HEALTH%20SYSTEM%2C528%20CASS%20ST.%2C+LA%20CROSSE%2C+WI+54601,
CEDAR LAKE CAMPUS PHARMACY,5595 HWY Z,"WEST BEND, WI 53095",http://maps.google.com/maps?q=CEDAR%20LAKE%20CAMPUS%20PHARMACY%2C5595%20HWY%20Z%2C+WEST%20BEND%2C+WI+53095,
CLAYTON DRUG,104 WEST MISSION ST,"STRAWBERRY POINT, IA 52076",http://maps.google.com/maps?q=CLAYTON%20DRUG%2C104%20WEST%20MISSION%20ST%2C+STRAWBERRY%20POINT%2C+IA+52076,
CLAYTON DRUG,135 N MAIN ST,"ELKADER, IA 52043",http://maps.google.com/maps?q=CLAYTON%20DRUG%2C135%20N%20MAIN%20ST%2C+ELKADER%2C+IA+52043,
CRIVITZ PHARMACY,"710 MAIN STREET, P.O. BOX 488","CRIVITZ, WI 54114",http://maps.google.com/maps?q=CRIVITZ%20PHARMACY%2C710%20MAIN%20STREET%2C%20P.O.%20BOX%20488%2C+CRIVITZ%2C+WI+54114,
"DONLON DRUG, INC",201 W. WATER ST,"DECORAH, IA 52101",http://maps.google.com/maps?q=DONLON%20DRUG%20INC%2C201%20W.%20WATER%20ST%2C+DECORAH%2C+IA+52101,
EAST SIDE FAMILY CLINIC PHARMACY,895 EAST 7TH STREET,"SAINT PAUL, MN 55106",http://maps.google.com/maps?q=EAST%20SIDE%20FAMILY%20CLINIC%20PHARMACY%2C895%20EAST%207TH%20STREET%2C+SAINT%20PAUL%2C+MN+55106,
FIRSTLIGHT HEALTH SYSTEM PHARMACY,1425 MAIN ST. N,"PINE CITY, MN 55063",http://maps.google.com/maps?q=FIRSTLIGHT%20HEALTH%20SYSTEM%20PHARMACY%2C1425%20MAIN%20ST.%20N%2C+PINE%20CITY%2C+MN+55063,
"GENOA HEALTHCARE, LLC","166 4TH STREET E, STE 244","SAINT PAUL, MN 55101",http://maps.google.com/maps?q=GENOA%20HEALTHCARE%20LLC%2C166%204TH%20STREET%20E%2C%20STE%20244%2C+SAINT%20PAUL%2C+MN+55101,
"GENOA HEALTHCARE, LLC",800 TRANSFER ROAD,STE 35,"SAINT PAUL, MN 55114",http://maps.google.com/maps?q=GENOA%20HEALTHCARE%20LLC%2C800%20TRANSFER%20ROAD%2C+SAINT%20PAUL%2C+MN+55114
GOODRICH PHARMACY INC.,601 JACOB LANE,"ANOKA, MN 55303",http://maps.google.com/maps?q=GOODRICH%20PHARMACY%20INC%2C601%20JACOB%20LANE%2C+ANOKA%2C+MN+55303,
"GRAND ST. PAUL CVS, L.L.C.",499 SNELLING AVE. N.,"ST PAUL, MN 55104",http://maps.google.com/maps?q=GRAND%20ST%20PAUL%20CVS%20LLC%2C499%20SNELLING%20AVE.%20N.%2C+ST%20PAUL%2C+MN+55104,
"GRAND ST. PAUL CVS, L.L.C.",810 MARYLAND AVENUE EAST,"ST PAUL, MN 55106",http://maps.google.com/maps?q=GRAND%20ST%20PAUL%20CVS%20LLC%2C810%20MARYLAND%20AVENUE%20EAST%2C+ST%20PAUL%2C+MN+55106,
"GRAND ST. PAUL CVS, L.L.C.",949 PORTLAND AVE.,"MINNEAPOLIS, MN 55404",http://maps.google.com/maps?q=GRAND%20ST%20PAUL%20CVS%20LLC%2C949%20PORTLAND%20AVE.%2C+MINNEAPOLIS%2C+MN+55404,
GUNDERSEN LUTHERAN CLIN PHARM,1836 SOUTH AVENUE,"LA CROSSE, WI 54601",http://maps.google.com/maps?q=GUNDERSEN%20LUTHERAN%20CLIN%20PHARM%2C1836%20SOUTH%20AVENUE%2C+LA%20CROSSE%2C+WI+54601,
GUNDERSEN LUTHERAN CLIN PHARM,3111 GUNDERSEN DRIVE,"ONALASKA, WI 54650",http://maps.google.com/maps?q=GUNDERSEN%20LUTHERAN%20CLIN%20PHARM%2C3111%20GUNDERSEN%20DRIVE%2C+ONALASKA%2C+WI+54650,
HARTIG DRUG #3,2255 JOHN F KENNEDY ROAD,"DUBUQUE, IA 52002",http://maps.google.com/maps?q=HARTIG%20DRUG%2C2255%20JOHN%20F%20KENNEDY%20ROAD%2C+DUBUQUE%2C+IA+52002,
HARTIG DRUG CO,157 LOCUST ST,"DUBUQUE, IA 52001",http://maps.google.com/maps?q=HARTIG%20DRUG%20CO%2C157%20LOCUST%20ST%2C+DUBUQUE%2C+IA+52001,
HARTIG DRUG CO,1600 UNIVERSITY AVE,"DUBUQUE, IA 52001",http://maps.google.com/maps?q=HARTIG%20DRUG%20CO%2C1600%20UNIVERSITY%20AVE%2C+DUBUQUE%2C+IA+52001,
HARTIG DRUG CO,2225 CENTRAL AVE,"DUBUQUE, IA 52001",http://maps.google.com/maps?q=HARTIG%20DRUG%20CO%2C2225%20CENTRAL%20AVE%2C+DUBUQUE%2C+IA+52001,
HARTIG DRUG CO #12,21 W MAIN ST,"WAUKON, IA 52172",http://maps.google.com/maps?q=HARTIG%20DRUG%20CO%2C21%20W%20MAIN%20ST%2C+WAUKON%2C+IA+52172,
HARTIG DRUG CO #28,419 E 1ST ST,"MONTICELLO, IA 52310",http://maps.google.com/maps?q=HARTIG%20DRUG%20CO%2C419%20E%201ST%20ST%2C+MONTICELLO%2C+IA+52310,
HARTIG DRUG CO #30,200 MAIN ST,SUITE 1,"GUTTENBERG, IA 52052",http://maps.google.com/maps?q=HARTIG%20DRUG%20CO%2C200%20MAIN%20ST%2C+GUTTENBERG%2C+IA+52052
HARTIG DRUG CO INC,HARTIG DRUG CO #14,200 FIRST STREET EAST,"INDEPENDENCE, IA 50644",http://maps.google.com/maps?q=HARTIG%20DRUG%20CO%20INC%2CHARTIG%20DRUG%20CO%20#14%2C+INDEPENDENCE%2C+IA+50644
HARTIG DRUG COMPANY,STONE CREEK SHOPPING CENTER,711 16TH AVE SE,"DYERSVILLE, IA 52040",http://maps.google.com/maps?q=HARTIG%20DRUG%20COMPANY%2CSTONE%20CREEK%20SHOPPING%20CENTER%2C+DYERSVILLE%2C+IA+52040
"HAYAT PHARMACY 1, LLC",3727 W WISCONSIN AVE,"MILWAUKEE, WI 53208",http://maps.google.com/maps?q=HAYAT%20PHARMACY%20%20LLC%2C3727%20W%20WISCONSIN%20AVE%2C+MILWAUKEE%2C+WI+53208,
HAYAT PHARMACY 10 LLC,5308 W BURLEIGH ST,"MILWAUKEE, WI 53210",http://maps.google.com/maps?q=HAYAT%20PHARMACY%20%20LLC%2C5308%20W%20BURLEIGH%20ST%2C+MILWAUKEE%2C+WI+53210,
"HAYAT PHARMACY 2, LLC",5928 W VLIET ST,"MILWAUKEE, WI 53208",http://maps.google.com/maps?q=HAYAT%20PHARMACY%20%20LLC%2C5928%20W%20VLIET%20ST%2C+MILWAUKEE%2C+WI+53208,
"HAYAT PHARMACY 3, LLC",8500 W. CAPITOL DR.,"MILWAUKEE, WI 53222",http://maps.google.com/maps?q=HAYAT%20PHARMACY%20%20LLC%2C8500%20W.%20CAPITOL%20DR.%2C+MILWAUKEE%2C+WI+53222,
"HAYAT PHARMACY 4, LLC",5434 W CAPITOL DRIVE,"MILWAUKEE, WI 53216",http://maps.google.com/maps?q=HAYAT%20PHARMACY%20%20LLC%2C5434%20W%20CAPITOL%20DRIVE%2C+MILWAUKEE%2C+WI+53216,
"HAYAT PHARMACY 5, LLC",1919 W NORTH AVE,"MILWAUKEE, WI 53205",http://maps.google.com/maps?q=HAYAT%20PHARMACY%20%20LLC%2C1919%20W%20NORTH%20AVE%2C+MILWAUKEE%2C+WI+53205,
HAYAT PHARMACY 6,4931 S 27TH STREET,SUITE 400,"GREENFIELD, WI 53221",http://maps.google.com/maps?q=HAYAT%20PHARMACY%2C4931%20S%2027TH%20STREET%2C+GREENFIELD%2C+WI+53221
"HAYAT PHARMACY 7, LLC",5312 W. VILLARD AVE.,"MILWAUKEE, WI 53218",http://maps.google.com/maps?q=HAYAT%20PHARMACY%20%20LLC%2C5312%20W.%20VILLARD%20AVE.%2C+MILWAUKEE%2C+WI+53218,
"HAYAT PHARMACY 8, LLC",110 W MAIN ST,"CAMPBELLSPORT, WI 53010",http://maps.google.com/maps?q=HAYAT%20PHARMACY%20%20LLC%2C110%20W%20MAIN%20ST%2C+CAMPBELLSPORT%2C+WI+53010,
HAYAT PHARMACY 9,8434 W. SILVER SPRING DRIVE,"MILWAUKEE, WI 53225",http://maps.google.com/maps?q=HAYAT%20PHARMACY%2C8434%20W.%20SILVER%20SPRING%20DRIVE%2C+MILWAUKEE%2C+WI+53225,
HCMC CSC PHARMACY,715 8TH STREET SO.,"MINNEAPOLIS, MN 55404",http://maps.google.com/maps?q=HCMC%20CSC%20PHARMACY%2C715%208TH%20STREET%20SO.%2C+MINNEAPOLIS%2C+MN+55404,
HCMC RICHFIELD CLINIC PHARMACY,790 W 66TH ST,"RICHFIELD, MN 55423",http://maps.google.com/maps?q=HCMC%20RICHFIELD%20CLINIC%20PHARMACY%2C790%20W%2066TH%20ST%2C+RICHFIELD%2C+MN+55423,
"HEALTHDIRECT INSTITUTIONAL PHARMACY SERVICES, INC.",150 N. PATRICK BLVD,SUITE 250,"BROOKFIELD, WI 53045",http://maps.google.com/maps?q=HEALTHDIRECT%20INSTITUTIONAL%20PHARMACY%20SERVICES%20INC%2C150%20N.%20PATRICK%20BLVD%2C+BROOKFIELD%2C+WI+53045
HEALTHPARTNERS,MAILSTOP: 41101B,401 PHALEN BLVD,"SAINT PAUL, MN 55130",http://maps.google.com/maps?q=HEALTHPARTNERS%2CMAILSTOP%3A%2041101B%2C+SAINT%20PAUL%2C+MN+55130
HEALTHPARTNERS APPLE VALLEY,PHARMACY,15290 PENNOCK LANE,"APPLE VALLEY, MN 55124",http://maps.google.com/maps?q=HEALTHPARTNERS%20APPLE%20VALLEY%2CPHARMACY%2C+APPLE%20VALLEY%2C+MN+55124
HEALTHPARTNERS ARDEN HILLS,PHARMACY,3930 NORTHWOODS DRIVE,"ARDEN HILLS, MN 55112",http://maps.google.com/maps?q=HEALTHPARTNERS%20ARDEN%20HILLS%2CPHARMACY%2C+ARDEN%20HILLS%2C+MN+55112
HEALTHPARTNERS BLOOMINGTON,PHARMACY,8600 NICOLLET AVENUE,"BLOOMINGTON, MN 55420",http://maps.google.com/maps?q=HEALTHPARTNERS%20BLOOMINGTON%2CPHARMACY%2C+BLOOMINGTON%2C+MN+55420
HEALTHPARTNERS BROOKLYN CENTR,6845 LEE AVENUE NORTH,"BROOKLYN CENTER, MN 55429",http://maps.google.com/maps?q=HEALTHPARTNERS%20BROOKLYN%20CENTR%2C6845%20LEE%20AVENUE%20NORTH%2C+BROOKLYN%20CENTER%2C+MN+55429,
HEALTHPARTNERS COMO PHARMACY,2500 COMO AVE,"SAINT PAUL, MN 55108",http://maps.google.com/maps?q=HEALTHPARTNERS%20COMO%20PHARMACY%2C2500%20COMO%20AVE%2C+SAINT%20PAUL%2C+MN+55108,
HEALTHPARTNERS COON RAPIDS,11475 ROBINSON DR NW,"COON RAPIDS, MN 55433",http://maps.google.com/maps?q=HEALTHPARTNERS%20COON%20RAPIDS%2C11475%20ROBINSON%20DR%20NW%2C+COON%20RAPIDS%2C+MN+55433,
HEALTHPARTNERS MAPLEWOOD,2165 WHITE BEAR AVENUE,"MAPLEWOOD, MN 55109",http://maps.google.com/maps?q=HEALTHPARTNERS%20MAPLEWOOD%2C2165%20WHITE%20BEAR%20AVENUE%2C+MAPLEWOOD%2C+MN+55109,
HEALTHPARTNERS RIVERSIDE PHAR,2220 RIVERSIDE AVENUE SOUTH,"MINNEAPOLIS, MN 55454",http://maps.google.com/maps?q=HEALTHPARTNERS%20RIVERSIDE%20PHAR%2C2220%20RIVERSIDE%20AVENUE%20SOUTH%2C+MINNEAPOLIS%2C+MN+55454,
HEALTHPARTNERS ST PAUL PHARM,205 SOUTH WABASHA,"W SAINT PAUL, MN 55107",http://maps.google.com/maps?q=HEALTHPARTNERS%20ST%20PAUL%20PHARM%2C205%20SOUTH%20WABASHA%2C+W%20SAINT%20PAUL%2C+MN+55107,
HEALTHPARTNERS WEST PHARMACY,1665 UTICA AVE S,"ST LOUIS PARK, MN 55416",http://maps.google.com/maps?q=HEALTHPARTNERS%20WEST%20PHARMACY%2C1665%20UTICA%20AVE%20S%2C+ST%20LOUIS%20PARK%2C+MN+55416,
HEALTHPARTNERS WHITE BEAR,1430 HIGHWAY 96,"WHITE BEAR LAKE, MN 55110",http://maps.google.com/maps?q=HEALTHPARTNERS%20WHITE%20BEAR%2C1430%20HIGHWAY%2096%2C+WHITE%20BEAR%20LAKE%2C+MN+55110,
HEALTHPARTNERS WOODBURY,8450 SEASONS PARKWAY,"WOODBURY, MN 55125",http://maps.google.com/maps?q=HEALTHPARTNERS%20WOODBURY%2C8450%20SEASONS%20PARKWAY%2C+WOODBURY%2C+MN+55125,
HOLY FAMILY HEALTH SERVICES,1650 S 41ST ST,"MANITOWOC, WI 54220",http://maps.google.com/maps?q=HOLY%20FAMILY%20HEALTH%20SERVICES%2C1650%20S%2041ST%20ST%2C+MANITOWOC%2C+WI+54220,
HOMETOWN LONG TERM CARE PHARMACY,1571 IVORY DRIVE,"SUN PRAIRIE, WI 53590",http://maps.google.com/maps?q=HOMETOWN%20LONG%20TERM%20CARE%20PHARMACY%2C1571%20IVORY%20DRIVE%2C+SUN%20PRAIRIE%2C+WI+53590,
HUDSON HOSPITAL & CLINICS PHARMACY,405 STAGELINE RD,"HUDSON, WI 54016",http://maps.google.com/maps?q=HUDSON%20HOSPITAL%20%20CLINICS%20PHARMACY%2C405%20STAGELINE%20RD%2C+HUDSON%2C+WI+54016,
HUNT SILVER LAKE DRUG INC,1510 NORTH BROADWAY,"ROCHESTER, MN 55906",http://maps.google.com/maps?q=HUNT%20SILVER%20LAKE%20DRUG%20INC%2C1510%20NORTH%20BROADWAY%2C+ROCHESTER%2C+MN+55906,
LAKEVIEW COMMUNITY PHARMACY,1500 CURVE CREST BLVD,"STILLWATER, MN 55082",http://maps.google.com/maps?q=LAKEVIEW%20COMMUNITY%20PHARMACY%2C1500%20CURVE%20CREST%20BLVD%2C+STILLWATER%2C+MN+55082,
LAKEVIEW MEM HOSP ASSOC INC,927 WEST CHURCHILL STREET,"STILLWATER, MN 55082",http://maps.google.com/maps?q=LAKEVIEW%20MEM%20HOSP%20ASSOC%20INC%2C927%20WEST%20CHURCHILL%20STREET%2C+STILLWATER%2C+MN+55082,
LAKEVIEW NEUROREHAB CENTER,1701 SHARP ROAD,"WATERFORD, WI 53185",http://maps.google.com/maps?q=LAKEVIEW%20NEUROREHAB%20CENTER%2C1701%20SHARP%20ROAD%2C+WATERFORD%2C+WI+53185,
MARSHFIELD CLINIC DISPENSING-MERRILL CENTER,1205 O'DAY STREET,"MERRILL, WI 54452",http://maps.google.com/maps?q=MARSHFIELD%20CLINIC%20DISPENSINGMERRILL%20CENTER%2C1205%20O'DAY%20STREET%2C+MERRILL%2C+WI+54452,
MARSHFIELD CLINIC DISPENSING-OAKWOOD CENTER,3501 GOLF ROAD,"EAU CLAIRE, WI 54701",http://maps.google.com/maps?q=MARSHFIELD%20CLINIC%20DISPENSINGOAKWOOD%20CENTER%2C3501%20GOLF%20ROAD%2C+EAU%20CLAIRE%2C+WI+54701,
MARSHFIELD CLINIC DISPENSING-RIVERVIEW CENTER,1000 STARR AVENUE,"EAU CLAIRE, WI 54703",http://maps.google.com/maps?q=MARSHFIELD%20CLINIC%20DISPENSINGRIVERVIEW%20CENTER%2C1000%20STARR%20AVENUE%2C+EAU%20CLAIRE%2C+WI+54703,
MARSHFIELD CLINIC DISPENSING-WESTON CENTER,3501 CRANBERRY BOULEVARD,"WESTON, WI 54476",http://maps.google.com/maps?q=MARSHFIELD%20CLINIC%20DISPENSINGWESTON%20CENTER%2C3501%20CRANBERRY%20BOULEVARD%2C+WESTON%2C+WI+54476,
MARSHFIELD CLINIC PHARMACY,1000 NORTH OAK AVENUE,"MARSHFIELD, WI 54449",http://maps.google.com/maps?q=MARSHFIELD%20CLINIC%20PHARMACY%2C1000%20NORTH%20OAK%20AVENUE%2C+MARSHFIELD%2C+WI+54449,
MARSHFIELD CLINIC PHARMACY,1700 W. STOUT STREET,"RICE LAKE, WI 54868",http://maps.google.com/maps?q=MARSHFIELD%20CLINIC%20PHARMACY%2C1700%20W.%20STOUT%20STREET%2C+RICE%20LAKE%2C+WI+54868,
MARSHFIELD CLINIC PHARMACY,2116 CRAIG ROAD,"EAU CLAIRE, WI 54701",http://maps.google.com/maps?q=MARSHFIELD%20CLINIC%20PHARMACY%2C2116%20CRAIG%20ROAD%2C+EAU%20CLAIRE%2C+WI+54701,
MARSHFIELD CLINIC PHARMACY,2655 CTY HWY I,"CHIPPEWA FALLS, WI 54729",http://maps.google.com/maps?q=MARSHFIELD%20CLINIC%20PHARMACY%2C2655%20CTY%20HWY%20I%2C+CHIPPEWA%20FALLS%2C+WI+54729,
MARSHFIELD CLINIC PHARMACY,2727 PLAZA DRIVE,"WAUSAU, WI 54401",http://maps.google.com/maps?q=MARSHFIELD%20CLINIC%20PHARMACY%2C2727%20PLAZA%20DRIVE%2C+WAUSAU%2C+WI+54401,
MARSHFIELD CLINIC PHARMACY,390 ORBITING DRIVE,"MOSINEE, WI 54455",http://maps.google.com/maps?q=MARSHFIELD%20CLINIC%20PHARMACY%2C390%20ORBITING%20DRIVE%2C+MOSINEE%2C+WI+54455,
MARSHFIELD CLINIC PHARMACY,630 SOUTH CENTRAL AVENUE,PO BOX 8,"MARSHFIELD, WI 54449",http://maps.google.com/maps?q=MARSHFIELD%20CLINIC%20PHARMACY%2C630%20SOUTH%20CENTRAL%20AVENUE%2C+MARSHFIELD%2C+WI+54449
MARSHFIELD CLINIC PHARMACY,906 COLLEGE AVENUE WEST,"LADYSMITH, WI 54848",http://maps.google.com/maps?q=MARSHFIELD%20CLINIC%20PHARMACY%2C906%20COLLEGE%20AVENUE%20WEST%2C+LADYSMITH%2C+WI+54848,
MEDICAL CENTER PHARMACY,1111 DELAFIELD STREET  SUITE 109,"WAUKESHA, WI 53188",http://maps.google.com/maps?q=MEDICAL%20CENTER%20PHARMACY%2C1111%20DELAFIELD%20STREET%20%20SUITE%20109%2C+WAUKESHA%2C+WI+53188,
MERCY FAMILY PHARMACY,MERCY HEALTH SERVICES IOWA,1920 ELM STREET,"DUBUQUE, IA 52001",http://maps.google.com/maps?q=MERCY%20FAMILY%20PHARMACY%2CMERCY%20HEALTH%20SERVICES%20IOWA%2C+DUBUQUE%2C+IA+52001
NICOLET PHARMACY,15481 COMMERCIAL RD,SUITE A,"LAKEWOOD, WI 54138",http://maps.google.com/maps?q=NICOLET%20PHARMACY%2C15481%20COMMERCIAL%20RD%2C+LAKEWOOD%2C+WI+54138
NORTH MEMORIAL HEALTH,3300 OAKDALE AVE N,"ROBBINSDALE, MN 55422",http://maps.google.com/maps?q=NORTH%20MEMORIAL%20HEALTH%2C3300%20OAKDALE%20AVE%20N%2C+ROBBINSDALE%2C+MN+55422,
NORTH MEMORIAL PHARMACY MAPLE GROVE,9825 HOSPITAL DRIVE SUITE 100,"MAPLE GROVE, MN 55369",http://maps.google.com/maps?q=NORTH%20MEMORIAL%20PHARMACY%20MAPLE%20GROVE%2C9825%20HOSPITAL%20DRIVE%20SUITE%20100%2C+MAPLE%20GROVE%2C+MN+55369,
NORTH POINT HEALTH CENTER PHARMACY,1313 PENN AVE NORTH,"MINNEAPOLIS, MN 55411",http://maps.google.com/maps?q=NORTH%20POINT%20HEALTH%20CENTER%20PHARMACY%2C1313%20PENN%20AVE%20NORTH%2C+MINNEAPOLIS%2C+MN+55411,
NUCARA PHARMACY #20,119 N VINE ST,"WEST UNION, IA 52175",http://maps.google.com/maps?q=NUCARA%20PHARMACY%2C119%20N%20VINE%20ST%2C+WEST%20UNION%2C+IA+52175,
PARK NICOLLET PHARMACY,1885 PLAZA DRIVE,"EAGAN, MN 55122",http://maps.google.com/maps?q=PARK%20NICOLLET%20PHARMACY%2C1885%20PLAZA%20DRIVE%2C+EAGAN%2C+MN+55122,
PARK NICOLLET PHARMACY,250 NORTH CENTRAL,"WAYZATA, MN 55391",http://maps.google.com/maps?q=PARK%20NICOLLET%20PHARMACY%2C250%20NORTH%20CENTRAL%2C+WAYZATA%2C+MN+55391,
PARK NICOLLET PHARMACY,300 LAKE DRIVE EAST,"CHANHASSEN, MN 55317",http://maps.google.com/maps?q=PARK%20NICOLLET%20PHARMACY%2C300%20LAKE%20DRIVE%20EAST%2C+CHANHASSEN%2C+MN+55317,
PARK NICOLLET PHARMACY,3850 PARK NICOLLET BLVD.,"ST LOUIS PARK, MN 55416",http://maps.google.com/maps?q=PARK%20NICOLLET%20PHARMACY%2C3850%20PARK%20NICOLLET%20BLVD.%2C+ST%20LOUIS%20PARK%2C+MN+55416,
PARK NICOLLET PHARMACY,3931 LOUISIANA AVE,"ST LOUIS PARK, MN 55426",http://maps.google.com/maps?q=PARK%20NICOLLET%20PHARMACY%2C3931%20LOUISIANA%20AVE%2C+ST%20LOUIS%20PARK%2C+MN+55426,
PAUL OLIVER MEMORIAL HOSPITAL,224 PARK AVE,"FRANKFORT, MI 49635",http://maps.google.com/maps?q=PAUL%20OLIVER%20MEMORIAL%20HOSPITAL%2C224%20PARK%20AVE%2C+FRANKFORT%2C+MI+49635,
PINNOW PHARMACY,1028 FIRST CENTER AVENUE,"BRODHEAD, WI 53520",http://maps.google.com/maps?q=PINNOW%20PHARMACY%2C1028%20FIRST%20CENTER%20AVENUE%2C+BRODHEAD%2C+WI+53520,
POTAWATOMI HEALTH & WELLNESS,8201 MISH KO SWEN ROAD,P.O. BOX 396,"CRANDON, WI 54520",http://maps.google.com/maps?q=POTAWATOMI%20HEALTH%20%20WELLNESS%2C8201%20MISH%20KO%20SWEN%20ROAD%2C+CRANDON%2C+WI+54520
PROHEALTH CARE PHARMACY,791 SUMMIT AVE,"OCONOMOWOC, WI 53066",http://maps.google.com/maps?q=PROHEALTH%20CARE%20PHARMACY%2C791%20SUMMIT%20AVE%2C+OCONOMOWOC%2C+WI+53066,
PROHEALTH PHARMACY - PEWAUKEE,N16W24131 RIVERWOOD DR,"WAUKESHA, WI 53188",http://maps.google.com/maps?q=PROHEALTH%20PHARMACY%20%20PEWAUKEE%2CN16W24131%20RIVERWOOD%20DR%2C+WAUKESHA%2C+WI+53188,
PUTVIN DRUG STORE,211 S CEDAR ST,"MANISTIQUE, MI 49854",http://maps.google.com/maps?q=PUTVIN%20DRUG%20STORE%2C211%20S%20CEDAR%20ST%2C+MANISTIQUE%2C+MI+49854,
REGIONS HOSPITAL PHARMACY,OUTPATIENT,640 JACKSON STREET,"ST PAUL, MN 55101",http://maps.google.com/maps?q=REGIONS%20HOSPITAL%20PHARMACY%2COUTPATIENT%2C+ST%20PAUL%2C+MN+55101
RIPON MEDICAL CENTER,845 PARKSIDE STREET,"RIPON, WI 54971",http://maps.google.com/maps?q=RIPON%20MEDICAL%20CENTER%2C845%20PARKSIDE%20STREET%2C+RIPON%2C+WI+54971,
"ROCKMED LTC PHARMACY, LLC",711 N MAIN ST,"EDGERTON, WI 53534",http://maps.google.com/maps?q=ROCKMED%20LTC%20PHARMACY%20LLC%2C711%20N%20MAIN%20ST%2C+EDGERTON%2C+WI+53534,
RYAN PHARMACY,1600 FIRST STREET EAST,"INDEPENDENCE, IA 50644",http://maps.google.com/maps?q=RYAN%20PHARMACY%2C1600%20FIRST%20STREET%20EAST%2C+INDEPENDENCE%2C+IA+50644,
SCOTT PHARMACY,238 S MAIN,PO BOX 188,"FAYETTE, IA 52142",http://maps.google.com/maps?q=SCOTT%20PHARMACY%2C238%20S%20MAIN%2C+FAYETTE%2C+IA+52142
SMSC PHARMACY,15045 MYSTIC LAKE DRIVE,"PRIOR LAKE, MN 55372",http://maps.google.com/maps?q=SMSC%20PHARMACY%2C15045%20MYSTIC%20LAKE%20DRIVE%2C+PRIOR%20LAKE%2C+MN+55372,
ST AGNES HOSPITAL,DEPARTMENT OF PHARMACY,430 EAST DIVISION STREET,"FOND DU LAC, WI 54935",http://maps.google.com/maps?q=ST%20AGNES%20HOSPITAL%2CDEPARTMENT%20OF%20PHARMACY%2C+FOND%20DU%20LAC%2C+WI+54935
ST FRANCIS HOSPITAL,3401 LUDINGTON,"ESCANABA, MI 49829",http://maps.google.com/maps?q=ST%20FRANCIS%20HOSPITAL%2C3401%20LUDINGTON%2C+ESCANABA%2C+MI+49829,
STOCKBRIDGE-MUNSEE,W12802 COUNTY HWY A,P.O. BOX 86,"BOWLER, WI 54416",http://maps.google.com/maps?q=STOCKBRIDGEMUNSEE%2CW12802%20COUNTY%20HWY%20A%2C+BOWLER%2C+WI+54416
SWEET MEDICINE PRESCR PLUS,155 N MAIN STREET,PO BOX 284,"IOLA, WI 54945",http://maps.google.com/maps?q=SWEET%20MEDICINE%20PRESCR%20PLUS%2C155%20N%20MAIN%20STREET%2C+IOLA%2C+WI+54945
THRIFTY WHITE DRUG #762,6055 NATHAN LANE NORTH,SUITE 200A,"PLYMOUTH, MN 55442",http://maps.google.com/maps?q=THRIFTY%20WHITE%20DRUG%2C6055%20NATHAN%20LANE%20NORTH%2C+PLYMOUTH%2C+MN+55442
THRIFTY WHITE PHARMACY #080,2720 SOUTH 163RD STREET,"NEW BERLIN, WI 53151",http://maps.google.com/maps?q=THRIFTY%20WHITE%20PHARMACY%2C2720%20SOUTH%20163RD%20STREET%2C+NEW%20BERLIN%2C+WI+53151,
THRIFTY WHITE PHARMACY #727,223 STATE STREET NORTH,"WASECA, MN 56093",http://maps.google.com/maps?q=THRIFTY%20WHITE%20PHARMACY%2C223%20STATE%20STREET%20NORTH%2C+WASECA%2C+MN+56093,
THRIFTY WHITE PHARMACY #76,702 MONTGOMERY ST,"DECORAH, IA 52101",http://maps.google.com/maps?q=THRIFTY%20WHITE%20PHARMACY%2C702%20MONTGOMERY%20ST%2C+DECORAH%2C+IA+52101,
THRIFTY WHITE PHARMACY #772,"707 LUNDORFF DRIVE SOUTH, SUITE 2","SANDSTONE, MN 55072",http://maps.google.com/maps?q=THRIFTY%20WHITE%20PHARMACY%2C707%20LUNDORFF%20DRIVE%20SOUTH%2C%20SUITE%202%2C+SANDSTONE%2C+MN+55072,
THRIFTY WHITE PHARMACY #786,2018 15TH ST NW,"ROCHESTER, MN 55901",http://maps.google.com/maps?q=THRIFTY%20WHITE%20PHARMACY%2C2018%2015TH%20ST%20NW%2C+ROCHESTER%2C+MN+55901,
UNIVERSITY HEALTH SERVICE,"410 CHURCH STREET SE, N300","MINNEAPOLIS, MN 55455",http://maps.google.com/maps?q=UNIVERSITY%20HEALTH%20SERVICE%2C410%20CHURCH%20STREET%20SE%2C%20N300%2C+MINNEAPOLIS%2C+MN+55455,
UW HEALTH PHARMACY SERVICES,4602 EASTPARK BLVD,"MADISON, WI 53718",http://maps.google.com/maps?q=UW%20HEALTH%20PHARMACY%20SERVICES%2C4602%20EASTPARK%20BLVD%2C+MADISON%2C+WI+53718,
W ALLIS MEMORIAL HOSP INC,PHARMACY DEPT,8901 W LINCOLN AVENUE,"WEST ALLIS, WI 53227",http://maps.google.com/maps?q=W%20ALLIS%20MEMORIAL%20HOSP%20INC%2CPHARMACY%20DEPT%2C+WEST%20ALLIS%2C+WI+53227
WALGREEN CO,2920 WHITE BEAR AVE N,"MAPLEWOOD, MN 55109",http://maps.google.com/maps?q=WALGREEN%20CO%2C2920%20WHITE%20BEAR%20AVE%20N%2C+MAPLEWOOD%2C+MN+55109,
WALGREEN CO.,1021 SUMMIT AVE.,"OCONOMOWOC, WI 53066",http://maps.google.com/maps?q=WALGREEN%20CO%2C1021%20SUMMIT%20AVE.%2C+OCONOMOWOC%2C+WI+53066,
WALGREEN CO.,1029 N 14TH ST,"SHEBOYGAN, WI 53081",http://maps.google.com/maps?q=WALGREEN%20CO%2C1029%20N%2014TH%20ST%2C+SHEBOYGAN%2C+WI+53081,
WALGREEN CO.,105 CENTRAL BRIDGE ST,"WAUSAU, WI 54401",http://maps.google.com/maps?q=WALGREEN%20CO%2C105%20CENTRAL%20BRIDGE%20ST%2C+WAUSAU%2C+WI+54401,
WALGREEN CO.,10686 UNIVERSITY AVE NW,"COON RAPIDS, MN 55448",http://maps.google.com/maps?q=WALGREEN%20CO%2C10686%20UNIVERSITY%20AVE%20NW%2C+COON%20RAPIDS%2C+MN+55448,
WALGREEN CO.,1075 HIGHWAY 96 EAST,"WHITE BEAR LAKE, MN 55127",http://maps.google.com/maps?q=WALGREEN%20CO%2C1075%20HIGHWAY%2096%20EAST%2C+WHITE%20BEAR%20LAKE%2C+MN+55127,
WALGREEN CO.,1133 S ROBERT ST,"WEST ST PAUL, MN 55118",http://maps.google.com/maps?q=WALGREEN%20CO%2C1133%20S%20ROBERT%20ST%2C+WEST%20ST%20PAUL%2C+MN+55118,
WALGREEN CO.,15250 CEDAR AVE,"APPLE VALLEY, MN 55124",http://maps.google.com/maps?q=WALGREEN%20CO%2C15250%20CEDAR%20AVE%2C+APPLE%20VALLEY%2C+MN+55124,
WALGREEN CO.,15650 W GREENFIELD AVE,"BROOKFIELD, WI 53005",http://maps.google.com/maps?q=WALGREEN%20CO%2C15650%20W%20GREENFIELD%20AVE%2C+BROOKFIELD%2C+WI+53005,
WALGREEN CO.,1585 RANDOLPH AVE,"ST PAUL, MN 55105",http://maps.google.com/maps?q=WALGREEN%20CO%2C1585%20RANDOLPH%20AVE%2C+ST%20PAUL%2C+MN+55105,
WALGREEN CO.,16395 WAGNER WAY,"EDEN PRAIRIE, MN 55344",http://maps.google.com/maps?q=WALGREEN%20CO%2C16395%20WAGNER%20WAY%2C+EDEN%20PRAIRIE%2C+MN+55344,
WALGREEN CO.,1717 MILTON AVENUE,"JANESVILLE, WI 53545",http://maps.google.com/maps?q=WALGREEN%20CO%2C1717%20MILTON%20AVENUE%2C+JANESVILLE%2C+WI+53545,
WALGREEN CO.,1819 S HASTINGS WAY,"EAU CLAIRE, WI 54701",http://maps.google.com/maps?q=WALGREEN%20CO%2C1819%20S%20HASTINGS%20WAY%2C+EAU%20CLAIRE%2C+WI+54701,
WALGREEN CO.,192 N MAIN STREET,"FOND DU LAC, WI 54935",http://maps.google.com/maps?q=WALGREEN%20CO%2C192%20N%20MAIN%20STREET%2C+FOND%20DU%20LAC%2C+WI+54935,
WALGREEN CO.,1921 S. MAIN ST.,"WEST BEND, WI 53095",http://maps.google.com/maps?q=WALGREEN%20CO%2C1921%20S.%20MAIN%20ST.%2C+WEST%20BEND%2C+WI+53095,
WALGREEN CO.,1965 DONEGAL DR,"WOODBURY, MN 55125",http://maps.google.com/maps?q=WALGREEN%20CO%2C1965%20DONEGAL%20DR%2C+WOODBURY%2C+MN+55125,
WALGREEN CO.,221 E SUNSET DR,"WAUKESHA, WI 53189",http://maps.google.com/maps?q=WALGREEN%20CO%2C221%20E%20SUNSET%20DR%2C+WAUKESHA%2C+WI+53189,
WALGREEN CO.,2301 HALL AVE,"MARINETTE, WI 54143",http://maps.google.com/maps?q=WALGREEN%20CO%2C2301%20HALL%20AVE%2C+MARINETTE%2C+WI+54143,
WALGREEN CO.,2301 LUDINGTON ST,"ESCANABA, MI 49829",http://maps.google.com/maps?q=WALGREEN%20CO%2C2301%20LUDINGTON%20ST%2C+ESCANABA%2C+MI+49829,
WALGREEN CO.,2650 HENNEPIN AVE.,"MINNEAPOLIS, MN 55408",http://maps.google.com/maps?q=WALGREEN%20CO%2C2650%20HENNEPIN%20AVE.%2C+MINNEAPOLIS%2C+MN+55408,
WALGREEN CO.,275 DAVISON DR,"SUN PRAIRIE, WI 53590",http://maps.google.com/maps?q=WALGREEN%20CO%2C275%20DAVISON%20DR%2C+SUN%20PRAIRIE%2C+WI+53590,
WALGREEN CO.,3200 8TH STREET S,"WISCONSIN RAPIDS, WI 54494",http://maps.google.com/maps?q=WALGREEN%20CO%2C3200%208TH%20STREET%20S%2C+WISCONSIN%20RAPIDS%2C+WI+54494,
WALGREEN CO.,3522 W WISCONSIN,"MILWAUKEE, WI 53208",http://maps.google.com/maps?q=WALGREEN%20CO%2C3522%20W%20WISCONSIN%2C+MILWAUKEE%2C+WI+53208,
WALGREEN CO.,3701 S HOWELL AVE,"MILWAUKEE, WI 53207",http://maps.google.com/maps?q=WALGREEN%20CO%2C3701%20S%20HOWELL%20AVE%2C+MILWAUKEE%2C+WI+53207,
WALGREEN CO.,3710 E WASHINGTON AVE,"MADISON, WI 53704",http://maps.google.com/maps?q=WALGREEN%20CO%2C3710%20E%20WASHINGTON%20AVE%2C+MADISON%2C+WI+53704,
WALGREEN CO.,4296 S 76TH STREET,"GREENFIELD, WI 53220",http://maps.google.com/maps?q=WALGREEN%20CO%2C4296%20S%2076TH%20STREET%2C+GREENFIELD%2C+WI+53220,
WALGREEN CO.,4547 HIAWATHA AVE,"MINNEAPOLIS, MN 55406",http://maps.google.com/maps?q=WALGREEN%20CO%2C4547%20HIAWATHA%20AVE%2C+MINNEAPOLIS%2C+MN+55406,
WALGREEN CO.,540 BLAKE ROAD N,"HOPKINS, MN 55343",http://maps.google.com/maps?q=WALGREEN%20CO%2C540%20BLAKE%20ROAD%20N%2C+HOPKINS%2C+MN+55343,
WALGREEN CO.,55 J F KENNEDY RD,"DUBUQUE, IA 52002",http://maps.google.com/maps?q=WALGREEN%20CO%2C55%20J%20F%20KENNEDY%20RD%2C+DUBUQUE%2C+IA+52002,
WALGREEN CO.,5825 CAHILL AVE.,"INVER GROVE HEIGHTS, MN 55076",http://maps.google.com/maps?q=WALGREEN%20CO%2C5825%20CAHILL%20AVE.%2C+INVER%20GROVE%20HEIGHTS%2C+MN+55076,
WALGREEN CO.,606 S WHITNEY WAY,"MADISON, WI 53711",http://maps.google.com/maps?q=WALGREEN%20CO%2C606%20S%20WHITNEY%20WAY%2C+MADISON%2C+WI+53711,
WALGREEN CO.,6442 N 76TH STREET,"MILWAUKEE, WI 53223",http://maps.google.com/maps?q=WALGREEN%20CO%2C6442%20N%2076TH%20STREET%2C+MILWAUKEE%2C+WI+53223,
WALGREEN CO.,6975 YORK AVE S,"EDINA, MN 55435",http://maps.google.com/maps?q=WALGREEN%20CO%2C6975%20YORK%20AVE%20S%2C+EDINA%2C+MN+55435,
WALGREEN CO.,7135 E POINT DOUGLAS RD SOUTH,"COTTAGE GROVE, MN 55016",http://maps.google.com/maps?q=WALGREEN%20CO%2C7135%20E%20POINT%20DOUGLAS%20RD%20SOUTH%2C+COTTAGE%20GROVE%2C+MN+55016,
WALGREEN CO.,729 W. NORTHLAND AVE.,"APPLETON, WI 54914",http://maps.google.com/maps?q=WALGREEN%20CO%2C729%20W.%20NORTHLAND%20AVE.%2C+APPLETON%2C+WI+54914,
WALGREEN CO.,7600 W CAPITOL DRIVE,"MILWAUKEE, WI 53222",http://maps.google.com/maps?q=WALGREEN%20CO%2C7600%20W%20CAPITOL%20DRIVE%2C+MILWAUKEE%2C+WI+53222,
WALGREEN CO.,7700 BROOKLYN BLVD,"BROOKLYN PARK, MN 55443",http://maps.google.com/maps?q=WALGREEN%20CO%2C7700%20BROOKLYN%20BLVD%2C+BROOKLYN%20PARK%2C+MN+55443,
WALGREEN CO.,7810 MINERAL POINT RD,"MADISON, WI 53717",http://maps.google.com/maps?q=WALGREEN%20CO%2C7810%20MINERAL%20POINT%20RD%2C+MADISON%2C+WI+53717,
WALGREEN CO.,8100 W COUNTY ROAD 42,"SAVAGE, MN 55378",http://maps.google.com/maps?q=WALGREEN%20CO%2C8100%20W%20COUNTY%20ROAD%2042%2C+SAVAGE%2C+MN+55378,
WALGREEN CO.,900 WEST AVE S,"LA CROSSE, WI 54601",http://maps.google.com/maps?q=WALGREEN%20CO%2C900%20WEST%20AVE%20S%2C+LA%20CROSSE%2C+WI+54601,
WALGREEN CO.,950 S KOELLER ST,"OSHKOSH, WI 54902",http://maps.google.com/maps?q=WALGREEN%20CO%2C950%20S%20KOELLER%20ST%2C+OSHKOSH%2C+WI+54902,
WALGREEN CO.,9800 LYNDALE AVE. S,"BLOOMINGTON, MN 55420",http://maps.google.com/maps?q=WALGREEN%20CO%2C9800%20LYNDALE%20AVE.%20S%2C+BLOOMINGTON%2C+MN+55420,
WALGREEN CO.,N83W15701 APPLETON AVE,"MENOMONEE FALLS, WI 53051",http://maps.google.com/maps?q=WALGREEN%20CO%2CN83W15701%20APPLETON%20AVE%2C+MENOMONEE%20FALLS%2C+WI+53051,
"WATERTOWN MEDICAL CENTER, LLC",125 HOSPITAL DRIVE,"WATERTOWN, WI 53098",http://maps.google.com/maps?q=WATERTOWN%20MEDICAL%20CENTER%20LLC%2C125%20HOSPITAL%20DRIVE%2C+WATERTOWN%2C+WI+53098,
WAUKESHA HEALTH SERVICES,725 AMERICAN AVE,"WAUKESHA, WI 53188",http://maps.google.com/maps?q=WAUKESHA%20HEALTH%20SERVICES%2C725%20AMERICAN%20AVE%2C+WAUKESHA%2C+WI+53188,
WAUPUN MEMORIAL HOSPITAL,620 W. BROWN,"WAUPUN, WI 53963",http://maps.google.com/maps?q=WAUPUN%20MEMORIAL%20HOSPITAL%2C620%20W.%20BROWN%2C+WAUPUN%2C+WI+53963,
WESTFIELDS COMMUNITY PHARMACY,535 HOSPITAL RD,"NEW RICHMOND, WI 54017",http://maps.google.com/maps?q=WESTFIELDS%20COMMUNITY%20PHARMACY%2C535%20HOSPITAL%20RD%2C+NEW%20RICHMOND%2C+WI+54017,
WESTSIDE COMMUNITY HEALTH SERVICES PHARMACY,153 CESAR CHAVEZ ST,"ST PAUL, MN 55107",http://maps.google.com/maps?q=WESTSIDE%20COMMUNITY%20HEALTH%20SERVICES%20PHARMACY%2C153%20CESAR%20CHAVEZ%20ST%2C+ST%20PAUL%2C+MN+55107,
WHITTIER CLINIC PHARMACY,2810 NICOLLET AVENUE SOUTH,"MINNEAPOLIS, MN 55408",http://maps.google.com/maps?q=WHITTIER%20CLINIC%20PHARMACY%2C2810%20NICOLLET%20AVENUE%20SOUTH%2C+MINNEAPOLIS%2C+MN+55408,
WINONA HEALTH SERVICES CLINIC PHARMACY,859 MANKATO AVE,"WINONA, MN 55987",http://maps.google.com/maps?q=WINONA%20HEALTH%20SERVICES%20CLINIC%20PHARMACY%2C859%20MANKATO%20AVE%2C+WINONA%2C+MN+55987,
"WISCONSIN CVS PHARMACY, L.L.C.",1561 W. MASON ST.,"GREEN BAY, WI 54303",http://maps.google.com/maps?q=WISCONSIN%20CVS%20PHARMACY%20LLC%2C1561%20W.%20MASON%20ST.%2C+GREEN%20BAY%2C+WI+54303,
"WISCONSIN CVS PHARMACY, L.L.C.",2200 BRACKET AVE,"EAU CLAIRE, WI 54701",http://maps.google.com/maps?q=WISCONSIN%20CVS%20PHARMACY%20LLC%2C2200%20BRACKET%20AVE%2C+EAU%20CLAIRE%2C+WI+54701,
"WISCONSIN CVS PHARMACY, L.L.C.",535 EAST DIVISION AVENUE,"BARRON, WI 54812",http://maps.google.com/maps?q=WISCONSIN%20CVS%20PHARMACY%20LLC%2C535%20EAST%20DIVISION%20AVENUE%2C+BARRON%2C+WI+54812,
"WISCONSIN CVS PHARMACY, L.L.C.",700 WEST WISCONSIN AVE.,"APPLETON, WI 54914",http://maps.google.com/maps?q=WISCONSIN%20CVS%20PHARMACY%20LLC%2C700%20WEST%20WISCONSIN%20AVE.%2C+APPLETON%2C+WI+54914,
"WISCONSIN CVS PHARMACY, L.L.C.",7550 W. PERKINS PLACE,"MILWAUKEE, WI 53216",http://maps.google.com/maps?q=WISCONSIN%20CVS%20PHARMACY%20LLC%2C7550%20W.%20PERKINS%20PLACE%2C+MILWAUKEE%2C+WI+53216,
MARSHFIELD CLINIC PHARMACY,9601 TOWNLINE ROAD,P.O.BOX 1390,"MINOCQUA, WI 54548",http://maps.google.com/maps?q=MARSHFIELD%20CLINIC%20PHARMACY%2C9601%20TOWNLINE%20ROAD%2C+MINOCQUA%2C+WI+54548
PETER CHRISTENSEN HEALTH CENTER PHARMACY,129 OLD ABE ROAD,"LAC DU FLAMBEAU, WI 54538",http://maps.google.com/maps?q=PETER%20CHRISTENSEN%20HEALTH%20CENTER%20PHARMACY%2C129%20OLD%20ABE%20ROAD%2C+LAC%20DU%20FLAMBEAU%2C+WI+54538,
