Business Name,Address 1,Address 2,"City, State Zip",Map URL
ADVANCED RX PHARMACY 030,2000 S MAYS ST STE 200,"ROUND ROCK, TX 78664",http://maps.google.com/maps?q=ADVANCED%20RX%20PHARMACY%2C2000%20S%20MAYS%20ST%20STE%20200%2C+ROUND%20ROCK%2C+TX+78664,
AM PHARMACY,10401 ANDERSON MILLS RD,# 112B,"AUSTIN, TX 78750",http://maps.google.com/maps?q=AM%20PHARMACY%2C10401%20ANDERSON%20MILLS%20RD%2C+AUSTIN%2C+TX+78750
AUSTIN LAKES HOSPITAL,1025 E. 32ND STREET,"AUSTIN, TX 78705",http://maps.google.com/maps?q=AUSTIN%20LAKES%20HOSPITAL%2C1025%20E.%2032ND%20STREET%2C+AUSTIN%2C+TX+78705,
BLANCO PHARMACY & WELLNESS,316 PECAN ST,PO BOX 369,"BLANCO, TX 78606",http://maps.google.com/maps?q=BLANCO%20PHARMACY%20%20WELLNESS%2C316%20PECAN%20ST%2C+BLANCO%2C+TX+78606
BRIARGROVE PHARMACY,6435 SAN FELIPE,"HOUSTON, TX 77057",http://maps.google.com/maps?q=BRIARGROVE%20PHARMACY%2C6435%20SAN%20FELIPE%2C+HOUSTON%2C+TX+77057,
BUDA DRUG STORE,203 RAILROAD ST STE 2-B,"BUDA, TX 78610",http://maps.google.com/maps?q=BUDA%20DRUG%20STORE%2C203%20RAILROAD%20ST%20STE%202-B%2C+BUDA%2C+TX+78610,
"CVS PHARMACY, INC.",1350 KINGWOOD DR,"KINGWOOD, TX 77339",http://maps.google.com/maps?q=CVS%20PHARMACY%20INC%2C1350%20KINGWOOD%20DR%2C+KINGWOOD%2C+TX+77339,
"CVS PHARMACY, INC.",1410 CRABB RIVER RD.,"RICHMOND, TX 77469",http://maps.google.com/maps?q=CVS%20PHARMACY%20INC%2C1410%20CRABB%20RIVER%20RD.%2C+RICHMOND%2C+TX+77469,
"CVS PHARMACY, INC.",14900 JONES MALTSBERGER RD,"SAN ANTONIO, TX 78247",http://maps.google.com/maps?q=CVS%20PHARMACY%20INC%2C14900%20JONES%20MALTSBERGER%20RD%2C+SAN%20ANTONIO%2C+TX+78247,
"CVS PHARMACY, INC.",1525 W CAMERON AVE,"ROCKDALE, TX 76567",http://maps.google.com/maps?q=CVS%20PHARMACY%20INC%2C1525%20W%20CAMERON%20AVE%2C+ROCKDALE%2C+TX+76567,
"CVS PHARMACY, INC.",1919 S. LOOP 256,"PALESTINE, TX 75801",http://maps.google.com/maps?q=CVS%20PHARMACY%20INC%2C1919%20S.%20LOOP%20256%2C+PALESTINE%2C+TX+75801,
"CVS PHARMACY, INC.",19244 MCDONALD ST.,"LYTLE, TX 78052",http://maps.google.com/maps?q=CVS%20PHARMACY%20INC%2C19244%20MCDONALD%20ST.%2C+LYTLE%2C+TX+78052,
"CVS PHARMACY, INC.",213 EAST SAN PATRICIO AVE.,"MATHIS, TX 78368",http://maps.google.com/maps?q=CVS%20PHARMACY%20INC%2C213%20EAST%20SAN%20PATRICIO%20AVE.%2C+MATHIS%2C+TX+78368,
"CVS PHARMACY, INC.",24048 KUYKENDAHL RD.,"TOMBALL, TX 77375",http://maps.google.com/maps?q=CVS%20PHARMACY%20INC%2C24048%20KUYKENDAHL%20RD.%2C+TOMBALL%2C+TX+77375,
"CVS PHARMACY, INC.",24802 ALDINE WESTFIELD,"SPRING, TX 77373",http://maps.google.com/maps?q=CVS%20PHARMACY%20INC%2C24802%20ALDINE%20WESTFIELD%2C+SPRING%2C+TX+77373,
"CVS PHARMACY, INC.",26265 NORTHWEST FREEWAY,"CYPRESS, TX 77429",http://maps.google.com/maps?q=CVS%20PHARMACY%20INC%2C26265%20NORTHWEST%20FREEWAY%2C+CYPRESS%2C+TX+77429,
"CVS PHARMACY, INC.",2712 HIGHWAY 365,"NEDERLAND, TX 77627",http://maps.google.com/maps?q=CVS%20PHARMACY%20INC%2C2712%20HIGHWAY%20365%2C+NEDERLAND%2C+TX+77627,
"CVS PHARMACY, INC.",2900 BROADWAY ST.,"PEARLAND, TX 77581",http://maps.google.com/maps?q=CVS%20PHARMACY%20INC%2C2900%20BROADWAY%20ST.%2C+PEARLAND%2C+TX+77581,
"CVS PHARMACY, INC.",2950 DOWLEN RD.,"BEAUMONT, TX 77706",http://maps.google.com/maps?q=CVS%20PHARMACY%20INC%2C2950%20DOWLEN%20RD.%2C+BEAUMONT%2C+TX+77706,
"CVS PHARMACY, INC.",3505 CENTER ST.,"DEER PARK, TX 77536",http://maps.google.com/maps?q=CVS%20PHARMACY%20INC%2C3505%20CENTER%20ST.%2C+DEER%20PARK%2C+TX+77536,
"CVS PHARMACY, INC.",3850 FM 2920,"SPRING, TX 77388",http://maps.google.com/maps?q=CVS%20PHARMACY%20INC%2C3850%20FM%202920%2C+SPRING%2C+TX+77388,
"CVS PHARMACY, INC.",407 EAST ORANGE AVE.,"ORANGE GROVE, TX 78372",http://maps.google.com/maps?q=CVS%20PHARMACY%20INC%2C407%20EAST%20ORANGE%20AVE.%2C+ORANGE%20GROVE%2C+TX+78372,
"CVS PHARMACY, INC.",4805 MEDICAL DR,"SAN ANTONIO, TX 78229",http://maps.google.com/maps?q=CVS%20PHARMACY%20INC%2C4805%20MEDICAL%20DR%2C+SAN%20ANTONIO%2C+TX+78229,
"CVS PHARMACY, INC.",7214 FM 1960 E,"HUMBLE, TX 77346",http://maps.google.com/maps?q=CVS%20PHARMACY%20INC%2C7214%20FM%201960%20E%2C+HUMBLE%2C+TX+77346,
"CVS PHARMACY, INC.",7442 S. STAPLES ST.,"CORPUS CHRISTI, TX 78413",http://maps.google.com/maps?q=CVS%20PHARMACY%20INC%2C7442%20S.%20STAPLES%20ST.%2C+CORPUS%20CHRISTI%2C+TX+78413,
"CVS PHARMACY, INC.",800 WEST OLD SETTLERS BLVD,"ROUND ROCK, TX 78681",http://maps.google.com/maps?q=CVS%20PHARMACY%20INC%2C800%20WEST%20OLD%20SETTLERS%20BLVD%2C+ROUND%20ROCK%2C+TX+78681,
"CVS PHARMACY, INC.",910 W DAVIS ST,"CONROE, TX 77301",http://maps.google.com/maps?q=CVS%20PHARMACY%20INC%2C910%20W%20DAVIS%20ST%2C+CONROE%2C+TX+77301,
"CVS PHARMACY, INC.",9101 HWY 6 NORTH,"HOUSTON, TX 77095",http://maps.google.com/maps?q=CVS%20PHARMACY%20INC%2C9101%20HWY%206%20NORTH%2C+HOUSTON%2C+TX+77095,
ELGIN MEDICINE SHOP,199A US HWY 290 EAST,"ELGIN, TX 78621",http://maps.google.com/maps?q=ELGIN%20MEDICINE%20SHOP%2C199A%20US%20HWY%20290%20EAST%2C+ELGIN%2C+TX+78621,
EVOLUTION RX,931 ELDRIDGE RD,"SUGAR LAND, TX 77478",http://maps.google.com/maps?q=EVOLUTION%20RX%2C931%20ELDRIDGE%20RD%2C+SUGAR%20LAND%2C+TX+77478,
FORTY ACRES PHARMACY,100-F W. DEAN KEETON,ROOM 1.110,"AUSTIN, TX 78712",http://maps.google.com/maps?q=FORTY%20ACRES%20PHARMACY%2C100-F%20W.%20DEAN%20KEETON%2C+AUSTIN%2C+TX+78712
GRAND AVE PHARMACY,1615 GRAND AVENUE PKWY,SUITE 104,"PFLUGERVILLE, TX 78660",http://maps.google.com/maps?q=GRAND%20AVE%20PHARMACY%2C1615%20GRAND%20AVENUE%20PKWY%2C+PFLUGERVILLE%2C+TX+78660
HILL COUNTRY MEM HOSP INC,1020 SOUTH STATE HWY 16,PO BOX 835,"FREDERICKSBURG, TX 78624",http://maps.google.com/maps?q=HILL%20COUNTRY%20MEM%20HOSP%20INC%2C1020%20SOUTH%20STATE%20HWY%2016%2C+FREDERICKSBURG%2C+TX+78624
HOSPITAL SERVICE DISTRICT NO. 2 OF,600 SOUTH PINE ST,"DE RIDDER, LA 70634",http://maps.google.com/maps?q=HOSPITAL%20SERVICE%20DISTRICT%20NO%20%20OF%2C600%20SOUTH%20PINE%20ST%2C+DE%20RIDDER%2C+LA+70634,
KING'S PHARMACY #4,DBA: L & J PHARMACIES INC,1948 9TH AVE,"PORT ARTHUR, TX 77642",http://maps.google.com/maps?q=KINGS%20PHARMACY%2CDBA%3A%20L%20&%20J%20PHARMACIES%20INC%2C+PORT%20ARTHUR%2C+TX+77642
KING'S PHARMACY-BEAUMONT,3610 NORTH MAJOR DRIVE,"BEAUMONT, TX 77713",http://maps.google.com/maps?q=KINGS%20PHARMACYBEAUMONT%2C3610%20NORTH%20MAJOR%20DRIVE%2C+BEAUMONT%2C+TX+77713,
LAKE HILLS PHARMACY,12005 BEE CAVE ROAD,SUITE 1A,"BEE CAVE, TX 78738",http://maps.google.com/maps?q=LAKE%20HILLS%20PHARMACY%2C12005%20BEE%20CAVE%20ROAD%2C+BEE%20CAVE%2C+TX+78738
LAVACA MEDICAL CENTER,1400 NORTH TEXANA ST,"HALLETTSVILLE, TX 77964",http://maps.google.com/maps?q=LAVACA%20MEDICAL%20CENTER%2C1400%20NORTH%20TEXANA%20ST%2C+HALLETTSVILLE%2C+TX+77964,
LEGENDS PHARMACY,6601 BLANCO RD.,SUITE 250,"SAN ANTONIO, TX 78216",http://maps.google.com/maps?q=LEGENDS%20PHARMACY%2C6601%20BLANCO%20RD.%2C+SAN%20ANTONIO%2C+TX+78216
LIBERTY PHARMACY,8650 SPICEWOOD SPRINGS RD,SUITE 106,"AUSTIN, TX 78759",http://maps.google.com/maps?q=LIBERTY%20PHARMACY%2C8650%20SPICEWOOD%20SPRINGS%20RD%2C+AUSTIN%2C+TX+78759
"LOUISIANA CVS PHARMACY, L.L.C.",1508 S. BEGLIS PKWY.,"SULPHUR, LA 70663",http://maps.google.com/maps?q=LOUISIANA%20CVS%20PHARMACY%20LLC%2C1508%20S.%20BEGLIS%20PKWY.%2C+SULPHUR%2C+LA+70663,
"LOUISIANA CVS PHARMACY, L.L.C.",4828 NELSON RD.,"LAKE CHARLES, LA 70605",http://maps.google.com/maps?q=LOUISIANA%20CVS%20PHARMACY%20LLC%2C4828%20NELSON%20RD.%2C+LAKE%20CHARLES%2C+LA+70605,
MANOR PHARMACY,14008 SHADOW GLEN BLVD STE 102,"MANOR, TX 78653",http://maps.google.com/maps?q=MANOR%20PHARMACY%2C14008%20SHADOW%20GLEN%20BLVD%20STE%20102%2C+MANOR%2C+TX+78653,
MEDICAL PLAZA PHARMACY INC,13725 NORTHWEST BLVD,SUITE 130,"CORPUS CHRISTI, TX 78410",http://maps.google.com/maps?q=MEDICAL%20PLAZA%20PHARMACY%20INC%2C13725%20NORTHWEST%20BLVD%2C+CORPUS%20CHRISTI%2C+TX+78410
MEDICINE SHOPPE #1145,800 S BROADWAY ST,"LA PORTE, TX 77571",http://maps.google.com/maps?q=MEDICINE%20SHOPPE%2C800%20S%20BROADWAY%20ST%2C+LA%20PORTE%2C+TX+77571,
MEMORIAL HERMANN HOSPTL SYSTM,PHARMACY DEPARTMENT,6411 FANNIN,"HOUSTON, TX 77030",http://maps.google.com/maps?q=MEMORIAL%20HERMANN%20HOSPTL%20SYSTM%2CPHARMACY%20DEPARTMENT%2C+HOUSTON%2C+TX+77030
PHARMHOUSE PHARMACY,4500 E. SAM HOUSTON PKWY S.,STE. 100,"PASADENA, TX 77505",http://maps.google.com/maps?q=PHARMHOUSE%20PHARMACY%2C4500%20E.%20SAM%20HOUSTON%20PKWY%20S.%2C+PASADENA%2C+TX+77505
PROSCRIPT AMERICA,4151 SOUTHWEST FREEWAY,SUITE 373,"HOUSTON, TX 77027",http://maps.google.com/maps?q=PROSCRIPT%20AMERICA%2C4151%20SOUTHWEST%20FREEWAY%2C+HOUSTON%2C+TX+77027
RITE AWAY PHARMACY & MEDICAL SUPPLY,"2235 THOUSAND OAKS DR, #102","SAN ANTONIO, TX 78232",http://maps.google.com/maps?q=RITE%20AWAY%20PHARMACY%20%20MEDICAL%20SUPPLY%2C2235%20THOUSAND%20OAKS%20DR%2C%20#102%2C+SAN%20ANTONIO%2C+TX+78232,
SOLUTIONS PHARMACY,"13830 SAWYER RANCH RD, STE 104","DRIPPING SPRINGS, TX 78620",http://maps.google.com/maps?q=SOLUTIONS%20PHARMACY%2C13830%20SAWYER%20RANCH%20RD%2C%20STE%20104%2C+DRIPPING%20SPRINGS%2C+TX+78620,
SPRING BRANCH PHARMACY,17130 STATE HIGHWAY 46 W STE 1,"SPRING BRANCH, TX 78070",http://maps.google.com/maps?q=SPRING%20BRANCH%20PHARMACY%2C17130%20STATE%20HIGHWAY%2046%20W%20STE%201%2C+SPRING%20BRANCH%2C+TX+78070,
STUDENT HEALTH PHARMACY UNIVERSITY OF HOUSTON,4849 CALHOUN ROAD,RM 1211,"HOUSTON, TX 77204",http://maps.google.com/maps?q=STUDENT%20HEALTH%20PHARMACY%20UNIVERSITY%20OF%20HOUSTON%2C4849%20CALHOUN%20ROAD%2C+HOUSTON%2C+TX+77204
TEXAS LAUREL RIDGE HOSPITAL,CENTER,17720 CORPORATE WOODS DRIVE,"SAN ANTONIO, TX 78259",http://maps.google.com/maps?q=TEXAS%20LAUREL%20RIDGE%20HOSPITAL%2CCENTER%2C+SAN%20ANTONIO%2C+TX+78259
THE START CENTER PHARMACY,4383 MEDICAL DR,SUITE 113,"SAN ANTONIO, TX 78229",http://maps.google.com/maps?q=THE%20START%20CENTER%20PHARMACY%2C4383%20MEDICAL%20DR%2C+SAN%20ANTONIO%2C+TX+78229
US ARMY- BROOKE MEDICAL CTR PHCY,ROOM L62-4,3551 ROGER BROOKE DRIVE,"FORT SAM HOUSTON, TX 78234",http://maps.google.com/maps?q=US%20ARMY%20BROOKE%20MEDICAL%20CTR%20PHCY%2CROOM%20L62-4%2C+FORT%20SAM%20HOUSTON%2C+TX+78234
US ARMY-CPT J. M. MORENO PRIMARY CARE PHARMACY,3100 SCHOFIELD RD,BLDG 1179,"JBSA FT SAM HOUSTON, TX 78234",http://maps.google.com/maps?q=US%20ARMYCPT%20J%20M%20MORENO%20PRIMARY%20CARE%20PHARMACY%2C3100%20SCHOFIELD%20RD%2C+JBSA%20FT%20SAM%20HOUSTON%2C+TX+78234
US ARMY-FORT SAM HOUSTON COMMUNITY PHARMACY,SCOTT AVE,BLDG 2401,"JBSA FT SAM HOUSTON, TX 78234",http://maps.google.com/maps?q=US%20ARMYFORT%20SAM%20HOUSTON%20COMMUNITY%20PHARMACY%2CSCOTT%20AVE%2C+JBSA%20FT%20SAM%20HOUSTON%2C+TX+78234
US ARMY-MCWETHY TMC PHARMACY,3051 GARDEN AVENUE,BUILDING 1279 ROOM A219,"JBSA FT SAM HOUSTON, TX 78234",http://maps.google.com/maps?q=US%20ARMYMCWETHY%20TMC%20PHARMACY%2C3051%20GARDEN%20AVENUE%2C+JBSA%20FT%20SAM%20HOUSTON%2C+TX+78234
US ARMY-SCHERTZ MEDICAL HOME PHARMACY,6051 FM 3009,SUITE 210,"SCHERTZ, TX 78154",http://maps.google.com/maps?q=US%20ARMYSCHERTZ%20MEDICAL%20HOME%20PHARMACY%2C6051%20FM%203009%2C+SCHERTZ%2C+TX+78154
US ARMY-TAYLOR BURKE CLINIC PHARMACY,NW MILITARY HIGHWAY,BLDG 5026,"SAN ANTONIO, TX 78251",http://maps.google.com/maps?q=US%20ARMYTAYLOR%20BURKE%20CLINIC%20PHARMACY%2CNW%20MILITARY%20HIGHWAY%2C+SAN%20ANTONIO%2C+TX+78251
US ARMY-WESTOVER MEDICAL HOME PHARMACY,10010 ROGERS CROSSING,"SAN ANTONIO, TX 78251",http://maps.google.com/maps?q=US%20ARMYWESTOVER%20MEDICAL%20HOME%20PHARMACY%2C10010%20ROGERS%20CROSSING%2C+SAN%20ANTONIO%2C+TX+78251,
USAF- RANDOLPH AFB MED,359 MDSS/SGSM,221 3RD ST W BLDG 1040,"RANDOLPH AFB, TX 78150",http://maps.google.com/maps?q=USAF%20RANDOLPH%20AFB%20MED%2C359%20MDSS/SGSM%2C+RANDOLPH%20AFB%2C+TX+78150
USAF- WILFORD HALL MC/MSL,2200 BERGQUIST DRIVE,SUITE 1/SGSKS,"LACKLAND AFB, TX 78236",http://maps.google.com/maps?q=USAF%20WILFORD%20HALL%20MCMSL%2C2200%20BERGQUIST%20DRIVE%2C+LACKLAND%20AFB%2C+TX+78236
VALU-MED INC,707 N LLANO,"FREDERICKSBURG, TX 78624",http://maps.google.com/maps?q=VALUMED%20INC%2C707%20N%20LLANO%2C+FREDERICKSBURG%2C+TX+78624,
WALGREEN CO.,105 WEST ROAD,"HOUSTON, TX 77037",http://maps.google.com/maps?q=WALGREEN%20CO%2C105%20WEST%20ROAD%2C+HOUSTON%2C+TX+77037,
WALGREEN CO.,1105 GOLIAD ROAD,"SAN ANTONIO, TX 78223",http://maps.google.com/maps?q=WALGREEN%20CO%2C1105%20GOLIAD%20ROAD%2C+SAN%20ANTONIO%2C+TX+78223,
WALGREEN CO.,1160 S BUSINESS IH 35,"NEW BRAUNFELS, TX 78130",http://maps.google.com/maps?q=WALGREEN%20CO%2C1160%20S%20BUSINESS%20IH%2035%2C+NEW%20BRAUNFELS%2C+TX+78130,
WALGREEN CO.,11724 RESEARCH BLVD.,"AUSTIN, TX 78759",http://maps.google.com/maps?q=WALGREEN%20CO%2C11724%20RESEARCH%20BLVD.%2C+AUSTIN%2C+TX+78759,
WALGREEN CO.,1223 S MAIN ST,"BOERNE, TX 78006",http://maps.google.com/maps?q=WALGREEN%20CO%2C1223%20S%20MAIN%20ST%2C+BOERNE%2C+TX+78006,
WALGREEN CO.,12352 FM 1957,"SAN ANTONIO, TX 78253",http://maps.google.com/maps?q=WALGREEN%20CO%2C12352%20FM%201957%2C+SAN%20ANTONIO%2C+TX+78253,
WALGREEN CO.,138 SW MILITARY DRIVE,"SAN ANTONIO, TX 78221",http://maps.google.com/maps?q=WALGREEN%20CO%2C138%20SW%20MILITARY%20DRIVE%2C+SAN%20ANTONIO%2C+TX+78221,
WALGREEN CO.,14025 NACOGDOCHES RD,"SAN ANTONIO, TX 78247",http://maps.google.com/maps?q=WALGREEN%20CO%2C14025%20NACOGDOCHES%20RD%2C+SAN%20ANTONIO%2C+TX+78247,
WALGREEN CO.,14616 MEMORIAL DRIVE,"HOUSTON, TX 77079",http://maps.google.com/maps?q=WALGREEN%20CO%2C14616%20MEMORIAL%20DRIVE%2C+HOUSTON%2C+TX+77079,
WALGREEN CO.,1710 FRY ROAD,"HOUSTON, TX 77084",http://maps.google.com/maps?q=WALGREEN%20CO%2C1710%20FRY%20ROAD%2C+HOUSTON%2C+TX+77084,
WALGREEN CO.,17330 W GRAND PKWY SOUTH,"SUGAR LAND, TX 77479",http://maps.google.com/maps?q=WALGREEN%20CO%2C17330%20W%20GRAND%20PKWY%20SOUTH%2C+SUGAR%20LAND%2C+TX+77479,
WALGREEN CO.,1910 #2 W BRAKER LANE,"AUSTIN, TX 78758",http://maps.google.com/maps?q=WALGREEN%20CO%2C1910%20#2%20W%20BRAKER%20LANE%2C+AUSTIN%2C+TX+78758,
WALGREEN CO.,1920 E RIVERSIDE DR,BLDG B,"AUSTIN, TX 78741",http://maps.google.com/maps?q=WALGREEN%20CO%2C1920%20E%20RIVERSIDE%20DR%2C+AUSTIN%2C+TX+78741
WALGREEN CO.,2021 W PECAN ST,"PFLUGERVILLE, TX 78660",http://maps.google.com/maps?q=WALGREEN%20CO%2C2021%20W%20PECAN%20ST%2C+PFLUGERVILLE%2C+TX+78660,
WALGREEN CO.,22114 BULVERDE ROAD,"SAN ANTONIO, TX 78259",http://maps.google.com/maps?q=WALGREEN%20CO%2C22114%20BULVERDE%20ROAD%2C+SAN%20ANTONIO%2C+TX+78259,
WALGREEN CO.,2501 S LAMAR BLVD,"AUSTIN, TX 78704",http://maps.google.com/maps?q=WALGREEN%20CO%2C2501%20S%20LAMAR%20BLVD%2C+AUSTIN%2C+TX+78704,
WALGREEN CO.,2701 N NAVARRO ST,"VICTORIA, TX 77901",http://maps.google.com/maps?q=WALGREEN%20CO%2C2701%20N%20NAVARRO%20ST%2C+VICTORIA%2C+TX+77901,
WALGREEN CO.,28426 TOMBALL PARKWAY,"TOMBALL, TX 77375",http://maps.google.com/maps?q=WALGREEN%20CO%2C28426%20TOMBALL%20PARKWAY%2C+TOMBALL%2C+TX+77375,
WALGREEN CO.,3065 RIGSBY AVE,"SAN ANTONIO, TX 78222",http://maps.google.com/maps?q=WALGREEN%20CO%2C3065%20RIGSBY%20AVE%2C+SAN%20ANTONIO%2C+TX+78222,
WALGREEN CO.,3103 PALMER HIGHWAY,"TEXAS CITY, TX 77590",http://maps.google.com/maps?q=WALGREEN%20CO%2C3103%20PALMER%20HIGHWAY%2C+TEXAS%20CITY%2C+TX+77590,
WALGREEN CO.,3287 BROADWAY ST.,"PEARLAND, TX 77581",http://maps.google.com/maps?q=WALGREEN%20CO%2C3287%20BROADWAY%20ST.%2C+PEARLAND%2C+TX+77581,
WALGREEN CO.,3312 E 29TH ST,"BRYAN, TX 77802",http://maps.google.com/maps?q=WALGREEN%20CO%2C3312%20E%2029TH%20ST%2C+BRYAN%2C+TX+77802,
WALGREEN CO.,3316 AVENUE H,"ROSENBERG, TX 77471",http://maps.google.com/maps?q=WALGREEN%20CO%2C3316%20AVENUE%20H%2C+ROSENBERG%2C+TX+77471,
WALGREEN CO.,3614 S 31ST ST,"TEMPLE, TX 76502",http://maps.google.com/maps?q=WALGREEN%20CO%2C3614%20S%2031ST%20ST%2C+TEMPLE%2C+TX+76502,
WALGREEN CO.,3700 HWY 365,"PORT ARTHUR, TX 77642",http://maps.google.com/maps?q=WALGREEN%20CO%2C3700%20HWY%20365%2C+PORT%20ARTHUR%2C+TX+77642,
WALGREEN CO.,3707 SPENCER HWY.,"PASADENA, TX 77504",http://maps.google.com/maps?q=WALGREEN%20CO%2C3707%20SPENCER%20HWY.%2C+PASADENA%2C+TX+77504,
WALGREEN CO.,3801 FM 3009,"SCHERTZ, TX 78154",http://maps.google.com/maps?q=WALGREEN%20CO%2C3801%20FM%203009%2C+SCHERTZ%2C+TX+78154,
WALGREEN CO.,3822 OLD SPANISH TRAIL,"HOUSTON, TX 77021",http://maps.google.com/maps?q=WALGREEN%20CO%2C3822%20OLD%20SPANISH%20TRAIL%2C+HOUSTON%2C+TX+77021,
WALGREEN CO.,388 UVALDE ROAD,"HOUSTON, TX 77015",http://maps.google.com/maps?q=WALGREEN%20CO%2C388%20UVALDE%20ROAD%2C+HOUSTON%2C+TX+77015,
WALGREEN CO.,4100 BOSQUE BOULEVARD,"WACO, TX 76710",http://maps.google.com/maps?q=WALGREEN%20CO%2C4100%20BOSQUE%20BOULEVARD%2C+WACO%2C+TX+76710,
WALGREEN CO.,411 S MASON RD,"KATY, TX 77450",http://maps.google.com/maps?q=WALGREEN%20CO%2C411%20S%20MASON%20RD%2C+KATY%2C+TX+77450,
WALGREEN CO.,4161 S. STAPLES ST,"CORPUS CHRISTI, TX 78411",http://maps.google.com/maps?q=WALGREEN%20CO%2C4161%20S.%20STAPLES%20ST%2C+CORPUS%20CHRISTI%2C+TX+78411,
WALGREEN CO.,420 N FRAZIER ST,"CONROE, TX 77301",http://maps.google.com/maps?q=WALGREEN%20CO%2C420%20N%20FRAZIER%20ST%2C+CONROE%2C+TX+77301,
WALGREEN CO.,4501 GUADALUPE ST.,"AUSTIN, TX 78751",http://maps.google.com/maps?q=WALGREEN%20CO%2C4501%20GUADALUPE%20ST.%2C+AUSTIN%2C+TX+78751,
WALGREEN CO.,4703 W. COMMERCE ST.,"SAN ANTONIO, TX 78237",http://maps.google.com/maps?q=WALGREEN%20CO%2C4703%20W.%20COMMERCE%20ST.%2C+SAN%20ANTONIO%2C+TX+78237,
WALGREEN CO.,504 STATE HIGHWAY 71 WEST,"BASTROP, TX 78602",http://maps.google.com/maps?q=WALGREEN%20CO%2C504%20STATE%20HIGHWAY%2071%20WEST%2C+BASTROP%2C+TX+78602,
WALGREEN CO.,5280 BUFFALO SPEEDWAY,"HOUSTON, TX 77005",http://maps.google.com/maps?q=WALGREEN%20CO%2C5280%20BUFFALO%20SPEEDWAY%2C+HOUSTON%2C+TX+77005,
WALGREEN CO.,5300 N BRAESWOOD BLVD,"HOUSTON, TX 77096",http://maps.google.com/maps?q=WALGREEN%20CO%2C5300%20N%20BRAESWOOD%20BLVD%2C+HOUSTON%2C+TX+77096,
WALGREEN CO.,5345 N IH 35,"AUSTIN, TX 78723",http://maps.google.com/maps?q=WALGREEN%20CO%2C5345%20N%20IH%2035%2C+AUSTIN%2C+TX+78723,
WALGREEN CO.,5600 SOUTH 1ST STREET,"AUSTIN, TX 78745",http://maps.google.com/maps?q=WALGREEN%20CO%2C5600%20SOUTH%201ST%20STREET%2C+AUSTIN%2C+TX+78745,
WALGREEN CO.,5601 SARATOGA BLVD,"CORPUS CHRISTI, TX 78414",http://maps.google.com/maps?q=WALGREEN%20CO%2C5601%20SARATOGA%20BLVD%2C+CORPUS%20CHRISTI%2C+TX+78414,
WALGREEN CO.,6120 S HIGHWAY 6,"MISSOURI CITY, TX 77459",http://maps.google.com/maps?q=WALGREEN%20CO%2C6120%20S%20HIGHWAY%206%2C+MISSOURI%20CITY%2C+TX+77459,
WALGREEN CO.,6200 W.WILLIAM CANNON DR.,"AUSTIN, TX 78749",http://maps.google.com/maps?q=WALGREEN%20CO%2C6200%20W.WILLIAM%20CANNON%20DR.%2C+AUSTIN%2C+TX+78749,
WALGREEN CO.,628 JEFFERSON STREET,"KERRVILLE, TX 78028",http://maps.google.com/maps?q=WALGREEN%20CO%2C628%20JEFFERSON%20STREET%2C+KERRVILLE%2C+TX+78028,
WALGREEN CO.,6610 TIDWELL ROAD,"HOUSTON, TX 77016",http://maps.google.com/maps?q=WALGREEN%20CO%2C6610%20TIDWELL%20ROAD%2C+HOUSTON%2C+TX+77016,
WALGREEN CO.,6768 HIGHWAY 6 SOUTH,"HOUSTON, TX 77083",http://maps.google.com/maps?q=WALGREEN%20CO%2C6768%20HIGHWAY%206%20SOUTH%2C+HOUSTON%2C+TX+77083,
WALGREEN CO.,6802 S FRY RD,"KATY, TX 77494",http://maps.google.com/maps?q=WALGREEN%20CO%2C6802%20S%20FRY%20RD%2C+KATY%2C+TX+77494,
WALGREEN CO.,7019 S ZARZAMORA ST,"SAN ANTONIO, TX 78224",http://maps.google.com/maps?q=WALGREEN%20CO%2C7019%20S%20ZARZAMORA%20ST%2C+SAN%20ANTONIO%2C+TX+78224,
WALGREEN CO.,710 N. BELL BLVD,"CEDAR PARK, TX 78613",http://maps.google.com/maps?q=WALGREEN%20CO%2C710%20N.%20BELL%20BLVD%2C+CEDAR%20PARK%2C+TX+78613,
WALGREEN CO.,7304A LOUETTA ROAD,"SPRING, TX 77379",http://maps.google.com/maps?q=WALGREEN%20CO%2C7304A%20LOUETTA%20ROAD%2C+SPRING%2C+TX+77379,
WALGREEN CO.,7634 BELLAIRE BLVD,"HOUSTON, TX 77036",http://maps.google.com/maps?q=WALGREEN%20CO%2C7634%20BELLAIRE%20BLVD%2C+HOUSTON%2C+TX+77036,
WALGREEN CO.,7802 WURZBACH ROAD,"SAN ANTONIO, TX 78229",http://maps.google.com/maps?q=WALGREEN%20CO%2C7802%20WURZBACH%20ROAD%2C+SAN%20ANTONIO%2C+TX+78229,
WALGREEN CO.,8206 HIGHWAY 6 NORTH,"HOUSTON, TX 77095",http://maps.google.com/maps?q=WALGREEN%20CO%2C8206%20HIGHWAY%206%20NORTH%2C+HOUSTON%2C+TX+77095,
WALGREEN CO.,9101 WOODWAY DRIVE,"WOODWAY, TX 76712",http://maps.google.com/maps?q=WALGREEN%20CO%2C9101%20WOODWAY%20DRIVE%2C+WOODWAY%2C+TX+76712,
WALGREEN CO.,9307 N LAMAR BLVD,"AUSTIN, TX 78753",http://maps.google.com/maps?q=WALGREEN%20CO%2C9307%20N%20LAMAR%20BLVD%2C+AUSTIN%2C+TX+78753,
WALGREEN CO.,9801 MANCHACA RD.,"AUSTIN, TX 78748",http://maps.google.com/maps?q=WALGREEN%20CO%2C9801%20MANCHACA%20RD.%2C+AUSTIN%2C+TX+78748,
WALGREEN CO.,9810 S. MASON RD.,"RICHMOND, TX 77406",http://maps.google.com/maps?q=WALGREEN%20CO%2C9810%20S.%20MASON%20RD.%2C+RICHMOND%2C+TX+77406,
"WALGREEN LOUISIANA CO., INC.",1021 BEGLIS PKWY,"SULPHUR, LA 70663",http://maps.google.com/maps?q=WALGREEN%20LOUISIANA%20CO%20INC%2C1021%20BEGLIS%20PKWY%2C+SULPHUR%2C+LA+70663,
"WALGREEN LOUISIANA CO., INC.",120 N HIGHWAY 171,"MOSS BLUFF, LA 70611",http://maps.google.com/maps?q=WALGREEN%20LOUISIANA%20CO%20INC%2C120%20N%20HIGHWAY%20171%2C+MOSS%20BLUFF%2C+LA+70611,
"WALGREEN LOUISIANA CO., INC.",2636 RYAN ST,"LAKE CHARLES, LA 70601",http://maps.google.com/maps?q=WALGREEN%20LOUISIANA%20CO%20INC%2C2636%20RYAN%20ST%2C+LAKE%20CHARLES%2C+LA+70601,
"WALGREEN LOUISIANA CO., INC.",4097 RYAN ST,"LAKE CHARLES, LA 70605",http://maps.google.com/maps?q=WALGREEN%20LOUISIANA%20CO%20INC%2C4097%20RYAN%20ST%2C+LAKE%20CHARLES%2C+LA+70605,
