Business Name,Address 1,Address 2,"City, State Zip",Map URL
ACV COMMUNITY SERVICES LLC,10820 MARVIN JONES BLVD,"DOWLING PARK, FL 32060",http://maps.google.com/maps?q=ACV%20COMMUNITY%20SERVICES%20LLC%2C10820%20MARVIN%20JONES%20BLVD%2C+DOWLING%20PARK%2C+FL+32060,
AIDS HEALTHCARE FOUNDATION,2 SHIRCLIFF WAY STE 900,DE PAUL BUILDING,"JACKSONVILLE, FL 32204",http://maps.google.com/maps?q=AIDS%20HEALTHCARE%20FOUNDATION%2C2%20SHIRCLIFF%20WAY%20STE%20900%2C+JACKSONVILLE%2C+FL+32204
"ANGUS LAKE HEALTHCARE, LLC",242 MILLEDGEVILLE ROAD,"GORDON, GA 31031",http://maps.google.com/maps?q=ANGUS%20LAKE%20HEALTHCARE%20LLC%2C242%20MILLEDGEVILLE%20ROAD%2C+GORDON%2C+GA+31031,
AU MEDICAL CENTER INPATIENT PHARMACY,1120 15TH ST RM BI-2101,SUPPLY ADMINISTRATION/PURCHASING(HS),"AUGUSTA, GA 30912",http://maps.google.com/maps?q=AU%20MEDICAL%20CENTER%20INPATIENT%20PHARMACY%2C1120%2015TH%20ST%20RM%20BI-2101%2C+AUGUSTA%2C+GA+30912
BARNES PHARMACY,694 SOUTH MAIN STREET,"BAXLEY, GA 31513",http://maps.google.com/maps?q=BARNES%20PHARMACY%2C694%20SOUTH%20MAIN%20STREET%2C+BAXLEY%2C+GA+31513,
BARNEY'S PHARMACY,2604 PEACH ORCHARD RD,"AUGUSTA, GA 30906",http://maps.google.com/maps?q=BARNEYS%20PHARMACY%2C2604%20PEACH%20ORCHARD%20RD%2C+AUGUSTA%2C+GA+30906,
BEAUFORT-JASPER COMPREHENSIVE HEALTH SERVICES,6315 JONATHAN FRANCIS SR ROAD,"SAINT HELENA ISLAND, SC 29920",http://maps.google.com/maps?q=BEAUFORTJASPER%20COMPREHENSIVE%20HEALTH%20SERVICES%2C6315%20JONATHAN%20FRANCIS%20SR%20ROAD%2C+SAINT%20HELENA%20ISLAND%2C+SC+29920,
BEAUFORT-JASPER COMPREHENSIVE HEALTH SERVICES,721 OKATIE HIGHWAY,P O BOX 357,"RIDGELAND, SC 29936",http://maps.google.com/maps?q=BEAUFORTJASPER%20COMPREHENSIVE%20HEALTH%20SERVICES%2C721%20OKATIE%20HIGHWAY%2C+RIDGELAND%2C+SC+29936
BENZER FL6 LLC,6132 MERRILL RD STE 12,"JACKSONVILLE, FL 32277",http://maps.google.com/maps?q=BENZER%20FL%20LLC%2C6132%20MERRILL%20RD%20STE%2012%2C+JACKSONVILLE%2C+FL+32277,
BENZER GA3 LLC,257 MAIN ST.,"LOGANVILLE, GA 30052",http://maps.google.com/maps?q=BENZER%20GA%20LLC%2C257%20MAIN%20ST.%2C+LOGANVILLE%2C+GA+30052,
CARE PLUS PHARMACY LLC,1665 HIGHWAY 34E,SUITE 100,"NEWNAN, GA 30265",http://maps.google.com/maps?q=CARE%20PLUS%20PHARMACY%20LLC%2C1665%20HIGHWAY%2034E%2C+NEWNAN%2C+GA+30265
"CARECENTER PHARMACY, L.L.C.",1 COCA COLA PLZ NW,"ATLANTA, GA 30313",http://maps.google.com/maps?q=CARECENTER%20PHARMACY%20LLC%2C1%20COCA%20COLA%20PLZ%20NW%2C+ATLANTA%2C+GA+30313,
CAROLINA PHARMACY OF THE LOWCOUNTRY,810 ELM STREET EAST,"HAMPTON, SC 29924",http://maps.google.com/maps?q=CAROLINA%20PHARMACY%20OF%20THE%20LOWCOUNTRY%2C810%20ELM%20STREET%20EAST%2C+HAMPTON%2C+SC+29924,
CITY DRUG STORE,"ALLMOND & WHIPPLE, INC",1704 MEADOWS LANE,"VIDALIA, GA 30474",http://maps.google.com/maps?q=CITY%20DRUG%20STORE%2CALLMOND%20&%20WHIPPLE%2C%20INC%2C+VIDALIA%2C+GA+30474
"CROSSROADS HEALTHCARE, LLC",867 LEE ROAD 248,"SMITHS STATION, AL 36877",http://maps.google.com/maps?q=CROSSROADS%20HEALTHCARE%20LLC%2C867%20LEE%20ROAD%20248%2C+SMITHS%20STATION%2C+AL+36877,
DENNARD'S LTC,804 SECOND STREET,"SOPERTON, GA 30457",http://maps.google.com/maps?q=DENNARDS%20LTC%2C804%20SECOND%20STREET%2C+SOPERTON%2C+GA+30457,
DUKES LINDER,FRANKLIN M. LINDER,373 WASHINGTON ST,"WALTERBORO, SC 29488",http://maps.google.com/maps?q=DUKES%20LINDER%2CFRANKLIN%20M.%20LINDER%2C+WALTERBORO%2C+SC+29488
EAMC-LANIER,4800 48TH STREET,PO BOX 348,"VALLEY, AL 36854",http://maps.google.com/maps?q=EAMCLANIER%2C4800%2048TH%20STREET%2C+VALLEY%2C+AL+36854
ELDER CARE PHARMACY #2,4769 S. MAIN STREET,SUITE A,"ACWORTH, GA 30101",http://maps.google.com/maps?q=ELDER%20CARE%20PHARMACY%2C4769%20S.%20MAIN%20STREET%2C+ACWORTH%2C+GA+30101
ELDER-CARE PHARMACY,SUITE A,PO BOX 997,"HAWKINSVILLE, GA 31036",http://maps.google.com/maps?q=ELDERCARE%20PHARMACY%2CSUITE%20A%2C+HAWKINSVILLE%2C+GA+31036
ELDER-CARE PHARMACY-AUGUSTA,4315 BELAIR FRONTAGE ROAD,"AUGUSTA, GA 30909",http://maps.google.com/maps?q=ELDERCARE%20PHARMACYAUGUSTA%2C4315%20BELAIR%20FRONTAGE%20ROAD%2C+AUGUSTA%2C+GA+30909,
GAYCO HEALTHCARE,507 INDUSTRIAL BLVD,"DUBLIN, GA 31021",http://maps.google.com/maps?q=GAYCO%20HEALTHCARE%2C507%20INDUSTRIAL%20BLVD%2C+DUBLIN%2C+GA+31021,
"GEORGIA CVS PHARMACY, L.L.C.",100 OAK ST,"BOWDON, GA 30108",http://maps.google.com/maps?q=GEORGIA%20CVS%20PHARMACY%20LLC%2C100%20OAK%20ST%2C+BOWDON%2C+GA+30108,
"GEORGIA CVS PHARMACY, L.L.C.",103 JESSE JEWEL PARKWAY,"GAINESVILLE, GA 30501",http://maps.google.com/maps?q=GEORGIA%20CVS%20PHARMACY%20LLC%2C103%20JESSE%20JEWEL%20PARKWAY%2C+GAINESVILLE%2C+GA+30501,
"GEORGIA CVS PHARMACY, L.L.C.",1271 GRAY HIGHWAY,"MACON, GA 31211",http://maps.google.com/maps?q=GEORGIA%20CVS%20PHARMACY%20LLC%2C1271%20GRAY%20HIGHWAY%2C+MACON%2C+GA+31211,
"GEORGIA CVS PHARMACY, L.L.C.",1520 WALTON WAY,"AUGUSTA, GA 30904",http://maps.google.com/maps?q=GEORGIA%20CVS%20PHARMACY%20LLC%2C1520%20WALTON%20WAY%2C+AUGUSTA%2C+GA+30904,
"GEORGIA CVS PHARMACY, L.L.C.",1541 GEORGIA HIGHWAY 20,"CONYERS, GA 30012",http://maps.google.com/maps?q=GEORGIA%20CVS%20PHARMACY%20LLC%2C1541%20GEORGIA%20HIGHWAY%2020%2C+CONYERS%2C+GA+30012,
"GEORGIA CVS PHARMACY, L.L.C.",1600 TOWN LAKE PARKWAY,"WOODSTOCK, GA 30189",http://maps.google.com/maps?q=GEORGIA%20CVS%20PHARMACY%20LLC%2C1600%20TOWN%20LAKE%20PARKWAY%2C+WOODSTOCK%2C+GA+30189,
"GEORGIA CVS PHARMACY, L.L.C.",1905 MARTHA BERRY BLVD,"ROME, GA 30165",http://maps.google.com/maps?q=GEORGIA%20CVS%20PHARMACY%20LLC%2C1905%20MARTHA%20BERRY%20BLVD%2C+ROME%2C+GA+30165,
"GEORGIA CVS PHARMACY, L.L.C.",22 UPPER RIVERDALE ROAD,"RIVERDALE, GA 30274",http://maps.google.com/maps?q=GEORGIA%20CVS%20PHARMACY%20LLC%2C22%20UPPER%20RIVERDALE%20ROAD%2C+RIVERDALE%2C+GA+30274,
"GEORGIA CVS PHARMACY, L.L.C.",2205 N ASHLEY ST,"VALDOSTA, GA 31602",http://maps.google.com/maps?q=GEORGIA%20CVS%20PHARMACY%20LLC%2C2205%20N%20ASHLEY%20ST%2C+VALDOSTA%2C+GA+31602,
"GEORGIA CVS PHARMACY, L.L.C.",2738 NORTH DECATUR ROAD,"DECATUR, GA 30033",http://maps.google.com/maps?q=GEORGIA%20CVS%20PHARMACY%20LLC%2C2738%20NORTH%20DECATUR%20ROAD%2C+DECATUR%2C+GA+30033,
"GEORGIA CVS PHARMACY, L.L.C.",2782 NORTH COBB PARKWAY,"KENNESAW, GA 30152",http://maps.google.com/maps?q=GEORGIA%20CVS%20PHARMACY%20LLC%2C2782%20NORTH%20COBB%20PARKWAY%2C+KENNESAW%2C+GA+30152,
"GEORGIA CVS PHARMACY, L.L.C.",2830 N. DRUID HILLS RD. NE,"ATLANTA, GA 30329",http://maps.google.com/maps?q=GEORGIA%20CVS%20PHARMACY%20LLC%2C2830%20N.%20DRUID%20HILLS%20RD.%20NE%2C+ATLANTA%2C+GA+30329,
"GEORGIA CVS PHARMACY, L.L.C.",2902 PEACH ORCHARD ROAD,"AUGUSTA, GA 30906",http://maps.google.com/maps?q=GEORGIA%20CVS%20PHARMACY%20LLC%2C2902%20PEACH%20ORCHARD%20ROAD%2C+AUGUSTA%2C+GA+30906,
"GEORGIA CVS PHARMACY, L.L.C.",300 MORGAN STREET,"LA GRANGE, GA 30241",http://maps.google.com/maps?q=GEORGIA%20CVS%20PHARMACY%20LLC%2C300%20MORGAN%20STREET%2C+LA%20GRANGE%2C+GA+30241,
"GEORGIA CVS PHARMACY, L.L.C.",3617 HILTON AVE.,"COLUMBUS, GA 31904",http://maps.google.com/maps?q=GEORGIA%20CVS%20PHARMACY%20LLC%2C3617%20HILTON%20AVE.%2C+COLUMBUS%2C+GA+31904,
"GEORGIA CVS PHARMACY, L.L.C.",4183 HWY 278 NE,"COVINGTON, GA 30014",http://maps.google.com/maps?q=GEORGIA%20CVS%20PHARMACY%20LLC%2C4183%20HWY%20278%20NE%2C+COVINGTON%2C+GA+30014,
"GEORGIA CVS PHARMACY, L.L.C.",4717-C E HWY 80,"SAVANNAH, GA 31410",http://maps.google.com/maps?q=GEORGIA%20CVS%20PHARMACY%20LLC%2C4717-C%20E%20HWY%2080%2C+SAVANNAH%2C+GA+31410,
"GEORGIA CVS PHARMACY, L.L.C.",4725 WATERS AVE,"SAVANNAH, GA 31404",http://maps.google.com/maps?q=GEORGIA%20CVS%20PHARMACY%20LLC%2C4725%20WATERS%20AVE%2C+SAVANNAH%2C+GA+31404,
"GEORGIA CVS PHARMACY, L.L.C.",495 CHARLES HARDY PKWY,"DALLAS, GA 30157",http://maps.google.com/maps?q=GEORGIA%20CVS%20PHARMACY%20LLC%2C495%20CHARLES%20HARDY%20PKWY%2C+DALLAS%2C+GA+30157,
"GEORGIA CVS PHARMACY, L.L.C.",620 WEST PIKE STREET,"LAWRENCEVILLE, GA 30046",http://maps.google.com/maps?q=GEORGIA%20CVS%20PHARMACY%20LLC%2C620%20WEST%20PIKE%20STREET%2C+LAWRENCEVILLE%2C+GA+30046,
"GEORGIA CVS PHARMACY, L.L.C.",736 HWY 78 WEST,"VILLA RICA, GA 30180",http://maps.google.com/maps?q=GEORGIA%20CVS%20PHARMACY%20LLC%2C736%20HWY%2078%20WEST%2C+VILLA%20RICA%2C+GA+30180,
"GEORGIA CVS PHARMACY, L.L.C.","895 RALPH ABERNATHY BLVD., SW","ATLANTA, GA 30310",http://maps.google.com/maps?q=GEORGIA%20CVS%20PHARMACY%20LLC%2C895%20RALPH%20ABERNATHY%20BLVD.%2C%20SW%2C+ATLANTA%2C+GA+30310,
"GEORGIA CVS PHARMACY, L.L.C.",965 JOE FRANK HARRIS PKWY SE,"CARTERSVILLE, GA 30120",http://maps.google.com/maps?q=GEORGIA%20CVS%20PHARMACY%20LLC%2C965%20JOE%20FRANK%20HARRIS%20PKWY%20SE%2C+CARTERSVILLE%2C+GA+30120,
GUARDIAN PHARMACY OF JACKSONVILLE,8001 BELFORT PKWY,SUITE 160,"JACKSONVILLE, FL 32256",http://maps.google.com/maps?q=GUARDIAN%20PHARMACY%20OF%20JACKSONVILLE%2C8001%20BELFORT%20PKWY%2C+JACKSONVILLE%2C+FL+32256
"HOLIDAY CVS, L.L.C.",1190 DUNN AVE,"JACKSONVILLE, FL 32218",http://maps.google.com/maps?q=HOLIDAY%20CVS%20LLC%2C1190%20DUNN%20AVE%2C+JACKSONVILLE%2C+FL+32218,
"HOLIDAY CVS, L.L.C.",5999 NORMANDY BLVD,"JACKSONVILLE, FL 32205",http://maps.google.com/maps?q=HOLIDAY%20CVS%20LLC%2C5999%20NORMANDY%20BLVD%2C+JACKSONVILLE%2C+FL+32205,
KAISER PANOLA MED OFFICE PHARMACY,PANOLA MEDICAL OFFICE PHARMACY,5440 HILLANDALE DRIVE,"LITHONIA, GA 30058",http://maps.google.com/maps?q=KAISER%20PANOLA%20MED%20OFFICE%20PHARMACY%2CPANOLA%20MEDICAL%20OFFICE%20PHARMACY%2C+LITHONIA%2C+GA+30058
KAISER PERMANENTE ATHENS,"2142 W. BROAD STREET, BUILDING 200","ATHENS, GA 30606",http://maps.google.com/maps?q=KAISER%20PERMANENTE%20ATHENS%2C2142%20W.%20BROAD%20STREET%2C%20BUILDING%20200%2C+ATHENS%2C+GA+30606,
KAISER PERMANENTE CRESCENT CENTRE,CRESCENT CENTRE CENTRAL PHCY,200 CRESCENT CENTRE PARKWAY,"TUCKER, GA 30084",http://maps.google.com/maps?q=KAISER%20PERMANENTE%20CRESCENT%20CENTRE%2CCRESCENT%20CENTRE%20CENTRAL%20PHCY%2C+TUCKER%2C+GA+30084
KAISER PERMANENTE CUMBERLAND,CUMBERLAND MED OFFICE PHARMACY,2525 CUMBERLAND PARKWAY,"ATLANTA, GA 30339",http://maps.google.com/maps?q=KAISER%20PERMANENTE%20CUMBERLAND%2CCUMBERLAND%20MED%20OFFICE%20PHARMACY%2C+ATLANTA%2C+GA+30339
KAISER PERMANENTE FORSYTH PHARMACY,1400 NORTHSIDE FORSYTH DR. SUITE 350,"CUMMING, GA 30041",http://maps.google.com/maps?q=KAISER%20PERMANENTE%20FORSYTH%20PHARMACY%2C1400%20NORTHSIDE%20FORSYTH%20DR.%20SUITE%20350%2C+CUMMING%2C+GA+30041,
KAISER PERMANENTE GLENLAKE MED OFFICE,GLENLAKE MEDICAL OFFICE PHCY.,20 GLENLAKE PARKWAY,"ATLANTA, GA 30328",http://maps.google.com/maps?q=KAISER%20PERMANENTE%20GLENLAKE%20MED%20OFFICE%2CGLENLAKE%20MEDICAL%20OFFICE%20PHCY.%2C+ATLANTA%2C+GA+30328
KAISER PERMANENTE GWINNETT,3650 STEVE REYNOLDS BLVD,"DULUTH, GA 30096",http://maps.google.com/maps?q=KAISER%20PERMANENTE%20GWINNETT%2C3650%20STEVE%20REYNOLDS%20BLVD%2C+DULUTH%2C+GA+30096,
KAISER PERMANENTE SANDY SPRINGS PHARMACY,1100 LAKE HEARN DRIVE NE,"ATLANTA, GA 30342",http://maps.google.com/maps?q=KAISER%20PERMANENTE%20SANDY%20SPRINGS%20PHARMACY%2C1100%20LAKE%20HEARN%20DRIVE%20NE%2C+ATLANTA%2C+GA+30342,
KAISER PERMANENTE STONECREST,MEDICAL CENTER PHARMACY,8011 MALL PARKWAY,"LITHONIA, GA 30038",http://maps.google.com/maps?q=KAISER%20PERMANENTE%20STONECREST%2CMEDICAL%20CENTER%20PHARMACY%2C+LITHONIA%2C+GA+30038
KAISER PERMANENTE SUGAR HILL - BUFORD,MEDICAL CENTER PHARMACY,1435 BROADMOOR BOULEVARD,"SUGAR HILL, GA 30518",http://maps.google.com/maps?q=KAISER%20PERMANENTE%20SUGAR%20HILL%20%20BUFORD%2CMEDICAL%20CENTER%20PHARMACY%2C+SUGAR%20HILL%2C+GA+30518
KAISER PERMANENTE TOWNPARK,TOWNPARK MEDICAL OFFICE PHCY,750 TOWNPARK LANE,"KENNESAW, GA 30144",http://maps.google.com/maps?q=KAISER%20PERMANENTE%20TOWNPARK%2CTOWNPARK%20MEDICAL%20OFFICE%20PHCY%2C+KENNESAW%2C+GA+30144
KAISER PERMANENTE WEST COBB,3640 TRAMORE POINT PARKWAY,ATTN: PHARMACY,"AUSTELL, GA 30106",http://maps.google.com/maps?q=KAISER%20PERMANENTE%20WEST%20COBB%2C3640%20TRAMORE%20POINT%20PARKWAY%2C+AUSTELL%2C+GA+30106
"LONGS DRUGS OF RIDGELAND, SC, INC",7752 WEST MAIN STREET,P.O. BOX 2188,"RIDGELAND, SC 29936",http://maps.google.com/maps?q=LONGS%20DRUGS%20OF%20RIDGELAND%20SC%20INC%2C7752%20WEST%20MAIN%20STREET%2C+RIDGELAND%2C+SC+29936
METTER PHARMACY,705 SOUTH LEWIS STREET,"METTER, GA 30439",http://maps.google.com/maps?q=METTER%20PHARMACY%2C705%20SOUTH%20LEWIS%20STREET%2C+METTER%2C+GA+30439,
MIDDLE FLINT BEHAVIORAL HEALTHCARE PHARMACY,415 NORTH JACKSON STREET,"AMERICUS, GA 31709",http://maps.google.com/maps?q=MIDDLE%20FLINT%20BEHAVIORAL%20HEALTHCARE%20PHARMACY%2C415%20NORTH%20JACKSON%20STREET%2C+AMERICUS%2C+GA+31709,
MOUNTAINVIEW PHARMACY,1275 POWERS FERRY RD SE,SUITE 170,"MARIETTA, GA 30067",http://maps.google.com/maps?q=MOUNTAINVIEW%20PHARMACY%2C1275%20POWERS%20FERRY%20RD%20SE%2C+MARIETTA%2C+GA+30067
PALLIATIVE PHARMACY SOLUTIONS,2338-2340 MAIN ST,"TUCKER, GA 30084",http://maps.google.com/maps?q=PALLIATIVE%20PHARMACY%20SOLUTIONS%2C2338-2340%20MAIN%20ST%2C+TUCKER%2C+GA+30084,
PREMIER DRUGSTORE,8446 CAMPBELLTON ST,"DOUGLASVILLE, GA 30134",http://maps.google.com/maps?q=PREMIER%20DRUGSTORE%2C8446%20CAMPBELLTON%20ST%2C+DOUGLASVILLE%2C+GA+30134,
RIVERSIDE PHARMACY,935 GREEN ST,"GAINESVILLE, GA 30501",http://maps.google.com/maps?q=RIVERSIDE%20PHARMACY%2C935%20GREEN%20ST%2C+GAINESVILLE%2C+GA+30501,
RIVERWOODS BEHAVIORAL HLTH SYSTEM,223 MEDICAL CENTER DRIVE,"RIVERDALE, GA 30274",http://maps.google.com/maps?q=RIVERWOODS%20BEHAVIORAL%20HLTH%20SYSTEM%2C223%20MEDICAL%20CENTER%20DRIVE%2C+RIVERDALE%2C+GA+30274,
"RURAL HEALTH CARE, INC",1305 N ORANGE AVE,SUITE 120-123,"GREEN COVE SPRINGS, FL 32043",http://maps.google.com/maps?q=RURAL%20HEALTH%20CARE%20INC%2C1305%20N%20ORANGE%20AVE%2C+GREEN%20COVE%20SPRINGS%2C+FL+32043
SETON PHARMACY,"1 SHIRCLIFF WAY, ROOM 1734","JACKSONVILLE, FL 32204",http://maps.google.com/maps?q=SETON%20PHARMACY%2C1%20SHIRCLIFF%20WAY%2C%20ROOM%201734%2C+JACKSONVILLE%2C+FL+32204,
"SETON PHARMACY, INC",4205 BELFORT ROAD,SUITE# 1003,"JACKSONVILLE, FL 32216",http://maps.google.com/maps?q=SETON%20PHARMACY%20INC%2C4205%20BELFORT%20ROAD%2C+JACKSONVILLE%2C+FL+32216
"SHARPCO, INC.",D/B/A U SAVE IT PHARMACY COMMERCE,1751 N. ELM ST.,"COMMERCE, GA 30529",http://maps.google.com/maps?q=SHARPCO%20INC%2CD/B/A%20U%20SAVE%20IT%20PHARMACY%20COMMERCE%2C+COMMERCE%2C+GA+30529
SMART PHARMACY INC,14003 BEACH BLVD SUITE #1,"JACKSONVILLE, FL 32250",http://maps.google.com/maps?q=SMART%20PHARMACY%20INC%2C14003%20BEACH%20BLVD%20SUITE%20#1%2C+JACKSONVILLE%2C+FL+32250,
"TRENTON MEDICAL CENTER, INC.",103 US HIGHWAY 27 SW,"BRANFORD, FL 32008",http://maps.google.com/maps?q=TRENTON%20MEDICAL%20CENTER%20INC%2C103%20US%20HIGHWAY%2027%20SW%2C+BRANFORD%2C+FL+32008,
"U-SAVE-IT PHARMACY, INC",202 GUNN ROAD,"CENTERVILLE, GA 31028",http://maps.google.com/maps?q=USAVEIT%20PHARMACY%20INC%2C202%20GUNN%20ROAD%2C+CENTERVILLE%2C+GA+31028,
U-SAVE-IT PHARMACY-PALMYRA,#2,2112 PALMYRA RD,"ALBANY, GA 31701",http://maps.google.com/maps?q=USAVEIT%20PHARMACYPALMYRA%2C#2%2C+ALBANY%2C+GA+31701
UNIVERSITY HEALTH CENTER,55 CARLTON ST,"ATHENS, GA 30602",http://maps.google.com/maps?q=UNIVERSITY%20HEALTH%20CENTER%2C55%20CARLTON%20ST%2C+ATHENS%2C+GA+30602,
US  ARMY TUTTLE HEALTH CLINIC,ATTN: PHARMACY SERVICE,"230 DUNCAN DR, BLDG 1440","HUNTER AAF, GA 31409",http://maps.google.com/maps?q=US%20%20ARMY%20TUTTLE%20HEALTH%20CLINIC%2CATTN%3A%20PHARMACY%20SERVICE%2C+HUNTER%20AAF%2C+GA+31409
US ARMY-CONNELLY HEALTH CLINIC PHARMACY,AVENUE B BUILDING 29709,ROOM 1F107,"FORT GORDON, GA 30905",http://maps.google.com/maps?q=US%20ARMYCONNELLY%20HEALTH%20CLINIC%20PHARMACY%2CAVENUE%20B%20BUILDING%2029709%2C+FORT%20GORDON%2C+GA+30905
US ARMY-PX REFILL PHARMACY,35200 3RD AVE,BUILDING 38200,"FORT GORDON, GA 30905",http://maps.google.com/maps?q=US%20ARMYPX%20REFILL%20PHARMACY%2C35200%203RD%20AVE%2C+FORT%20GORDON%2C+GA+30905
"USAF, MOODY AFB, FM4830",MOODY AFB,3278 MITCHELL BLVD,"MOODY AFB, GA 31699",http://maps.google.com/maps?q=USAF%20MOODY%20AFB%20FM%2CMOODY%20AFB%2C+MOODY%20AFB%2C+GA+31699
USAF- ROBINS AFB HOSPITAL,655 7TH ST BLDG 700,"ROBINS AFB, GA 31098",http://maps.google.com/maps?q=USAF%20ROBINS%20AFB%20HOSPITAL%2C655%207TH%20ST%20BLDG%20700%2C+ROBINS%20AFB%2C+GA+31098,
USN - NAVAL HOSPITAL,ATTENTION: PHARMACY DEPARTMENT,1 PINCKNEY BOULEVARD,"BEAUFORT, SC 29902",http://maps.google.com/maps?q=USN%20%20NAVAL%20HOSPITAL%2CATTENTION%3A%20PHARMACY%20DEPARTMENT%2C+BEAUFORT%2C+SC+29902
USN- NAVAL AMBULATORY CARE CENTER,ATTN: PHARMACY DEPT,881 USS JAMES MADISON ROAD,"KINGS BAY, GA 31547",http://maps.google.com/maps?q=USN%20NAVAL%20AMBULATORY%20CARE%20CENTER%2CATTN%3A%20PHARMACY%20DEPT%2C+KINGS%20BAY%2C+GA+31547
USN- NAVAL HOSPITAL,2080 CHILD ST DEPT 5502,HEAD PHARMACY DEPT,"JACKSONVILLE, FL 32214",http://maps.google.com/maps?q=USN%20NAVAL%20HOSPITAL%2C2080%20CHILD%20ST%20DEPT%205502%2C+JACKSONVILLE%2C+FL+32214
USN- NAVAL HOSPITAL,NAVY EXCHANGE PHARMACY,BLDG 950,"JACKSONVILLE, FL 32214",http://maps.google.com/maps?q=USN%20NAVAL%20HOSPITAL%2CNAVY%20EXCHANGE%20PHARMACY%2C+JACKSONVILLE%2C+FL+32214
"VILLAGE PHARMACY, INC.",3697 HWY 5,SUITE 6,"DOUGLASVILLE, GA 30135",http://maps.google.com/maps?q=VILLAGE%20PHARMACY%20INC%2C3697%20HWY%205%2C+DOUGLASVILLE%2C+GA+30135
WALGREEN CO,1081 GA HIGHWAY 96,"WARNER ROBINS, GA 31088",http://maps.google.com/maps?q=WALGREEN%20CO%2C1081%20GA%20HIGHWAY%2096%2C+WARNER%20ROBINS%2C+GA+31088,
WALGREEN CO,138 OKATIE CENTER BLVD S,"OKATIE, SC 29909",http://maps.google.com/maps?q=WALGREEN%20CO%2C138%20OKATIE%20CENTER%20BLVD%20S%2C+OKATIE%2C+SC+29909,
WALGREEN CO,2060 HIGHWAY 40 E,"KINGSLAND, GA 31548",http://maps.google.com/maps?q=WALGREEN%20CO%2C2060%20HIGHWAY%2040%20E%2C+KINGSLAND%2C+GA+31548,
WALGREEN CO,2414 SYLVESTER RD,"ALBANY, GA 31705",http://maps.google.com/maps?q=WALGREEN%20CO%2C2414%20SYLVESTER%20RD%2C+ALBANY%2C+GA+31705,
WALGREEN CO,634 N. CHURCH STREET,"THOMASTON, GA 30286",http://maps.google.com/maps?q=WALGREEN%20CO%2C634%20N.%20CHURCH%20STREET%2C+THOMASTON%2C+GA+30286,
WALGREEN CO.,10 EAST MAY STREET,"WINDER, GA 30680",http://maps.google.com/maps?q=WALGREEN%20CO%2C10%20EAST%20MAY%20STREET%2C+WINDER%2C+GA+30680,
WALGREEN CO.,102 RUSSELL PKWY,"WARNER ROBINS, GA 31088",http://maps.google.com/maps?q=WALGREEN%20CO%2C102%20RUSSELL%20PKWY%2C+WARNER%20ROBINS%2C+GA+31088,
WALGREEN CO.,120 MARIETTA HIGHWAY,"CANTON, GA 30114",http://maps.google.com/maps?q=WALGREEN%20CO%2C120%20MARIETTA%20HIGHWAY%2C+CANTON%2C+GA+30114,
WALGREEN CO.,1280 GRAY HWY,"MACON, GA 31211",http://maps.google.com/maps?q=WALGREEN%20CO%2C1280%20GRAY%20HWY%2C+MACON%2C+GA+31211,
WALGREEN CO.,1510 MILSTEAD AVE NE,"CONYERS, GA 30012",http://maps.google.com/maps?q=WALGREEN%20CO%2C1510%20MILSTEAD%20AVE%20NE%2C+CONYERS%2C+GA+30012,
WALGREEN CO.,1515 OHIO AVE S,"LIVE OAK, FL 32064",http://maps.google.com/maps?q=WALGREEN%20CO%2C1515%20OHIO%20AVE%20S%2C+LIVE%20OAK%2C+FL+32064,
WALGREEN CO.,1565 COUNTY ROAD 220,"ORANGE PARK, FL 32003",http://maps.google.com/maps?q=WALGREEN%20CO%2C1565%20COUNTY%20ROAD%20220%2C+ORANGE%20PARK%2C+FL+32003,
WALGREEN CO.,1801 N DAVIS ST,"JACKSONVILLE, FL 32209",http://maps.google.com/maps?q=WALGREEN%20CO%2C1801%20N%20DAVIS%20ST%2C+JACKSONVILLE%2C+FL+32209,
WALGREEN CO.,1855 HUDSON BRIDGE RD,"STOCKBRIDGE, GA 30281",http://maps.google.com/maps?q=WALGREEN%20CO%2C1855%20HUDSON%20BRIDGE%20RD%2C+STOCKBRIDGE%2C+GA+30281,
WALGREEN CO.,1880 WATSON BLVD,"WARNER ROBINS, GA 31093",http://maps.google.com/maps?q=WALGREEN%20CO%2C1880%20WATSON%20BLVD%2C+WARNER%20ROBINS%2C+GA+31093,
WALGREEN CO.,205 WEST MADISON STREET,"STARKE, FL 32091",http://maps.google.com/maps?q=WALGREEN%20CO%2C205%20WEST%20MADISON%20STREET%2C+STARKE%2C+FL+32091,
WALGREEN CO.,2094 W US HIGHWAY 90,"LAKE CITY, FL 32055",http://maps.google.com/maps?q=WALGREEN%20CO%2C2094%20W%20US%20HIGHWAY%2090%2C+LAKE%20CITY%2C+FL+32055,
WALGREEN CO.,2270 US HIGHWAY 17,"RICHMOND HILL, GA 31324",http://maps.google.com/maps?q=WALGREEN%20CO%2C2270%20US%20HIGHWAY%2017%2C+RICHMOND%20HILL%2C+GA+31324,
WALGREEN CO.,2405 MAYPORT RD,"ATLANTIC BEACH, FL 32233",http://maps.google.com/maps?q=WALGREEN%20CO%2C2405%20MAYPORT%20RD%2C+ATLANTIC%20BEACH%2C+FL+32233,
WALGREEN CO.,2464 ROSWELL RD.,"MARIETTA, GA 30062",http://maps.google.com/maps?q=WALGREEN%20CO%2C2464%20ROSWELL%20RD.%2C+MARIETTA%2C+GA+30062,
WALGREEN CO.,2515 CRAWFORD ROAD,"PHENIX CITY, AL 36867",http://maps.google.com/maps?q=WALGREEN%20CO%2C2515%20CRAWFORD%20ROAD%2C+PHENIX%20CITY%2C+AL+36867,
WALGREEN CO.,2670 COBB PARKWAY SE,"SMYRNA, GA 30080",http://maps.google.com/maps?q=WALGREEN%20CO%2C2670%20COBB%20PARKWAY%20SE%2C+SMYRNA%2C+GA+30080,
WALGREEN CO.,2779 N COBB PARKWAY,"KENNESAW, GA 30152",http://maps.google.com/maps?q=WALGREEN%20CO%2C2779%20N%20COBB%20PARKWAY%2C+KENNESAW%2C+GA+30152,
WALGREEN CO.,2990 FIVE FORKS TRICKUM RD,"LAWRENCEVILLE, GA 30044",http://maps.google.com/maps?q=WALGREEN%20CO%2C2990%20FIVE%20FORKS%20TRICKUM%20RD%2C+LAWRENCEVILLE%2C+GA+30044,
WALGREEN CO.,3204 PEACH ORCHARD ROAD,"AUGUSTA, GA 30906",http://maps.google.com/maps?q=WALGREEN%20CO%2C3204%20PEACH%20ORCHARD%20ROAD%2C+AUGUSTA%2C+GA+30906,
WALGREEN CO.,3740 CASCADE RD SW,"ATLANTA, GA 30331",http://maps.google.com/maps?q=WALGREEN%20CO%2C3740%20CASCADE%20RD%20SW%2C+ATLANTA%2C+GA+30331,
WALGREEN CO.,3800 PRINCETON LAKES PKWY SW,"ATLANTA, GA 30331",http://maps.google.com/maps?q=WALGREEN%20CO%2C3800%20PRINCETON%20LAKES%20PKWY%20SW%2C+ATLANTA%2C+GA+30331,
WALGREEN CO.,406 ATLANTIC BLVD.,"NEPTUNE BEACH, FL 32266",http://maps.google.com/maps?q=WALGREEN%20CO%2C406%20ATLANTIC%20BLVD.%2C+NEPTUNE%20BEACH%2C+FL+32266,
WALGREEN CO.,4120 AUSTELL RD,"AUSTELL, GA 30106",http://maps.google.com/maps?q=WALGREEN%20CO%2C4120%20AUSTELL%20RD%2C+AUSTELL%2C+GA+30106,
WALGREEN CO.,4297 OLDFIELD CROSSING DR.,"JACKSONVILLE, FL 32223",http://maps.google.com/maps?q=WALGREEN%20CO%2C4297%20OLDFIELD%20CROSSING%20DR.%2C+JACKSONVILLE%2C+FL+32223,
WALGREEN CO.,4398 ATLANTA HWY,"LOGANVILLE, GA 30052",http://maps.google.com/maps?q=WALGREEN%20CO%2C4398%20ATLANTA%20HWY%2C+LOGANVILLE%2C+GA+30052,
WALGREEN CO.,5320 MEMORIAL DR,"STONE MOUNTAIN, GA 30083",http://maps.google.com/maps?q=WALGREEN%20CO%2C5320%20MEMORIAL%20DR%2C+STONE%20MOUNTAIN%2C+GA+30083,
WALGREEN CO.,5985 PEACHTREE PKWY,"NORCROSS, GA 30092",http://maps.google.com/maps?q=WALGREEN%20CO%2C5985%20PEACHTREE%20PKWY%2C+NORCROSS%2C+GA+30092,
WALGREEN CO.,6006 BEACH BLVD.,"JACKSONVILLE, FL 32216",http://maps.google.com/maps?q=WALGREEN%20CO%2C6006%20BEACH%20BLVD.%2C+JACKSONVILLE%2C+FL+32216,
WALGREEN CO.,700 EAST DERENNE AVE,"SAVANNAH, GA 31405",http://maps.google.com/maps?q=WALGREEN%20CO%2C700%20EAST%20DERENNE%20AVE%2C+SAVANNAH%2C+GA+31405,
WALGREEN CO.,701 MARTHA BERRY BLVD NW,"ROME, GA 30165",http://maps.google.com/maps?q=WALGREEN%20CO%2C701%20MARTHA%20BERRY%20BLVD%20NW%2C+ROME%2C+GA+30165,
WALGREEN CO.,7221 NORMANDY BLVD,"JACKSONVILLE, FL 32205",http://maps.google.com/maps?q=WALGREEN%20CO%2C7221%20NORMANDY%20BLVD%2C+JACKSONVILLE%2C+FL+32205,
WALGREEN CO.,7530 ROSWELL RD,"ATLANTA, GA 30350",http://maps.google.com/maps?q=WALGREEN%20CO%2C7530%20ROSWELL%20RD%2C+ATLANTA%2C+GA+30350,
WALGREEN CO.,794 SOUTH PARK ST,"CARROLLTON, GA 30117",http://maps.google.com/maps?q=WALGREEN%20CO%2C794%20SOUTH%20PARK%20ST%2C+CARROLLTON%2C+GA+30117,
WALGREEN CO.,860 A1A N,"PONTE VEDRA BEACH, FL 32082",http://maps.google.com/maps?q=WALGREEN%20CO%2C860%20A1A%20N%2C+PONTE%20VEDRA%20BEACH%2C+FL+32082,
WALGREEN CO.,898 HORIZON SOUTH PKWY,"GROVETOWN, GA 30813",http://maps.google.com/maps?q=WALGREEN%20CO%2C898%20HORIZON%20SOUTH%20PKWY%2C+GROVETOWN%2C+GA+30813,
YOUNG BROTHERS PHARMACY INC,2 WEST MAIN STREET,"CARTERSVILLE, GA 30120",http://maps.google.com/maps?q=YOUNG%20BROTHERS%20PHARMACY%20INC%2C2%20WEST%20MAIN%20STREET%2C+CARTERSVILLE%2C+GA+30120,
"HOLIDAY CVS, L.L.C.",5466 THOMASVILLE RD N,"TALLAHASSEE, FL 32312",http://maps.google.com/maps?q=HOLIDAY%20CVS%20LLC%2C5466%20THOMASVILLE%20RD%20N%2C+TALLAHASSEE%2C+FL+32312,
WALGREEN CO.,3531 THOMASVILLE ROAD,"TALLAHASSEE, FL 32309",http://maps.google.com/maps?q=WALGREEN%20CO%2C3531%20THOMASVILLE%20ROAD%2C+TALLAHASSEE%2C+FL+32309,
