Business Name,Address 1,Address 2,"City, State Zip",Map URL
BRIARGROVE PHARMACY,6435 SAN FELIPE,"HOUSTON, TX 77057",http://maps.google.com/maps?q=BRIARGROVE%20PHARMACY%2C6435%20SAN%20FELIPE%2C+HOUSTON%2C+TX+77057,
"CVS PHARMACY, INC.",117 OYSTER CREEK DR,"LAKE JACKSON, TX 77566",http://maps.google.com/maps?q=CVS%20PHARMACY%20INC%2C117%20OYSTER%20CREEK%20DR%2C+LAKE%20JACKSON%2C+TX+77566,
"CVS PHARMACY, INC.",1350 KINGWOOD DR,"KINGWOOD, TX 77339",http://maps.google.com/maps?q=CVS%20PHARMACY%20INC%2C1350%20KINGWOOD%20DR%2C+KINGWOOD%2C+TX+77339,
"CVS PHARMACY, INC.",1410 CRABB RIVER RD.,"RICHMOND, TX 77469",http://maps.google.com/maps?q=CVS%20PHARMACY%20INC%2C1410%20CRABB%20RIVER%20RD.%2C+RICHMOND%2C+TX+77469,
"CVS PHARMACY, INC.",24048 KUYKENDAHL RD.,"TOMBALL, TX 77375",http://maps.google.com/maps?q=CVS%20PHARMACY%20INC%2C24048%20KUYKENDAHL%20RD.%2C+TOMBALL%2C+TX+77375,
"CVS PHARMACY, INC.",24802 ALDINE WESTFIELD,"SPRING, TX 77373",http://maps.google.com/maps?q=CVS%20PHARMACY%20INC%2C24802%20ALDINE%20WESTFIELD%2C+SPRING%2C+TX+77373,
"CVS PHARMACY, INC.",26265 NORTHWEST FREEWAY,"CYPRESS, TX 77429",http://maps.google.com/maps?q=CVS%20PHARMACY%20INC%2C26265%20NORTHWEST%20FREEWAY%2C+CYPRESS%2C+TX+77429,
"CVS PHARMACY, INC.",2712 HIGHWAY 365,"NEDERLAND, TX 77627",http://maps.google.com/maps?q=CVS%20PHARMACY%20INC%2C2712%20HIGHWAY%20365%2C+NEDERLAND%2C+TX+77627,
"CVS PHARMACY, INC.",2900 BROADWAY ST.,"PEARLAND, TX 77581",http://maps.google.com/maps?q=CVS%20PHARMACY%20INC%2C2900%20BROADWAY%20ST.%2C+PEARLAND%2C+TX+77581,
"CVS PHARMACY, INC.",2950 DOWLEN RD.,"BEAUMONT, TX 77706",http://maps.google.com/maps?q=CVS%20PHARMACY%20INC%2C2950%20DOWLEN%20RD.%2C+BEAUMONT%2C+TX+77706,
"CVS PHARMACY, INC.",3505 CENTER ST.,"DEER PARK, TX 77536",http://maps.google.com/maps?q=CVS%20PHARMACY%20INC%2C3505%20CENTER%20ST.%2C+DEER%20PARK%2C+TX+77536,
"CVS PHARMACY, INC.",3850 FM 2920,"SPRING, TX 77388",http://maps.google.com/maps?q=CVS%20PHARMACY%20INC%2C3850%20FM%202920%2C+SPRING%2C+TX+77388,
"CVS PHARMACY, INC.",7214 FM 1960 E,"HUMBLE, TX 77346",http://maps.google.com/maps?q=CVS%20PHARMACY%20INC%2C7214%20FM%201960%20E%2C+HUMBLE%2C+TX+77346,
"CVS PHARMACY, INC.",910 W DAVIS ST,"CONROE, TX 77301",http://maps.google.com/maps?q=CVS%20PHARMACY%20INC%2C910%20W%20DAVIS%20ST%2C+CONROE%2C+TX+77301,
"CVS PHARMACY, INC.",9101 HWY 6 NORTH,"HOUSTON, TX 77095",http://maps.google.com/maps?q=CVS%20PHARMACY%20INC%2C9101%20HWY%206%20NORTH%2C+HOUSTON%2C+TX+77095,
EVOLUTION RX,931 ELDRIDGE RD,"SUGAR LAND, TX 77478",http://maps.google.com/maps?q=EVOLUTION%20RX%2C931%20ELDRIDGE%20RD%2C+SUGAR%20LAND%2C+TX+77478,
KING'S PHARMACY #4,DBA: L & J PHARMACIES INC,1948 9TH AVE,"PORT ARTHUR, TX 77642",http://maps.google.com/maps?q=KINGS%20PHARMACY%2CDBA%3A%20L%20&%20J%20PHARMACIES%20INC%2C+PORT%20ARTHUR%2C+TX+77642
KING'S PHARMACY-BEAUMONT,3610 NORTH MAJOR DRIVE,"BEAUMONT, TX 77713",http://maps.google.com/maps?q=KINGS%20PHARMACYBEAUMONT%2C3610%20NORTH%20MAJOR%20DRIVE%2C+BEAUMONT%2C+TX+77713,
MEDICINE SHOPPE #1145,800 S BROADWAY ST,"LA PORTE, TX 77571",http://maps.google.com/maps?q=MEDICINE%20SHOPPE%2C800%20S%20BROADWAY%20ST%2C+LA%20PORTE%2C+TX+77571,
MEMORIAL HERMANN HOSPTL SYSTM,PHARMACY DEPARTMENT,6411 FANNIN,"HOUSTON, TX 77030",http://maps.google.com/maps?q=MEMORIAL%20HERMANN%20HOSPTL%20SYSTM%2CPHARMACY%20DEPARTMENT%2C+HOUSTON%2C+TX+77030
PHARMHOUSE PHARMACY,4500 E. SAM HOUSTON PKWY S.,STE. 100,"PASADENA, TX 77505",http://maps.google.com/maps?q=PHARMHOUSE%20PHARMACY%2C4500%20E.%20SAM%20HOUSTON%20PKWY%20S.%2C+PASADENA%2C+TX+77505
PROSCRIPT AMERICA,4151 SOUTHWEST FREEWAY,SUITE 373,"HOUSTON, TX 77027",http://maps.google.com/maps?q=PROSCRIPT%20AMERICA%2C4151%20SOUTHWEST%20FREEWAY%2C+HOUSTON%2C+TX+77027
SPENCES MEDICAL CENTER PHARMACY,215 OAK DR SOUTH,SUITE M,"LAKE JACKSON, TX 77566",http://maps.google.com/maps?q=SPENCES%20MEDICAL%20CENTER%20PHARMACY%2C215%20OAK%20DR%20SOUTH%2C+LAKE%20JACKSON%2C+TX+77566
STUDENT HEALTH PHARMACY UNIVERSITY OF HOUSTON,4849 CALHOUN ROAD,RM 1211,"HOUSTON, TX 77204",http://maps.google.com/maps?q=STUDENT%20HEALTH%20PHARMACY%20UNIVERSITY%20OF%20HOUSTON%2C4849%20CALHOUN%20ROAD%2C+HOUSTON%2C+TX+77204
WALGREEN CO.,105 WEST ROAD,"HOUSTON, TX 77037",http://maps.google.com/maps?q=WALGREEN%20CO%2C105%20WEST%20ROAD%2C+HOUSTON%2C+TX+77037,
WALGREEN CO.,14616 MEMORIAL DRIVE,"HOUSTON, TX 77079",http://maps.google.com/maps?q=WALGREEN%20CO%2C14616%20MEMORIAL%20DRIVE%2C+HOUSTON%2C+TX+77079,
WALGREEN CO.,1710 FRY ROAD,"HOUSTON, TX 77084",http://maps.google.com/maps?q=WALGREEN%20CO%2C1710%20FRY%20ROAD%2C+HOUSTON%2C+TX+77084,
WALGREEN CO.,17330 W GRAND PKWY SOUTH,"SUGAR LAND, TX 77479",http://maps.google.com/maps?q=WALGREEN%20CO%2C17330%20W%20GRAND%20PKWY%20SOUTH%2C+SUGAR%20LAND%2C+TX+77479,
WALGREEN CO.,28426 TOMBALL PARKWAY,"TOMBALL, TX 77375",http://maps.google.com/maps?q=WALGREEN%20CO%2C28426%20TOMBALL%20PARKWAY%2C+TOMBALL%2C+TX+77375,
WALGREEN CO.,3103 PALMER HIGHWAY,"TEXAS CITY, TX 77590",http://maps.google.com/maps?q=WALGREEN%20CO%2C3103%20PALMER%20HIGHWAY%2C+TEXAS%20CITY%2C+TX+77590,
WALGREEN CO.,3287 BROADWAY ST.,"PEARLAND, TX 77581",http://maps.google.com/maps?q=WALGREEN%20CO%2C3287%20BROADWAY%20ST.%2C+PEARLAND%2C+TX+77581,
WALGREEN CO.,3312 E 29TH ST,"BRYAN, TX 77802",http://maps.google.com/maps?q=WALGREEN%20CO%2C3312%20E%2029TH%20ST%2C+BRYAN%2C+TX+77802,
WALGREEN CO.,3316 AVENUE H,"ROSENBERG, TX 77471",http://maps.google.com/maps?q=WALGREEN%20CO%2C3316%20AVENUE%20H%2C+ROSENBERG%2C+TX+77471,
WALGREEN CO.,3700 HWY 365,"PORT ARTHUR, TX 77642",http://maps.google.com/maps?q=WALGREEN%20CO%2C3700%20HWY%20365%2C+PORT%20ARTHUR%2C+TX+77642,
WALGREEN CO.,3707 SPENCER HWY.,"PASADENA, TX 77504",http://maps.google.com/maps?q=WALGREEN%20CO%2C3707%20SPENCER%20HWY.%2C+PASADENA%2C+TX+77504,
WALGREEN CO.,3822 OLD SPANISH TRAIL,"HOUSTON, TX 77021",http://maps.google.com/maps?q=WALGREEN%20CO%2C3822%20OLD%20SPANISH%20TRAIL%2C+HOUSTON%2C+TX+77021,
WALGREEN CO.,388 UVALDE ROAD,"HOUSTON, TX 77015",http://maps.google.com/maps?q=WALGREEN%20CO%2C388%20UVALDE%20ROAD%2C+HOUSTON%2C+TX+77015,
WALGREEN CO.,411 S MASON RD,"KATY, TX 77450",http://maps.google.com/maps?q=WALGREEN%20CO%2C411%20S%20MASON%20RD%2C+KATY%2C+TX+77450,
WALGREEN CO.,420 N FRAZIER ST,"CONROE, TX 77301",http://maps.google.com/maps?q=WALGREEN%20CO%2C420%20N%20FRAZIER%20ST%2C+CONROE%2C+TX+77301,
WALGREEN CO.,5280 BUFFALO SPEEDWAY,"HOUSTON, TX 77005",http://maps.google.com/maps?q=WALGREEN%20CO%2C5280%20BUFFALO%20SPEEDWAY%2C+HOUSTON%2C+TX+77005,
WALGREEN CO.,5300 N BRAESWOOD BLVD,"HOUSTON, TX 77096",http://maps.google.com/maps?q=WALGREEN%20CO%2C5300%20N%20BRAESWOOD%20BLVD%2C+HOUSTON%2C+TX+77096,
WALGREEN CO.,6120 S HIGHWAY 6,"MISSOURI CITY, TX 77459",http://maps.google.com/maps?q=WALGREEN%20CO%2C6120%20S%20HIGHWAY%206%2C+MISSOURI%20CITY%2C+TX+77459,
WALGREEN CO.,6610 TIDWELL ROAD,"HOUSTON, TX 77016",http://maps.google.com/maps?q=WALGREEN%20CO%2C6610%20TIDWELL%20ROAD%2C+HOUSTON%2C+TX+77016,
WALGREEN CO.,6768 HIGHWAY 6 SOUTH,"HOUSTON, TX 77083",http://maps.google.com/maps?q=WALGREEN%20CO%2C6768%20HIGHWAY%206%20SOUTH%2C+HOUSTON%2C+TX+77083,
WALGREEN CO.,6802 S FRY RD,"KATY, TX 77494",http://maps.google.com/maps?q=WALGREEN%20CO%2C6802%20S%20FRY%20RD%2C+KATY%2C+TX+77494,
WALGREEN CO.,7304A LOUETTA ROAD,"SPRING, TX 77379",http://maps.google.com/maps?q=WALGREEN%20CO%2C7304A%20LOUETTA%20ROAD%2C+SPRING%2C+TX+77379,
WALGREEN CO.,7634 BELLAIRE BLVD,"HOUSTON, TX 77036",http://maps.google.com/maps?q=WALGREEN%20CO%2C7634%20BELLAIRE%20BLVD%2C+HOUSTON%2C+TX+77036,
WALGREEN CO.,8206 HIGHWAY 6 NORTH,"HOUSTON, TX 77095",http://maps.google.com/maps?q=WALGREEN%20CO%2C8206%20HIGHWAY%206%20NORTH%2C+HOUSTON%2C+TX+77095,
WALGREEN CO.,9810 S. MASON RD.,"RICHMOND, TX 77406",http://maps.google.com/maps?q=WALGREEN%20CO%2C9810%20S.%20MASON%20RD.%2C+RICHMOND%2C+TX+77406,
