Business Name,Address 1,Address 2,"City, State Zip",Map URL
ACCUSCRIPTS PHARMACY L.L.C.,24340 SPERRY DR,"WESTLAKE, OH 44145",http://maps.google.com/maps?q=ACCUSCRIPTS%20PHARMACY%20LLC%2C24340%20SPERRY%20DR%2C+WESTLAKE%2C+OH+44145,
AHF PHARMACY,1230 N HIGH ST,"COLUMBUS, OH 43201",http://maps.google.com/maps?q=AHF%20PHARMACY%2C1230%20N%20HIGH%20ST%2C+COLUMBUS%2C+OH+43201,
"AMC OHIO LLC, DBA EQUITAS HEALTH PHARMACY #3",750 E LONG ST,SUITE 3100,"COLUMBUS, OH 43203",http://maps.google.com/maps?q=AMC%20OHIO%20LLC%20DBA%20EQUITAS%20HEALTH%20PHARMACY%2C750%20E%20LONG%20ST%2C+COLUMBUS%2C+OH+43203
ARROWHEAD BEHAVIORAL HEALTH,1725 TIMBER LINE ROAD,"MAUMEE, OH 43537",http://maps.google.com/maps?q=ARROWHEAD%20BEHAVIORAL%20HEALTH%2C1725%20TIMBER%20LINE%20ROAD%2C+MAUMEE%2C+OH+43537,
ASCENSION MICHIGAN PHARMACY,22151 MOROSS RD,STE G25,"DETROIT, MI 48236",http://maps.google.com/maps?q=ASCENSION%20MICHIGAN%20PHARMACY%2C22151%20MOROSS%20RD%2C+DETROIT%2C+MI+48236
ATRIUM MEDICAL CENTER,ONE MEDICAL CENTER DRIVE,"MIDDLETOWN, OH 45005",http://maps.google.com/maps?q=ATRIUM%20MEDICAL%20CENTER%2CONE%20MEDICAL%20CENTER%20DRIVE%2C+MIDDLETOWN%2C+OH+45005,
"AVITA ONTARIO HOSPITAL, LLC",715 RICHLAND MALL,"MANSFIELD, OH 44906",http://maps.google.com/maps?q=AVITA%20ONTARIO%20HOSPITAL%20LLC%2C715%20RICHLAND%20MALL%2C+MANSFIELD%2C+OH+44906,
B S D INC,716 MADISON AVENUE,"COVINGTON, KY 41011",http://maps.google.com/maps?q=B%20S%20D%20INC%2C716%20MADISON%20AVENUE%2C+COVINGTON%2C+KY+41011,
BAY PARK COMMUNITY HOSPITAL,2801 BAY PARK DRIVE,"OREGON, OH 43616",http://maps.google.com/maps?q=BAY%20PARK%20COMMUNITY%20HOSPITAL%2C2801%20BAY%20PARK%20DRIVE%2C+OREGON%2C+OH+43616,
BEDFORD WELLNESS PHARMACY,7473 SECOR ROAD,UNIT C,"LAMBERTVILLE, MI 48144",http://maps.google.com/maps?q=BEDFORD%20WELLNESS%20PHARMACY%2C7473%20SECOR%20ROAD%2C+LAMBERTVILLE%2C+MI+48144
BENZER PHARMACY,13355 DIX TOLEDO RD,"SOUTHGATE, MI 48195",http://maps.google.com/maps?q=BENZER%20PHARMACY%2C13355%20DIX%20TOLEDO%20RD%2C+SOUTHGATE%2C+MI+48195,
BERGER HOSPITAL,600 NORTH PICKAWAY STREET,ATTN PHARMACY,"CIRCLEVILLE, OH 43113",http://maps.google.com/maps?q=BERGER%20HOSPITAL%2C600%20NORTH%20PICKAWAY%20STREET%2C+CIRCLEVILLE%2C+OH+43113
BETHESDA HOSPITAL BUTLER COUNTY,3125 HAMILTON MASON RD,"HAMILTON, OH 45011",http://maps.google.com/maps?q=BETHESDA%20HOSPITAL%20BUTLER%20COUNTY%2C3125%20HAMILTON%20MASON%20RD%2C+HAMILTON%2C+OH+45011,
BETHESDA HOSPITAL NORTH,DEPT PHARMACY,10500 MONTGOMERY ROAD,"CINCINNATI, OH 45242",http://maps.google.com/maps?q=BETHESDA%20HOSPITAL%20NORTH%2CDEPT%20PHARMACY%2C+CINCINNATI%2C+OH+45242
BLUE PHARMACY,6240 MICHIGAN AVE,"DETROIT, MI 48210",http://maps.google.com/maps?q=BLUE%20PHARMACY%2C6240%20MICHIGAN%20AVE%2C+DETROIT%2C+MI+48210,
BUCYRUS COMMUNITY HOSPITAL,629 N SANDUSKY AVE,"BUCYRUS, OH 44820",http://maps.google.com/maps?q=BUCYRUS%20COMMUNITY%20HOSPITAL%2C629%20N%20SANDUSKY%20AVE%2C+BUCYRUS%2C+OH+44820,
CANN MEDICAL CENTER,CINCINNATI HEALTH DEPARTMENT,5818 MADISON ROAD,"CINCINNATI, OH 45227",http://maps.google.com/maps?q=CANN%20MEDICAL%20CENTER%2CCINCINNATI%20HEALTH%20DEPARTMENT%2C+CINCINNATI%2C+OH+45227
CENTER FOR FAMILY HEALTH,505 NORTH JACKSON STREET,"JACKSON, MI 49201",http://maps.google.com/maps?q=CENTER%20FOR%20FAMILY%20HEALTH%2C505%20NORTH%20JACKSON%20STREET%2C+JACKSON%2C+MI+49201,
CLARK PROFESSIONAL PHARMACY,3280 WASHTENAW AVE.,STE B,"ANN ARBOR, MI 48104",http://maps.google.com/maps?q=CLARK%20PROFESSIONAL%20PHARMACY%2C3280%20WASHTENAW%20AVE.%2C+ANN%20ARBOR%2C+MI+48104
CLERMONT MERCY HOSPITAL,3000 HOSPITAL DRIVE,"BATAVIA, OH 45103",http://maps.google.com/maps?q=CLERMONT%20MERCY%20HOSPITAL%2C3000%20HOSPITAL%20DRIVE%2C+BATAVIA%2C+OH+45103,
CLEVELAND CLINIC AVON AMBULATORY PHARMACY,33100 CLEVELAND CLINIC BLVD,"AVON, OH 44011",http://maps.google.com/maps?q=CLEVELAND%20CLINIC%20AVON%20AMBULATORY%20PHARMACY%2C33100%20CLEVELAND%20CLINIC%20BLVD%2C+AVON%2C+OH+44011,
COMMUNITY MARKET 320 PHARMACY,262 SANDUSKY ST,"PLYMOUTH, OH 44865",http://maps.google.com/maps?q=COMMUNITY%20MARKET%20%20PHARMACY%2C262%20SANDUSKY%20ST%2C+PLYMOUTH%2C+OH+44865,
COMMUNITY MARKET 710 PHARMACY,878 E SANDUSKY AVE,"BELLEFONTAINE, OH 43311",http://maps.google.com/maps?q=COMMUNITY%20MARKET%20%20PHARMACY%2C878%20E%20SANDUSKY%20AVE%2C+BELLEFONTAINE%2C+OH+43311,
COMMUNITY MARKETS PHARMACY,702 MAIN STREET,"DELTA, OH 43515",http://maps.google.com/maps?q=COMMUNITY%20MARKETS%20PHARMACY%2C702%20MAIN%20STREET%2C+DELTA%2C+OH+43515,
COMPASS PHARMACY,1634 11TH STREET,"PORTSMOUTH, OH 45662",http://maps.google.com/maps?q=COMPASS%20PHARMACY%2C1634%2011TH%20STREET%2C+PORTSMOUTH%2C+OH+45662,
CRARY DRUG,8941 LEWIS AVENUE,"TEMPERANCE, MI 48182",http://maps.google.com/maps?q=CRARY%20DRUG%2C8941%20LEWIS%20AVENUE%2C+TEMPERANCE%2C+MI+48182,
DAVE'S PHARMACY,411 W. 5TH STREET,"MARYSVILLE, OH 43040",http://maps.google.com/maps?q=DAVES%20PHARMACY%2C411%20W.%205TH%20STREET%2C+MARYSVILLE%2C+OH+43040,
DEARBORN HEIGHTS PHARMACY,25524 FORD ROAD,"DEARBORN HEIGHTS, MI 48127",http://maps.google.com/maps?q=DEARBORN%20HEIGHTS%20PHARMACY%2C25524%20FORD%20ROAD%2C+DEARBORN%20HEIGHTS%2C+MI+48127,
DIAL DRUGS,8226 N MERRIMAN RD,"WESTLAND, MI 48185",http://maps.google.com/maps?q=DIAL%20DRUGS%2C8226%20N%20MERRIMAN%20RD%2C+WESTLAND%2C+MI+48185,
DUSINI DRUG INC,315 E HIGH AVE,"NEW PHILADELPHIA, OH 44663",http://maps.google.com/maps?q=DUSINI%20DRUG%20INC%2C315%20E%20HIGH%20AVE%2C+NEW%20PHILADELPHIA%2C+OH+44663,
ELM STREET HEALTH CENTER,ELM STREET HEALTH CENTER PHARMACY,1525 ELM STREET,"CINCINNATI, OH 45202",http://maps.google.com/maps?q=ELM%20STREET%20HEALTH%20CENTER%2CELM%20STREET%20HEALTH%20CENTER%20PHARMACY%2C+CINCINNATI%2C+OH+45202
EMMA L BIXBY MED CTR INC,818 RIVERSIDE AVE,"ADRIAN, MI 49221",http://maps.google.com/maps?q=EMMA%20L%20BIXBY%20MED%20CTR%20INC%2C818%20RIVERSIDE%20AVE%2C+ADRIAN%2C+MI+49221,
EQUITAS HEALTH PHARMACY,1033 N. HIGH ST.,"COLUMBUS, OH 43201",http://maps.google.com/maps?q=EQUITAS%20HEALTH%20PHARMACY%2C1033%20N.%20HIGH%20ST.%2C+COLUMBUS%2C+OH+43201,
EQUITAS HEALTH PHARMACY #2,1222 S. PATTERSON BLVD.,SUITE 110,"DAYTON, OH 45402",http://maps.google.com/maps?q=EQUITAS%20HEALTH%20PHARMACY%2C1222%20S.%20PATTERSON%20BLVD.%2C+DAYTON%2C+OH+45402
FAMILY HEALTH SERVICES OF,DARKE COUNTY INC.,5735 MEEKER ROAD,"GREENVILLE, OH 45331",http://maps.google.com/maps?q=FAMILY%20HEALTH%20SERVICES%20OF%2CDARKE%20COUNTY%20INC.%2C+GREENVILLE%2C+OH+45331
FARMINGTON DRUGS AND MEDICAL SUPPLIES,20434 FARMINGTON RD,"LIVONIA, MI 48152",http://maps.google.com/maps?q=FARMINGTON%20DRUGS%20AND%20MEDICAL%20SUPPLIES%2C20434%20FARMINGTON%20RD%2C+LIVONIA%2C+MI+48152,
FINNEY'S INSTITUTIONAL,5930 MAYFAIR RD. N.W.,"NORTH CANTON, OH 44720",http://maps.google.com/maps?q=FINNEYS%20INSTITUTIONAL%2C5930%20MAYFAIR%20RD.%20N.W.%2C+NORTH%20CANTON%2C+OH+44720,
FIRELANDS REGIONAL MEDICAL CENTER,1111 HAYES AVENUE,PHARMACY DEPARTMENT,"SANDUSKY, OH 44870",http://maps.google.com/maps?q=FIRELANDS%20REGIONAL%20MEDICAL%20CENTER%2C1111%20HAYES%20AVENUE%2C+SANDUSKY%2C+OH+44870
FLOWER MEMORIAL HOSPITAL PHAR,5200 HARROUN ROAD,"SYLVANIA, OH 43560",http://maps.google.com/maps?q=FLOWER%20MEMORIAL%20HOSPITAL%20PHAR%2C5200%20HARROUN%20ROAD%2C+SYLVANIA%2C+OH+43560,
FOSTORIA COMMUNITY HOSPITAL,501 VAN BUREN STREET,"FOSTORIA, OH 44830",http://maps.google.com/maps?q=FOSTORIA%20COMMUNITY%20HOSPITAL%2C501%20VAN%20BUREN%20STREET%2C+FOSTORIA%2C+OH+44830,
"GENOA HEALTHCARE, LLC",1501 MADISON ROAD,3RD FL,"WALNUT HILLS, OH 45206",http://maps.google.com/maps?q=GENOA%20HEALTHCARE%20LLC%2C1501%20MADISON%20ROAD%2C+WALNUT%20HILLS%2C+OH+45206
"GENOA HEALTHCARE, LLC",1520 GERMANTOWN STREET,"DAYTON, OH 45417",http://maps.google.com/maps?q=GENOA%20HEALTHCARE%20LLC%2C1520%20GERMANTOWN%20STREET%2C+DAYTON%2C+OH+45417,
"GENOA HEALTHCARE, LLC","43 E MAIN STREET, STE 113","AMELIA, OH 45102",http://maps.google.com/maps?q=GENOA%20HEALTHCARE%20LLC%2C43%20E%20MAIN%20STREET%2C%20STE%20113%2C+AMELIA%2C+OH+45102,
"GENOA HEALTHCARE, LLC","525 METRO PLACE N, STE 150","DUBLIN, OH 43017",http://maps.google.com/maps?q=GENOA%20HEALTHCARE%20LLC%2C525%20METRO%20PLACE%20N%2C%20STE%20150%2C+DUBLIN%2C+OH+43017,
"GENOA HEALTHCARE, LLC",65 MESSIMER DRIVE,"NEWARK, OH 43055",http://maps.google.com/maps?q=GENOA%20HEALTHCARE%20LLC%2C65%20MESSIMER%20DRIVE%2C+NEWARK%2C+OH+43055,
"GENOA HEALTHCARE, LLC","741 SCHOLL ROAD, STE P1","MANSFIELD, OH 44907",http://maps.google.com/maps?q=GENOA%20HEALTHCARE%20LLC%2C741%20SCHOLL%20ROAD%2C%20STE%20P1%2C+MANSFIELD%2C+OH+44907,
"GENOA HEALTHCARE, LLC",799 SOUTH MAIN STREET,"LIMA, OH 45804",http://maps.google.com/maps?q=GENOA%20HEALTHCARE%20LLC%2C799%20SOUTH%20MAIN%20STREET%2C+LIMA%2C+OH+45804,
"GENOA HEALTHCARE, LLC",901 WASHINGTON STREET,ROOM 135,"PORTSMOUTH, OH 45662",http://maps.google.com/maps?q=GENOA%20HEALTHCARE%20LLC%2C901%20WASHINGTON%20STREET%2C+PORTSMOUTH%2C+OH+45662
GILLESPIE'S DRUGS,44523 MARIETTA ROAD,"CALDWELL, OH 43724",http://maps.google.com/maps?q=GILLESPIES%20DRUGS%2C44523%20MARIETTA%20ROAD%2C+CALDWELL%2C+OH+43724,
GOOD SAMARITAN HOSPITAL,375 DIXMYTH AVENUE,"CINCINNATI, OH 45220",http://maps.google.com/maps?q=GOOD%20SAMARITAN%20HOSPITAL%2C375%20DIXMYTH%20AVENUE%2C+CINCINNATI%2C+OH+45220,
GREAT SCOT 90 PHARMACY,13710 DESHLER RD,"NORTH BALTIMORE, OH 45872",http://maps.google.com/maps?q=GREAT%20SCOT%20%20PHARMACY%2C13710%20DESHLER%20RD%2C+NORTH%20BALTIMORE%2C+OH+45872,
HENRY FORD HEALTH CENTER - BROWNSTOWN PHARMACY,23050 WEST RD,"BROWNSTOWN TWP, MI 48183",http://maps.google.com/maps?q=HENRY%20FORD%20HEALTH%20CENTER%20%20BROWNSTOWN%20PHARMACY%2C23050%20WEST%20RD%2C+BROWNSTOWN%20TWP%2C+MI+48183,
HENRY FORD MEDICAL CENTER,131 KERCHEVAL AVE STE 110,"GROSSE POINTE FARMS, MI 48236",http://maps.google.com/maps?q=HENRY%20FORD%20MEDICAL%20CENTER%2C131%20KERCHEVAL%20AVE%20STE%20110%2C+GROSSE%20POINTE%20FARMS%2C+MI+48236,
HENRY FORD MEDICAL CENTER,2799 W GRAND BLVD,"DETROIT, MI 48202",http://maps.google.com/maps?q=HENRY%20FORD%20MEDICAL%20CENTER%2C2799%20W%20GRAND%20BLVD%2C+DETROIT%2C+MI+48202,
HENRY FORD MEDICAL CENTER,2799 W GRAND BLVD,K-15 PHARMACY,"DETROIT, MI 48202",http://maps.google.com/maps?q=HENRY%20FORD%20MEDICAL%20CENTER%2C2799%20W%20GRAND%20BLVD%2C+DETROIT%2C+MI+48202
HENRY FORD MEDICAL CENTER PHARMACY,1 FORD PL,"DETROIT, MI 48202",http://maps.google.com/maps?q=HENRY%20FORD%20MEDICAL%20CENTER%20PHARMACY%2C1%20FORD%20PL%2C+DETROIT%2C+MI+48202,
HENRY FORD MEDICAL CENTER PHARMACY -  FORD ROAD,5500 AUTO CLUB DRIVE,"DEARBORN, MI 48126",http://maps.google.com/maps?q=HENRY%20FORD%20MEDICAL%20CENTER%20PHARMACY%20%20%20FORD%20ROAD%2C5500%20AUTO%20CLUB%20DRIVE%2C+DEARBORN%2C+MI+48126,
HENRY FORD MEDICAL CENTER PHARMACY-WYANDOTTE HOSP,2333 BIDDLE AVE,"WYANDOTTE, MI 48192",http://maps.google.com/maps?q=HENRY%20FORD%20MEDICAL%20CENTER%20PHARMACYWYANDOTTE%20HOSP%2C2333%20BIDDLE%20AVE%2C+WYANDOTTE%2C+MI+48192,
HFMC - LIVONIA PHARMACY,29200 SCHOOLCRAFT,"LIVONIA, MI 48150",http://maps.google.com/maps?q=HFMC%20%20LIVONIA%20PHARMACY%2C29200%20SCHOOLCRAFT%2C+LIVONIA%2C+MI+48150,
HILLSDALE MARKET PHARMACY,DIVISION OF NASH DRUGS INC,208 W CARLETON ROAD,"HILLSDALE, MI 49242",http://maps.google.com/maps?q=HILLSDALE%20MARKET%20PHARMACY%2CDIVISION%20OF%20NASH%20DRUGS%20INC%2C+HILLSDALE%2C+MI+49242
IGA COMMUNITY MARKET,279 W WATER STREET,"OAK HARBOR, OH 43449",http://maps.google.com/maps?q=IGA%20COMMUNITY%20MARKET%2C279%20W%20WATER%20STREET%2C+OAK%20HARBOR%2C+OH+43449,
IPHARMACY,31193 PLYMOUTH RD,"LIVONIA, MI 48150",http://maps.google.com/maps?q=IPHARMACY%2C31193%20PLYMOUTH%20RD%2C+LIVONIA%2C+MI+48150,
JOINT TWNSHP DIST MEM'RL HOSP,PHARMACY DEPARTMENT,200 ST CLAIR STREET,"ST MARYS, OH 45885",http://maps.google.com/maps?q=JOINT%20TWNSHP%20DIST%20MEMRL%20HOSP%2CPHARMACY%20DEPARTMENT%2C+ST%20MARYS%2C+OH+45885
KARMANOS CANCER HOSPITAL PHARMACY,4100 JOHN R,SUITE HP00RX,"DETROIT, MI 48201",http://maps.google.com/maps?q=KARMANOS%20CANCER%20HOSPITAL%20PHARMACY%2C4100%20JOHN%20R%2C+DETROIT%2C+MI+48201
LIFELINE INSTITUTIONAL PHARMACY,3699 SYMMES RD,SUITE 1,"HAMILTON, OH 45015",http://maps.google.com/maps?q=LIFELINE%20INSTITUTIONAL%20PHARMACY%2C3699%20SYMMES%20RD%2C+HAMILTON%2C+OH+45015
LIMA MEMORIAL JOINT,DBA:LIMA MEMORIAL HLTH SYS,1001 BELLEFONTAINE AVENUE,"LIMA, OH 45804",http://maps.google.com/maps?q=LIMA%20MEMORIAL%20JOINT%2CDBA%3ALIMA%20MEMORIAL%20HLTH%20SYS%2C+LIMA%2C+OH+45804
LINWORTHS PHARMACY,2245 W DUBLIN-GRANVILLE RD,SUITE 103,"WORTHINGTON, OH 43085",http://maps.google.com/maps?q=LINWORTHS%20PHARMACY%2C2245%20W%20DUBLIN-GRANVILLE%20RD%2C+WORTHINGTON%2C+OH+43085
LONG TERM CARE NASH DRUGS,44 NORTH HOWELL STREET,SUITE A,"HILLSDALE, MI 49242",http://maps.google.com/maps?q=LONG%20TERM%20CARE%20NASH%20DRUGS%2C44%20NORTH%20HOWELL%20STREET%2C+HILLSDALE%2C+MI+49242
MARY RUTAN HOSPITAL,205 E PALMER ROAD,C/O CHRISTINA MYERS,"BELLEFONTAINE, OH 43311",http://maps.google.com/maps?q=MARY%20RUTAN%20HOSPITAL%2C205%20E%20PALMER%20ROAD%2C+BELLEFONTAINE%2C+OH+43311
MERCY HLTH SYS WESTERN OHIO,DBA MERCY MEMORIAL HOSPITAL,904 SCIOTO STREET,"URBANA, OH 43078",http://maps.google.com/maps?q=MERCY%20HLTH%20SYS%20WESTERN%20OHIO%2CDBA%20MERCY%20MEMORIAL%20HOSPITAL%2C+URBANA%2C+OH+43078
MERCY HOSPITAL,3000 MACK ROAD,ATTENTION PHARMACY LOWER LEVEL,"FAIRFIELD, OH 45014",http://maps.google.com/maps?q=MERCY%20HOSPITAL%2C3000%20MACK%20ROAD%2C+FAIRFIELD%2C+OH+45014
MERCY HOSPITAL-ANDERSON,7500 STATE ROAD,"CINCINNATI, OH 45255",http://maps.google.com/maps?q=MERCY%20HOSPITALANDERSON%2C7500%20STATE%20ROAD%2C+CINCINNATI%2C+OH+45255,
MIAMI VALLEY HOSP,DEPT OF PHARMACY,ONE WYOMING ST,"DAYTON, OH 45409",http://maps.google.com/maps?q=MIAMI%20VALLEY%20HOSP%2CDEPT%20OF%20PHARMACY%2C+DAYTON%2C+OH+45409
MIAMI VALLEY HOSPITAL NORTH,9000 NORTH MAIN ST,"DAYTON, OH 45415",http://maps.google.com/maps?q=MIAMI%20VALLEY%20HOSPITAL%20NORTH%2C9000%20NORTH%20MAIN%20ST%2C+DAYTON%2C+OH+45415,
MIAMI VALLEY HOSPITAL SOUTH,2400 MIAMI VALLEY DR,"CENTERVILLE, OH 45459",http://maps.google.com/maps?q=MIAMI%20VALLEY%20HOSPITAL%20SOUTH%2C2400%20MIAMI%20VALLEY%20DR%2C+CENTERVILLE%2C+OH+45459,
MULLANEY'S LTC PHARMACY,6096 MONTGOMERY RD SUITE B,"CINCINNATI, OH 45213",http://maps.google.com/maps?q=MULLANEYS%20LTC%20PHARMACY%2C6096%20MONTGOMERY%20RD%20SUITE%20B%2C+CINCINNATI%2C+OH+45213,
NASH DRUGS INC,237 E CHICAGO ST,"JONESVILLE, MI 49250",http://maps.google.com/maps?q=NASH%20DRUGS%20INC%2C237%20E%20CHICAGO%20ST%2C+JONESVILLE%2C+MI+49250,
NASH DRUGS INC,30 NORTH HOWELL STREET,"HILLSDALE, MI 49242",http://maps.google.com/maps?q=NASH%20DRUGS%20INC%2C30%20NORTH%20HOWELL%20STREET%2C+HILLSDALE%2C+MI+49242,
NATIONWIDE CHILDREN'S HOSPITAL,700 CHILDRENS DR,"COLUMBUS, OH 43205",http://maps.google.com/maps?q=NATIONWIDE%20CHILDRENS%20HOSPITAL%2C700%20CHILDRENS%20DR%2C+COLUMBUS%2C+OH+43205,
NCH YELLOW PHARMACY,380 BUTTERFLY GARDENS DRIVE,"COLUMBUS, OH 43215",http://maps.google.com/maps?q=NCH%20YELLOW%20PHARMACY%2C380%20BUTTERFLY%20GARDENS%20DRIVE%2C+COLUMBUS%2C+OH+43215,
NORTHSIDE CAMBRIDGE PHARMACY,1300 CLARK STREET,SUITE 4,"CAMBRIDGE, OH 43725",http://maps.google.com/maps?q=NORTHSIDE%20CAMBRIDGE%20PHARMACY%2C1300%20CLARK%20STREET%2C+CAMBRIDGE%2C+OH+43725
NORTHSIDE PHARMACY,2899 BELL STREET,"ZANESVILLE, OH 43701",http://maps.google.com/maps?q=NORTHSIDE%20PHARMACY%2C2899%20BELL%20STREET%2C+ZANESVILLE%2C+OH+43701,
NORTHSIDE SOMERSET PHARMACY,110 WEST MAIN STREET,"SOMERSET, OH 43783",http://maps.google.com/maps?q=NORTHSIDE%20SOMERSET%20PHARMACY%2C110%20WEST%20MAIN%20STREET%2C+SOMERSET%2C+OH+43783,
NORTHWEST OHIO PSYCHIATRIC HOSPITAL,930 SOUTH DETROIT AVENUE,"TOLEDO, OH 43614",http://maps.google.com/maps?q=NORTHWEST%20OHIO%20PSYCHIATRIC%20HOSPITAL%2C930%20SOUTH%20DETROIT%20AVENUE%2C+TOLEDO%2C+OH+43614,
"OHIO CVS STORES, L.L.C.",100 E. MAIN ST.,"WOODVILLE, OH 43469",http://maps.google.com/maps?q=OHIO%20CVS%20STORES%20LLC%2C100%20E.%20MAIN%20ST.%2C+WOODVILLE%2C+OH+43469,
"OHIO CVS STORES, L.L.C.",1100 HILL RD. N,"PICKERINGTON, OH 43147",http://maps.google.com/maps?q=OHIO%20CVS%20STORES%20LLC%2C1100%20HILL%20RD.%20N%2C+PICKERINGTON%2C+OH+43147,
"OHIO CVS STORES, L.L.C.",111 SOUTH MEMORIAL DRIVE,"LANCASTER, OH 43130",http://maps.google.com/maps?q=OHIO%20CVS%20STORES%20LLC%2C111%20SOUTH%20MEMORIAL%20DRIVE%2C+LANCASTER%2C+OH+43130,
"OHIO CVS STORES, L.L.C.",11706 CLIFTON BOULEVARD,"LAKEWOOD, OH 44107",http://maps.google.com/maps?q=OHIO%20CVS%20STORES%20LLC%2C11706%20CLIFTON%20BOULEVARD%2C+LAKEWOOD%2C+OH+44107,
"OHIO CVS STORES, L.L.C.",1331 NORTH FAIRFIELD ROAD,"BEAVERCREEK, OH 45432",http://maps.google.com/maps?q=OHIO%20CVS%20STORES%20LLC%2C1331%20NORTH%20FAIRFIELD%20ROAD%2C+BEAVERCREEK%2C+OH+45432,
"OHIO CVS STORES, L.L.C.",17 WILLIAM H. TAFT RD.,"CINCINNATI, OH 45219",http://maps.google.com/maps?q=OHIO%20CVS%20STORES%20LLC%2C17%20WILLIAM%20H.%20TAFT%20RD.%2C+CINCINNATI%2C+OH+45219,
"OHIO CVS STORES, L.L.C.",210 EAST EMMITT AVE.,"WAVERLY, OH 45690",http://maps.google.com/maps?q=OHIO%20CVS%20STORES%20LLC%2C210%20EAST%20EMMITT%20AVE.%2C+WAVERLY%2C+OH+45690,
"OHIO CVS STORES, L.L.C.",212 E. WOOSTER STREET,"BOWLING GREEN, OH 43402",http://maps.google.com/maps?q=OHIO%20CVS%20STORES%20LLC%2C212%20E.%20WOOSTER%20STREET%2C+BOWLING%20GREEN%2C+OH+43402,
"OHIO CVS STORES, L.L.C.",212 WEST BAGLEY ROAD,"BEREA, OH 44017",http://maps.google.com/maps?q=OHIO%20CVS%20STORES%20LLC%2C212%20WEST%20BAGLEY%20ROAD%2C+BEREA%2C+OH+44017,
"OHIO CVS STORES, L.L.C.",28 N. BROOKWOOD AVE.,"HAMILTON, OH 45013",http://maps.google.com/maps?q=OHIO%20CVS%20STORES%20LLC%2C28%20N.%20BROOKWOOD%20AVE.%2C+HAMILTON%2C+OH+45013,
"OHIO CVS STORES, L.L.C.",2987 DERR RD.,"SPRINGFIELD, OH 45503",http://maps.google.com/maps?q=OHIO%20CVS%20STORES%20LLC%2C2987%20DERR%20RD.%2C+SPRINGFIELD%2C+OH+45503,
"OHIO CVS STORES, L.L.C.",3920 LINDEN AVE.,"DAYTON, OH 45432",http://maps.google.com/maps?q=OHIO%20CVS%20STORES%20LLC%2C3920%20LINDEN%20AVE.%2C+DAYTON%2C+OH+45432,
"OHIO CVS STORES, L.L.C.",4121 MONROE STREET,"TOLEDO, OH 43606",http://maps.google.com/maps?q=OHIO%20CVS%20STORES%20LLC%2C4121%20MONROE%20STREET%2C+TOLEDO%2C+OH+43606,
"OHIO CVS STORES, L.L.C.",4548 E. MAIN ST.,"WHITEHALL, OH 43213",http://maps.google.com/maps?q=OHIO%20CVS%20STORES%20LLC%2C4548%20E.%20MAIN%20ST.%2C+WHITEHALL%2C+OH+43213,
"OHIO CVS STORES, L.L.C.",4801 W. BROAD ST.,"COLUMBUS, OH 43228",http://maps.google.com/maps?q=OHIO%20CVS%20STORES%20LLC%2C4801%20W.%20BROAD%20ST.%2C+COLUMBUS%2C+OH+43228,
"OHIO CVS STORES, L.L.C.",620 S. CLEVELAND AVE.,"WESTERVILLE, OH 43081",http://maps.google.com/maps?q=OHIO%20CVS%20STORES%20LLC%2C620%20S.%20CLEVELAND%20AVE.%2C+WESTERVILLE%2C+OH+43081,
"OHIO CVS STORES, L.L.C.",7217 CINCINNATI-DAYTON ROAD,"WEST CHESTER, OH 45069",http://maps.google.com/maps?q=OHIO%20CVS%20STORES%20LLC%2C7217%20CINCINNATI-DAYTON%20ROAD%2C+WEST%20CHESTER%2C+OH+45069,
"OHIO CVS STORES, L.L.C.",7470 SAWMILL RD.,"DUBLIN, OH 43016",http://maps.google.com/maps?q=OHIO%20CVS%20STORES%20LLC%2C7470%20SAWMILL%20RD.%2C+DUBLIN%2C+OH+43016,
"OHIO CVS STORES, L.L.C.",820 S BREIEL BLVD,"MIDDLETOWN, OH 45044",http://maps.google.com/maps?q=OHIO%20CVS%20STORES%20LLC%2C820%20S%20BREIEL%20BLVD%2C+MIDDLETOWN%2C+OH+45044,
PALM PHARMACY,6650 GREENFIELD RD,"DEARBORN, MI 48126",http://maps.google.com/maps?q=PALM%20PHARMACY%2C6650%20GREENFIELD%20RD%2C+DEARBORN%2C+MI+48126,
"PCA-CORRECTIONS, LLC DBA CHOICE PHARMACY",4014 VENTURE COURT,"COLUMBUS, OH 43228",http://maps.google.com/maps?q=PCACORRECTIONS%20LLC%20DBA%20CHOICE%20PHARMACY%2C4014%20VENTURE%20COURT%2C+COLUMBUS%2C+OH+43228,
PROMEDICA DEFIANCE REGIONAL HOSPITAL,1200 RALSTON AVENUE,"DEFIANCE, OH 43512",http://maps.google.com/maps?q=PROMEDICA%20DEFIANCE%20REGIONAL%20HOSPITAL%2C1200%20RALSTON%20AVENUE%2C+DEFIANCE%2C+OH+43512,
PROMEDICA MEMORIAL HOSPITAL,PHARMACY,715 SOUTH TAFT AVE,"FREMONT, OH 43420",http://maps.google.com/maps?q=PROMEDICA%20MEMORIAL%20HOSPITAL%2CPHARMACY%2C+FREMONT%2C+OH+43420
REID HOSP & HLTH CARE SRVS,1100 REID PARKWAY,ATTN: PHARMACY,"RICHMOND, IN 47374",http://maps.google.com/maps?q=REID%20HOSP%20%20HLTH%20CARE%20SRVS%2C1100%20REID%20PARKWAY%2C+RICHMOND%2C+IN+47374
SAMARITAN NORTH HEALTH CENTER,9000 NORTH MAIN STREET,"DAYTON, OH 45415",http://maps.google.com/maps?q=SAMARITAN%20NORTH%20HEALTH%20CENTER%2C9000%20NORTH%20MAIN%20STREET%2C+DAYTON%2C+OH+45415,
SPRINGFIELD REGIONAL MEDICAL CENTER,100 MEDICAL CENTER DRIVE,"SPRINGFIELD, OH 45504",http://maps.google.com/maps?q=SPRINGFIELD%20REGIONAL%20MEDICAL%20CENTER%2C100%20MEDICAL%20CENTER%20DRIVE%2C+SPRINGFIELD%2C+OH+45504,
ST RITA'S MEDICAL CENTER,730 W MARKET ST,"LIMA, OH 45801",http://maps.google.com/maps?q=ST%20RITAS%20MEDICAL%20CENTER%2C730%20W%20MARKET%20ST%2C+LIMA%2C+OH+45801,
THE JEWISH HOSPITAL,4777 E GALBRAITH RD,"CINCINNATI, OH 45236",http://maps.google.com/maps?q=THE%20JEWISH%20HOSPITAL%2C4777%20E%20GALBRAITH%20RD%2C+CINCINNATI%2C+OH+45236,
THE OHIO STATE UNIVERSITY OUTPATIENT PHARMACY  - J,460 W 10TH AVE,ROOM L012,"COLUMBUS, OH 43210",http://maps.google.com/maps?q=THE%20OHIO%20STATE%20UNIVERSITY%20OUTPATIENT%20PHARMACY%20%20%20J%2C460%20W%2010TH%20AVE%2C+COLUMBUS%2C+OH+43210
THE WELLNESS PLAN,2888 WEST GRAND BLVD.,"DETROIT, MI 48202",http://maps.google.com/maps?q=THE%20WELLNESS%20PLAN%2C2888%20WEST%20GRAND%20BLVD.%2C+DETROIT%2C+MI+48202,
TODDS PHARMACY INC,25871 FORD ROAD,"DEARBORN HEIGHTS, MI 48127",http://maps.google.com/maps?q=TODDS%20PHARMACY%20INC%2C25871%20FORD%20ROAD%2C+DEARBORN%20HEIGHTS%2C+MI+48127,
TOLEDO HOSPITAL,ATTENTION DEPT OF PHARMACY,2142 NORTH COVE BLVD,"TOLEDO, OH 43606",http://maps.google.com/maps?q=TOLEDO%20HOSPITAL%2CATTENTION%20DEPT%20OF%20PHARMACY%2C+TOLEDO%2C+OH+43606
TOWN DRUG,12459 E US ROUTE 22/3,"SABINA, OH 45169",http://maps.google.com/maps?q=TOWN%20DRUG%2C12459%20E%20US%20ROUTE%2022/3%2C+SABINA%2C+OH+45169,
UNITED SPECIALTY PHARMACY LLC,25205 TROWBRIDGE ST.,"DEARBORN, MI 48124",http://maps.google.com/maps?q=UNITED%20SPECIALTY%20PHARMACY%20LLC%2C25205%20TROWBRIDGE%20ST.%2C+DEARBORN%2C+MI+48124,
UNIVERSITY OF MICHIGAN,207 FLETCHER STREET,"ANN ARBOR, MI 48109",http://maps.google.com/maps?q=UNIVERSITY%20OF%20MICHIGAN%2C207%20FLETCHER%20STREET%2C+ANN%20ARBOR%2C+MI+48109,
UNIVERSITY OF MICHIGAN MEDICAL CENTER,UH-B2D301,1500 EAST MEDICAL CENTER DRIVE,"ANN ARBOR, MI 48109",http://maps.google.com/maps?q=UNIVERSITY%20OF%20MICHIGAN%20MEDICAL%20CENTER%2CUH-B2D301%2C+ANN%20ARBOR%2C+MI+48109
UPPER VALLEY MEDICAL CENTER,3130 N COUNTY ROAD 25A,"TROY, OH 45373",http://maps.google.com/maps?q=UPPER%20VALLEY%20MEDICAL%20CENTER%2C3130%20N%20COUNTY%20ROAD%2025A%2C+TROY%2C+OH+45373,
USAF- WRIGHT PATTERSON AFB,88MDSS/SGSM,4881 SUGAR MAPLE DR,"WRIGHT PATTERSON, OH 45433",http://maps.google.com/maps?q=USAF%20WRIGHT%20PATTERSON%20AFB%2C88MDSS/SGSM%2C+WRIGHT%20PATTERSON%2C+OH+45433
VETERANS ADMIN OUTPATIENT,1200 SOUTH DETROIT AVENUE,PHARMACY 119,"TOLEDO, OH 43614",http://maps.google.com/maps?q=VETERANS%20ADMIN%20OUTPATIENT%2C1200%20SOUTH%20DETROIT%20AVENUE%2C+TOLEDO%2C+OH+43614
VETERANS ADMINISTRATION MEDICAL CENTER,PHARMACY SERVICES,2215 FULLER ROAD,"ANN ARBOR, MI 48105",http://maps.google.com/maps?q=VETERANS%20ADMINISTRATION%20MEDICAL%20CENTER%2CPHARMACY%20SERVICES%2C+ANN%20ARBOR%2C+MI+48105
VETERANS AFFAIRS MEDICAL CENTER,4646 JOHN R,"DETROIT, MI 48201",http://maps.google.com/maps?q=VETERANS%20AFFAIRS%20MEDICAL%20CENTER%2C4646%20JOHN%20R%2C+DETROIT%2C+MI+48201,
WALGREEN CO,25700 FORD RD,"DEARBORN HEIGHTS, MI 48127",http://maps.google.com/maps?q=WALGREEN%20CO%2C25700%20FORD%20RD%2C+DEARBORN%20HEIGHTS%2C+MI+48127,
WALGREEN CO.,100 CLEVELAND ST,"ELYRIA, OH 44035",http://maps.google.com/maps?q=WALGREEN%20CO%2C100%20CLEVELAND%20ST%2C+ELYRIA%2C+OH+44035,
WALGREEN CO.,106 S COLUMBIA ST.,"UNION CITY, IN 47390",http://maps.google.com/maps?q=WALGREEN%20CO%2C106%20S%20COLUMBIA%20ST.%2C+UNION%20CITY%2C+IN+47390,
WALGREEN CO.,1090 HIGH ST,"HAMILTON, OH 45011",http://maps.google.com/maps?q=WALGREEN%20CO%2C1090%20HIGH%20ST%2C+HAMILTON%2C+OH+45011,
WALGREEN CO.,11701 DETROIT AVE,"LAKEWOOD, OH 44107",http://maps.google.com/maps?q=WALGREEN%20CO%2C11701%20DETROIT%20AVE%2C+LAKEWOOD%2C+OH+44107,
WALGREEN CO.,1260 E CENTRAL,"MIAMISBURG, OH 45342",http://maps.google.com/maps?q=WALGREEN%20CO%2C1260%20E%20CENTRAL%2C+MIAMISBURG%2C+OH+45342,
WALGREEN CO.,1285 N MONROE ST,"MONROE, MI 48162",http://maps.google.com/maps?q=WALGREEN%20CO%2C1285%20N%20MONROE%20ST%2C+MONROE%2C+MI+48162,
WALGREEN CO.,1314 N WEST AVE,"JACKSON, MI 49202",http://maps.google.com/maps?q=WALGREEN%20CO%2C1314%20N%20WEST%20AVE%2C+JACKSON%2C+MI+49202,
WALGREEN CO.,1321 DELAWARE AVE.,"MARION, OH 43302",http://maps.google.com/maps?q=WALGREEN%20CO%2C1321%20DELAWARE%20AVE.%2C+MARION%2C+OH+43302,
WALGREEN CO.,16803 LORAIN AVE,"CLEVELAND, OH 44111",http://maps.google.com/maps?q=WALGREEN%20CO%2C16803%20LORAIN%20AVE%2C+CLEVELAND%2C+OH+44111,
WALGREEN CO.,2150 E DUBLIN GRANVILLE ROAD,"COLUMBUS, OH 43229",http://maps.google.com/maps?q=WALGREEN%20CO%2C2150%20E%20DUBLIN%20GRANVILLE%20ROAD%2C+COLUMBUS%2C+OH+43229,
WALGREEN CO.,2710 SALEM AVE.,"DAYTON, OH 45406",http://maps.google.com/maps?q=WALGREEN%20CO%2C2710%20SALEM%20AVE.%2C+DAYTON%2C+OH+45406,
WALGREEN CO.,3 W CORRY STREET,"CINCINNATI, OH 45219",http://maps.google.com/maps?q=WALGREEN%20CO%2C3%20W%20CORRY%20STREET%2C+CINCINNATI%2C+OH+45219,
WALGREEN CO.,385 NORTHLAND BLVD,"CINCINNATI, OH 45240",http://maps.google.com/maps?q=WALGREEN%20CO%2C385%20NORTHLAND%20BLVD%2C+CINCINNATI%2C+OH+45240,
WALGREEN CO.,4090 E GALBRAITH RD,"DEER PARK, OH 45236",http://maps.google.com/maps?q=WALGREEN%20CO%2C4090%20E%20GALBRAITH%20RD%2C+DEER%20PARK%2C+OH+45236,
WALGREEN CO.,4580 MONROE ST,"TOLEDO, OH 43613",http://maps.google.com/maps?q=WALGREEN%20CO%2C4580%20MONROE%20ST%2C+TOLEDO%2C+OH+43613,
WALGREEN CO.,4605 MONTGOMERY ROAD,"NORWOOD, OH 45212",http://maps.google.com/maps?q=WALGREEN%20CO%2C4605%20MONTGOMERY%20ROAD%2C+NORWOOD%2C+OH+45212,
WALGREEN CO.,5122 WEST TUSCARAWAS ST,"CANTON, OH 44708",http://maps.google.com/maps?q=WALGREEN%20CO%2C5122%20WEST%20TUSCARAWAS%20ST%2C+CANTON%2C+OH+44708,
WALGREEN CO.,5411 LEAVITT ROAD,"LORAIN, OH 44053",http://maps.google.com/maps?q=WALGREEN%20CO%2C5411%20LEAVITT%20ROAD%2C+LORAIN%2C+OH+44053,
WALGREEN CO.,5690 W BROAD STREET,"GALLOWAY, OH 43119",http://maps.google.com/maps?q=WALGREEN%20CO%2C5690%20W%20BROAD%20STREET%2C+GALLOWAY%2C+OH+43119,
WALGREEN CO.,5709 S TELEGRAPH RD,"DEARBORN HEIGHTS, MI 48125",http://maps.google.com/maps?q=WALGREEN%20CO%2C5709%20S%20TELEGRAPH%20RD%2C+DEARBORN%20HEIGHTS%2C+MI+48125,
WALGREEN CO.,700 S BREIEL BLVD,"MIDDLETOWN, OH 45044",http://maps.google.com/maps?q=WALGREEN%20CO%2C700%20S%20BREIEL%20BLVD%2C+MIDDLETOWN%2C+OH+45044,
WALGREEN CO.,701 N CABLE ROAD,"LIMA, OH 45805",http://maps.google.com/maps?q=WALGREEN%20CO%2C701%20N%20CABLE%20ROAD%2C+LIMA%2C+OH+45805,
WALGREEN CO.,850 NORTH BRIDGE STREET,"CHILLICOTHE, OH 45601",http://maps.google.com/maps?q=WALGREEN%20CO%2C850%20NORTH%20BRIDGE%20STREET%2C+CHILLICOTHE%2C+OH+45601,
WALGREEN CO.,859 E MAIN ST,"LANCASTER, OH 43130",http://maps.google.com/maps?q=WALGREEN%20CO%2C859%20E%20MAIN%20ST%2C+LANCASTER%2C+OH+43130,
WEST GRANGE PHARMACY LLC,3390 WEST ROAD,"TRENTON, MI 48183",http://maps.google.com/maps?q=WEST%20GRANGE%20PHARMACY%20LLC%2C3390%20WEST%20ROAD%2C+TRENTON%2C+MI+48183,
"WEST VIRGINIA CVS PHARMACY, L.L.C.",1605 7TH STREET,"PARKERSBURG, WV 26101",http://maps.google.com/maps?q=WEST%20VIRGINIA%20CVS%20PHARMACY%20LLC%2C1605%207TH%20STREET%2C+PARKERSBURG%2C+WV+26101,
"WOODWARD DETROIT CVS, L.L.C.",10011 WEST MCNICHOLS ROAD,"DETROIT, MI 48221",http://maps.google.com/maps?q=WOODWARD%20DETROIT%20CVS%20LLC%2C10011%20WEST%20MCNICHOLS%20ROAD%2C+DETROIT%2C+MI+48221,
"WOODWARD DETROIT CVS, L.L.C.",10915 BELLEVILLE ROAD,"BELLEVILLE, MI 48111",http://maps.google.com/maps?q=WOODWARD%20DETROIT%20CVS%20LLC%2C10915%20BELLEVILLE%20ROAD%2C+BELLEVILLE%2C+MI+48111,
"WOODWARD DETROIT CVS, L.L.C.",2400 FORT ST.,"LINCOLN PARK, MI 48146",http://maps.google.com/maps?q=WOODWARD%20DETROIT%20CVS%20LLC%2C2400%20FORT%20ST.%2C+LINCOLN%20PARK%2C+MI+48146,
"WOODWARD DETROIT CVS, L.L.C.",27435 FORD RD.,"GARDEN CITY, MI 48135",http://maps.google.com/maps?q=WOODWARD%20DETROIT%20CVS%20LLC%2C27435%20FORD%20RD.%2C+GARDEN%20CITY%2C+MI+48135,
"WOODWARD DETROIT CVS, L.L.C.",37340 FIVE MILE RD.,"LIVONIA, MI 48154",http://maps.google.com/maps?q=WOODWARD%20DETROIT%20CVS%20LLC%2C37340%20FIVE%20MILE%20RD.%2C+LIVONIA%2C+MI+48154,
"WOODWARD DETROIT CVS, LLC",18500 GRAND RIVER,"DETROIT, MI 48223",http://maps.google.com/maps?q=WOODWARD%20DETROIT%20CVS%20LLC%2C18500%20GRAND%20RIVER%2C+DETROIT%2C+MI+48223,
