Business Name,Address 1,Address 2,"City, State Zip",Map URL
ANDERSON DRUGS,5796 US HWY 11,PO BOX 407,"PURVIS, MS 39475",http://maps.google.com/maps?q=ANDERSON%20DRUGS%2C5796%20US%20HWY%2011%2C+PURVIS%2C+MS+39475
"APOTHECARE,LLC",82 MAIN ST W,PO BOX 919,"MEADVILLE, MS 39653",http://maps.google.com/maps?q=APOTHECARELLC%2C82%20MAIN%20ST%20W%2C+MEADVILLE%2C+MS+39653
BEEMON DRUGS INC,1220 EAST NORTHSIDE DRIVE,POST OFFICE BOX 14166,"JACKSON, MS 39236",http://maps.google.com/maps?q=BEEMON%20DRUGS%20INC%2C1220%20EAST%20NORTHSIDE%20DRIVE%2C+JACKSON%2C+MS+39236
CALEB'S HOMETOWN PHARMACY,801 MAIN STREET,"COLLINS, MS 39428",http://maps.google.com/maps?q=CALEBS%20HOMETOWN%20PHARMACY%2C801%20MAIN%20STREET%2C+COLLINS%2C+MS+39428,
CHICOT MEMORIAL MEDICAL CENTER,2729 S HIGHWAY 65 82,ATTN: PHARMACY,"LAKE VILLAGE, AR 71653",http://maps.google.com/maps?q=CHICOT%20MEMORIAL%20MEDICAL%20CENTER%2C2729%20S%20HIGHWAY%2065%2082%2C+LAKE%20VILLAGE%2C+AR+71653
DEBBIE'S DRUGS,1716 TEMPLE AVE N,"FAYETTE, AL 35555",http://maps.google.com/maps?q=DEBBIES%20DRUGS%2C1716%20TEMPLE%20AVE%20N%2C+FAYETTE%2C+AL+35555,
"LOUISIANA CVS PHARMACY, L.L.C.",120 TUNICA DR. EAST,"MARKSVILLE, LA 71351",http://maps.google.com/maps?q=LOUISIANA%20CVS%20PHARMACY%20LLC%2C120%20TUNICA%20DR.%20EAST%2C+MARKSVILLE%2C+LA+71351,
"MISSISSIPPI CVS PHARMACY, L.L.C.",112 STRIBLING LN,"BRANDON, MS 39042",http://maps.google.com/maps?q=MISSISSIPPI%20CVS%20PHARMACY%20LLC%2C112%20STRIBLING%20LN%2C+BRANDON%2C+MS+39042,
"MISSISSIPPI CVS PHARMACY, L.L.C.",1209 SUNSET DR.,"GRENADA, MS 38901",http://maps.google.com/maps?q=MISSISSIPPI%20CVS%20PHARMACY%20LLC%2C1209%20SUNSET%20DR.%2C+GRENADA%2C+MS+38901,
"MISSISSIPPI CVS PHARMACY, L.L.C.",2401 NORTH HILLS STREET,"MERIDIAN, MS 39305",http://maps.google.com/maps?q=MISSISSIPPI%20CVS%20PHARMACY%20LLC%2C2401%20NORTH%20HILLS%20STREET%2C+MERIDIAN%2C+MS+39305,
"MISSISSIPPI CVS PHARMACY, L.L.C.",401 HWY 12 EAST,"STARKVILLE, MS 39759",http://maps.google.com/maps?q=MISSISSIPPI%20CVS%20PHARMACY%20LLC%2C401%20HWY%2012%20EAST%2C+STARKVILLE%2C+MS+39759,
"MISSISSIPPI CVS PHARMACY, L.L.C.",501 NORTH 16TH AVE.,"LAUREL, MS 39440",http://maps.google.com/maps?q=MISSISSIPPI%20CVS%20PHARMACY%20LLC%2C501%20NORTH%2016TH%20AVE.%2C+LAUREL%2C+MS+39440,
POINTE COUPEE GENERAL HOSP,2202 FALSE RIVER DR,"NEW ROADS, LA 70760",http://maps.google.com/maps?q=POINTE%20COUPEE%20GENERAL%20HOSP%2C2202%20FALSE%20RIVER%20DR%2C+NEW%20ROADS%2C+LA+70760,
POMANK VENTURES,500 KATIE AVE,"HATTIESBURG, MS 39401",http://maps.google.com/maps?q=POMANK%20VENTURES%2C500%20KATIE%20AVE%2C+HATTIESBURG%2C+MS+39401,
RHODES AND ROBBY DRUGS,114 BROOKS ST,"PELAHATCHIE, MS 39145",http://maps.google.com/maps?q=RHODES%20AND%20ROBBY%20DRUGS%2C114%20BROOKS%20ST%2C+PELAHATCHIE%2C+MS+39145,
USAF-14TH MEDICAL SQUADRON,201 INDEPENDENCE DR,STE 109 BLDG 1100,"COLUMBUS AFB, MS 39710",http://maps.google.com/maps?q=USAFTH%20MEDICAL%20SQUADRON%2C201%20INDEPENDENCE%20DR%2C+COLUMBUS%20AFB%2C+MS+39710
"VITAL CARE OF MISS-LOU, INC",6280 HIGHWAY 129,PO BOX 37,"MONTEREY, LA 71354",http://maps.google.com/maps?q=VITAL%20CARE%20OF%20MISSLOU%20INC%2C6280%20HIGHWAY%20129%2C+MONTEREY%2C+LA+71354
WALGREEN CO,5780 TERRY RD,"BYRAM, MS 39272",http://maps.google.com/maps?q=WALGREEN%20CO%2C5780%20TERRY%20RD%2C+BYRAM%2C+MS+39272,
WALGREEN CO,906 MARION AVENUE,"MCCOMB, MS 39648",http://maps.google.com/maps?q=WALGREEN%20CO%2C906%20MARION%20AVENUE%2C+MCCOMB%2C+MS+39648,
WALGREEN CO.,1497 CANTON MART RD,"JACKSON, MS 39211",http://maps.google.com/maps?q=WALGREEN%20CO%2C1497%20CANTON%20MART%20RD%2C+JACKSON%2C+MS+39211,
WALGREEN CO.,1728 HIGHWAY 45 NORTH,"COLUMBUS, MS 39705",http://maps.google.com/maps?q=WALGREEN%20CO%2C1728%20HIGHWAY%2045%20NORTH%2C+COLUMBUS%2C+MS+39705,
WALGREEN CO.,1790 W GOVERNMENT STREET,"BRANDON, MS 39042",http://maps.google.com/maps?q=WALGREEN%20CO%2C1790%20W%20GOVERNMENT%20STREET%2C+BRANDON%2C+MS+39042,
WALGREEN CO.,204 HIGHWAY 80 EAST,"CLINTON, MS 39056",http://maps.google.com/maps?q=WALGREEN%20CO%2C204%20HIGHWAY%2080%20EAST%2C+CLINTON%2C+MS+39056,
WALGREEN CO.,6130 HWY 49,"HATTIESBURG, MS 39401",http://maps.google.com/maps?q=WALGREEN%20CO%2C6130%20HWY%2049%2C+HATTIESBURG%2C+MS+39401,
USAF-KEESLER MEDICAL CENTER,301 FISHER ST BLDG 468,81 MDSS,"KEESLER AFB, MS 39534",http://maps.google.com/maps?q=USAFKEESLER%20MEDICAL%20CENTER%2C301%20FISHER%20ST%20BLDG%20468%2C+KEESLER%20AFB%2C+MS+39534
USAF- KEESLER PHARMACY,561 LARCHER BLVD,"KEESLER AFB, MS 39534",http://maps.google.com/maps?q=USAF%20KEESLER%20PHARMACY%2C561%20LARCHER%20BLVD%2C+KEESLER%20AFB%2C+MS+39534,
"MISSISSIPPI CVS PHARMACY, L.L.C.",2190 BIENVILLE BLVD,"OCEAN SPRINGS, MS 39564",http://maps.google.com/maps?q=MISSISSIPPI%20CVS%20PHARMACY%20LLC%2C2190%20BIENVILLE%20BLVD%2C+OCEAN%20SPRINGS%2C+MS+39564,
WALGREEN CO.,15371 DEDEAUX RD.,"GULFPORT, MS 39503",http://maps.google.com/maps?q=WALGREEN%20CO%2C15371%20DEDEAUX%20RD.%2C+GULFPORT%2C+MS+39503,
WALGREEN CO.,3948 AIRPORT BLVD,"MOBILE, AL 36608",http://maps.google.com/maps?q=WALGREEN%20CO%2C3948%20AIRPORT%20BLVD%2C+MOBILE%2C+AL+36608,
"MISSISSIPPI CVS PHARMACY, L.L.C.",4422 KALANI DR.,"DIAMONDHEAD, MS 39525",http://maps.google.com/maps?q=MISSISSIPPI%20CVS%20PHARMACY%20LLC%2C4422%20KALANI%20DR.%2C+DIAMONDHEAD%2C+MS+39525,
"LOUISIANA CVS PHARMACY, L.L.C.",1305 GAUSE BLVD.,"SLIDELL, LA 70458",http://maps.google.com/maps?q=LOUISIANA%20CVS%20PHARMACY%20LLC%2C1305%20GAUSE%20BLVD.%2C+SLIDELL%2C+LA+70458,
"WALGREEN LOUISIANA CO., INC.",1260 FRONT STREET,"SLIDELL, LA 70458",http://maps.google.com/maps?q=WALGREEN%20LOUISIANA%20CO%20INC%2C1260%20FRONT%20STREET%2C+SLIDELL%2C+LA+70458,
"WALGREEN LOUISIANA CO., INC.",1203 BUSINESS 190,"COVINGTON, LA 70433",http://maps.google.com/maps?q=WALGREEN%20LOUISIANA%20CO%20INC%2C1203%20BUSINESS%20190%2C+COVINGTON%2C+LA+70433,
"LOUISIANA CVS PHARMACY, L.L.C.",1850 N. HIGHWAY 190,"COVINGTON, LA 70433",http://maps.google.com/maps?q=LOUISIANA%20CVS%20PHARMACY%20LLC%2C1850%20N.%20HIGHWAY%20190%2C+COVINGTON%2C+LA+70433,
"BAHAM PHARMACY AND WELLNESS, LLC",3916 HIGHWAY 22,"MANDEVILLE, LA 70471",http://maps.google.com/maps?q=BAHAM%20PHARMACY%20AND%20WELLNESS%20LLC%2C3916%20HIGHWAY%2022%2C+MANDEVILLE%2C+LA+70471,
"LOUISIANA CVS PHARMACY, L.L.C.",285 WEST PINE,"PONCHATOULA, LA 70454",http://maps.google.com/maps?q=LOUISIANA%20CVS%20PHARMACY%20LLC%2C285%20WEST%20PINE%2C+PONCHATOULA%2C+LA+70454,
BENZER LA1 LLC,2525 CANAL ST,"NEW ORLEANS, LA 70119",http://maps.google.com/maps?q=BENZER%20LA%20LLC%2C2525%20CANAL%20ST%2C+NEW%20ORLEANS%2C+LA+70119,
"WALGREEN LOUISIANA CO., INC.",4545 WEST ESPLANADE,"METAIRIE, LA 70006",http://maps.google.com/maps?q=WALGREEN%20LOUISIANA%20CO%20INC%2C4545%20WEST%20ESPLANADE%2C+METAIRIE%2C+LA+70006,
"LOUISIANA CVS PHARMACY, L.L.C.",4950 W ESPLANADE AVE,"METAIRIE, LA 70006",http://maps.google.com/maps?q=LOUISIANA%20CVS%20PHARMACY%20LLC%2C4950%20W%20ESPLANADE%20AVE%2C+METAIRIE%2C+LA+70006,
OCHSNER PHARMACY AND WELLNESS LLC,1514 JEFFERSON HWY,"NEW ORLEANS, LA 70121",http://maps.google.com/maps?q=OCHSNER%20PHARMACY%20AND%20WELLNESS%20LLC%2C1514%20JEFFERSON%20HWY%2C+NEW%20ORLEANS%2C+LA+70121,
"LOUISIANA CVS PHARMACY, L.L.C.",4901 PRYTANIA ST,"NEW ORLEANS, LA 70115",http://maps.google.com/maps?q=LOUISIANA%20CVS%20PHARMACY%20LLC%2C4901%20PRYTANIA%20ST%2C+NEW%20ORLEANS%2C+LA+70115,
OCHSNER PHARMACY AND WELLNESS - KENNER,200 WEST ESPLANADE AVE. SUITE 106,"KENNER, LA 70065",http://maps.google.com/maps?q=OCHSNER%20PHARMACY%20AND%20WELLNESS%20%20KENNER%2C200%20WEST%20ESPLANADE%20AVE.%20SUITE%20106%2C+KENNER%2C+LA+70065,
WALGREEN CO.,2 SOUTH GREENO RD,"FAIRHOPE, AL 36532",http://maps.google.com/maps?q=WALGREEN%20CO%2C2%20SOUTH%20GREENO%20RD%2C+FAIRHOPE%2C+AL+36532,
"WALGREEN LOUISIANA CO., INC.",4110 GENERAL DEGUALLE DR,"NEW ORLEANS, LA 70131",http://maps.google.com/maps?q=WALGREEN%20LOUISIANA%20CO%20INC%2C4110%20GENERAL%20DEGUALLE%20DR%2C+NEW%20ORLEANS%2C+LA+70131,
"WALGREEN LOUISIANA CO., INC.",4600 WESTBANK EXPRESSWAY,"MARRERO, LA 70072",http://maps.google.com/maps?q=WALGREEN%20LOUISIANA%20CO%20INC%2C4600%20WESTBANK%20EXPRESSWAY%2C+MARRERO%2C+LA+70072,
"AXUM MEDICAL SUPPLIES, LLC.",721 WEST 5TH ST.,"LAPLACE, LA 70068",http://maps.google.com/maps?q=AXUM%20MEDICAL%20SUPPLIES%20LLC%2C721%20WEST%205TH%20ST.%2C+LAPLACE%2C+LA+70068,
