Business Name,Address 1,Address 2,"City, State Zip",Map URL
ELLSWORTH COUNTY MEDICAL CTR,1604 AYLWARD,"ELLSWORTH, KS 67439",http://maps.google.com/maps?q=ELLSWORTH%20COUNTY%20MEDICAL%20CTR%2C1604%20AYLWARD%2C+ELLSWORTH%2C+KS+67439,
F & M DRUG,209 N DOUGLAS AVE,"ELLSWORTH, KS 67439",http://maps.google.com/maps?q=F%20%20M%20DRUG%2C209%20N%20DOUGLAS%20AVE%2C+ELLSWORTH%2C+KS+67439,
FREDONIA REGIONAL HOSPITAL,1527 MADISON,"FREDONIA, KS 66736",http://maps.google.com/maps?q=FREDONIA%20REGIONAL%20HOSPITAL%2C1527%20MADISON%2C+FREDONIA%2C+KS+66736,
FREEMAN PHARMACY,100 E SPRING AVE,"CONWAY SPRINGS, KS 67031",http://maps.google.com/maps?q=FREEMAN%20PHARMACY%2C100%20E%20SPRING%20AVE%2C+CONWAY%20SPRINGS%2C+KS+67031,
G& L PHARMACY,207 S PENNSYLVANIA AVE,"NESS CITY, KS 67560",http://maps.google.com/maps?q=G%20L%20PHARMACY%2C207%20S%20PENNSYLVANIA%20AVE%2C+NESS%20CITY%2C+KS+67560,
GRAHAM CO HOSP,304 W PROUT ST,"HILL CITY, KS 67642",http://maps.google.com/maps?q=GRAHAM%20CO%20HOSP%2C304%20W%20PROUT%20ST%2C+HILL%20CITY%2C+KS+67642,
GREENWOOD COUNTY HOSPITAL,100 W 16TH,"EUREKA, KS 67045",http://maps.google.com/maps?q=GREENWOOD%20COUNTY%20HOSPITAL%2C100%20W%2016TH%2C+EUREKA%2C+KS+67045,
HIBBARD'S PRESCRIPTIONS PLUS,126 N MAIN,"MEDICINE LODGE, KS 67104",http://maps.google.com/maps?q=HIBBARDS%20PRESCRIPTIONS%20PLUS%2C126%20N%20MAIN%2C+MEDICINE%20LODGE%2C+KS+67104,
HUTCHINSON CLINIC PHARMACY,2101 N WALDRON ST SUITE A,"HUTCHINSON, KS 67502",http://maps.google.com/maps?q=HUTCHINSON%20CLINIC%20PHARMACY%2C2101%20N%20WALDRON%20ST%20SUITE%20A%2C+HUTCHINSON%2C+KS+67502,
INDIAN HEALTH SRVC HOSPITAL,1201 HERITAGE CIRCLE,RT 2 BOX 1,"PAWNEE, OK 74058",http://maps.google.com/maps?q=INDIAN%20HEALTH%20SRVC%20HOSPITAL%2C1201%20HERITAGE%20CIRCLE%2C+PAWNEE%2C+OK+74058
IRWIN-POTTER PHARMACY LLC,202 W MAIN ST,"ANTHONY, KS 67003",http://maps.google.com/maps?q=IRWINPOTTER%20PHARMACY%20LLC%2C202%20W%20MAIN%20ST%2C+ANTHONY%2C+KS+67003,
"KANSAS CVS PHARMACY, L.L.C.",10405 WEST 13TH ST,"WICHITA, KS 67212",http://maps.google.com/maps?q=KANSAS%20CVS%20PHARMACY%20LLC%2C10405%20WEST%2013TH%20ST%2C+WICHITA%2C+KS+67212,
"KANSAS CVS PHARMACY, L.L.C.",1215 MERCHANT STREET,"EMPORIA, KS 66801",http://maps.google.com/maps?q=KANSAS%20CVS%20PHARMACY%20LLC%2C1215%20MERCHANT%20STREET%2C+EMPORIA%2C+KS+66801,
"KANSAS CVS PHARMACY, L.L.C.",681 S OHIO STREET,"SALINA, KS 67401",http://maps.google.com/maps?q=KANSAS%20CVS%20PHARMACY%20LLC%2C681%20S%20OHIO%20STREET%2C+SALINA%2C+KS+67401,
KAY'S PHARMACY,2 W MAIN,"HERINGTON, KS 67449",http://maps.google.com/maps?q=KAYS%20PHARMACY%2C2%20W%20MAIN%2C+HERINGTON%2C+KS+67449,
KIOWA COUNTY PHARMACY LLC,721 WEST KANSAS,SUITE 101,"GREENSBURG, KS 67054",http://maps.google.com/maps?q=KIOWA%20COUNTY%20PHARMACY%20LLC%2C721%20WEST%20KANSAS%2C+GREENSBURG%2C+KS+67054
KIOWA PRESCRIPTIONS PLUS,530 MAIN ST,"KIOWA, KS 67070",http://maps.google.com/maps?q=KIOWA%20PRESCRIPTIONS%20PLUS%2C530%20MAIN%20ST%2C+KIOWA%2C+KS+67070,
MAIN STREET PHARMACY,PO BOX 236,113 EAST MAIN,"COLDWATER, KS 67029",http://maps.google.com/maps?q=MAIN%20STREET%20PHARMACY%2CPO%20BOX%20236%2C+COLDWATER%2C+KS+67029
OAKLEY HEALTH MART PHARMACY,103 CENTER AVE,"OAKLEY, KS 67748",http://maps.google.com/maps?q=OAKLEY%20HEALTH%20MART%20PHARMACY%2C103%20CENTER%20AVE%2C+OAKLEY%2C+KS+67748,
"OKLAHOMA CVS PHARMACY, L.L.C.",100 NORTH JM DAVIS BLVD,"CLAREMORE, OK 74017",http://maps.google.com/maps?q=OKLAHOMA%20CVS%20PHARMACY%20LLC%2C100%20NORTH%20JM%20DAVIS%20BLVD%2C+CLAREMORE%2C+OK+74017,
"OKLAHOMA CVS PHARMACY, L.L.C.",3711 E. FRANK PHILLIPS BLVD.,"BARTLESVILLE, OK 74006",http://maps.google.com/maps?q=OKLAHOMA%20CVS%20PHARMACY%20LLC%2C3711%20E.%20FRANK%20PHILLIPS%20BLVD.%2C+BARTLESVILLE%2C+OK+74006,
PALACE DRUG,301 N BROADWAY,"CLEVELAND, OK 74020",http://maps.google.com/maps?q=PALACE%20DRUG%2C301%20N%20BROADWAY%2C+CLEVELAND%2C+OK+74020,
POPKESS PHARMACY INC,524 EAST DON TYLER AVE,"DEWEY, OK 74029",http://maps.google.com/maps?q=POPKESS%20PHARMACY%20INC%2C524%20EAST%20DON%20TYLER%20AVE%2C+DEWEY%2C+OK+74029,
PRATT REGIONAL MED CTR CORPOR,200-300 COMMODORE ST,"PRATT, KS 67124",http://maps.google.com/maps?q=PRATT%20REGIONAL%20MED%20CTR%20CORPOR%2C200-300%20COMMODORE%20ST%2C+PRATT%2C+KS+67124,
"RICHEY'S DRUG STORE, INC.",511 N MAIN,"ERIE, KS 66733",http://maps.google.com/maps?q=RICHEYS%20DRUG%20STORE%20INC%2C511%20N%20MAIN%2C+ERIE%2C+KS+66733,
S & S DRUG INC,110 S MILL ST,PO BOX 525,"BELOIT, KS 67420",http://maps.google.com/maps?q=S%20%20S%20DRUG%20INC%2C110%20S%20MILL%20ST%2C+BELOIT%2C+KS+67420
SCHEFFE PRESCRIPTION SHOP,127 EAST RANDOLPH,"ENID, OK 73701",http://maps.google.com/maps?q=SCHEFFE%20PRESCRIPTION%20SHOP%2C127%20EAST%20RANDOLPH%2C+ENID%2C+OK+73701,
SCOTT CITY PHARMACY CHARTERED,102 ALBERT AVE,"SCOTT CITY, KS 67871",http://maps.google.com/maps?q=SCOTT%20CITY%20PHARMACY%20CHARTERED%2C102%20ALBERT%20AVE%2C+SCOTT%20CITY%2C+KS+67871,
SHERIDAN COUNTY HOSPITAL,826 18TH ST,PO BOX 167,"HOXIE, KS 67740",http://maps.google.com/maps?q=SHERIDAN%20COUNTY%20HOSPITAL%2C826%2018TH%20ST%2C+HOXIE%2C+KS+67740
SMITH COUNTY MEMORIAL HOSPITAL PHARMACY,921 E HIGHWAY 36,"SMITH CENTER, KS 66967",http://maps.google.com/maps?q=SMITH%20COUNTY%20MEMORIAL%20HOSPITAL%20PHARMACY%2C921%20E%20HIGHWAY%2036%2C+SMITH%20CENTER%2C+KS+66967,
ST CATHERINE HOSPITAL PHARM,401 EAST SPRUCE,"GARDEN CITY, KS 67846",http://maps.google.com/maps?q=ST%20CATHERINE%20HOSPITAL%20PHARM%2C401%20EAST%20SPRUCE%2C+GARDEN%20CITY%2C+KS+67846,
STAFFORD COUNTY DRUG,329A N US HIGHWAY 281,"ST JOHN, KS 67576",http://maps.google.com/maps?q=STAFFORD%20COUNTY%20DRUG%2C329A%20N%20US%20HIGHWAY%20281%2C+ST%20JOHN%2C+KS+67576,
US ARMY FORT RILEY IACH PHARMACY,650 HUEBNER ROAD,"FORT RILEY, KS 66442",http://maps.google.com/maps?q=US%20ARMY%20FORT%20RILEY%20IACH%20PHARMACY%2C650%20HUEBNER%20ROAD%2C+FORT%20RILEY%2C+KS+66442,
US ARMY- FT RILEY- IACH PHARMACY,650 HUEBNER ROAD,ATTN PHARMACY SERVICES,"FORT RILEY, KS 66442",http://maps.google.com/maps?q=US%20ARMY%20FT%20RILEY%20IACH%20PHARMACY%2C650%20HUEBNER%20ROAD%2C+FORT%20RILEY%2C+KS+66442
USAF- 22ND MEDGP/SGSLA,57950 LEAVENWORTH ST SUITE 321,"MCCONNELL AFB, KS 67221",http://maps.google.com/maps?q=USAF%20ND%20MEDGPSGSLA%2C57950%20LEAVENWORTH%20ST%20SUITE%20321%2C+MCCONNELL%20AFB%2C+KS+67221,
USPHS,101 S. MOORE AVE,"CLAREMORE, OK 74017",http://maps.google.com/maps?q=USPHS%2C101%20S.%20MOORE%20AVE%2C+CLAREMORE%2C+OK+74017,
WAH-ZHA-ZHI HEALTH CENTER,715 GRANDVIEW,"PAWHUSKA, OK 74056",http://maps.google.com/maps?q=WAHZHAZHI%20HEALTH%20CENTER%2C715%20GRANDVIEW%2C+PAWHUSKA%2C+OK+74056,
WALGREEN CO,2229 S MAIN ST,"FORT SCOTT, KS 66701",http://maps.google.com/maps?q=WALGREEN%20CO%2C2229%20S%20MAIN%20ST%2C+FORT%20SCOTT%2C+KS+66701,
WALGREEN CO.,1801 N 14TH AVE,"DODGE CITY, KS 67801",http://maps.google.com/maps?q=WALGREEN%20CO%2C1801%20N%2014TH%20AVE%2C+DODGE%20CITY%2C+KS+67801,
WALGREEN CO.,1911 N BROADWAY STREET,"PITTSBURG, KS 66762",http://maps.google.com/maps?q=WALGREEN%20CO%2C1911%20N%20BROADWAY%20STREET%2C+PITTSBURG%2C+KS+66762,
WALGREEN CO.,2600 VINE STREET,"HAYS, KS 67601",http://maps.google.com/maps?q=WALGREEN%20CO%2C2600%20VINE%20STREET%2C+HAYS%2C+KS+67601,
WALGREEN CO.,3150 S SENECA ST,"WICHITA, KS 67217",http://maps.google.com/maps?q=WALGREEN%20CO%2C3150%20S%20SENECA%20ST%2C+WICHITA%2C+KS+67217,
WALGREEN CO.,325 BLUEMONT AVE,"MANHATTAN, KS 66502",http://maps.google.com/maps?q=WALGREEN%20CO%2C325%20BLUEMONT%20AVE%2C+MANHATTAN%2C+KS+66502,
WALGREEN CO.,3333 E CENTRAL AVE,"WICHITA, KS 67208",http://maps.google.com/maps?q=WALGREEN%20CO%2C3333%20E%20CENTRAL%20AVE%2C+WICHITA%2C+KS+67208,
WALGREEN CO.,458 NORTH BALTIMORE AVENUE,"DERBY, KS 67037",http://maps.google.com/maps?q=WALGREEN%20CO%2C458%20NORTH%20BALTIMORE%20AVENUE%2C+DERBY%2C+KS+67037,
WALGREEN CO.,510 E 30TH AVE,"HUTCHINSON, KS 67502",http://maps.google.com/maps?q=WALGREEN%20CO%2C510%20E%2030TH%20AVE%2C+HUTCHINSON%2C+KS+67502,
WALGREEN CO.,555 N MAIZE ROAD,"WICHITA, KS 67212",http://maps.google.com/maps?q=WALGREEN%20CO%2C555%20N%20MAIZE%20ROAD%2C+WICHITA%2C+KS+67212,
WALGREEN CO.,601 W WILL ROGERS BLVD,"CLAREMORE, OK 74017",http://maps.google.com/maps?q=WALGREEN%20CO%2C601%20W%20WILL%20ROGERS%20BLVD%2C+CLAREMORE%2C+OK+74017,
WELLINGTON HEALTH MART PHARMACY,505 EAST 16TH STREET,SUITE 2,"WELLINGTON, KS 67152",http://maps.google.com/maps?q=WELLINGTON%20HEALTH%20MART%20PHARMACY%2C505%20EAST%2016TH%20STREET%2C+WELLINGTON%2C+KS+67152
