Business Name,Address 1,Address 2,"City, State Zip",Map URL
"ARIZONA CVS STORES, L.L.C.",2350 MIRACLE MILE,"BULLHEAD CITY, AZ 86442",http://maps.google.com/maps?q=ARIZONA%20CVS%20STORES%20LLC%2C2350%20MIRACLE%20MILE%2C+BULLHEAD%20CITY%2C+AZ+86442,
"ARIZONA CVS STORES, L.L.C.",75 N. LAKE HAVASU AVE.,"LAKE HAVASU CITY, AZ 86403",http://maps.google.com/maps?q=ARIZONA%20CVS%20STORES%20LLC%2C75%20N.%20LAKE%20HAVASU%20AVE.%2C+LAKE%20HAVASU%20CITY%2C+AZ+86403,
FUSION PHARMACY LLC,617 E RIVERSIDE DR STE 104,"SAINT GEORGE, UT 84790",http://maps.google.com/maps?q=FUSION%20PHARMACY%20LLC%2C617%20E%20RIVERSIDE%20DR%20STE%20104%2C+SAINT%20GEORGE%2C+UT+84790,
FUSION SPECIALTY PHARMACY,1100 CANYON VIEW DR STE C,"SANTA CLARA, UT 84765",http://maps.google.com/maps?q=FUSION%20SPECIALTY%20PHARMACY%2C1100%20CANYON%20VIEW%20DR%20STE%20C%2C+SANTA%20CLARA%2C+UT+84765,
IHC HEALTH CENTER PHARMACY,577 SOUTH RIVER ROAD,"ST. GEORGE, UT 84790",http://maps.google.com/maps?q=IHC%20HEALTH%20CENTER%20PHARMACY%2C577%20SOUTH%20RIVER%20ROAD%2C+ST.%20GEORGE%2C+UT+84790,
IHC WATSON DIXIE PHARMACY,1380 EAST 480 SOUTH,SUITE 1200,"ST. GEORGE, UT 84790",http://maps.google.com/maps?q=IHC%20WATSON%20DIXIE%20PHARMACY%2C1380%20EAST%20480%20SOUTH%2C+ST.%20GEORGE%2C+UT+84790
LAST FRONTIER PHARMACY,120 S. MAIN STREET,SUITE B,"ALTURAS, CA 96101",http://maps.google.com/maps?q=LAST%20FRONTIER%20PHARMACY%2C120%20S.%20MAIN%20STREET%2C+ALTURAS%2C+CA+96101
"LONGS DRUG STORES CALIFORNIA, L.L.C.",1695 ROBB DR,"RENO, NV 89523",http://maps.google.com/maps?q=LONGS%20DRUG%20STORES%20CALIFORNIA%20LLC%2C1695%20ROBB%20DR%2C+RENO%2C+NV+89523,
"LONGS DRUG STORES CALIFORNIA, L.L.C.",3240 US HIGHWAY 50 E,"CARSON CITY, NV 89701",http://maps.google.com/maps?q=LONGS%20DRUG%20STORES%20CALIFORNIA%20LLC%2C3240%20US%20HIGHWAY%2050%20E%2C+CARSON%20CITY%2C+NV+89701,
"LONGS DRUG STORES CALIFORNIA, L.L.C.",461 W WILLIAMS AVE,"FALLON, NV 89406",http://maps.google.com/maps?q=LONGS%20DRUG%20STORES%20CALIFORNIA%20LLC%2C461%20W%20WILLIAMS%20AVE%2C+FALLON%2C+NV+89406,
MEDITECH LABORATORIES INC,3200 POLARIS AVENUE #27,"LAS VEGAS, NV 89102",http://maps.google.com/maps?q=MEDITECH%20LABORATORIES%20INC%2C3200%20POLARIS%20AVENUE%20#27%2C+LAS%20VEGAS%2C+NV+89102,
NELLIS AFB SATELLITE PHARMACY,4311 CARSWELL AVE,BLGD 340,"LAS VEGAS, NV 89191",http://maps.google.com/maps?q=NELLIS%20AFB%20SATELLITE%20PHARMACY%2C4311%20CARSWELL%20AVE%2C+LAS%20VEGAS%2C+NV+89191
"NEVADA CVS PHARMACY, L.L.C.",100 S. HWY 160,"PAHRUMP, NV 89048",http://maps.google.com/maps?q=NEVADA%20CVS%20PHARMACY%20LLC%2C100%20S.%20HWY%20160%2C+PAHRUMP%2C+NV+89048,
"NEVADA CVS PHARMACY, L.L.C.",1017 NEVADA HIGHWAY,"BOULDER CITY, NV 89005",http://maps.google.com/maps?q=NEVADA%20CVS%20PHARMACY%20LLC%2C1017%20NEVADA%20HIGHWAY%2C+BOULDER%20CITY%2C+NV+89005,
"NEVADA CVS PHARMACY, L.L.C.",10400 WEST CHARLESTON BLVD,"LAS VEGAS, NV 89135",http://maps.google.com/maps?q=NEVADA%20CVS%20PHARMACY%20LLC%2C10400%20WEST%20CHARLESTON%20BLVD%2C+LAS%20VEGAS%2C+NV+89135,
"NEVADA CVS PHARMACY, L.L.C.",1081 STEAMBOAT PKWY.,"RENO, NV 89521",http://maps.google.com/maps?q=NEVADA%20CVS%20PHARMACY%20LLC%2C1081%20STEAMBOAT%20PKWY.%2C+RENO%2C+NV+89521,
"NEVADA CVS PHARMACY, L.L.C.",4411 E. BONANZA RD,"LAS VEGAS, NV 89110",http://maps.google.com/maps?q=NEVADA%20CVS%20PHARMACY%20LLC%2C4411%20E.%20BONANZA%20RD%2C+LAS%20VEGAS%2C+NV+89110,
"NEVADA CVS PHARMACY, L.L.C.",5151 SPARKS BLVD.,"SPARKS, NV 89436",http://maps.google.com/maps?q=NEVADA%20CVS%20PHARMACY%20LLC%2C5151%20SPARKS%20BLVD.%2C+SPARKS%2C+NV+89436,
"NEVADA CVS PHARMACY, L.L.C.",680 N. MCCARRAN BLVD.,"SPARKS, NV 89431",http://maps.google.com/maps?q=NEVADA%20CVS%20PHARMACY%20LLC%2C680%20N.%20MCCARRAN%20BLVD.%2C+SPARKS%2C+NV+89431,
"NEVADA CVS PHARMACY, L.L.C.",8320 W CHEYENNE AVE,"LAS VEGAS, NV 89129",http://maps.google.com/maps?q=NEVADA%20CVS%20PHARMACY%20LLC%2C8320%20W%20CHEYENNE%20AVE%2C+LAS%20VEGAS%2C+NV+89129,
NORTHERN INYO HOSPITAL,150 PIONEER LANE,"BISHOP, CA 93514",http://maps.google.com/maps?q=NORTHERN%20INYO%20HOSPITAL%2C150%20PIONEER%20LANE%2C+BISHOP%2C+CA+93514,
"RENO BEHAVIORAL HEALTHCARE HOSPITAL, LLC",6940 SIERRA CENTER PARKWAY,"RENO, NV 89511",http://maps.google.com/maps?q=RENO%20BEHAVIORAL%20HEALTHCARE%20HOSPITAL%20LLC%2C6940%20SIERRA%20CENTER%20PARKWAY%2C+RENO%2C+NV+89511,
RENO-SPARKS TRIBAL HLTH CTR,1715 KUENZLI ST,PHARMACY DEPARTMENT,"RENO, NV 89502",http://maps.google.com/maps?q=RENOSPARKS%20TRIBAL%20HLTH%20CTR%2C1715%20KUENZLI%20ST%2C+RENO%2C+NV+89502
ROBINSON'S PHARMACY,359 MAIN STREET,"PLACERVILLE, CA 95667",http://maps.google.com/maps?q=ROBINSONS%20PHARMACY%2C359%20MAIN%20STREET%2C+PLACERVILLE%2C+CA+95667,
SEVEN HILLS BEHAVIORAL INSTITUTE,10625 JEFFREYS ST.,"HENDERSON, NV 89052",http://maps.google.com/maps?q=SEVEN%20HILLS%20BEHAVIORAL%20INSTITUTE%2C10625%20JEFFREYS%20ST.%2C+HENDERSON%2C+NV+89052,
SHINGLE SPRINGS HEALTH AND WELLNESS CENTER,5168 HONPIE RD,"PLACERVILLE, CA 95667",http://maps.google.com/maps?q=SHINGLE%20SPRINGS%20HEALTH%20AND%20WELLNESS%20CENTER%2C5168%20HONPIE%20RD%2C+PLACERVILLE%2C+CA+95667,
SOUTHERN NEVADA ADULT MENTAL,RAWSON-NEAL HOSPITAL PHARMACY,1650 COMMUNITY COLLEGE DR.,"LAS VEGAS, NV 89146",http://maps.google.com/maps?q=SOUTHERN%20NEVADA%20ADULT%20MENTAL%2CRAWSON-NEAL%20HOSPITAL%20PHARMACY%2C+LAS%20VEGAS%2C+NV+89146
"STAPLEY PHARMACY, INC.",102 EAST CITY CENTER,"ST. GEORGE, UT 84770",http://maps.google.com/maps?q=STAPLEY%20PHARMACY%20INC%2C102%20EAST%20CITY%20CENTER%2C+ST.%20GEORGE%2C+UT+84770,
"STAPLEY PHARMACY, INC.",167 E. MAIN ST.,P O  BOX 1057,"ENTERPRISE, UT 84725",http://maps.google.com/maps?q=STAPLEY%20PHARMACY%20INC%2C167%20E.%20MAIN%20ST.%2C+ENTERPRISE%2C+UT+84725
SUNRISE HOSPITAL,INPATIENT PHARMACY,3186 SOUTH MARYLAND PKWY,"LAS VEGAS, NV 89109",http://maps.google.com/maps?q=SUNRISE%20HOSPITAL%2CINPATIENT%20PHARMACY%2C+LAS%20VEGAS%2C+NV+89109
TWAIN HARTE PHARMACY,18711 TIFFENI DR,#45 & #47,"TWAIN HARTE, CA 95383",http://maps.google.com/maps?q=TWAIN%20HARTE%20PHARMACY%2C18711%20TIFFENI%20DR%2C+TWAIN%20HARTE%2C+CA+95383
USAF 99 MDSS/SGSM,4700 LAS VEGAS BLVD N,"NELLIS AFB, NV 89191",http://maps.google.com/maps?q=USAF%20%20MDSSSGSM%2C4700%20LAS%20VEGAS%20BLVD%20N%2C+NELLIS%20AFB%2C+NV+89191,
WALGREEN ARIZONA DRUG CO.,2360 HIGHWAY 95,"BULLHEAD CITY, AZ 86442",http://maps.google.com/maps?q=WALGREEN%20ARIZONA%20DRUG%20CO%2C2360%20HIGHWAY%2095%2C+BULLHEAD%20CITY%2C+AZ+86442,
WALGREEN ARIZONA DRUG CO.,25 LAKE HAVASU AVE S,"LAKE HAVASU CITY, AZ 86403",http://maps.google.com/maps?q=WALGREEN%20ARIZONA%20DRUG%20CO%2C25%20LAKE%20HAVASU%20AVE%20S%2C+LAKE%20HAVASU%20CITY%2C+AZ+86403,
WALGREEN CO.,1180 E FLAMINGO RD,"LAS VEGAS, NV 89119",http://maps.google.com/maps?q=WALGREEN%20CO%2C1180%20E%20FLAMINGO%20RD%2C+LAS%20VEGAS%2C+NV+89119,
WALGREEN CO.,1445 W CRAIG RD,"NORTH LAS VEGAS, NV 89032",http://maps.google.com/maps?q=WALGREEN%20CO%2C1445%20W%20CRAIG%20RD%2C+NORTH%20LAS%20VEGAS%2C+NV+89032,
WALGREEN CO.,1701 N GREEN VALLEY PKWY,"HENDERSON, NV 89074",http://maps.google.com/maps?q=WALGREEN%20CO%2C1701%20N%20GREEN%20VALLEY%20PKWY%2C+HENDERSON%2C+NV+89074,
WALGREEN CO.,2389 E WINDMILL LANE,"LAS VEGAS, NV 89123",http://maps.google.com/maps?q=WALGREEN%20CO%2C2389%20E%20WINDMILL%20LANE%2C+LAS%20VEGAS%2C+NV+89123,
WALGREEN CO.,4470 E. BONANZA ROAD,"LAS VEGAS, NV 89110",http://maps.google.com/maps?q=WALGREEN%20CO%2C4470%20E.%20BONANZA%20ROAD%2C+LAS%20VEGAS%2C+NV+89110,
WALGREEN CO.,4905 W TROPICANA AVE,"LAS VEGAS, NV 89103",http://maps.google.com/maps?q=WALGREEN%20CO%2C4905%20W%20TROPICANA%20AVE%2C+LAS%20VEGAS%2C+NV+89103,
WALGREEN CO.,5011 E. SAHARA AVE.,"LAS VEGAS, NV 89142",http://maps.google.com/maps?q=WALGREEN%20CO%2C5011%20E.%20SAHARA%20AVE.%2C+LAS%20VEGAS%2C+NV+89142,
WALGREEN CO.,6865 W TROPICANA AVE,"LAS VEGAS, NV 89103",http://maps.google.com/maps?q=WALGREEN%20CO%2C6865%20W%20TROPICANA%20AVE%2C+LAS%20VEGAS%2C+NV+89103,
WALGREEN CO.,750 N VIRGINIA ST,"RENO, NV 89501",http://maps.google.com/maps?q=WALGREEN%20CO%2C750%20N%20VIRGINIA%20ST%2C+RENO%2C+NV+89501,
WALGREEN CO.,7599 W LAKE MEAD BLVD,"LAS VEGAS, NV 89128",http://maps.google.com/maps?q=WALGREEN%20CO%2C7599%20W%20LAKE%20MEAD%20BLVD%2C+LAS%20VEGAS%2C+NV+89128,
WALGREEN CO.,8500 W. CHEYENNE AVE.,"LAS VEGAS, NV 89129",http://maps.google.com/maps?q=WALGREEN%20CO%2C8500%20W.%20CHEYENNE%20AVE.%2C+LAS%20VEGAS%2C+NV+89129,
WALGREEN CO.,9415 W. DESERT INN,"LAS VEGAS, NV 89117",http://maps.google.com/maps?q=WALGREEN%20CO%2C9415%20W.%20DESERT%20INN%2C+LAS%20VEGAS%2C+NV+89117,
"WARM SPRINGS ROAD CVS, L.L.C.",21 W. HORIZON RIDGE PARKWAY,"HENDERSON, NV 89012",http://maps.google.com/maps?q=WARM%20SPRINGS%20ROAD%20CVS%20LLC%2C21%20W.%20HORIZON%20RIDGE%20PARKWAY%2C+HENDERSON%2C+NV+89012,
"WARM SPRINGS ROAD CVS, L.L.C.",6391 W. LAKE MEAD BLVD.,"LAS VEGAS, NV 89108",http://maps.google.com/maps?q=WARM%20SPRINGS%20ROAD%20CVS%20LLC%2C6391%20W.%20LAKE%20MEAD%20BLVD.%2C+LAS%20VEGAS%2C+NV+89108,
"WARM SPRINGS ROAD CVS, L.L.C.",7285 ALIANTE PKWY.,"NORTH LAS VEGAS, NV 89084",http://maps.google.com/maps?q=WARM%20SPRINGS%20ROAD%20CVS%20LLC%2C7285%20ALIANTE%20PKWY.%2C+NORTH%20LAS%20VEGAS%2C+NV+89084,
"WARM SPRINGS ROAD CVS, L.L.C.",9695 S. MARYLAND PKWY.,"LAS VEGAS, NV 89123",http://maps.google.com/maps?q=WARM%20SPRINGS%20ROAD%20CVS%20LLC%2C9695%20S.%20MARYLAND%20PKWY.%2C+LAS%20VEGAS%2C+NV+89123,
WASHOE BARTON MEDICAL CLINIC,1107 US HIGHWAY 395 N,"GARDNERVILLE, NV 89410",http://maps.google.com/maps?q=WASHOE%20BARTON%20MEDICAL%20CLINIC%2C1107%20US%20HIGHWAY%20395%20N%2C+GARDNERVILLE%2C+NV+89410,
"NEVADA CVS PHARMACY, L.L.C.",550 W. IDAHO ST,"ELKO, NV 89801",http://maps.google.com/maps?q=NEVADA%20CVS%20PHARMACY%20LLC%2C550%20W.%20IDAHO%20ST%2C+ELKO%2C+NV+89801,
