Business Name,Address 1,Address 2,"City, State Zip",Map URL
AIDS HEALTHCARE FOUNDATION DBA AHF PHARMACY,3500 E. PACIFIC COAST HIGHWAY,"LONG BEACH, CA 90804",http://maps.google.com/maps?q=AIDS%20HEALTHCARE%20FOUNDATION%20DBA%20AHF%20PHARMACY%2C3500%20E.%20PACIFIC%20COAST%20HIGHWAY%2C+LONG%20BEACH%2C+CA+90804,
AIDS HEALTHCARE FOUNDATION DBA AHF PHARMACY,6210 SUNSET BLVD.,"LOS ANGELES, CA 90028",http://maps.google.com/maps?q=AIDS%20HEALTHCARE%20FOUNDATION%20DBA%20AHF%20PHARMACY%2C6210%20SUNSET%20BLVD.%2C+LOS%20ANGELES%2C+CA+90028,
"ARIZONA CVS STORES, L.L.C.",2350 MIRACLE MILE,"BULLHEAD CITY, AZ 86442",http://maps.google.com/maps?q=ARIZONA%20CVS%20STORES%20LLC%2C2350%20MIRACLE%20MILE%2C+BULLHEAD%20CITY%2C+AZ+86442,
"ARIZONA CVS STORES, L.L.C.",75 N. LAKE HAVASU AVE.,"LAKE HAVASU CITY, AZ 86403",http://maps.google.com/maps?q=ARIZONA%20CVS%20STORES%20LLC%2C75%20N.%20LAKE%20HAVASU%20AVE.%2C+LAKE%20HAVASU%20CITY%2C+AZ+86403,
BENZER CA1 LLC,3500 EAST BROADWAY,"LONG BEACH, CA 90803",http://maps.google.com/maps?q=BENZER%20CA%20LLC%2C3500%20EAST%20BROADWAY%2C+LONG%20BEACH%2C+CA+90803,
DIVYA RX SERVICES DBA: HERITAGE PHARMACY,"275 N EL CIELO WAY, SUITE D405","PALM SPRINGS, CA 92262",http://maps.google.com/maps?q=DIVYA%20RX%20SERVICES%20DBA%20HERITAGE%20PHARMACY%2C275%20N%20EL%20CIELO%20WAY%2C%20SUITE%20D405%2C+PALM%20SPRINGS%2C+CA+92262,
"GARFIELD BEACH CVS, L.L.C.",100 W. FOOTHILL BLVD.,"UPLAND, CA 91786",http://maps.google.com/maps?q=GARFIELD%20BEACH%20CVS%20LLC%2C100%20W.%20FOOTHILL%20BLVD.%2C+UPLAND%2C+CA+91786,
"GARFIELD BEACH CVS, L.L.C.",101 REDLANDS MALL,"REDLANDS, CA 92373",http://maps.google.com/maps?q=GARFIELD%20BEACH%20CVS%20LLC%2C101%20REDLANDS%20MALL%2C+REDLANDS%2C+CA+92373,
"GARFIELD BEACH CVS, L.L.C.",1020 IRVINE AVENUE,"NEWPORT BEACH, CA 92660",http://maps.google.com/maps?q=GARFIELD%20BEACH%20CVS%20LLC%2C1020%20IRVINE%20AVENUE%2C+NEWPORT%20BEACH%2C+CA+92660,
"GARFIELD BEACH CVS, L.L.C.",11428 KENYON WAY,"RANCHO CUCAMONGA, CA 91701",http://maps.google.com/maps?q=GARFIELD%20BEACH%20CVS%20LLC%2C11428%20KENYON%20WAY%2C+RANCHO%20CUCAMONGA%2C+CA+91701,
"GARFIELD BEACH CVS, L.L.C.",1201 E. PLAZA BLVD,"NATIONAL CITY, CA 91950",http://maps.google.com/maps?q=GARFIELD%20BEACH%20CVS%20LLC%2C1201%20E.%20PLAZA%20BLVD%2C+NATIONAL%20CITY%2C+CA+91950,
"GARFIELD BEACH CVS, L.L.C.",12031 BROOKHURST STREET,"GARDEN GROVE, CA 92840",http://maps.google.com/maps?q=GARFIELD%20BEACH%20CVS%20LLC%2C12031%20BROOKHURST%20STREET%2C+GARDEN%20GROVE%2C+CA+92840,
"GARFIELD BEACH CVS, L.L.C.",12101 CENTRAL AVE.,"CHINO, CA 91710",http://maps.google.com/maps?q=GARFIELD%20BEACH%20CVS%20LLC%2C12101%20CENTRAL%20AVE.%2C+CHINO%2C+CA+91710,
"GARFIELD BEACH CVS, L.L.C.",1401 S.  BALDWIN AVE.,"ARCADIA, CA 91007",http://maps.google.com/maps?q=GARFIELD%20BEACH%20CVS%20LLC%2C1401%20S.%20%20BALDWIN%20AVE.%2C+ARCADIA%2C+CA+91007,
"GARFIELD BEACH CVS, L.L.C.",150 WEST CARSON STREET,"CARSON, CA 90745",http://maps.google.com/maps?q=GARFIELD%20BEACH%20CVS%20LLC%2C150%20WEST%20CARSON%20STREET%2C+CARSON%2C+CA+90745,
"GARFIELD BEACH CVS, L.L.C.",15466 WHITTIER BLVD.,"WHITTIER, CA 90603",http://maps.google.com/maps?q=GARFIELD%20BEACH%20CVS%20LLC%2C15466%20WHITTIER%20BLVD.%2C+WHITTIER%2C+CA+90603,
"GARFIELD BEACH CVS, L.L.C.",19121 BEACH BOULEVARD,"HUNTINGTON BEACH, CA 92648",http://maps.google.com/maps?q=GARFIELD%20BEACH%20CVS%20LLC%2C19121%20BEACH%20BOULEVARD%2C+HUNTINGTON%20BEACH%2C+CA+92648,
"GARFIELD BEACH CVS, L.L.C.",2006 WEST AVENUE J,"LANCASTER, CA 93536",http://maps.google.com/maps?q=GARFIELD%20BEACH%20CVS%20LLC%2C2006%20WEST%20AVENUE%20J%2C+LANCASTER%2C+CA+93536,
"GARFIELD BEACH CVS, L.L.C.",2011 EAST LA PALMA,"ANAHEIM, CA 92806",http://maps.google.com/maps?q=GARFIELD%20BEACH%20CVS%20LLC%2C2011%20EAST%20LA%20PALMA%2C+ANAHEIM%2C+CA+92806,
"GARFIELD BEACH CVS, L.L.C.",2037 VERDUGO BLVD.,"MONTROSE, CA 91020",http://maps.google.com/maps?q=GARFIELD%20BEACH%20CVS%20LLC%2C2037%20VERDUGO%20BLVD.%2C+MONTROSE%2C+CA+91020,
"GARFIELD BEACH CVS, L.L.C.",2103 SOUTH ATLANTIC BOULEVARD,"MONTEREY PARK, CA 91754",http://maps.google.com/maps?q=GARFIELD%20BEACH%20CVS%20LLC%2C2103%20SOUTH%20ATLANTIC%20BOULEVARD%2C+MONTEREY%20PARK%2C+CA+91754,
"GARFIELD BEACH CVS, L.L.C.",2200 N. HARBOR BLVD. (NEC),"FULLERTON, CA 92835",http://maps.google.com/maps?q=GARFIELD%20BEACH%20CVS%20LLC%2C2200%20N.%20HARBOR%20BLVD.%20(NEC)%2C+FULLERTON%2C+CA+92835,
"GARFIELD BEACH CVS, L.L.C.",222 N. MARKET ST.,"INGLEWOOD, CA 90301",http://maps.google.com/maps?q=GARFIELD%20BEACH%20CVS%20LLC%2C222%20N.%20MARKET%20ST.%2C+INGLEWOOD%2C+CA+90301,
"GARFIELD BEACH CVS, L.L.C.",233 EAST WILLOW STREET,"LONG BEACH, CA 90806",http://maps.google.com/maps?q=GARFIELD%20BEACH%20CVS%20LLC%2C233%20EAST%20WILLOW%20STREET%2C+LONG%20BEACH%2C+CA+90806,
"GARFIELD BEACH CVS, L.L.C.",2510 EL CAMINO REAL,"CARLSBAD, CA 92008",http://maps.google.com/maps?q=GARFIELD%20BEACH%20CVS%20LLC%2C2510%20EL%20CAMINO%20REAL%2C+CARLSBAD%2C+CA+92008,
"GARFIELD BEACH CVS, L.L.C.",2530 GLENDALE BOULEVARD,"LOS ANGELES, CA 90039",http://maps.google.com/maps?q=GARFIELD%20BEACH%20CVS%20LLC%2C2530%20GLENDALE%20BOULEVARD%2C+LOS%20ANGELES%2C+CA+90039,
"GARFIELD BEACH CVS, L.L.C.",26973 NEWPORT RD.,"MENIFEE, CA 92584",http://maps.google.com/maps?q=GARFIELD%20BEACH%20CVS%20LLC%2C26973%20NEWPORT%20RD.%2C+MENIFEE%2C+CA+92584,
"GARFIELD BEACH CVS, L.L.C.",300 SOUTH DIAMOND BAR BOULEVARD,"DIAMOND BAR, CA 91765",http://maps.google.com/maps?q=GARFIELD%20BEACH%20CVS%20LLC%2C300%20SOUTH%20DIAMOND%20BAR%20BOULEVARD%2C+DIAMOND%20BAR%2C+CA+91765,
"GARFIELD BEACH CVS, L.L.C.",313 WASHINGTON ST.,"SAN DIEGO, CA 92103",http://maps.google.com/maps?q=GARFIELD%20BEACH%20CVS%20LLC%2C313%20WASHINGTON%20ST.%2C+SAN%20DIEGO%2C+CA+92103,
"GARFIELD BEACH CVS, L.L.C.",3151 UNIVERSITY AVE.,"SAN DIEGO, CA 92104",http://maps.google.com/maps?q=GARFIELD%20BEACH%20CVS%20LLC%2C3151%20UNIVERSITY%20AVE.%2C+SAN%20DIEGO%2C+CA+92104,
"GARFIELD BEACH CVS, L.L.C.",318 W EL NORTE PARKWAY,"ESCONDIDO, CA 92026",http://maps.google.com/maps?q=GARFIELD%20BEACH%20CVS%20LLC%2C318%20W%20EL%20NORTE%20PARKWAY%2C+ESCONDIDO%2C+CA+92026,
"GARFIELD BEACH CVS, L.L.C.",33205 TEMECULA PARKWAY,"TEMECULA, CA 92592",http://maps.google.com/maps?q=GARFIELD%20BEACH%20CVS%20LLC%2C33205%20TEMECULA%20PARKWAY%2C+TEMECULA%2C+CA+92592,
"GARFIELD BEACH CVS, L.L.C.",3911 SOUTH BRISTOL STREET,"SANTA ANA, CA 92704",http://maps.google.com/maps?q=GARFIELD%20BEACH%20CVS%20LLC%2C3911%20SOUTH%20BRISTOL%20STREET%2C+SANTA%20ANA%2C+CA+92704,
"GARFIELD BEACH CVS, L.L.C.",42155 WASHINGTON ST.,"PALM DESERT, CA 92211",http://maps.google.com/maps?q=GARFIELD%20BEACH%20CVS%20LLC%2C42155%20WASHINGTON%20ST.%2C+PALM%20DESERT%2C+CA+92211,
"GARFIELD BEACH CVS, L.L.C.","43839 15TH STREET WEST, SUITE P","LANCASTER, CA 93534",http://maps.google.com/maps?q=GARFIELD%20BEACH%20CVS%20LLC%2C43839%2015TH%20STREET%20WEST%2C%20SUITE%20P%2C+LANCASTER%2C+CA+93534,
"GARFIELD BEACH CVS, L.L.C.",4400 EAST LOS COYOTES DIAGONAL,"LONG BEACH, CA 90815",http://maps.google.com/maps?q=GARFIELD%20BEACH%20CVS%20LLC%2C4400%20EAST%20LOS%20COYOTES%20DIAGONAL%2C+LONG%20BEACH%2C+CA+90815,
"GARFIELD BEACH CVS, L.L.C.",480 SOUTH MAIN STREET,"ORANGE, CA 92868",http://maps.google.com/maps?q=GARFIELD%20BEACH%20CVS%20LLC%2C480%20SOUTH%20MAIN%20STREET%2C+ORANGE%2C+CA+92868,
"GARFIELD BEACH CVS, L.L.C.",511 N. HOLLYWOOD WAY,"BURBANK, CA 91505",http://maps.google.com/maps?q=GARFIELD%20BEACH%20CVS%20LLC%2C511%20N.%20HOLLYWOOD%20WAY%2C+BURBANK%2C+CA+91505,
"GARFIELD BEACH CVS, L.L.C.",5385 ALTON PARKWAY,"IRVINE, CA 92604",http://maps.google.com/maps?q=GARFIELD%20BEACH%20CVS%20LLC%2C5385%20ALTON%20PARKWAY%2C+IRVINE%2C+CA+92604,
"GARFIELD BEACH CVS, L.L.C.",6360 WEST THIRD STREET,"LOS ANGELES, CA 90036",http://maps.google.com/maps?q=GARFIELD%20BEACH%20CVS%20LLC%2C6360%20WEST%20THIRD%20STREET%2C+LOS%20ANGELES%2C+CA+90036,
"GARFIELD BEACH CVS, L.L.C.",7101 ATLANTIC AVENUE,"BELL, CA 90201",http://maps.google.com/maps?q=GARFIELD%20BEACH%20CVS%20LLC%2C7101%20ATLANTIC%20AVENUE%2C+BELL%2C+CA+90201,
"GARFIELD BEACH CVS, L.L.C.",7915 FLORENCE AVENUE,"DOWNEY, CA 90240",http://maps.google.com/maps?q=GARFIELD%20BEACH%20CVS%20LLC%2C7915%20FLORENCE%20AVENUE%2C+DOWNEY%2C+CA+90240,
"GARFIELD BEACH CVS, L.L.C.",8260 MIRA MESA BLVD.,"SAN DIEGO, CA 92126",http://maps.google.com/maps?q=GARFIELD%20BEACH%20CVS%20LLC%2C8260%20MIRA%20MESA%20BLVD.%2C+SAN%20DIEGO%2C+CA+92126,
"GARFIELD BEACH CVS, L.L.C.",8280 MAGNOLIA AVE.,"RIVERSIDE, CA 92504",http://maps.google.com/maps?q=GARFIELD%20BEACH%20CVS%20LLC%2C8280%20MAGNOLIA%20AVE.%2C+RIVERSIDE%2C+CA+92504,
"GARFIELD BEACH CVS, L.L.C.",8831 VILLA LA JOLLA DR.,"LA JOLLA, CA 92037",http://maps.google.com/maps?q=GARFIELD%20BEACH%20CVS%20LLC%2C8831%20VILLA%20LA%20JOLLA%20DR.%2C+LA%20JOLLA%2C+CA+92037,
"GARFIELD BEACH CVS, L.L.C.",9730 MISSION GORGE RD.,"SANTEE, CA 92071",http://maps.google.com/maps?q=GARFIELD%20BEACH%20CVS%20LLC%2C9730%20MISSION%20GORGE%20RD.%2C+SANTEE%2C+CA+92071,
INDIAN HEALTH COUNCIL PHARMACY,50100 GOLSH RD,"VALLEY CENTER, CA 92082",http://maps.google.com/maps?q=INDIAN%20HEALTH%20COUNCIL%20PHARMACY%2C50100%20GOLSH%20RD%2C+VALLEY%20CENTER%2C+CA+92082,
KAISER FDN HEALTH PLAN INC,10800 MAGNOLIA AVE,PARK SIERRA 1ST FLOOR PHARMACY,"RIVERSIDE, CA 92505",http://maps.google.com/maps?q=KAISER%20FDN%20HEALTH%20PLAN%20INC%2C10800%20MAGNOLIA%20AVE%2C+RIVERSIDE%2C+CA+92505
KAISER FDN HEALTH PLAN INC,DBA KAISER PERMANENTE PHARMACY #014,4950 SUNSET BLVD,"LOS ANGELES, CA 90027",http://maps.google.com/maps?q=KAISER%20FDN%20HEALTH%20PLAN%20INC%2CDBA%20KAISER%20PERMANENTE%20PHARMACY%20#014%2C+LOS%20ANGELES%2C+CA+90027
KAISER FDN HEALTH PLAN INC,DBA KAISER-PERMANENTE PHARMACY,110 NORTH LA BREA,"INGLEWOOD, CA 90301",http://maps.google.com/maps?q=KAISER%20FDN%20HEALTH%20PLAN%20INC%2CDBA%20KAISER-PERMANENTE%20PHARMACY%2C+INGLEWOOD%2C+CA+90301
KAISER FDN HEALTH PLAN INC,DBA KAISER-PERMANENTE PHARMACY,3955 BONITA ROAD,"BONITA, CA 91902",http://maps.google.com/maps?q=KAISER%20FDN%20HEALTH%20PLAN%20INC%2CDBA%20KAISER-PERMANENTE%20PHARMACY%2C+BONITA%2C+CA+91902
KAISER FOUN HEALTH PLAN,1188 NORTH EUCLID AVENUE,"ANAHEIM, CA 92801",http://maps.google.com/maps?q=KAISER%20FOUN%20HEALTH%20PLAN%2C1188%20NORTH%20EUCLID%20AVENUE%2C+ANAHEIM%2C+CA+92801,
KAISER FOUND HEALTH PLAN INC,DBA KAISER PERMENENTE PHCY 220,400 CRAVEN RD,"SAN MARCOS, CA 92069",http://maps.google.com/maps?q=KAISER%20FOUND%20HEALTH%20PLAN%20INC%2CDBA%20KAISER%20PERMENENTE%20PHCY%20220%2C+SAN%20MARCOS%2C+CA+92069
KAISER FOUNDATION HEALTH PLAN,5 CENTERPOINTE DR,"LA PALMA, CA 90623",http://maps.google.com/maps?q=KAISER%20FOUNDATION%20HEALTH%20PLAN%2C5%20CENTERPOINTE%20DR%2C+LA%20PALMA%2C+CA+90623,
KAISER FOUNDATION HLTH PLN,1011 BALDWIN PARK BLVD,2ND FLOOR,"BALDWIN PARK, CA 91706",http://maps.google.com/maps?q=KAISER%20FOUNDATION%20HLTH%20PLN%2C1011%20BALDWIN%20PARK%20BLVD%2C+BALDWIN%20PARK%2C+CA+91706
KAISER FOUNDATION HLTH PLN,DBA KAISER PERMANENTE PHCY#254,43112 N. 15TH ST,"LANCASTER, CA 93534",http://maps.google.com/maps?q=KAISER%20FOUNDATION%20HLTH%20PLN%2CDBA%20KAISER%20PERMANENTE%20PHCY#254%2C+LANCASTER%2C+CA+93534
KAISER FOUNDATION HOSPITAL,10800 MAGNOLIA AVENUE,"RIVERSIDE, CA 92505",http://maps.google.com/maps?q=KAISER%20FOUNDATION%20HOSPITAL%2C10800%20MAGNOLIA%20AVENUE%2C+RIVERSIDE%2C+CA+92505,
KAISER FOUNDATION HOSPITALS,6041 CADILLAC AVENUE RM A,"LOS ANGELES, CA 90034",http://maps.google.com/maps?q=KAISER%20FOUNDATION%20HOSPITALS%2C6041%20CADILLAC%20AVENUE%20RM%20A%2C+LOS%20ANGELES%2C+CA+90034,
KAISER FOUNDATION HOSPITALS,9400 EAST ROSECRANS BLVD,RM #0,"BELLFLOWER, CA 90706",http://maps.google.com/maps?q=KAISER%20FOUNDATION%20HOSPITALS%2C9400%20EAST%20ROSECRANS%20BLVD%2C+BELLFLOWER%2C+CA+90706
KAISER PERMANENTE PHARM #288,4502 EAST AVENUE S,"PALMDALE, CA 93552",http://maps.google.com/maps?q=KAISER%20PERMANENTE%20PHARM%2C4502%20EAST%20AVENUE%20S%2C+PALMDALE%2C+CA+93552,
KAISER PERMANENTE PHARMACY,5119 POMONA BLVD,"EAST LOS ANGELES, CA 90022",http://maps.google.com/maps?q=KAISER%20PERMANENTE%20PHARMACY%2C5119%20POMONA%20BLVD%2C+EAST%20LOS%20ANGELES%2C+CA+90022,
KAISER PERMANENTE PHARMACY #002,"4867 SUNSET BLVD, FL 1","LOS ANGELES, CA 90027",http://maps.google.com/maps?q=KAISER%20PERMANENTE%20PHARMACY%2C4867%20SUNSET%20BLVD%2C%20FL%201%2C+LOS%20ANGELES%2C+CA+90027,
KAISER PERMANENTE PHARMACY #054,"9333 IMPERIAL HWY,  FLR 1","DOWNEY, CA 90242",http://maps.google.com/maps?q=KAISER%20PERMANENTE%20PHARMACY%2C9333%20IMPERIAL%20HWY%2C%20%20FLR%201%2C+DOWNEY%2C+CA+90242,
KAISER PERMANENTE PHARMACY #082,10820 183RD ST FL 1,"CERRITOS, CA 90703",http://maps.google.com/maps?q=KAISER%20PERMANENTE%20PHARMACY%2C10820%20183RD%20ST%20FL%201%2C+CERRITOS%2C+CA+90703,
KAISER PERMANENTE PHARMACY #120,18600 S. FIGUEROA ST,FL 1,"GARDENA, CA 90248",http://maps.google.com/maps?q=KAISER%20PERMANENTE%20PHARMACY%2C18600%20S.%20FIGUEROA%20ST%2C+GARDENA%2C+CA+90248
KAISER PERMANENTE PHARMACY #189,"9961 SIERRA AVE, HOSP BLDG, FL 1","FONTANA, CA 92335",http://maps.google.com/maps?q=KAISER%20PERMANENTE%20PHARMACY%2C9961%20SIERRA%20AVE%2C%20HOSP%20BLDG%2C%20FL%201%2C+FONTANA%2C+CA+92335,
KAISER PERMANENTE PHARMACY #260,615 W AVENUE L,"LANCASTER, CA 93534",http://maps.google.com/maps?q=KAISER%20PERMANENTE%20PHARMACY%2C615%20W%20AVENUE%20L%2C+LANCASTER%2C+CA+93534,
KAISER PERMANENTE PHARMACY #264,5250 LANKERSHIM BLVD FL 9,"NORTH HOLLYWOOD, CA 91601",http://maps.google.com/maps?q=KAISER%20PERMANENTE%20PHARMACY%2C5250%20LANKERSHIM%20BLVD%20FL%209%2C+NORTH%20HOLLYWOOD%2C+CA+91601,
KAISER PERMANENTE PHARMACY #338,3782 W MARTIN LUTHER KING JR BLVD,1ST FL,"LOS ANGELES, CA 90008",http://maps.google.com/maps?q=KAISER%20PERMANENTE%20PHARMACY%2C3782%20W%20MARTIN%20LUTHER%20KING%20JR%20BLVD%2C+LOS%20ANGELES%2C+CA+90008
KAISER PERMANENTE PHARMACY #524,"28150 KELLER RD, 1ST FL","MURRIETA, CA 92563",http://maps.google.com/maps?q=KAISER%20PERMANENTE%20PHARMACY%2C28150%20KELLER%20RD%2C%201ST%20FL%2C+MURRIETA%2C+CA+92563,
KAISER PERMANENTE PHARMACY #531,"27200 IRIS AVE MOB 2, FL 1","MORENO VALLEY, CA 92555",http://maps.google.com/maps?q=KAISER%20PERMANENTE%20PHARMACY%2C27200%20IRIS%20AVE%20MOB%202%2C%20FL%201%2C+MORENO%20VALLEY%2C+CA+92555,
KAISER PERMANENTE PHARMACY #658,3750 GRAND AVE,1ST FL,"CHINO, CA 91710",http://maps.google.com/maps?q=KAISER%20PERMANENTE%20PHARMACY%2C3750%20GRAND%20AVE%2C+CHINO%2C+CA+91710
KAISER PERMANENTE PHARMACY 868,75-036 GERALD FORD DR.,PALM DESERT PHARMACY,"PALM DESERT, CA 92211",http://maps.google.com/maps?q=KAISER%20PERMANENTE%20PHARMACY%2C75-036%20GERALD%20FORD%20DR.%2C+PALM%20DESERT%2C+CA+92211
KAISER PERMANENTE PHARMACY NO,14011 PARK AVE,"VICTORVILLE, CA 92392",http://maps.google.com/maps?q=KAISER%20PERMANENTE%20PHARMACY%20NO%2C14011%20PARK%20AVE%2C+VICTORVILLE%2C+CA+92392,
KAISER PERMANENTE PHRMCY #041,"3280 FOOTHILL BLVD, 1ST FLR, STE 16","PASADENA, CA 91107",http://maps.google.com/maps?q=KAISER%20PERMANENTE%20PHRMCY%2C3280%20FOOTHILL%20BLVD%2C%201ST%20FLR%2C%20STE%2016%2C+PASADENA%2C+CA+91107,
KAISER PERMANENTE PHRMCY #156,1301 CALIFORNIA ST.,"REDLANDS, CA 92374",http://maps.google.com/maps?q=KAISER%20PERMANENTE%20PHRMCY%2C1301%20CALIFORNIA%20ST.%2C+REDLANDS%2C+CA+92374,
KAISER PERMANENTE PHRMCY #374,"6650 ALTON PKWY, 1ST FLR","IRVINE, CA 92618",http://maps.google.com/maps?q=KAISER%20PERMANENTE%20PHRMCY%2C6650%20ALTON%20PKWY%2C%201ST%20FLR%2C+IRVINE%2C+CA+92618,
KAISER PERMANENTE PHRMCY 217,KFHP VANDEVER 1ST FLR PHARMACY,4405 VANDEVER STREET 1ST FLOOR,"SAN DIEGO, CA 92120",http://maps.google.com/maps?q=KAISER%20PERMANENTE%20PHRMCY%2CKFHP%20VANDEVER%201ST%20FLR%20PHARMACY%2C+SAN%20DIEGO%2C+CA+92120
KAISER PERMANENTE PHRMCY 230,KFHP LA MESA PHARMACY,8080 PARKWAY DRIVE,"LA MESA, CA 91942",http://maps.google.com/maps?q=KAISER%20PERMANENTE%20PHRMCY%2CKFHP%20LA%20MESA%20PHARMACY%2C+LA%20MESA%2C+CA+91942
LINDA VISTA PHARMCY,4300 ROSE DR SUITE D,"YORBA LINDA, CA 92886",http://maps.google.com/maps?q=LINDA%20VISTA%20PHARMCY%2C4300%20ROSE%20DR%20SUITE%20D%2C+YORBA%20LINDA%2C+CA+92886,
"LONGS DRUG STORES CALIFORNIA, L.L.C.",1792 GARNET AVE,"SAN DIEGO, CA 92109",http://maps.google.com/maps?q=LONGS%20DRUG%20STORES%20CALIFORNIA%20LLC%2C1792%20GARNET%20AVE%2C+SAN%20DIEGO%2C+CA+92109,
"LONGS DRUG STORES CALIFORNIA, L.L.C.",2 W FERN AVE,"REDLANDS, CA 92373",http://maps.google.com/maps?q=LONGS%20DRUG%20STORES%20CALIFORNIA%20LLC%2C2%20W%20FERN%20AVE%2C+REDLANDS%2C+CA+92373,
MONROVIA PHARMACY,250 W FOOTHILL BLVD,"MONROVIA, CA 91016",http://maps.google.com/maps?q=MONROVIA%20PHARMACY%2C250%20W%20FOOTHILL%20BLVD%2C+MONROVIA%2C+CA+91016,
SADDLEBACK MED CTR PHARMACY,24411 HEALTH CENTER DRIVE SUITE #102,"LAGUNA HILLS, CA 92653",http://maps.google.com/maps?q=SADDLEBACK%20MED%20CTR%20PHARMACY%2C24411%20HEALTH%20CENTER%20DRIVE%20SUITE%20#102%2C+LAGUNA%20HILLS%2C+CA+92653,
SCRIPPS HEALTH ENCINITAS AMBULATORY PHARMACY,"310 SANTE FE DRIVE, SUITE 109","ENCINITAS, CA 92024",http://maps.google.com/maps?q=SCRIPPS%20HEALTH%20ENCINITAS%20AMBULATORY%20PHARMACY%2C310%20SANTE%20FE%20DRIVE%2C%20SUITE%20109%2C+ENCINITAS%2C+CA+92024,
SCRIPPS HEALTH GREEN AMBULATORY PHARMACY,10666 N. TORREY PINES ROAD,2ND FLOOR,"LA JOLLA, CA 92037",http://maps.google.com/maps?q=SCRIPPS%20HEALTH%20GREEN%20AMBULATORY%20PHARMACY%2C10666%20N.%20TORREY%20PINES%20ROAD%2C+LA%20JOLLA%2C+CA+92037
SCRIPPS HEALTH MERCY AMBULATORY PHARMACY,4060 FOURTH AVENUE,SUITE 110,"SAN DIEGO, CA 92103",http://maps.google.com/maps?q=SCRIPPS%20HEALTH%20MERCY%20AMBULATORY%20PHARMACY%2C4060%20FOURTH%20AVENUE%2C+SAN%20DIEGO%2C+CA+92103
SHARP CHULA VISTA MEDICAL CTR SNF PHARMACY,751 MEDICAL CENTER CT 2ND FLOOR,"CHULA VISTA, CA 91911",http://maps.google.com/maps?q=SHARP%20CHULA%20VISTA%20MEDICAL%20CTR%20SNF%20PHARMACY%2C751%20MEDICAL%20CENTER%20CT%202ND%20FLOOR%2C+CHULA%20VISTA%2C+CA+91911,
UCSD OUTPATIENT PAVILION PHARMACY,9400 CAMPUS POINT DR RM 3-400A,"LA JOLLA, CA 92037",http://maps.google.com/maps?q=UCSD%20OUTPATIENT%20PAVILION%20PHARMACY%2C9400%20CAMPUS%20POINT%20DR%20RM%203-400A%2C+LA%20JOLLA%2C+CA+92037,
US ARMY- FT IRWIN MEDDAC,ATTN: PHARMACY SERVICES,390 OUTER LOOP ROAD ROOM 2248,"FORT IRWIN, CA 92310",http://maps.google.com/maps?q=US%20ARMY%20FT%20IRWIN%20MEDDAC%2CATTN%3A%20PHARMACY%20SERVICES%2C+FORT%20IRWIN%2C+CA+92310
USAF- 412TH MEDICAL GROUP,30 NIGHTINGALE ROAD,BUILDING NO. 5525,"EDWARDS AFB, CA 93524",http://maps.google.com/maps?q=USAF%20TH%20MEDICAL%20GROUP%2C30%20NIGHTINGALE%20ROAD%2C+EDWARDS%20AFB%2C+CA+93524
USMC- BMC MARINE RECRUIT DEPOT,35000 GUADALCANAL AVE. BLDG 596,MARINE CORPS RECRUIT DEPOT PHARMACY,"SAN DIEGO, CA 92140",http://maps.google.com/maps?q=USMC%20BMC%20MARINE%20RECRUIT%20DEPOT%2C35000%20GUADALCANAL%20AVE.%20BLDG%20596%2C+SAN%20DIEGO%2C+CA+92140
USMC- BMC MIRAMAR,2496 BAUER ROAD ROOM 3101,MCAS MIRAMAR PHARMACY,"SAN DIEGO, CA 92145",http://maps.google.com/maps?q=USMC%20BMC%20MIRAMAR%2C2496%20BAUER%20ROAD%20ROOM%203101%2C+SAN%20DIEGO%2C+CA+92145
USN- NAVAL BRANCH MEDICAL CLINIC,NAVAL AIR WEAPONS STATION,1 ADMINISTRATION CIRCLE,"CHINA LAKE, CA 93555",http://maps.google.com/maps?q=USN%20NAVAL%20BRANCH%20MEDICAL%20CLINIC%2CNAVAL%20AIR%20WEAPONS%20STATION%2C+CHINA%20LAKE%2C+CA+93555
USN- NAVAL HOSPITAL,PHARMACY DEPARTMENT,34800 BOB WILSON DRIVE,"SAN DIEGO, CA 92134",http://maps.google.com/maps?q=USN%20NAVAL%20HOSPITAL%2CPHARMACY%20DEPARTMENT%2C+SAN%20DIEGO%2C+CA+92134
USN- NAVAL HOSPITAL,RECEIVING OFFICER,BULIDING 1343 MAGTFTC MCAGCC,"TWENTYNINE PALMS, CA 92278",http://maps.google.com/maps?q=USN%20NAVAL%20HOSPITAL%2CRECEIVING%20OFFICER%2C+TWENTYNINE%20PALMS%2C+CA+92278
USN- NAVAL HOSPITAL CAMP PENDLETON,200 MERCY CIRCLE,"CAMP PENDLETON, CA 92055",http://maps.google.com/maps?q=USN%20NAVAL%20HOSPITAL%20CAMP%20PENDLETON%2C200%20MERCY%20CIRCLE%2C+CAMP%20PENDLETON%2C+CA+92055,
"VISTA BEHAVIORAL HOSPITAL, LLC",5900 BROCKTON AVE.,"RIVERSIDE, CA 92506",http://maps.google.com/maps?q=VISTA%20BEHAVIORAL%20HOSPITAL%20LLC%2C5900%20BROCKTON%20AVE.%2C+RIVERSIDE%2C+CA+92506,
VISTA DRUG,821 W 19TH ST,"COSTA MESA, CA 92627",http://maps.google.com/maps?q=VISTA%20DRUG%2C821%20W%2019TH%20ST%2C+COSTA%20MESA%2C+CA+92627,
WALGREEN ARIZONA DRUG CO.,2360 HIGHWAY 95,"BULLHEAD CITY, AZ 86442",http://maps.google.com/maps?q=WALGREEN%20ARIZONA%20DRUG%20CO%2C2360%20HIGHWAY%2095%2C+BULLHEAD%20CITY%2C+AZ+86442,
WALGREEN ARIZONA DRUG CO.,25 LAKE HAVASU AVE S,"LAKE HAVASU CITY, AZ 86403",http://maps.google.com/maps?q=WALGREEN%20ARIZONA%20DRUG%20CO%2C25%20LAKE%20HAVASU%20AVE%20S%2C+LAKE%20HAVASU%20CITY%2C+AZ+86403,
WALGREEN ARIZONA DRUG CO.,2801 S 4TH AVE,"YUMA, AZ 85364",http://maps.google.com/maps?q=WALGREEN%20ARIZONA%20DRUG%20CO%2C2801%20S%204TH%20AVE%2C+YUMA%2C+AZ+85364,
WALGREEN CO,1811 S SAN JACINTO AVE,"SAN JACINTO, CA 92583",http://maps.google.com/maps?q=WALGREEN%20CO%2C1811%20S%20SAN%20JACINTO%20AVE%2C+SAN%20JACINTO%2C+CA+92583,
WALGREEN CO,3752 MISSION AVE,"OCEANSIDE, CA 92058",http://maps.google.com/maps?q=WALGREEN%20CO%2C3752%20MISSION%20AVE%2C+OCEANSIDE%2C+CA+92058,
WALGREEN CO,5504 BALBOA AVE,"SAN DIEGO, CA 92111",http://maps.google.com/maps?q=WALGREEN%20CO%2C5504%20BALBOA%20AVE%2C+SAN%20DIEGO%2C+CA+92111,
WALGREEN CO.,10787 CAMINO RUIZ,"SAN DIEGO, CA 92126",http://maps.google.com/maps?q=WALGREEN%20CO%2C10787%20CAMINO%20RUIZ%2C+SAN%20DIEGO%2C+CA+92126,
WALGREEN CO.,11604 WHITTIER BLVD,"WHITTIER, CA 90601",http://maps.google.com/maps?q=WALGREEN%20CO%2C11604%20WHITTIER%20BLVD%2C+WHITTIER%2C+CA+90601,
WALGREEN CO.,12490 CENTRAL AVENUE,"CHINO, CA 91710",http://maps.google.com/maps?q=WALGREEN%20CO%2C12490%20CENTRAL%20AVENUE%2C+CHINO%2C+CA+91710,
WALGREEN CO.,13052 NEWPORT AVE,"TUSTIN, CA 92780",http://maps.google.com/maps?q=WALGREEN%20CO%2C13052%20NEWPORT%20AVE%2C+TUSTIN%2C+CA+92780,
WALGREEN CO.,16145 SIERRA LAKES PKWY,"FONTANA, CA 92336",http://maps.google.com/maps?q=WALGREEN%20CO%2C16145%20SIERRA%20LAKES%20PKWY%2C+FONTANA%2C+CA+92336,
WALGREEN CO.,17051 BEAR VALLEY ROAD,"HESPERIA, CA 92345",http://maps.google.com/maps?q=WALGREEN%20CO%2C17051%20BEAR%20VALLEY%20ROAD%2C+HESPERIA%2C+CA+92345,
WALGREEN CO.,1726 SUPERIOR AVE,"COSTA MESA, CA 92627",http://maps.google.com/maps?q=WALGREEN%20CO%2C1726%20SUPERIOR%20AVE%2C+COSTA%20MESA%2C+CA+92627,
WALGREEN CO.,1826 W ORANGETHORPE AVE,"FULLERTON, CA 92833",http://maps.google.com/maps?q=WALGREEN%20CO%2C1826%20W%20ORANGETHORPE%20AVE%2C+FULLERTON%2C+CA+92833,
WALGREEN CO.,19001 BROOKHURST STREET,"HUNTINGTON BEACH, CA 92646",http://maps.google.com/maps?q=WALGREEN%20CO%2C19001%20BROOKHURST%20STREET%2C+HUNTINGTON%20BEACH%2C+CA+92646,
WALGREEN CO.,2627 PACIFIC AVENUE,"LONG BEACH, CA 90806",http://maps.google.com/maps?q=WALGREEN%20CO%2C2627%20PACIFIC%20AVENUE%2C+LONG%20BEACH%2C+CA+90806,
WALGREEN CO.,29910-A MURRIETA HOT SPRINGS ROAD,"MURRIETA, CA 92563",http://maps.google.com/maps?q=WALGREEN%20CO%2C29910-A%20MURRIETA%20HOT%20SPRINGS%20ROAD%2C+MURRIETA%2C+CA+92563,
WALGREEN CO.,30251 MURRIETA ROAD,"MENIFEE, CA 92584",http://maps.google.com/maps?q=WALGREEN%20CO%2C30251%20MURRIETA%20ROAD%2C+MENIFEE%2C+CA+92584,
WALGREEN CO.,3201 WEST 6TH ST,"LOS ANGELES, CA 90020",http://maps.google.com/maps?q=WALGREEN%20CO%2C3201%20WEST%206TH%20ST%2C+LOS%20ANGELES%2C+CA+90020,
WALGREEN CO.,3222 UNIVERSITY AVENUE,"SAN DIEGO, CA 92104",http://maps.google.com/maps?q=WALGREEN%20CO%2C3222%20UNIVERSITY%20AVENUE%2C+SAN%20DIEGO%2C+CA+92104,
WALGREEN CO.,33975 DATE PALM DR,"CATHEDRAL CITY, CA 92234",http://maps.google.com/maps?q=WALGREEN%20CO%2C33975%20DATE%20PALM%20DR%2C+CATHEDRAL%20CITY%2C+CA+92234,
WALGREEN CO.,3446 W BALL ROAD,"ANAHEIM, CA 92804",http://maps.google.com/maps?q=WALGREEN%20CO%2C3446%20W%20BALL%20ROAD%2C+ANAHEIM%2C+CA+92804,
WALGREEN CO.,4181 OCEANSIDE BLVD.,"OCEANSIDE, CA 92056",http://maps.google.com/maps?q=WALGREEN%20CO%2C4181%20OCEANSIDE%20BLVD.%2C+OCEANSIDE%2C+CA+92056,
WALGREEN CO.,44840 MONTEREY AVE.,"PALM DESERT, CA 92260",http://maps.google.com/maps?q=WALGREEN%20CO%2C44840%20MONTEREY%20AVE.%2C+PALM%20DESERT%2C+CA+92260,
WALGREEN CO.,600 LONG BEACH BLVD,"LONG BEACH, CA 90802",http://maps.google.com/maps?q=WALGREEN%20CO%2C600%20LONG%20BEACH%20BLVD%2C+LONG%20BEACH%2C+CA+90802,
WALGREEN CO.,8044 LIMONITE AVE,"RIVERSIDE, CA 92509",http://maps.google.com/maps?q=WALGREEN%20CO%2C8044%20LIMONITE%20AVE%2C+RIVERSIDE%2C+CA+92509,
WALGREEN CO.,8052 WESTMINSTER BLVD,"WESTMINSTER, CA 92683",http://maps.google.com/maps?q=WALGREEN%20CO%2C8052%20WESTMINSTER%20BLVD%2C+WESTMINSTER%2C+CA+92683,
WALGREEN CO.,9031 ROSECRANS AVE,"BELLFLOWER, CA 90706",http://maps.google.com/maps?q=WALGREEN%20CO%2C9031%20ROSECRANS%20AVE%2C+BELLFLOWER%2C+CA+90706,
WALGREEN CO.,934 N HACIENDA BLVD,"LA PUENTE, CA 91744",http://maps.google.com/maps?q=WALGREEN%20CO%2C934%20N%20HACIENDA%20BLVD%2C+LA%20PUENTE%2C+CA+91744,
WALGREEN CO.,946 S BROOKHURST ST,"ANAHEIM, CA 92804",http://maps.google.com/maps?q=WALGREEN%20CO%2C946%20S%20BROOKHURST%20ST%2C+ANAHEIM%2C+CA+92804,
WESTERN PHARMACY GROUP LLC,340 4TH AVENUE,SUITE 1,"CHULA VISTA, CA 91910",http://maps.google.com/maps?q=WESTERN%20PHARMACY%20GROUP%20LLC%2C340%204TH%20AVENUE%2C+CHULA%20VISTA%2C+CA+91910
WESTERN PHARMACY GROUP LLC,4074 FAIRMOUNT AVENUE,"SAN DIEGO, CA 92105",http://maps.google.com/maps?q=WESTERN%20PHARMACY%20GROUP%20LLC%2C4074%20FAIRMOUNT%20AVENUE%2C+SAN%20DIEGO%2C+CA+92105,
WESTERN PHARMACY GROUP LLC,610 GATEWAY CENTER WAY,SUITES A--E,"SAN DIEGO, CA 92102",http://maps.google.com/maps?q=WESTERN%20PHARMACY%20GROUP%20LLC%2C610%20GATEWAY%20CENTER%20WAY%2C+SAN%20DIEGO%2C+CA+92102
WESTERN UNIVERSITY PHARMACY,795 E.SECOND ST STE 1,"POMONA, CA 91766",http://maps.google.com/maps?q=WESTERN%20UNIVERSITY%20PHARMACY%2C795%20E.SECOND%20ST%20STE%201%2C+POMONA%2C+CA+91766,
WALGREEN CO.,9750 WOODMAN AVENUE,"ARLETA, CA 91331",http://maps.google.com/maps?q=WALGREEN%20CO%2C9750%20WOODMAN%20AVENUE%2C+ARLETA%2C+CA+91331,
KAISER FOUNDATION HEALTH PLAN,PHARMACY #279,13652 CANTARA STREET,"PANORAMA CITY, CA 91402",http://maps.google.com/maps?q=KAISER%20FOUNDATION%20HEALTH%20PLAN%2CPHARMACY%20#279%2C+PANORAMA%20CITY%2C+CA+91402
KAISER PERMANENTE PHRMCY 253,13652 CANTARA ST,1ST FL RM 12RO1,"PANORAMA CITY, CA 91402",http://maps.google.com/maps?q=KAISER%20PERMANENTE%20PHRMCY%2C13652%20CANTARA%20ST%2C+PANORAMA%20CITY%2C+CA+91402
WALGREEN CO.,5224 COLDWATER CANYON AVE,"VAN NUYS, CA 91401",http://maps.google.com/maps?q=WALGREEN%20CO%2C5224%20COLDWATER%20CANYON%20AVE%2C+VAN%20NUYS%2C+CA+91401,
BRUIN HEALTH PHARMACY,308 WESTWOOD PLAZA A-250,"LOS ANGELES, CA 90095",http://maps.google.com/maps?q=BRUIN%20HEALTH%20PHARMACY%2C308%20WESTWOOD%20PLAZA%20A-250%2C+LOS%20ANGELES%2C+CA+90095,
"GARFIELD BEACH CVS, L.L.C.",3010 SOUTH SEPULVEDA BOULEVARD,"LOS ANGELES, CA 90034",http://maps.google.com/maps?q=GARFIELD%20BEACH%20CVS%20LLC%2C3010%20SOUTH%20SEPULVEDA%20BOULEVARD%2C+LOS%20ANGELES%2C+CA+90034,
WALGREEN CO.,1344 W REDONDO BEACH BLVD,"GARDENA, CA 90247",http://maps.google.com/maps?q=WALGREEN%20CO%2C1344%20W%20REDONDO%20BEACH%20BLVD%2C+GARDENA%2C+CA+90247,
KAISER FOUNDATION HEALTH PLAN,KASIER PERMANENTE PHARMACY 108,15446 WESTERN AVENUE,"GARDENA, CA 90249",http://maps.google.com/maps?q=KAISER%20FOUNDATION%20HEALTH%20PLAN%2CKASIER%20PERMANENTE%20PHARMACY%20108%2C+GARDENA%2C+CA+90249
"GARFIELD BEACH CVS, L.L.C.",15700 SOUTH WESTERN AVENUE,"GARDENA, CA 90247",http://maps.google.com/maps?q=GARFIELD%20BEACH%20CVS%20LLC%2C15700%20SOUTH%20WESTERN%20AVENUE%2C+GARDENA%2C+CA+90247,
"GARFIELD BEACH CVS, L.L.C.",13171 MINDANAO WAY,"MARINA DEL REY, CA 90292",http://maps.google.com/maps?q=GARFIELD%20BEACH%20CVS%20LLC%2C13171%20MINDANAO%20WAY%2C+MARINA%20DEL%20REY%2C+CA+90292,
USAF- 61ST MEDICAL SQUADRON/SGSL,2305 MERCURY AVENUE,BLDG 210,"EL SEGUNDO, CA 90245",http://maps.google.com/maps?q=USAF%20ST%20MEDICAL%20SQUADRONSGSL%2C2305%20MERCURY%20AVENUE%2C+EL%20SEGUNDO%2C+CA+90245
WALGREEN CO.,22930 S WESTERN AVE,"TORRANCE, CA 90501",http://maps.google.com/maps?q=WALGREEN%20CO%2C22930%20S%20WESTERN%20AVE%2C+TORRANCE%2C+CA+90501,
KAISER FOUNDATION HEALTH PLAN,20790 MADRONA AVENUE,"TORRANCE, CA 90503",http://maps.google.com/maps?q=KAISER%20FOUNDATION%20HEALTH%20PLAN%2C20790%20MADRONA%20AVENUE%2C+TORRANCE%2C+CA+90503,
KAISER PERMANENTE PHARMACY #122,25821 S. VERMONT AVE FL 1,"HARBOR CITY, CA 90710",http://maps.google.com/maps?q=KAISER%20PERMANENTE%20PHARMACY%2C25821%20S.%20VERMONT%20AVE%20FL%201%2C+HARBOR%20CITY%2C+CA+90710,
"GARFIELD BEACH CVS, L.L.C.",5020 WEST 190TH STREET,"TORRANCE, CA 90503",http://maps.google.com/maps?q=GARFIELD%20BEACH%20CVS%20LLC%2C5020%20WEST%20190TH%20STREET%2C+TORRANCE%2C+CA+90503,
KAISER PERMANENTE PHARMACY,25965 SOUTH NORMANDIE,"HARBOR CITY, CA 90710",http://maps.google.com/maps?q=KAISER%20PERMANENTE%20PHARMACY%2C25965%20SOUTH%20NORMANDIE%2C+HARBOR%20CITY%2C+CA+90710,
