Business Name,Address 1,Address 2,"City, State Zip",Map URL
355TH MDG SATELLITE PHARMACY,5405 E GRANITE ST BLDG 2527,"DAVIS MONTHAN AFB, AZ 85707",http://maps.google.com/maps?q=TH%20MDG%20SATELLITE%20PHARMACY%2C5405%20E%20GRANITE%20ST%20BLDG%202527%2C+DAVIS%20MONTHAN%20AFB%2C+AZ+85707,
ALAMO CLINIC,ON HIGHWAY 169,PO BOX 5907,"MAGDALENA, NM 87825",http://maps.google.com/maps?q=ALAMO%20CLINIC%2CON%20HIGHWAY%20169%2C+MAGDALENA%2C+NM+87825
"ARIZONA CVS STORES, L.L.C.",2350 MIRACLE MILE,"BULLHEAD CITY, AZ 86442",http://maps.google.com/maps?q=ARIZONA%20CVS%20STORES%20LLC%2C2350%20MIRACLE%20MILE%2C+BULLHEAD%20CITY%2C+AZ+86442,
"ARIZONA CVS STORES, L.L.C.",3440 WEST GLENDALE AVE,"PHOENIX, AZ 85051",http://maps.google.com/maps?q=ARIZONA%20CVS%20STORES%20LLC%2C3440%20WEST%20GLENDALE%20AVE%2C+PHOENIX%2C+AZ+85051,
"ARIZONA CVS STORES, L.L.C.",3785 WEST INA RD.,"TUCSON, AZ 85741",http://maps.google.com/maps?q=ARIZONA%20CVS%20STORES%20LLC%2C3785%20WEST%20INA%20RD.%2C+TUCSON%2C+AZ+85741,
"ARIZONA CVS STORES, L.L.C.",75 N. LAKE HAVASU AVE.,"LAKE HAVASU CITY, AZ 86403",http://maps.google.com/maps?q=ARIZONA%20CVS%20STORES%20LLC%2C75%20N.%20LAKE%20HAVASU%20AVE.%2C+LAKE%20HAVASU%20CITY%2C+AZ+86403,
BANNER FAMILY PHARMACY - UNIVERSITY MED CTR TUCSON,1501 N CAMPBELL AVE,"TUCSON, AZ 85724",http://maps.google.com/maps?q=BANNER%20FAMILY%20PHARMACY%20%20UNIVERSITY%20MED%20CTR%20TUCSON%2C1501%20N%20CAMPBELL%20AVE%2C+TUCSON%2C+AZ+85724,
BLUE MOUNTAIN PHARMACY,802 S 200 W,"BLANDING, UT 84511",http://maps.google.com/maps?q=BLUE%20MOUNTAIN%20PHARMACY%2C802%20S%20200%20W%2C+BLANDING%2C+UT+84511,
CANCER CENTER PHARMACY,1201 CAMINO DE SALUD NE,"ALBUQUERQUE, NM 87102",http://maps.google.com/maps?q=CANCER%20CENTER%20PHARMACY%2C1201%20CAMINO%20DE%20SALUD%20NE%2C+ALBUQUERQUE%2C+NM+87102,
CANYONLANDS COMMUNITY HEALTHCARE,467 VISTA AVE,"PAGE, AZ 86040",http://maps.google.com/maps?q=CANYONLANDS%20COMMUNITY%20HEALTHCARE%2C467%20VISTA%20AVE%2C+PAGE%2C+AZ+86040,
CHIEF PHARM SERVICES,PO BOX 130,INTERSTATE 40 EXIT 102,"SAN FIDEL, NM 87049",http://maps.google.com/maps?q=CHIEF%20PHARM%20SERVICES%2CPO%20BOX%20130%2C+SAN%20FIDEL%2C+NM+87049
CHRISTUS ST. VINCENT OUTPATIENT PHARMACY,465 SAINT MICHAELS DR STE 112,"SANTA FE, NM 87505",http://maps.google.com/maps?q=CHRISTUS%20ST%20VINCENT%20OUTPATIENT%20PHARMACY%2C465%20SAINT%20MICHAELS%20DR%20STE%20112%2C+SANTA%20FE%2C+NM+87505,
"CVS PHARMACY, INC.","1001 NEW MEXICO HWY 528, SE","RIO RANCHO, NM 87124",http://maps.google.com/maps?q=CVS%20PHARMACY%20INC%2C1001%20NEW%20MEXICO%20HWY%20528%2C%20SE%2C+RIO%20RANCHO%2C+NM+87124,
"CVS PHARMACY, INC.",2907 CERRILLOS RD.,"SANTA FE, NM 87507",http://maps.google.com/maps?q=CVS%20PHARMACY%20INC%2C2907%20CERRILLOS%20RD.%2C+SANTA%20FE%2C+NM+87507,
DILCON CLINIC,"HIGHWAY 60, DILKON SCHOOL CAMPUS","WINSLOW, AZ 86047",http://maps.google.com/maps?q=DILCON%20CLINIC%2CHIGHWAY%2060%2C%20DILKON%20SCHOOL%20CAMPUS%2C+WINSLOW%2C+AZ+86047,
FIRST NATIONS COMMUNITY HEALTHSOURCE PHARMACY,5608 ZUNI RD SE,"ALBUQUERQUE, NM 87108",http://maps.google.com/maps?q=FIRST%20NATIONS%20COMMUNITY%20HEALTHSOURCE%20PHARMACY%2C5608%20ZUNI%20RD%20SE%2C+ALBUQUERQUE%2C+NM+87108,
FLAGSTAFF PHARMACY,77 W FOREST AVE STE 104,"FLAGSTAFF, AZ 86001",http://maps.google.com/maps?q=FLAGSTAFF%20PHARMACY%2C77%20W%20FOREST%20AVE%20STE%20104%2C+FLAGSTAFF%2C+AZ+86001,
FORT DEFIANCE INDIAN HOSPITAL,PO BOX 649,INTERSECTION OF N7 AND N12,"FORT DEFIANCE, AZ 86504",http://maps.google.com/maps?q=FORT%20DEFIANCE%20INDIAN%20HOSPITAL%2CPO%20BOX%20649%2C+FORT%20DEFIANCE%2C+AZ+86504
FUSION PHARMACY LLC,617 E RIVERSIDE DR STE 104,"SAINT GEORGE, UT 84790",http://maps.google.com/maps?q=FUSION%20PHARMACY%20LLC%2C617%20E%20RIVERSIDE%20DR%20STE%20104%2C+SAINT%20GEORGE%2C+UT+84790,
FUSION SPECIALTY PHARMACY,1100 CANYON VIEW DR STE C,"SANTA CLARA, UT 84765",http://maps.google.com/maps?q=FUSION%20SPECIALTY%20PHARMACY%2C1100%20CANYON%20VIEW%20DR%20STE%20C%2C+SANTA%20CLARA%2C+UT+84765,
"GERMAN DOBSON CVS, L.L.C.",100 NORTH BROAD ST.,"GLOBE, AZ 85501",http://maps.google.com/maps?q=GERMAN%20DOBSON%20CVS%20LLC%2C100%20NORTH%20BROAD%20ST.%2C+GLOBE%2C+AZ+85501,
"GERMAN DOBSON CVS, L.L.C.",18460 N. 7TH ST.,"PHOENIX, AZ 85022",http://maps.google.com/maps?q=GERMAN%20DOBSON%20CVS%20LLC%2C18460%20N.%207TH%20ST.%2C+PHOENIX%2C+AZ+85022,
"GERMAN DOBSON CVS, L.L.C.",18591 N 59TH AVE,"GLENDALE, AZ 85308",http://maps.google.com/maps?q=GERMAN%20DOBSON%20CVS%20LLC%2C18591%20N%2059TH%20AVE%2C+GLENDALE%2C+AZ+85308,
"GERMAN DOBSON CVS, L.L.C.",718 N MAIN ST.,P.O. BOX 1179,"TAYLOR, AZ 85939",http://maps.google.com/maps?q=GERMAN%20DOBSON%20CVS%20LLC%2C718%20N%20MAIN%20ST.%2C+TAYLOR%2C+AZ+85939
HOPI HEALTH CARE CENTER,P.O. BOX 4000,"HIGHWAY 264, MILE MARKER 388","POLACCA, AZ 86042",http://maps.google.com/maps?q=HOPI%20HEALTH%20CARE%20CENTER%2CP.O.%20BOX%204000%2C+POLACCA%2C+AZ+86042
IHC HEALTH CENTER PHARMACY,577 SOUTH RIVER ROAD,"ST. GEORGE, UT 84790",http://maps.google.com/maps?q=IHC%20HEALTH%20CENTER%20PHARMACY%2C577%20SOUTH%20RIVER%20ROAD%2C+ST.%20GEORGE%2C+UT+84790,
IHC WATSON DIXIE PHARMACY,1380 EAST 480 SOUTH,SUITE 1200,"ST. GEORGE, UT 84790",http://maps.google.com/maps?q=IHC%20WATSON%20DIXIE%20PHARMACY%2C1380%20EAST%20480%20SOUTH%2C+ST.%20GEORGE%2C+UT+84790
IHS- CIBECUE HEALTH CENTER,PO BOX 80039,2 WEST 3RD STREET,"CIBECUE, AZ 85911",http://maps.google.com/maps?q=IHS%20CIBECUE%20HEALTH%20CENTER%2CPO%20BOX%2080039%2C+CIBECUE%2C+AZ+85911
LARX PHARMACY LLC,111 CENTRAL PARK SQUARE,"LOS ALAMOS, NM 87544",http://maps.google.com/maps?q=LARX%20PHARMACY%20LLC%2C111%20CENTRAL%20PARK%20SQUARE%2C+LOS%20ALAMOS%2C+NM+87544,
LEUPP CLINIC,HWY 15/LEUPP SCHOOLS RD,"LEUPP, AZ 86035",http://maps.google.com/maps?q=LEUPP%20CLINIC%2CHWY%2015/LEUPP%20SCHOOLS%20RD%2C+LEUPP%2C+AZ+86035,
MARIPOSA PHARMACY,1852 N. MASTICK WAY,"NOGALES, AZ 85621",http://maps.google.com/maps?q=MARIPOSA%20PHARMACY%2C1852%20N.%20MASTICK%20WAY%2C+NOGALES%2C+AZ+85621,
MAYO HOSPITAL OUTPTNT PHARM,5777 E MAYO BLVD,"PHOENIX, AZ 85054",http://maps.google.com/maps?q=MAYO%20HOSPITAL%20OUTPTNT%20PHARM%2C5777%20E%20MAYO%20BLVD%2C+PHOENIX%2C+AZ+85054,
MEDITECH LABORATORIES INC,3200 POLARIS AVENUE #27,"LAS VEGAS, NV 89102",http://maps.google.com/maps?q=MEDITECH%20LABORATORIES%20INC%2C3200%20POLARIS%20AVENUE%20#27%2C+LAS%20VEGAS%2C+NV+89102,
MONTEZUMA CREEK COMMUNITY HEALTH CENTER PHARMACY,1478 E HWY 162,"MONTEZUMA CREEK, UT 84534",http://maps.google.com/maps?q=MONTEZUMA%20CREEK%20COMMUNITY%20HEALTH%20CENTER%20PHARMACY%2C1478%20E%20HWY%20162%2C+MONTEZUMA%20CREEK%2C+UT+84534,
MONUMENT VALLEY HEALTH CENTER,30 W MEDICAL DRIVE,"MONUMENT VALLEY, UT 84536",http://maps.google.com/maps?q=MONUMENT%20VALLEY%20HEALTH%20CENTER%2C30%20W%20MEDICAL%20DRIVE%2C+MONUMENT%20VALLEY%2C+UT+84536,
NAHATA'DZIIL HEALTH CENTER,CHIIH'TO BLVD,P.O. BOX 125,"SANDERS, AZ 86512",http://maps.google.com/maps?q=NAHATADZIIL%20HEALTH%20CENTER%2CCHIIH'TO%20BLVD%2C+SANDERS%2C+AZ+86512
NELLIS AFB SATELLITE PHARMACY,4311 CARSWELL AVE,BLGD 340,"LAS VEGAS, NV 89191",http://maps.google.com/maps?q=NELLIS%20AFB%20SATELLITE%20PHARMACY%2C4311%20CARSWELL%20AVE%2C+LAS%20VEGAS%2C+NV+89191
"NEVADA CVS PHARMACY, L.L.C.",1017 NEVADA HIGHWAY,"BOULDER CITY, NV 89005",http://maps.google.com/maps?q=NEVADA%20CVS%20PHARMACY%20LLC%2C1017%20NEVADA%20HIGHWAY%2C+BOULDER%20CITY%2C+NV+89005,
"NEVADA CVS PHARMACY, L.L.C.",10400 WEST CHARLESTON BLVD,"LAS VEGAS, NV 89135",http://maps.google.com/maps?q=NEVADA%20CVS%20PHARMACY%20LLC%2C10400%20WEST%20CHARLESTON%20BLVD%2C+LAS%20VEGAS%2C+NV+89135,
"NEVADA CVS PHARMACY, L.L.C.",4411 E. BONANZA RD,"LAS VEGAS, NV 89110",http://maps.google.com/maps?q=NEVADA%20CVS%20PHARMACY%20LLC%2C4411%20E.%20BONANZA%20RD%2C+LAS%20VEGAS%2C+NV+89110,
"NEVADA CVS PHARMACY, L.L.C.",8320 W CHEYENNE AVE,"LAS VEGAS, NV 89129",http://maps.google.com/maps?q=NEVADA%20CVS%20PHARMACY%20LLC%2C8320%20W%20CHEYENNE%20AVE%2C+LAS%20VEGAS%2C+NV+89129,
NMRX LLC DBA NAMBE DRUGS,501 OLD SANTA FE TRAIL,"SANTA FE, NM 87505",http://maps.google.com/maps?q=NMRX%20LLC%20DBA%20NAMBE%20DRUGS%2C501%20OLD%20SANTA%20FE%20TRAIL%2C+SANTA%20FE%2C+NM+87505,
NORTH COUNTRY COMMUNITY,2920 N. 4TH STREET,"FLAGSTAFF, AZ 86004",http://maps.google.com/maps?q=NORTH%20COUNTRY%20COMMUNITY%2C2920%20N.%204TH%20STREET%2C+FLAGSTAFF%2C+AZ+86004,
NORTH VALLEY CENTER FOR FAMILY AND COMMUNITY HEALT,3401 N 4TH ST NW,STE 106,"ALBUQUERQUE, NM 87107",http://maps.google.com/maps?q=NORTH%20VALLEY%20CENTER%20FOR%20FAMILY%20AND%20COMMUNITY%20HEALT%2C3401%20N%204TH%20ST%20NW%2C+ALBUQUERQUE%2C+NM+87107
PECOS VALLEY MEDICAL CENTER,199 STATE HWY 50,POST OFFICE BOX 710,"PECOS, NM 87552",http://maps.google.com/maps?q=PECOS%20VALLEY%20MEDICAL%20CENTER%2C199%20STATE%20HWY%2050%2C+PECOS%2C+NM+87552
PHS INDIAN HOSPITAL,801 VASSAR DR NE,"ALBUQUERQUE, NM 87106",http://maps.google.com/maps?q=PHS%20INDIAN%20HOSPITAL%2C801%20VASSAR%20DR%20NE%2C+ALBUQUERQUE%2C+NM+87106,
RANCH PHARMACY,10769 N FRANK LLOYD WRIGHT BLVD,# A-100,"SCOTTSDALE, AZ 85259",http://maps.google.com/maps?q=RANCH%20PHARMACY%2C10769%20N%20FRANK%20LLOYD%20WRIGHT%20BLVD%2C+SCOTTSDALE%2C+AZ+85259
REMUDA RANCH CTR. FOR ANOREXIA & BULIMIA,1245 JACK BURDEN ROAD,"WICKENBURG, AZ 85390",http://maps.google.com/maps?q=REMUDA%20RANCH%20CTR%20FOR%20ANOREXIA%20%20BULIMIA%2C1245%20JACK%20BURDEN%20ROAD%2C+WICKENBURG%2C+AZ+85390,
SACRED PEAKS HEALTH CENTER,3480 EAST ROUTE 66,"FLAGSTAFF, AZ 86004",http://maps.google.com/maps?q=SACRED%20PEAKS%20HEALTH%20CENTER%2C3480%20EAST%20ROUTE%2066%2C+FLAGSTAFF%2C+AZ+86004,
SAN CARLOS APACHE HEALTHCARE,103 MEDICINE WAY ROAD,"PERIDOT, AZ 85542",http://maps.google.com/maps?q=SAN%20CARLOS%20APACHE%20HEALTHCARE%2C103%20MEDICINE%20WAY%20ROAD%2C+PERIDOT%2C+AZ+85542,
SEVEN HILLS BEHAVIORAL INSTITUTE,10625 JEFFREYS ST.,"HENDERSON, NV 89052",http://maps.google.com/maps?q=SEVEN%20HILLS%20BEHAVIORAL%20INSTITUTE%2C10625%20JEFFREYS%20ST.%2C+HENDERSON%2C+NV+89052,
SIERRA BLANCA PHARMACY,1206 MECHEM DR,"RUIDOSO, NM 88345",http://maps.google.com/maps?q=SIERRA%20BLANCA%20PHARMACY%2C1206%20MECHEM%20DR%2C+RUIDOSO%2C+NM+88345,
SOUTHERN NEVADA ADULT MENTAL,RAWSON-NEAL HOSPITAL PHARMACY,1650 COMMUNITY COLLEGE DR.,"LAS VEGAS, NV 89146",http://maps.google.com/maps?q=SOUTHERN%20NEVADA%20ADULT%20MENTAL%2CRAWSON-NEAL%20HOSPITAL%20PHARMACY%2C+LAS%20VEGAS%2C+NV+89146
SOUTHWEST HEALTH SYSTEM,1311 N MILDRED RD,"CORTEZ, CO 81321",http://maps.google.com/maps?q=SOUTHWEST%20HEALTH%20SYSTEM%2C1311%20N%20MILDRED%20RD%2C+CORTEZ%2C+CO+81321,
"STAPLEY PHARMACY, INC.",102 EAST CITY CENTER,"ST. GEORGE, UT 84770",http://maps.google.com/maps?q=STAPLEY%20PHARMACY%20INC%2C102%20EAST%20CITY%20CENTER%2C+ST.%20GEORGE%2C+UT+84770,
SUN LIFE FAMILY HEALTH CENTER,205 N. STUART BOULEVARD,"ELOY, AZ 85131",http://maps.google.com/maps?q=SUN%20LIFE%20FAMILY%20HEALTH%20CENTER%2C205%20N.%20STUART%20BOULEVARD%2C+ELOY%2C+AZ+85131,
SUN LIFE FAMILY HEALTH CENTER,23 MCNAB PARKWAY,"SAN MANUEL, AZ 85631",http://maps.google.com/maps?q=SUN%20LIFE%20FAMILY%20HEALTH%20CENTER%2C23%20MCNAB%20PARKWAY%2C+SAN%20MANUEL%2C+AZ+85631,
SUN LIFE FAMILY HEALTH CENTER - FLORENCE,174 W HIGHWAY 287,"FLORENCE, AZ 85132",http://maps.google.com/maps?q=SUN%20LIFE%20FAMILY%20HEALTH%20CENTER%20%20FLORENCE%2C174%20W%20HIGHWAY%20287%2C+FLORENCE%2C+AZ+85132,
SUN LIFE FAMILY HEALTH CTR,865 N. ARIZOLA RD.,"CASA GRANDE, AZ 85122",http://maps.google.com/maps?q=SUN%20LIFE%20FAMILY%20HEALTH%20CTR%2C865%20N.%20ARIZOLA%20RD.%2C+CASA%20GRANDE%2C+AZ+85122,
SUNRISE HOSPITAL,INPATIENT PHARMACY,3186 SOUTH MARYLAND PKWY,"LAS VEGAS, NV 89109",http://maps.google.com/maps?q=SUNRISE%20HOSPITAL%2CINPATIENT%20PHARMACY%2C+LAS%20VEGAS%2C+NV+89109
SW MESA CENTER FOR FAMILY AND COMMUNITY HEALTH,301 UNSER BLVD NW,STE 106,"ALBUQUERQUE, NM 87121",http://maps.google.com/maps?q=SW%20MESA%20CENTER%20FOR%20FAMILY%20AND%20COMMUNITY%20HEALTH%2C301%20UNSER%20BLVD%20NW%2C+ALBUQUERQUE%2C+NM+87121
TOHATCHI PHS,07 CHOOSGAI DR,P.O. BOX 142,"TOHATCHI, NM 87325",http://maps.google.com/maps?q=TOHATCHI%20PHS%2C07%20CHOOSGAI%20DR%2C+TOHATCHI%2C+NM+87325
TON SAN XAVIER HEALTH CENTER,7900 S J STOCK RD,"TUCSON, AZ 85746",http://maps.google.com/maps?q=TON%20SAN%20XAVIER%20HEALTH%20CENTER%2C7900%20S%20J%20STOCK%20RD%2C+TUCSON%2C+AZ+85746,
TSAILE INDIAN HEALTH CENTER,NAVAJO ROUTE 64 & INDIAN ROAD 12,"TSAILE, AZ 86556",http://maps.google.com/maps?q=TSAILE%20INDIAN%20HEALTH%20CENTER%2CNAVAJO%20ROUTE%2064%20&%20INDIAN%20ROAD%2012%2C+TSAILE%2C+AZ+86556,
TUBA CITY REGIONAL HEALTH CARE CORPORATION,3 MILES SOUTH COPPERMINE ROAD,PO BOX 4810,"PAGE, AZ 86040",http://maps.google.com/maps?q=TUBA%20CITY%20REGIONAL%20HEALTH%20CARE%20CORPORATION%2C3%20MILES%20SOUTH%20COPPERMINE%20ROAD%2C+PAGE%2C+AZ+86040
TUBA CITY REGIONAL HLTH CARE,P.O. BOX 600,167 N. MAIN STREET,"TUBA CITY, AZ 86045",http://maps.google.com/maps?q=TUBA%20CITY%20REGIONAL%20HLTH%20CARE%2CP.O.%20BOX%20600%2C+TUBA%20CITY%2C+AZ+86045
U S P H S INDIAN HEALTH CTR,PO BOX 368,"KAYENTA, AZ 86033",http://maps.google.com/maps?q=U%20S%20P%20H%20S%20INDIAN%20HEALTH%20CTR%2CPO%20BOX%20368%2C+KAYENTA%2C+AZ+86033,
U S PUBLIC HEALTH SERVICE,PHS INDIAN HEALTH SERVICE,3 NAVARRE BOULVEVARD,"THOREAU, NM 87323",http://maps.google.com/maps?q=U%20S%20PUBLIC%20HEALTH%20SERVICE%2CPHS%20INDIAN%20HEALTH%20SERVICE%2C+THOREAU%2C+NM+87323
U S PUBLIC HEALTH SERVICE,PHS INDIAN HOSPITAL,JUNCTION OF HWY 371 ROUTE 9,"CROWNPOINT, NM 87313",http://maps.google.com/maps?q=U%20S%20PUBLIC%20HEALTH%20SERVICE%2CPHS%20INDIAN%20HOSPITAL%2C+CROWNPOINT%2C+NM+87313
U S PUBLIC HEALTH SERVICE CE,"HIGHWAY 191, PO DRAWER PH",PHARMACY DEPARTMENT,"CHINLE, AZ 86503",http://maps.google.com/maps?q=U%20S%20PUBLIC%20HEALTH%20SERVICE%20CE%2CHIGHWAY%20191%2C%20PO%20DRAWER%20PH%2C+CHINLE%2C+AZ+86503
UNIV HOSP OUTPATIENT PHARMACY,HEALTH SCIENCE CENTER,1209 UNIVERSITY BLVD NE,"ALBUQUERQUE, NM 87102",http://maps.google.com/maps?q=UNIV%20HOSP%20OUTPATIENT%20PHARMACY%2CHEALTH%20SCIENCE%20CENTER%2C+ALBUQUERQUE%2C+NM+87102
UNIVERSITY OF ARIZONA,KIM BIRMINGHAM / PHARMACY,1224 E. LOWELL ST. BLDG 95,"TUCSON, AZ 85721",http://maps.google.com/maps?q=UNIVERSITY%20OF%20ARIZONA%2CKIM%20BIRMINGHAM%20/%20PHARMACY%2C+TUCSON%2C+AZ+85721
UNIVERSITY OF NEW MEXICO HOSP,2211 LOMAS BLVD NE,ATTN PHARMACY,"ALBUQUERQUE, NM 87106",http://maps.google.com/maps?q=UNIVERSITY%20OF%20NEW%20MEXICO%20HOSP%2C2211%20LOMAS%20BLVD%20NE%2C+ALBUQUERQUE%2C+NM+87106
UNM HOSPITALS OUTPATIENT AND DISCHARGE PHARMACY,2211 LOMAS BLVD NE # 4ACC,"ALBUQUERQUE, NM 87106",http://maps.google.com/maps?q=UNM%20HOSPITALS%20OUTPATIENT%20AND%20DISCHARGE%20PHARMACY%2C2211%20LOMAS%20BLVD%20NE%20#%204ACC%2C+ALBUQUERQUE%2C+NM+87106,
UNM SANDOVAL MEDICAL CENTER,3001 BROADMOOR BLVD NE,"RIO RANCHO, NM 87144",http://maps.google.com/maps?q=UNM%20SANDOVAL%20MEDICAL%20CENTER%2C3001%20BROADMOOR%20BLVD%20NE%2C+RIO%20RANCHO%2C+NM+87144,
UNMH PHARMACY-SOUTHEAST HEIGHTS CLINIC,8200 CENTRAL AVE SE,UNM HEALTH SCIENCES,"ALBUQUERQUE, NM 87108",http://maps.google.com/maps?q=UNMH%20PHARMACYSOUTHEAST%20HEIGHTS%20CLINIC%2C8200%20CENTRAL%20AVE%20SE%2C+ALBUQUERQUE%2C+NM+87108
US ARMY- RAYMOND W BLISS HLTH CNT,2240 E. WINROW RD,ROOM 102-24,"FORT HUACHUCA, AZ 85613",http://maps.google.com/maps?q=US%20ARMY%20RAYMOND%20W%20BLISS%20HLTH%20CNT%2C2240%20E.%20WINROW%20RD%2C+FORT%20HUACHUCA%2C+AZ+85613
US PUBLIC HEALTH SERVICE,516 EAST NIZHONI BLVD,PO BOX 1337,"GALLUP, NM 87301",http://maps.google.com/maps?q=US%20PUBLIC%20HEALTH%20SERVICE%2C516%20EAST%20NIZHONI%20BLVD%2C+GALLUP%2C+NM+87301
US PUBLIC HLTH SERV IND HOSP,HWY 491 NORTH,BOX 160,"SHIPROCK, NM 87420",http://maps.google.com/maps?q=US%20PUBLIC%20HLTH%20SERV%20IND%20HOSP%2CHWY%20491%20NORTH%2C+SHIPROCK%2C+NM+87420
US PUBLIC HLTH SERV IND HOSP,PHARMACY DEPT/DIR OF PHARMACY,US HWY 160 & NAVAJO ROUTE 35,"TEEC NOS POS, AZ 86514",http://maps.google.com/maps?q=US%20PUBLIC%20HLTH%20SERV%20IND%20HOSP%2CPHARMACY%20DEPT/DIR%20OF%20PHARMACY%2C+TEEC%20NOS%20POS%2C+AZ+86514
USAF - 377TH MEDICAL GROUP/SGSL,1501 SAN PEDRO DRIVE S.E.,BLDG 47,"ALBUQUERQUE, NM 87108",http://maps.google.com/maps?q=USAF%20%20TH%20MEDICAL%20GROUPSGSL%2C1501%20SAN%20PEDRO%20DRIVE%20S.E.%2C+ALBUQUERQUE%2C+NM+87108
USAF - KIRTLAND AFB,"7901 GIBSON BLVD SE, BLDG 20169","KIRTLAND AFB, NM 87117",http://maps.google.com/maps?q=USAF%20%20KIRTLAND%20AFB%2C7901%20GIBSON%20BLVD%20SE%2C%20BLDG%2020169%2C+KIRTLAND%20AFB%2C+NM+87117,
USAF 99 MDSS/SGSM,4700 LAS VEGAS BLVD N,"NELLIS AFB, NV 89191",http://maps.google.com/maps?q=USAF%20%20MDSSSGSM%2C4700%20LAS%20VEGAS%20BLVD%20N%2C+NELLIS%20AFB%2C+NV+89191,
USAF- 355TH MEDICAL GROUP/SGAL,4175 S ALAMO AVE BLDG 400,BLDG 400,"DAVIS MONTHAN AFB, AZ 85707",http://maps.google.com/maps?q=USAF%20TH%20MEDICAL%20GROUPSGAL%2C4175%20S%20ALAMO%20AVE%20BLDG%20400%2C+DAVIS%20MONTHAN%20AFB%2C+AZ+85707
USAF- 56 MEDICAL GROUP SGL,7219 N LITCHFIELD RD,BLDG 1130,"LUKE AFB, AZ 85309",http://maps.google.com/maps?q=USAF%20%20MEDICAL%20GROUP%20SGL%2C7219%20N%20LITCHFIELD%20RD%2C+LUKE%20AFB%2C+AZ+85309
USAF-56 MEDICAL GROUP SGSD,7040 N 138TH AVE BLDG 1514,USAF-SATELLITE PHARMACY,"LUKE AFB, AZ 85309",http://maps.google.com/maps?q=USAF%20MEDICAL%20GROUP%20SGSD%2C7040%20N%20138TH%20AVE%20BLDG%201514%2C+LUKE%20AFB%2C+AZ+85309
USPHS INDIAN HOSPITAL,301 NORTH 21B AVE,"ZUNI, NM 87327",http://maps.google.com/maps?q=USPHS%20INDIAN%20HOSPITAL%2C301%20NORTH%2021B%20AVE%2C+ZUNI%2C+NM+87327,
USPHS INDIAN HOSPITAL,"HIGHWAY 73, MILEPOST 342","WHITERIVER, AZ 85941",http://maps.google.com/maps?q=USPHS%20INDIAN%20HOSPITAL%2CHIGHWAY%2073%2C%20MILEPOST%20342%2C+WHITERIVER%2C+AZ+85941,
UTAH NAVAJO COMMUNITY HEALTH CENTER BRANCH PHARMAC,2 RAINBOW ROAD,"NAVAJO MOUNTAIN, UT 84536",http://maps.google.com/maps?q=UTAH%20NAVAJO%20COMMUNITY%20HEALTH%20CENTER%20BRANCH%20PHARMAC%2C2%20RAINBOW%20ROAD%2C+NAVAJO%20MOUNTAIN%2C+UT+84536,
VERDE VALLEY MEDICAL CENTER RETAIL PHARMACY,269 S. CANDY LANE,"COTTONWOOD, AZ 86326",http://maps.google.com/maps?q=VERDE%20VALLEY%20MEDICAL%20CENTER%20RETAIL%20PHARMACY%2C269%20S.%20CANDY%20LANE%2C+COTTONWOOD%2C+AZ+86326,
"VIDA PHARMACY, LLC","8500 JEFFERSON BLVD. NE, SUITE D","ALBUQUERQUE, NM 87113",http://maps.google.com/maps?q=VIDA%20PHARMACY%20LLC%2C8500%20JEFFERSON%20BLVD.%20NE%2C%20SUITE%20D%2C+ALBUQUERQUE%2C+NM+87113,
WALGREEN ARIZONA DRUG CO.,1514 E FLORENCE BLVD,"CASA GRANDE, AZ 85122",http://maps.google.com/maps?q=WALGREEN%20ARIZONA%20DRUG%20CO%2C1514%20E%20FLORENCE%20BLVD%2C+CASA%20GRANDE%2C+AZ+85122,
WALGREEN ARIZONA DRUG CO.,17088 W BELL RD,"SURPRISE, AZ 85374",http://maps.google.com/maps?q=WALGREEN%20ARIZONA%20DRUG%20CO%2C17088%20W%20BELL%20RD%2C+SURPRISE%2C+AZ+85374,
WALGREEN ARIZONA DRUG CO.,1880 E IRVINGTON ROAD,"TUCSON, AZ 85714",http://maps.google.com/maps?q=WALGREEN%20ARIZONA%20DRUG%20CO%2C1880%20E%20IRVINGTON%20ROAD%2C+TUCSON%2C+AZ+85714,
WALGREEN ARIZONA DRUG CO.,1950 E FRY BLVD,"SIERRA VISTA, AZ 85635",http://maps.google.com/maps?q=WALGREEN%20ARIZONA%20DRUG%20CO%2C1950%20E%20FRY%20BLVD%2C+SIERRA%20VISTA%2C+AZ+85635,
WALGREEN ARIZONA DRUG CO.,204 E BELL RD,"PHOENIX, AZ 85022",http://maps.google.com/maps?q=WALGREEN%20ARIZONA%20DRUG%20CO%2C204%20E%20BELL%20RD%2C+PHOENIX%2C+AZ+85022,
WALGREEN ARIZONA DRUG CO.,2360 HIGHWAY 95,"BULLHEAD CITY, AZ 86442",http://maps.google.com/maps?q=WALGREEN%20ARIZONA%20DRUG%20CO%2C2360%20HIGHWAY%2095%2C+BULLHEAD%20CITY%2C+AZ+86442,
WALGREEN ARIZONA DRUG CO.,25 LAKE HAVASU AVE S,"LAKE HAVASU CITY, AZ 86403",http://maps.google.com/maps?q=WALGREEN%20ARIZONA%20DRUG%20CO%2C25%20LAKE%20HAVASU%20AVE%20S%2C+LAKE%20HAVASU%20CITY%2C+AZ+86403,
WALGREEN ARIZONA DRUG CO.,2610 E. ROUTE 66,"FLAGSTAFF, AZ 86004",http://maps.google.com/maps?q=WALGREEN%20ARIZONA%20DRUG%20CO%2C2610%20E.%20ROUTE%2066%2C+FLAGSTAFF%2C+AZ+86004,
WALGREEN ARIZONA DRUG CO.,2880 N CENTRE COURT,"PRESCOTT VALLEY, AZ 86314",http://maps.google.com/maps?q=WALGREEN%20ARIZONA%20DRUG%20CO%2C2880%20N%20CENTRE%20COURT%2C+PRESCOTT%20VALLEY%2C+AZ+86314,
WALGREEN ARIZONA DRUG CO.,3450 W. DUNLAP AVE,"PHOENIX, AZ 85051",http://maps.google.com/maps?q=WALGREEN%20ARIZONA%20DRUG%20CO%2C3450%20W.%20DUNLAP%20AVE%2C+PHOENIX%2C+AZ+85051,
WALGREEN ARIZONA DRUG CO.,3800 W. INA RD,"TUCSON, AZ 85741",http://maps.google.com/maps?q=WALGREEN%20ARIZONA%20DRUG%20CO%2C3800%20W.%20INA%20RD%2C+TUCSON%2C+AZ+85741,
WALGREEN ARIZONA DRUG CO.,4249 W GLENDALE AVE,"PHOENIX, AZ 85051",http://maps.google.com/maps?q=WALGREEN%20ARIZONA%20DRUG%20CO%2C4249%20W%20GLENDALE%20AVE%2C+PHOENIX%2C+AZ+85051,
WALGREEN ARIZONA DRUG CO.,4685 E GRANT RD,"TUCSON, AZ 85712",http://maps.google.com/maps?q=WALGREEN%20ARIZONA%20DRUG%20CO%2C4685%20E%20GRANT%20RD%2C+TUCSON%2C+AZ+85712,
WALGREEN ARIZONA DRUG CO.,4965 W BELL ROAD,"GLENDALE, AZ 85308",http://maps.google.com/maps?q=WALGREEN%20ARIZONA%20DRUG%20CO%2C4965%20W%20BELL%20ROAD%2C+GLENDALE%2C+AZ+85308,
WALGREEN ARIZONA DRUG CO.,6501 E GREENWAY PKWY BLDG 1,"SCOTTSDALE, AZ 85254",http://maps.google.com/maps?q=WALGREEN%20ARIZONA%20DRUG%20CO%2C6501%20E%20GREENWAY%20PKWY%20BLDG%201%2C+SCOTTSDALE%2C+AZ+85254,
WALGREEN ARIZONA DRUG CO.,6767 E. BROADWAY BLVD.,"TUCSON, AZ 85710",http://maps.google.com/maps?q=WALGREEN%20ARIZONA%20DRUG%20CO%2C6767%20E.%20BROADWAY%20BLVD.%2C+TUCSON%2C+AZ+85710,
WALGREEN ARIZONA DRUG CO.,7011 E. SHEA BLVD.,"SCOTTSDALE, AZ 85254",http://maps.google.com/maps?q=WALGREEN%20ARIZONA%20DRUG%20CO%2C7011%20E.%20SHEA%20BLVD.%2C+SCOTTSDALE%2C+AZ+85254,
WALGREEN ARIZONA DRUG CO.,7111 E. GOLF LINKS RD.,"TUCSON, AZ 85730",http://maps.google.com/maps?q=WALGREEN%20ARIZONA%20DRUG%20CO%2C7111%20E.%20GOLF%20LINKS%20RD.%2C+TUCSON%2C+AZ+85730,
WALGREEN ARIZONA DRUG CO.,9050 W UNION HILLS DRIVE,"PEORIA, AZ 85382",http://maps.google.com/maps?q=WALGREEN%20ARIZONA%20DRUG%20CO%2C9050%20W%20UNION%20HILLS%20DRIVE%2C+PEORIA%2C+AZ+85382,
WALGREEN CO.,1180 E FLAMINGO RD,"LAS VEGAS, NV 89119",http://maps.google.com/maps?q=WALGREEN%20CO%2C1180%20E%20FLAMINGO%20RD%2C+LAS%20VEGAS%2C+NV+89119,
WALGREEN CO.,1445 W CRAIG RD,"NORTH LAS VEGAS, NV 89032",http://maps.google.com/maps?q=WALGREEN%20CO%2C1445%20W%20CRAIG%20RD%2C+NORTH%20LAS%20VEGAS%2C+NV+89032,
WALGREEN CO.,1701 N GREEN VALLEY PKWY,"HENDERSON, NV 89074",http://maps.google.com/maps?q=WALGREEN%20CO%2C1701%20N%20GREEN%20VALLEY%20PKWY%2C+HENDERSON%2C+NV+89074,
WALGREEN CO.,1870 E HIGHWAY 66,"GALLUP, NM 87301",http://maps.google.com/maps?q=WALGREEN%20CO%2C1870%20E%20HIGHWAY%2066%2C+GALLUP%2C+NM+87301,
WALGREEN CO.,2389 E WINDMILL LANE,"LAS VEGAS, NV 89123",http://maps.google.com/maps?q=WALGREEN%20CO%2C2389%20E%20WINDMILL%20LANE%2C+LAS%20VEGAS%2C+NV+89123,
WALGREEN CO.,2500 MAIN STREET NE,"LOS LUNAS, NM 87031",http://maps.google.com/maps?q=WALGREEN%20CO%2C2500%20MAIN%20STREET%20NE%2C+LOS%20LUNAS%2C+NM+87031,
WALGREEN CO.,3298 CERRILLOS RD,"SANTA FE, NM 87507",http://maps.google.com/maps?q=WALGREEN%20CO%2C3298%20CERRILLOS%20RD%2C+SANTA%20FE%2C+NM+87507,
WALGREEN CO.,3400 COORS BOULEVARD NW,"ALBUQUERQUE, NM 87120",http://maps.google.com/maps?q=WALGREEN%20CO%2C3400%20COORS%20BOULEVARD%20NW%2C+ALBUQUERQUE%2C+NM+87120,
WALGREEN CO.,3401 ISLETA BOULEVARD SW,"ALBUQUERQUE, NM 87105",http://maps.google.com/maps?q=WALGREEN%20CO%2C3401%20ISLETA%20BOULEVARD%20SW%2C+ALBUQUERQUE%2C+NM+87105,
WALGREEN CO.,4051 SOUTHERN BOULEVARD SE,"RIO RANCHO, NM 87124",http://maps.google.com/maps?q=WALGREEN%20CO%2C4051%20SOUTHERN%20BOULEVARD%20SE%2C+RIO%20RANCHO%2C+NM+87124,
WALGREEN CO.,4470 E. BONANZA ROAD,"LAS VEGAS, NV 89110",http://maps.google.com/maps?q=WALGREEN%20CO%2C4470%20E.%20BONANZA%20ROAD%2C+LAS%20VEGAS%2C+NV+89110,
WALGREEN CO.,4905 W TROPICANA AVE,"LAS VEGAS, NV 89103",http://maps.google.com/maps?q=WALGREEN%20CO%2C4905%20W%20TROPICANA%20AVE%2C+LAS%20VEGAS%2C+NV+89103,
WALGREEN CO.,5001 MONTGOMERY BLVD NE,"ALBUQUERQUE, NM 87109",http://maps.google.com/maps?q=WALGREEN%20CO%2C5001%20MONTGOMERY%20BLVD%20NE%2C+ALBUQUERQUE%2C+NM+87109,
WALGREEN CO.,5011 E. SAHARA AVE.,"LAS VEGAS, NV 89142",http://maps.google.com/maps?q=WALGREEN%20CO%2C5011%20E.%20SAHARA%20AVE.%2C+LAS%20VEGAS%2C+NV+89142,
WALGREEN CO.,6865 W TROPICANA AVE,"LAS VEGAS, NV 89103",http://maps.google.com/maps?q=WALGREEN%20CO%2C6865%20W%20TROPICANA%20AVE%2C+LAS%20VEGAS%2C+NV+89103,
WALGREEN CO.,701 E 20TH,"FARMINGTON, NM 87401",http://maps.google.com/maps?q=WALGREEN%20CO%2C701%20E%2020TH%2C+FARMINGTON%2C+NM+87401,
WALGREEN CO.,7599 W LAKE MEAD BLVD,"LAS VEGAS, NV 89128",http://maps.google.com/maps?q=WALGREEN%20CO%2C7599%20W%20LAKE%20MEAD%20BLVD%2C+LAS%20VEGAS%2C+NV+89128,
WALGREEN CO.,8500 W. CHEYENNE AVE.,"LAS VEGAS, NV 89129",http://maps.google.com/maps?q=WALGREEN%20CO%2C8500%20W.%20CHEYENNE%20AVE.%2C+LAS%20VEGAS%2C+NV+89129,
WALGREEN CO.,9415 W. DESERT INN,"LAS VEGAS, NV 89117",http://maps.google.com/maps?q=WALGREEN%20CO%2C9415%20W.%20DESERT%20INN%2C+LAS%20VEGAS%2C+NV+89117,
WALGREEN CO.,9700 MENAUL BLVD NE,"ALBUQUERQUE, NM 87112",http://maps.google.com/maps?q=WALGREEN%20CO%2C9700%20MENAUL%20BLVD%20NE%2C+ALBUQUERQUE%2C+NM+87112,
"WARM SPRINGS ROAD CVS, L.L.C.",21 W. HORIZON RIDGE PARKWAY,"HENDERSON, NV 89012",http://maps.google.com/maps?q=WARM%20SPRINGS%20ROAD%20CVS%20LLC%2C21%20W.%20HORIZON%20RIDGE%20PARKWAY%2C+HENDERSON%2C+NV+89012,
"WARM SPRINGS ROAD CVS, L.L.C.",6391 W. LAKE MEAD BLVD.,"LAS VEGAS, NV 89108",http://maps.google.com/maps?q=WARM%20SPRINGS%20ROAD%20CVS%20LLC%2C6391%20W.%20LAKE%20MEAD%20BLVD.%2C+LAS%20VEGAS%2C+NV+89108,
"WARM SPRINGS ROAD CVS, L.L.C.",7285 ALIANTE PKWY.,"NORTH LAS VEGAS, NV 89084",http://maps.google.com/maps?q=WARM%20SPRINGS%20ROAD%20CVS%20LLC%2C7285%20ALIANTE%20PKWY.%2C+NORTH%20LAS%20VEGAS%2C+NV+89084,
"WARM SPRINGS ROAD CVS, L.L.C.",9695 S. MARYLAND PKWY.,"LAS VEGAS, NV 89123",http://maps.google.com/maps?q=WARM%20SPRINGS%20ROAD%20CVS%20LLC%2C9695%20S.%20MARYLAND%20PKWY.%2C+LAS%20VEGAS%2C+NV+89123,
WINSLOW INDIAN HEALTH CARE,ATTN:PHARMACY,500 N. INDIANA AVE.,"WINSLOW, AZ 86047",http://maps.google.com/maps?q=WINSLOW%20INDIAN%20HEALTH%20CARE%2CATTN%3APHARMACY%2C+WINSLOW%2C+AZ+86047
"ZIONS PHARMACY SERVICES, LLC",14 E CENTER ST,"KANAB, UT 84741",http://maps.google.com/maps?q=ZIONS%20PHARMACY%20SERVICES%20LLC%2C14%20E%20CENTER%20ST%2C+KANAB%2C+UT+84741,
