Business Name,Address 1,Address 2,"City, State Zip",Map URL
BETH ISRAEL DEACONESS / NEEDHAM,148 CHESTNUT STREET,"NEEDHAM, MA 02492",http://maps.google.com/maps?q=BETH%20ISRAEL%20DEACONESS%20%20NEEDHAM%2C148%20CHESTNUT%20STREET%2C+NEEDHAM%2C+MA+02492,
BEVERLY HOSPITAL,C/O PHARMACY DEPT,85 HERRICK ST,"BEVERLY, MA 01915",http://maps.google.com/maps?q=BEVERLY%20HOSPITAL%2CC/O%20PHARMACY%20DEPT%2C+BEVERLY%2C+MA+01915
BIDMC PHARMACY,364 BROOKLINE AVE,"BOSTON, MA 02215",http://maps.google.com/maps?q=BIDMC%20PHARMACY%2C364%20BROOKLINE%20AVE%2C+BOSTON%2C+MA+02215,
BOSTON MEDICAL CENTER,MENINO CAMPUS,840 HARRISON AVE,"BOSTON, MA 02118",http://maps.google.com/maps?q=BOSTON%20MEDICAL%20CENTER%2CMENINO%20CAMPUS%2C+BOSTON%2C+MA+02118
BOSTON MEDICAL CENTER PHARMACY AT SHAPIRO,725 ALBANY ST,PHARMACY,"BOSTON, MA 02118",http://maps.google.com/maps?q=BOSTON%20MEDICAL%20CENTER%20PHARMACY%20AT%20SHAPIRO%2C725%20ALBANY%20ST%2C+BOSTON%2C+MA+02118
BRIGHAM AND WOMEN'S HOSPITAL,75 FRANCIS STREET,DEPT OF PHARMACY TWR L2-504,"BOSTON, MA 02115",http://maps.google.com/maps?q=BRIGHAM%20AND%20WOMENS%20HOSPITAL%2C75%20FRANCIS%20STREET%2C+BOSTON%2C+MA+02115
BRIGHAM AND WOMEN'S HOSPITAL,850 BOYLSTON STREET,"DELIVER TO PHARMACY DEPT, 75 F","CHESTNUT HILL, MA 02467",http://maps.google.com/maps?q=BRIGHAM%20AND%20WOMENS%20HOSPITAL%2C850%20BOYLSTON%20STREET%2C+CHESTNUT%20HILL%2C+MA+02467
CATHOLIC MEDICAL CENTER HOSP,100 MCGREGOR STREET,"MANCHESTER, NH 03102",http://maps.google.com/maps?q=CATHOLIC%20MEDICAL%20CENTER%20HOSP%2C100%20MCGREGOR%20STREET%2C+MANCHESTER%2C+NH+03102,
CURE-AID PHARMACY INC.,203 ESSEX ST,"LAWRENCE, MA 01840",http://maps.google.com/maps?q=CUREAID%20PHARMACY%20INC%2C203%20ESSEX%20ST%2C+LAWRENCE%2C+MA+01840,
"CVS MANCHESTER NH, L.L.C.",242 MAIN STREET,"NASHUA, NH 03060",http://maps.google.com/maps?q=CVS%20MANCHESTER%20NH%20LLC%2C242%20MAIN%20STREET%2C+NASHUA%2C+NH+03060,
"CVS MANCHESTER NH, L.L.C.",268 WEST ST.,"KEENE, NH 03431",http://maps.google.com/maps?q=CVS%20MANCHESTER%20NH%20LLC%2C268%20WEST%20ST.%2C+KEENE%2C+NH+03431,
"CVS PHARMACY, INC.",115 STAFFORD ST.,"WORCESTER, MA 01603",http://maps.google.com/maps?q=CVS%20PHARMACY%20INC%2C115%20STAFFORD%20ST.%2C+WORCESTER%2C+MA+01603,
"CVS PHARMACY, INC.",12 HARVARD ST.,"WALTHAM, MA 02453",http://maps.google.com/maps?q=CVS%20PHARMACY%20INC%2C12%20HARVARD%20ST.%2C+WALTHAM%2C+MA+02453,
"CVS PHARMACY, INC.",1280 WORCESTER RD.,"FRAMINGHAM, MA 01702",http://maps.google.com/maps?q=CVS%20PHARMACY%20INC%2C1280%20WORCESTER%20RD.%2C+FRAMINGHAM%2C+MA+01702,
"CVS PHARMACY, INC.",13-1/2 POND STREET,"NEWBURYPORT, MA 01950",http://maps.google.com/maps?q=CVS%20PHARMACY%20INC%2C13-1/2%20POND%20STREET%2C+NEWBURYPORT%2C+MA+01950,
"CVS PHARMACY, INC.",136 NAHATAN ST.,"NORWOOD, MA 02062",http://maps.google.com/maps?q=CVS%20PHARMACY%20INC%2C136%20NAHATAN%20ST.%2C+NORWOOD%2C+MA+02062,
"CVS PHARMACY, INC.",137 SOUTH MAIN STREET,"MILFORD, MA 01757",http://maps.google.com/maps?q=CVS%20PHARMACY%20INC%2C137%20SOUTH%20MAIN%20STREET%2C+MILFORD%2C+MA+01757,
"CVS PHARMACY, INC.",137 WEST CENTRAL STREET,"NATICK, MA 01760",http://maps.google.com/maps?q=CVS%20PHARMACY%20INC%2C137%20WEST%20CENTRAL%20STREET%2C+NATICK%2C+MA+01760,
"CVS PHARMACY, INC.",171 NORTH MAIN STREET,"RANDOLPH, MA 02368",http://maps.google.com/maps?q=CVS%20PHARMACY%20INC%2C171%20NORTH%20MAIN%20STREET%2C+RANDOLPH%2C+MA+02368,
"CVS PHARMACY, INC.",1815 MIDDLESEX STREET,"LOWELL, MA 01851",http://maps.google.com/maps?q=CVS%20PHARMACY%20INC%2C1815%20MIDDLESEX%20STREET%2C+LOWELL%2C+MA+01851,
"CVS PHARMACY, INC.",19 DODGE ST.,"BEVERLY, MA 01915",http://maps.google.com/maps?q=CVS%20PHARMACY%20INC%2C19%20DODGE%20ST.%2C+BEVERLY%2C+MA+01915,
"CVS PHARMACY, INC.",197 BOSTON TURNPIKE RTE 9,"SHREWSBURY, MA 01545",http://maps.google.com/maps?q=CVS%20PHARMACY%20INC%2C197%20BOSTON%20TURNPIKE%20RTE%209%2C+SHREWSBURY%2C+MA+01545,
"CVS PHARMACY, INC.",264 EAST MAIN STREET,"MARLBORO, MA 01752",http://maps.google.com/maps?q=CVS%20PHARMACY%20INC%2C264%20EAST%20MAIN%20STREET%2C+MARLBORO%2C+MA+01752,
"CVS PHARMACY, INC.",27-43 MAIN STREET,"WATERTOWN, MA 02472",http://maps.google.com/maps?q=CVS%20PHARMACY%20INC%2C27-43%20MAIN%20STREET%2C+WATERTOWN%2C+MA+02472,
"CVS PHARMACY, INC.",300 LONGWOOD AVE.,CHILDRENS HOSPITAL,"BOSTON, MA 02115",http://maps.google.com/maps?q=CVS%20PHARMACY%20INC%2C300%20LONGWOOD%20AVE.%2C+BOSTON%2C+MA+02115
"CVS PHARMACY, INC.",314 MAIN STREET,"GARDNER, MA 01440",http://maps.google.com/maps?q=CVS%20PHARMACY%20INC%2C314%20MAIN%20STREET%2C+GARDNER%2C+MA+01440,
"CVS PHARMACY, INC.",336 BRIDGE ST.,"LOWELL, MA 01850",http://maps.google.com/maps?q=CVS%20PHARMACY%20INC%2C336%20BRIDGE%20ST.%2C+LOWELL%2C+MA+01850,
"CVS PHARMACY, INC.",36 WHITE STREET,"CAMBRIDGE, MA 02140",http://maps.google.com/maps?q=CVS%20PHARMACY%20INC%2C36%20WHITE%20STREET%2C+CAMBRIDGE%2C+MA+02140,
"CVS PHARMACY, INC.",400 MASSACHUSETTS AVENUE,"ACTON, MA 01720",http://maps.google.com/maps?q=CVS%20PHARMACY%20INC%2C400%20MASSACHUSETTS%20AVENUE%2C+ACTON%2C+MA+01720,
"CVS PHARMACY, INC.",400 PARK AVE.,"WORCESTER, MA 01610",http://maps.google.com/maps?q=CVS%20PHARMACY%20INC%2C400%20PARK%20AVE.%2C+WORCESTER%2C+MA+01610,
"CVS PHARMACY, INC.",42 BEALE STREET,"WOLLASTON, MA 02170",http://maps.google.com/maps?q=CVS%20PHARMACY%20INC%2C42%20BEALE%20STREET%2C+WOLLASTON%2C+MA+02170,
"CVS PHARMACY, INC.",425 LOWELL AVE.,"HAVERHILL, MA 01832",http://maps.google.com/maps?q=CVS%20PHARMACY%20INC%2C425%20LOWELL%20AVE.%2C+HAVERHILL%2C+MA+01832,
"CVS PHARMACY, INC.",474 WASHINGTON ST.,"WEYMOUTH, MA 02188",http://maps.google.com/maps?q=CVS%20PHARMACY%20INC%2C474%20WASHINGTON%20ST.%2C+WEYMOUTH%2C+MA+02188,
"CVS PHARMACY, INC.",500 GRAFTON STREET,"WORCESTER, MA 01604",http://maps.google.com/maps?q=CVS%20PHARMACY%20INC%2C500%20GRAFTON%20STREET%2C+WORCESTER%2C+MA+01604,
"CVS PHARMACY, INC.",590 FELLSWAY,"MEDFORD, MA 02155",http://maps.google.com/maps?q=CVS%20PHARMACY%20INC%2C590%20FELLSWAY%2C+MEDFORD%2C+MA+02155,
"CVS PHARMACY, INC.","626 SOUTHERN ARTERY, RTE 3A","QUINCY, MA 02169",http://maps.google.com/maps?q=CVS%20PHARMACY%20INC%2C626%20SOUTHERN%20ARTERY%2C%20RTE%203A%2C+QUINCY%2C+MA+02169,
"CVS PHARMACY, INC.",68 MAIN STREET,"ANDOVER, MA 01810",http://maps.google.com/maps?q=CVS%20PHARMACY%20INC%2C68%20MAIN%20STREET%2C+ANDOVER%2C+MA+01810,
"CVS PHARMACY, INC.",715 MORRISSEY BOULEVARD,"DORCHESTER, MA 02122",http://maps.google.com/maps?q=CVS%20PHARMACY%20INC%2C715%20MORRISSEY%20BOULEVARD%2C+DORCHESTER%2C+MA+02122,
"CVS PHARMACY, INC.",9 NELSON STREET,"LEOMINSTER, MA 01453",http://maps.google.com/maps?q=CVS%20PHARMACY%20INC%2C9%20NELSON%20STREET%2C+LEOMINSTER%2C+MA+01453,
"CVS STATE CAPITAL, L.L.C.",1 KENNEDY MEMORIAL DR.,"WATERVILLE, ME 04901",http://maps.google.com/maps?q=CVS%20STATE%20CAPITAL%20LLC%2C1%20KENNEDY%20MEMORIAL%20DR.%2C+WATERVILLE%2C+ME+04901,
"CVS STATE CAPITAL, L.L.C.",446 SABATTUS ST.,"LEWISTON, ME 04240",http://maps.google.com/maps?q=CVS%20STATE%20CAPITAL%20LLC%2C446%20SABATTUS%20ST.%2C+LEWISTON%2C+ME+04240,
"CVS STATE CAPITAL, L.L.C.",51 MARKET STREET,MILL CREEK S/C,"SOUTH PORTLAND, ME 04106",http://maps.google.com/maps?q=CVS%20STATE%20CAPITAL%20LLC%2C51%20MARKET%20STREET%2C+SOUTH%20PORTLAND%2C+ME+04106
"CVS STATE CAPITAL, L.L.C.",797 MAIN ST. STE #D,"SANFORD, ME 04073",http://maps.google.com/maps?q=CVS%20STATE%20CAPITAL%20LLC%2C797%20MAIN%20ST.%20STE%20#D%2C+SANFORD%2C+ME+04073,
DARTMOUTH HITCHCOCK PHARMACY AT CENTERRA,12 CENTERRA PARKWAY,"LEBANON, NH 03766",http://maps.google.com/maps?q=DARTMOUTH%20HITCHCOCK%20PHARMACY%20AT%20CENTERRA%2C12%20CENTERRA%20PARKWAY%2C+LEBANON%2C+NH+03766,
DARTMOUTH-HITCHCOCK PHARMACY,1 MEDICAL CENTER DR,"LEBANON, NH 03756",http://maps.google.com/maps?q=DARTMOUTHHITCHCOCK%20PHARMACY%2C1%20MEDICAL%20CENTER%20DR%2C+LEBANON%2C+NH+03756,
DICK HALL'S HOUSE PHARMACY,5 ROPE FERRY RD.,"HANOVER, NH 03755",http://maps.google.com/maps?q=DICK%20HALLS%20HOUSE%20PHARMACY%2C5%20ROPE%20FERRY%20RD.%2C+HANOVER%2C+NH+03755,
ELLIOT PHARMACY AT RIVER'S EDGE,175 QUEEN CITY AVE SUITE 1,"MANCHESTER, NH 03101",http://maps.google.com/maps?q=ELLIOT%20PHARMACY%20AT%20RIVERS%20EDGE%2C175%20QUEEN%20CITY%20AVE%20SUITE%201%2C+MANCHESTER%2C+NH+03101,
EMERSON HOSPITAL,ATTN: PHARMACY DEPARTMENT,133 ORNAC,"CONCORD, MA 01742",http://maps.google.com/maps?q=EMERSON%20HOSPITAL%2CATTN%3A%20PHARMACY%20DEPARTMENT%2C+CONCORD%2C+MA+01742
FIRST COLONY CORP,PO BOX 10,82 NEWPORT RD,"NEW LONDON, NH 03257",http://maps.google.com/maps?q=FIRST%20COLONY%20CORP%2CPO%20BOX%2010%2C+NEW%20LONDON%2C+NH+03257
FRANKLIN MEMORIAL HOSPITAL,111 FRANKLIN HEALTH COMMONS,"FARMINGTON, ME 04938",http://maps.google.com/maps?q=FRANKLIN%20MEMORIAL%20HOSPITAL%2C111%20FRANKLIN%20HEALTH%20COMMONS%2C+FARMINGTON%2C+ME+04938,
GAUTHIER'S PHARMACY INC,415 RAILROAD ST,"ST JOHNSBURY, VT 05819",http://maps.google.com/maps?q=GAUTHIERS%20PHARMACY%20INC%2C415%20RAILROAD%20ST%2C+ST%20JOHNSBURY%2C+VT+05819,
GENERAL HOSP CORPORATION,55 FRUIT STREET,"BOSTON, MA 02114",http://maps.google.com/maps?q=GENERAL%20HOSP%20CORPORATION%2C55%20FRUIT%20STREET%2C+BOSTON%2C+MA+02114,
GENERAL HOSPITAL CORPORATION,OUTPATIENT PHARMACY,55 FRUIT STREET,"BOSTON, MA 02114",http://maps.google.com/maps?q=GENERAL%20HOSPITAL%20CORPORATION%2COUTPATIENT%20PHARMACY%2C+BOSTON%2C+MA+02114
"GUARDIAN PHARMACY OF MAINE, LLC","3 BUSINESS PARKWAY, SUITE 2","BRUNSWICK, ME 04011",http://maps.google.com/maps?q=GUARDIAN%20PHARMACY%20OF%20MAINE%20LLC%2C3%20BUSINESS%20PARKWAY%2C%20SUITE%202%2C+BRUNSWICK%2C+ME+04011,
HARVARD UNIVERSITY HEALTH SERVICES,75 MT AUBURN ST,"CAMBRIDGE, MA 02138",http://maps.google.com/maps?q=HARVARD%20UNIVERSITY%20HEALTH%20SERVICES%2C75%20MT%20AUBURN%20ST%2C+CAMBRIDGE%2C+MA+02138,
LAHEY CLINIC HOSPITAL INC,C/O PHARMACY DEPT,41 MALL RD,"BURLINGTON, MA 01805",http://maps.google.com/maps?q=LAHEY%20CLINIC%20HOSPITAL%20INC%2CC/O%20PHARMACY%20DEPT%2C+BURLINGTON%2C+MA+01805
LAKES REGION GENERAL HOSPITAL,80 HIGHLAND STREET,"LACONIA, NH 03246",http://maps.google.com/maps?q=LAKES%20REGION%20GENERAL%20HOSPITAL%2C80%20HIGHLAND%20STREET%2C+LACONIA%2C+NH+03246,
MASS EYE & EAR INFIRMARY,243 CHARLES ST,"BOSTON, MA 02114",http://maps.google.com/maps?q=MASS%20EYE%20%20EAR%20INFIRMARY%2C243%20CHARLES%20ST%2C+BOSTON%2C+MA+02114,
MASS GENERAL / NORTH SHORE CENTER FOR OUT-PATIENT,102 ENDICOTT STREET,"DANVERS, MA 01923",http://maps.google.com/maps?q=MASS%20GENERAL%20%20NORTH%20SHORE%20CENTER%20FOR%20OUTPATIENT%2C102%20ENDICOTT%20STREET%2C+DANVERS%2C+MA+01923,
MC LEAN HOSPITAL,PHARMACY DIRECTOR,115 MILL STREET,"BELMONT, MA 02478",http://maps.google.com/maps?q=MC%20LEAN%20HOSPITAL%2CPHARMACY%20DIRECTOR%2C+BELMONT%2C+MA+02478
NASHUA HOSPITAL ASSOC,8 PROSPECT ST,BOX 2014,"NASHUA, NH 03061",http://maps.google.com/maps?q=NASHUA%20HOSPITAL%20ASSOC%2C8%20PROSPECT%20ST%2C+NASHUA%2C+NH+03061
NEWTON-WELLESLEY HOSPITAL,ATTN PHARMACY,2014 WASHINGTON ST,"NEWTON LOWER FALLS, MA 02462",http://maps.google.com/maps?q=NEWTONWELLESLEY%20HOSPITAL%2CATTN%20PHARMACY%2C+NEWTON%20LOWER%20FALLS%2C+MA+02462
NORTHEASTERN VT REG HOSP INC,HOSPITAL DRIVE,"ST JOHNSBURY, VT 05819",http://maps.google.com/maps?q=NORTHEASTERN%20VT%20REG%20HOSP%20INC%2CHOSPITAL%20DRIVE%2C+ST%20JOHNSBURY%2C+VT+05819,
PHARMACEUTICALLY ELEGANT INC,590 MAIN ST,"LYNNFIELD, MA 01940",http://maps.google.com/maps?q=PHARMACEUTICALLY%20ELEGANT%20INC%2C590%20MAIN%20ST%2C+LYNNFIELD%2C+MA+01940,
REDINGTON-FAIRVIEW GEN HOSP,"46 FAIRVIEW AVENUE, PO BOX 468","SKOWHEGAN, ME 04976",http://maps.google.com/maps?q=REDINGTONFAIRVIEW%20GEN%20HOSP%2C46%20FAIRVIEW%20AVENUE%2C%20PO%20BOX%20468%2C+SKOWHEGAN%2C+ME+04976,
REVERE HEALTHCARE CENTER,CLINIC PHARMACY,300 OCEAN AVENUE,"REVERE, MA 02151",http://maps.google.com/maps?q=REVERE%20HEALTHCARE%20CENTER%2CCLINIC%20PHARMACY%2C+REVERE%2C+MA+02151
SAINT JOSEPH'S HOSPITAL,ATTN PHARMACY,172 KINSLEY ST,"NASHUA, NH 03060",http://maps.google.com/maps?q=SAINT%20JOSEPHS%20HOSPITAL%2CATTN%20PHARMACY%2C+NASHUA%2C+NH+03060
SOUTH SHORE HOSPITAL,KRISTOPHER YOUNG PHARMD,55 FOGG ROAD,"SOUTH WEYMOUTH, MA 02190",http://maps.google.com/maps?q=SOUTH%20SHORE%20HOSPITAL%2CKRISTOPHER%20YOUNG%20PHARMD%2C+SOUTH%20WEYMOUTH%2C+MA+02190
SULLIVAN'S PHARMACY INC,1 CORINTH ST,"ROSLINDALE, MA 02131",http://maps.google.com/maps?q=SULLIVANS%20PHARMACY%20INC%2C1%20CORINTH%20ST%2C+ROSLINDALE%2C+MA+02131,
THE ARBOUR HOSPITAL,49 ROBINWOOD AVE,"JAMAICA PLAIN, MA 02130",http://maps.google.com/maps?q=THE%20ARBOUR%20HOSPITAL%2C49%20ROBINWOOD%20AVE%2C+JAMAICA%20PLAIN%2C+MA+02130,
UMASS MEMORIAL MED CENTER INC,ATTN ROLAND BERCUME,55 LAKE AVE NORTH,"WORCESTER, MA 01655",http://maps.google.com/maps?q=UMASS%20MEMORIAL%20MED%20CENTER%20INC%2CATTN%20ROLAND%20BERCUME%2C+WORCESTER%2C+MA+01655
USAF-66TH MEDICAL SQUADRON/SGSM,90 VANDENBERG DRIVE BLDG 1900,"HANSCOM AFB, MA 01731",http://maps.google.com/maps?q=USAFTH%20MEDICAL%20SQUADRONSGSM%2C90%20VANDENBERG%20DRIVE%20BLDG%201900%2C+HANSCOM%20AFB%2C+MA+01731,
"WALGREEN EASTERN CO., INC.",1 KELLY SQUARE,"EAST BOSTON, MA 02128",http://maps.google.com/maps?q=WALGREEN%20EASTERN%20CO%20INC%2C1%20KELLY%20SQUARE%2C+EAST%20BOSTON%2C+MA+02128,
"WALGREEN EASTERN CO., INC.",104 S MAIN STREET,"ROCHESTER, NH 03867",http://maps.google.com/maps?q=WALGREEN%20EASTERN%20CO%20INC%2C104%20S%20MAIN%20STREET%2C+ROCHESTER%2C+NH+03867,
"WALGREEN EASTERN CO., INC.",1228 BROADWAY,"SAUGUS, MA 01906",http://maps.google.com/maps?q=WALGREEN%20EASTERN%20CO%20INC%2C1228%20BROADWAY%2C+SAUGUS%2C+MA+01906,
"WALGREEN EASTERN CO., INC.",142 LOUDON RD.,"CONCORD, NH 03301",http://maps.google.com/maps?q=WALGREEN%20EASTERN%20CO%20INC%2C142%20LOUDON%20RD.%2C+CONCORD%2C+NH+03301,
"WALGREEN EASTERN CO., INC.",170 N MAIN STREET,"RANDOLPH, MA 02368",http://maps.google.com/maps?q=WALGREEN%20EASTERN%20CO%20INC%2C170%20N%20MAIN%20STREET%2C+RANDOLPH%2C+MA+02368,
"WALGREEN EASTERN CO., INC.",185 CENTRE STREET,"MALDEN, MA 02148",http://maps.google.com/maps?q=WALGREEN%20EASTERN%20CO%20INC%2C185%20CENTRE%20STREET%2C+MALDEN%2C+MA+02148,
"WALGREEN EASTERN CO., INC.",201 MAIN STREET,"GLOUCESTER, MA 01930",http://maps.google.com/maps?q=WALGREEN%20EASTERN%20CO%20INC%2C201%20MAIN%20STREET%2C+GLOUCESTER%2C+MA+01930,
"WALGREEN EASTERN CO., INC.",225 MAIN ST.,"STONEHAM, MA 02180",http://maps.google.com/maps?q=WALGREEN%20EASTERN%20CO%20INC%2C225%20MAIN%20ST.%2C+STONEHAM%2C+MA+02180,
"WALGREEN EASTERN CO., INC.",24 SCHOOL STREET,"BOSTON, MA 02108",http://maps.google.com/maps?q=WALGREEN%20EASTERN%20CO%20INC%2C24%20SCHOOL%20STREET%2C+BOSTON%2C+MA+02108,
"WALGREEN EASTERN CO., INC.",283 MAIN ST,"NASHUA, NH 03060",http://maps.google.com/maps?q=WALGREEN%20EASTERN%20CO%20INC%2C283%20MAIN%20ST%2C+NASHUA%2C+NH+03060,
"WALGREEN EASTERN CO., INC.",3 AIRPORT RD,"WEST LEBANON, NH 03784",http://maps.google.com/maps?q=WALGREEN%20EASTERN%20CO%20INC%2C3%20AIRPORT%20RD%2C+WEST%20LEBANON%2C+NH+03784,
"WALGREEN EASTERN CO., INC.",317 FERRY ST,"EVERETT, MA 02149",http://maps.google.com/maps?q=WALGREEN%20EASTERN%20CO%20INC%2C317%20FERRY%20ST%2C+EVERETT%2C+MA+02149,
"WALGREEN EASTERN CO., INC.",320 PARK AVE,"WORCESTER, MA 01610",http://maps.google.com/maps?q=WALGREEN%20EASTERN%20CO%20INC%2C320%20PARK%20AVE%2C+WORCESTER%2C+MA+01610,
"WALGREEN EASTERN CO., INC.",403 WATER ST.,"AUGUSTA, ME 04330",http://maps.google.com/maps?q=WALGREEN%20EASTERN%20CO%20INC%2C403%20WATER%20ST.%2C+AUGUSTA%2C+ME+04330,
"WALGREEN EASTERN CO., INC.",413 WASHINGTON STREET,"STOUGHTON, MA 02072",http://maps.google.com/maps?q=WALGREEN%20EASTERN%20CO%20INC%2C413%20WASHINGTON%20STREET%2C+STOUGHTON%2C+MA+02072,
"WALGREEN EASTERN CO., INC.",416 WARREN ST,"ROXBURY, MA 02119",http://maps.google.com/maps?q=WALGREEN%20EASTERN%20CO%20INC%2C416%20WARREN%20ST%2C+ROXBURY%2C+MA+02119,
"WALGREEN EASTERN CO., INC.",418 QUINCY AVENUE,"QUINCY, MA 02169",http://maps.google.com/maps?q=WALGREEN%20EASTERN%20CO%20INC%2C418%20QUINCY%20AVENUE%2C+QUINCY%2C+MA+02169,
"WALGREEN EASTERN CO., INC.",430 BROADWAY,"REVERE, MA 02151",http://maps.google.com/maps?q=WALGREEN%20EASTERN%20CO%20INC%2C430%20BROADWAY%2C+REVERE%2C+MA+02151,
"WALGREEN EASTERN CO., INC.",440 WEST ST,"KEENE, NH 03431",http://maps.google.com/maps?q=WALGREEN%20EASTERN%20CO%20INC%2C440%20WEST%20ST%2C+KEENE%2C+NH+03431,
"WALGREEN EASTERN CO., INC.",53 PARIS ST,"NORWAY, ME 04268",http://maps.google.com/maps?q=WALGREEN%20EASTERN%20CO%20INC%2C53%20PARIS%20ST%2C+NORWAY%2C+ME+04268,
"WALGREEN EASTERN CO., INC.",54 ELLIOTT STREET,"BEVERLY, MA 01915",http://maps.google.com/maps?q=WALGREEN%20EASTERN%20CO%20INC%2C54%20ELLIOTT%20STREET%2C+BEVERLY%2C+MA+01915,
"WALGREEN EASTERN CO., INC.",54 PLAIN ST,"LOWELL, MA 01851",http://maps.google.com/maps?q=WALGREEN%20EASTERN%20CO%20INC%2C54%20PLAIN%20ST%2C+LOWELL%2C+MA+01851,
"WALGREEN EASTERN CO., INC.",571 NASHUA ST.,"MILFORD, NH 03055",http://maps.google.com/maps?q=WALGREEN%20EASTERN%20CO%20INC%2C571%20NASHUA%20ST.%2C+MILFORD%2C+NH+03055,
"WALGREEN EASTERN CO., INC.",653 WORCESTER RD,"FRAMINGHAM, MA 01701",http://maps.google.com/maps?q=WALGREEN%20EASTERN%20CO%20INC%2C653%20WORCESTER%20RD%2C+FRAMINGHAM%2C+MA+01701,
"WALGREEN EASTERN CO., INC.",841 BOYLSTON STREET,"BOSTON, MA 02116",http://maps.google.com/maps?q=WALGREEN%20EASTERN%20CO%20INC%2C841%20BOYLSTON%20STREET%2C+BOSTON%2C+MA+02116,
WENTWORTH DOUGLASS HOSPITAL,789 CENTRAL AVE,"DOVER, NH 03820",http://maps.google.com/maps?q=WENTWORTH%20DOUGLASS%20HOSPITAL%2C789%20CENTRAL%20AVE%2C+DOVER%2C+NH+03820,
"WESTBOROUGH BEHAVIORAL HEALTHCARE HOSPITAL, LLC",300 FRIBERG PARKWAY,"WESTBOROUGH, MA 01581",http://maps.google.com/maps?q=WESTBOROUGH%20BEHAVIORAL%20HEALTHCARE%20HOSPITAL%20LLC%2C300%20FRIBERG%20PARKWAY%2C+WESTBOROUGH%2C+MA+01581,
