Business Name,Address 1,Address 2,"City, State Zip",Map URL
"ARKANSAS CVS PHARMACY, L.L.C.",1749 WEST WALNUT ST.,"ROGERS, AR 72756",http://maps.google.com/maps?q=ARKANSAS%20CVS%20PHARMACY%20LLC%2C1749%20WEST%20WALNUT%20ST.%2C+ROGERS%2C+AR+72756,
ATCHISON HOSPITAL ASSOCIATION,800 RAVEN HILL DRIVE,"ATCHISON, KS 66002",http://maps.google.com/maps?q=ATCHISON%20HOSPITAL%20ASSOCIATION%2C800%20RAVEN%20HILL%20DRIVE%2C+ATCHISON%2C+KS+66002,
AUBURN PHARMACY INC,1011 BAPTISTE DRIVE,"PAOLA, KS 66071",http://maps.google.com/maps?q=AUBURN%20PHARMACY%20INC%2C1011%20BAPTISTE%20DRIVE%2C+PAOLA%2C+KS+66071,
FUTRELL PHARMACY,115 E BROADWAY,"POCAHONTAS, AR 72455",http://maps.google.com/maps?q=FUTRELL%20PHARMACY%2C115%20E%20BROADWAY%2C+POCAHONTAS%2C+AR+72455,
HASKELL HEALTH CTR,2415 MASSACHUSETTS,"LAWRENCE, KS 66046",http://maps.google.com/maps?q=HASKELL%20HEALTH%20CTR%2C2415%20MASSACHUSETTS%2C+LAWRENCE%2C+KS+66046,
"HIGHLAND PARK CVS, L.L.C.",436 NORTH 30TH STREET,"QUINCY, IL 62301",http://maps.google.com/maps?q=HIGHLAND%20PARK%20CVS%20LLC%2C436%20NORTH%2030TH%20STREET%2C+QUINCY%2C+IL+62301,
ILLINI COMMUNITY HOSPITAL,640 W WASHINGTON,"PITTSFIELD, IL 62363",http://maps.google.com/maps?q=ILLINI%20COMMUNITY%20HOSPITAL%2C640%20W%20WASHINGTON%2C+PITTSFIELD%2C+IL+62363,
"KANSAS CVS PHARMACY, L.L.C.",1075 W. SANTA FE STREET,"OLATHE, KS 66061",http://maps.google.com/maps?q=KANSAS%20CVS%20PHARMACY%20LLC%2C1075%20W.%20SANTA%20FE%20STREET%2C+OLATHE%2C+KS+66061,
"KANSAS CVS PHARMACY, L.L.C.",13502 WEST 87TH STREET PARKWAY,"LENEXA, KS 66215",http://maps.google.com/maps?q=KANSAS%20CVS%20PHARMACY%20LLC%2C13502%20WEST%2087TH%20STREET%20PARKWAY%2C+LENEXA%2C+KS+66215,
"KANSAS CVS PHARMACY, L.L.C.",8101 STATE AVE.,"KANSAS CITY, KS 66112",http://maps.google.com/maps?q=KANSAS%20CVS%20PHARMACY%20LLC%2C8101%20STATE%20AVE.%2C+KANSAS%20CITY%2C+KS+66112,
KOECHNER PHARMACIES LLC,807 MAIN STREET,"ATCHISON, KS 66002",http://maps.google.com/maps?q=KOECHNER%20PHARMACIES%20LLC%2C807%20MAIN%20STREET%2C+ATCHISON%2C+KS+66002,
LOWELL PHARMACY,114 HARRISON AVENUE,PO BOX 56,"LOWELL, AR 72745",http://maps.google.com/maps?q=LOWELL%20PHARMACY%2C114%20HARRISON%20AVENUE%2C+LOWELL%2C+AR+72745
MEDICAL CENTER PHARMACY,9100 W 74TH ST,"SHAWNEE MISSION, KS 66204",http://maps.google.com/maps?q=MEDICAL%20CENTER%20PHARMACY%2C9100%20W%2074TH%20ST%2C+SHAWNEE%20MISSION%2C+KS+66204,
"PHARMACY PLUS, INC.",693 BAINBRIDGE ST,"BARRY, IL 62312",http://maps.google.com/maps?q=PHARMACY%20PLUS%20INC%2C693%20BAINBRIDGE%20ST%2C+BARRY%2C+IL+62312,
"RICHEY'S DRUG STORE, INC.",511 N MAIN,"ERIE, KS 66733",http://maps.google.com/maps?q=RICHEYS%20DRUG%20STORE%20INC%2C511%20N%20MAIN%2C+ERIE%2C+KS+66733,
ST LUKES SOUTH HOSPITAL,12300 METCALF AVENUE,"OVERLAND PARK, KS 66213",http://maps.google.com/maps?q=ST%20LUKES%20SOUTH%20HOSPITAL%2C12300%20METCALF%20AVENUE%2C+OVERLAND%20PARK%2C+KS+66213,
THE MEDICINE STORE,760 NORTHSTAR COURT,"TONGANOXIE, KS 66086",http://maps.google.com/maps?q=THE%20MEDICINE%20STORE%2C760%20NORTHSTAR%20COURT%2C+TONGANOXIE%2C+KS+66086,
UNIV OF KANSAS HOSP AUTHORITY,2015 W 39TH,"KANSAS CITY, KS 66103",http://maps.google.com/maps?q=UNIV%20OF%20KANSAS%20HOSP%20AUTHORITY%2C2015%20W%2039TH%2C+KANSAS%20CITY%2C+KS+66103,
UNIVERSITY OF KANSAS HOSPITAL,CANCER CENTER PHARMACY,2330 SHAWNEE MISSION PARKWAY,"WESTWOOD, KS 66205",http://maps.google.com/maps?q=UNIVERSITY%20OF%20KANSAS%20HOSPITAL%2CCANCER%20CENTER%20PHARMACY%2C+WESTWOOD%2C+KS+66205
US ARMY - MUNSON  HEALTH CENTER,PHARMACY SERVICES,550 POPE AVE,"FT LEAVENWORTH, KS 66027",http://maps.google.com/maps?q=US%20ARMY%20%20MUNSON%20%20HEALTH%20CENTER%2CPHARMACY%20SERVICES%2C+FT%20LEAVENWORTH%2C+KS+66027
WALGREEN CO,2229 S MAIN ST,"FORT SCOTT, KS 66701",http://maps.google.com/maps?q=WALGREEN%20CO%2C2229%20S%20MAIN%20ST%2C+FORT%20SCOTT%2C+KS+66701,
WALGREEN CO.,1445 S MAIN STREET,"OTTAWA, KS 66067",http://maps.google.com/maps?q=WALGREEN%20CO%2C1445%20S%20MAIN%20STREET%2C+OTTAWA%2C+KS+66067,
WALGREEN CO.,1722 W WALNUT ST,"ROGERS, AR 72756",http://maps.google.com/maps?q=WALGREEN%20CO%2C1722%20W%20WALNUT%20ST%2C+ROGERS%2C+AR+72756,
WALGREEN CO.,1911 N BROADWAY STREET,"PITTSBURG, KS 66762",http://maps.google.com/maps?q=WALGREEN%20CO%2C1911%20N%20BROADWAY%20STREET%2C+PITTSBURG%2C+KS+66762,
WALGREEN CO.,2900 S 4TH ST,"LEAVENWORTH, KS 66048",http://maps.google.com/maps?q=WALGREEN%20CO%2C2900%20S%204TH%20ST%2C+LEAVENWORTH%2C+KS+66048,
WALGREEN CO.,3421 WEST 6TH ST,"LAWRENCE, KS 66049",http://maps.google.com/maps?q=WALGREEN%20CO%2C3421%20WEST%206TH%20ST%2C+LAWRENCE%2C+KS+66049,
WALGREEN CO.,350 HWY 62 EAST,"MOUTAIN HOME, AR 72653",http://maps.google.com/maps?q=WALGREEN%20CO%2C350%20HWY%2062%20EAST%2C+MOUTAIN%20HOME%2C+AR+72653,
WALGREEN CO.,7500 METCALF AVE,"OVERLAND PARK, KS 66204",http://maps.google.com/maps?q=WALGREEN%20CO%2C7500%20METCALF%20AVE%2C+OVERLAND%20PARK%2C+KS+66204,
WALGREEN CO.,7739 STATE AVE,"KANSAS CITY, KS 66112",http://maps.google.com/maps?q=WALGREEN%20CO%2C7739%20STATE%20AVE%2C+KANSAS%20CITY%2C+KS+66112,
"ARKANSAS CVS PHARMACY, L.L.C.",110 SOUTHWEST DRIVE,"JONESBORO, AR 72401",http://maps.google.com/maps?q=ARKANSAS%20CVS%20PHARMACY%20LLC%2C110%20SOUTHWEST%20DRIVE%2C+JONESBORO%2C+AR+72401,
WALGREEN CO.,108 E HIGHLAND DRIVE,"JONESBORO, AR 72401",http://maps.google.com/maps?q=WALGREEN%20CO%2C108%20E%20HIGHLAND%20DRIVE%2C+JONESBORO%2C+AR+72401,
INDIAN HEALTH CENTER CLINIC,3349 B THRASHER ROAD,"WHITE CLOUD, KS 66094",http://maps.google.com/maps?q=INDIAN%20HEALTH%20CENTER%20CLINIC%2C3349%20B%20THRASHER%20ROAD%2C+WHITE%20CLOUD%2C+KS+66094,
COMMUNITY MEDICAL CENTER INC,3307 BARADA ST,PO BOX 399,"FALLS CITY, NE 68355",http://maps.google.com/maps?q=COMMUNITY%20MEDICAL%20CENTER%20INC%2C3307%20BARADA%20ST%2C+FALLS%20CITY%2C+NE+68355
WALGREEN CO.,1001 SW TOPEKA BLVD.,"TOPEKA, KS 66612",http://maps.google.com/maps?q=WALGREEN%20CO%2C1001%20SW%20TOPEKA%20BLVD.%2C+TOPEKA%2C+KS+66612,
"KANSAS CVS PHARMACY, L.L.C.",3901 SW 21ST ST.,"TOPEKA, KS 66604",http://maps.google.com/maps?q=KANSAS%20CVS%20PHARMACY%20LLC%2C3901%20SW%2021ST%20ST.%2C+TOPEKA%2C+KS+66604,
NEMAHA COUNTY HOSPITAL,2022 13TH STREET,"AUBURN, NE 68305",http://maps.google.com/maps?q=NEMAHA%20COUNTY%20HOSPITAL%2C2022%2013TH%20STREET%2C+AUBURN%2C+NE+68305,
FREDONIA REGIONAL HOSPITAL,1527 MADISON,"FREDONIA, KS 66736",http://maps.google.com/maps?q=FREDONIA%20REGIONAL%20HOSPITAL%2C1527%20MADISON%2C+FREDONIA%2C+KS+66736,
"KANSAS CVS PHARMACY, L.L.C.",1215 MERCHANT STREET,"EMPORIA, KS 66801",http://maps.google.com/maps?q=KANSAS%20CVS%20PHARMACY%20LLC%2C1215%20MERCHANT%20STREET%2C+EMPORIA%2C+KS+66801,
GREENWOOD COUNTY HOSPITAL,100 W 16TH,"EUREKA, KS 67045",http://maps.google.com/maps?q=GREENWOOD%20COUNTY%20HOSPITAL%2C100%20W%2016TH%2C+EUREKA%2C+KS+67045,
JOHNSON COUNTY HOSPITAL,202 HIGH STREET,P.O. BOX 599,"TECUMSEH, NE 68450",http://maps.google.com/maps?q=JOHNSON%20COUNTY%20HOSPITAL%2C202%20HIGH%20STREET%2C+TECUMSEH%2C+NE+68450
