Business Name,Address 1,Address 2,"City, State Zip",Map URL
ADVANCED SPECIALTY RX LLC,4800 S. SAGINAW ST.,SUITE 1675,"FLINT, MI 48507",http://maps.google.com/maps?q=ADVANCED%20SPECIALTY%20RX%20LLC%2C4800%20S.%20SAGINAW%20ST.%2C+FLINT%2C+MI+48507
ALPHARM CORPORATION,DBA NORTHLAND MEDICAL BLDG.,20905 GREENFIELD ROAD,"SOUTHFIELD, MI 48075",http://maps.google.com/maps?q=ALPHARM%20CORPORATION%2CDBA%20NORTHLAND%20MEDICAL%20BLDG.%2C+SOUTHFIELD%2C+MI+48075
ASCENSION MICHIGAN PHARMACY,17900 23 MILE RD,STE 104,"MACOMB, MI 48044",http://maps.google.com/maps?q=ASCENSION%20MICHIGAN%20PHARMACY%2C17900%2023%20MILE%20RD%2C+MACOMB%2C+MI+48044
ASCENSION MICHIGAN PHARMACY,22151 MOROSS RD,STE G25,"DETROIT, MI 48236",http://maps.google.com/maps?q=ASCENSION%20MICHIGAN%20PHARMACY%2C22151%20MOROSS%20RD%2C+DETROIT%2C+MI+48236
ASCENSION MICHIGAN PHARMACY,26850 PROVIDENCE PKWY,STE 100,"NOVI, MI 48374",http://maps.google.com/maps?q=ASCENSION%20MICHIGAN%20PHARMACY%2C26850%20PROVIDENCE%20PKWY%2C+NOVI%2C+MI+48374
BEDFORD WELLNESS PHARMACY,7473 SECOR ROAD,UNIT C,"LAMBERTVILLE, MI 48144",http://maps.google.com/maps?q=BEDFORD%20WELLNESS%20PHARMACY%2C7473%20SECOR%20ROAD%2C+LAMBERTVILLE%2C+MI+48144
BENZER PHARMACY,13355 DIX TOLEDO RD,"SOUTHGATE, MI 48195",http://maps.google.com/maps?q=BENZER%20PHARMACY%2C13355%20DIX%20TOLEDO%20RD%2C+SOUTHGATE%2C+MI+48195,
BENZER PHARMACY,28577 SCHOENHERR RD,"WARREN, MI 48088",http://maps.google.com/maps?q=BENZER%20PHARMACY%2C28577%20SCHOENHERR%20RD%2C+WARREN%2C+MI+48088,
BENZER PHARMACY,G3333 BEECHER RD,SUITE B,"FLINT, MI 48532",http://maps.google.com/maps?q=BENZER%20PHARMACY%2CG3333%20BEECHER%20RD%2C+FLINT%2C+MI+48532
"BHC VALLE VISTA HOSPITAL, INC.",898 EAST MAIN ST,"GREENWOOD, IN 46143",http://maps.google.com/maps?q=BHC%20VALLE%20VISTA%20HOSPITAL%20INC%2C898%20EAST%20MAIN%20ST%2C+GREENWOOD%2C+IN+46143,
BLACKBURN COMMUNITY HEALTH,CENTER PHARMACY,2700 DR. MARTIN LUTHER KING JR,"INDIANAPOLIS, IN 46208",http://maps.google.com/maps?q=BLACKBURN%20COMMUNITY%20HEALTH%2CCENTER%20PHARMACY%2C+INDIANAPOLIS%2C+IN+46208
BLUE PHARMACY,6240 MICHIGAN AVE,"DETROIT, MI 48210",http://maps.google.com/maps?q=BLUE%20PHARMACY%2C6240%20MICHIGAN%20AVE%2C+DETROIT%2C+MI+48210,
BLUEGRASS PHARMACIES,1128 N. MAIN ST.,"MADISONVILLE, KY 42431",http://maps.google.com/maps?q=BLUEGRASS%20PHARMACIES%2C1128%20N.%20MAIN%20ST.%2C+MADISONVILLE%2C+KY+42431,
"BOND DRUG COMPANY OF ILLINOIS, L.L.C.",101 LILY CACHE LANE,"BOLINGBROOK, IL 60440",http://maps.google.com/maps?q=BOND%20DRUG%20COMPANY%20OF%20ILLINOIS%20LLC%2C101%20LILY%20CACHE%20LANE%2C+BOLINGBROOK%2C+IL+60440,
"BOND DRUG COMPANY OF ILLINOIS, L.L.C.",1633 W. 95TH STREET,"CHICAGO, IL 60643",http://maps.google.com/maps?q=BOND%20DRUG%20COMPANY%20OF%20ILLINOIS%20LLC%2C1633%20W.%2095TH%20STREET%2C+CHICAGO%2C+IL+60643,
"BOND DRUG COMPANY OF ILLINOIS, L.L.C.",1713 W. SPRINGFIELD,"CHAMPAIGN, IL 61821",http://maps.google.com/maps?q=BOND%20DRUG%20COMPANY%20OF%20ILLINOIS%20LLC%2C1713%20W.%20SPRINGFIELD%2C+CHAMPAIGN%2C+IL+61821,
"BOND DRUG COMPANY OF ILLINOIS, L.L.C.",1801 INGALLS AVE,"JOLIET, IL 60435",http://maps.google.com/maps?q=BOND%20DRUG%20COMPANY%20OF%20ILLINOIS%20LLC%2C1801%20INGALLS%20AVE%2C+JOLIET%2C+IL+60435,
"BOND DRUG COMPANY OF ILLINOIS, L.L.C.",20002 WOLF RD,"MOKENA, IL 60448",http://maps.google.com/maps?q=BOND%20DRUG%20COMPANY%20OF%20ILLINOIS%20LLC%2C20002%20WOLF%20RD%2C+MOKENA%2C+IL+60448,
"BOND DRUG COMPANY OF ILLINOIS, L.L.C.",20950 GOVERNORS HWY.,"OLYMPIA FIELDS, IL 60461",http://maps.google.com/maps?q=BOND%20DRUG%20COMPANY%20OF%20ILLINOIS%20LLC%2C20950%20GOVERNORS%20HWY.%2C+OLYMPIA%20FIELDS%2C+IL+60461,
"BOND DRUG COMPANY OF ILLINOIS, L.L.C.",3035 BOOK RD,"NAPERVILLE, IL 60564",http://maps.google.com/maps?q=BOND%20DRUG%20COMPANY%20OF%20ILLINOIS%20LLC%2C3035%20BOOK%20RD%2C+NAPERVILLE%2C+IL+60564,
"BOND DRUG COMPANY OF ILLINOIS, L.L.C.",3564 RIDGE RD,"LANSING, IL 60438",http://maps.google.com/maps?q=BOND%20DRUG%20COMPANY%20OF%20ILLINOIS%20LLC%2C3564%20RIDGE%20RD%2C+LANSING%2C+IL+60438,
"BOND DRUG COMPANY OF ILLINOIS, L.L.C.",466 NELSON ROAD,"NEW LENOX, IL 60451",http://maps.google.com/maps?q=BOND%20DRUG%20COMPANY%20OF%20ILLINOIS%20LLC%2C466%20NELSON%20ROAD%2C+NEW%20LENOX%2C+IL+60451,
"BOND DRUG COMPANY OF ILLINOIS, L.L.C.",4800 148TH STREET,"MIDLOTHIAN, IL 60445",http://maps.google.com/maps?q=BOND%20DRUG%20COMPANY%20OF%20ILLINOIS%20LLC%2C4800%20148TH%20STREET%2C+MIDLOTHIAN%2C+IL+60445,
"BOND DRUG COMPANY OF ILLINOIS, L.L.C.",5435 S KEDZIE AVE,"CHICAGO, IL 60632",http://maps.google.com/maps?q=BOND%20DRUG%20COMPANY%20OF%20ILLINOIS%20LLC%2C5435%20S%20KEDZIE%20AVE%2C+CHICAGO%2C+IL+60632,
"BOND DRUG COMPANY OF ILLINOIS, L.L.C.",63 WEST 87TH ST,"NAPERVILLE, IL 60565",http://maps.google.com/maps?q=BOND%20DRUG%20COMPANY%20OF%20ILLINOIS%20LLC%2C63%20WEST%2087TH%20ST%2C+NAPERVILLE%2C+IL+60565,
BROAD STREET PHARMACY,1115 W BROAD STREET,"CHESANING, MI 48616",http://maps.google.com/maps?q=BROAD%20STREET%20PHARMACY%2C1115%20W%20BROAD%20STREET%2C+CHESANING%2C+MI+48616,
"CARECENTER PHARMACY, L.L.C.","800 CHRYSLER DR., STE W2001","AUBURN HILLS, MI 48326",http://maps.google.com/maps?q=CARECENTER%20PHARMACY%20LLC%2C800%20CHRYSLER%20DR.%2C%20STE%20W2001%2C+AUBURN%20HILLS%2C+MI+48326,
"CENTRAL PHARMACY-EAST, LLC",3097 N. GENESEE RD,"FLINT, MI 48506",http://maps.google.com/maps?q=CENTRAL%20PHARMACYEAST%20LLC%2C3097%20N.%20GENESEE%20RD%2C+FLINT%2C+MI+48506,
CLARK PROFESSIONAL PHARMACY,3280 WASHTENAW AVE.,STE B,"ANN ARBOR, MI 48104",http://maps.google.com/maps?q=CLARK%20PROFESSIONAL%20PHARMACY%2C3280%20WASHTENAW%20AVE.%2C+ANN%20ARBOR%2C+MI+48104
COLUMBUS REGIONAL HOSPITAL,ATTN PHCY,2400 E SEVENTEENTH STREET,"COLUMBUS, IN 47201",http://maps.google.com/maps?q=COLUMBUS%20REGIONAL%20HOSPITAL%2CATTN%20PHCY%2C+COLUMBUS%2C+IN+47201
COTTAGE CORNER COMMUNITY,HEALTH CENTER PHARMACY,1434 S. SHELBY ST,"INDIANAPOLIS, IN 46203",http://maps.google.com/maps?q=COTTAGE%20CORNER%20COMMUNITY%2CHEALTH%20CENTER%20PHARMACY%2C+INDIANAPOLIS%2C+IN+46203
CRARY DRUG,8941 LEWIS AVENUE,"TEMPERANCE, MI 48182",http://maps.google.com/maps?q=CRARY%20DRUG%2C8941%20LEWIS%20AVENUE%2C+TEMPERANCE%2C+MI+48182,
CROWDERS UPTOWN DRUG STORE,631 16TH STREET,P.O. BOX 966,"BEDFORD, IN 47421",http://maps.google.com/maps?q=CROWDERS%20UPTOWN%20DRUG%20STORE%2C631%2016TH%20STREET%2C+BEDFORD%2C+IN+47421
CUSTOM PLUS PHARMACY LLC,482 W NAVAJO ST STE A,"WEST LAFAYETTE, IN 47906",http://maps.google.com/maps?q=CUSTOM%20PLUS%20PHARMACY%20LLC%2C482%20W%20NAVAJO%20ST%20STE%20A%2C+WEST%20LAFAYETTE%2C+IN+47906,
DEARBORN HEIGHTS PHARMACY,25524 FORD ROAD,"DEARBORN HEIGHTS, MI 48127",http://maps.google.com/maps?q=DEARBORN%20HEIGHTS%20PHARMACY%2C25524%20FORD%20ROAD%2C+DEARBORN%20HEIGHTS%2C+MI+48127,
DIAL DRUGS,8226 N MERRIMAN RD,"WESTLAND, MI 48185",http://maps.google.com/maps?q=DIAL%20DRUGS%2C8226%20N%20MERRIMAN%20RD%2C+WESTLAND%2C+MI+48185,
DISCOUNT RX,4400 S. SAGINAW ST,SUITE 1335,"FLINT, MI 48507",http://maps.google.com/maps?q=DISCOUNT%20RX%2C4400%20S.%20SAGINAW%20ST%2C+FLINT%2C+MI+48507
EDWARD HOSPITAL,801 SOUTH WASHINGTON ST.,"NAPERVILLE, IL 60540",http://maps.google.com/maps?q=EDWARD%20HOSPITAL%2C801%20SOUTH%20WASHINGTON%20ST.%2C+NAPERVILLE%2C+IL+60540,
EMMA L BIXBY MED CTR INC,818 RIVERSIDE AVE,"ADRIAN, MI 49221",http://maps.google.com/maps?q=EMMA%20L%20BIXBY%20MED%20CTR%20INC%2C818%20RIVERSIDE%20AVE%2C+ADRIAN%2C+MI+49221,
EMORY CENTRE PHARMACY,527 EMORY DRIVE,"OWENSBORO, KY 42301",http://maps.google.com/maps?q=EMORY%20CENTRE%20PHARMACY%2C527%20EMORY%20DRIVE%2C+OWENSBORO%2C+KY+42301,
ESKENAZI HEALTH WEST 38TH STREET,5515 WEST 38TH STREET,SUITE 1200,"INDIANAPOLIS, IN 46254",http://maps.google.com/maps?q=ESKENAZI%20HEALTH%20WEST%20TH%20STREET%2C5515%20WEST%2038TH%20STREET%2C+INDIANAPOLIS%2C+IN+46254
FAIRWAY DRUGS INC,19332 E TEN MILE,"EASTPOINTE, MI 48021",http://maps.google.com/maps?q=FAIRWAY%20DRUGS%20INC%2C19332%20E%20TEN%20MILE%2C+EASTPOINTE%2C+MI+48021,
FARMINGTON DRUGS AND MEDICAL SUPPLIES,20434 FARMINGTON RD,"LIVONIA, MI 48152",http://maps.google.com/maps?q=FARMINGTON%20DRUGS%20AND%20MEDICAL%20SUPPLIES%2C20434%20FARMINGTON%20RD%2C+LIVONIA%2C+MI+48152,
FOREST MANOR COMMUNITY HEALTH,CENTER PHARMACY,3840 N. SHERMAN DR.,"INDIANAPOLIS, IN 46226",http://maps.google.com/maps?q=FOREST%20MANOR%20COMMUNITY%20HEALTH%2CCENTER%20PHARMACY%2C+INDIANAPOLIS%2C+IN+46226
FOWLERVILLE PHARMACY,119 E GRAND RIVER AVE,P.O. BOX 337,"FOWLERVILLE, MI 48836",http://maps.google.com/maps?q=FOWLERVILLE%20PHARMACY%2C119%20E%20GRAND%20RIVER%20AVE%2C+FOWLERVILLE%2C+MI+48836
FRANCISCAN HEALTH MICHIGAN CITY,301 W HOMER,"MICHIGAN CITY, IN 46360",http://maps.google.com/maps?q=FRANCISCAN%20HEALTH%20MICHIGAN%20CITY%2C301%20W%20HOMER%2C+MICHIGAN%20CITY%2C+IN+46360,
FRANCISCAN HEALTH MOORESVILLE,1201 HADLEY RD,"MOORESVILLE, IN 46158",http://maps.google.com/maps?q=FRANCISCAN%20HEALTH%20MOORESVILLE%2C1201%20HADLEY%20RD%2C+MOORESVILLE%2C+IN+46158,
GARST RX,325 S MAIN ST,"FORTVILLE, IN 46040",http://maps.google.com/maps?q=GARST%20RX%2C325%20S%20MAIN%20ST%2C+FORTVILLE%2C+IN+46040,
GOOD SAMARITAN HOSPITAL,520 S 7TH ST,"VINCENNES, IN 47591",http://maps.google.com/maps?q=GOOD%20SAMARITAN%20HOSPITAL%2C520%20S%207TH%20ST%2C+VINCENNES%2C+IN+47591,
GRASSY CREEK COMMUNITY HEALTH,9443 E 38TH ST,"INDIANAPOLIS, IN 46235",http://maps.google.com/maps?q=GRASSY%20CREEK%20COMMUNITY%20HEALTH%2C9443%20E%2038TH%20ST%2C+INDIANAPOLIS%2C+IN+46235,
"GUARDIAN PHARMACY OF INDIANAPOLIS LTC, LLC",6530 CORPORATE DRIVE,"INDIANAPOLIS, IN 46278",http://maps.google.com/maps?q=GUARDIAN%20PHARMACY%20OF%20INDIANAPOLIS%20LTC%20LLC%2C6530%20CORPORATE%20DRIVE%2C+INDIANAPOLIS%2C+IN+46278,
H F MEDICAL CENTER PHARMACY,14500 HALL ROAD,"STERLING HEIGHTS, MI 48313",http://maps.google.com/maps?q=H%20F%20MEDICAL%20CENTER%20PHARMACY%2C14500%20HALL%20ROAD%2C+STERLING%20HEIGHTS%2C+MI+48313,
HARBOR BEACH COMM HOSP INC,210 S 1ST ST,"HARBOR BEACH, MI 48441",http://maps.google.com/maps?q=HARBOR%20BEACH%20COMM%20HOSP%20INC%2C210%20S%201ST%20ST%2C+HARBOR%20BEACH%2C+MI+48441,
HARBOR DRUG INC,DBA: HARBOR DRUG,114 S. HURON AVENUE,"HARBOR BEACH, MI 48441",http://maps.google.com/maps?q=HARBOR%20DRUG%20INC%2CDBA%3A%20HARBOR%20DRUG%2C+HARBOR%20BEACH%2C+MI+48441
HENRY FORD HEALTH CENTER - BROWNSTOWN PHARMACY,23050 WEST RD,"BROWNSTOWN TWP, MI 48183",http://maps.google.com/maps?q=HENRY%20FORD%20HEALTH%20CENTER%20%20BROWNSTOWN%20PHARMACY%2C23050%20WEST%20RD%2C+BROWNSTOWN%20TWP%2C+MI+48183,
HENRY FORD HOSP W,6777 WEST MAPLE RD,"WEST BLOOMFIELD, MI 48322",http://maps.google.com/maps?q=HENRY%20FORD%20HOSP%20W%2C6777%20WEST%20MAPLE%20RD%2C+WEST%20BLOOMFIELD%2C+MI+48322,
HENRY FORD MACOMB,16151 19 MILE ROAD,"CLINTON TOWNSHIP, MI 48038",http://maps.google.com/maps?q=HENRY%20FORD%20MACOMB%2C16151%2019%20MILE%20ROAD%2C+CLINTON%20TOWNSHIP%2C+MI+48038,
HENRY FORD MACOMB AMBULATORY PHARMACY #2,30795 23 MILE ROAD,"CHESTERFIELD TOWNSHIP, MI 48047",http://maps.google.com/maps?q=HENRY%20FORD%20MACOMB%20AMBULATORY%20PHARMACY%2C30795%2023%20MILE%20ROAD%2C+CHESTERFIELD%20TOWNSHIP%2C+MI+48047,
HENRY FORD MEDICAL CENTER,131 KERCHEVAL AVE STE 110,"GROSSE POINTE FARMS, MI 48236",http://maps.google.com/maps?q=HENRY%20FORD%20MEDICAL%20CENTER%2C131%20KERCHEVAL%20AVE%20STE%20110%2C+GROSSE%20POINTE%20FARMS%2C+MI+48236,
HENRY FORD MEDICAL CENTER,2799 W GRAND BLVD,"DETROIT, MI 48202",http://maps.google.com/maps?q=HENRY%20FORD%20MEDICAL%20CENTER%2C2799%20W%20GRAND%20BLVD%2C+DETROIT%2C+MI+48202,
HENRY FORD MEDICAL CENTER,2799 W GRAND BLVD,K-15 PHARMACY,"DETROIT, MI 48202",http://maps.google.com/maps?q=HENRY%20FORD%20MEDICAL%20CENTER%2C2799%20W%20GRAND%20BLVD%2C+DETROIT%2C+MI+48202
HENRY FORD MEDICAL CENTER PHARMACY,1 FORD PL,"DETROIT, MI 48202",http://maps.google.com/maps?q=HENRY%20FORD%20MEDICAL%20CENTER%20PHARMACY%2C1%20FORD%20PL%2C+DETROIT%2C+MI+48202,
HENRY FORD MEDICAL CENTER PHARMACY -  FORD ROAD,5500 AUTO CLUB DRIVE,"DEARBORN, MI 48126",http://maps.google.com/maps?q=HENRY%20FORD%20MEDICAL%20CENTER%20PHARMACY%20%20%20FORD%20ROAD%2C5500%20AUTO%20CLUB%20DRIVE%2C+DEARBORN%2C+MI+48126,
HENRY FORD MEDICAL CENTER PHARMACY-WYANDOTTE HOSP,2333 BIDDLE AVE,"WYANDOTTE, MI 48192",http://maps.google.com/maps?q=HENRY%20FORD%20MEDICAL%20CENTER%20PHARMACYWYANDOTTE%20HOSP%2C2333%20BIDDLE%20AVE%2C+WYANDOTTE%2C+MI+48192,
HERBST APOTHECARY INC,201 N. DIXON RD.,"KOKOMO, IN 46901",http://maps.google.com/maps?q=HERBST%20APOTHECARY%20INC%2C201%20N.%20DIXON%20RD.%2C+KOKOMO%2C+IN+46901,
HFMC - LIVONIA PHARMACY,29200 SCHOOLCRAFT,"LIVONIA, MI 48150",http://maps.google.com/maps?q=HFMC%20%20LIVONIA%20PHARMACY%2C29200%20SCHOOLCRAFT%2C+LIVONIA%2C+MI+48150,
"HIGHLAND PARK CVS, L.L.C.",1101 S WATER ST,"WILMINGTON, IL 60481",http://maps.google.com/maps?q=HIGHLAND%20PARK%20CVS%20LLC%2C1101%20S%20WATER%20ST%2C+WILMINGTON%2C+IL+60481,
"HIGHLAND PARK CVS, L.L.C.",1316 CHARLESTON AVE.,"MATTOON, IL 61938",http://maps.google.com/maps?q=HIGHLAND%20PARK%20CVS%20LLC%2C1316%20CHARLESTON%20AVE.%2C+MATTOON%2C+IL+61938,
"HIGHLAND PARK CVS, L.L.C.",14290 SOUTH LA GRANGE RD.,"ORLAND PARK, IL 60462",http://maps.google.com/maps?q=HIGHLAND%20PARK%20CVS%20LLC%2C14290%20SOUTH%20LA%20GRANGE%20RD.%2C+ORLAND%20PARK%2C+IL+60462,
"HIGHLAND PARK CVS, L.L.C.",207 W. JORDAN ST,"NEWTON, IL 62448",http://maps.google.com/maps?q=HIGHLAND%20PARK%20CVS%20LLC%2C207%20W.%20JORDAN%20ST%2C+NEWTON%2C+IL+62448,
"HIGHLAND PARK CVS, L.L.C.",225 WEST COURT ST,"KANKAKEE, IL 60901",http://maps.google.com/maps?q=HIGHLAND%20PARK%20CVS%20LLC%2C225%20WEST%20COURT%20ST%2C+KANKAKEE%2C+IL+60901,
"HIGHLAND PARK CVS, L.L.C.",230 S COMET DR.,"BRAIDWOOD, IL 60408",http://maps.google.com/maps?q=HIGHLAND%20PARK%20CVS%20LLC%2C230%20S%20COMET%20DR.%2C+BRAIDWOOD%2C+IL+60408,
"HIGHLAND PARK CVS, L.L.C.",245 S BROADWAY ST.,"COAL CITY, IL 60416",http://maps.google.com/maps?q=HIGHLAND%20PARK%20CVS%20LLC%2C245%20S%20BROADWAY%20ST.%2C+COAL%20CITY%2C+IL+60416,
"HIGHLAND PARK CVS, L.L.C.",3951 W. 103RD ST.,"CHICAGO, IL 60655",http://maps.google.com/maps?q=HIGHLAND%20PARK%20CVS%20LLC%2C3951%20W.%20103RD%20ST.%2C+CHICAGO%2C+IL+60655,
"HIGHLAND PARK CVS, L.L.C.",47 S. LOCUST ST.,"MANTENO, IL 60950",http://maps.google.com/maps?q=HIGHLAND%20PARK%20CVS%20LLC%2C47%20S.%20LOCUST%20ST.%2C+MANTENO%2C+IL+60950,
"HIGHLAND PARK CVS, L.L.C.",470 S. TORRENCE AVE.,"CALUMET CITY, IL 60409",http://maps.google.com/maps?q=HIGHLAND%20PARK%20CVS%20LLC%2C470%20S.%20TORRENCE%20AVE.%2C+CALUMET%20CITY%2C+IL+60409,
"HIGHLAND PARK CVS, L.L.C.",501 W. LINCOLN AVE,"CHARLESTON, IL 61920",http://maps.google.com/maps?q=HIGHLAND%20PARK%20CVS%20LLC%2C501%20W.%20LINCOLN%20AVE%2C+CHARLESTON%2C+IL+61920,
"HIGHLAND PARK CVS, L.L.C.","6315 SOUTH PULASKI RD,","CHICAGO, IL 60629",http://maps.google.com/maps?q=HIGHLAND%20PARK%20CVS%20LLC%2C6315%20SOUTH%20PULASKI%20RD%2C%2C+CHICAGO%2C+IL+60629,
"HIGHLAND PARK CVS, L.L.C.",820 N. VERMILION,"DANVILLE, IL 61832",http://maps.google.com/maps?q=HIGHLAND%20PARK%20CVS%20LLC%2C820%20N.%20VERMILION%2C+DANVILLE%2C+IL+61832,
"HIGHLAND PARK CVS, L.L.C.",8712 SOUTH STONY ISLAND AVE.,"CHICAGO, IL 60617",http://maps.google.com/maps?q=HIGHLAND%20PARK%20CVS%20LLC%2C8712%20SOUTH%20STONY%20ISLAND%20AVE.%2C+CHICAGO%2C+IL+60617,
"HIGHLAND PARK CVS, L.L.C.",915 N. MARKET ST.,"MOUNT CARMEL, IL 62863",http://maps.google.com/maps?q=HIGHLAND%20PARK%20CVS%20LLC%2C915%20N.%20MARKET%20ST.%2C+MOUNT%20CARMEL%2C+IL+62863,
"HOOK-SUPERX, L.L.C.",10 EAST 81ST AVENUE,"MERRILLVILLE, IN 46410",http://maps.google.com/maps?q=HOOKSUPERX%20LLC%2C10%20EAST%2081ST%20AVENUE%2C+MERRILLVILLE%2C+IN+46410,
"HOOK-SUPERX, L.L.C.",100 NORTH DETROIT ST,"WARSAW, IN 46580",http://maps.google.com/maps?q=HOOKSUPERX%20LLC%2C100%20NORTH%20DETROIT%20ST%2C+WARSAW%2C+IN+46580,
"HOOK-SUPERX, L.L.C.",106 EAST MARKET STREET,"CRAWFORDSVILLE, IN 47933",http://maps.google.com/maps?q=HOOKSUPERX%20LLC%2C106%20EAST%20MARKET%20STREET%2C+CRAWFORDSVILLE%2C+IN+47933,
"HOOK-SUPERX, L.L.C.",111 LAKEVIEW DR.,"NOBLESVILLE, IN 46060",http://maps.google.com/maps?q=HOOKSUPERX%20LLC%2C111%20LAKEVIEW%20DR.%2C+NOBLESVILLE%2C+IN+46060,
"HOOK-SUPERX, L.L.C.",1195 E RIDGE RD,"GRIFFITH, IN 46319",http://maps.google.com/maps?q=HOOKSUPERX%20LLC%2C1195%20E%20RIDGE%20RD%2C+GRIFFITH%2C+IN+46319,
"HOOK-SUPERX, L.L.C.",1301 119TH ST,"WHITING, IN 46394",http://maps.google.com/maps?q=HOOKSUPERX%20LLC%2C1301%20119TH%20ST%2C+WHITING%2C+IN+46394,
"HOOK-SUPERX, L.L.C.",1350 BROADWAY ST,"GARY, IN 46407",http://maps.google.com/maps?q=HOOKSUPERX%20LLC%2C1350%20BROADWAY%20ST%2C+GARY%2C+IN+46407,
"HOOK-SUPERX, L.L.C.",1375 WEST 86TH ST.,"INDIANAPOLIS, IN 46260",http://maps.google.com/maps?q=HOOKSUPERX%20LLC%2C1375%20WEST%2086TH%20ST.%2C+INDIANAPOLIS%2C+IN+46260,
"HOOK-SUPERX, L.L.C.",1407 LINCOLNWAY,"LAPORTE, IN 46350",http://maps.google.com/maps?q=HOOKSUPERX%20LLC%2C1407%20LINCOLNWAY%2C+LAPORTE%2C+IN+46350,
"HOOK-SUPERX, L.L.C.",1421 S. RANGE LINE RD.,"CARMEL, IN 46032",http://maps.google.com/maps?q=HOOKSUPERX%20LLC%2C1421%20S.%20RANGE%20LINE%20RD.%2C+CARMEL%2C+IN+46032,
"HOOK-SUPERX, L.L.C.",1500 HART ST.,"VINCENNES, IN 47591",http://maps.google.com/maps?q=HOOKSUPERX%20LLC%2C1500%20HART%20ST.%2C+VINCENNES%2C+IN+47591,
"HOOK-SUPERX, L.L.C.",1545 NORTH MERIDIAN ST.,"INDIANAPOLIS, IN 46202",http://maps.google.com/maps?q=HOOKSUPERX%20LLC%2C1545%20NORTH%20MERIDIAN%20ST.%2C+INDIANAPOLIS%2C+IN+46202,
"HOOK-SUPERX, L.L.C.",1805 CALUMET AVE.,"VALPARAISO, IN 46383",http://maps.google.com/maps?q=HOOKSUPERX%20LLC%2C1805%20CALUMET%20AVE.%2C+VALPARAISO%2C+IN+46383,
"HOOK-SUPERX, L.L.C.",201 SOUTH JACKSON STREET,"FRANKFORT, IN 46041",http://maps.google.com/maps?q=HOOKSUPERX%20LLC%2C201%20SOUTH%20JACKSON%20STREET%2C+FRANKFORT%2C+IN+46041,
"HOOK-SUPERX, L.L.C.",2020 EAST MORGAN AVENUE,"EVANSVILLE, IN 47711",http://maps.google.com/maps?q=HOOKSUPERX%20LLC%2C2020%20EAST%20MORGAN%20AVENUE%2C+EVANSVILLE%2C+IN+47711,
"HOOK-SUPERX, L.L.C.",21 WEST MAIN STREET,"BROWNSBURG, IN 46112",http://maps.google.com/maps?q=HOOKSUPERX%20LLC%2C21%20WEST%20MAIN%20STREET%2C+BROWNSBURG%2C+IN+46112,
"HOOK-SUPERX, L.L.C.",2106 BROADWAY ST,"EAST CHICAGO, IN 46312",http://maps.google.com/maps?q=HOOKSUPERX%20LLC%2C2106%20BROADWAY%20ST%2C+EAST%20CHICAGO%2C+IN+46312,
"HOOK-SUPERX, L.L.C.",2272 NORTH MAIN ST.,"CROWNPOINT, IN 46307",http://maps.google.com/maps?q=HOOKSUPERX%20LLC%2C2272%20NORTH%20MAIN%20ST.%2C+CROWNPOINT%2C+IN+46307,
"HOOK-SUPERX, L.L.C.",2340 W SYCAMORE,"KOKOMO, IN 46901",http://maps.google.com/maps?q=HOOKSUPERX%20LLC%2C2340%20W%20SYCAMORE%2C+KOKOMO%2C+IN+46901,
"HOOK-SUPERX, L.L.C.",2423 N. NATIONAL RD.,"COLUMBUS, IN 47201",http://maps.google.com/maps?q=HOOKSUPERX%20LLC%2C2423%20N.%20NATIONAL%20RD.%2C+COLUMBUS%2C+IN+47201,
"HOOK-SUPERX, L.L.C.",265 SO. SCATTERFIELD RD,"ANDERSON, IN 46012",http://maps.google.com/maps?q=HOOKSUPERX%20LLC%2C265%20SO.%20SCATTERFIELD%20RD%2C+ANDERSON%2C+IN+46012,
"HOOK-SUPERX, L.L.C.",2701 EAST 3RD ST.,"BLOOMINGTON, IN 47401",http://maps.google.com/maps?q=HOOKSUPERX%20LLC%2C2701%20EAST%203RD%20ST.%2C+BLOOMINGTON%2C+IN+47401,
"HOOK-SUPERX, L.L.C.","3240 WILLOWCREEK RD.,","PORTAGE, IN 46368",http://maps.google.com/maps?q=HOOKSUPERX%20LLC%2C3240%20WILLOWCREEK%20RD.%2C%2C+PORTAGE%2C+IN+46368,
"HOOK-SUPERX, L.L.C.",3253 FRANKLIN ST.,"MICHIGAN CITY, IN 46360",http://maps.google.com/maps?q=HOOKSUPERX%20LLC%2C3253%20FRANKLIN%20ST.%2C+MICHIGAN%20CITY%2C+IN+46360,
"HOOK-SUPERX, L.L.C.",3400 N CALUMET AVE,"VALPARAISO, IN 46383",http://maps.google.com/maps?q=HOOKSUPERX%20LLC%2C3400%20N%20CALUMET%20AVE%2C+VALPARAISO%2C+IN+46383,
"HOOK-SUPERX, L.L.C.",3705 KENTUCKY AVE,"INDIANAPOLIS, IN 46221",http://maps.google.com/maps?q=HOOKSUPERX%20LLC%2C3705%20KENTUCKY%20AVE%2C+INDIANAPOLIS%2C+IN+46221,
"HOOK-SUPERX, L.L.C.",415 W. 3RD ST.,"MARION, IN 46952",http://maps.google.com/maps?q=HOOKSUPERX%20LLC%2C415%20W.%203RD%20ST.%2C+MARION%2C+IN+46952,
"HOOK-SUPERX, L.L.C.",4480 FIRST AVE.,"EVANSVILLE, IN 47710",http://maps.google.com/maps?q=HOOKSUPERX%20LLC%2C4480%20FIRST%20AVE.%2C+EVANSVILLE%2C+IN+47710,
"HOOK-SUPERX, L.L.C.",512 E. SEYMOUR ST.,"KENTLAND, IN 47951",http://maps.google.com/maps?q=HOOKSUPERX%20LLC%2C512%20E.%20SEYMOUR%20ST.%2C+KENTLAND%2C+IN+47951,
"HOOK-SUPERX, L.L.C.",512 SAGAMORE PKWY WEST,"WEST LAFAYETTE, IN 47906",http://maps.google.com/maps?q=HOOKSUPERX%20LLC%2C512%20SAGAMORE%20PKWY%20WEST%2C+WEST%20LAFAYETTE%2C+IN+47906,
"HOOK-SUPERX, L.L.C.",5120 WESTON ROAD,"EVANSVILLE, IN 47712",http://maps.google.com/maps?q=HOOKSUPERX%20LLC%2C5120%20WESTON%20ROAD%2C+EVANSVILLE%2C+IN+47712,
"HOOK-SUPERX, L.L.C.",523 SOUTH STATE ROAD 67,"MOORESVILLE, IN 46158",http://maps.google.com/maps?q=HOOKSUPERX%20LLC%2C523%20SOUTH%20STATE%20ROAD%2067%2C+MOORESVILLE%2C+IN+46158,
"HOOK-SUPERX, L.L.C.",5611 GEORGETOWN RD.,"INDIANAPOLIS, IN 46254",http://maps.google.com/maps?q=HOOKSUPERX%20LLC%2C5611%20GEORGETOWN%20RD.%2C+INDIANAPOLIS%2C+IN+46254,
"HOOK-SUPERX, L.L.C.",6445 CALUMET AVE.,"HAMMOND, IN 46324",http://maps.google.com/maps?q=HOOKSUPERX%20LLC%2C6445%20CALUMET%20AVE.%2C+HAMMOND%2C+IN+46324,
"HOOK-SUPERX, L.L.C.",655 S. US HIGHWAY 31,"GREENWOOD, IN 46142",http://maps.google.com/maps?q=HOOKSUPERX%20LLC%2C655%20S.%20US%20HIGHWAY%2031%2C+GREENWOOD%2C+IN+46142,
"HOOK-SUPERX, L.L.C.",713 S WASHINGTON ST,"CRAWFORDSVILLE, IN 47933",http://maps.google.com/maps?q=HOOKSUPERX%20LLC%2C713%20S%20WASHINGTON%20ST%2C+CRAWFORDSVILLE%2C+IN+47933,
"HOOK-SUPERX, L.L.C.",7722 W STATE ROUTE 66,"NEWBURGH, IN 47630",http://maps.google.com/maps?q=HOOKSUPERX%20LLC%2C7722%20W%20STATE%20ROUTE%2066%2C+NEWBURGH%2C+IN+47630,
"HOOK-SUPERX, L.L.C.",7915-C SOUTH EMERSON AVE,"INDIANAPOLIS, IN 46237",http://maps.google.com/maps?q=HOOKSUPERX%20LLC%2C7915-C%20SOUTH%20EMERSON%20AVE%2C+INDIANAPOLIS%2C+IN+46237,
"HOOK-SUPERX, L.L.C.",7990 E US HIGHWAY 36,"AVON, IN 46123",http://maps.google.com/maps?q=HOOKSUPERX%20LLC%2C7990%20E%20US%20HIGHWAY%2036%2C+AVON%2C+IN+46123,
"HOOK-SUPERX, L.L.C.",8935 EAST 21ST STREET,"INDIANAPOLIS, IN 46219",http://maps.google.com/maps?q=HOOKSUPERX%20LLC%2C8935%20EAST%2021ST%20STREET%2C+INDIANAPOLIS%2C+IN+46219,
"HOOK-SUPERX, L.L.C.",8970 S. MERIDIAN ST.,"INDIANAPOLIS, IN 46217",http://maps.google.com/maps?q=HOOKSUPERX%20LLC%2C8970%20S.%20MERIDIAN%20ST.%2C+INDIANAPOLIS%2C+IN+46217,
"HOOK-SUPERX, L.L.C.",905 POPLAR ST.,"TERRE HAUTE, IN 47807",http://maps.google.com/maps?q=HOOKSUPERX%20LLC%2C905%20POPLAR%20ST.%2C+TERRE%20HAUTE%2C+IN+47807,
"HOOK-SUPERX, L.L.C.",930 N. GOSPEL ST,"PAOLI, IN 47454",http://maps.google.com/maps?q=HOOKSUPERX%20LLC%2C930%20N.%20GOSPEL%20ST%2C+PAOLI%2C+IN+47454,
HUDSON DRUG SHOP,108 N MARKET ST,PO BOX 70,"PAXTON, IL 60957",http://maps.google.com/maps?q=HUDSON%20DRUG%20SHOP%2C108%20N%20MARKET%20ST%2C+PAXTON%2C+IL+60957
INDIANA HEMOPHILIA-THROMBOSIS,8326 NAAB RD,"INDIANAPOLIS, IN 46260",http://maps.google.com/maps?q=INDIANA%20HEMOPHILIATHROMBOSIS%2C8326%20NAAB%20RD%2C+INDIANAPOLIS%2C+IN+46260,
"INDIANA UNIVERSITY HEALTH FRANKFORT, INC.",1300 SOUTH JACKSON STREET,INPATIENT PHARMACY,"FRANKFORT, IN 46041",http://maps.google.com/maps?q=INDIANA%20UNIVERSITY%20HEALTH%20FRANKFORT%20INC%2C1300%20SOUTH%20JACKSON%20STREET%2C+FRANKFORT%2C+IN+46041
"INDIANA UNIVERSITY HEALTH PAOLI, INC.",642 W HOSPITAL ROAD,"PAOLI, IN 47454",http://maps.google.com/maps?q=INDIANA%20UNIVERSITY%20HEALTH%20PAOLI%20INC%2C642%20W%20HOSPITAL%20ROAD%2C+PAOLI%2C+IN+47454,
"INDIANA UNIVERSITY HEALTH, INC",1111 N. RONALD REAGAN PKWY,"AVON, IN 46123",http://maps.google.com/maps?q=INDIANA%20UNIVERSITY%20HEALTH%20INC%2C1111%20N.%20RONALD%20REAGAN%20PKWY%2C+AVON%2C+IN+46123,
"INDIANA UNIVERSITY HEALTH, INC",13100 E 136TH STREET,SUITE 1000,"FISHERS, IN 46037",http://maps.google.com/maps?q=INDIANA%20UNIVERSITY%20HEALTH%20INC%2C13100%20E%20136TH%20STREET%2C+FISHERS%2C+IN+46037
"INDIANA UNIVERSITY HEALTH, INC",2209 JOHN R WOODEN DR,"MARTINSVILLE, IN 46151",http://maps.google.com/maps?q=INDIANA%20UNIVERSITY%20HEALTH%20INC%2C2209%20JOHN%20R%20WOODEN%20DR%2C+MARTINSVILLE%2C+IN+46151,
"INDIANA UNIVERSITY HEALTH, INC.",11700 NORTH MERIDIAN STREET,B106,"CARMEL, IN 46032",http://maps.google.com/maps?q=INDIANA%20UNIVERSITY%20HEALTH%20INC%2C11700%20NORTH%20MERIDIAN%20STREET%2C+CARMEL%2C+IN+46032
"INDIANA UNIVERSITY HEALTH, INC.",1801 SENATE BLVD STE 105,"INDIANAPOLIS, IN 46202",http://maps.google.com/maps?q=INDIANA%20UNIVERSITY%20HEALTH%20INC%2C1801%20SENATE%20BLVD%20STE%20105%2C+INDIANAPOLIS%2C+IN+46202,
"INDIANA UNIVERSITY HEALTH, INC.",550 UNIVERSITY BLVD,UH1425,"INDIANAPOLIS, IN 46202",http://maps.google.com/maps?q=INDIANA%20UNIVERSITY%20HEALTH%20INC%2C550%20UNIVERSITY%20BLVD%2C+INDIANAPOLIS%2C+IN+46202
"INDIANA UNIVERSITY HEALTH, INC.",705 RILEY HOSPITAL DR.,STE 1201,"INDIANAPOLIS, IN 46202",http://maps.google.com/maps?q=INDIANA%20UNIVERSITY%20HEALTH%20INC%2C705%20RILEY%20HOSPITAL%20DR.%2C+INDIANAPOLIS%2C+IN+46202
IPHARMACY,31193 PLYMOUTH RD,"LIVONIA, MI 48150",http://maps.google.com/maps?q=IPHARMACY%2C31193%20PLYMOUTH%20RD%2C+LIVONIA%2C+MI+48150,
IU HEALTH ARNETT RETAIL PHARMACY,5165 MCCARTY LN,ROOM A1009,"LAFAYETTE, IN 47905",http://maps.google.com/maps?q=IU%20HEALTH%20ARNETT%20RETAIL%20PHARMACY%2C5165%20MCCARTY%20LN%2C+LAFAYETTE%2C+IN+47905
IU HEALTH WEST HOSPITAL,INPATIENT PHARMACY,1111 N. RONALD REAGAN PARKWAY,"AVON, IN 46123",http://maps.google.com/maps?q=IU%20HEALTH%20WEST%20HOSPITAL%2CINPATIENT%20PHARMACY%2C+AVON%2C+IN+46123
J D BROWN & CO,837 PLAINFIELD ROAD,"JOLIET, IL 60435",http://maps.google.com/maps?q=J%20D%20BROWN%20%20CO%2C837%20PLAINFIELD%20ROAD%2C+JOLIET%2C+IL+60435,
KARMANOS CANCER HOSPITAL PHARMACY,4100 JOHN R,SUITE HP00RX,"DETROIT, MI 48201",http://maps.google.com/maps?q=KARMANOS%20CANCER%20HOSPITAL%20PHARMACY%2C4100%20JOHN%20R%2C+DETROIT%2C+MI+48201
LADONNA POEHLER LLC,600 W JOURDAN ST,"NEWTON, IL 62448",http://maps.google.com/maps?q=LADONNA%20POEHLER%20LLC%2C600%20W%20JOURDAN%20ST%2C+NEWTON%2C+IL+62448,
LINCOLN PLAZA PHARMACY LLC,629 LINCOLN AVE,P.O. BOX 966,"BEDFORD, IN 47421",http://maps.google.com/maps?q=LINCOLN%20PLAZA%20PHARMACY%20LLC%2C629%20LINCOLN%20AVE%2C+BEDFORD%2C+IN+47421
MARTIN'S PHARMACY,926 ERSKINE PLAZA,"SOUTH BEND, IN 46614",http://maps.google.com/maps?q=MARTINS%20PHARMACY%2C926%20ERSKINE%20PLAZA%2C+SOUTH%20BEND%2C+IN+46614,
MARTIN'S PHARMACY #25,7355 HERITAGE SQUARE DRIVE,"GRANGER, IN 46530",http://maps.google.com/maps?q=MARTINS%20PHARMACY%2C7355%20HERITAGE%20SQUARE%20DRIVE%2C+GRANGER%2C+IN+46530,
MARTIN'S PHARMACY #8,525 S. MAYFLOWER RD.,"SOUTH BEND, IN 46619",http://maps.google.com/maps?q=MARTINS%20PHARMACY%2C525%20S.%20MAYFLOWER%20RD.%2C+SOUTH%20BEND%2C+IN+46619,
MEDICAP PHARMACY,1101 US 45 NORTH,P.O. BOX 449,"ELDORADO, IL 62930",http://maps.google.com/maps?q=MEDICAP%20PHARMACY%2C1101%20US%2045%20NORTH%2C+ELDORADO%2C+IL+62930
"MEDICATION MANAGEMENT PARTNERS, LLC",13601 KENTON AVE,"CRESTWOOD, IL 60418",http://maps.google.com/maps?q=MEDICATION%20MANAGEMENT%20PARTNERS%20LLC%2C13601%20KENTON%20AVE%2C+CRESTWOOD%2C+IL+60418,
MEMORIAL HOSPITAL & HLTH CARE,800 W. 9TH ST.,"JASPER, IN 47546",http://maps.google.com/maps?q=MEMORIAL%20HOSPITAL%20%20HLTH%20CARE%2C800%20W.%209TH%20ST.%2C+JASPER%2C+IN+47546,
METHODIST HOSP UNION CO PHAR,4604 U.S. HIGHWAY 60 W.,"MORGANFIELD, KY 42437",http://maps.google.com/maps?q=METHODIST%20HOSP%20UNION%20CO%20PHAR%2C4604%20U.S.%20HIGHWAY%2060%20W.%2C+MORGANFIELD%2C+KY+42437,
METHODIST HOSPITAL PHARMACY,1305 N ELM ST,"HENDERSON, KY 42420",http://maps.google.com/maps?q=METHODIST%20HOSPITAL%20PHARMACY%2C1305%20N%20ELM%20ST%2C+HENDERSON%2C+KY+42420,
MIDTOWN COMMUNITY MENTAL HLTH,CENTER PHARMACY,1700 NORTH ILLINOIS,"INDIANAPOLIS, IN 46202",http://maps.google.com/maps?q=MIDTOWN%20COMMUNITY%20MENTAL%20HLTH%2CCENTER%20PHARMACY%2C+INDIANAPOLIS%2C+IN+46202
MILLINGTON PHARMACY LLC,8542 STATE RD,"MILLINGTON, MI 48746",http://maps.google.com/maps?q=MILLINGTON%20PHARMACY%20LLC%2C8542%20STATE%20RD%2C+MILLINGTON%2C+MI+48746,
NEW HUDSON DISCOUNT PHCY,56270 GRAND RIVER,P.O. BOX 218,"NEW HUDSON, MI 48165",http://maps.google.com/maps?q=NEW%20HUDSON%20DISCOUNT%20PHCY%2C56270%20GRAND%20RIVER%2C+NEW%20HUDSON%2C+MI+48165
NORTH ARLINGTON COMMUNITY,HEALTH CENTER PHARMACY,2505 N. ALRLINGTON,"INDIANAPOLIS, IN 46219",http://maps.google.com/maps?q=NORTH%20ARLINGTON%20COMMUNITY%2CHEALTH%20CENTER%20PHARMACY%2C+INDIANAPOLIS%2C+IN+46219
NORTH SAGINAW PHARMACY,2918 NORTH SAGINAW STREET,"FLINT, MI 48505",http://maps.google.com/maps?q=NORTH%20SAGINAW%20PHARMACY%2C2918%20NORTH%20SAGINAW%20STREET%2C+FLINT%2C+MI+48505,
NORTH SHORE PHARMACY,2490 CENTRAL AVENUE,"LAKE STATION, IN 46405",http://maps.google.com/maps?q=NORTH%20SHORE%20PHARMACY%2C2490%20CENTRAL%20AVENUE%2C+LAKE%20STATION%2C+IN+46405,
NORTHSHORE HEALTH CENTER,3564 SCOTTSDALE ST.,"PORTAGE, IN 46368",http://maps.google.com/maps?q=NORTHSHORE%20HEALTH%20CENTER%2C3564%20SCOTTSDALE%20ST.%2C+PORTAGE%2C+IN+46368,
OMEGA PHARMACY,420 W. HURON,"PONTIAC, MI 48341",http://maps.google.com/maps?q=OMEGA%20PHARMACY%2C420%20W.%20HURON%2C+PONTIAC%2C+MI+48341,
ORRS DRUG STORE INC,26 SOUTH MAIN STREET,"PIGEON, MI 48755",http://maps.google.com/maps?q=ORRS%20DRUG%20STORE%20INC%2C26%20SOUTH%20MAIN%20STREET%2C+PIGEON%2C+MI+48755,
OSF HEALTHCARE SYSTEM,1400 W. PARK STREET,"URBANA, IL 61801",http://maps.google.com/maps?q=OSF%20HEALTHCARE%20SYSTEM%2C1400%20W.%20PARK%20STREET%2C+URBANA%2C+IL+61801,
OSF HEALTHCARE SYSTEM,812 N. LOGAN AVENUE,"DANVILLE, IL 61832",http://maps.google.com/maps?q=OSF%20HEALTHCARE%20SYSTEM%2C812%20N.%20LOGAN%20AVENUE%2C+DANVILLE%2C+IL+61832,
PALM PHARMACY,6650 GREENFIELD RD,"DEARBORN, MI 48126",http://maps.google.com/maps?q=PALM%20PHARMACY%2C6650%20GREENFIELD%20RD%2C+DEARBORN%2C+MI+48126,
PECAR COMMUNITY HEALTH CENTER PHARMACY,6940 N MICHIGAN ROAD,"INDIANAPOLIS, IN 46268",http://maps.google.com/maps?q=PECAR%20COMMUNITY%20HEALTH%20CENTER%20PHARMACY%2C6940%20N%20MICHIGAN%20ROAD%2C+INDIANAPOLIS%2C+IN+46268,
"PHARMACY CARE SOLUTIONS, INC",2323 N. MARR ROAD,"COLUMBUS, IN 47203",http://maps.google.com/maps?q=PHARMACY%20CARE%20SOLUTIONS%20INC%2C2323%20N.%20MARR%20ROAD%2C+COLUMBUS%2C+IN+47203,
PHARMANEEK INC,7345 WOODLAND DR.,SUITE A,"INDIANAPOLIS, IN 46278",http://maps.google.com/maps?q=PHARMANEEK%20INC%2C7345%20WOODLAND%20DR.%2C+INDIANAPOLIS%2C+IN+46278
PHILS DISCOUNT DRUGS,702 E. LINCOLNWAY,"LAPORTE, IN 46350",http://maps.google.com/maps?q=PHILS%20DISCOUNT%20DRUGS%2C702%20E.%20LINCOLNWAY%2C+LAPORTE%2C+IN+46350,
POEHLER'S PHARMACY LLC,203 S MAIN ST SUITE A,"DIETERICH, IL 62424",http://maps.google.com/maps?q=POEHLERS%20PHARMACY%20LLC%2C203%20S%20MAIN%20ST%20SUITE%20A%2C+DIETERICH%2C+IL+62424,
PRESENCE LIFE CONNECTIONS PHARMACY,670 N CONVENT STREET,"BOURBONNAIS, IL 60914",http://maps.google.com/maps?q=PRESENCE%20LIFE%20CONNECTIONS%20PHARMACY%2C670%20N%20CONVENT%20STREET%2C+BOURBONNAIS%2C+IL+60914,
PULASKI MEMORIAL HOSPITAL,616 E 13TH STREET,P O BOX 279,"WINAMAC, IN 46996",http://maps.google.com/maps?q=PULASKI%20MEMORIAL%20HOSPITAL%2C616%20E%2013TH%20STREET%2C+WINAMAC%2C+IN+46996
PURDUE UNIVERSITY PHARMACY,HEINE PHARMACY BUILDING RM 118,575 STADIUM MALL DRIVE,"WEST LAFAYETTE, IN 47907",http://maps.google.com/maps?q=PURDUE%20UNIVERSITY%20PHARMACY%2CHEINE%20PHARMACY%20BUILDING%20RM%20118%2C+WEST%20LAFAYETTE%2C+IN+47907
RIVERSIDE FAMILY PHARMACY,350 N WALL STREET,"KANKAKEE, IL 60901",http://maps.google.com/maps?q=RIVERSIDE%20FAMILY%20PHARMACY%2C350%20N%20WALL%20STREET%2C+KANKAKEE%2C+IL+60901,
ROGERS PHARMACY OF CAPAC,316 W NEPESSING ST,"LAPEER, MI 48446",http://maps.google.com/maps?q=ROGERS%20PHARMACY%20OF%20CAPAC%2C316%20W%20NEPESSING%20ST%2C+LAPEER%2C+MI+48446,
RX CARE OF MI LLC,25014 LITTLEMACK AVE,"SAINT CLAIR SHORES, MI 48080",http://maps.google.com/maps?q=RX%20CARE%20OF%20MI%20LLC%2C25014%20LITTLEMACK%20AVE%2C+SAINT%20CLAIR%20SHORES%2C+MI+48080,
SCHEURER FAMILY PHARMACY,168 N. CASEVILLE ROAD,"PIGEON, MI 48755",http://maps.google.com/maps?q=SCHEURER%20FAMILY%20PHARMACY%2C168%20N.%20CASEVILLE%20ROAD%2C+PIGEON%2C+MI+48755,
SCHEURER FAMILY PHARMACY,4970 RAILROAD STREET,"ELKTON, MI 48731",http://maps.google.com/maps?q=SCHEURER%20FAMILY%20PHARMACY%2C4970%20RAILROAD%20STREET%2C+ELKTON%2C+MI+48731,
SCHEURER FAMILY PHARMACY,8866 S UNIONVILLE RD,"SEBEWAING, MI 48759",http://maps.google.com/maps?q=SCHEURER%20FAMILY%20PHARMACY%2C8866%20S%20UNIONVILLE%20RD%2C+SEBEWAING%2C+MI+48759,
SHAKAMAK HEALTH INC,346 E MAIN ST,"JASONVILLE, IN 47438",http://maps.google.com/maps?q=SHAKAMAK%20HEALTH%20INC%2C346%20E%20MAIN%20ST%2C+JASONVILLE%2C+IN+47438,
SHAW'S PHARMACY INC,221 N SAGINAW STREET,"DURAND, MI 48429",http://maps.google.com/maps?q=SHAWS%20PHARMACY%20INC%2C221%20N%20SAGINAW%20STREET%2C+DURAND%2C+MI+48429,
SHELDON PHARMACY OF YALE INC,25 SOUTH MAIN ST,"YALE, MI 48097",http://maps.google.com/maps?q=SHELDON%20PHARMACY%20OF%20YALE%20INC%2C25%20SOUTH%20MAIN%20ST%2C+YALE%2C+MI+48097,
SOMERSET SPECIALTY PHARMACY ROCHESTER HILLS LLC,2708 S ROCHESTER RD,STE 204,"ROCHESTER, MI 48307",http://maps.google.com/maps?q=SOMERSET%20SPECIALTY%20PHARMACY%20ROCHESTER%20HILLS%20LLC%2C2708%20S%20ROCHESTER%20RD%2C+ROCHESTER%2C+MI+48307
ST. MARGARET'S PHARMACY AT ESKENAZI HEALTH,720 ESKENAZI AVENUE,"INDIANAPOLIS, IN 46202",http://maps.google.com/maps?q=ST%20MARGARETS%20PHARMACY%20AT%20ESKENAZI%20HEALTH%2C720%20ESKENAZI%20AVENUE%2C+INDIANAPOLIS%2C+IN+46202,
ST. VINCENT MERCY HOSPITAL,1331 SOUTH A STREET,"ELWOOD, IN 46036",http://maps.google.com/maps?q=ST%20VINCENT%20MERCY%20HOSPITAL%2C1331%20SOUTH%20A%20STREET%2C+ELWOOD%2C+IN+46036,
ST. VINCENT PHARMACY,2001 WEST 86TH STREET,"INDIANAPOLIS, IN 46260",http://maps.google.com/maps?q=ST%20VINCENT%20PHARMACY%2C2001%20WEST%2086TH%20STREET%2C+INDIANAPOLIS%2C+IN+46260,
ST. VINCENT PHARMACY MOB,801 ST. MARY'S DRIVE,"EVANSVILLE, IN 47714",http://maps.google.com/maps?q=ST%20VINCENT%20PHARMACY%20MOB%2C801%20ST.%20MARY'S%20DRIVE%2C+EVANSVILLE%2C+IN+47714,
STATE STREET PHARMACY & WELLNESS CENTER,192 NORTH STATE STREET,"CARO, MI 48723",http://maps.google.com/maps?q=STATE%20STREET%20PHARMACY%20%20WELLNESS%20CENTER%2C192%20NORTH%20STATE%20STREET%2C+CARO%2C+MI+48723,
THE WELLNESS PLAN,2888 WEST GRAND BLVD.,"DETROIT, MI 48202",http://maps.google.com/maps?q=THE%20WELLNESS%20PLAN%2C2888%20WEST%20GRAND%20BLVD.%2C+DETROIT%2C+MI+48202,
TODDS PHARMACY INC,25871 FORD ROAD,"DEARBORN HEIGHTS, MI 48127",http://maps.google.com/maps?q=TODDS%20PHARMACY%20INC%2C25871%20FORD%20ROAD%2C+DEARBORN%20HEIGHTS%2C+MI+48127,
TOWN CENTER PHARMACY,1201 FLUSHING ROAD,SUITE 2,"FLINT, MI 48504",http://maps.google.com/maps?q=TOWN%20CENTER%20PHARMACY%2C1201%20FLUSHING%20ROAD%2C+FLINT%2C+MI+48504
UNION PRESCRIPTION CENTER I INC,11830 NORTH SAGINAW STREET,"MOUNT MORRIS, MI 48458",http://maps.google.com/maps?q=UNION%20PRESCRIPTION%20CENTER%20I%20INC%2C11830%20NORTH%20SAGINAW%20STREET%2C+MOUNT%20MORRIS%2C+MI+48458,
UNITED SPECIALTY PHARMACY LLC,25205 TROWBRIDGE ST.,"DEARBORN, MI 48124",http://maps.google.com/maps?q=UNITED%20SPECIALTY%20PHARMACY%20LLC%2C25205%20TROWBRIDGE%20ST.%2C+DEARBORN%2C+MI+48124,
UNIVERSITY OF CHICAGO DCAM OUTPATIENT PHARMACY,5758 S. MARYLAND AVE.,MC0010,"CHICAGO, IL 60637",http://maps.google.com/maps?q=UNIVERSITY%20OF%20CHICAGO%20DCAM%20OUTPATIENT%20PHARMACY%2C5758%20S.%20MARYLAND%20AVE.%2C+CHICAGO%2C+IL+60637
UNIVERSITY OF MICHIGAN,207 FLETCHER STREET,"ANN ARBOR, MI 48109",http://maps.google.com/maps?q=UNIVERSITY%20OF%20MICHIGAN%2C207%20FLETCHER%20STREET%2C+ANN%20ARBOR%2C+MI+48109,
UNIVERSITY OF MICHIGAN MEDICAL CENTER,UH-B2D301,1500 EAST MEDICAL CENTER DRIVE,"ANN ARBOR, MI 48109",http://maps.google.com/maps?q=UNIVERSITY%20OF%20MICHIGAN%20MEDICAL%20CENTER%2CUH-B2D301%2C+ANN%20ARBOR%2C+MI+48109
VETERANS ADMINISTRATION MEDICAL CENTER,PHARMACY SERVICES,2215 FULLER ROAD,"ANN ARBOR, MI 48105",http://maps.google.com/maps?q=VETERANS%20ADMINISTRATION%20MEDICAL%20CENTER%2CPHARMACY%20SERVICES%2C+ANN%20ARBOR%2C+MI+48105
VETERANS AFFAIRS MEDICAL CENTER,4646 JOHN R,"DETROIT, MI 48201",http://maps.google.com/maps?q=VETERANS%20AFFAIRS%20MEDICAL%20CENTER%2C4646%20JOHN%20R%2C+DETROIT%2C+MI+48201,
VYTO'S PHARMACY,6949 KENNEDY AVENUE,UNIT C,"HAMMOND, IN 46323",http://maps.google.com/maps?q=VYTOS%20PHARMACY%2C6949%20KENNEDY%20AVENUE%2C+HAMMOND%2C+IN+46323
WALGREEN CO,21790 21 MILE RD,"MACOMB, MI 48044",http://maps.google.com/maps?q=WALGREEN%20CO%2C21790%2021%20MILE%20RD%2C+MACOMB%2C+MI+48044,
WALGREEN CO,2400 W SYCAMORE STREET,"KOKOMO, IN 46901",http://maps.google.com/maps?q=WALGREEN%20CO%2C2400%20W%20SYCAMORE%20STREET%2C+KOKOMO%2C+IN+46901,
WALGREEN CO,25700 FORD RD,"DEARBORN HEIGHTS, MI 48127",http://maps.google.com/maps?q=WALGREEN%20CO%2C25700%20FORD%20RD%2C+DEARBORN%20HEIGHTS%2C+MI+48127,
WALGREEN CO,2901 CENTER AVENUE,"ESSEXVILLE, MI 48732",http://maps.google.com/maps?q=WALGREEN%20CO%2C2901%20CENTER%20AVENUE%2C+ESSEXVILLE%2C+MI+48732,
WALGREEN CO,6745 E SOUTHPORT ROAD,"INDIANAPOLIS, IN 46237",http://maps.google.com/maps?q=WALGREEN%20CO%2C6745%20E%20SOUTHPORT%20ROAD%2C+INDIANAPOLIS%2C+IN+46237,
WALGREEN CO.,1010 E IRELAND RD,"SOUTH BEND, IN 46614",http://maps.google.com/maps?q=WALGREEN%20CO%2C1010%20E%20IRELAND%20RD%2C+SOUTH%20BEND%2C+IN+46614,
WALGREEN CO.,11020 PENDLETON PIKE,"INDIANAPOLIS, IN 46236",http://maps.google.com/maps?q=WALGREEN%20CO%2C11020%20PENDLETON%20PIKE%2C+INDIANAPOLIS%2C+IN+46236,
WALGREEN CO.,115 FIELDS STREET,"MOORESVILLE, IN 46158",http://maps.google.com/maps?q=WALGREEN%20CO%2C115%20FIELDS%20STREET%2C+MOORESVILLE%2C+IN+46158,
WALGREEN CO.,1285 N MONROE ST,"MONROE, MI 48162",http://maps.google.com/maps?q=WALGREEN%20CO%2C1285%20N%20MONROE%20ST%2C+MONROE%2C+MI+48162,
WALGREEN CO.,1290 N STATE RD 135,"GREENWOOD, IN 46142",http://maps.google.com/maps?q=WALGREEN%20CO%2C1290%20N%20STATE%20RD%20135%2C+GREENWOOD%2C+IN+46142,
WALGREEN CO.,1300 WABASH AVE,"TERRE HAUTE, IN 47807",http://maps.google.com/maps?q=WALGREEN%20CO%2C1300%20WABASH%20AVE%2C+TERRE%20HAUTE%2C+IN+47807,
WALGREEN CO.,1400 CASSOPOLIS ST,"ELKHART, IN 46514",http://maps.google.com/maps?q=WALGREEN%20CO%2C1400%20CASSOPOLIS%20ST%2C+ELKHART%2C+IN+46514,
WALGREEN CO.,1400 N RITTER AVE.,SUITE 140,"INDIANAPOLIS, IN 46219",http://maps.google.com/maps?q=WALGREEN%20CO%2C1400%20N%20RITTER%20AVE.%2C+INDIANAPOLIS%2C+IN+46219
WALGREEN CO.,1424 S RANGELINE RD,"CARMEL, IN 46032",http://maps.google.com/maps?q=WALGREEN%20CO%2C1424%20S%20RANGELINE%20RD%2C+CARMEL%2C+IN+46032,
WALGREEN CO.,14680 S LA GRANGE ROAD,"ORLAND PARK, IL 60462",http://maps.google.com/maps?q=WALGREEN%20CO%2C14680%20S%20LA%20GRANGE%20ROAD%2C+ORLAND%20PARK%2C+IL+60462,
WALGREEN CO.,1530 N MERIDIAN ST,"INDIANAPOLIS, IN 46202",http://maps.google.com/maps?q=WALGREEN%20CO%2C1530%20N%20MERIDIAN%20ST%2C+INDIANAPOLIS%2C+IN+46202,
WALGREEN CO.,16741 CANAL RD,"CLINTON TOWNSHIP, MI 48038",http://maps.google.com/maps?q=WALGREEN%20CO%2C16741%20CANAL%20RD%2C+CLINTON%20TOWNSHIP%2C+MI+48038,
WALGREEN CO.,1808 ALBANY ST,"BEECH GROVE, IN 46107",http://maps.google.com/maps?q=WALGREEN%20CO%2C1808%20ALBANY%20ST%2C+BEECH%20GROVE%2C+IN+46107,
WALGREEN CO.,1903 CALUMET AVE.,"VALPARAISO, IN 46383",http://maps.google.com/maps?q=WALGREEN%20CO%2C1903%20CALUMET%20AVE.%2C+VALPARAISO%2C+IN+46383,
WALGREEN CO.,20 W MAIN ST,"BROWNSBURG, IN 46112",http://maps.google.com/maps?q=WALGREEN%20CO%2C20%20W%20MAIN%20ST%2C+BROWNSBURG%2C+IN+46112,
WALGREEN CO.,2015 COVERT AVE,"EVANSVILLE, IN 47714",http://maps.google.com/maps?q=WALGREEN%20CO%2C2015%20COVERT%20AVE%2C+EVANSVILLE%2C+IN+47714,
WALGREEN CO.,226 N. HALLECK STREET,"DEMOTTE, IN 46310",http://maps.google.com/maps?q=WALGREEN%20CO%2C226%20N.%20HALLECK%20STREET%2C+DEMOTTE%2C+IN+46310,
WALGREEN CO.,2318 FREDERICA STREET,"OWENSBORO, KY 42301",http://maps.google.com/maps?q=WALGREEN%20CO%2C2318%20FREDERICA%20STREET%2C+OWENSBORO%2C+KY+42301,
WALGREEN CO.,2400 BEAM ROAD,"COLUMBUS, IN 47203",http://maps.google.com/maps?q=WALGREEN%20CO%2C2400%20BEAM%20ROAD%2C+COLUMBUS%2C+IN+47203,
WALGREEN CO.,2500 GRANT ST,"GARY, IN 46404",http://maps.google.com/maps?q=WALGREEN%20CO%2C2500%20GRANT%20ST%2C+GARY%2C+IN+46404,
WALGREEN CO.,29030 NORTHWESTERN HWY,"SOUTHFIELD, MI 48034",http://maps.google.com/maps?q=WALGREEN%20CO%2C29030%20NORTHWESTERN%20HWY%2C+SOUTHFIELD%2C+MI+48034,
WALGREEN CO.,30852 WOODWARD AVE,"ROYAL OAK, MI 48073",http://maps.google.com/maps?q=WALGREEN%20CO%2C30852%20WOODWARD%20AVE%2C+ROYAL%20OAK%2C+MI+48073,
WALGREEN CO.,31100 GROESBECK HWY.,"FRASER, MI 48026",http://maps.google.com/maps?q=WALGREEN%20CO%2C31100%20GROESBECK%20HWY.%2C+FRASER%2C+MI+48026,
WALGREEN CO.,320 S SCATTERFIELD RD,"ANDERSON, IN 46012",http://maps.google.com/maps?q=WALGREEN%20CO%2C320%20S%20SCATTERFIELD%20RD%2C+ANDERSON%2C+IN+46012,
WALGREEN CO.,3455 MANN ROAD,"INDIANAPOLIS, IN 46221",http://maps.google.com/maps?q=WALGREEN%20CO%2C3455%20MANN%20ROAD%2C+INDIANAPOLIS%2C+IN+46221,
WALGREEN CO.,3545 W 86TH STREET,"INDIANAPOLIS, IN 46268",http://maps.google.com/maps?q=WALGREEN%20CO%2C3545%20W%2086TH%20STREET%2C+INDIANAPOLIS%2C+IN+46268,
WALGREEN CO.,402 2ND STREET,"HENDERSON, KY 42420",http://maps.google.com/maps?q=WALGREEN%20CO%2C402%202ND%20STREET%2C+HENDERSON%2C+KY+42420,
WALGREEN CO.,4989 STATE ST,"SAGINAW, MI 48603",http://maps.google.com/maps?q=WALGREEN%20CO%2C4989%20STATE%20ST%2C+SAGINAW%2C+MI+48603,
WALGREEN CO.,501 N CONVENT ST,"BOURBONNAIS, IL 60914",http://maps.google.com/maps?q=WALGREEN%20CO%2C501%20N%20CONVENT%20ST%2C+BOURBONNAIS%2C+IL+60914,
WALGREEN CO.,505 COLLEGE AVENUE,"VINCENNES, IN 47591",http://maps.google.com/maps?q=WALGREEN%20CO%2C505%20COLLEGE%20AVENUE%2C+VINCENNES%2C+IN+47591,
WALGREEN CO.,522 TORRENCE AVE,"CALUMET CITY, IL 60409",http://maps.google.com/maps?q=WALGREEN%20CO%2C522%20TORRENCE%20AVE%2C+CALUMET%20CITY%2C+IL+60409,
WALGREEN CO.,5709 S TELEGRAPH RD,"DEARBORN HEIGHTS, MI 48125",http://maps.google.com/maps?q=WALGREEN%20CO%2C5709%20S%20TELEGRAPH%20RD%2C+DEARBORN%20HEIGHTS%2C+MI+48125,
WALGREEN CO.,6001 CENTRAL AVE,"PORTAGE, IN 46368",http://maps.google.com/maps?q=WALGREEN%20CO%2C6001%20CENTRAL%20AVE%2C+PORTAGE%2C+IN+46368,
WALGREEN CO.,6016 W 63RD STREET,"CHICAGO, IL 60638",http://maps.google.com/maps?q=WALGREEN%20CO%2C6016%20W%2063RD%20STREET%2C+CHICAGO%2C+IL+60638,
WALGREEN CO.,651 W. US HWY 30,"SCHERERVILLE, IN 46375",http://maps.google.com/maps?q=WALGREEN%20CO%2C651%20W.%20US%20HWY%2030%2C+SCHERERVILLE%2C+IN+46375,
WALGREEN CO.,700 US HIGHWAY 31 S,"GREENWOOD, IN 46143",http://maps.google.com/maps?q=WALGREEN%20CO%2C700%20US%20HIGHWAY%2031%20S%2C+GREENWOOD%2C+IN+46143,
WALGREEN CO.,7109 S JEFFERY BLVD,"CHICAGO, IL 60649",http://maps.google.com/maps?q=WALGREEN%20CO%2C7109%20S%20JEFFERY%20BLVD%2C+CHICAGO%2C+IL+60649,
WALGREEN CO.,7110 DIXIE HIGHWAY,"CLARKSTON, MI 48346",http://maps.google.com/maps?q=WALGREEN%20CO%2C7110%20DIXIE%20HIGHWAY%2C+CLARKSTON%2C+MI+48346,
WALGREEN CO.,7769 W STATE RTE 66,"NEWBURGH, IN 47630",http://maps.google.com/maps?q=WALGREEN%20CO%2C7769%20W%20STATE%20RTE%2066%2C+NEWBURGH%2C+IN+47630,
WALGREEN CO.,7975 E US HWY 36,"AVON, IN 46123",http://maps.google.com/maps?q=WALGREEN%20CO%2C7975%20E%20US%20HWY%2036%2C+AVON%2C+IN+46123,
WALGREEN CO.,8628 S COTTAGE GROVE AVE,"CHICAGO, IL 60619",http://maps.google.com/maps?q=WALGREEN%20CO%2C8628%20S%20COTTAGE%20GROVE%20AVE%2C+CHICAGO%2C+IL+60619,
WALGREEN CO.,8905 E 10TH ST,"INDIANAPOLIS, IN 46219",http://maps.google.com/maps?q=WALGREEN%20CO%2C8905%20E%2010TH%20ST%2C+INDIANAPOLIS%2C+IN+46219,
WALGREEN CO.,901 S STATE RD,"DAVISON, MI 48423",http://maps.google.com/maps?q=WALGREEN%20CO%2C901%20S%20STATE%20RD%2C+DAVISON%2C+MI+48423,
WALGREEN CO.,925 SOUTH GREEN RIVER ROAD,"EVANSVILLE, IN 47715",http://maps.google.com/maps?q=WALGREEN%20CO%2C925%20SOUTH%20GREEN%20RIVER%20ROAD%2C+EVANSVILLE%2C+IN+47715,
WEST GRANGE PHARMACY LLC,3390 WEST ROAD,"TRENTON, MI 48183",http://maps.google.com/maps?q=WEST%20GRANGE%20PHARMACY%20LLC%2C3390%20WEST%20ROAD%2C+TRENTON%2C+MI+48183,
WESTSIDE COMMUNITY HLTH CTR,PHARMACY,2732 W MICHIGANSTREET,"INDIANAPOLIS, IN 46222",http://maps.google.com/maps?q=WESTSIDE%20COMMUNITY%20HLTH%20CTR%2CPHARMACY%2C+INDIANAPOLIS%2C+IN+46222
"WILLIAMS BROS. HEALTH CARE PHARMACY, INC",104 E. BROADWAY ST.,"LOOGOOTEE, IN 47553",http://maps.google.com/maps?q=WILLIAMS%20BROS%20HEALTH%20CARE%20PHARMACY%20INC%2C104%20E.%20BROADWAY%20ST.%2C+LOOGOOTEE%2C+IN+47553,
WINGERTS PHARMACY,315 E MAIN ST,PO BOX 281,"MAYVILLE, MI 48744",http://maps.google.com/maps?q=WINGERTS%20PHARMACY%2C315%20E%20MAIN%20ST%2C+MAYVILLE%2C+MI+48744
"WOODWARD DETROIT CVS, L.L.C.",10011 WEST MCNICHOLS ROAD,"DETROIT, MI 48221",http://maps.google.com/maps?q=WOODWARD%20DETROIT%20CVS%20LLC%2C10011%20WEST%20MCNICHOLS%20ROAD%2C+DETROIT%2C+MI+48221,
"WOODWARD DETROIT CVS, L.L.C.",10915 BELLEVILLE ROAD,"BELLEVILLE, MI 48111",http://maps.google.com/maps?q=WOODWARD%20DETROIT%20CVS%20LLC%2C10915%20BELLEVILLE%20ROAD%2C+BELLEVILLE%2C+MI+48111,
"WOODWARD DETROIT CVS, L.L.C.",2235 EAST GRAND RIVER AVE.,"HOWELL, MI 48843",http://maps.google.com/maps?q=WOODWARD%20DETROIT%20CVS%20LLC%2C2235%20EAST%20GRAND%20RIVER%20AVE.%2C+HOWELL%2C+MI+48843,
"WOODWARD DETROIT CVS, L.L.C.",2400 FORT ST.,"LINCOLN PARK, MI 48146",http://maps.google.com/maps?q=WOODWARD%20DETROIT%20CVS%20LLC%2C2400%20FORT%20ST.%2C+LINCOLN%20PARK%2C+MI+48146,
"WOODWARD DETROIT CVS, L.L.C.",25109 RYAN,"WARREN, MI 48091",http://maps.google.com/maps?q=WOODWARD%20DETROIT%20CVS%20LLC%2C25109%20RYAN%2C+WARREN%2C+MI+48091,
"WOODWARD DETROIT CVS, L.L.C.",27435 FORD RD.,"GARDEN CITY, MI 48135",http://maps.google.com/maps?q=WOODWARD%20DETROIT%20CVS%20LLC%2C27435%20FORD%20RD.%2C+GARDEN%20CITY%2C+MI+48135,
"WOODWARD DETROIT CVS, L.L.C.",30900 WOODWARD,"ROYAL OAK, MI 48073",http://maps.google.com/maps?q=WOODWARD%20DETROIT%20CVS%20LLC%2C30900%20WOODWARD%2C+ROYAL%20OAK%2C+MI+48073,
"WOODWARD DETROIT CVS, L.L.C.",37050 GRATOIT,"CLINTON TWP, MI 48036",http://maps.google.com/maps?q=WOODWARD%20DETROIT%20CVS%20LLC%2C37050%20GRATOIT%2C+CLINTON%20TWP%2C+MI+48036,
"WOODWARD DETROIT CVS, L.L.C.",37340 FIVE MILE RD.,"LIVONIA, MI 48154",http://maps.google.com/maps?q=WOODWARD%20DETROIT%20CVS%20LLC%2C37340%20FIVE%20MILE%20RD.%2C+LIVONIA%2C+MI+48154,
"WOODWARD DETROIT CVS, L.L.C.",40925 GARFIELD ROAD,"CLINTON TWP, MI 48038",http://maps.google.com/maps?q=WOODWARD%20DETROIT%20CVS%20LLC%2C40925%20GARFIELD%20ROAD%2C+CLINTON%20TWP%2C+MI+48038,
"WOODWARD DETROIT CVS, L.L.C.",50980 NORTH AVENUE,"MACOMB TOWNSHIP, MI 48042",http://maps.google.com/maps?q=WOODWARD%20DETROIT%20CVS%20LLC%2C50980%20NORTH%20AVENUE%2C+MACOMB%20TOWNSHIP%2C+MI+48042,
"WOODWARD DETROIT CVS, LLC",18500 GRAND RIVER,"DETROIT, MI 48223",http://maps.google.com/maps?q=WOODWARD%20DETROIT%20CVS%20LLC%2C18500%20GRAND%20RIVER%2C+DETROIT%2C+MI+48223,
YORK PHARMACY,107 E MAIN ST,"MC LEANSBORO, IL 62859",http://maps.google.com/maps?q=YORK%20PHARMACY%2C107%20E%20MAIN%20ST%2C+MC%20LEANSBORO%2C+IL+62859,
