Business Name,Address 1,Address 2,"City, State Zip",Map URL
ALCONA HEALTH CENTER PHARMACY SERVICES,1185 US HIGHWAY 23 N,"ALPENA, MI 49707",http://maps.google.com/maps?q=ALCONA%20HEALTH%20CENTER%20PHARMACY%20SERVICES%2C1185%20US%20HIGHWAY%2023%20N%2C+ALPENA%2C+MI+49707,
THUNDER BAY PHARMACY ROGERS CITY,205 S BRADLEY HWY,"ROGERS CITY, MI 49779",http://maps.google.com/maps?q=THUNDER%20BAY%20PHARMACY%20ROGERS%20CITY%2C205%20S%20BRADLEY%20HWY%2C+ROGERS%20CITY%2C+MI+49779,
MIDMICHIGAN MEDICAL CENTER - ALPENA,1501 W. CHISHOLM ST.,"ALPENA, MI 49707",http://maps.google.com/maps?q=MIDMICHIGAN%20MEDICAL%20CENTER%20%20ALPENA%2C1501%20W.%20CHISHOLM%20ST.%2C+ALPENA%2C+MI+49707,
OSSINEKE PHARMACY,11745 US 23 SOUTH,"OSSINEKE, MI 49766",http://maps.google.com/maps?q=OSSINEKE%20PHARMACY%2C11745%20US%2023%20SOUTH%2C+OSSINEKE%2C+MI+49766,
THUNDER BAY PHARMACY ONAWAY,21258 WEST M-68 HIGHWAY,PO BOX 722,"ONAWAY, MI 49765",http://maps.google.com/maps?q=THUNDER%20BAY%20PHARMACY%20ONAWAY%2C21258%20WEST%20M-68%20HIGHWAY%2C+ONAWAY%2C+MI+49765
ALCONA HEALTH CENTER PHARMACY,177 N BARLOW,"LINCOLN, MI 48742",http://maps.google.com/maps?q=ALCONA%20HEALTH%20CENTER%20PHARMACY%2C177%20N%20BARLOW%2C+LINCOLN%2C+MI+48742,
THUNDER BAY PHARMACY,11899 M-32,PO BOX 850,"ATLANTA, MI 49709",http://maps.google.com/maps?q=THUNDER%20BAY%20PHARMACY%2C11899%20M-32%2C+ATLANTA%2C+MI+49709
MODERN MEDICAL SERVICES INC,127 NORTH MAIN,P.O. BOX 345,"CHEBOYGAN, MI 49721",http://maps.google.com/maps?q=MODERN%20MEDICAL%20SERVICES%20INC%2C127%20NORTH%20MAIN%2C+CHEBOYGAN%2C+MI+49721
MUNSON HEALTHCARE OTSEGO MEMORIAL HOSPITAL,825 N CENTER AVENUE,"GAYLORD, MI 49735",http://maps.google.com/maps?q=MUNSON%20HEALTHCARE%20OTSEGO%20MEMORIAL%20HOSPITAL%2C825%20N%20CENTER%20AVENUE%2C+GAYLORD%2C+MI+49735,
BAY MILLS PHARMACY,12124 W LAKESHORE DR,"BRIMLEY, MI 49715",http://maps.google.com/maps?q=BAY%20MILLS%20PHARMACY%2C12124%20W%20LAKESHORE%20DR%2C+BRIMLEY%2C+MI+49715,
CHIPPEWA CO WAR MEMORIAL HOSPITAL,500 OSBORN BLVD,"SAULT S MARIE, MI 49783",http://maps.google.com/maps?q=CHIPPEWA%20CO%20WAR%20MEMORIAL%20HOSPITAL%2C500%20OSBORN%20BLVD%2C+SAULT%20S%20MARIE%2C+MI+49783,
LITTLE TRAVERSE BAY BANDS OF ODAWA INDIANS,1260 AJIJAAK AVE,"PETOSKEY, MI 49770",http://maps.google.com/maps?q=LITTLE%20TRAVERSE%20BAY%20BANDS%20OF%20ODAWA%20INDIANS%2C1260%20AJIJAAK%20AVE%2C+PETOSKEY%2C+MI+49770,
R & R PRESCRIPTION SERVICES,560 WEST MITCHELL,SUITE #200,"PETOSKEY, MI 49770",http://maps.google.com/maps?q=R%20%20R%20PRESCRIPTION%20SERVICES%2C560%20WEST%20MITCHELL%2C+PETOSKEY%2C+MI+49770
MUNSON HEALTHCARE CHARLEVOIX HOSPITAL,14700 LAKE SHORE DRIVE,"CHARLEVOIX, MI 49720",http://maps.google.com/maps?q=MUNSON%20HEALTHCARE%20CHARLEVOIX%20HOSPITAL%2C14700%20LAKE%20SHORE%20DRIVE%2C+CHARLEVOIX%2C+MI+49720,
CENTRAL LAKE PHARMACY INC,2424 NORTH MAIN STREET,"CENTRAL LAKE, MI 49622",http://maps.google.com/maps?q=CENTRAL%20LAKE%20PHARMACY%20INC%2C2424%20NORTH%20MAIN%20STREET%2C+CENTRAL%20LAKE%2C+MI+49622,
PUTVIN DRUG STORE,211 S CEDAR ST,"MANISTIQUE, MI 49854",http://maps.google.com/maps?q=PUTVIN%20DRUG%20STORE%2C211%20S%20CEDAR%20ST%2C+MANISTIQUE%2C+MI+49854,
"BELLAIRE PHARMACY, INC",120  NORTH BRIDGE STREET,PO BOX 272,"BELLAIRE, MI 49615",http://maps.google.com/maps?q=BELLAIRE%20PHARMACY%20INC%2C120%20%20NORTH%20BRIDGE%20STREET%2C+BELLAIRE%2C+MI+49615
RIVER PHARMACY INC,124 AMES ST,"ELK RAPIDS, MI 49629",http://maps.google.com/maps?q=RIVER%20PHARMACY%20INC%2C124%20AMES%20ST%2C+ELK%20RAPIDS%2C+MI+49629,
MUNSON HEALTHCARE GRAYLING HOSPITAL PHARMACY,1100 E MICHIGAN AVE,"GRAYLING, MI 49738",http://maps.google.com/maps?q=MUNSON%20HEALTHCARE%20GRAYLING%20HOSPITAL%20PHARMACY%2C1100%20E%20MICHIGAN%20AVE%2C+GRAYLING%2C+MI+49738,
THE MEDICINE SHOPPE #1675,500 N JAMES STREET,"GRAYLING, MI 49738",http://maps.google.com/maps?q=THE%20MEDICINE%20SHOPPE%2C500%20N%20JAMES%20STREET%2C+GRAYLING%2C+MI+49738,
KALKASKA MEMORIAL HOSPITAL,KALKASKA MEMORIAL HEALTH CENTER,419 S CORAL ST,"KALKASKA, MI 49646",http://maps.google.com/maps?q=KALKASKA%20MEMORIAL%20HOSPITAL%2CKALKASKA%20MEMORIAL%20HEALTH%20CENTER%2C+KALKASKA%2C+MI+49646
MUNSON SERVICES INC,550 MUNSON AVENUE,G100,"TRAVERSE CITY, MI 49686",http://maps.google.com/maps?q=MUNSON%20SERVICES%20INC%2C550%20MUNSON%20AVENUE%2C+TRAVERSE%20CITY%2C+MI+49686
MUNSON HOSPITAL PHARMACY,1105 SIXTH STREET,"TRAVERSE CITY, MI 49684",http://maps.google.com/maps?q=MUNSON%20HOSPITAL%20PHARMACY%2C1105%20SIXTH%20STREET%2C+TRAVERSE%20CITY%2C+MI+49684,
KRONNER PHARMACY INC,778 W HOUGHTON LAKE DR,PO BOX 116,"PRUDENVILLE, MI 48651",http://maps.google.com/maps?q=KRONNER%20PHARMACY%20INC%2C778%20W%20HOUGHTON%20LAKE%20DR%2C+PRUDENVILLE%2C+MI+48651
MIDMICHIGAN COMMUNITY HEALTH SERVICES,9249 W LAKE CITY RD,"HOUGHTON LAKE, MI 48629",http://maps.google.com/maps?q=MIDMICHIGAN%20COMMUNITY%20HEALTH%20SERVICES%2C9249%20W%20LAKE%20CITY%20RD%2C+HOUGHTON%20LAKE%2C+MI+48629,
MCBAIN FAMILY PHARMACY,119 N ROLAND ST,"MC BAIN, MI 49657",http://maps.google.com/maps?q=MCBAIN%20FAMILY%20PHARMACY%2C119%20N%20ROLAND%20ST%2C+MC%20BAIN%2C+MI+49657,
WALGREEN CO.,1220 N MITCHELL,"CADILLAC, MI 49601",http://maps.google.com/maps?q=WALGREEN%20CO%2C1220%20N%20MITCHELL%2C+CADILLAC%2C+MI+49601,
COBB STREET PHARMACY,520 COBB STREET,"CADILLAC, MI 49601",http://maps.google.com/maps?q=COBB%20STREET%20PHARMACY%2C520%20COBB%20STREET%2C+CADILLAC%2C+MI+49601,
MUNSON HEALTHCARE CADILLAC HOSPITAL PHARMACY,400 HOBART STREET,"CADILLAC, MI 49601",http://maps.google.com/maps?q=MUNSON%20HEALTHCARE%20CADILLAC%20HOSPITAL%20PHARMACY%2C400%20HOBART%20STREET%2C+CADILLAC%2C+MI+49601,
"CADILLAC FAMILY PHARMACY, LLC",108 NORTH MITCHELL,"CADILLAC, MI 49601",http://maps.google.com/maps?q=CADILLAC%20FAMILY%20PHARMACY%20LLC%2C108%20NORTH%20MITCHELL%2C+CADILLAC%2C+MI+49601,
"ASPIRUS IRON RIVER HOSPITAL & CLINICS, INC",1400 WEST ICE LAKE ROAD,"IRON RIVER, MI 49935",http://maps.google.com/maps?q=ASPIRUS%20IRON%20RIVER%20HOSPITAL%20%20CLINICS%20INC%2C1400%20WEST%20ICE%20LAKE%20ROAD%2C+IRON%20RIVER%2C+MI+49935,
CRIVITZ PHARMACY,"710 MAIN STREET, P.O. BOX 488","CRIVITZ, WI 54114",http://maps.google.com/maps?q=CRIVITZ%20PHARMACY%2C710%20MAIN%20STREET%2C%20P.O.%20BOX%20488%2C+CRIVITZ%2C+WI+54114,
ST FRANCIS HOSPITAL,3401 LUDINGTON,"ESCANABA, MI 49829",http://maps.google.com/maps?q=ST%20FRANCIS%20HOSPITAL%2C3401%20LUDINGTON%2C+ESCANABA%2C+MI+49829,
WALGREEN CO.,2301 LUDINGTON ST,"ESCANABA, MI 49829",http://maps.google.com/maps?q=WALGREEN%20CO%2C2301%20LUDINGTON%20ST%2C+ESCANABA%2C+MI+49829,
NICOLET PHARMACY,15481 COMMERCIAL RD,SUITE A,"LAKEWOOD, WI 54138",http://maps.google.com/maps?q=NICOLET%20PHARMACY%2C15481%20COMMERCIAL%20RD%2C+LAKEWOOD%2C+WI+54138
POTAWATOMI HEALTH & WELLNESS,8201 MISH KO SWEN ROAD,P.O. BOX 396,"CRANDON, WI 54520",http://maps.google.com/maps?q=POTAWATOMI%20HEALTH%20%20WELLNESS%2C8201%20MISH%20KO%20SWEN%20ROAD%2C+CRANDON%2C+WI+54520
WALGREEN CO.,2301 HALL AVE,"MARINETTE, WI 54143",http://maps.google.com/maps?q=WALGREEN%20CO%2C2301%20HALL%20AVE%2C+MARINETTE%2C+WI+54143,
"WISCONSIN CVS PHARMACY, L.L.C.",1561 W. MASON ST.,"GREEN BAY, WI 54303",http://maps.google.com/maps?q=WISCONSIN%20CVS%20PHARMACY%20LLC%2C1561%20W.%20MASON%20ST.%2C+GREEN%20BAY%2C+WI+54303,
MARSHFIELD CLINIC PHARMACY,9601 TOWNLINE ROAD,P.O.BOX 1390,"MINOCQUA, WI 54548",http://maps.google.com/maps?q=MARSHFIELD%20CLINIC%20PHARMACY%2C9601%20TOWNLINE%20ROAD%2C+MINOCQUA%2C+WI+54548
PETER CHRISTENSEN HEALTH CENTER PHARMACY,129 OLD ABE ROAD,"LAC DU FLAMBEAU, WI 54538",http://maps.google.com/maps?q=PETER%20CHRISTENSEN%20HEALTH%20CENTER%20PHARMACY%2C129%20OLD%20ABE%20ROAD%2C+LAC%20DU%20FLAMBEAU%2C+WI+54538,
MARSHFIELD CLINIC-MERCER CENTER,5110 N. HWY 51,"MERCER, WI 54547",http://maps.google.com/maps?q=MARSHFIELD%20CLINICMERCER%20CENTER%2C5110%20N.%20HWY%2051%2C+MERCER%2C+WI+54547,
RED CLIFF COMMUNITY HLTH CTR,36745 AIKEN RD.,"BAYFIELD, WI 54814",http://maps.google.com/maps?q=RED%20CLIFF%20COMMUNITY%20HLTH%20CTR%2C36745%20AIKEN%20RD.%2C+BAYFIELD%2C+WI+54814,
