Business Name,Address 1,Address 2,"City, State Zip",Map URL
"ALABAMA CVS PHARMACY, L.L.C.",105 INVERNESS PLAZA HWY 280,"BIRMINGHAM, AL 35242",http://maps.google.com/maps?q=ALABAMA%20CVS%20PHARMACY%20LLC%2C105%20INVERNESS%20PLAZA%20HWY%20280%2C+BIRMINGHAM%2C+AL+35242,
"ALABAMA CVS PHARMACY, L.L.C.",220 GADSDEN HIGHWAY,"BIRMINGHAM, AL 35235",http://maps.google.com/maps?q=ALABAMA%20CVS%20PHARMACY%20LLC%2C220%20GADSDEN%20HIGHWAY%2C+BIRMINGHAM%2C+AL+35235,
"ALABAMA CVS PHARMACY, L.L.C.",418 WEST VALLEY AVE,"HOMEWOOD, AL 35209",http://maps.google.com/maps?q=ALABAMA%20CVS%20PHARMACY%20LLC%2C418%20WEST%20VALLEY%20AVE%2C+HOMEWOOD%2C+AL+35209,
"ALABAMA CVS PHARMACY, L.L.C.",520 HIGHWAY 119,"ALABASTER, AL 35007",http://maps.google.com/maps?q=ALABAMA%20CVS%20PHARMACY%20LLC%2C520%20HIGHWAY%20119%2C+ALABASTER%2C+AL+35007,
"BEAUREGARD DRUGS, INC",7667 AL HIGHWAY 51 STE A,"OPELIKA, AL 36804",http://maps.google.com/maps?q=BEAUREGARD%20DRUGS%20INC%2C7667%20AL%20HIGHWAY%2051%20STE%20A%2C+OPELIKA%2C+AL+36804,
CARE PLUS PHARMACY LLC,1665 HIGHWAY 34E,SUITE 100,"NEWNAN, GA 30265",http://maps.google.com/maps?q=CARE%20PLUS%20PHARMACY%20LLC%2C1665%20HIGHWAY%2034E%2C+NEWNAN%2C+GA+30265
CARTER DRUG CO INCOR,133 BROAD STREET,PO BOX 949,"SELMA, AL 36702",http://maps.google.com/maps?q=CARTER%20DRUG%20CO%20INCOR%2C133%20BROAD%20STREET%2C+SELMA%2C+AL+36702
CLAY COUNTY HOSPITAL,83825 HWY 9,PO BOX 1270,"ASHLAND, AL 36251",http://maps.google.com/maps?q=CLAY%20COUNTY%20HOSPITAL%2C83825%20HWY%209%2C+ASHLAND%2C+AL+36251
"CLEBURNE PHARMACY, LLC",875 ROSS ST,"HEFLIN, AL 36264",http://maps.google.com/maps?q=CLEBURNE%20PHARMACY%20LLC%2C875%20ROSS%20ST%2C+HEFLIN%2C+AL+36264,
COOKE'S FOOD STORE,3400 KEITH STREET NW,"CLEVELAND, TN 37312",http://maps.google.com/maps?q=COOKES%20FOOD%20STORE%2C3400%20KEITH%20STREET%20NW%2C+CLEVELAND%2C+TN+37312,
COOKE'S PHARMACY #2,2010 BROOMFIELD RD SE,"CLEVELAND, TN 37323",http://maps.google.com/maps?q=COOKES%20PHARMACY%2C2010%20BROOMFIELD%20RD%20SE%2C+CLEVELAND%2C+TN+37323,
"CROSSROADS HEALTHCARE, LLC",867 LEE ROAD 248,"SMITHS STATION, AL 36877",http://maps.google.com/maps?q=CROSSROADS%20HEALTHCARE%20LLC%2C867%20LEE%20ROAD%20248%2C+SMITHS%20STATION%2C+AL+36877,
EAMC-LANIER,4800 48TH STREET,PO BOX 348,"VALLEY, AL 36854",http://maps.google.com/maps?q=EAMCLANIER%2C4800%2048TH%20STREET%2C+VALLEY%2C+AL+36854
EAST ALABAMA HEALTH CARE AUTH,DBA EAST ALABAMA MEDICAL CENTE,2000 PEPPERELL PARKWAY,"OPELIKA, AL 36801",http://maps.google.com/maps?q=EAST%20ALABAMA%20HEALTH%20CARE%20AUTH%2CDBA%20EAST%20ALABAMA%20MEDICAL%20CENTE%2C+OPELIKA%2C+AL+36801
EDMONDSON DRUG CO INC,445 AL HIGHWAY 69 S STE D,"HANCEVILLE, AL 35077",http://maps.google.com/maps?q=EDMONDSON%20DRUG%20CO%20INC%2C445%20AL%20HIGHWAY%2069%20S%20STE%20D%2C+HANCEVILLE%2C+AL+35077,
ELDER CARE PHARMACY #2,4769 S. MAIN STREET,SUITE A,"ACWORTH, GA 30101",http://maps.google.com/maps?q=ELDER%20CARE%20PHARMACY%2C4769%20S.%20MAIN%20STREET%2C+ACWORTH%2C+GA+30101
GENOA HEALTHCARE LLC,134 PREVATT ROAD,"DOTHAN, AL 36301",http://maps.google.com/maps?q=GENOA%20HEALTHCARE%20LLC%2C134%20PREVATT%20ROAD%2C+DOTHAN%2C+AL+36301,
"GEORGIA CVS PHARMACY, L.L.C.",100 OAK ST,"BOWDON, GA 30108",http://maps.google.com/maps?q=GEORGIA%20CVS%20PHARMACY%20LLC%2C100%20OAK%20ST%2C+BOWDON%2C+GA+30108,
"GEORGIA CVS PHARMACY, L.L.C.",1600 TOWN LAKE PARKWAY,"WOODSTOCK, GA 30189",http://maps.google.com/maps?q=GEORGIA%20CVS%20PHARMACY%20LLC%2C1600%20TOWN%20LAKE%20PARKWAY%2C+WOODSTOCK%2C+GA+30189,
"GEORGIA CVS PHARMACY, L.L.C.",1905 MARTHA BERRY BLVD,"ROME, GA 30165",http://maps.google.com/maps?q=GEORGIA%20CVS%20PHARMACY%20LLC%2C1905%20MARTHA%20BERRY%20BLVD%2C+ROME%2C+GA+30165,
"GEORGIA CVS PHARMACY, L.L.C.",2782 NORTH COBB PARKWAY,"KENNESAW, GA 30152",http://maps.google.com/maps?q=GEORGIA%20CVS%20PHARMACY%20LLC%2C2782%20NORTH%20COBB%20PARKWAY%2C+KENNESAW%2C+GA+30152,
"GEORGIA CVS PHARMACY, L.L.C.",300 MORGAN STREET,"LA GRANGE, GA 30241",http://maps.google.com/maps?q=GEORGIA%20CVS%20PHARMACY%20LLC%2C300%20MORGAN%20STREET%2C+LA%20GRANGE%2C+GA+30241,
"GEORGIA CVS PHARMACY, L.L.C.",3617 HILTON AVE.,"COLUMBUS, GA 31904",http://maps.google.com/maps?q=GEORGIA%20CVS%20PHARMACY%20LLC%2C3617%20HILTON%20AVE.%2C+COLUMBUS%2C+GA+31904,
"GEORGIA CVS PHARMACY, L.L.C.",495 CHARLES HARDY PKWY,"DALLAS, GA 30157",http://maps.google.com/maps?q=GEORGIA%20CVS%20PHARMACY%20LLC%2C495%20CHARLES%20HARDY%20PKWY%2C+DALLAS%2C+GA+30157,
"GEORGIA CVS PHARMACY, L.L.C.",736 HWY 78 WEST,"VILLA RICA, GA 30180",http://maps.google.com/maps?q=GEORGIA%20CVS%20PHARMACY%20LLC%2C736%20HWY%2078%20WEST%2C+VILLA%20RICA%2C+GA+30180,
"GEORGIA CVS PHARMACY, L.L.C.",887 BATTLEFIELD PARKWAY,"FT OGLETHORPE, GA 30742",http://maps.google.com/maps?q=GEORGIA%20CVS%20PHARMACY%20LLC%2C887%20BATTLEFIELD%20PARKWAY%2C+FT%20OGLETHORPE%2C+GA+30742,
"GEORGIA CVS PHARMACY, L.L.C.",965 JOE FRANK HARRIS PKWY SE,"CARTERSVILLE, GA 30120",http://maps.google.com/maps?q=GEORGIA%20CVS%20PHARMACY%20LLC%2C965%20JOE%20FRANK%20HARRIS%20PKWY%20SE%2C+CARTERSVILLE%2C+GA+30120,
H&M DRUGS,17216 HIGHWAY 431,"WEDOWEE, AL 36278",http://maps.google.com/maps?q=HM%20DRUGS%2C17216%20HIGHWAY%20431%2C+WEDOWEE%2C+AL+36278,
HUBBARD PHARMACY,1351 W FORT WILLIAMS ST,"SYLACAUGA, AL 35150",http://maps.google.com/maps?q=HUBBARD%20PHARMACY%2C1351%20W%20FORT%20WILLIAMS%20ST%2C+SYLACAUGA%2C+AL+35150,
JERKINS INC DBA BUBBA'S MEDICINE SHOP,512 2ND AVE,"OPELIKA, AL 36801",http://maps.google.com/maps?q=JERKINS%20INC%20DBA%20BUBBAS%20MEDICINE%20SHOP%2C512%202ND%20AVE%2C+OPELIKA%2C+AL+36801,
KAISER PERMANENTE TOWNPARK,TOWNPARK MEDICAL OFFICE PHCY,750 TOWNPARK LANE,"KENNESAW, GA 30144",http://maps.google.com/maps?q=KAISER%20PERMANENTE%20TOWNPARK%2CTOWNPARK%20MEDICAL%20OFFICE%20PHCY%2C+KENNESAW%2C+GA+30144
KAISER PERMANENTE WEST COBB,3640 TRAMORE POINT PARKWAY,ATTN: PHARMACY,"AUSTELL, GA 30106",http://maps.google.com/maps?q=KAISER%20PERMANENTE%20WEST%20COBB%2C3640%20TRAMORE%20POINT%20PARKWAY%2C+AUSTELL%2C+GA+30106
MILLS PHARMACY AT BLUFF PARK,758 SHADES MTN PLAZA,"HOOVER, AL 35226",http://maps.google.com/maps?q=MILLS%20PHARMACY%20AT%20BLUFF%20PARK%2C758%20SHADES%20MTN%20PLAZA%2C+HOOVER%2C+AL+35226,
MILLS PHARMACY AT LEEDS,8420 1ST AVE,"LEEDS, AL 35094",http://maps.google.com/maps?q=MILLS%20PHARMACY%20AT%20LEEDS%2C8420%201ST%20AVE%2C+LEEDS%2C+AL+35094,
MILLS PHARMACY AT PARKWAY,9709 PARKWAY EAST,SUITE F,"BIRMINGHAM, AL 35215",http://maps.google.com/maps?q=MILLS%20PHARMACY%20AT%20PARKWAY%2C9709%20PARKWAY%20EAST%2C+BIRMINGHAM%2C+AL+35215
"OUR HOME PHARMACY, INC",2320 MOORES MILL ROAD,SUITE 100,"AUBURN, AL 36830",http://maps.google.com/maps?q=OUR%20HOME%20PHARMACY%20INC%2C2320%20MOORES%20MILL%20ROAD%2C+AUBURN%2C+AL+36830
PINNACLE PHARMACY LLC,113 RAINBOW INDUSTRIAL BLVD,"RAINBOW CITY, AL 35906",http://maps.google.com/maps?q=PINNACLE%20PHARMACY%20LLC%2C113%20RAINBOW%20INDUSTRIAL%20BLVD%2C+RAINBOW%20CITY%2C+AL+35906,
PREMIER DRUGSTORE,8446 CAMPBELLTON ST,"DOUGLASVILLE, GA 30134",http://maps.google.com/maps?q=PREMIER%20DRUGSTORE%2C8446%20CAMPBELLTON%20ST%2C+DOUGLASVILLE%2C+GA+30134,
SURE SAVE PHARMACY,30694 HWY 72 WEST,SUITE A,"MADISON, AL 35756",http://maps.google.com/maps?q=SURE%20SAVE%20PHARMACY%2C30694%20HWY%2072%20WEST%2C+MADISON%2C+AL+35756
"TENNESSEE CVS PHARMACY, L.L.C.",1200 DODSON AVENUE,"CHATTANOOGA, TN 37406",http://maps.google.com/maps?q=TENNESSEE%20CVS%20PHARMACY%20LLC%2C1200%20DODSON%20AVENUE%2C+CHATTANOOGA%2C+TN+37406,
"TENNESSEE CVS PHARMACY, L.L.C.",2424 OCOEE ST.,"CLEVELAND, TN 37311",http://maps.google.com/maps?q=TENNESSEE%20CVS%20PHARMACY%20LLC%2C2424%20OCOEE%20ST.%2C+CLEVELAND%2C+TN+37311,
"TENNESSEE CVS PHARMACY, L.L.C.",5120 HIGHWAY 153,"HIXSON, TN 37343",http://maps.google.com/maps?q=TENNESSEE%20CVS%20PHARMACY%20LLC%2C5120%20HIGHWAY%20153%2C+HIXSON%2C+TN+37343,
THE MEDICINE SHOPPE,1144 AIRPORT DRIVE,"ALEXANDER CITY, AL 35010",http://maps.google.com/maps?q=THE%20MEDICINE%20SHOPPE%2C1144%20AIRPORT%20DRIVE%2C+ALEXANDER%20CITY%2C+AL+35010,
THE PILL BOX PHARMACY,474 HIGHWAY 67 S,"DECATUR, AL 35603",http://maps.google.com/maps?q=THE%20PILL%20BOX%20PHARMACY%2C474%20HIGHWAY%2067%20S%2C+DECATUR%2C+AL+35603,
US ARMY- FOX HEALTH CENTER,GOSS ROAD,BUILDING 4100,"REDSTONE ARSENAL, AL 35809",http://maps.google.com/maps?q=US%20ARMY%20FOX%20HEALTH%20CENTER%2CGOSS%20ROAD%2C+REDSTONE%20ARSENAL%2C+AL+35809
US ARMY- LYSTER HOSPITAL,DEPARTMENT OF PHARMACY,BLDG 301 ANDREWS AVE.,"FORT RUCKER, AL 36362",http://maps.google.com/maps?q=US%20ARMY%20LYSTER%20HOSPITAL%2CDEPARTMENT%20OF%20PHARMACY%2C+FORT%20RUCKER%2C+AL+36362
USAF- MAXWELL HOSPITAL/SGL,300 TWINING ST,BLDG 760,"MAXWELL AFB, AL 36112",http://maps.google.com/maps?q=USAF%20MAXWELL%20HOSPITALSGL%2C300%20TWINING%20ST%2C+MAXWELL%20AFB%2C+AL+36112
"VILLAGE PHARMACY, INC.",3697 HWY 5,SUITE 6,"DOUGLASVILLE, GA 30135",http://maps.google.com/maps?q=VILLAGE%20PHARMACY%20INC%2C3697%20HWY%205%2C+DOUGLASVILLE%2C+GA+30135
WALGREEN CO,4700 HIGHWAY 280 SUITE 1,"BIRMINGHAM, AL 35242",http://maps.google.com/maps?q=WALGREEN%20CO%2C4700%20HIGHWAY%20280%20SUITE%201%2C+BIRMINGHAM%2C+AL+35242,
WALGREEN CO,7155 US HIGHWAY 431,"ALBERTVILLE, AL 35950",http://maps.google.com/maps?q=WALGREEN%20CO%2C7155%20US%20HIGHWAY%20431%2C+ALBERTVILLE%2C+AL+35950,
WALGREEN CO,9325 PARKWAY E,"BIRMINGHAM, AL 35215",http://maps.google.com/maps?q=WALGREEN%20CO%2C9325%20PARKWAY%20E%2C+BIRMINGHAM%2C+AL+35215,
WALGREEN CO.,101 GREEN SPRINGS HWY,"BIRMINGHAM, AL 35209",http://maps.google.com/maps?q=WALGREEN%20CO%2C101%20GREEN%20SPRINGS%20HWY%2C+BIRMINGHAM%2C+AL+35209,
WALGREEN CO.,1228 BATTLEFIELD PKWY,"FT OGLETHORPE, GA 30742",http://maps.google.com/maps?q=WALGREEN%20CO%2C1228%20BATTLEFIELD%20PKWY%2C+FT%20OGLETHORPE%2C+GA+30742,
WALGREEN CO.,1801 MONGOMERY HWY,"HOOVER, AL 35244",http://maps.google.com/maps?q=WALGREEN%20CO%2C1801%20MONGOMERY%20HWY%2C+HOOVER%2C+AL+35244,
WALGREEN CO.,1815 9TH AVE NORTH,"BESSEMER, AL 35020",http://maps.google.com/maps?q=WALGREEN%20CO%2C1815%209TH%20AVE%20NORTH%2C+BESSEMER%2C+AL+35020,
WALGREEN CO.,2289 GUNBARREL,"CHATTANOOGA, TN 37421",http://maps.google.com/maps?q=WALGREEN%20CO%2C2289%20GUNBARREL%2C+CHATTANOOGA%2C+TN+37421,
WALGREEN CO.,2350 S FERDON BLVD,"CRESTVIEW, FL 32536",http://maps.google.com/maps?q=WALGREEN%20CO%2C2350%20S%20FERDON%20BLVD%2C+CRESTVIEW%2C+FL+32536,
WALGREEN CO.,2515 CRAWFORD ROAD,"PHENIX CITY, AL 36867",http://maps.google.com/maps?q=WALGREEN%20CO%2C2515%20CRAWFORD%20ROAD%2C+PHENIX%20CITY%2C+AL+36867,
WALGREEN CO.,2779 N COBB PARKWAY,"KENNESAW, GA 30152",http://maps.google.com/maps?q=WALGREEN%20CO%2C2779%20N%20COBB%20PARKWAY%2C+KENNESAW%2C+GA+30152,
WALGREEN CO.,2940 WEST MAIN STREET,"DOTHAN, AL 36305",http://maps.google.com/maps?q=WALGREEN%20CO%2C2940%20WEST%20MAIN%20STREET%2C+DOTHAN%2C+AL+36305,
WALGREEN CO.,3740 CASCADE RD SW,"ATLANTA, GA 30331",http://maps.google.com/maps?q=WALGREEN%20CO%2C3740%20CASCADE%20RD%20SW%2C+ATLANTA%2C+GA+30331,
WALGREEN CO.,3800 PRINCETON LAKES PKWY SW,"ATLANTA, GA 30331",http://maps.google.com/maps?q=WALGREEN%20CO%2C3800%20PRINCETON%20LAKES%20PKWY%20SW%2C+ATLANTA%2C+GA+30331,
WALGREEN CO.,4120 AUSTELL RD,"AUSTELL, GA 30106",http://maps.google.com/maps?q=WALGREEN%20CO%2C4120%20AUSTELL%20RD%2C+AUSTELL%2C+GA+30106,
WALGREEN CO.,5478 HIGHWAY 153,"HIXSON, TN 37343",http://maps.google.com/maps?q=WALGREEN%20CO%2C5478%20HIGHWAY%20153%2C+HIXSON%2C+TN+37343,
WALGREEN CO.,6680 ATLANTA HWY,"MONTGOMERY, AL 36117",http://maps.google.com/maps?q=WALGREEN%20CO%2C6680%20ATLANTA%20HWY%2C+MONTGOMERY%2C+AL+36117,
WALGREEN CO.,701 MARTHA BERRY BLVD NW,"ROME, GA 30165",http://maps.google.com/maps?q=WALGREEN%20CO%2C701%20MARTHA%20BERRY%20BLVD%20NW%2C+ROME%2C+GA+30165,
WALGREEN CO.,7813 HIGHWAY 72 W,"MADISON, AL 35758",http://maps.google.com/maps?q=WALGREEN%20CO%2C7813%20HIGHWAY%2072%20W%2C+MADISON%2C+AL+35758,
WALGREEN CO.,794 SOUTH PARK ST,"CARROLLTON, GA 30117",http://maps.google.com/maps?q=WALGREEN%20CO%2C794%20SOUTH%20PARK%20ST%2C+CARROLLTON%2C+GA+30117,
WALGREEN CO.,900 RUCKER BLVD,"ENTERPRISE, AL 36330",http://maps.google.com/maps?q=WALGREEN%20CO%2C900%20RUCKER%20BLVD%2C+ENTERPRISE%2C+AL+36330,
YOUNG BROTHERS PHARMACY INC,2 WEST MAIN STREET,"CARTERSVILLE, GA 30120",http://maps.google.com/maps?q=YOUNG%20BROTHERS%20PHARMACY%20INC%2C2%20WEST%20MAIN%20STREET%2C+CARTERSVILLE%2C+GA+30120,
BLOUNTSTOWN DRUG INC,20370 CENTRAL AVE W,"BLOUNTSTOWN, FL 32424",http://maps.google.com/maps?q=BLOUNTSTOWN%20DRUG%20INC%2C20370%20CENTRAL%20AVE%20W%2C+BLOUNTSTOWN%2C+FL+32424,
WALGREEN CO.,4582 E HIGHWAY 20,"NICEVILLE, FL 32578",http://maps.google.com/maps?q=WALGREEN%20CO%2C4582%20E%20HIGHWAY%2020%2C+NICEVILLE%2C+FL+32578,
USAF-EGLIN AFB SATELLITE PHARMACY,MEMORIAL TRAIL,BUILDING 1758,"EGLIN AFB, FL 32542",http://maps.google.com/maps?q=USAFEGLIN%20AFB%20SATELLITE%20PHARMACY%2CMEMORIAL%20TRAIL%2C+EGLIN%20AFB%2C+FL+32542
WALGREEN CO.,825 BEAL PARKWAY NW,"FORT WALTON BEACH, FL 32547",http://maps.google.com/maps?q=WALGREEN%20CO%2C825%20BEAL%20PARKWAY%20NW%2C+FORT%20WALTON%20BEACH%2C+FL+32547,
WALGREEN CO.,414 C MARY ESTHER CUTOFF NW,"FT WALTON BEACH, FL 32548",http://maps.google.com/maps?q=WALGREEN%20CO%2C414%20C%20MARY%20ESTHER%20CUTOFF%20NW%2C+FT%20WALTON%20BEACH%2C+FL+32548,
USAF- 1ST SPECIAL OPERATIONS MEDICAL GROUP-SGSMM,131 HOWIE WALTERS RD.,BLDG 91042,"HURLBURT FIELD, FL 32544",http://maps.google.com/maps?q=USAF%20ST%20SPECIAL%20OPERATIONS%20MEDICAL%20GROUPSGSMM%2C131%20HOWIE%20WALTERS%20RD.%2C+HURLBURT%20FIELD%2C+FL+32544
WALGREEN CO.,6506 CAROLINE STREET,"MILTON, FL 32570",http://maps.google.com/maps?q=WALGREEN%20CO%2C6506%20CAROLINE%20STREET%2C+MILTON%2C+FL+32570,
"HOLIDAY CVS, L.L.C.",6501 CAROLINE ST HWY 90,"MILTON, FL 32570",http://maps.google.com/maps?q=HOLIDAY%20CVS%20LLC%2C6501%20CAROLINE%20ST%20HWY%2090%2C+MILTON%2C+FL+32570,
WALGREEN CO.,3909 HIGHWAY 90,"PACE, FL 32571",http://maps.google.com/maps?q=WALGREEN%20CO%2C3909%20HIGHWAY%2090%2C+PACE%2C+FL+32571,
WALGREEN CO.,2237 WEST NINE MILE ROAD,"PENSACOLA, FL 32534",http://maps.google.com/maps?q=WALGREEN%20CO%2C2237%20WEST%20NINE%20MILE%20ROAD%2C+PENSACOLA%2C+FL+32534,
"HOLIDAY CVS, L.L.C.",6888 N 9TH AVE,"PENSACOLA, FL 32504",http://maps.google.com/maps?q=HOLIDAY%20CVS%20LLC%2C6888%20N%209TH%20AVE%2C+PENSACOLA%2C+FL+32504,
WALGREEN CO.,6314 N 9TH AVE,"PENSACOLA, FL 32504",http://maps.google.com/maps?q=WALGREEN%20CO%2C6314%20N%209TH%20AVE%2C+PENSACOLA%2C+FL+32504,
WALGREEN CO.,870 E CERVANTES,"PENSACOLA, FL 32501",http://maps.google.com/maps?q=WALGREEN%20CO%2C870%20E%20CERVANTES%2C+PENSACOLA%2C+FL+32501,
LEE DRUG STORE,18530 FLORIDA ST,PO BOX 929,"ROBERTSDALE, AL 36567",http://maps.google.com/maps?q=LEE%20DRUG%20STORE%2C18530%20FLORIDA%20ST%2C+ROBERTSDALE%2C+AL+36567
WALGREEN CO.,2 SOUTH GREENO RD,"FAIRHOPE, AL 36532",http://maps.google.com/maps?q=WALGREEN%20CO%2C2%20SOUTH%20GREENO%20RD%2C+FAIRHOPE%2C+AL+36532,
WALGREEN CO.,8220 NAVARRE PKWY,"NAVARRE, FL 32566",http://maps.google.com/maps?q=WALGREEN%20CO%2C8220%20NAVARRE%20PKWY%2C+NAVARRE%2C+FL+32566,
USN- NAVAL HOSPITAL,6000 W HIGHWAY 98 BLDG 2268,BUILDING 2268,"PENSACOLA, FL 32512",http://maps.google.com/maps?q=USN%20NAVAL%20HOSPITAL%2C6000%20W%20HIGHWAY%2098%20BLDG%202268%2C+PENSACOLA%2C+FL+32512
WALGREEN CO.,3948 AIRPORT BLVD,"MOBILE, AL 36608",http://maps.google.com/maps?q=WALGREEN%20CO%2C3948%20AIRPORT%20BLVD%2C+MOBILE%2C+AL+36608,
