Business Name,Address 1,Address 2,"City, State Zip",Map URL
"ANESTHESIA SERVICES ASSOCIATES, PLLC",495 DUNLOP LN STE 106,COMPREHENSIVE WELLNESS PHARMACY,"CLARKSVILLE, TN 37040",http://maps.google.com/maps?q=ANESTHESIA%20SERVICES%20ASSOCIATES%20PLLC%2C495%20DUNLOP%20LN%20STE%20106%2C+CLARKSVILLE%2C+TN+37040
BAPTIST HEALTH OUTPATIENT PHARMACY,1 TRILLIUM WAY,"CORBIN, KY 40701",http://maps.google.com/maps?q=BAPTIST%20HEALTH%20OUTPATIENT%20PHARMACY%2C1%20TRILLIUM%20WAY%2C+CORBIN%2C+KY+40701,
BAPTIST HEALTH RETAIL-PADUCAH,2601 KENTUCKY AVE,"MEDICAL PARK 1, SUITE 101","PADUCAH, KY 42003",http://maps.google.com/maps?q=BAPTIST%20HEALTH%20RETAILPADUCAH%2C2601%20KENTUCKY%20AVE%2C+PADUCAH%2C+KY+42003
BAPTIST HEALTH RICHMOND PROFESSIONAL PHARMACY,793 EASTERN BY-PASS,STE G-1,"RICHMOND, KY 40475",http://maps.google.com/maps?q=BAPTIST%20HEALTH%20RICHMOND%20PROFESSIONAL%20PHARMACY%2C793%20EASTERN%20BY-PASS%2C+RICHMOND%2C+KY+40475
BLUEGRASS DRUG STORE,150 WAR ADMIRAL,STE 1,"DANVILLE, KY 40422",http://maps.google.com/maps?q=BLUEGRASS%20DRUG%20STORE%2C150%20WAR%20ADMIRAL%2C+DANVILLE%2C+KY+40422
BLUEGRASS PHARMACIES,1128 N. MAIN ST.,"MADISONVILLE, KY 42431",http://maps.google.com/maps?q=BLUEGRASS%20PHARMACIES%2C1128%20N.%20MAIN%20ST.%2C+MADISONVILLE%2C+KY+42431,
"BOND DRUG COMPANY OF ILLINOIS, L.L.C.",206 S. WALL ST.,"CARBONDALE, IL 62901",http://maps.google.com/maps?q=BOND%20DRUG%20COMPANY%20OF%20ILLINOIS%20LLC%2C206%20S.%20WALL%20ST.%2C+CARBONDALE%2C+IL+62901,
BROOKSIDE DISCOUNT PHARMACY,1901 BROOKSIDE ROAD,"KINGSPORT, TN 37660",http://maps.google.com/maps?q=BROOKSIDE%20DISCOUNT%20PHARMACY%2C1901%20BROOKSIDE%20ROAD%2C+KINGSPORT%2C+TN+37660,
"CARECENTER PHARMACY, LLC","2515 PARK PLAZA, SUITE 100","NASHVILLE, TN 37203",http://maps.google.com/maps?q=CARECENTER%20PHARMACY%20LLC%2C2515%20PARK%20PLAZA%2C%20SUITE%20100%2C+NASHVILLE%2C+TN+37203,
CAREZONE PHARMACY LLC,800 AIRPARK CENTER DRIVE STE 809,"NASHVILLE, TN 37217",http://maps.google.com/maps?q=CAREZONE%20PHARMACY%20LLC%2C800%20AIRPARK%20CENTER%20DRIVE%20STE%20809%2C+NASHVILLE%2C+TN+37217,
CASE DRUG CO. #2,990 BROADWAY AVE.,"NEW JOHNSONVILLE, TN 37134",http://maps.google.com/maps?q=CASE%20DRUG%20CO%2C990%20BROADWAY%20AVE.%2C+NEW%20JOHNSONVILLE%2C+TN+37134,
CLARKSVILLE MEDICAL SOLUTIONS,2622 MADISON ST STE A,"CLARKSVILLE, TN 37043",http://maps.google.com/maps?q=CLARKSVILLE%20MEDICAL%20SOLUTIONS%2C2622%20MADISON%20ST%20STE%20A%2C+CLARKSVILLE%2C+TN+37043,
CLARKSVILLE PHARMACY I LLC,801 N 2ND ST,"CLARKSVILLE, TN 37040",http://maps.google.com/maps?q=CLARKSVILLE%20PHARMACY%20I%20LLC%2C801%20N%202ND%20ST%2C+CLARKSVILLE%2C+TN+37040,
CLAYPOOL HILL PHARMACY,12252 GOVERNOR G C PEERY HWY,PO BOX 690,"POUNDING MILL, VA 24637",http://maps.google.com/maps?q=CLAYPOOL%20HILL%20PHARMACY%2C12252%20GOVERNOR%20G%20C%20PEERY%20HWY%2C+POUNDING%20MILL%2C+VA+24637
DICKSON APOTHECARY,104 HIGHWAY 70 E,"DICKSON, TN 37055",http://maps.google.com/maps?q=DICKSON%20APOTHECARY%2C104%20HIGHWAY%2070%20E%2C+DICKSON%2C+TN+37055,
DOVER FAMILY PHARMACY,1307 DONELSON PARKWAY,"DOVER, TN 37058",http://maps.google.com/maps?q=DOVER%20FAMILY%20PHARMACY%2C1307%20DONELSON%20PARKWAY%2C+DOVER%2C+TN+37058,
EMORY CENTRE PHARMACY,527 EMORY DRIVE,"OWENSBORO, KY 42301",http://maps.google.com/maps?q=EMORY%20CENTRE%20PHARMACY%2C527%20EMORY%20DRIVE%2C+OWENSBORO%2C+KY+42301,
GIBBS PHARMACY,1427B BADDOUR PKWY,"LEBANON, TN 37087",http://maps.google.com/maps?q=GIBBS%20PHARMACY%2C1427B%20BADDOUR%20PKWY%2C+LEBANON%2C+TN+37087,
GREAT RIVER MEDICAL CENTER,1520 N. DIVISION,PO BOX 108,"BLYTHEVILLE, AR 72315",http://maps.google.com/maps?q=GREAT%20RIVER%20MEDICAL%20CENTER%2C1520%20N.%20DIVISION%2C+BLYTHEVILLE%2C+AR+72315
HALL FAMILY PHARMACY,433 WEST CENTRAL AVENUE,"JAMESTOWN, TN 38556",http://maps.google.com/maps?q=HALL%20FAMILY%20PHARMACY%2C433%20WEST%20CENTRAL%20AVENUE%2C+JAMESTOWN%2C+TN+38556,
HERRIN HOSPITAL PHARMACY,201 S 14TH ST,"HERRIN, IL 62948",http://maps.google.com/maps?q=HERRIN%20HOSPITAL%20PHARMACY%2C201%20S%2014TH%20ST%2C+HERRIN%2C+IL+62948,
"HIGHLAND PARK CVS, L.L.C.",2431 W. MAIN ST.,"CARBONDALE, IL 62901",http://maps.google.com/maps?q=HIGHLAND%20PARK%20CVS%20LLC%2C2431%20W.%20MAIN%20ST.%2C+CARBONDALE%2C+IL+62901,
"HIGHLAND PARK CVS, L.L.C.",705 WEST MAINST.,"BENTON, IL 62812",http://maps.google.com/maps?q=HIGHLAND%20PARK%20CVS%20LLC%2C705%20WEST%20MAINST.%2C+BENTON%2C+IL+62812,
"HIGHLAND PARK CVS, L.L.C.",801 W. MAIN ST.,"MARION, IL 62959",http://maps.google.com/maps?q=HIGHLAND%20PARK%20CVS%20LLC%2C801%20W.%20MAIN%20ST.%2C+MARION%2C+IL+62959,
"HOOK-SUPERX, L.L.C.",2020 EAST MORGAN AVENUE,"EVANSVILLE, IN 47711",http://maps.google.com/maps?q=HOOKSUPERX%20LLC%2C2020%20EAST%20MORGAN%20AVENUE%2C+EVANSVILLE%2C+IN+47711,
"HOOK-SUPERX, L.L.C.",4480 FIRST AVE.,"EVANSVILLE, IN 47710",http://maps.google.com/maps?q=HOOKSUPERX%20LLC%2C4480%20FIRST%20AVE.%2C+EVANSVILLE%2C+IN+47710,
"HOOK-SUPERX, L.L.C.",5120 WESTON ROAD,"EVANSVILLE, IN 47712",http://maps.google.com/maps?q=HOOKSUPERX%20LLC%2C5120%20WESTON%20ROAD%2C+EVANSVILLE%2C+IN+47712,
"HOOK-SUPERX, L.L.C.",7722 W STATE ROUTE 66,"NEWBURGH, IN 47630",http://maps.google.com/maps?q=HOOKSUPERX%20LLC%2C7722%20W%20STATE%20ROUTE%2066%2C+NEWBURGH%2C+IN+47630,
"KENTUCKY CVS PHARMACY, L.L.C.",1571 N DIXIE AVENUE,"ELIZABETHTOWN, KY 42701",http://maps.google.com/maps?q=KENTUCKY%20CVS%20PHARMACY%20LLC%2C1571%20N%20DIXIE%20AVENUE%2C+ELIZABETHTOWN%2C+KY+42701,
"KENTUCKY CVS PHARMACY, L.L.C.",538 LONE OAK RD.,"PADUCAH, KY 42003",http://maps.google.com/maps?q=KENTUCKY%20CVS%20PHARMACY%20LLC%2C538%20LONE%20OAK%20RD.%2C+PADUCAH%2C+KY+42003,
LOURDES HOSPITAL INC PHARMACY,1530 LONE OAK RD,"PADUCAH, KY 42003",http://maps.google.com/maps?q=LOURDES%20HOSPITAL%20INC%20PHARMACY%2C1530%20LONE%20OAK%20RD%2C+PADUCAH%2C+KY+42003,
MCEWEN PRESCRIPTION SHOP,10033 HIGHWAY 70 EAST,"MCEWEN, TN 37101",http://maps.google.com/maps?q=MCEWEN%20PRESCRIPTION%20SHOP%2C10033%20HIGHWAY%2070%20EAST%2C+MCEWEN%2C+TN+37101,
MEDICAL CENTER EAST PHARMACY,1215 21ST AVENUE SOUTH,SUITE 1006,"NASHVILLE, TN 37232",http://maps.google.com/maps?q=MEDICAL%20CENTER%20EAST%20PHARMACY%2C1215%2021ST%20AVENUE%20SOUTH%2C+NASHVILLE%2C+TN+37232
MEDICAP PHARMACY,1101 US 45 NORTH,P.O. BOX 449,"ELDORADO, IL 62930",http://maps.google.com/maps?q=MEDICAP%20PHARMACY%2C1101%20US%2045%20NORTH%2C+ELDORADO%2C+IL+62930
MEMORIAL HOSPITAL OF CARBONDALE,ATTN:  PHARMACY,405 W. JACKSON,"CARBONDALE, IL 62902",http://maps.google.com/maps?q=MEMORIAL%20HOSPITAL%20OF%20CARBONDALE%2CATTN%3A%20%20PHARMACY%2C+CARBONDALE%2C+IL+62902
MERCY HEALTH - MARCUM & WALLACE HOSPITAL LLC,60 MERCY COURT,"IRVINE, KY 40336",http://maps.google.com/maps?q=MERCY%20HEALTH%20%20MARCUM%20%20WALLACE%20HOSPITAL%20LLC%2C60%20MERCY%20COURT%2C+IRVINE%2C+KY+40336,
METHODIST HOSP UNION CO PHAR,4604 U.S. HIGHWAY 60 W.,"MORGANFIELD, KY 42437",http://maps.google.com/maps?q=METHODIST%20HOSP%20UNION%20CO%20PHAR%2C4604%20U.S.%20HIGHWAY%2060%20W.%2C+MORGANFIELD%2C+KY+42437,
METHODIST HOSPITAL PHARMACY,1305 N ELM ST,"HENDERSON, KY 42420",http://maps.google.com/maps?q=METHODIST%20HOSPITAL%20PHARMACY%2C1305%20N%20ELM%20ST%2C+HENDERSON%2C+KY+42420,
MIDTOWN EXPRESS PHARMACY,"300 20TH AVENUE NORTH, SUITE 105","NASHVILLE, TN 37203",http://maps.google.com/maps?q=MIDTOWN%20EXPRESS%20PHARMACY%2C300%2020TH%20AVENUE%20NORTH%2C%20SUITE%20105%2C+NASHVILLE%2C+TN+37203,
MINGO HEALTH PARTNERS LLC,859 ALDERSON ST,"WILLIAMSON, WV 25661",http://maps.google.com/maps?q=MINGO%20HEALTH%20PARTNERS%20LLC%2C859%20ALDERSON%20ST%2C+WILLIAMSON%2C+WV+25661,
MURRAY-CALLOWAY CO HOSPITAL,803 POPLAR STREET,"MURRAY, KY 42071",http://maps.google.com/maps?q=MURRAYCALLOWAY%20CO%20HOSPITAL%2C803%20POPLAR%20STREET%2C+MURRAY%2C+KY+42071,
"NORTON COMMUNITY PHYSICIAN SERVICES,LLC",1490 PARK AVENUE NW,SUITE 7,"NORTON, VA 24273",http://maps.google.com/maps?q=NORTON%20COMMUNITY%20PHYSICIAN%20SERVICESLLC%2C1490%20PARK%20AVENUE%20NW%2C+NORTON%2C+VA+24273
PERKINS DRUGS,532 HARTSVILLE PIKE,"GALLATIN, TN 37066",http://maps.google.com/maps?q=PERKINS%20DRUGS%2C532%20HARTSVILLE%20PIKE%2C+GALLATIN%2C+TN+37066,
PHARMACY NETWORK SERVICES,"527 N. STATE OF FRANKLIN RD, SUITE 1","JOHNSON CITY, TN 37604",http://maps.google.com/maps?q=PHARMACY%20NETWORK%20SERVICES%2C527%20N.%20STATE%20OF%20FRANKLIN%20RD%2C%20SUITE%201%2C+JOHNSON%20CITY%2C+TN+37604,
PHARMBOY INVESTMENTS LLC,1230 HIGH STREET,PO BOX 455,"BRANDENBURG, KY 40108",http://maps.google.com/maps?q=PHARMBOY%20INVESTMENTS%20LLC%2C1230%20HIGH%20STREET%2C+BRANDENBURG%2C+KY+40108
PHIPPS PHARMACY INC,205-B HOSPITAL DRIVE,"MC KENZIE, TN 38201",http://maps.google.com/maps?q=PHIPPS%20PHARMACY%20INC%2C205-B%20HOSPITAL%20DRIVE%2C+MC%20KENZIE%2C+TN+38201,
"R&J DRUG COMPANY 2, LLC",1619 W. MARKET ST,"JOHNSON CITY, TN 37604",http://maps.google.com/maps?q=RJ%20DRUG%20COMPANY%20%20LLC%2C1619%20W.%20MARKET%20ST%2C+JOHNSON%20CITY%2C+TN+37604,
SHAWNEE HEALTH CARE PHARMACY,7 SOUTH HOSPITAL DRIVE,"MURPHYSBORO, IL 62966",http://maps.google.com/maps?q=SHAWNEE%20HEALTH%20CARE%20PHARMACY%2C7%20SOUTH%20HOSPITAL%20DRIVE%2C+MURPHYSBORO%2C+IL+62966,
SMITH DRUG CO,104 N LINCOLN ROAD,"HODGENVILLE, KY 42748",http://maps.google.com/maps?q=SMITH%20DRUG%20CO%2C104%20N%20LINCOLN%20ROAD%2C+HODGENVILLE%2C+KY+42748,
SOUTHERN ILL HOSP SERVICES AT,ST.JOSEPH HOSPITAL,2 SOUTH HOSPITAL DRIVE,"MURPHYSBORO, IL 62966",http://maps.google.com/maps?q=SOUTHERN%20ILL%20HOSP%20SERVICES%20AT%2CST.JOSEPH%20HOSPITAL%2C+MURPHYSBORO%2C+IL+62966
SOUTHERN ILLINOIS HOSPITAL SERVICES,1400 PIN OAK DRIVE,PHARMACY DEPARTMENT,"CARTERVILLE, IL 62918",http://maps.google.com/maps?q=SOUTHERN%20ILLINOIS%20HOSPITAL%20SERVICES%2C1400%20PIN%20OAK%20DRIVE%2C+CARTERVILLE%2C+IL+62918
ST CLAIRE MEDICAL CENTER INC - RETAIL,222 MEDICAL CIRCLE,"MOREHEAD, KY 40351",http://maps.google.com/maps?q=ST%20CLAIRE%20MEDICAL%20CENTER%20INC%20%20RETAIL%2C222%20MEDICAL%20CIRCLE%2C+MOREHEAD%2C+KY+40351,
ST. VINCENT PHARMACY MOB,801 ST. MARY'S DRIVE,"EVANSVILLE, IN 47714",http://maps.google.com/maps?q=ST%20VINCENT%20PHARMACY%20MOB%2C801%20ST.%20MARY'S%20DRIVE%2C+EVANSVILLE%2C+IN+47714,
"TENNESSEE CVS PHARMACY, L.L.C.",116 COMMONS DR.,"MARTIN, TN 38237",http://maps.google.com/maps?q=TENNESSEE%20CVS%20PHARMACY%20LLC%2C116%20COMMONS%20DR.%2C+MARTIN%2C+TN+38237,
"TENNESSEE CVS PHARMACY, L.L.C.",1228 W MAIN STREET,"LEBANON, TN 37087",http://maps.google.com/maps?q=TENNESSEE%20CVS%20PHARMACY%20LLC%2C1228%20W%20MAIN%20STREET%2C+LEBANON%2C+TN+37087,
"TENNESSEE CVS PHARMACY, L.L.C.",128 W. STONE DR.,"KINGSPORT, TN 37660",http://maps.google.com/maps?q=TENNESSEE%20CVS%20PHARMACY%20LLC%2C128%20W.%20STONE%20DR.%2C+KINGSPORT%2C+TN+37660,
"TENNESSEE CVS PHARMACY, L.L.C.",735 HARDING PL.,"NASHVILLE, TN 37211",http://maps.google.com/maps?q=TENNESSEE%20CVS%20PHARMACY%20LLC%2C735%20HARDING%20PL.%2C+NASHVILLE%2C+TN+37211,
THE MEDICINE SHOPPE PHARMACY,900 HUSTONVILLE ROAD,P.O. BOX 191,"DANVILLE, KY 40422",http://maps.google.com/maps?q=THE%20MEDICINE%20SHOPPE%20PHARMACY%2C900%20HUSTONVILLE%20ROAD%2C+DANVILLE%2C+KY+40422
TIGERX PHARMACY INC,5638 REDBUD HIGHWAY,"HONAKER, VA 24260",http://maps.google.com/maps?q=TIGERX%20PHARMACY%20INC%2C5638%20REDBUD%20HIGHWAY%2C+HONAKER%2C+VA+24260,
TOTAL PHARMACY CARE,533 HAMBLEY BLVD.,SUITE 6,"PIKEVILLE, KY 41501",http://maps.google.com/maps?q=TOTAL%20PHARMACY%20CARE%2C533%20HAMBLEY%20BLVD.%2C+PIKEVILLE%2C+KY+41501
UK JUNE BUCHANAN PHARMACY,59 COWTOWN RD,"HINDMAN, KY 41822",http://maps.google.com/maps?q=UK%20JUNE%20BUCHANAN%20PHARMACY%2C59%20COWTOWN%20RD%2C+HINDMAN%2C+KY+41822,
UK NORTH FORK VALLEY COMMUNITY HEALTH CENTER PHARM,750 MORTON BLVD,"HAZARD, KY 41701",http://maps.google.com/maps?q=UK%20NORTH%20FORK%20VALLEY%20COMMUNITY%20HEALTH%20CENTER%20PHARM%2C750%20MORTON%20BLVD%2C+HAZARD%2C+KY+41701,
US ARMY - TOWN CENTER PHARMACY,98 MICHIGAN AVE,BLDG 98,"FORT CAMPBELL, KY 42223",http://maps.google.com/maps?q=US%20ARMY%20%20TOWN%20CENTER%20PHARMACY%2C98%20MICHIGAN%20AVE%2C+FORT%20CAMPBELL%2C+KY+42223
US ARMY- BLANCHFIELD  COMMUNITY,"MEDDAC, BLDG 650, RM 1BG01","FORT CAMPBELL, KY 42223",http://maps.google.com/maps?q=US%20ARMY%20BLANCHFIELD%20%20COMMUNITY%2CMEDDAC%2C%20BLDG%20650%2C%20RM%201BG01%2C+FORT%20CAMPBELL%2C+KY+42223,
US ARMY- FT KNOX MAIN PX-PHARMACY,160 BINTER STREET,"FORT KNOX, KY 40121",http://maps.google.com/maps?q=US%20ARMY%20FT%20KNOX%20MAIN%20PXPHARMACY%2C160%20BINTER%20STREET%2C+FORT%20KNOX%2C+KY+40121,
US ARMY- IRELAND COMMUNITY HOSP/PHARM,289 IRELAND AVE BLDG 851,"FORT KNOX, KY 40121",http://maps.google.com/maps?q=US%20ARMY%20IRELAND%20COMMUNITY%20HOSPPHARM%2C289%20IRELAND%20AVE%20BLDG%20851%2C+FORT%20KNOX%2C+KY+40121,
VANDERBILT CHILDREN'S OUTPATIENT PHARMACY,2200 CHILDREN'S WAY,VCH 2106,"NASHVILLE, TN 37232",http://maps.google.com/maps?q=VANDERBILT%20CHILDRENS%20OUTPATIENT%20PHARMACY%2C2200%20CHILDREN'S%20WAY%2C+NASHVILLE%2C+TN+37232
VANDERBILT HEALTH PHARMACY,719 THOMPSON LANE,SUITE 24130,"NASHVILLE, TN 37204",http://maps.google.com/maps?q=VANDERBILT%20HEALTH%20PHARMACY%2C719%20THOMPSON%20LANE%2C+NASHVILLE%2C+TN+37204
VANDERBILT OUTPATIENT PHARMACY,1211 MEDICAL CENTER DR,TVC 1815,"NASHVILLE, TN 37232",http://maps.google.com/maps?q=VANDERBILT%20OUTPATIENT%20PHARMACY%2C1211%20MEDICAL%20CENTER%20DR%2C+NASHVILLE%2C+TN+37232
WALGREEN CO.,1145 U.S. 31 W. BYPASS,"BOWLING GREEN, KY 42101",http://maps.google.com/maps?q=WALGREEN%20CO%2C1145%20U.S.%2031%20W.%20BYPASS%2C+BOWLING%20GREEN%2C+KY+42101,
WALGREEN CO.,1205 MAIN ST,"MURRAY, KY 42071",http://maps.google.com/maps?q=WALGREEN%20CO%2C1205%20MAIN%20ST%2C+MURRAY%2C+KY+42071,
WALGREEN CO.,1303 W MAIN,"LEBANON, TN 37087",http://maps.google.com/maps?q=WALGREEN%20CO%2C1303%20W%20MAIN%2C+LEBANON%2C+TN+37087,
WALGREEN CO.,1602 N. DIXIE AVE,"ELIZABETHTOWN, KY 42701",http://maps.google.com/maps?q=WALGREEN%20CO%2C1602%20N.%20DIXIE%20AVE%2C+ELIZABETHTOWN%2C+KY+42701,
WALGREEN CO.,1751 TINY TOWN RD.,"CLARKSVILLE, TN 37042",http://maps.google.com/maps?q=WALGREEN%20CO%2C1751%20TINY%20TOWN%20RD.%2C+CLARKSVILLE%2C+TN+37042,
WALGREEN CO.,1954 MADISON STREET,"CLARKSVILLE, TN 37043",http://maps.google.com/maps?q=WALGREEN%20CO%2C1954%20MADISON%20STREET%2C+CLARKSVILLE%2C+TN+37043,
WALGREEN CO.,198 E MAIN ST,"HENDERSONVILLE, TN 37075",http://maps.google.com/maps?q=WALGREEN%20CO%2C198%20E%20MAIN%20ST%2C+HENDERSONVILLE%2C+TN+37075,
WALGREEN CO.,2015 COVERT AVE,"EVANSVILLE, IN 47714",http://maps.google.com/maps?q=WALGREEN%20CO%2C2015%20COVERT%20AVE%2C+EVANSVILLE%2C+IN+47714,
WALGREEN CO.,214 BROAD ST,"ELIZABETHTON, TN 37643",http://maps.google.com/maps?q=WALGREEN%20CO%2C214%20BROAD%20ST%2C+ELIZABETHTON%2C+TN+37643,
WALGREEN CO.,2318 FREDERICA STREET,"OWENSBORO, KY 42301",http://maps.google.com/maps?q=WALGREEN%20CO%2C2318%20FREDERICA%20STREET%2C+OWENSBORO%2C+KY+42301,
WALGREEN CO.,3130 CLARKSVILLE PIKE,"NASHVILLE, TN 37218",http://maps.google.com/maps?q=WALGREEN%20CO%2C3130%20CLARKSVILLE%20PIKE%2C+NASHVILLE%2C+TN+37218,
WALGREEN CO.,402 2ND STREET,"HENDERSON, KY 42420",http://maps.google.com/maps?q=WALGREEN%20CO%2C402%202ND%20STREET%2C+HENDERSON%2C+KY+42420,
WALGREEN CO.,500 S WILLOW AVE,"COOKEVILLE, TN 38501",http://maps.google.com/maps?q=WALGREEN%20CO%2C500%20S%20WILLOW%20AVE%2C+COOKEVILLE%2C+TN+38501,
WALGREEN CO.,518 DONELSON PIKE,"NASHVILLE, TN 37214",http://maps.google.com/maps?q=WALGREEN%20CO%2C518%20DONELSON%20PIKE%2C+NASHVILLE%2C+TN+37214,
WALGREEN CO.,521 LONE OAK ROAD,"PADUCAH, KY 42003",http://maps.google.com/maps?q=WALGREEN%20CO%2C521%20LONE%20OAK%20ROAD%2C+PADUCAH%2C+KY+42003,
WALGREEN CO.,5555 EDMONSON PIKE,"NASHVILLE, TN 37211",http://maps.google.com/maps?q=WALGREEN%20CO%2C5555%20EDMONSON%20PIKE%2C+NASHVILLE%2C+TN+37211,
WALGREEN CO.,7601 HWY 70 S,"NASHVILLE, TN 37221",http://maps.google.com/maps?q=WALGREEN%20CO%2C7601%20HWY%2070%20S%2C+NASHVILLE%2C+TN+37221,
WALGREEN CO.,7769 W STATE RTE 66,"NEWBURGH, IN 47630",http://maps.google.com/maps?q=WALGREEN%20CO%2C7769%20W%20STATE%20RTE%2066%2C+NEWBURGH%2C+IN+47630,
WALGREEN CO.,82 ELMORE RD,"CROSSVILLE, TN 38555",http://maps.google.com/maps?q=WALGREEN%20CO%2C82%20ELMORE%20RD%2C+CROSSVILLE%2C+TN+38555,
WALGREEN CO.,925 SOUTH GREEN RIVER ROAD,"EVANSVILLE, IN 47715",http://maps.google.com/maps?q=WALGREEN%20CO%2C925%20SOUTH%20GREEN%20RIVER%20ROAD%2C+EVANSVILLE%2C+IN+47715,
WILSON PHARMACY,1657 E STONE DR STE A,"KINGSPORT, TN 37660",http://maps.google.com/maps?q=WILSON%20PHARMACY%2C1657%20E%20STONE%20DR%20STE%20A%2C+KINGSPORT%2C+TN+37660,
WILSON PHARMACY INC,523 N STATE OF FRANKLIN RD,D B A MOUNTAIN STATES PHARMACY AT JOHNSON,"JOHNSON CITY, TN 37604",http://maps.google.com/maps?q=WILSON%20PHARMACY%20INC%2C523%20N%20STATE%20OF%20FRANKLIN%20RD%2C+JOHNSON%20CITY%2C+TN+37604
WILSON PHARMACY INC.  DBA MOUNTAIN STATES PHARMACY,16000 JOHNSTON MEMORIAL DR,"ABINGDON, VA 24211",http://maps.google.com/maps?q=WILSON%20PHARMACY%20INC%20%20DBA%20MOUNTAIN%20STATES%20PHARMACY%2C16000%20JOHNSTON%20MEMORIAL%20DR%2C+ABINGDON%2C+VA+24211,
"WILSON PHARMACY, INC.",400 N STATE OF FRANKLIN RD,DBA MOUNTAIN STATES PHARMACY AT JCMC,"JOHNSON CITY, TN 37604",http://maps.google.com/maps?q=WILSON%20PHARMACY%20INC%2C400%20N%20STATE%20OF%20FRANKLIN%20RD%2C+JOHNSON%20CITY%2C+TN+37604
YORK PHARMACY,107 E MAIN ST,"MC LEANSBORO, IL 62859",http://maps.google.com/maps?q=YORK%20PHARMACY%2C107%20E%20MAIN%20ST%2C+MC%20LEANSBORO%2C+IL+62859,
