Business Name,Address 1,Address 2,"City, State Zip",Map URL
"BOND DRUG COMPANY OF ILLINOIS, L.L.C.",1311 N STATE ROUTE 48,"DECATUR, IL 62526",http://maps.google.com/maps?q=BOND%20DRUG%20COMPANY%20OF%20ILLINOIS%20LLC%2C1311%20N%20STATE%20ROUTE%2048%2C+DECATUR%2C+IL+62526,
"BOND DRUG COMPANY OF ILLINOIS, L.L.C.",1525 N VETERANS PKWY,"BLOOMINGTON, IL 61704",http://maps.google.com/maps?q=BOND%20DRUG%20COMPANY%20OF%20ILLINOIS%20LLC%2C1525%20N%20VETERANS%20PKWY%2C+BLOOMINGTON%2C+IL+61704,
"BOND DRUG COMPANY OF ILLINOIS, L.L.C.",1713 W. SPRINGFIELD,"CHAMPAIGN, IL 61821",http://maps.google.com/maps?q=BOND%20DRUG%20COMPANY%20OF%20ILLINOIS%20LLC%2C1713%20W.%20SPRINGFIELD%2C+CHAMPAIGN%2C+IL+61821,
"BOND DRUG COMPANY OF ILLINOIS, L.L.C.",1801 INGALLS AVE,"JOLIET, IL 60435",http://maps.google.com/maps?q=BOND%20DRUG%20COMPANY%20OF%20ILLINOIS%20LLC%2C1801%20INGALLS%20AVE%2C+JOLIET%2C+IL+60435,
"BOND DRUG COMPANY OF ILLINOIS, L.L.C.",20002 WOLF RD,"MOKENA, IL 60448",http://maps.google.com/maps?q=BOND%20DRUG%20COMPANY%20OF%20ILLINOIS%20LLC%2C20002%20WOLF%20RD%2C+MOKENA%2C+IL+60448,
"BOND DRUG COMPANY OF ILLINOIS, L.L.C.",2020 COURT STREET,"PEKIN, IL 61554",http://maps.google.com/maps?q=BOND%20DRUG%20COMPANY%20OF%20ILLINOIS%20LLC%2C2020%20COURT%20STREET%2C+PEKIN%2C+IL+61554,
"BOND DRUG COMPANY OF ILLINOIS, L.L.C.",20950 GOVERNORS HWY.,"OLYMPIA FIELDS, IL 60461",http://maps.google.com/maps?q=BOND%20DRUG%20COMPANY%20OF%20ILLINOIS%20LLC%2C20950%20GOVERNORS%20HWY.%2C+OLYMPIA%20FIELDS%2C+IL+60461,
"BOND DRUG COMPANY OF ILLINOIS, L.L.C.",3564 RIDGE RD,"LANSING, IL 60438",http://maps.google.com/maps?q=BOND%20DRUG%20COMPANY%20OF%20ILLINOIS%20LLC%2C3564%20RIDGE%20RD%2C+LANSING%2C+IL+60438,
"BOND DRUG COMPANY OF ILLINOIS, L.L.C.",401 BELTLINE,"COLLINSVILLE, IL 62234",http://maps.google.com/maps?q=BOND%20DRUG%20COMPANY%20OF%20ILLINOIS%20LLC%2C401%20BELTLINE%2C+COLLINSVILLE%2C+IL+62234,
"BOND DRUG COMPANY OF ILLINOIS, L.L.C.",466 NELSON ROAD,"NEW LENOX, IL 60451",http://maps.google.com/maps?q=BOND%20DRUG%20COMPANY%20OF%20ILLINOIS%20LLC%2C466%20NELSON%20ROAD%2C+NEW%20LENOX%2C+IL+60451,
"BOND DRUG COMPANY OF ILLINOIS, L.L.C.",5890 NORTH BELT WEST,"BELLEVILLE, IL 62226",http://maps.google.com/maps?q=BOND%20DRUG%20COMPANY%20OF%20ILLINOIS%20LLC%2C5890%20NORTH%20BELT%20WEST%2C+BELLEVILLE%2C+IL+62226,
"BOND DRUG COMPANY OF ILLINOIS, L.L.C.",844 W FREMONT ST,"GALESBURG, IL 61401",http://maps.google.com/maps?q=BOND%20DRUG%20COMPANY%20OF%20ILLINOIS%20LLC%2C844%20W%20FREMONT%20ST%2C+GALESBURG%2C+IL+61401,
BRIGHTON PHARMACY,908 N MAIN ST,PO BOX 788,"BRIGHTON, IL 62012",http://maps.google.com/maps?q=BRIGHTON%20PHARMACY%2C908%20N%20MAIN%20ST%2C+BRIGHTON%2C+IL+62012
COPPER BEND PHARMACY INC,2900 FRANK SCOTT PARKWAY WEST,SUITE 920-B,"BELLEVILLE, IL 62223",http://maps.google.com/maps?q=COPPER%20BEND%20PHARMACY%20INC%2C2900%20FRANK%20SCOTT%20PARKWAY%20WEST%2C+BELLEVILLE%2C+IL+62223
COUNTY MARKET PHARMACY 228,1903 W. MONROE STREET,"SPRINGFIELD, IL 62704",http://maps.google.com/maps?q=COUNTY%20MARKET%20PHARMACY%2C1903%20W.%20MONROE%20STREET%2C+SPRINGFIELD%2C+IL+62704,
CUSTOM PLUS PHARMACY LLC,482 W NAVAJO ST STE A,"WEST LAFAYETTE, IN 47906",http://maps.google.com/maps?q=CUSTOM%20PLUS%20PHARMACY%20LLC%2C482%20W%20NAVAJO%20ST%20STE%20A%2C+WEST%20LAFAYETTE%2C+IN+47906,
DAUBER PHARMACY,16 EAST MAIN ST,"MASCOUTAH, IL 62258",http://maps.google.com/maps?q=DAUBER%20PHARMACY%2C16%20EAST%20MAIN%20ST%2C+MASCOUTAH%2C+IL+62258,
DOEHRINGS PHARMACY,143 S WASHINGTON ST,"NASHVILLE, IL 62263",http://maps.google.com/maps?q=DOEHRINGS%20PHARMACY%2C143%20S%20WASHINGTON%20ST%2C+NASHVILLE%2C+IL+62263,
GLEASON PHARMACY SERVICES INC.,200 S 6TH ST,"PETERSBURG, IL 62675",http://maps.google.com/maps?q=GLEASON%20PHARMACY%20SERVICES%20INC%2C200%20S%206TH%20ST%2C+PETERSBURG%2C+IL+62675,
HARRY'S PHARMACY,620 E JACKSON ST,"AUBURN, IL 62615",http://maps.google.com/maps?q=HARRYS%20PHARMACY%2C620%20E%20JACKSON%20ST%2C+AUBURN%2C+IL+62615,
"HIGHLAND PARK CVS, L.L.C.",1 WEST EDWARDSVILLE ROAD,"WOOD RIVER, IL 62095",http://maps.google.com/maps?q=HIGHLAND%20PARK%20CVS%20LLC%2C1%20WEST%20EDWARDSVILLE%20ROAD%2C+WOOD%20RIVER%2C+IL+62095,
"HIGHLAND PARK CVS, L.L.C.",1004 SHOOTING PARK,"PERU, IL 61354",http://maps.google.com/maps?q=HIGHLAND%20PARK%20CVS%20LLC%2C1004%20SHOOTING%20PARK%2C+PERU%2C+IL+61354,
"HIGHLAND PARK CVS, L.L.C.",1034 W REYNOLDS ST.,"PONTIAC, IL 61764",http://maps.google.com/maps?q=HIGHLAND%20PARK%20CVS%20LLC%2C1034%20W%20REYNOLDS%20ST.%2C+PONTIAC%2C+IL+61764,
"HIGHLAND PARK CVS, L.L.C.",1101 S WATER ST,"WILMINGTON, IL 60481",http://maps.google.com/maps?q=HIGHLAND%20PARK%20CVS%20LLC%2C1101%20S%20WATER%20ST%2C+WILMINGTON%2C+IL+60481,
"HIGHLAND PARK CVS, L.L.C.",1130 S. VETERANS PKWY,"BLOOMINGTON, IL 61704",http://maps.google.com/maps?q=HIGHLAND%20PARK%20CVS%20LLC%2C1130%20S.%20VETERANS%20PKWY%2C+BLOOMINGTON%2C+IL+61704,
"HIGHLAND PARK CVS, L.L.C.",1212 13TH AVENUE,"MENDOTA, IL 61342",http://maps.google.com/maps?q=HIGHLAND%20PARK%20CVS%20LLC%2C1212%2013TH%20AVENUE%2C+MENDOTA%2C+IL+61342,
"HIGHLAND PARK CVS, L.L.C.",1316 CHARLESTON AVE.,"MATTOON, IL 61938",http://maps.google.com/maps?q=HIGHLAND%20PARK%20CVS%20LLC%2C1316%20CHARLESTON%20AVE.%2C+MATTOON%2C+IL+61938,
"HIGHLAND PARK CVS, L.L.C.",137 W. FRONT ST.,"EL PASO, IL 61738",http://maps.google.com/maps?q=HIGHLAND%20PARK%20CVS%20LLC%2C137%20W.%20FRONT%20ST.%2C+EL%20PASO%2C+IL+61738,
"HIGHLAND PARK CVS, L.L.C.",1701 FORT JESSE RD.,"NORMAL, IL 61761",http://maps.google.com/maps?q=HIGHLAND%20PARK%20CVS%20LLC%2C1701%20FORT%20JESSE%20RD.%2C+NORMAL%2C+IL+61761,
"HIGHLAND PARK CVS, L.L.C.",207 W. JORDAN ST,"NEWTON, IL 62448",http://maps.google.com/maps?q=HIGHLAND%20PARK%20CVS%20LLC%2C207%20W.%20JORDAN%20ST%2C+NEWTON%2C+IL+62448,
"HIGHLAND PARK CVS, L.L.C.",225 WEST COURT ST,"KANKAKEE, IL 60901",http://maps.google.com/maps?q=HIGHLAND%20PARK%20CVS%20LLC%2C225%20WEST%20COURT%20ST%2C+KANKAKEE%2C+IL+60901,
"HIGHLAND PARK CVS, L.L.C.",230 S COMET DR.,"BRAIDWOOD, IL 60408",http://maps.google.com/maps?q=HIGHLAND%20PARK%20CVS%20LLC%2C230%20S%20COMET%20DR.%2C+BRAIDWOOD%2C+IL+60408,
"HIGHLAND PARK CVS, L.L.C.",2422 COLLEGE AVE.,"ALTON, IL 62002",http://maps.google.com/maps?q=HIGHLAND%20PARK%20CVS%20LLC%2C2422%20COLLEGE%20AVE.%2C+ALTON%2C+IL+62002,
"HIGHLAND PARK CVS, L.L.C.",245 S BROADWAY ST.,"COAL CITY, IL 60416",http://maps.google.com/maps?q=HIGHLAND%20PARK%20CVS%20LLC%2C245%20S%20BROADWAY%20ST.%2C+COAL%20CITY%2C+IL+60416,
"HIGHLAND PARK CVS, L.L.C.",2701 GODFREY RD,"GODFREY, IL 62035",http://maps.google.com/maps?q=HIGHLAND%20PARK%20CVS%20LLC%2C2701%20GODFREY%20RD%2C+GODFREY%2C+IL+62035,
"HIGHLAND PARK CVS, L.L.C.",3319 NAMEOKI RD.,"GRANITE CITY, IL 62040",http://maps.google.com/maps?q=HIGHLAND%20PARK%20CVS%20LLC%2C3319%20NAMEOKI%20RD.%2C+GRANITE%20CITY%2C+IL+62040,
"HIGHLAND PARK CVS, L.L.C.",4609 W. MAIN ST.,"BELLEVILLE, IL 62226",http://maps.google.com/maps?q=HIGHLAND%20PARK%20CVS%20LLC%2C4609%20W.%20MAIN%20ST.%2C+BELLEVILLE%2C+IL+62226,
"HIGHLAND PARK CVS, L.L.C.",47 S. LOCUST ST.,"MANTENO, IL 60950",http://maps.google.com/maps?q=HIGHLAND%20PARK%20CVS%20LLC%2C47%20S.%20LOCUST%20ST.%2C+MANTENO%2C+IL+60950,
"HIGHLAND PARK CVS, L.L.C.",501 W. LINCOLN AVE,"CHARLESTON, IL 61920",http://maps.google.com/maps?q=HIGHLAND%20PARK%20CVS%20LLC%2C501%20W.%20LINCOLN%20AVE%2C+CHARLESTON%2C+IL+61920,
"HIGHLAND PARK CVS, L.L.C.",506 EAST MAIN STREET,"STAUNTON, IL 62088",http://maps.google.com/maps?q=HIGHLAND%20PARK%20CVS%20LLC%2C506%20EAST%20MAIN%20STREET%2C+STAUNTON%2C+IL+62088,
"HIGHLAND PARK CVS, L.L.C.",753 W HWY 50,"O'FALLON, IL 62269",http://maps.google.com/maps?q=HIGHLAND%20PARK%20CVS%20LLC%2C753%20W%20HWY%2050%2C+O'FALLON%2C+IL+62269,
"HIGHLAND PARK CVS, L.L.C.",820 N. VERMILION,"DANVILLE, IL 61832",http://maps.google.com/maps?q=HIGHLAND%20PARK%20CVS%20LLC%2C820%20N.%20VERMILION%2C+DANVILLE%2C+IL+61832,
"HIGHLAND PARK CVS, L.L.C.",910 COURT STREET,"PEKIN, IL 61554",http://maps.google.com/maps?q=HIGHLAND%20PARK%20CVS%20LLC%2C910%20COURT%20STREET%2C+PEKIN%2C+IL+61554,
"HOOK-SUPERX, L.L.C.",106 EAST MARKET STREET,"CRAWFORDSVILLE, IN 47933",http://maps.google.com/maps?q=HOOKSUPERX%20LLC%2C106%20EAST%20MARKET%20STREET%2C+CRAWFORDSVILLE%2C+IN+47933,
"HOOK-SUPERX, L.L.C.",512 E. SEYMOUR ST.,"KENTLAND, IN 47951",http://maps.google.com/maps?q=HOOKSUPERX%20LLC%2C512%20E.%20SEYMOUR%20ST.%2C+KENTLAND%2C+IN+47951,
"HOOK-SUPERX, L.L.C.",512 SAGAMORE PKWY WEST,"WEST LAFAYETTE, IN 47906",http://maps.google.com/maps?q=HOOKSUPERX%20LLC%2C512%20SAGAMORE%20PKWY%20WEST%2C+WEST%20LAFAYETTE%2C+IN+47906,
"HOOK-SUPERX, L.L.C.",6445 CALUMET AVE.,"HAMMOND, IN 46324",http://maps.google.com/maps?q=HOOKSUPERX%20LLC%2C6445%20CALUMET%20AVE.%2C+HAMMOND%2C+IN+46324,
"HOOK-SUPERX, L.L.C.",713 S WASHINGTON ST,"CRAWFORDSVILLE, IN 47933",http://maps.google.com/maps?q=HOOKSUPERX%20LLC%2C713%20S%20WASHINGTON%20ST%2C+CRAWFORDSVILLE%2C+IN+47933,
"HOOK-SUPERX, L.L.C.",905 POPLAR ST.,"TERRE HAUTE, IN 47807",http://maps.google.com/maps?q=HOOKSUPERX%20LLC%2C905%20POPLAR%20ST.%2C+TERRE%20HAUTE%2C+IN+47807,
HOPEDALE PHARMACY,107 TREMONT ST,"HOPEDALE, IL 61747",http://maps.google.com/maps?q=HOPEDALE%20PHARMACY%2C107%20TREMONT%20ST%2C+HOPEDALE%2C+IL+61747,
HUDSON DRUG SHOP,108 N MARKET ST,PO BOX 70,"PAXTON, IL 60957",http://maps.google.com/maps?q=HUDSON%20DRUG%20SHOP%2C108%20N%20MARKET%20ST%2C+PAXTON%2C+IL+60957
ILLINI COMMUNITY HOSPITAL,640 W WASHINGTON,"PITTSFIELD, IL 62363",http://maps.google.com/maps?q=ILLINI%20COMMUNITY%20HOSPITAL%2C640%20W%20WASHINGTON%2C+PITTSFIELD%2C+IL+62363,
IU HEALTH ARNETT RETAIL PHARMACY,5165 MCCARTY LN,ROOM A1009,"LAFAYETTE, IN 47905",http://maps.google.com/maps?q=IU%20HEALTH%20ARNETT%20RETAIL%20PHARMACY%2C5165%20MCCARTY%20LN%2C+LAFAYETTE%2C+IN+47905
J D BROWN & CO,837 PLAINFIELD ROAD,"JOLIET, IL 60435",http://maps.google.com/maps?q=J%20D%20BROWN%20%20CO%2C837%20PLAINFIELD%20ROAD%2C+JOLIET%2C+IL+60435,
JAC STORES,105 EAST JACKSON STREET,PO BOX 228,"VIRDEN, IL 62690",http://maps.google.com/maps?q=JAC%20STORES%2C105%20EAST%20JACKSON%20STREET%2C+VIRDEN%2C+IL+62690
JAC STORES,DBA SAV-MOR DRUG,110 EAST STATE,"NOKOMIS, IL 62075",http://maps.google.com/maps?q=JAC%20STORES%2CDBA%20SAV-MOR%20DRUG%2C+NOKOMIS%2C+IL+62075
KHOURY PHARMACY,101 N. MAIN,"COLUMBIA, IL 62236",http://maps.google.com/maps?q=KHOURY%20PHARMACY%2C101%20N.%20MAIN%2C+COLUMBIA%2C+IL+62236,
LADONNA POEHLER LLC,600 W JOURDAN ST,"NEWTON, IL 62448",http://maps.google.com/maps?q=LADONNA%20POEHLER%20LLC%2C600%20W%20JOURDAN%20ST%2C+NEWTON%2C+IL+62448,
MENDOTA COMMUNITY HOSPITAL,1401 E 12TH ST.,"MENDOTA, IL 61342",http://maps.google.com/maps?q=MENDOTA%20COMMUNITY%20HOSPITAL%2C1401%20E%2012TH%20ST.%2C+MENDOTA%2C+IL+61342,
"MICHELLE'S PHARMACY, INC",274 N BROAD,"CARLINVILLE, IL 62626",http://maps.google.com/maps?q=MICHELLES%20PHARMACY%20INC%2C274%20N%20BROAD%2C+CARLINVILLE%2C+IL+62626,
MILLSTADT PHARMACY,120 W. WASHINGTON,"MILLSTADT, IL 62260",http://maps.google.com/maps?q=MILLSTADT%20PHARMACY%2C120%20W.%20WASHINGTON%2C+MILLSTADT%2C+IL+62260,
MOWEAQUA PHARMACY,TERRY L TRASTER,620 N PUTNAM STREET,"MOWEAQUA, IL 62550",http://maps.google.com/maps?q=MOWEAQUA%20PHARMACY%2CTERRY%20L%20TRASTER%2C+MOWEAQUA%2C+IL+62550
ONCOLOGY HEMATOLOGY ASSOC,8940 N. WOOD SAGE ROAD,"PEORIA, IL 61615",http://maps.google.com/maps?q=ONCOLOGY%20HEMATOLOGY%20ASSOC%2C8940%20N.%20WOOD%20SAGE%20ROAD%2C+PEORIA%2C+IL+61615,
OSF HEALTHCARE SYSTEM,1400 W. PARK STREET,"URBANA, IL 61801",http://maps.google.com/maps?q=OSF%20HEALTHCARE%20SYSTEM%2C1400%20W.%20PARK%20STREET%2C+URBANA%2C+IL+61801,
OSF HEALTHCARE SYSTEM,812 N. LOGAN AVENUE,"DANVILLE, IL 61832",http://maps.google.com/maps?q=OSF%20HEALTHCARE%20SYSTEM%2C812%20N.%20LOGAN%20AVENUE%2C+DANVILLE%2C+IL+61832,
OSF HEALTHCARE SYSTEM D/B/A SAINT LUKE MEDICAL CEN,1051 W. SOUTH ST.,"KEWANEE, IL 61443",http://maps.google.com/maps?q=OSF%20HEALTHCARE%20SYSTEM%20DBA%20SAINT%20LUKE%20MEDICAL%20CEN%2C1051%20W.%20SOUTH%20ST.%2C+KEWANEE%2C+IL+61443,
OSF HEALTHCARE SYSTEM D/B/A ST. ANTHONY'S HEALTH C,#1 SAINT ANTHONY'S WAY,"ALTON, IL 62002",http://maps.google.com/maps?q=OSF%20HEALTHCARE%20SYSTEM%20DBA%20ST%20ANTHONYS%20HEALTH%20C%2C#1%20SAINT%20ANTHONY'S%20WAY%2C+ALTON%2C+IL+62002,
OTTAWA REGIONAL HOSPITAL & HEALTHCARE CENTER,1100 E NORRIS DR,"OTTAWA, IL 61350",http://maps.google.com/maps?q=OTTAWA%20REGIONAL%20HOSPITAL%20%20HEALTHCARE%20CENTER%2C1100%20E%20NORRIS%20DR%2C+OTTAWA%2C+IL+61350,
PHARMACY PLUS INC,508 NORTH MAIN,"CARROLLTON, IL 62016",http://maps.google.com/maps?q=PHARMACY%20PLUS%20INC%2C508%20NORTH%20MAIN%2C+CARROLLTON%2C+IL+62016,
"PHARMACY PLUS, INC.",116 N. MAIN,"WHITE HALL, IL 62092",http://maps.google.com/maps?q=PHARMACY%20PLUS%20INC%2C116%20N.%20MAIN%2C+WHITE%20HALL%2C+IL+62092,
"PHARMACY PLUS, INC.",41 S MAIN,"WINCHESTER, IL 62694",http://maps.google.com/maps?q=PHARMACY%20PLUS%20INC%2C41%20S%20MAIN%2C+WINCHESTER%2C+IL+62694,
"PHARMACY PLUS, INC.",693 BAINBRIDGE ST,"BARRY, IL 62312",http://maps.google.com/maps?q=PHARMACY%20PLUS%20INC%2C693%20BAINBRIDGE%20ST%2C+BARRY%2C+IL+62312,
POEHLER'S PHARMACY LLC,203 S MAIN ST SUITE A,"DIETERICH, IL 62424",http://maps.google.com/maps?q=POEHLERS%20PHARMACY%20LLC%2C203%20S%20MAIN%20ST%20SUITE%20A%2C+DIETERICH%2C+IL+62424,
PRESENCE LIFE CONNECTIONS PHARMACY,670 N CONVENT STREET,"BOURBONNAIS, IL 60914",http://maps.google.com/maps?q=PRESENCE%20LIFE%20CONNECTIONS%20PHARMACY%2C670%20N%20CONVENT%20STREET%2C+BOURBONNAIS%2C+IL+60914,
PURDUE UNIVERSITY PHARMACY,HEINE PHARMACY BUILDING RM 118,575 STADIUM MALL DRIVE,"WEST LAFAYETTE, IN 47907",http://maps.google.com/maps?q=PURDUE%20UNIVERSITY%20PHARMACY%2CHEINE%20PHARMACY%20BUILDING%20RM%20118%2C+WEST%20LAFAYETTE%2C+IN+47907
RIVERSIDE FAMILY PHARMACY,350 N WALL STREET,"KANKAKEE, IL 60901",http://maps.google.com/maps?q=RIVERSIDE%20FAMILY%20PHARMACY%2C350%20N%20WALL%20STREET%2C+KANKAKEE%2C+IL+60901,
SHAKAMAK HEALTH INC,346 E MAIN ST,"JASONVILLE, IN 47438",http://maps.google.com/maps?q=SHAKAMAK%20HEALTH%20INC%2C346%20E%20MAIN%20ST%2C+JASONVILLE%2C+IN+47438,
ST FRANCIS MEDICAL CENTER,530 NE GLEN OAK AVE,"PEORIA, IL 61637",http://maps.google.com/maps?q=ST%20FRANCIS%20MEDICAL%20CENTER%2C530%20NE%20GLEN%20OAK%20AVE%2C+PEORIA%2C+IL+61637,
ST JAMES HOSPITAL,2500 W REYNOLDS ST,"PONTIAC, IL 61764",http://maps.google.com/maps?q=ST%20JAMES%20HOSPITAL%2C2500%20W%20REYNOLDS%20ST%2C+PONTIAC%2C+IL+61764,
ST JOSEPH'S HOSPITAL MEDICAL,2200 E WASHINGTON,"BLOOMINGTON, IL 61701",http://maps.google.com/maps?q=ST%20JOSEPHS%20HOSPITAL%20MEDICAL%2C2200%20E%20WASHINGTON%2C+BLOOMINGTON%2C+IL+61701,
ST MARY'S MEDICAL CENTER,3333 N SEMINARY,"GALESBURG, IL 61401",http://maps.google.com/maps?q=ST%20MARYS%20MEDICAL%20CENTER%2C3333%20N%20SEMINARY%2C+GALESBURG%2C+IL+61401,
SULLIVAN DRUG CO,101 E MAIN ST,"STAUNTON, IL 62088",http://maps.google.com/maps?q=SULLIVAN%20DRUG%20CO%2C101%20E%20MAIN%20ST%2C+STAUNTON%2C+IL+62088,
THRUSH FAMILY PHARMACY INC,900 FIRST AVENUE,"OTTAWA, IL 61350",http://maps.google.com/maps?q=THRUSH%20FAMILY%20PHARMACY%20INC%2C900%20FIRST%20AVENUE%2C+OTTAWA%2C+IL+61350,
USAF- SCOTT AFB MEDICAL CENTER,310 W. LOSEY BLDG 1530,CLINIC PHARMACY,"SCOTT AFB, IL 62225",http://maps.google.com/maps?q=USAF%20SCOTT%20AFB%20MEDICAL%20CENTER%2C310%20W.%20LOSEY%20BLDG%201530%2C+SCOTT%20AFB%2C+IL+62225
V A OUTPATIENT CLINIC,VA OUTPATIENT CLINIC 119,7717 N ORANGE PRAIRIE ROAD,"PEORIA, IL 61615",http://maps.google.com/maps?q=V%20A%20OUTPATIENT%20CLINIC%2CVA%20OUTPATIENT%20CLINIC%20119%2C+PEORIA%2C+IL+61615
VORAC PHARMACY LLC,114 S. STATE ST.,"GENESEO, IL 61254",http://maps.google.com/maps?q=VORAC%20PHARMACY%20LLC%2C114%20S.%20STATE%20ST.%2C+GENESEO%2C+IL+61254,
VYTO'S PHARMACY,6949 KENNEDY AVENUE,UNIT C,"HAMMOND, IN 46323",http://maps.google.com/maps?q=VYTOS%20PHARMACY%2C6949%20KENNEDY%20AVENUE%2C+HAMMOND%2C+IN+46323
WALGREEN CO.,1033 SHOOTING PARK ROAD,"PERU, IL 61354",http://maps.google.com/maps?q=WALGREEN%20CO%2C1033%20SHOOTING%20PARK%20ROAD%2C+PERU%2C+IL+61354,
WALGREEN CO.,1300 WABASH AVE,"TERRE HAUTE, IN 47807",http://maps.google.com/maps?q=WALGREEN%20CO%2C1300%20WABASH%20AVE%2C+TERRE%20HAUTE%2C+IN+47807,
WALGREEN CO.,2 COTTONWOOD RD,"GLEN CARBON, IL 62034",http://maps.google.com/maps?q=WALGREEN%20CO%2C2%20COTTONWOOD%20RD%2C+GLEN%20CARBON%2C+IL+62034,
WALGREEN CO.,2020 S MAC ARTHUR BLVD,"SPRINGFIELD, IL 62704",http://maps.google.com/maps?q=WALGREEN%20CO%2C2020%20S%20MAC%20ARTHUR%20BLVD%2C+SPRINGFIELD%2C+IL+62704,
WALGREEN CO.,2324 W WAR MEMORIAL DRIVE,"PEORIA, IL 61614",http://maps.google.com/maps?q=WALGREEN%20CO%2C2324%20W%20WAR%20MEMORIAL%20DRIVE%2C+PEORIA%2C+IL+61614,
WALGREEN CO.,501 N CONVENT ST,"BOURBONNAIS, IL 60914",http://maps.google.com/maps?q=WALGREEN%20CO%2C501%20N%20CONVENT%20ST%2C+BOURBONNAIS%2C+IL+60914,
WALGREEN CO.,651 W. US HWY 30,"SCHERERVILLE, IN 46375",http://maps.google.com/maps?q=WALGREEN%20CO%2C651%20W.%20US%20HWY%2030%2C+SCHERERVILLE%2C+IN+46375,
MOODY HEALTH MART PHARMACY,109 E BROADWAY,"SPARTA, IL 62286",http://maps.google.com/maps?q=MOODY%20HEALTH%20MART%20PHARMACY%2C109%20E%20BROADWAY%2C+SPARTA%2C+IL+62286,
