Business Name,Address 1,Address 2,"City, State Zip",Map URL
45TH MEDICAL GROUP SATELLITE PHARMACY,1361 S. PATRICK DRIVE,"PATRICK AFB, FL 32925",http://maps.google.com/maps?q=TH%20MEDICAL%20GROUP%20SATELLITE%20PHARMACY%2C1361%20S.%20PATRICK%20DRIVE%2C+PATRICK%20AFB%2C+FL+32925,
ACV COMMUNITY SERVICES LLC,10820 MARVIN JONES BLVD,"DOWLING PARK, FL 32060",http://maps.google.com/maps?q=ACV%20COMMUNITY%20SERVICES%20LLC%2C10820%20MARVIN%20JONES%20BLVD%2C+DOWLING%20PARK%2C+FL+32060,
AIDS HEALTHCARE FOUNDATION,1701 NORTH MILLS AVENUE,"ORLANDO, FL 32803",http://maps.google.com/maps?q=AIDS%20HEALTHCARE%20FOUNDATION%2C1701%20NORTH%20MILLS%20AVENUE%2C+ORLANDO%2C+FL+32803,
AIDS HEALTHCARE FOUNDATION,2 SHIRCLIFF WAY STE 900,DE PAUL BUILDING,"JACKSONVILLE, FL 32204",http://maps.google.com/maps?q=AIDS%20HEALTHCARE%20FOUNDATION%2C2%20SHIRCLIFF%20WAY%20STE%20900%2C+JACKSONVILLE%2C+FL+32204
ALLEN MEDICAL SERVICES INC,6953 GALL BLVD,"ZEPHYRHILLS, FL 33542",http://maps.google.com/maps?q=ALLEN%20MEDICAL%20SERVICES%20INC%2C6953%20GALL%20BLVD%2C+ZEPHYRHILLS%2C+FL+33542,
"ANDERSON-SCOKELEE, INC",5001 NW 34TH BLVD SUITE B,"GAINESVILLE, FL 32605",http://maps.google.com/maps?q=ANDERSONSCOKELEE%20INC%2C5001%20NW%2034TH%20BLVD%20SUITE%20B%2C+GAINESVILLE%2C+FL+32605,
"ASPIRE HEALTH PARTNERS, INC.",PRINCETON PLAZA PHARMACY,1800 MERCY DRIVE,"ORLANDO, FL 32808",http://maps.google.com/maps?q=ASPIRE%20HEALTH%20PARTNERS%20INC%2CPRINCETON%20PLAZA%20PHARMACY%2C+ORLANDO%2C+FL+32808
BENZER FL 12 LLC,38160 MEDICAL CENTER AVE,"ZEPHYRHILLS, FL 33540",http://maps.google.com/maps?q=BENZER%20FL%20%20LLC%2C38160%20MEDICAL%20CENTER%20AVE%2C+ZEPHYRHILLS%2C+FL+33540,
BENZER FL 13 LLC,5908 BRECKENRIDGE PKWY,"TAMPA, FL 33610",http://maps.google.com/maps?q=BENZER%20FL%20%20LLC%2C5908%20BRECKENRIDGE%20PKWY%2C+TAMPA%2C+FL+33610,
BENZER FL 14 LLC,"700 1ST ST S, SUITE 1","WINTER HAVEN, FL 33880",http://maps.google.com/maps?q=BENZER%20FL%20%20LLC%2C700%201ST%20ST%20S%2C%20SUITE%201%2C+WINTER%20HAVEN%2C+FL+33880,
BENZER FL 15 LLC,11509 E MARTIN LUTHER KING JR BLVD,"MANGO, FL 33550",http://maps.google.com/maps?q=BENZER%20FL%20%20LLC%2C11509%20E%20MARTIN%20LUTHER%20KING%20JR%20BLVD%2C+MANGO%2C+FL+33550,
BENZER FL10 LLC,6056 VAN DYKE RD,"LUTZ, FL 33558",http://maps.google.com/maps?q=BENZER%20FL%20LLC%2C6056%20VAN%20DYKE%20RD%2C+LUTZ%2C+FL+33558,
BENZER FL11 LLC,2653 BRUCE B DOWNS BLVD STE 115,"WESLEY CHAPEL, FL 33544",http://maps.google.com/maps?q=BENZER%20FL%20LLC%2C2653%20BRUCE%20B%20DOWNS%20BLVD%20STE%20115%2C+WESLEY%20CHAPEL%2C+FL+33544,
BENZER FL3 LLC,105 S MOON AVE,"BRANDON, FL 33511",http://maps.google.com/maps?q=BENZER%20FL%20LLC%2C105%20S%20MOON%20AVE%2C+BRANDON%2C+FL+33511,
BENZER FL4 LLC,2722 W. OLD HIGHWAY 441,"MOUNT DORA, FL 32757",http://maps.google.com/maps?q=BENZER%20FL%20LLC%2C2722%20W.%20OLD%20HIGHWAY%20441%2C+MOUNT%20DORA%2C+FL+32757,
BENZER FL5 LLC,500 W. GRANADA BLVD SUITE 4,"ORMOND BEACH, FL 32174",http://maps.google.com/maps?q=BENZER%20FL%20LLC%2C500%20W.%20GRANADA%20BLVD%20SUITE%204%2C+ORMOND%20BEACH%2C+FL+32174,
BENZER FL6 LLC,6132 MERRILL RD STE 12,"JACKSONVILLE, FL 32277",http://maps.google.com/maps?q=BENZER%20FL%20LLC%2C6132%20MERRILL%20RD%20STE%2012%2C+JACKSONVILLE%2C+FL+32277,
BENZER FL9 LLC,14306 N DALE MABRY HWY STE D,"TAMPA, FL 33618",http://maps.google.com/maps?q=BENZER%20FL%20LLC%2C14306%20N%20DALE%20MABRY%20HWY%20STE%20D%2C+TAMPA%2C+FL+33618,
BLOUNTSTOWN DRUG INC,20370 CENTRAL AVE W,"BLOUNTSTOWN, FL 32424",http://maps.google.com/maps?q=BLOUNTSTOWN%20DRUG%20INC%2C20370%20CENTRAL%20AVE%20W%2C+BLOUNTSTOWN%2C+FL+32424,
"BROOKSVILLE DRUGS, INC.",80 PONCE DE LEON BLVD,"BROOKSVILLE, FL 34601",http://maps.google.com/maps?q=BROOKSVILLE%20DRUGS%20INC%2C80%20PONCE%20DE%20LEON%20BLVD%2C+BROOKSVILLE%2C+FL+34601,
"EMERALD COAST BEHAVIORAL HOSPITAL, LLC",1940 HARRISON AVENUE,"PANAMA CITY, FL 32405",http://maps.google.com/maps?q=EMERALD%20COAST%20BEHAVIORAL%20HOSPITAL%20LLC%2C1940%20HARRISON%20AVENUE%2C+PANAMA%20CITY%2C+FL+32405,
EMISWET E-Z LLC,4942 W SR 46 SUITE 1014,"SANFORD, FL 32771",http://maps.google.com/maps?q=EMISWET%20EZ%20LLC%2C4942%20W%20SR%2046%20SUITE%201014%2C+SANFORD%2C+FL+32771,
GENOA HEALTHCARE LLC,134 PREVATT ROAD,"DOTHAN, AL 36301",http://maps.google.com/maps?q=GENOA%20HEALTHCARE%20LLC%2C134%20PREVATT%20ROAD%2C+DOTHAN%2C+AL+36301,
GUARDIAN PHARMACY OF JACKSONVILLE,8001 BELFORT PKWY,SUITE 160,"JACKSONVILLE, FL 32256",http://maps.google.com/maps?q=GUARDIAN%20PHARMACY%20OF%20JACKSONVILLE%2C8001%20BELFORT%20PKWY%2C+JACKSONVILLE%2C+FL+32256
"HOLIDAY CVS, L.L.C.",110 BULLARD PKWY,"TEMPLE TERRACE, FL 33617",http://maps.google.com/maps?q=HOLIDAY%20CVS%20LLC%2C110%20BULLARD%20PKWY%2C+TEMPLE%20TERRACE%2C+FL+33617,
"HOLIDAY CVS, L.L.C.",11115 SPRING HILL DR,"SPRING HILL, FL 34609",http://maps.google.com/maps?q=HOLIDAY%20CVS%20LLC%2C11115%20SPRING%20HILL%20DR%2C+SPRING%20HILL%2C+FL+34609,
"HOLIDAY CVS, L.L.C.",1190 DUNN AVE,"JACKSONVILLE, FL 32218",http://maps.google.com/maps?q=HOLIDAY%20CVS%20LLC%2C1190%20DUNN%20AVE%2C+JACKSONVILLE%2C+FL+32218,
"HOLIDAY CVS, L.L.C.",1205 W VINE ST,"KISSIMMEE, FL 34741",http://maps.google.com/maps?q=HOLIDAY%20CVS%20LLC%2C1205%20W%20VINE%20ST%2C+KISSIMMEE%2C+FL+34741,
"HOLIDAY CVS, L.L.C.",12804 US HWY 301,"DADE CITY, FL 33525",http://maps.google.com/maps?q=HOLIDAY%20CVS%20LLC%2C12804%20US%20HWY%20301%2C+DADE%20CITY%2C+FL+33525,
"HOLIDAY CVS, L.L.C.",1800 E. HWY 50,"CLERMONT, FL 34711",http://maps.google.com/maps?q=HOLIDAY%20CVS%20LLC%2C1800%20E.%20HWY%2050%2C+CLERMONT%2C+FL+34711,
"HOLIDAY CVS, L.L.C.",1929 BRUCE B. DOWNS BLVD.,"WESLEY CHAPEL, FL 33543",http://maps.google.com/maps?q=HOLIDAY%20CVS%20LLC%2C1929%20BRUCE%20B.%20DOWNS%20BLVD.%2C+WESLEY%20CHAPEL%2C+FL+33543,
"HOLIDAY CVS, L.L.C.",37943 EILAND BLVD,"ZEPHYRHILLS, FL 33542",http://maps.google.com/maps?q=HOLIDAY%20CVS%20LLC%2C37943%20EILAND%20BLVD%2C+ZEPHYRHILLS%2C+FL+33542,
"HOLIDAY CVS, L.L.C.",403 N ALEXANDER ST,"PLANT CITY, FL 33563",http://maps.google.com/maps?q=HOLIDAY%20CVS%20LLC%2C403%20N%20ALEXANDER%20ST%2C+PLANT%20CITY%2C+FL+33563,
"HOLIDAY CVS, L.L.C.",4292 N ATLANTIC AVE,"COCOA BEACH, FL 32931",http://maps.google.com/maps?q=HOLIDAY%20CVS%20LLC%2C4292%20N%20ATLANTIC%20AVE%2C+COCOA%20BEACH%2C+FL+32931,
"HOLIDAY CVS, L.L.C.",5010 S FLORIDA AVE,"LAKELAND, FL 33813",http://maps.google.com/maps?q=HOLIDAY%20CVS%20LLC%2C5010%20S%20FLORIDA%20AVE%2C+LAKELAND%2C+FL+33813,
"HOLIDAY CVS, L.L.C.",5151 BELLE TERRE PKWY,"PALM COAST, FL 32137",http://maps.google.com/maps?q=HOLIDAY%20CVS%20LLC%2C5151%20BELLE%20TERRE%20PKWY%2C+PALM%20COAST%2C+FL+32137,
"HOLIDAY CVS, L.L.C.",5466 THOMASVILLE RD N,"TALLAHASSEE, FL 32312",http://maps.google.com/maps?q=HOLIDAY%20CVS%20LLC%2C5466%20THOMASVILLE%20RD%20N%2C+TALLAHASSEE%2C+FL+32312,
"HOLIDAY CVS, L.L.C.",5650 RED BUG LAKE RD,"WINTER SPRINGS, FL 32708",http://maps.google.com/maps?q=HOLIDAY%20CVS%20LLC%2C5650%20RED%20BUG%20LAKE%20RD%2C+WINTER%20SPRINGS%2C+FL+32708,
"HOLIDAY CVS, L.L.C.",5999 NORMANDY BLVD,"JACKSONVILLE, FL 32205",http://maps.google.com/maps?q=HOLIDAY%20CVS%20LLC%2C5999%20NORMANDY%20BLVD%2C+JACKSONVILLE%2C+FL+32205,
"HOLIDAY CVS, L.L.C.",6105 US HWY 98 N,"LAKELAND, FL 33809",http://maps.google.com/maps?q=HOLIDAY%20CVS%20LLC%2C6105%20US%20HWY%2098%20N%2C+LAKELAND%2C+FL+33809,
"HOLIDAY CVS, L.L.C.",65 E MAIN ST,"APOPKA, FL 32703",http://maps.google.com/maps?q=HOLIDAY%20CVS%20LLC%2C65%20E%20MAIN%20ST%2C+APOPKA%2C+FL+32703,
"HOLIDAY CVS, L.L.C.",6501 CAROLINE ST HWY 90,"MILTON, FL 32570",http://maps.google.com/maps?q=HOLIDAY%20CVS%20LLC%2C6501%20CAROLINE%20ST%20HWY%2090%2C+MILTON%2C+FL+32570,
"HOLIDAY CVS, L.L.C.",6888 N 9TH AVE,"PENSACOLA, FL 32504",http://maps.google.com/maps?q=HOLIDAY%20CVS%20LLC%2C6888%20N%209TH%20AVE%2C+PENSACOLA%2C+FL+32504,
"HOLIDAY CVS, L.L.C.",704 W MARTIN LUTHER KING JR BLVD,"SEFFNER, FL 33584",http://maps.google.com/maps?q=HOLIDAY%20CVS%20LLC%2C704%20W%20MARTIN%20LUTHER%20KING%20JR%20BLVD%2C+SEFFNER%2C+FL+33584,
"HOLIDAY CVS, L.L.C.",7300 CURRY FORD RD.,"ORLANDO, FL 32822",http://maps.google.com/maps?q=HOLIDAY%20CVS%20LLC%2C7300%20CURRY%20FORD%20RD.%2C+ORLANDO%2C+FL+32822,
"HOLIDAY CVS, L.L.C.",7599 W SAND LAKE RD,"ORLANDO, FL 32819",http://maps.google.com/maps?q=HOLIDAY%20CVS%20LLC%2C7599%20W%20SAND%20LAKE%20RD%2C+ORLANDO%2C+FL+32819,
"HOLIDAY CVS, L.L.C.",795 W. GRANADA BLVD,"ORMOND BEACH, FL 32174",http://maps.google.com/maps?q=HOLIDAY%20CVS%20LLC%2C795%20W.%20GRANADA%20BLVD%2C+ORMOND%20BEACH%2C+FL+32174,
HOLMES REGIONAL MEDICAL CENTER INC,1350  S HICKORY STREET,"MELBOURNE, FL 32901",http://maps.google.com/maps?q=HOLMES%20REGIONAL%20MEDICAL%20CENTER%20INC%2C1350%20%20S%20HICKORY%20STREET%2C+MELBOURNE%2C+FL+32901,
"HOLMES REGIONAL MEDICAL CENTER, INC",8725 N WICKHAM RD.,SUITE 102,"MELBOURNE, FL 32940",http://maps.google.com/maps?q=HOLMES%20REGIONAL%20MEDICAL%20CENTER%20INC%2C8725%20N%20WICKHAM%20RD.%2C+MELBOURNE%2C+FL+32940
"HOLMES REGIONAL MEDICAL CENTER, INC.",1223 GATEWAY DR,"MELBOURNE, FL 32901",http://maps.google.com/maps?q=HOLMES%20REGIONAL%20MEDICAL%20CENTER%20INC%2C1223%20GATEWAY%20DR%2C+MELBOURNE%2C+FL+32901,
"LA AMISTAD RESIDENTIAL TREATMENT CENTER, INC",6601 CENTRAL FLORIDA PKWY,"ORLANDO, FL 32821",http://maps.google.com/maps?q=LA%20AMISTAD%20RESIDENTIAL%20TREATMENT%20CENTER%20INC%2C6601%20CENTRAL%20FLORIDA%20PKWY%2C+ORLANDO%2C+FL+32821,
LEE DRUG STORE,18530 FLORIDA ST,PO BOX 929,"ROBERTSDALE, AL 36567",http://maps.google.com/maps?q=LEE%20DRUG%20STORE%2C18530%20FLORIDA%20ST%2C+ROBERTSDALE%2C+AL+36567
MOULTRIE PHARMACY,3690 US 1 SOUTH,"ST AUGUSTINE, FL 32086",http://maps.google.com/maps?q=MOULTRIE%20PHARMACY%2C3690%20US%201%20SOUTH%2C+ST%20AUGUSTINE%2C+FL+32086,
"OCALA BEHAVIORAL HEALTH, LLC",3130 SW 27TH  AVE,"OCALA, FL 34471",http://maps.google.com/maps?q=OCALA%20BEHAVIORAL%20HEALTH%20LLC%2C3130%20SW%2027TH%20%20AVE%2C+OCALA%2C+FL+34471,
OGLETHORPE OF ORLANDO INC.,91 BEEHIVE CIRCLE DRIVE,"SAINT CLOUD, FL 34769",http://maps.google.com/maps?q=OGLETHORPE%20OF%20ORLANDO%20INC%2C91%20BEEHIVE%20CIRCLE%20DRIVE%2C+SAINT%20CLOUD%2C+FL+34769,
"OHM PHARMACY SERVICES ,INC",301 HAVENDALE BLVD,"AUBURNDALE, FL 33823",http://maps.google.com/maps?q=OHM%20PHARMACY%20SERVICES%20INC%2C301%20HAVENDALE%20BLVD%2C+AUBURNDALE%2C+FL+33823,
PINE BROOK PHARMACY LLC,11373 CORTEZ BLVD,SUITE 101,"BROOKSVILLE, FL 34613",http://maps.google.com/maps?q=PINE%20BROOK%20PHARMACY%20LLC%2C11373%20CORTEZ%20BLVD%2C+BROOKSVILLE%2C+FL+34613
RURAL HEALTH CARE,100 COMMERCIAL DR,"KEYSTONE HEIGHTS, FL 32656",http://maps.google.com/maps?q=RURAL%20HEALTH%20CARE%2C100%20COMMERCIAL%20DR%2C+KEYSTONE%20HEIGHTS%2C+FL+32656,
RURAL HEALTH CARE INC,DBA / AZALEA HEALTH,"1302 RIVER ST, PO DRAWER 817","PALATKA, FL 32177",http://maps.google.com/maps?q=RURAL%20HEALTH%20CARE%20INC%2CDBA%20/%20AZALEA%20HEALTH%2C+PALATKA%2C+FL+32177
RURAL HEALTH CARE INC,PHARMACY,306 UNION AVENUE,"CRESCENT CITY, FL 32112",http://maps.google.com/maps?q=RURAL%20HEALTH%20CARE%20INC%2CPHARMACY%2C+CRESCENT%20CITY%2C+FL+32112
"RURAL HEALTH CARE, INC",105 WHITEHALL DRIVE,SUITES 109-114,"ST AUGUSTINE, FL 32086",http://maps.google.com/maps?q=RURAL%20HEALTH%20CARE%20INC%2C105%20WHITEHALL%20DRIVE%2C+ST%20AUGUSTINE%2C+FL+32086
"RURAL HEALTH CARE, INC",1305 N ORANGE AVE,SUITE 120-123,"GREEN COVE SPRINGS, FL 32043",http://maps.google.com/maps?q=RURAL%20HEALTH%20CARE%20INC%2C1305%20N%20ORANGE%20AVE%2C+GREEN%20COVE%20SPRINGS%2C+FL+32043
"RURAL HEALTH CARE, INC",1425 DUNN AVENUE,"DAYTONA BEACH, FL 32114",http://maps.google.com/maps?q=RURAL%20HEALTH%20CARE%20INC%2C1425%20DUNN%20AVENUE%2C+DAYTONA%20BEACH%2C+FL+32114,
"RURAL HEALTH CARE, INC",22066 SE 71 ST AVE,"HAWTHORNE, FL 32640",http://maps.google.com/maps?q=RURAL%20HEALTH%20CARE%20INC%2C22066%20SE%2071%20ST%20AVE%2C+HAWTHORNE%2C+FL+32640,
"RURAL HEALTH CARE, INC",460 PALM COAST PARKWAY SW,SUITE # 5,"PALM COAST, FL 32137",http://maps.google.com/maps?q=RURAL%20HEALTH%20CARE%20INC%2C460%20PALM%20COAST%20PARKWAY%20SW%2C+PALM%20COAST%2C+FL+32137
"RURAL HEALTH CARE, INC",DBA \ AZALEA HEALTH,1213 STATE ROAD 20 (P.O. BOX 190),"INTERLACHEN, FL 32148",http://maps.google.com/maps?q=RURAL%20HEALTH%20CARE%20INC%2CDBA%20%5C%20AZALEA%20HEALTH%2C+INTERLACHEN%2C+FL+32148
RX CARE 16 LLC,401 NORTH WICKHAM ROAD,SUITE W,"MELBOURNE, FL 32935",http://maps.google.com/maps?q=RX%20CARE%20%20LLC%2C401%20NORTH%20WICKHAM%20ROAD%2C+MELBOURNE%2C+FL+32935
"RX CARE 7, LLC",1426 S PINE AVE,"OCALA, FL 34471",http://maps.google.com/maps?q=RX%20CARE%20%20LLC%2C1426%20S%20PINE%20AVE%2C+OCALA%2C+FL+34471,
RX CARE FOUR LLC,1270 MALABAR RD S.E,SUITE #2,"PALM BAY, FL 32907",http://maps.google.com/maps?q=RX%20CARE%20FOUR%20LLC%2C1270%20MALABAR%20RD%20S.E%2C+PALM%20BAY%2C+FL+32907
RX CARE OF LADY LAKE INC,725 COUNTY ROAD 466,"LADY LAKE, FL 32159",http://maps.google.com/maps?q=RX%20CARE%20OF%20LADY%20LAKE%20INC%2C725%20COUNTY%20ROAD%20466%2C+LADY%20LAKE%2C+FL+32159,
RX PLUS PHARMACY LLC,717 W LANCASTER ROAD,"ORLANDO, FL 32809",http://maps.google.com/maps?q=RX%20PLUS%20PHARMACY%20LLC%2C717%20W%20LANCASTER%20ROAD%2C+ORLANDO%2C+FL+32809,
SETON PHARMACY,"1 SHIRCLIFF WAY, ROOM 1734","JACKSONVILLE, FL 32204",http://maps.google.com/maps?q=SETON%20PHARMACY%2C1%20SHIRCLIFF%20WAY%2C%20ROOM%201734%2C+JACKSONVILLE%2C+FL+32204,
"SETON PHARMACY, INC",4205 BELFORT ROAD,SUITE# 1003,"JACKSONVILLE, FL 32216",http://maps.google.com/maps?q=SETON%20PHARMACY%20INC%2C4205%20BELFORT%20ROAD%2C+JACKSONVILLE%2C+FL+32216
SMART PHARMACY INC,14003 BEACH BLVD SUITE #1,"JACKSONVILLE, FL 32250",http://maps.google.com/maps?q=SMART%20PHARMACY%20INC%2C14003%20BEACH%20BLVD%20SUITE%20#1%2C+JACKSONVILLE%2C+FL+32250,
STUDENT HLTH SERV HOSP PHCY,FLORIDA,"280 FLETCHER DR., PO BOX 117500","GAINESVILLE, FL 32611",http://maps.google.com/maps?q=STUDENT%20HLTH%20SERV%20HOSP%20PHCY%2CFLORIDA%2C+GAINESVILLE%2C+FL+32611
"TEN BROECK TAMPA, INC",29910 SR 56,"WESLEY CHAPEL, FL 33543",http://maps.google.com/maps?q=TEN%20BROECK%20TAMPA%20INC%2C29910%20SR%2056%2C+WESLEY%20CHAPEL%2C+FL+33543,
TRENTON MEDICAL CENTER,DBA: PALMS PHARMACY OF BELL,1830 N MAIN ST,"BELL, FL 32619",http://maps.google.com/maps?q=TRENTON%20MEDICAL%20CENTER%2CDBA%3A%20PALMS%20PHARMACY%20OF%20BELL%2C+BELL%2C+FL+32619
TRENTON MEDICAL CENTER INC,911 SOUTH MAIN STREET,"TRENTON, FL 32693",http://maps.google.com/maps?q=TRENTON%20MEDICAL%20CENTER%20INC%2C911%20SOUTH%20MAIN%20STREET%2C+TRENTON%2C+FL+32693,
"TRENTON MEDICAL CENTER, INC.",103 US HIGHWAY 27 SW,"BRANFORD, FL 32008",http://maps.google.com/maps?q=TRENTON%20MEDICAL%20CENTER%20INC%2C103%20US%20HIGHWAY%2027%20SW%2C+BRANFORD%2C+FL+32008,
TUJAX NORTH INC,319 S WOODLAND BLVD,"DELAND, FL 32720",http://maps.google.com/maps?q=TUJAX%20NORTH%20INC%2C319%20S%20WOODLAND%20BLVD%2C+DELAND%2C+FL+32720,
TYNDALL SATELLITE PHARMACY,950 MALL LANE,"TYNDALL AFB, FL 32403",http://maps.google.com/maps?q=TYNDALL%20SATELLITE%20PHARMACY%2C950%20MALL%20LANE%2C+TYNDALL%20AFB%2C+FL+32403,
"UNIVERSITY BEHAVIORAL, LLC",2500 DISCOVERY DRIVE,"ORLANDO, FL 32826",http://maps.google.com/maps?q=UNIVERSITY%20BEHAVIORAL%20LLC%2C2500%20DISCOVERY%20DRIVE%2C+ORLANDO%2C+FL+32826,
US ARMY- LYSTER HOSPITAL,DEPARTMENT OF PHARMACY,BLDG 301 ANDREWS AVE.,"FORT RUCKER, AL 36362",http://maps.google.com/maps?q=US%20ARMY%20LYSTER%20HOSPITAL%2CDEPARTMENT%20OF%20PHARMACY%2C+FORT%20RUCKER%2C+AL+36362
USAF MACDILL AFB BRANDON CLINIC,220 GRAND REGENCY BLVD,ATTN:  PHARMACY FLIGHT,"BRANDON, FL 33510",http://maps.google.com/maps?q=USAF%20MACDILL%20AFB%20BRANDON%20CLINIC%2C220%20GRAND%20REGENCY%20BLVD%2C+BRANDON%2C+FL+33510
USAF- 1ST SPECIAL OPERATIONS MEDICAL GROUP-SGSMM,131 HOWIE WALTERS RD.,BLDG 91042,"HURLBURT FIELD, FL 32544",http://maps.google.com/maps?q=USAF%20ST%20SPECIAL%20OPERATIONS%20MEDICAL%20GROUPSGSMM%2C131%20HOWIE%20WALTERS%20RD.%2C+HURLBURT%20FIELD%2C+FL+32544
USAF- TYNDALL AFB,325TH MEDICAL GROUP(ACC)SGSM,340 MAGNOLIA CIRCLE,"TYNDALL AFB, FL 32403",http://maps.google.com/maps?q=USAF%20TYNDALL%20AFB%2C325TH%20MEDICAL%20GROUP(ACC)SGSM%2C+TYNDALL%20AFB%2C+FL+32403
USAF-EGLIN AFB SATELLITE PHARMACY,MEMORIAL TRAIL,BUILDING 1758,"EGLIN AFB, FL 32542",http://maps.google.com/maps?q=USAFEGLIN%20AFB%20SATELLITE%20PHARMACY%2CMEMORIAL%20TRAIL%2C+EGLIN%20AFB%2C+FL+32542
USN- NAVAL HOSPITAL,2080 CHILD ST DEPT 5502,HEAD PHARMACY DEPT,"JACKSONVILLE, FL 32214",http://maps.google.com/maps?q=USN%20NAVAL%20HOSPITAL%2C2080%20CHILD%20ST%20DEPT%205502%2C+JACKSONVILLE%2C+FL+32214
USN- NAVAL HOSPITAL,6000 W HIGHWAY 98 BLDG 2268,BUILDING 2268,"PENSACOLA, FL 32512",http://maps.google.com/maps?q=USN%20NAVAL%20HOSPITAL%2C6000%20W%20HIGHWAY%2098%20BLDG%202268%2C+PENSACOLA%2C+FL+32512
USN- NAVAL HOSPITAL,NAVY EXCHANGE PHARMACY,BLDG 950,"JACKSONVILLE, FL 32214",http://maps.google.com/maps?q=USN%20NAVAL%20HOSPITAL%2CNAVY%20EXCHANGE%20PHARMACY%2C+JACKSONVILLE%2C+FL+32214
WALGREEN CO,14040 W NEWBERRY RD,"NEWBERRY, FL 32669",http://maps.google.com/maps?q=WALGREEN%20CO%2C14040%20W%20NEWBERRY%20RD%2C+NEWBERRY%2C+FL+32669,
WALGREEN CO,5171 NW 43RD STREET,"GAINESVILLE, FL 32606",http://maps.google.com/maps?q=WALGREEN%20CO%2C5171%20NW%2043RD%20STREET%2C+GAINESVILLE%2C+FL+32606,
WALGREEN CO,8 NW MAIN ST,"WILLISTON, FL 32696",http://maps.google.com/maps?q=WALGREEN%20CO%2C8%20NW%20MAIN%20ST%2C+WILLISTON%2C+FL+32696,
WALGREEN CO.,104 S APOPKA AVE,"INVERNESS, FL 34452",http://maps.google.com/maps?q=WALGREEN%20CO%2C104%20S%20APOPKA%20AVE%2C+INVERNESS%2C+FL+34452,
WALGREEN CO.,11018 INTERNATIONAL DR,"ORLANDO, FL 32821",http://maps.google.com/maps?q=WALGREEN%20CO%2C11018%20INTERNATIONAL%20DR%2C+ORLANDO%2C+FL+32821,
WALGREEN CO.,1109 PALM COAST PARKWAY SW,"PALM COAST, FL 32137",http://maps.google.com/maps?q=WALGREEN%20CO%2C1109%20PALM%20COAST%20PARKWAY%20SW%2C+PALM%20COAST%2C+FL+32137,
WALGREEN CO.,1111 W VINE STREET,"KISSIMMEE, FL 34741",http://maps.google.com/maps?q=WALGREEN%20CO%2C1111%20W%20VINE%20STREET%2C+KISSIMMEE%2C+FL+34741,
WALGREEN CO.,11115 E DR MLK JR BLVD,"SEFFNER, FL 33584",http://maps.google.com/maps?q=WALGREEN%20CO%2C11115%20E%20DR%20MLK%20JR%20BLVD%2C+SEFFNER%2C+FL+33584,
WALGREEN CO.,11180 SPRING HILL DR,"SPRING HILL, FL 34609",http://maps.google.com/maps?q=WALGREEN%20CO%2C11180%20SPRING%20HILL%20DR%2C+SPRING%20HILL%2C+FL+34609,
WALGREEN CO.,1120 E. UNIVERSITY AVE.,"GAINESVILLE, FL 32641",http://maps.google.com/maps?q=WALGREEN%20CO%2C1120%20E.%20UNIVERSITY%20AVE.%2C+GAINESVILLE%2C+FL+32641,
WALGREEN CO.,115 N LAWRENCE BLVD,"KEYSTONE HGTS, FL 32656",http://maps.google.com/maps?q=WALGREEN%20CO%2C115%20N%20LAWRENCE%20BLVD%2C+KEYSTONE%20HGTS%2C+FL+32656,
WALGREEN CO.,1160 MALABAR ROAD SE,"PALM BAY, FL 32907",http://maps.google.com/maps?q=WALGREEN%20CO%2C1160%20MALABAR%20ROAD%20SE%2C+PALM%20BAY%2C+FL+32907,
WALGREEN CO.,1201 INTERNATIONAL PKWY S,"LAKE MARY, FL 32746",http://maps.google.com/maps?q=WALGREEN%20CO%2C1201%20INTERNATIONAL%20PKWY%20S%2C+LAKE%20MARY%2C+FL+32746,
WALGREEN CO.,12100 S. APOPKA VINELAND RD.,"ORLANDO, FL 32836",http://maps.google.com/maps?q=WALGREEN%20CO%2C12100%20S.%20APOPKA%20VINELAND%20RD.%2C+ORLANDO%2C+FL+32836,
WALGREEN CO.,12279 LAKE UNDERHILL RD,"ORLANDO, FL 32825",http://maps.google.com/maps?q=WALGREEN%20CO%2C12279%20LAKE%20UNDERHILL%20RD%2C+ORLANDO%2C+FL+32825,
WALGREEN CO.,125 EAST MAIN STREET,"APOPKA, FL 32703",http://maps.google.com/maps?q=WALGREEN%20CO%2C125%20EAST%20MAIN%20STREET%2C+APOPKA%2C+FL+32703,
WALGREEN CO.,128 E. BRANDON BLVD.,"BRANDON, FL 33511",http://maps.google.com/maps?q=WALGREEN%20CO%2C128%20E.%20BRANDON%20BLVD.%2C+BRANDON%2C+FL+33511,
WALGREEN CO.,12807 US HWY 301,"DADE CITY, FL 33525",http://maps.google.com/maps?q=WALGREEN%20CO%2C12807%20US%20HWY%20301%2C+DADE%20CITY%2C+FL+33525,
WALGREEN CO.,1350 N. WICKHAM RD.,"MELBOURNE, FL 32935",http://maps.google.com/maps?q=WALGREEN%20CO%2C1350%20N.%20WICKHAM%20RD.%2C+MELBOURNE%2C+FL+32935,
WALGREEN CO.,13720 W COLONIAL DR,"WINTER GARDEN, FL 34787",http://maps.google.com/maps?q=WALGREEN%20CO%2C13720%20W%20COLONIAL%20DR%2C+WINTER%20GARDEN%2C+FL+34787,
WALGREEN CO.,1402 OHIO AVENUE,"LYNN HAVEN, FL 32444",http://maps.google.com/maps?q=WALGREEN%20CO%2C1402%20OHIO%20AVENUE%2C+LYNN%20HAVEN%2C+FL+32444,
WALGREEN CO.,1515 OHIO AVE S,"LIVE OAK, FL 32064",http://maps.google.com/maps?q=WALGREEN%20CO%2C1515%20OHIO%20AVE%20S%2C+LIVE%20OAK%2C+FL+32064,
WALGREEN CO.,15155 NW US HIGHWAY 441,"ALACHUA, FL 32615",http://maps.google.com/maps?q=WALGREEN%20CO%2C15155%20NW%20US%20HIGHWAY%20441%2C+ALACHUA%2C+FL+32615,
WALGREEN CO.,15602 N. DALE MABRY,"TAMPA, FL 33618",http://maps.google.com/maps?q=WALGREEN%20CO%2C15602%20N.%20DALE%20MABRY%2C+TAMPA%2C+FL+33618,
WALGREEN CO.,1565 COUNTY ROAD 220,"ORANGE PARK, FL 32003",http://maps.google.com/maps?q=WALGREEN%20CO%2C1565%20COUNTY%20ROAD%20220%2C+ORANGE%20PARK%2C+FL+32003,
WALGREEN CO.,1581 BELLA CRUZ DRIVE,"THE VILLAGES, FL 32159",http://maps.google.com/maps?q=WALGREEN%20CO%2C1581%20BELLA%20CRUZ%20DRIVE%2C+THE%20VILLAGES%2C+FL+32159,
WALGREEN CO.,1615 NW 13TH ST.,"GAINESVILLE, FL 32609",http://maps.google.com/maps?q=WALGREEN%20CO%2C1615%20NW%2013TH%20ST.%2C+GAINESVILLE%2C+FL+32609,
WALGREEN CO.,1650 DUNLAWTON AVE,"PORT ORANGE, FL 32127",http://maps.google.com/maps?q=WALGREEN%20CO%2C1650%20DUNLAWTON%20AVE%2C+PORT%20ORANGE%2C+FL+32127,
WALGREEN CO.,1801 N DAVIS ST,"JACKSONVILLE, FL 32209",http://maps.google.com/maps?q=WALGREEN%20CO%2C1801%20N%20DAVIS%20ST%2C+JACKSONVILLE%2C+FL+32209,
WALGREEN CO.,18910 US HWY 441,"MT DORA, FL 32757",http://maps.google.com/maps?q=WALGREEN%20CO%2C18910%20US%20HWY%20441%2C+MT%20DORA%2C+FL+32757,
WALGREEN CO.,1920 ALOMA AVE.,"WINTER PARK, FL 32792",http://maps.google.com/maps?q=WALGREEN%20CO%2C1920%20ALOMA%20AVE.%2C+WINTER%20PARK%2C+FL+32792,
WALGREEN CO.,2 SOUTH GREENO RD,"FAIRHOPE, AL 36532",http://maps.google.com/maps?q=WALGREEN%20CO%2C2%20SOUTH%20GREENO%20RD%2C+FAIRHOPE%2C+AL+36532,
WALGREEN CO.,205 WEST MADISON STREET,"STARKE, FL 32091",http://maps.google.com/maps?q=WALGREEN%20CO%2C205%20WEST%20MADISON%20STREET%2C+STARKE%2C+FL+32091,
WALGREEN CO.,2075 US HWY 1 SOUTH,"ST AUGUSTINE, FL 32086",http://maps.google.com/maps?q=WALGREEN%20CO%2C2075%20US%20HWY%201%20SOUTH%2C+ST%20AUGUSTINE%2C+FL+32086,
WALGREEN CO.,2094 W US HIGHWAY 90,"LAKE CITY, FL 32055",http://maps.google.com/maps?q=WALGREEN%20CO%2C2094%20W%20US%20HIGHWAY%2090%2C+LAKE%20CITY%2C+FL+32055,
WALGREEN CO.,2227 N YOUNG BLVD,"CHIEFLAND, FL 32626",http://maps.google.com/maps?q=WALGREEN%20CO%2C2227%20N%20YOUNG%20BLVD%2C+CHIEFLAND%2C+FL+32626,
WALGREEN CO.,2237 WEST NINE MILE ROAD,"PENSACOLA, FL 32534",http://maps.google.com/maps?q=WALGREEN%20CO%2C2237%20WEST%20NINE%20MILE%20ROAD%2C+PENSACOLA%2C+FL+32534,
WALGREEN CO.,22829 STATE ROAD 54,"LAND O LAKES, FL 34639",http://maps.google.com/maps?q=WALGREEN%20CO%2C22829%20STATE%20ROAD%2054%2C+LAND%20O%20LAKES%2C+FL+34639,
WALGREEN CO.,2350 S FERDON BLVD,"CRESTVIEW, FL 32536",http://maps.google.com/maps?q=WALGREEN%20CO%2C2350%20S%20FERDON%20BLVD%2C+CRESTVIEW%2C+FL+32536,
WALGREEN CO.,2405 MAYPORT RD,"ATLANTIC BEACH, FL 32233",http://maps.google.com/maps?q=WALGREEN%20CO%2C2405%20MAYPORT%20RD%2C+ATLANTIC%20BEACH%2C+FL+32233,
WALGREEN CO.,2415 SW 75TH ST,"GAINESVILLE, FL 32608",http://maps.google.com/maps?q=WALGREEN%20CO%2C2415%20SW%2075TH%20ST%2C+GAINESVILLE%2C+FL+32608,
WALGREEN CO.,28115 WESLEY CHAPEL BLVD,"WESLEY CHAPEL, FL 33543",http://maps.google.com/maps?q=WALGREEN%20CO%2C28115%20WESLEY%20CHAPEL%20BLVD%2C+WESLEY%20CHAPEL%2C+FL+33543,
WALGREEN CO.,2940 WEST MAIN STREET,"DOTHAN, AL 36305",http://maps.google.com/maps?q=WALGREEN%20CO%2C2940%20WEST%20MAIN%20STREET%2C+DOTHAN%2C+AL+36305,
WALGREEN CO.,301 N TYNDALL PKWY,"PANAMA CITY, FL 32404",http://maps.google.com/maps?q=WALGREEN%20CO%2C301%20N%20TYNDALL%20PKWY%2C+PANAMA%20CITY%2C+FL+32404,
WALGREEN CO.,310 NE US HWY 19,"CRYSTAL RIVER, FL 34429",http://maps.google.com/maps?q=WALGREEN%20CO%2C310%20NE%20US%20HWY%2019%2C+CRYSTAL%20RIVER%2C+FL+34429,
WALGREEN CO.,3455 SW ARCHER RD,"GAINESVILLE, FL 32608",http://maps.google.com/maps?q=WALGREEN%20CO%2C3455%20SW%20ARCHER%20RD%2C+GAINESVILLE%2C+FL+32608,
WALGREEN CO.,3500 SE MARICAMP ROAD,"OCALA, FL 34471",http://maps.google.com/maps?q=WALGREEN%20CO%2C3500%20SE%20MARICAMP%20ROAD%2C+OCALA%2C+FL+34471,
WALGREEN CO.,3531 THOMASVILLE ROAD,"TALLAHASSEE, FL 32309",http://maps.google.com/maps?q=WALGREEN%20CO%2C3531%20THOMASVILLE%20ROAD%2C+TALLAHASSEE%2C+FL+32309,
WALGREEN CO.,3909 HIGHWAY 90,"PACE, FL 32571",http://maps.google.com/maps?q=WALGREEN%20CO%2C3909%20HIGHWAY%2090%2C+PACE%2C+FL+32571,
WALGREEN CO.,3909 NW 13TH ST,"GAINESVILLE, FL 32609",http://maps.google.com/maps?q=WALGREEN%20CO%2C3909%20NW%2013TH%20ST%2C+GAINESVILLE%2C+FL+32609,
WALGREEN CO.,3948 AIRPORT BLVD,"MOBILE, AL 36608",http://maps.google.com/maps?q=WALGREEN%20CO%2C3948%20AIRPORT%20BLVD%2C+MOBILE%2C+AL+36608,
WALGREEN CO.,395 CYPRESS PKWY,"KISSIMMEE, FL 34759",http://maps.google.com/maps?q=WALGREEN%20CO%2C395%20CYPRESS%20PKWY%2C+KISSIMMEE%2C+FL+34759,
WALGREEN CO.,406 ATLANTIC BLVD.,"NEPTUNE BEACH, FL 32266",http://maps.google.com/maps?q=WALGREEN%20CO%2C406%20ATLANTIC%20BLVD.%2C+NEPTUNE%20BEACH%2C+FL+32266,
WALGREEN CO.,408 E MICHIGAN STREET,"ORLANDO, FL 32806",http://maps.google.com/maps?q=WALGREEN%20CO%2C408%20E%20MICHIGAN%20STREET%2C+ORLANDO%2C+FL+32806,
WALGREEN CO.,414 C MARY ESTHER CUTOFF NW,"FT WALTON BEACH, FL 32548",http://maps.google.com/maps?q=WALGREEN%20CO%2C414%20C%20MARY%20ESTHER%20CUTOFF%20NW%2C+FT%20WALTON%20BEACH%2C+FL+32548,
WALGREEN CO.,4150 N ATLANTIC AVE,"COCOA BEACH, FL 32931",http://maps.google.com/maps?q=WALGREEN%20CO%2C4150%20N%20ATLANTIC%20AVE%2C+COCOA%20BEACH%2C+FL+32931,
WALGREEN CO.,4297 OLDFIELD CROSSING DR.,"JACKSONVILLE, FL 32223",http://maps.google.com/maps?q=WALGREEN%20CO%2C4297%20OLDFIELD%20CROSSING%20DR.%2C+JACKSONVILLE%2C+FL+32223,
WALGREEN CO.,4340 S. FLORIDA AVE.,"LAKELAND, FL 33813",http://maps.google.com/maps?q=WALGREEN%20CO%2C4340%20S.%20FLORIDA%20AVE.%2C+LAKELAND%2C+FL+33813,
WALGREEN CO.,4582 E HIGHWAY 20,"NICEVILLE, FL 32578",http://maps.google.com/maps?q=WALGREEN%20CO%2C4582%20E%20HIGHWAY%2020%2C+NICEVILLE%2C+FL+32578,
WALGREEN CO.,4600 S. WASHINGTON,"TITUSVILLE, FL 32780",http://maps.google.com/maps?q=WALGREEN%20CO%2C4600%20S.%20WASHINGTON%2C+TITUSVILLE%2C+FL+32780,
WALGREEN CO.,501 HAVENDALE BLVD,"AUBURNDALE, FL 33823",http://maps.google.com/maps?q=WALGREEN%20CO%2C501%20HAVENDALE%20BLVD%2C+AUBURNDALE%2C+FL+33823,
WALGREEN CO.,5205 RED BUG LAKE RD,"WINTER SPRINGS, FL 32708",http://maps.google.com/maps?q=WALGREEN%20CO%2C5205%20RED%20BUG%20LAKE%20RD%2C+WINTER%20SPRINGS%2C+FL+32708,
WALGREEN CO.,6006 BEACH BLVD.,"JACKSONVILLE, FL 32216",http://maps.google.com/maps?q=WALGREEN%20CO%2C6006%20BEACH%20BLVD.%2C+JACKSONVILLE%2C+FL+32216,
WALGREEN CO.,6314 N 9TH AVE,"PENSACOLA, FL 32504",http://maps.google.com/maps?q=WALGREEN%20CO%2C6314%20N%209TH%20AVE%2C+PENSACOLA%2C+FL+32504,
WALGREEN CO.,6429 GALL BLVD,"ZEPHYRHILLS, FL 33542",http://maps.google.com/maps?q=WALGREEN%20CO%2C6429%20GALL%20BLVD%2C+ZEPHYRHILLS%2C+FL+33542,
WALGREEN CO.,6506 CAROLINE STREET,"MILTON, FL 32570",http://maps.google.com/maps?q=WALGREEN%20CO%2C6506%20CAROLINE%20STREET%2C+MILTON%2C+FL+32570,
WALGREEN CO.,6730 US HIGHWAY 98 N,"LAKELAND, FL 33809",http://maps.google.com/maps?q=WALGREEN%20CO%2C6730%20US%20HIGHWAY%2098%20N%2C+LAKELAND%2C+FL+33809,
WALGREEN CO.,699 E HIGHWAY 50,"CLERMONT, FL 34711",http://maps.google.com/maps?q=WALGREEN%20CO%2C699%20E%20HIGHWAY%2050%2C+CLERMONT%2C+FL+34711,
WALGREEN CO.,719 HWY 19 S,"PALATKA, FL 32177",http://maps.google.com/maps?q=WALGREEN%20CO%2C719%20HWY%2019%20S%2C+PALATKA%2C+FL+32177,
WALGREEN CO.,7221 NORMANDY BLVD,"JACKSONVILLE, FL 32205",http://maps.google.com/maps?q=WALGREEN%20CO%2C7221%20NORMANDY%20BLVD%2C+JACKSONVILLE%2C+FL+32205,
WALGREEN CO.,7520 W NEWBERRY ROAD,"GAINESVILLE, FL 32606",http://maps.google.com/maps?q=WALGREEN%20CO%2C7520%20W%20NEWBERRY%20ROAD%2C+GAINESVILLE%2C+FL+32606,
WALGREEN CO.,7650 W SAND LAKE RD,"ORLANDO, FL 32819",http://maps.google.com/maps?q=WALGREEN%20CO%2C7650%20W%20SAND%20LAKE%20RD%2C+ORLANDO%2C+FL+32819,
WALGREEN CO.,7767 W IRLO BRONSON HWY,"KISSIMMEE, FL 34747",http://maps.google.com/maps?q=WALGREEN%20CO%2C7767%20W%20IRLO%20BRONSON%20HWY%2C+KISSIMMEE%2C+FL+34747,
WALGREEN CO.,790 W. GRANADA BLVD.,"ORMOND BEACH, FL 32174",http://maps.google.com/maps?q=WALGREEN%20CO%2C790%20W.%20GRANADA%20BLVD.%2C+ORMOND%20BEACH%2C+FL+32174,
WALGREEN CO.,8021 INTERNATIONAL DRIVE,"ORLANDO, FL 32819",http://maps.google.com/maps?q=WALGREEN%20CO%2C8021%20INTERNATIONAL%20DRIVE%2C+ORLANDO%2C+FL+32819,
WALGREEN CO.,8220 NAVARRE PKWY,"NAVARRE, FL 32566",http://maps.google.com/maps?q=WALGREEN%20CO%2C8220%20NAVARRE%20PKWY%2C+NAVARRE%2C+FL+32566,
WALGREEN CO.,825 BEAL PARKWAY NW,"FORT WALTON BEACH, FL 32547",http://maps.google.com/maps?q=WALGREEN%20CO%2C825%20BEAL%20PARKWAY%20NW%2C+FORT%20WALTON%20BEACH%2C+FL+32547,
WALGREEN CO.,860 A1A N,"PONTE VEDRA BEACH, FL 32082",http://maps.google.com/maps?q=WALGREEN%20CO%2C860%20A1A%20N%2C+PONTE%20VEDRA%20BEACH%2C+FL+32082,
WALGREEN CO.,870 E CERVANTES,"PENSACOLA, FL 32501",http://maps.google.com/maps?q=WALGREEN%20CO%2C870%20E%20CERVANTES%2C+PENSACOLA%2C+FL+32501,
WALGREEN CO.,897 SAXON BLVD,"ORANGE CITY, FL 32763",http://maps.google.com/maps?q=WALGREEN%20CO%2C897%20SAXON%20BLVD%2C+ORANGE%20CITY%2C+FL+32763,
WALGREEN CO.,900 RUCKER BLVD,"ENTERPRISE, AL 36330",http://maps.google.com/maps?q=WALGREEN%20CO%2C900%20RUCKER%20BLVD%2C+ENTERPRISE%2C+AL+36330,
WALGREEN CO.,9125 NW 39TH AVE,"GAINESVILLE, FL 32606",http://maps.google.com/maps?q=WALGREEN%20CO%2C9125%20NW%2039TH%20AVE%2C+GAINESVILLE%2C+FL+32606,
WALGREEN CO.,930 PROVIDENCE ROAD,"BRANDON, FL 33511",http://maps.google.com/maps?q=WALGREEN%20CO%2C930%20PROVIDENCE%20ROAD%2C+BRANDON%2C+FL+33511,
WALGREEN CO.,9998 FRONT BEACH RD.,"PANAMA CITY BEACH, FL 32407",http://maps.google.com/maps?q=WALGREEN%20CO%2C9998%20FRONT%20BEACH%20RD.%2C+PANAMA%20CITY%20BEACH%2C+FL+32407,
WELLCARE PHARMACY SERVICES INC,13733 U.S. HWY 441,"LADY LAKE, FL 32159",http://maps.google.com/maps?q=WELLCARE%20PHARMACY%20SERVICES%20INC%2C13733%20U.S.%20HWY%20441%2C+LADY%20LAKE%2C+FL+32159,
