Business Name,Address 1,Address 2,"City, State Zip",Map URL
"ARMITAGE PHARMACY, INC.",3650 W ARMITAGE AVE,"CHICAGO, IL 60647",http://maps.google.com/maps?q=ARMITAGE%20PHARMACY%20INC%2C3650%20W%20ARMITAGE%20AVE%2C+CHICAGO%2C+IL+60647,
B S D INC,716 MADISON AVENUE,"COVINGTON, KY 41011",http://maps.google.com/maps?q=B%20S%20D%20INC%2C716%20MADISON%20AVENUE%2C+COVINGTON%2C+KY+41011,
BETHESDA HOSPITAL BUTLER COUNTY,3125 HAMILTON MASON RD,"HAMILTON, OH 45011",http://maps.google.com/maps?q=BETHESDA%20HOSPITAL%20BUTLER%20COUNTY%2C3125%20HAMILTON%20MASON%20RD%2C+HAMILTON%2C+OH+45011,
"BHC VALLE VISTA HOSPITAL, INC.",898 EAST MAIN ST,"GREENWOOD, IN 46143",http://maps.google.com/maps?q=BHC%20VALLE%20VISTA%20HOSPITAL%20INC%2C898%20EAST%20MAIN%20ST%2C+GREENWOOD%2C+IN+46143,
BLACKBURN COMMUNITY HEALTH,CENTER PHARMACY,2700 DR. MARTIN LUTHER KING JR,"INDIANAPOLIS, IN 46208",http://maps.google.com/maps?q=BLACKBURN%20COMMUNITY%20HEALTH%2CCENTER%20PHARMACY%2C+INDIANAPOLIS%2C+IN+46208
"BOND DRUG COMPANY OF ILLINOIS, L.L.C.",10 N. MILWAUKEE AVE.,"WHEELING, IL 60090",http://maps.google.com/maps?q=BOND%20DRUG%20COMPANY%20OF%20ILLINOIS%20LLC%2C10%20N.%20MILWAUKEE%20AVE.%2C+WHEELING%2C+IL+60090,
"BOND DRUG COMPANY OF ILLINOIS, L.L.C.",1000 OGDEN AVENUE,"DOWNERS GROVE, IL 60515",http://maps.google.com/maps?q=BOND%20DRUG%20COMPANY%20OF%20ILLINOIS%20LLC%2C1000%20OGDEN%20AVENUE%2C+DOWNERS%20GROVE%2C+IL+60515,
"BOND DRUG COMPANY OF ILLINOIS, L.L.C.",101 LILY CACHE LANE,"BOLINGBROOK, IL 60440",http://maps.google.com/maps?q=BOND%20DRUG%20COMPANY%20OF%20ILLINOIS%20LLC%2C101%20LILY%20CACHE%20LANE%2C+BOLINGBROOK%2C+IL+60440,
"BOND DRUG COMPANY OF ILLINOIS, L.L.C.",111 S. HALSTED STREET,"CHICAGO, IL 60661",http://maps.google.com/maps?q=BOND%20DRUG%20COMPANY%20OF%20ILLINOIS%20LLC%2C111%20S.%20HALSTED%20STREET%2C+CHICAGO%2C+IL+60661,
"BOND DRUG COMPANY OF ILLINOIS, L.L.C.",1470 S MILWAUKEE AVE,"LIBERTYVILLE, IL 60048",http://maps.google.com/maps?q=BOND%20DRUG%20COMPANY%20OF%20ILLINOIS%20LLC%2C1470%20S%20MILWAUKEE%20AVE%2C+LIBERTYVILLE%2C+IL+60048,
"BOND DRUG COMPANY OF ILLINOIS, L.L.C.",15 N BUFFALO GROVE RD,"BUFFALO GROVE, IL 60089",http://maps.google.com/maps?q=BOND%20DRUG%20COMPANY%20OF%20ILLINOIS%20LLC%2C15%20N%20BUFFALO%20GROVE%20RD%2C+BUFFALO%20GROVE%2C+IL+60089,
"BOND DRUG COMPANY OF ILLINOIS, L.L.C.",1633 W. 95TH STREET,"CHICAGO, IL 60643",http://maps.google.com/maps?q=BOND%20DRUG%20COMPANY%20OF%20ILLINOIS%20LLC%2C1633%20W.%2095TH%20STREET%2C+CHICAGO%2C+IL+60643,
"BOND DRUG COMPANY OF ILLINOIS, L.L.C.",1799 DOUGLAS RD,"MONTGOMERY, IL 60538",http://maps.google.com/maps?q=BOND%20DRUG%20COMPANY%20OF%20ILLINOIS%20LLC%2C1799%20DOUGLAS%20RD%2C+MONTGOMERY%2C+IL+60538,
"BOND DRUG COMPANY OF ILLINOIS, L.L.C.",1801 INGALLS AVE,"JOLIET, IL 60435",http://maps.google.com/maps?q=BOND%20DRUG%20COMPANY%20OF%20ILLINOIS%20LLC%2C1801%20INGALLS%20AVE%2C+JOLIET%2C+IL+60435,
"BOND DRUG COMPANY OF ILLINOIS, L.L.C.",1811 BELVIDERE RD,"WAUKEGAN, IL 60085",http://maps.google.com/maps?q=BOND%20DRUG%20COMPANY%20OF%20ILLINOIS%20LLC%2C1811%20BELVIDERE%20RD%2C+WAUKEGAN%2C+IL+60085,
"BOND DRUG COMPANY OF ILLINOIS, L.L.C.",1931 W CERMAK RD,"CHICAGO, IL 60608",http://maps.google.com/maps?q=BOND%20DRUG%20COMPANY%20OF%20ILLINOIS%20LLC%2C1931%20W%20CERMAK%20RD%2C+CHICAGO%2C+IL+60608,
"BOND DRUG COMPANY OF ILLINOIS, L.L.C.",200 E ROOSEVELT,"VILLA PARK, IL 60181",http://maps.google.com/maps?q=BOND%20DRUG%20COMPANY%20OF%20ILLINOIS%20LLC%2C200%20E%20ROOSEVELT%2C+VILLA%20PARK%2C+IL+60181,
"BOND DRUG COMPANY OF ILLINOIS, L.L.C.",20002 WOLF RD,"MOKENA, IL 60448",http://maps.google.com/maps?q=BOND%20DRUG%20COMPANY%20OF%20ILLINOIS%20LLC%2C20002%20WOLF%20RD%2C+MOKENA%2C+IL+60448,
"BOND DRUG COMPANY OF ILLINOIS, L.L.C.",20950 GOVERNORS HWY.,"OLYMPIA FIELDS, IL 60461",http://maps.google.com/maps?q=BOND%20DRUG%20COMPANY%20OF%20ILLINOIS%20LLC%2C20950%20GOVERNORS%20HWY.%2C+OLYMPIA%20FIELDS%2C+IL+60461,
"BOND DRUG COMPANY OF ILLINOIS, L.L.C.",2560 W GOLF RD,"HOFFMAN ESTATES, IL 60169",http://maps.google.com/maps?q=BOND%20DRUG%20COMPANY%20OF%20ILLINOIS%20LLC%2C2560%20W%20GOLF%20RD%2C+HOFFMAN%20ESTATES%2C+IL+60169,
"BOND DRUG COMPANY OF ILLINOIS, L.L.C.",3035 BOOK RD,"NAPERVILLE, IL 60564",http://maps.google.com/maps?q=BOND%20DRUG%20COMPANY%20OF%20ILLINOIS%20LLC%2C3035%20BOOK%20RD%2C+NAPERVILLE%2C+IL+60564,
"BOND DRUG COMPANY OF ILLINOIS, L.L.C.",3153 W IRVING PARK RD,"CHICAGO, IL 60618",http://maps.google.com/maps?q=BOND%20DRUG%20COMPANY%20OF%20ILLINOIS%20LLC%2C3153%20W%20IRVING%20PARK%20RD%2C+CHICAGO%2C+IL+60618,
"BOND DRUG COMPANY OF ILLINOIS, L.L.C.",3201 N. BROADWAY ST.,"CHICAGO, IL 60657",http://maps.google.com/maps?q=BOND%20DRUG%20COMPANY%20OF%20ILLINOIS%20LLC%2C3201%20N.%20BROADWAY%20ST.%2C+CHICAGO%2C+IL+60657,
"BOND DRUG COMPANY OF ILLINOIS, L.L.C.",3564 RIDGE RD,"LANSING, IL 60438",http://maps.google.com/maps?q=BOND%20DRUG%20COMPANY%20OF%20ILLINOIS%20LLC%2C3564%20RIDGE%20RD%2C+LANSING%2C+IL+60438,
"BOND DRUG COMPANY OF ILLINOIS, L.L.C.",3925 W ELM STREET,"MCHENRY, IL 60050",http://maps.google.com/maps?q=BOND%20DRUG%20COMPANY%20OF%20ILLINOIS%20LLC%2C3925%20W%20ELM%20STREET%2C+MCHENRY%2C+IL+60050,
"BOND DRUG COMPANY OF ILLINOIS, L.L.C.",4343 N CENTRAL AVE,"CHICAGO, IL 60634",http://maps.google.com/maps?q=BOND%20DRUG%20COMPANY%20OF%20ILLINOIS%20LLC%2C4343%20N%20CENTRAL%20AVE%2C+CHICAGO%2C+IL+60634,
"BOND DRUG COMPANY OF ILLINOIS, L.L.C.",466 NELSON ROAD,"NEW LENOX, IL 60451",http://maps.google.com/maps?q=BOND%20DRUG%20COMPANY%20OF%20ILLINOIS%20LLC%2C466%20NELSON%20ROAD%2C+NEW%20LENOX%2C+IL+60451,
"BOND DRUG COMPANY OF ILLINOIS, L.L.C.",4748 W NORTH AVE,"CHICAGO, IL 60639",http://maps.google.com/maps?q=BOND%20DRUG%20COMPANY%20OF%20ILLINOIS%20LLC%2C4748%20W%20NORTH%20AVE%2C+CHICAGO%2C+IL+60639,
"BOND DRUG COMPANY OF ILLINOIS, L.L.C.",4800 148TH STREET,"MIDLOTHIAN, IL 60445",http://maps.google.com/maps?q=BOND%20DRUG%20COMPANY%20OF%20ILLINOIS%20LLC%2C4800%20148TH%20STREET%2C+MIDLOTHIAN%2C+IL+60445,
"BOND DRUG COMPANY OF ILLINOIS, L.L.C.",501 W ROOSEVELT RD,"CHICAGO, IL 60607",http://maps.google.com/maps?q=BOND%20DRUG%20COMPANY%20OF%20ILLINOIS%20LLC%2C501%20W%20ROOSEVELT%20RD%2C+CHICAGO%2C+IL+60607,
"BOND DRUG COMPANY OF ILLINOIS, L.L.C.",5435 S KEDZIE AVE,"CHICAGO, IL 60632",http://maps.google.com/maps?q=BOND%20DRUG%20COMPANY%20OF%20ILLINOIS%20LLC%2C5435%20S%20KEDZIE%20AVE%2C+CHICAGO%2C+IL+60632,
"BOND DRUG COMPANY OF ILLINOIS, L.L.C.",5600 W. FULLERTON,"CHICAGO, IL 60639",http://maps.google.com/maps?q=BOND%20DRUG%20COMPANY%20OF%20ILLINOIS%20LLC%2C5600%20W.%20FULLERTON%2C+CHICAGO%2C+IL+60639,
"BOND DRUG COMPANY OF ILLINOIS, L.L.C.",5625 N. RIDGE AVE,"CHICAGO, IL 60660",http://maps.google.com/maps?q=BOND%20DRUG%20COMPANY%20OF%20ILLINOIS%20LLC%2C5625%20N.%20RIDGE%20AVE%2C+CHICAGO%2C+IL+60660,
"BOND DRUG COMPANY OF ILLINOIS, L.L.C.",6 E NORTH AVE,"NORTHLAKE, IL 60164",http://maps.google.com/maps?q=BOND%20DRUG%20COMPANY%20OF%20ILLINOIS%20LLC%2C6%20E%20NORTH%20AVE%2C+NORTHLAKE%2C+IL+60164,
"BOND DRUG COMPANY OF ILLINOIS, L.L.C.",612 RAYMOND DR,"NAPERVILLE, IL 60563",http://maps.google.com/maps?q=BOND%20DRUG%20COMPANY%20OF%20ILLINOIS%20LLC%2C612%20RAYMOND%20DR%2C+NAPERVILLE%2C+IL+60563,
"BOND DRUG COMPANY OF ILLINOIS, L.L.C.",63 WEST 87TH ST,"NAPERVILLE, IL 60565",http://maps.google.com/maps?q=BOND%20DRUG%20COMPANY%20OF%20ILLINOIS%20LLC%2C63%20WEST%2087TH%20ST%2C+NAPERVILLE%2C+IL+60565,
"BOND DRUG COMPANY OF ILLINOIS, L.L.C.",641 N CLARK ST,"CHICAGO, IL 60654",http://maps.google.com/maps?q=BOND%20DRUG%20COMPANY%20OF%20ILLINOIS%20LLC%2C641%20N%20CLARK%20ST%2C+CHICAGO%2C+IL+60654,
"BOND DRUG COMPANY OF ILLINOIS, L.L.C.",655 ELM,"HIGHLAND PARK, IL 60035",http://maps.google.com/maps?q=BOND%20DRUG%20COMPANY%20OF%20ILLINOIS%20LLC%2C655%20ELM%2C+HIGHLAND%20PARK%2C+IL+60035,
"BOND DRUG COMPANY OF ILLINOIS, L.L.C.",709 N. GREEN BAY ROAD,"WAUKEGAN, IL 60085",http://maps.google.com/maps?q=BOND%20DRUG%20COMPANY%20OF%20ILLINOIS%20LLC%2C709%20N.%20GREEN%20BAY%20ROAD%2C+WAUKEGAN%2C+IL+60085,
"BOND DRUG COMPANY OF ILLINOIS, L.L.C.",7251 LAKE STREET,"RIVER FOREST, IL 60305",http://maps.google.com/maps?q=BOND%20DRUG%20COMPANY%20OF%20ILLINOIS%20LLC%2C7251%20LAKE%20STREET%2C+RIVER%20FOREST%2C+IL+60305,
"BOND DRUG COMPANY OF ILLINOIS, L.L.C.",7350 BARRINGTON RD.,"HANOVER PARK, IL 60133",http://maps.google.com/maps?q=BOND%20DRUG%20COMPANY%20OF%20ILLINOIS%20LLC%2C7350%20BARRINGTON%20RD.%2C+HANOVER%20PARK%2C+IL+60133,
"BOND DRUG COMPANY OF ILLINOIS, L.L.C.",780 WAUKEGAN RD,"DEERFIELD, IL 60015",http://maps.google.com/maps?q=BOND%20DRUG%20COMPANY%20OF%20ILLINOIS%20LLC%2C780%20WAUKEGAN%20RD%2C+DEERFIELD%2C+IL+60015,
"BOND DRUG COMPANY OF ILLINOIS, L.L.C.",811 MADISON ST,"OAK PARK, IL 60302",http://maps.google.com/maps?q=BOND%20DRUG%20COMPANY%20OF%20ILLINOIS%20LLC%2C811%20MADISON%20ST%2C+OAK%20PARK%2C+IL+60302,
"BOND DRUG COMPANY OF ILLINOIS, L.L.C.",9000 N. GREENWOOD AVE,"NILES, IL 60714",http://maps.google.com/maps?q=BOND%20DRUG%20COMPANY%20OF%20ILLINOIS%20LLC%2C9000%20N.%20GREENWOOD%20AVE%2C+NILES%2C+IL+60714,
"BOND DRUG COMPANY OF ILLINOIS, L.L.C.",910 NORTH RAND RD.,"LAKE ZURICH, IL 60047",http://maps.google.com/maps?q=BOND%20DRUG%20COMPANY%20OF%20ILLINOIS%20LLC%2C910%20NORTH%20RAND%20RD.%2C+LAKE%20ZURICH%2C+IL+60047,
CANN MEDICAL CENTER,CINCINNATI HEALTH DEPARTMENT,5818 MADISON ROAD,"CINCINNATI, OH 45227",http://maps.google.com/maps?q=CANN%20MEDICAL%20CENTER%2CCINCINNATI%20HEALTH%20DEPARTMENT%2C+CINCINNATI%2C+OH+45227
CAPT. JAMES A. LOVELL FEDERAL HEALTH CARE CENTER,2410 SAMPSON STREET,BLDG 237 (PHARMACY DEPARTMENT),"GREAT LAKES, IL 60088",http://maps.google.com/maps?q=CAPT%20JAMES%20A%20LOVELL%20FEDERAL%20HEALTH%20CARE%20CENTER%2C2410%20SAMPSON%20STREET%2C+GREAT%20LAKES%2C+IL+60088
CAPT. JAMES A. LOVELL FEDERAL HEALTH CARE CENTER,2430 ILLINOIS STREET,BLDG 1007 (PHARMACY DEPARTMENT),"GREAT LAKES, IL 60088",http://maps.google.com/maps?q=CAPT%20JAMES%20A%20LOVELL%20FEDERAL%20HEALTH%20CARE%20CENTER%2C2430%20ILLINOIS%20STREET%2C+GREAT%20LAKES%2C+IL+60088
CAPT. JAMES A. LOVELL FEDERAL HEALTH CARE CENTER,2630 GREEN BAY ROAD,BLDG 3452 (PHARMACY DEPARTMENT),"GREAT LAKES, IL 60088",http://maps.google.com/maps?q=CAPT%20JAMES%20A%20LOVELL%20FEDERAL%20HEALTH%20CARE%20CENTER%2C2630%20GREEN%20BAY%20ROAD%2C+GREAT%20LAKES%2C+IL+60088
CAPT. JAMES A. LOVELL FEDERAL HEALTH CARE CENTER,3440 OHIO STREET,BLDG 1017 (PHARMACY DEPARTMENT),"GREAT LAKES, IL 60088",http://maps.google.com/maps?q=CAPT%20JAMES%20A%20LOVELL%20FEDERAL%20HEALTH%20CARE%20CENTER%2C3440%20OHIO%20STREET%2C+GREAT%20LAKES%2C+IL+60088
"CARECENTER PHARMACY, L.L.C.","2775 SANDERS RD., STE C1","NORTHBROOK, IL 60062",http://maps.google.com/maps?q=CARECENTER%20PHARMACY%20LLC%2C2775%20SANDERS%20RD.%2C%20STE%20C1%2C+NORTHBROOK%2C+IL+60062,
CINCINNATI HEALTH DEPARTMENT,PRICE HILL HEALTH CENTER PHARMACY,2136 WEST 8TH STREET,"CINCINNATI, OH 45204",http://maps.google.com/maps?q=CINCINNATI%20HEALTH%20DEPARTMENT%2CPRICE%20HILL%20HEALTH%20CENTER%20PHARMACY%2C+CINCINNATI%2C+OH+45204
CINCINNATI HEALTH DEPT,2750 BEEKMAN STREET,"CINCINNATI, OH 45225",http://maps.google.com/maps?q=CINCINNATI%20HEALTH%20DEPT%2C2750%20BEEKMAN%20STREET%2C+CINCINNATI%2C+OH+45225,
COLUMBUS REGIONAL HOSPITAL,ATTN PHCY,2400 E SEVENTEENTH STREET,"COLUMBUS, IN 47201",http://maps.google.com/maps?q=COLUMBUS%20REGIONAL%20HOSPITAL%2CATTN%20PHCY%2C+COLUMBUS%2C+IN+47201
COTTAGE CORNER COMMUNITY,HEALTH CENTER PHARMACY,1434 S. SHELBY ST,"INDIANAPOLIS, IN 46203",http://maps.google.com/maps?q=COTTAGE%20CORNER%20COMMUNITY%2CHEALTH%20CENTER%20PHARMACY%2C+INDIANAPOLIS%2C+IN+46203
CROWDERS UPTOWN DRUG STORE,631 16TH STREET,P.O. BOX 966,"BEDFORD, IN 47421",http://maps.google.com/maps?q=CROWDERS%20UPTOWN%20DRUG%20STORE%2C631%2016TH%20STREET%2C+BEDFORD%2C+IN+47421
CUSTOM PLUS PHARMACY LLC,482 W NAVAJO ST STE A,"WEST LAFAYETTE, IN 47906",http://maps.google.com/maps?q=CUSTOM%20PLUS%20PHARMACY%20LLC%2C482%20W%20NAVAJO%20ST%20STE%20A%2C+WEST%20LAFAYETTE%2C+IN+47906,
DECATUR CTY MEMORIAL HOSPITAL,720 NORTH LINCOLN ST,"GREENSBURG, IN 47240",http://maps.google.com/maps?q=DECATUR%20CTY%20MEMORIAL%20HOSPITAL%2C720%20NORTH%20LINCOLN%20ST%2C+GREENSBURG%2C+IN+47240,
DEVILLE PHARMACIES,DBA DILLSBORO DRUGS,12836 NORTH ST,"DILLSBORO, IN 47018",http://maps.google.com/maps?q=DEVILLE%20PHARMACIES%2CDBA%20DILLSBORO%20DRUGS%2C+DILLSBORO%2C+IN+47018
DOUGLAS & OGDEN MED CTR PHAR,DBA DOUGLAS-MAIN PHARMACY,5207 MAIN ST STE#102,"DOWNERS GROVE, IL 60515",http://maps.google.com/maps?q=DOUGLAS%20%20OGDEN%20MED%20CTR%20PHAR%2CDBA%20DOUGLAS-MAIN%20PHARMACY%2C+DOWNERS%20GROVE%2C+IL+60515
EDWARD HOSPITAL,801 SOUTH WASHINGTON ST.,"NAPERVILLE, IL 60540",http://maps.google.com/maps?q=EDWARD%20HOSPITAL%2C801%20SOUTH%20WASHINGTON%20ST.%2C+NAPERVILLE%2C+IL+60540,
ELM STREET HEALTH CENTER,ELM STREET HEALTH CENTER PHARMACY,1525 ELM STREET,"CINCINNATI, OH 45202",http://maps.google.com/maps?q=ELM%20STREET%20HEALTH%20CENTER%2CELM%20STREET%20HEALTH%20CENTER%20PHARMACY%2C+CINCINNATI%2C+OH+45202
ELMHURST MEMORIAL HOSPITAL,155 EAST BRUSH HILL ROAD,RM. DL 380,"ELMHURST, IL 60126",http://maps.google.com/maps?q=ELMHURST%20MEMORIAL%20HOSPITAL%2C155%20EAST%20BRUSH%20HILL%20ROAD%2C+ELMHURST%2C+IL+60126
ESKENAZI HEALTH WEST 38TH STREET,5515 WEST 38TH STREET,SUITE 1200,"INDIANAPOLIS, IN 46254",http://maps.google.com/maps?q=ESKENAZI%20HEALTH%20WEST%20TH%20STREET%2C5515%20WEST%2038TH%20STREET%2C+INDIANAPOLIS%2C+IN+46254
"FAMILY HEALTH CENTER, INC",117 W PATERSON,"KALAMAZOO, MI 49007",http://maps.google.com/maps?q=FAMILY%20HEALTH%20CENTER%20INC%2C117%20W%20PATERSON%2C+KALAMAZOO%2C+MI+49007,
FAMILY HEALTH SERVICES OF,DARKE COUNTY INC.,5735 MEEKER ROAD,"GREENVILLE, OH 45331",http://maps.google.com/maps?q=FAMILY%20HEALTH%20SERVICES%20OF%2CDARKE%20COUNTY%20INC.%2C+GREENVILLE%2C+OH+45331
"FARLAND PHARMACY, INC.",2 NORTH CASS AVE,"WESTMONT, IL 60559",http://maps.google.com/maps?q=FARLAND%20PHARMACY%20INC%2C2%20NORTH%20CASS%20AVE%2C+WESTMONT%2C+IL+60559,
FOREST MANOR COMMUNITY HEALTH,CENTER PHARMACY,3840 N. SHERMAN DR.,"INDIANAPOLIS, IN 46226",http://maps.google.com/maps?q=FOREST%20MANOR%20COMMUNITY%20HEALTH%2CCENTER%20PHARMACY%2C+INDIANAPOLIS%2C+IN+46226
"FORUM EXTENDED CARE SERVICES II, INC.",4201 W VICTORIA ST,"CHICAGO, IL 60646",http://maps.google.com/maps?q=FORUM%20EXTENDED%20CARE%20SERVICES%20II%20INC%2C4201%20W%20VICTORIA%20ST%2C+CHICAGO%2C+IL+60646,
FRANCISCAN HEALTH MICHIGAN CITY,301 W HOMER,"MICHIGAN CITY, IN 46360",http://maps.google.com/maps?q=FRANCISCAN%20HEALTH%20MICHIGAN%20CITY%2C301%20W%20HOMER%2C+MICHIGAN%20CITY%2C+IN+46360,
FRANCISCAN HEALTH MOORESVILLE,1201 HADLEY RD,"MOORESVILLE, IN 46158",http://maps.google.com/maps?q=FRANCISCAN%20HEALTH%20MOORESVILLE%2C1201%20HADLEY%20RD%2C+MOORESVILLE%2C+IN+46158,
FRED'S NEIGHBORHOOD PHARMACY,320 S MAIN ST,"NEW CASTLE, IN 47362",http://maps.google.com/maps?q=FREDS%20NEIGHBORHOOD%20PHARMACY%2C320%20S%20MAIN%20ST%2C+NEW%20CASTLE%2C+IN+47362,
GARST RX,325 S MAIN ST,"FORTVILLE, IN 46040",http://maps.google.com/maps?q=GARST%20RX%2C325%20S%20MAIN%20ST%2C+FORTVILLE%2C+IN+46040,
"GENOA HEALTHCARE, LLC",1501 MADISON ROAD,3RD FL,"WALNUT HILLS, OH 45206",http://maps.google.com/maps?q=GENOA%20HEALTHCARE%20LLC%2C1501%20MADISON%20ROAD%2C+WALNUT%20HILLS%2C+OH+45206
GOOD SAMARITAN HOSPITAL,375 DIXMYTH AVENUE,"CINCINNATI, OH 45220",http://maps.google.com/maps?q=GOOD%20SAMARITAN%20HOSPITAL%2C375%20DIXMYTH%20AVENUE%2C+CINCINNATI%2C+OH+45220,
GRASSY CREEK COMMUNITY HEALTH,9443 E 38TH ST,"INDIANAPOLIS, IN 46235",http://maps.google.com/maps?q=GRASSY%20CREEK%20COMMUNITY%20HEALTH%2C9443%20E%2038TH%20ST%2C+INDIANAPOLIS%2C+IN+46235,
"GUARDIAN PHARMACY OF INDIANAPOLIS LTC, LLC",6530 CORPORATE DRIVE,"INDIANAPOLIS, IN 46278",http://maps.google.com/maps?q=GUARDIAN%20PHARMACY%20OF%20INDIANAPOLIS%20LTC%20LLC%2C6530%20CORPORATE%20DRIVE%2C+INDIANAPOLIS%2C+IN+46278,
HERBST APOTHECARY INC,201 N. DIXON RD.,"KOKOMO, IN 46901",http://maps.google.com/maps?q=HERBST%20APOTHECARY%20INC%2C201%20N.%20DIXON%20RD.%2C+KOKOMO%2C+IN+46901,
"HIGHLAND PARK CVS, L.L.C.",110 W. NORTH AVE.,"ELMHURST, IL 60126",http://maps.google.com/maps?q=HIGHLAND%20PARK%20CVS%20LLC%2C110%20W.%20NORTH%20AVE.%2C+ELMHURST%2C+IL+60126,
"HIGHLAND PARK CVS, L.L.C.",1101 S WATER ST,"WILMINGTON, IL 60481",http://maps.google.com/maps?q=HIGHLAND%20PARK%20CVS%20LLC%2C1101%20S%20WATER%20ST%2C+WILMINGTON%2C+IL+60481,
"HIGHLAND PARK CVS, L.L.C.",1305 RANDALL RD.,"CRYSTAL LAKE, IL 60014",http://maps.google.com/maps?q=HIGHLAND%20PARK%20CVS%20LLC%2C1305%20RANDALL%20RD.%2C+CRYSTAL%20LAKE%2C+IL+60014,
"HIGHLAND PARK CVS, L.L.C.",14290 SOUTH LA GRANGE RD.,"ORLAND PARK, IL 60462",http://maps.google.com/maps?q=HIGHLAND%20PARK%20CVS%20LLC%2C14290%20SOUTH%20LA%20GRANGE%20RD.%2C+ORLAND%20PARK%2C+IL+60462,
"HIGHLAND PARK CVS, L.L.C.",1500 LINCOLN HWY.,"ST CHARLES, IL 60174",http://maps.google.com/maps?q=HIGHLAND%20PARK%20CVS%20LLC%2C1500%20LINCOLN%20HWY.%2C+ST%20CHARLES%2C+IL+60174,
"HIGHLAND PARK CVS, L.L.C.",1539 CLAVEY RD.,"HIGHLAND PARK, IL 60035",http://maps.google.com/maps?q=HIGHLAND%20PARK%20CVS%20LLC%2C1539%20CLAVEY%20RD.%2C+HIGHLAND%20PARK%2C+IL+60035,
"HIGHLAND PARK CVS, L.L.C.",177 WEST VIRGINIA STREET,"CRYSTAL LAKE, IL 60014",http://maps.google.com/maps?q=HIGHLAND%20PARK%20CVS%20LLC%2C177%20WEST%20VIRGINIA%20STREET%2C+CRYSTAL%20LAKE%2C+IL+60014,
"HIGHLAND PARK CVS, L.L.C.",225 WEST COURT ST,"KANKAKEE, IL 60901",http://maps.google.com/maps?q=HIGHLAND%20PARK%20CVS%20LLC%2C225%20WEST%20COURT%20ST%2C+KANKAKEE%2C+IL+60901,
"HIGHLAND PARK CVS, L.L.C.",230 S COMET DR.,"BRAIDWOOD, IL 60408",http://maps.google.com/maps?q=HIGHLAND%20PARK%20CVS%20LLC%2C230%20S%20COMET%20DR.%2C+BRAIDWOOD%2C+IL+60408,
"HIGHLAND PARK CVS, L.L.C.",245 S BROADWAY ST.,"COAL CITY, IL 60416",http://maps.google.com/maps?q=HIGHLAND%20PARK%20CVS%20LLC%2C245%20S%20BROADWAY%20ST.%2C+COAL%20CITY%2C+IL+60416,
"HIGHLAND PARK CVS, L.L.C.",345 MADISON ST.,"OAK PARK, IL 60302",http://maps.google.com/maps?q=HIGHLAND%20PARK%20CVS%20LLC%2C345%20MADISON%20ST.%2C+OAK%20PARK%2C+IL+60302,
"HIGHLAND PARK CVS, L.L.C.",3900 WEST ELM ST.,"MCHENRY, IL 60050",http://maps.google.com/maps?q=HIGHLAND%20PARK%20CVS%20LLC%2C3900%20WEST%20ELM%20ST.%2C+MCHENRY%2C+IL+60050,
"HIGHLAND PARK CVS, L.L.C.",3951 W. 103RD ST.,"CHICAGO, IL 60655",http://maps.google.com/maps?q=HIGHLAND%20PARK%20CVS%20LLC%2C3951%20W.%20103RD%20ST.%2C+CHICAGO%2C+IL+60655,
"HIGHLAND PARK CVS, L.L.C.",47 S. LOCUST ST.,"MANTENO, IL 60950",http://maps.google.com/maps?q=HIGHLAND%20PARK%20CVS%20LLC%2C47%20S.%20LOCUST%20ST.%2C+MANTENO%2C+IL+60950,
"HIGHLAND PARK CVS, L.L.C.",470 S. TORRENCE AVE.,"CALUMET CITY, IL 60409",http://maps.google.com/maps?q=HIGHLAND%20PARK%20CVS%20LLC%2C470%20S.%20TORRENCE%20AVE.%2C+CALUMET%20CITY%2C+IL+60409,
"HIGHLAND PARK CVS, L.L.C.","6315 SOUTH PULASKI RD,","CHICAGO, IL 60629",http://maps.google.com/maps?q=HIGHLAND%20PARK%20CVS%20LLC%2C6315%20SOUTH%20PULASKI%20RD%2C%2C+CHICAGO%2C+IL+60629,
"HIGHLAND PARK CVS, L.L.C.",820 N. VERMILION,"DANVILLE, IL 61832",http://maps.google.com/maps?q=HIGHLAND%20PARK%20CVS%20LLC%2C820%20N.%20VERMILION%2C+DANVILLE%2C+IL+61832,
"HIGHLAND PARK CVS, L.L.C.",8712 SOUTH STONY ISLAND AVE.,"CHICAGO, IL 60617",http://maps.google.com/maps?q=HIGHLAND%20PARK%20CVS%20LLC%2C8712%20SOUTH%20STONY%20ISLAND%20AVE.%2C+CHICAGO%2C+IL+60617,
"HOOK-SUPERX, L.L.C.",10 EAST 81ST AVENUE,"MERRILLVILLE, IN 46410",http://maps.google.com/maps?q=HOOKSUPERX%20LLC%2C10%20EAST%2081ST%20AVENUE%2C+MERRILLVILLE%2C+IN+46410,
"HOOK-SUPERX, L.L.C.",100 NORTH DETROIT ST,"WARSAW, IN 46580",http://maps.google.com/maps?q=HOOKSUPERX%20LLC%2C100%20NORTH%20DETROIT%20ST%2C+WARSAW%2C+IN+46580,
"HOOK-SUPERX, L.L.C.",106 EAST MARKET STREET,"CRAWFORDSVILLE, IN 47933",http://maps.google.com/maps?q=HOOKSUPERX%20LLC%2C106%20EAST%20MARKET%20STREET%2C+CRAWFORDSVILLE%2C+IN+47933,
"HOOK-SUPERX, L.L.C.",111 LAKEVIEW DR.,"NOBLESVILLE, IN 46060",http://maps.google.com/maps?q=HOOKSUPERX%20LLC%2C111%20LAKEVIEW%20DR.%2C+NOBLESVILLE%2C+IN+46060,
"HOOK-SUPERX, L.L.C.",1195 E RIDGE RD,"GRIFFITH, IN 46319",http://maps.google.com/maps?q=HOOKSUPERX%20LLC%2C1195%20E%20RIDGE%20RD%2C+GRIFFITH%2C+IN+46319,
"HOOK-SUPERX, L.L.C.",1233 NORTH STATE ST.,"GREENFIELD, IN 46140",http://maps.google.com/maps?q=HOOKSUPERX%20LLC%2C1233%20NORTH%20STATE%20ST.%2C+GREENFIELD%2C+IN+46140,
"HOOK-SUPERX, L.L.C.",1301 119TH ST,"WHITING, IN 46394",http://maps.google.com/maps?q=HOOKSUPERX%20LLC%2C1301%20119TH%20ST%2C+WHITING%2C+IN+46394,
"HOOK-SUPERX, L.L.C.",1350 BROADWAY ST,"GARY, IN 46407",http://maps.google.com/maps?q=HOOKSUPERX%20LLC%2C1350%20BROADWAY%20ST%2C+GARY%2C+IN+46407,
"HOOK-SUPERX, L.L.C.",1375 WEST 86TH ST.,"INDIANAPOLIS, IN 46260",http://maps.google.com/maps?q=HOOKSUPERX%20LLC%2C1375%20WEST%2086TH%20ST.%2C+INDIANAPOLIS%2C+IN+46260,
"HOOK-SUPERX, L.L.C.",1407 LINCOLNWAY,"LAPORTE, IN 46350",http://maps.google.com/maps?q=HOOKSUPERX%20LLC%2C1407%20LINCOLNWAY%2C+LAPORTE%2C+IN+46350,
"HOOK-SUPERX, L.L.C.",1421 S. RANGE LINE RD.,"CARMEL, IN 46032",http://maps.google.com/maps?q=HOOKSUPERX%20LLC%2C1421%20S.%20RANGE%20LINE%20RD.%2C+CARMEL%2C+IN+46032,
"HOOK-SUPERX, L.L.C.",1545 NORTH MERIDIAN ST.,"INDIANAPOLIS, IN 46202",http://maps.google.com/maps?q=HOOKSUPERX%20LLC%2C1545%20NORTH%20MERIDIAN%20ST.%2C+INDIANAPOLIS%2C+IN+46202,
"HOOK-SUPERX, L.L.C.",1805 CALUMET AVE.,"VALPARAISO, IN 46383",http://maps.google.com/maps?q=HOOKSUPERX%20LLC%2C1805%20CALUMET%20AVE.%2C+VALPARAISO%2C+IN+46383,
"HOOK-SUPERX, L.L.C.",201 EAST TIPTON STREET,"SEYMOUR, IN 47274",http://maps.google.com/maps?q=HOOKSUPERX%20LLC%2C201%20EAST%20TIPTON%20STREET%2C+SEYMOUR%2C+IN+47274,
"HOOK-SUPERX, L.L.C.",201 S. TILLOTSON AVENUE,"MUNCIE, IN 47304",http://maps.google.com/maps?q=HOOKSUPERX%20LLC%2C201%20S.%20TILLOTSON%20AVENUE%2C+MUNCIE%2C+IN+47304,
"HOOK-SUPERX, L.L.C.",201 SOUTH JACKSON STREET,"FRANKFORT, IN 46041",http://maps.google.com/maps?q=HOOKSUPERX%20LLC%2C201%20SOUTH%20JACKSON%20STREET%2C+FRANKFORT%2C+IN+46041,
"HOOK-SUPERX, L.L.C.",21 WEST MAIN STREET,"BROWNSBURG, IN 46112",http://maps.google.com/maps?q=HOOKSUPERX%20LLC%2C21%20WEST%20MAIN%20STREET%2C+BROWNSBURG%2C+IN+46112,
"HOOK-SUPERX, L.L.C.",2106 BROADWAY ST,"EAST CHICAGO, IN 46312",http://maps.google.com/maps?q=HOOKSUPERX%20LLC%2C2106%20BROADWAY%20ST%2C+EAST%20CHICAGO%2C+IN+46312,
"HOOK-SUPERX, L.L.C.",2272 NORTH MAIN ST.,"CROWNPOINT, IN 46307",http://maps.google.com/maps?q=HOOKSUPERX%20LLC%2C2272%20NORTH%20MAIN%20ST.%2C+CROWNPOINT%2C+IN+46307,
"HOOK-SUPERX, L.L.C.",2340 W SYCAMORE,"KOKOMO, IN 46901",http://maps.google.com/maps?q=HOOKSUPERX%20LLC%2C2340%20W%20SYCAMORE%2C+KOKOMO%2C+IN+46901,
"HOOK-SUPERX, L.L.C.",2423 N. NATIONAL RD.,"COLUMBUS, IN 47201",http://maps.google.com/maps?q=HOOKSUPERX%20LLC%2C2423%20N.%20NATIONAL%20RD.%2C+COLUMBUS%2C+IN+47201,
"HOOK-SUPERX, L.L.C.",265 SO. SCATTERFIELD RD,"ANDERSON, IN 46012",http://maps.google.com/maps?q=HOOKSUPERX%20LLC%2C265%20SO.%20SCATTERFIELD%20RD%2C+ANDERSON%2C+IN+46012,
"HOOK-SUPERX, L.L.C.",2701 EAST 3RD ST.,"BLOOMINGTON, IN 47401",http://maps.google.com/maps?q=HOOKSUPERX%20LLC%2C2701%20EAST%203RD%20ST.%2C+BLOOMINGTON%2C+IN+47401,
"HOOK-SUPERX, L.L.C.","3240 WILLOWCREEK RD.,","PORTAGE, IN 46368",http://maps.google.com/maps?q=HOOKSUPERX%20LLC%2C3240%20WILLOWCREEK%20RD.%2C%2C+PORTAGE%2C+IN+46368,
"HOOK-SUPERX, L.L.C.",3253 FRANKLIN ST.,"MICHIGAN CITY, IN 46360",http://maps.google.com/maps?q=HOOKSUPERX%20LLC%2C3253%20FRANKLIN%20ST.%2C+MICHIGAN%20CITY%2C+IN+46360,
"HOOK-SUPERX, L.L.C.",3400 N CALUMET AVE,"VALPARAISO, IN 46383",http://maps.google.com/maps?q=HOOKSUPERX%20LLC%2C3400%20N%20CALUMET%20AVE%2C+VALPARAISO%2C+IN+46383,
"HOOK-SUPERX, L.L.C.",3705 KENTUCKY AVE,"INDIANAPOLIS, IN 46221",http://maps.google.com/maps?q=HOOKSUPERX%20LLC%2C3705%20KENTUCKY%20AVE%2C+INDIANAPOLIS%2C+IN+46221,
"HOOK-SUPERX, L.L.C.",415 W. 3RD ST.,"MARION, IN 46952",http://maps.google.com/maps?q=HOOKSUPERX%20LLC%2C415%20W.%203RD%20ST.%2C+MARION%2C+IN+46952,
"HOOK-SUPERX, L.L.C.",512 E. SEYMOUR ST.,"KENTLAND, IN 47951",http://maps.google.com/maps?q=HOOKSUPERX%20LLC%2C512%20E.%20SEYMOUR%20ST.%2C+KENTLAND%2C+IN+47951,
"HOOK-SUPERX, L.L.C.",512 SAGAMORE PKWY WEST,"WEST LAFAYETTE, IN 47906",http://maps.google.com/maps?q=HOOKSUPERX%20LLC%2C512%20SAGAMORE%20PKWY%20WEST%2C+WEST%20LAFAYETTE%2C+IN+47906,
"HOOK-SUPERX, L.L.C.",523 SOUTH STATE ROAD 67,"MOORESVILLE, IN 46158",http://maps.google.com/maps?q=HOOKSUPERX%20LLC%2C523%20SOUTH%20STATE%20ROAD%2067%2C+MOORESVILLE%2C+IN+46158,
"HOOK-SUPERX, L.L.C.",5611 GEORGETOWN RD.,"INDIANAPOLIS, IN 46254",http://maps.google.com/maps?q=HOOKSUPERX%20LLC%2C5611%20GEORGETOWN%20RD.%2C+INDIANAPOLIS%2C+IN+46254,
"HOOK-SUPERX, L.L.C.",6445 CALUMET AVE.,"HAMMOND, IN 46324",http://maps.google.com/maps?q=HOOKSUPERX%20LLC%2C6445%20CALUMET%20AVE.%2C+HAMMOND%2C+IN+46324,
"HOOK-SUPERX, L.L.C.",655 S. US HIGHWAY 31,"GREENWOOD, IN 46142",http://maps.google.com/maps?q=HOOKSUPERX%20LLC%2C655%20S.%20US%20HIGHWAY%2031%2C+GREENWOOD%2C+IN+46142,
"HOOK-SUPERX, L.L.C.",713 S WASHINGTON ST,"CRAWFORDSVILLE, IN 47933",http://maps.google.com/maps?q=HOOKSUPERX%20LLC%2C713%20S%20WASHINGTON%20ST%2C+CRAWFORDSVILLE%2C+IN+47933,
"HOOK-SUPERX, L.L.C.",7915-C SOUTH EMERSON AVE,"INDIANAPOLIS, IN 46237",http://maps.google.com/maps?q=HOOKSUPERX%20LLC%2C7915-C%20SOUTH%20EMERSON%20AVE%2C+INDIANAPOLIS%2C+IN+46237,
"HOOK-SUPERX, L.L.C.",7990 E US HIGHWAY 36,"AVON, IN 46123",http://maps.google.com/maps?q=HOOKSUPERX%20LLC%2C7990%20E%20US%20HIGHWAY%2036%2C+AVON%2C+IN+46123,
"HOOK-SUPERX, L.L.C.",8935 EAST 21ST STREET,"INDIANAPOLIS, IN 46219",http://maps.google.com/maps?q=HOOKSUPERX%20LLC%2C8935%20EAST%2021ST%20STREET%2C+INDIANAPOLIS%2C+IN+46219,
"HOOK-SUPERX, L.L.C.",8970 S. MERIDIAN ST.,"INDIANAPOLIS, IN 46217",http://maps.google.com/maps?q=HOOKSUPERX%20LLC%2C8970%20S.%20MERIDIAN%20ST.%2C+INDIANAPOLIS%2C+IN+46217,
"HOOK-SUPERX, L.L.C.",905 POPLAR ST.,"TERRE HAUTE, IN 47807",http://maps.google.com/maps?q=HOOKSUPERX%20LLC%2C905%20POPLAR%20ST.%2C+TERRE%20HAUTE%2C+IN+47807,
HUDSON DRUG SHOP,108 N MARKET ST,PO BOX 70,"PAXTON, IL 60957",http://maps.google.com/maps?q=HUDSON%20DRUG%20SHOP%2C108%20N%20MARKET%20ST%2C+PAXTON%2C+IL+60957
INDIANA HEMOPHILIA-THROMBOSIS,8326 NAAB RD,"INDIANAPOLIS, IN 46260",http://maps.google.com/maps?q=INDIANA%20HEMOPHILIATHROMBOSIS%2C8326%20NAAB%20RD%2C+INDIANAPOLIS%2C+IN+46260,
"INDIANA UNIVERSITY HEALTH FRANKFORT, INC.",1300 SOUTH JACKSON STREET,INPATIENT PHARMACY,"FRANKFORT, IN 46041",http://maps.google.com/maps?q=INDIANA%20UNIVERSITY%20HEALTH%20FRANKFORT%20INC%2C1300%20SOUTH%20JACKSON%20STREET%2C+FRANKFORT%2C+IN+46041
"INDIANA UNIVERSITY HEALTH, INC",1111 N. RONALD REAGAN PKWY,"AVON, IN 46123",http://maps.google.com/maps?q=INDIANA%20UNIVERSITY%20HEALTH%20INC%2C1111%20N.%20RONALD%20REAGAN%20PKWY%2C+AVON%2C+IN+46123,
"INDIANA UNIVERSITY HEALTH, INC",13100 E 136TH STREET,SUITE 1000,"FISHERS, IN 46037",http://maps.google.com/maps?q=INDIANA%20UNIVERSITY%20HEALTH%20INC%2C13100%20E%20136TH%20STREET%2C+FISHERS%2C+IN+46037
"INDIANA UNIVERSITY HEALTH, INC",2209 JOHN R WOODEN DR,"MARTINSVILLE, IN 46151",http://maps.google.com/maps?q=INDIANA%20UNIVERSITY%20HEALTH%20INC%2C2209%20JOHN%20R%20WOODEN%20DR%2C+MARTINSVILLE%2C+IN+46151,
"INDIANA UNIVERSITY HEALTH, INC.",11700 NORTH MERIDIAN STREET,B106,"CARMEL, IN 46032",http://maps.google.com/maps?q=INDIANA%20UNIVERSITY%20HEALTH%20INC%2C11700%20NORTH%20MERIDIAN%20STREET%2C+CARMEL%2C+IN+46032
"INDIANA UNIVERSITY HEALTH, INC.",1801 SENATE BLVD STE 105,"INDIANAPOLIS, IN 46202",http://maps.google.com/maps?q=INDIANA%20UNIVERSITY%20HEALTH%20INC%2C1801%20SENATE%20BLVD%20STE%20105%2C+INDIANAPOLIS%2C+IN+46202,
"INDIANA UNIVERSITY HEALTH, INC.",550 UNIVERSITY BLVD,UH1425,"INDIANAPOLIS, IN 46202",http://maps.google.com/maps?q=INDIANA%20UNIVERSITY%20HEALTH%20INC%2C550%20UNIVERSITY%20BLVD%2C+INDIANAPOLIS%2C+IN+46202
"INDIANA UNIVERSITY HEALTH, INC.",705 RILEY HOSPITAL DR.,STE 1201,"INDIANAPOLIS, IN 46202",http://maps.google.com/maps?q=INDIANA%20UNIVERSITY%20HEALTH%20INC%2C705%20RILEY%20HOSPITAL%20DR.%2C+INDIANAPOLIS%2C+IN+46202
"INTERDEPENDENT PHARMACY, LLC",404 NORTH SEYMOUR AVENUE,"MUNDELEIN, IL 60060",http://maps.google.com/maps?q=INTERDEPENDENT%20PHARMACY%20LLC%2C404%20NORTH%20SEYMOUR%20AVENUE%2C+MUNDELEIN%2C+IL+60060,
IU HEALTH ARNETT RETAIL PHARMACY,5165 MCCARTY LN,ROOM A1009,"LAFAYETTE, IN 47905",http://maps.google.com/maps?q=IU%20HEALTH%20ARNETT%20RETAIL%20PHARMACY%2C5165%20MCCARTY%20LN%2C+LAFAYETTE%2C+IN+47905
"IU HEALTH BALL MEMORIAL HOSPITAL, INC.",1420 S. PILGRIM BLVD.,"YORKTOWN, IN 47396",http://maps.google.com/maps?q=IU%20HEALTH%20BALL%20MEMORIAL%20HOSPITAL%20INC%2C1420%20S.%20PILGRIM%20BLVD.%2C+YORKTOWN%2C+IN+47396,
"IU HEALTH BALL MEMORIAL HOSPITAL, INC.",2401 W. UNIVERSITY AVE.,OMP 1635,"MUNCIE, IN 47303",http://maps.google.com/maps?q=IU%20HEALTH%20BALL%20MEMORIAL%20HOSPITAL%20INC%2C2401%20W.%20UNIVERSITY%20AVE.%2C+MUNCIE%2C+IN+47303
"IU HEALTH BALL MEMORIAL HOSPITAL, INC.",400 PILGRIM BLVD.,"HARTFORD CITY, IN 47348",http://maps.google.com/maps?q=IU%20HEALTH%20BALL%20MEMORIAL%20HOSPITAL%20INC%2C400%20PILGRIM%20BLVD.%2C+HARTFORD%20CITY%2C+IN+47348,
"IU HEALTH BALL MEMORIAL HOSPITAL, INC.",5501 W. BETHEL AVE,"MUNCIE, IN 47304",http://maps.google.com/maps?q=IU%20HEALTH%20BALL%20MEMORIAL%20HOSPITAL%20INC%2C5501%20W.%20BETHEL%20AVE%2C+MUNCIE%2C+IN+47304,
IU HEALTH WEST HOSPITAL,INPATIENT PHARMACY,1111 N. RONALD REAGAN PARKWAY,"AVON, IN 46123",http://maps.google.com/maps?q=IU%20HEALTH%20WEST%20HOSPITAL%2CINPATIENT%20PHARMACY%2C+AVON%2C+IN+46123
J D BROWN & CO,837 PLAINFIELD ROAD,"JOLIET, IL 60435",http://maps.google.com/maps?q=J%20D%20BROWN%20%20CO%2C837%20PLAINFIELD%20ROAD%2C+JOLIET%2C+IL+60435,
LAKELAND MEDICAL CENTER,31 N SAINT JOSEPH AVE,"NILES, MI 49120",http://maps.google.com/maps?q=LAKELAND%20MEDICAL%20CENTER%2C31%20N%20SAINT%20JOSEPH%20AVE%2C+NILES%2C+MI+49120,
LAKELAND MEDICAL CENTER ST JOSEPH,1234 NAPIER AVENUE,"ST JOSEPH, MI 49085",http://maps.google.com/maps?q=LAKELAND%20MEDICAL%20CENTER%20ST%20JOSEPH%2C1234%20NAPIER%20AVENUE%2C+ST%20JOSEPH%2C+MI+49085,
LAKELAND PHARMACY SHOPPE,3900 HOLLYWOOD ROAD,"ST JOSEPH, MI 49085",http://maps.google.com/maps?q=LAKELAND%20PHARMACY%20SHOPPE%2C3900%20HOLLYWOOD%20ROAD%2C+ST%20JOSEPH%2C+MI+49085,
LAWNDALE CHRISTIAN HLTH CTR,PHARMACY,3860 WEST OGDEN AVENUE,"CHICAGO, IL 60623",http://maps.google.com/maps?q=LAWNDALE%20CHRISTIAN%20HLTH%20CTR%2CPHARMACY%2C+CHICAGO%2C+IL+60623
LIFELINE INSTITUTIONAL PHARMACY,3699 SYMMES RD,SUITE 1,"HAMILTON, OH 45015",http://maps.google.com/maps?q=LIFELINE%20INSTITUTIONAL%20PHARMACY%2C3699%20SYMMES%20RD%2C+HAMILTON%2C+OH+45015
LINCOLN PLAZA PHARMACY LLC,629 LINCOLN AVE,P.O. BOX 966,"BEDFORD, IN 47421",http://maps.google.com/maps?q=LINCOLN%20PLAZA%20PHARMACY%20LLC%2C629%20LINCOLN%20AVE%2C+BEDFORD%2C+IN+47421
"MARGARET MARY COMMUNITY HOSPITAL, INC",ATTN PHARMACY,321 MITCHELL AVENUE,"BATESVILLE, IN 47006",http://maps.google.com/maps?q=MARGARET%20MARY%20COMMUNITY%20HOSPITAL%20INC%2CATTN%20PHARMACY%2C+BATESVILLE%2C+IN+47006
MARTIN'S PHARMACY,926 ERSKINE PLAZA,"SOUTH BEND, IN 46614",http://maps.google.com/maps?q=MARTINS%20PHARMACY%2C926%20ERSKINE%20PLAZA%2C+SOUTH%20BEND%2C+IN+46614,
MARTIN'S PHARMACY #25,7355 HERITAGE SQUARE DRIVE,"GRANGER, IN 46530",http://maps.google.com/maps?q=MARTINS%20PHARMACY%2C7355%20HERITAGE%20SQUARE%20DRIVE%2C+GRANGER%2C+IN+46530,
MARTIN'S PHARMACY #8,525 S. MAYFLOWER RD.,"SOUTH BEND, IN 46619",http://maps.google.com/maps?q=MARTINS%20PHARMACY%2C525%20S.%20MAYFLOWER%20RD.%2C+SOUTH%20BEND%2C+IN+46619,
"MEDICATION MANAGEMENT PARTNERS, LLC",13601 KENTON AVE,"CRESTWOOD, IL 60418",http://maps.google.com/maps?q=MEDICATION%20MANAGEMENT%20PARTNERS%20LLC%2C13601%20KENTON%20AVE%2C+CRESTWOOD%2C+IL+60418,
MERCY HEALTH - WEST HOSPITAL,3300 MERCY HEALTH BOULEVARD,"CINCINNATI, OH 45211",http://maps.google.com/maps?q=MERCY%20HEALTH%20%20WEST%20HOSPITAL%2C3300%20MERCY%20HEALTH%20BOULEVARD%2C+CINCINNATI%2C+OH+45211,
MERCY HEALTH - WEST RETAIL PHARMACY,3300 MERCY HEALTH BOULEVARD,ATTN: PHARMACY DEPARTMENT,"CINCINNATI, OH 45211",http://maps.google.com/maps?q=MERCY%20HEALTH%20%20WEST%20RETAIL%20PHARMACY%2C3300%20MERCY%20HEALTH%20BOULEVARD%2C+CINCINNATI%2C+OH+45211
MERCY HOSPITAL,3000 MACK ROAD,ATTENTION PHARMACY LOWER LEVEL,"FAIRFIELD, OH 45014",http://maps.google.com/maps?q=MERCY%20HOSPITAL%2C3000%20MACK%20ROAD%2C+FAIRFIELD%2C+OH+45014
MIDTOWN COMMUNITY MENTAL HLTH,CENTER PHARMACY,1700 NORTH ILLINOIS,"INDIANAPOLIS, IN 46202",http://maps.google.com/maps?q=MIDTOWN%20COMMUNITY%20MENTAL%20HLTH%2CCENTER%20PHARMACY%2C+INDIANAPOLIS%2C+IN+46202
MULLANEY'S LTC PHARMACY,6096 MONTGOMERY RD SUITE B,"CINCINNATI, OH 45213",http://maps.google.com/maps?q=MULLANEYS%20LTC%20PHARMACY%2C6096%20MONTGOMERY%20RD%20SUITE%20B%2C+CINCINNATI%2C+OH+45213,
NORTH ARLINGTON COMMUNITY,HEALTH CENTER PHARMACY,2505 N. ALRLINGTON,"INDIANAPOLIS, IN 46219",http://maps.google.com/maps?q=NORTH%20ARLINGTON%20COMMUNITY%2CHEALTH%20CENTER%20PHARMACY%2C+INDIANAPOLIS%2C+IN+46219
NORTH SHORE PHARMACY,2490 CENTRAL AVENUE,"LAKE STATION, IN 46405",http://maps.google.com/maps?q=NORTH%20SHORE%20PHARMACY%2C2490%20CENTRAL%20AVENUE%2C+LAKE%20STATION%2C+IN+46405,
NORTHSHORE HEALTH CENTER,3564 SCOTTSDALE ST.,"PORTAGE, IN 46368",http://maps.google.com/maps?q=NORTHSHORE%20HEALTH%20CENTER%2C3564%20SCOTTSDALE%20ST.%2C+PORTAGE%2C+IN+46368,
NORTHSIDE HEALTH CENTER,CINCINNATI HEALTH DEPARTMENT,3917 SPRING GROVE AVE,"CINCINNATI, OH 45223",http://maps.google.com/maps?q=NORTHSIDE%20HEALTH%20CENTER%2CCINCINNATI%20HEALTH%20DEPARTMENT%2C+CINCINNATI%2C+OH+45223
NORTHWESTERN MEMORIAL HOSP,251 E. HURON,"CHICAGO, IL 60611",http://maps.google.com/maps?q=NORTHWESTERN%20MEMORIAL%20HOSP%2C251%20E.%20HURON%2C+CHICAGO%2C+IL+60611,
"OHIO CVS STORES, L.L.C.",17 WILLIAM H. TAFT RD.,"CINCINNATI, OH 45219",http://maps.google.com/maps?q=OHIO%20CVS%20STORES%20LLC%2C17%20WILLIAM%20H.%20TAFT%20RD.%2C+CINCINNATI%2C+OH+45219,
"OHIO CVS STORES, L.L.C.",28 N. BROOKWOOD AVE.,"HAMILTON, OH 45013",http://maps.google.com/maps?q=OHIO%20CVS%20STORES%20LLC%2C28%20N.%20BROOKWOOD%20AVE.%2C+HAMILTON%2C+OH+45013,
"OHIO CVS STORES, L.L.C.",7217 CINCINNATI-DAYTON ROAD,"WEST CHESTER, OH 45069",http://maps.google.com/maps?q=OHIO%20CVS%20STORES%20LLC%2C7217%20CINCINNATI-DAYTON%20ROAD%2C+WEST%20CHESTER%2C+OH+45069,
OSF HEALTHCARE SYSTEM,812 N. LOGAN AVENUE,"DANVILLE, IL 61832",http://maps.google.com/maps?q=OSF%20HEALTHCARE%20SYSTEM%2C812%20N.%20LOGAN%20AVENUE%2C+DANVILLE%2C+IL+61832,
PAW PAW VILLAGE DRUGS,322 E. MICHIGAN AVENUE,"PAW PAW, MI 49079",http://maps.google.com/maps?q=PAW%20PAW%20VILLAGE%20DRUGS%2C322%20E.%20MICHIGAN%20AVENUE%2C+PAW%20PAW%2C+MI+49079,
PECAR COMMUNITY HEALTH CENTER PHARMACY,6940 N MICHIGAN ROAD,"INDIANAPOLIS, IN 46268",http://maps.google.com/maps?q=PECAR%20COMMUNITY%20HEALTH%20CENTER%20PHARMACY%2C6940%20N%20MICHIGAN%20ROAD%2C+INDIANAPOLIS%2C+IN+46268,
"PHARMACY CARE SOLUTIONS, INC",2323 N. MARR ROAD,"COLUMBUS, IN 47203",http://maps.google.com/maps?q=PHARMACY%20CARE%20SOLUTIONS%20INC%2C2323%20N.%20MARR%20ROAD%2C+COLUMBUS%2C+IN+47203,
PHARMANEEK INC,7345 WOODLAND DR.,SUITE A,"INDIANAPOLIS, IN 46278",http://maps.google.com/maps?q=PHARMANEEK%20INC%2C7345%20WOODLAND%20DR.%2C+INDIANAPOLIS%2C+IN+46278
PHILS DISCOUNT DRUGS,702 E. LINCOLNWAY,"LAPORTE, IN 46350",http://maps.google.com/maps?q=PHILS%20DISCOUNT%20DRUGS%2C702%20E.%20LINCOLNWAY%2C+LAPORTE%2C+IN+46350,
POKAGON BAND OF POTAWATOMI INDIANS,32652 KNO DRIVE,"DOWAGIAC, MI 49047",http://maps.google.com/maps?q=POKAGON%20BAND%20OF%20POTAWATOMI%20INDIANS%2C32652%20KNO%20DRIVE%2C+DOWAGIAC%2C+MI+49047,
PRESENCE LIFE CONNECTIONS PHARMACY,670 N CONVENT STREET,"BOURBONNAIS, IL 60914",http://maps.google.com/maps?q=PRESENCE%20LIFE%20CONNECTIONS%20PHARMACY%2C670%20N%20CONVENT%20STREET%2C+BOURBONNAIS%2C+IL+60914,
PRESENCE RHC SENIOR SERVICES,100 N RIVER ROAD,"DES PLAINES, IL 60016",http://maps.google.com/maps?q=PRESENCE%20RHC%20SENIOR%20SERVICES%2C100%20N%20RIVER%20ROAD%2C+DES%20PLAINES%2C+IL+60016,
PULASKI MEMORIAL HOSPITAL,616 E 13TH STREET,P O BOX 279,"WINAMAC, IN 46996",http://maps.google.com/maps?q=PULASKI%20MEMORIAL%20HOSPITAL%2C616%20E%2013TH%20STREET%2C+WINAMAC%2C+IN+46996
PURDUE UNIVERSITY PHARMACY,HEINE PHARMACY BUILDING RM 118,575 STADIUM MALL DRIVE,"WEST LAFAYETTE, IN 47907",http://maps.google.com/maps?q=PURDUE%20UNIVERSITY%20PHARMACY%2CHEINE%20PHARMACY%20BUILDING%20RM%20118%2C+WEST%20LAFAYETTE%2C+IN+47907
REID HOSP & HLTH CARE SRVS,1100 REID PARKWAY,ATTN: PHARMACY,"RICHMOND, IN 47374",http://maps.google.com/maps?q=REID%20HOSP%20%20HLTH%20CARE%20SRVS%2C1100%20REID%20PARKWAY%2C+RICHMOND%2C+IN+47374
RIVERSIDE FAMILY PHARMACY,350 N WALL STREET,"KANKAKEE, IL 60901",http://maps.google.com/maps?q=RIVERSIDE%20FAMILY%20PHARMACY%2C350%20N%20WALL%20STREET%2C+KANKAKEE%2C+IL+60901,
RUSH MEMORIAL HOSPITAL,1300 N. MAIN STREET,PO BOX 608,"RUSHVILLE, IN 46173",http://maps.google.com/maps?q=RUSH%20MEMORIAL%20HOSPITAL%2C1300%20N.%20MAIN%20STREET%2C+RUSHVILLE%2C+IN+46173
RUSH UNIVERSITY MEDICAL CTR,ATTN CHIEF PHARMACIST,1653 WEST CONGRESS PARKWAY,"CHICAGO, IL 60612",http://maps.google.com/maps?q=RUSH%20UNIVERSITY%20MEDICAL%20CTR%2CATTN%20CHIEF%20PHARMACIST%2C+CHICAGO%2C+IL+60612
SCHNECK MEDICAL CENTER,411 WEST TIPTON STREET,"SEYMOUR, IN 47274",http://maps.google.com/maps?q=SCHNECK%20MEDICAL%20CENTER%2C411%20WEST%20TIPTON%20STREET%2C+SEYMOUR%2C+IN+47274,
SHAKAMAK HEALTH INC,346 E MAIN ST,"JASONVILLE, IN 47438",http://maps.google.com/maps?q=SHAKAMAK%20HEALTH%20INC%2C346%20E%20MAIN%20ST%2C+JASONVILLE%2C+IN+47438,
SINDECUSE HEALTH CENTER,NORTH GILKISON AVENUE,"KALAMAZOO, MI 49008",http://maps.google.com/maps?q=SINDECUSE%20HEALTH%20CENTER%2CNORTH%20GILKISON%20AVENUE%2C+KALAMAZOO%2C+MI+49008,
ST VINCENT JENNINGS HOSPITAL,301 HENRY STREET,"NORTH VERNON, IN 47265",http://maps.google.com/maps?q=ST%20VINCENT%20JENNINGS%20HOSPITAL%2C301%20HENRY%20STREET%2C+NORTH%20VERNON%2C+IN+47265,
ST. MARGARET'S PHARMACY AT ESKENAZI HEALTH,720 ESKENAZI AVENUE,"INDIANAPOLIS, IN 46202",http://maps.google.com/maps?q=ST%20MARGARETS%20PHARMACY%20AT%20ESKENAZI%20HEALTH%2C720%20ESKENAZI%20AVENUE%2C+INDIANAPOLIS%2C+IN+46202,
ST. VINCENT MERCY HOSPITAL,1331 SOUTH A STREET,"ELWOOD, IN 46036",http://maps.google.com/maps?q=ST%20VINCENT%20MERCY%20HOSPITAL%2C1331%20SOUTH%20A%20STREET%2C+ELWOOD%2C+IN+46036,
ST. VINCENT PHARMACY,2001 WEST 86TH STREET,"INDIANAPOLIS, IN 46260",http://maps.google.com/maps?q=ST%20VINCENT%20PHARMACY%2C2001%20WEST%2086TH%20STREET%2C+INDIANAPOLIS%2C+IN+46260,
"ST. VINCENT SALEM HOSPITAL, INC.",911 NORTH SHELBY STREET,"SALEM, IN 47167",http://maps.google.com/maps?q=ST%20VINCENT%20SALEM%20HOSPITAL%20INC%2C911%20NORTH%20SHELBY%20STREET%2C+SALEM%2C+IN+47167,
SYMBRIA RX SERVICES LLC,350 W. SCHAUMBURG ROAD,SUITE PWD,"SCHAUMBURG, IL 60194",http://maps.google.com/maps?q=SYMBRIA%20RX%20SERVICES%20LLC%2C350%20W.%20SCHAUMBURG%20ROAD%2C+SCHAUMBURG%2C+IL+60194
TECHNI MED INC,340 MARSHALL AVENUE,UNIT 100,"AURORA, IL 60506",http://maps.google.com/maps?q=TECHNI%20MED%20INC%2C340%20MARSHALL%20AVENUE%2C+AURORA%2C+IL+60506
THE JEWISH HOSPITAL,4777 E GALBRAITH RD,"CINCINNATI, OH 45236",http://maps.google.com/maps?q=THE%20JEWISH%20HOSPITAL%2C4777%20E%20GALBRAITH%20RD%2C+CINCINNATI%2C+OH+45236,
THIES LOMBARD PHARMACY INC,211 S MAIN ST,"LOMBARD, IL 60148",http://maps.google.com/maps?q=THIES%20LOMBARD%20PHARMACY%20INC%2C211%20S%20MAIN%20ST%2C+LOMBARD%2C+IL+60148,
THREE RIVERS HEALTH,701 S. HEALTH PARKWAY,"THREE RIVERS, MI 49093",http://maps.google.com/maps?q=THREE%20RIVERS%20HEALTH%2C701%20S.%20HEALTH%20PARKWAY%2C+THREE%20RIVERS%2C+MI+49093,
UNIVERSITY OF CHICAGO DCAM OUTPATIENT PHARMACY,5758 S. MARYLAND AVE.,MC0010,"CHICAGO, IL 60637",http://maps.google.com/maps?q=UNIVERSITY%20OF%20CHICAGO%20DCAM%20OUTPATIENT%20PHARMACY%2C5758%20S.%20MARYLAND%20AVE.%2C+CHICAGO%2C+IL+60637
VANS PHARMACY INC,807 NAPIER AVENUE,"SAINT JOSEPH, MI 49085",http://maps.google.com/maps?q=VANS%20PHARMACY%20INC%2C807%20NAPIER%20AVENUE%2C+SAINT%20JOSEPH%2C+MI+49085,
VYTO'S PHARMACY,6949 KENNEDY AVENUE,UNIT C,"HAMMOND, IN 46323",http://maps.google.com/maps?q=VYTOS%20PHARMACY%2C6949%20KENNEDY%20AVENUE%2C+HAMMOND%2C+IN+46323
WALGREEN CO,124 W VOTAW STREET,"PORTLAND, IN 47371",http://maps.google.com/maps?q=WALGREEN%20CO%2C124%20W%20VOTAW%20STREET%2C+PORTLAND%2C+IN+47371,
WALGREEN CO,2400 W SYCAMORE STREET,"KOKOMO, IN 46901",http://maps.google.com/maps?q=WALGREEN%20CO%2C2400%20W%20SYCAMORE%20STREET%2C+KOKOMO%2C+IN+46901,
WALGREEN CO,6745 E SOUTHPORT ROAD,"INDIANAPOLIS, IN 46237",http://maps.google.com/maps?q=WALGREEN%20CO%2C6745%20E%20SOUTHPORT%20ROAD%2C+INDIANAPOLIS%2C+IN+46237,
WALGREEN CO.,100 N. MEMORIAL DR,"NEW CASTLE, IN 47362",http://maps.google.com/maps?q=WALGREEN%20CO%2C100%20N.%20MEMORIAL%20DR%2C+NEW%20CASTLE%2C+IN+47362,
WALGREEN CO.,100 W VETERANS PKWY,"YORKVILLE, IL 60560",http://maps.google.com/maps?q=WALGREEN%20CO%2C100%20W%20VETERANS%20PKWY%2C+YORKVILLE%2C+IL+60560,
WALGREEN CO.,1000 N ROSELLE RD,"HOFFMAN ESTATES, IL 60169",http://maps.google.com/maps?q=WALGREEN%20CO%2C1000%20N%20ROSELLE%20RD%2C+HOFFMAN%20ESTATES%2C+IL+60169,
WALGREEN CO.,1010 E IRELAND RD,"SOUTH BEND, IN 46614",http://maps.google.com/maps?q=WALGREEN%20CO%2C1010%20E%20IRELAND%20RD%2C+SOUTH%20BEND%2C+IN+46614,
WALGREEN CO.,1028 S ELMHURST ROAD,"MT PROSPECT, IL 60056",http://maps.google.com/maps?q=WALGREEN%20CO%2C1028%20S%20ELMHURST%20ROAD%2C+MT%20PROSPECT%2C+IL+60056,
WALGREEN CO.,1032 HARRISON AVE,"HARRISON, OH 45030",http://maps.google.com/maps?q=WALGREEN%20CO%2C1032%20HARRISON%20AVE%2C+HARRISON%2C+OH+45030,
WALGREEN CO.,106 S COLUMBIA ST.,"UNION CITY, IN 47390",http://maps.google.com/maps?q=WALGREEN%20CO%2C106%20S%20COLUMBIA%20ST.%2C+UNION%20CITY%2C+IN+47390,
WALGREEN CO.,108 WILMOT RD.,"DEERFIELD, IL 60015",http://maps.google.com/maps?q=WALGREEN%20CO%2C108%20WILMOT%20RD.%2C+DEERFIELD%2C+IL+60015,
WALGREEN CO.,1090 HIGH ST,"HAMILTON, OH 45011",http://maps.google.com/maps?q=WALGREEN%20CO%2C1090%20HIGH%20ST%2C+HAMILTON%2C+OH+45011,
WALGREEN CO.,11020 PENDLETON PIKE,"INDIANAPOLIS, IN 46236",http://maps.google.com/maps?q=WALGREEN%20CO%2C11020%20PENDLETON%20PIKE%2C+INDIANAPOLIS%2C+IN+46236,
WALGREEN CO.,115 FIELDS STREET,"MOORESVILLE, IN 46158",http://maps.google.com/maps?q=WALGREEN%20CO%2C115%20FIELDS%20STREET%2C+MOORESVILLE%2C+IN+46158,
WALGREEN CO.,1195 N STATE STREET,"GREENFIELD, IN 46140",http://maps.google.com/maps?q=WALGREEN%20CO%2C1195%20N%20STATE%20STREET%2C+GREENFIELD%2C+IN+46140,
WALGREEN CO.,12000 PRINCETON DRIVE,"HUNTLEY, IL 60142",http://maps.google.com/maps?q=WALGREEN%20CO%2C12000%20PRINCETON%20DRIVE%2C+HUNTLEY%2C+IL+60142,
WALGREEN CO.,1221 N LAKE STREET,"AURORA, IL 60506",http://maps.google.com/maps?q=WALGREEN%20CO%2C1221%20N%20LAKE%20STREET%2C+AURORA%2C+IL+60506,
WALGREEN CO.,1260 HILLTOP RD,"SAINT JOSEPH, MI 49085",http://maps.google.com/maps?q=WALGREEN%20CO%2C1260%20HILLTOP%20RD%2C+SAINT%20JOSEPH%2C+MI+49085,
WALGREEN CO.,1290 N STATE RD 135,"GREENWOOD, IN 46142",http://maps.google.com/maps?q=WALGREEN%20CO%2C1290%20N%20STATE%20RD%20135%2C+GREENWOOD%2C+IN+46142,
WALGREEN CO.,1300 WABASH AVE,"TERRE HAUTE, IN 47807",http://maps.google.com/maps?q=WALGREEN%20CO%2C1300%20WABASH%20AVE%2C+TERRE%20HAUTE%2C+IN+47807,
WALGREEN CO.,1400 CASSOPOLIS ST,"ELKHART, IN 46514",http://maps.google.com/maps?q=WALGREEN%20CO%2C1400%20CASSOPOLIS%20ST%2C+ELKHART%2C+IN+46514,
WALGREEN CO.,1400 N RITTER AVE.,SUITE 140,"INDIANAPOLIS, IN 46219",http://maps.google.com/maps?q=WALGREEN%20CO%2C1400%20N%20RITTER%20AVE.%2C+INDIANAPOLIS%2C+IN+46219
WALGREEN CO.,1403 WAUKEGAN RD,"GLENVIEW, IL 60025",http://maps.google.com/maps?q=WALGREEN%20CO%2C1403%20WAUKEGAN%20RD%2C+GLENVIEW%2C+IL+60025,
WALGREEN CO.,1424 S RANGELINE RD,"CARMEL, IN 46032",http://maps.google.com/maps?q=WALGREEN%20CO%2C1424%20S%20RANGELINE%20RD%2C+CARMEL%2C+IN+46032,
WALGREEN CO.,14680 S LA GRANGE ROAD,"ORLAND PARK, IL 60462",http://maps.google.com/maps?q=WALGREEN%20CO%2C14680%20S%20LA%20GRANGE%20ROAD%2C+ORLAND%20PARK%2C+IL+60462,
WALGREEN CO.,151 N. STATE ST.,"CHICAGO, IL 60601",http://maps.google.com/maps?q=WALGREEN%20CO%2C151%20N.%20STATE%20ST.%2C+CHICAGO%2C+IL+60601,
WALGREEN CO.,1530 N MERIDIAN ST,"INDIANAPOLIS, IN 46202",http://maps.google.com/maps?q=WALGREEN%20CO%2C1530%20N%20MERIDIAN%20ST%2C+INDIANAPOLIS%2C+IN+46202,
WALGREEN CO.,1700 LARKIN AVE,"ELGIN, IL 60123",http://maps.google.com/maps?q=WALGREEN%20CO%2C1700%20LARKIN%20AVE%2C+ELGIN%2C+IL+60123,
WALGREEN CO.,1804 N JEFFERSON,"HUNTINGTON, IN 46750",http://maps.google.com/maps?q=WALGREEN%20CO%2C1804%20N%20JEFFERSON%2C+HUNTINGTON%2C+IN+46750,
WALGREEN CO.,1808 ALBANY ST,"BEECH GROVE, IN 46107",http://maps.google.com/maps?q=WALGREEN%20CO%2C1808%20ALBANY%20ST%2C+BEECH%20GROVE%2C+IN+46107,
WALGREEN CO.,1903 CALUMET AVE.,"VALPARAISO, IN 46383",http://maps.google.com/maps?q=WALGREEN%20CO%2C1903%20CALUMET%20AVE.%2C+VALPARAISO%2C+IN+46383,
WALGREEN CO.,20 W MAIN ST,"BROWNSBURG, IN 46112",http://maps.google.com/maps?q=WALGREEN%20CO%2C20%20W%20MAIN%20ST%2C+BROWNSBURG%2C+IN+46112,
WALGREEN CO.,2001 N MILWAUKEE AVE,"CHICAGO, IL 60647",http://maps.google.com/maps?q=WALGREEN%20CO%2C2001%20N%20MILWAUKEE%20AVE%2C+CHICAGO%2C+IL+60647,
WALGREEN CO.,226 N. HALLECK STREET,"DEMOTTE, IN 46310",http://maps.google.com/maps?q=WALGREEN%20CO%2C226%20N.%20HALLECK%20STREET%2C+DEMOTTE%2C+IN+46310,
WALGREEN CO.,2320 BOUDINOT AVE.,"CINCINNATI, OH 45238",http://maps.google.com/maps?q=WALGREEN%20CO%2C2320%20BOUDINOT%20AVE.%2C+CINCINNATI%2C+OH+45238,
WALGREEN CO.,2400 BEAM ROAD,"COLUMBUS, IN 47203",http://maps.google.com/maps?q=WALGREEN%20CO%2C2400%20BEAM%20ROAD%2C+COLUMBUS%2C+IN+47203,
WALGREEN CO.,2500 GRANT ST,"GARY, IN 46404",http://maps.google.com/maps?q=WALGREEN%20CO%2C2500%20GRANT%20ST%2C+GARY%2C+IN+46404,
WALGREEN CO.,2720 W JACKSON,"MUNCIE, IN 47303",http://maps.google.com/maps?q=WALGREEN%20CO%2C2720%20W%20JACKSON%2C+MUNCIE%2C+IN+47303,
WALGREEN CO.,3 W CORRY STREET,"CINCINNATI, OH 45219",http://maps.google.com/maps?q=WALGREEN%20CO%2C3%20W%20CORRY%20STREET%2C+CINCINNATI%2C+OH+45219,
WALGREEN CO.,305 SOUTH EASTWOOD DR,"WOODSTOCK, IL 60098",http://maps.google.com/maps?q=WALGREEN%20CO%2C305%20SOUTH%20EASTWOOD%20DR%2C+WOODSTOCK%2C+IL+60098,
WALGREEN CO.,320 S SCATTERFIELD RD,"ANDERSON, IN 46012",http://maps.google.com/maps?q=WALGREEN%20CO%2C320%20S%20SCATTERFIELD%20RD%2C+ANDERSON%2C+IN+46012,
WALGREEN CO.,324 ROOSEVELT ROAD,"GLEN ELLYN, IL 60137",http://maps.google.com/maps?q=WALGREEN%20CO%2C324%20ROOSEVELT%20ROAD%2C+GLEN%20ELLYN%2C+IL+60137,
WALGREEN CO.,3351 W MAIN STREET,"ST CHARLES, IL 60175",http://maps.google.com/maps?q=WALGREEN%20CO%2C3351%20W%20MAIN%20STREET%2C+ST%20CHARLES%2C+IL+60175,
WALGREEN CO.,3405 S KING DR,"CHICAGO, IL 60616",http://maps.google.com/maps?q=WALGREEN%20CO%2C3405%20S%20KING%20DR%2C+CHICAGO%2C+IL+60616,
WALGREEN CO.,3455 MANN ROAD,"INDIANAPOLIS, IN 46221",http://maps.google.com/maps?q=WALGREEN%20CO%2C3455%20MANN%20ROAD%2C+INDIANAPOLIS%2C+IN+46221,
WALGREEN CO.,3545 W 86TH STREET,"INDIANAPOLIS, IN 46268",http://maps.google.com/maps?q=WALGREEN%20CO%2C3545%20W%2086TH%20STREET%2C+INDIANAPOLIS%2C+IN+46268,
WALGREEN CO.,385 NORTHLAND BLVD,"CINCINNATI, OH 45240",http://maps.google.com/maps?q=WALGREEN%20CO%2C385%20NORTHLAND%20BLVD%2C+CINCINNATI%2C+OH+45240,
WALGREEN CO.,3945 DEMPSTER ST,"SKOKIE, IL 60076",http://maps.google.com/maps?q=WALGREEN%20CO%2C3945%20DEMPSTER%20ST%2C+SKOKIE%2C+IL+60076,
WALGREEN CO.,4010 W LAWRENCE AVE,"CHICAGO, IL 60630",http://maps.google.com/maps?q=WALGREEN%20CO%2C4010%20W%20LAWRENCE%20AVE%2C+CHICAGO%2C+IL+60630,
WALGREEN CO.,4090 E GALBRAITH RD,"DEER PARK, OH 45236",http://maps.google.com/maps?q=WALGREEN%20CO%2C4090%20E%20GALBRAITH%20RD%2C+DEER%20PARK%2C+OH+45236,
WALGREEN CO.,4605 MONTGOMERY ROAD,"NORWOOD, OH 45212",http://maps.google.com/maps?q=WALGREEN%20CO%2C4605%20MONTGOMERY%20ROAD%2C+NORWOOD%2C+OH+45212,
WALGREEN CO.,4800 W CERMAK RD,"CICERO, IL 60804",http://maps.google.com/maps?q=WALGREEN%20CO%2C4800%20W%20CERMAK%20RD%2C+CICERO%2C+IL+60804,
WALGREEN CO.,4820 N CUMBERLAND AVE,"NORRIDGE, IL 60706",http://maps.google.com/maps?q=WALGREEN%20CO%2C4820%20N%20CUMBERLAND%20AVE%2C+NORRIDGE%2C+IL+60706,
WALGREEN CO.,501 N CONVENT ST,"BOURBONNAIS, IL 60914",http://maps.google.com/maps?q=WALGREEN%20CO%2C501%20N%20CONVENT%20ST%2C+BOURBONNAIS%2C+IL+60914,
WALGREEN CO.,5020 W MAIN,"KALAMAZOO, MI 49009",http://maps.google.com/maps?q=WALGREEN%20CO%2C5020%20W%20MAIN%2C+KALAMAZOO%2C+MI+49009,
WALGREEN CO.,522 TORRENCE AVE,"CALUMET CITY, IL 60409",http://maps.google.com/maps?q=WALGREEN%20CO%2C522%20TORRENCE%20AVE%2C+CALUMET%20CITY%2C+IL+60409,
WALGREEN CO.,5403 N. BEND ROAD,"CINCINNATI, OH 45247",http://maps.google.com/maps?q=WALGREEN%20CO%2C5403%20N.%20BEND%20ROAD%2C+CINCINNATI%2C+OH+45247,
WALGREEN CO.,6001 CENTRAL AVE,"PORTAGE, IN 46368",http://maps.google.com/maps?q=WALGREEN%20CO%2C6001%20CENTRAL%20AVE%2C+PORTAGE%2C+IN+46368,
WALGREEN CO.,6016 W 63RD STREET,"CHICAGO, IL 60638",http://maps.google.com/maps?q=WALGREEN%20CO%2C6016%20W%2063RD%20STREET%2C+CHICAGO%2C+IL+60638,
WALGREEN CO.,6202 WEST JEFFERSON BLVD,"FT WAYNE, IN 46804",http://maps.google.com/maps?q=WALGREEN%20CO%2C6202%20WEST%20JEFFERSON%20BLVD%2C+FT%20WAYNE%2C+IN+46804,
WALGREEN CO.,651 W. US HWY 30,"SCHERERVILLE, IN 46375",http://maps.google.com/maps?q=WALGREEN%20CO%2C651%20W.%20US%20HWY%2030%2C+SCHERERVILLE%2C+IN+46375,
WALGREEN CO.,6918 HAMILTON AVE.,"CINCINNATI, OH 45231",http://maps.google.com/maps?q=WALGREEN%20CO%2C6918%20HAMILTON%20AVE.%2C+CINCINNATI%2C+OH+45231,
WALGREEN CO.,700 US HIGHWAY 31 S,"GREENWOOD, IN 46143",http://maps.google.com/maps?q=WALGREEN%20CO%2C700%20US%20HIGHWAY%2031%20S%2C+GREENWOOD%2C+IN+46143,
WALGREEN CO.,7109 S JEFFERY BLVD,"CHICAGO, IL 60649",http://maps.google.com/maps?q=WALGREEN%20CO%2C7109%20S%20JEFFERY%20BLVD%2C+CHICAGO%2C+IL+60649,
WALGREEN CO.,7113 CERMAK RD,"BERWYN, IL 60402",http://maps.google.com/maps?q=WALGREEN%20CO%2C7113%20CERMAK%20RD%2C+BERWYN%2C+IL+60402,
WALGREEN CO.,7200 W. NORTH AVE.,"ELMWOOD PARK, IL 60707",http://maps.google.com/maps?q=WALGREEN%20CO%2C7200%20W.%20NORTH%20AVE.%2C+ELMWOOD%20PARK%2C+IL+60707,
WALGREEN CO.,7920 SHAVER RD,"PORTAGE, MI 49024",http://maps.google.com/maps?q=WALGREEN%20CO%2C7920%20SHAVER%20RD%2C+PORTAGE%2C+MI+49024,
WALGREEN CO.,7975 E US HWY 36,"AVON, IN 46123",http://maps.google.com/maps?q=WALGREEN%20CO%2C7975%20E%20US%20HWY%2036%2C+AVON%2C+IN+46123,
WALGREEN CO.,8193 MALL ROAD,"FLORENCE, KY 41042",http://maps.google.com/maps?q=WALGREEN%20CO%2C8193%20MALL%20ROAD%2C+FLORENCE%2C+KY+41042,
WALGREEN CO.,8628 S COTTAGE GROVE AVE,"CHICAGO, IL 60619",http://maps.google.com/maps?q=WALGREEN%20CO%2C8628%20S%20COTTAGE%20GROVE%20AVE%2C+CHICAGO%2C+IL+60619,
WALGREEN CO.,8905 E 10TH ST,"INDIANAPOLIS, IN 46219",http://maps.google.com/maps?q=WALGREEN%20CO%2C8905%20E%2010TH%20ST%2C+INDIANAPOLIS%2C+IN+46219,
WALGREEN CO.,907 SOUTH 11TH ST,"NILES, MI 49120",http://maps.google.com/maps?q=WALGREEN%20CO%2C907%20SOUTH%2011TH%20ST%2C+NILES%2C+MI+49120,
WALGREEN CO.,9775 COLERAIN AVENUE,"CINCINNATI, OH 45251",http://maps.google.com/maps?q=WALGREEN%20CO%2C9775%20COLERAIN%20AVENUE%2C+CINCINNATI%2C+OH+45251,
WESTSIDE COMMUNITY HLTH CTR,PHARMACY,2732 W MICHIGANSTREET,"INDIANAPOLIS, IN 46222",http://maps.google.com/maps?q=WESTSIDE%20COMMUNITY%20HLTH%20CTR%2CPHARMACY%2C+INDIANAPOLIS%2C+IN+46222
"WILLIAMS BROS. HEALTH CARE PHARMACY, INC",104 E. BROADWAY ST.,"LOOGOOTEE, IN 47553",http://maps.google.com/maps?q=WILLIAMS%20BROS%20HEALTH%20CARE%20PHARMACY%20INC%2C104%20E.%20BROADWAY%20ST.%2C+LOOGOOTEE%2C+IN+47553,
http://maps.google.com/maps?q=BHC%20VALLE%20VISTA%20HOSPITAL%20INC%2C898%20EAST%20MAIN%20ST%2C+GREENWOOD%2C+IN+46143,,,,
http://maps.google.com/maps?q=BLACKBURN%20COMMUNITY%20HEALTH%2CCENTER%20PHARMACY%2C+INDIANAPOLIS%2C+IN+46208,,,,
http://maps.google.com/maps?q=COLUMBUS%20REGIONAL%20HOSPITAL%2CATTN%20PHCY%2C+COLUMBUS%2C+IN+47201,,,,
http://maps.google.com/maps?q=COTTAGE%20CORNER%20COMMUNITY%2CHEALTH%20CENTER%20PHARMACY%2C+INDIANAPOLIS%2C+IN+46203,,,,
http://maps.google.com/maps?q=CUSTOM%20PLUS%20PHARMACY%20LLC%2C482%20W%20NAVAJO%20ST%20STE%20A%2C+WEST%20LAFAYETTE%2C+IN+47906,,,,
http://maps.google.com/maps?q=DECATUR%20CTY%20MEMORIAL%20HOSPITAL%2C720%20NORTH%20LINCOLN%20ST%2C+GREENSBURG%2C+IN+47240,,,,
http://maps.google.com/maps?q=ESKENAZI%20HEALTH%20WEST%20TH%20STREET%2C5515%20WEST%2038TH%20STREET%2C+INDIANAPOLIS%2C+IN+46254,,,,
http://maps.google.com/maps?q=FOREST%20MANOR%20COMMUNITY%20HEALTH%2CCENTER%20PHARMACY%2C+INDIANAPOLIS%2C+IN+46226,,,,
http://maps.google.com/maps?q=FRANCISCAN%20HEALTH%20MOORESVILLE%2C1201%20HADLEY%20RD%2C+MOORESVILLE%2C+IN+46158,,,,
http://maps.google.com/maps?q=FREDS%20NEIGHBORHOOD%20PHARMACY%2C320%20S%20MAIN%20ST%2C+NEW%20CASTLE%2C+IN+47362,,,,
http://maps.google.com/maps?q=GARST%20RX%2C325%20S%20MAIN%20ST%2C+FORTVILLE%2C+IN+46040,,,,
http://maps.google.com/maps?q=GRASSY%20CREEK%20COMMUNITY%20HEALTH%2C9443%20E%2038TH%20ST%2C+INDIANAPOLIS%2C+IN+46235,,,,
http://maps.google.com/maps?q=GUARDIAN%20PHARMACY%20OF%20INDIANAPOLIS%20LTC%20LLC%2C6530%20CORPORATE%20DRIVE%2C+INDIANAPOLIS%2C+IN+46278,,,,
http://maps.google.com/maps?q=HERBST%20APOTHECARY%20INC%2C201%20N.%20DIXON%20RD.%2C+KOKOMO%2C+IN+46901,,,,
http://maps.google.com/maps?q=HOOKSUPERX%20LLC%2C106%20EAST%20MARKET%20STREET%2C+CRAWFORDSVILLE%2C+IN+47933,,,,
http://maps.google.com/maps?q=HOOKSUPERX%20LLC%2C111%20LAKEVIEW%20DR.%2C+NOBLESVILLE%2C+IN+46060,,,,
http://maps.google.com/maps?q=HOOKSUPERX%20LLC%2C1233%20NORTH%20STATE%20ST.%2C+GREENFIELD%2C+IN+46140,,,,
http://maps.google.com/maps?q=HOOKSUPERX%20LLC%2C1375%20WEST%2086TH%20ST.%2C+INDIANAPOLIS%2C+IN+46260,,,,
http://maps.google.com/maps?q=HOOKSUPERX%20LLC%2C1421%20S.%20RANGE%20LINE%20RD.%2C+CARMEL%2C+IN+46032,,,,
http://maps.google.com/maps?q=HOOKSUPERX%20LLC%2C1545%20NORTH%20MERIDIAN%20ST.%2C+INDIANAPOLIS%2C+IN+46202,,,,
http://maps.google.com/maps?q=HOOKSUPERX%20LLC%2C201%20S.%20TILLOTSON%20AVENUE%2C+MUNCIE%2C+IN+47304,,,,
http://maps.google.com/maps?q=HOOKSUPERX%20LLC%2C201%20SOUTH%20JACKSON%20STREET%2C+FRANKFORT%2C+IN+46041,,,,
http://maps.google.com/maps?q=HOOKSUPERX%20LLC%2C21%20WEST%20MAIN%20STREET%2C+BROWNSBURG%2C+IN+46112,,,,
http://maps.google.com/maps?q=HOOKSUPERX%20LLC%2C2340%20W%20SYCAMORE%2C+KOKOMO%2C+IN+46901,,,,
http://maps.google.com/maps?q=HOOKSUPERX%20LLC%2C2423%20N.%20NATIONAL%20RD.%2C+COLUMBUS%2C+IN+47201,,,,
http://maps.google.com/maps?q=HOOKSUPERX%20LLC%2C265%20SO.%20SCATTERFIELD%20RD%2C+ANDERSON%2C+IN+46012,,,,
http://maps.google.com/maps?q=HOOKSUPERX%20LLC%2C2701%20EAST%203RD%20ST.%2C+BLOOMINGTON%2C+IN+47401,,,,
http://maps.google.com/maps?q=HOOKSUPERX%20LLC%2C3705%20KENTUCKY%20AVE%2C+INDIANAPOLIS%2C+IN+46221,,,,
http://maps.google.com/maps?q=HOOKSUPERX%20LLC%2C512%20SAGAMORE%20PKWY%20WEST%2C+WEST%20LAFAYETTE%2C+IN+47906,,,,
http://maps.google.com/maps?q=HOOKSUPERX%20LLC%2C523%20SOUTH%20STATE%20ROAD%2067%2C+MOORESVILLE%2C+IN+46158,,,,
http://maps.google.com/maps?q=HOOKSUPERX%20LLC%2C5611%20GEORGETOWN%20RD.%2C+INDIANAPOLIS%2C+IN+46254,,,,
http://maps.google.com/maps?q=HOOKSUPERX%20LLC%2C655%20S.%20US%20HIGHWAY%2031%2C+GREENWOOD%2C+IN+46142,,,,
http://maps.google.com/maps?q=HOOKSUPERX%20LLC%2C713%20S%20WASHINGTON%20ST%2C+CRAWFORDSVILLE%2C+IN+47933,,,,
http://maps.google.com/maps?q=HOOKSUPERX%20LLC%2C7915-C%20SOUTH%20EMERSON%20AVE%2C+INDIANAPOLIS%2C+IN+46237,,,,
http://maps.google.com/maps?q=HOOKSUPERX%20LLC%2C7990%20E%20US%20HIGHWAY%2036%2C+AVON%2C+IN+46123,,,,
http://maps.google.com/maps?q=HOOKSUPERX%20LLC%2C8935%20EAST%2021ST%20STREET%2C+INDIANAPOLIS%2C+IN+46219,,,,
http://maps.google.com/maps?q=HOOKSUPERX%20LLC%2C8970%20S.%20MERIDIAN%20ST.%2C+INDIANAPOLIS%2C+IN+46217,,,,
http://maps.google.com/maps?q=INDIANA%20HEMOPHILIATHROMBOSIS%2C8326%20NAAB%20RD%2C+INDIANAPOLIS%2C+IN+46260,,,,
http://maps.google.com/maps?q=INDIANA%20UNIVERSITY%20HEALTH%20FRANKFORT%20INC%2C1300%20SOUTH%20JACKSON%20STREET%2C+FRANKFORT%2C+IN+46041,,,,
http://maps.google.com/maps?q=INDIANA%20UNIVERSITY%20HEALTH%20INC%2C1111%20N.%20RONALD%20REAGAN%20PKWY%2C+AVON%2C+IN+46123,,,,
http://maps.google.com/maps?q=INDIANA%20UNIVERSITY%20HEALTH%20INC%2C11700%20NORTH%20MERIDIAN%20STREET%2C+CARMEL%2C+IN+46032,,,,
http://maps.google.com/maps?q=INDIANA%20UNIVERSITY%20HEALTH%20INC%2C13100%20E%20136TH%20STREET%2C+FISHERS%2C+IN+46037,,,,
http://maps.google.com/maps?q=INDIANA%20UNIVERSITY%20HEALTH%20INC%2C1801%20SENATE%20BLVD%20STE%20105%2C+INDIANAPOLIS%2C+IN+46202,,,,
http://maps.google.com/maps?q=INDIANA%20UNIVERSITY%20HEALTH%20INC%2C2209%20JOHN%20R%20WOODEN%20DR%2C+MARTINSVILLE%2C+IN+46151,,,,
http://maps.google.com/maps?q=INDIANA%20UNIVERSITY%20HEALTH%20INC%2C550%20UNIVERSITY%20BLVD%2C+INDIANAPOLIS%2C+IN+46202,,,,
http://maps.google.com/maps?q=INDIANA%20UNIVERSITY%20HEALTH%20INC%2C705%20RILEY%20HOSPITAL%20DR.%2C+INDIANAPOLIS%2C+IN+46202,,,,
http://maps.google.com/maps?q=IU%20HEALTH%20ARNETT%20RETAIL%20PHARMACY%2C5165%20MCCARTY%20LN%2C+LAFAYETTE%2C+IN+47905,,,,
http://maps.google.com/maps?q=IU%20HEALTH%20BALL%20MEMORIAL%20HOSPITAL%20INC%2C1420%20S.%20PILGRIM%20BLVD.%2C+YORKTOWN%2C+IN+47396,,,,
http://maps.google.com/maps?q=IU%20HEALTH%20BALL%20MEMORIAL%20HOSPITAL%20INC%2C2401%20W.%20UNIVERSITY%20AVE.%2C+MUNCIE%2C+IN+47303,,,,
http://maps.google.com/maps?q=IU%20HEALTH%20BALL%20MEMORIAL%20HOSPITAL%20INC%2C400%20PILGRIM%20BLVD.%2C+HARTFORD%20CITY%2C+IN+47348,,,,
http://maps.google.com/maps?q=IU%20HEALTH%20BALL%20MEMORIAL%20HOSPITAL%20INC%2C5501%20W.%20BETHEL%20AVE%2C+MUNCIE%2C+IN+47304,,,,
http://maps.google.com/maps?q=IU%20HEALTH%20WEST%20HOSPITAL%2CINPATIENT%20PHARMACY%2C+AVON%2C+IN+46123,,,,
http://maps.google.com/maps?q=MARGARET%20MARY%20COMMUNITY%20HOSPITAL%20INC%2CATTN%20PHARMACY%2C+BATESVILLE%2C+IN+47006,,,,
http://maps.google.com/maps?q=MIDTOWN%20COMMUNITY%20MENTAL%20HLTH%2CCENTER%20PHARMACY%2C+INDIANAPOLIS%2C+IN+46202,,,,
http://maps.google.com/maps?q=NORTH%20ARLINGTON%20COMMUNITY%2CHEALTH%20CENTER%20PHARMACY%2C+INDIANAPOLIS%2C+IN+46219,,,,
http://maps.google.com/maps?q=PECAR%20COMMUNITY%20HEALTH%20CENTER%20PHARMACY%2C6940%20N%20MICHIGAN%20ROAD%2C+INDIANAPOLIS%2C+IN+46268,,,,
http://maps.google.com/maps?q=PHARMACY%20CARE%20SOLUTIONS%20INC%2C2323%20N.%20MARR%20ROAD%2C+COLUMBUS%2C+IN+47203,,,,
http://maps.google.com/maps?q=PHARMANEEK%20INC%2C7345%20WOODLAND%20DR.%2C+INDIANAPOLIS%2C+IN+46278,,,,
http://maps.google.com/maps?q=PURDUE%20UNIVERSITY%20PHARMACY%2CHEINE%20PHARMACY%20BUILDING%20RM%20118%2C+WEST%20LAFAYETTE%2C+IN+47907,,,,
http://maps.google.com/maps?q=RUSH%20MEMORIAL%20HOSPITAL%2C1300%20N.%20MAIN%20STREET%2C+RUSHVILLE%2C+IN+46173,,,,
http://maps.google.com/maps?q=ST%20MARGARETS%20PHARMACY%20AT%20ESKENAZI%20HEALTH%2C720%20ESKENAZI%20AVENUE%2C+INDIANAPOLIS%2C+IN+46202,,,,
http://maps.google.com/maps?q=ST%20VINCENT%20MERCY%20HOSPITAL%2C1331%20SOUTH%20A%20STREET%2C+ELWOOD%2C+IN+46036,,,,
http://maps.google.com/maps?q=ST%20VINCENT%20PHARMACY%2C2001%20WEST%2086TH%20STREET%2C+INDIANAPOLIS%2C+IN+46260,,,,
http://maps.google.com/maps?q=WALGREEN%20CO%2C100%20N.%20MEMORIAL%20DR%2C+NEW%20CASTLE%2C+IN+47362,,,,
http://maps.google.com/maps?q=WALGREEN%20CO%2C11020%20PENDLETON%20PIKE%2C+INDIANAPOLIS%2C+IN+46236,,,,
http://maps.google.com/maps?q=WALGREEN%20CO%2C115%20FIELDS%20STREET%2C+MOORESVILLE%2C+IN+46158,,,,
http://maps.google.com/maps?q=WALGREEN%20CO%2C1195%20N%20STATE%20STREET%2C+GREENFIELD%2C+IN+46140,,,,
http://maps.google.com/maps?q=WALGREEN%20CO%2C1290%20N%20STATE%20RD%20135%2C+GREENWOOD%2C+IN+46142,,,,
http://maps.google.com/maps?q=WALGREEN%20CO%2C1400%20N%20RITTER%20AVE.%2C+INDIANAPOLIS%2C+IN+46219,,,,
http://maps.google.com/maps?q=WALGREEN%20CO%2C1424%20S%20RANGELINE%20RD%2C+CARMEL%2C+IN+46032,,,,
http://maps.google.com/maps?q=WALGREEN%20CO%2C1530%20N%20MERIDIAN%20ST%2C+INDIANAPOLIS%2C+IN+46202,,,,
http://maps.google.com/maps?q=WALGREEN%20CO%2C1808%20ALBANY%20ST%2C+BEECH%20GROVE%2C+IN+46107,,,,
http://maps.google.com/maps?q=WALGREEN%20CO%2C20%20W%20MAIN%20ST%2C+BROWNSBURG%2C+IN+46112,,,,
http://maps.google.com/maps?q=WALGREEN%20CO%2C2400%20BEAM%20ROAD%2C+COLUMBUS%2C+IN+47203,,,,
http://maps.google.com/maps?q=WALGREEN%20CO%2C2400%20W%20SYCAMORE%20STREET%2C+KOKOMO%2C+IN+46901,,,,
http://maps.google.com/maps?q=WALGREEN%20CO%2C2720%20W%20JACKSON%2C+MUNCIE%2C+IN+47303,,,,
http://maps.google.com/maps?q=WALGREEN%20CO%2C320%20S%20SCATTERFIELD%20RD%2C+ANDERSON%2C+IN+46012,,,,
http://maps.google.com/maps?q=WALGREEN%20CO%2C3455%20MANN%20ROAD%2C+INDIANAPOLIS%2C+IN+46221,,,,
http://maps.google.com/maps?q=WALGREEN%20CO%2C3545%20W%2086TH%20STREET%2C+INDIANAPOLIS%2C+IN+46268,,,,
http://maps.google.com/maps?q=WALGREEN%20CO%2C6745%20E%20SOUTHPORT%20ROAD%2C+INDIANAPOLIS%2C+IN+46237,,,,
http://maps.google.com/maps?q=WALGREEN%20CO%2C700%20US%20HIGHWAY%2031%20S%2C+GREENWOOD%2C+IN+46143,,,,
http://maps.google.com/maps?q=WALGREEN%20CO%2C7975%20E%20US%20HWY%2036%2C+AVON%2C+IN+46123,,,,
http://maps.google.com/maps?q=WALGREEN%20CO%2C8905%20E%2010TH%20ST%2C+INDIANAPOLIS%2C+IN+46219,,,,
http://maps.google.com/maps?q=WESTSIDE%20COMMUNITY%20HLTH%20CTR%2CPHARMACY%2C+INDIANAPOLIS%2C+IN+46222,,,,
