Business Name,Address 1,Address 2,"City, State Zip",Map URL
13TH AVENUE PHARMACY INC,5211 13TH AVENUE,"BROOKLYN, NY 11219",http://maps.google.com/maps?q=TH%20AVENUE%20PHARMACY%20INC%2C5211%2013TH%20AVENUE%2C+BROOKLYN%2C+NY+11219,
AIDS HEALTHCARE FOUNDATION,475 ATLANTIC AVE,"BROOKLYN, NY 11217",http://maps.google.com/maps?q=AIDS%20HEALTHCARE%20FOUNDATION%2C475%20ATLANTIC%20AVE%2C+BROOKLYN%2C+NY+11217,
ALEXANDER INFUSION LLC,75 NASSAU TERMINAL ROAD,"NEW HYDE PARK, NY 11040",http://maps.google.com/maps?q=ALEXANDER%20INFUSION%20LLC%2C75%20NASSAU%20TERMINAL%20ROAD%2C+NEW%20HYDE%20PARK%2C+NY+11040,
ALLURE SPECIALTY PHARMACY,4377 BRONX BLVD,"BRONX, NY 10466",http://maps.google.com/maps?q=ALLURE%20SPECIALTY%20PHARMACY%2C4377%20BRONX%20BLVD%2C+BRONX%2C+NY+10466,
AMI PHARMACY,4180 BROADWAY,"NEW YORK, NY 10033",http://maps.google.com/maps?q=AMI%20PHARMACY%2C4180%20BROADWAY%2C+NEW%20YORK%2C+NY+10033,
"ANAYA I, INC.",23 S. MAIN ST.,UNIT A,"FREEPORT, NY 11520",http://maps.google.com/maps?q=ANAYA%20I%20INC%2C23%20S.%20MAIN%20ST.%2C+FREEPORT%2C+NY+11520
APPLE VALLEY PHARMACY,8 WEST STREET,"WARWICK, NY 10990",http://maps.google.com/maps?q=APPLE%20VALLEY%20PHARMACY%2C8%20WEST%20STREET%2C+WARWICK%2C+NY+10990,
ASCAN PHARMACY INC.,101-21 METROPOLITAN AVENUE,"FOREST HILLS, NY 11375",http://maps.google.com/maps?q=ASCAN%20PHARMACY%20INC%2C101-21%20METROPOLITAN%20AVENUE%2C+FOREST%20HILLS%2C+NY+11375,
AVIGHNA RX LLC,7 BEDFORD PARK BLVD,"BRONX, NY 10468",http://maps.google.com/maps?q=AVIGHNA%20RX%20LLC%2C7%20BEDFORD%20PARK%20BLVD%2C+BRONX%2C+NY+10468,
AVK RX INC.,3904 CHURCH AVE,"BROOKLYN, NY 11203",http://maps.google.com/maps?q=AVK%20RX%20INC%2C3904%20CHURCH%20AVE%2C+BROOKLYN%2C+NY+11203,
AVONORA INC,14901 UNION TPKE,"FLUSHING, NY 11367",http://maps.google.com/maps?q=AVONORA%20INC%2C14901%20UNION%20TPKE%2C+FLUSHING%2C+NY+11367,
"B & B PHARMACY, INC.",79-08 37TH AVE,"JACKSON HEIGHTS, NY 11372",http://maps.google.com/maps?q=B%20%20B%20PHARMACY%20INC%2C79-08%2037TH%20AVE%2C+JACKSON%20HEIGHTS%2C+NY+11372,
BANDSTAND CORPORATION,226 PROSPECT PARK W,"BROOKLYN, NY 11215",http://maps.google.com/maps?q=BANDSTAND%20CORPORATION%2C226%20PROSPECT%20PARK%20W%2C+BROOKLYN%2C+NY+11215,
BARDONIA PHARMACY LLC,301 ROUTE 304,SUITE 4,"BARDONIA, NY 10954",http://maps.google.com/maps?q=BARDONIA%20PHARMACY%20LLC%2C301%20ROUTE%20304%2C+BARDONIA%2C+NY+10954
BARON'S FAMILY PHARMACY INC,243 E BROAD STREET,"WESTFIELD, NJ 07090",http://maps.google.com/maps?q=BARONS%20FAMILY%20PHARMACY%20INC%2C243%20E%20BROAD%20STREET%2C+WESTFIELD%2C+NJ+07090,
BAYSHORE PHARMACY,2 BAYSHORE PLAZA,HWY 36,"ATLANTIC HIGHLANDS, NJ 07716",http://maps.google.com/maps?q=BAYSHORE%20PHARMACY%2C2%20BAYSHORE%20PLAZA%2C+ATLANTIC%20HIGHLANDS%2C+NJ+07716
BAYSIDE PHARMACY INC.,221-36 HORACE HARDING EXPRESSWAY,"OAKLAND GARDENS, NY 11364",http://maps.google.com/maps?q=BAYSIDE%20PHARMACY%20INC%2C221-36%20HORACE%20HARDING%20EXPRESSWAY%2C+OAKLAND%20GARDENS%2C+NY+11364,
BELLEVILLE PHARMACY,338 WASHINGTON AVE,"BELLEVILLE, NJ 07109",http://maps.google.com/maps?q=BELLEVILLE%20PHARMACY%2C338%20WASHINGTON%20AVE%2C+BELLEVILLE%2C+NJ+07109,
BESAEL CORP,DBA OAK PARK PHARMACY,205 PROSPECT PARK WEST,"BROOKLYN, NY 11215",http://maps.google.com/maps?q=BESAEL%20CORP%2CDBA%20OAK%20PARK%20PHARMACY%2C+BROOKLYN%2C+NY+11215
BEST QUALITY CARE LLC,5015 8TH AVENUE,"BROOKLYN, NY 11220",http://maps.google.com/maps?q=BEST%20QUALITY%20CARE%20LLC%2C5015%208TH%20AVENUE%2C+BROOKLYN%2C+NY+11220,
BRAUNAGEL & BRAUNAGEL INC,12 SUSSEX STREET,"PORT JERVIS, NY 12771",http://maps.google.com/maps?q=BRAUNAGEL%20%20BRAUNAGEL%20INC%2C12%20SUSSEX%20STREET%2C+PORT%20JERVIS%2C+NY+12771,
CAREMART PHARMACY LLC,95-02 VAN WYCK EXPY,"S RICHMOND HILL, NY 11419",http://maps.google.com/maps?q=CAREMART%20PHARMACY%20LLC%2C95-02%20VAN%20WYCK%20EXPY%2C+S%20RICHMOND%20HILL%2C+NY+11419,
CASTLE HILL DRUGS INC.,674 CASTLE HILL  AVENUE,"BRONX, NY 10473",http://maps.google.com/maps?q=CASTLE%20HILL%20DRUGS%20INC%2C674%20CASTLE%20HILL%20%20AVENUE%2C+BRONX%2C+NY+10473,
CASTLE TOPP PHARMACY CORP.,1370A CASTLE HILL AVE,"BRONX, NY 10462",http://maps.google.com/maps?q=CASTLE%20TOPP%20PHARMACY%20CORP%2C1370A%20CASTLE%20HILL%20AVE%2C+BRONX%2C+NY+10462,
CEDARS PHARMACY,95-19 57 AVENUE,"ELMHURST, NY 11373",http://maps.google.com/maps?q=CEDARS%20PHARMACY%2C95-19%2057%20AVENUE%2C+ELMHURST%2C+NY+11373,
CENTRAL SUFFOLK HOSPITAL,1300 ROANOKE AVE,PHARMACY DEPARTMENT,"RIVERHEAD, NY 11901",http://maps.google.com/maps?q=CENTRAL%20SUFFOLK%20HOSPITAL%2C1300%20ROANOKE%20AVE%2C+RIVERHEAD%2C+NY+11901
CENTRASTATE SPECIALTY SCRIPT,901 W MAIN ST,SUITE 162,"FREEHOLD, NJ 07728",http://maps.google.com/maps?q=CENTRASTATE%20SPECIALTY%20SCRIPT%2C901%20W%20MAIN%20ST%2C+FREEHOLD%2C+NJ+07728
COMMUNITY CARE RX INC.,86 FRONT STREET,"HEMPSTEAD, NY 11550",http://maps.google.com/maps?q=COMMUNITY%20CARE%20RX%20INC%2C86%20FRONT%20STREET%2C+HEMPSTEAD%2C+NY+11550,
COMMUNITY CARE RX NJ,225 W. RTE 46,SUITE 4,"TOTOWA, NJ 07512",http://maps.google.com/maps?q=COMMUNITY%20CARE%20RX%20NJ%2C225%20W.%20RTE%2046%2C+TOTOWA%2C+NJ+07512
CROSSBAY CHEMISTS CORP,157-02 CROSSBAY BOULEVARD,"HOWARD BEACH, NY 11414",http://maps.google.com/maps?q=CROSSBAY%20CHEMISTS%20CORP%2C157-02%20CROSSBAY%20BOULEVARD%2C+HOWARD%20BEACH%2C+NY+11414,
CUREMED PHARMACY,353 CROOKS AVENUE,"CLIFTON, NJ 07011",http://maps.google.com/maps?q=CUREMED%20PHARMACY%2C353%20CROOKS%20AVENUE%2C+CLIFTON%2C+NJ+07011,
"CVS ALBANY, L.L.C.",100-02 QUEENS BOULEVARD,"FOREST HILLS, NY 11375",http://maps.google.com/maps?q=CVS%20ALBANY%20LLC%2C100-02%20QUEENS%20BOULEVARD%2C+FOREST%20HILLS%2C+NY+11375,
"CVS ALBANY, L.L.C.",12 WELCHER AVE.,"PEEKSKILL, NY 10566",http://maps.google.com/maps?q=CVS%20ALBANY%20LLC%2C12%20WELCHER%20AVE.%2C+PEEKSKILL%2C+NY+10566,
"CVS ALBANY, L.L.C.",1361 HYLAN BLVD.,"STATEN ISLAND, NY 10305",http://maps.google.com/maps?q=CVS%20ALBANY%20LLC%2C1361%20HYLAN%20BLVD.%2C+STATEN%20ISLAND%2C+NY+10305,
"CVS ALBANY, L.L.C.",1396 SECOND AVENUE,"NEW YORK, NY 10021",http://maps.google.com/maps?q=CVS%20ALBANY%20LLC%2C1396%20SECOND%20AVENUE%2C+NEW%20YORK%2C+NY+10021,
"CVS ALBANY, L.L.C.",150 EAST 42ND ST.,"NEW YORK, NY 10017",http://maps.google.com/maps?q=CVS%20ALBANY%20LLC%2C150%20EAST%2042ND%20ST.%2C+NEW%20YORK%2C+NY+10017,
"CVS ALBANY, L.L.C.",1827 MAIN ST.,"PEEKSKILL, NY 10566",http://maps.google.com/maps?q=CVS%20ALBANY%20LLC%2C1827%20MAIN%20ST.%2C+PEEKSKILL%2C+NY+10566,
"CVS ALBANY, L.L.C.",1916 WILLIAMSBRIDGE ROAD,"BRONX, NY 10461",http://maps.google.com/maps?q=CVS%20ALBANY%20LLC%2C1916%20WILLIAMSBRIDGE%20ROAD%2C+BRONX%2C+NY+10461,
"CVS ALBANY, L.L.C.",1933 VICTORY BLVD.,"STATEN ISLAND, NY 10314",http://maps.google.com/maps?q=CVS%20ALBANY%20LLC%2C1933%20VICTORY%20BLVD.%2C+STATEN%20ISLAND%2C+NY+10314,
"CVS ALBANY, L.L.C.",1944 DEER PARK AVE,DEER PARK S/C,"DEER PARK, NY 11729",http://maps.google.com/maps?q=CVS%20ALBANY%20LLC%2C1944%20DEER%20PARK%20AVE%2C+DEER%20PARK%2C+NY+11729
"CVS ALBANY, L.L.C.",2 E. JERICHO TPKE,"HUNTINGTON STATION, NY 11746",http://maps.google.com/maps?q=CVS%20ALBANY%20LLC%2C2%20E.%20JERICHO%20TPKE%2C+HUNTINGTON%20STATION%2C+NY+11746,
"CVS ALBANY, L.L.C.",20 MERRICK RD.,"AMITYVILLE, NY 11701",http://maps.google.com/maps?q=CVS%20ALBANY%20LLC%2C20%20MERRICK%20RD.%2C+AMITYVILLE%2C+NY+11701,
"CVS ALBANY, L.L.C.",201 GLEN ST.,"GLEN COVE, NY 11542",http://maps.google.com/maps?q=CVS%20ALBANY%20LLC%2C201%20GLEN%20ST.%2C+GLEN%20COVE%2C+NY+11542,
"CVS ALBANY, L.L.C.",202 OLD COUNTRY ROAD,"HICKSVILLE, NY 11801",http://maps.google.com/maps?q=CVS%20ALBANY%20LLC%2C202%20OLD%20COUNTRY%20ROAD%2C+HICKSVILLE%2C+NY+11801,
"CVS ALBANY, L.L.C.",212-20 NORTHERN BOULEVARD,"BAYSIDE, NY 11361",http://maps.google.com/maps?q=CVS%20ALBANY%20LLC%2C212-20%20NORTHERN%20BOULEVARD%2C+BAYSIDE%2C+NY+11361,
"CVS ALBANY, L.L.C.",219-39 89TH AVENUE,"QUEENS VILLAGE, NY 11427",http://maps.google.com/maps?q=CVS%20ALBANY%20LLC%2C219-39%2089TH%20AVENUE%2C+QUEENS%20VILLAGE%2C+NY+11427,
"CVS ALBANY, L.L.C.",2290 CENTRAL PARK AVENUE,"YONKERS, NY 10710",http://maps.google.com/maps?q=CVS%20ALBANY%20LLC%2C2290%20CENTRAL%20PARK%20AVENUE%2C+YONKERS%2C+NY+10710,
"CVS ALBANY, L.L.C.",241 WEST 57TH STREET,"NEW YORK, NY 10019",http://maps.google.com/maps?q=CVS%20ALBANY%20LLC%2C241%20WEST%2057TH%20STREET%2C+NEW%20YORK%2C+NY+10019,
"CVS ALBANY, L.L.C.",2419 HEMPSTEAD TPKE.,"EAST MEADOW, NY 11554",http://maps.google.com/maps?q=CVS%20ALBANY%20LLC%2C2419%20HEMPSTEAD%20TPKE.%2C+EAST%20MEADOW%2C+NY+11554,
"CVS ALBANY, L.L.C.",253 FIRST AVENUE,"NEW YORK, NY 10003",http://maps.google.com/maps?q=CVS%20ALBANY%20LLC%2C253%20FIRST%20AVENUE%2C+NEW%20YORK%2C+NY+10003,
"CVS ALBANY, L.L.C.",280 SOUTH MAIN STREET,"NEW CITY, NY 10956",http://maps.google.com/maps?q=CVS%20ALBANY%20LLC%2C280%20SOUTH%20MAIN%20STREET%2C+NEW%20CITY%2C+NY+10956,
"CVS ALBANY, L.L.C.",2925 KINGS HIGHWAY,"BROOKLYN, NY 11229",http://maps.google.com/maps?q=CVS%20ALBANY%20LLC%2C2925%20KINGS%20HIGHWAY%2C+BROOKLYN%2C+NY+11229,
"CVS ALBANY, L.L.C.",294 KATONAH AVENUE,"KATONAH, NY 10536",http://maps.google.com/maps?q=CVS%20ALBANY%20LLC%2C294%20KATONAH%20AVENUE%2C+KATONAH%2C+NY+10536,
"CVS ALBANY, L.L.C.",309 MAIN ST.,"NEW ROCHELLE, NY 10801",http://maps.google.com/maps?q=CVS%20ALBANY%20LLC%2C309%20MAIN%20ST.%2C+NEW%20ROCHELLE%2C+NY+10801,
"CVS ALBANY, L.L.C.",3101 DITMARS BLVD.,"ASTORIA, NY 11105",http://maps.google.com/maps?q=CVS%20ALBANY%20LLC%2C3101%20DITMARS%20BLVD.%2C+ASTORIA%2C+NY+11105,
"CVS ALBANY, L.L.C.",325 MAMARONECK AVE.,"WHITE PLAINS, NY 10605",http://maps.google.com/maps?q=CVS%20ALBANY%20LLC%2C325%20MAMARONECK%20AVE.%2C+WHITE%20PLAINS%2C+NY+10605,
"CVS ALBANY, L.L.C.",3775 E. TREMONT AVE.,"BRONX, NY 10465",http://maps.google.com/maps?q=CVS%20ALBANY%20LLC%2C3775%20E.%20TREMONT%20AVE.%2C+BRONX%2C+NY+10465,
"CVS ALBANY, L.L.C.",403 ATLANTIC AVENUE,"FREEPORT, NY 11520",http://maps.google.com/maps?q=CVS%20ALBANY%20LLC%2C403%20ATLANTIC%20AVENUE%2C+FREEPORT%2C+NY+11520,
"CVS ALBANY, L.L.C.",4331 NESCONSET HWY.,"PORT JEFFERSON STN, NY 11776",http://maps.google.com/maps?q=CVS%20ALBANY%20LLC%2C4331%20NESCONSET%20HWY.%2C+PORT%20JEFFERSON%20STN%2C+NY+11776,
"CVS ALBANY, L.L.C.",44 NORTH CENTRAL AVENUE,"VALLEY STREAM, NY 11580",http://maps.google.com/maps?q=CVS%20ALBANY%20LLC%2C44%20NORTH%20CENTRAL%20AVENUE%2C+VALLEY%20STREAM%2C+NY+11580,
"CVS ALBANY, L.L.C.",4901 KINGS HIGHWAY,"BROOKLYN, NY 11234",http://maps.google.com/maps?q=CVS%20ALBANY%20LLC%2C4901%20KINGS%20HIGHWAY%2C+BROOKLYN%2C+NY+11234,
"CVS ALBANY, L.L.C.",499 MONTAUK HIGHWAY,"WEST ISLIP, NY 11795",http://maps.google.com/maps?q=CVS%20ALBANY%20LLC%2C499%20MONTAUK%20HIGHWAY%2C+WEST%20ISLIP%2C+NY+11795,
"CVS ALBANY, L.L.C.",5 INDIAN ROCK PLAZA,"SUFFERN, NY 10901",http://maps.google.com/maps?q=CVS%20ALBANY%20LLC%2C5%20INDIAN%20ROCK%20PLAZA%2C+SUFFERN%2C+NY+10901,
"CVS ALBANY, L.L.C.",540 AMSTERDAM AVENUE,"NEW YORK, NY 10024",http://maps.google.com/maps?q=CVS%20ALBANY%20LLC%2C540%20AMSTERDAM%20AVENUE%2C+NEW%20YORK%2C+NY+10024,
"CVS ALBANY, L.L.C.",630 LEXINGTON AVENUE,"NEW YORK, NY 10022",http://maps.google.com/maps?q=CVS%20ALBANY%20LLC%2C630%20LEXINGTON%20AVENUE%2C+NEW%20YORK%2C+NY+10022,
"CVS ALBANY, L.L.C.",640 ARTHUR KILL ROAD,"STATEN ISLAND, NY 10308",http://maps.google.com/maps?q=CVS%20ALBANY%20LLC%2C640%20ARTHUR%20KILL%20ROAD%2C+STATEN%20ISLAND%2C+NY+10308,
"CVS ALBANY, L.L.C.",75 N. MIDDLETOWN RD.,"PEARL RIVER, NY 10965",http://maps.google.com/maps?q=CVS%20ALBANY%20LLC%2C75%20N.%20MIDDLETOWN%20RD.%2C+PEARL%20RIVER%2C+NY+10965,
"CVS ALBANY, L.L.C.",7960 METROPOLITAN AVENUE,"MIDDLE VILLAGE, NY 11379",http://maps.google.com/maps?q=CVS%20ALBANY%20LLC%2C7960%20METROPOLITAN%20AVENUE%2C+MIDDLE%20VILLAGE%2C+NY+11379,
"CVS ALBANY, L.L.C.",812 FOREST AVE.,"STATEN ISLAND, NY 10310",http://maps.google.com/maps?q=CVS%20ALBANY%20LLC%2C812%20FOREST%20AVE.%2C+STATEN%20ISLAND%2C+NY+10310,
"CVS ALBANY, L.L.C.",89-11 NORTHERN BLVD.,"JACKSON HEIGHTS, NY 11372",http://maps.google.com/maps?q=CVS%20ALBANY%20LLC%2C89-11%20NORTHERN%20BLVD.%2C+JACKSON%20HEIGHTS%2C+NY+11372,
D AND B PHARMACY CORP,222 OAKRIDGE CMNS,D B A PAUL'S PHARMACY,"SOUTH SALEM, NY 10590",http://maps.google.com/maps?q=D%20AND%20B%20PHARMACY%20CORP%2C222%20OAKRIDGE%20CMNS%2C+SOUTH%20SALEM%2C+NY+10590
DELCO DRUGS & SPECIALTY PHARMACY INC.,3833 RICHMOND AVE,"STATEN ISLAND, NY 10312",http://maps.google.com/maps?q=DELCO%20DRUGS%20%20SPECIALTY%20PHARMACY%20INC%2C3833%20RICHMOND%20AVE%2C+STATEN%20ISLAND%2C+NY+10312,
DEVINES PHARMACY INC,1949 OAK TREE ROAD,"EDISON, NJ 08820",http://maps.google.com/maps?q=DEVINES%20PHARMACY%20INC%2C1949%20OAK%20TREE%20ROAD%2C+EDISON%2C+NJ+08820,
DONGAN HILLS PHARMACY,1560 RICHMOND RD,"STATEN ISLAND, NY 10304",http://maps.google.com/maps?q=DONGAN%20HILLS%20PHARMACY%2C1560%20RICHMOND%20RD%2C+STATEN%20ISLAND%2C+NY+10304,
DRUGDEX PHARMACY INC,1632 BRUCKNER BOULEVARD,"BRONX, NY 10473",http://maps.google.com/maps?q=DRUGDEX%20PHARMACY%20INC%2C1632%20BRUCKNER%20BOULEVARD%2C+BRONX%2C+NY+10473,
DUANE READE,1 UNION SQ SOUTH,"NEW YORK, NY 10003",http://maps.google.com/maps?q=DUANE%20READE%2C1%20UNION%20SQ%20SOUTH%2C+NEW%20YORK%2C+NY+10003,
DUANE READE,107-16 CONTINENTAL AVENUE,"FOREST HILLS, NY 11375",http://maps.google.com/maps?q=DUANE%20READE%2C107-16%20CONTINENTAL%20AVENUE%2C+FOREST%20HILLS%2C+NY+11375,
DUANE READE,1231 MADISON AVENUE,"NEW YORK, NY 10128",http://maps.google.com/maps?q=DUANE%20READE%2C1231%20MADISON%20AVENUE%2C+NEW%20YORK%2C+NY+10128,
DUANE READE,13602 ROOSEVELT AVENUE,"FLUSHING, NY 11354",http://maps.google.com/maps?q=DUANE%20READE%2C13602%20ROOSEVELT%20AVENUE%2C+FLUSHING%2C+NY+11354,
DUANE READE,1498 YORK AVENUE,"NEW YORK, NY 10075",http://maps.google.com/maps?q=DUANE%20READE%2C1498%20YORK%20AVENUE%2C+NEW%20YORK%2C+NY+10075,
DUANE READE,155 EAST 34TH STREET,"NEW YORK, NY 10016",http://maps.google.com/maps?q=DUANE%20READE%2C155%20EAST%2034TH%20STREET%2C+NEW%20YORK%2C+NY+10016,
DUANE READE,2522 BROADWAY,"NEW YORK, NY 10025",http://maps.google.com/maps?q=DUANE%20READE%2C2522%20BROADWAY%2C+NEW%20YORK%2C+NY+10025,
DUANE READE,2864 BROADWAY,"NEW YORK, NY 10025",http://maps.google.com/maps?q=DUANE%20READE%2C2864%20BROADWAY%2C+NEW%20YORK%2C+NY+10025,
DUANE READE,296 FLATBUSH AVE,"BROOKLYN, NY 11217",http://maps.google.com/maps?q=DUANE%20READE%2C296%20FLATBUSH%20AVE%2C+BROOKLYN%2C+NY+11217,
DUANE READE,40 WALL STREET,"NEW YORK, NY 10005",http://maps.google.com/maps?q=DUANE%20READE%2C40%20WALL%20STREET%2C+NEW%20YORK%2C+NY+10005,
DUANE READE,5008 5TH AVE,"BROOKLYN, NY 11220",http://maps.google.com/maps?q=DUANE%20READE%2C5008%205TH%20AVE%2C+BROOKLYN%2C+NY+11220,
DUANE READE,51 WEST 51ST STREET,"NEW YORK, NY 10019",http://maps.google.com/maps?q=DUANE%20READE%2C51%20WEST%2051ST%20STREET%2C+NEW%20YORK%2C+NY+10019,
DUANE READE,661 8TH AVENUE,"NEW YORK, NY 10036",http://maps.google.com/maps?q=DUANE%20READE%2C661%208TH%20AVENUE%2C+NEW%20YORK%2C+NY+10036,
DUANE READE,71 WEST 23RD STREET,"NEW YORK, NY 10010",http://maps.google.com/maps?q=DUANE%20READE%2C71%20WEST%2023RD%20STREET%2C+NEW%20YORK%2C+NY+10010,
DUANE READE,73-01 37TH AVENUE,"JACKSON HEIGHTS, NY 11372",http://maps.google.com/maps?q=DUANE%20READE%2C73-01%2037TH%20AVENUE%2C+JACKSON%20HEIGHTS%2C+NY+11372,
DUANE READE,775 COLUMBUS AVENUE,"NEW YORK, NY 10025",http://maps.google.com/maps?q=DUANE%20READE%2C775%20COLUMBUS%20AVENUE%2C+NEW%20YORK%2C+NY+10025,
DUANE READE,949 THIRD AVENUE,"NEW YORK, NY 10022",http://maps.google.com/maps?q=DUANE%20READE%2C949%20THIRD%20AVENUE%2C+NEW%20YORK%2C+NY+10022,
DUANE READE PHCY. DEPT.,110 NEWARK AVENUE,"JERSEY CITY, NJ 07302",http://maps.google.com/maps?q=DUANE%20READE%20PHCY%20DEPT%2C110%20NEWARK%20AVENUE%2C+JERSEY%20CITY%2C+NJ+07302,
EAST 16 STREET PHARMACY INC,1526 CORTELYOU RD,"BROOKLYN, NY 11226",http://maps.google.com/maps?q=EAST%20%20STREET%20PHARMACY%20INC%2C1526%20CORTELYOU%20RD%2C+BROOKLYN%2C+NY+11226,
"EAST MAIN STREET CHEMISTS, INC.",707 EAST MAIN STREET,"MIDDLETOWN, NY 10940",http://maps.google.com/maps?q=EAST%20MAIN%20STREET%20CHEMISTS%20INC%2C707%20EAST%20MAIN%20STREET%2C+MIDDLETOWN%2C+NY+10940,
EASTERN LONG ISLAND HOSPITAL,201 MANOR PLACE,C/O PHARMACY,"GREENPORT, NY 11944",http://maps.google.com/maps?q=EASTERN%20LONG%20ISLAND%20HOSPITAL%2C201%20MANOR%20PLACE%2C+GREENPORT%2C+NY+11944
ECHO PHARMACY,56 ECHO AVENUE,"MILLER PLACE, NY 11764",http://maps.google.com/maps?q=ECHO%20PHARMACY%2C56%20ECHO%20AVENUE%2C+MILLER%20PLACE%2C+NY+11764,
ERX PHARMACEUTICAL LLC,159 RALPH AVE,"BROOKLYN, NY 11233",http://maps.google.com/maps?q=ERX%20PHARMACEUTICAL%20LLC%2C159%20RALPH%20AVE%2C+BROOKLYN%2C+NY+11233,
ESCO DRUG CO INC,687 9TH AVE,"NEW YORK, NY 10036",http://maps.google.com/maps?q=ESCO%20DRUG%20CO%20INC%2C687%209TH%20AVE%2C+NEW%20YORK%2C+NY+10036,
FAIRVIEW HILL REALTY CORP,4747 NESCONSET HWY,"PORT JEFFERSON STATION, NY 11776",http://maps.google.com/maps?q=FAIRVIEW%20HILL%20REALTY%20CORP%2C4747%20NESCONSET%20HWY%2C+PORT%20JEFFERSON%20STATION%2C+NY+11776,
FISHKILL PHARMACY LLC,1004 MAIN ST.,BUILDING 554,"FISHKILL, NY 12524",http://maps.google.com/maps?q=FISHKILL%20PHARMACY%20LLC%2C1004%20MAIN%20ST.%2C+FISHKILL%2C+NY+12524
FLATBUSH RX CORP,1855 FLATBUSH AVE,"BROOKLYN, NY 11210",http://maps.google.com/maps?q=FLATBUSH%20RX%20CORP%2C1855%20FLATBUSH%20AVE%2C+BROOKLYN%2C+NY+11210,
FONTAK INC,2000 NORTH VILLAGE AVENUE,SUITE 107,"ROCKVILLE CENTRE, NY 11570",http://maps.google.com/maps?q=FONTAK%20INC%2C2000%20NORTH%20VILLAGE%20AVENUE%2C+ROCKVILLE%20CENTRE%2C+NY+11570
FRANCO PHARMACY CORP,77-01 37TH AVE,"JACKSON HEIGHTS, NY 11372",http://maps.google.com/maps?q=FRANCO%20PHARMACY%20CORP%2C77-01%2037TH%20AVE%2C+JACKSON%20HEIGHTS%2C+NY+11372,
FRANHILL PHARMACY LLC,20419 HILLSIDE AVE,"HOLLIS, NY 11423",http://maps.google.com/maps?q=FRANHILL%20PHARMACY%20LLC%2C20419%20HILLSIDE%20AVE%2C+HOLLIS%2C+NY+11423,
FRANKLIN SQUARE PHARMACY INC,925 HEMPSTEAD TURNPIKE,ATTN: SUPERVISING PHARMACIST,"FRANKLIN SQUARE, NY 11010",http://maps.google.com/maps?q=FRANKLIN%20SQUARE%20PHARMACY%20INC%2C925%20HEMPSTEAD%20TURNPIKE%2C+FRANKLIN%20SQUARE%2C+NY+11010
FULL CARE PHARMACY INC,2913 SURF AVE,"BROOKLYN, NY 11224",http://maps.google.com/maps?q=FULL%20CARE%20PHARMACY%20INC%2C2913%20SURF%20AVE%2C+BROOKLYN%2C+NY+11224,
"G.S.P. LONGTERM CARE, INC",1567 CENTRAL PARK AVENUE,"YONKERS, NY 10710",http://maps.google.com/maps?q=GSP%20LONGTERM%20CARE%20INC%2C1567%20CENTRAL%20PARK%20AVENUE%2C+YONKERS%2C+NY+10710,
"GENOA HEALTHCARE, LLC",25 E SALEM STREET,"HACKENSACK, NJ 07601",http://maps.google.com/maps?q=GENOA%20HEALTHCARE%20LLC%2C25%20E%20SALEM%20STREET%2C+HACKENSACK%2C+NJ+07601,
GLEN COVE PHARM LLC,20 FOREST AVE,"GLEN COVE, NY 11542",http://maps.google.com/maps?q=GLEN%20COVE%20PHARM%20LLC%2C20%20FOREST%20AVE%2C+GLEN%20COVE%2C+NY+11542,
GRAMATAN PHARMACY CORP,120 GRAMATAN AVENUE,"MOUNT VERNON, NY 10550",http://maps.google.com/maps?q=GRAMATAN%20PHARMACY%20CORP%2C120%20GRAMATAN%20AVENUE%2C+MOUNT%20VERNON%2C+NY+10550,
GRASSY SPRAIN PHARMACY INC,640 TUCKAHOE ROAD,"YONKERS, NY 10710",http://maps.google.com/maps?q=GRASSY%20SPRAIN%20PHARMACY%20INC%2C640%20TUCKAHOE%20ROAD%2C+YONKERS%2C+NY+10710,
HARPELL CHEMISTS INC,12-65 150TH STREET,"WHITESTONE, NY 11357",http://maps.google.com/maps?q=HARPELL%20CHEMISTS%20INC%2C12-65%20150TH%20STREET%2C+WHITESTONE%2C+NY+11357,
HEALTHSMART,203 MAIN ST,"OSSINING, NY 10562",http://maps.google.com/maps?q=HEALTHSMART%2C203%20MAIN%20ST%2C+OSSINING%2C+NY+10562,
HILL RX CORP,9216 4TH AVENUE,"BROOKLYN, NY 11209",http://maps.google.com/maps?q=HILL%20RX%20CORP%2C9216%204TH%20AVENUE%2C+BROOKLYN%2C+NY+11209,
I & O PHARMACY CORP,669 MANHATTAN AVE,"BROOKLYN, NY 11222",http://maps.google.com/maps?q=I%20%20O%20PHARMACY%20CORP%2C669%20MANHATTAN%20AVE%2C+BROOKLYN%2C+NY+11222,
ISLA DRUG STORES INC,1994 THIRD AVE,"NEW YORK, NY 10029",http://maps.google.com/maps?q=ISLA%20DRUG%20STORES%20INC%2C1994%20THIRD%20AVE%2C+NEW%20YORK%2C+NY+10029,
J & D CHEMISTS INC,945 ROSEDALE RD,"VALLEY STREAM, NY 11581",http://maps.google.com/maps?q=J%20%20D%20CHEMISTS%20INC%2C945%20ROSEDALE%20RD%2C+VALLEY%20STREAM%2C+NY+11581,
J A K PHARMA INC,2343 ARTHUR AVENUE,"BRONX, NY 10458",http://maps.google.com/maps?q=J%20A%20K%20PHARMA%20INC%2C2343%20ARTHUR%20AVENUE%2C+BRONX%2C+NY+10458,
JACKSON HEIGHTS DRUGS INC.,BANGLADESH FARMACIA,73-21 37TH ROAD,"JACKSON HEIGHTS, NY 11372",http://maps.google.com/maps?q=JACKSON%20HEIGHTS%20DRUGS%20INC%2CBANGLADESH%20FARMACIA%2C+JACKSON%20HEIGHTS%2C+NY+11372
JAN PHARMA INC,311 ST. NICHOLAS AVENUE,"RIDGEWOOD, NY 11385",http://maps.google.com/maps?q=JAN%20PHARMA%20INC%2C311%20ST.%20NICHOLAS%20AVENUE%2C+RIDGEWOOD%2C+NY+11385,
JOJAN PHARMA INC,121 ST.NICHOLAS AVENUE,"BROOKLYN, NY 11237",http://maps.google.com/maps?q=JOJAN%20PHARMA%20INC%2C121%20ST.NICHOLAS%20AVENUE%2C+BROOKLYN%2C+NY+11237,
KCAID PHARMACY INC.,1771 BROADWAY,"BROOKLYN, NY 11207",http://maps.google.com/maps?q=KCAID%20PHARMACY%20INC%2C1771%20BROADWAY%2C+BROOKLYN%2C+NY+11207,
KING KULLEN PHARMACIES CORP,1235 MIDDLE COUNTRY RD,"MIDDLE ISLAND, NY 11953",http://maps.google.com/maps?q=KING%20KULLEN%20PHARMACIES%20CORP%2C1235%20MIDDLE%20COUNTRY%20RD%2C+MIDDLE%20ISLAND%2C+NY+11953,
KING KULLEN PHARMACIES CORP,315-25 MAIN ROAD,P.O. BOX 993,"CUTCHOGUE, NY 11935",http://maps.google.com/maps?q=KING%20KULLEN%20PHARMACIES%20CORP%2C315-25%20MAIN%20ROAD%2C+CUTCHOGUE%2C+NY+11935
KING KULLEN PHARMACIES CORP,3284 HEMPSTEAD TURNPIKE,"LEVITTOWN, NY 11756",http://maps.google.com/maps?q=KING%20KULLEN%20PHARMACIES%20CORP%2C3284%20HEMPSTEAD%20TURNPIKE%2C+LEVITTOWN%2C+NY+11756,
KING KULLEN PHARMACIES CORP,440 SUNRISE HIGHWAY,"NORTH PATCHOGUE, NY 11772",http://maps.google.com/maps?q=KING%20KULLEN%20PHARMACIES%20CORP%2C440%20SUNRISE%20HIGHWAY%2C+NORTH%20PATCHOGUE%2C+NY+11772,
KING KULLEN PHARMACIES CORP,50 N. NEW YORK AVE,"HUNTINGTON, NY 11743",http://maps.google.com/maps?q=KING%20KULLEN%20PHARMACIES%20CORP%2C50%20N.%20NEW%20YORK%20AVE%2C+HUNTINGTON%2C+NY+11743,
KING KULLEN PHARMACIES CORP,5507-200 NESCONSET HWY RTE 347,"MOUNT SINAI, NY 11766",http://maps.google.com/maps?q=KING%20KULLEN%20PHARMACIES%20CORP%2C5507-200%20NESCONSET%20HWY%20RTE%20347%2C+MOUNT%20SINAI%2C+NY+11766,
KING KULLEN PHARMACIES CORP,552 MONTAUK HIGHWAY,"CENTER MORICHES, NY 11934",http://maps.google.com/maps?q=KING%20KULLEN%20PHARMACIES%20CORP%2C552%20MONTAUK%20HIGHWAY%2C+CENTER%20MORICHES%2C+NY+11934,
KING KULLEN PHARMACIES CORP,C/O PHARMACY,271 JERICHO TURNPIKE,"SYOSSET, NY 11791",http://maps.google.com/maps?q=KING%20KULLEN%20PHARMACIES%20CORP%2CC/O%20PHARMACY%2C+SYOSSET%2C+NY+11791
KING KULLEN PHARMACIES CORP,KING KULLEN PHARMACY #33,460 COUNTY ROAD 111,"MANORVILLE, NY 11949",http://maps.google.com/maps?q=KING%20KULLEN%20PHARMACIES%20CORP%2CKING%20KULLEN%20PHARMACY%20#33%2C+MANORVILLE%2C+NY+11949
KING KULLEN PHARMACIES CORP,KING KULLEN PHARMACY #46,598 STEWART AVENUE,"BETHPAGE, NY 11714",http://maps.google.com/maps?q=KING%20KULLEN%20PHARMACIES%20CORP%2CKING%20KULLEN%20PHARMACY%20#46%2C+BETHPAGE%2C+NY+11714
KINGSBRIDGE PHARMACY CORP.,145 W. KINGSBRIDGE RD.,"BRONX, NY 10468",http://maps.google.com/maps?q=KINGSBRIDGE%20PHARMACY%20CORP%2C145%20W.%20KINGSBRIDGE%20RD.%2C+BRONX%2C+NY+10468,
L & W CHEMISTS INC,25 SOUTHDOWN RD,"HUNTINGTON, NY 11743",http://maps.google.com/maps?q=L%20%20W%20CHEMISTS%20INC%2C25%20SOUTHDOWN%20RD%2C+HUNTINGTON%2C+NY+11743,
LE-MAC PHARMACY INC,623 MC LEAN AVE,"YONKERS, NY 10705",http://maps.google.com/maps?q=LEMAC%20PHARMACY%20INC%2C623%20MC%20LEAN%20AVE%2C+YONKERS%2C+NY+10705,
"LENLAK, INC",325 NEW DORP LANE,"STATEN ISLAND, NY 10306",http://maps.google.com/maps?q=LENLAK%20INC%2C325%20NEW%20DORP%20LANE%2C+STATEN%20ISLAND%2C+NY+10306,
LENOX TERRACE PHARMACY INC,DBA: LENOX TERRACE DRUG,20 WEST 135TH STREET,"NEW YORK, NY 10037",http://maps.google.com/maps?q=LENOX%20TERRACE%20PHARMACY%20INC%2CDBA%3A%20LENOX%20TERRACE%20DRUG%2C+NEW%20YORK%2C+NY+10037
LI SCRIPT LLC,333 CROSSWAYS PARK DRIVE,"WOODBURY, NY 11797",http://maps.google.com/maps?q=LI%20SCRIPT%20LLC%2C333%20CROSSWAYS%20PARK%20DRIVE%2C+WOODBURY%2C+NY+11797,
LIFE PHARMA II INC,471 LENOX AVENUE,"NEW YORK, NY 10037",http://maps.google.com/maps?q=LIFE%20PHARMA%20II%20INC%2C471%20LENOX%20AVENUE%2C+NEW%20YORK%2C+NY+10037,
LONG ISLAND JEWISH MEDICAL CENTER,900 FRANKLIN AVENUE,"VALLEY STREAM, NY 11580",http://maps.google.com/maps?q=LONG%20ISLAND%20JEWISH%20MEDICAL%20CENTER%2C900%20FRANKLIN%20AVENUE%2C+VALLEY%20STREAM%2C+NY+11580,
MADISON PHARMACY,66 MAIN ST,"MADISON, NJ 07940",http://maps.google.com/maps?q=MADISON%20PHARMACY%2C66%20MAIN%20ST%2C+MADISON%2C+NJ+07940,
MARC'S VILLAGE PHARMACY INC,31 EAST MAIN STREET,"ELMSFORD, NY 10523",http://maps.google.com/maps?q=MARCS%20VILLAGE%20PHARMACY%20INC%2C31%20EAST%20MAIN%20STREET%2C+ELMSFORD%2C+NY+10523,
MARG PHARMACY,76 GRAHAM AVE.,"BROOKLYN, NY 11206",http://maps.google.com/maps?q=MARG%20PHARMACY%2C76%20GRAHAM%20AVE.%2C+BROOKLYN%2C+NY+11206,
"MEACHAM PHARMACY,  INC",107 MEACHAM AVENUE,"ELMONT, NY 11003",http://maps.google.com/maps?q=MEACHAM%20PHARMACY%20%20INC%2C107%20MEACHAM%20AVENUE%2C+ELMONT%2C+NY+11003,
MEDLIFE PHARMACY,2000 RT   27 NORTH,"NORTH BRUNSWICK, NJ 08902",http://maps.google.com/maps?q=MEDLIFE%20PHARMACY%2C2000%20RT%20%20%2027%20NORTH%2C+NORTH%20BRUNSWICK%2C+NJ+08902,
MERU PHARMACY INC,2 PARK AVENUE,"YONKERS, NY 10703",http://maps.google.com/maps?q=MERU%20PHARMACY%20INC%2C2%20PARK%20AVENUE%2C+YONKERS%2C+NY+10703,
MIDDLETOWN FAMILY PHARMACY,877 MAIN ST,"BELFORD, NJ 07718",http://maps.google.com/maps?q=MIDDLETOWN%20FAMILY%20PHARMACY%2C877%20MAIN%20ST%2C+BELFORD%2C+NJ+07718,
MIDTOWN DRUGS,581 KEARNY AVE,"KEARNY, NJ 07032",http://maps.google.com/maps?q=MIDTOWN%20DRUGS%2C581%20KEARNY%20AVE%2C+KEARNY%2C+NJ+07032,
MILLERS OF WYCKOFF INC,678 WYCKOFF AVE,"WYCKOFF, NJ 07481",http://maps.google.com/maps?q=MILLERS%20OF%20WYCKOFF%20INC%2C678%20WYCKOFF%20AVE%2C+WYCKOFF%2C+NJ+07481,
MRR PHARMA INC,6220-6222 11TH AVENUE,"BROOKLYN, NY 11219",http://maps.google.com/maps?q=MRR%20PHARMA%20INC%2C6220-6222%2011TH%20AVENUE%2C+BROOKLYN%2C+NY+11219,
MT CARMEL PHARMACY,705 EAST 187TH STREET,"BRONX, NY 10458",http://maps.google.com/maps?q=MT%20CARMEL%20PHARMACY%2C705%20EAST%20187TH%20STREET%2C+BRONX%2C+NY+10458,
MY HOPE PHARMACY LLC,141-14 NORTHERN BLVD.,"FLUSHING, NY 11354",http://maps.google.com/maps?q=MY%20HOPE%20PHARMACY%20LLC%2C141-14%20NORTHERN%20BLVD.%2C+FLUSHING%2C+NY+11354,
NEW ISLAND PHARMACY INC,1912 A DEER PARK AVE,"DEER PARK, NY 11729",http://maps.google.com/maps?q=NEW%20ISLAND%20PHARMACY%20INC%2C1912%20A%20DEER%20PARK%20AVE%2C+DEER%20PARK%2C+NY+11729,
"NEW JERSEY CVS PHARMACY, L.L.C.",107 EAST FIRST AVENUE,"ROSELLE, NJ 07203",http://maps.google.com/maps?q=NEW%20JERSEY%20CVS%20PHARMACY%20LLC%2C107%20EAST%20FIRST%20AVENUE%2C+ROSELLE%2C+NJ+07203,
"NEW JERSEY CVS PHARMACY, L.L.C.",1099 RTE. 33 HAMILTON SQUARE,"HAMILTON, NJ 08690",http://maps.google.com/maps?q=NEW%20JERSEY%20CVS%20PHARMACY%20LLC%2C1099%20RTE.%2033%20HAMILTON%20SQUARE%2C+HAMILTON%2C+NJ+08690,
"NEW JERSEY CVS PHARMACY, L.L.C.",138 VILLAGE CENTER DR,RAINTREE S/C,"FREEHOLD, NJ 07728",http://maps.google.com/maps?q=NEW%20JERSEY%20CVS%20PHARMACY%20LLC%2C138%20VILLAGE%20CENTER%20DR%2C+FREEHOLD%2C+NJ+07728
"NEW JERSEY CVS PHARMACY, L.L.C.",2287 MORRIS AVENUE,"UNION, NJ 07083",http://maps.google.com/maps?q=NEW%20JERSEY%20CVS%20PHARMACY%20LLC%2C2287%20MORRIS%20AVENUE%2C+UNION%2C+NJ+07083,
"NEW JERSEY CVS PHARMACY, L.L.C.",24-12 FAIR LAWN AVENUE,"FAIR LAWN, NJ 07410",http://maps.google.com/maps?q=NEW%20JERSEY%20CVS%20PHARMACY%20LLC%2C24-12%20FAIR%20LAWN%20AVENUE%2C+FAIR%20LAWN%2C+NJ+07410,
"NEW JERSEY CVS PHARMACY, L.L.C.",2440 HAMBURG TURNPIKE,"WAYNE, NJ 07470",http://maps.google.com/maps?q=NEW%20JERSEY%20CVS%20PHARMACY%20LLC%2C2440%20HAMBURG%20TURNPIKE%2C+WAYNE%2C+NJ+07470,
"NEW JERSEY CVS PHARMACY, L.L.C.",303 FRANKLIN AVENUE,"WYCKOFF, NJ 07481",http://maps.google.com/maps?q=NEW%20JERSEY%20CVS%20PHARMACY%20LLC%2C303%20FRANKLIN%20AVENUE%2C+WYCKOFF%2C+NJ+07481,
"NEW JERSEY CVS PHARMACY, L.L.C.",3110 ROUTE 38,"MOUNT LAUREL, NJ 08054",http://maps.google.com/maps?q=NEW%20JERSEY%20CVS%20PHARMACY%20LLC%2C3110%20ROUTE%2038%2C+MOUNT%20LAUREL%2C+NJ+08054,
"NEW JERSEY CVS PHARMACY, L.L.C.",51 BANANIER DR.,"TOMS RIVER, NJ 08755",http://maps.google.com/maps?q=NEW%20JERSEY%20CVS%20PHARMACY%20LLC%2C51%20BANANIER%20DR.%2C+TOMS%20RIVER%2C+NJ+08755,
"NEW JERSEY CVS PHARMACY, L.L.C.",560 PASSIAC AVE,WEST CALDWELL S/C,"WEST CALDWELL, NJ 07006",http://maps.google.com/maps?q=NEW%20JERSEY%20CVS%20PHARMACY%20LLC%2C560%20PASSIAC%20AVE%2C+WEST%20CALDWELL%2C+NJ+07006
"NEW JERSEY CVS PHARMACY, L.L.C.",59 WASHINGTON ST,COURT STREET PLAZA,"HOBOKEN, NJ 07030",http://maps.google.com/maps?q=NEW%20JERSEY%20CVS%20PHARMACY%20LLC%2C59%20WASHINGTON%20ST%2C+HOBOKEN%2C+NJ+07030
"NEW JERSEY CVS PHARMACY, L.L.C.",890 SAINT GEORGE'S AVENUE,"RAHWAY, NJ 07065",http://maps.google.com/maps?q=NEW%20JERSEY%20CVS%20PHARMACY%20LLC%2C890%20SAINT%20GEORGE'S%20AVENUE%2C+RAHWAY%2C+NJ+07065,
"NEW JERSEY CVS PHARMACY, L.L.C.",9015 BERGENLINE AVENUE - 90TH STREET,"NORTH BERGEN, NJ 07047",http://maps.google.com/maps?q=NEW%20JERSEY%20CVS%20PHARMACY%20LLC%2C9015%20BERGENLINE%20AVENUE%20-%2090TH%20STREET%2C+NORTH%20BERGEN%2C+NJ+07047,
NEW ROCHELLE PRESCRIPTION CTR INC,551 MAIN ST.,"NEW ROCHELLE, NY 10801",http://maps.google.com/maps?q=NEW%20ROCHELLE%20PRESCRIPTION%20CTR%20INC%2C551%20MAIN%20ST.%2C+NEW%20ROCHELLE%2C+NY+10801,
NORTH COUNTRY DRUGS INC,227-229 EAST MAIN STREET,"HUNTINGTON, NY 11743",http://maps.google.com/maps?q=NORTH%20COUNTRY%20DRUGS%20INC%2C227-229%20EAST%20MAIN%20STREET%2C+HUNTINGTON%2C+NY+11743,
NORTHERN WESTCHESTER HOSPITAL,400 E MAIN ST,"MOUNT KISCO, NY 10549",http://maps.google.com/maps?q=NORTHERN%20WESTCHESTER%20HOSPITAL%2C400%20E%20MAIN%20ST%2C+MOUNT%20KISCO%2C+NY+10549,
NPL DRUGS INC,6602 AVE U,"BROOKLYN, NY 11234",http://maps.google.com/maps?q=NPL%20DRUGS%20INC%2C6602%20AVE%20U%2C+BROOKLYN%2C+NY+11234,
NY DRUGS INC,CASTLE HILL COMMUNITY PHARMACY,706 CASTLE HILL AVENUE,"BRONX, NY 10473",http://maps.google.com/maps?q=NY%20DRUGS%20INC%2CCASTLE%20HILL%20COMMUNITY%20PHARMACY%2C+BRONX%2C+NY+10473
NY FIRST AVE CORPORATION,206 FIRST AVE,"NEW YORK, NY 10009",http://maps.google.com/maps?q=NY%20FIRST%20AVE%20CORPORATION%2C206%20FIRST%20AVE%2C+NEW%20YORK%2C+NY+10009,
NY SOC FOR THE RELIEF OF RUPTURED AND CRIPPLED,"535 E 70TH STREET, 6TH FLOOR",ATTN PHARMACY,"NEW YORK, NY 10021",http://maps.google.com/maps?q=NY%20SOC%20FOR%20THE%20RELIEF%20OF%20RUPTURED%20AND%20CRIPPLED%2C535%20E%2070TH%20STREET%2C%206TH%20FLOOR%2C+NEW%20YORK%2C+NY+10021
OCEAN A & R PHARMACY INC.,2806 OCEAN AVENUE,"BROOKLYN, NY 11229",http://maps.google.com/maps?q=OCEAN%20A%20%20R%20PHARMACY%20INC%2C2806%20OCEAN%20AVENUE%2C+BROOKLYN%2C+NY+11229,
OCEAN BREEZE ASSOCIATES LLC,1817 HYLAN BOULEVARD,"STATEN ISLAND, NY 10305",http://maps.google.com/maps?q=OCEAN%20BREEZE%20ASSOCIATES%20LLC%2C1817%20HYLAN%20BOULEVARD%2C+STATEN%20ISLAND%2C+NY+10305,
OMNICARE OF SOUTHERN NEW JERSEY,40 TWOSOME DRIVE UNIT 1,"MOORESTOWN, NJ 08057",http://maps.google.com/maps?q=OMNICARE%20OF%20SOUTHERN%20NEW%20JERSEY%2C40%20TWOSOME%20DRIVE%20UNIT%201%2C+MOORESTOWN%2C+NJ+08057,
"PAAK PHARMACY, INC",689 MEDFORD AVE,"PATCHOGUE, NY 11772",http://maps.google.com/maps?q=PAAK%20PHARMACY%20INC%2C689%20MEDFORD%20AVE%2C+PATCHOGUE%2C+NY+11772,
PEARL RIVER CHEMISTS INC,139 NORTH MIDDLETOWN ROAD,"PEARL RIVER, NY 10965",http://maps.google.com/maps?q=PEARL%20RIVER%20CHEMISTS%20INC%2C139%20NORTH%20MIDDLETOWN%20ROAD%2C+PEARL%20RIVER%2C+NY+10965,
PENN MEDICINE CHERRY HILL PHARMACY DEPARTMENT,1865 ROUTE 70 EAST,"CHERRY HILL, NJ 08003",http://maps.google.com/maps?q=PENN%20MEDICINE%20CHERRY%20HILL%20PHARMACY%20DEPARTMENT%2C1865%20ROUTE%2070%20EAST%2C+CHERRY%20HILL%2C+NJ+08003,
"PENNSYLVANIA CVS PHARMACY, L.L.C.",504 S OXFORD VALLEY RD,"FAIRLESS HILLS, PA 19030",http://maps.google.com/maps?q=PENNSYLVANIA%20CVS%20PHARMACY%20LLC%2C504%20S%20OXFORD%20VALLEY%20RD%2C+FAIRLESS%20HILLS%2C+PA+19030,
PHELPS MEMORIAL HOSPITAL ASSOCIATION,701 NORTH BROADWAY,"SLEEPY HOLLOW, NY 10591",http://maps.google.com/maps?q=PHELPS%20MEMORIAL%20HOSPITAL%20ASSOCIATION%2C701%20NORTH%20BROADWAY%2C+SLEEPY%20HOLLOW%2C+NY+10591,
PLAINVIEW FAMILY PHARMACY,142A MANETTO HILL RD,"PLAINVIEW, NY 11803",http://maps.google.com/maps?q=PLAINVIEW%20FAMILY%20PHARMACY%2C142A%20MANETTO%20HILL%20RD%2C+PLAINVIEW%2C+NY+11803,
PROHEALTH PHARMACY INC,385 A/B  SECOND AVE,"NEW YORK, NY 10010",http://maps.google.com/maps?q=PROHEALTH%20PHARMACY%20INC%2C385%20A/B%20%20SECOND%20AVE%2C+NEW%20YORK%2C+NY+10010,
R&P APOTHECARY,D/B/A EVERGREEN DRUGS,87-08 JUSTICE AVENUE,"ELMHURST, NY 11373",http://maps.google.com/maps?q=RP%20APOTHECARY%2CD/B/A%20EVERGREEN%20DRUGS%2C+ELMHURST%2C+NY+11373
RESOLUTION RX INC.,11 EAST MAIN STREET,"PAWLING, NY 12564",http://maps.google.com/maps?q=RESOLUTION%20RX%20INC%2C11%20EAST%20MAIN%20STREET%2C+PAWLING%2C+NY+12564,
RIVERDALE HEALTHY LIFE INC.,D/B/A TRI-ROAD PHARMACY,791 WESTCHESTER AVENUE,"BRONX, NY 10455",http://maps.google.com/maps?q=RIVERDALE%20HEALTHY%20LIFE%20INC%2CD/B/A%20TRI-ROAD%20PHARMACY%2C+BRONX%2C+NY+10455
RND PHARMACY INC,52 WEST BURNSIDE AVE,"BRONX, NY 10453",http://maps.google.com/maps?q=RND%20PHARMACY%20INC%2C52%20WEST%20BURNSIDE%20AVE%2C+BRONX%2C+NY+10453,
S & M PHARMACY INC,68-50 MAIN STREET,"FLUSHING, NY 11367",http://maps.google.com/maps?q=S%20%20M%20PHARMACY%20INC%2C68-50%20MAIN%20STREET%2C+FLUSHING%2C+NY+11367,
SAAR PHARMACY INC.,602 WELLWOOD AVENUE,"LINDENHURST, NY 11757",http://maps.google.com/maps?q=SAAR%20PHARMACY%20INC%2C602%20WELLWOOD%20AVENUE%2C+LINDENHURST%2C+NY+11757,
SALUMED PHARMACY INC.,753 COMMACK RD,"BRENTWOOD, NY 11717",http://maps.google.com/maps?q=SALUMED%20PHARMACY%20INC%2C753%20COMMACK%20RD%2C+BRENTWOOD%2C+NY+11717,
SARVIN DRUGS INC,1155 DEER PARK AVE,"NORTH BABYLON, NY 11703",http://maps.google.com/maps?q=SARVIN%20DRUGS%20INC%2C1155%20DEER%20PARK%20AVE%2C+NORTH%20BABYLON%2C+NY+11703,
SAVALL DRUG INC,393 NO MERRICK AVE,"MERRICK, NY 11566",http://maps.google.com/maps?q=SAVALL%20DRUG%20INC%2C393%20NO%20MERRICK%20AVE%2C+MERRICK%2C+NY+11566,
SEA. J PHARMACY CORP,765-767 MORRIS PARK AVE,"BRONX, NY 10462",http://maps.google.com/maps?q=SEA%20J%20PHARMACY%20CORP%2C765-767%20MORRIS%20PARK%20AVE%2C+BRONX%2C+NY+10462,
SHALOM'S PHARMACY INC,1106 AVENUE K 1ST FLOOR,"BROOKLYN, NY 11230",http://maps.google.com/maps?q=SHALOMS%20PHARMACY%20INC%2C1106%20AVENUE%20K%201ST%20FLOOR%2C+BROOKLYN%2C+NY+11230,
SIDDIQUI CORPORATION,1109 CONEY ISLAND AVE,"BROOKLYN, NY 11230",http://maps.google.com/maps?q=SIDDIQUI%20CORPORATION%2C1109%20CONEY%20ISLAND%20AVE%2C+BROOKLYN%2C+NY+11230,
SOUTHRIFTY DRUG INC,54 JAGGER LANE,"SOUTHAMPTON, NY 11968",http://maps.google.com/maps?q=SOUTHRIFTY%20DRUG%20INC%2C54%20JAGGER%20LANE%2C+SOUTHAMPTON%2C+NY+11968,
SOUTHSIDE HOSPITAL,PHARMACY DEPARTMENT,301 EAST MAIN STREET,"BAYSHORE, NY 11706",http://maps.google.com/maps?q=SOUTHSIDE%20HOSPITAL%2CPHARMACY%20DEPARTMENT%2C+BAYSHORE%2C+NY+11706
SSV PHARMACY CORP,178 E MONTAUK HWY,"LINDENHURST, NY 11757",http://maps.google.com/maps?q=SSV%20PHARMACY%20CORP%2C178%20E%20MONTAUK%20HWY%2C+LINDENHURST%2C+NY+11757,
ST GEORGE PHARMACY,99 STUYVESANT PL,"STATEN ISLAND, NY 10301",http://maps.google.com/maps?q=ST%20GEORGE%20PHARMACY%2C99%20STUYVESANT%20PL%2C+STATEN%20ISLAND%2C+NY+10301,
"STAT RX PHARMACY, INC.",235 EAST 167TH STREET,"BRONX, NY 10456",http://maps.google.com/maps?q=STAT%20RX%20PHARMACY%20INC%2C235%20EAST%20167TH%20STREET%2C+BRONX%2C+NY+10456,
STERLING PHARMACY INC,38-01 BELL BLVD,"BAYSIDE, NY 11361",http://maps.google.com/maps?q=STERLING%20PHARMACY%20INC%2C38-01%20BELL%20BLVD%2C+BAYSIDE%2C+NY+11361,
SUPER HEALTH PHARMACY LLC,6400 AMBOY ROAD,"STATEN ISLAND, NY 10309",http://maps.google.com/maps?q=SUPER%20HEALTH%20PHARMACY%20LLC%2C6400%20AMBOY%20ROAD%2C+STATEN%20ISLAND%2C+NY+10309,
SVA PHARMACY CORP,119-01 JAMAICA AVE,"RICHMOND HILL, NY 11418",http://maps.google.com/maps?q=SVA%20PHARMACY%20CORP%2C119-01%20JAMAICA%20AVE%2C+RICHMOND%20HILL%2C+NY+11418,
SYMART DRUG CO INC,162 CROTON AVE,"OSSINING, NY 10562",http://maps.google.com/maps?q=SYMART%20DRUG%20CO%20INC%2C162%20CROTON%20AVE%2C+OSSINING%2C+NY+10562,
"TACONIC PHARMACY, INC",3659 LEE ROAD,"JEFFERSON VALLEY, NY 10535",http://maps.google.com/maps?q=TACONIC%20PHARMACY%20INC%2C3659%20LEE%20ROAD%2C+JEFFERSON%20VALLEY%2C+NY+10535,
"TAFT'S PHARMACY, INC.",6024 5TH AVENUE,"BROOKLYN, NY 11220",http://maps.google.com/maps?q=TAFTS%20PHARMACY%20INC%2C6024%205TH%20AVENUE%2C+BROOKLYN%2C+NY+11220,
"TAP RX, LLC",111 EXECUTIVE BLVD,"FARMINGDALE, NY 11735",http://maps.google.com/maps?q=TAP%20RX%20LLC%2C111%20EXECUTIVE%20BLVD%2C+FARMINGDALE%2C+NY+11735,
THE LONG ISLAND HOME,C/O PHARMACY,400 SUNRISE HIGHWAY,"AMITYVILLE, NY 11701",http://maps.google.com/maps?q=THE%20LONG%20ISLAND%20HOME%2CC/O%20PHARMACY%2C+AMITYVILLE%2C+NY+11701
THREE J'S PHARMACY INC,90-12 ELMHURST AVE,"JACKSON HEIGHTS, NY 11372",http://maps.google.com/maps?q=THREE%20JS%20PHARMACY%20INC%2C90-12%20ELMHURST%20AVE%2C+JACKSON%20HEIGHTS%2C+NY+11372,
TIFFANY NATURAL PHARMACY,"1115 SOUTH AVENUE W,","WESTFIELD, NJ 07090",http://maps.google.com/maps?q=TIFFANY%20NATURAL%20PHARMACY%2C1115%20SOUTH%20AVENUE%20W%2C%2C+WESTFIELD%2C+NJ+07090,
"TOTAL CARE RX, INC.",57-37 MAIN STREET,"FLUSHING, NY 11355",http://maps.google.com/maps?q=TOTAL%20CARE%20RX%20INC%2C57-37%20MAIN%20STREET%2C+FLUSHING%2C+NY+11355,
TOWN CENTER PHARMACY,575 MAIN STREET,"ARMONK, NY 10504",http://maps.google.com/maps?q=TOWN%20CENTER%20PHARMACY%2C575%20MAIN%20STREET%2C+ARMONK%2C+NY+10504,
TOWNE CENTRE PHARMACY,2540 ROUTE 55,P.O. BOX 335,"POUGHQUAG, NY 12570",http://maps.google.com/maps?q=TOWNE%20CENTRE%20PHARMACY%2C2540%20ROUTE%2055%2C+POUGHQUAG%2C+NY+12570
"TRANSCRIPT PHARMACY OF NEW YORK, INC.",87 HEMPSTEAD TURNPIKE,"FARMINGDALE, NY 11735",http://maps.google.com/maps?q=TRANSCRIPT%20PHARMACY%20OF%20NEW%20YORK%20INC%2C87%20HEMPSTEAD%20TURNPIKE%2C+FARMINGDALE%2C+NY+11735,
TROTTA'S WEST STREET PHAR INC,15 HALSTEAD AVE,"HARRISON, NY 10528",http://maps.google.com/maps?q=TROTTAS%20WEST%20STREET%20PHAR%20INC%2C15%20HALSTEAD%20AVE%2C+HARRISON%2C+NY+10528,
TWIN CITY PHARMACY,1708 PARK AVENUE,"SOUTH PLAINFIELD, NJ 07080",http://maps.google.com/maps?q=TWIN%20CITY%20PHARMACY%2C1708%20PARK%20AVENUE%2C+SOUTH%20PLAINFIELD%2C+NJ+07080,
US ARMY MALOGNE CADET HEALTH CLINIC,CADET HEALTH CLINIC,2 THAYER ROAD BLDG. 606,"WEST POINT, NY 10996",http://maps.google.com/maps?q=US%20ARMY%20MALOGNE%20CADET%20HEALTH%20CLINIC%2CCADET%20HEALTH%20CLINIC%2C+WEST%20POINT%2C+NY+10996
US ARMY- KELLER COMMUNITY HOSPITAL,900 WASHINGTON RD,"WEST POINT, NY 10996",http://maps.google.com/maps?q=US%20ARMY%20KELLER%20COMMUNITY%20HOSPITAL%2C900%20WASHINGTON%20RD%2C+WEST%20POINT%2C+NY+10996,
USAF- 87TH MED LOGISTICS/SGSM,3458 NEELY ROAD,"MC GUIRE AFB, NJ 08641",http://maps.google.com/maps?q=USAF%20TH%20MED%20LOGISTICSSGSM%2C3458%20NEELY%20ROAD%2C+MC%20GUIRE%20AFB%2C+NJ+08641,
USMAN INC,3001 CLARENDON RD,"BROOKLYN, NY 11226",http://maps.google.com/maps?q=USMAN%20INC%2C3001%20CLARENDON%20RD%2C+BROOKLYN%2C+NY+11226,
USN NAVAL SUBMARINE BASE MEDICAL,1 WAHOO AVE,SUBASE NLON BUILDING 449,"GROTON, CT 06349",http://maps.google.com/maps?q=USN%20NAVAL%20SUBMARINE%20BASE%20MEDICAL%2C1%20WAHOO%20AVE%2C+GROTON%2C+CT+06349
VICTORY RX LLC,395 FOREST AVENUE,"STATEN ISLAND, NY 10301",http://maps.google.com/maps?q=VICTORY%20RX%20LLC%2C395%20FOREST%20AVENUE%2C+STATEN%20ISLAND%2C+NY+10301,
VIJAN PHARMA INC,312 RALPH AVE,"BROOKLYN, NY 11233",http://maps.google.com/maps?q=VIJAN%20PHARMA%20INC%2C312%20RALPH%20AVE%2C+BROOKLYN%2C+NY+11233,
WALGREEN EASTERN CO INC,1230 NEPPERHAN AVE,"YONKERS, NY 10703",http://maps.google.com/maps?q=WALGREEN%20EASTERN%20CO%20INC%2C1230%20NEPPERHAN%20AVE%2C+YONKERS%2C+NY+10703,
"WALGREEN EASTERN CO., INC.",100 BROADWAY,"ELMWOOD PARK, NJ 07407",http://maps.google.com/maps?q=WALGREEN%20EASTERN%20CO%20INC%2C100%20BROADWAY%2C+ELMWOOD%20PARK%2C+NJ+07407,
"WALGREEN EASTERN CO., INC.",104-25-31 QUEENS BLV,"FOREST HILLS, NY 11375",http://maps.google.com/maps?q=WALGREEN%20EASTERN%20CO%20INC%2C104-25-31%20QUEENS%20BLV%2C+FOREST%20HILLS%2C+NY+11375,
"WALGREEN EASTERN CO., INC.",109-62 FRANCIS LEWIS BLVD,"QUEENS VILLAGE, NY 11429",http://maps.google.com/maps?q=WALGREEN%20EASTERN%20CO%20INC%2C109-62%20FRANCIS%20LEWIS%20BLVD%2C+QUEENS%20VILLAGE%2C+NY+11429,
"WALGREEN EASTERN CO., INC.",1096 ROUTE 33,"HAMILTON, NJ 08690",http://maps.google.com/maps?q=WALGREEN%20EASTERN%20CO%20INC%2C1096%20ROUTE%2033%2C+HAMILTON%2C+NJ+08690,
"WALGREEN EASTERN CO., INC.",114 BEVERLEY RD.,"BROOKLYN, NY 11218",http://maps.google.com/maps?q=WALGREEN%20EASTERN%20CO%20INC%2C114%20BEVERLEY%20RD.%2C+BROOKLYN%2C+NY+11218,
"WALGREEN EASTERN CO., INC.",119-02 ROCKAWAY BLVD.,"SOUTH OZONE PARK, NY 11420",http://maps.google.com/maps?q=WALGREEN%20EASTERN%20CO%20INC%2C119-02%20ROCKAWAY%20BLVD.%2C+SOUTH%20OZONE%20PARK%2C+NY+11420,
"WALGREEN EASTERN CO., INC.",12704 GUY R BREWER BLVD,"JAMAICA, NY 11434",http://maps.google.com/maps?q=WALGREEN%20EASTERN%20CO%20INC%2C12704%20GUY%20R%20BREWER%20BLVD%2C+JAMAICA%2C+NY+11434,
"WALGREEN EASTERN CO., INC.",1281 FULTON ST.,"BROOKLYN, NY 11216",http://maps.google.com/maps?q=WALGREEN%20EASTERN%20CO%20INC%2C1281%20FULTON%20ST.%2C+BROOKLYN%2C+NY+11216,
"WALGREEN EASTERN CO., INC.",129 SOMERSET ST,"SOMERVILLE, NJ 08876",http://maps.google.com/maps?q=WALGREEN%20EASTERN%20CO%20INC%2C129%20SOMERSET%20ST%2C+SOMERVILLE%2C+NJ+08876,
"WALGREEN EASTERN CO., INC.",1311 ROUTE 37 W,"TOMS RIVER, NJ 08755",http://maps.google.com/maps?q=WALGREEN%20EASTERN%20CO%20INC%2C1311%20ROUTE%2037%20W%2C+TOMS%20RIVER%2C+NJ+08755,
"WALGREEN EASTERN CO., INC.",1551 RICHMOND AVE,"STATEN ISLAND, NY 10314",http://maps.google.com/maps?q=WALGREEN%20EASTERN%20CO%20INC%2C1551%20RICHMOND%20AVE%2C+STATEN%20ISLAND%2C+NY+10314,
"WALGREEN EASTERN CO., INC.",1561 JOHN F KENNEDY BLVD,"JERSEY CITY, NJ 07305",http://maps.google.com/maps?q=WALGREEN%20EASTERN%20CO%20INC%2C1561%20JOHN%20F%20KENNEDY%20BLVD%2C+JERSEY%20CITY%2C+NJ+07305,
"WALGREEN EASTERN CO., INC.",1770 DEER PARK AVE,"DEER PARK, NY 11729",http://maps.google.com/maps?q=WALGREEN%20EASTERN%20CO%20INC%2C1770%20DEER%20PARK%20AVE%2C+DEER%20PARK%2C+NY+11729,
"WALGREEN EASTERN CO., INC.",1905 CORLIES AVE,"NEPTUNE, NJ 07753",http://maps.google.com/maps?q=WALGREEN%20EASTERN%20CO%20INC%2C1905%20CORLIES%20AVE%2C+NEPTUNE%2C+NJ+07753,
"WALGREEN EASTERN CO., INC.",200 BALDWIN RD. SUITE 200,"PARSIPPANY, NJ 07054",http://maps.google.com/maps?q=WALGREEN%20EASTERN%20CO%20INC%2C200%20BALDWIN%20RD.%20SUITE%20200%2C+PARSIPPANY%2C+NJ+07054,
"WALGREEN EASTERN CO., INC.",2095 DUTCH BROADWAY,"ELMONT, NY 11003",http://maps.google.com/maps?q=WALGREEN%20EASTERN%20CO%20INC%2C2095%20DUTCH%20BROADWAY%2C+ELMONT%2C+NY+11003,
"WALGREEN EASTERN CO., INC.",210 S BROADWAY,"HICKSVILLE, NY 11801",http://maps.google.com/maps?q=WALGREEN%20EASTERN%20CO%20INC%2C210%20S%20BROADWAY%2C+HICKSVILLE%2C+NY+11801,
"WALGREEN EASTERN CO., INC.",2148 MORRIS AVE,"UNION, NJ 07083",http://maps.google.com/maps?q=WALGREEN%20EASTERN%20CO%20INC%2C2148%20MORRIS%20AVE%2C+UNION%2C+NJ+07083,
"WALGREEN EASTERN CO., INC.",216 STATE ROUTE 36,"WEST LONG BRANCH, NJ 07764",http://maps.google.com/maps?q=WALGREEN%20EASTERN%20CO%20INC%2C216%20STATE%20ROUTE%2036%2C+WEST%20LONG%20BRANCH%2C+NJ+07764,
"WALGREEN EASTERN CO., INC.",22 EAST ST GEORGES AVENUE,"LINDEN, NJ 07036",http://maps.google.com/maps?q=WALGREEN%20EASTERN%20CO%20INC%2C22%20EAST%20ST%20GEORGES%20AVENUE%2C+LINDEN%2C+NJ+07036,
"WALGREEN EASTERN CO., INC.",2353 LAKEWOOD RD,"TOMS RIVER, NJ 08755",http://maps.google.com/maps?q=WALGREEN%20EASTERN%20CO%20INC%2C2353%20LAKEWOOD%20RD%2C+TOMS%20RIVER%2C+NJ+08755,
"WALGREEN EASTERN CO., INC.",2395 KENNEDY BLVD.,"JERSEY CITY, NJ 07304",http://maps.google.com/maps?q=WALGREEN%20EASTERN%20CO%20INC%2C2395%20KENNEDY%20BLVD.%2C+JERSEY%20CITY%2C+NJ+07304,
"WALGREEN EASTERN CO., INC.",2479 CHURCH ROAD,"TOMS RIVER, NJ 08753",http://maps.google.com/maps?q=WALGREEN%20EASTERN%20CO%20INC%2C2479%20CHURCH%20ROAD%2C+TOMS%20RIVER%2C+NJ+08753,
"WALGREEN EASTERN CO., INC.",298 FIRST AVE,"NEW YORK, NY 10009",http://maps.google.com/maps?q=WALGREEN%20EASTERN%20CO%20INC%2C298%20FIRST%20AVE%2C+NEW%20YORK%2C+NY+10009,
"WALGREEN EASTERN CO., INC.",31 CAVALRY DR.,"NEW CITY, NY 10956",http://maps.google.com/maps?q=WALGREEN%20EASTERN%20CO%20INC%2C31%20CAVALRY%20DR.%2C+NEW%20CITY%2C+NY+10956,
"WALGREEN EASTERN CO., INC.",393 FRONT ST,"HEMPSTEAD, NY 11550",http://maps.google.com/maps?q=WALGREEN%20EASTERN%20CO%20INC%2C393%20FRONT%20ST%2C+HEMPSTEAD%2C+NY+11550,
"WALGREEN EASTERN CO., INC.",4120 HEMPSTEAD TURNPIKE,"BETHPAGE, NY 11714",http://maps.google.com/maps?q=WALGREEN%20EASTERN%20CO%20INC%2C4120%20HEMPSTEAD%20TURNPIKE%2C+BETHPAGE%2C+NY+11714,
"WALGREEN EASTERN CO., INC.",421 RYDERS LANE,"EAST BRUNSWICK, NJ 08816",http://maps.google.com/maps?q=WALGREEN%20EASTERN%20CO%20INC%2C421%20RYDERS%20LANE%2C+EAST%20BRUNSWICK%2C+NJ+08816,
"WALGREEN EASTERN CO., INC.",425 W MAIN ST,"FREEHOLD, NJ 07728",http://maps.google.com/maps?q=WALGREEN%20EASTERN%20CO%20INC%2C425%20W%20MAIN%20ST%2C+FREEHOLD%2C+NJ+07728,
"WALGREEN EASTERN CO., INC.",508 DR MARTIN LUTHER KING JR,"EAST ORANGE, NJ 07018",http://maps.google.com/maps?q=WALGREEN%20EASTERN%20CO%20INC%2C508%20DR%20MARTIN%20LUTHER%20KING%20JR%2C+EAST%20ORANGE%2C+NJ+07018,
"WALGREEN EASTERN CO., INC.",520 CONVERY BLVD.,"PERTH AMBOY, NJ 08861",http://maps.google.com/maps?q=WALGREEN%20EASTERN%20CO%20INC%2C520%20CONVERY%20BLVD.%2C+PERTH%20AMBOY%2C+NJ+08861,
"WALGREEN EASTERN CO., INC.",5564 BROADWAY,"BRONX, NY 10463",http://maps.google.com/maps?q=WALGREEN%20EASTERN%20CO%20INC%2C5564%20BROADWAY%2C+BRONX%2C+NY+10463,
"WALGREEN EASTERN CO., INC.",600 NEWARK AVE,"ELIZABETH, NJ 07208",http://maps.google.com/maps?q=WALGREEN%20EASTERN%20CO%20INC%2C600%20NEWARK%20AVE%2C+ELIZABETH%2C+NJ+07208,
"WALGREEN EASTERN CO., INC.",637 HOBOKEN ROAD,"CARLSTADT, NJ 07072",http://maps.google.com/maps?q=WALGREEN%20EASTERN%20CO%20INC%2C637%20HOBOKEN%20ROAD%2C+CARLSTADT%2C+NJ+07072,
"WALGREEN EASTERN CO., INC.",639 E 18TH ST,"PATERSON, NJ 07501",http://maps.google.com/maps?q=WALGREEN%20EASTERN%20CO%20INC%2C639%20E%2018TH%20ST%2C+PATERSON%2C+NJ+07501,
"WALGREEN EASTERN CO., INC.",655 MIDDLE COUNTRY RD,"SELDEN, NY 11784",http://maps.google.com/maps?q=WALGREEN%20EASTERN%20CO%20INC%2C655%20MIDDLE%20COUNTRY%20RD%2C+SELDEN%2C+NY+11784,
"WALGREEN EASTERN CO., INC.",72 CRESCENT AVE,"WALDWICK, NJ 07463",http://maps.google.com/maps?q=WALGREEN%20EASTERN%20CO%20INC%2C72%20CRESCENT%20AVE%2C+WALDWICK%2C+NJ+07463,
"WALGREEN EASTERN CO., INC.",758 ARTHUR KILL RD,"STATEN ISLAND, NY 10312",http://maps.google.com/maps?q=WALGREEN%20EASTERN%20CO%20INC%2C758%20ARTHUR%20KILL%20RD%2C+STATEN%20ISLAND%2C+NY+10312,
"WALGREEN EASTERN CO., INC.",8420 BROADWAY,"ELMHURST, NY 11373",http://maps.google.com/maps?q=WALGREEN%20EASTERN%20CO%20INC%2C8420%20BROADWAY%2C+ELMHURST%2C+NY+11373,
"WALGREEN EASTERN CO., INC.",8500 NEW FALLS ROAD,"LEVITTOWN, PA 19054",http://maps.google.com/maps?q=WALGREEN%20EASTERN%20CO%20INC%2C8500%20NEW%20FALLS%20ROAD%2C+LEVITTOWN%2C+PA+19054,
"WALGREEN EASTERN CO., INC.",89 HENRY STREET,"FREEPORT, NY 11520",http://maps.google.com/maps?q=WALGREEN%20EASTERN%20CO%20INC%2C89%20HENRY%20STREET%2C+FREEPORT%2C+NY+11520,
WELLNESS CENTER PHARMACY,4013 BROADWAY,"ASTORIA, NY 11103",http://maps.google.com/maps?q=WELLNESS%20CENTER%20PHARMACY%2C4013%20BROADWAY%2C+ASTORIA%2C+NY+11103,
YASIK 2 INC,54-56A MYRTLE AVE,"RIDGEWOOD, NY 11385",http://maps.google.com/maps?q=YASIK%20%20INC%2C54-56A%20MYRTLE%20AVE%2C+RIDGEWOOD%2C+NY+11385,
