Business Name,Address 1,Address 2,"City, State Zip",Map URL
ACCESS PHARMACY,17833 1ST AVE. S. STE. C,"NORMANDY PARK, WA 98148",http://maps.google.com/maps?q=ACCESS%20PHARMACY%2C17833%201ST%20AVE.%20S.%20STE.%20C%2C+NORMANDY%20PARK%2C+WA+98148,
"ALEXANDRIA DRUGS, LLC",515 MINOR AVE,SUITE# 120,"SEATTLE, WA 98104",http://maps.google.com/maps?q=ALEXANDRIA%20DRUGS%20LLC%2C515%20MINOR%20AVE%2C+SEATTLE%2C+WA+98104
APOTHECARY AT GOOD SAMARITAN,1040 NW 22ND AVE,STE 100,"PORTLAND, OR 97210",http://maps.google.com/maps?q=APOTHECARY%20AT%20GOOD%20SAMARITAN%2C1040%20NW%2022ND%20AVE%2C+PORTLAND%2C+OR+97210
APOTHECARY AT SALMON CREEK,2121 N.E. 139TH STREET,SUITE 310,"VANCOUVER, WA 98686",http://maps.google.com/maps?q=APOTHECARY%20AT%20SALMON%20CREEK%2C2121%20N.E.%20139TH%20STREET%2C+VANCOUVER%2C+WA+98686
ARLINGTON PHARMACY,540 N WEST AVE,"ARLINGTON, WA 98223",http://maps.google.com/maps?q=ARLINGTON%20PHARMACY%2C540%20N%20WEST%20AVE%2C+ARLINGTON%2C+WA+98223,
BREWSTER MARKETPLACE PHARMACY & T. V. HARDWARE LLC,811 HWY 97,PO BOX 69,"BREWSTER, WA 98812",http://maps.google.com/maps?q=BREWSTER%20MARKETPLACE%20PHARMACY%20%20T%20V%20HARDWARE%20LLC%2C811%20HWY%2097%2C+BREWSTER%2C+WA+98812
CAMP RILEY DRUG INC DBA PHARMASAVE MONROE,17788 147TH ST SE,"MONROE, WA 98272",http://maps.google.com/maps?q=CAMP%20RILEY%20DRUG%20INC%20DBA%20PHARMASAVE%20MONROE%2C17788%20147TH%20ST%20SE%2C+MONROE%2C+WA+98272,
CARLSON'S UMATILLA DRUG,821 6TH ST,PO BOX 1497,"UMATILLA, OR 97882",http://maps.google.com/maps?q=CARLSONS%20UMATILLA%20DRUG%2C821%206TH%20ST%2C+UMATILLA%2C+OR+97882
CAROLYN DOWNS FAMILY MEDICAL CENTER PHARMACY,2101 E YESLER WAY,"SEATTLE, WA 98122",http://maps.google.com/maps?q=CAROLYN%20DOWNS%20FAMILY%20MEDICAL%20CENTER%20PHARMACY%2C2101%20E%20YESLER%20WAY%2C+SEATTLE%2C+WA+98122,
CASCADE BEHAVIORAL HOSPITAL,12844 MILITARY ROAD S,"TUKWILA, WA 98168",http://maps.google.com/maps?q=CASCADE%20BEHAVIORAL%20HOSPITAL%2C12844%20MILITARY%20ROAD%20S%2C+TUKWILA%2C+WA+98168,
CENTRAL WASHINGTON FAMILY MEDICINE PHARMACY,1806 W. LINCOLN AVENUE,"YAKIMA, WA 98902",http://maps.google.com/maps?q=CENTRAL%20WASHINGTON%20FAMILY%20MEDICINE%20PHARMACY%2C1806%20W.%20LINCOLN%20AVENUE%2C+YAKIMA%2C+WA+98902,
CENTRAL WASHINGTON HLT SER AS,1201 S. MILLER STREET,"WENATCHEE, WA 98801",http://maps.google.com/maps?q=CENTRAL%20WASHINGTON%20HLT%20SER%20AS%2C1201%20S.%20MILLER%20STREET%2C+WENATCHEE%2C+WA+98801,
CHC OF SNOHOMISH COUNTY,1019 112TH STREET SW,"EVERETT, WA 98204",http://maps.google.com/maps?q=CHC%20OF%20SNOHOMISH%20COUNTY%2C1019%20112TH%20STREET%20SW%2C+EVERETT%2C+WA+98204,
CHC OF SNOHOMISH COUNTY,EVERETT-NORTH PHARMACY,1424 BROADWAY,"EVERETT, WA 98201",http://maps.google.com/maps?q=CHC%20OF%20SNOHOMISH%20COUNTY%2CEVERETT-NORTH%20PHARMACY%2C+EVERETT%2C+WA+98201
CHC OF SNOHOMISH COUNTY EDMONDS PHARMACY,23320 HIGHWAY 99,"EDMONDS, WA 98026",http://maps.google.com/maps?q=CHC%20OF%20SNOHOMISH%20COUNTY%20EDMONDS%20PHARMACY%2C23320%20HIGHWAY%2099%2C+EDMONDS%2C+WA+98026,
COLUMBIA MEMORIAL HOSPITAL,2111 EXCHANGE ST,"ASTORIA, OR 97103",http://maps.google.com/maps?q=COLUMBIA%20MEMORIAL%20HOSPITAL%2C2111%20EXCHANGE%20ST%2C+ASTORIA%2C+OR+97103,
COMMUNITY HEALTH CARE,PHARMACY,11225 PACIFIC AVENUE,"TACOMA, WA 98444",http://maps.google.com/maps?q=COMMUNITY%20HEALTH%20CARE%2CPHARMACY%2C+TACOMA%2C+WA+98444
COMMUNITY HEALTH CARE,PHARMACY,1202 MLK JR WAY,"TACOMA, WA 98405",http://maps.google.com/maps?q=COMMUNITY%20HEALTH%20CARE%2CPHARMACY%2C+TACOMA%2C+WA+98405
COMMUNITY HEALTH CARE PHARMACY,1708 E 44TH ST,"TACOMA, WA 98404",http://maps.google.com/maps?q=COMMUNITY%20HEALTH%20CARE%20PHARMACY%2C1708%20E%2044TH%20ST%2C+TACOMA%2C+WA+98404,
COMMUNITY HEALTH CARE PHARMACY - SPANAWAY,134 188TH ST S,"SPANAWAY, WA 98387",http://maps.google.com/maps?q=COMMUNITY%20HEALTH%20CARE%20PHARMACY%20%20SPANAWAY%2C134%20188TH%20ST%20S%2C+SPANAWAY%2C+WA+98387,
COMMUNITY HLTH CARE PHARMACY,10510 GRAVELLY LAKE DR SW,"LAKEWOOD, WA 98499",http://maps.google.com/maps?q=COMMUNITY%20HLTH%20CARE%20PHARMACY%2C10510%20GRAVELLY%20LAKE%20DR%20SW%2C+LAKEWOOD%2C+WA+98499,
CONFEDERATED TRIBES OF GRAND RONDE,9605 GRAND RONDE RD,"GRAND RONDE, OR 97347",http://maps.google.com/maps?q=CONFEDERATED%20TRIBES%20OF%20GRAND%20RONDE%2C9605%20GRAND%20RONDE%20RD%2C+GRAND%20RONDE%2C+OR+97347,
COPE WILLIAM D,134 WASHINGTON AVE S,P.O. BOX 549,"ORTING, WA 98360",http://maps.google.com/maps?q=COPE%20WILLIAM%20D%2C134%20WASHINGTON%20AVE%20S%2C+ORTING%2C+WA+98360
COSTCO WHOLESALE CORPORATION,DBA COSTCO PHARMACY#1,4401 4TH AVENUE SOUTH,"SEATTLE, WA 98134",http://maps.google.com/maps?q=COSTCO%20WHOLESALE%20CORPORATION%2CDBA%20COSTCO%20PHARMACY#1%2C+SEATTLE%2C+WA+98134
"COSTLESS SENIOR SERVICES, INC",14216 92ND AVE NW STE B,"GIG HARBOR, WA 98329",http://maps.google.com/maps?q=COSTLESS%20SENIOR%20SERVICES%20INC%2C14216%2092ND%20AVE%20NW%20STE%20B%2C+GIG%20HARBOR%2C+WA+98329,
COULEE COMMUNITY HOSPITAL,411 FORTUYN RD,"GRAND COULEE, WA 99133",http://maps.google.com/maps?q=COULEE%20COMMUNITY%20HOSPITAL%2C411%20FORTUYN%20RD%2C+GRAND%20COULEE%2C+WA+99133,
COUNTRY DOCTOR COMMUNITY HEALTH CLINIC PHARMACY,500 19TH AVE E,"SEATTLE, WA 98112",http://maps.google.com/maps?q=COUNTRY%20DOCTOR%20COMMUNITY%20HEALTH%20CLINIC%20PHARMACY%2C500%2019TH%20AVE%20E%2C+SEATTLE%2C+WA+98112,
COVINGTON MULTICARE CLINIC PHARMACY,"17700 SE 272ND ST,  STE 100","COVINGTON, WA 98042",http://maps.google.com/maps?q=COVINGTON%20MULTICARE%20CLINIC%20PHARMACY%2C17700%20SE%20272ND%20ST%2C%20%20STE%20100%2C+COVINGTON%2C+WA+98042,
DAVE'S PRESCRIPTION SHOP,911 SW 4TH AVENUE,"CANBY, OR 97013",http://maps.google.com/maps?q=DAVES%20PRESCRIPTION%20SHOP%2C911%20SW%204TH%20AVENUE%2C+CANBY%2C+OR+97013,
DES MOINES PHARMACY,627 S 227TH ST,"DES MOINES, WA 98198",http://maps.google.com/maps?q=DES%20MOINES%20PHARMACY%2C627%20S%20227TH%20ST%2C+DES%20MOINES%2C+WA+98198,
DOC PHARMACY SERVICES,20311 OLD HIGHWAY 9 SW,"CENTRALIA, WA 98531",http://maps.google.com/maps?q=DOC%20PHARMACY%20SERVICES%2C20311%20OLD%20HIGHWAY%209%20SW%2C+CENTRALIA%2C+WA+98531,
EAST COUNTY HEALTH SERVICES,600 NE 8TH ST FL 3,"GRESHAM, OR 97030",http://maps.google.com/maps?q=EAST%20COUNTY%20HEALTH%20SERVICES%2C600%20NE%208TH%20ST%20FL%203%2C+GRESHAM%2C+OR+97030,
EMANUEL HOSP & HEALTH CENTER,DIRECTOR OF PHARMACY SERVICES,2801 N GANTENBEIN AVE,"PORTLAND, OR 97227",http://maps.google.com/maps?q=EMANUEL%20HOSP%20%20HEALTH%20CENTER%2CDIRECTOR%20OF%20PHARMACY%20SERVICES%2C+PORTLAND%2C+OR+97227
EVERGREEN PROFESSIONAL CENTER,12303 NE 130TH LANE,SUITE 210,"KIRKLAND, WA 98034",http://maps.google.com/maps?q=EVERGREEN%20PROFESSIONAL%20CENTER%2C12303%20NE%20130TH%20LANE%2C+KIRKLAND%2C+WA+98034
FAMILY PHARMACY,7315 212TH ST SW STE 100,"EDMONDS, WA 98026",http://maps.google.com/maps?q=FAMILY%20PHARMACY%2C7315%20212TH%20ST%20SW%20STE%20100%2C+EDMONDS%2C+WA+98026,
FIRCREST PHARMACY,1107 REGENTS BLVD,"FIRCREST, WA 98466",http://maps.google.com/maps?q=FIRCREST%20PHARMACY%2C1107%20REGENTS%20BLVD%2C+FIRCREST%2C+WA+98466,
FRED MEYER STORES INC.,600 NW RICHMOND BEACH ROAD,"SHORELINE, WA 98177",http://maps.google.com/maps?q=FRED%20MEYER%20STORES%20INC%2C600%20NW%20RICHMOND%20BEACH%20ROAD%2C+SHORELINE%2C+WA+98177,
"GENOA HEALTHCARE, LLC","110 BEAVERCREEK RD, STE 102","OREGON CITY, OR 97045",http://maps.google.com/maps?q=GENOA%20HEALTHCARE%20LLC%2C110%20BEAVERCREEK%20RD%2C%20STE%20102%2C+OREGON%20CITY%2C+OR+97045,
"GENOA HEALTHCARE, LLC",5455 ALMIRA DRIVE NE,STE 329,"BREMERTON, WA 98311",http://maps.google.com/maps?q=GENOA%20HEALTHCARE%20LLC%2C5455%20ALMIRA%20DRIVE%20NE%2C+BREMERTON%2C+WA+98311
"GENOA HEALTHCARE, LLC",998 LIBRARY CT. ROOM 4,"OREGON CITY, OR 97045",http://maps.google.com/maps?q=GENOA%20HEALTHCARE%20LLC%2C998%20LIBRARY%20CT.%20ROOM%204%2C+OREGON%20CITY%2C+OR+97045,
HARBORVIEW MEDICAL CENTER OUTPATIENT PHARMACY,325 NINTH AVE,MAILSTOP 359912,"SEATTLE, WA 98104",http://maps.google.com/maps?q=HARBORVIEW%20MEDICAL%20CENTER%20OUTPATIENT%20PHARMACY%2C325%20NINTH%20AVE%2C+SEATTLE%2C+WA+98104
HARBORVIEW NINTH AND JEFFERSON PHARMACY,908 JEFFERSON STREET,HARBORVIEW MEDICAL CENTER MS 359912,"SEATTLE, WA 98104",http://maps.google.com/maps?q=HARBORVIEW%20NINTH%20AND%20JEFFERSON%20PHARMACY%2C908%20JEFFERSON%20STREET%2C+SEATTLE%2C+WA+98104
HEALTHPOINT AUBURN NORTH PHARMACY,923 AUBURN WAY N,"AUBURN, WA 98002",http://maps.google.com/maps?q=HEALTHPOINT%20AUBURN%20NORTH%20PHARMACY%2C923%20AUBURN%20WAY%20N%2C+AUBURN%2C+WA+98002,
HEALTHPOINT AUBURN PHARMACY,126  AUBURN  AVENUE,SUITE  104,"AUBURN, WA 98002",http://maps.google.com/maps?q=HEALTHPOINT%20AUBURN%20PHARMACY%2C126%20%20AUBURN%20%20AVENUE%2C+AUBURN%2C+WA+98002
HEALTHPOINT BOTHELL PHARMACY,10414 BEARDSLEE BLVD,SUITE 201,"BOTHELL, WA 98011",http://maps.google.com/maps?q=HEALTHPOINT%20BOTHELL%20PHARMACY%2C10414%20BEARDSLEE%20BLVD%2C+BOTHELL%2C+WA+98011
HEALTHPOINT FEDERAL WAY PHARMACY,33431 13TH PL. S.,"FEDERAL WAY, WA 98003",http://maps.google.com/maps?q=HEALTHPOINT%20FEDERAL%20WAY%20PHARMACY%2C33431%2013TH%20PL.%20S.%2C+FEDERAL%20WAY%2C+WA+98003,
HEALTHPOINT KENT PHARMACY,403 E MEEKER ST STE 300,"KENT, WA 98030",http://maps.google.com/maps?q=HEALTHPOINT%20KENT%20PHARMACY%2C403%20E%20MEEKER%20ST%20STE%20300%2C+KENT%2C+WA+98030,
HEALTHPOINT MIDWAY PHARMACY,26401 PACIFIC HWY S,SUITE 102,"DES MOINES, WA 98198",http://maps.google.com/maps?q=HEALTHPOINT%20MIDWAY%20PHARMACY%2C26401%20PACIFIC%20HWY%20S%2C+DES%20MOINES%2C+WA+98198
HEALTHPOINT REDMOND PHARMACY,16315 NE 87TH ST,SUITE B6,"REDMOND, WA 98052",http://maps.google.com/maps?q=HEALTHPOINT%20REDMOND%20PHARMACY%2C16315%20NE%2087TH%20ST%2C+REDMOND%2C+WA+98052
HEALTHPOINT SEATAC PHARMACY,4040 S 188TH ST STE 201,"SEATAC, WA 98188",http://maps.google.com/maps?q=HEALTHPOINT%20SEATAC%20PHARMACY%2C4040%20S%20188TH%20ST%20STE%20201%2C+SEATAC%2C+WA+98188,
HEALTHPOINT TUKWILA PHARMACY,13030 MILITARY RD S,SUITE 206,"TUKWILA, WA 98168",http://maps.google.com/maps?q=HEALTHPOINT%20TUKWILA%20PHARMACY%2C13030%20MILITARY%20RD%20S%2C+TUKWILA%2C+WA+98168
HILTON PHARMACY LLC,220 STATE AVENUE,"MARYSVILLE, WA 98270",http://maps.google.com/maps?q=HILTON%20PHARMACY%20LLC%2C220%20STATE%20AVENUE%2C+MARYSVILLE%2C+WA+98270,
HIMERX PHARMACY LLC,3901 NE 4TH ST,STE 102A,"RENTON, WA 98056",http://maps.google.com/maps?q=HIMERX%20PHARMACY%20LLC%2C3901%20NE%204TH%20ST%2C+RENTON%2C+WA+98056
HOLLY PARK CLINIC PHARMACY,3815 S OTHELLO ST FL 2,2ND FL,"SEATTLE, WA 98118",http://maps.google.com/maps?q=HOLLY%20PARK%20CLINIC%20PHARMACY%2C3815%20S%20OTHELLO%20ST%20FL%202%2C+SEATTLE%2C+WA+98118
ICHS SHORELINE PHARMACY,16549 AURORA AVE N,"SHORELINE, WA 98133",http://maps.google.com/maps?q=ICHS%20SHORELINE%20PHARMACY%2C16549%20AURORA%20AVE%20N%2C+SHORELINE%2C+WA+98133,
INCHELIUM HEALTH CENTER,39 SHORTCUT ROAD,KETTLE FALLS HIGHWAY,"INCHELIUM, WA 99138",http://maps.google.com/maps?q=INCHELIUM%20HEALTH%20CENTER%2C39%20SHORTCUT%20ROAD%2C+INCHELIUM%2C+WA+99138
INTERNATIONAL COMM HLTH SRVCS,INTERNATIONAL DISTRICT CLINIC,720 8TH AVE S SUITE 100,"SEATTLE, WA 98104",http://maps.google.com/maps?q=INTERNATIONAL%20COMM%20HLTH%20SRVCS%2CINTERNATIONAL%20DISTRICT%20CLINIC%2C+SEATTLE%2C+WA+98104
JOLLYS PHARMACY INCORPORATED,1412 SW 43RD STREET,SUITE 120B,"RENTON, WA 98057",http://maps.google.com/maps?q=JOLLYS%20PHARMACY%20INCORPORATED%2C1412%20SW%2043RD%20STREET%2C+RENTON%2C+WA+98057
JRK PHARMA INC,7631 212TH ST SW SUITE D-100,"EDMONDS, WA 98026",http://maps.google.com/maps?q=JRK%20PHARMA%20INC%2C7631%20212TH%20ST%20SW%20SUITE%20D-100%2C+EDMONDS%2C+WA+98026,
KAISER FOUNDATION HEALTH PLAN,EAST INTERSTATE PHARMACY,3550 N. INTERSTATE AVENUE,"PORTLAND, OR 97227",http://maps.google.com/maps?q=KAISER%20FOUNDATION%20HEALTH%20PLAN%2CEAST%20INTERSTATE%20PHARMACY%2C+PORTLAND%2C+OR+97227
KAISER FOUNDATION HEALTH PLAN OF NW,BEAVERTON PHARMACY,4855 SW WESTERN AVENUE,"BEAVERTON, OR 97005",http://maps.google.com/maps?q=KAISER%20FOUNDATION%20HEALTH%20PLAN%20OF%20NW%2CBEAVERTON%20PHARMACY%2C+BEAVERTON%2C+OR+97005
KAISER FOUNDATION HEALTH PLAN OF WASHINGTON,1007 39TH AVE SE,"PUYALLUP, WA 98374",http://maps.google.com/maps?q=KAISER%20FOUNDATION%20HEALTH%20PLAN%20OF%20WASHINGTON%2C1007%2039TH%20AVE%20SE%2C+PUYALLUP%2C+WA+98374,
KAISER FOUNDATION HEALTH PLAN OF WASHINGTON,10452 SILVERDALE WAY NW,"SILVERDALE, WA 98383",http://maps.google.com/maps?q=KAISER%20FOUNDATION%20HEALTH%20PLAN%20OF%20WASHINGTON%2C10452%20SILVERDALE%20WAY%20NW%2C+SILVERDALE%2C+WA+98383,
KAISER FOUNDATION HEALTH PLAN OF WASHINGTON,11511 NE 10TH STREET,"BELLEVUE, WA 98004",http://maps.google.com/maps?q=KAISER%20FOUNDATION%20HEALTH%20PLAN%20OF%20WASHINGTON%2C11511%20NE%2010TH%20STREET%2C+BELLEVUE%2C+WA+98004,
KAISER FOUNDATION HEALTH PLAN OF WASHINGTON,11913 NORTHEAST 195TH STREET,"BOTHELL, WA 98011",http://maps.google.com/maps?q=KAISER%20FOUNDATION%20HEALTH%20PLAN%20OF%20WASHINGTON%2C11913%20NORTHEAST%20195TH%20STREET%2C+BOTHELL%2C+WA+98011,
KAISER FOUNDATION HEALTH PLAN OF WASHINGTON,125 16TH AVE E,"SEATTLE, WA 98112",http://maps.google.com/maps?q=KAISER%20FOUNDATION%20HEALTH%20PLAN%20OF%20WASHINGTON%2C125%2016TH%20AVE%20E%2C+SEATTLE%2C+WA+98112,
KAISER FOUNDATION HEALTH PLAN OF WASHINGTON,13451 SE 36TH,"BELLEVUE, WA 98006",http://maps.google.com/maps?q=KAISER%20FOUNDATION%20HEALTH%20PLAN%20OF%20WASHINGTON%2C13451%20SE%2036TH%2C+BELLEVUE%2C+WA+98006,
KAISER FOUNDATION HEALTH PLAN OF WASHINGTON,15809 BEAR CREEK PARKWAY,SUITE 110,"REDMOND, WA 98052",http://maps.google.com/maps?q=KAISER%20FOUNDATION%20HEALTH%20PLAN%20OF%20WASHINGTON%2C15809%20BEAR%20CREEK%20PARKWAY%2C+REDMOND%2C+WA+98052
KAISER FOUNDATION HEALTH PLAN OF WASHINGTON,201 16TH AVE EAST,"PHARMACY OFFICE, #CMB DB19","SEATTLE, WA 98112",http://maps.google.com/maps?q=KAISER%20FOUNDATION%20HEALTH%20PLAN%20OF%20WASHINGTON%2C201%2016TH%20AVE%20EAST%2C+SEATTLE%2C+WA+98112
KAISER FOUNDATION HEALTH PLAN OF WASHINGTON,20200 54TH AVE W,"LYNNWOOD, WA 98036",http://maps.google.com/maps?q=KAISER%20FOUNDATION%20HEALTH%20PLAN%20OF%20WASHINGTON%2C20200%2054TH%20AVE%20W%2C+LYNNWOOD%2C+WA+98036,
KAISER FOUNDATION HEALTH PLAN OF WASHINGTON,209 MARTIN LUTHER KING JR WAY,"TACOMA, WA 98405",http://maps.google.com/maps?q=KAISER%20FOUNDATION%20HEALTH%20PLAN%20OF%20WASHINGTON%2C209%20MARTIN%20LUTHER%20KING%20JR%20WAY%2C+TACOMA%2C+WA+98405,
KAISER FOUNDATION HEALTH PLAN OF WASHINGTON,26004 104TH AVENUE S.E.,"KENT, WA 98030",http://maps.google.com/maps?q=KAISER%20FOUNDATION%20HEALTH%20PLAN%20OF%20WASHINGTON%2C26004%20104TH%20AVENUE%20S.E.%2C+KENT%2C+WA+98030,
KAISER FOUNDATION HEALTH PLAN OF WASHINGTON,275 BRONSON WAY NE,KAISER PERMANENTE RENTON PHARMACY,"RENTON, WA 98056",http://maps.google.com/maps?q=KAISER%20FOUNDATION%20HEALTH%20PLAN%20OF%20WASHINGTON%2C275%20BRONSON%20WAY%20NE%2C+RENTON%2C+WA+98056
KAISER FOUNDATION HEALTH PLAN OF WASHINGTON,2930 MAPLE ST,"EVERETT, WA 98201",http://maps.google.com/maps?q=KAISER%20FOUNDATION%20HEALTH%20PLAN%20OF%20WASHINGTON%2C2930%20MAPLE%20ST%2C+EVERETT%2C+WA+98201,
KAISER FOUNDATION HEALTH PLAN OF WASHINGTON,301 S 320TH ST,"FEDERAL WAY, WA 98003",http://maps.google.com/maps?q=KAISER%20FOUNDATION%20HEALTH%20PLAN%20OF%20WASHINGTON%2C301%20S%20320TH%20ST%2C+FEDERAL%20WAY%2C+WA+98003,
KAISER FOUNDATION HEALTH PLAN OF WASHINGTON,5316 RAINIER AVENUE SOUTH,"SEATTLE, WA 98118",http://maps.google.com/maps?q=KAISER%20FOUNDATION%20HEALTH%20PLAN%20OF%20WASHINGTON%2C5316%20RAINIER%20AVENUE%20SOUTH%2C+SEATTLE%2C+WA+98118,
KAISER FOUNDATION HEALTH PLAN OF WASHINGTON,9505 S STEELE ST,"TACOMA, WA 98444",http://maps.google.com/maps?q=KAISER%20FOUNDATION%20HEALTH%20PLAN%20OF%20WASHINGTON%2C9505%20S%20STEELE%20ST%2C+TACOMA%2C+WA+98444,
KAISER FOUNDATION HEALTH PLAN OF WASHINGTON,9800 4TH AVE N.E.,"SEATTLE, WA 98115",http://maps.google.com/maps?q=KAISER%20FOUNDATION%20HEALTH%20PLAN%20OF%20WASHINGTON%2C9800%204TH%20AVE%20N.E.%2C+SEATTLE%2C+WA+98115,
KAISER FOUNDATION HEALTH PLAN OF WASHINGTON,BURIEN BRANCH,140 SW 146TH ST,"SEATTLE, WA 98166",http://maps.google.com/maps?q=KAISER%20FOUNDATION%20HEALTH%20PLAN%20OF%20WASHINGTON%2CBURIEN%20BRANCH%2C+SEATTLE%2C+WA+98166
KAISER FOUNDATION HEALTH PLAN OF WASHINGTON,CITY CENTER BUILDING,"1420 5TH AVE, STE 375","SEATTLE, WA 98101",http://maps.google.com/maps?q=KAISER%20FOUNDATION%20HEALTH%20PLAN%20OF%20WASHINGTON%2CCITY%20CENTER%20BUILDING%2C+SEATTLE%2C+WA+98101
KAISER FOUNDATION HEALTH PLAN OF WASHINGTON,KAISER PERMANENTE - PORT ORCHARD PHARMACY,1400 POTTERY AVENUE,"PORT ORCHARD, WA 98366",http://maps.google.com/maps?q=KAISER%20FOUNDATION%20HEALTH%20PLAN%20OF%20WASHINGTON%2CKAISER%20PERMANENTE%20-%20PORT%20ORCHARD%20PHARMACY%2C+PORT%20ORCHARD%2C+WA+98366
KAISER FOUNDATION HEALTH PLAN OF WASHINGTON,KAISER PERMANENTE - POULSBO PHARMACY,19379 7TH AVE NE,"POULSBO, WA 98370",http://maps.google.com/maps?q=KAISER%20FOUNDATION%20HEALTH%20PLAN%20OF%20WASHINGTON%2CKAISER%20PERMANENTE%20-%20POULSBO%20PHARMACY%2C+POULSBO%2C+WA+98370
KAISER PERM MED OFF PHCY,19500 SE STARK ST.,"PORTLAND, OR 97233",http://maps.google.com/maps?q=KAISER%20PERM%20MED%20OFF%20PHCY%2C19500%20SE%20STARK%20ST.%2C+PORTLAND%2C+OR+97233,
KAISER PERMANENTE,10100 SE SUNNYSIDE ROAD,"CLACKAMAS, OR 97015",http://maps.google.com/maps?q=KAISER%20PERMANENTE%2C10100%20SE%20SUNNYSIDE%20ROAD%2C+CLACKAMAS%2C+OR+97015,
KAISER PERMANENTE,5125 SKYLINE ROAD SOUTH,"SALEM, OR 97306",http://maps.google.com/maps?q=KAISER%20PERMANENTE%2C5125%20SKYLINE%20ROAD%20SOUTH%2C+SALEM%2C+OR+97306,
KAISER SUNNYBROOK PHARMACY,9900 SE SUNNYSIDE ROAD,"CLACKAMAS, OR 97015",http://maps.google.com/maps?q=KAISER%20SUNNYBROOK%20PHARMACY%2C9900%20SE%20SUNNYSIDE%20ROAD%2C+CLACKAMAS%2C+OR+97015,
KELLEY-ROSS PHARMACY,904 7TH AVE #103,"SEATTLE, WA 98104",http://maps.google.com/maps?q=KELLEYROSS%20PHARMACY%2C904%207TH%20AVE%20#103%2C+SEATTLE%2C+WA+98104,
KIRK'S PHARMACY,104 MASHELL AVE NORTH,PO BOX 99,"EATONVILLE, WA 98328",http://maps.google.com/maps?q=KIRKS%20PHARMACY%2C104%20MASHELL%20AVE%20NORTH%2C+EATONVILLE%2C+WA+98328
KIRK'S PHARMACY AT SUNRISE,"11212 SUNRISE BLVD E, SUITE 204","PUYALLUP, WA 98374",http://maps.google.com/maps?q=KIRKS%20PHARMACY%20AT%20SUNRISE%2C11212%20SUNRISE%20BLVD%20E%2C%20SUITE%20204%2C+PUYALLUP%2C+WA+98374,
KIRKS PHARMACY AT PUYALLUP,618 S MERIDIAN,"PUYALLUP, WA 98371",http://maps.google.com/maps?q=KIRKS%20PHARMACY%20AT%20PUYALLUP%2C618%20S%20MERIDIAN%2C+PUYALLUP%2C+WA+98371,
KITSAP PHARMACY AT THE,CENTRAL MARKET,20148 10TH AVE NE,"POULSBO, WA 98370",http://maps.google.com/maps?q=KITSAP%20PHARMACY%20AT%20THE%2CCENTRAL%20MARKET%2C+POULSBO%2C+WA+98370
KLICKITAT VALLEY HOSPITAL,310 SOUTH ROOSEVELT,"GOLDENDALE, WA 98620",http://maps.google.com/maps?q=KLICKITAT%20VALLEY%20HOSPITAL%2C310%20SOUTH%20ROOSEVELT%2C+GOLDENDALE%2C+WA+98620,
KVH INC.,15602 MAIN STREET NE,"DUVALL, WA 98019",http://maps.google.com/maps?q=KVH%20INC%2C15602%20MAIN%20STREET%20NE%2C+DUVALL%2C+WA+98019,
LAKE CHELAN PHARMACY INC,223 EAST JOHNSON AVENUE,"CHELAN, WA 98816",http://maps.google.com/maps?q=LAKE%20CHELAN%20PHARMACY%20INC%2C223%20EAST%20JOHNSON%20AVENUE%2C+CHELAN%2C+WA+98816,
LAKESIDE PHARMACY,1117 MAIN ST,"OROVILLE, WA 98844",http://maps.google.com/maps?q=LAKESIDE%20PHARMACY%2C1117%20MAIN%20ST%2C+OROVILLE%2C+WA+98844,
LAKETOWN PHARMACY PLLC,1550 S PIONEER WAY STE 105,"MOSES LAKE, WA 98837",http://maps.google.com/maps?q=LAKETOWN%20PHARMACY%20PLLC%2C1550%20S%20PIONEER%20WAY%20STE%20105%2C+MOSES%20LAKE%2C+WA+98837,
LEGACY MT. HOOD MEDICAL CENTER PHARMACY - RETAIL,24800 SE STARK STREET,"GRESHAM, OR 97030",http://maps.google.com/maps?q=LEGACY%20MT%20HOOD%20MEDICAL%20CENTER%20PHARMACY%20%20RETAIL%2C24800%20SE%20STARK%20STREET%2C+GRESHAM%2C+OR+97030,
LINCOLN HOSPITAL,LINCOLN COUNTY PUBLIC HOSP DIS,10 NICHOLLS ST,"DAVENPORT, WA 99122",http://maps.google.com/maps?q=LINCOLN%20HOSPITAL%2CLINCOLN%20COUNTY%20PUBLIC%20HOSP%20DIS%2C+DAVENPORT%2C+WA+99122
LINCOLN PHARMACY,821 SOUTH 38TH STREET,"TACOMA, WA 98418",http://maps.google.com/maps?q=LINCOLN%20PHARMACY%2C821%20SOUTH%2038TH%20STREET%2C+TACOMA%2C+WA+98418,
LINCOLN PHARMACY LTC,821 B SOUTH 38TH STREET,"TACOMA, WA 98418",http://maps.google.com/maps?q=LINCOLN%20PHARMACY%20LTC%2C821%20B%20SOUTH%2038TH%20STREET%2C+TACOMA%2C+WA+98418,
MERIDIAN PARK MEDICAL CENTER COMMUNITY PHARMACY,19300 SW 65TH AVE,"TUALATIN, OR 97062",http://maps.google.com/maps?q=MERIDIAN%20PARK%20MEDICAL%20CENTER%20COMMUNITY%20PHARMACY%2C19300%20SW%2065TH%20AVE%2C+TUALATIN%2C+OR+97062,
MIDCOUNTY CLINIC PHARMACY,MULTNOMAH COUNTY HLTH DIV,12710 SE DIVISION,"PORTLAND, OR 97236",http://maps.google.com/maps?q=MIDCOUNTY%20CLINIC%20PHARMACY%2CMULTNOMAH%20COUNTY%20HLTH%20DIV%2C+PORTLAND%2C+OR+97236
MOSES LAKE COMMUNITY HEALTH CENTER PHARMACY,605 S COOLIDGE STREET,"MOSES LAKE, WA 98837",http://maps.google.com/maps?q=MOSES%20LAKE%20COMMUNITY%20HEALTH%20CENTER%20PHARMACY%2C605%20S%20COOLIDGE%20STREET%2C+MOSES%20LAKE%2C+WA+98837,
MUCKLESHOOT HWC PHARMACY,17500 SE 392ND ST,"AUBURN, WA 98092",http://maps.google.com/maps?q=MUCKLESHOOT%20HWC%20PHARMACY%2C17500%20SE%20392ND%20ST%2C+AUBURN%2C+WA+98092,
MULTNOMAH COUNTY HEALTH DEPT,NE HEALTH CENTER PHARMACY,5329 NE MARTIN LUTHER KING BLV,"PORTLAND, OR 97211",http://maps.google.com/maps?q=MULTNOMAH%20COUNTY%20HEALTH%20DEPT%2CNE%20HEALTH%20CENTER%20PHARMACY%2C+PORTLAND%2C+OR+97211
NORTH VALLEY HOSPITAL,203 S. WESTERN,"TONASKET, WA 98855",http://maps.google.com/maps?q=NORTH%20VALLEY%20HOSPITAL%2C203%20S.%20WESTERN%2C+TONASKET%2C+WA+98855,
NORTHWEST PRESCRIPTIONS & MEDICAL SUPPLY,1536 NORTH 115TH STREET,SUITE 100,"SEATTLE, WA 98133",http://maps.google.com/maps?q=NORTHWEST%20PRESCRIPTIONS%20%20MEDICAL%20SUPPLY%2C1536%20NORTH%20115TH%20STREET%2C+SEATTLE%2C+WA+98133
NORTHWOODS LODGE PHARMACY,2321 NW SCHOLD PL,"SILVERDALE, WA 98383",http://maps.google.com/maps?q=NORTHWOODS%20LODGE%20PHARMACY%2C2321%20NW%20SCHOLD%20PL%2C+SILVERDALE%2C+WA+98383,
OKANOGAN DOUGLAS CTY HOSP PHA,507 HOSPITAL WAY,PO BOX 577,"BREWSTER, WA 98812",http://maps.google.com/maps?q=OKANOGAN%20DOUGLAS%20CTY%20HOSP%20PHA%2C507%20HOSPITAL%20WAY%2C+BREWSTER%2C+WA+98812
OMAK PHARMACY INC,903 ENGH RD,SUITE#A,"OMAK, WA 98841",http://maps.google.com/maps?q=OMAK%20PHARMACY%20INC%2C903%20ENGH%20RD%2C+OMAK%2C+WA+98841
OSTROM DRUGS,6414 NE BOTHELL WAY,"KENMORE, WA 98028",http://maps.google.com/maps?q=OSTROM%20DRUGS%2C6414%20NE%20BOTHELL%20WAY%2C+KENMORE%2C+WA+98028,
OTHELLO STATION PHARMACY,4219 S OTHELLO ST STE 105F,"SEATTLE, WA 98118",http://maps.google.com/maps?q=OTHELLO%20STATION%20PHARMACY%2C4219%20S%20OTHELLO%20ST%20STE%20105F%2C+SEATTLE%2C+WA+98118,
PARKLAND MARKET PLACE,13322 PACIFIC AVE SO,"TACOMA, WA 98444",http://maps.google.com/maps?q=PARKLAND%20MARKET%20PLACE%2C13322%20PACIFIC%20AVE%20SO%2C+TACOMA%2C+WA+98444,
"PENINSULA COMM HLTH SVCS PHCY, PORT ORCHARD",320 S KITSAP BLVD,"PORT ORCHARD, WA 98366",http://maps.google.com/maps?q=PENINSULA%20COMM%20HLTH%20SVCS%20PHCY%20PORT%20ORCHARD%2C320%20S%20KITSAP%20BLVD%2C+PORT%20ORCHARD%2C+WA+98366,
PENINSULA COMMUNITY HEALTH SERVICES,616 6TH STREET,PO BOX 960,"BREMERTON, WA 98337",http://maps.google.com/maps?q=PENINSULA%20COMMUNITY%20HEALTH%20SERVICES%2C616%206TH%20STREET%2C+BREMERTON%2C+WA+98337
PENINSULA COMMUNITY HEALTH SVCS PHARMACY - BELFAIR,31 NE STATE ROUTE 300,STE 102,"BELFAIR, WA 98528",http://maps.google.com/maps?q=PENINSULA%20COMMUNITY%20HEALTH%20SVCS%20PHARMACY%20%20BELFAIR%2C31%20NE%20STATE%20ROUTE%20300%2C+BELFAIR%2C+WA+98528
PENINSULA COMMUNITY HEALTH SVCS PHARMACY-POULSBO,19917 SEVENTH AVE NE,SUITE 205,"POULSBO, WA 98370",http://maps.google.com/maps?q=PENINSULA%20COMMUNITY%20HEALTH%20SVCS%20PHARMACYPOULSBO%2C19917%20SEVENTH%20AVE%20NE%2C+POULSBO%2C+WA+98370
PENINSULA COMMUNITY HEALTH SVCS PHARMACY-WHEATON,2508 WHEATON WAY,"BREMERTON, WA 98310",http://maps.google.com/maps?q=PENINSULA%20COMMUNITY%20HEALTH%20SVCS%20PHARMACYWHEATON%2C2508%20WHEATON%20WAY%2C+BREMERTON%2C+WA+98310,
PHARM A SAVE INC,207 E STANLEY ST #A,PO BOX 990,"GRANITE FALLS, WA 98252",http://maps.google.com/maps?q=PHARM%20A%20SAVE%20INC%2C207%20E%20STANLEY%20ST%20#A%2C+GRANITE%20FALLS%2C+WA+98252
PHARMACY PLUS,1299 156TH AVE NE #140,"BELLEVUE, WA 98007",http://maps.google.com/maps?q=PHARMACY%20PLUS%2C1299%20156TH%20AVE%20NE%20#140%2C+BELLEVUE%2C+WA+98007,
PHS INDIAN HLTH CENTER,3750 CHEMAWA ROAD N.E.,"SALEM, OR 97305",http://maps.google.com/maps?q=PHS%20INDIAN%20HLTH%20CENTER%2C3750%20CHEMAWA%20ROAD%20N.E.%2C+SALEM%2C+OR+97305,
PRESCRIPTION PAD PHARMACY - SOUTH,400 SOUTH 43RD STREET,"RENTON, WA 98055",http://maps.google.com/maps?q=PRESCRIPTION%20PAD%20PHARMACY%20%20SOUTH%2C400%20SOUTH%2043RD%20STREET%2C+RENTON%2C+WA+98055,
PROSSER MEMORIAL HOSPITAL,723 MEMORIAL STREET,"PROSSER, WA 99350",http://maps.google.com/maps?q=PROSSER%20MEMORIAL%20HOSPITAL%2C723%20MEMORIAL%20STREET%2C+PROSSER%2C+WA+99350,
PROVIDENCE HEALTH & SERVICES - OREGON,18610 NW CORNELL RD,SUITE 102,"HILLSBORO, OR 97124",http://maps.google.com/maps?q=PROVIDENCE%20HEALTH%20%20SERVICES%20%20OREGON%2C18610%20NW%20CORNELL%20RD%2C+HILLSBORO%2C+OR+97124
PROVIDENCE HEALTH & SERVICES - OREGON,5050 NE HOYT STREET,SUITE #142,"PORTLAND, OR 97213",http://maps.google.com/maps?q=PROVIDENCE%20HEALTH%20%20SERVICES%20%20OREGON%2C5050%20NE%20HOYT%20STREET%2C+PORTLAND%2C+OR+97213
PROVIDENCE HEALTH & SERVICES - OREGON,725  S. WAHANNA ROAD,"SEASIDE, OR 97138",http://maps.google.com/maps?q=PROVIDENCE%20HEALTH%20%20SERVICES%20%20OREGON%2C725%20%20S.%20WAHANNA%20ROAD%2C+SEASIDE%2C+OR+97138,
PROVIDENCE HEALTH & SERVICES - OREGON,9155 SOUTHWEST BARNES ROAD,"PORTLAND, OR 97225",http://maps.google.com/maps?q=PROVIDENCE%20HEALTH%20%20SERVICES%20%20OREGON%2C9155%20SOUTHWEST%20BARNES%20ROAD%2C+PORTLAND%2C+OR+97225,
PROVIDENCE HEALTH AND SERVICES - WA,19200 N KELSEY ST,"MONROE, WA 98272",http://maps.google.com/maps?q=PROVIDENCE%20HEALTH%20AND%20SERVICES%20%20WA%2C19200%20N%20KELSEY%20ST%2C+MONROE%2C+WA+98272,
PROVIDENCE MEDICAL CENTER PHARMACY,1321 COLBY AVENUE,C WING 1ST FLOOR,"EVERETT, WA 98201",http://maps.google.com/maps?q=PROVIDENCE%20MEDICAL%20CENTER%20PHARMACY%2C1321%20COLBY%20AVENUE%2C+EVERETT%2C+WA+98201
PROVIDENCE MT CARMEL HOSPITAL PHARMACY,982 E COLUMBIA AVE,"COLVILLE, WA 99114",http://maps.google.com/maps?q=PROVIDENCE%20MT%20CARMEL%20HOSPITAL%20PHARMACY%2C982%20E%20COLUMBIA%20AVE%2C+COLVILLE%2C+WA+99114,
PUBLIC HEALTH,2124 FOURTH AVENUE,"SEATTLE, WA 98121",http://maps.google.com/maps?q=PUBLIC%20HEALTH%2C2124%20FOURTH%20AVENUE%2C+SEATTLE%2C+WA+98121,
PURDY COST LESS PRESCRIPTIONS,14218 92ND AVENUE NW,"GIG HARBOR, WA 98329",http://maps.google.com/maps?q=PURDY%20COST%20LESS%20PRESCRIPTIONS%2C14218%2092ND%20AVENUE%20NW%2C+GIG%20HARBOR%2C+WA+98329,
QFC #851/EDMONDS,22828 100TH AVENUE WEST,"EDMONDS, WA 98020",http://maps.google.com/maps?q=QFC%20EDMONDS%2C22828%20100TH%20AVENUE%20WEST%2C+EDMONDS%2C+WA+98020,
QFC #852/EVERETT,4919 EVERGREEN WAY,"EVERETT, WA 98203",http://maps.google.com/maps?q=QFC%20EVERETT%2C4919%20EVERGREEN%20WAY%2C+EVERETT%2C+WA+98203,
QFC #860/REDMOND,8867 161ST AVENUE NE,"REDMOND, WA 98052",http://maps.google.com/maps?q=QFC%20REDMOND%2C8867%20161ST%20AVENUE%20NE%2C+REDMOND%2C+WA+98052,
QFC PHARMACY,1009 MONROE ST,"ENUMCLAW, WA 98022",http://maps.google.com/maps?q=QFC%20PHARMACY%2C1009%20MONROE%20ST%2C+ENUMCLAW%2C+WA+98022,
QFC PHARMACY,18921 BOTHELL WAY NE,"BOTHELL, WA 98011",http://maps.google.com/maps?q=QFC%20PHARMACY%2C18921%20BOTHELL%20WAY%20NE%2C+BOTHELL%2C+WA+98011,
QFC PHARMACY,2636 BELLEVUE WAY NE,"BELLEVUE, WA 98004",http://maps.google.com/maps?q=QFC%20PHARMACY%2C2636%20BELLEVUE%20WAY%20NE%2C+BELLEVUE%2C+WA+98004,
QFC PHARMACY,3550 FACTORIA BLVD SE,"BELLEVUE, WA 98006",http://maps.google.com/maps?q=QFC%20PHARMACY%2C3550%20FACTORIA%20BLVD%20SE%2C+BELLEVUE%2C+WA+98006,
QFC PHARMACY #807,2746 NE 45TH,"SEATTLE, WA 98105",http://maps.google.com/maps?q=QFC%20PHARMACY%2C2746%20NE%2045TH%2C+SEATTLE%2C+WA+98105,
QFC PHARMACY #809,211 PARK PLACE CENTER,"KIRKLAND, WA 98033",http://maps.google.com/maps?q=QFC%20PHARMACY%2C211%20PARK%20PLACE%20CENTER%2C+KIRKLAND%2C+WA+98033,
QFC PHARMACY #821,1540 GILMAN BLVD.,"ISSAQUAH, WA 98027",http://maps.google.com/maps?q=QFC%20PHARMACY%2C1540%20GILMAN%20BLVD.%2C+ISSAQUAH%2C+WA+98027,
QFC PHARMACY #840,4570 KLAHANIE DRIVE SE,"ISSAQUAH, WA 98029",http://maps.google.com/maps?q=QFC%20PHARMACY%2C4570%20KLAHANIE%20DRIVE%20SE%2C+ISSAQUAH%2C+WA+98029,
QFC PHARMACY #853,2615 BROADWAY,"EVERETT, WA 98201",http://maps.google.com/maps?q=QFC%20PHARMACY%2C2615%20BROADWAY%2C+EVERETT%2C+WA+98201,
QFC PHARMACY #866,11100 ROOSEVELT WAY NE,"SEATTLE, WA 98125",http://maps.google.com/maps?q=QFC%20PHARMACY%2C11100%20ROOSEVELT%20WAY%20NE%2C+SEATTLE%2C+WA+98125,
QFC PHARMACY #874,1510 145 PLACE SE,"BELLEVUE, WA 98007",http://maps.google.com/maps?q=QFC%20PHARMACY%2C1510%20145%20PLACE%20SE%2C+BELLEVUE%2C+WA+98007,
QFC PHARMACY #878,23475 NE NOVELTY HILL ROAD,"REDMOND, WA 98053",http://maps.google.com/maps?q=QFC%20PHARMACY%2C23475%20NE%20NOVELTY%20HILL%20ROAD%2C+REDMOND%2C+WA+98053,
QFC PHARMACY #883,4550 42ND AVENUE SW,"SEATTLE, WA 98116",http://maps.google.com/maps?q=QFC%20PHARMACY%2C4550%2042ND%20AVENUE%20SW%2C+SEATTLE%2C+WA+98116,
QFC PHARMACY #887,417 BROADWAY EAST,"SEATTLE, WA 98102",http://maps.google.com/maps?q=QFC%20PHARMACY%2C417%20BROADWAY%20EAST%2C+SEATTLE%2C+WA+98102,
QFC PHARMACY 828,11224 NE 124TH ST,"KIRKLAND, WA 98034",http://maps.google.com/maps?q=QFC%20PHARMACY%2C11224%20NE%20124TH%20ST%2C+KIRKLAND%2C+WA+98034,
QFC PHARMACY 829,460 E. NORTH BEND WAY,PO BOX 329,"NORTH BEND, WA 98045",http://maps.google.com/maps?q=QFC%20PHARMACY%2C460%20E.%20NORTH%20BEND%20WAY%2C+NORTH%20BEND%2C+WA+98045
QFC PHARMACY 858,1531 NE 145TH,"SEATTLE, WA 98155",http://maps.google.com/maps?q=QFC%20PHARMACY%2C1531%20NE%20145TH%2C+SEATTLE%2C+WA+98155,
QFC PHARMACY 872,9999 HOLMAN ROAD NW,"SEATTLE, WA 98117",http://maps.google.com/maps?q=QFC%20PHARMACY%2C9999%20HOLMAN%20ROAD%20NW%2C+SEATTLE%2C+WA+98117,
QFC PHARMACY 879,27008 92ND AVE NW,"STANWOOD, WA 98292",http://maps.google.com/maps?q=QFC%20PHARMACY%2C27008%2092ND%20AVE%20NW%2C+STANWOOD%2C+WA+98292,
QFC PHARMACY 881,500 MERCER ST.,"SEATTLE, WA 98109",http://maps.google.com/maps?q=QFC%20PHARMACY%2C500%20MERCER%20ST.%2C+SEATTLE%2C+WA+98109,
QFC#856/MILL CREEK,926 164TH SE,"MILL CREEK, WA 98012",http://maps.google.com/maps?q=QFCMILL%20CREEK%2C926%20164TH%20SE%2C+MILL%20CREEK%2C+WA+98012,
REPUBLIC DRUG STORE,6 N CLARK,P O BOX 497,"REPUBLIC, WA 99166",http://maps.google.com/maps?q=REPUBLIC%20DRUG%20STORE%2C6%20N%20CLARK%2C+REPUBLIC%2C+WA+99166
RINEHART PHARMACY,230 ROWE ST,"WHEELER, OR 97147",http://maps.google.com/maps?q=RINEHART%20PHARMACY%2C230%20ROWE%20ST%2C+WHEELER%2C+OR+97147,
RITZVILLE DRUG COMPANY,209 W MAIN,PO BOX 43,"RITZVILLE, WA 99169",http://maps.google.com/maps?q=RITZVILLE%20DRUG%20COMPANY%2C209%20W%20MAIN%2C+RITZVILLE%2C+WA+99169
RUBENSTEIN MEMORIAL HEALTH CENTER PHARMACY,UNIVERSITY OF WASHINGTON,"105 HALL HEALTH, BOX 354410","SEATTLE, WA 98195",http://maps.google.com/maps?q=RUBENSTEIN%20MEMORIAL%20HEALTH%20CENTER%20PHARMACY%2CUNIVERSITY%20OF%20WASHINGTON%2C+SEATTLE%2C+WA+98195
RXPRESS PHARMACY,21509 STATE ROUTE 410 E,STE #4,"BONNEY LAKE, WA 98391",http://maps.google.com/maps?q=RXPRESS%20PHARMACY%2C21509%20STATE%20ROUTE%20410%20E%2C+BONNEY%20LAKE%2C+WA+98391
SALEM HEALTH,665 WINTER STREET SE,"SALEM, OR 97301",http://maps.google.com/maps?q=SALEM%20HEALTH%2C665%20WINTER%20STREET%20SE%2C+SALEM%2C+OR+97301,
SEA MAR COMMUNITY HEALTH CENTERS,1112 S. CUSHMAN AVE.,"TACOMA, WA 98405",http://maps.google.com/maps?q=SEA%20MAR%20COMMUNITY%20HEALTH%20CENTERS%2C1112%20S.%20CUSHMAN%20AVE.%2C+TACOMA%2C+WA+98405,
SEA-MAR COMMUNITY HEALTH CTR,8800 14TH AVE SOUTH,"SEATTLE, WA 98108",http://maps.google.com/maps?q=SEAMAR%20COMMUNITY%20HEALTH%20CTR%2C8800%2014TH%20AVE%20SOUTH%2C+SEATTLE%2C+WA+98108,
SEAMAR COMMUNITY HEALTH CENTER PHARMACY,"1920 100TH ST SE, BUILDING B","EVERETT, WA 98208",http://maps.google.com/maps?q=SEAMAR%20COMMUNITY%20HEALTH%20CENTER%20PHARMACY%2C1920%20100TH%20ST%20SE%2C%20BUILDING%20B%2C+EVERETT%2C+WA+98208,
SEATTLE CANCER CARE ALLIANCE,825 EASTLAKE AVENUE EAST,MAILSTOP G5-900,"SEATTLE, WA 98109",http://maps.google.com/maps?q=SEATTLE%20CANCER%20CARE%20ALLIANCE%2C825%20EASTLAKE%20AVENUE%20EAST%2C+SEATTLE%2C+WA+98109
SEATTLE INDIAN HEALTH BOARD,611 12TH AVE S,"SEATTLE, WA 98144",http://maps.google.com/maps?q=SEATTLE%20INDIAN%20HEALTH%20BOARD%2C611%2012TH%20AVE%20S%2C+SEATTLE%2C+WA+98144,
SEATTLE KING COUNTY PUBLIC HEALTH - EASTGATE,14350 SE EASTGATE WAY,"BELLEVUE, WA 98007",http://maps.google.com/maps?q=SEATTLE%20KING%20COUNTY%20PUBLIC%20HEALTH%20%20EASTGATE%2C14350%20SE%20EASTGATE%20WAY%2C+BELLEVUE%2C+WA+98007,
SERK APOTHECARY,19410 36TH AVE W,STE 3,"LYNNWOOD, WA 98036",http://maps.google.com/maps?q=SERK%20APOTHECARY%2C19410%2036TH%20AVE%20W%2C+LYNNWOOD%2C+WA+98036
SILVERDALE COMMUNITY PHARMACY,9414 RIDGETOP BLVD NW,STE 104,"SILVERDALE, WA 98383",http://maps.google.com/maps?q=SILVERDALE%20COMMUNITY%20PHARMACY%2C9414%20RIDGETOP%20BLVD%20NW%2C+SILVERDALE%2C+WA+98383
SILVERTON HEALTH,1475 MT HOOD AVE,"WOODBURN, OR 97071",http://maps.google.com/maps?q=SILVERTON%20HEALTH%2C1475%20MT%20HOOD%20AVE%2C+WOODBURN%2C+OR+97071,
SKYLINE HOSPITAL,211 SKYLINE DRIVE,"WHITE SALMON, WA 98672",http://maps.google.com/maps?q=SKYLINE%20HOSPITAL%2C211%20SKYLINE%20DRIVE%2C+WHITE%20SALMON%2C+WA+98672,
SOUTH BEND PHARMACY INC,101 WILLAPA AVENUE,"SOUTH BEND, WA 98586",http://maps.google.com/maps?q=SOUTH%20BEND%20PHARMACY%20INC%2C101%20WILLAPA%20AVENUE%2C+SOUTH%20BEND%2C+WA+98586,
SOUTHGATE PHARMACY,2709 W. BROADWAY AVENUE,"MOSES LAKE, WA 98837",http://maps.google.com/maps?q=SOUTHGATE%20PHARMACY%2C2709%20W.%20BROADWAY%20AVENUE%2C+MOSES%20LAKE%2C+WA+98837,
SPANAWAY PHARMACY,17701 PACIFIC AVE S,STE D2,"SPANAWAY, WA 98387",http://maps.google.com/maps?q=SPANAWAY%20PHARMACY%2C17701%20PACIFIC%20AVE%20S%2C+SPANAWAY%2C+WA+98387
ST CLARE HOSPITAL,ATTN: PHARMACY,"11315 BRIDGEPORT WAY SW, MS 41-30","LAKEWOOD, WA 98499",http://maps.google.com/maps?q=ST%20CLARE%20HOSPITAL%2CATTN%3A%20PHARMACY%2C+LAKEWOOD%2C+WA+98499
SWEDISH ARNOLD PAVILION PHARMACY,1221 MADISON ST,"3RD FLOOR, STE 03AR34","SEATTLE, WA 98104",http://maps.google.com/maps?q=SWEDISH%20ARNOLD%20PAVILION%20PHARMACY%2C1221%20MADISON%20ST%2C+SEATTLE%2C+WA+98104
SWEDISH EDMONDS INPATIENT PHARMACY,21601 76TH AVE WEST,"EDMONDS, WA 98026",http://maps.google.com/maps?q=SWEDISH%20EDMONDS%20INPATIENT%20PHARMACY%2C21601%2076TH%20AVE%20WEST%2C+EDMONDS%2C+WA+98026,
SWEDISH ISSAQUAH PHARMACY,751 NE BLAKELY DRIVE,"ISSAQUAH, WA 98029",http://maps.google.com/maps?q=SWEDISH%20ISSAQUAH%20PHARMACY%2C751%20NE%20BLAKELY%20DRIVE%2C+ISSAQUAH%2C+WA+98029,
SWEDISH MEDICAL CENTER BALLARD,5300 TALLMAN AVE NW,"SEATTLE, WA 98107",http://maps.google.com/maps?q=SWEDISH%20MEDICAL%20CENTER%20BALLARD%2C5300%20TALLMAN%20AVE%20NW%2C+SEATTLE%2C+WA+98107,
SWEDISH MEDICAL CENTER CHERRY HILL,500 17TH AVE,"SEATTLE, WA 98122",http://maps.google.com/maps?q=SWEDISH%20MEDICAL%20CENTER%20CHERRY%20HILL%2C500%2017TH%20AVE%2C+SEATTLE%2C+WA+98122,
THE PRESCRIPTION PAD PHARMACY - NORTH,3915 TALBOT RD S,"RENTON, WA 98055",http://maps.google.com/maps?q=THE%20PRESCRIPTION%20PAD%20PHARMACY%20%20NORTH%2C3915%20TALBOT%20RD%20S%2C+RENTON%2C+WA+98055,
THE SISNEY GROUP LLC,PO BOX 518 1200 SEEMAN ST,"DARRINGTON, WA 98241",http://maps.google.com/maps?q=THE%20SISNEY%20GROUP%20LLC%2CPO%20BOX%20518%201200%20SEEMAN%20ST%2C+DARRINGTON%2C+WA+98241,
TULALIP PHARMACY,8825 34TH AVE NE STE A,"QUIL CEDA VILLAGE, WA 98271",http://maps.google.com/maps?q=TULALIP%20PHARMACY%2C8825%2034TH%20AVE%20NE%20STE%20A%2C+QUIL%20CEDA%20VILLAGE%2C+WA+98271,
UNION CENTER PHARMACY,"2324 EASTLAKE AVE E., SUITE 405","SEATTLE, WA 98102",http://maps.google.com/maps?q=UNION%20CENTER%20PHARMACY%2C2324%20EASTLAKE%20AVE%20E.%2C%20SUITE%20405%2C+SEATTLE%2C+WA+98102,
UNITED CARE PHARMACY-RETAIL,18230 E VALLEY HWY,SUITE #187,"KENT, WA 98032",http://maps.google.com/maps?q=UNITED%20CARE%20PHARMACYRETAIL%2C18230%20E%20VALLEY%20HWY%2C+KENT%2C+WA+98032
UNIV OF WA MED CENTER,4245 ROOSEVELT WAY NE,PO BOX 356015,"SEATTLE, WA 98105",http://maps.google.com/maps?q=UNIV%20OF%20WA%20MED%20CENTER%2C4245%20ROOSEVELT%20WAY%20NE%2C+SEATTLE%2C+WA+98105
UNIVERSITY MEDICAL CENTER PHARMACY OUTPATIENT,1959 NE PACIFIC ST,BOX 356015,"SEATTLE, WA 98195",http://maps.google.com/maps?q=UNIVERSITY%20MEDICAL%20CENTER%20PHARMACY%20OUTPATIENT%2C1959%20NE%20PACIFIC%20ST%2C+SEATTLE%2C+WA+98195
US ARMY- MADIGAN MEDICAL CENTER,PHARMACY SUPPORT VAULT,BLDG 9040,"TACOMA, WA 98431",http://maps.google.com/maps?q=US%20ARMY%20MADIGAN%20MEDICAL%20CENTER%2CPHARMACY%20SUPPORT%20VAULT%2C+TACOMA%2C+WA+98431
US ARMY-MADIGAN-PUYALLUP,"10507 156TH ST EAST BLDG B9, SUITE 112",ROOM 100 - PHARMACY,"PUYALLUP, WA 98374",http://maps.google.com/maps?q=US%20ARMYMADIGANPUYALLUP%2C10507%20156TH%20ST%20EAST%20BLDG%20B9%2C%20SUITE%20112%2C+PUYALLUP%2C+WA+98374
US ARMY-MADIGAN-SOUTH SOUND MEDICAL HOME PHARMACY,500 LILLY RD NE STE 120,US ARMY,"OLYMPIA, WA 98506",http://maps.google.com/maps?q=US%20ARMYMADIGANSOUTH%20SOUND%20MEDICAL%20HOME%20PHARMACY%2C500%20LILLY%20RD%20NE%20STE%20120%2C+OLYMPIA%2C+WA+98506
US ARMY-MCCHORD MEDICAL CLINIC PHARMACY,690 BARNES BLVD,"JOINT BASE LEWIS MCCHORD, WA 98438",http://maps.google.com/maps?q=US%20ARMYMCCHORD%20MEDICAL%20CLINIC%20PHARMACY%2C690%20BARNES%20BLVD%2C+JOINT%20BASE%20LEWIS%20MCCHORD%2C+WA+98438,
US ARMY-OKUBO FAMILY MEDICINE CLINIC PHARMACY,"17 C STREET, BLDG 11582","TACOMA, WA 98433",http://maps.google.com/maps?q=US%20ARMYOKUBO%20FAMILY%20MEDICINE%20CLINIC%20PHARMACY%2C17%20C%20STREET%2C%20BLDG%2011582%2C+TACOMA%2C+WA+98433,
US ARMY-WINDER FAMILY MEDICINE CLINIC PHARMACY,9119 MILL PARK AVE,"TACOMA, WA 98433",http://maps.google.com/maps?q=US%20ARMYWINDER%20FAMILY%20MEDICINE%20CLINIC%20PHARMACY%2C9119%20MILL%20PARK%20AVE%2C+TACOMA%2C+WA+98433,
US PHS IHS,617 5TH & BENTON,"OMAK, WA 98841",http://maps.google.com/maps?q=US%20PHS%20IHS%2C617%205TH%20&%20BENTON%2C+OMAK%2C+WA+98841,
USN- BRANCH MEDICAL CLINIC - BANGOR,2050 BARB ST,SUITE 'A',"SILVERDALE, WA 98315",http://maps.google.com/maps?q=USN%20BRANCH%20MEDICAL%20CLINIC%20%20BANGOR%2C2050%20BARB%20ST%2C+SILVERDALE%2C+WA+98315
USN- BREMERTON  HOSPITAL,NAVAL HOSPITAL,ONE BOONE ROAD,"BREMERTON, WA 98312",http://maps.google.com/maps?q=USN%20BREMERTON%20%20HOSPITAL%2CNAVAL%20HOSPITAL%2C+BREMERTON%2C+WA+98312
USN- NAVAL HEALTH CLINIC,2000 W. MARINE VIEW DRIVE,"EVERETT, WA 98207",http://maps.google.com/maps?q=USN%20NAVAL%20HEALTH%20CLINIC%2C2000%20W.%20MARINE%20VIEW%20DRIVE%2C+EVERETT%2C+WA+98207,
VALLEY PHARMACY INC,119 COTTAGE AVE,"CASHMERE, WA 98815",http://maps.google.com/maps?q=VALLEY%20PHARMACY%20INC%2C119%20COTTAGE%20AVE%2C+CASHMERE%2C+WA+98815,
VILLAGE PHARMACY INC,815 FRONT STREET,"LEAVENWORTH, WA 98826",http://maps.google.com/maps?q=VILLAGE%20PHARMACY%20INC%2C815%20FRONT%20STREET%2C+LEAVENWORTH%2C+WA+98826,
VIRGINIA MASON BUCK,1100 NINTH AVE CI-PO,"SEATTLE, WA 98101",http://maps.google.com/maps?q=VIRGINIA%20MASON%20BUCK%2C1100%20NINTH%20AVE%20CI-PO%2C+SEATTLE%2C+WA+98101,
VIRGINIA MASON LINDEMAN,1201 TERRY AVE,MAIL STOP X2-PN,"SEATTLE, WA 98101",http://maps.google.com/maps?q=VIRGINIA%20MASON%20LINDEMAN%2C1201%20TERRY%20AVE%2C+SEATTLE%2C+WA+98101
VIRGINIA MASON SO CLINIC PHCY,33501 1ST WAY SOUTH,"FEDERAL WAY, WA 98003",http://maps.google.com/maps?q=VIRGINIA%20MASON%20SO%20CLINIC%20PHCY%2C33501%201ST%20WAY%20SOUTH%2C+FEDERAL%20WAY%2C+WA+98003,
WALGREEN CO.,11995 SE SUNNYSIDE RD,"HAPPY VALLEY, OR 97015",http://maps.google.com/maps?q=WALGREEN%20CO%2C11995%20SE%20SUNNYSIDE%20RD%2C+HAPPY%20VALLEY%2C+OR+97015,
WALGREEN CO.,12405 NE 85TH ST.,"KIRKLAND, WA 98033",http://maps.google.com/maps?q=WALGREEN%20CO%2C12405%20NE%2085TH%20ST.%2C+KIRKLAND%2C+WA+98033,
WALGREEN CO.,13110 BOTHELL EVERETT HWY.,"EVERETT, WA 98208",http://maps.google.com/maps?q=WALGREEN%20CO%2C13110%20BOTHELL%20EVERETT%20HWY.%2C+EVERETT%2C+WA+98208,
WALGREEN CO.,13939 SW PACIFIC HWY,"TIGARD, OR 97223",http://maps.google.com/maps?q=WALGREEN%20CO%2C13939%20SW%20PACIFIC%20HWY%2C+TIGARD%2C+OR+97223,
WALGREEN CO.,14600 SW MURRAY SCHOLLS DR #201,"BEAVERTON, OR 97007",http://maps.google.com/maps?q=WALGREEN%20CO%2C14600%20SW%20MURRAY%20SCHOLLS%20DR%20#201%2C+BEAVERTON%2C+OR+97007,
WALGREEN CO.,14656 AMBAUM BLVD SW,"BURIEN, WA 98166",http://maps.google.com/maps?q=WALGREEN%20CO%2C14656%20AMBAUM%20BLVD%20SW%2C+BURIEN%2C+WA+98166,
WALGREEN CO.,1510 SW COOPER POINT RD,"OLYMPIA, WA 98502",http://maps.google.com/maps?q=WALGREEN%20CO%2C1510%20SW%20COOPER%20POINT%20RD%2C+OLYMPIA%2C+WA+98502,
WALGREEN CO.,15225 PACIFIC AVE S,"TACOMA, WA 98444",http://maps.google.com/maps?q=WALGREEN%20CO%2C15225%20PACIFIC%20AVE%20S%2C+TACOMA%2C+WA+98444,
WALGREEN CO.,1905 SE 164TH AVE,"VANCOUVER, WA 98683",http://maps.google.com/maps?q=WALGREEN%20CO%2C1905%20SE%20164TH%20AVE%2C+VANCOUVER%2C+WA+98683,
WALGREEN CO.,1950 NE BURNSIDE RD,"GRESHAM, OR 97030",http://maps.google.com/maps?q=WALGREEN%20CO%2C1950%20NE%20BURNSIDE%20RD%2C+GRESHAM%2C+OR+97030,
WALGREEN CO.,1992 LANCASTER DRIVE NE,"SALEM, OR 97305",http://maps.google.com/maps?q=WALGREEN%20CO%2C1992%20LANCASTER%20DRIVE%20NE%2C+SALEM%2C+OR+97305,
WALGREEN CO.,20725 HIGHWAY 99,"LYNNWOOD, WA 98036",http://maps.google.com/maps?q=WALGREEN%20CO%2C20725%20HIGHWAY%2099%2C+LYNNWOOD%2C+WA+98036,
WALGREEN CO.,2100 NE 139TH ST,"VANCOUVER, WA 98686",http://maps.google.com/maps?q=WALGREEN%20CO%2C2100%20NE%20139TH%20ST%2C+VANCOUVER%2C+WA+98686,
WALGREEN CO.,25605 104TH AVE SE,"KENT, WA 98030",http://maps.google.com/maps?q=WALGREEN%20CO%2C25605%20104TH%20AVE%20SE%2C+KENT%2C+WA+98030,
WALGREEN CO.,4315 6TH AVE,"TACOMA, WA 98406",http://maps.google.com/maps?q=WALGREEN%20CO%2C4315%206TH%20AVE%2C+TACOMA%2C+WA+98406,
WALGREEN CO.,4816 NW BETHANY BLVD,"PORTLAND, OR 97229",http://maps.google.com/maps?q=WALGREEN%20CO%2C4816%20NW%20BETHANY%20BLVD%2C+PORTLAND%2C+OR+97229,
WALGREEN CO.,5409 15TH AVENUE NW,"SEATTLE, WA 98107",http://maps.google.com/maps?q=WALGREEN%20CO%2C5409%2015TH%20AVENUE%20NW%2C+SEATTLE%2C+WA+98107,
WALGREEN CO.,6300 E LAKE SAMMAMISH PKY SE,"ISSAQUAH, WA 98029",http://maps.google.com/maps?q=WALGREEN%20CO%2C6300%20E%20LAKE%20SAMMAMISH%20PKY%20SE%2C+ISSAQUAH%2C+WA+98029,
WALGREEN CO.,6807 EVERGREEN WAY,"EVERETT, WA 98203",http://maps.google.com/maps?q=WALGREEN%20CO%2C6807%20EVERGREEN%20WAY%2C+EVERETT%2C+WA+98203,
WALGREEN CO.,7707 SE 27TH STREET,"MERCER ISLAND, WA 98040",http://maps.google.com/maps?q=WALGREEN%20CO%2C7707%20SE%2027TH%20STREET%2C+MERCER%20ISLAND%2C+WA+98040,
WALGREEN CO.,940 SE CESAR E CHAVEZ BLVD,"PORTLAND, OR 97214",http://maps.google.com/maps?q=WALGREEN%20CO%2C940%20SE%20CESAR%20E%20CHAVEZ%20BLVD%2C+PORTLAND%2C+OR+97214,
WALGREEN CO.,9505 BRIDGEPORT WAY SW,"TACOMA, WA 98499",http://maps.google.com/maps?q=WALGREEN%20CO%2C9505%20BRIDGEPORT%20WAY%20SW%2C+TACOMA%2C+WA+98499,
WASHINGTON CORRECTIONS CENTER,2321 W DAYTON AIRPORT ROAD,PO BOX 900,"SHELTON, WA 98584",http://maps.google.com/maps?q=WASHINGTON%20CORRECTIONS%20CENTER%2C2321%20W%20DAYTON%20AIRPORT%20ROAD%2C+SHELTON%2C+WA+98584
WASHINGTON CORRECTIONS CENTER FOR WOMEN,9601 BUJACICH RD NW,"GIG HARBOR, WA 98332",http://maps.google.com/maps?q=WASHINGTON%20CORRECTIONS%20CENTER%20FOR%20WOMEN%2C9601%20BUJACICH%20RD%20NW%2C+GIG%20HARBOR%2C+WA+98332,
"WASHINGTON CVS PHARMACY, L.L.C.",10712 SE CARR ROAD,"RENTON, WA 98055",http://maps.google.com/maps?q=WASHINGTON%20CVS%20PHARMACY%20LLC%2C10712%20SE%20CARR%20ROAD%2C+RENTON%2C+WA+98055,
"WASHINGTON CVS PHARMACY, L.L.C.",117 SW 160TH STREET,"BURIEN, WA 98166",http://maps.google.com/maps?q=WASHINGTON%20CVS%20PHARMACY%20LLC%2C117%20SW%20160TH%20STREET%2C+BURIEN%2C+WA+98166,
"WASHINGTON CVS PHARMACY, L.L.C.",11918 AIRPORT RD,"EVERETT, WA 98204",http://maps.google.com/maps?q=WASHINGTON%20CVS%20PHARMACY%20LLC%2C11918%20AIRPORT%20RD%2C+EVERETT%2C+WA+98204,
"WASHINGTON CVS PHARMACY, L.L.C.",18820 STATE HWY 305 NE,"POULSBO, WA 98370",http://maps.google.com/maps?q=WASHINGTON%20CVS%20PHARMACY%20LLC%2C18820%20STATE%20HWY%20305%20NE%2C+POULSBO%2C+WA+98370,
"WASHINGTON CVS PHARMACY, L.L.C.",19507 HIGHWAY 99,"LYNNWOOD, WA 98036",http://maps.google.com/maps?q=WASHINGTON%20CVS%20PHARMACY%20LLC%2C19507%20HIGHWAY%2099%2C+LYNNWOOD%2C+WA+98036,
"WASHINGTON CVS PHARMACY, L.L.C.",2100 NORTH 45TH STREET,"SEATTLE, WA 98103",http://maps.google.com/maps?q=WASHINGTON%20CVS%20PHARMACY%20LLC%2C2100%20NORTH%2045TH%20STREET%2C+SEATTLE%2C+WA+98103,
"WASHINGTON CVS PHARMACY, L.L.C.",2438 32ND AVE WEST,"SEATTLE, WA 98199",http://maps.google.com/maps?q=WASHINGTON%20CVS%20PHARMACY%20LLC%2C2438%2032ND%20AVE%20WEST%2C+SEATTLE%2C+WA+98199,
"WASHINGTON CVS PHARMACY, L.L.C.",33520 21ST AVE. SW,"FEDERAL WAY, WA 98023",http://maps.google.com/maps?q=WASHINGTON%20CVS%20PHARMACY%20LLC%2C33520%2021ST%20AVE.%20SW%2C+FEDERAL%20WAY%2C+WA+98023,
"WASHINGTON CVS PHARMACY, L.L.C.",4313 UNIVERSITY WAY NW,"SEATTLE, WA 98105",http://maps.google.com/maps?q=WASHINGTON%20CVS%20PHARMACY%20LLC%2C4313%20UNIVERSITY%20WAY%20NW%2C+SEATTLE%2C+WA+98105,
"WASHINGTON CVS PHARMACY, L.L.C.",531 QUEEN ANNE AVENUE N,"SEATTLE, WA 98109",http://maps.google.com/maps?q=WASHINGTON%20CVS%20PHARMACY%20LLC%2C531%20QUEEN%20ANNE%20AVENUE%20N%2C+SEATTLE%2C+WA+98109,
WASHINGTON VALLEY PHARMACY LLC,636 VALLEY MALL PKWY,STE # 7,"EAST WENATCHEE, WA 98802",http://maps.google.com/maps?q=WASHINGTON%20VALLEY%20PHARMACY%20LLC%2C636%20VALLEY%20MALL%20PKWY%2C+EAST%20WENATCHEE%2C+WA+98802
WENATCHEE VALLEY HOSPITAL AND CLINICS,820 N. CHELAN,"WENATCHEE, WA 98801",http://maps.google.com/maps?q=WENATCHEE%20VALLEY%20HOSPITAL%20AND%20CLINICS%2C820%20N.%20CHELAN%2C+WENATCHEE%2C+WA+98801,
WESTSIDE HEALTH CTR PHARMACY,426 S.W. STARK,2ND FLOOR,"PORTLAND, OR 97204",http://maps.google.com/maps?q=WESTSIDE%20HEALTH%20CTR%20PHARMACY%2C426%20S.W.%20STARK%2C+PORTLAND%2C+OR+97204
WILLAMETTE VALLEY MEDICAL,WILLAMETTE VALLEY MED CENTER,2700 SE STRATUS AVENUE,"MCMINNVILLE, OR 97128",http://maps.google.com/maps?q=WILLAMETTE%20VALLEY%20MEDICAL%2CWILLAMETTE%20VALLEY%20MED%20CENTER%2C+MCMINNVILLE%2C+OR+97128
YAKIMA INDIAN HEALTH,PHS INDIAN HEALTH CENTER,401 BUSTER ROAD,"TOPPENISH, WA 98948",http://maps.google.com/maps?q=YAKIMA%20INDIAN%20HEALTH%2CPHS%20INDIAN%20HEALTH%20CENTER%2C+TOPPENISH%2C+WA+98948
YAKIMA NEIGHBORHOOD,12 SOUTH 8TH STREET,PO BOX 2605,"YAKIMA, WA 98907",http://maps.google.com/maps?q=YAKIMA%20NEIGHBORHOOD%2C12%20SOUTH%208TH%20STREET%2C+YAKIMA%2C+WA+98907
YAKIMA NEIGHBORHOOD HEALTH SERVICES,617 SCOON ROAD,"SUNNYSIDE, WA 98944",http://maps.google.com/maps?q=YAKIMA%20NEIGHBORHOOD%20HEALTH%20SERVICES%2C617%20SCOON%20ROAD%2C+SUNNYSIDE%2C+WA+98944,
YAKIMA VALLEY FARM WORKERS CLINIC,1175 MOUNT HOOD AVENUE,"WOODBURN, OR 97071",http://maps.google.com/maps?q=YAKIMA%20VALLEY%20FARM%20WORKERS%20CLINIC%2C1175%20MOUNT%20HOOD%20AVENUE%2C+WOODBURN%2C+OR+97071,
YAKIMA VALLEY FARM WORKERS PH,510 W 1ST AVENUE,PO BOX 190,"TOPPENISH, WA 98948",http://maps.google.com/maps?q=YAKIMA%20VALLEY%20FARM%20WORKERS%20PH%2C510%20W%201ST%20AVENUE%2C+TOPPENISH%2C+WA+98948
YAKIMA VALLEY MEMORIAL HOSP'L,PHARMACY DEPARTMENT,2811 TIETON DRIVE,"YAKIMA, WA 98902",http://maps.google.com/maps?q=YAKIMA%20VALLEY%20MEMORIAL%20HOSPL%2CPHARMACY%20DEPARTMENT%2C+YAKIMA%2C+WA+98902
WALGREEN CO.,5506 N ROAD 68,"PASCO, WA 99301",http://maps.google.com/maps?q=WALGREEN%20CO%2C5506%20N%20ROAD%2068%2C+PASCO%2C+WA+99301,
