Business Name,Address 1,Address 2,"City, State Zip",Map URL
406 RX PLLC,115 BROADWAY AVE,"CULBERTSON, MT 59218",http://maps.google.com/maps?q=RX%20PLLC%2C115%20BROADWAY%20AVE%2C+CULBERTSON%2C+MT+59218,
"AHS 2, LLC",209 CONWAY DRIVE,"KALISPELL, MT 59901",http://maps.google.com/maps?q=AHS%20%20LLC%2C209%20CONWAY%20DRIVE%2C+KALISPELL%2C+MT+59901,
ALPINE APOTHECARY,6475 HIGHWAY 93 SOUTH,"WHITEFISH, MT 59937",http://maps.google.com/maps?q=ALPINE%20APOTHECARY%2C6475%20HIGHWAY%2093%20SOUTH%2C+WHITEFISH%2C+MT+59937,
BAKER REXALL DRUG CO,103 S MAIN,BOX 459,"BAKER, MT 59313",http://maps.google.com/maps?q=BAKER%20REXALL%20DRUG%20CO%2C103%20S%20MAIN%2C+BAKER%2C+MT+59313
BEARTOOTH BILLINGS CLINIC,2525 NORTH BROADWAY,P.O. BOX 590,"RED LODGE, MT 59068",http://maps.google.com/maps?q=BEARTOOTH%20BILLINGS%20CLINIC%2C2525%20NORTH%20BROADWAY%2C+RED%20LODGE%2C+MT+59068
BENEFIS AMBULATORY PHARMACY,500 15TH AVENUE SOUTH,SUITE #2,"GREAT FALLS, MT 59405",http://maps.google.com/maps?q=BENEFIS%20AMBULATORY%20PHARMACY%2C500%2015TH%20AVENUE%20SOUTH%2C+GREAT%20FALLS%2C+MT+59405
BENEFIS COMMUNITY HOSPITALS INC.,915 4TH STREET NW,"CHOTEAU, MT 59422",http://maps.google.com/maps?q=BENEFIS%20COMMUNITY%20HOSPITALS%20INC%2C915%204TH%20STREET%20NW%2C+CHOTEAU%2C+MT+59422,
BENEFIS HOSPITALS - EAST,1101 26TH STREET SOUTH,"GREAT FALLS, MT 59405",http://maps.google.com/maps?q=BENEFIS%20HOSPITALS%20%20EAST%2C1101%2026TH%20STREET%20SOUTH%2C+GREAT%20FALLS%2C+MT+59405,
BENEFIS HOSPITALS WEST,500 15TH AVENUE SOUTH,"GREAT FALLS, MT 59405",http://maps.google.com/maps?q=BENEFIS%20HOSPITALS%20WEST%2C500%2015TH%20AVENUE%20SOUTH%2C+GREAT%20FALLS%2C+MT+59405,
BENTON PHARMACY,1418 FRONT ST,BOX 549,"FORT BENTON, MT 59442",http://maps.google.com/maps?q=BENTON%20PHARMACY%2C1418%20FRONT%20ST%2C+FORT%20BENTON%2C+MT+59442
BIG SANDY PHARMACY INC,BOX 321,158 JOHANNES AVE,"BIG SANDY, MT 59520",http://maps.google.com/maps?q=BIG%20SANDY%20PHARMACY%20INC%2CBOX%20321%2C+BIG%20SANDY%2C+MT+59520
BIG SKY MANAGED CARE,915 1ST AVE S,STE 110,"GREAT FALLS, MT 59401",http://maps.google.com/maps?q=BIG%20SKY%20MANAGED%20CARE%2C915%201ST%20AVE%20S%2C+GREAT%20FALLS%2C+MT+59401
BIG SKY MANAGED CARE - HELENA,900 JACKSON ST STE A,"HELENA, MT 59601",http://maps.google.com/maps?q=BIG%20SKY%20MANAGED%20CARE%20%20HELENA%2C900%20JACKSON%20ST%20STE%20A%2C+HELENA%2C+MT+59601,
BIGFORK DRUG INC.,8111 MT HWY 35,"BIGFORK, MT 59911",http://maps.google.com/maps?q=BIGFORK%20DRUG%20INC%2C8111%20MT%20HWY%2035%2C+BIGFORK%2C+MT+59911,
BIGHORN VALLEY PHARMACY,10 WEST 4TH STREET,SUITE B,"HARDIN, MT 59034",http://maps.google.com/maps?q=BIGHORN%20VALLEY%20PHARMACY%2C10%20WEST%204TH%20STREET%2C+HARDIN%2C+MT+59034
BIGHORN VALLEY PHARMACY-ASHLAND,501 MAIN ST,"ASHLAND, MT 59003",http://maps.google.com/maps?q=BIGHORN%20VALLEY%20PHARMACYASHLAND%2C501%20MAIN%20ST%2C+ASHLAND%2C+MT+59003,
BILLINGS CLINIC ATRIUM HOSPITAL,2800 TENTH AVENUE NORTH,"BILLINGS, MT 59101",http://maps.google.com/maps?q=BILLINGS%20CLINIC%20ATRIUM%20HOSPITAL%2C2800%20TENTH%20AVENUE%20NORTH%2C+BILLINGS%2C+MT+59101,
BITCH CREEK CORPORATION,308 BROADWAY,"TOWNSEND, MT 59644",http://maps.google.com/maps?q=BITCH%20CREEK%20CORPORATION%2C308%20BROADWAY%2C+TOWNSEND%2C+MT+59644,
BOZEMAN HEALTH BIG SKY MEDICAL CENTER PHARMACY,PO BOX 161529,"BIG SKY, MT 59716",http://maps.google.com/maps?q=BOZEMAN%20HEALTH%20BIG%20SKY%20MEDICAL%20CENTER%20PHARMACY%2CPO%20BOX%20161529%2C+BIG%20SKY%2C+MT+59716,
BOZEMAN HEALTH DEACONESS HOSPITAL,925 HIGHLAND BLVD,"BOZEMAN, MT 59715",http://maps.google.com/maps?q=BOZEMAN%20HEALTH%20DEACONESS%20HOSPITAL%2C925%20HIGHLAND%20BLVD%2C+BOZEMAN%2C+MT+59715,
"CASTLE MOUNTAIN DRUG, PLLC",4271 US HIGHWAY 12 E,"WHITE SULPHUR SPRINGS, MT 59645",http://maps.google.com/maps?q=CASTLE%20MOUNTAIN%20DRUG%20PLLC%2C4271%20US%20HIGHWAY%2012%20E%2C+WHITE%20SULPHUR%20SPRINGS%2C+MT+59645,
CENTRAL MONTANA MEDICAL CENTER,408 WENDELL AVENUE,"LEWISTOWN, MT 59457",http://maps.google.com/maps?q=CENTRAL%20MONTANA%20MEDICAL%20CENTER%2C408%20WENDELL%20AVENUE%2C+LEWISTOWN%2C+MT+59457,
CHESTER PHARMACY INC,30 MAIN STREET,"CHESTER, MT 59522",http://maps.google.com/maps?q=CHESTER%20PHARMACY%20INC%2C30%20MAIN%20STREET%2C+CHESTER%2C+MT+59522,
CHIEF REDSTONE INDIAN HLTH,550 6TH AVE NORTH,"WOLF POINT, MT 59201",http://maps.google.com/maps?q=CHIEF%20REDSTONE%20INDIAN%20HLTH%2C550%206TH%20AVE%20NORTH%2C+WOLF%20POINT%2C+MT+59201,
CHINOOK PHARMACY INC,300 INDIANA STREET,"CHINOOK, MT 59523",http://maps.google.com/maps?q=CHINOOK%20PHARMACY%20INC%2C300%20INDIANA%20STREET%2C+CHINOOK%2C+MT+59523,
CLINIC PHARMACY,PO BOX 7213,1400 29TH STREET SOUTH,"GREAT FALLS, MT 59405",http://maps.google.com/maps?q=CLINIC%20PHARMACY%2CPO%20BOX%207213%2C+GREAT%20FALLS%2C+MT+59405
CROSBY DRUG LLC,30 MAIN STREET NORTH,PO BOX 888,"CROSBY, ND 58730",http://maps.google.com/maps?q=CROSBY%20DRUG%20LLC%2C30%20MAIN%20STREET%20NORTH%2C+CROSBY%2C+ND+58730
DAHL MEMORIAL HOSPITAL & NH PHARMACY,215 SANDY STREET,PO BOX 46,"EKALAKA, MT 59324",http://maps.google.com/maps?q=DAHL%20MEMORIAL%20HOSPITAL%20%20NH%20PHARMACY%2C215%20SANDY%20STREET%2C+EKALAKA%2C+MT+59324
"FAIRFIELD DRUG, INC",407 CENTRAL AVE,PO BOX 247,"FAIRFIELD, MT 59436",http://maps.google.com/maps?q=FAIRFIELD%20DRUG%20INC%2C407%20CENTRAL%20AVE%2C+FAIRFIELD%2C+MT+59436
FIRST PHARMACY,1540 13TH STREET WEST,"BILLINGS, MT 59102",http://maps.google.com/maps?q=FIRST%20PHARMACY%2C1540%2013TH%20STREET%20WEST%2C+BILLINGS%2C+MT+59102,
FORT BELKNAP AGENCY PHS INDIAN HEALTH CENTER,669 AGENCY MAIN STREET,"HARLEM, MT 59526",http://maps.google.com/maps?q=FORT%20BELKNAP%20AGENCY%20PHS%20INDIAN%20HEALTH%20CENTER%2C669%20AGENCY%20MAIN%20STREET%2C+HARLEM%2C+MT+59526,
G & G PHARMACY,1500 14TH ST W,SUITE 150,"WILLISTON, ND 58801",http://maps.google.com/maps?q=G%20%20G%20PHARMACY%2C1500%2014TH%20ST%20W%2C+WILLISTON%2C+ND+58801
GABERT CLINIC PHARMACY,107 DILWORTH ST,"GLENDIVE, MT 59330",http://maps.google.com/maps?q=GABERT%20CLINIC%20PHARMACY%2C107%20DILWORTH%20ST%2C+GLENDIVE%2C+MT+59330,
GARFIELD COUNTY HEALTH CENTER,332 LEAVITT AVENUE,"JORDAN, MT 59337",http://maps.google.com/maps?q=GARFIELD%20COUNTY%20HEALTH%20CENTER%2C332%20LEAVITT%20AVENUE%2C+JORDAN%2C+MT+59337,
"GARY AND LEO'S, INC",730 1ST STREET,"HAVRE, MT 59501",http://maps.google.com/maps?q=GARY%20AND%20LEOS%20INC%2C730%201ST%20STREET%2C+HAVRE%2C+MT+59501,
GENEVA WOODS PHARMACY,2600 WINNE AVENUE,SUITE A,"HELENA, MT 59601",http://maps.google.com/maps?q=GENEVA%20WOODS%20PHARMACY%2C2600%20WINNE%20AVENUE%2C+HELENA%2C+MT+59601
HEART BUTTE HEALTH STATION IHS,81 DISNEY STREET,P. O. BOX 80,"HEART BUTTE, MT 59448",http://maps.google.com/maps?q=HEART%20BUTTE%20HEALTH%20STATION%20IHS%2C81%20DISNEY%20STREET%2C+HEART%20BUTTE%2C+MT+59448
HI-LINE MEDICAL SERVICES INC,621 THIRD STREET SOUTH,"GLASGOW, MT 59230",http://maps.google.com/maps?q=HILINE%20MEDICAL%20SERVICES%20INC%2C621%20THIRD%20STREET%20SOUTH%2C+GLASGOW%2C+MT+59230,
HOLY ROSARY HEALTH CENTER,2600 WILSON STREET,"MILES CITY, MT 59301",http://maps.google.com/maps?q=HOLY%20ROSARY%20HEALTH%20CENTER%2C2600%20WILSON%20STREET%2C+MILES%20CITY%2C+MT+59301,
HUSTON HEALTHCARE LLC,1111 BAKER AVE,"WHITEFISH, MT 59937",http://maps.google.com/maps?q=HUSTON%20HEALTHCARE%20LLC%2C1111%20BAKER%20AVE%2C+WHITEFISH%2C+MT+59937,
JURO'S MEDICAL INC,2043 GRAND AVENUE,"BILLINGS, MT 59102",http://maps.google.com/maps?q=JUROS%20MEDICAL%20INC%2C2043%20GRAND%20AVENUE%2C+BILLINGS%2C+MT+59102,
LARSEN SERVICE DRUG,244 N MAIN STREET,PO BOX 550,"WATFORD CITY, ND 58854",http://maps.google.com/maps?q=LARSEN%20SERVICE%20DRUG%2C244%20N%20MAIN%20STREET%2C+WATFORD%20CITY%2C+ND+58854
MILK RIVER PHARMACY,42465 US HIGHWAY 2,PO BOX 965,"HARLEM, MT 59526",http://maps.google.com/maps?q=MILK%20RIVER%20PHARMACY%2C42465%20US%20HIGHWAY%202%2C+HARLEM%2C+MT+59526
"MONTANA CVS PHARMACY, L.L.C.",115 NORTH 19TH AVENUE,"BOZEMAN, MT 59718",http://maps.google.com/maps?q=MONTANA%20CVS%20PHARMACY%20LLC%2C115%20NORTH%2019TH%20AVENUE%2C+BOZEMAN%2C+MT+59718,
"MONTANA CVS PHARMACY, L.L.C.",1311 GRAND AVE.,"BILLINGS, MT 59102",http://maps.google.com/maps?q=MONTANA%20CVS%20PHARMACY%20LLC%2C1311%20GRAND%20AVE.%2C+BILLINGS%2C+MT+59102,
"MONTANA CVS PHARMACY, L.L.C.",2001 10TH AVENUE SOUTH,"GREAT FALLS, MT 59405",http://maps.google.com/maps?q=MONTANA%20CVS%20PHARMACY%20LLC%2C2001%2010TH%20AVENUE%20SOUTH%2C+GREAT%20FALLS%2C+MT+59405,
"MONTANA CVS PHARMACY, L.L.C.",2402 GRAND AVE.,"BILLINGS, MT 59102",http://maps.google.com/maps?q=MONTANA%20CVS%20PHARMACY%20LLC%2C2402%20GRAND%20AVE.%2C+BILLINGS%2C+MT+59102,
"MONTANA CVS PHARMACY, L.L.C.",3095 N. MONTANA AVE.,"HELENA, MT 59601",http://maps.google.com/maps?q=MONTANA%20CVS%20PHARMACY%20LLC%2C3095%20N.%20MONTANA%20AVE.%2C+HELENA%2C+MT+59601,
"MONTANA CVS PHARMACY, L.L.C.",526 EUCLID,"HELENA, MT 59601",http://maps.google.com/maps?q=MONTANA%20CVS%20PHARMACY%20LLC%2C526%20EUCLID%2C+HELENA%2C+MT+59601,
"MONTANA CVS PHARMACY, L.L.C.",603 N. MONTANA,"HELENA, MT 59601",http://maps.google.com/maps?q=MONTANA%20CVS%20PHARMACY%20LLC%2C603%20N.%20MONTANA%2C+HELENA%2C+MT+59601,
"MONTANA CVS PHARMACY, L.L.C.",617 CENTRAL ST.,"BILLINGS, MT 59102",http://maps.google.com/maps?q=MONTANA%20CVS%20PHARMACY%20LLC%2C617%20CENTRAL%20ST.%2C+BILLINGS%2C+MT+59102,
NORTHEAST MONTANA HEALTH SERVICE POPLAR,P. O. BOX 38,"POPLAR, MT 59255",http://maps.google.com/maps?q=NORTHEAST%20MONTANA%20HEALTH%20SERVICE%20POPLAR%2CP.%20O.%20BOX%2038%2C+POPLAR%2C+MT+59255,
NORTHEAST MONTANA HEALTH SERVICES WOLFPOINT,1115 4TH AVENUE NORTH,"WOLF POINT, MT 59201",http://maps.google.com/maps?q=NORTHEAST%20MONTANA%20HEALTH%20SERVICES%20WOLFPOINT%2C1115%204TH%20AVENUE%20NORTH%2C+WOLF%20POINT%2C+MT+59201,
NORTHERN MONTANA HOSPITAL,30 W 13TH ST,ATTN: PHARMACY,"HAVRE, MT 59501",http://maps.google.com/maps?q=NORTHERN%20MONTANA%20HOSPITAL%2C30%20W%2013TH%20ST%2C+HAVRE%2C+MT+59501
NORTHTOWN DRUG,333 MAIN STREET,"SHELBY, MT 59474",http://maps.google.com/maps?q=NORTHTOWN%20DRUG%2C333%20MAIN%20STREET%2C+SHELBY%2C+MT+59474,
OLSON'S DRUG,5 4TH AVE SE,"CONRAD, MT 59425",http://maps.google.com/maps?q=OLSONS%20DRUG%2C5%204TH%20AVE%20SE%2C+CONRAD%2C+MT+59425,
PHS INDIAN HEALTH CENTER,420 N CHEYENNE AVENUE,"LAME DEER, MT 59043",http://maps.google.com/maps?q=PHS%20INDIAN%20HEALTH%20CENTER%2C420%20N%20CHEYENNE%20AVENUE%2C+LAME%20DEER%2C+MT+59043,
PLAZA PHARMACY,2800 11TH AVE SOUTH,"GREAT FALLS, MT 59405",http://maps.google.com/maps?q=PLAZA%20PHARMACY%2C2800%2011TH%20AVE%20SOUTH%2C+GREAT%20FALLS%2C+MT+59405,
PLENTYWOOD DRUG INC,119 NORTH MAIN STREET,"PLENTYWOOD, MT 59254",http://maps.google.com/maps?q=PLENTYWOOD%20DRUG%20INC%2C119%20NORTH%20MAIN%20STREET%2C+PLENTYWOOD%2C+MT+59254,
PUREVIEW HEALTH CENTER PHARMACY,1930 9TH AVE,"HELENA, MT 59601",http://maps.google.com/maps?q=PUREVIEW%20HEALTH%20CENTER%20PHARMACY%2C1930%209TH%20AVE%2C+HELENA%2C+MT+59601,
RED LODGE DRUG INC.,PO BOX 1030,211 NORTH BROADWAY,"RED LODGE, MT 59068",http://maps.google.com/maps?q=RED%20LODGE%20DRUG%20INC%2CPO%20BOX%201030%2C+RED%20LODGE%2C+MT+59068
RIVERSTONE HEALTH,123 SOUTH 27TH STREET,"BILLINGS, MT 59101",http://maps.google.com/maps?q=RIVERSTONE%20HEALTH%2C123%20SOUTH%2027TH%20STREET%2C+BILLINGS%2C+MT+59101,
ROCKY BOY HEALTH CENTER,6850 UPPER BOX ELDER RD,"BOX ELDER, MT 59521",http://maps.google.com/maps?q=ROCKY%20BOY%20HEALTH%20CENTER%2C6850%20UPPER%20BOX%20ELDER%20RD%2C+BOX%20ELDER%2C+MT+59521,
ROUNDUP MEMORIAL HOSPITAL,"ATTN: SHANNON JORGENSON ROBISON, PHARMACIST IN CHARGE","1202 3RD STREET WEST, P. O. BOX 40","ROUNDUP, MT 59072",http://maps.google.com/maps?q=ROUNDUP%20MEMORIAL%20HOSPITAL%2CATTN%3A%20SHANNON%20JORGENSON%20ROBISON%2C%20PHARMACIST%20IN%20CHARGE%2C+ROUNDUP%2C+MT+59072
SCL HEALTH PHARMACY SERVICES,1233 N 30TH ST,STE W103,"BILLINGS, MT 59101",http://maps.google.com/maps?q=SCL%20HEALTH%20PHARMACY%20SERVICES%2C1233%20N%2030TH%20ST%2C+BILLINGS%2C+MT+59101
SEELEY SWAN PHARMACY,PO BOX 930,"3027 HWY 83, LAZY PINES MALL #J","SEELEY LAKE, MT 59868",http://maps.google.com/maps?q=SEELEY%20SWAN%20PHARMACY%2CPO%20BOX%20930%2C+SEELEY%20LAKE%2C+MT+59868
"SERVICE DRUG, INC.",119 MAIN STREET,P. O. BOX 1107,"SCOBEY, MT 59263",http://maps.google.com/maps?q=SERVICE%20DRUG%20INC%2C119%20MAIN%20STREET%2C+SCOBEY%2C+MT+59263
SHOPKO PHARMACY #2062,301 NORTHWEST BYPASS,"GREAT FALLS, MT 59404",http://maps.google.com/maps?q=SHOPKO%20PHARMACY%2C301%20NORTHWEST%20BYPASS%2C+GREAT%20FALLS%2C+MT+59404,
SHOPKO PHARMACY #2106,905 SOUTH 24 WEST,"BILLINGS, MT 59102",http://maps.google.com/maps?q=SHOPKO%20PHARMACY%2C905%20SOUTH%2024%20WEST%2C+BILLINGS%2C+MT+59102,
SHOPKO PHARMACY #2112,3101 MONTANA AVENUE,"HELENA, MT 59601",http://maps.google.com/maps?q=SHOPKO%20PHARMACY%2C3101%20MONTANA%20AVENUE%2C+HELENA%2C+MT+59601,
SHOPKO PHARMACY #2128,1370 HWY 2 EAST,"KALISPELL, MT 59901",http://maps.google.com/maps?q=SHOPKO%20PHARMACY%2C1370%20HWY%202%20EAST%2C+KALISPELL%2C+MT+59901,
SHOPKO PHARMACY #2528,148 MAIN ST,"ROUNDUP, MT 59072",http://maps.google.com/maps?q=SHOPKO%20PHARMACY%2C148%20MAIN%20ST%2C+ROUNDUP%2C+MT+59072,
SHOPKO PHARMACY #2766,1950 W ROOSEVELT HWY,"SHELBY, MT 59474",http://maps.google.com/maps?q=SHOPKO%20PHARMACY%2C1950%20W%20ROOSEVELT%20HWY%2C+SHELBY%2C+MT+59474,
SHOPKO PHARMACY #2773,825 NE MAIN ST,"LEWISTOWN, MT 59457",http://maps.google.com/maps?q=SHOPKO%20PHARMACY%2C825%20NE%20MAIN%20ST%2C+LEWISTOWN%2C+MT+59457,
SNYDER DRUG,2515 SIXTH AVENUE NORTH,"GREAT FALLS, MT 59401",http://maps.google.com/maps?q=SNYDER%20DRUG%2C2515%20SIXTH%20AVENUE%20NORTH%2C+GREAT%20FALLS%2C+MT+59401,
ST. PETER'S HEALTH BROADWAY PHARMACY,2550 EAST BROADWAY,"HELENA, MT 59601",http://maps.google.com/maps?q=ST%20PETERS%20HEALTH%20BROADWAY%20PHARMACY%2C2550%20EAST%20BROADWAY%2C+HELENA%2C+MT+59601,
STUDENT HEALTH SERV PHARMACY,7TH AND GRANT,"BOZEMAN, MT 59717",http://maps.google.com/maps?q=STUDENT%20HEALTH%20SERV%20PHARMACY%2C7TH%20AND%20GRANT%2C+BOZEMAN%2C+MT+59717,
SYKES PHARMACY INC,202 2ND AVENUE WEST,"KALISPELL, MT 59901",http://maps.google.com/maps?q=SYKES%20PHARMACY%20INC%2C202%202ND%20AVENUE%20WEST%2C+KALISPELL%2C+MT+59901,
TELEPHARMACY CONCEPT INC,180 CENTRAL AVE,P.O. 880,"BEACH, ND 58621",http://maps.google.com/maps?q=TELEPHARMACY%20CONCEPT%20INC%2C180%20CENTRAL%20AVE%2C+BEACH%2C+ND+58621
THE BOWMAN DRUG COMPANY,12 NORTH MAIN,P.O. BOX 197,"BOWMAN, ND 58623",http://maps.google.com/maps?q=THE%20BOWMAN%20DRUG%20COMPANY%2C12%20NORTH%20MAIN%2C+BOWMAN%2C+ND+58623
THE CLINICAL PHARMACY,200 CONWAY DRIVE,"KALISPELL, MT 59901",http://maps.google.com/maps?q=THE%20CLINICAL%20PHARMACY%2C200%20CONWAY%20DRIVE%2C+KALISPELL%2C+MT+59901,
THRIFTY WHITE PHARMACY #067,300 11TH ST W,"WILLISTON, ND 58801",http://maps.google.com/maps?q=THRIFTY%20WHITE%20PHARMACY%2C300%2011TH%20ST%20W%2C+WILLISTON%2C+ND+58801,
USAF- 341ST MEDICAL SUPPORT SQUAD,MEDICAL MATERIEL (SGSM),7300 N. PERIMETER ROAD,"MALMSTROM AFB, MT 59402",http://maps.google.com/maps?q=USAF%20ST%20MEDICAL%20SUPPORT%20SQUAD%2CMEDICAL%20MATERIEL%20(SGSM)%2C+MALMSTROM%20AFB%2C+MT+59402
USPHS IHS HOSPITAL,760 HOSPITAL DRIVE,"BROWNING, MT 59417",http://maps.google.com/maps?q=USPHS%20IHS%20HOSPITAL%2C760%20HOSPITAL%20DRIVE%2C+BROWNING%2C+MT+59417,
"VALLEY DRUG OF MALTA, INC.",131 SOUTH 1ST AVENUE EAST,"MALTA, MT 59538",http://maps.google.com/maps?q=VALLEY%20DRUG%20OF%20MALTA%20INC%2C131%20SOUTH%201ST%20AVENUE%20EAST%2C+MALTA%2C+MT+59538,
VERNE E GIBBS HEALTH CTR,107 H STREET E,BOX 67,"POPLAR, MT 59255",http://maps.google.com/maps?q=VERNE%20E%20GIBBS%20HEALTH%20CTR%2C107%20H%20STREET%20E%2C+POPLAR%2C+MT+59255
VILLAGE DRUG,600 S MAIN ST,"CONRAD, MT 59425",http://maps.google.com/maps?q=VILLAGE%20DRUG%2C600%20S%20MAIN%20ST%2C+CONRAD%2C+MT+59425,
WALGREEN CO,1150 11TH AVENUE,"HELENA, MT 59601",http://maps.google.com/maps?q=WALGREEN%20CO%2C1150%2011TH%20AVENUE%2C+HELENA%2C+MT+59601,
WALGREEN CO,2301 10TH AVE S,"GREAT FALLS, MT 59405",http://maps.google.com/maps?q=WALGREEN%20CO%2C2301%2010TH%20AVE%20S%2C+GREAT%20FALLS%2C+MT+59405,
WALGREEN CO.,40 W IDAHO ST,"KALISPELL, MT 59901",http://maps.google.com/maps?q=WALGREEN%20CO%2C40%20W%20IDAHO%20ST%2C+KALISPELL%2C+MT+59901,
"WHITE DRUG ENTERPRISES, INC",402 EAST MAIN,"SIDNEY, MT 59270",http://maps.google.com/maps?q=WHITE%20DRUG%20ENTERPRISES%20INC%2C402%20EAST%20MAIN%2C+SIDNEY%2C+MT+59270,
YELLOWSTONE PHARMACY,1025 MAIN STREET,P.O. BOX 289,"FORSYTH, MT 59327",http://maps.google.com/maps?q=YELLOWSTONE%20PHARMACY%2C1025%20MAIN%20STREET%2C+FORSYTH%2C+MT+59327
ELKHORN PHARMACY,215 NORTH MAIN STREET,P. O. BOX 26,"BOULDER, MT 59632",http://maps.google.com/maps?q=ELKHORN%20PHARMACY%2C215%20NORTH%20MAIN%20STREET%2C+BOULDER%2C+MT+59632
WHITEHALL PHARMACY,203 W LEGION AVE,PO BOX 338,"WHITEHALL, MT 59759",http://maps.google.com/maps?q=WHITEHALL%20PHARMACY%2C203%20W%20LEGION%20AVE%2C+WHITEHALL%2C+MT+59759
KEYSTONE DRUG,407 MAIN STREET,"DEER LODGE, MT 59722",http://maps.google.com/maps?q=KEYSTONE%20DRUG%2C407%20MAIN%20STREET%2C+DEER%20LODGE%2C+MT+59722,
"MONTANA CVS PHARMACY, L.L.C.",1275 HARRISON ST.,"BUTTE, MT 59701",http://maps.google.com/maps?q=MONTANA%20CVS%20PHARMACY%20LLC%2C1275%20HARRISON%20ST.%2C+BUTTE%2C+MT+59701,
ST JAMES HEALTHCARE,400 SOUTH CLARK ST,"BUTTE, MT 59701",http://maps.google.com/maps?q=ST%20JAMES%20HEALTHCARE%2C400%20SOUTH%20CLARK%20ST%2C+BUTTE%2C+MT+59701,
DRISCOLL DRUG,327 SOUTH EXCELSIOR,"BUTTE, MT 59701",http://maps.google.com/maps?q=DRISCOLL%20DRUG%2C327%20SOUTH%20EXCELSIOR%2C+BUTTE%2C+MT+59701,
COMMUNITY HEALTH CENTER PHARMACY,1145 SOUTH MONTANA STREET,"BUTTE, MT 59701",http://maps.google.com/maps?q=COMMUNITY%20HEALTH%20CENTER%20PHARMACY%2C1145%20SOUTH%20MONTANA%20STREET%2C+BUTTE%2C+MT+59701,
"MONTANA CVS PHARMACY, L.L.C.",1300 E. PARK AVE.,"ANACONDA, MT 59711",http://maps.google.com/maps?q=MONTANA%20CVS%20PHARMACY%20LLC%2C1300%20E.%20PARK%20AVE.%2C+ANACONDA%2C+MT+59711,
THRIFTY DRUG STORE,201 EAST PARK,"ANACONDA, MT 59711",http://maps.google.com/maps?q=THRIFTY%20DRUG%20STORE%2C201%20EAST%20PARK%2C+ANACONDA%2C+MT+59711,
COMMUNITY HOSPITAL OF ANACONDA PHARMACY,401 W PENNSYLVANIA,"ANACONDA, MT 59711",http://maps.google.com/maps?q=COMMUNITY%20HOSPITAL%20OF%20ANACONDA%20PHARMACY%2C401%20W%20PENNSYLVANIA%2C+ANACONDA%2C+MT+59711,
STOKES PHARMACY ANACONDA INC.,1525 WEST PARK AVENUE,"ANACONDA, MT 59711",http://maps.google.com/maps?q=STOKES%20PHARMACY%20ANACONDA%20INC%2C1525%20WEST%20PARK%20AVENUE%2C+ANACONDA%2C+MT+59711,
MAC'S CHC PHARMACY,317 MADISON,"SHERIDAN, MT 59749",http://maps.google.com/maps?q=MACS%20CHC%20PHARMACY%2C317%20MADISON%2C+SHERIDAN%2C+MT+59749,
