Business Name,Address 1,Address 2,"City, State Zip",Map URL
45TH MEDICAL GROUP SATELLITE PHARMACY,1361 S. PATRICK DRIVE,"PATRICK AFB, FL 32925",http://maps.google.com/maps?q=TH%20MEDICAL%20GROUP%20SATELLITE%20PHARMACY%2C1361%20S.%20PATRICK%20DRIVE%2C+PATRICK%20AFB%2C+FL+32925,
AIDS HEALTHCARE FOUNDATION,1701 NORTH MILLS AVENUE,"ORLANDO, FL 32803",http://maps.google.com/maps?q=AIDS%20HEALTHCARE%20FOUNDATION%2C1701%20NORTH%20MILLS%20AVENUE%2C+ORLANDO%2C+FL+32803,
AIDS HEALTHCARE FOUNDATION,3135 SR 580,SUITE 1,"SAFETY HARBOR, FL 34695",http://maps.google.com/maps?q=AIDS%20HEALTHCARE%20FOUNDATION%2C3135%20SR%20580%2C+SAFETY%20HARBOR%2C+FL+34695
AIDS HEALTHCARE FOUNDATION,3400 26TH AVE S,"ST PETERSBURG, FL 33711",http://maps.google.com/maps?q=AIDS%20HEALTHCARE%20FOUNDATION%2C3400%2026TH%20AVE%20S%2C+ST%20PETERSBURG%2C+FL+33711,
ALLEN MEDICAL SERVICES INC,6953 GALL BLVD,"ZEPHYRHILLS, FL 33542",http://maps.google.com/maps?q=ALLEN%20MEDICAL%20SERVICES%20INC%2C6953%20GALL%20BLVD%2C+ZEPHYRHILLS%2C+FL+33542,
"ANDERSON-SCOKELEE, INC",5001 NW 34TH BLVD SUITE B,"GAINESVILLE, FL 32605",http://maps.google.com/maps?q=ANDERSONSCOKELEE%20INC%2C5001%20NW%2034TH%20BLVD%20SUITE%20B%2C+GAINESVILLE%2C+FL+32605,
ARTH LLC,1446 LEE BLVD,"LEHIGH ACRES, FL 33936",http://maps.google.com/maps?q=ARTH%20LLC%2C1446%20LEE%20BLVD%2C+LEHIGH%20ACRES%2C+FL+33936,
"ASPIRE HEALTH PARTNERS, INC.",PRINCETON PLAZA PHARMACY,1800 MERCY DRIVE,"ORLANDO, FL 32808",http://maps.google.com/maps?q=ASPIRE%20HEALTH%20PARTNERS%20INC%2CPRINCETON%20PLAZA%20PHARMACY%2C+ORLANDO%2C+FL+32808
BENZER FL 12 LLC,38160 MEDICAL CENTER AVE,"ZEPHYRHILLS, FL 33540",http://maps.google.com/maps?q=BENZER%20FL%20%20LLC%2C38160%20MEDICAL%20CENTER%20AVE%2C+ZEPHYRHILLS%2C+FL+33540,
BENZER FL 13 LLC,5908 BRECKENRIDGE PKWY,"TAMPA, FL 33610",http://maps.google.com/maps?q=BENZER%20FL%20%20LLC%2C5908%20BRECKENRIDGE%20PKWY%2C+TAMPA%2C+FL+33610,
BENZER FL 14 LLC,"700 1ST ST S, SUITE 1","WINTER HAVEN, FL 33880",http://maps.google.com/maps?q=BENZER%20FL%20%20LLC%2C700%201ST%20ST%20S%2C%20SUITE%201%2C+WINTER%20HAVEN%2C+FL+33880,
BENZER FL 15 LLC,11509 E MARTIN LUTHER KING JR BLVD,"MANGO, FL 33550",http://maps.google.com/maps?q=BENZER%20FL%20%20LLC%2C11509%20E%20MARTIN%20LUTHER%20KING%20JR%20BLVD%2C+MANGO%2C+FL+33550,
BENZER FL10 LLC,6056 VAN DYKE RD,"LUTZ, FL 33558",http://maps.google.com/maps?q=BENZER%20FL%20LLC%2C6056%20VAN%20DYKE%20RD%2C+LUTZ%2C+FL+33558,
BENZER FL11 LLC,2653 BRUCE B DOWNS BLVD STE 115,"WESLEY CHAPEL, FL 33544",http://maps.google.com/maps?q=BENZER%20FL%20LLC%2C2653%20BRUCE%20B%20DOWNS%20BLVD%20STE%20115%2C+WESLEY%20CHAPEL%2C+FL+33544,
BENZER FL3 LLC,105 S MOON AVE,"BRANDON, FL 33511",http://maps.google.com/maps?q=BENZER%20FL%20LLC%2C105%20S%20MOON%20AVE%2C+BRANDON%2C+FL+33511,
BENZER FL4 LLC,2722 W. OLD HIGHWAY 441,"MOUNT DORA, FL 32757",http://maps.google.com/maps?q=BENZER%20FL%20LLC%2C2722%20W.%20OLD%20HIGHWAY%20441%2C+MOUNT%20DORA%2C+FL+32757,
BENZER FL5 LLC,500 W. GRANADA BLVD SUITE 4,"ORMOND BEACH, FL 32174",http://maps.google.com/maps?q=BENZER%20FL%20LLC%2C500%20W.%20GRANADA%20BLVD%20SUITE%204%2C+ORMOND%20BEACH%2C+FL+32174,
BENZER FL7 LLC,3535 US HWY 19,"NEW PORT RICHEY, FL 34652",http://maps.google.com/maps?q=BENZER%20FL%20LLC%2C3535%20US%20HWY%2019%2C+NEW%20PORT%20RICHEY%2C+FL+34652,
BENZER FL8 LLC,6280 66TH ST N,"PINELLAS PARK, FL 33781",http://maps.google.com/maps?q=BENZER%20FL%20LLC%2C6280%2066TH%20ST%20N%2C+PINELLAS%20PARK%2C+FL+33781,
BENZER FL9 LLC,14306 N DALE MABRY HWY STE D,"TAMPA, FL 33618",http://maps.google.com/maps?q=BENZER%20FL%20LLC%2C14306%20N%20DALE%20MABRY%20HWY%20STE%20D%2C+TAMPA%2C+FL+33618,
"BROOKSVILLE DRUGS, INC.",80 PONCE DE LEON BLVD,"BROOKSVILLE, FL 34601",http://maps.google.com/maps?q=BROOKSVILLE%20DRUGS%20INC%2C80%20PONCE%20DE%20LEON%20BLVD%2C+BROOKSVILLE%2C+FL+34601,
COLLIER HEALTH SERVICES,1454 MADISON AVE W,"IMMOKALEE, FL 34142",http://maps.google.com/maps?q=COLLIER%20HEALTH%20SERVICES%2C1454%20MADISON%20AVE%20W%2C+IMMOKALEE%2C+FL+34142,
"CYPRESS PHARMACY, INC",9451 CYPRESS LAKE DR,"FORT MYERS, FL 33919",http://maps.google.com/maps?q=CYPRESS%20PHARMACY%20INC%2C9451%20CYPRESS%20LAKE%20DR%2C+FORT%20MYERS%2C+FL+33919,
EDWARDS PHARMACY OF INDIAN ROCKS LLC,12071 INDIAN ROCKS ROAD,"LARGO, FL 33774",http://maps.google.com/maps?q=EDWARDS%20PHARMACY%20OF%20INDIAN%20ROCKS%20LLC%2C12071%20INDIAN%20ROCKS%20ROAD%2C+LARGO%2C+FL+33774,
EMISWET E-Z LLC,4942 W SR 46 SUITE 1014,"SANFORD, FL 32771",http://maps.google.com/maps?q=EMISWET%20EZ%20LLC%2C4942%20W%20SR%2046%20SUITE%201014%2C+SANFORD%2C+FL+32771,
"GULF COAST PHARMACY, LLC",6631 ORION DRIVE,SUITE 112,"FORT MYERS, FL 33912",http://maps.google.com/maps?q=GULF%20COAST%20PHARMACY%20LLC%2C6631%20ORION%20DRIVE%2C+FORT%20MYERS%2C+FL+33912
"HOLIDAY CVS, L.L.C.",105 S PEBBLE BEACH BLVD,"SUN CITY CENTER, FL 33573",http://maps.google.com/maps?q=HOLIDAY%20CVS%20LLC%2C105%20S%20PEBBLE%20BEACH%20BLVD%2C+SUN%20CITY%20CENTER%2C+FL+33573,
"HOLIDAY CVS, L.L.C.",10623 GIBSONTON DR,"RIVERVIEW, FL 33569",http://maps.google.com/maps?q=HOLIDAY%20CVS%20LLC%2C10623%20GIBSONTON%20DR%2C+RIVERVIEW%2C+FL+33569,
"HOLIDAY CVS, L.L.C.",110 BULLARD PKWY,"TEMPLE TERRACE, FL 33617",http://maps.google.com/maps?q=HOLIDAY%20CVS%20LLC%2C110%20BULLARD%20PKWY%2C+TEMPLE%20TERRACE%2C+FL+33617,
"HOLIDAY CVS, L.L.C.",11000 N. MILITARY TRAIL,"PALM BEACH GARDENS, FL 33410",http://maps.google.com/maps?q=HOLIDAY%20CVS%20LLC%2C11000%20N.%20MILITARY%20TRAIL%2C+PALM%20BEACH%20GARDENS%2C+FL+33410,
"HOLIDAY CVS, L.L.C.",11115 SPRING HILL DR,"SPRING HILL, FL 34609",http://maps.google.com/maps?q=HOLIDAY%20CVS%20LLC%2C11115%20SPRING%20HILL%20DR%2C+SPRING%20HILL%2C+FL+34609,
"HOLIDAY CVS, L.L.C.",1205 W VINE ST,"KISSIMMEE, FL 34741",http://maps.google.com/maps?q=HOLIDAY%20CVS%20LLC%2C1205%20W%20VINE%20ST%2C+KISSIMMEE%2C+FL+34741,
"HOLIDAY CVS, L.L.C.",12804 US HWY 301,"DADE CITY, FL 33525",http://maps.google.com/maps?q=HOLIDAY%20CVS%20LLC%2C12804%20US%20HWY%20301%2C+DADE%20CITY%2C+FL+33525,
"HOLIDAY CVS, L.L.C.",1350 LEE BLVD,"LEHIGH ACRES, FL 33936",http://maps.google.com/maps?q=HOLIDAY%20CVS%20LLC%2C1350%20LEE%20BLVD%2C+LEHIGH%20ACRES%2C+FL+33936,
"HOLIDAY CVS, L.L.C.",13998 WALSINGHAM RD,"LARGO, FL 33774",http://maps.google.com/maps?q=HOLIDAY%20CVS%20LLC%2C13998%20WALSINGHAM%20RD%2C+LARGO%2C+FL+33774,
"HOLIDAY CVS, L.L.C.",1800 E. HWY 50,"CLERMONT, FL 34711",http://maps.google.com/maps?q=HOLIDAY%20CVS%20LLC%2C1800%20E.%20HWY%2050%2C+CLERMONT%2C+FL+34711,
"HOLIDAY CVS, L.L.C.",1929 BRUCE B. DOWNS BLVD.,"WESLEY CHAPEL, FL 33543",http://maps.google.com/maps?q=HOLIDAY%20CVS%20LLC%2C1929%20BRUCE%20B.%20DOWNS%20BLVD.%2C+WESLEY%20CHAPEL%2C+FL+33543,
"HOLIDAY CVS, L.L.C.",2200 34TH STREET NORTH,"SAINT PETERSBURG, FL 33713",http://maps.google.com/maps?q=HOLIDAY%20CVS%20LLC%2C2200%2034TH%20STREET%20NORTH%2C+SAINT%20PETERSBURG%2C+FL+33713,
"HOLIDAY CVS, L.L.C.",30387 US HWY 19 N,"CLEARWATER, FL 33761",http://maps.google.com/maps?q=HOLIDAY%20CVS%20LLC%2C30387%20US%20HWY%2019%20N%2C+CLEARWATER%2C+FL+33761,
"HOLIDAY CVS, L.L.C.",3501 54TH AVE S,"SAINT PETERSBURG, FL 33711",http://maps.google.com/maps?q=HOLIDAY%20CVS%20LLC%2C3501%2054TH%20AVE%20S%2C+SAINT%20PETERSBURG%2C+FL+33711,
"HOLIDAY CVS, L.L.C.",37943 EILAND BLVD,"ZEPHYRHILLS, FL 33542",http://maps.google.com/maps?q=HOLIDAY%20CVS%20LLC%2C37943%20EILAND%20BLVD%2C+ZEPHYRHILLS%2C+FL+33542,
"HOLIDAY CVS, L.L.C.",403 N ALEXANDER ST,"PLANT CITY, FL 33563",http://maps.google.com/maps?q=HOLIDAY%20CVS%20LLC%2C403%20N%20ALEXANDER%20ST%2C+PLANT%20CITY%2C+FL+33563,
"HOLIDAY CVS, L.L.C.",4292 N ATLANTIC AVE,"COCOA BEACH, FL 32931",http://maps.google.com/maps?q=HOLIDAY%20CVS%20LLC%2C4292%20N%20ATLANTIC%20AVE%2C+COCOA%20BEACH%2C+FL+32931,
"HOLIDAY CVS, L.L.C.",5010 S FLORIDA AVE,"LAKELAND, FL 33813",http://maps.google.com/maps?q=HOLIDAY%20CVS%20LLC%2C5010%20S%20FLORIDA%20AVE%2C+LAKELAND%2C+FL+33813,
"HOLIDAY CVS, L.L.C.",5151 BELLE TERRE PKWY,"PALM COAST, FL 32137",http://maps.google.com/maps?q=HOLIDAY%20CVS%20LLC%2C5151%20BELLE%20TERRE%20PKWY%2C+PALM%20COAST%2C+FL+32137,
"HOLIDAY CVS, L.L.C.",5650 RED BUG LAKE RD,"WINTER SPRINGS, FL 32708",http://maps.google.com/maps?q=HOLIDAY%20CVS%20LLC%2C5650%20RED%20BUG%20LAKE%20RD%2C+WINTER%20SPRINGS%2C+FL+32708,
"HOLIDAY CVS, L.L.C.",6105 US HWY 98 N,"LAKELAND, FL 33809",http://maps.google.com/maps?q=HOLIDAY%20CVS%20LLC%2C6105%20US%20HWY%2098%20N%2C+LAKELAND%2C+FL+33809,
"HOLIDAY CVS, L.L.C.",611 S HOWARD AVE,"TAMPA, FL 33606",http://maps.google.com/maps?q=HOLIDAY%20CVS%20LLC%2C611%20S%20HOWARD%20AVE%2C+TAMPA%2C+FL+33606,
"HOLIDAY CVS, L.L.C.",65 E MAIN ST,"APOPKA, FL 32703",http://maps.google.com/maps?q=HOLIDAY%20CVS%20LLC%2C65%20E%20MAIN%20ST%2C+APOPKA%2C+FL+32703,
"HOLIDAY CVS, L.L.C.",6701 N. DALE MABRY HWY.,"TAMPA, FL 33614",http://maps.google.com/maps?q=HOLIDAY%20CVS%20LLC%2C6701%20N.%20DALE%20MABRY%20HWY.%2C+TAMPA%2C+FL+33614,
"HOLIDAY CVS, L.L.C.",704 W MARTIN LUTHER KING JR BLVD,"SEFFNER, FL 33584",http://maps.google.com/maps?q=HOLIDAY%20CVS%20LLC%2C704%20W%20MARTIN%20LUTHER%20KING%20JR%20BLVD%2C+SEFFNER%2C+FL+33584,
"HOLIDAY CVS, L.L.C.",7300 CURRY FORD RD.,"ORLANDO, FL 32822",http://maps.google.com/maps?q=HOLIDAY%20CVS%20LLC%2C7300%20CURRY%20FORD%20RD.%2C+ORLANDO%2C+FL+32822,
"HOLIDAY CVS, L.L.C.",7599 W SAND LAKE RD,"ORLANDO, FL 32819",http://maps.google.com/maps?q=HOLIDAY%20CVS%20LLC%2C7599%20W%20SAND%20LAKE%20RD%2C+ORLANDO%2C+FL+32819,
"HOLIDAY CVS, L.L.C.",795 W. GRANADA BLVD,"ORMOND BEACH, FL 32174",http://maps.google.com/maps?q=HOLIDAY%20CVS%20LLC%2C795%20W.%20GRANADA%20BLVD%2C+ORMOND%20BEACH%2C+FL+32174,
"HOLIDAY CVS, L.L.C.",8001 9TH ST N,"SAINT PETERSBURG, FL 33702",http://maps.google.com/maps?q=HOLIDAY%20CVS%20LLC%2C8001%209TH%20ST%20N%2C+SAINT%20PETERSBURG%2C+FL+33702,
"HOLIDAY CVS, L.L.C.",8603 WEST HILLSBOROUGH AVE,"TAMPA, FL 33615",http://maps.google.com/maps?q=HOLIDAY%20CVS%20LLC%2C8603%20WEST%20HILLSBOROUGH%20AVE%2C+TAMPA%2C+FL+33615,
HOLMES REGIONAL MEDICAL CENTER INC,1350  S HICKORY STREET,"MELBOURNE, FL 32901",http://maps.google.com/maps?q=HOLMES%20REGIONAL%20MEDICAL%20CENTER%20INC%2C1350%20%20S%20HICKORY%20STREET%2C+MELBOURNE%2C+FL+32901,
"HOLMES REGIONAL MEDICAL CENTER, INC",8725 N WICKHAM RD.,SUITE 102,"MELBOURNE, FL 32940",http://maps.google.com/maps?q=HOLMES%20REGIONAL%20MEDICAL%20CENTER%20INC%2C8725%20N%20WICKHAM%20RD.%2C+MELBOURNE%2C+FL+32940
"HOLMES REGIONAL MEDICAL CENTER, INC.",1223 GATEWAY DR,"MELBOURNE, FL 32901",http://maps.google.com/maps?q=HOLMES%20REGIONAL%20MEDICAL%20CENTER%20INC%2C1223%20GATEWAY%20DR%2C+MELBOURNE%2C+FL+32901,
J-M WARD ENTERPRISES LLC,9048 BONITA BEACH RD SE,"BONITA SPRINGS, FL 34135",http://maps.google.com/maps?q=JM%20WARD%20ENTERPRISES%20LLC%2C9048%20BONITA%20BEACH%20RD%20SE%2C+BONITA%20SPRINGS%2C+FL+34135,
"LA AMISTAD RESIDENTIAL TREATMENT CENTER, INC",6601 CENTRAL FLORIDA PKWY,"ORLANDO, FL 32821",http://maps.google.com/maps?q=LA%20AMISTAD%20RESIDENTIAL%20TREATMENT%20CENTER%20INC%2C6601%20CENTRAL%20FLORIDA%20PKWY%2C+ORLANDO%2C+FL+32821,
LEMON BAY DRUGS NORTH INC,13221 TAMIAMI TRAIL,"NORTH PORT, FL 34287",http://maps.google.com/maps?q=LEMON%20BAY%20DRUGS%20NORTH%20INC%2C13221%20TAMIAMI%20TRAIL%2C+NORTH%20PORT%2C+FL+34287,
LINCOURT PHARMACY,501 S LINCOLN AVE,"CLEARWATER, FL 33756",http://maps.google.com/maps?q=LINCOURT%20PHARMACY%2C501%20S%20LINCOLN%20AVE%2C+CLEARWATER%2C+FL+33756,
MEDROCK PHARMACY LLC,3209 TAMPA ROAD,"PALM HARBOR, FL 34684",http://maps.google.com/maps?q=MEDROCK%20PHARMACY%20LLC%2C3209%20TAMPA%20ROAD%2C+PALM%20HARBOR%2C+FL+34684,
MOULTRIE PHARMACY,3690 US 1 SOUTH,"ST AUGUSTINE, FL 32086",http://maps.google.com/maps?q=MOULTRIE%20PHARMACY%2C3690%20US%201%20SOUTH%2C+ST%20AUGUSTINE%2C+FL+32086,
"OCALA BEHAVIORAL HEALTH, LLC",3130 SW 27TH  AVE,"OCALA, FL 34471",http://maps.google.com/maps?q=OCALA%20BEHAVIORAL%20HEALTH%20LLC%2C3130%20SW%2027TH%20%20AVE%2C+OCALA%2C+FL+34471,
OGLETHORPE OF ORLANDO INC.,91 BEEHIVE CIRCLE DRIVE,"SAINT CLOUD, FL 34769",http://maps.google.com/maps?q=OGLETHORPE%20OF%20ORLANDO%20INC%2C91%20BEEHIVE%20CIRCLE%20DRIVE%2C+SAINT%20CLOUD%2C+FL+34769,
"OHM PHARMACY SERVICES ,INC",301 HAVENDALE BLVD,"AUBURNDALE, FL 33823",http://maps.google.com/maps?q=OHM%20PHARMACY%20SERVICES%20INC%2C301%20HAVENDALE%20BLVD%2C+AUBURNDALE%2C+FL+33823,
"PALMA CEIA HEALTH MART PHARMACY, INC.","2506 S. MACDILL AVE., STE A","TAMPA, FL 33629",http://maps.google.com/maps?q=PALMA%20CEIA%20HEALTH%20MART%20PHARMACY%20INC%2C2506%20S.%20MACDILL%20AVE.%2C%20STE%20A%2C+TAMPA%2C+FL+33629,
PERSONAL ENRICHMENT THROUGH,"MENTAL HEALTH SERVICES, INC.",11254 58TH ST N,"PINELLAS PARK, FL 33782",http://maps.google.com/maps?q=PERSONAL%20ENRICHMENT%20THROUGH%2CMENTAL%20HEALTH%20SERVICES%2C%20INC.%2C+PINELLAS%20PARK%2C+FL+33782
PHARMACARE,7101 KINGFISHER ST.,BLDG 934,"TAMPA, FL 33621",http://maps.google.com/maps?q=PHARMACARE%2C7101%20KINGFISHER%20ST.%2C+TAMPA%2C+FL+33621
PINE BROOK PHARMACY LLC,11373 CORTEZ BLVD,SUITE 101,"BROOKSVILLE, FL 34613",http://maps.google.com/maps?q=PINE%20BROOK%20PHARMACY%20LLC%2C11373%20CORTEZ%20BLVD%2C+BROOKSVILLE%2C+FL+34613
"PREMIER BEHAVIORAL SOLUTIONS OF FL, INC",1324 37TH AVENUE EAST,"BRADENTON, FL 34208",http://maps.google.com/maps?q=PREMIER%20BEHAVIORAL%20SOLUTIONS%20OF%20FL%20INC%2C1324%2037TH%20AVENUE%20EAST%2C+BRADENTON%2C+FL+34208,
RURAL HEALTH CARE,100 COMMERCIAL DR,"KEYSTONE HEIGHTS, FL 32656",http://maps.google.com/maps?q=RURAL%20HEALTH%20CARE%2C100%20COMMERCIAL%20DR%2C+KEYSTONE%20HEIGHTS%2C+FL+32656,
RURAL HEALTH CARE INC,DBA / AZALEA HEALTH,"1302 RIVER ST, PO DRAWER 817","PALATKA, FL 32177",http://maps.google.com/maps?q=RURAL%20HEALTH%20CARE%20INC%2CDBA%20/%20AZALEA%20HEALTH%2C+PALATKA%2C+FL+32177
RURAL HEALTH CARE INC,PHARMACY,306 UNION AVENUE,"CRESCENT CITY, FL 32112",http://maps.google.com/maps?q=RURAL%20HEALTH%20CARE%20INC%2CPHARMACY%2C+CRESCENT%20CITY%2C+FL+32112
"RURAL HEALTH CARE, INC",105 WHITEHALL DRIVE,SUITES 109-114,"ST AUGUSTINE, FL 32086",http://maps.google.com/maps?q=RURAL%20HEALTH%20CARE%20INC%2C105%20WHITEHALL%20DRIVE%2C+ST%20AUGUSTINE%2C+FL+32086
"RURAL HEALTH CARE, INC",1425 DUNN AVENUE,"DAYTONA BEACH, FL 32114",http://maps.google.com/maps?q=RURAL%20HEALTH%20CARE%20INC%2C1425%20DUNN%20AVENUE%2C+DAYTONA%20BEACH%2C+FL+32114,
"RURAL HEALTH CARE, INC",22066 SE 71 ST AVE,"HAWTHORNE, FL 32640",http://maps.google.com/maps?q=RURAL%20HEALTH%20CARE%20INC%2C22066%20SE%2071%20ST%20AVE%2C+HAWTHORNE%2C+FL+32640,
"RURAL HEALTH CARE, INC",460 PALM COAST PARKWAY SW,SUITE # 5,"PALM COAST, FL 32137",http://maps.google.com/maps?q=RURAL%20HEALTH%20CARE%20INC%2C460%20PALM%20COAST%20PARKWAY%20SW%2C+PALM%20COAST%2C+FL+32137
"RURAL HEALTH CARE, INC",DBA \ AZALEA HEALTH,1213 STATE ROAD 20 (P.O. BOX 190),"INTERLACHEN, FL 32148",http://maps.google.com/maps?q=RURAL%20HEALTH%20CARE%20INC%2CDBA%20%5C%20AZALEA%20HEALTH%2C+INTERLACHEN%2C+FL+32148
RX CARE 11 LLC,1201 PIPER BLVD STE 12,"NAPLES, FL 34110",http://maps.google.com/maps?q=RX%20CARE%20%20LLC%2C1201%20PIPER%20BLVD%20STE%2012%2C+NAPLES%2C+FL+34110,
RX CARE 16 LLC,401 NORTH WICKHAM ROAD,SUITE W,"MELBOURNE, FL 32935",http://maps.google.com/maps?q=RX%20CARE%20%20LLC%2C401%20NORTH%20WICKHAM%20ROAD%2C+MELBOURNE%2C+FL+32935
"RX CARE 7, LLC",1426 S PINE AVE,"OCALA, FL 34471",http://maps.google.com/maps?q=RX%20CARE%20%20LLC%2C1426%20S%20PINE%20AVE%2C+OCALA%2C+FL+34471,
RX CARE FOUR LLC,1270 MALABAR RD S.E,SUITE #2,"PALM BAY, FL 32907",http://maps.google.com/maps?q=RX%20CARE%20FOUR%20LLC%2C1270%20MALABAR%20RD%20S.E%2C+PALM%20BAY%2C+FL+32907
RX CARE OF LADY LAKE INC,725 COUNTY ROAD 466,"LADY LAKE, FL 32159",http://maps.google.com/maps?q=RX%20CARE%20OF%20LADY%20LAKE%20INC%2C725%20COUNTY%20ROAD%20466%2C+LADY%20LAKE%2C+FL+32159,
RX CARE SPECIALTY PHARMACY LLC,2812 W. MLK BLVD,"TAMPA, FL 33607",http://maps.google.com/maps?q=RX%20CARE%20SPECIALTY%20PHARMACY%20LLC%2C2812%20W.%20MLK%20BLVD%2C+TAMPA%2C+FL+33607,
RX PLUS PHARMACY LLC,717 W LANCASTER ROAD,"ORLANDO, FL 32809",http://maps.google.com/maps?q=RX%20PLUS%20PHARMACY%20LLC%2C717%20W%20LANCASTER%20ROAD%2C+ORLANDO%2C+FL+32809,
STUDENT HLTH SERV HOSP PHCY,FLORIDA,"280 FLETCHER DR., PO BOX 117500","GAINESVILLE, FL 32611",http://maps.google.com/maps?q=STUDENT%20HLTH%20SERV%20HOSP%20PHCY%2CFLORIDA%2C+GAINESVILLE%2C+FL+32611
"TEN BROECK TAMPA, INC",29910 SR 56,"WESLEY CHAPEL, FL 33543",http://maps.google.com/maps?q=TEN%20BROECK%20TAMPA%20INC%2C29910%20SR%2056%2C+WESLEY%20CHAPEL%2C+FL+33543,
THE PAVILION AT HEALTHPARK LLC,9241 PARK ROYAL DR,"FORT MYERS, FL 33908",http://maps.google.com/maps?q=THE%20PAVILION%20AT%20HEALTHPARK%20LLC%2C9241%20PARK%20ROYAL%20DR%2C+FORT%20MYERS%2C+FL+33908,
TRENTON MEDICAL CENTER,DBA: PALMS PHARMACY OF BELL,1830 N MAIN ST,"BELL, FL 32619",http://maps.google.com/maps?q=TRENTON%20MEDICAL%20CENTER%2CDBA%3A%20PALMS%20PHARMACY%20OF%20BELL%2C+BELL%2C+FL+32619
TRENTON MEDICAL CENTER INC,911 SOUTH MAIN STREET,"TRENTON, FL 32693",http://maps.google.com/maps?q=TRENTON%20MEDICAL%20CENTER%20INC%2C911%20SOUTH%20MAIN%20STREET%2C+TRENTON%2C+FL+32693,
"TRENTON MEDICAL CENTER, INC.",103 US HIGHWAY 27 SW,"BRANFORD, FL 32008",http://maps.google.com/maps?q=TRENTON%20MEDICAL%20CENTER%20INC%2C103%20US%20HIGHWAY%2027%20SW%2C+BRANFORD%2C+FL+32008,
TRINITY COMPOUNDING EXPERTS LLC,6631 ORION DRIVE,#112,"FORT MYERS, FL 33912",http://maps.google.com/maps?q=TRINITY%20COMPOUNDING%20EXPERTS%20LLC%2C6631%20ORION%20DRIVE%2C+FORT%20MYERS%2C+FL+33912
TUJAX NORTH INC,319 S WOODLAND BLVD,"DELAND, FL 32720",http://maps.google.com/maps?q=TUJAX%20NORTH%20INC%2C319%20S%20WOODLAND%20BLVD%2C+DELAND%2C+FL+32720,
"UNIVERSITY BEHAVIORAL, LLC",2500 DISCOVERY DRIVE,"ORLANDO, FL 32826",http://maps.google.com/maps?q=UNIVERSITY%20BEHAVIORAL%20LLC%2C2500%20DISCOVERY%20DRIVE%2C+ORLANDO%2C+FL+32826,
USAF MACDILL AFB BRANDON CLINIC,220 GRAND REGENCY BLVD,ATTN:  PHARMACY FLIGHT,"BRANDON, FL 33510",http://maps.google.com/maps?q=USAF%20MACDILL%20AFB%20BRANDON%20CLINIC%2C220%20GRAND%20REGENCY%20BLVD%2C+BRANDON%2C+FL+33510
USAF- 6 MEDICAL GROUP/SGSL,3250 ZEMKE AVENUE,BLDG. 1078,"TAMPA, FL 33621",http://maps.google.com/maps?q=USAF%20%20MEDICAL%20GROUPSGSL%2C3250%20ZEMKE%20AVENUE%2C+TAMPA%2C+FL+33621
WALGREEN CO,14040 W NEWBERRY RD,"NEWBERRY, FL 32669",http://maps.google.com/maps?q=WALGREEN%20CO%2C14040%20W%20NEWBERRY%20RD%2C+NEWBERRY%2C+FL+32669,
WALGREEN CO,5171 NW 43RD STREET,"GAINESVILLE, FL 32606",http://maps.google.com/maps?q=WALGREEN%20CO%2C5171%20NW%2043RD%20STREET%2C+GAINESVILLE%2C+FL+32606,
WALGREEN CO,8 NW MAIN ST,"WILLISTON, FL 32696",http://maps.google.com/maps?q=WALGREEN%20CO%2C8%20NW%20MAIN%20ST%2C+WILLISTON%2C+FL+32696,
WALGREEN CO.,104 S APOPKA AVE,"INVERNESS, FL 34452",http://maps.google.com/maps?q=WALGREEN%20CO%2C104%20S%20APOPKA%20AVE%2C+INVERNESS%2C+FL+34452,
WALGREEN CO.,10427 BIG BEND RD,"RIVERVIEW, FL 33578",http://maps.google.com/maps?q=WALGREEN%20CO%2C10427%20BIG%20BEND%20RD%2C+RIVERVIEW%2C+FL+33578,
WALGREEN CO.,10624 GIBSONTON DRIVE,"RIVERVIEW, FL 33578",http://maps.google.com/maps?q=WALGREEN%20CO%2C10624%20GIBSONTON%20DRIVE%2C+RIVERVIEW%2C+FL+33578,
WALGREEN CO.,11018 INTERNATIONAL DR,"ORLANDO, FL 32821",http://maps.google.com/maps?q=WALGREEN%20CO%2C11018%20INTERNATIONAL%20DR%2C+ORLANDO%2C+FL+32821,
WALGREEN CO.,1109 PALM COAST PARKWAY SW,"PALM COAST, FL 32137",http://maps.google.com/maps?q=WALGREEN%20CO%2C1109%20PALM%20COAST%20PARKWAY%20SW%2C+PALM%20COAST%2C+FL+32137,
WALGREEN CO.,1111 W VINE STREET,"KISSIMMEE, FL 34741",http://maps.google.com/maps?q=WALGREEN%20CO%2C1111%20W%20VINE%20STREET%2C+KISSIMMEE%2C+FL+34741,
WALGREEN CO.,11115 E DR MLK JR BLVD,"SEFFNER, FL 33584",http://maps.google.com/maps?q=WALGREEN%20CO%2C11115%20E%20DR%20MLK%20JR%20BLVD%2C+SEFFNER%2C+FL+33584,
WALGREEN CO.,11180 SPRING HILL DR,"SPRING HILL, FL 34609",http://maps.google.com/maps?q=WALGREEN%20CO%2C11180%20SPRING%20HILL%20DR%2C+SPRING%20HILL%2C+FL+34609,
WALGREEN CO.,1120 E. UNIVERSITY AVE.,"GAINESVILLE, FL 32641",http://maps.google.com/maps?q=WALGREEN%20CO%2C1120%20E.%20UNIVERSITY%20AVE.%2C+GAINESVILLE%2C+FL+32641,
WALGREEN CO.,115 N LAWRENCE BLVD,"KEYSTONE HGTS, FL 32656",http://maps.google.com/maps?q=WALGREEN%20CO%2C115%20N%20LAWRENCE%20BLVD%2C+KEYSTONE%20HGTS%2C+FL+32656,
WALGREEN CO.,1160 MALABAR ROAD SE,"PALM BAY, FL 32907",http://maps.google.com/maps?q=WALGREEN%20CO%2C1160%20MALABAR%20ROAD%20SE%2C+PALM%20BAY%2C+FL+32907,
WALGREEN CO.,1201 INTERNATIONAL PKWY S,"LAKE MARY, FL 32746",http://maps.google.com/maps?q=WALGREEN%20CO%2C1201%20INTERNATIONAL%20PKWY%20S%2C+LAKE%20MARY%2C+FL+32746,
WALGREEN CO.,12100 S. APOPKA VINELAND RD.,"ORLANDO, FL 32836",http://maps.google.com/maps?q=WALGREEN%20CO%2C12100%20S.%20APOPKA%20VINELAND%20RD.%2C+ORLANDO%2C+FL+32836,
WALGREEN CO.,12279 LAKE UNDERHILL RD,"ORLANDO, FL 32825",http://maps.google.com/maps?q=WALGREEN%20CO%2C12279%20LAKE%20UNDERHILL%20RD%2C+ORLANDO%2C+FL+32825,
WALGREEN CO.,125 EAST MAIN STREET,"APOPKA, FL 32703",http://maps.google.com/maps?q=WALGREEN%20CO%2C125%20EAST%20MAIN%20STREET%2C+APOPKA%2C+FL+32703,
WALGREEN CO.,12749 S. CLEVELAND AVENUE,"FT MYERS, FL 33907",http://maps.google.com/maps?q=WALGREEN%20CO%2C12749%20S.%20CLEVELAND%20AVENUE%2C+FT%20MYERS%2C+FL+33907,
WALGREEN CO.,128 E. BRANDON BLVD.,"BRANDON, FL 33511",http://maps.google.com/maps?q=WALGREEN%20CO%2C128%20E.%20BRANDON%20BLVD.%2C+BRANDON%2C+FL+33511,
WALGREEN CO.,12807 US HWY 301,"DADE CITY, FL 33525",http://maps.google.com/maps?q=WALGREEN%20CO%2C12807%20US%20HWY%20301%2C+DADE%20CITY%2C+FL+33525,
WALGREEN CO.,1350 N. WICKHAM RD.,"MELBOURNE, FL 32935",http://maps.google.com/maps?q=WALGREEN%20CO%2C1350%20N.%20WICKHAM%20RD.%2C+MELBOURNE%2C+FL+32935,
WALGREEN CO.,13720 W COLONIAL DR,"WINTER GARDEN, FL 34787",http://maps.google.com/maps?q=WALGREEN%20CO%2C13720%20W%20COLONIAL%20DR%2C+WINTER%20GARDEN%2C+FL+34787,
WALGREEN CO.,14004 WALSINGHAM RD,"LARGO, FL 33774",http://maps.google.com/maps?q=WALGREEN%20CO%2C14004%20WALSINGHAM%20RD%2C+LARGO%2C+FL+33774,
WALGREEN CO.,1477 MAIN STREET,"DUNEDIN, FL 34698",http://maps.google.com/maps?q=WALGREEN%20CO%2C1477%20MAIN%20STREET%2C+DUNEDIN%2C+FL+34698,
WALGREEN CO.,15155 NW US HIGHWAY 441,"ALACHUA, FL 32615",http://maps.google.com/maps?q=WALGREEN%20CO%2C15155%20NW%20US%20HIGHWAY%20441%2C+ALACHUA%2C+FL+32615,
WALGREEN CO.,15295 COLLIER BLVD,"NAPLES, FL 34119",http://maps.google.com/maps?q=WALGREEN%20CO%2C15295%20COLLIER%20BLVD%2C+NAPLES%2C+FL+34119,
WALGREEN CO.,15602 N. DALE MABRY,"TAMPA, FL 33618",http://maps.google.com/maps?q=WALGREEN%20CO%2C15602%20N.%20DALE%20MABRY%2C+TAMPA%2C+FL+33618,
WALGREEN CO.,1581 BELLA CRUZ DRIVE,"THE VILLAGES, FL 32159",http://maps.google.com/maps?q=WALGREEN%20CO%2C1581%20BELLA%20CRUZ%20DRIVE%2C+THE%20VILLAGES%2C+FL+32159,
WALGREEN CO.,1615 NW 13TH ST.,"GAINESVILLE, FL 32609",http://maps.google.com/maps?q=WALGREEN%20CO%2C1615%20NW%2013TH%20ST.%2C+GAINESVILLE%2C+FL+32609,
WALGREEN CO.,1650 DUNLAWTON AVE,"PORT ORANGE, FL 32127",http://maps.google.com/maps?q=WALGREEN%20CO%2C1650%20DUNLAWTON%20AVE%2C+PORT%20ORANGE%2C+FL+32127,
WALGREEN CO.,1661 NW ST LUCIE WEST BLVD,"PORT ST LUCIE, FL 34986",http://maps.google.com/maps?q=WALGREEN%20CO%2C1661%20NW%20ST%20LUCIE%20WEST%20BLVD%2C+PORT%20ST%20LUCIE%2C+FL+34986,
WALGREEN CO.,1705 US HWY 1,"VERO BEACH, FL 32960",http://maps.google.com/maps?q=WALGREEN%20CO%2C1705%20US%20HWY%201%2C+VERO%20BEACH%2C+FL+32960,
WALGREEN CO.,1800 W INDIANTOWN RD,"JUPITER, FL 33458",http://maps.google.com/maps?q=WALGREEN%20CO%2C1800%20W%20INDIANTOWN%20RD%2C+JUPITER%2C+FL+33458,
WALGREEN CO.,18910 US HWY 441,"MT DORA, FL 32757",http://maps.google.com/maps?q=WALGREEN%20CO%2C18910%20US%20HWY%20441%2C+MT%20DORA%2C+FL+32757,
WALGREEN CO.,1920 ALOMA AVE.,"WINTER PARK, FL 32792",http://maps.google.com/maps?q=WALGREEN%20CO%2C1920%20ALOMA%20AVE.%2C+WINTER%20PARK%2C+FL+32792,
WALGREEN CO.,205 WEST MADISON STREET,"STARKE, FL 32091",http://maps.google.com/maps?q=WALGREEN%20CO%2C205%20WEST%20MADISON%20STREET%2C+STARKE%2C+FL+32091,
WALGREEN CO.,2075 US HWY 1 SOUTH,"ST AUGUSTINE, FL 32086",http://maps.google.com/maps?q=WALGREEN%20CO%2C2075%20US%20HWY%201%20SOUTH%2C+ST%20AUGUSTINE%2C+FL+32086,
WALGREEN CO.,2115 E HILLSBOROUGH AVE,SUITE B,"TAMPA, FL 33610",http://maps.google.com/maps?q=WALGREEN%20CO%2C2115%20E%20HILLSBOROUGH%20AVE%2C+TAMPA%2C+FL+33610
WALGREEN CO.,2227 N YOUNG BLVD,"CHIEFLAND, FL 32626",http://maps.google.com/maps?q=WALGREEN%20CO%2C2227%20N%20YOUNG%20BLVD%2C+CHIEFLAND%2C+FL+32626,
WALGREEN CO.,22829 STATE ROAD 54,"LAND O LAKES, FL 34639",http://maps.google.com/maps?q=WALGREEN%20CO%2C22829%20STATE%20ROAD%2054%2C+LAND%20O%20LAKES%2C+FL+34639,
WALGREEN CO.,2415 SW 75TH ST,"GAINESVILLE, FL 32608",http://maps.google.com/maps?q=WALGREEN%20CO%2C2415%20SW%2075TH%20ST%2C+GAINESVILLE%2C+FL+32608,
WALGREEN CO.,2480 US HIGHWAY 19,"HOLIDAY, FL 34691",http://maps.google.com/maps?q=WALGREEN%20CO%2C2480%20US%20HIGHWAY%2019%2C+HOLIDAY%2C+FL+34691,
WALGREEN CO.,28115 WESLEY CHAPEL BLVD,"WESLEY CHAPEL, FL 33543",http://maps.google.com/maps?q=WALGREEN%20CO%2C28115%20WESLEY%20CHAPEL%20BLVD%2C+WESLEY%20CHAPEL%2C+FL+33543,
WALGREEN CO.,2940 SOUTH MCCALL RD,"ENGLEWOOD, FL 34224",http://maps.google.com/maps?q=WALGREEN%20CO%2C2940%20SOUTH%20MCCALL%20RD%2C+ENGLEWOOD%2C+FL+34224,
WALGREEN CO.,3053 SW MARTIN DOWNS BLVD,"PALM CITY, FL 34990",http://maps.google.com/maps?q=WALGREEN%20CO%2C3053%20SW%20MARTIN%20DOWNS%20BLVD%2C+PALM%20CITY%2C+FL+34990,
WALGREEN CO.,310 NE US HWY 19,"CRYSTAL RIVER, FL 34429",http://maps.google.com/maps?q=WALGREEN%20CO%2C310%20NE%20US%20HWY%2019%2C+CRYSTAL%20RIVER%2C+FL+34429,
WALGREEN CO.,33670 US 19 NORTH,"PALM HARBOR, FL 34684",http://maps.google.com/maps?q=WALGREEN%20CO%2C33670%20US%2019%20NORTH%2C+PALM%20HARBOR%2C+FL+34684,
WALGREEN CO.,3455 SW ARCHER RD,"GAINESVILLE, FL 32608",http://maps.google.com/maps?q=WALGREEN%20CO%2C3455%20SW%20ARCHER%20RD%2C+GAINESVILLE%2C+FL+32608,
WALGREEN CO.,3500 SE MARICAMP ROAD,"OCALA, FL 34471",http://maps.google.com/maps?q=WALGREEN%20CO%2C3500%20SE%20MARICAMP%20ROAD%2C+OCALA%2C+FL+34471,
WALGREEN CO.,3518 HENDERSON BLVD,"TAMPA, FL 33609",http://maps.google.com/maps?q=WALGREEN%20CO%2C3518%20HENDERSON%20BLVD%2C+TAMPA%2C+FL+33609,
WALGREEN CO.,38 HOMESTEAD RD N,"LEHIGH ACRES, FL 33936",http://maps.google.com/maps?q=WALGREEN%20CO%2C38%20HOMESTEAD%20RD%20N%2C+LEHIGH%20ACRES%2C+FL+33936,
WALGREEN CO.,3851 4TH ST NORTH,"ST PETERSBURG, FL 33703",http://maps.google.com/maps?q=WALGREEN%20CO%2C3851%204TH%20ST%20NORTH%2C+ST%20PETERSBURG%2C+FL+33703,
WALGREEN CO.,3909 NW 13TH ST,"GAINESVILLE, FL 32609",http://maps.google.com/maps?q=WALGREEN%20CO%2C3909%20NW%2013TH%20ST%2C+GAINESVILLE%2C+FL+32609,
WALGREEN CO.,395 CYPRESS PKWY,"KISSIMMEE, FL 34759",http://maps.google.com/maps?q=WALGREEN%20CO%2C395%20CYPRESS%20PKWY%2C+KISSIMMEE%2C+FL+34759,
WALGREEN CO.,408 E MICHIGAN STREET,"ORLANDO, FL 32806",http://maps.google.com/maps?q=WALGREEN%20CO%2C408%20E%20MICHIGAN%20STREET%2C+ORLANDO%2C+FL+32806,
WALGREEN CO.,4150 N ATLANTIC AVE,"COCOA BEACH, FL 32931",http://maps.google.com/maps?q=WALGREEN%20CO%2C4150%20N%20ATLANTIC%20AVE%2C+COCOA%20BEACH%2C+FL+32931,
WALGREEN CO.,4340 S. FLORIDA AVE.,"LAKELAND, FL 33813",http://maps.google.com/maps?q=WALGREEN%20CO%2C4340%20S.%20FLORIDA%20AVE.%2C+LAKELAND%2C+FL+33813,
WALGREEN CO.,4600 S. WASHINGTON,"TITUSVILLE, FL 32780",http://maps.google.com/maps?q=WALGREEN%20CO%2C4600%20S.%20WASHINGTON%2C+TITUSVILLE%2C+FL+32780,
WALGREEN CO.,501 HAVENDALE BLVD,"AUBURNDALE, FL 33823",http://maps.google.com/maps?q=WALGREEN%20CO%2C501%20HAVENDALE%20BLVD%2C+AUBURNDALE%2C+FL+33823,
WALGREEN CO.,5205 RED BUG LAKE RD,"WINTER SPRINGS, FL 32708",http://maps.google.com/maps?q=WALGREEN%20CO%2C5205%20RED%20BUG%20LAKE%20RD%2C+WINTER%20SPRINGS%2C+FL+32708,
WALGREEN CO.,5420-9TH ST NORTH,"ST PETERSBURG, FL 33703",http://maps.google.com/maps?q=WALGREEN%20CO%2C5420-9TH%20ST%20NORTH%2C+ST%20PETERSBURG%2C+FL+33703,
WALGREEN CO.,5800 BEE RIDGE ROAD,"SARASOTA, FL 34233",http://maps.google.com/maps?q=WALGREEN%20CO%2C5800%20BEE%20RIDGE%20ROAD%2C+SARASOTA%2C+FL+34233,
WALGREEN CO.,5800 SE FEDERAL HWY,"STUART, FL 34997",http://maps.google.com/maps?q=WALGREEN%20CO%2C5800%20SE%20FEDERAL%20HWY%2C+STUART%2C+FL+34997,
WALGREEN CO.,6003 14TH ST W,"BRADENTON, FL 34207",http://maps.google.com/maps?q=WALGREEN%20CO%2C6003%2014TH%20ST%20W%2C+BRADENTON%2C+FL+34207,
WALGREEN CO.,6429 GALL BLVD,"ZEPHYRHILLS, FL 33542",http://maps.google.com/maps?q=WALGREEN%20CO%2C6429%20GALL%20BLVD%2C+ZEPHYRHILLS%2C+FL+33542,
WALGREEN CO.,6730 US HIGHWAY 98 N,"LAKELAND, FL 33809",http://maps.google.com/maps?q=WALGREEN%20CO%2C6730%20US%20HIGHWAY%2098%20N%2C+LAKELAND%2C+FL+33809,
WALGREEN CO.,699 E HIGHWAY 50,"CLERMONT, FL 34711",http://maps.google.com/maps?q=WALGREEN%20CO%2C699%20E%20HIGHWAY%2050%2C+CLERMONT%2C+FL+34711,
WALGREEN CO.,705 N PEBBLE BEACH BLVD,"SUN CITY CENTER, FL 33573",http://maps.google.com/maps?q=WALGREEN%20CO%2C705%20N%20PEBBLE%20BEACH%20BLVD%2C+SUN%20CITY%20CENTER%2C+FL+33573,
WALGREEN CO.,719 HWY 19 S,"PALATKA, FL 32177",http://maps.google.com/maps?q=WALGREEN%20CO%2C719%20HWY%2019%20S%2C+PALATKA%2C+FL+32177,
WALGREEN CO.,7520 W NEWBERRY ROAD,"GAINESVILLE, FL 32606",http://maps.google.com/maps?q=WALGREEN%20CO%2C7520%20W%20NEWBERRY%20ROAD%2C+GAINESVILLE%2C+FL+32606,
WALGREEN CO.,7650 W SAND LAKE RD,"ORLANDO, FL 32819",http://maps.google.com/maps?q=WALGREEN%20CO%2C7650%20W%20SAND%20LAKE%20RD%2C+ORLANDO%2C+FL+32819,
WALGREEN CO.,7767 W IRLO BRONSON HWY,"KISSIMMEE, FL 34747",http://maps.google.com/maps?q=WALGREEN%20CO%2C7767%20W%20IRLO%20BRONSON%20HWY%2C+KISSIMMEE%2C+FL+34747,
WALGREEN CO.,790 W. GRANADA BLVD.,"ORMOND BEACH, FL 32174",http://maps.google.com/maps?q=WALGREEN%20CO%2C790%20W.%20GRANADA%20BLVD.%2C+ORMOND%20BEACH%2C+FL+32174,
WALGREEN CO.,8021 INTERNATIONAL DRIVE,"ORLANDO, FL 32819",http://maps.google.com/maps?q=WALGREEN%20CO%2C8021%20INTERNATIONAL%20DRIVE%2C+ORLANDO%2C+FL+32819,
WALGREEN CO.,805 CAPE CORAL PKY E,"CAPE CORAL, FL 33904",http://maps.google.com/maps?q=WALGREEN%20CO%2C805%20CAPE%20CORAL%20PKY%20E%2C+CAPE%20CORAL%2C+FL+33904,
WALGREEN CO.,8706 W HILLSBOROUGH AVE,"TAMPA, FL 33615",http://maps.google.com/maps?q=WALGREEN%20CO%2C8706%20W%20HILLSBOROUGH%20AVE%2C+TAMPA%2C+FL+33615,
WALGREEN CO.,8900 TAMIAMI TRAIL NORTH,"NAPLES, FL 34108",http://maps.google.com/maps?q=WALGREEN%20CO%2C8900%20TAMIAMI%20TRAIL%20NORTH%2C+NAPLES%2C+FL+34108,
WALGREEN CO.,897 SAXON BLVD,"ORANGE CITY, FL 32763",http://maps.google.com/maps?q=WALGREEN%20CO%2C897%20SAXON%20BLVD%2C+ORANGE%20CITY%2C+FL+32763,
WALGREEN CO.,900 49TH STREET N,"SAINT PETERSBURG, FL 33710",http://maps.google.com/maps?q=WALGREEN%20CO%2C900%2049TH%20STREET%20N%2C+SAINT%20PETERSBURG%2C+FL+33710,
WALGREEN CO.,9125 NW 39TH AVE,"GAINESVILLE, FL 32606",http://maps.google.com/maps?q=WALGREEN%20CO%2C9125%20NW%2039TH%20AVE%2C+GAINESVILLE%2C+FL+32606,
WALGREEN CO.,930 PROVIDENCE ROAD,"BRANDON, FL 33511",http://maps.google.com/maps?q=WALGREEN%20CO%2C930%20PROVIDENCE%20ROAD%2C+BRANDON%2C+FL+33511,
WELLCARE PHARMACY SERVICES INC,13733 U.S. HWY 441,"LADY LAKE, FL 32159",http://maps.google.com/maps?q=WELLCARE%20PHARMACY%20SERVICES%20INC%2C13733%20U.S.%20HWY%20441%2C+LADY%20LAKE%2C+FL+32159,
WALGREEN CO.,12001 SOUTHERN BLVD,"LOXAHATCHEE, FL 33470",http://maps.google.com/maps?q=WALGREEN%20CO%2C12001%20SOUTHERN%20BLVD%2C+LOXAHATCHEE%2C+FL+33470,
FOREST HILL PHARMACY LLC,2939 FOREST HILL BLVD,"WEST PALM BEACH, FL 33406",http://maps.google.com/maps?q=FOREST%20HILL%20PHARMACY%20LLC%2C2939%20FOREST%20HILL%20BLVD%2C+WEST%20PALM%20BEACH%2C+FL+33406,
WALGREEN CO.,3184 S CONGRESS AVE,"PALM SPRINGS, FL 33461",http://maps.google.com/maps?q=WALGREEN%20CO%2C3184%20S%20CONGRESS%20AVE%2C+PALM%20SPRINGS%2C+FL+33461,
WALGREEN CO.,11079 S MILITARY TRAIL,"BOYNTON BEACH, FL 33436",http://maps.google.com/maps?q=WALGREEN%20CO%2C11079%20S%20MILITARY%20TRAIL%2C+BOYNTON%20BEACH%2C+FL+33436,
RX CARE 12 LLC,2309 WEST WOOLBRIGHT ROAD,SUITE 4,"BOYNTON BEACH, FL 33426",http://maps.google.com/maps?q=RX%20CARE%20%20LLC%2C2309%20WEST%20WOOLBRIGHT%20ROAD%2C+BOYNTON%20BEACH%2C+FL+33426
WALGREEN CO.,6458 LINTON BLVD.,"DELRAY BEACH, FL 33484",http://maps.google.com/maps?q=WALGREEN%20CO%2C6458%20LINTON%20BLVD.%2C+DELRAY%20BEACH%2C+FL+33484,
SOFKO LLC,4900 LINTON BLVD,STE 24,"DELRAY BEACH, FL 33445",http://maps.google.com/maps?q=SOFKO%20LLC%2C4900%20LINTON%20BLVD%2C+DELRAY%20BEACH%2C+FL+33445
"HOLIDAY CVS, L.L.C.",9940 YAMATO RD.,"BOCA RATON, FL 33434",http://maps.google.com/maps?q=HOLIDAY%20CVS%20LLC%2C9940%20YAMATO%20RD.%2C+BOCA%20RATON%2C+FL+33434,
