Business Name,Address 1,Address 2,"City, State Zip",Map URL
AHF PHARMACY,1230 N HIGH ST,"COLUMBUS, OH 43201",http://maps.google.com/maps?q=AHF%20PHARMACY%2C1230%20N%20HIGH%20ST%2C+COLUMBUS%2C+OH+43201,
"AMC OHIO LLC, DBA EQUITAS HEALTH PHARMACY #3",750 E LONG ST,SUITE 3100,"COLUMBUS, OH 43203",http://maps.google.com/maps?q=AMC%20OHIO%20LLC%20DBA%20EQUITAS%20HEALTH%20PHARMACY%2C750%20E%20LONG%20ST%2C+COLUMBUS%2C+OH+43203
ATRIUM MEDICAL CENTER,ONE MEDICAL CENTER DRIVE,"MIDDLETOWN, OH 45005",http://maps.google.com/maps?q=ATRIUM%20MEDICAL%20CENTER%2CONE%20MEDICAL%20CENTER%20DRIVE%2C+MIDDLETOWN%2C+OH+45005,
B S D INC,716 MADISON AVENUE,"COVINGTON, KY 41011",http://maps.google.com/maps?q=B%20S%20D%20INC%2C716%20MADISON%20AVENUE%2C+COVINGTON%2C+KY+41011,
BERGER HOSPITAL,600 NORTH PICKAWAY STREET,ATTN PHARMACY,"CIRCLEVILLE, OH 43113",http://maps.google.com/maps?q=BERGER%20HOSPITAL%2C600%20NORTH%20PICKAWAY%20STREET%2C+CIRCLEVILLE%2C+OH+43113
BETHESDA HOSPITAL BUTLER COUNTY,3125 HAMILTON MASON RD,"HAMILTON, OH 45011",http://maps.google.com/maps?q=BETHESDA%20HOSPITAL%20BUTLER%20COUNTY%2C3125%20HAMILTON%20MASON%20RD%2C+HAMILTON%2C+OH+45011,
BETHESDA HOSPITAL NORTH,DEPT PHARMACY,10500 MONTGOMERY ROAD,"CINCINNATI, OH 45242",http://maps.google.com/maps?q=BETHESDA%20HOSPITAL%20NORTH%2CDEPT%20PHARMACY%2C+CINCINNATI%2C+OH+45242
CANN MEDICAL CENTER,CINCINNATI HEALTH DEPARTMENT,5818 MADISON ROAD,"CINCINNATI, OH 45227",http://maps.google.com/maps?q=CANN%20MEDICAL%20CENTER%2CCINCINNATI%20HEALTH%20DEPARTMENT%2C+CINCINNATI%2C+OH+45227
CINCINNATI HEALTH DEPARTMENT,PRICE HILL HEALTH CENTER PHARMACY,2136 WEST 8TH STREET,"CINCINNATI, OH 45204",http://maps.google.com/maps?q=CINCINNATI%20HEALTH%20DEPARTMENT%2CPRICE%20HILL%20HEALTH%20CENTER%20PHARMACY%2C+CINCINNATI%2C+OH+45204
CINCINNATI HEALTH DEPT,2750 BEEKMAN STREET,"CINCINNATI, OH 45225",http://maps.google.com/maps?q=CINCINNATI%20HEALTH%20DEPT%2C2750%20BEEKMAN%20STREET%2C+CINCINNATI%2C+OH+45225,
CLERMONT MERCY HOSPITAL,3000 HOSPITAL DRIVE,"BATAVIA, OH 45103",http://maps.google.com/maps?q=CLERMONT%20MERCY%20HOSPITAL%2C3000%20HOSPITAL%20DRIVE%2C+BATAVIA%2C+OH+45103,
COMMUNITY MARKET 710 PHARMACY,878 E SANDUSKY AVE,"BELLEFONTAINE, OH 43311",http://maps.google.com/maps?q=COMMUNITY%20MARKET%20%20PHARMACY%2C878%20E%20SANDUSKY%20AVE%2C+BELLEFONTAINE%2C+OH+43311,
COMPASS PHARMACY,1634 11TH STREET,"PORTSMOUTH, OH 45662",http://maps.google.com/maps?q=COMPASS%20PHARMACY%2C1634%2011TH%20STREET%2C+PORTSMOUTH%2C+OH+45662,
DAVE'S PHARMACY,411 W. 5TH STREET,"MARYSVILLE, OH 43040",http://maps.google.com/maps?q=DAVES%20PHARMACY%2C411%20W.%205TH%20STREET%2C+MARYSVILLE%2C+OH+43040,
DECATUR CTY MEMORIAL HOSPITAL,720 NORTH LINCOLN ST,"GREENSBURG, IN 47240",http://maps.google.com/maps?q=DECATUR%20CTY%20MEMORIAL%20HOSPITAL%2C720%20NORTH%20LINCOLN%20ST%2C+GREENSBURG%2C+IN+47240,
DEVILLE PHARMACIES,DBA DILLSBORO DRUGS,12836 NORTH ST,"DILLSBORO, IN 47018",http://maps.google.com/maps?q=DEVILLE%20PHARMACIES%2CDBA%20DILLSBORO%20DRUGS%2C+DILLSBORO%2C+IN+47018
ELM STREET HEALTH CENTER,ELM STREET HEALTH CENTER PHARMACY,1525 ELM STREET,"CINCINNATI, OH 45202",http://maps.google.com/maps?q=ELM%20STREET%20HEALTH%20CENTER%2CELM%20STREET%20HEALTH%20CENTER%20PHARMACY%2C+CINCINNATI%2C+OH+45202
EQUITAS HEALTH PHARMACY,1033 N. HIGH ST.,"COLUMBUS, OH 43201",http://maps.google.com/maps?q=EQUITAS%20HEALTH%20PHARMACY%2C1033%20N.%20HIGH%20ST.%2C+COLUMBUS%2C+OH+43201,
EQUITAS HEALTH PHARMACY #2,1222 S. PATTERSON BLVD.,SUITE 110,"DAYTON, OH 45402",http://maps.google.com/maps?q=EQUITAS%20HEALTH%20PHARMACY%2C1222%20S.%20PATTERSON%20BLVD.%2C+DAYTON%2C+OH+45402
FAMILY HEALTH SERVICES OF,DARKE COUNTY INC.,5735 MEEKER ROAD,"GREENVILLE, OH 45331",http://maps.google.com/maps?q=FAMILY%20HEALTH%20SERVICES%20OF%2CDARKE%20COUNTY%20INC.%2C+GREENVILLE%2C+OH+45331
FOSTORIA COMMUNITY HOSPITAL,501 VAN BUREN STREET,"FOSTORIA, OH 44830",http://maps.google.com/maps?q=FOSTORIA%20COMMUNITY%20HOSPITAL%2C501%20VAN%20BUREN%20STREET%2C+FOSTORIA%2C+OH+44830,
FRED'S NEIGHBORHOOD PHARMACY,320 S MAIN ST,"NEW CASTLE, IN 47362",http://maps.google.com/maps?q=FREDS%20NEIGHBORHOOD%20PHARMACY%2C320%20S%20MAIN%20ST%2C+NEW%20CASTLE%2C+IN+47362,
"GENOA HEALTHCARE, LLC",1501 MADISON ROAD,3RD FL,"WALNUT HILLS, OH 45206",http://maps.google.com/maps?q=GENOA%20HEALTHCARE%20LLC%2C1501%20MADISON%20ROAD%2C+WALNUT%20HILLS%2C+OH+45206
"GENOA HEALTHCARE, LLC",1520 GERMANTOWN STREET,"DAYTON, OH 45417",http://maps.google.com/maps?q=GENOA%20HEALTHCARE%20LLC%2C1520%20GERMANTOWN%20STREET%2C+DAYTON%2C+OH+45417,
"GENOA HEALTHCARE, LLC","43 E MAIN STREET, STE 113","AMELIA, OH 45102",http://maps.google.com/maps?q=GENOA%20HEALTHCARE%20LLC%2C43%20E%20MAIN%20STREET%2C%20STE%20113%2C+AMELIA%2C+OH+45102,
"GENOA HEALTHCARE, LLC","525 METRO PLACE N, STE 150","DUBLIN, OH 43017",http://maps.google.com/maps?q=GENOA%20HEALTHCARE%20LLC%2C525%20METRO%20PLACE%20N%2C%20STE%20150%2C+DUBLIN%2C+OH+43017,
"GENOA HEALTHCARE, LLC",799 SOUTH MAIN STREET,"LIMA, OH 45804",http://maps.google.com/maps?q=GENOA%20HEALTHCARE%20LLC%2C799%20SOUTH%20MAIN%20STREET%2C+LIMA%2C+OH+45804,
"GENOA HEALTHCARE, LLC",901 WASHINGTON STREET,ROOM 135,"PORTSMOUTH, OH 45662",http://maps.google.com/maps?q=GENOA%20HEALTHCARE%20LLC%2C901%20WASHINGTON%20STREET%2C+PORTSMOUTH%2C+OH+45662
GOOD SAMARITAN HOSPITAL,375 DIXMYTH AVENUE,"CINCINNATI, OH 45220",http://maps.google.com/maps?q=GOOD%20SAMARITAN%20HOSPITAL%2C375%20DIXMYTH%20AVENUE%2C+CINCINNATI%2C+OH+45220,
GREAT SCOT 90 PHARMACY,13710 DESHLER RD,"NORTH BALTIMORE, OH 45872",http://maps.google.com/maps?q=GREAT%20SCOT%20%20PHARMACY%2C13710%20DESHLER%20RD%2C+NORTH%20BALTIMORE%2C+OH+45872,
"HOOK-SUPERX, L.L.C.",201 S. TILLOTSON AVENUE,"MUNCIE, IN 47304",http://maps.google.com/maps?q=HOOKSUPERX%20LLC%2C201%20S.%20TILLOTSON%20AVENUE%2C+MUNCIE%2C+IN+47304,
"HOOK-SUPERX, L.L.C.",265 SO. SCATTERFIELD RD,"ANDERSON, IN 46012",http://maps.google.com/maps?q=HOOKSUPERX%20LLC%2C265%20SO.%20SCATTERFIELD%20RD%2C+ANDERSON%2C+IN+46012,
"HOOK-SUPERX, L.L.C.",2802 EAST STATE BOULEVARD,"FORT WAYNE, IN 46805",http://maps.google.com/maps?q=HOOKSUPERX%20LLC%2C2802%20EAST%20STATE%20BOULEVARD%2C+FORT%20WAYNE%2C+IN+46805,
"HOOK-SUPERX, L.L.C.",415 W. 3RD ST.,"MARION, IN 46952",http://maps.google.com/maps?q=HOOKSUPERX%20LLC%2C415%20W.%203RD%20ST.%2C+MARION%2C+IN+46952,
"IU HEALTH BALL MEMORIAL HOSPITAL, INC.",1420 S. PILGRIM BLVD.,"YORKTOWN, IN 47396",http://maps.google.com/maps?q=IU%20HEALTH%20BALL%20MEMORIAL%20HOSPITAL%20INC%2C1420%20S.%20PILGRIM%20BLVD.%2C+YORKTOWN%2C+IN+47396,
"IU HEALTH BALL MEMORIAL HOSPITAL, INC.",2401 W. UNIVERSITY AVE.,OMP 1635,"MUNCIE, IN 47303",http://maps.google.com/maps?q=IU%20HEALTH%20BALL%20MEMORIAL%20HOSPITAL%20INC%2C2401%20W.%20UNIVERSITY%20AVE.%2C+MUNCIE%2C+IN+47303
"IU HEALTH BALL MEMORIAL HOSPITAL, INC.",400 PILGRIM BLVD.,"HARTFORD CITY, IN 47348",http://maps.google.com/maps?q=IU%20HEALTH%20BALL%20MEMORIAL%20HOSPITAL%20INC%2C400%20PILGRIM%20BLVD.%2C+HARTFORD%20CITY%2C+IN+47348,
"IU HEALTH BALL MEMORIAL HOSPITAL, INC.",5501 W. BETHEL AVE,"MUNCIE, IN 47304",http://maps.google.com/maps?q=IU%20HEALTH%20BALL%20MEMORIAL%20HOSPITAL%20INC%2C5501%20W.%20BETHEL%20AVE%2C+MUNCIE%2C+IN+47304,
JOINT TWNSHP DIST MEM'RL HOSP,PHARMACY DEPARTMENT,200 ST CLAIR STREET,"ST MARYS, OH 45885",http://maps.google.com/maps?q=JOINT%20TWNSHP%20DIST%20MEMRL%20HOSP%2CPHARMACY%20DEPARTMENT%2C+ST%20MARYS%2C+OH+45885
LIFELINE INSTITUTIONAL PHARMACY,3699 SYMMES RD,SUITE 1,"HAMILTON, OH 45015",http://maps.google.com/maps?q=LIFELINE%20INSTITUTIONAL%20PHARMACY%2C3699%20SYMMES%20RD%2C+HAMILTON%2C+OH+45015
LIMA MEMORIAL JOINT,DBA:LIMA MEMORIAL HLTH SYS,1001 BELLEFONTAINE AVENUE,"LIMA, OH 45804",http://maps.google.com/maps?q=LIMA%20MEMORIAL%20JOINT%2CDBA%3ALIMA%20MEMORIAL%20HLTH%20SYS%2C+LIMA%2C+OH+45804
LINWORTHS PHARMACY,2245 W DUBLIN-GRANVILLE RD,SUITE 103,"WORTHINGTON, OH 43085",http://maps.google.com/maps?q=LINWORTHS%20PHARMACY%2C2245%20W%20DUBLIN-GRANVILLE%20RD%2C+WORTHINGTON%2C+OH+43085
"MARGARET MARY COMMUNITY HOSPITAL, INC",ATTN PHARMACY,321 MITCHELL AVENUE,"BATESVILLE, IN 47006",http://maps.google.com/maps?q=MARGARET%20MARY%20COMMUNITY%20HOSPITAL%20INC%2CATTN%20PHARMACY%2C+BATESVILLE%2C+IN+47006
MARY RUTAN HOSPITAL,205 E PALMER ROAD,C/O CHRISTINA MYERS,"BELLEFONTAINE, OH 43311",http://maps.google.com/maps?q=MARY%20RUTAN%20HOSPITAL%2C205%20E%20PALMER%20ROAD%2C+BELLEFONTAINE%2C+OH+43311
MERCY HEALTH - WEST HOSPITAL,3300 MERCY HEALTH BOULEVARD,"CINCINNATI, OH 45211",http://maps.google.com/maps?q=MERCY%20HEALTH%20%20WEST%20HOSPITAL%2C3300%20MERCY%20HEALTH%20BOULEVARD%2C+CINCINNATI%2C+OH+45211,
MERCY HEALTH - WEST RETAIL PHARMACY,3300 MERCY HEALTH BOULEVARD,ATTN: PHARMACY DEPARTMENT,"CINCINNATI, OH 45211",http://maps.google.com/maps?q=MERCY%20HEALTH%20%20WEST%20RETAIL%20PHARMACY%2C3300%20MERCY%20HEALTH%20BOULEVARD%2C+CINCINNATI%2C+OH+45211
MERCY HLTH SYS WESTERN OHIO,DBA MERCY MEMORIAL HOSPITAL,904 SCIOTO STREET,"URBANA, OH 43078",http://maps.google.com/maps?q=MERCY%20HLTH%20SYS%20WESTERN%20OHIO%2CDBA%20MERCY%20MEMORIAL%20HOSPITAL%2C+URBANA%2C+OH+43078
MERCY HOSPITAL,3000 MACK ROAD,ATTENTION PHARMACY LOWER LEVEL,"FAIRFIELD, OH 45014",http://maps.google.com/maps?q=MERCY%20HOSPITAL%2C3000%20MACK%20ROAD%2C+FAIRFIELD%2C+OH+45014
MERCY HOSPITAL-ANDERSON,7500 STATE ROAD,"CINCINNATI, OH 45255",http://maps.google.com/maps?q=MERCY%20HOSPITALANDERSON%2C7500%20STATE%20ROAD%2C+CINCINNATI%2C+OH+45255,
MIAMI VALLEY HOSP,DEPT OF PHARMACY,ONE WYOMING ST,"DAYTON, OH 45409",http://maps.google.com/maps?q=MIAMI%20VALLEY%20HOSP%2CDEPT%20OF%20PHARMACY%2C+DAYTON%2C+OH+45409
MIAMI VALLEY HOSPITAL NORTH,9000 NORTH MAIN ST,"DAYTON, OH 45415",http://maps.google.com/maps?q=MIAMI%20VALLEY%20HOSPITAL%20NORTH%2C9000%20NORTH%20MAIN%20ST%2C+DAYTON%2C+OH+45415,
MIAMI VALLEY HOSPITAL SOUTH,2400 MIAMI VALLEY DR,"CENTERVILLE, OH 45459",http://maps.google.com/maps?q=MIAMI%20VALLEY%20HOSPITAL%20SOUTH%2C2400%20MIAMI%20VALLEY%20DR%2C+CENTERVILLE%2C+OH+45459,
MULLANEY'S LTC PHARMACY,6096 MONTGOMERY RD SUITE B,"CINCINNATI, OH 45213",http://maps.google.com/maps?q=MULLANEYS%20LTC%20PHARMACY%2C6096%20MONTGOMERY%20RD%20SUITE%20B%2C+CINCINNATI%2C+OH+45213,
NATIONWIDE CHILDREN'S HOSPITAL,700 CHILDRENS DR,"COLUMBUS, OH 43205",http://maps.google.com/maps?q=NATIONWIDE%20CHILDRENS%20HOSPITAL%2C700%20CHILDRENS%20DR%2C+COLUMBUS%2C+OH+43205,
NCH YELLOW PHARMACY,380 BUTTERFLY GARDENS DRIVE,"COLUMBUS, OH 43215",http://maps.google.com/maps?q=NCH%20YELLOW%20PHARMACY%2C380%20BUTTERFLY%20GARDENS%20DRIVE%2C+COLUMBUS%2C+OH+43215,
NORTHSIDE HEALTH CENTER,CINCINNATI HEALTH DEPARTMENT,3917 SPRING GROVE AVE,"CINCINNATI, OH 45223",http://maps.google.com/maps?q=NORTHSIDE%20HEALTH%20CENTER%2CCINCINNATI%20HEALTH%20DEPARTMENT%2C+CINCINNATI%2C+OH+45223
NORTHSIDE SOMERSET PHARMACY,110 WEST MAIN STREET,"SOMERSET, OH 43783",http://maps.google.com/maps?q=NORTHSIDE%20SOMERSET%20PHARMACY%2C110%20WEST%20MAIN%20STREET%2C+SOMERSET%2C+OH+43783,
"OHIO CVS STORES, L.L.C.",1100 HILL RD. N,"PICKERINGTON, OH 43147",http://maps.google.com/maps?q=OHIO%20CVS%20STORES%20LLC%2C1100%20HILL%20RD.%20N%2C+PICKERINGTON%2C+OH+43147,
"OHIO CVS STORES, L.L.C.",111 SOUTH MEMORIAL DRIVE,"LANCASTER, OH 43130",http://maps.google.com/maps?q=OHIO%20CVS%20STORES%20LLC%2C111%20SOUTH%20MEMORIAL%20DRIVE%2C+LANCASTER%2C+OH+43130,
"OHIO CVS STORES, L.L.C.",1331 NORTH FAIRFIELD ROAD,"BEAVERCREEK, OH 45432",http://maps.google.com/maps?q=OHIO%20CVS%20STORES%20LLC%2C1331%20NORTH%20FAIRFIELD%20ROAD%2C+BEAVERCREEK%2C+OH+45432,
"OHIO CVS STORES, L.L.C.",17 WILLIAM H. TAFT RD.,"CINCINNATI, OH 45219",http://maps.google.com/maps?q=OHIO%20CVS%20STORES%20LLC%2C17%20WILLIAM%20H.%20TAFT%20RD.%2C+CINCINNATI%2C+OH+45219,
"OHIO CVS STORES, L.L.C.",210 EAST EMMITT AVE.,"WAVERLY, OH 45690",http://maps.google.com/maps?q=OHIO%20CVS%20STORES%20LLC%2C210%20EAST%20EMMITT%20AVE.%2C+WAVERLY%2C+OH+45690,
"OHIO CVS STORES, L.L.C.",28 N. BROOKWOOD AVE.,"HAMILTON, OH 45013",http://maps.google.com/maps?q=OHIO%20CVS%20STORES%20LLC%2C28%20N.%20BROOKWOOD%20AVE.%2C+HAMILTON%2C+OH+45013,
"OHIO CVS STORES, L.L.C.",2987 DERR RD.,"SPRINGFIELD, OH 45503",http://maps.google.com/maps?q=OHIO%20CVS%20STORES%20LLC%2C2987%20DERR%20RD.%2C+SPRINGFIELD%2C+OH+45503,
"OHIO CVS STORES, L.L.C.",3920 LINDEN AVE.,"DAYTON, OH 45432",http://maps.google.com/maps?q=OHIO%20CVS%20STORES%20LLC%2C3920%20LINDEN%20AVE.%2C+DAYTON%2C+OH+45432,
"OHIO CVS STORES, L.L.C.",4548 E. MAIN ST.,"WHITEHALL, OH 43213",http://maps.google.com/maps?q=OHIO%20CVS%20STORES%20LLC%2C4548%20E.%20MAIN%20ST.%2C+WHITEHALL%2C+OH+43213,
"OHIO CVS STORES, L.L.C.",4801 W. BROAD ST.,"COLUMBUS, OH 43228",http://maps.google.com/maps?q=OHIO%20CVS%20STORES%20LLC%2C4801%20W.%20BROAD%20ST.%2C+COLUMBUS%2C+OH+43228,
"OHIO CVS STORES, L.L.C.",620 S. CLEVELAND AVE.,"WESTERVILLE, OH 43081",http://maps.google.com/maps?q=OHIO%20CVS%20STORES%20LLC%2C620%20S.%20CLEVELAND%20AVE.%2C+WESTERVILLE%2C+OH+43081,
"OHIO CVS STORES, L.L.C.",7217 CINCINNATI-DAYTON ROAD,"WEST CHESTER, OH 45069",http://maps.google.com/maps?q=OHIO%20CVS%20STORES%20LLC%2C7217%20CINCINNATI-DAYTON%20ROAD%2C+WEST%20CHESTER%2C+OH+45069,
"OHIO CVS STORES, L.L.C.",7470 SAWMILL RD.,"DUBLIN, OH 43016",http://maps.google.com/maps?q=OHIO%20CVS%20STORES%20LLC%2C7470%20SAWMILL%20RD.%2C+DUBLIN%2C+OH+43016,
"OHIO CVS STORES, L.L.C.",820 S BREIEL BLVD,"MIDDLETOWN, OH 45044",http://maps.google.com/maps?q=OHIO%20CVS%20STORES%20LLC%2C820%20S%20BREIEL%20BLVD%2C+MIDDLETOWN%2C+OH+45044,
"PCA-CORRECTIONS, LLC DBA CHOICE PHARMACY",4014 VENTURE COURT,"COLUMBUS, OH 43228",http://maps.google.com/maps?q=PCACORRECTIONS%20LLC%20DBA%20CHOICE%20PHARMACY%2C4014%20VENTURE%20COURT%2C+COLUMBUS%2C+OH+43228,
REID HOSP & HLTH CARE SRVS,1100 REID PARKWAY,ATTN: PHARMACY,"RICHMOND, IN 47374",http://maps.google.com/maps?q=REID%20HOSP%20%20HLTH%20CARE%20SRVS%2C1100%20REID%20PARKWAY%2C+RICHMOND%2C+IN+47374
RUSH MEMORIAL HOSPITAL,1300 N. MAIN STREET,PO BOX 608,"RUSHVILLE, IN 46173",http://maps.google.com/maps?q=RUSH%20MEMORIAL%20HOSPITAL%2C1300%20N.%20MAIN%20STREET%2C+RUSHVILLE%2C+IN+46173
SAMARITAN NORTH HEALTH CENTER,9000 NORTH MAIN STREET,"DAYTON, OH 45415",http://maps.google.com/maps?q=SAMARITAN%20NORTH%20HEALTH%20CENTER%2C9000%20NORTH%20MAIN%20STREET%2C+DAYTON%2C+OH+45415,
SPRINGFIELD REGIONAL MEDICAL CENTER,100 MEDICAL CENTER DRIVE,"SPRINGFIELD, OH 45504",http://maps.google.com/maps?q=SPRINGFIELD%20REGIONAL%20MEDICAL%20CENTER%2C100%20MEDICAL%20CENTER%20DRIVE%2C+SPRINGFIELD%2C+OH+45504,
ST RITA'S MEDICAL CENTER,730 W MARKET ST,"LIMA, OH 45801",http://maps.google.com/maps?q=ST%20RITAS%20MEDICAL%20CENTER%2C730%20W%20MARKET%20ST%2C+LIMA%2C+OH+45801,
THE JEWISH HOSPITAL,4777 E GALBRAITH RD,"CINCINNATI, OH 45236",http://maps.google.com/maps?q=THE%20JEWISH%20HOSPITAL%2C4777%20E%20GALBRAITH%20RD%2C+CINCINNATI%2C+OH+45236,
THE OHIO STATE UNIVERSITY OUTPATIENT PHARMACY  - J,460 W 10TH AVE,ROOM L012,"COLUMBUS, OH 43210",http://maps.google.com/maps?q=THE%20OHIO%20STATE%20UNIVERSITY%20OUTPATIENT%20PHARMACY%20%20%20J%2C460%20W%2010TH%20AVE%2C+COLUMBUS%2C+OH+43210
TOWN DRUG,12459 E US ROUTE 22/3,"SABINA, OH 45169",http://maps.google.com/maps?q=TOWN%20DRUG%2C12459%20E%20US%20ROUTE%2022/3%2C+SABINA%2C+OH+45169,
UPPER VALLEY MEDICAL CENTER,3130 N COUNTY ROAD 25A,"TROY, OH 45373",http://maps.google.com/maps?q=UPPER%20VALLEY%20MEDICAL%20CENTER%2C3130%20N%20COUNTY%20ROAD%2025A%2C+TROY%2C+OH+45373,
USAF- WRIGHT PATTERSON AFB,88MDSS/SGSM,4881 SUGAR MAPLE DR,"WRIGHT PATTERSON, OH 45433",http://maps.google.com/maps?q=USAF%20WRIGHT%20PATTERSON%20AFB%2C88MDSS/SGSM%2C+WRIGHT%20PATTERSON%2C+OH+45433
WALGREEN CO,124 W VOTAW STREET,"PORTLAND, IN 47371",http://maps.google.com/maps?q=WALGREEN%20CO%2C124%20W%20VOTAW%20STREET%2C+PORTLAND%2C+IN+47371,
WALGREEN CO.,100 N. MEMORIAL DR,"NEW CASTLE, IN 47362",http://maps.google.com/maps?q=WALGREEN%20CO%2C100%20N.%20MEMORIAL%20DR%2C+NEW%20CASTLE%2C+IN+47362,
WALGREEN CO.,1032 HARRISON AVE,"HARRISON, OH 45030",http://maps.google.com/maps?q=WALGREEN%20CO%2C1032%20HARRISON%20AVE%2C+HARRISON%2C+OH+45030,
WALGREEN CO.,106 S COLUMBIA ST.,"UNION CITY, IN 47390",http://maps.google.com/maps?q=WALGREEN%20CO%2C106%20S%20COLUMBIA%20ST.%2C+UNION%20CITY%2C+IN+47390,
WALGREEN CO.,1090 HIGH ST,"HAMILTON, OH 45011",http://maps.google.com/maps?q=WALGREEN%20CO%2C1090%20HIGH%20ST%2C+HAMILTON%2C+OH+45011,
WALGREEN CO.,1260 E CENTRAL,"MIAMISBURG, OH 45342",http://maps.google.com/maps?q=WALGREEN%20CO%2C1260%20E%20CENTRAL%2C+MIAMISBURG%2C+OH+45342,
WALGREEN CO.,1321 DELAWARE AVE.,"MARION, OH 43302",http://maps.google.com/maps?q=WALGREEN%20CO%2C1321%20DELAWARE%20AVE.%2C+MARION%2C+OH+43302,
WALGREEN CO.,1804 N JEFFERSON,"HUNTINGTON, IN 46750",http://maps.google.com/maps?q=WALGREEN%20CO%2C1804%20N%20JEFFERSON%2C+HUNTINGTON%2C+IN+46750,
WALGREEN CO.,2150 E DUBLIN GRANVILLE ROAD,"COLUMBUS, OH 43229",http://maps.google.com/maps?q=WALGREEN%20CO%2C2150%20E%20DUBLIN%20GRANVILLE%20ROAD%2C+COLUMBUS%2C+OH+43229,
WALGREEN CO.,2320 BOUDINOT AVE.,"CINCINNATI, OH 45238",http://maps.google.com/maps?q=WALGREEN%20CO%2C2320%20BOUDINOT%20AVE.%2C+CINCINNATI%2C+OH+45238,
WALGREEN CO.,2710 SALEM AVE.,"DAYTON, OH 45406",http://maps.google.com/maps?q=WALGREEN%20CO%2C2710%20SALEM%20AVE.%2C+DAYTON%2C+OH+45406,
WALGREEN CO.,2720 W JACKSON,"MUNCIE, IN 47303",http://maps.google.com/maps?q=WALGREEN%20CO%2C2720%20W%20JACKSON%2C+MUNCIE%2C+IN+47303,
WALGREEN CO.,3 W CORRY STREET,"CINCINNATI, OH 45219",http://maps.google.com/maps?q=WALGREEN%20CO%2C3%20W%20CORRY%20STREET%2C+CINCINNATI%2C+OH+45219,
WALGREEN CO.,320 S SCATTERFIELD RD,"ANDERSON, IN 46012",http://maps.google.com/maps?q=WALGREEN%20CO%2C320%20S%20SCATTERFIELD%20RD%2C+ANDERSON%2C+IN+46012,
WALGREEN CO.,385 NORTHLAND BLVD,"CINCINNATI, OH 45240",http://maps.google.com/maps?q=WALGREEN%20CO%2C385%20NORTHLAND%20BLVD%2C+CINCINNATI%2C+OH+45240,
WALGREEN CO.,4090 E GALBRAITH RD,"DEER PARK, OH 45236",http://maps.google.com/maps?q=WALGREEN%20CO%2C4090%20E%20GALBRAITH%20RD%2C+DEER%20PARK%2C+OH+45236,
WALGREEN CO.,4605 MONTGOMERY ROAD,"NORWOOD, OH 45212",http://maps.google.com/maps?q=WALGREEN%20CO%2C4605%20MONTGOMERY%20ROAD%2C+NORWOOD%2C+OH+45212,
WALGREEN CO.,5403 N. BEND ROAD,"CINCINNATI, OH 45247",http://maps.google.com/maps?q=WALGREEN%20CO%2C5403%20N.%20BEND%20ROAD%2C+CINCINNATI%2C+OH+45247,
WALGREEN CO.,5690 W BROAD STREET,"GALLOWAY, OH 43119",http://maps.google.com/maps?q=WALGREEN%20CO%2C5690%20W%20BROAD%20STREET%2C+GALLOWAY%2C+OH+43119,
WALGREEN CO.,6201 STELLHORN ROAD,"FT WAYNE, IN 46815",http://maps.google.com/maps?q=WALGREEN%20CO%2C6201%20STELLHORN%20ROAD%2C+FT%20WAYNE%2C+IN+46815,
WALGREEN CO.,6202 WEST JEFFERSON BLVD,"FT WAYNE, IN 46804",http://maps.google.com/maps?q=WALGREEN%20CO%2C6202%20WEST%20JEFFERSON%20BLVD%2C+FT%20WAYNE%2C+IN+46804,
WALGREEN CO.,6918 HAMILTON AVE.,"CINCINNATI, OH 45231",http://maps.google.com/maps?q=WALGREEN%20CO%2C6918%20HAMILTON%20AVE.%2C+CINCINNATI%2C+OH+45231,
WALGREEN CO.,700 S BREIEL BLVD,"MIDDLETOWN, OH 45044",http://maps.google.com/maps?q=WALGREEN%20CO%2C700%20S%20BREIEL%20BLVD%2C+MIDDLETOWN%2C+OH+45044,
WALGREEN CO.,701 N CABLE ROAD,"LIMA, OH 45805",http://maps.google.com/maps?q=WALGREEN%20CO%2C701%20N%20CABLE%20ROAD%2C+LIMA%2C+OH+45805,
WALGREEN CO.,8193 MALL ROAD,"FLORENCE, KY 41042",http://maps.google.com/maps?q=WALGREEN%20CO%2C8193%20MALL%20ROAD%2C+FLORENCE%2C+KY+41042,
WALGREEN CO.,850 NORTH BRIDGE STREET,"CHILLICOTHE, OH 45601",http://maps.google.com/maps?q=WALGREEN%20CO%2C850%20NORTH%20BRIDGE%20STREET%2C+CHILLICOTHE%2C+OH+45601,
WALGREEN CO.,859 E MAIN ST,"LANCASTER, OH 43130",http://maps.google.com/maps?q=WALGREEN%20CO%2C859%20E%20MAIN%20ST%2C+LANCASTER%2C+OH+43130,
WALGREEN CO.,9775 COLERAIN AVENUE,"CINCINNATI, OH 45251",http://maps.google.com/maps?q=WALGREEN%20CO%2C9775%20COLERAIN%20AVENUE%2C+CINCINNATI%2C+OH+45251,
KING'S DAUGHTERS,613 23RD STREET SUITE 110,"ASHLAND, KY 41101",http://maps.google.com/maps?q=KINGS%20DAUGHTERS%2C613%2023RD%20STREET%20SUITE%20110%2C+ASHLAND%2C+KY+41101,
WALGREEN CO.,111 4TH AVE.,"HUNTINGTON, WV 25701",http://maps.google.com/maps?q=WALGREEN%20CO%2C111%204TH%20AVE.%2C+HUNTINGTON%2C+WV+25701,
THE PHARMACY @ HIMG,5170 U. S. ROUTE 60 EAST STE 150,"HUNTINGTON, WV 25705",http://maps.google.com/maps?q=THE%20PHARMACY%20%20HIMG%2C5170%20U.%20S.%20ROUTE%2060%20EAST%20STE%20150%2C+HUNTINGTON%2C+WV+25705,
WALGREEN CO.,6414 US RTE 60 E,"BARBOURSVILLE, WV 25504",http://maps.google.com/maps?q=WALGREEN%20CO%2C6414%20US%20RTE%2060%20E%2C+BARBOURSVILLE%2C+WV+25504,
WALGREEN CO.,3000 TEAYS VALLEY RD.,"HURRICANE, WV 25526",http://maps.google.com/maps?q=WALGREEN%20CO%2C3000%20TEAYS%20VALLEY%20RD.%2C+HURRICANE%2C+WV+25526,
WALGREEN CO.,101 GOFF MOUNTAIN RD.,"CROSS LANES, WV 25313",http://maps.google.com/maps?q=WALGREEN%20CO%2C101%20GOFF%20MOUNTAIN%20RD.%2C+CROSS%20LANES%2C+WV+25313,
KINES FAMILY PHARMACY INC.,6097 SISSONVILLE DRIVE,"CHARLESTON, WV 25312",http://maps.google.com/maps?q=KINES%20FAMILY%20PHARMACY%20INC%2C6097%20SISSONVILLE%20DRIVE%2C+CHARLESTON%2C+WV+25312,
"WEST VIRGINIA CVS PHARMACY, L.L.C.",1605 7TH STREET,"PARKERSBURG, WV 26101",http://maps.google.com/maps?q=WEST%20VIRGINIA%20CVS%20PHARMACY%20LLC%2C1605%207TH%20STREET%2C+PARKERSBURG%2C+WV+26101,
WALGREEN CO.,655 WASHINGTON ST. W,"CHARLESTON, WV 25302",http://maps.google.com/maps?q=WALGREEN%20CO%2C655%20WASHINGTON%20ST.%20W%2C+CHARLESTON%2C+WV+25302,
FRUTH PHARMACY,DBA FRUTH PHCY OAKWOOD RD,864 OAKWOOD RD,"CHARLESTON, WV 25314",http://maps.google.com/maps?q=FRUTH%20PHARMACY%2CDBA%20FRUTH%20PHCY%20OAKWOOD%20RD%2C+CHARLESTON%2C+WV+25314
"WEST VIRGINIA CVS PHARMACY, L.L.C.",1327 PLAZA EAST,"CHARLESTON, WV 25301",http://maps.google.com/maps?q=WEST%20VIRGINIA%20CVS%20PHARMACY%20LLC%2C1327%20PLAZA%20EAST%2C+CHARLESTON%2C+WV+25301,
"WEST VIRGINIA CVS PHARMACY, L.L.C.",221 CROSSINGS MALL ROAD,"ELKVIEW, WV 25071",http://maps.google.com/maps?q=WEST%20VIRGINIA%20CVS%20PHARMACY%20LLC%2C221%20CROSSINGS%20MALL%20ROAD%2C+ELKVIEW%2C+WV+25071,
TRIVILLIAN'S PHARMACY,215 35 ST,"CHARLESTON, WV 25304",http://maps.google.com/maps?q=TRIVILLIANS%20PHARMACY%2C215%2035%20ST%2C+CHARLESTON%2C+WV+25304,
ST CLAIRE MEDICAL CENTER INC - RETAIL,222 MEDICAL CIRCLE,"MOREHEAD, KY 40351",http://maps.google.com/maps?q=ST%20CLAIRE%20MEDICAL%20CENTER%20INC%20%20RETAIL%2C222%20MEDICAL%20CIRCLE%2C+MOREHEAD%2C+KY+40351,
"GENOA HEALTHCARE, LLC",65 MESSIMER DRIVE,"NEWARK, OH 43055",http://maps.google.com/maps?q=GENOA%20HEALTHCARE%20LLC%2C65%20MESSIMER%20DRIVE%2C+NEWARK%2C+OH+43055,
NORTHSIDE PHARMACY,2899 BELL STREET,"ZANESVILLE, OH 43701",http://maps.google.com/maps?q=NORTHSIDE%20PHARMACY%2C2899%20BELL%20STREET%2C+ZANESVILLE%2C+OH+43701,
NORTHSIDE CAMBRIDGE PHARMACY,1300 CLARK STREET,SUITE 4,"CAMBRIDGE, OH 43725",http://maps.google.com/maps?q=NORTHSIDE%20CAMBRIDGE%20PHARMACY%2C1300%20CLARK%20STREET%2C+CAMBRIDGE%2C+OH+43725
