Business Name,Address 1,Address 2,"City, State Zip",Map URL
ADIRONDACK APOTHECARY LLC,4315 MAIN ST,"PORT HENRY, NY 12974",http://maps.google.com/maps?q=ADIRONDACK%20APOTHECARY%20LLC%2C4315%20MAIN%20ST%2C+PORT%20HENRY%2C+NY+12974,
ADIRONDACK MEDICAL CENTER,2233 STATE ROUTE 86,C/O PHARMACY,"SARANAC LAKE, NY 12983",http://maps.google.com/maps?q=ADIRONDACK%20MEDICAL%20CENTER%2C2233%20STATE%20ROUTE%2086%2C+SARANAC%20LAKE%2C+NY+12983
APPLE VALLEY PHARMACY,8 WEST STREET,"WARWICK, NY 10990",http://maps.google.com/maps?q=APPLE%20VALLEY%20PHARMACY%2C8%20WEST%20STREET%2C+WARWICK%2C+NY+10990,
BARRE PHARMACY LLC,20 SOUTH MAIN STREET SUITE 1,"BARRE, VT 05641",http://maps.google.com/maps?q=BARRE%20PHARMACY%20LLC%2C20%20SOUTH%20MAIN%20STREET%20SUITE%201%2C+BARRE%2C+VT+05641,
BAYSTATE MEDICAL CENTER INC,759 CHESTNUT ST,"SPRINGFIELD, MA 01199",http://maps.google.com/maps?q=BAYSTATE%20MEDICAL%20CENTER%20INC%2C759%20CHESTNUT%20ST%2C+SPRINGFIELD%2C+MA+01199,
BOICEVILLE PHARMACY,P.O. BOX 474,ATTN: SUPERVISING PHARMACIST,"BOICEVILLE, NY 12412",http://maps.google.com/maps?q=BOICEVILLE%20PHARMACY%2CP.O.%20BOX%20474%2C+BOICEVILLE%2C+NY+12412
BRATTLEBORO MEMORIAL HOSP,PHARMACY DEPT.,17 BELMONT AVE.,"BRATTLEBORO, VT 05301",http://maps.google.com/maps?q=BRATTLEBORO%20MEMORIAL%20HOSP%2CPHARMACY%20DEPT.%2C+BRATTLEBORO%2C+VT+05301
"CARING HEALTH CENTER, INC.",1049 MAIN STREET,"SPRINGFIELD, MA 01103",http://maps.google.com/maps?q=CARING%20HEALTH%20CENTER%20INC%2C1049%20MAIN%20STREET%2C+SPRINGFIELD%2C+MA+01103,
CENTRAL SUFFOLK HOSPITAL,1300 ROANOKE AVE,PHARMACY DEPARTMENT,"RIVERHEAD, NY 11901",http://maps.google.com/maps?q=CENTRAL%20SUFFOLK%20HOSPITAL%2C1300%20ROANOKE%20AVE%2C+RIVERHEAD%2C+NY+11901
"CENTRAL VERMONT MEDICAL CTR INC,",130 FISHER ROAD,PO BOX 547,"BERLIN, VT 05602",http://maps.google.com/maps?q=CENTRAL%20VERMONT%20MEDICAL%20CTR%20INC%2C130%20FISHER%20ROAD%2C+BERLIN%2C+VT+05602
CHAMPLAIN VALLEY PHYSICIANS HOSPITAL,C/O PHARMACY,214 CORNELIA STREET,"PLATTSBURGH, NY 12901",http://maps.google.com/maps?q=CHAMPLAIN%20VALLEY%20PHYSICIANS%20HOSPITAL%2CC/O%20PHARMACY%2C+PLATTSBURGH%2C+NY+12901
CHARTER OAK HEALTH CENTER,PHARMACY,21 GRAND STREET,"HARTFORD, CT 06106",http://maps.google.com/maps?q=CHARTER%20OAK%20HEALTH%20CENTER%2CPHARMACY%2C+HARTFORD%2C+CT+06106
CITY CHEMIST CORP.,324 MAIN STREET,"POUGHKEEPSIE, NY 12601",http://maps.google.com/maps?q=CITY%20CHEMIST%20CORP%2C324%20MAIN%20STREET%2C+POUGHKEEPSIE%2C+NY+12601,
"CONDO PHARMACY, INC",28 MONTCALM AVE,"PLATTSBURGH, NY 12901",http://maps.google.com/maps?q=CONDO%20PHARMACY%20INC%2C28%20MONTCALM%20AVE%2C+PLATTSBURGH%2C+NY+12901,
COPLEY HOSPITAL,RR 3 BOX 760,528 WASHINGTON HIGHWAY,"MORRISVILLE, VT 05661",http://maps.google.com/maps?q=COPLEY%20HOSPITAL%2CRR%203%20BOX%20760%2C+MORRISVILLE%2C+VT+05661
CORNERSTONE DRUG & GIFT INC,72 CHAMPLAIN STREET,ATTN: SUPERVISING PHARMACIST,"ROUSES POINT, NY 12979",http://maps.google.com/maps?q=CORNERSTONE%20DRUG%20%20GIFT%20INC%2C72%20CHAMPLAIN%20STREET%2C+ROUSES%20POINT%2C+NY+12979
CRESTWOOD HEALTH INC.,26-A PICOTTE DR.,ATTN: SUPERVISING PHARMACIST,"ALBANY, NY 12208",http://maps.google.com/maps?q=CRESTWOOD%20HEALTH%20INC%2C26-A%20PICOTTE%20DR.%2C+ALBANY%2C+NY+12208
"CVS ALBANY, L.L.C.",12 WELCHER AVE.,"PEEKSKILL, NY 10566",http://maps.google.com/maps?q=CVS%20ALBANY%20LLC%2C12%20WELCHER%20AVE.%2C+PEEKSKILL%2C+NY+10566,
"CVS ALBANY, L.L.C.",1827 MAIN ST.,"PEEKSKILL, NY 10566",http://maps.google.com/maps?q=CVS%20ALBANY%20LLC%2C1827%20MAIN%20ST.%2C+PEEKSKILL%2C+NY+10566,
"CVS ALBANY, L.L.C.","2040 WESTERN AVENUE, ROUTE 155","ALBANY, NY 12203",http://maps.google.com/maps?q=CVS%20ALBANY%20LLC%2C2040%20WESTERN%20AVENUE%2C%20ROUTE%20155%2C+ALBANY%2C+NY+12203,
"CVS ALBANY, L.L.C.",2290 CENTRAL PARK AVENUE,"YONKERS, NY 10710",http://maps.google.com/maps?q=CVS%20ALBANY%20LLC%2C2290%20CENTRAL%20PARK%20AVENUE%2C+YONKERS%2C+NY+10710,
"CVS ALBANY, L.L.C.",260 DELAWARE AVENUE,"DELMAR, NY 12054",http://maps.google.com/maps?q=CVS%20ALBANY%20LLC%2C260%20DELAWARE%20AVENUE%2C+DELMAR%2C+NY+12054,
"CVS ALBANY, L.L.C.",280 SOUTH MAIN STREET,"NEW CITY, NY 10956",http://maps.google.com/maps?q=CVS%20ALBANY%20LLC%2C280%20SOUTH%20MAIN%20STREET%2C+NEW%20CITY%2C+NY+10956,
"CVS ALBANY, L.L.C.",294 KATONAH AVENUE,"KATONAH, NY 10536",http://maps.google.com/maps?q=CVS%20ALBANY%20LLC%2C294%20KATONAH%20AVENUE%2C+KATONAH%2C+NY+10536,
"CVS ALBANY, L.L.C.",325 MAMARONECK AVE.,"WHITE PLAINS, NY 10605",http://maps.google.com/maps?q=CVS%20ALBANY%20LLC%2C325%20MAMARONECK%20AVE.%2C+WHITE%20PLAINS%2C+NY+10605,
"CVS ALBANY, L.L.C.",34 CONGRESS ST.,"SARATOGA SPRINGS, NY 12866",http://maps.google.com/maps?q=CVS%20ALBANY%20LLC%2C34%20CONGRESS%20ST.%2C+SARATOGA%20SPRINGS%2C+NY+12866,
"CVS ALBANY, L.L.C.",4170 ALBANY POST RD.,"HYDE PARK, NY 12538",http://maps.google.com/maps?q=CVS%20ALBANY%20LLC%2C4170%20ALBANY%20POST%20RD.%2C+HYDE%20PARK%2C+NY+12538,
"CVS ALBANY, L.L.C.",4331 NESCONSET HWY.,"PORT JEFFERSON STN, NY 11776",http://maps.google.com/maps?q=CVS%20ALBANY%20LLC%2C4331%20NESCONSET%20HWY.%2C+PORT%20JEFFERSON%20STN%2C+NY+11776,
"CVS ALBANY, L.L.C.",598 COLUMBIA TURNPIKE,"EAST GREENBUSH, NY 12061",http://maps.google.com/maps?q=CVS%20ALBANY%20LLC%2C598%20COLUMBIA%20TURNPIKE%2C+EAST%20GREENBUSH%2C+NY+12061,
"CVS ALBANY, L.L.C.",839 RTE 146,"CLIFTON PARK, NY 12065",http://maps.google.com/maps?q=CVS%20ALBANY%20LLC%2C839%20RTE%20146%2C+CLIFTON%20PARK%2C+NY+12065,
"CVS MANCHESTER NH, L.L.C.",268 WEST ST.,"KEENE, NH 03431",http://maps.google.com/maps?q=CVS%20MANCHESTER%20NH%20LLC%2C268%20WEST%20ST.%2C+KEENE%2C+NH+03431,
"CVS PHARMACY, INC.",115 STAFFORD ST.,"WORCESTER, MA 01603",http://maps.google.com/maps?q=CVS%20PHARMACY%20INC%2C115%20STAFFORD%20ST.%2C+WORCESTER%2C+MA+01603,
"CVS PHARMACY, INC.",1280 WORCESTER RD.,"FRAMINGHAM, MA 01702",http://maps.google.com/maps?q=CVS%20PHARMACY%20INC%2C1280%20WORCESTER%20RD.%2C+FRAMINGHAM%2C+MA+01702,
"CVS PHARMACY, INC.",137 FEDERAL STREET,"GREENFIELD, MA 01301",http://maps.google.com/maps?q=CVS%20PHARMACY%20INC%2C137%20FEDERAL%20STREET%2C+GREENFIELD%2C+MA+01301,
"CVS PHARMACY, INC.",137 SOUTH MAIN STREET,"MILFORD, MA 01757",http://maps.google.com/maps?q=CVS%20PHARMACY%20INC%2C137%20SOUTH%20MAIN%20STREET%2C+MILFORD%2C+MA+01757,
"CVS PHARMACY, INC.",137 WEST CENTRAL STREET,"NATICK, MA 01760",http://maps.google.com/maps?q=CVS%20PHARMACY%20INC%2C137%20WEST%20CENTRAL%20STREET%2C+NATICK%2C+MA+01760,
"CVS PHARMACY, INC.",1616 MEMORIAL DR.,"CHICOPEE, MA 01020",http://maps.google.com/maps?q=CVS%20PHARMACY%20INC%2C1616%20MEMORIAL%20DR.%2C+CHICOPEE%2C+MA+01020,
"CVS PHARMACY, INC.",1815 MIDDLESEX STREET,"LOWELL, MA 01851",http://maps.google.com/maps?q=CVS%20PHARMACY%20INC%2C1815%20MIDDLESEX%20STREET%2C+LOWELL%2C+MA+01851,
"CVS PHARMACY, INC.",197 BOSTON TURNPIKE RTE 9,"SHREWSBURY, MA 01545",http://maps.google.com/maps?q=CVS%20PHARMACY%20INC%2C197%20BOSTON%20TURNPIKE%20RTE%209%2C+SHREWSBURY%2C+MA+01545,
"CVS PHARMACY, INC.",264 EAST MAIN STREET,"MARLBORO, MA 01752",http://maps.google.com/maps?q=CVS%20PHARMACY%20INC%2C264%20EAST%20MAIN%20STREET%2C+MARLBORO%2C+MA+01752,
"CVS PHARMACY, INC.","272 EAST CENTRAL STREET, ROUTE 140","FRANKLIN, MA 02038",http://maps.google.com/maps?q=CVS%20PHARMACY%20INC%2C272%20EAST%20CENTRAL%20STREET%2C%20ROUTE%20140%2C+FRANKLIN%2C+MA+02038,
"CVS PHARMACY, INC.",314 MAIN STREET,"GARDNER, MA 01440",http://maps.google.com/maps?q=CVS%20PHARMACY%20INC%2C314%20MAIN%20STREET%2C+GARDNER%2C+MA+01440,
"CVS PHARMACY, INC.",336 BRIDGE ST.,"LOWELL, MA 01850",http://maps.google.com/maps?q=CVS%20PHARMACY%20INC%2C336%20BRIDGE%20ST.%2C+LOWELL%2C+MA+01850,
"CVS PHARMACY, INC.",400 MASSACHUSETTS AVENUE,"ACTON, MA 01720",http://maps.google.com/maps?q=CVS%20PHARMACY%20INC%2C400%20MASSACHUSETTS%20AVENUE%2C+ACTON%2C+MA+01720,
"CVS PHARMACY, INC.",400 PARK AVE.,"WORCESTER, MA 01610",http://maps.google.com/maps?q=CVS%20PHARMACY%20INC%2C400%20PARK%20AVE.%2C+WORCESTER%2C+MA+01610,
"CVS PHARMACY, INC.",500 GRAFTON STREET,"WORCESTER, MA 01604",http://maps.google.com/maps?q=CVS%20PHARMACY%20INC%2C500%20GRAFTON%20STREET%2C+WORCESTER%2C+MA+01604,
"CVS PHARMACY, INC.",600 STATE ST,"SPRINGFIELD, MA 01109",http://maps.google.com/maps?q=CVS%20PHARMACY%20INC%2C600%20STATE%20ST%2C+SPRINGFIELD%2C+MA+01109,
"CVS PHARMACY, INC.",615-621 BELMONT AVENUE,"SPRINGFIELD, MA 01108",http://maps.google.com/maps?q=CVS%20PHARMACY%20INC%2C615-621%20BELMONT%20AVENUE%2C+SPRINGFIELD%2C+MA+01108,
"CVS PHARMACY, INC.",8 EAST WASHINGTON STREET,"NORTH ATTLEBORO, MA 02760",http://maps.google.com/maps?q=CVS%20PHARMACY%20INC%2C8%20EAST%20WASHINGTON%20STREET%2C+NORTH%20ATTLEBORO%2C+MA+02760,
"CVS PHARMACY, INC.",9 NELSON STREET,"LEOMINSTER, MA 01453",http://maps.google.com/maps?q=CVS%20PHARMACY%20INC%2C9%20NELSON%20STREET%2C+LEOMINSTER%2C+MA+01453,
D AND B PHARMACY CORP,222 OAKRIDGE CMNS,D B A PAUL'S PHARMACY,"SOUTH SALEM, NY 10590",http://maps.google.com/maps?q=D%20AND%20B%20PHARMACY%20CORP%2C222%20OAKRIDGE%20CMNS%2C+SOUTH%20SALEM%2C+NY+10590
DARTMOUTH HITCHCOCK PHARMACY AT CENTERRA,12 CENTERRA PARKWAY,"LEBANON, NH 03766",http://maps.google.com/maps?q=DARTMOUTH%20HITCHCOCK%20PHARMACY%20AT%20CENTERRA%2C12%20CENTERRA%20PARKWAY%2C+LEBANON%2C+NH+03766,
DARTMOUTH-HITCHCOCK PHARMACY,1 MEDICAL CENTER DR,"LEBANON, NH 03756",http://maps.google.com/maps?q=DARTMOUTHHITCHCOCK%20PHARMACY%2C1%20MEDICAL%20CENTER%20DR%2C+LEBANON%2C+NH+03756,
DEDRICK'S PHARMACY INC,86 N FRONT ST,"KINGSTON, NY 12401",http://maps.google.com/maps?q=DEDRICKS%20PHARMACY%20INC%2C86%20N%20FRONT%20ST%2C+KINGSTON%2C+NY+12401,
DICK HALL'S HOUSE PHARMACY,5 ROPE FERRY RD.,"HANOVER, NH 03755",http://maps.google.com/maps?q=DICK%20HALLS%20HOUSE%20PHARMACY%2C5%20ROPE%20FERRY%20RD.%2C+HANOVER%2C+NH+03755,
DUTCHESS CHEMISTS INC,6032 ROUTE 82,"STANFORDVILLE, NY 12581",http://maps.google.com/maps?q=DUTCHESS%20CHEMISTS%20INC%2C6032%20ROUTE%2082%2C+STANFORDVILLE%2C+NY+12581,
"EAST MAIN STREET CHEMISTS, INC.",707 EAST MAIN STREET,"MIDDLETOWN, NY 10940",http://maps.google.com/maps?q=EAST%20MAIN%20STREET%20CHEMISTS%20INC%2C707%20EAST%20MAIN%20STREET%2C+MIDDLETOWN%2C+NY+10940,
EASTERN LONG ISLAND HOSPITAL,201 MANOR PLACE,C/O PHARMACY,"GREENPORT, NY 11944",http://maps.google.com/maps?q=EASTERN%20LONG%20ISLAND%20HOSPITAL%2C201%20MANOR%20PLACE%2C+GREENPORT%2C+NY+11944
ECHO PHARMACY,56 ECHO AVENUE,"MILLER PLACE, NY 11764",http://maps.google.com/maps?q=ECHO%20PHARMACY%2C56%20ECHO%20AVENUE%2C+MILLER%20PLACE%2C+NY+11764,
ELIZABETHTOWN COMMUNITY HOSP,75 PARK STREET,PO BOX 277,"ELIZABETHTOWN, NY 12932",http://maps.google.com/maps?q=ELIZABETHTOWN%20COMMUNITY%20HOSP%2C75%20PARK%20STREET%2C+ELIZABETHTOWN%2C+NY+12932
ELLENVILLE REGIONAL HOSPITAL,10 HEALTHY WAY,"ELLENVILLE, NY 12428",http://maps.google.com/maps?q=ELLENVILLE%20REGIONAL%20HOSPITAL%2C10%20HEALTHY%20WAY%2C+ELLENVILLE%2C+NY+12428,
EMERSON HOSPITAL,ATTN: PHARMACY DEPARTMENT,133 ORNAC,"CONCORD, MA 01742",http://maps.google.com/maps?q=EMERSON%20HOSPITAL%2CATTN%3A%20PHARMACY%20DEPARTMENT%2C+CONCORD%2C+MA+01742
FAIRVIEW HILL REALTY CORP,4747 NESCONSET HWY,"PORT JEFFERSON STATION, NY 11776",http://maps.google.com/maps?q=FAIRVIEW%20HILL%20REALTY%20CORP%2C4747%20NESCONSET%20HWY%2C+PORT%20JEFFERSON%20STATION%2C+NY+11776,
FIRST COLONY CORP,PO BOX 10,82 NEWPORT RD,"NEW LONDON, NH 03257",http://maps.google.com/maps?q=FIRST%20COLONY%20CORP%2CPO%20BOX%2010%2C+NEW%20LONDON%2C+NH+03257
FISHKILL PHARMACY LLC,1004 MAIN ST.,BUILDING 554,"FISHKILL, NY 12524",http://maps.google.com/maps?q=FISHKILL%20PHARMACY%20LLC%2C1004%20MAIN%20ST.%2C+FISHKILL%2C+NY+12524
FORTEEN STAR ENTERPRISES INC,346 CENTRAL AVE,"ALBANY, NY 12206",http://maps.google.com/maps?q=FORTEEN%20STAR%20ENTERPRISES%20INC%2C346%20CENTRAL%20AVE%2C+ALBANY%2C+NY+12206,
FOUR CORNERS PHARMACY LLC,360 DELAWARE AVENUE,"DELMAR, NY 12054",http://maps.google.com/maps?q=FOUR%20CORNERS%20PHARMACY%20LLC%2C360%20DELAWARE%20AVENUE%2C+DELMAR%2C+NY+12054,
FREDERICK H LANGE INC,2205 NOTT ST,"SCHENECTADY, NY 12309",http://maps.google.com/maps?q=FREDERICK%20H%20LANGE%20INC%2C2205%20NOTT%20ST%2C+SCHENECTADY%2C+NY+12309,
"G.S.P. LONGTERM CARE, INC",1567 CENTRAL PARK AVENUE,"YONKERS, NY 10710",http://maps.google.com/maps?q=GSP%20LONGTERM%20CARE%20INC%2C1567%20CENTRAL%20PARK%20AVENUE%2C+YONKERS%2C+NY+10710,
GAUTHIER'S PHARMACY INC,415 RAILROAD ST,"ST JOHNSBURY, VT 05819",http://maps.google.com/maps?q=GAUTHIERS%20PHARMACY%20INC%2C415%20RAILROAD%20ST%2C+ST%20JOHNSBURY%2C+VT+05819,
GEM DRUG CORPORATION,300 MORTON AVE,"ALBANY, NY 12209",http://maps.google.com/maps?q=GEM%20DRUG%20CORPORATION%2C300%20MORTON%20AVE%2C+ALBANY%2C+NY+12209,
GIFFORD MEMORIAL HOSPITAL INC,44 SOUTH MAIN ST,"RANDOLPH, VT 05060",http://maps.google.com/maps?q=GIFFORD%20MEMORIAL%20HOSPITAL%20INC%2C44%20SOUTH%20MAIN%20ST%2C+RANDOLPH%2C+VT+05060,
GRASSY SPRAIN PHARMACY INC,640 TUCKAHOE ROAD,"YONKERS, NY 10710",http://maps.google.com/maps?q=GRASSY%20SPRAIN%20PHARMACY%20INC%2C640%20TUCKAHOE%20ROAD%2C+YONKERS%2C+NY+10710,
GREATER FALLS PHARMACY,78 ATKINSON ST,"BELLOWS FALLS, VT 05101",http://maps.google.com/maps?q=GREATER%20FALLS%20PHARMACY%2C78%20ATKINSON%20ST%2C+BELLOWS%20FALLS%2C+VT+05101,
HEALTHALLIANCE HOSPITAL,C/O PHARMACY,105 MARY'S AVE,"KINGSTON, NY 12401",http://maps.google.com/maps?q=HEALTHALLIANCE%20HOSPITAL%2CC/O%20PHARMACY%2C+KINGSTON%2C+NY+12401
HEALTHSMART,203 MAIN ST,"OSSINING, NY 10562",http://maps.google.com/maps?q=HEALTHSMART%2C203%20MAIN%20ST%2C+OSSINING%2C+NY+10562,
HIGH MOUNTAIN CORPORATION,DBA RUTLAND PHARMACY,75 ALLEN STREET,"RUTLAND, VT 05701",http://maps.google.com/maps?q=HIGH%20MOUNTAIN%20CORPORATION%2CDBA%20RUTLAND%20PHARMACY%2C+RUTLAND%2C+VT+05701
HOLYOKE HEALTH CENTER INC,505 FRONT ST,"CHICOPEE, MA 01013",http://maps.google.com/maps?q=HOLYOKE%20HEALTH%20CENTER%20INC%2C505%20FRONT%20ST%2C+CHICOPEE%2C+MA+01013,
"HOLYOKE HEALTH CENTER, INC.",230 MAPLE ST,PHARMACY DEPARTMENT,"HOLYOKE, MA 01040",http://maps.google.com/maps?q=HOLYOKE%20HEALTH%20CENTER%20INC%2C230%20MAPLE%20ST%2C+HOLYOKE%2C+MA+01040
HOTEL PHARMACY,20 ELLIOT ST,"BRATTLEBORO, VT 05301",http://maps.google.com/maps?q=HOTEL%20PHARMACY%2C20%20ELLIOT%20ST%2C+BRATTLEBORO%2C+VT+05301,
KEESEVILLE PHARMACY INC,1730 FRONT STREET,"KEESEVILLE, NY 12944",http://maps.google.com/maps?q=KEESEVILLE%20PHARMACY%20INC%2C1730%20FRONT%20STREET%2C+KEESEVILLE%2C+NY+12944,
KELLY'S PHARMACY INC.,34 HOPE PLAZA,"WEST COXSACKIE, NY 12192",http://maps.google.com/maps?q=KELLYS%20PHARMACY%20INC%2C34%20HOPE%20PLAZA%2C+WEST%20COXSACKIE%2C+NY+12192,
KELLY'S PHARMACY INC.,4852 RT 81,PO BOX 422,"GREENVILLE, NY 12083",http://maps.google.com/maps?q=KELLYS%20PHARMACY%20INC%2C4852%20RT%2081%2C+GREENVILLE%2C+NY+12083
KING KULLEN PHARMACIES CORP,1235 MIDDLE COUNTRY RD,"MIDDLE ISLAND, NY 11953",http://maps.google.com/maps?q=KING%20KULLEN%20PHARMACIES%20CORP%2C1235%20MIDDLE%20COUNTRY%20RD%2C+MIDDLE%20ISLAND%2C+NY+11953,
KING KULLEN PHARMACIES CORP,315-25 MAIN ROAD,P.O. BOX 993,"CUTCHOGUE, NY 11935",http://maps.google.com/maps?q=KING%20KULLEN%20PHARMACIES%20CORP%2C315-25%20MAIN%20ROAD%2C+CUTCHOGUE%2C+NY+11935
KING KULLEN PHARMACIES CORP,50 N. NEW YORK AVE,"HUNTINGTON, NY 11743",http://maps.google.com/maps?q=KING%20KULLEN%20PHARMACIES%20CORP%2C50%20N.%20NEW%20YORK%20AVE%2C+HUNTINGTON%2C+NY+11743,
KING KULLEN PHARMACIES CORP,5507-200 NESCONSET HWY RTE 347,"MOUNT SINAI, NY 11766",http://maps.google.com/maps?q=KING%20KULLEN%20PHARMACIES%20CORP%2C5507-200%20NESCONSET%20HWY%20RTE%20347%2C+MOUNT%20SINAI%2C+NY+11766,
KINGSTON HOSPITAL,ATTN: PHARMACY DEPARTMENT,396 BROADWAY,"KINGSTON, NY 12401",http://maps.google.com/maps?q=KINGSTON%20HOSPITAL%2CATTN%3A%20PHARMACY%20DEPARTMENT%2C+KINGSTON%2C+NY+12401
"KPH HEALTHCARE SERVICES, INC.","5091 MAIN STREET, #7",P.O. BOX 52,"WAITSFIELD, VT 05673",http://maps.google.com/maps?q=KPH%20HEALTHCARE%20SERVICES%20INC%2C5091%20MAIN%20STREET%2C%20#7%2C+WAITSFIELD%2C+VT+05673
"KPH HEALTHCARE SERVICES, INC.",80 S MAIN STREET,"WATERBURY, VT 05676",http://maps.google.com/maps?q=KPH%20HEALTHCARE%20SERVICES%20INC%2C80%20S%20MAIN%20STREET%2C+WATERBURY%2C+VT+05676,
L & W CHEMISTS INC,25 SOUTHDOWN RD,"HUNTINGTON, NY 11743",http://maps.google.com/maps?q=L%20%20W%20CHEMISTS%20INC%2C25%20SOUTHDOWN%20RD%2C+HUNTINGTON%2C+NY+11743,
LAGRANGE PHARMACY INC.,1520 ROUTE 55 UNIT #16,"LAGRANGEVILLE, NY 12540",http://maps.google.com/maps?q=LAGRANGE%20PHARMACY%20INC%2C1520%20ROUTE%2055%20UNIT%20#16%2C+LAGRANGEVILLE%2C+NY+12540,
LAKES REGION GENERAL HOSPITAL,80 HIGHLAND STREET,"LACONIA, NH 03246",http://maps.google.com/maps?q=LAKES%20REGION%20GENERAL%20HOSPITAL%2C80%20HIGHLAND%20STREET%2C+LACONIA%2C+NH+03246,
LAKESIDE PHARMACY INC,242 PEARL ST,"BURLINGTON, VT 05401",http://maps.google.com/maps?q=LAKESIDE%20PHARMACY%20INC%2C242%20PEARL%20ST%2C+BURLINGTON%2C+VT+05401,
LUDLOW PHARMACY INC.,57 POND ST,"LUDLOW, VT 05149",http://maps.google.com/maps?q=LUDLOW%20PHARMACY%20INC%2C57%20POND%20ST%2C+LUDLOW%2C+VT+05149,
MARBLE WORKS PHARMACY,187 MAIN STREET,"VERGENNES, VT 05491",http://maps.google.com/maps?q=MARBLE%20WORKS%20PHARMACY%2C187%20MAIN%20STREET%2C+VERGENNES%2C+VT+05491,
MARBLE WORKS PHARMACY,61 PINE STREET,SUITE 401,"BRISTOL, VT 05443",http://maps.google.com/maps?q=MARBLE%20WORKS%20PHARMACY%2C61%20PINE%20STREET%2C+BRISTOL%2C+VT+05443
MARBLE WORKS PHARMACY,99 MAPLE ST,STE 19,"MIDDLEBURY, VT 05753",http://maps.google.com/maps?q=MARBLE%20WORKS%20PHARMACY%2C99%20MAPLE%20ST%2C+MIDDLEBURY%2C+VT+05753
MARC'S VILLAGE PHARMACY INC,31 EAST MAIN STREET,"ELMSFORD, NY 10523",http://maps.google.com/maps?q=MARCS%20VILLAGE%20PHARMACY%20INC%2C31%20EAST%20MAIN%20STREET%2C+ELMSFORD%2C+NY+10523,
MARRA'S PHARMACY,217 REMSEN STREET,PO BOX 229,"COHOES, NY 12047",http://maps.google.com/maps?q=MARRAS%20PHARMACY%2C217%20REMSEN%20STREET%2C+COHOES%2C+NY+12047
"MARTIN'S FOODS OF SOUTH BURLINGTON, LLC",1400 ALTAMONT AVE,"SCHENECTADY, NY 12303",http://maps.google.com/maps?q=MARTINS%20FOODS%20OF%20SOUTH%20BURLINGTON%20LLC%2C1400%20ALTAMONT%20AVE%2C+SCHENECTADY%2C+NY+12303,
"MARTIN'S FOODS OF SOUTH BURLINGTON, LLC",2967 ROUTE 9,"VALATIE, NY 12184",http://maps.google.com/maps?q=MARTINS%20FOODS%20OF%20SOUTH%20BURLINGTON%20LLC%2C2967%20ROUTE%209%2C+VALATIE%2C+NY+12184,
MILLBROOK PHARMMACY LLC.,3272 FRANKLIN AVE.,"MILLBROOK, NY 12545",http://maps.google.com/maps?q=MILLBROOK%20PHARMMACY%20LLC%2C3272%20FRANKLIN%20AVE.%2C+MILLBROOK%2C+NY+12545,
NASSAU PHARMACY INC,3541 US ROUTE 20,"NASSAU, NY 12123",http://maps.google.com/maps?q=NASSAU%20PHARMACY%20INC%2C3541%20US%20ROUTE%2020%2C+NASSAU%2C+NY+12123,
NEW PALTZ PHARMACY INC,DEDRICK'S PHARMACY OF NEW PALT,190 MAIN ST,"NEW PALTZ, NY 12561",http://maps.google.com/maps?q=NEW%20PALTZ%20PHARMACY%20INC%2CDEDRICK'S%20PHARMACY%20OF%20NEW%20PALT%2C+NEW%20PALTZ%2C+NY+12561
"NIKLAS-MOORE, INC.","5700 ROUTE 100, UNIT C-10","LONDONDERRY, VT 05148",http://maps.google.com/maps?q=NIKLASMOORE%20INC%2C5700%20ROUTE%20100%2C%20UNIT%20C-10%2C+LONDONDERRY%2C+VT+05148,
NORTH COUNTRY HOSPITAL AND,189 PROUTY DRIVE,"NEWPORT, VT 05855",http://maps.google.com/maps?q=NORTH%20COUNTRY%20HOSPITAL%20AND%2C189%20PROUTY%20DRIVE%2C+NEWPORT%2C+VT+05855,
NORTHEASTERN VT REG HOSP INC,HOSPITAL DRIVE,"ST JOHNSBURY, VT 05819",http://maps.google.com/maps?q=NORTHEASTERN%20VT%20REG%20HOSP%20INC%2CHOSPITAL%20DRIVE%2C+ST%20JOHNSBURY%2C+VT+05819,
NORTHERN WESTCHESTER HOSPITAL,400 E MAIN ST,"MOUNT KISCO, NY 10549",http://maps.google.com/maps?q=NORTHERN%20WESTCHESTER%20HOSPITAL%2C400%20E%20MAIN%20ST%2C+MOUNT%20KISCO%2C+NY+10549,
"NORTHWESTERN MEDICAL CTR, INC",133 FAIRFIELD STREET,"ST ALBANS, VT 05478",http://maps.google.com/maps?q=NORTHWESTERN%20MEDICAL%20CTR%20INC%2C133%20FAIRFIELD%20STREET%2C+ST%20ALBANS%2C+VT+05478,
PHELPS MEMORIAL HOSPITAL ASSOCIATION,701 NORTH BROADWAY,"SLEEPY HOLLOW, NY 10591",http://maps.google.com/maps?q=PHELPS%20MEMORIAL%20HOSPITAL%20ASSOCIATION%2C701%20NORTH%20BROADWAY%2C+SLEEPY%20HOLLOW%2C+NY+10591,
PORTER HOSPITAL,C/O DIRECTOR OF PHARMACY,115 PORTER DRIVE,"MIDDLEBURY, VT 05753",http://maps.google.com/maps?q=PORTER%20HOSPITAL%2CC/O%20DIRECTOR%20OF%20PHARMACY%2C+MIDDLEBURY%2C+VT+05753
"PROGRESSION, LLC",79 TINKER STREET,"WOODSTOCK, NY 12498",http://maps.google.com/maps?q=PROGRESSION%20LLC%2C79%20TINKER%20STREET%2C+WOODSTOCK%2C+NY+12498,
QRX INC,224 POST RD,UNIT 7,"WESTERLY, RI 02891",http://maps.google.com/maps?q=QRX%20INC%2C224%20POST%20RD%2C+WESTERLY%2C+RI+02891
RESOLUTION RX INC.,11 EAST MAIN STREET,"PAWLING, NY 12564",http://maps.google.com/maps?q=RESOLUTION%20RX%20INC%2C11%20EAST%20MAIN%20STREET%2C+PAWLING%2C+NY+12564,
"RHODE ISLAND CVS PHARMACY, L.L.C.",11 MAIN ST.,"WAKEFIELD, RI 02879",http://maps.google.com/maps?q=RHODE%20ISLAND%20CVS%20PHARMACY%20LLC%2C11%20MAIN%20ST.%2C+WAKEFIELD%2C+RI+02879,
"RHODE ISLAND CVS PHARMACY, L.L.C.",120 EDDIE DOWLING HWY.,"NORTH SMITHFIELD, RI 02896",http://maps.google.com/maps?q=RHODE%20ISLAND%20CVS%20PHARMACY%20LLC%2C120%20EDDIE%20DOWLING%20HWY.%2C+NORTH%20SMITHFIELD%2C+RI+02896,
"RHODE ISLAND CVS PHARMACY, L.L.C.",1400 HARTFORD AVENUE,"JOHNSTON, RI 02919",http://maps.google.com/maps?q=RHODE%20ISLAND%20CVS%20PHARMACY%20LLC%2C1400%20HARTFORD%20AVENUE%2C+JOHNSTON%2C+RI+02919,
"RHODE ISLAND CVS PHARMACY, L.L.C.",150 GRANITE STREET,"WESTERLY, RI 02891",http://maps.google.com/maps?q=RHODE%20ISLAND%20CVS%20PHARMACY%20LLC%2C150%20GRANITE%20STREET%2C+WESTERLY%2C+RI+02891,
"RHODE ISLAND CVS PHARMACY, L.L.C.",1919 MINERAL SPRING AVENUE,"NORTH PROVIDENCE, RI 02904",http://maps.google.com/maps?q=RHODE%20ISLAND%20CVS%20PHARMACY%20LLC%2C1919%20MINERAL%20SPRING%20AVENUE%2C+NORTH%20PROVIDENCE%2C+RI+02904,
"RHODE ISLAND CVS PHARMACY, L.L.C.",2400 WARWICK AVE,MEADOWBROOK PLAZA,"WARWICK, RI 02889",http://maps.google.com/maps?q=RHODE%20ISLAND%20CVS%20PHARMACY%20LLC%2C2400%20WARWICK%20AVE%2C+WARWICK%2C+RI+02889
"RHODE ISLAND CVS PHARMACY, L.L.C.",287 BROADWAY,"NEWPORT, RI 02840",http://maps.google.com/maps?q=RHODE%20ISLAND%20CVS%20PHARMACY%20LLC%2C287%20BROADWAY%2C+NEWPORT%2C+RI+02840,
"RHODE ISLAND CVS PHARMACY, L.L.C.",3986 OLD POST RD.,"CHARLESTOWN, RI 02813",http://maps.google.com/maps?q=RHODE%20ISLAND%20CVS%20PHARMACY%20LLC%2C3986%20OLD%20POST%20RD.%2C+CHARLESTOWN%2C+RI+02813,
"RHODE ISLAND CVS PHARMACY, L.L.C.",640 WARREN AVENUE,"EAST PROVIDENCE, RI 02914",http://maps.google.com/maps?q=RHODE%20ISLAND%20CVS%20PHARMACY%20LLC%2C640%20WARREN%20AVENUE%2C+EAST%20PROVIDENCE%2C+RI+02914,
"RHODE ISLAND CVS PHARMACY, L.L.C.",681 RESERVOIR AVENUE,"CRANSTON, RI 02910",http://maps.google.com/maps?q=RHODE%20ISLAND%20CVS%20PHARMACY%20LLC%2C681%20RESERVOIR%20AVENUE%2C+CRANSTON%2C+RI+02910,
"RHODE ISLAND CVS PHARMACY, L.L.C.",763 TIOGUE AVENUE,"COVENTRY, RI 02816",http://maps.google.com/maps?q=RHODE%20ISLAND%20CVS%20PHARMACY%20LLC%2C763%20TIOGUE%20AVENUE%2C+COVENTRY%2C+RI+02816,
"RHODE ISLAND CVS PHARMACY, L.L.C.",767 WARWICK AVENUE,"WARWICK, RI 02888",http://maps.google.com/maps?q=RHODE%20ISLAND%20CVS%20PHARMACY%20LLC%2C767%20WARWICK%20AVENUE%2C+WARWICK%2C+RI+02888,
"RHODE ISLAND CVS PHARMACY, L.L.C.",835 NEWPORT AVE.,"PAWTUCKET, RI 02861",http://maps.google.com/maps?q=RHODE%20ISLAND%20CVS%20PHARMACY%20LLC%2C835%20NEWPORT%20AVE.%2C+PAWTUCKET%2C+RI+02861,
"RHODE ISLAND CVS PHARMACY, L.L.C.",935 MANTON AVENUE,"PROVIDENCE, RI 02909",http://maps.google.com/maps?q=RHODE%20ISLAND%20CVS%20PHARMACY%20LLC%2C935%20MANTON%20AVENUE%2C+PROVIDENCE%2C+RI+02909,
"RHODE ISLAND CVS PHARMACY, L.L.C.",99 EAST MAIN ROAD,"MIDDLETOWN, RI 02842",http://maps.google.com/maps?q=RHODE%20ISLAND%20CVS%20PHARMACY%20LLC%2C99%20EAST%20MAIN%20ROAD%2C+MIDDLETOWN%2C+RI+02842,
RICHFORD HEALTH CENTER INC,44 MAIN STREET,SUITE 201,"RICHFORD, VT 05476",http://maps.google.com/maps?q=RICHFORD%20HEALTH%20CENTER%20INC%2C44%20MAIN%20STREET%2C+RICHFORD%2C+VT+05476
RUTLAND REGIONAL MEDICAL CTR,160 ALLEN ST ATTN PHARM DEPT,"RUTLAND, VT 05701",http://maps.google.com/maps?q=RUTLAND%20REGIONAL%20MEDICAL%20CTR%2C160%20ALLEN%20ST%20ATTN%20PHARM%20DEPT%2C+RUTLAND%2C+VT+05701,
SARATOGA HOSPITAL THE,211 CHURCH STREET,"SARATOGA SPRINGS, NY 12866",http://maps.google.com/maps?q=SARATOGA%20HOSPITAL%20THE%2C211%20CHURCH%20STREET%2C+SARATOGA%20SPRINGS%2C+NY+12866,
SAUGERTIES PHARMACY LLC,250 MAIN ST,"SAUGERTIES, NY 12477",http://maps.google.com/maps?q=SAUGERTIES%20PHARMACY%20LLC%2C250%20MAIN%20ST%2C+SAUGERTIES%2C+NY+12477,
SOUTH HERO PHARMACY LLC,330-334 ROUTE 2,"SOUTH HERO, VT 05486",http://maps.google.com/maps?q=SOUTH%20HERO%20PHARMACY%20LLC%2C330-334%20ROUTE%202%2C+SOUTH%20HERO%2C+VT+05486,
SOUTHRIFTY DRUG INC,54 JAGGER LANE,"SOUTHAMPTON, NY 11968",http://maps.google.com/maps?q=SOUTHRIFTY%20DRUG%20INC%2C54%20JAGGER%20LANE%2C+SOUTHAMPTON%2C+NY+11968,
SOUTHWESTERN VERMONT MEDICAL CENTER,100 HOSPITAL DRIVE,"BENNINGTON, VT 05201",http://maps.google.com/maps?q=SOUTHWESTERN%20VERMONT%20MEDICAL%20CENTER%2C100%20HOSPITAL%20DRIVE%2C+BENNINGTON%2C+VT+05201,
SPRINGFIELD PHARMACY INC,262 RIVER STREET,"SPRINGFIELD, VT 05156",http://maps.google.com/maps?q=SPRINGFIELD%20PHARMACY%20INC%2C262%20RIVER%20STREET%2C+SPRINGFIELD%2C+VT+05156,
STONE'S PHARMACY INC,BRIDGE & MAIN STREETS,"LAKE LUZERNE, NY 12846",http://maps.google.com/maps?q=STONES%20PHARMACY%20INC%2CBRIDGE%20&%20MAIN%20STREETS%2C+LAKE%20LUZERNE%2C+NY+12846,
SYMART DRUG CO INC,162 CROTON AVE,"OSSINING, NY 10562",http://maps.google.com/maps?q=SYMART%20DRUG%20CO%20INC%2C162%20CROTON%20AVE%2C+OSSINING%2C+NY+10562,
T C FLYNN PHARMACY,173 ELM ST,"PITTSFIELD, MA 01201",http://maps.google.com/maps?q=T%20C%20FLYNN%20PHARMACY%2C173%20ELM%20ST%2C+PITTSFIELD%2C+MA+01201,
"TACONIC PHARMACY, INC",3659 LEE ROAD,"JEFFERSON VALLEY, NY 10535",http://maps.google.com/maps?q=TACONIC%20PHARMACY%20INC%2C3659%20LEE%20ROAD%2C+JEFFERSON%20VALLEY%2C+NY+10535,
"THE PHARMACY - NORTHSHIRE, LLC",34 WAYS LANE,"MANCHESTER CENTER, VT 05255",http://maps.google.com/maps?q=THE%20PHARMACY%20%20NORTHSHIRE%20LLC%2C34%20WAYS%20LANE%2C+MANCHESTER%20CENTER%2C+VT+05255,
TOWN CENTER PHARMACY,575 MAIN STREET,"ARMONK, NY 10504",http://maps.google.com/maps?q=TOWN%20CENTER%20PHARMACY%2C575%20MAIN%20STREET%2C+ARMONK%2C+NY+10504,
TOWNE CENTRE PHARMACY,2540 ROUTE 55,P.O. BOX 335,"POUGHQUAG, NY 12570",http://maps.google.com/maps?q=TOWNE%20CENTRE%20PHARMACY%2C2540%20ROUTE%2055%2C+POUGHQUAG%2C+NY+12570
TROTTA'S WEST STREET PHAR INC,15 HALSTEAD AVE,"HARRISON, NY 10528",http://maps.google.com/maps?q=TROTTAS%20WEST%20STREET%20PHAR%20INC%2C15%20HALSTEAD%20AVE%2C+HARRISON%2C+NY+10528,
UMASS MEMORIAL MED CENTER INC,ATTN ROLAND BERCUME,55 LAKE AVE NORTH,"WORCESTER, MA 01655",http://maps.google.com/maps?q=UMASS%20MEMORIAL%20MED%20CENTER%20INC%2CATTN%20ROLAND%20BERCUME%2C+WORCESTER%2C+MA+01655
UNIVERSITY OF VERMONT MEDICAL CENTER,1 SOUTH PROSPECT STREET,"BURLINGTON, VT 05401",http://maps.google.com/maps?q=UNIVERSITY%20OF%20VERMONT%20MEDICAL%20CENTER%2C1%20SOUTH%20PROSPECT%20STREET%2C+BURLINGTON%2C+VT+05401,
UNIVERSITY OF VERMONT MEDICAL CENTER,111 COLCHESTER AVENUE,"BURLINGTON, VT 05401",http://maps.google.com/maps?q=UNIVERSITY%20OF%20VERMONT%20MEDICAL%20CENTER%2C111%20COLCHESTER%20AVENUE%2C+BURLINGTON%2C+VT+05401,
UNIVERSITY OF VERMONT MEDICAL CENTER,792 COLLEGE PARKWAY SUITE 103,"COLCHESTER, VT 05446",http://maps.google.com/maps?q=UNIVERSITY%20OF%20VERMONT%20MEDICAL%20CENTER%2C792%20COLLEGE%20PARKWAY%20SUITE%20103%2C+COLCHESTER%2C+VT+05446,
US ARMY MALOGNE CADET HEALTH CLINIC,CADET HEALTH CLINIC,2 THAYER ROAD BLDG. 606,"WEST POINT, NY 10996",http://maps.google.com/maps?q=US%20ARMY%20MALOGNE%20CADET%20HEALTH%20CLINIC%2CCADET%20HEALTH%20CLINIC%2C+WEST%20POINT%2C+NY+10996
US ARMY- KELLER COMMUNITY HOSPITAL,900 WASHINGTON RD,"WEST POINT, NY 10996",http://maps.google.com/maps?q=US%20ARMY%20KELLER%20COMMUNITY%20HOSPITAL%2C900%20WASHINGTON%20RD%2C+WEST%20POINT%2C+NY+10996,
USAF-66TH MEDICAL SQUADRON/SGSM,90 VANDENBERG DRIVE BLDG 1900,"HANSCOM AFB, MA 01731",http://maps.google.com/maps?q=USAFTH%20MEDICAL%20SQUADRONSGSM%2C90%20VANDENBERG%20DRIVE%20BLDG%201900%2C+HANSCOM%20AFB%2C+MA+01731,
USN NAVAL SUBMARINE BASE MEDICAL,1 WAHOO AVE,SUBASE NLON BUILDING 449,"GROTON, CT 06349",http://maps.google.com/maps?q=USN%20NAVAL%20SUBMARINE%20BASE%20MEDICAL%2C1%20WAHOO%20AVE%2C+GROTON%2C+CT+06349
USN- NAVAL BRANCH HEALTH CLINIC SARATOGA SPRINGS,1 WEST AVE STE 230,"SARATOGA SPRINGS, NY 12866",http://maps.google.com/maps?q=USN%20NAVAL%20BRANCH%20HEALTH%20CLINIC%20SARATOGA%20SPRINGS%2C1%20WEST%20AVE%20STE%20230%2C+SARATOGA%20SPRINGS%2C+NY+12866,
USN- NAVAL HEALTH CLINIC NEW ENGLAND,BLDG 23,43 SMITH ROAD,"NEWPORT, RI 02841",http://maps.google.com/maps?q=USN%20NAVAL%20HEALTH%20CLINIC%20NEW%20ENGLAND%2CBLDG%2023%2C+NEWPORT%2C+RI+02841
"VERMONT CVS PHARMACY, L.L.C.",31-33 MAIN STREET,"RUTLAND, VT 05701",http://maps.google.com/maps?q=VERMONT%20CVS%20PHARMACY%20LLC%2C31-33%20MAIN%20STREET%2C+RUTLAND%2C+VT+05701,
"VERMONT CVS PHARMACY, L.L.C.",7 ESSEX WAY,"ESSEX, VT 05452",http://maps.google.com/maps?q=VERMONT%20CVS%20PHARMACY%20LLC%2C7%20ESSEX%20WAY%2C+ESSEX%2C+VT+05452,
"VERMONT CVS PHARMACY, L.L.C.",8 KOCHER DR.,"BENNINGTON, VT 05201",http://maps.google.com/maps?q=VERMONT%20CVS%20PHARMACY%20LLC%2C8%20KOCHER%20DR.%2C+BENNINGTON%2C+VT+05201,
VERMONT FAMILY PHARMACY INC,1219 NORTH AVENUE,"BURLINGTON, VT 05408",http://maps.google.com/maps?q=VERMONT%20FAMILY%20PHARMACY%20INC%2C1219%20NORTH%20AVENUE%2C+BURLINGTON%2C+VT+05408,
WALGREEN EASTERN CO INC,1230 NEPPERHAN AVE,"YONKERS, NY 10703",http://maps.google.com/maps?q=WALGREEN%20EASTERN%20CO%20INC%2C1230%20NEPPERHAN%20AVE%2C+YONKERS%2C+NY+10703,
"WALGREEN EASTERN CO., INC.",100 BROAD ST,"PAWTUCKET, RI 02860",http://maps.google.com/maps?q=WALGREEN%20EASTERN%20CO%20INC%2C100%20BROAD%20ST%2C+PAWTUCKET%2C+RI+02860,
"WALGREEN EASTERN CO., INC.",1140 N. MAIN ST.,"PROVIDENCE, RI 02904",http://maps.google.com/maps?q=WALGREEN%20EASTERN%20CO%20INC%2C1140%20N.%20MAIN%20ST.%2C+PROVIDENCE%2C+RI+02904,
"WALGREEN EASTERN CO., INC.",225R KING ST,"NORTHAMPTON, MA 01060",http://maps.google.com/maps?q=WALGREEN%20EASTERN%20CO%20INC%2C225R%20KING%20ST%2C+NORTHAMPTON%2C+MA+01060,
"WALGREEN EASTERN CO., INC.",295 ACADEMY AVENUE,"PROVIDENCE, RI 02908",http://maps.google.com/maps?q=WALGREEN%20EASTERN%20CO%20INC%2C295%20ACADEMY%20AVENUE%2C+PROVIDENCE%2C+RI+02908,
"WALGREEN EASTERN CO., INC.",3 AIRPORT RD,"WEST LEBANON, NH 03784",http://maps.google.com/maps?q=WALGREEN%20EASTERN%20CO%20INC%2C3%20AIRPORT%20RD%2C+WEST%20LEBANON%2C+NH+03784,
"WALGREEN EASTERN CO., INC.",31 CAVALRY DR.,"NEW CITY, NY 10956",http://maps.google.com/maps?q=WALGREEN%20EASTERN%20CO%20INC%2C31%20CAVALRY%20DR.%2C+NEW%20CITY%2C+NY+10956,
"WALGREEN EASTERN CO., INC.",320 PARK AVE,"WORCESTER, MA 01610",http://maps.google.com/maps?q=WALGREEN%20EASTERN%20CO%20INC%2C320%20PARK%20AVE%2C+WORCESTER%2C+MA+01610,
"WALGREEN EASTERN CO., INC.",440 WEST ST,"KEENE, NH 03431",http://maps.google.com/maps?q=WALGREEN%20EASTERN%20CO%20INC%2C440%20WEST%20ST%2C+KEENE%2C+NH+03431,
"WALGREEN EASTERN CO., INC.",45 CUMBERLAND ST,"WOONSOCKET, RI 02895",http://maps.google.com/maps?q=WALGREEN%20EASTERN%20CO%20INC%2C45%20CUMBERLAND%20ST%2C+WOONSOCKET%2C+RI+02895,
"WALGREEN EASTERN CO., INC.",4999 STATE HIGHWAY 30,"AMSTERDAM, NY 12010",http://maps.google.com/maps?q=WALGREEN%20EASTERN%20CO%20INC%2C4999%20STATE%20HIGHWAY%2030%2C+AMSTERDAM%2C+NY+12010,
"WALGREEN EASTERN CO., INC.",5 PIERCE ST,"GREENFIELD, MA 01301",http://maps.google.com/maps?q=WALGREEN%20EASTERN%20CO%20INC%2C5%20PIERCE%20ST%2C+GREENFIELD%2C+MA+01301,
"WALGREEN EASTERN CO., INC.",501 SUMNER AVENUE,"SPRINGFIELD, MA 01108",http://maps.google.com/maps?q=WALGREEN%20EASTERN%20CO%20INC%2C501%20SUMNER%20AVENUE%2C+SPRINGFIELD%2C+MA+01108,
"WALGREEN EASTERN CO., INC.",514 FARRELL ST.,"BURLINGTON, VT 05401",http://maps.google.com/maps?q=WALGREEN%20EASTERN%20CO%20INC%2C514%20FARRELL%20ST.%2C+BURLINGTON%2C+VT+05401,
"WALGREEN EASTERN CO., INC.",533 ELMWOOD AVE.,"PROVIDENCE, RI 02907",http://maps.google.com/maps?q=WALGREEN%20EASTERN%20CO%20INC%2C533%20ELMWOOD%20AVE.%2C+PROVIDENCE%2C+RI+02907,
"WALGREEN EASTERN CO., INC.",54 PLAIN ST,"LOWELL, MA 01851",http://maps.google.com/maps?q=WALGREEN%20EASTERN%20CO%20INC%2C54%20PLAIN%20ST%2C+LOWELL%2C+MA+01851,
"WALGREEN EASTERN CO., INC.",653 WORCESTER RD,"FRAMINGHAM, MA 01701",http://maps.google.com/maps?q=WALGREEN%20EASTERN%20CO%20INC%2C653%20WORCESTER%20RD%2C+FRAMINGHAM%2C+MA+01701,
"WESTBOROUGH BEHAVIORAL HEALTHCARE HOSPITAL, LLC",300 FRIBERG PARKWAY,"WESTBOROUGH, MA 01581",http://maps.google.com/maps?q=WESTBOROUGH%20BEHAVIORAL%20HEALTHCARE%20HOSPITAL%20LLC%2C300%20FRIBERG%20PARKWAY%2C+WESTBOROUGH%2C+MA+01581,
WILCOX PHARMACY,252 STRATTON ROAD,"RUTLAND, VT 05701",http://maps.google.com/maps?q=WILCOX%20PHARMACY%2C252%20STRATTON%20ROAD%2C+RUTLAND%2C+VT+05701,
"YOUNG'S PHARMACY & GENERAL STORE, LLC",1636 BURDEN LAKE ROAD,"AVERILL PARK, NY 12018",http://maps.google.com/maps?q=YOUNGS%20PHARMACY%20%20GENERAL%20STORE%20LLC%2C1636%20BURDEN%20LAKE%20ROAD%2C+AVERILL%20PARK%2C+NY+12018,
