Business Name,Address 1,Address 2,"City, State Zip",Map URL
"ALABAMA CVS PHARMACY, L.L.C.",14695 HWY 43,"RUSSELLVILLE, AL 35653",http://maps.google.com/maps?q=ALABAMA%20CVS%20PHARMACY%20LLC%2C14695%20HWY%2043%2C+RUSSELLVILLE%2C+AL+35653,
BEEMON DRUGS INC,1220 EAST NORTHSIDE DRIVE,POST OFFICE BOX 14166,"JACKSON, MS 39236",http://maps.google.com/maps?q=BEEMON%20DRUGS%20INC%2C1220%20EAST%20NORTHSIDE%20DRIVE%2C+JACKSON%2C+MS+39236
CHICOT MEMORIAL MEDICAL CENTER,2729 S HIGHWAY 65 82,ATTN: PHARMACY,"LAKE VILLAGE, AR 71653",http://maps.google.com/maps?q=CHICOT%20MEMORIAL%20MEDICAL%20CENTER%2C2729%20S%20HIGHWAY%2065%2082%2C+LAKE%20VILLAGE%2C+AR+71653
CJ SANDLIN LLC,797 MILITARY STREET SOUTH,"HAMILTON, AL 35570",http://maps.google.com/maps?q=CJ%20SANDLIN%20LLC%2C797%20MILITARY%20STREET%20SOUTH%2C+HAMILTON%2C+AL+35570,
"CRESTWYN HEALTH GROUP,LLC",9485 CRESTWYN HILLS CV,D B A CRESTWYN BEHAVIORAL HEALTH,"MEMPHIS, TN 38125",http://maps.google.com/maps?q=CRESTWYN%20HEALTH%20GROUPLLC%2C9485%20CRESTWYN%20HILLS%20CV%2C+MEMPHIS%2C+TN+38125
DEBBIE'S DRUGS,1716 TEMPLE AVE N,"FAYETTE, AL 35555",http://maps.google.com/maps?q=DEBBIES%20DRUGS%2C1716%20TEMPLE%20AVE%20N%2C+FAYETTE%2C+AL+35555,
"DUR HURST CLINICAL SERVICES, LLC",110 KITTRELL ST,"HOHENWALD, TN 38462",http://maps.google.com/maps?q=DUR%20HURST%20CLINICAL%20SERVICES%20LLC%2C110%20KITTRELL%20ST%2C+HOHENWALD%2C+TN+38462,
DUREN CLINICAL SERVICES LLC,215 DEXTER L.  WOODS MEMORIAL BLVD.,PO BOX 736,"WAYNESBORO, TN 38485",http://maps.google.com/maps?q=DUREN%20CLINICAL%20SERVICES%20LLC%2C215%20DEXTER%20L.%20%20WOODS%20MEMORIAL%20BLVD.%2C+WAYNESBORO%2C+TN+38485
LEXINGTON DRUGS LLC,11601 HWY. 101,"LEXINGTON, AL 35648",http://maps.google.com/maps?q=LEXINGTON%20DRUGS%20LLC%2C11601%20HWY.%20101%2C+LEXINGTON%2C+AL+35648,
"MISSISSIPPI CVS PHARMACY, L.L.C.",1209 SUNSET DR.,"GRENADA, MS 38901",http://maps.google.com/maps?q=MISSISSIPPI%20CVS%20PHARMACY%20LLC%2C1209%20SUNSET%20DR.%2C+GRENADA%2C+MS+38901,
"MISSISSIPPI CVS PHARMACY, L.L.C.","135 HIGHWAY15, NORTH","PONTOTOC, MS 38863",http://maps.google.com/maps?q=MISSISSIPPI%20CVS%20PHARMACY%20LLC%2C135%20HIGHWAY15%2C%20NORTH%2C+PONTOTOC%2C+MS+38863,
"MISSISSIPPI CVS PHARMACY, L.L.C.",401 HWY 12 EAST,"STARKVILLE, MS 39759",http://maps.google.com/maps?q=MISSISSIPPI%20CVS%20PHARMACY%20LLC%2C401%20HWY%2012%20EAST%2C+STARKVILLE%2C+MS+39759,
"MISSISSIPPI CVS PHARMACY, L.L.C.",5025 HWY 305,"OLIVE BRANCH, MS 38654",http://maps.google.com/maps?q=MISSISSIPPI%20CVS%20PHARMACY%20LLC%2C5025%20HWY%20305%2C+OLIVE%20BRANCH%2C+MS+38654,
"MISSISSIPPI CVS PHARMACY, L.L.C.",575 CRAFT ST,"HOLLY SPRINGS, MS 38635",http://maps.google.com/maps?q=MISSISSIPPI%20CVS%20PHARMACY%20LLC%2C575%20CRAFT%20ST%2C+HOLLY%20SPRINGS%2C+MS+38635,
MS STATE VETERANS HOME,120 VETERANS BLVD,"OXFORD, MS 38655",http://maps.google.com/maps?q=MS%20STATE%20VETERANS%20HOME%2C120%20VETERANS%20BLVD%2C+OXFORD%2C+MS+38655,
NORTHWOOD/MASSEY DRUGS,1702 N WOOD AVE,"FLORENCE, AL 35630",http://maps.google.com/maps?q=NORTHWOODMASSEY%20DRUGS%2C1702%20N%20WOOD%20AVE%2C+FLORENCE%2C+AL+35630,
"TENNESSEE CVS PHARMACY, L.L.C.",1405 N. HIGHLAND AVENUE,"JACKSON, TN 38301",http://maps.google.com/maps?q=TENNESSEE%20CVS%20PHARMACY%20LLC%2C1405%20N.%20HIGHLAND%20AVENUE%2C+JACKSON%2C+TN+38301,
"TENNESSEE CVS PHARMACY, L.L.C.",2115 UNION AVE.,"MEMPHIS, TN 38104",http://maps.google.com/maps?q=TENNESSEE%20CVS%20PHARMACY%20LLC%2C2115%20UNION%20AVE.%2C+MEMPHIS%2C+TN+38104,
"TENNESSEE CVS PHARMACY, L.L.C.",4155 ELVIS PRESLEY BLVD,"MEMPHIS, TN 38116",http://maps.google.com/maps?q=TENNESSEE%20CVS%20PHARMACY%20LLC%2C4155%20ELVIS%20PRESLEY%20BLVD%2C+MEMPHIS%2C+TN+38116,
"TENNESSEE CVS PHARMACY, L.L.C.",6620 WINCHESTER RD.,"MEMPHIS, TN 38115",http://maps.google.com/maps?q=TENNESSEE%20CVS%20PHARMACY%20LLC%2C6620%20WINCHESTER%20RD.%2C+MEMPHIS%2C+TN+38115,
"TENNESSEE CVS PHARMACY, L.L.C.",6670 STAGE ROAD,"BARTLETT, TN 38134",http://maps.google.com/maps?q=TENNESSEE%20CVS%20PHARMACY%20LLC%2C6670%20STAGE%20ROAD%2C+BARTLETT%2C+TN+38134,
"TENNESSEE CVS PHARMACY, L.L.C.",786 GERMANTOWN PKWY.,"CORDOVA, TN 38018",http://maps.google.com/maps?q=TENNESSEE%20CVS%20PHARMACY%20LLC%2C786%20GERMANTOWN%20PKWY.%2C+CORDOVA%2C+TN+38018,
USAF-14TH MEDICAL SQUADRON,201 INDEPENDENCE DR,STE 109 BLDG 1100,"COLUMBUS AFB, MS 39710",http://maps.google.com/maps?q=USAFTH%20MEDICAL%20SQUADRON%2C201%20INDEPENDENCE%20DR%2C+COLUMBUS%20AFB%2C+MS+39710
VILLAGE DRUG SHOP,1001 AVALON AVE,"MUSCLE SHOALS, AL 35661",http://maps.google.com/maps?q=VILLAGE%20DRUG%20SHOP%2C1001%20AVALON%20AVE%2C+MUSCLE%20SHOALS%2C+AL+35661,
WALGREEN CO.,1332 N HIGHLAND AVE.,"JACKSON, TN 38301",http://maps.google.com/maps?q=WALGREEN%20CO%2C1332%20N%20HIGHLAND%20AVE.%2C+JACKSON%2C+TN+38301,
WALGREEN CO.,1497 CANTON MART RD,"JACKSON, MS 39211",http://maps.google.com/maps?q=WALGREEN%20CO%2C1497%20CANTON%20MART%20RD%2C+JACKSON%2C+MS+39211,
WALGREEN CO.,1728 HIGHWAY 45 NORTH,"COLUMBUS, MS 39705",http://maps.google.com/maps?q=WALGREEN%20CO%2C1728%20HIGHWAY%2045%20NORTH%2C+COLUMBUS%2C+MS+39705,
WALGREEN CO.,1808 UNIVERSITY AVE,"OXFORD, MS 38655",http://maps.google.com/maps?q=WALGREEN%20CO%2C1808%20UNIVERSITY%20AVE%2C+OXFORD%2C+MS+38655,
WALGREEN CO.,1863 UNION AVE,"MEMPHIS, TN 38104",http://maps.google.com/maps?q=WALGREEN%20CO%2C1863%20UNION%20AVE%2C+MEMPHIS%2C+TN+38104,
WALGREEN CO.,204 HIGHWAY 80 EAST,"CLINTON, MS 39056",http://maps.google.com/maps?q=WALGREEN%20CO%2C204%20HIGHWAY%2080%20EAST%2C+CLINTON%2C+MS+39056,
WALGREEN CO.,3670 RIVERDALE ROAD,"MEMPHIS, TN 38115",http://maps.google.com/maps?q=WALGREEN%20CO%2C3670%20RIVERDALE%20ROAD%2C+MEMPHIS%2C+TN+38115,
WALGREEN CO.,4154 ELVIS PRESLEY BLVD,"MEMPHIS, TN 38116",http://maps.google.com/maps?q=WALGREEN%20CO%2C4154%20ELVIS%20PRESLEY%20BLVD%2C+MEMPHIS%2C+TN+38116,
WALGREEN CO.,5080 STAGE RD,"MEMPHIS, TN 38128",http://maps.google.com/maps?q=WALGREEN%20CO%2C5080%20STAGE%20RD%2C+MEMPHIS%2C+TN+38128,
WALGREEN CO.,6310 POPLAR AVENUE,"MEMPHIS, TN 38119",http://maps.google.com/maps?q=WALGREEN%20CO%2C6310%20POPLAR%20AVENUE%2C+MEMPHIS%2C+TN+38119,
WALGREEN CO.,6697 STAGE ROAD,"BARTLETT, TN 38134",http://maps.google.com/maps?q=WALGREEN%20CO%2C6697%20STAGE%20ROAD%2C+BARTLETT%2C+TN+38134,
WALGREEN CO.,6958 GOODMAN RD,"OLIVE BRANCH, MS 38654",http://maps.google.com/maps?q=WALGREEN%20CO%2C6958%20GOODMAN%20RD%2C+OLIVE%20BRANCH%2C+MS+38654,
WALGREEN CO.,817 W MAIN STREET,"TUPELO, MS 38801",http://maps.google.com/maps?q=WALGREEN%20CO%2C817%20W%20MAIN%20STREET%2C+TUPELO%2C+MS+38801,
WALGREEN CO,5780 TERRY RD,"BYRAM, MS 39272",http://maps.google.com/maps?q=WALGREEN%20CO%2C5780%20TERRY%20RD%2C+BYRAM%2C+MS+39272,
"MISSISSIPPI CVS PHARMACY, L.L.C.",112 STRIBLING LN,"BRANDON, MS 39042",http://maps.google.com/maps?q=MISSISSIPPI%20CVS%20PHARMACY%20LLC%2C112%20STRIBLING%20LN%2C+BRANDON%2C+MS+39042,
WALGREEN CO.,1790 W GOVERNMENT STREET,"BRANDON, MS 39042",http://maps.google.com/maps?q=WALGREEN%20CO%2C1790%20W%20GOVERNMENT%20STREET%2C+BRANDON%2C+MS+39042,
RHODES AND ROBBY DRUGS,114 BROOKS ST,"PELAHATCHIE, MS 39145",http://maps.google.com/maps?q=RHODES%20AND%20ROBBY%20DRUGS%2C114%20BROOKS%20ST%2C+PELAHATCHIE%2C+MS+39145,
CALEB'S HOMETOWN PHARMACY,801 MAIN STREET,"COLLINS, MS 39428",http://maps.google.com/maps?q=CALEBS%20HOMETOWN%20PHARMACY%2C801%20MAIN%20STREET%2C+COLLINS%2C+MS+39428,
"MISSISSIPPI CVS PHARMACY, L.L.C.",501 NORTH 16TH AVE.,"LAUREL, MS 39440",http://maps.google.com/maps?q=MISSISSIPPI%20CVS%20PHARMACY%20LLC%2C501%20NORTH%2016TH%20AVE.%2C+LAUREL%2C+MS+39440,
WALGREEN CO.,6130 HWY 49,"HATTIESBURG, MS 39401",http://maps.google.com/maps?q=WALGREEN%20CO%2C6130%20HWY%2049%2C+HATTIESBURG%2C+MS+39401,
POMANK VENTURES,500 KATIE AVE,"HATTIESBURG, MS 39401",http://maps.google.com/maps?q=POMANK%20VENTURES%2C500%20KATIE%20AVE%2C+HATTIESBURG%2C+MS+39401,
"MISSISSIPPI CVS PHARMACY, L.L.C.",2401 NORTH HILLS STREET,"MERIDIAN, MS 39305",http://maps.google.com/maps?q=MISSISSIPPI%20CVS%20PHARMACY%20LLC%2C2401%20NORTH%20HILLS%20STREET%2C+MERIDIAN%2C+MS+39305,
