Business Name,Address 1,Address 2,"City, State Zip",Map URL
ADVANCED SPECIALTY RX LLC,4800 S. SAGINAW ST.,SUITE 1675,"FLINT, MI 48507",http://maps.google.com/maps?q=ADVANCED%20SPECIALTY%20RX%20LLC%2C4800%20S.%20SAGINAW%20ST.%2C+FLINT%2C+MI+48507
ALCONA HEALTH CENTER PHARMACY,177 N BARLOW,"LINCOLN, MI 48742",http://maps.google.com/maps?q=ALCONA%20HEALTH%20CENTER%20PHARMACY%2C177%20N%20BARLOW%2C+LINCOLN%2C+MI+48742,
ALCONA HEALTH CENTER PHARMACY SERVICES,1185 US HIGHWAY 23 N,"ALPENA, MI 49707",http://maps.google.com/maps?q=ALCONA%20HEALTH%20CENTER%20PHARMACY%20SERVICES%2C1185%20US%20HIGHWAY%2023%20N%2C+ALPENA%2C+MI+49707,
ALPHARM CORPORATION,DBA NORTHLAND MEDICAL BLDG.,20905 GREENFIELD ROAD,"SOUTHFIELD, MI 48075",http://maps.google.com/maps?q=ALPHARM%20CORPORATION%2CDBA%20NORTHLAND%20MEDICAL%20BLDG.%2C+SOUTHFIELD%2C+MI+48075
ASCENSION MICHIGAN PHARMACY,17900 23 MILE RD,STE 104,"MACOMB, MI 48044",http://maps.google.com/maps?q=ASCENSION%20MICHIGAN%20PHARMACY%2C17900%2023%20MILE%20RD%2C+MACOMB%2C+MI+48044
ASCENSION MICHIGAN PHARMACY,22151 MOROSS RD,STE G25,"DETROIT, MI 48236",http://maps.google.com/maps?q=ASCENSION%20MICHIGAN%20PHARMACY%2C22151%20MOROSS%20RD%2C+DETROIT%2C+MI+48236
ASCENSION MICHIGAN PHARMACY,26850 PROVIDENCE PKWY,STE 100,"NOVI, MI 48374",http://maps.google.com/maps?q=ASCENSION%20MICHIGAN%20PHARMACY%2C26850%20PROVIDENCE%20PKWY%2C+NOVI%2C+MI+48374
ASCENSION MICHIGAN PHARMACY,812 E JOLLY RD,STE 208,"LANSING, MI 48910",http://maps.google.com/maps?q=ASCENSION%20MICHIGAN%20PHARMACY%2C812%20E%20JOLLY%20RD%2C+LANSING%2C+MI+48910
BENZER PHARMACY,13355 DIX TOLEDO RD,"SOUTHGATE, MI 48195",http://maps.google.com/maps?q=BENZER%20PHARMACY%2C13355%20DIX%20TOLEDO%20RD%2C+SOUTHGATE%2C+MI+48195,
BENZER PHARMACY,28577 SCHOENHERR RD,"WARREN, MI 48088",http://maps.google.com/maps?q=BENZER%20PHARMACY%2C28577%20SCHOENHERR%20RD%2C+WARREN%2C+MI+48088,
BENZER PHARMACY,G3333 BEECHER RD,SUITE B,"FLINT, MI 48532",http://maps.google.com/maps?q=BENZER%20PHARMACY%2CG3333%20BEECHER%20RD%2C+FLINT%2C+MI+48532
BLUE PHARMACY,6240 MICHIGAN AVE,"DETROIT, MI 48210",http://maps.google.com/maps?q=BLUE%20PHARMACY%2C6240%20MICHIGAN%20AVE%2C+DETROIT%2C+MI+48210,
BOB'S DRUGS LLC,194 N DIVISION STREET,"HESPERIA, MI 49421",http://maps.google.com/maps?q=BOBS%20DRUGS%20LLC%2C194%20N%20DIVISION%20STREET%2C+HESPERIA%2C+MI+49421,
BROAD STREET PHARMACY,1115 W BROAD STREET,"CHESANING, MI 48616",http://maps.google.com/maps?q=BROAD%20STREET%20PHARMACY%2C1115%20W%20BROAD%20STREET%2C+CHESANING%2C+MI+48616,
BRONSON BATTLE CREEK OUTPATIENT PHARMACY,363 FREMONT ST,STE 111,"BATTLE CREEK, MI 49017",http://maps.google.com/maps?q=BRONSON%20BATTLE%20CREEK%20OUTPATIENT%20PHARMACY%2C363%20FREMONT%20ST%2C+BATTLE%20CREEK%2C+MI+49017
"CADILLAC FAMILY PHARMACY, LLC",108 NORTH MITCHELL,"CADILLAC, MI 49601",http://maps.google.com/maps?q=CADILLAC%20FAMILY%20PHARMACY%20LLC%2C108%20NORTH%20MITCHELL%2C+CADILLAC%2C+MI+49601,
"CARECENTER PHARMACY, L.L.C.","800 CHRYSLER DR., STE W2001","AUBURN HILLS, MI 48326",http://maps.google.com/maps?q=CARECENTER%20PHARMACY%20LLC%2C800%20CHRYSLER%20DR.%2C%20STE%20W2001%2C+AUBURN%20HILLS%2C+MI+48326,
CENTER FOR FAMILY HEALTH,505 NORTH JACKSON STREET,"JACKSON, MI 49201",http://maps.google.com/maps?q=CENTER%20FOR%20FAMILY%20HEALTH%2C505%20NORTH%20JACKSON%20STREET%2C+JACKSON%2C+MI+49201,
"CENTRAL PHARMACY-EAST, LLC",3097 N. GENESEE RD,"FLINT, MI 48506",http://maps.google.com/maps?q=CENTRAL%20PHARMACYEAST%20LLC%2C3097%20N.%20GENESEE%20RD%2C+FLINT%2C+MI+48506,
CLARK PROFESSIONAL PHARMACY,3280 WASHTENAW AVE.,STE B,"ANN ARBOR, MI 48104",http://maps.google.com/maps?q=CLARK%20PROFESSIONAL%20PHARMACY%2C3280%20WASHTENAW%20AVE.%2C+ANN%20ARBOR%2C+MI+48104
COBB STREET PHARMACY,520 COBB STREET,"CADILLAC, MI 49601",http://maps.google.com/maps?q=COBB%20STREET%20PHARMACY%2C520%20COBB%20STREET%2C+CADILLAC%2C+MI+49601,
COLEMAN FAMILY PHARMACY,211 E RAILWAY,"COLEMAN, MI 48618",http://maps.google.com/maps?q=COLEMAN%20FAMILY%20PHARMACY%2C211%20E%20RAILWAY%2C+COLEMAN%2C+MI+48618,
COMMUNITY CARE PHARMACY,2700 BAKER STREET,"MUSKEGON HEIGHTS, MI 49444",http://maps.google.com/maps?q=COMMUNITY%20CARE%20PHARMACY%2C2700%20BAKER%20STREET%2C+MUSKEGON%20HEIGHTS%2C+MI+49444,
COMMUNITY HEALTH CENTER,274 EAST CHICAGO STREET,"COLDWATER, MI 49036",http://maps.google.com/maps?q=COMMUNITY%20HEALTH%20CENTER%2C274%20EAST%20CHICAGO%20STREET%2C+COLDWATER%2C+MI+49036,
CURO PHARMACY,4665 44TH ST SE STE A1106,"GRAND RAPIDS, MI 49512",http://maps.google.com/maps?q=CURO%20PHARMACY%2C4665%2044TH%20ST%20SE%20STE%20A1106%2C+GRAND%20RAPIDS%2C+MI+49512,
DEARBORN HEIGHTS PHARMACY,25524 FORD ROAD,"DEARBORN HEIGHTS, MI 48127",http://maps.google.com/maps?q=DEARBORN%20HEIGHTS%20PHARMACY%2C25524%20FORD%20ROAD%2C+DEARBORN%20HEIGHTS%2C+MI+48127,
DIAL DRUGS,8226 N MERRIMAN RD,"WESTLAND, MI 48185",http://maps.google.com/maps?q=DIAL%20DRUGS%2C8226%20N%20MERRIMAN%20RD%2C+WESTLAND%2C+MI+48185,
DISCOUNT RX,4400 S. SAGINAW ST,SUITE 1335,"FLINT, MI 48507",http://maps.google.com/maps?q=DISCOUNT%20RX%2C4400%20S.%20SAGINAW%20ST%2C+FLINT%2C+MI+48507
EMMA L BIXBY MED CTR INC,818 RIVERSIDE AVE,"ADRIAN, MI 49221",http://maps.google.com/maps?q=EMMA%20L%20BIXBY%20MED%20CTR%20INC%2C818%20RIVERSIDE%20AVE%2C+ADRIAN%2C+MI+49221,
EVART PHARMACY PLLC,107 N. MAIN ST,"EVART, MI 49631",http://maps.google.com/maps?q=EVART%20PHARMACY%20PLLC%2C107%20N.%20MAIN%20ST%2C+EVART%2C+MI+49631,
FAIRWAY DRUGS INC,19332 E TEN MILE,"EASTPOINTE, MI 48021",http://maps.google.com/maps?q=FAIRWAY%20DRUGS%20INC%2C19332%20E%20TEN%20MILE%2C+EASTPOINTE%2C+MI+48021,
FAMILY HEALTH CARE PHARMACY,1035 E WILCOX,"WHITE CLOUD, MI 49349",http://maps.google.com/maps?q=FAMILY%20HEALTH%20CARE%20PHARMACY%2C1035%20E%20WILCOX%2C+WHITE%20CLOUD%2C+MI+49349,
FAMILY HEALTH CARE PHARMACY,11 NORTH MAPLE STREET,"GRANT, MI 49327",http://maps.google.com/maps?q=FAMILY%20HEALTH%20CARE%20PHARMACY%2C11%20NORTH%20MAPLE%20STREET%2C+GRANT%2C+MI+49327,
FAMILY HEALTH CARE PHARMACY,1615 MICHIGAN AVE,"BALDWIN, MI 49304",http://maps.google.com/maps?q=FAMILY%20HEALTH%20CARE%20PHARMACY%2C1615%20MICHIGAN%20AVE%2C+BALDWIN%2C+MI+49304,
"FAMILY HEALTH CENTER, INC",117 W PATERSON,"KALAMAZOO, MI 49007",http://maps.google.com/maps?q=FAMILY%20HEALTH%20CENTER%20INC%2C117%20W%20PATERSON%2C+KALAMAZOO%2C+MI+49007,
FARMINGTON DRUGS AND MEDICAL SUPPLIES,20434 FARMINGTON RD,"LIVONIA, MI 48152",http://maps.google.com/maps?q=FARMINGTON%20DRUGS%20AND%20MEDICAL%20SUPPLIES%2C20434%20FARMINGTON%20RD%2C+LIVONIA%2C+MI+48152,
FOWLERVILLE PHARMACY,119 E GRAND RIVER AVE,P.O. BOX 337,"FOWLERVILLE, MI 48836",http://maps.google.com/maps?q=FOWLERVILLE%20PHARMACY%2C119%20E%20GRAND%20RIVER%20AVE%2C+FOWLERVILLE%2C+MI+48836
FRANCISCAN HEALTH MICHIGAN CITY,301 W HOMER,"MICHIGAN CITY, IN 46360",http://maps.google.com/maps?q=FRANCISCAN%20HEALTH%20MICHIGAN%20CITY%2C301%20W%20HOMER%2C+MICHIGAN%20CITY%2C+IN+46360,
GULL POINTE PHARMACY,5585 GULL ROAD,SUITE #120,"KALAMAZOO, MI 49048",http://maps.google.com/maps?q=GULL%20POINTE%20PHARMACY%2C5585%20GULL%20ROAD%2C+KALAMAZOO%2C+MI+49048
H F MEDICAL CENTER PHARMACY,14500 HALL ROAD,"STERLING HEIGHTS, MI 48313",http://maps.google.com/maps?q=H%20F%20MEDICAL%20CENTER%20PHARMACY%2C14500%20HALL%20ROAD%2C+STERLING%20HEIGHTS%2C+MI+48313,
HACKLEY HEALTHCARE EQUIPMENT,6401 PRAIRIE,SUITE #1100,"MUSKEGON, MI 49444",http://maps.google.com/maps?q=HACKLEY%20HEALTHCARE%20EQUIPMENT%2C6401%20PRAIRIE%2C+MUSKEGON%2C+MI+49444
HACKLEY PHARMACY GLENSIDE,1631 W. SHERMAN,"MUSKEGON, MI 49441",http://maps.google.com/maps?q=HACKLEY%20PHARMACY%20GLENSIDE%2C1631%20W.%20SHERMAN%2C+MUSKEGON%2C+MI+49441,
HACKLEY PROFESSIONAL PHCY,1675 LEAHY ST,"MUSKEGON, MI 49442",http://maps.google.com/maps?q=HACKLEY%20PROFESSIONAL%20PHCY%2C1675%20LEAHY%20ST%2C+MUSKEGON%2C+MI+49442,
HARBOR BEACH COMM HOSP INC,210 S 1ST ST,"HARBOR BEACH, MI 48441",http://maps.google.com/maps?q=HARBOR%20BEACH%20COMM%20HOSP%20INC%2C210%20S%201ST%20ST%2C+HARBOR%20BEACH%2C+MI+48441,
HARBOR DRUG INC,DBA: HARBOR DRUG,114 S. HURON AVENUE,"HARBOR BEACH, MI 48441",http://maps.google.com/maps?q=HARBOR%20DRUG%20INC%2CDBA%3A%20HARBOR%20DRUG%2C+HARBOR%20BEACH%2C+MI+48441
HEMMINGSEN DRUG STORE,132 W. MICHIGAN AVE.,"MARSHALL, MI 49068",http://maps.google.com/maps?q=HEMMINGSEN%20DRUG%20STORE%2C132%20W.%20MICHIGAN%20AVE.%2C+MARSHALL%2C+MI+49068,
HENRY FORD HEALTH CENTER - BROWNSTOWN PHARMACY,23050 WEST RD,"BROWNSTOWN TWP, MI 48183",http://maps.google.com/maps?q=HENRY%20FORD%20HEALTH%20CENTER%20%20BROWNSTOWN%20PHARMACY%2C23050%20WEST%20RD%2C+BROWNSTOWN%20TWP%2C+MI+48183,
HENRY FORD HOSP W,6777 WEST MAPLE RD,"WEST BLOOMFIELD, MI 48322",http://maps.google.com/maps?q=HENRY%20FORD%20HOSP%20W%2C6777%20WEST%20MAPLE%20RD%2C+WEST%20BLOOMFIELD%2C+MI+48322,
HENRY FORD MACOMB,16151 19 MILE ROAD,"CLINTON TOWNSHIP, MI 48038",http://maps.google.com/maps?q=HENRY%20FORD%20MACOMB%2C16151%2019%20MILE%20ROAD%2C+CLINTON%20TOWNSHIP%2C+MI+48038,
HENRY FORD MACOMB AMBULATORY PHARMACY #2,30795 23 MILE ROAD,"CHESTERFIELD TOWNSHIP, MI 48047",http://maps.google.com/maps?q=HENRY%20FORD%20MACOMB%20AMBULATORY%20PHARMACY%2C30795%2023%20MILE%20ROAD%2C+CHESTERFIELD%20TOWNSHIP%2C+MI+48047,
HENRY FORD MEDICAL CENTER,131 KERCHEVAL AVE STE 110,"GROSSE POINTE FARMS, MI 48236",http://maps.google.com/maps?q=HENRY%20FORD%20MEDICAL%20CENTER%2C131%20KERCHEVAL%20AVE%20STE%20110%2C+GROSSE%20POINTE%20FARMS%2C+MI+48236,
HENRY FORD MEDICAL CENTER,2799 W GRAND BLVD,"DETROIT, MI 48202",http://maps.google.com/maps?q=HENRY%20FORD%20MEDICAL%20CENTER%2C2799%20W%20GRAND%20BLVD%2C+DETROIT%2C+MI+48202,
HENRY FORD MEDICAL CENTER,2799 W GRAND BLVD,K-15 PHARMACY,"DETROIT, MI 48202",http://maps.google.com/maps?q=HENRY%20FORD%20MEDICAL%20CENTER%2C2799%20W%20GRAND%20BLVD%2C+DETROIT%2C+MI+48202
HENRY FORD MEDICAL CENTER PHARMACY,1 FORD PL,"DETROIT, MI 48202",http://maps.google.com/maps?q=HENRY%20FORD%20MEDICAL%20CENTER%20PHARMACY%2C1%20FORD%20PL%2C+DETROIT%2C+MI+48202,
HENRY FORD MEDICAL CENTER PHARMACY -  FORD ROAD,5500 AUTO CLUB DRIVE,"DEARBORN, MI 48126",http://maps.google.com/maps?q=HENRY%20FORD%20MEDICAL%20CENTER%20PHARMACY%20%20%20FORD%20ROAD%2C5500%20AUTO%20CLUB%20DRIVE%2C+DEARBORN%2C+MI+48126,
HENRY FORD MEDICAL CENTER PHARMACY-WYANDOTTE HOSP,2333 BIDDLE AVE,"WYANDOTTE, MI 48192",http://maps.google.com/maps?q=HENRY%20FORD%20MEDICAL%20CENTER%20PHARMACYWYANDOTTE%20HOSP%2C2333%20BIDDLE%20AVE%2C+WYANDOTTE%2C+MI+48192,
HFMC - LIVONIA PHARMACY,29200 SCHOOLCRAFT,"LIVONIA, MI 48150",http://maps.google.com/maps?q=HFMC%20%20LIVONIA%20PHARMACY%2C29200%20SCHOOLCRAFT%2C+LIVONIA%2C+MI+48150,
HILLSDALE MARKET PHARMACY,DIVISION OF NASH DRUGS INC,208 W CARLETON ROAD,"HILLSDALE, MI 49242",http://maps.google.com/maps?q=HILLSDALE%20MARKET%20PHARMACY%2CDIVISION%20OF%20NASH%20DRUGS%20INC%2C+HILLSDALE%2C+MI+49242
"HOOK-SUPERX, L.L.C.",10 EAST 81ST AVENUE,"MERRILLVILLE, IN 46410",http://maps.google.com/maps?q=HOOKSUPERX%20LLC%2C10%20EAST%2081ST%20AVENUE%2C+MERRILLVILLE%2C+IN+46410,
"HOOK-SUPERX, L.L.C.",100 NORTH DETROIT ST,"WARSAW, IN 46580",http://maps.google.com/maps?q=HOOKSUPERX%20LLC%2C100%20NORTH%20DETROIT%20ST%2C+WARSAW%2C+IN+46580,
"HOOK-SUPERX, L.L.C.",1195 E RIDGE RD,"GRIFFITH, IN 46319",http://maps.google.com/maps?q=HOOKSUPERX%20LLC%2C1195%20E%20RIDGE%20RD%2C+GRIFFITH%2C+IN+46319,
"HOOK-SUPERX, L.L.C.",1350 BROADWAY ST,"GARY, IN 46407",http://maps.google.com/maps?q=HOOKSUPERX%20LLC%2C1350%20BROADWAY%20ST%2C+GARY%2C+IN+46407,
"HOOK-SUPERX, L.L.C.",1407 LINCOLNWAY,"LAPORTE, IN 46350",http://maps.google.com/maps?q=HOOKSUPERX%20LLC%2C1407%20LINCOLNWAY%2C+LAPORTE%2C+IN+46350,
"HOOK-SUPERX, L.L.C.",1805 CALUMET AVE.,"VALPARAISO, IN 46383",http://maps.google.com/maps?q=HOOKSUPERX%20LLC%2C1805%20CALUMET%20AVE.%2C+VALPARAISO%2C+IN+46383,
"HOOK-SUPERX, L.L.C.",2272 NORTH MAIN ST.,"CROWNPOINT, IN 46307",http://maps.google.com/maps?q=HOOKSUPERX%20LLC%2C2272%20NORTH%20MAIN%20ST.%2C+CROWNPOINT%2C+IN+46307,
"HOOK-SUPERX, L.L.C.","3240 WILLOWCREEK RD.,","PORTAGE, IN 46368",http://maps.google.com/maps?q=HOOKSUPERX%20LLC%2C3240%20WILLOWCREEK%20RD.%2C%2C+PORTAGE%2C+IN+46368,
"HOOK-SUPERX, L.L.C.",3253 FRANKLIN ST.,"MICHIGAN CITY, IN 46360",http://maps.google.com/maps?q=HOOKSUPERX%20LLC%2C3253%20FRANKLIN%20ST.%2C+MICHIGAN%20CITY%2C+IN+46360,
"HOOK-SUPERX, L.L.C.",3400 N CALUMET AVE,"VALPARAISO, IN 46383",http://maps.google.com/maps?q=HOOKSUPERX%20LLC%2C3400%20N%20CALUMET%20AVE%2C+VALPARAISO%2C+IN+46383,
IPHARMACY,31193 PLYMOUTH RD,"LIVONIA, MI 48150",http://maps.google.com/maps?q=IPHARMACY%2C31193%20PLYMOUTH%20RD%2C+LIVONIA%2C+MI+48150,
KARMANOS CANCER HOSPITAL PHARMACY,4100 JOHN R,SUITE HP00RX,"DETROIT, MI 48201",http://maps.google.com/maps?q=KARMANOS%20CANCER%20HOSPITAL%20PHARMACY%2C4100%20JOHN%20R%2C+DETROIT%2C+MI+48201
KRONNER PHARMACY INC,778 W HOUGHTON LAKE DR,PO BOX 116,"PRUDENVILLE, MI 48651",http://maps.google.com/maps?q=KRONNER%20PHARMACY%20INC%2C778%20W%20HOUGHTON%20LAKE%20DR%2C+PRUDENVILLE%2C+MI+48651
LAKELAND MEDICAL CENTER,31 N SAINT JOSEPH AVE,"NILES, MI 49120",http://maps.google.com/maps?q=LAKELAND%20MEDICAL%20CENTER%2C31%20N%20SAINT%20JOSEPH%20AVE%2C+NILES%2C+MI+49120,
LAKELAND MEDICAL CENTER ST JOSEPH,1234 NAPIER AVENUE,"ST JOSEPH, MI 49085",http://maps.google.com/maps?q=LAKELAND%20MEDICAL%20CENTER%20ST%20JOSEPH%2C1234%20NAPIER%20AVENUE%2C+ST%20JOSEPH%2C+MI+49085,
LAKELAND PHARMACY SHOPPE,3900 HOLLYWOOD ROAD,"ST JOSEPH, MI 49085",http://maps.google.com/maps?q=LAKELAND%20PHARMACY%20SHOPPE%2C3900%20HOLLYWOOD%20ROAD%2C+ST%20JOSEPH%2C+MI+49085,
LAKESHORE PHARMACIES INC,DBA ALLEGAN COMMUNITY PHARMACY,115 LOCUST STREET,"ALLEGAN, MI 49010",http://maps.google.com/maps?q=LAKESHORE%20PHARMACIES%20INC%2CDBA%20ALLEGAN%20COMMUNITY%20PHARMACY%2C+ALLEGAN%2C+MI+49010
LONG TERM CARE NASH DRUGS,44 NORTH HOWELL STREET,SUITE A,"HILLSDALE, MI 49242",http://maps.google.com/maps?q=LONG%20TERM%20CARE%20NASH%20DRUGS%2C44%20NORTH%20HOWELL%20STREET%2C+HILLSDALE%2C+MI+49242
MARTIN'S PHARMACY,926 ERSKINE PLAZA,"SOUTH BEND, IN 46614",http://maps.google.com/maps?q=MARTINS%20PHARMACY%2C926%20ERSKINE%20PLAZA%2C+SOUTH%20BEND%2C+IN+46614,
MARTIN'S PHARMACY #25,7355 HERITAGE SQUARE DRIVE,"GRANGER, IN 46530",http://maps.google.com/maps?q=MARTINS%20PHARMACY%2C7355%20HERITAGE%20SQUARE%20DRIVE%2C+GRANGER%2C+IN+46530,
MARTIN'S PHARMACY #8,525 S. MAYFLOWER RD.,"SOUTH BEND, IN 46619",http://maps.google.com/maps?q=MARTINS%20PHARMACY%2C525%20S.%20MAYFLOWER%20RD.%2C+SOUTH%20BEND%2C+IN+46619,
MCBAIN FAMILY PHARMACY,119 N ROLAND ST,"MC BAIN, MI 49657",http://maps.google.com/maps?q=MCBAIN%20FAMILY%20PHARMACY%2C119%20N%20ROLAND%20ST%2C+MC%20BAIN%2C+MI+49657,
MIDMICHIGAN COMMUNITY HEALTH SERVICES,9249 W LAKE CITY RD,"HOUGHTON LAKE, MI 48629",http://maps.google.com/maps?q=MIDMICHIGAN%20COMMUNITY%20HEALTH%20SERVICES%2C9249%20W%20LAKE%20CITY%20RD%2C+HOUGHTON%20LAKE%2C+MI+48629,
MIDMICHIGAN MEDICAL CENTER - ALPENA,1501 W. CHISHOLM ST.,"ALPENA, MI 49707",http://maps.google.com/maps?q=MIDMICHIGAN%20MEDICAL%20CENTER%20%20ALPENA%2C1501%20W.%20CHISHOLM%20ST.%2C+ALPENA%2C+MI+49707,
MIDMICHIGAN MEDICAL CENTER - MT PLEASANT,4851 E PICKARD ST,"MOUNT PLEASANT, MI 48858",http://maps.google.com/maps?q=MIDMICHIGAN%20MEDICAL%20CENTER%20%20MT%20PLEASANT%2C4851%20E%20PICKARD%20ST%2C+MOUNT%20PLEASANT%2C+MI+48858,
MILLINGTON PHARMACY LLC,8542 STATE RD,"MILLINGTON, MI 48746",http://maps.google.com/maps?q=MILLINGTON%20PHARMACY%20LLC%2C8542%20STATE%20RD%2C+MILLINGTON%2C+MI+48746,
MISSION PHARMACY LLC,926 S MISSION ST,"MT PLEASANT, MI 48858",http://maps.google.com/maps?q=MISSION%20PHARMACY%20LLC%2C926%20S%20MISSION%20ST%2C+MT%20PLEASANT%2C+MI+48858,
MUNSON HEALTHCARE CADILLAC HOSPITAL PHARMACY,400 HOBART STREET,"CADILLAC, MI 49601",http://maps.google.com/maps?q=MUNSON%20HEALTHCARE%20CADILLAC%20HOSPITAL%20PHARMACY%2C400%20HOBART%20STREET%2C+CADILLAC%2C+MI+49601,
MUNSON HEALTHCARE GRAYLING HOSPITAL PHARMACY,1100 E MICHIGAN AVE,"GRAYLING, MI 49738",http://maps.google.com/maps?q=MUNSON%20HEALTHCARE%20GRAYLING%20HOSPITAL%20PHARMACY%2C1100%20E%20MICHIGAN%20AVE%2C+GRAYLING%2C+MI+49738,
MUNSON HEALTHCARE OTSEGO MEMORIAL HOSPITAL,825 N CENTER AVENUE,"GAYLORD, MI 49735",http://maps.google.com/maps?q=MUNSON%20HEALTHCARE%20OTSEGO%20MEMORIAL%20HOSPITAL%2C825%20N%20CENTER%20AVENUE%2C+GAYLORD%2C+MI+49735,
MUSKEGON FAMILY CARE PHARMACY,2201 S GETTY STREET,"MUSKEGON, MI 49444",http://maps.google.com/maps?q=MUSKEGON%20FAMILY%20CARE%20PHARMACY%2C2201%20S%20GETTY%20STREET%2C+MUSKEGON%2C+MI+49444,
NASH DRUGS INC,237 E CHICAGO ST,"JONESVILLE, MI 49250",http://maps.google.com/maps?q=NASH%20DRUGS%20INC%2C237%20E%20CHICAGO%20ST%2C+JONESVILLE%2C+MI+49250,
NASH DRUGS INC,30 NORTH HOWELL STREET,"HILLSDALE, MI 49242",http://maps.google.com/maps?q=NASH%20DRUGS%20INC%2C30%20NORTH%20HOWELL%20STREET%2C+HILLSDALE%2C+MI+49242,
NEW HUDSON DISCOUNT PHCY,56270 GRAND RIVER,P.O. BOX 218,"NEW HUDSON, MI 48165",http://maps.google.com/maps?q=NEW%20HUDSON%20DISCOUNT%20PHCY%2C56270%20GRAND%20RIVER%2C+NEW%20HUDSON%2C+MI+48165
NIMKEE MEMORIAL WELLNESS CENTER,SAGINAW CHIPPEWA INDIAN TRIBE,2591 S LEATON ROAD,"MOUNT PLEASANT, MI 48858",http://maps.google.com/maps?q=NIMKEE%20MEMORIAL%20WELLNESS%20CENTER%2CSAGINAW%20CHIPPEWA%20INDIAN%20TRIBE%2C+MOUNT%20PLEASANT%2C+MI+48858
NORTH SAGINAW PHARMACY,2918 NORTH SAGINAW STREET,"FLINT, MI 48505",http://maps.google.com/maps?q=NORTH%20SAGINAW%20PHARMACY%2C2918%20NORTH%20SAGINAW%20STREET%2C+FLINT%2C+MI+48505,
NORTH SHORE PHARMACY,2490 CENTRAL AVENUE,"LAKE STATION, IN 46405",http://maps.google.com/maps?q=NORTH%20SHORE%20PHARMACY%2C2490%20CENTRAL%20AVENUE%2C+LAKE%20STATION%2C+IN+46405,
NORTHSHORE HEALTH CENTER,3564 SCOTTSDALE ST.,"PORTAGE, IN 46368",http://maps.google.com/maps?q=NORTHSHORE%20HEALTH%20CENTER%2C3564%20SCOTTSDALE%20ST.%2C+PORTAGE%2C+IN+46368,
OMEGA PHARMACY,420 W. HURON,"PONTIAC, MI 48341",http://maps.google.com/maps?q=OMEGA%20PHARMACY%2C420%20W.%20HURON%2C+PONTIAC%2C+MI+48341,
ORRS DRUG STORE INC,26 SOUTH MAIN STREET,"PIGEON, MI 48755",http://maps.google.com/maps?q=ORRS%20DRUG%20STORE%20INC%2C26%20SOUTH%20MAIN%20STREET%2C+PIGEON%2C+MI+48755,
OSSINEKE PHARMACY,11745 US 23 SOUTH,"OSSINEKE, MI 49766",http://maps.google.com/maps?q=OSSINEKE%20PHARMACY%2C11745%20US%2023%20SOUTH%2C+OSSINEKE%2C+MI+49766,
PALM PHARMACY,6650 GREENFIELD RD,"DEARBORN, MI 48126",http://maps.google.com/maps?q=PALM%20PHARMACY%2C6650%20GREENFIELD%20RD%2C+DEARBORN%2C+MI+48126,
PATTERSONS PHARMACY,2144 HOYT STREET,"MUSKEGON HEIGHTS, MI 49444",http://maps.google.com/maps?q=PATTERSONS%20PHARMACY%2C2144%20HOYT%20STREET%2C+MUSKEGON%20HEIGHTS%2C+MI+49444,
PAULS PHARMACY INC,803 LINCOLN AVENUE,"HOLLAND, MI 49423",http://maps.google.com/maps?q=PAULS%20PHARMACY%20INC%2C803%20LINCOLN%20AVENUE%2C+HOLLAND%2C+MI+49423,
PAW PAW VILLAGE DRUGS,322 E. MICHIGAN AVENUE,"PAW PAW, MI 49079",http://maps.google.com/maps?q=PAW%20PAW%20VILLAGE%20DRUGS%2C322%20E.%20MICHIGAN%20AVENUE%2C+PAW%20PAW%2C+MI+49079,
PHILS DISCOUNT DRUGS,702 E. LINCOLNWAY,"LAPORTE, IN 46350",http://maps.google.com/maps?q=PHILS%20DISCOUNT%20DRUGS%2C702%20E.%20LINCOLNWAY%2C+LAPORTE%2C+IN+46350,
POKAGON BAND OF POTAWATOMI INDIANS,32652 KNO DRIVE,"DOWAGIAC, MI 49047",http://maps.google.com/maps?q=POKAGON%20BAND%20OF%20POTAWATOMI%20INDIANS%2C32652%20KNO%20DRIVE%2C+DOWAGIAC%2C+MI+49047,
PROMEDICA DEFIANCE REGIONAL HOSPITAL,1200 RALSTON AVENUE,"DEFIANCE, OH 43512",http://maps.google.com/maps?q=PROMEDICA%20DEFIANCE%20REGIONAL%20HOSPITAL%2C1200%20RALSTON%20AVENUE%2C+DEFIANCE%2C+OH+43512,
ROGERS PHARMACY OF CAPAC,316 W NEPESSING ST,"LAPEER, MI 48446",http://maps.google.com/maps?q=ROGERS%20PHARMACY%20OF%20CAPAC%2C316%20W%20NEPESSING%20ST%2C+LAPEER%2C+MI+48446,
RX CARE OF MI LLC,25014 LITTLEMACK AVE,"SAINT CLAIR SHORES, MI 48080",http://maps.google.com/maps?q=RX%20CARE%20OF%20MI%20LLC%2C25014%20LITTLEMACK%20AVE%2C+SAINT%20CLAIR%20SHORES%2C+MI+48080,
SCHEURER FAMILY PHARMACY,168 N. CASEVILLE ROAD,"PIGEON, MI 48755",http://maps.google.com/maps?q=SCHEURER%20FAMILY%20PHARMACY%2C168%20N.%20CASEVILLE%20ROAD%2C+PIGEON%2C+MI+48755,
SCHEURER FAMILY PHARMACY,4970 RAILROAD STREET,"ELKTON, MI 48731",http://maps.google.com/maps?q=SCHEURER%20FAMILY%20PHARMACY%2C4970%20RAILROAD%20STREET%2C+ELKTON%2C+MI+48731,
SCHEURER FAMILY PHARMACY,6568 MAIN ST,"CASEVILLE, MI 48725",http://maps.google.com/maps?q=SCHEURER%20FAMILY%20PHARMACY%2C6568%20MAIN%20ST%2C+CASEVILLE%2C+MI+48725,
SCHEURER FAMILY PHARMACY,8866 S UNIONVILLE RD,"SEBEWAING, MI 48759",http://maps.google.com/maps?q=SCHEURER%20FAMILY%20PHARMACY%2C8866%20S%20UNIONVILLE%20RD%2C+SEBEWAING%2C+MI+48759,
SHAW'S PHARMACY INC,221 N SAGINAW STREET,"DURAND, MI 48429",http://maps.google.com/maps?q=SHAWS%20PHARMACY%20INC%2C221%20N%20SAGINAW%20STREET%2C+DURAND%2C+MI+48429,
SHELDON PHARMACY OF YALE INC,25 SOUTH MAIN ST,"YALE, MI 48097",http://maps.google.com/maps?q=SHELDON%20PHARMACY%20OF%20YALE%20INC%2C25%20SOUTH%20MAIN%20ST%2C+YALE%2C+MI+48097,
SINDECUSE HEALTH CENTER,NORTH GILKISON AVENUE,"KALAMAZOO, MI 49008",http://maps.google.com/maps?q=SINDECUSE%20HEALTH%20CENTER%2CNORTH%20GILKISON%20AVENUE%2C+KALAMAZOO%2C+MI+49008,
SOMERSET SPECIALTY PHARMACY ROCHESTER HILLS LLC,2708 S ROCHESTER RD,STE 204,"ROCHESTER, MI 48307",http://maps.google.com/maps?q=SOMERSET%20SPECIALTY%20PHARMACY%20ROCHESTER%20HILLS%20LLC%2C2708%20S%20ROCHESTER%20RD%2C+ROCHESTER%2C+MI+48307
STATE STREET PHARMACY & WELLNESS CENTER,192 NORTH STATE STREET,"CARO, MI 48723",http://maps.google.com/maps?q=STATE%20STREET%20PHARMACY%20%20WELLNESS%20CENTER%2C192%20NORTH%20STATE%20STREET%2C+CARO%2C+MI+48723,
THE MEDICINE SHOPPE #1675,500 N JAMES STREET,"GRAYLING, MI 49738",http://maps.google.com/maps?q=THE%20MEDICINE%20SHOPPE%2C500%20N%20JAMES%20STREET%2C+GRAYLING%2C+MI+49738,
THE WELLNESS PLAN,2888 WEST GRAND BLVD.,"DETROIT, MI 48202",http://maps.google.com/maps?q=THE%20WELLNESS%20PLAN%2C2888%20WEST%20GRAND%20BLVD.%2C+DETROIT%2C+MI+48202,
THREE RIVERS HEALTH,701 S. HEALTH PARKWAY,"THREE RIVERS, MI 49093",http://maps.google.com/maps?q=THREE%20RIVERS%20HEALTH%2C701%20S.%20HEALTH%20PARKWAY%2C+THREE%20RIVERS%2C+MI+49093,
THUNDER BAY PHARMACY,11899 M-32,PO BOX 850,"ATLANTA, MI 49709",http://maps.google.com/maps?q=THUNDER%20BAY%20PHARMACY%2C11899%20M-32%2C+ATLANTA%2C+MI+49709
THUNDER BAY PHARMACY ONAWAY,21258 WEST M-68 HIGHWAY,PO BOX 722,"ONAWAY, MI 49765",http://maps.google.com/maps?q=THUNDER%20BAY%20PHARMACY%20ONAWAY%2C21258%20WEST%20M-68%20HIGHWAY%2C+ONAWAY%2C+MI+49765
THUNDER BAY PHARMACY ROGERS CITY,205 S BRADLEY HWY,"ROGERS CITY, MI 49779",http://maps.google.com/maps?q=THUNDER%20BAY%20PHARMACY%20ROGERS%20CITY%2C205%20S%20BRADLEY%20HWY%2C+ROGERS%20CITY%2C+MI+49779,
TODDS PHARMACY INC,25871 FORD ROAD,"DEARBORN HEIGHTS, MI 48127",http://maps.google.com/maps?q=TODDS%20PHARMACY%20INC%2C25871%20FORD%20ROAD%2C+DEARBORN%20HEIGHTS%2C+MI+48127,
TOWN CENTER PHARMACY,1201 FLUSHING ROAD,SUITE 2,"FLINT, MI 48504",http://maps.google.com/maps?q=TOWN%20CENTER%20PHARMACY%2C1201%20FLUSHING%20ROAD%2C+FLINT%2C+MI+48504
UNION PRESCRIPTION CENTER I INC,11830 NORTH SAGINAW STREET,"MOUNT MORRIS, MI 48458",http://maps.google.com/maps?q=UNION%20PRESCRIPTION%20CENTER%20I%20INC%2C11830%20NORTH%20SAGINAW%20STREET%2C+MOUNT%20MORRIS%2C+MI+48458,
UNITED SPECIALTY PHARMACY LLC,25205 TROWBRIDGE ST.,"DEARBORN, MI 48124",http://maps.google.com/maps?q=UNITED%20SPECIALTY%20PHARMACY%20LLC%2C25205%20TROWBRIDGE%20ST.%2C+DEARBORN%2C+MI+48124,
UNIVERSITY OF MICHIGAN,207 FLETCHER STREET,"ANN ARBOR, MI 48109",http://maps.google.com/maps?q=UNIVERSITY%20OF%20MICHIGAN%2C207%20FLETCHER%20STREET%2C+ANN%20ARBOR%2C+MI+48109,
UNIVERSITY OF MICHIGAN MEDICAL CENTER,UH-B2D301,1500 EAST MEDICAL CENTER DRIVE,"ANN ARBOR, MI 48109",http://maps.google.com/maps?q=UNIVERSITY%20OF%20MICHIGAN%20MEDICAL%20CENTER%2CUH-B2D301%2C+ANN%20ARBOR%2C+MI+48109
VANS PHARMACY INC,807 NAPIER AVENUE,"SAINT JOSEPH, MI 49085",http://maps.google.com/maps?q=VANS%20PHARMACY%20INC%2C807%20NAPIER%20AVENUE%2C+SAINT%20JOSEPH%2C+MI+49085,
VETERANS ADMINISTRATION MEDICAL CENTER,PHARMACY SERVICES,2215 FULLER ROAD,"ANN ARBOR, MI 48105",http://maps.google.com/maps?q=VETERANS%20ADMINISTRATION%20MEDICAL%20CENTER%2CPHARMACY%20SERVICES%2C+ANN%20ARBOR%2C+MI+48105
VETERANS AFFAIRS MEDICAL CENTER,4646 JOHN R,"DETROIT, MI 48201",http://maps.google.com/maps?q=VETERANS%20AFFAIRS%20MEDICAL%20CENTER%2C4646%20JOHN%20R%2C+DETROIT%2C+MI+48201,
WALGREEN CO,21790 21 MILE RD,"MACOMB, MI 48044",http://maps.google.com/maps?q=WALGREEN%20CO%2C21790%2021%20MILE%20RD%2C+MACOMB%2C+MI+48044,
WALGREEN CO,25700 FORD RD,"DEARBORN HEIGHTS, MI 48127",http://maps.google.com/maps?q=WALGREEN%20CO%2C25700%20FORD%20RD%2C+DEARBORN%20HEIGHTS%2C+MI+48127,
WALGREEN CO,2901 CENTER AVENUE,"ESSEXVILLE, MI 48732",http://maps.google.com/maps?q=WALGREEN%20CO%2C2901%20CENTER%20AVENUE%2C+ESSEXVILLE%2C+MI+48732,
WALGREEN CO.,1010 E IRELAND RD,"SOUTH BEND, IN 46614",http://maps.google.com/maps?q=WALGREEN%20CO%2C1010%20E%20IRELAND%20RD%2C+SOUTH%20BEND%2C+IN+46614,
WALGREEN CO.,10412 COLDWATER ROAD,"FT WAYNE, IN 46845",http://maps.google.com/maps?q=WALGREEN%20CO%2C10412%20COLDWATER%20ROAD%2C+FT%20WAYNE%2C+IN+46845,
WALGREEN CO.,1220 N MITCHELL,"CADILLAC, MI 49601",http://maps.google.com/maps?q=WALGREEN%20CO%2C1220%20N%20MITCHELL%2C+CADILLAC%2C+MI+49601,
WALGREEN CO.,1260 HILLTOP RD,"SAINT JOSEPH, MI 49085",http://maps.google.com/maps?q=WALGREEN%20CO%2C1260%20HILLTOP%20RD%2C+SAINT%20JOSEPH%2C+MI+49085,
WALGREEN CO.,1285 N MONROE ST,"MONROE, MI 48162",http://maps.google.com/maps?q=WALGREEN%20CO%2C1285%20N%20MONROE%20ST%2C+MONROE%2C+MI+48162,
WALGREEN CO.,1314 N WEST AVE,"JACKSON, MI 49202",http://maps.google.com/maps?q=WALGREEN%20CO%2C1314%20N%20WEST%20AVE%2C+JACKSON%2C+MI+49202,
WALGREEN CO.,1400 CASSOPOLIS ST,"ELKHART, IN 46514",http://maps.google.com/maps?q=WALGREEN%20CO%2C1400%20CASSOPOLIS%20ST%2C+ELKHART%2C+IN+46514,
WALGREEN CO.,1615 N SAGINAW RD,"MIDLAND, MI 48640",http://maps.google.com/maps?q=WALGREEN%20CO%2C1615%20N%20SAGINAW%20RD%2C+MIDLAND%2C+MI+48640,
WALGREEN CO.,16741 CANAL RD,"CLINTON TOWNSHIP, MI 48038",http://maps.google.com/maps?q=WALGREEN%20CO%2C16741%20CANAL%20RD%2C+CLINTON%20TOWNSHIP%2C+MI+48038,
WALGREEN CO.,1903 CALUMET AVE.,"VALPARAISO, IN 46383",http://maps.google.com/maps?q=WALGREEN%20CO%2C1903%20CALUMET%20AVE.%2C+VALPARAISO%2C+IN+46383,
WALGREEN CO.,1991 E APPLE AVE,"MUSKEGON, MI 49442",http://maps.google.com/maps?q=WALGREEN%20CO%2C1991%20E%20APPLE%20AVE%2C+MUSKEGON%2C+MI+49442,
WALGREEN CO.,2012 N WAYNE ST,"ANGOLA, IN 46703",http://maps.google.com/maps?q=WALGREEN%20CO%2C2012%20N%20WAYNE%20ST%2C+ANGOLA%2C+IN+46703,
WALGREEN CO.,2500 GRANT ST,"GARY, IN 46404",http://maps.google.com/maps?q=WALGREEN%20CO%2C2500%20GRANT%20ST%2C+GARY%2C+IN+46404,
WALGREEN CO.,29030 NORTHWESTERN HWY,"SOUTHFIELD, MI 48034",http://maps.google.com/maps?q=WALGREEN%20CO%2C29030%20NORTHWESTERN%20HWY%2C+SOUTHFIELD%2C+MI+48034,
WALGREEN CO.,30852 WOODWARD AVE,"ROYAL OAK, MI 48073",http://maps.google.com/maps?q=WALGREEN%20CO%2C30852%20WOODWARD%20AVE%2C+ROYAL%20OAK%2C+MI+48073,
WALGREEN CO.,31100 GROESBECK HWY.,"FRASER, MI 48026",http://maps.google.com/maps?q=WALGREEN%20CO%2C31100%20GROESBECK%20HWY.%2C+FRASER%2C+MI+48026,
WALGREEN CO.,3610 PLAINFIELD AVE NE,"GRAND RAPIDS, MI 49525",http://maps.google.com/maps?q=WALGREEN%20CO%2C3610%20PLAINFIELD%20AVE%20NE%2C+GRAND%20RAPIDS%2C+MI+49525,
WALGREEN CO.,410 E JOLLY ROAD,"LANSING, MI 48910",http://maps.google.com/maps?q=WALGREEN%20CO%2C410%20E%20JOLLY%20ROAD%2C+LANSING%2C+MI+48910,
WALGREEN CO.,494 BUTTERNUT,"HOLLAND, MI 49424",http://maps.google.com/maps?q=WALGREEN%20CO%2C494%20BUTTERNUT%2C+HOLLAND%2C+MI+49424,
WALGREEN CO.,4989 STATE ST,"SAGINAW, MI 48603",http://maps.google.com/maps?q=WALGREEN%20CO%2C4989%20STATE%20ST%2C+SAGINAW%2C+MI+48603,
WALGREEN CO.,50 COLUMBIA AVENUE W,"BATTLE CREEK, MI 49015",http://maps.google.com/maps?q=WALGREEN%20CO%2C50%20COLUMBIA%20AVENUE%20W%2C+BATTLE%20CREEK%2C+MI+49015,
WALGREEN CO.,5020 W MAIN,"KALAMAZOO, MI 49009",http://maps.google.com/maps?q=WALGREEN%20CO%2C5020%20W%20MAIN%2C+KALAMAZOO%2C+MI+49009,
WALGREEN CO.,5709 S TELEGRAPH RD,"DEARBORN HEIGHTS, MI 48125",http://maps.google.com/maps?q=WALGREEN%20CO%2C5709%20S%20TELEGRAPH%20RD%2C+DEARBORN%20HEIGHTS%2C+MI+48125,
WALGREEN CO.,6001 CENTRAL AVE,"PORTAGE, IN 46368",http://maps.google.com/maps?q=WALGREEN%20CO%2C6001%20CENTRAL%20AVE%2C+PORTAGE%2C+IN+46368,
WALGREEN CO.,6020 KALAMAZOO AVE. SE,"KENTWOOD, MI 49508",http://maps.google.com/maps?q=WALGREEN%20CO%2C6020%20KALAMAZOO%20AVE.%20SE%2C+KENTWOOD%2C+MI+49508,
WALGREEN CO.,7110 DIXIE HIGHWAY,"CLARKSTON, MI 48346",http://maps.google.com/maps?q=WALGREEN%20CO%2C7110%20DIXIE%20HIGHWAY%2C+CLARKSTON%2C+MI+48346,
WALGREEN CO.,7920 SHAVER RD,"PORTAGE, MI 49024",http://maps.google.com/maps?q=WALGREEN%20CO%2C7920%20SHAVER%20RD%2C+PORTAGE%2C+MI+49024,
WALGREEN CO.,840 W. SHERMAN BLVD.,"MUSKEGON, MI 49441",http://maps.google.com/maps?q=WALGREEN%20CO%2C840%20W.%20SHERMAN%20BLVD.%2C+MUSKEGON%2C+MI+49441,
WALGREEN CO.,901 S STATE RD,"DAVISON, MI 48423",http://maps.google.com/maps?q=WALGREEN%20CO%2C901%20S%20STATE%20RD%2C+DAVISON%2C+MI+48423,
WALGREEN CO.,907 SOUTH 11TH ST,"NILES, MI 49120",http://maps.google.com/maps?q=WALGREEN%20CO%2C907%20SOUTH%2011TH%20ST%2C+NILES%2C+MI+49120,
WALGREEN CO.,950 S CENTERVILLE RD,"STURGIS, MI 49091",http://maps.google.com/maps?q=WALGREEN%20CO%2C950%20S%20CENTERVILLE%20RD%2C+STURGIS%2C+MI+49091,
WEST GRANGE PHARMACY LLC,3390 WEST ROAD,"TRENTON, MI 48183",http://maps.google.com/maps?q=WEST%20GRANGE%20PHARMACY%20LLC%2C3390%20WEST%20ROAD%2C+TRENTON%2C+MI+48183,
WEST SHORE PROF PHARMACY,1150 E SHERMAN BLVD STE 1400,"MUSKEGON, MI 49444",http://maps.google.com/maps?q=WEST%20SHORE%20PROF%20PHARMACY%2C1150%20E%20SHERMAN%20BLVD%20STE%201400%2C+MUSKEGON%2C+MI+49444,
WILCOX PHARMACY,140 EAST ROAD,"DIMONDALE, MI 48821",http://maps.google.com/maps?q=WILCOX%20PHARMACY%2C140%20EAST%20ROAD%2C+DIMONDALE%2C+MI+48821,
WINGERTS PHARMACY,315 E MAIN ST,PO BOX 281,"MAYVILLE, MI 48744",http://maps.google.com/maps?q=WINGERTS%20PHARMACY%2C315%20E%20MAIN%20ST%2C+MAYVILLE%2C+MI+48744
"WOODWARD DETROIT CVS, L.L.C.",10011 WEST MCNICHOLS ROAD,"DETROIT, MI 48221",http://maps.google.com/maps?q=WOODWARD%20DETROIT%20CVS%20LLC%2C10011%20WEST%20MCNICHOLS%20ROAD%2C+DETROIT%2C+MI+48221,
"WOODWARD DETROIT CVS, L.L.C.",10915 BELLEVILLE ROAD,"BELLEVILLE, MI 48111",http://maps.google.com/maps?q=WOODWARD%20DETROIT%20CVS%20LLC%2C10915%20BELLEVILLE%20ROAD%2C+BELLEVILLE%2C+MI+48111,
"WOODWARD DETROIT CVS, L.L.C.",132 DOUGLAS AVE.,"HOLLAND, MI 49424",http://maps.google.com/maps?q=WOODWARD%20DETROIT%20CVS%20LLC%2C132%20DOUGLAS%20AVE.%2C+HOLLAND%2C+MI+49424,
"WOODWARD DETROIT CVS, L.L.C.",2235 EAST GRAND RIVER AVE.,"HOWELL, MI 48843",http://maps.google.com/maps?q=WOODWARD%20DETROIT%20CVS%20LLC%2C2235%20EAST%20GRAND%20RIVER%20AVE.%2C+HOWELL%2C+MI+48843,
"WOODWARD DETROIT CVS, L.L.C.",2400 FORT ST.,"LINCOLN PARK, MI 48146",http://maps.google.com/maps?q=WOODWARD%20DETROIT%20CVS%20LLC%2C2400%20FORT%20ST.%2C+LINCOLN%20PARK%2C+MI+48146,
"WOODWARD DETROIT CVS, L.L.C.",25109 RYAN,"WARREN, MI 48091",http://maps.google.com/maps?q=WOODWARD%20DETROIT%20CVS%20LLC%2C25109%20RYAN%2C+WARREN%2C+MI+48091,
"WOODWARD DETROIT CVS, L.L.C.",27435 FORD RD.,"GARDEN CITY, MI 48135",http://maps.google.com/maps?q=WOODWARD%20DETROIT%20CVS%20LLC%2C27435%20FORD%20RD.%2C+GARDEN%20CITY%2C+MI+48135,
"WOODWARD DETROIT CVS, L.L.C.",301 SOUTH COCHRAN AVE.,"CHARLOTTE, MI 48813",http://maps.google.com/maps?q=WOODWARD%20DETROIT%20CVS%20LLC%2C301%20SOUTH%20COCHRAN%20AVE.%2C+CHARLOTTE%2C+MI+48813,
"WOODWARD DETROIT CVS, L.L.C.",30900 WOODWARD,"ROYAL OAK, MI 48073",http://maps.google.com/maps?q=WOODWARD%20DETROIT%20CVS%20LLC%2C30900%20WOODWARD%2C+ROYAL%20OAK%2C+MI+48073,
"WOODWARD DETROIT CVS, L.L.C.",37050 GRATOIT,"CLINTON TWP, MI 48036",http://maps.google.com/maps?q=WOODWARD%20DETROIT%20CVS%20LLC%2C37050%20GRATOIT%2C+CLINTON%20TWP%2C+MI+48036,
"WOODWARD DETROIT CVS, L.L.C.",37340 FIVE MILE RD.,"LIVONIA, MI 48154",http://maps.google.com/maps?q=WOODWARD%20DETROIT%20CVS%20LLC%2C37340%20FIVE%20MILE%20RD.%2C+LIVONIA%2C+MI+48154,
"WOODWARD DETROIT CVS, L.L.C.",40925 GARFIELD ROAD,"CLINTON TWP, MI 48038",http://maps.google.com/maps?q=WOODWARD%20DETROIT%20CVS%20LLC%2C40925%20GARFIELD%20ROAD%2C+CLINTON%20TWP%2C+MI+48038,
"WOODWARD DETROIT CVS, L.L.C.",50980 NORTH AVENUE,"MACOMB TOWNSHIP, MI 48042",http://maps.google.com/maps?q=WOODWARD%20DETROIT%20CVS%20LLC%2C50980%20NORTH%20AVENUE%2C+MACOMB%20TOWNSHIP%2C+MI+48042,
"WOODWARD DETROIT CVS, L.L.C.",727 28TH ST. SE,"GRAND RAPIDS, MI 49548",http://maps.google.com/maps?q=WOODWARD%20DETROIT%20CVS%20LLC%2C727%2028TH%20ST.%20SE%2C+GRAND%20RAPIDS%2C+MI+49548,
"WOODWARD DETROIT CVS, LLC",18500 GRAND RIVER,"DETROIT, MI 48223",http://maps.google.com/maps?q=WOODWARD%20DETROIT%20CVS%20LLC%2C18500%20GRAND%20RIVER%2C+DETROIT%2C+MI+48223,
