Business Name,Address 1,Address 2,"City, State Zip",Map URL
AGH APOTHECARY,320 E. NORTH AVE,SUITE 111,"PITTSBURGH, PA 15212",http://maps.google.com/maps?q=AGH%20APOTHECARY%2C320%20E.%20NORTH%20AVE%2C+PITTSBURGH%2C+PA+15212
AHN PHARMACY,SUITE F,12311 PERRY HIGHWAY,"WEXFORD, PA 15090",http://maps.google.com/maps?q=AHN%20PHARMACY%2CSUITE%20F%2C+WEXFORD%2C+PA+15090
AHN PHARMACY #5,SUITE 300,120 FIFTH AVENUE,"PITTSBURGH, PA 15222",http://maps.google.com/maps?q=AHN%20PHARMACY%2CSUITE%20300%2C+PITTSBURGH%2C+PA+15222
ALLIANCE COMMUNITY HOSPITAL,200 E. STATE ST,"ALLIANCE, OH 44601",http://maps.google.com/maps?q=ALLIANCE%20COMMUNITY%20HOSPITAL%2C200%20E.%20STATE%20ST%2C+ALLIANCE%2C+OH+44601,
BARNESVILLE HOSPITAL ASSN INC,639 W MAIN ST,"BARNESVILLE, OH 43713",http://maps.google.com/maps?q=BARNESVILLE%20HOSPITAL%20ASSN%20INC%2C639%20W%20MAIN%20ST%2C+BARNESVILLE%2C+OH+43713,
BELLWOOD DRUGS,135 SOUTH MAIN STREET,"WOODSFIELD, OH 43793",http://maps.google.com/maps?q=BELLWOOD%20DRUGS%2C135%20SOUTH%20MAIN%20STREET%2C+WOODSFIELD%2C+OH+43793,
BELMONT CO HLTH SERVICES,DBA MORRISTOWN PHCY,66840 BELMONT-MORRISTOWN RD,"BELMONT, OH 43718",http://maps.google.com/maps?q=BELMONT%20CO%20HLTH%20SERVICES%2CDBA%20MORRISTOWN%20PHCY%2C+BELMONT%2C+OH+43718
BROCKWAY DRUG COMPANY INC,1365 MAIN STREET,"BROCKWAY, PA 15824",http://maps.google.com/maps?q=BROCKWAY%20DRUG%20COMPANY%20INC%2C1365%20MAIN%20STREET%2C+BROCKWAY%2C+PA+15824,
CARESITE PHARMACY,132 ABIGAIL LANE,"PORT MATILDA, PA 16870",http://maps.google.com/maps?q=CARESITE%20PHARMACY%2C132%20ABIGAIL%20LANE%2C+PORT%20MATILDA%2C+PA+16870,
CARESITE PHARMACY,21 GEISINGER LANE,"LEWISTOWN, PA 17044",http://maps.google.com/maps?q=CARESITE%20PHARMACY%2C21%20GEISINGER%20LANE%2C+LEWISTOWN%2C+PA+17044,
CARESITE PHARMACY,400 HIGHLAND AVE. SUITE B,"LEWISTOWN, PA 17044",http://maps.google.com/maps?q=CARESITE%20PHARMACY%2C400%20HIGHLAND%20AVE.%20SUITE%20B%2C+LEWISTOWN%2C+PA+17044,
CARESITE PHARMACY,4752 SR 655 SUITE A,BIG VALLEY AREA MEDICAL CENTER,"BELLEVILLE, PA 17004",http://maps.google.com/maps?q=CARESITE%20PHARMACY%2C4752%20SR%20655%20SUITE%20A%2C+BELLEVILLE%2C+PA+17004
CHEFFY DRUGS LLC,148 E MAIN ST,"BARNESVILLE, OH 43713",http://maps.google.com/maps?q=CHEFFY%20DRUGS%20LLC%2C148%20E%20MAIN%20ST%2C+BARNESVILLE%2C+OH+43713,
CHRISTIAN PHARMACY,DBA CORNER PHARMACY,102 WEST MAIN ST,"BARNESVILLE, OH 43713",http://maps.google.com/maps?q=CHRISTIAN%20PHARMACY%2CDBA%20CORNER%20PHARMACY%2C+BARNESVILLE%2C+OH+43713
COMMUNITY CARE OF WEST VIRGINIA,597 LIBERTY STREET,"WEST MILFORD, WV 26451",http://maps.google.com/maps?q=COMMUNITY%20CARE%20OF%20WEST%20VIRGINIA%2C597%20LIBERTY%20STREET%2C+WEST%20MILFORD%2C+WV+26451,
COMMUNITY CARE PHARMACY,149 IVY LANE,"PARSONS, WV 26287",http://maps.google.com/maps?q=COMMUNITY%20CARE%20PHARMACY%2C149%20IVY%20LANE%2C+PARSONS%2C+WV+26287,
DAVIS BROTHERS PHARMACY,615 N CHESTER ST,"NEW CUMBERLAND, WV 26047",http://maps.google.com/maps?q=DAVIS%20BROTHERS%20PHARMACY%2C615%20N%20CHESTER%20ST%2C+NEW%20CUMBERLAND%2C+WV+26047,
DAVIS BROTHERS PHARMACY - CHESTER,559 CAROLINA AVE STE B,"CHESTER, WV 26034",http://maps.google.com/maps?q=DAVIS%20BROTHERS%20PHARMACY%20%20CHESTER%2C559%20CAROLINA%20AVE%20STE%20B%2C+CHESTER%2C+WV+26034,
DONORA UNION PHARMACY,601 MCKEAN AVE,"DONORA, PA 15033",http://maps.google.com/maps?q=DONORA%20UNION%20PHARMACY%2C601%20MCKEAN%20AVE%2C+DONORA%2C+PA+15033,
E.A. HAWSE PHARMACY,P.O. BOX 97,17978 STATE ROUTE 55,"BAKER, WV 26801",http://maps.google.com/maps?q=EA%20HAWSE%20PHARMACY%2CP.O.%20BOX%2097%2C+BAKER%2C+WV+26801
FAST & FRIENDLY PHARMACY RC LLC,4 GARTON PLAZA,"WESTON, WV 26452",http://maps.google.com/maps?q=FAST%20%20FRIENDLY%20PHARMACY%20RC%20LLC%2C4%20GARTON%20PLAZA%2C+WESTON%2C+WV+26452,
FRICK HOSPITAL,508 SOUTH CHURCH STREET,"MT PLEASANT, PA 15666",http://maps.google.com/maps?q=FRICK%20HOSPITAL%2C508%20SOUTH%20CHURCH%20STREET%2C+MT%20PLEASANT%2C+PA+15666,
"GENOA HEALTHCARE, LLC","624 MARKET STREET N, STE 140","CANTON, OH 44702",http://maps.google.com/maps?q=GENOA%20HEALTHCARE%20LLC%2C624%20MARKET%20STREET%20N%2C%20STE%20140%2C+CANTON%2C+OH+44702,
"GENOA HEALTHCARE, LLC",625 CLEVELAND AVE NW,SUITE 301,"CANTON, OH 44702",http://maps.google.com/maps?q=GENOA%20HEALTHCARE%20LLC%2C625%20CLEVELAND%20AVE%20NW%2C+CANTON%2C+OH+44702
GRANE SUPPLY,105 GAMMA DR,SUITE 100,"PITTSBURGH, PA 15238",http://maps.google.com/maps?q=GRANE%20SUPPLY%2C105%20GAMMA%20DR%2C+PITTSBURGH%2C+PA+15238
HAYDENS PHARMACY,505 N 4TH ST,"YOUNGWOOD, PA 15697",http://maps.google.com/maps?q=HAYDENS%20PHARMACY%2C505%20N%204TH%20ST%2C+YOUNGWOOD%2C+PA+15697,
HERITAGE VALLEY PHARMACY,BEAVER CAMPUS/PHARMACY DEPT,1000 DUTCH RIDGE ROAD,"BEAVER, PA 15009",http://maps.google.com/maps?q=HERITAGE%20VALLEY%20PHARMACY%2CBEAVER%20CAMPUS/PHARMACY%20DEPT%2C+BEAVER%2C+PA+15009
HERITAGE VALLEY PHARMACY SEWICKLEY CAMP,720 BLACKBURN ROAD,"SEWICKLEY, PA 15143",http://maps.google.com/maps?q=HERITAGE%20VALLEY%20PHARMACY%20SEWICKLEY%20CAMP%2C720%20BLACKBURN%20ROAD%2C+SEWICKLEY%2C+PA+15143,
HIGHLANDS HOSPITAL,401 EAST MURPHY AVE.,"CONNELLSVILLE, PA 15425",http://maps.google.com/maps?q=HIGHLANDS%20HOSPITAL%2C401%20EAST%20MURPHY%20AVE.%2C+CONNELLSVILLE%2C+PA+15425,
HILLTOP PHARMACY,818 E. WARRINGTON AVENUE,"PITTSBURGH, PA 15210",http://maps.google.com/maps?q=HILLTOP%20PHARMACY%2C818%20E.%20WARRINGTON%20AVENUE%2C+PITTSBURGH%2C+PA+15210,
"HOSE PHARMACIES, INC.",17316 SHEPHERDSTOWN PIKE,"SHARPSBURG, MD 21782",http://maps.google.com/maps?q=HOSE%20PHARMACIES%20INC%2C17316%20SHEPHERDSTOWN%20PIKE%2C+SHARPSBURG%2C+MD+21782,
HYDE DRUG STORE,112 N LIBERTY ST,"NEW CASTLE, PA 16102",http://maps.google.com/maps?q=HYDE%20DRUG%20STORE%2C112%20N%20LIBERTY%20ST%2C+NEW%20CASTLE%2C+PA+16102,
LATROBE HOSPITAL ASSN,ATTENTION PHARMACY,ONE MELLON WAY,"LATROBE, PA 15650",http://maps.google.com/maps?q=LATROBE%20HOSPITAL%20ASSN%2CATTENTION%20PHARMACY%2C+LATROBE%2C+PA+15650
"MARYLAND CVS PHARMACY, L.L.C.",402 SO. JEFFERSON STREET,"FREDERICK, MD 21701",http://maps.google.com/maps?q=MARYLAND%20CVS%20PHARMACY%20LLC%2C402%20SO.%20JEFFERSON%20STREET%2C+FREDERICK%2C+MD+21701,
MERCER PHARMACY,737 GREENVILLE ROAD,"MERCER, PA 16137",http://maps.google.com/maps?q=MERCER%20PHARMACY%2C737%20GREENVILLE%20ROAD%2C+MERCER%2C+PA+16137,
MOUNDSVILLE PHARMACY,118 NORTH LAFAYETTE AVENUE,"MOUNDSVILLE, WV 26041",http://maps.google.com/maps?q=MOUNDSVILLE%20PHARMACY%2C118%20NORTH%20LAFAYETTE%20AVENUE%2C+MOUNDSVILLE%2C+WV+26041,
NEW MARTINSVILLE PHARMACY,155 NORTH STREET,"NEW MARTINSVILLE, WV 26155",http://maps.google.com/maps?q=NEW%20MARTINSVILLE%20PHARMACY%2C155%20NORTH%20STREET%2C+NEW%20MARTINSVILLE%2C+WV+26155,
NORTHERN BEDFORD PHARMACY,3499 BRUMBAUGH RD,"NEW ENTERPRISE, PA 16664",http://maps.google.com/maps?q=NORTHERN%20BEDFORD%20PHARMACY%2C3499%20BRUMBAUGH%20RD%2C+NEW%20ENTERPRISE%2C+PA+16664,
"OHIO CVS STORES, L.L.C.",21 GRANT ST.,"DENNISON, OH 44621",http://maps.google.com/maps?q=OHIO%20CVS%20STORES%20LLC%2C21%20GRANT%20ST.%2C+DENNISON%2C+OH+44621,
"OHIO CVS STORES, L.L.C.",2210 TUSCARAWAS ST. W,"CANTON, OH 44708",http://maps.google.com/maps?q=OHIO%20CVS%20STORES%20LLC%2C2210%20TUSCARAWAS%20ST.%20W%2C+CANTON%2C+OH+44708,
ORBY PHARMACY INC,626 WATER STREET SUITE 3,PO BOX 367,"ORBISONIA, PA 17243",http://maps.google.com/maps?q=ORBY%20PHARMACY%20INC%2C626%20WATER%20STREET%20SUITE%203%2C+ORBISONIA%2C+PA+17243
"PENNSYLVANIA CVS PHARMACY, L.L.C.",1740 WASHINGTON RD,"PITTSBURGH, PA 15241",http://maps.google.com/maps?q=PENNSYLVANIA%20CVS%20PHARMACY%20LLC%2C1740%20WASHINGTON%20RD%2C+PITTSBURGH%2C+PA+15241,
"PENNSYLVANIA CVS PHARMACY, L.L.C.",4610 CENTRE AVE,"PITTSBURGH, PA 15213",http://maps.google.com/maps?q=PENNSYLVANIA%20CVS%20PHARMACY%20LLC%2C4610%20CENTRE%20AVE%2C+PITTSBURGH%2C+PA+15213,
"PENNSYLVANIA CVS PHARMACY, L.L.C.",520 PENN AVE,"WILKINSBURG, PA 15221",http://maps.google.com/maps?q=PENNSYLVANIA%20CVS%20PHARMACY%20LLC%2C520%20PENN%20AVE%2C+WILKINSBURG%2C+PA+15221,
PURCELLVILLE PHARMACY,609 E MAIN ST SUITE Q,"PURCELLVILLE, VA 20132",http://maps.google.com/maps?q=PURCELLVILLE%20PHARMACY%2C609%20E%20MAIN%20ST%20SUITE%20Q%2C+PURCELLVILLE%2C+VA+20132,
"SBW PHARMACY, INC",3676 N. HERMITAGE RD.,P.O. BOX 103,"TRANSFER, PA 16154",http://maps.google.com/maps?q=SBW%20PHARMACY%20INC%2C3676%20N.%20HERMITAGE%20RD.%2C+TRANSFER%2C+PA+16154
SHARON PHARMACY,63 PITT STREET,SUITE 102,"SHARON, PA 16146",http://maps.google.com/maps?q=SHARON%20PHARMACY%2C63%20PITT%20STREET%2C+SHARON%2C+PA+16146
ST MARGARET MEMORIAL HOSPITAL,815 FREEPORT RD,"PITTSBURGH, PA 15215",http://maps.google.com/maps?q=ST%20MARGARET%20MEMORIAL%20HOSPITAL%2C815%20FREEPORT%20RD%2C+PITTSBURGH%2C+PA+15215,
ST. ELIZABETH BOARDMAN HOSPITAL,8401 MARKET STREET,"BOARDMAN, OH 44512",http://maps.google.com/maps?q=ST%20ELIZABETH%20BOARDMAN%20HOSPITAL%2C8401%20MARKET%20STREET%2C+BOARDMAN%2C+OH+44512,
THE MEDICINE SHOPPE,1740 EAST STATE STREET,"HERMITAGE, PA 16148",http://maps.google.com/maps?q=THE%20MEDICINE%20SHOPPE%2C1740%20EAST%20STATE%20STREET%2C+HERMITAGE%2C+PA+16148,
THE MEDICINE SHOPPE #1929,315 SOUTH ERIE STREET,SUITE A,"MERCER, PA 16137",http://maps.google.com/maps?q=THE%20MEDICINE%20SHOPPE%2C315%20SOUTH%20ERIE%20STREET%2C+MERCER%2C+PA+16137
"TRI-CO HEALTH CLINIC, INC DBA CLAY-BATTELLE PHARM",5851 MASON-DIXON HWY.,PO BOX 21,"BLACKSVILLE, WV 26521",http://maps.google.com/maps?q=TRICO%20HEALTH%20CLINIC%20INC%20DBA%20CLAYBATTELLE%20PHARM%2C5851%20MASON-DIXON%20HWY.%2C+BLACKSVILLE%2C+WV+26521
TRI-STATE PHARMACY,651 COLLIERS WAY STE 204,"JOHN J. BERNABEI, RPH","WEIRTON, WV 26062",http://maps.google.com/maps?q=TRISTATE%20PHARMACY%2C651%20COLLIERS%20WAY%20STE%20204%2C+WEIRTON%2C+WV+26062
UNIVERSITY PHARMACY,103 UNIVERSITY PLACE,"PITTSBURGH, PA 15260",http://maps.google.com/maps?q=UNIVERSITY%20PHARMACY%2C103%20UNIVERSITY%20PLACE%2C+PITTSBURGH%2C+PA+15260,
UPMC CHILDRENS HOSPITAL OF PITTSBURGH,4401 PENN AVENUE,"PITTSBURGH, PA 15224",http://maps.google.com/maps?q=UPMC%20CHILDRENS%20HOSPITAL%20OF%20PITTSBURGH%2C4401%20PENN%20AVENUE%2C+PITTSBURGH%2C+PA+15224,
UPMC NORTHWEST,100 FAIRFIELD DRIVE,"SENECA, PA 16346",http://maps.google.com/maps?q=UPMC%20NORTHWEST%2C100%20FAIRFIELD%20DRIVE%2C+SENECA%2C+PA+16346,
UPMC PRESBYTERIAN SHADYSIDE,PHARMACY DEPT/SHADYSIDE CAMPUS,5230 CENTRE AVENUE,"PITTSBURGH, PA 15232",http://maps.google.com/maps?q=UPMC%20PRESBYTERIAN%20SHADYSIDE%2CPHARMACY%20DEPT/SHADYSIDE%20CAMPUS%2C+PITTSBURGH%2C+PA+15232
US ARMY- FT DETRICK HEALTH CLINIC,1434 PORTER STREET,FORT DETRICK,"FREDERICK, MD 21702",http://maps.google.com/maps?q=US%20ARMY%20FT%20DETRICK%20HEALTH%20CLINIC%2C1434%20PORTER%20STREET%2C+FREDERICK%2C+MD+21702
WALGREEN CO.,101 FORBES DR.,"MARTINSBURG, WV 25404",http://maps.google.com/maps?q=WALGREEN%20CO%2C101%20FORBES%20DR.%2C+MARTINSBURG%2C+WV+25404,
WALGREEN CO.,1240 W. MAIN ST.,"BRIDGEPORT, WV 26330",http://maps.google.com/maps?q=WALGREEN%20CO%2C1240%20W.%20MAIN%20ST.%2C+BRIDGEPORT%2C+WV+26330,
WALGREEN CO.,2012 S UNION,"ALLIANCE, OH 44601",http://maps.google.com/maps?q=WALGREEN%20CO%2C2012%20S%20UNION%2C+ALLIANCE%2C+OH+44601,
WALGREEN CO.,40 FLOWING SPRINGS WAY,"CHARLES TOWN, WV 25414",http://maps.google.com/maps?q=WALGREEN%20CO%2C40%20FLOWING%20SPRINGS%20WAY%2C+CHARLES%20TOWN%2C+WV+25414,
WALGREEN CO.,7295 MARKET ST.,"BOARDMAN, OH 44512",http://maps.google.com/maps?q=WALGREEN%20CO%2C7295%20MARKET%20ST.%2C+BOARDMAN%2C+OH+44512,
WALGREEN CO.,897 CHESTNUT RIDGE RD,"MORGANTOWN, WV 26505",http://maps.google.com/maps?q=WALGREEN%20CO%2C897%20CHESTNUT%20RIDGE%20RD%2C+MORGANTOWN%2C+WV+26505,
"WALGREEN EASTERN CO., INC.",280 NEW CASTLE RD.,"BUTLER, PA 16001",http://maps.google.com/maps?q=WALGREEN%20EASTERN%20CO%20INC%2C280%20NEW%20CASTLE%20RD.%2C+BUTLER%2C+PA+16001,
"WALGREEN EASTERN CO., INC.",508 E. PLANK RD.,"ALTOONA, PA 16602",http://maps.google.com/maps?q=WALGREEN%20EASTERN%20CO%20INC%2C508%20E.%20PLANK%20RD.%2C+ALTOONA%2C+PA+16602,
WARDENSVILLE PHARMACY,333 EAST MAIN ST,P.O. BOX 97,"WARDENSVILLE, WV 26851",http://maps.google.com/maps?q=WARDENSVILLE%20PHARMACY%2C333%20EAST%20MAIN%20ST%2C+WARDENSVILLE%2C+WV+26851
WEIS PHARMACY #176,4521 WILLIAM PENN HIGHWAY,"MIFFLINTOWN, PA 17059",http://maps.google.com/maps?q=WEIS%20PHARMACY%2C4521%20WILLIAM%20PENN%20HIGHWAY%2C+MIFFLINTOWN%2C+PA+17059,
WELLSPAN PHARMACY,4910B FAIRFIELD ROAD,"FAIRFIELD, PA 17320",http://maps.google.com/maps?q=WELLSPAN%20PHARMACY%2C4910B%20FAIRFIELD%20ROAD%2C+FAIRFIELD%2C+PA+17320,
"WEST VIRGINIA CVS PHARMACY, L.L.C.",1000 PINEVIEW DRIVE,"MORGANTOWN, WV 26505",http://maps.google.com/maps?q=WEST%20VIRGINIA%20CVS%20PHARMACY%20LLC%2C1000%20PINEVIEW%20DRIVE%2C+MORGANTOWN%2C+WV+26505,
"WEST VIRGINIA CVS PHARMACY, L.L.C.",701 E. MAIN STREET,"CLARKSBURG, WV 26301",http://maps.google.com/maps?q=WEST%20VIRGINIA%20CVS%20PHARMACY%20LLC%2C701%20E.%20MAIN%20STREET%2C+CLARKSBURG%2C+WV+26301,
WESTMORELAND REGIONAL HOSP,532 W PITTSBURGH ST,"GREENSBURG, PA 15601",http://maps.google.com/maps?q=WESTMORELAND%20REGIONAL%20HOSP%2C532%20W%20PITTSBURGH%20ST%2C+GREENSBURG%2C+PA+15601,
WITSCHEY'SPHARMACY,155 NORTH STREET,"NEW MARTINSVILLE, WV 26155",http://maps.google.com/maps?q=WITSCHEYSPHARMACY%2C155%20NORTH%20STREET%2C+NEW%20MARTINSVILLE%2C+WV+26155,
WV UNIVERSITY HOSPITALS INC,1 MEDICAL CENTER DR,"MORGANTOWN, WV 26506",http://maps.google.com/maps?q=WV%20UNIVERSITY%20HOSPITALS%20INC%2C1%20MEDICAL%20CENTER%20DR%2C+MORGANTOWN%2C+WV+26506,
WV UNIVERSITY HOSPITALS INC.,390 BIRCH STREET,"MORGANTOWN, WV 26505",http://maps.google.com/maps?q=WV%20UNIVERSITY%20HOSPITALS%20INC%2C390%20BIRCH%20STREET%2C+MORGANTOWN%2C+WV+26505,
