Business Name,Address 1,Address 2,"City, State Zip",Map URL
ALL CARE HEALTH CENTER,902 S 6TH ST,"COUNCIL BLUFFS, IA 51501",http://maps.google.com/maps?q=ALL%20CARE%20HEALTH%20CENTER%2C902%20S%206TH%20ST%2C+COUNCIL%20BLUFFS%2C+IA+51501,
ATCHISON HOSPITAL ASSOCIATION,800 RAVEN HILL DRIVE,"ATCHISON, KS 66002",http://maps.google.com/maps?q=ATCHISON%20HOSPITAL%20ASSOCIATION%2C800%20RAVEN%20HILL%20DRIVE%2C+ATCHISON%2C+KS+66002,
BEDFORD DRUG,"419 MAIN ST., PO BOX 66","BEDFORD, IA 50833",http://maps.google.com/maps?q=BEDFORD%20DRUG%2C419%20MAIN%20ST.%2C%20PO%20BOX%2066%2C+BEDFORD%2C+IA+50833,
CHI HEALTH PHARMACY WEST BROADWAY,3135 W BROADWAY,SUITE 101,"COUNCIL BLUFFS, IA 51501",http://maps.google.com/maps?q=CHI%20HEALTH%20PHARMACY%20WEST%20BROADWAY%2C3135%20W%20BROADWAY%2C+COUNCIL%20BLUFFS%2C+IA+51501
CHI HEALTH ST MARY'S,1301 GRUNDMAN BLVD,"NEBRASKA CITY, NE 68410",http://maps.google.com/maps?q=CHI%20HEALTH%20ST%20MARYS%2C1301%20GRUNDMAN%20BLVD%2C+NEBRASKA%20CITY%2C+NE+68410,
CLABAUGH PHARMACY INC.,501 COURT STREET,"BEATRICE, NE 68310",http://maps.google.com/maps?q=CLABAUGH%20PHARMACY%20INC%2C501%20COURT%20STREET%2C+BEATRICE%2C+NE+68310,
COMMUNITY MEDICAL CENTER INC,3307 BARADA ST,PO BOX 399,"FALLS CITY, NE 68355",http://maps.google.com/maps?q=COMMUNITY%20MEDICAL%20CENTER%20INC%2C3307%20BARADA%20ST%2C+FALLS%20CITY%2C+NE+68355
"DOTZLER PHARMACIES, INC.",DBA PEXTON PHARMACY,1812 CHATBURN PLAZA,"HARLAN, IA 51537",http://maps.google.com/maps?q=DOTZLER%20PHARMACIES%20INC%2CDBA%20PEXTON%20PHARMACY%2C+HARLAN%2C+IA+51537
EBY DRUG STORE LOGAN INC,103 NORTH 4TH AVE,P O BOX 187,"LOGAN, IA 51546",http://maps.google.com/maps?q=EBY%20DRUG%20STORE%20LOGAN%20INC%2C103%20NORTH%204TH%20AVE%2C+LOGAN%2C+IA+51546
ELMWOOD PHARMACY,808 S. 52ND,"OMAHA, NE 68106",http://maps.google.com/maps?q=ELMWOOD%20PHARMACY%2C808%20S.%2052ND%2C+OMAHA%2C+NE+68106,
HY-VEE PHARMACY (1619),500 S. FREMONT STREET,"SHENANDOAH, IA 51601",http://maps.google.com/maps?q=HYVEE%20PHARMACY%2C500%20S.%20FREMONT%20STREET%2C+SHENANDOAH%2C+IA+51601,
"HY-VEE, INC.",625 DAVIS AVE,"CORNING, IA 50841",http://maps.google.com/maps?q=HYVEE%20INC%2C625%20DAVIS%20AVE%2C+CORNING%2C+IA+50841,
INDIAN HEALTH CENTER CLINIC,3349 B THRASHER ROAD,"WHITE CLOUD, KS 66094",http://maps.google.com/maps?q=INDIAN%20HEALTH%20CENTER%20CLINIC%2C3349%20B%20THRASHER%20ROAD%2C+WHITE%20CLOUD%2C+KS+66094,
JOHNSON COUNTY HOSPITAL,202 HIGH STREET,P.O. BOX 599,"TECUMSEH, NE 68450",http://maps.google.com/maps?q=JOHNSON%20COUNTY%20HOSPITAL%2C202%20HIGH%20STREET%2C+TECUMSEH%2C+NE+68450
KOECHNER PHARMACIES LLC,807 MAIN STREET,"ATCHISON, KS 66002",http://maps.google.com/maps?q=KOECHNER%20PHARMACIES%20LLC%2C807%20MAIN%20STREET%2C+ATCHISON%2C+KS+66002,
KOHLL'S PHARMACY & HOMECARE,12739 Q STREET,"OMAHA, NE 68137",http://maps.google.com/maps?q=KOHLLS%20PHARMACY%20%20HOMECARE%2C12739%20Q%20STREET%2C+OMAHA%2C+NE+68137,
KOHLL'S PHARMACY & HOMECARE,5000 DODGE STREET,"OMAHA, NE 68132",http://maps.google.com/maps?q=KOHLLS%20PHARMACY%20%20HOMECARE%2C5000%20DODGE%20STREET%2C+OMAHA%2C+NE+68132,
KOHLL'S PHARMACY & HOMECARE,800 N 27TH ST,"LINCOLN, NE 68503",http://maps.google.com/maps?q=KOHLLS%20PHARMACY%20%20HOMECARE%2C800%20N%2027TH%20ST%2C+LINCOLN%2C+NE+68503,
KOHLL/RXMPSS,5110 L STREET,"OMAHA, NE 68117",http://maps.google.com/maps?q=KOHLLRXMPSS%2C5110%20L%20STREET%2C+OMAHA%2C+NE+68117,
MANNING PHARMACY,317 MAIN,"MANNING, IA 51455",http://maps.google.com/maps?q=MANNING%20PHARMACY%2C317%20MAIN%2C+MANNING%2C+IA+51455,
MANNING REGIONAL HLTHCARE CTR,1550 SIXTH ST,"MANNING, IA 51455",http://maps.google.com/maps?q=MANNING%20REGIONAL%20HLTHCARE%20CTR%2C1550%20SIXTH%20ST%2C+MANNING%2C+IA+51455,
NE MEDICAL CTR CLINIC PHARM,989200 NEBRASKA MEDICAL CTR,"OMAHA, NE 68198",http://maps.google.com/maps?q=NE%20MEDICAL%20CTR%20CLINIC%20PHARM%2C989200%20NEBRASKA%20MEDICAL%20CTR%2C+OMAHA%2C+NE+68198,
NEIGHBORHOOD LTC PHARMACY,5115 S 111TH ST,"OMAHA, NE 68137",http://maps.google.com/maps?q=NEIGHBORHOOD%20LTC%20PHARMACY%2C5115%20S%20111TH%20ST%2C+OMAHA%2C+NE+68137,
NEIGHBORHOOD LTC PHARMACY INC.,"5625 O ST, SUITE 101","LINCOLN, NE 68510",http://maps.google.com/maps?q=NEIGHBORHOOD%20LTC%20PHARMACY%20INC%2C5625%20O%20ST%2C%20SUITE%20101%2C+LINCOLN%2C+NE+68510,
NEMAHA COUNTY HOSPITAL,2022 13TH STREET,"AUBURN, NE 68305",http://maps.google.com/maps?q=NEMAHA%20COUNTY%20HOSPITAL%2C2022%2013TH%20STREET%2C+AUBURN%2C+NE+68305,
RELYCARE PHARMACY LINCOLN,1221 N. COTNER BLVD,SUITE 1,"LINCOLN, NE 68505",http://maps.google.com/maps?q=RELYCARE%20PHARMACY%20LINCOLN%2C1221%20N.%20COTNER%20BLVD%2C+LINCOLN%2C+NE+68505
REX PHARMACY INC,507 CHESTNUT STREET,"ATLANTIC, IA 50022",http://maps.google.com/maps?q=REX%20PHARMACY%20INC%2C507%20CHESTNUT%20STREET%2C+ATLANTIC%2C+IA+50022,
S & S DRUG INC,110 S MILL ST,PO BOX 525,"BELOIT, KS 67420",http://maps.google.com/maps?q=S%20%20S%20DRUG%20INC%2C110%20S%20MILL%20ST%2C+BELOIT%2C+KS+67420
S-S PHARMACY,235 WEST BROADWAY,"COUNCIL BLUFFS, IA 51503",http://maps.google.com/maps?q=SS%20PHARMACY%2C235%20WEST%20BROADWAY%2C+COUNCIL%20BLUFFS%2C+IA+51503,
SHOPKO PHARMACY #2677,2220 HWY 175,"ONAWA, IA 51040",http://maps.google.com/maps?q=SHOPKO%20PHARMACY%2C2220%20HWY%20175%2C+ONAWA%2C+IA+51040,
SHOPKO PHARMACY #2686,902 S LOCUST ST,"GLENWOOD, IA 51534",http://maps.google.com/maps?q=SHOPKO%20PHARMACY%2C902%20S%20LOCUST%20ST%2C+GLENWOOD%2C+IA+51534,
SMITH COUNTY MEMORIAL HOSPITAL PHARMACY,921 E HIGHWAY 36,"SMITH CENTER, KS 66967",http://maps.google.com/maps?q=SMITH%20COUNTY%20MEMORIAL%20HOSPITAL%20PHARMACY%2C921%20E%20HIGHWAY%2036%2C+SMITH%20CENTER%2C+KS+66967,
SOUTHEAST NEBRASKA HEMATOLOGY AND ONCOLOGY CONS PC,201 S 68TH STREET PLACE,SUITE 200,"LINCOLN, NE 68510",http://maps.google.com/maps?q=SOUTHEAST%20NEBRASKA%20HEMATOLOGY%20AND%20ONCOLOGY%20CONS%20PC%2C201%20S%2068TH%20STREET%20PLACE%2C+LINCOLN%2C+NE+68510
STANGEL PHARMACY INC,821 IOWA AVE,"ONAWA, IA 51040",http://maps.google.com/maps?q=STANGEL%20PHARMACY%20INC%2C821%20IOWA%20AVE%2C+ONAWA%2C+IA+51040,
SUPER SAVER PHARMACY,1141 NORTH BROADWAY,"COUNCIL BLUFFS, IA 51503",http://maps.google.com/maps?q=SUPER%20SAVER%20PHARMACY%2C1141%20NORTH%20BROADWAY%2C+COUNCIL%20BLUFFS%2C+IA+51503,
THE NEBRASKA MEDICAL CENTER BELLEVUE PHARMACY,2510 BELLEVUE MEDICAL CENTER DR,STE 100,"BELLEVUE, NE 68123",http://maps.google.com/maps?q=THE%20NEBRASKA%20MEDICAL%20CENTER%20BELLEVUE%20PHARMACY%2C2510%20BELLEVUE%20MEDICAL%20CENTER%20DR%2C+BELLEVUE%2C+NE+68123
THRIFTY WHITE DRUG #56,1320 BROADWAY,"DENISON, IA 51442",http://maps.google.com/maps?q=THRIFTY%20WHITE%20DRUG%2C1320%20BROADWAY%2C+DENISON%2C+IA+51442,
TRAV'S U-SAVE PHARMACY,1414 16TH ST,"CENTRAL CITY, NE 68826",http://maps.google.com/maps?q=TRAVS%20USAVE%20PHARMACY%2C1414%2016TH%20ST%2C+CENTRAL%20CITY%2C+NE+68826,
U-SAVE PHARMACY,1821 S. 11TH ST.,"NEBRASKA CITY, NE 68410",http://maps.google.com/maps?q=USAVE%20PHARMACY%2C1821%20S.%2011TH%20ST.%2C+NEBRASKA%20CITY%2C+NE+68410,
UNIV HEALTH CENTER PHARMACY,550 N 19TH STREET,"LINCOLN, NE 68508",http://maps.google.com/maps?q=UNIV%20HEALTH%20CENTER%20PHARMACY%2C550%20N%2019TH%20STREET%2C+LINCOLN%2C+NE+68508,
US ARMY - MUNSON  HEALTH CENTER,PHARMACY SERVICES,550 POPE AVE,"FT LEAVENWORTH, KS 66027",http://maps.google.com/maps?q=US%20ARMY%20%20MUNSON%20%20HEALTH%20CENTER%2CPHARMACY%20SERVICES%2C+FT%20LEAVENWORTH%2C+KS+66027
USAF- OFFUTT AFB,"2501 CAPEHART RD, STE I105",ATTN:LOGISTICS VAULT CUSTODIAN,"OFFUTT AFB, NE 68113",http://maps.google.com/maps?q=USAF%20OFFUTT%20AFB%2C2501%20CAPEHART%20RD%2C%20STE%20I105%2C+OFFUTT%20AFB%2C+NE+68113
USAF-OFFUTT,502 CUSTER DRIVE,ATTN: LOGISTICS VAULT CUSTODIAN,"OFFUTT AFB, NE 68113",http://maps.google.com/maps?q=USAFOFFUTT%2C502%20CUSTER%20DRIVE%2C+OFFUTT%20AFB%2C+NE+68113
VIA RX,825 N 90TH ST,"OMAHA, NE 68114",http://maps.google.com/maps?q=VIA%20RX%2C825%20N%2090TH%20ST%2C+OMAHA%2C+NE+68114,
WALGREEN CO.,13155 W CENTER RD,"OMAHA, NE 68144",http://maps.google.com/maps?q=WALGREEN%20CO%2C13155%20W%20CENTER%20RD%2C+OMAHA%2C+NE+68144,
WALGREEN CO.,1701 SOUTH ST,"LINCOLN, NE 68502",http://maps.google.com/maps?q=WALGREEN%20CO%2C1701%20SOUTH%20ST%2C+LINCOLN%2C+NE+68502,
WALGREEN CO.,2320 23RD ST,"COLUMBUS, NE 68601",http://maps.google.com/maps?q=WALGREEN%20CO%2C2320%2023RD%20ST%2C+COLUMBUS%2C+NE+68601,
WALGREEN CO.,2508 W BROADWAY,"COUNCIL BLUFFS, IA 51501",http://maps.google.com/maps?q=WALGREEN%20CO%2C2508%20W%20BROADWAY%2C+COUNCIL%20BLUFFS%2C+IA+51501,
WALGREEN CO.,2605 S 171ST ST,"OMAHA, NE 68130",http://maps.google.com/maps?q=WALGREEN%20CO%2C2605%20S%20171ST%20ST%2C+OMAHA%2C+NE+68130,
WALGREEN CO.,3701 N. 132ND STREET,"OMAHA, NE 68164",http://maps.google.com/maps?q=WALGREEN%20CO%2C3701%20N.%20132ND%20STREET%2C+OMAHA%2C+NE+68164,
WALGREEN CO.,5038 CENTER ST.,"OMAHA, NE 68106",http://maps.google.com/maps?q=WALGREEN%20CO%2C5038%20CENTER%20ST.%2C+OMAHA%2C+NE+68106,
WALGREEN CO.,535 E. BROADWAY,"COUNCIL BLUFFS, IA 51503",http://maps.google.com/maps?q=WALGREEN%20CO%2C535%20E.%20BROADWAY%2C+COUNCIL%20BLUFFS%2C+IA+51503,
WALGREEN CO.,7045 O STREET,"LINCOLN, NE 68510",http://maps.google.com/maps?q=WALGREEN%20CO%2C7045%20O%20STREET%2C+LINCOLN%2C+NE+68510,
WALGREEN CO.,9001 BLONDO STREET,"OMAHA, NE 68134",http://maps.google.com/maps?q=WALGREEN%20CO%2C9001%20BLONDO%20STREET%2C+OMAHA%2C+NE+68134,
MAIER FAMILY PHARMACY,411 MAIN STREET,"MAPLETON, IA 51034",http://maps.google.com/maps?q=MAIER%20FAMILY%20PHARMACY%2C411%20MAIN%20STREET%2C+MAPLETON%2C+IA+51034,
USPHS INDIAN HOSPITAL,U.S. HIGHWAY 77,"WINNEBAGO, NE 68071",http://maps.google.com/maps?q=USPHS%20INDIAN%20HOSPITAL%2CU.S.%20HIGHWAY%2077%2C+WINNEBAGO%2C+NE+68071,
SERGEANT BLUFF PHARMACY,"105 GAUL DR, SUITE A","SERGEANT BLUFF, IA 51054",http://maps.google.com/maps?q=SERGEANT%20BLUFF%20PHARMACY%2C105%20GAUL%20DR%2C%20SUITE%20A%2C+SERGEANT%20BLUFF%2C+IA+51054,
