Participant,CollectionSite,Address,City,State,Zip,MapURL
ALBEMARLE COUNTY POLICE DEPARTMENT,MARTHA JEFFERSON HOSPITAL BACKSIDE OF MAIN HOSPITAL,500 MARTHA JEFFERSON DRIVE,CHARLOTTESVILLE,VA,22911,"http://maps.google.com/maps?q=500 MARTHA JEFFERSON DRIVE,+CHARLOTTESVILLE,+VA+22911&hl=en"
ALBEMARLE COUNTY POLICE DEPARTMENT,WEGMANS,100 WEGMANS WAY,CHARLOTTESVILLE,VA,22902,"http://maps.google.com/maps?q=100 WEGMANS WAY,+CHARLOTTESVILLE,+VA+22902&hl=en"
ALLEGHANY COUNTY SHERIFF'S OFFICE,CVS/KROGER CLIFTON FORGE,1618 MAIN ST,CLIFTON FORGE,VA,24422,"http://maps.google.com/maps?q=1618 MAIN ST,+CLIFTON FORGE,+VA+24422&hl=en"
ALLEGHANY COUNTY SHERIFF'S OFFICE,WALMART SUPERCENTER,313 W. THACKER RD,COVINGTON,VA,24426,"http://maps.google.com/maps?q=313 W. THACKER RD,+COVINGTON,+VA+24426&hl=en"
AMHERST COUNTY SHERIFF'S OFFICE,AMHERST COUNTY SHERIFF'S OFFICE PHONE NUMBER 434-946-9381,115 TAYLOR ST,AMHERST,VA,24521,"http://maps.google.com/maps?q=115 TAYLOR ST,+AMHERST,+VA+24521&hl=en"
APPOMATTOX COUNTY SHERIFF'S OFFICE,HOMETOWN PHARMACY,199 OLD COURTHOUSE ROAD,APPOMATTOX,VA,24522,"http://maps.google.com/maps?q=199 OLD COURTHOUSE ROAD,+APPOMATTOX,+VA+24522&hl=en"
ASHE COUNTY SHERIFF'S OFFICE,CVS PHARMACY,2 CRESCENT DRIVE,WEST JEFFERSON,NC,28694,"http://maps.google.com/maps?q=2 CRESCENT DRIVE,+WEST JEFFERSON,+NC+28694&hl=en"
ASHE COUNTY SHERIFF'S OFFICE,FOOD LION,733 E MAIN STREET,JEFFERSON,NC,28640,"http://maps.google.com/maps?q=733 E MAIN STREET,+JEFFERSON,+NC+28640&hl=en"
ASHE COUNTY SHERIFF'S OFFICE,WARRENSVILLE DRUG,5121 NC HIGHWAY 88 W,WARRENSVILLE,NC,28693,"http://maps.google.com/maps?q=5121 NC HIGHWAY 88 W,+WARRENSVILLE,+NC+28693&hl=en"
ASHLAND KY POLICE,ASHLAND KY POLICE,201 17TH STREET,ASHLAND,KY,41101,"http://maps.google.com/maps?q=201 17TH STREET,+ASHLAND,+KY+41101&hl=en"
BAILEYTON POLICE DEPT.,BAILEYTON POLICE DEPT.,6530 HORTON HWY,GREENEVILLE,TN,37745,"http://maps.google.com/maps?q=6530 HORTON HWY,+GREENEVILLE,+TN+37745&hl=en"
BARBOUR COUNTY SHERIFF'S OFFICE,MACES PHARMACY,204 CRIM AVENUE,BELINGTON,WV,26250,"http://maps.google.com/maps?q=204 CRIM AVENUE,+BELINGTON,+WV+26250&hl=en"
BARBOUR COUNTY SHERIFF'S OFFICE,MACES PHARMACY,440 S MAIN ST,PHILIPPI,WV,26416,"http://maps.google.com/maps?q=440 S MAIN ST,+PHILIPPI,+WV+26416&hl=en"
BECKLEY POLICE DEPARTMENT,RALEIGH COUNTY COMMISSION ON AGING,1614 SOUTH KANAWHA STREET,BECKLEY,WV,25801,"http://maps.google.com/maps?q=1614 SOUTH KANAWHA STREET,+BECKLEY,+WV+25801&hl=en"
BIG STONE GAP POLICE DEPARTMENT,FOOD CITY,603 WOOD AVE W,BIG STONE GAP,VA,24219,"http://maps.google.com/maps?q=603 WOOD AVE W,+BIG STONE GAP,+VA+24219&hl=en"
BLACKSBURG POLICE DEPARTMENT,BLACKSBURG RECREATION CENTER PARKING LOT,725 PATRICK HENRY DRIVE,BLACKSBURG,VA,24060,"http://maps.google.com/maps?q=725 PATRICK HENRY DRIVE,+BLACKSBURG,+VA+24060&hl=en"
BOONE COUNTY SHERIFF'S OFFICE,BOONE COUNTY SHERIFF'S OFFICE COUNTY COURTHOUSE,200 STATE STREET,MADISON,WV,25130,"http://maps.google.com/maps?q=200 STATE STREET,+MADISON,+WV+25130&hl=en"
BOONE COUNTY SHERIFF'S OFFICE,JOHN SLACK PARK SHERIFF W WHITE,SR#3GENERAL DELIVERY,RACINE,WV,25165,"http://maps.google.com/maps?q=SR#3,+RACINE,+WV+25165&hl=en"
BOTETOURT COUNTY SHERIFF'S OFFICE,KROGER DALEVILLE,72 KINGSTON DRIVE,DALEVILLE,VA,24083,"http://maps.google.com/maps?q=72 KINGSTON DRIVE,+DALEVILLE,+VA+24083&hl=en"
BRAXTON CO. SHERRI'FS OFFICE,BRAXTON COUNTY COURT HOUSE IN FRONT OF COURTHOUSE,300 MAIN STREET,SUTTON,WV,26601,"http://maps.google.com/maps?q=300 MAIN STREET,+SUTTON,+WV+26601&hl=en"
BRIDGEPORT POLICE DEPARTMENT,BRIDGEPORT POLICE DEPARTMENT DPTY CHIEF R. HARTLEY,515 WEST MAIN STREET,BRIDGEPORT,WV,26330,"http://maps.google.com/maps?q=515 WEST MAIN STREET,+BRIDGEPORT,+WV+26330&hl=en"
BRISTOL SHERIFF'S OFFICE,FOOD CITY NEAR FRONT ENTRANCE,1320 EUCLID AVE,BRISTOL,VA,24201,"http://maps.google.com/maps?q=1320 EUCLID AVE,+BRISTOL,+VA+24201&hl=en"
BRISTOL TENNESSEE POLICE DEPARTMENT,BRISTOL POLICE DEPARTMENT MUNICIPAL PARKING LOT,801 ANDERSON STREET,BRISTOL,TN,37620,"http://maps.google.com/maps?q=801 ANDERSON STREET,+BRISTOL,+TN+37620&hl=en"
BUCHANAN COUNTY SHERIFF'S OFFICE,FOOD CITY PHARMACY VANSANT FOOD CITY,18765 RIVERSIDE DRIVE,VANSANT,VA,24656,"http://maps.google.com/maps?q=18765 RIVERSIDE DRIVE,+VANSANT,+VA+24656&hl=en"
BUENA VISTA POLICE DEPARTMENT,CVS PHARMACY EXTERIOR BREEZEWAY,2148 E. MIDLAND TRAIL,BUENA VISTA,VA,24416,"http://maps.google.com/maps?q=2148 E. MIDLAND TRAIL,+BUENA VISTA,+VA+24416&hl=en"
CABELL COUNTY SHERIFF,DRUG EMPORIUM,3 MALL ROAD,BARBOURSVILLE,WV,25504,"http://maps.google.com/maps?q=3 MALL ROAD,+BARBOURSVILLE,+WV+25504&hl=en"
CALHOUN COUNTY SHERIFF,CALHOUN COUNTY SHERIFF,363 MAIN STSTE 204,GRANTSVILLE,WV,26147,"http://maps.google.com/maps?q=363 MAIN ST,+GRANTSVILLE,+WV+26147&hl=en"
CAMERON POLICE DEPARTMENT,CAMERON POLICE DEPARTMENT,44 MAIN STREET,CAMERON,WV,26033,"http://maps.google.com/maps?q=44 MAIN STREET,+CAMERON,+WV+26033&hl=en"
CARROLL COUNTY SHERIFF'S OFFICE,CVS PHARMACY - HILLSVILLE,915 WEST STUART DRIVE,HILLSVILLE,VA,24343,"http://maps.google.com/maps?q=915 WEST STUART DRIVE,+HILLSVILLE,+VA+24343&hl=en"
CARTER COUNTY SO,CARTER COUNTY SHERIFF'S OFFICE- LOBBY DRUG DROP BOX IN DETENTION CENTER LOBBY,900 3RD STREET,ELIZABETHTON,TN,37643,"http://maps.google.com/maps?q=900 3RD STREET,+ELIZABETHTON,+TN+37643&hl=en"
CARTER COUNTY SO,ELIZABETHTON POLICE DEPT,525 E F STREET,ELIZABETHTON,TN,37643,"http://maps.google.com/maps?q=525 E F STREET,+ELIZABETHTON,+TN+37643&hl=en"
CEREDO WV POLICE DEPT,CEREDO PD,766 B STREET,CEREDO,WV,25507,"http://maps.google.com/maps?q=766 B STREET,+CEREDO,+WV+25507&hl=en"
CHARLESTON POLICE DEPARTMENT,DOWNTOWN CHARLESTON YMCA,1114 QUARRIER ST,CHARLESTON,WV,25301,"http://maps.google.com/maps?q=1114 QUARRIER ST,+CHARLESTON,+WV+25301&hl=en"
CHARLESTON POLICE DEPARTMENT,DRUG EMPORIUM,1603 KANAWHA BLVDWEST,CHARLESTON,WV,25302,"http://maps.google.com/maps?q=1603 KANAWHA BLVDWEST,+CHARLESTON,+WV+25302&hl=en"
CHARLESTON POLICE DEPARTMENT,PIGGLY WIGGLY PARKING LOT,5003 MACCORKLE AVENUE SE,CHARLESTON,WV,25304,"http://maps.google.com/maps?q=5003 MACCORKLE AVENUE SE,+CHARLESTON,+WV+25304&hl=en"
CHARLESTON POLICE DEPARTMENT,RITE AID BRIDGE ROAD,1015 BRIDGE ROAD,CHARLESTON,WV,25314,"http://maps.google.com/maps?q=1015 BRIDGE ROAD,+CHARLESTON,+WV+25314&hl=en"
CHARLESTON POLICE DEPARTMENT,UNIV. OF CHARLESTON ROBERT C. BYRD SCHOOL OF PHARMACY,2300 MACCORKLE AVE,CHARLESTON,WV,25304,"http://maps.google.com/maps?q=2300 MACCORKLE AVE,+CHARLESTON,+WV+25304&hl=en"
CHARLESTON POLICE DEPARTMENT,WALGREENS DRUGSTORE PARKING LOT,655 WASHINGTON STREET W,CHARLESTON,WV,25302,"http://maps.google.com/maps?q=655 WASHINGTON STREET W,+CHARLESTON,+WV+25302&hl=en"
CHILHOWIE POLICE DEPARTMENT,GREEVER'S DRUG STORE INC.,106 WEST LEE HIGHWAY,CHILHOWIE,VA,24319,"http://maps.google.com/maps?q=106 WEST LEE HIGHWAY,+CHILHOWIE,+VA+24319&hl=en"
CHRISTIANSBURG POLICE DEPARTMENT,CVS PHARMACY PARKING LOT NEAR ENTRANCE,550 NORTH FRANKLIN ST,CHRISTIANSBURG,VA,24073,"http://maps.google.com/maps?q=550 NORTH FRANKLIN ST,+CHRISTIANSBURG,+VA+24073&hl=en"
CLARKSBURG POLICE DEPARTMENT,CLARKSBURG POLICE DEPARTMENT,222 WEST MAIN STREETREAR LOT,CLARKSBURG,WV,26301,"http://maps.google.com/maps?q=222 WEST MAIN STREET,+CLARKSBURG,+WV+26301&hl=en"
CLAY COUNTY SHERIFF DEPT.,CLAY COUNTY COURT HOUSE FRONT DOOR/COURTYARD SQUARE,246 MAIN STREET,CLAY,WV,25043,"http://maps.google.com/maps?q=246 MAIN STREET,+CLAY,+WV+25043&hl=en"
COEBURN POLICE DEPARTMENT,COEBURN FOOD CITY MARTY SHOPPING CENTER,517 FRONT ST W,COEBURN,VA,24230,"http://maps.google.com/maps?q=517 FRONT ST W,+COEBURN,+VA+24230&hl=en"
CRAIG COUNTY SHERIFF'S OFFICE,MARKET STREET PHARMACY PARKING LOT,317 MARKET ST,NEW CASTLE,VA,24127,"http://maps.google.com/maps?q=317 MARKET ST,+NEW CASTLE,+VA+24127&hl=en"
DAMASCUS POLICE DEPARTMENT,DAMASCUS TOWN PARK,104 S BEAVER DAM AVE,DAMASCUS,VA,24236,"http://maps.google.com/maps?q=104 S BEAVER DAM AVE,+DAMASCUS,+VA+24236&hl=en"
DANVILLE POLICE DEPARTMENT,CENTRA MEDICAL GROUP DANVILLE PARKING LOT - WEST END OF THE BUILDING,414 PARK AVE,DANVILLE,VA,24541,"http://maps.google.com/maps?q=414 PARK AVE,+DANVILLE,+VA+24541&hl=en"
DICKENSON COUNTY SHERIFF'S OFFICE,FOOD CITY NEAR THE FRONT ENTRANCE,410 CHASE STREET,CLINTWOOD,VA,24228,"http://maps.google.com/maps?q=410 CHASE STREET,+CLINTWOOD,+VA+24228&hl=en"
DODDRIDGE COUNTY SHERIFF'S DEPARTMENT,DODDRIDGE CTY SD,89 COURT ST,WEST UNION,WV,26456,"http://maps.google.com/maps?q=89 COURT ST,+WEST UNION,+WV+26456&hl=en"
DUBLIN POLICE DEPARTMENT,CVS PHARMACY #7658,100 GILES AVENUE,DUBLIN,VA,24084,"http://maps.google.com/maps?q=100 GILES AVENUE,+DUBLIN,+VA+24084&hl=en"
ELIZABETHTON TN POLICE DEPARTMENT,ELIZABETHTON POLICE DEPARTMENT,525 EAST F STREET,ELIZABETHTON,TN,37643,"http://maps.google.com/maps?q=525 EAST F STREET,+ELIZABETHTON,+TN+37643&hl=en"
ELKIN POLICE DEPARTMENT,WALGREENS COLLECTION WILL BE SET UP IN THE PARKING LOT,1209 N. BRIDGE ST.,ELKIN,NC,28621,"http://maps.google.com/maps?q=1209 N. BRIDGE ST.,+ELKIN,+NC+28621&hl=en"
FAIRMONT POLICE DEPARTMENT,FAIRMONT POLICE DEPARTMENT PUBLIC SAFETY BUILDING,500 QUINCY STREET,FAIRMONT,WV,26554,"http://maps.google.com/maps?q=500 QUINCY STREET,+FAIRMONT,+WV+26554&hl=en"
FAYETTE COUNTY SHERIFF'S OFFICE,FAYETTE COUNTY SHERIFF'S OFFICE,100 CHURCH STREET,FAYETTEVILLE,WV,25840,"http://maps.google.com/maps?q=100 CHURCH STREET,+FAYETTEVILLE,+WV+25840&hl=en"
FLOYD COUNTY SHERIFF'S OFFICE,FLOYD COUNTY SHERIFF'S OFFICE MAIN ENTRANCE,100 MAIN STREET,FLOYD,VA,24091,"http://maps.google.com/maps?q=100 MAIN STREET,+FLOYD,+VA+24091&hl=en"
FLUVANNA COUNTY SHERIFF'S OFFICE,JEFFERSON PHARMACY,194 B TURKEY SAG TRAIL,PALMYRA,VA,22963,"http://maps.google.com/maps?q=194 B TURKEY SAG TRAIL,+PALMYRA,+VA+22963&hl=en"
FRANKLIN COUNTY SHERIFF'S OFFICE,FRANKLIN COUNTY SHERIFF'S WESTLAKE SUBSTATION,13205 BOOKER T. WASHINGTON HWY,HARDY,VA,24101,"http://maps.google.com/maps?q=13205 BOOKER T. WASHINGTON HWY,+HARDY,+VA+24101&hl=en"
FREDERICK COUNTY SHERIFF'S OFFICE,FREDERICK COUNTY PUBLIC SAFETY BUILDING,1080 COVERSTONE DRIVE,WINCHESTER,VA,22602,"http://maps.google.com/maps?q=1080 COVERSTONE DRIVE,+WINCHESTER,+VA+22602&hl=en"
FREDERICK COUNTY SHERIFF'S OFFICE,WALGREENS,131 VALLEY MILL ROAD,WINCHESTER,VA,22602,"http://maps.google.com/maps?q=131 VALLEY MILL ROAD,+WINCHESTER,+VA+22602&hl=en"
GALAX POLICE DEPARTMENT,GALAX POLICE DEPARTMENT POLICE DEPARTMENT PARKING LOT,353 N. MAIN STREET,GALAX,VA,24333,"http://maps.google.com/maps?q=353 N. MAIN STREET,+GALAX,+VA+24333&hl=en"
GARRETT COUNTY SHERIFF'S OFFICE,GARRETT COUNTY SHERIFF'S OFFICE POC ROB CORELY,311 EAST ALDER STREET,OAKLAND,MD,21550,"http://maps.google.com/maps?q=311 EAST ALDER STREET,+OAKLAND,+MD+21550&hl=en"
GILES COUNTY SHERIFF'S OFFICE,GILES COUNTY SHERIFF'S OFFICE,1 TAYLOR AVENUE SUITE 3,PEARISBURG,VA,24134,"http://maps.google.com/maps?q=1 TAYLOR AVENUE SUITE 3,+PEARISBURG,+VA+24134&hl=en"
GRAFTON POLICE DEPARTMENT,GRAFTON POLICE DEPARTMENT,1 WEST MAIN ST,GRAFTON,WV,26354,"http://maps.google.com/maps?q=1 WEST MAIN ST,+GRAFTON,+WV+26354&hl=en"
GRAYSON COUNTY SHERIFF'S OFFICE,CORNER CAFE & MARKET,4013 TROUTDALE HIGHWAY,MOUTH OF WILSON,VA,24363,"http://maps.google.com/maps?q=4013 TROUTDALE HIGHWAY,+MOUTH OF WILSON,+VA+24363&hl=en"
GRAYSON COUNTY SHERIFF'S OFFICE,FRIES FIRE DEPARTMENT,832 EAST MAIN STREET,FRIES,VA,24330,"http://maps.google.com/maps?q=832 EAST MAIN STREET,+FRIES,+VA+24330&hl=en"
GREENE COUNTY SHERIFF'S DEPT.,SOUTH GREENE HIGH SCHOOL PARKING LOT,7469 ASHEVILLE HWY.,GREENEVILLE,TN,37743,"http://maps.google.com/maps?q=7469 ASHEVILLE HWY.,+GREENEVILLE,+TN+37743&hl=en"
GREENE COUNTY SHERIFF'S DEPT.,WEST GREENE HIGH SCHOOL PARKING LOT,275 W. GREENE DR.,MOSHEIM,TN,37818,"http://maps.google.com/maps?q=275 W. GREENE DR.,+MOSHEIM,+TN+37818&hl=en"
GREENVILLE POLICE DEPARTMENT,GREENEVILLE POLICE DEPARTMENT,200 N. COLLEGE STREET,GREENEVILLE,TN,37745,"http://maps.google.com/maps?q=200 N. COLLEGE STREET,+GREENEVILLE,+TN+37745&hl=en"
HAMLIN POLICE DEPARTMENT,HAMLIN TOWN HALL,220-1 MAIN ST,HAMLIN,WV,25523,"http://maps.google.com/maps?q=220-1 MAIN ST,+HAMLIN,+WV+25523&hl=en"
HAMPSHIRE COUNTY SHERIFF'S OFFICE,HAMPSHIRE COUNTY SD,66 N HIGH STREET,ROMNEY,WV,26757,"http://maps.google.com/maps?q=66 N HIGH STREET,+ROMNEY,+WV+26757&hl=en"
HARLAN POLICE DEPARTMENT,HARLAN POLICE DEPARTMENT,218 SOUTH MAIN,HARLAN,KY,40831,"http://maps.google.com/maps?q=218 SOUTH MAIN,+HARLAN,+KY+40831&hl=en"
HIGHLAND COUNTY SHERIFF'S OFFICE,HIGHLAND COUNTY SHERIFF'S OFFICE,145 WEST MAIN STREET,MONTEREY,VA,24465,"http://maps.google.com/maps?q=145 WEST MAIN STREET,+MONTEREY,+VA+24465&hl=en"
HILLSVILLE POLICE DEPARTMENT,CVS HILLSVILLE VA,915 WEST STUART DR,HILLSVILLE,VA,24343,"http://maps.google.com/maps?q=915 WEST STUART DR,+HILLSVILLE,+VA+24343&hl=en"
HUNTINGTON POLICE DEPARTMENT,CABELL HUNTINGTON HEALTH DEPARTMENT,703 7TH AVE HUNTINGTON,HUNTINGTON,WV,25701,"http://maps.google.com/maps?q=703 7TH AVE HUNTINGTON,+HUNTINGTON,+WV+25701&hl=en"
INDEPENDENCE POLICE DEPARTMENT,WOODY'S PHARMACY,576 E MAIN STREET,INDEPENDENCE,VA,24348,"http://maps.google.com/maps?q=576 E MAIN STREET,+INDEPENDENCE,+VA+24348&hl=en"
JACKSON COUNTY SHERIFF'S DEPARTMENT,KENNA VOLUNTEER FIRE DEPARTMENT,RT 21 AT PLEASANT VALLEY ROAD,KENNA,WV,25248,"http://maps.google.com/maps?q=RT 21 AT PLEASANT VALLEY ROAD,+KENNA,+WV+25248&hl=en"
JACKSON COUNTY SHERIFF'S DEPARTMENT,RAVENSWOOD VOLUNTEER FIRE DEPT,333 VIRGINIA STREET,RAVENSWOOD,WV,26164,"http://maps.google.com/maps?q=333 VIRGINIA STREET,+RAVENSWOOD,+WV+26164&hl=en"
JACKSON COUNTY SHERIFF'S DEPARTMENT,RIPLEY CITY HALL,203 SOUTH CHURCH ST,RIPLEY,WV,25271,"http://maps.google.com/maps?q=203 SOUTH CHURCH ST,+RIPLEY,+WV+25271&hl=en"
JOHNSON CITY POLICE DEPARTMENT,JOHNSON CITY POLICE DEPT. PARKING LOT,601 E. MAIN ST.,JOHNSON CITY,TN,37601,"http://maps.google.com/maps?q=601 E. MAIN ST.,+JOHNSON CITY,+TN+37601&hl=en"
JOHNSON COUNTY SHERIFF'S OFFICE,JOHNSON COUNTY SHERIFF'S DEPT,216 HONEYSUCKLE ST,MOUNTAIN CITY,TN,37683,"http://maps.google.com/maps?q=216 HONEYSUCKLE ST,+MOUNTAIN CITY,+TN+37683&hl=en"
JONESBOROUGH DEPT. OF PUBLIC SAFETY,JONESBOROUGH FIRE DEPT.,123 BOONE STREET,JONESBOROUGH,TN,37659,"http://maps.google.com/maps?q=123 BOONE STREET,+JONESBOROUGH,+TN+37659&hl=en"
KANAWHA COUNTY SHERIFF'S OFFICE,KANAWHA COUNTY SHERIFF'S DETACHMENT CROSS LANES DETACHMENT/CPT MEADOWS,903 CROSS LANES DR,CROSS LANES,WV,25313,"http://maps.google.com/maps?q=903 CROSS LANES DR,+CROSS LANES,+WV+25313&hl=en"
KANAWHA COUNTY SHERIFF'S OFFICE,KANAWHA COUNTY SHERIFF'S OFFICE QUINCY DETACHMENT/CPL B. HOWERY,2700 E DUPONT AVE,BELLE,WV,25015,"http://maps.google.com/maps?q=2700 E DUPONT AVE,+BELLE,+WV+25015&hl=en"
KANAWHA COUNTY SHERIFF'S OFFICE,KANAWHA COUNTY SHERIFF'S OFFICE SISSONVILLE DETACHMENT/LT. L.. DEITZ,6438 SISSONVILLE DRIVE,SISSONVILLE,WV,25320,"http://maps.google.com/maps?q=6438 SISSONVILLE DRIVE,+SISSONVILLE,+WV+25320&hl=en"
KANAWHA COUNTY SHERIFF'S OFFICE,KANAWHA COUNTY SHERIFF'S OFFICE ST. ALBANS DETACHMENT/SGT. FLOWERS,6809 OHIO AVENUE,SAINT ALBANS,WV,25177,"http://maps.google.com/maps?q=6809 OHIO AVENUE,+SAINT ALBANS,+WV+25177&hl=en"
KANAWHA COUNTY SHERIFF'S OFFICE,KANWHA COUNTY SHERIFF'S DEPT ELKVIEW DETACHMENT/LT. K. WHITE,902 MAIN ST,ELKVIEW,WV,25071,"http://maps.google.com/maps?q=902 MAIN ST,+ELKVIEW,+WV+25071&hl=en"
KENTUCKY STATE POLICE POST 10,KENTUCKY STATE POLICE,3319 SOUTH US 421,HARLAN,KY,40831,"http://maps.google.com/maps?q=3319 SOUTH US 421,+HARLAN,+KY+40831&hl=en"
KENTUCKY STATE POLICE POST 13,KENTUCKY STATE POLICE,100 JUSTICE DRIVE,HAZARD,KY,41701,"http://maps.google.com/maps?q=100 JUSTICE DRIVE,+HAZARD,+KY+41701&hl=en"
KENTUCKY STATE POLICE POST 14,KENTUCKY STATE POLICE,5975 STATE ROUTE US 60,ASHLAND,KY,41102,"http://maps.google.com/maps?q=5975 STATE ROUTE US 60,+ASHLAND,+KY+41102&hl=en"
KENTUCKY STATE POLICE POST 9 PIKEVILLE,KENTUCKY STATE POLICE POST 9 PIKEVILLE,3499 N MAYO TRAIL,PIKEVILLE,KY,41501,"http://maps.google.com/maps?q=3499 N MAYO TRAIL,+PIKEVILLE,+KY+41501&hl=en"
KINGSPORT POLICE DEPARTMENT,DOBBINS-BENNETT HIGH SCHOOL,1 TRIBE WAY,KINGSPORT,TN,37660,"http://maps.google.com/maps?q=1 TRIBE WAY,+KINGSPORT,+TN+37660&hl=en"
LEBANON POLICE DEPARTMENT,WALMART,1050 REGIONAL PARK ROAD,LEBANON,VA,24266,"http://maps.google.com/maps?q=1050 REGIONAL PARK ROAD,+LEBANON,+VA+24266&hl=en"
LEE COUNTY SHERIFF'S OFFICE,FOOD CITY,205 RIVER BEND DR.,JONESVILLE,VA,24263,"http://maps.google.com/maps?q=205 RIVER BEND DR.,+JONESVILLE,+VA+24263&hl=en"
LENOIR POLICE DEPT.,FOOTHILLS PHARMACY,202 A HARPER AVE,LENOIR,NC,28645,"http://maps.google.com/maps?q=202 A HARPER AVE,+LENOIR,+NC+28645&hl=en"
LEXINGTON POLICE DEPARTMENT,CVS PHARMACY,506 E NELSON STREET,LEXINGTON,VA,24450,"http://maps.google.com/maps?q=506 E NELSON STREET,+LEXINGTON,+VA+24450&hl=en"
LOGAN COUNTY SHERIFF'S DEPARTMENT,WAL-MART SUPER CENTER FOUNTAIN PLACE MALL,U.S. 119/WV 73,LOGAN,WV,25601,"http://maps.google.com/maps?q=U.S.  119/WV 73,+LOGAN,+WV+25601&hl=en"
LOUISA COUNTY SHERIFF'S OFFICE,LOUISA COUNTY SHERIFF'S OFFICE,1 WOOLFOLK AVE,LOUISA,VA,23093,"http://maps.google.com/maps?q=1 WOOLFOLK AVE,+LOUISA,+VA+23093&hl=en"
LYNCHBURG POLICE DEPARTMENT,LYNCHBURG POLICE DEPARTMENT LOBBY,905 COURT STREET,LYNCHBURG,VA,24504,"http://maps.google.com/maps?q=905 COURT STREET,+LYNCHBURG,+VA+24504&hl=en"
MADISON COUNTY SHERIFF'S OFFICE,MADISON COUNTY SHERIFF'S OFFICE,115 CHURCH ST,MADISON,VA,22727,"http://maps.google.com/maps?q=115 CHURCH ST,+MADISON,+VA+22727&hl=en"
MARS HILL POLICE DEPARTMENT,CVS,191 CARL ELLER ROAD,MARS HILL,NC,28754,"http://maps.google.com/maps?q=191 CARL ELLER ROAD,+MARS HILL,+NC+28754&hl=en"
MARTINSVILLE POLICE DEPARTMENT,MARTINSVILLE FIRE DEPARTMENT FRONT ENTRANCE,65 WEST CHURCH ST.,MARTINSVILLE,VA,24112,"http://maps.google.com/maps?q=65 WEST CHURCH ST.,+MARTINSVILLE,+VA+24112&hl=en"
MARYLAND STATE POLICE,MSP CUMBERLAND BARRACK POC: LT. MICHAEL FLUHARTY,1125 NATIONAL HIGHWAY,CUMBERLAND,MD,21502,"http://maps.google.com/maps?q=1125 NATIONAL HIGHWAY,+CUMBERLAND,+MD+21502&hl=en"
MARYLAND STATE POLICE,MSP MCHENRY BARRACK POC: JAMES PRITTS,67 FRIENDSVILLE ROAD,MC HENRY,MD,21541,"http://maps.google.com/maps?q=67 FRIENDSVILLE ROAD,+MC HENRY,+MD+21541&hl=en"
MASON COUNTY SHERIFF'S OFFICE,MASON COUNTY SHERIFF'S OFFICE,200 SIXTH STREET,POINT PLEASANT,WV,25550,"http://maps.google.com/maps?q=200 SIXTH STREET,+POINT PLEASANT,+WV+25550&hl=en"
MASON COUNTY SHERIFF'S OFFICE,NEW HAVEN VOLUNTEER FIRE DEPT,407 5TH STREET,NEW HAVEN,WV,25265,"http://maps.google.com/maps?q=407 5TH STREET,+NEW HAVEN,+WV+25265&hl=en"
MATEWAN WV PD,MATEWAN POLICE DEPARTMENT,ROUTE 65 MCCOY ALLEY,MATEWAN,WV,25678,"http://maps.google.com/maps?q=ROUTE 65 MCCOY ALLEY,+MATEWAN,+WV+25678&hl=en"
MCDOWELL COUNTY SHERIFF DEPARTMENT,MAGIC MART,COAL HERITAGE RD,WELCH,WV,24801,"http://maps.google.com/maps?q=COAL HERITAGE RD,+WELCH,+WV+24801&hl=en"
MERCER COUNTY SHERIFF'S DEPARTMENT,MERCER COUNTY SD GARAGE,1501 WEST MAIN STREET,PRINCETON,WV,24740,"http://maps.google.com/maps?q=1501 WEST MAIN STREET,+PRINCETON,+WV+24740&hl=en"
MILTON POLICE DEPARTMENT,MILTON VOLUNTEER FIRE DEPARTMENT,341 E MAIN ST,MILTON,WV,25541,"http://maps.google.com/maps?q=341 E MAIN ST,+MILTON,+WV+25541&hl=en"
MINERAL COUNTY SHERIFF'S OFFICE,MINERAL COUNTY DETENTION CENTER ACROSS STREET FROM COURTHOUSE,100 EAST STREET,KEYSER,WV,26726,"http://maps.google.com/maps?q=100 EAST STREET,+KEYSER,+WV+26726&hl=en"
MONONGAH POLICE DEPT,MONONGAH PD,430 BRIDGE ST,FAIRMONT,WV,26554,"http://maps.google.com/maps?q=430 BRIDGE ST,+FAIRMONT,+WV+26554&hl=en"
MONONGALIA COUNTY SHERIFF'S OFFICE,KROGER @ SUNCREST TOWN CNTR,500 SUNCREST TOWN CENTER DR,MORGANTOWN,WV,26506,"http://maps.google.com/maps?q=500 SUNCREST TOWN CENTER DR,+MORGANTOWN,+WV+26506&hl=en"
MONONGALIA COUNTY SHERIFF'S OFFICE,MONONGALIA COUNTY SHERIFF'S OFFICE,116 WALNUT STREET,MORGANTOWN,WV,26505,"http://maps.google.com/maps?q=116 WALNUT STREET,+MORGANTOWN,+WV+26505&hl=en"
MONONGALIA COUNTY SHERIFF'S OFFICE,PIERPONT LANDING PHARMACY,7000 MID ATLANTIC RD,MORGANTOWN,WV,26508,"http://maps.google.com/maps?q=7000 MID ATLANTIC RD,+MORGANTOWN,+WV+26508&hl=en"
MONROE COUNTY SHERIFF'S DEPT,MONROE CO SHERIFF'S DEPT,350 MAIN ST,UNION,WV,24983,"http://maps.google.com/maps?q=350 MAIN ST,+UNION,+WV+24983&hl=en"
MOOREFIELD POLICE DEPARTMENT,MOOREFIELD POLICE DEPT/TOWN OFFICE,206 WINCHESTER AVE,MOOREFIELD,WV,26836,"http://maps.google.com/maps?q=206 WINCHESTER AVE,+MOOREFIELD,+WV+26836&hl=en"
MORGANTOWN POLICE DEPARTMENT,KROGER,1851 EARL L. CORE ROAD,MORGANTOWN,WV,26505,"http://maps.google.com/maps?q=1851 EARL L. CORE ROAD,+MORGANTOWN,+WV+26505&hl=en"
MORGANTOWN POLICE DEPARTMENT,KROGER,350 PATTERSON DRIVE,MORGANTOWN,WV,26505,"http://maps.google.com/maps?q=350 PATTERSON DRIVE,+MORGANTOWN,+WV+26505&hl=en"
MOUNDSVILLE POLICE DEPARTMENT,MOUNDSVILLE POLICE DEPARTMENT,608 TOMLINSON AVENUE,MOUNDSVILLE,WV,26041,"http://maps.google.com/maps?q=608 TOMLINSON AVENUE,+MOUNDSVILLE,+WV+26041&hl=en"
NICHOLAS COUNTY SHERIFF'S DEPARTMENT,NICHOLAS COUNTY COURTHOUSE,700 MAIN ST,SUMMERSVILLE,WV,26651,"http://maps.google.com/maps?q=700 MAIN ST,+SUMMERSVILLE,+WV+26651&hl=en"
NITRO POLICE DEPARTMENT,NITRO POLICE DEPARTMENT,497 1ST AVENUE SOUTH,NITRO,WV,25143,"http://maps.google.com/maps?q=497 1ST AVENUE SOUTH,+NITRO,+WV+25143&hl=en"
NORTH WILKESBORO POLICE DEPARTMENT,WALGREENS PHARMACY,1395 WEST D STREET,NORTH WILKESBORO,NC,28659,"http://maps.google.com/maps?q=1395 WEST D STREET,+NORTH WILKESBORO,+NC+28659&hl=en"
NORTON POLICE DEPARTMENT,CVS PHARMACY PARKING LOT,1128 PARK AVENUE,NORTON,VA,24273,"http://maps.google.com/maps?q=1128 PARK AVENUE,+NORTON,+VA+24273&hl=en"
OAK HILL WV POLICE DEPARTMENT,KROGER,411 MALL RD,OAK HILL,WV,25901,"http://maps.google.com/maps?q=411 MALL RD,+OAK HILL,+WV+25901&hl=en"
OAKLAND CITY POLICE,OAKLAND POLICE DEPARTMENT,15 SOUTH THIRD STREET,OAKLAND,MD,21550,"http://maps.google.com/maps?q=15 SOUTH THIRD STREET,+OAKLAND,+MD+21550&hl=en"
ORANGE (TOWN OF) POLICE DEPARTMENT,CVS PHARMACY FRONT SIDEWALK,308 RADNEY ROAD,ORANGE,VA,22960,"http://maps.google.com/maps?q=308 RADNEY ROAD,+ORANGE,+VA+22960&hl=en"
ORANGE (TOWN OF) POLICE DEPARTMENT,ORANGE PHARMACY FRONT SIDEWALK,130 WEST MAIN STREET,ORANGE,VA,22960,"http://maps.google.com/maps?q=130 WEST MAIN STREET,+ORANGE,+VA+22960&hl=en"
ORANGE COUNTY SHERIFF'S OFFICE,SHADY GROVE BAPTIST CHURCH COMMUNITY HEALTH FAIR,21024 PINEY WOODS ROAD,ORANGE,VA,22960,"http://maps.google.com/maps?q=21024 PINEY WOODS ROAD,+ORANGE,+VA+22960&hl=en"
PATRICK COUNTY SHERIFF'S OFFICE,PATRICK COUNTY SHERIFF'S OFFICE,742 COMMERCE STREET,STUART,VA,24171,"http://maps.google.com/maps?q=742 COMMERCE STREET,+STUART,+VA+24171&hl=en"
PENDLETON COUNTY SHERIFF'S OFFICE,PENDLETON COUNTY SHERIFF'S DEPARTMENT,100 SOUTH MAIN STREET,FRANKLIN,WV,26807,"http://maps.google.com/maps?q=100 SOUTH MAIN STREET,+FRANKLIN,+WV+26807&hl=en"
PITTSYLVANIA COUNTY SHERIFF'S OFFICE,MT. HERMON SHOPPING CENTER FOOD LION PARKING LOT,4048 FRANKLIN TURNPIKE,DANVILLE,VA,24540,"http://maps.google.com/maps?q=4048 FRANKLIN TURNPIKE,+DANVILLE,+VA+24540&hl=en"
PITTSYLVANIA COUNTY SHERIFF'S OFFICE,PITTSYLVANIA COUNTY SHERIFF'S OFFICE IN FRONT OF SHERIFF'S OFFICE,21 NORTH MAIN STREET,CHATHAM,VA,24531,"http://maps.google.com/maps?q=21 NORTH MAIN STREET,+CHATHAM,+VA+24531&hl=en"
PLEASANTS COUNTY SHERIFF,PHILLIPS PHARMACY,329 2ND STREET,SAINT MARYS,WV,26170,"http://maps.google.com/maps?q=329 2ND STREET,+SAINT MARYS,+WV+26170&hl=en"
POCAHONTAS COUNTY SHERIFF'S OFFICE,POCAHONTAS COUNTY SHERIFF'S DEPT,900 JAIL LANE,MARLINTON,WV,24954,"http://maps.google.com/maps?q=900 JAIL LANE,+MARLINTON,+WV+24954&hl=en"
PRESTON COUNTY SHERIFF,BELLDINA'S PHARMACY,107 S MAIN ST,MASONTOWN,WV,26542,"http://maps.google.com/maps?q=107 S MAIN ST,+MASONTOWN,+WV+26542&hl=en"
PRESTON COUNTY SHERIFF,PRESTON COUNTY SHERIFF'S OFFICE,103 W MAIN ST,KINGWOOD,WV,26537,"http://maps.google.com/maps?q=103 W MAIN ST,+KINGWOOD,+WV+26537&hl=en"
PRESTON COUNTY SHERIFF,TERRA ALTA TOWN HALL,701-A EAST STATE AVENUE,TERRA ALTA,WV,26764,"http://maps.google.com/maps?q=701-A EAST STATE AVENUE,+TERRA ALTA,+WV+26764&hl=en"
PULASKI (TOWN OF) POLICE DEPARTMENT,FOOD CITY PARKING LOT NEAR ENTRANCE TO STORE,1400 BOB WHITE BLVD,PULASKI,VA,24301,"http://maps.google.com/maps?q=1400 BOB WHITE BLVD,+PULASKI,+VA+24301&hl=en"
PULASKI SHERIFF'S OFFICE,"FAIRLAWN WALMART APRIL 28, 2018 LOCATION",7373 PEPPERS FERRY BLVD,RADFORD,VA,24141,"http://maps.google.com/maps?q=7373 PEPPERS FERRY BLVD,+RADFORD,+VA+24141&hl=en"
PUTNAM COUNTY SHERIFF'S DEPARTMENT,PUTNAM COUNTY SHERIFF'S DEPARTMENT,SHERIFF'S DEPARTMENT3389 WINFIELD ROAD,WINFIELD,WV,25213,"http://maps.google.com/maps?q=SHERIFF'S DEPARTMENT,+WINFIELD,+WV+25213&hl=en"
RADFORD CITY POLICE DEPARTMENT,RADFORD FIRE DEPARTMENT PARKING LOT,1500 WADSWORTH STREET,RADFORD,VA,24141,"http://maps.google.com/maps?q=1500 WADSWORTH STREET,+RADFORD,+VA+24141&hl=en"
RALEIGH COUNTY SD,CRAB ORCHARD PHARMACY,1299 ROBERT C. BYRD DRIVE,CRAB ORCHARD,WV,25827,"http://maps.google.com/maps?q=1299 ROBERT C. BYRD DRIVE,+CRAB ORCHARD,+WV+25827&hl=en"
RICHLANDS POLICE DEPARTMENT,RICHLANDS POLICE DEPARTMENT FRONT LOBBY,1851 CRANWELL DRIVE,RICHLANDS,VA,24641,"http://maps.google.com/maps?q=1851 CRANWELL DRIVE,+RICHLANDS,+VA+24641&hl=en"
ROANOKE CITY POLICE DEPARTMENT,CVS 9TH STREET SE,702 9TH STREET SE,ROANOKE,VA,24013,"http://maps.google.com/maps?q=702 9TH STREET SE,+ROANOKE,+VA+24013&hl=en"
ROANOKE CITY POLICE DEPARTMENT,CVS AT TARGET,4737 VALLEY VIEW BLVD,ROANOKE,VA,24012,"http://maps.google.com/maps?q=4737 VALLEY VIEW BLVD,+ROANOKE,+VA+24012&hl=en"
ROANOKE CITY POLICE DEPARTMENT,CVS AT TOWERS SHOPPING CENTER,2001 COLONIAL AVE SW,ROANOKE,VA,24015,"http://maps.google.com/maps?q=2001 COLONIAL AVE SW,+ROANOKE,+VA+24015&hl=en"
ROANOKE COUNTY POLICE DEPARTMENT,KROGER @ TANGLEWOOD MALL FRONT PARKING LOT,4488 ELECTRIC ROAD,ROANOKE,VA,24015,"http://maps.google.com/maps?q=4488 ELECTRIC ROAD,+ROANOKE,+VA+24015&hl=en"
ROANOKE COUNTY POLICE DEPARTMENT,KROGER AT VALLEY GATEWAY NEAR FRONT ENTRANCE,3970 VALLEY GATEWAY BLVD,ROANOKE,VA,24012,"http://maps.google.com/maps?q=3970 VALLEY GATEWAY BLVD,+ROANOKE,+VA+24012&hl=en"
ROANOKE COUNTY POLICE DEPARTMENT,WALGREENS CORNER OF ELECTRIC ROAD & BRAMBLETON AVE,4049 BRAMBLETON AVE,ROANOKE,VA,24018,"http://maps.google.com/maps?q=4049 BRAMBLETON AVE,+ROANOKE,+VA+24018&hl=en"
ROANOKE COUNTY SHERIFF'S OFFICE,ROANOKE COUNTY FIRE STATION #1 PARKING LOT,150 HERSHBERGER ROAD,ROANOKE,VA,24019,"http://maps.google.com/maps?q=150 HERSHBERGER ROAD,+ROANOKE,+VA+24019&hl=en"
ROCKY MOUNT POLICE DEPARTMENT,WAL MART,550 OLD FRANKLIN TURNPIKE ROCKY MOUNT,ROCKY MOUNT,VA,24151,"http://maps.google.com/maps?q=550 OLD FRANKLIN TURNPIKE ROCKY MOUNT,+ROCKY MOUNT,+VA+24151&hl=en"
RUSSELL COUNTY SHERIFF'S OFFICE,BLUE DEVIL DRUG,19408 HWY 58,CASTLEWOOD,VA,24224,"http://maps.google.com/maps?q=19408 HWY 58,+CASTLEWOOD,+VA+24224&hl=en"
RUSSELL COUNTY SHERIFF'S OFFICE,FOOD CITY,159 PITTSTON RD,LEBANON,VA,24266,"http://maps.google.com/maps?q=159 PITTSTON RD,+LEBANON,+VA+24266&hl=en"
RUSSELL COUNTY SHERIFF'S OFFICE,NEW GARDEN PHARMACY,5300 REDBUD HWY,HONAKER,VA,24260,"http://maps.google.com/maps?q=5300 REDBUD HWY,+HONAKER,+VA+24260&hl=en"
SALEM POLICE DEPARTMENT,SUPER SHOES FRONT PARKING LOT,1838 W. MAIN STREET,SALEM,VA,24153,"http://maps.google.com/maps?q=1838 W. MAIN STREET,+SALEM,+VA+24153&hl=en"
SALTVILLE POLICE DEPARTMENT,SALTVILLE POLICE DEPARTMENT,217 PALMER AVE,SALTVILLE,VA,24370,"http://maps.google.com/maps?q=217 PALMER AVE,+SALTVILLE,+VA+24370&hl=en"
SCOTT COUNTY SHERIFF'S OFFICE,FOOD COUNTRY OUTSIDE NEAR MAIN ENTRANCE,42158 US 58,DUFFIELD,VA,24244,"http://maps.google.com/maps?q=42158 US 58,+DUFFIELD,+VA+24244&hl=en"
SCOTT COUNTY SHERIFF'S OFFICE,SCOTT COUNTY SHERIFF'S OFFICE NEAR MAIN ENTRANCE,336 WATER STREET,GATE CITY,VA,24251,"http://maps.google.com/maps?q=336 WATER  STREET,+GATE CITY,+VA+24251&hl=en"
SHENANDOAH COUNTY SHERIFF'S OFFICE,CVS PHARMACY PARKING LOT FACING RESERVOIR RD.,221 WEST RESERVOIR ROAD,WOODSTOCK,VA,22664,"http://maps.google.com/maps?q=221 WEST RESERVOIR ROAD,+WOODSTOCK,+VA+22664&hl=en"
SISTERVILLE POLICE DEPARTMENT,SISTERVILLE PD,200 DIAMOND ST,SISTERSVILLE,WV,26175,"http://maps.google.com/maps?q=200 DIAMOND ST,+SISTERSVILLE,+WV+26175&hl=en"
SMYTH COUNTY SHERIFF'S OFFICE,FOOD CITY,910 N. MAIN ST.,MARION,VA,24354,"http://maps.google.com/maps?q=910 N. MAIN ST.,+MARION,+VA+24354&hl=en"
SPENCER POLICE DEPARTMENT,SPENCER POLICE DEPARTMENT,116 COURT ST,SPENCER,WV,25276,"http://maps.google.com/maps?q=116 COURT ST,+SPENCER,+WV+25276&hl=en"
ST. ALBANS POLICE DEPARTMENT,ST. ALBANS POLICE DEPARTMENT,51 6TH AVENUE,SAINT ALBANS,WV,25177,"http://maps.google.com/maps?q=51 6TH AVENUE,+SAINT ALBANS,+WV+25177&hl=en"
ST. PAUL POLICE DEPARTMENT,FOOD CITY,16410 WISE ST.,SAINT PAUL,VA,24283,"http://maps.google.com/maps?q=16410 WISE ST.,+SAINT PAUL,+VA+24283&hl=en"
STAUNTON POLICE DEPARTMENT,AUGUSTA HEALTH STAUNTON URGENT CARE FISHER AUTO PARKING LEFT OF URGENT CARE BUILDING,795 STATLER BLVD,STAUNTON,VA,24401,"http://maps.google.com/maps?q=795 STATLER BLVD,+STAUNTON,+VA+24401&hl=en"
STRASBURG POLICE DEPARTMENT,STRASBURG TOWN HALL SIDE PARKING LOT,174 EAST KING STREET,STRASBURG,VA,22657,"http://maps.google.com/maps?q=174 EAST KING STREET,+STRASBURG,+VA+22657&hl=en"
TAYLOR COUNTY SHERIFF'S OFFICE,WALMART,1 WALMART LANE,GRAFTON,WV,26354,"http://maps.google.com/maps?q=1 WALMART LANE,+GRAFTON,+WV+26354&hl=en"
TAZEWELL (TOWN OF) POLICE DEPARTMENT,TAZEWELL POLICE DEPARTMENT,211 CENTRAL AVE,TAZEWELL,VA,24651,"http://maps.google.com/maps?q=211 CENTRAL AVE,+TAZEWELL,+VA+24651&hl=en"
TUSCULUM POLICE DEPARTMENT,DOAK ELEMENTARY SCHOOL,70 WEST STREET,GREENEVILLE,TN,37745,"http://maps.google.com/maps?q=70 WEST STREET,+GREENEVILLE,+TN+37745&hl=en"
US DEPARTMENT OF VETERANS AFFAIRS POLICE- SALEM,DEPARTMENT OF VETERANS AFFAIRS ENTRANCE TO BUILDING 143; MAIN HOSPITAL,1970 ROANOKE BOULEVARD,SALEM,VA,24153,"http://maps.google.com/maps?q=1970 ROANOKE BOULEVARD,+SALEM,+VA+24153&hl=en"
VINTON POLICE DEPARTMENT,KROGER PARKING LOT LAKE DRIVE PLAZA,915 HARDY ROAD,VINTON,VA,24179,"http://maps.google.com/maps?q=915 HARDY ROAD,+VINTON,+VA+24179&hl=en"
VIRGINIA STATE POLICE,HALIFAX/SOUTH BOSTON REGIONAL TASK FORCE POC: SA JAY GEORGE,640 HAMILTON BOULEVARD(SOUTH BOSTON POLICE DEPARTMENT),APPOMATTOX,VA,24522,"http://maps.google.com/maps?q=640 HAMILTON BOULEVARD,+APPOMATTOX,+VA+24522&hl=en"
VIRGINIA STATE POLICE,VIRGINIA STATE POLICE DIVISION II HQS POC: LT. JEFFREY LANE,15148 STATE POLICE ROAD,CULPEPER,VA,22701,"http://maps.google.com/maps?q=15148 STATE POLICE ROAD,+CULPEPER,+VA+22701&hl=en"
VIRGINIA STATE POLICE,VIRGINIA STATE POLICE DIVISION III HQS POC: SGT DREW MCCORMICK,240 THIRD DIVISION LOOP,APPOMATTOX,VA,24522,"http://maps.google.com/maps?q=240 THIRD DIVISION LOOP,+APPOMATTOX,+VA+24522&hl=en"
VIRGINIA STATE POLICE,VIRGINIA STATE POLICE DIVISION IV HQS POC: LT PATRICK KIRTNER,1186 EAST LEE HIGHWAY,WYTHEVILLE,VA,24382,"http://maps.google.com/maps?q=1186 EAST LEE HIGHWAY,+WYTHEVILLE,+VA+24382&hl=en"
VIRGINIA STATE POLICE,VIRGINIA STATE POLICE DIVISION VI HQS POC: SGT. GLENN ARMSTRONG,3775 W. MAIN STREET,SALEM,VA,24153,"http://maps.google.com/maps?q=3775 W. MAIN STREET,+SALEM,+VA+24153&hl=en"
WARREN COUNTY SHERIFF'S OFFICE,VALLEY HEALTH REHABILITATION SERVICES,120 NORTH COMMERCE AVE,FRONT ROYAL,VA,22630,"http://maps.google.com/maps?q=120 NORTH COMMERCE AVE,+FRONT ROYAL,+VA+22630&hl=en"
WASHINGTON COUNTY SHERIFF'S OFFICE,GLADE PHARMACY,33472 LEE HWY,GLADE SPRING,VA,24340,"http://maps.google.com/maps?q=33472 LEE HWY,+GLADE SPRING,+VA+24340&hl=en"
WASHINGTON COUNTY SHERIFF'S OFFICE,MICHAELS PHARMACY (276)676-2900,101 CHARWOOD DRIVE,ABINGDON,VA,24210,"http://maps.google.com/maps?q=101 CHARWOOD DRIVE,+ABINGDON,+VA+24210&hl=en"
WASHINGTON COUNTY SHERIFF'S OFFICE,WALMART SUPER CENTER (276)619-4843,16032 FIFTEEN MILE BOULEVARD,ABINGDON,VA,24211,"http://maps.google.com/maps?q=16032 FIFTEEN MILE BOULEVARD,+ABINGDON,+VA+24211&hl=en"
WASHINGTON COUNTY TENNESSEE SHERIFFS OFFICE,GRAY COMMUNITY CHEST,113 GRAY RURITAN DRIVE,GRAY,TN,37615,"http://maps.google.com/maps?q=113 GRAY RURITAN DRIVE,+GRAY,+TN+37615&hl=en"
WAYNESBORO POLICE DEPARTMENT,NEIGHBORHOOD MARKET PARKING LOT,1211 WEST BROAD STREET,WAYNESBORO,VA,22980,"http://maps.google.com/maps?q=1211 WEST BROAD STREET,+WAYNESBORO,+VA+22980&hl=en"
WEBER CITY POLICE DEPARTMENT,FOOD CITY - WEBER CITY NEAR FRONT ENTRANCE,FRANK B. SMITH LN,WEBER CITY,VA,24290,"http://maps.google.com/maps?q=FRANK B. SMITH LN,+WEBER CITY,+VA+24290&hl=en"
WEBSTER COUNTY SHERIFF,COWEN MUNICIPAL BLDG,3RD AVENUE,COWEN,WV,26206,"http://maps.google.com/maps?q=3RD AVENUE,+COWEN,+WV+26206&hl=en"
WEBSTER COUNTY SHERIFF,HACKER VALLEY FIRE DEPT,4999 HACKER VALLEY RD,HACKER VALLEY,WV,26222,"http://maps.google.com/maps?q=4999 HACKER VALLEY RD,+HACKER VALLEY,+WV+26222&hl=en"
WEBSTER COUNTY SHERIFF,WEBSTER COUNTY SHERIFF DEPT,"2 COURT SQUARE,G3",WEBSTER SPRINGS,WV,26288,"http://maps.google.com/maps?q=2 COURT SQUARE,,+WEBSTER SPRINGS,+WV+26288&hl=en"
WEST VIRGINIA STATE POLICE,WEST VIRGINIA STATE POLICE SGT B K WELLMAN/3045285555,3339 US ROUTE 60 EAST,HUNTINGTON,WV,25705,"http://maps.google.com/maps?q=3339 US ROUTE 60 EAST,+HUNTINGTON,+WV+25705&hl=en"
WEST VIRGINIA STATE POLICE,WEST VIRGINIA STATE POLICE SGT J.R FLETCHER/3048223561,525 DEPOT STREET,ROMNEY,WV,26757,"http://maps.google.com/maps?q=525 DEPOT STREET,+ROMNEY,+WV+26757&hl=en"
WEST VIRGINIA STATE POLICE,WEST VIRGINIA STATE POLICE SGT R.J. DRAKE/3048243101,8021 COURT AVENUE,HAMLIN,WV,25523,"http://maps.google.com/maps?q=8021 COURT AVENUE,+HAMLIN,+WV+25523&hl=en"
WEST VIRGINIA STATE POLICE,WEST VIRGINIA STATE POLICE SGT R.L. FRYE/3047927200,735 RIVERVIEW AVENUE,LOGAN,WV,25601,"http://maps.google.com/maps?q=735 RIVERVIEW AVENUE,+LOGAN,+WV+25601&hl=en"
WEST VIRGINIA STATE POLICE,WEST VIRGINIA STATE POLICE SGT. B.K. HAMMONTREE/3045587777,711 JEFFERSON ROAD,SOUTH CHARLESTON,WV,25309,"http://maps.google.com/maps?q=711 JEFFERSON ROAD,+SOUTH CHARLESTON,+WV+25309&hl=en"
WEST VIRGINIA STATE POLICE,WEST VIRGINIA STATE POLICE SGT. C.H.FLOWERS/304-586-2000,3389 WINFIELD ROAD,WINFIELD,WV,25213,"http://maps.google.com/maps?q=3389 WINFIELD ROAD,+WINFIELD,+WV+25213&hl=en"
WEST VIRGINIA STATE POLICE,WVSP-BECKLEY SGT G.D. WILLIAMS/3042566700,105 PINECREST DR,BECKLEY,WV,25801,"http://maps.google.com/maps?q=105 PINECREST DR,+BECKLEY,+WV+25801&hl=en"
WEST VIRGINIA STATE POLICE,WVSP-KEYSER SGT. S.B. HUFFMAN/3047881101,"730 FORT ASHBY RDRT 1, BOX 172D",KEYSER,WV,26726,"http://maps.google.com/maps?q=730 FORT ASHBY RD,+KEYSER,+WV+26726&hl=en"
WEST VIRGINIA STATE POLICE,WVSP-LEWISBURG SGT D.A EVANS/3046477600,381 GREENBRIAR RD,LEWISBURG,WV,24901,"http://maps.google.com/maps?q=381 GREENBRIAR RD,+LEWISBURG,+WV+24901&hl=en"
WEST VIRGINIA STATE POLICE,WVSP-OAK HILL SGT. J.L. MILAM/3044692915,3057 MAIN ST,OAK HILL,WV,25901,"http://maps.google.com/maps?q=3057 MAIN ST,+OAK HILL,+WV+25901&hl=en"
WEST VIRGINIA STATE POLICE,WVSP-PRINCETON SGT. D.W. MILLER/3044252101,910 OAKVALE RD,PRINCETON,WV,24740,"http://maps.google.com/maps?q=910 OAKVALE RD,+PRINCETON,+WV+24740&hl=en"
WETZEL COUNTY SHERIFF'S OFFICE,NEW MARTINSVILLE FIRE DEPT,400 OHIO STREET,NEW MARTINSVILLE,WV,26155,"http://maps.google.com/maps?q=400 OHIO STREET,+NEW MARTINSVILLE,+WV+26155&hl=en"
WETZEL COUNTY SHERIFF'S OFFICE,THE HUNDRED CITY BUILDING,58 FOUR SEASONS DRIVE,HUNDRED,WV,26575,"http://maps.google.com/maps?q=58 FOUR SEASONS DRIVE,+HUNDRED,+WV+26575&hl=en"
"WILLIAMSON, WV POLICE DEPARTMENT","WILLIAMSON, WV PD",108 EAST 4TH AVE,WILLIAMSON,WV,25661,"http://maps.google.com/maps?q=108 EAST 4TH AVE,+WILLIAMSON,+WV+25661&hl=en"
WINCHESTER CITY SHERIFF'S OFFICE,COURTHOUSE,5 NORTH KENT ST,WINCHESTER,VA,22601,"http://maps.google.com/maps?q=5 NORTH KENT ST,+WINCHESTER,+VA+22601&hl=en"
WINCHESTER CITY SHERIFF'S OFFICE,CVS PHARMACY,840 BERRYVILLE AV,WINCHESTER,VA,22601,"http://maps.google.com/maps?q=840 BERRYVILLE AV,+WINCHESTER,+VA+22601&hl=en"
WINCHESTER CITY SHERIFF'S OFFICE,ROTZ PHARMACY,1338 AMHERST ST,WINCHESTER,VA,22601,"http://maps.google.com/maps?q=1338 AMHERST ST,+WINCHESTER,+VA+22601&hl=en"
WINFIELD WV POLICE DEPT,WINFIELD WV POLICE DEPARTMENT,3232 WINFIELD ROAD,WINFIELD,WV,25213,"http://maps.google.com/maps?q=3232 WINFIELD ROAD,+WINFIELD,+WV+25213&hl=en"
WIRT COUNTY SHERIFF'S DEPARTMENT,WIRT COUNTY SHERIFF'S DEPT,100 COURT SQURE,ELIZABETH,WV,26143,"http://maps.google.com/maps?q=100 COURT SQURE,+ELIZABETH,+WV+26143&hl=en"
WISE COUNTY SHERIFF'S OFFICE,FOOD CITY,16410 WISE ST,SAINT PAUL,VA,24283,"http://maps.google.com/maps?q=16410 WISE ST,+SAINT PAUL,+VA+24283&hl=en"
WISE POLICE DEPARTMENT,FOOD CITY NEAR FRONT ENTRANCE,207 WOODLAND DRIVE,WISE,VA,24293,"http://maps.google.com/maps?q=207 WOODLAND DRIVE,+WISE,+VA+24293&hl=en"
WOOD COUNTY WV SHERIFF'S DEPARTMENT,MINERAL WELLS VFD,1695 ELIZABETH PIKE,MINERAL WELLS,WV,26150,"http://maps.google.com/maps?q=1695 ELIZABETH PIKE,+MINERAL WELLS,+WV+26150&hl=en"
WOOD COUNTY WV SHERIFF'S DEPARTMENT,WAVERLY VFD,15425 EMERSON AVE,WAVERLY,WV,26184,"http://maps.google.com/maps?q=15425 EMERSON AVE,+WAVERLY,+WV+26184&hl=en"
WOODSTOCK POLICE DEPARTMENT,WALMART NEAR FRONT ENTRANCE,461 W. RESERVOIR RD,WOODSTOCK,VA,22664,"http://maps.google.com/maps?q=461 W. RESERVOIR RD,+WOODSTOCK,+VA+22664&hl=en"
WV DIVISION OF PROTECTIVE SERVICES,WV STATE CAPITOL BUILDING OUTSIDE-CALIFORNIA AVE,1900 KANAWHA BOULEVARD EAST,CHARLESTON,WV,25305,"http://maps.google.com/maps?q=1900 KANAWHA BOULEVARD EAST,+CHARLESTON,+WV+25305&hl=en"
WYTHE COUNTY SHERIFF'S OFFICE,WYTHE COUNTY SHERIFF'S OFFICE SALLY PORT AREA FOR COLLECTION,245 S 4TH STREET,WYTHEVILLE,VA,24382,"http://maps.google.com/maps?q=245 S 4TH STREET,+WYTHEVILLE,+VA+24382&hl=en"
