Participant,CollectionSite,Address,City,State,Zip,MapURL
10TH JUDICIAL DISTRICT DRUG TASK FORCE,MCGEHEE POLICE DEPARTMENT,2412 HIGHWAY 65,MC GEHEE,AR,71654,"http://maps.google.com/maps?q=2412 HIGHWAY 65,+MC GEHEE,+AR+71654&hl=en"
13TH JUDICIAL DTF,ELDORADO POLICE DEPARTMENT,402 NORTH WEST AVE,EL DORADO,AR,71730,"http://maps.google.com/maps?q=402 NORTH WEST AVE,+EL DORADO,+AR+71730&hl=en"
18TH WEST JUDICIAL DRUG TASK FORCE,MONTGOMERY COUNTY SHERIFF'S OFFICE PERMANENT DROP BOX,105 HWY 270 EAST#9,MOUNT IDA,AR,71957,"http://maps.google.com/maps?q=105 HWY 270 EAST,+MOUNT IDA,+AR+71957&hl=en"
1ST JUDICIAL DISTRICT DRUG TASK FORCE,1ST JUDICIAL DISTRICT DRUG TASK FORCE PERMANENT DROP BOX,113 S. MAIN ST.,CLARENDON,AR,72029,"http://maps.google.com/maps?q=113 S. MAIN ST.,+CLARENDON,+AR+72029&hl=en"
20TH JUDICIAL DISCTICT DRUG CRIME TASK FORCE,20TH JUDICIAL DRUG CRIME TASK FORCE PERMANENT DROP BOX,P.O.BOX 550,CONWAY,AR,72033,"http://maps.google.com/maps?q=P.O.BOX 550,+CONWAY,+AR+72033&hl=en"
20TH JUDICIAL DISCTICT DRUG CRIME TASK FORCE,GOODS CASH SAVER FOOD STORE,129 BONE ST.,CLINTON,AR,72031,"http://maps.google.com/maps?q=129 BONE ST.,+CLINTON,+AR+72031&hl=en"
2D SECURITY FORCES SQUADRON,BARKSDALE AIR FORCE BASE EXCHANGE,4771 CURTISS RD,BARKSDALE AFB,LA,71110,"http://maps.google.com/maps?q=4771 CURTISS RD,+BARKSDALE AFB,+LA+71110&hl=en"
5TH DRUG TASK FORCE,FALL FEST,DOWNTOWN,RUSSELLVILLE,AR,72801,"http://maps.google.com/maps?q=DOWNTOWN,+RUSSELLVILLE,+AR+72801&hl=en"
ALABAMA COUSHATTA POLICE DEPARTMENT,ALABAMA COUSHATTA POLICE DEPARTMENT,571 STATE PARK ROAD 56,LIVINGSTON,TX,77351,"http://maps.google.com/maps?q=571 STATE PARK ROAD 56,+LIVINGSTON,+TX+77351&hl=en"
ALEXANDER POLICE DEPARTMENT,ALEXANDER POLICE DEPARTMENT CITY HALL,15605 ALEXANDER ROAD,ALEXANDER,AR,72002,"http://maps.google.com/maps?q=15605 ALEXANDER ROAD,+ALEXANDER,+AR+72002&hl=en"
ALEXANDER POLICE DEPARTMENT,ALEXANDRIA POLICE DEPARTMENT,1000 BOLTON,ALEXANDRIA,LA,71301,"http://maps.google.com/maps?q=1000 BOLTON,+ALEXANDRIA,+LA+71301&hl=en"
ALEXANDRIA POLICE DEPARTMENT,ALEXANDRIA POLICE DEPARTMENT,1000 BOLTON AVE,ALEXANDRIA,LA,71302,"http://maps.google.com/maps?q=1000 BOLTON AVE,+ALEXANDRIA,+LA+71302&hl=en"
ALMA POLICE DEPARTMENT,ALMA POLICE DEPARTMENT PERMANENT DROP BOX,804 FAYETTEVILLE AVE,ALMA,AR,72921,"http://maps.google.com/maps?q=804 FAYETTEVILLE AVE,+ALMA,+AR+72921&hl=en"
ARKADELPHIA POLICE DEPARTMENT,CLARK COUNTY COURTHOUSE,401 CLAY STREET,ARKADELPHIA,AR,71923,"http://maps.google.com/maps?q=401 CLAY STREET,+ARKADELPHIA,+AR+71923&hl=en"
ARKANSAS COMMUNITY CORRECTION,ARKANSAS COMMUNITY CORRECTION CENTER,4823 WEST 7TH STREET,LITTLE ROCK,AR,72205,"http://maps.google.com/maps?q=4823 WEST 7TH STREET,+LITTLE ROCK,+AR+72205&hl=en"
BARTLETT PD,KROGER HWY 70 / APPLING RD,7615 HWY 70,BARTLETT,TN,38133,"http://maps.google.com/maps?q=7615 HWY 70,+BARTLETT,+TN+38133&hl=en"
BATESVILLE POLICE DEPARTMENT,KROGER,110 KEATING RD,BATESVILLE,MS,38606,"http://maps.google.com/maps?q=110 KEATING RD,+BATESVILLE,+MS+38606&hl=en"
BATON ROUGE PD,BATON ROUGE PD,9000 AIRLINE HWY,BATON ROUGE,LA,70815,"http://maps.google.com/maps?q=9000 AIRLINE HWY,+BATON ROUGE,+LA+70815&hl=en"
BAYTOWN POLICE DEPARTMENT,BAYTOWN POLICE DEPARTMENT RANDELL MORRIS,3200 NORTH MAIN STREET,BAYTOWN,TX,77521,"http://maps.google.com/maps?q=3200 NORTH MAIN STREET,+BAYTOWN,+TX+77521&hl=en"
BEAUMONT ROGERS PARK,ROGERS PARK,1455 DOWLEN ROAD,BEAUMONT,TX,77706,"http://maps.google.com/maps?q=1455 DOWLEN ROAD,+BEAUMONT,+TX+77706&hl=en"
BEAUREGARD PARISH SHERIFF'S DEPARTMENT,BEAUREGARD PARISH SHERIFF'S DEPARTMENT,412 BOLIVAR BISHOP DRIVE,DERIDDER,LA,70634,"http://maps.google.com/maps?q=412 BOLIVAR BISHOP DRIVE,+DERIDDER,+LA+70634&hl=en"
BEEBE POLICE DEPARTMENT,BEEBE POLICE DEPARTMENT,201 WEST ILLINOIS STREET,BEEBE,AR,72012,"http://maps.google.com/maps?q=201 WEST ILLINOIS STREET,+BEEBE,+AR+72012&hl=en"
BENTON POLICE DEPARTMENT,BENTON POLICE DEPARTMENT PERMANENT DROP BOX,114 S. EAST STREET #100,BENTON,AR,72015,"http://maps.google.com/maps?q=114 S. EAST STREET #100,+BENTON,+AR+72015&hl=en"
BENTON POLICE DEPARTMENT,FERGUSON'S FURNITURE PARKING LOT,1200 FERGUSON DRIVE,BENTON,AR,72015,"http://maps.google.com/maps?q=1200 FERGUSON DRIVE,+BENTON,+AR+72015&hl=en"
BENTON POLICE DEPARTMENT,KROGER MARKETPLACE,20820 I-30,BENTON,AR,72019,"http://maps.google.com/maps?q=20820 I-30,+BENTON,+AR+72019&hl=en"
BERWICK POLICE DEPARTMENT,BERWICK TOWN HALL,3225 THIRD STREET,BERWICK,LA,70342,"http://maps.google.com/maps?q=3225 THIRD STREET,+BERWICK,+LA+70342&hl=en"
BI-STATE NARCOTICS TASK FORCE,TEXARKANA EMERGENCY CENTER,4646 COWHORN CREEK,TEXARKANA,TX,75503,"http://maps.google.com/maps?q=4646 COWHORN CREEK,+TEXARKANA,+TX+75503&hl=en"
BOONEVILLE POLICE DEPARTMENT,BOONEVILLE POLICE DEPARTMENT PERMANENT DROP BOX,497 EAST MAIN ST.,BOONEVILLE,AR,72927,"http://maps.google.com/maps?q=497 EAST MAIN ST.,+BOONEVILLE,+AR+72927&hl=en"
BRANDON POLICE DEPARTMENT,BRANDON POLICE DEPARTMENT,1455 WEST GOVERNMENT STREET,BRANDON,MS,39042,"http://maps.google.com/maps?q=1455 WEST GOVERNMENT STREET,+BRANDON,+MS+39042&hl=en"
BROUSSARD POLICE DEPARTMENT,WALGREENS PARKING LOT,105 ST. NAZAIRE,BROUSSARD,LA,70518,"http://maps.google.com/maps?q=105 ST. NAZAIRE,+BROUSSARD,+LA+70518&hl=en"
BRYANT POLICE DEPARTMENT,BRYANT POLICE DEPARTMENT PERMANENT DROP BOX,312 ROYA LANE,BRYANT,AR,72022,"http://maps.google.com/maps?q=312 ROYA LANE,+BRYANT,+AR+72022&hl=en"
BRYANT POLICE DEPARTMENT,WALMART,400 BRYANT AVE,BRYANT,AR,72022,"http://maps.google.com/maps?q=400 BRYANT AVE,+BRYANT,+AR+72022&hl=en"
CABOT POLICE DEPARTMENT,CABOT POLICE DEPARTMENT PERMANENT DROP BOX,101 NORTH SECOND STREET,CABOT,AR,72023,"http://maps.google.com/maps?q=101 NORTH SECOND STREET,+CABOT,+AR+72023&hl=en"
CABOT POLICE DEPARTMENT,EXPRESS RX,1848 WEST MAIN STREET,CABOT,AR,72023,"http://maps.google.com/maps?q=1848 WEST MAIN STREET,+CABOT,+AR+72023&hl=en"
CADDO PARISH SHERIFF'S OFFICE,SHERIFF'S SAFETY TOWN,8910 JEWELLA AVENUE,SHREVEPORT,LA,71118,"http://maps.google.com/maps?q=8910 JEWELLA AVENUE,+SHREVEPORT,+LA+71118&hl=en"
CALHOUN COUNTY SHERIFF'S DEPARTMENT,CALHOUN COUNTY DETENTION CENTER PERMANENT DROP BOX,449 9TH ST,HAMPTON,AR,71744,"http://maps.google.com/maps?q=449 9TH ST,+HAMPTON,+AR+71744&hl=en"
CAMP ROBINSON POLICE DEPARTMENT,CAMP ROBINSON POLICE DEPARTMENT PERMANENT DROP BOX,7200 ARKANSAS AVECAMP ROBINSON,NORTH LITTLE ROCK,AR,72199,"http://maps.google.com/maps?q=7200 ARKANSAS AVE,+NORTH LITTLE ROCK,+AR+72199&hl=en"
CARLISLE POLICE DEPARTMENT,CARLISLE POLICE DEPARTMENT PERMANENT DROP BOX,120 W. MAIN STREET,CARLISLE,AR,72024,"http://maps.google.com/maps?q=120 W. MAIN STREET,+CARLISLE,+AR+72024&hl=en"
CENTRAL POLICE DEPARTMENT,CENTRAL POLICE DEPARTMENT,13505 HOOPER RD,BATON ROUGE,LA,70818,"http://maps.google.com/maps?q=13505 HOOPER RD,+BATON ROUGE,+LA+70818&hl=en"
CHICOT COUNTY SHERIFF'S OFFICE,CHICOT COUNTY SHERIFF'S OFFICE,513 MAIN STREET,LAKE VILLAGE,AR,71653,"http://maps.google.com/maps?q=513 MAIN STREET,+LAKE VILLAGE,+AR+71653&hl=en"
CLAIBORNE PARISH S.O.,COURT HOUSE SQUARE,WEST MAIN STREET,HOMER,LA,71040,"http://maps.google.com/maps?q=WEST MAIN STREET,+HOMER,+LA+71040&hl=en"
CLARKSVILLE POLICE DEPARTMENT,CLARKSVILLE POLICE DEPARTMENT PERMANENT DROP BOX,1008 WEST MAIN STREET,CLARKSVILLE,AR,72830,"http://maps.google.com/maps?q=1008 WEST MAIN STREET,+CLARKSVILLE,+AR+72830&hl=en"
CLEBURNE COUNTY SHERIFF'S OFFICE,CLEBURNE COUNTY SHERIFF'S OFFICE PERMANENT DROP BOX,914 SOUTH 9TH STREET,HEBER SPRINGS,AR,72543,"http://maps.google.com/maps?q=914 SOUTH 9TH STREET,+HEBER SPRINGS,+AR+72543&hl=en"
CLEVELAND COUNTY SHERIFF'S DEPARTMENT,CLEVELAND COUNTY SHERIFF'S DEPARTMENT,20 MAGNOLIA STREET,RISON,AR,71665,"http://maps.google.com/maps?q=20 MAGNOLIA STREET,+RISON,+AR+71665&hl=en"
CLEVELAND POLICE DEPARTMENT,CLEVELAND POLICE DEPARTMENT,226 PEACH STREET,CLEVELAND,TX,77327,"http://maps.google.com/maps?q=226 PEACH STREET,+CLEVELAND,+TX+77327&hl=en"
CLEVELAND POLICE DEPARTMENT,CLEVELAND POLICE DEPARTMENT,301 S. SHARPE AVENUE,CLEVELAND,MS,38732,"http://maps.google.com/maps?q=301 S. SHARPE AVENUE,+CLEVELAND,+MS+38732&hl=en"
CLINTON POLICE DEPARTMENT,CLINTON TOWN HALL,11209 BANK STREET,CLINTON,LA,70722,"http://maps.google.com/maps?q=11209 BANK STREET,+CLINTON,+LA+70722&hl=en"
CLINTON POLICE DEPARTMENT,KROGER PARKING LOT,107 HIGHWAY 80 E.,CLINTON,MS,39056,"http://maps.google.com/maps?q=107 HIGHWAY 80 E.,+CLINTON,+MS+39056&hl=en"
COAL HILL POLICE DEPARTMENT,COAL HILL POLICE DEPARTMENT,101 EAST HIGHWAY 64,COAL HILL,AR,72832,"http://maps.google.com/maps?q=101 EAST HIGHWAY 64,+COAL HILL,+AR+72832&hl=en"
COLLIERVILLE POLICE DEPARTMENT,COLLIERVILLE POLICE DEPARTMENT,156 N. ROWLETT COLLIERVILLE,COLLIERVILLE,TN,38017,"http://maps.google.com/maps?q=156 N. ROWLETT COLLIERVILLE,+COLLIERVILLE,+TN+38017&hl=en"
CONROE POLICE DEPARTMENT,CONROE POLICE DEPARTMENT,2300 PLANTATION DRIVE,CONROE,TX,77303,"http://maps.google.com/maps?q=2300 PLANTATION DRIVE,+CONROE,+TX+77303&hl=en"
CONWAY POLICE DEPARTMENT,CONWAY POLICE DEPARTMENT LOBBY PERMANENT DROP BOX,1105 PRAIRIE STREET,CONWAY,AR,72032,"http://maps.google.com/maps?q=1105 PRAIRIE STREET,+CONWAY,+AR+72032&hl=en"
CONWAY POLICE DEPARTMENT,KROGER MARKETPLACE,855 SALEM ROAD,CONWAY,AR,72034,"http://maps.google.com/maps?q=855 SALEM ROAD,+CONWAY,+AR+72034&hl=en"
CROSS COUNTY SHERIFF'S OFFICE,CROSS COUNTY SHERIFF'S OFFICE PERMANENT DROP BOX,704 EAST CANAL ST.,WYNNE,AR,72396,"http://maps.google.com/maps?q=704 EAST CANAL ST.,+WYNNE,+AR+72396&hl=en"
DAINGERFIELD PD,DAINGERFIELD/LONE STAR ISD HS PARKINGLOT,200 TIGER DR,DAINGERFIELD,TX,75638,"http://maps.google.com/maps?q=200 TIGER DR,+DAINGERFIELD,+TX+75638&hl=en"
DANVILLE POLICE DEPARTMENT,DANVILLE POLICE DEPARTMENT PERMANENT DROP BOX,1299 EAST 8TH STREET,DANVILLE,AR,72833,"http://maps.google.com/maps?q=1299 EAST 8TH STREET,+DANVILLE,+AR+72833&hl=en"
DE QUEEN POLICE DEPARTMENT,WAL-MART PARKING LOT,926 EAST COLLIN RAYE DRIVE,DE QUEEN,AR,71832,"http://maps.google.com/maps?q=926 EAST COLLIN RAYE DRIVE,+DE QUEEN,+AR+71832&hl=en"
DE QUINCY POLICE DEPARTMENT,DEQUINCY POLICE DEPARTMENT,101 SOUTH PINE STREET,DEQUINCY,LA,70633,"http://maps.google.com/maps?q=101 SOUTH PINE STREET,+DEQUINCY,+LA+70633&hl=en"
DE WITT POLICE DEPARTMENT,DE WITT POLICE DEPARTMENT PERMANENT DROP BOX,120 COURT SQUARE,DE WITT,AR,72042,"http://maps.google.com/maps?q=120 COURT SQUARE,+DE WITT,+AR+72042&hl=en"
DEA-JACKSON DISTRICT OFFICE,"OUTLETS OF MISSISSIPPI COLLECTING IN FRONT OF ""ADIDAS""",200 BASS PRO DRIVE,PEARL,MS,39208,"http://maps.google.com/maps?q=200 BASS PRO DRIVE,+PEARL,+MS+39208&hl=en"
DEA-MEMPHIS,KROGER,3860 AUSTIN PEAY HWY,MEMPHIS,TN,38128,"http://maps.google.com/maps?q=3860 AUSTIN PEAY HWY,+MEMPHIS,+TN+38128&hl=en"
DELHI POLICE DEPARTMENT,DELHI POLICE DEPARTMENT,304 TENNESSEE STREET,DELHI,LA,71232,"http://maps.google.com/maps?q=304 TENNESSEE STREET,+DELHI,+LA+71232&hl=en"
DERIDDER POLICE DEPARTMENT,DERIDDER PD,200 SOUTH JEFFERSON STREET,DERIDDER,LA,70634,"http://maps.google.com/maps?q=200 SOUTH JEFFERSON STREET,+DERIDDER,+LA+70634&hl=en"
DES ARC POLICE DEPARTMENT,DES ARC CITY HALL PERMANENT DROP BOX,107 SOUTH THIRD STREET,DES ARC,AR,72040,"http://maps.google.com/maps?q=107 SOUTH THIRD STREET,+DES ARC,+AR+72040&hl=en"
DESOTO COUNTY SHERIFF'S DEPARTMENT,KROGER/HERNANDO,2380 MOUNT PLEASANT RD.,HERNANDO,MS,38632,"http://maps.google.com/maps?q=2380 MOUNT PLEASANT RD.,+HERNANDO,+MS+38632&hl=en"
DESOTO COUNTY SHERIFF'S DEPARTMENT,KROGER/SOUTHHAVEN,3095 GOODMAN ROAD E,SOUTHAVEN,MS,38671,"http://maps.google.com/maps?q=3095 GOODMAN ROAD E,+SOUTHAVEN,+MS+38671&hl=en"
DIXIE INN POLICE DEPARTMENT,DIXIE INN POLICE DEPARTMENT,60 SHELL STREET,MINDEN,LA,71055,"http://maps.google.com/maps?q=60 SHELL STREET,+MINDEN,+LA+71055&hl=en"
DREW COUNTY SHERIFF'S OFFICE,FRED'S PHARMACY,US 425 SOUTH,MONTICELLO,AR,71655,"http://maps.google.com/maps?q=US 425 SOUTH,+MONTICELLO,+AR+71655&hl=en"
DUBBERLY POLICE DEPARTMENT,DUBBERLY TOWN HALL,3465 HWY 531,DUBBERLY,LA,71024,"http://maps.google.com/maps?q=3465 HWY 531,+DUBBERLY,+LA+71024&hl=en"
DUMAS POLICE DEPARTMENT,DUMAS POLICE DEPARTMENT PERMANENT DROP BOX,149 E WATERMAN,DUMAS,AR,71639,"http://maps.google.com/maps?q=149 E WATERMAN,+DUMAS,+AR+71639&hl=en"
EAST BATON ROUGE PARISH SHERIFF'S OFFICE,WOMEN'S HOSPITAL,100 WOMEN'S WAY,BATON ROUGE,LA,70817,"http://maps.google.com/maps?q=100 WOMEN'S WAY,+BATON ROUGE,+LA+70817&hl=en"
FAIRFIELD BAY POLICE DEPARTMENT,FAIRFIELD BAY POLICE DEPARTMENT PERMANENT DROP BOX,101 LITTLE ROCK DRIVE,FAIRFIELD BAY,AR,72088,"http://maps.google.com/maps?q=101 LITTLE ROCK DRIVE,+FAIRFIELD BAY,+AR+72088&hl=en"
FAULKNER COUNTY SHERIFF'S OFFICE,FAULKNER COUNTY SHERIFF'S OFFICE PERMANENT DROP BOX,801 LOCUST STREET,CONWAY,AR,72034,"http://maps.google.com/maps?q=801 LOCUST STREET,+CONWAY,+AR+72034&hl=en"
FLORA POLICE DEPARTMENT,FLORA POLICE DEPARTMENT,176 CARTER ST.,FLORA,MS,39071,"http://maps.google.com/maps?q=176 CARTER ST.,+FLORA,+MS+39071&hl=en"
FORT SMITH POLICE DEPARTMENT,FORT SMITH POLICE DEPARTMENT PERMANENT DROP BOX,100 SOUTH 10TH STREET,FORT SMITH,AR,72901,"http://maps.google.com/maps?q=100 SOUTH 10TH STREET,+FORT SMITH,+AR+72901&hl=en"
FRANKLIN POLICE DEPARTMENT,FRANKLIN POLICE DEPARTMENT,508 SECOND STREET,FRANKLIN,LA,70538,"http://maps.google.com/maps?q=508 SECOND STREET,+FRANKLIN,+LA+70538&hl=en"
GARLAND COUNTY SHERIFFS DEPARTMENT,GARLAND COUNTY SHERIFF'S DEPARTMENT PERMANENT DROP BOX,525 OUACHITA AVENUE,HOT SPRINGS,AR,71901,"http://maps.google.com/maps?q=525 OUACHITA AVENUE,+HOT SPRINGS,+AR+71901&hl=en"
GERMANTOWN POLICE,KROGER,7735 FARMINGTON BLVD.,GERMANTOWN,TN,38138,"http://maps.google.com/maps?q=7735 FARMINGTON BLVD.,+GERMANTOWN,+TN+38138&hl=en"
GERMANTOWN POLICE,WALGREENS,9325 POPLAR AVENUE,GERMANTOWN,TN,38139,"http://maps.google.com/maps?q=9325 POPLAR AVENUE,+GERMANTOWN,+TN+38139&hl=en"
GRAMBLING CITY POLICE DEPARTMENT,POLICE STATION,2045 MLK DRIVE,GRAMBLING,LA,71245,"http://maps.google.com/maps?q=2045 MLK DRIVE,+GRAMBLING,+LA+71245&hl=en"
GREENBRIER POLICE DEPARTMENT,GREENBRIER POLICE DEPARTMENT,11 WILSON FARM RD.,GREENBRIER,AR,72058,"http://maps.google.com/maps?q=11 WILSON FARM RD.,+GREENBRIER,+AR+72058&hl=en"
HARRISBURG POLICE DEPARTMENT,HARRISBURG POLICE DEPARTMENT PERMANENT DROP BOX,202 N. EAST STREET,HARRISBURG,AR,72432,"http://maps.google.com/maps?q=202 N. EAST STREET,+HARRISBURG,+AR+72432&hl=en"
HARRISON COUNTY SHERIFF'S OFFICE,HARRISON COUNTY SHERIFF'S OFFICE,200 W. HOUSTON ST.,MARSHALL,TX,75670,"http://maps.google.com/maps?q=200 W. HOUSTON ST.,+MARSHALL,+TX+75670&hl=en"
HASKELL POLICE DEPARTMENT,HASKELL POLICE DEPARTMENT CITY HALL - PERMANENT DROP BOX,2520 HWY 229,HASKELL,AR,72015,"http://maps.google.com/maps?q=2520 HWY 229,+HASKELL,+AR+72015&hl=en"
HEFLIN POLICE DEPARTMENT,HEFLIN TOWN HALL,122 NORTH CHURCH STREET,HEFLIN,LA,71039,"http://maps.google.com/maps?q=122 NORTH CHURCH STREET,+HEFLIN,+LA+71039&hl=en"
HINDS COUNTY SHERIFF'S OFFICE RESERVE UNIT,HINDS COUNTY SHERIFF'S OFFICE,407 E. PASCAGOULA STREET,JACKSON,MS,39201,"http://maps.google.com/maps?q=407 E. PASCAGOULA STREET,+JACKSON,+MS+39201&hl=en"
HOT SPRINGS POLICE DEPARTMENT,HOT SPRINGS POLICE DEPARTMENT PERMANENT DROP BOX,641 MALVERN AVE.,HOT SPRINGS NATIONAL PARK,AR,71901,"http://maps.google.com/maps?q=641 MALVERN AVE.,+HOT SPRINGS NATIONAL PARK,+AR+71901&hl=en"
HOT SPRINGS POLICE DEPARTMENT,KROGER MARKETPLACE,4407 CENTRAL AVE,HOT SPRINGS NATIONAL PARK,AR,71913,"http://maps.google.com/maps?q=4407 CENTRAL AVE,+HOT SPRINGS NATIONAL PARK,+AR+71913&hl=en"
HOT SPRINGS VILLAGE POLICE DEPARTMENT,HOT SPRINGS VILLAGE POLICE DEPARTMENT PERMANENT DROP BOX,113 CALELLA RD.,HOT SPRINGS VILLAGE,AR,71909,"http://maps.google.com/maps?q=113 CALELLA RD.,+HOT SPRINGS VILLAGE,+AR+71909&hl=en"
HOUSTON POLICE DEPARTMENT METRO PARK N RIDE,HOUSTON POLICE DEPARTMENT METRO PARK N RIDE,3210 W. LAKE HOUSTON PKWY,KINGWOOD,TX,77345,"http://maps.google.com/maps?q=3210 W. LAKE HOUSTON PKWY,+KINGWOOD,+TX+77345&hl=en"
IBERVILLE PARISH S.O,IBERVILLE PARISH COURTHOUSE,58050 MERIAM STREET,PLAQUEMINE,LA,70764,"http://maps.google.com/maps?q=58050 MERIAM STREET,+PLAQUEMINE,+LA+70764&hl=en"
INDEPENDENCE COUNTY SHERIFF'S DEPARTMENT,ARKANSAS STATE POLICE TROOP B HEADQUARTERS,3200 HWY 67 NORTH,NEWPORT,AR,72112,"http://maps.google.com/maps?q=3200 HWY 67 NORTH,+NEWPORT,+AR+72112&hl=en"
JACKSON COUNTY SHERIFF'S OFFICE,I CARE PHARMACY,1117 MCCLAIN STREET,NEWPORT,AR,72112,"http://maps.google.com/maps?q=1117 MCCLAIN STREET,+NEWPORT,+AR+72112&hl=en"
JACKSON COUNTY SHERIFF'S OFFICE,JACKSON COUNTY SO PERMANENT DROP BOX,615 SECOND ST,NEWPORT,AR,72112,"http://maps.google.com/maps?q=615 SECOND ST,+NEWPORT,+AR+72112&hl=en"
JACKSON POLICE DEPARTMENT,JACKSON POLICE DEPARTMENT FRONT SIDEWALK - DRIVE THROUGH,327 E. PASCAGOULA STREET,JACKSON,MS,39206,"http://maps.google.com/maps?q=327 E. PASCAGOULA STREET,+JACKSON,+MS+39206&hl=en"
JACKSONVILLE PD,JACKSONVILLE CHAMBER OF COMMERCE,526 E. COMMERCE ST,JACKSONVILLE,TX,75766,"http://maps.google.com/maps?q=526 E. COMMERCE ST,+JACKSONVILLE,+TX+75766&hl=en"
JACKSONVILLE POLICE DEPARTMENT,JACKSONVILLE POLICE DEPARTMENT PERMANENT DROP BOX,1400 MARSHALL ROAD,JACKSONVILLE,AR,72076,"http://maps.google.com/maps?q=1400 MARSHALL ROAD,+JACKSONVILLE,+AR+72076&hl=en"
JASPER POLICE DEPARTMENT,JASPER POLICE DEPARTMENT,555 S MAIN STREET,JASPER,TX,75951,"http://maps.google.com/maps?q=555 S MAIN STREET,+JASPER,+TX+75951&hl=en"
JEFFERSON DAVIS PARISH S.O.,JEFFERSON DAVIS PARISH S.O,321 EAST PLAQUEMINE ST.,JENNINGS,LA,70546,"http://maps.google.com/maps?q=321 EAST PLAQUEMINE ST.,+JENNINGS,+LA+70546&hl=en"
LAFAYETTE COUNTY SHERIFF'S OFFICE,LAFAYETTE COUNTY SHERIFF'S OFFICE PERMANENT DROP BOX,5 COURTHOUSE SQUARE,LEWISVILLE,AR,71845,"http://maps.google.com/maps?q=5 COURTHOUSE SQUARE,+LEWISVILLE,+AR+71845&hl=en"
LAFAYETTE PARISH SHERIFF'S OFFICE,LAFAYETTE PARISH SHERIFF'S OFFICE PUBLIC SAFETY CO,1825 W. WILLOW STREET,SCOTT,LA,70583,"http://maps.google.com/maps?q=1825 W. WILLOW STREET,+SCOTT,+LA+70583&hl=en"
LAFAYETTE POLICE DEPARTMENT,UNIVERSITY HOSPITALS AND CLINICS,2390 W. CONGRESS ST.,LAFAYETTE,LA,70506,"http://maps.google.com/maps?q=2390 W. CONGRESS ST.,+LAFAYETTE,+LA+70506&hl=en"
LAKE CHARLES POLICE DEPARTMENT,LAKE CHARLES CIVIC CENTER,900 LAKE SHORE DRIVE,LAKE CHARLES,LA,70601,"http://maps.google.com/maps?q=900 LAKE SHORE DRIVE,+LAKE CHARLES,+LA+70601&hl=en"
LAMAR POLICE DEPARTMENT,LAMAR CITY HALL PERMANENT DROP BOX,437 W MAIN STREET,LAMAR,AR,72846,"http://maps.google.com/maps?q=437 W MAIN STREET,+LAMAR,+AR+72846&hl=en"
LASALLE SHERIFFS OFFICE,LASALLE S.O,1050 COURTHOUSE STREET,JENA,LA,71342,"http://maps.google.com/maps?q=1050 COURTHOUSE STREET,+JENA,+LA+71342&hl=en"
LAVACA POLICE DEPARTMENT,HEALTH WISE PHARMACY,1800 WEST MAIN STREET,LAVACA,AR,72941,"http://maps.google.com/maps?q=1800 WEST MAIN STREET,+LAVACA,+AR+72941&hl=en"
LAVACA POLICE DEPARTMENT,LAVACA POLICE DEPARTMENT PERMANENT DROP BOX,104 SOUTH DAVIS STREET,LAVACA,AR,72941,"http://maps.google.com/maps?q=104 SOUTH DAVIS STREET,+LAVACA,+AR+72941&hl=en"
LEE COUNTY SHERIFF'S DEPARTMENT,LEE COUNTY COURTHOUSE,15 EAST CHESTNUT ST,MARIANNA,AR,72360,"http://maps.google.com/maps?q=15 EAST CHESTNUT ST,+MARIANNA,+AR+72360&hl=en"
LEESVILLE POLICE DEPARTMENT,WALGREENS,2008 S. 5TH STREET,LEESVILLE,LA,71446,"http://maps.google.com/maps?q=2008 S. 5TH STREET,+LEESVILLE,+LA+71446&hl=en"
LIBERTY POLICE DEPARTMENT,LIBERTY POLICE DEPARTMENT,1906 LAKELAND DRIVE,LIBERTY,TX,77575,"http://maps.google.com/maps?q=1906 LAKELAND DRIVE,+LIBERTY,+TX+77575&hl=en"
LINCOLN COUNTY SHERIFF'S OFFICE,LINCOLN COUNTY SHERIFF'S OFFICE PERMANENT DROP BOX,300 SOUTH DREW STREET,STAR CITY,AR,71667,"http://maps.google.com/maps?q=300 SOUTH DREW STREET,+STAR CITY,+AR+71667&hl=en"
LINCOLN PARISH S.O,SUPER ONE FOODS,1500 NORTH TRENTON STREET,RUSTON,LA,71270,"http://maps.google.com/maps?q=1500 NORTH TRENTON STREET,+RUSTON,+LA+71270&hl=en"
LITTLE ROCK POLICE DEPARTMENT,EXPRESS RX,"10,506 STAGECOACH ROADSUITE F",LITTLE ROCK,AR,72210,"http://maps.google.com/maps?q=10,506 STAGECOACH ROAD,+LITTLE ROCK,+AR+72210&hl=en"
LITTLE ROCK POLICE DEPARTMENT,KROGER MARKETPLACE,14000 CANTRELL ROAD,LITTLE ROCK,AR,72223,"http://maps.google.com/maps?q=14000 CANTRELL ROAD,+LITTLE ROCK,+AR+72223&hl=en"
LITTLE ROCK POLICE DEPARTMENT,LITTLE ROCK POLICE DEPARTMENT PERMANENT DROP BOX,700 W MARKHAM ST,LITTLE ROCK,AR,72201,"http://maps.google.com/maps?q=700 W MARKHAM ST,+LITTLE ROCK,+AR+72201&hl=en"
LITTLE ROCK POLICE DEPARTMENT,SYNERGY,400 PRESIDENT CLINTON AVENUE,LITTLE ROCK,AR,72201,"http://maps.google.com/maps?q=400 PRESIDENT CLINTON AVENUE,+LITTLE ROCK,+AR+72201&hl=en"
LIVINGSTON PARISH OFFICE OF HOMLAND ECURITY AND EM,LOHSEP OFFICE,20355 GOV. BLVD. 2ND FLOOR SUITE D,LIVINGSTON,LA,70754,"http://maps.google.com/maps?q=20355 GOV. BLVD. 2ND FLOOR SUITE D,+LIVINGSTON,+LA+70754&hl=en"
LOGAN COUNTY SHERIFF'S OFFICE,LOGAN POLICE DEPARTMENT PERMANENT DROP BOX,508 W. GROBER ST,PARIS,AR,72855,"http://maps.google.com/maps?q=508 W. GROBER ST,+PARIS,+AR+72855&hl=en"
LOUISIANA STATE POLICE,LSP TROOP E BOI/NARC/ALEX,1710 ODOM ST,ALEXANDRIA,LA,71303,"http://maps.google.com/maps?q=1710  ODOM ST,+ALEXANDRIA,+LA+71303&hl=en"
LOUISIANA STATE POLICE,LSP TROOP G,5300 INDUSTRIAL DRIVE EXT.,BOSSIER CITY,LA,71111,"http://maps.google.com/maps?q=5300 INDUSTRIAL DRIVE EXT.,+BOSSIER CITY,+LA+71111&hl=en"
LOUISIANA STATE POLICE,LSP TROOP I HEAD QUARTERS,121 EAST PONT DES MOUTON,LAFAYETTE,LA,70507,"http://maps.google.com/maps?q=121 EAST PONT DES MOUTON,+LAFAYETTE,+LA+70507&hl=en"
LOUISIANA STATE POLICE TROOP F,TROOP F HEADQUARTERS,1240 LA HGHWAY 594,MONROE,LA,71203,"http://maps.google.com/maps?q=1240 LA HGHWAY 594,+MONROE,+LA+71203&hl=en"
LUMBERTON POLICE DEPARTMENT,LUMBERTON POLICE DEPARTMENT,120 EAST CHANCE ROAD #A,LUMBERTON,TX,77657,"http://maps.google.com/maps?q=120 EAST CHANCE ROAD #A,+LUMBERTON,+TX+77657&hl=en"
MADISON COUNTY SHERIFF'S OFFICE,LAS TERRAZAS MEXICAN GRILL PARKING LOT,134 WEISENBERGER ROAD,MADISON,MS,39110,"http://maps.google.com/maps?q=134 WEISENBERGER ROAD,+MADISON,+MS+39110&hl=en"
MADISON POLICE DEPARTMENT,CITY CULTURAL CENTER PARKING LOT,2115 MAIN STREET,MADISON,MS,39110,"http://maps.google.com/maps?q=2115 MAIN STREET,+MADISON,+MS+39110&hl=en"
MAGEE POLICE DEPARTMENT,MAGEE POLICE DEPARTMENT,124 1ST STREET NE,MAGEE,MS,39111,"http://maps.google.com/maps?q=124 1ST STREET NE,+MAGEE,+MS+39111&hl=en"
MALVERN POLICE DEPARTMENT,MALVERN POLICE DEPARTMENT PERMANENT DROP BOX,215 EAST HIGHLAND AVE,MALVERN,AR,72104,"http://maps.google.com/maps?q=215 EAST HIGHLAND AVE,+MALVERN,+AR+72104&hl=en"
MALVERN POLICE DEPARTMENT,WALMART SUPERCENTER PARKING LOT,1910 MARTIN LUTHER KING BLVD,MALVERN,AR,72104,"http://maps.google.com/maps?q=1910 MARTIN LUTHER KING BLVD,+MALVERN,+AR+72104&hl=en"
MARION POLICE DEPARTMENT,MARION POLICE DEPARTMENT PERMANENT DROP BOX,3477 HWY 77,MARION,AR,72364,"http://maps.google.com/maps?q=3477 HWY 77,+MARION,+AR+72364&hl=en"
MARSHALL POLICE DEPARTMENT,MARSHALL POLICE DEPARTMENT LOBBY,"2101 EAST END BLVD, NORTH",MARSHALL,TX,75670,"http://maps.google.com/maps?q=2101 EAST END BLVD, NORTH,+MARSHALL,+TX+75670&hl=en"
MAUMELLE POLICE DEPARTMENT,MAUMELLE POLICE DEPARTMENT,2002 MURPHY DR.,MAUMELLE,AR,72113,"http://maps.google.com/maps?q=2002 MURPHY DR.,+MAUMELLE,+AR+72113&hl=en"
MAYFLOWER POLICE DEPARTMENT,MAYFLOWER POLICE DEPARTMENT,2 ASHMORE DRIVE,MAYFLOWER,AR,72106,"http://maps.google.com/maps?q=2 ASHMORE DRIVE,+MAYFLOWER,+AR+72106&hl=en"
MCGEHEE POLICE DEPARTMENT,MCGEHEE POLICE DEPARTMENT PERMANENT DROP BOX,2412 HIGHWAY 65 SOUTH,MC GEHEE,AR,71654,"http://maps.google.com/maps?q=2412 HIGHWAY 65 SOUTH,+MC GEHEE,+AR+71654&hl=en"
MEMPHIS POLICE DEPT.,HERENTON RENAISSANCE CENTER,990 COLLEGE PARK DR,MEMPHIS,TN,38126,"http://maps.google.com/maps?q=990 COLLEGE PARK DR,+MEMPHIS,+TN+38126&hl=en"
MEMPHIS POLICE DEPT.,KROGER,3444 PLAZA AVE.,MEMPHIS,TN,38111,"http://maps.google.com/maps?q=3444 PLAZA AVE.,+MEMPHIS,+TN+38111&hl=en"
MEMPHIS POLICE DEPT.,ST. LOUIS CATHOLIC CHURCH,203 S. WHITE STATION RD,MEMPHIS,TN,38117,"http://maps.google.com/maps?q=203 S. WHITE STATION RD,+MEMPHIS,+TN+38117&hl=en"
MILLINGTON POLICE DEPT.,KROGER,8039 HWY 51,MILLINGTON,TN,38053,"http://maps.google.com/maps?q=8039 HWY 51,+MILLINGTON,+TN+38053&hl=en"
MILLINGTON POLICE DEPT.,WALMART,8445 HWY 51,MILLINGTON,TN,38053,"http://maps.google.com/maps?q=8445 HWY 51,+MILLINGTON,+TN+38053&hl=en"
MONROE POLICE DEPARTMENT,MONROE POLICE DEPARTMENT,700 WOOD STREET,MONROE,LA,71201,"http://maps.google.com/maps?q=700 WOOD STREET,+MONROE,+LA+71201&hl=en"
MONTGOMERY COUNTY CONSTABLE'S OFFICE PCT. 1,MONTGOMERY COUNTY CONSTABLE'S OFFICE PCT. 1,115 BUSINESS PARK DRIVE,WILLIS,TX,77378,"http://maps.google.com/maps?q=115 BUSINESS PARK DRIVE,+WILLIS,+TX+77378&hl=en"
MONTGOMERY COUNTY PRECINCT 4 CONSTABLE'S OFFICE,MONTGOMERY COUNTY PRECINCT 4 CONSTABLE'S OFFICE MONTGOMERY COUNTY ANNEX BUILDING,21130 US HWY 59,NEW CANEY,TX,77357,"http://maps.google.com/maps?q=21130 US HWY 59,+NEW CANEY,+TX+77357&hl=en"
MORGAN CITY POLICE DEPARTMENT,WALGREENS PHARMACY,815 BRASHEAR AVE,MORGAN CITY,LA,70380,"http://maps.google.com/maps?q=815 BRASHEAR AVE,+MORGAN CITY,+LA+70380&hl=en"
MORGAN CITY POLICE DEPARTMENT,WALMART NEIGHBORHOOD MARKET,1002 HWY 70,MORGAN CITY,LA,70380,"http://maps.google.com/maps?q=1002 HWY 70,+MORGAN CITY,+LA+70380&hl=en"
MUNFORD POLICE DEPARTMENT,MUNFORD POLICE DEPARTMENT,79 COLLEGE STREET,MUNFORD,TN,38058,"http://maps.google.com/maps?q=79 COLLEGE STREET,+MUNFORD,+TN+38058&hl=en"
NACOGDOCHES COUNTY SHERIFF'S OFFICE,NACOGDOCHES COUNTY SHERIFF'S OFFICE,2306 DOUGLASS HIGHWAY,NACOGDOCHES,TX,75964,"http://maps.google.com/maps?q=2306 DOUGLASS HIGHWAY,+NACOGDOCHES,+TX+75964&hl=en"
NACOGDOCHES POLICE DEPARTMENT,NACOGDOCHES POLICE DEPARTMENT UNIVERSITY MALL,1122 NORTH UNIVERSITY DRIVE,NACOGDOCHES,TX,75961,"http://maps.google.com/maps?q=1122 NORTH UNIVERSITY DRIVE,+NACOGDOCHES,+TX+75961&hl=en"
NEWPORT POLICE DEPARTMENT,NEWPORT POLICE DEPARTMENT PERMANENT DROP BOX,615 THIRD ST.,NEWPORT,AR,72112,"http://maps.google.com/maps?q=615 THIRD ST.,+NEWPORT,+AR+72112&hl=en"
NORTH LITTLE ROCK POLICE DEPARTMENT,NORTH LITTLE ROCK POLICE & FIRE TRAINING FACILITY PERMANENT DROP BOX,2400 WILLOW STREET,NORTH LITTLE ROCK,AR,72114,"http://maps.google.com/maps?q=2400 WILLOW STREET,+NORTH LITTLE ROCK,+AR+72114&hl=en"
NORTH LITTLE ROCK POLICE DEPARTMENT,THE OTHER CENTER,4000 MCCAIN BLVD,NORTH LITTLE ROCK,AR,72116,"http://maps.google.com/maps?q=4000 MCCAIN BLVD,+NORTH LITTLE ROCK,+AR+72116&hl=en"
OLIVE BRANCH POLICE DEPARTMENT,OLIVE BRANCH POLICE DEPARTMENT LT. JASON OLIVERIA,10470 HIGHWAY 178,OLIVE BRANCH,MS,38654,"http://maps.google.com/maps?q=10470 HIGHWAY 178,+OLIVE BRANCH,+MS+38654&hl=en"
ORANGE POLICE DEPARTMENT,ORANGE POLICE DEPARTMENT,201 8TH STREET,ORANGE,TX,77630,"http://maps.google.com/maps?q=201 8TH STREET,+ORANGE,+TX+77630&hl=en"
OUACHITA COUNTY SHERIFF'S DEPARTMENT,OUACHITA COUNTY SHERIFF'S DEPARTMENT PERMANENT DROP BOX,109 GOODGAME,CAMDEN,AR,71701,"http://maps.google.com/maps?q=109 GOODGAME,+CAMDEN,+AR+71701&hl=en"
OUACHITA PARISH SO,OPSO,400 ST. JOHN STREET,MONROE,LA,71201,"http://maps.google.com/maps?q=400 ST. JOHN STREET,+MONROE,+LA+71201&hl=en"
OXFORD POLICE DEPARTMENT,OXFORD POLICE DEPARTMENT,715 MOLLY BARR ROAD,OXFORD,MS,38655,"http://maps.google.com/maps?q=715 MOLLY BARR ROAD,+OXFORD,+MS+38655&hl=en"
PARIS POLICE DEPARTMENT,PARIS POLICE DEPARTMENT PERMANENT DROP BOX,1810 EAST WALNUT STREET,PARIS,AR,72855,"http://maps.google.com/maps?q=1810 EAST WALNUT STREET,+PARIS,+AR+72855&hl=en"
PINE BLUFF POLICE DEPARTMENT,SUPER 1 FOOD STORE,1805 EAST HARDING AVE,PINE BLUFF,AR,71603,"http://maps.google.com/maps?q=1805 EAST HARDING AVE,+PINE BLUFF,+AR+71603&hl=en"
PLAQUEMINE POLICE DEPARTMENT,PLAQUEMINE POLICE DEPARTMENT,23540 RAILROAD AVENUE,PLAQUEMINE,LA,70764,"http://maps.google.com/maps?q=23540 RAILROAD AVENUE,+PLAQUEMINE,+LA+70764&hl=en"
POINSETT COUNTY SHERIFF'S OFFICE,POINSETT COUNTY DETENTION CENTER PERMANENT DROP BOX,1500 JUSTICE DRIVE,HARRISBURG,AR,72432,"http://maps.google.com/maps?q=1500 JUSTICE DRIVE,+HARRISBURG,+AR+72432&hl=en"
PORT ARTHUR POLICE DEPARTMENT,PORT ARTHUR POLICE DEPARTMENT,645 4TH STREET,PORT ARTHUR,TX,77641,"http://maps.google.com/maps?q=645 4TH STREET,+PORT ARTHUR,+TX+77641&hl=en"
POTTSVILLE POLICE DEPARTMENT,POTTSVILLE PHARMACY,7146 NORTH RIVER ROAD,POTTSVILLE,AR,72858,"http://maps.google.com/maps?q=7146 NORTH RIVER ROAD,+POTTSVILLE,+AR+72858&hl=en"
PRESCOTT POLICE DEPARTMENT,PRESCOTT POLICE DEPARTMENT PERMANENT DROP BOX,128 W. MAIN ST.,PRESCOTT,AR,71857,"http://maps.google.com/maps?q=128 W. MAIN ST.,+PRESCOTT,+AR+71857&hl=en"
PULASKI COUNTY SHERIFF'S OFFICE,ARKANSAS CHILDREN'S HOSPITAL MAIN ENTRANCE,1 CHILDREN'S WAY,LITTLE ROCK,AR,72202,"http://maps.google.com/maps?q=1 CHILDREN'S WAY,+LITTLE ROCK,+AR+72202&hl=en"
PULASKI COUNTY SHERIFF'S OFFICE,KROGER PHARMACY,6929 JFK BLVD,NORTH LITTLE ROCK,AR,72116,"http://maps.google.com/maps?q=6929 JFK BLVD,+NORTH LITTLE ROCK,+AR+72116&hl=en"
PULASKI COUNTY SHERIFF'S OFFICE,PULASKI COUNTY SHERIFF'S OFFICE PERMANENT DROP BOX,2900 SOUTH WOODROW STREET,LITTLE ROCK,AR,72204,"http://maps.google.com/maps?q=2900 SOUTH WOODROW STREET,+LITTLE ROCK,+AR+72204&hl=en"
PULASKI COUNTY SHERIFF'S OFFICE,REMEDY PHARMACY,8511 W. MARKHAM STREET,LITTLE ROCK,AR,72205,"http://maps.google.com/maps?q=8511 W. MARKHAM STREET,+LITTLE ROCK,+AR+72205&hl=en"
PULASKI COUNTY SHERIFF'S OFFICE,WALGREENS PARKING LOT,14820 CANTRELL ROAD,LITTLE ROCK,AR,72223,"http://maps.google.com/maps?q=14820 CANTRELL ROAD,+LITTLE ROCK,+AR+72223&hl=en"
RANKIN COUNTY SHERIFF'S OFFICE,RANKIN COUNTY SHERIFF'S OFFICE,221 N. TIMBER ST.,BRANDON,MS,39042,"http://maps.google.com/maps?q=221 N. TIMBER ST.,+BRANDON,+MS+39042&hl=en"
RED RIVER ARMY DEPOT,RED RIVER ARMY DEPORT ACCESS CONTROL POINTS (GATES),100 JAMES CARLOW DRIVE,TEXARKANA,TX,75507,"http://maps.google.com/maps?q=100 JAMES CARLOW DRIVE,+TEXARKANA,+TX+75507&hl=en"
RICHLAND PARISH SHERIFF'S OFFICE,BROOKSHIRE'S GROCERY,902 BROADWAY,DELHI,LA,71232,"http://maps.google.com/maps?q=902 BROADWAY,+DELHI,+LA+71232&hl=en"
RICHLAND PARISH SHERIFF'S OFFICE,WAL-MART,1806 S. JULIA STREET,RAYVILLE,LA,71269,"http://maps.google.com/maps?q=1806 S. JULIA STREET,+RAYVILLE,+LA+71269&hl=en"
SAINT JAMES PARISH S.O,SAINT JAMES S.O 1ST FLOOR,5800 HWY,CONVENT,LA,70723,"http://maps.google.com/maps?q=5800 HWY,+CONVENT,+LA+70723&hl=en"
SAINT MARTIN PARISH SHERIFF'S OFFICE,WALLGREENS,1401 REES STREET 1,BREAUX BRIDGE,LA,70517,"http://maps.google.com/maps?q=1401 REES STREET 1,+BREAUX BRIDGE,+LA+70517&hl=en"
SALINE COUNTY SHERIFF'S OFFICE,SALINE COUNTY SHERIFF'S OFFICE PERMANENT DROP BOX,735 S. NEELEY,BENTON,AR,72015,"http://maps.google.com/maps?q=735 S. NEELEY,+BENTON,+AR+72015&hl=en"
SCOTT POLICE DEPARTMENT,SCOTT PUBLIC LIBRARY,5808 CAMERON ST,SCOTT,LA,70583,"http://maps.google.com/maps?q=5808 CAMERON ST,+SCOTT,+LA+70583&hl=en"
SEBASTIAN COUNTY SHERIFF'S OFFICE,BARLING POLICE DEPARTMENT,304 CHURCH STREET,BARLING,AR,72923,"http://maps.google.com/maps?q=304 CHURCH STREET,+BARLING,+AR+72923&hl=en"
SEBASTIAN COUNTY SHERIFF'S OFFICE,SEBASTIAN COUNTY SHERIFF'S OFFICE PERMANENT DROP BOX,800 SOUTH A STREET,FORT SMITH,AR,72901,"http://maps.google.com/maps?q=800 SOUTH A STREET,+FORT SMITH,+AR+72901&hl=en"
SHANNON HILLS POLICE DEPARTMENT,SHANNON HILLS CITY PARK FALL FEST,SHANNON HILLS DR,MABELVALE,AR,72103,"http://maps.google.com/maps?q=SHANNON HILLS DR,+MABELVALE,+AR+72103&hl=en"
SHERWOOD POLICE DEPARTMENT,SHERWOOD POLICE DEPARTMENT PERMANENT DROP BOX,2201 EAST KIEHL AVE,SHERWOOD,AR,72120,"http://maps.google.com/maps?q=2201 EAST KIEHL AVE,+SHERWOOD,+AR+72120&hl=en"
SHERWOOD POLICE DEPARTMENT,ST. VINCENT MEDICAL CENTER- NORTH,2215 WILDWOOD AVE,SHERWOOD,AR,72120,"http://maps.google.com/maps?q=2215 WILDWOOD AVE,+SHERWOOD,+AR+72120&hl=en"
SHERWOOD POLICE DEPARTMENT,WALMART NEIGHBORHOOD MARKET,9053 HWY 107,SHERWOOD,AR,72120,"http://maps.google.com/maps?q=9053 HWY 107,+SHERWOOD,+AR+72120&hl=en"
SILSBEE POLICE DEPARTMENT,SILSBEE POLICE DEPARTMENT,1104 NORTH 5TH STREET,SILSBEE,TX,77656,"http://maps.google.com/maps?q=1104 NORTH 5TH STREET,+SILSBEE,+TX+77656&hl=en"
ST FRANCIS COUNTY SHERIFF'S DEPARTMENT,ST. FRANCIS COUNTY COURT HOUSE,313 SOUTH IZARD,FORREST CITY,AR,72335,"http://maps.google.com/maps?q=313 SOUTH IZARD,+FORREST CITY,+AR+72335&hl=en"
ST MARY PARISH S.O,WAL- MART,200 NORTHWEST BLVD.,FRANKLIN,LA,70538,"http://maps.google.com/maps?q=200 NORTHWEST BLVD.,+FRANKLIN,+LA+70538&hl=en"
ST MARY PARISH S.O,WAL-MART,973 HWY 90 EAST,MORGAN CITY,LA,70380,"http://maps.google.com/maps?q=973 HWY 90 EAST,+MORGAN CITY,+LA+70380&hl=en"
STUTTGART POLICE DEPARTMENT,COKER-HAMPTON DRUG CO,2187 SOUTH MAIN STREET,STUTTGART,AR,72160,"http://maps.google.com/maps?q=2187 SOUTH MAIN STREET,+STUTTGART,+AR+72160&hl=en"
STUTTGART POLICE DEPARTMENT,STUTTGART POLICE DEPARTMENT PERMANENT DROP BOX,514 SOUTH MAIN ST.,STUTTGART,AR,72160,"http://maps.google.com/maps?q=514 SOUTH MAIN ST.,+STUTTGART,+AR+72160&hl=en"
TERRY POLICE DEPARTMENT,FRED'S PHARMACY,422 WEST CUNNINGHAM AVE,TERRY,MS,39170,"http://maps.google.com/maps?q=422 WEST CUNNINGHAM AVE,+TERRY,+MS+39170&hl=en"
TRI-COUNTY DRUG TASK FORCE,SUPER 1 FOODS,2801 S. HAZEL STREET,PINE BLUFF,AR,71601,"http://maps.google.com/maps?q=2801 S. HAZEL STREET,+PINE BLUFF,+AR+71601&hl=en"
TRI-COUNTY DRUG TASK FORCE,TRI-COUNTY DRUG TASK FORCE PERMANENT DROP BOX,117 MAIN STREET,PINE BLUFF,AR,71601,"http://maps.google.com/maps?q=117 MAIN STREET,+PINE BLUFF,+AR+71601&hl=en"
TUNICA COUNTY SHERIFF'S OFFICE,TUNICA COUNTY SHERIFF'S OFFICE,5126 OLD MHOON LANDING ROAD,TUNICA,MS,38676,"http://maps.google.com/maps?q=5126 OLD MHOON LANDING ROAD,+TUNICA,+MS+38676&hl=en"
TYLER POLICE DEPARTMENT,BROADWAY SQUARE MALL,4601 S BROADWAY,TYLER,TX,75703,"http://maps.google.com/maps?q=4601 S BROADWAY,+TYLER,+TX+75703&hl=en"
U.T. HEALTH SCIENCE CENTER AT TYLER,U.T. HEALTH SCIENCE CENTER AT TYLER,11937 US HWY 271,TYLER,TX,75708,"http://maps.google.com/maps?q=11937 US HWY 271,+TYLER,+TX+75708&hl=en"
UALR POLICE,UALR POLICE DEPARTMENT,5820 ASHER AVENUE,LITTLE ROCK,AR,72204,"http://maps.google.com/maps?q=5820 ASHER AVENUE,+LITTLE ROCK,+AR+72204&hl=en"
UALR POLICE,UALR POLICE DEPARTMENT PERMANENT DROP BOX,2018 SOUTH UNIVERSITY AVENUE,LITTLE ROCK,AR,72201,"http://maps.google.com/maps?q=2018 SOUTH UNIVERSITY AVENUE,+LITTLE ROCK,+AR+72201&hl=en"
UCA POLICE DEPARTMENT,UCA POLICE DEPARTMENT PERMANENT DROP BOX,6 W.J. SOWDER,CONWAY,AR,72035,"http://maps.google.com/maps?q=6 W.J. SOWDER,+CONWAY,+AR+72035&hl=en"
UNIVERSITY OF MISSISSIPPI POLICE DEPARTMENT,THAD COCHRAN SIDEWALK IN FRONT OF THAD COCHRAN (NATURAL PRODUCTS),"THAD COCHRAN, UNIVERSITY AVENUE",UNIVERSITY,MS,38677,"http://maps.google.com/maps?q=THAD COCHRAN, UNIVERSITY AVENUE,+UNIVERSITY,+MS+38677&hl=en"
VERNON PARISH SHERIFF'S OFFICE,VERNON POLICE DEPARTMENT,1204 SOUTH 4TH STREET,LEESVILLE,LA,71446,"http://maps.google.com/maps?q=1204 SOUTH 4TH STREET,+LEESVILLE,+LA+71446&hl=en"
VICKSBURG POLICE DEPARTMENT,WALGREENS PHARMACY,3341 HALLS FERRY RD.,VICKSBURG,MS,39180,"http://maps.google.com/maps?q=3341 HALLS FERRY RD.,+VICKSBURG,+MS+39180&hl=en"
VIDALIA POLICE DEPARTMENT,VIDALIA POLICE DEPARTMENT PARKING LOT,202 VERNON STEVENS BLVD,VIDALIA,LA,71373,"http://maps.google.com/maps?q=202 VERNON STEVENS BLVD,+VIDALIA,+LA+71373&hl=en"
WALDRON POLICE DEPARTMENT,HARPS FOOD PARKING LOT,1350 6TH STREET,WALDRON,AR,72958,"http://maps.google.com/maps?q=1350 6TH STREET,+WALDRON,+AR+72958&hl=en"
WALDRON POLICE DEPARTMENT,WALDRON POLICE DEPARTMENT PERMANENT DROP BOX,323 WASHINGTON ST.,WALDRON,AR,72958,"http://maps.google.com/maps?q=323 WASHINGTON ST.,+WALDRON,+AR+72958&hl=en"
WALKER POLICE DEPARTMENT,WALKER POLICE DEPARTMENT,13179 BURGESS AVE,WALKER,LA,70785,"http://maps.google.com/maps?q=13179 BURGESS AVE,+WALKER,+LA+70785&hl=en"
WARREN COUNTY SHERIFF'S OFFICE,OUTLETS MALL OF VICKSBURG,4000 S. FRONTAGE RD.,VICKSBURG,MS,39180,"http://maps.google.com/maps?q=4000 S. FRONTAGE RD.,+VICKSBURG,+MS+39180&hl=en"
WASHINGTON COUNTY SHERIFF'S DEPARTMENT,WASHINGTON COUNTY SHERIFF'S OFFICE,903 WEST ALEXANDER STREET,GREENVILLE,MS,38701,"http://maps.google.com/maps?q=903 WEST ALEXANDER STREET,+GREENVILLE,+MS+38701&hl=en"
WEINER POLICE DEPARTMENT,WEINER POLICE DEPARTMENT,123 WEST 2ND STREET,WEINER,AR,72479,"http://maps.google.com/maps?q=123 WEST 2ND STREET,+WEINER,+AR+72479&hl=en"
WEST FELICIANA DRUG AND ALCOHOL AWARENESS,HWY 10 SHOPPING CENTER,US HWY 61 AT HWY 10,SAINT FRANCISVILLE,LA,70775,"http://maps.google.com/maps?q=US HWY 61 AT HWY 10,+SAINT FRANCISVILLE,+LA+70775&hl=en"
WEST MEMPHIS POLICE DEPARTMENT,WEST MEMPHIS POLICE DEPARTMENT PERMANENT DROP BOX,626 E. BROADWAY,WEST MEMPHIS,AR,72301,"http://maps.google.com/maps?q=626 E. BROADWAY,+WEST MEMPHIS,+AR+72301&hl=en"
WEST MONROE POLICE DEPARTMENT,WEST MONROE POLICE DEPARTMENT,2301 NORTH 7TH STREET,WEST MONROE,LA,71291,"http://maps.google.com/maps?q=2301 NORTH 7TH STREET,+WEST MONROE,+LA+71291&hl=en"
WESTLAKE POLICE DEPARTMENT,WESTLAKE POLICE DEPARTMENT,701 JOHNSON STREET,WESTLAKE,LA,70669,"http://maps.google.com/maps?q=701 JOHNSON STREET,+WESTLAKE,+LA+70669&hl=en"
WHITE COUNTY SHERIFF'S OFFICE,WHITE COUNTY SHERIFF'S OFFICE PERMANENT DROP BOX,1600 E BOOTH ROAD,SEARCY,AR,72143,"http://maps.google.com/maps?q=1600 E BOOTH ROAD,+SEARCY,+AR+72143&hl=en"
WHITE HALL POLICE DEPARTMENT,WHITE HALL POLICE DEPARTMENT PERMANENT DROP BOX,8204 DOLLARWAY ROAD,WHITE HALL,AR,71602,"http://maps.google.com/maps?q=8204 DOLLARWAY ROAD,+WHITE HALL,+AR+71602&hl=en"
WOODRUFF COUNTY SHERIFF'S DEPARTMENT,WOODRUFF COUNTY COURT HOUSE,500 NORTH 3RD STREET,AUGUSTA,AR,72006,"http://maps.google.com/maps?q=500 NORTH 3RD STREET,+AUGUSTA,+AR+72006&hl=en"
WYNNE POLICE DEPARTMENT,WYNNE POLICE DEPARTMENT PERMANENT DROP BOX,206 S. FALLS,WYNNE,AR,72396,"http://maps.google.com/maps?q=206 S. FALLS,+WYNNE,+AR+72396&hl=en"
YAZOO COUNTY SHERIFF'S DEPARTMENT,YAZOO DRUG COMPANY PLAZA SHOPPING CENTER,745 E. 15TH STREET,YAZOO CITY,MS,39194,"http://maps.google.com/maps?q=745 E. 15TH STREET,+YAZOO CITY,+MS+39194&hl=en"
PITTSBURG SHERIFF DEPARTMENT,PITTSBURG SHERIFF DEPARTMENT,1210 N WEST ST,MCALESTER,OK,74501,"http://maps.google.com/maps?q=1210 N WEST ST,+MCALESTER,+OK+74501&hl=en"
