Participant,CollectionSite,Address,City,State,Zip,MapURL
ANDOVER POLICE DEPARTMENT,WALGREENS,440 N ANDOVER RD,ANDOVER,KS,67002,"http://maps.google.com/maps?q=440 N ANDOVER RD,+ANDOVER,+KS+67002&hl=en"
AUGUSTA DEPT. OF PUBLIC SAFETY,AUGUSTA DEPT. OF PUBLIC SAFETY,2100 N. OHIO,AUGUSTA,KS,67010,"http://maps.google.com/maps?q=2100 N. OHIO,+AUGUSTA,+KS+67010&hl=en"
BALDWIN CITY POLICE DEPARTMENT,BALDWIN CITY POLICE DEPARTMENT,811 8TH STREET,BALDWIN CITY,KS,66006,"http://maps.google.com/maps?q=811 8TH STREET,+BALDWIN CITY,+KS+66006&hl=en"
BARTLESVILLE OKLAHOMA PD,BARTLESVILLE PD,615 S JOHNSTONE AVE,BARTLESVILLE,OK,74003,"http://maps.google.com/maps?q=615 S JOHNSTONE AVE,+BARTLESVILLE,+OK+74003&hl=en"
BARTLESVILLE OKLAHOMA PD,FIRE STATION NO. 3,100 SE MADISON BLVD,BARTLESVILLE,OK,74006,"http://maps.google.com/maps?q=100 SE MADISON BLVD,+BARTLESVILLE,+OK+74006&hl=en"
BARTLESVILLE OKLAHOMA PD,FIRE STATION NO. 4,3501 SE PRICE RD,BARTLESVILLE,OK,74006,"http://maps.google.com/maps?q=3501 SE PRICE RD,+BARTLESVILLE,+OK+74006&hl=en"
BARTON COUNTY SHERIFF'S OFFICE,BARTON COUNTY DRUG TAKE BACK,1300 KANSAS,GREAT BEND,KS,67530,"http://maps.google.com/maps?q=1300 KANSAS,+GREAT BEND,+KS+67530&hl=en"
BASEHOR POLICE DEPT.,BASEHOR LIBRARY DIANA WEAVER - CONTACT PERSON,1400 158TH ST.,BASEHOR,KS,66007,"http://maps.google.com/maps?q=1400 158TH ST.,+BASEHOR,+KS+66007&hl=en"
BELLA VISTA POLICE DEPARTMENT,BELLA VISTA POLICE DEPARTMENT PERMANENT DROP BOX,105 TOWN CENTER,BELLA VISTA,AR,72714,"http://maps.google.com/maps?q=105 TOWN CENTER,+BELLA VISTA,+AR+72714&hl=en"
BELLE PLAINE POLICE DEPARTMENT,BELLE PLAINE POLICE DEPARTMENT,419 N. LOGAN ST,CONWAY SPRINGS,KS,67031,"http://maps.google.com/maps?q=419 N. LOGAN ST,+CONWAY SPRINGS,+KS+67031&hl=en"
BELLE PLAINE POLICE DEPARTMENT,CONWAY SPRINGS POLICE DEPARTMENT,310 W SPRING AVE,CONWAY SPRINGS,KS,67031,"http://maps.google.com/maps?q=310 W SPRING AVE,+CONWAY SPRINGS,+KS+67031&hl=en"
BELLE PLAINE POLICE DEPARTMENT,OXFORD POLICE DEPARTMENT,121 S. SUMMER,OXFORD,KS,67119,"http://maps.google.com/maps?q=121 S. SUMMER,+OXFORD,+KS+67119&hl=en"
BELLE PLAINE POLICE DEPARTMENT,WELLINGTON POLICE DEPARTMENT,"200 N. C, STE 100",WELLINGTON,KS,67152,"http://maps.google.com/maps?q=200 N. C, STE 100,+WELLINGTON,+KS+67152&hl=en"
BLAINE COUNTY SHERIFF'S DEPARTMENT,WATONGA EMS BUILDING,305 W. MAIN ST,WATONGA,OK,73772,"http://maps.google.com/maps?q=305 W. MAIN ST,+WATONGA,+OK+73772&hl=en"
BONNER SPRINGS POLICE DEPARTMENT,BONNER SPRINGS PRICE CHOPPER,501 COMMERCIAL DRIVE,BONNER SPRINGS,KS,66012,"http://maps.google.com/maps?q=501 COMMERCIAL DRIVE,+BONNER SPRINGS,+KS+66012&hl=en"
BRISTOW OKLAHOMA PD,WAL-MART,105 W HIGHWAY 16,BRISTOW,OK,74010,"http://maps.google.com/maps?q=105 W HIGHWAY 16,+BRISTOW,+OK+74010&hl=en"
BROWN COUNTY SHERIFF'S OFFICE,BROWN COUNTY SHERIFFS OFFICE NO BOXES,709 UTAH STREET,HIAWATHA,KS,66434,"http://maps.google.com/maps?q=709 UTAH STREET,+HIAWATHA,+KS+66434&hl=en"
BUFFALO COUNTY SHERIFF'S OFFICE,KEARNEY GOOD SAMARITAN HOSPITAL,10 E 31ST STREETNORTH PARKING LOT,KEARNEY,NE,68847,"http://maps.google.com/maps?q=10 E 31ST STREET,+KEARNEY,+NE+68847&hl=en"
BUREAU OF INDIAN AFFAIRS - OJS,NORTHERN TRIBAL HEALTH SYSTEMS,7600 S HIGHWAY 69 A,MIAMI,OK,74355,"http://maps.google.com/maps?q=7600 S HIGHWAY 69 A,+MIAMI,+OK+74355&hl=en"
BURLINGTON POLICE DEPT,COFFEY CO. HOSPITAL AMBULANCE BAY,801 N 4TH ST.,BURLINGTON,KS,66839,"http://maps.google.com/maps?q=801 N 4TH ST.,+BURLINGTON,+KS+66839&hl=en"
BUTLER POLICE DEPARTMENT,BATES COUNTY HEALTH DEPARTMENT,501 N ORANGE,BUTLER,MO,64730,"http://maps.google.com/maps?q=501 N ORANGE,+BUTLER,+MO+64730&hl=en"
BUTLER POLICE DEPT.,BATES COUNTY HEALTH DEPARTMENT,501 N. ORANGE,BUTLER,MO,64730,"http://maps.google.com/maps?q=501 N. ORANGE,+BUTLER,+MO+64730&hl=en"
CHANUTE POLICE DEPT,MEDICINE SHOPPE,421 W. MAIN,CHANUTE,KS,66720,"http://maps.google.com/maps?q=421 W. MAIN,+CHANUTE,+KS+66720&hl=en"
CHENEY POLICE DEPT.,FIRE STATION,525 N MAIN,CHENEY,KS,67025,"http://maps.google.com/maps?q=525 N MAIN,+CHENEY,+KS+67025&hl=en"
CHEROKEE COUNTY SHERIFF'S OFFICE,APPLE MARKET,103 NORTH EAST AVENUE,COLUMBUS,KS,66725,"http://maps.google.com/maps?q=103 NORTH EAST AVENUE,+COLUMBUS,+KS+66725&hl=en"
CHEROKEE COUNTY SHERIFF'S OFFICE,GALENA CITY HALL,211 WEST 7TH STREET,GALENA,KS,66739,"http://maps.google.com/maps?q=211 WEST 7TH STREET,+GALENA,+KS+66739&hl=en"
CHEROKEE COUNTY SHERIFF'S OFFICE,MARVINS IGA,1400 MILITARY AVENUE,BAXTER SPRINGS,KS,66713,"http://maps.google.com/maps?q=1400 MILITARY AVENUE,+BAXTER SPRINGS,+KS+66713&hl=en"
CLAY CENTER KANSAS POLICE DEPARTMENT,CLAY COUNTY HEALTH DEPARTMENT,820 SPELLMAN CIRCLE,CLAY CENTER,KS,67432,"http://maps.google.com/maps?q=820 SPELLMAN CIRCLE,+CLAY CENTER,+KS+67432&hl=en"
COFFEYVILLE POLICE DEPARTMENT,COFFEYVILLE POLICE DEPARTMENT,1206 W. 11TH STREET,COFFEYVILLE,KS,67337,"http://maps.google.com/maps?q=1206 W. 11TH STREET,+COFFEYVILLE,+KS+67337&hl=en"
CONCORDIA POLICE DEPARTMENT,CONCORDIA CITY HALL ENTER THROUGH WEST GLASS DOORS,701 WASHINGTONCONCORDIA,CONCORDIA,KS,66901,"http://maps.google.com/maps?q=701 WASHINGTON,+CONCORDIA,+KS+66901&hl=en"
COUNCIL BLUFFS POLICE DEPARTMENT,WALGREENS,535 E BROADWAY,COUNCIL BLUFFS,IA,51503,"http://maps.google.com/maps?q=535 E BROADWAY,+COUNCIL BLUFFS,+IA+51503&hl=en"
COWLEY COUNTY SHERIFF'S OFFICE,COWLEY COUNTY SHERIFF'S OFFICE,911 FULLER ST,WINFIELD,KS,67156,"http://maps.google.com/maps?q=911 FULLER ST,+WINFIELD,+KS+67156&hl=en"
DEA TULSA RESIDENT OFFICE,NEWS ON 6,303 N. BOSTON AVENUE,TULSA,OK,74103,"http://maps.google.com/maps?q=303 N. BOSTON AVENUE,+TULSA,+OK+74103&hl=en"
DOUGLAS COUNTY SHERIFF'S DEPARTMENT,HYVEE,1000 S 178TH STREET,OMAHA,NE,68118,"http://maps.google.com/maps?q=1000 S 178TH STREET,+OMAHA,+NE+68118&hl=en"
DOUGLAS COUNTY SHERIFF'S DEPARTMENT,HYVEE,3410 N 156TH STREET,OMAHA,NE,68116,"http://maps.google.com/maps?q=3410 N 156TH STREET,+OMAHA,+NE+68116&hl=en"
DOUGLAS COUNTY SHERIFF'S DEPARTMENT,WALGREENS,13155 W CENTER RD,OMAHA,NE,68144,"http://maps.google.com/maps?q=13155 W CENTER RD,+OMAHA,+NE+68144&hl=en"
DOUGLAS COUNTY SHERIFF'S OFFICE,DOUGLAS COUNTY SHERIFF'S OFFICE GARAGE PARKING LOT ON EAST SIDE OF BUILDING,111 E. 11TH STREET,LAWRENCE,KS,66044,"http://maps.google.com/maps?q=111 E. 11TH STREET,+LAWRENCE,+KS+66044&hl=en"
DOUGLAS COUNTY SHERIFF'S OFFICE,HY-VEE,4000 W 6TH ST,LAWRENCE,KS,66049,"http://maps.google.com/maps?q=4000 W 6TH ST,+LAWRENCE,+KS+66049&hl=en"
EL DORADO POLICE DEPARTMENT,EL DORADO POLICE DEPARTMENT,128 N. VINE STREET,EL DORADO,KS,67042,"http://maps.google.com/maps?q=128 N. VINE STREET,+EL DORADO,+KS+67042&hl=en"
EMPORIA POLICE DEPT.,FLINT HILLS COMMUNITY HEALTH CENTER,420 WEST 15TH AVE,EMPORIA,KS,66801,"http://maps.google.com/maps?q=420 WEST 15TH AVE,+EMPORIA,+KS+66801&hl=en"
FAIRWAY POLICE DEPT.,HEN HOUSE GROCERY PHARMACY SITE,2724 W. 53RD STREET,FAIRWAY,KS,66205,"http://maps.google.com/maps?q=2724 W. 53RD STREET,+FAIRWAY,+KS+66205&hl=en"
FRANKLIN COUNTY SHERIFF'S OFFICE,FRANKLIN COUNTY COURHOUSE NO BOXES,405 15TH AVE.,FRANKLIN,NE,68939,"http://maps.google.com/maps?q=405 15TH AVE.,+FRANKLIN,+NE+68939&hl=en"
GAGE COUNTY SHERIFF,CAGE COUNTY SHERIFF,612 LINCOLN ST,BEATRICE,NE,68310,"http://maps.google.com/maps?q=612 LINCOLN ST,+BEATRICE,+NE+68310&hl=en"
GARDNER POLICE DEPT.,PRICE CHOPPER,830 E. MAIN STREET,GARDNER,KS,66030,"http://maps.google.com/maps?q=830 E. MAIN STREET,+GARDNER,+KS+66030&hl=en"
GENTRY POLICE DEPARTMENT,GENTRY POLICE DEPARTMENT PERMANENT DROP BOX,628 E. THIRD ST.,GENTRY,AR,72734,"http://maps.google.com/maps?q=628 E. THIRD ST.,+GENTRY,+AR+72734&hl=en"
GLENWOOD POLICE DEPARTMENT,MEDICAP PHARMACY,1206 S LOCUST,GLENWOOD,IA,51534,"http://maps.google.com/maps?q=1206 S LOCUST,+GLENWOOD,+IA+51534&hl=en"
GRAHAM COUNTY SHERIFF'S OFFICE,GRAHAM COUNTY SHERIFF'S OFFICE,410 N. POMEROY AVE,HILL CITY,KS,67642,"http://maps.google.com/maps?q=410 N. POMEROY AVE,+HILL CITY,+KS+67642&hl=en"
GRANBY POLICE DEPARTMENT,RAMSEY'S GROCERY,469 W VALLEY ST,GRANBY,MO,64844,"http://maps.google.com/maps?q=469 W VALLEY ST,+GRANBY,+MO+64844&hl=en"
GRANDVIEW POLICE DEPT.,PRICE CHOPPER,12220 SOUTH US 71 HWY,GRANDVIEW,MO,64030,"http://maps.google.com/maps?q=12220 SOUTH US 71 HWY,+GRANDVIEW,+MO+64030&hl=en"
GRAVETTE POLICE DEPARTMENT,GRAVETTE POLICE DEPARTMENT PERMANENT DROP BOX,606 1ST AVE SE,GRAVETTE,AR,72736,"http://maps.google.com/maps?q=606 1ST AVE SE,+GRAVETTE,+AR+72736&hl=en"
HARRISONVILLE POLICE DEPARTMENT,CVS PHARMACY,300 S. COMMERICAL ST.,HARRISONVILLE,MO,64701,"http://maps.google.com/maps?q=300 S. COMMERICAL ST.,+HARRISONVILLE,+MO+64701&hl=en"
HARRISONVILLE POLICE DEPARTMENT,HARRISONVILLE POLICE DEPARTMENT,205 N. LEXINGTON,HARRISONVILLE,MO,64701,"http://maps.google.com/maps?q=205 N. LEXINGTON,+HARRISONVILLE,+MO+64701&hl=en"
HARVEY COUNTY SHERIFF'S OFFICE,HARVEY COUNTY SHERIFF'S OFFICE,120 E 7TH,NEWTON,KS,67114,"http://maps.google.com/maps?q=120 E 7TH,+NEWTON,+KS+67114&hl=en"
HAYSVILLE POLICE DEPARTMENT,HAYSVILLE PD,200 W. GRAND,HAYSVILLE,KS,67060,"http://maps.google.com/maps?q=200 W. GRAND,+HAYSVILLE,+KS+67060&hl=en"
HILLSBORO POLICE DEPARTMENT,HILLSBORO POLICE DEPARTMENT,414 N. ASH ST.,HILLSBORO,KS,67063,"http://maps.google.com/maps?q=414 N. ASH ST.,+HILLSBORO,+KS+67063&hl=en"
HOLDREGE POLICE DEPARTMENT,HOLDREGE MIDDLE SCHOOL,600 14TH AVENUE,HOLDREGE,NE,68949,"http://maps.google.com/maps?q=600 14TH AVENUE,+HOLDREGE,+NE+68949&hl=en"
INDEPENDENCE POLICE DEPT.,INDEPENDENCE MISSOURI CITY HALL ACROSS THE STREET FROM THE POLICE DEPT IN THE PARKING LOT,111 E. MAPLE,INDEPENDENCE,MO,64050,"http://maps.google.com/maps?q=111 E. MAPLE,+INDEPENDENCE,+MO+64050&hl=en"
JACKSON COUNTY SHERIFF'S OFFICE,JACKSON COUNTY SHERIFF'S OFFICE,210 US HWY 75,HOLTON,KS,66436,"http://maps.google.com/maps?q=210  US HWY 75,+HOLTON,+KS+66436&hl=en"
JACKSON COUNTY SHERIFF'S OFFICE,JOHN KNOX VILLAGE PLACES RESTAURANT,1001 NW CHIPMAN ROAD,LEES SUMMIT,MO,64081,"http://maps.google.com/maps?q=1001 NW CHIPMAN ROAD,+LEES SUMMIT,+MO+64081&hl=en"
JACKSON COUNTY SHERIFF'S OFFICE,LEE'S SUMMIT MEDICAL CENTER EMERGENCY ROOM ENTRANCE,2100 SE BLUE PARKWAY,LEES SUMMIT,MO,64063,"http://maps.google.com/maps?q=2100 SE BLUE PARKWAY,+LEES SUMMIT,+MO+64063&hl=en"
JASPER COUNTY SHERIFF'S OFFICE,JASPER COUNTY COURTHOUSE,601 PEARL AVE,JOPLIN,MO,64801,"http://maps.google.com/maps?q=601 PEARL AVE,+JOPLIN,+MO+64801&hl=en"
JEFFERSON COUNTY SHERIFF'S OFFICE,JEFFERSON COUNTY LAW ENFOCEMENT CENTER NE CORNER OF THE LEC BUILDING,606 3RD STREET,FAIRBURY,NE,68352,"http://maps.google.com/maps?q=606 3RD STREET,+FAIRBURY,+NE+68352&hl=en"
JOHNSON CO COMM COLLEGE POLICE DEPT,JCCC CARLSEN CENTER NORTH MAIN ENTRANCE INTERSECTION OF COLLEGE BLVD & QUIVIRA,12345 COLLEGE BLVD,OVERLAND PARK,KS,66210,"http://maps.google.com/maps?q=12345 COLLEGE BLVD,+OVERLAND PARK,+KS+66210&hl=en"
JOHNSON COUNTY SHERIFF'S OFFICE,JOHNSON COUNTY COURTHOUSE,125 N CHERRY ST,OLATHE,KS,66061,"http://maps.google.com/maps?q=125 N CHERRY ST,+OLATHE,+KS+66061&hl=en"
JUNCTION CITY POLICE DEPARTMENT,DILLIONS,618 WEST 6TH STREET,JUNCTION CITY,KS,66441,"http://maps.google.com/maps?q=618 WEST 6TH STREET,+JUNCTION CITY,+KS+66441&hl=en"
KANSAS CITY KANSAS POLICE,CVS,4645 SHAWNEE DR,KANSAS CITY,KS,66106,"http://maps.google.com/maps?q=4645 SHAWNEE DR,+KANSAS CITY,+KS+66106&hl=en"
KANSAS CITY MISSOURI POLICE DEPT.,CHILDREN'S MERCY KC,2401 GILLHAM ROAD,KANSAS CITY,MO,64108,"http://maps.google.com/maps?q=2401 GILLHAM ROAD,+KANSAS CITY,+MO+64108&hl=en"
KANSAS CITY MISSOURI POLICE DEPT.,CVS,4750 LEES SUMMIT RD,KANSAS CITY,MO,64136,"http://maps.google.com/maps?q=4750 LEES SUMMIT RD,+KANSAS CITY,+MO+64136&hl=en"
KANSAS CITY MISSOURI POLICE DEPT.,KCMO PD NORTH PATROL STATION BRAD STOTT,11000 NW PRAIRIE VIEW RD,KANSAS CITY,MO,64153,"http://maps.google.com/maps?q=11000 NW PRAIRIE VIEW RD,+KANSAS CITY,+MO+64153&hl=en"
KANSAS CITY MISSOURI POLICE DEPT.,KCMO PD SHOAL CREEK STATION,6801 PLEASANT VALLEY ROAD,KANSAS CITY,MO,64119,"http://maps.google.com/maps?q=6801 PLEASANT VALLEY ROAD,+KANSAS CITY,+MO+64119&hl=en"
KANSAS CITY MISSOURI POLICE DEPT.,KCMO PD SOUTH PATROL STATION,9701 MARION PARK,KANSAS CITY,MO,64137,"http://maps.google.com/maps?q=9701 MARION PARK,+KANSAS CITY,+MO+64137&hl=en"
KANSAS CITY MISSOURI POLICE DEPT.,MAIN CORP PARKING LOT,3215 MAIN ST.,KANSAS CITY,MO,64110,"http://maps.google.com/maps?q=3215 MAIN ST.,+KANSAS CITY,+MO+64110&hl=en"
KANSAS CITY MISSOURI POLICE DEPT.,PRICE CHOPPER KCPD WITH FIRST CALL,8430 WORNALL RD,KANSAS CITY,MO,64114,"http://maps.google.com/maps?q=8430 WORNALL RD,+KANSAS CITY,+MO+64114&hl=en"
KANSAS CITY MISSOURI POLICE DEPT.,RESEARCH MEDICAL CENTER BROOKSIDE CAMPUS LOCATION,6601 ROCKHILL RD,KANSAS CITY,MO,64131,"http://maps.google.com/maps?q=6601 ROCKHILL RD,+KANSAS CITY,+MO+64131&hl=en"
LA CYGNE POLICE DEPARTMENT,CITY HALL,206 N. COMMERCIAL ST,LACYGNE,KS,66040,"http://maps.google.com/maps?q=206 N. COMMERCIAL ST,+LACYGNE,+KS+66040&hl=en"
LA VISTA POLICE DEPARTMENT,LA VISTA POLICE DEPARTMENT,7701 S 96TH STREET,LA VISTA,NE,68128,"http://maps.google.com/maps?q=7701 S 96TH STREET,+LA VISTA,+NE+68128&hl=en"
LAKE WAUKOMIS POLICE DEPT.,LAKE WAUKOMIS CITY HALL COMPLEX,1147 NW SOUTH SHORE DRIVE,LAKE WAUKOMIS,MO,64151,"http://maps.google.com/maps?q=1147 NW SOUTH SHORE DRIVE,+LAKE WAUKOMIS,+MO+64151&hl=en"
LANSING POLICE DEPT.,LANSING CITY HALL,800 1ST TERRACE,LANSING,KS,66043,"http://maps.google.com/maps?q=800 1ST TERRACE,+LANSING,+KS+66043&hl=en"
LARNED POLICE DEPARTMENT,LARNED POLICE DEPARTMENT,419 BROADWAY,LARNED,KS,67550,"http://maps.google.com/maps?q=419 BROADWAY,+LARNED,+KS+67550&hl=en"
LEAVENWORTH COUNTY SHERIFFS OFFICE,CVS PHARMACY,390 LIMIT ST,LEAVENWORTH,KS,66048,"http://maps.google.com/maps?q=390 LIMIT ST,+LEAVENWORTH,+KS+66048&hl=en"
LEAVENWORTH POLICE DEPARTMENT,PRICE CHOPPER,2107 S. 4TH ST.,LEAVENWORTH,KS,66048,"http://maps.google.com/maps?q=2107 S. 4TH ST.,+LEAVENWORTH,+KS+66048&hl=en"
LEAWOOD POLICE DEPARTMENT,LEAWOOD POLICE DEPARTMENT,4201 TOWN CENTER DR.,LEAWOOD,KS,66211,"http://maps.google.com/maps?q=4201 TOWN CENTER DR.,+LEAWOOD,+KS+66211&hl=en"
LENEXA POLICE DEPARTMENT,LENEXA POLICE DEPARTMENT,12500 W 87TH ST PKWY,LENEXA,KS,66215,"http://maps.google.com/maps?q=12500 W 87TH ST PKWY,+LENEXA,+KS+66215&hl=en"
LOUISBURG POLICE DEPARTMENT,LOUISBURG POLICE DEPARTMENT,209 S. METCALF,LOUISBURG,KS,66053,"http://maps.google.com/maps?q=209 S. METCALF,+LOUISBURG,+KS+66053&hl=en"
MAIZE POLICE DEPARTMENT,MAIZE POLICE DEPARTMENT LOBBY,10100 W. GRADY,MAIZE,KS,67101,"http://maps.google.com/maps?q=10100 W. GRADY,+MAIZE,+KS+67101&hl=en"
MARSHALL COUNTY HEALTH DEPARTMENT/SHERIFF'S OFFICE,MARSHALL COUNTY HEALTH DEPARTMENT,600 BROADWAY,MARYSVILLE,KS,66508,"http://maps.google.com/maps?q=600 BROADWAY,+MARYSVILLE,+KS+66508&hl=en"
MCPHERSON POLICE DEPARTMENT,MCPHERSON JOINT LAW ENFORCEMENT CTR LOBBY,1177 W. WOODSIDE CTR,MCPHERSON,KS,67460,"http://maps.google.com/maps?q=1177 W. WOODSIDE CTR,+MCPHERSON,+KS+67460&hl=en"
MERRIAM POLICE DEPARTMENT,WALGREENS,8701 JOHNSON DR,MERRIAM,KS,66202,"http://maps.google.com/maps?q=8701 JOHNSON DR,+MERRIAM,+KS+66202&hl=en"
MIAMI AGENCY,MIAMI AGENCY,34 A ST NE,MIAMI,OK,74355,"http://maps.google.com/maps?q=34 A ST NE,+MIAMI,+OK+74355&hl=en"
MIAMI COUNTY SHERIFF OFFICE (NO BOXES),MIAMI COUNTY SHERIFF'S OFFICE COMMUNITY ROOM,209 S. PEARL,PAOLA,KS,66071,"http://maps.google.com/maps?q=209 S. PEARL,+PAOLA,+KS+66071&hl=en"
MIAMI NATION TRIBAL POLICE,MIAMI NATION TRIBAL POLICE,3410 P. STREET,MIAMI,OK,74354,"http://maps.google.com/maps?q=3410 P. STREET,+MIAMI,+OK+74354&hl=en"
MINDEN POLICE DEPARTMENT,MINDEN POLICE DEPARTMENT WEST SIDE OF THE BUILDING,246 N. COLORADO,MINDEN,NE,68959,"http://maps.google.com/maps?q=246 N. COLORADO,+MINDEN,+NE+68959&hl=en"
MISSION POLICE DEPARTMENT,HY-VEE,6655 MARTWAY,MISSION,KS,66202,"http://maps.google.com/maps?q=6655 MARTWAY,+MISSION,+KS+66202&hl=en"
MISSOURI SOUTHERN STATE UNIV POLICE DEPT,MSSU PD,726 N. MISSION HILLS DRIVE,JOPLIN,MO,64801,"http://maps.google.com/maps?q=726 N. MISSION HILLS DRIVE,+JOPLIN,+MO+64801&hl=en"
MONTGOMERY COUNTY SHERIFFS OFFICE,HY VEE PHARMACY,1605 N BROADWAY ST,RED OAK,IA,51566,"http://maps.google.com/maps?q=1605 N BROADWAY ST,+RED OAK,+IA+51566&hl=en"
MORRIS COUNTY SHERIFF DEPT.,COUNCIL GROVE HIGH SCHOOL,129 HOCKADAY ST,COUNCIL GROVE,KS,66846,"http://maps.google.com/maps?q=129 HOCKADAY ST,+COUNCIL GROVE,+KS+66846&hl=en"
MOUND CITY POLICE DEPARTMENT,MOUND CITY POLICE DEPARTMENT,205 EAST SIXTH STREET,MOUND CITY,MO,64470,"http://maps.google.com/maps?q=205 EAST SIXTH STREET,+MOUND CITY,+MO+64470&hl=en"
NEBRASKA STATE PATROL,CHI HEALTH ST. FRANCIS SOUTH PATIENT LOBBY ENTRANCE,2620 W. FAIDLEY AVENUE,GRAND ISLAND,NE,68803,"http://maps.google.com/maps?q=2620 W. FAIDLEY AVENUE,+GRAND ISLAND,+NE+68803&hl=en"
NEMAHA CO. SHERIFF'S OFFICE,NEMAHA CO. SHERIFF'S OFFICE,212 N. 6TH ST,SENECA,KS,66538,"http://maps.google.com/maps?q=212 N. 6TH ST,+SENECA,+KS+66538&hl=en"
NEODESHA POLICE DEPARTMENT,NEODESHA POLICE DEPARTMENT,1407 N. 8TH STREET,NEODESHA,KS,66757,"http://maps.google.com/maps?q=1407 N. 8TH STREET,+NEODESHA,+KS+66757&hl=en"
NEOSHO POLICE DEPARTMENT,WILDCAT CORNER,817 S NEOSHO BLVD,NEOSHO,MO,64850,"http://maps.google.com/maps?q=817 S NEOSHO BLVD,+NEOSHO,+MO+64850&hl=en"
NEVADA POLICE DEPT,NEVADA POLICE DEPT,120 SOUTH ASH STEEET,NEVADA,MO,64772,"http://maps.google.com/maps?q=120 SOUTH ASH STEEET,+NEVADA,+MO+64772&hl=en"
NEWTON COUNTY SHERIFF'S OFFICE,NEWTON COUNTY SHERIFF'S OFFICE,208 W. COLER ST.,NEOSHO,MO,64850,"http://maps.google.com/maps?q=208 W. COLER ST.,+NEOSHO,+MO+64850&hl=en"
NORTH KANSAS CITY POLICE DEPARTMENT,NORTH KANSAS CITY POLICE DEPARTMENT PD LOBBY,2020 HOWELL,NORTH KANSAS CITY,MO,64116,"http://maps.google.com/maps?q=2020 HOWELL,+NORTH KANSAS CITY,+MO+64116&hl=en"
NORTHEASTERN STATE UNIVERSITY POLICE,NORTHEASTERN HEALTH SYSTEMS,1400 EAST DOWNING,TAHLEQUAH,OK,74464,"http://maps.google.com/maps?q=1400 EAST DOWNING,+TAHLEQUAH,+OK+74464&hl=en"
OKLAHOMA STATE UNIVERSITY PD,OKLAHOMA STATE UNIVERSITY IT,1801 E. 4TH ST.,OKMULGEE,OK,74447,"http://maps.google.com/maps?q=1801 E. 4TH ST.,+OKMULGEE,+OK+74447&hl=en"
OLATHE POLICE DEPARTMENT,OLATHE POLICE DEPARTMENT,501 E OLD 56 HWY,OLATHE,KS,66061,"http://maps.google.com/maps?q=501 E OLD 56 HWY,+OLATHE,+KS+66061&hl=en"
OMAHA POLICE DEPT.-NW PRECINCT,FAMILY FARE SUPERMARKET,3026 S 24TH STREET,OMAHA,NE,68108,"http://maps.google.com/maps?q=3026 S 24TH STREET,+OMAHA,+NE+68108&hl=en"
OMAHA POLICE DEPT.-NW PRECINCT,HYVEE,747 N 132ND ST,OMAHA,NE,68154,"http://maps.google.com/maps?q=747 N 132ND ST,+OMAHA,+NE+68154&hl=en"
OMAHA POLICE DEPT.-NW PRECINCT,HYVEE,8809 W CENTER ROAD,OMAHA,NE,68124,"http://maps.google.com/maps?q=8809 W CENTER ROAD,+OMAHA,+NE+68124&hl=en"
OMAHA POLICE DEPT.-NW PRECINCT,WALGREENS,3005 LAKE ST,OMAHA,NE,68111,"http://maps.google.com/maps?q=3005 LAKE ST,+OMAHA,+NE+68111&hl=en"
OSAGE COUNTY SHERIFF'S OFFICE,OSAGE COUNTY SHERIFF'S OFFICE,131 W. 14TH,LYNDON,KS,66451,"http://maps.google.com/maps?q=131 W. 14TH,+LYNDON,+KS+66451&hl=en"
OVERLAND PARK PD,BLACK AND VEATCH HOURS: 8:00AM - 2:00PM,11401 LAMAR,OVERLAND PARK,KS,66213,"http://maps.google.com/maps?q=11401 LAMAR,+OVERLAND PARK,+KS+66213&hl=en"
OVERLAND PARK PD,CHILDREN'S MERCY HOSPITAL,5808 W 110TH STREET,OVERLAND PARK,KS,66211,"http://maps.google.com/maps?q=5808 W 110TH STREET,+OVERLAND PARK,+KS+66211&hl=en"
OVERLAND PARK PD,HEN HOUSE MARKET,6900 W. 135TH STREET,OVERLAND PARK,KS,66213,"http://maps.google.com/maps?q=6900 W. 135TH STREET,+OVERLAND PARK,+KS+66213&hl=en"
OVERLAND PARK PD,MYRON E. SCAFE JUSTICE CENTER,8500 ANTIOCH,OVERLAND PARK,KS,66213,"http://maps.google.com/maps?q=8500 ANTIOCH,+OVERLAND PARK,+KS+66213&hl=en"
OVERLAND PARK PD,PRICE CHOPPER,11700 W. 135TH STREET,OVERLAND PARK,KS,66213,"http://maps.google.com/maps?q=11700 W. 135TH STREET,+OVERLAND PARK,+KS+66213&hl=en"
OVERLAND PARK PD,PRICE CHOPPER,7000 W. 75TH STREET,OVERLAND PARK,KS,66212,"http://maps.google.com/maps?q=7000 W. 75TH STREET,+OVERLAND PARK,+KS+66212&hl=en"
OVERLAND PARK PD,PRICE CHOPPER,7201 W. 151ST STREET,OVERLAND PARK,KS,66213,"http://maps.google.com/maps?q=7201 W. 151ST STREET,+OVERLAND PARK,+KS+66213&hl=en"
OVERLAND PARK PD,PRICE CHOPPER,7418 W. 119TH STREET,OVERLAND PARK,KS,66213,"http://maps.google.com/maps?q=7418 W. 119TH STREET,+OVERLAND PARK,+KS+66213&hl=en"
OVERLAND PARK PD,W. JACK SANDERS JUSTICE CENTER,12400 FOSTER,OVERLAND PARK,KS,66213,"http://maps.google.com/maps?q=12400 FOSTER,+OVERLAND PARK,+KS+66213&hl=en"
PAOLA POLICE DEPARTMENT,PAOLA POLICE DEPARTMENT DROP BOX LOCATED IN LOBBY OF POLICE STATION,805 N PEARL,PAOLA,KS,66071,"http://maps.google.com/maps?q=805 N PEARL,+PAOLA,+KS+66071&hl=en"
PAWNEE AGENCY,PAWNEE AGENCY,123 WHITE EAGLE DRIVE,PONCA CITY,OK,74601,"http://maps.google.com/maps?q=123 WHITE EAGLE DRIVE,+PONCA CITY,+OK+74601&hl=en"
PECULIAR POLICE DEPARTMENT,PECULIAR POLICE DEPARTMENT,224 N. MAIN STREET,PECULIAR,MO,64078,"http://maps.google.com/maps?q=224 N. MAIN STREET,+PECULIAR,+MO+64078&hl=en"
PITTSBURG KANSAS POLICE DEPT.,PITTSBURG POLICE DEPARTMENT,201 N. PINE ST.,PITTSBURG,KS,66762,"http://maps.google.com/maps?q=201 N. PINE ST.,+PITTSBURG,+KS+66762&hl=en"
PLEASANT HILL POLICE DEPARTMENT,COSENTINO'S PRICE CHOPPER,2101 N. STATE ROUTE 7,PLEASANT HILL,MO,64080,"http://maps.google.com/maps?q=2101 N. STATE ROUTE 7,+PLEASANT HILL,+MO+64080&hl=en"
PRAIRIE VILLAGE POLICE DEPARTMENT,PRAIRIE VILLAGE POLICE DEPT.,7710 MISSION ROAD,PRAIRIE VILLAGE,KS,66208,"http://maps.google.com/maps?q=7710 MISSION ROAD,+PRAIRIE VILLAGE,+KS+66208&hl=en"
PRATT KANSAS POLICE DEPARTMENT,WALMART,2003 E. 1ST ST.,PRATT,KS,67124,"http://maps.google.com/maps?q=2003 E. 1ST ST.,+PRATT,+KS+67124&hl=en"
RALSTON POLICE DEPARTMENT,WALGREENS 84TH & HARRISON,8380 HARRISON STREET,RALSTON,NE,68127,"http://maps.google.com/maps?q=8380 HARRISON STREET,+RALSTON,+NE+68127&hl=en"
RAYMORE POLICE DEPT.,PRICE CHOPPER,900 W. FOXWOOD DR.,RAYMORE,MO,64083,"http://maps.google.com/maps?q=900 W. FOXWOOD DR.,+RAYMORE,+MO+64083&hl=en"
RAYMORE POLICE DEPT.,RAYMORE POLICE DEPARTMENT LOBBY,100 MUNICIPAL CIR,RAYMORE,MO,64083,"http://maps.google.com/maps?q=100 MUNICIPAL CIR,+RAYMORE,+MO+64083&hl=en"
RAYTOWN POLICE DEPARTMENT (DOUBLE),RAYTOWN CITY HALL PARKINGLOT (WEATHER PERMITTING),10000 E. 59TH STREET,KANSAS CITY,MO,64133,"http://maps.google.com/maps?q=10000 E. 59TH STREET,+KANSAS CITY,+MO+64133&hl=en"
RILEY COUNTY POLICE DEPARTMENT,DILLONS,1101 WESTLOOP PLACE,MANHATTAN,KS,66502,"http://maps.google.com/maps?q=1101 WESTLOOP PLACE,+MANHATTAN,+KS+66502&hl=en"
RILEY COUNTY POLICE DEPARTMENT,RILEY COUNTY POLICE DEPARTMENT,1001 S. SETH CHILD ROAD,MANHATTAN,KS,66502,"http://maps.google.com/maps?q=1001 S. SETH CHILD ROAD,+MANHATTAN,+KS+66502&hl=en"
RIVERSIDE POLICE DEPARTMENT,RIVERSIDE POLICE DEPT.,2990 NW VIVION ROAD,RIVERSIDE,MO,64150,"http://maps.google.com/maps?q=2990 NW VIVION ROAD,+RIVERSIDE,+MO+64150&hl=en"
ROELAND PARK POLICE DEPARTMENT,PRICE CHOPPER GROCERY STORE ROELAND PARK LOCATION,4950 ROE AVENUE,ROELAND PARK,KS,66205,"http://maps.google.com/maps?q=4950 ROE AVENUE,+ROELAND PARK,+KS+66205&hl=en"
ROSE HILL POLICE DEPARTMENT,ROSE HILL POLICE DEPARTMENT,125 W ROSEWOOD ST,ROSE HILL,KS,67133,"http://maps.google.com/maps?q=125 W ROSEWOOD ST,+ROSE HILL,+KS+67133&hl=en"
RUSH COUNTY SHERIFF'S OFFICE,RUSH COUNTY SHERIFF'S OFFICE,715 ELM,LA CROSSE,KS,67548,"http://maps.google.com/maps?q=715 ELM,+LA CROSSE,+KS+67548&hl=en"
SALINE COUNTY SHERIFF'S OFFICE,DILLONS,1235 E. CLOUD STREET,SALINA,KS,67401,"http://maps.google.com/maps?q=1235 E. CLOUD STREET,+SALINA,+KS+67401&hl=en"
SAPULPA POLICE DEPARTMENT,SAPULPA POLICE DEPARTMENT,20 N. WALNUT ST.,SAPULPA,OK,74066,"http://maps.google.com/maps?q=20 N. WALNUT ST.,+SAPULPA,+OK+74066&hl=en"
SARPY COUNTY SHERIFF'S OFFICE,HY-VEE GROCERY STORE (SHADOW LAKE) NORTH PARKING LOT,11650 S. 73RD STREET,PAPILLION,NE,68046,"http://maps.google.com/maps?q=11650 S. 73RD STREET,+PAPILLION,+NE+68046&hl=en"
SEDGWICK COUNTY SHERIFF'S OFFICE,HOUSEHOLD HAZARDOUS WASTE,801 W. STILLWELL,WICHITA,KS,67213,"http://maps.google.com/maps?q=801 W. STILLWELL,+WICHITA,+KS+67213&hl=en"
SEDGWICK COUNTY SHERIFF'S OFFICE,OAKLAWN ACTIVITY CENTER,4900 SOUTH CLIFTON,WICHITA,KS,67203,"http://maps.google.com/maps?q=4900 SOUTH CLIFTON,+WICHITA,+KS+67203&hl=en"
SEDGWICK COUNTY SHERIFF'S OFFICE,SEDGWICK COUNTY ZOO,5500 W. ZOO BLVD.,WICHITA,KS,67212,"http://maps.google.com/maps?q=5500 W. ZOO BLVD.,+WICHITA,+KS+67212&hl=en"
SHAWNEE COUNTY SHERIFF'S OFFICE (DOUBLE BOXES),SHAWNEE HEIGHTS FIRE DEPARTMENT,5301 SE CALIFORNIA AVE,TOPEKA,KS,66609,"http://maps.google.com/maps?q=5301 SE CALIFORNIA AVE,+TOPEKA,+KS+66609&hl=en"
SHAWNEE COUNTY SHERIFF'S OFFICE (DOUBLE BOXES),SOLDIER TOWNSHIP FIRE DEPARTMENT,600 NW 46TH STREET,TOPEKA,KS,66617,"http://maps.google.com/maps?q=600 NW 46TH STREET,+TOPEKA,+KS+66617&hl=en"
SHAWNEE POLICE DEPARTMENT,SHAWNEE POLICE DEPARTMENT,5850 RENNER RD,SHAWNEE,KS,66217,"http://maps.google.com/maps?q=5850 RENNER RD,+SHAWNEE,+KS+66217&hl=en"
SOUTH HUTCHINSON POLICE DEPARTMENT,SOUTH HUTCHINSON POLICE DEPARTMENT,10 E BLANCHARD AVE,SOUTH HUTCHINSON,KS,67505,"http://maps.google.com/maps?q=10 E BLANCHARD AVE,+SOUTH HUTCHINSON,+KS+67505&hl=en"
SPRING HILL POLICE DEPARTMENT,SPRING HILL POLICE DEPARTMENT,318 E. NICHOLS ST,SPRING HILL,KS,66083,"http://maps.google.com/maps?q=318 E. NICHOLS ST,+SPRING HILL,+KS+66083&hl=en"
SUGAR CREEK POLICE DEPARTMENT,SUGAR CREEK POLICE DEPARTMENT,1001 HEROES WAY,SUGAR CREEK,MO,64054,"http://maps.google.com/maps?q=1001 HEROES WAY,+SUGAR CREEK,+MO+64054&hl=en"
TREGO COUNTY SHERIFF'S OFFICE,TREGO COUNTY SHERIFF'S OFFICE,525 WARREN AVE,WAKEENEY,KS,67672,"http://maps.google.com/maps?q=525 WARREN AVE,+WAKEENEY,+KS+67672&hl=en"
TULSA PD,PATRICK HENRY ELEMENTARY,3820 E. 41ST ST,TULSA,OK,74135,"http://maps.google.com/maps?q=3820 E. 41ST ST,+TULSA,+OK+74135&hl=en"
TULSA PD,SPIRIT HALLOWEEN OLD GANDER MOUNTAIN,8310 S. OLYMPIA AVE.,TULSA,OK,74129,"http://maps.google.com/maps?q=8310 S. OLYMPIA AVE.,+TULSA,+OK+74129&hl=en"
WABAUNSEE COUNTY SHERIFF'S OFFICE,"WABAUNSEE COUNTY COURTHOUSE 4TH FLOOR,",215 KANSAS AVE.4TH FLOOR,ALMA,KS,66401,"http://maps.google.com/maps?q=215 KANSAS AVE.,+ALMA,+KS+66401&hl=en"
WAMEGO POLICE DEPT.,GENE'S HEARTLAND FOODS,1003 US 24 HWY,WAMEGO,KS,66547,"http://maps.google.com/maps?q=1003 US 24 HWY,+WAMEGO,+KS+66547&hl=en"
WASHINGTON COUNTY SHERIFF'S OFFICE,WASHINGTON COUNTY SHERIFF'S OFFICE,301 B. STREET,WASHINGTON,KS,66968,"http://maps.google.com/maps?q=301 B. STREET,+WASHINGTON,+KS+66968&hl=en"
WICHITA POLICE DEPARTMENT,DILLONS PARKING LOT,9450 E HARRY,WICHITA,KS,67207,"http://maps.google.com/maps?q=9450 E HARRY,+WICHITA,+KS+67207&hl=en"
WYANDOTTE COUNTY SHERIFF,CVS,3750 STATE AVEKANSAS CITY,KANSAS CITY,KS,66102,"http://maps.google.com/maps?q=3750 STATE AVE,+KANSAS CITY,+KS+66102&hl=en"
WYANDOTTE COUNTY SHERIFF,CVS,4300 RAINBOW,KANSAS CITY,KS,66103,"http://maps.google.com/maps?q=4300 RAINBOW,+KANSAS CITY,+KS+66103&hl=en"
WYANDOTTE COUNTY SHERIFF,CVS,4645 SHAWNEE DRIVEKANSAS CITY,KANSAS CITY,KS,66106,"http://maps.google.com/maps?q=4645 SHAWNEE DRIVE,+KANSAS CITY,+KS+66106&hl=en"
WYANDOTTE COUNTY SHERIFF,CVS,950 MINNESOTAKANSAS CITY,KANSAS CITY,KS,66101,"http://maps.google.com/maps?q=950 MINNESOTA,+KANSAS CITY,+KS+66101&hl=en"
WYANDOTTE NATION TRIBAL POLICE,WYANDOTTE NATION TRIBAL POLICE,14 SOUTH MAIN,WYANDOTTE,OK,74370,"http://maps.google.com/maps?q=14 SOUTH MAIN,+WYANDOTTE,+OK+74370&hl=en"
