Participant,CollectionSite,Address,City,State,Zip,MapURL
ABERDEEN POLICE DEPARTMENT,ABERDEEN TWP. POLICE DEPT. 732-566-2054,1 ABERDEEN SQUARE,ABERDEEN,NJ,07747,"http://maps.google.com/maps?q=1 ABERDEEN SQUARE,+ABERDEEN,+NJ+07747&hl=en"
ADELPHI UNIVERSITY,ADELPHI UNIVERSITY,"ONE SOUTH AVE, U.C. LOBBY",GARDEN CITY,NY,11530,"http://maps.google.com/maps?q=ONE SOUTH AVE, U.C. LOBBY,+GARDEN CITY,+NY+11530&hl=en"
ALLENHURST POLICE DEPARTMENT,ALLENHURST POLICE DEPARTMENT 732-531-2255,125 CORLIES AVENUE,ALLENHURST,NJ,07711,"http://maps.google.com/maps?q=125 CORLIES AVENUE,+ALLENHURST,+NJ+07711&hl=en"
ARDSLEY SAYF COALITION,ARDSLEY VILLAGE HALL,507 ASHFORD HALL,ARDSLEY,NY,10502,"http://maps.google.com/maps?q=507 ASHFORD HALL,+ARDSLEY,+NY+10502&hl=en"
ASBURY PARK POLICE DEPARTMENT,ASBURY PARK POLICE DEPT.,1 MUNICIPAL PLAZA,ASBURY PARK,NJ,07712,"http://maps.google.com/maps?q=1 MUNICIPAL PLAZA,+ASBURY PARK,+NJ+07712&hl=en"
ATLANTIC HIGHLANDS POLICE DEPT.,ATLANTIC HIGHLANDS POLICE DEPT.,100 FIRST AVE.,ATLANTIC HIGHLANDS,NJ,07716,"http://maps.google.com/maps?q=100 FIRST AVE.,+ATLANTIC HIGHLANDS,+NJ+07716&hl=en"
BELMAR POLICE DEPARTMENT,BELMAR POLICE DEPARTMENT 732-681-1700,601 MAIN ST.,BELMAR,NJ,07719,"http://maps.google.com/maps?q=601 MAIN ST.,+BELMAR,+NJ+07719&hl=en"
BERKELEY HEIGHTS POLICE DEPARTMENT,BERKELEY HEIGHTS POLICE DEPARTMENT 908-464-1111,29 PARK AVE.,BERKELEY HEIGHTS,NJ,07922,"http://maps.google.com/maps?q=29 PARK AVE.,+BERKELEY HEIGHTS,+NJ+07922&hl=en"
BERNARDS TOWNSHIP POLICE DEPARTMENT,BERNARDS TOWNSHIP POLICE DEPARTMENT,1 COLLYER LANE,BASKING RIDGE,NJ,07920,"http://maps.google.com/maps?q=1 COLLYER LANE,+BASKING RIDGE,+NJ+07920&hl=en"
BOROUGH OF FAIRVIEW,FAIRVIEW POLICE DEPARTMENT 201-943-2100,59 ANDERSON AVE.,FAIRVIEW,NJ,07022,"http://maps.google.com/maps?q=59 ANDERSON AVE.,+FAIRVIEW,+NJ+07022&hl=en"
BRADLEY BEACH POLICE DEPARTMENT,BRADLEY BEACH POLICE DEPARTMENT 732-775-6900,701 MAIN STREET,BRADLEY BEACH,NJ,07720,"http://maps.google.com/maps?q=701 MAIN STREET,+BRADLEY BEACH,+NJ+07720&hl=en"
BRIDGEWATER TWP. POLICE,BRIDGEWATER POLICE HQ,100 COMMONS WAY,BRIDGEWATER,NJ,08807,"http://maps.google.com/maps?q=100 COMMONS WAY,+BRIDGEWATER,+NJ+08807&hl=en"
CARTERET POLICE DEPARTMENT,CARTERET POLICE DEPARTMENT 732-541-4181,230 ROOSEVELT AVE.,CARTERET,NJ,07008,"http://maps.google.com/maps?q=230 ROOSEVELT AVE.,+CARTERET,+NJ+07008&hl=en"
CEDAR GROVE POLICE DEPARTMENT,CEDAR GROVE POLICE DEPARTMENT 973-239-4100,525 ROUTE 23,CEDAR GROVE,NJ,07009,"http://maps.google.com/maps?q=525 ROUTE 23,+CEDAR GROVE,+NJ+07009&hl=en"
CHATHAM BOROUGH POLICE DEPARTMENT,CVS PHARMACY,471 MAIN STREET,CHATHAM,NJ,07928,"http://maps.google.com/maps?q=471 MAIN STREET,+CHATHAM,+NJ+07928&hl=en"
CHATHAM TOWNSHIP,CVS PHARMACY,641 SHUNPIKE ROAD,CHATHAM,NJ,07928,"http://maps.google.com/maps?q=641 SHUNPIKE ROAD,+CHATHAM,+NJ+07928&hl=en"
CLARKSTOWN POLICE,CVS PHARMACY,280 SOUTH MAIN ST,NEW CITY,NY,10956,"http://maps.google.com/maps?q=280 SOUTH MAIN ST,+NEW CITY,+NY+10956&hl=en"
CLARKSTOWN POLICE,CVS PHARMACY,330 ROUTE 304,BARDONIA,NY,10954,"http://maps.google.com/maps?q=330 ROUTE 304,+BARDONIA,+NY+10954&hl=en"
CLOSTER POLICE DEPARTMENT,CLOSTER POLICE DEPT. 201-768-5000,295 CLOSTER DOCK ROAD,CLOSTER,NJ,07624,"http://maps.google.com/maps?q=295 CLOSTER  DOCK ROAD,+CLOSTER,+NJ+07624&hl=en"
CRANBURY TOWNSHIP POLICE DEPT.,CRANBURY TOWNSHIP POLICE DEPARTMENT,1 LOGAN DRIVE,CRANBURY,NJ,08512,"http://maps.google.com/maps?q=1 LOGAN DRIVE,+CRANBURY,+NJ+08512&hl=en"
CRESSKILL POLICE DEPARTMENT,CRESSKILL POLICE DEPARTMENT,67 UNION AVENUE,CRESSKILL,NJ,07626,"http://maps.google.com/maps?q=67 UNION AVENUE,+CRESSKILL,+NJ+07626&hl=en"
CROTON ON HUDSON POLICE,CROTON COMMONS SHOPPING PLAZA,177 SOUTH RIVERSIDE AVENUE,CROTON ON HUDSON,NY,10520,"http://maps.google.com/maps?q=177 SOUTH RIVERSIDE AVENUE,+CROTON ON HUDSON,+NY+10520&hl=en"
DEA NEW YORK DIVISION,NEW YORK CITY POLICE DEPARTMENT BRONX 42 PRECINCT,830 WASHINGTON AVENUE MORRISANIA,BRONX,NY,10451,"http://maps.google.com/maps?q=830 WASHINGTON AVENUE MORRISANIA,+BRONX,+NY+10451&hl=en"
DEA NEW YORK DIVISION,NEW YORK CITY POLICE DEPARTMENT BRONX 45 PRECINCT,2877 BARKLEY AVENUE (SCHUYLERVILLE),BRONX,NY,10465,"http://maps.google.com/maps?q=2877 BARKLEY AVENUE (SCHUYLERVILLE),+BRONX,+NY+10465&hl=en"
DEA NEW YORK DIVISION,NEW YORK CITY POLICE DEPARTMENT BRONX 46 PRECINCT,2120 RYER AVENUE (FORDHAM),BRONX,NY,10457,"http://maps.google.com/maps?q=2120 RYER AVENUE (FORDHAM),+BRONX,+NY+10457&hl=en"
DEA NEW YORK DIVISION,NEW YORK CITY POLICE DEPARTMENT BRONX 48 PRECINCT,450 CROSS BRONX EXPRESSWAY (EAST TREMONT),BRONX,NY,10457,"http://maps.google.com/maps?q=450 CROSS BRONX EXPRESSWAY (EAST TREMONT),+BRONX,+NY+10457&hl=en"
DEA NEW YORK DIVISION,NEW YORK CITY POLICE DEPARTMENT BRONX 50TH PRECINCT,3450 KINGSBRIDGE AVENUE (KINGSBRIDGE),BRONX,NY,10463,"http://maps.google.com/maps?q=3450 KINGSBRIDGE AVENUE (KINGSBRIDGE),+BRONX,+NY+10463&hl=en"
DEA NEW YORK DIVISION,NEW YORK CITY POLICE DEPARTMENT BROOKLYN 61 PRECINCT,2575 CONEY ISLAND AVENUE (HOMECREST),BROOKLYN,NY,11223,"http://maps.google.com/maps?q=2575 CONEY ISLAND AVENUE (HOMECREST),+BROOKLYN,+NY+11223&hl=en"
DEA NEW YORK DIVISION,NEW YORK CITY POLICE DEPARTMENT BROOKLYN 68 PRECINCT,333 65TH STREET (BAY RIDGE),BROOKLYN,NY,11220,"http://maps.google.com/maps?q=333 65TH STREET (BAY RIDGE),+BROOKLYN,+NY+11220&hl=en"
DEA NEW YORK DIVISION,NEW YORK CITY POLICE DEPARTMENT BROOKLYN 78 PRECINCT,65 SIXTH AVENUE (FLATBUSH),BROOKLYN,NY,11217,"http://maps.google.com/maps?q=65 SIXTH AVENUE (FLATBUSH),+BROOKLYN,+NY+11217&hl=en"
DEA NEW YORK DIVISION,NEW YORK CITY POLICE DEPARTMENT BROOKLYN 84 PRECINCT,301 GOLD STREET,BROOKLYN,NY,11201,"http://maps.google.com/maps?q=301 GOLD STREET,+BROOKLYN,+NY+11201&hl=en"
DEA NEW YORK DIVISION,NEW YORK CITY POLICE DEPARTMENT BROOKLYN 90TH PRECINCT,211 UNION AVENUE (WILLIAMSBURG),BROOKLYN,NY,11206,"http://maps.google.com/maps?q=211 UNION AVENUE (WILLIAMSBURG),+BROOKLYN,+NY+11206&hl=en"
DEA NEW YORK DIVISION,NEW YORK CITY POLICE DEPARTMENT MANHATTAN 10 PRECINCT,230 WEST 20TH STREET CHELSEA,NEW YORK,NY,10011,"http://maps.google.com/maps?q=230 WEST 20TH STREET CHELSEA,+NEW YORK,+NY+10011&hl=en"
DEA NEW YORK DIVISION,NEW YORK CITY POLICE DEPARTMENT MANHATTAN 13 PRECINCT,230 EAST 21ST STREET STUYVESTANT TOWN,NEW YORK,NY,10010,"http://maps.google.com/maps?q=230 EAST 21ST STREET STUYVESTANT TOWN,+NEW YORK,+NY+10010&hl=en"
DEA NEW YORK DIVISION,NEW YORK CITY POLICE DEPARTMENT MANHATTAN 20 PRECINCT,120 WEST 82ND STREET,NEW YORK,NY,10024,"http://maps.google.com/maps?q=120 WEST 82ND STREET,+NEW YORK,+NY+10024&hl=en"
DEA NEW YORK DIVISION,NEW YORK CITY POLICE DEPARTMENT MANHATTAN 25 PRECINCT,120 EAST 119TH STREET,NEW YORK,NY,10035,"http://maps.google.com/maps?q=120 EAST 119TH STREET,+NEW YORK,+NY+10035&hl=en"
DEA NEW YORK DIVISION,NEW YORK CITY POLICE DEPARTMENT MANHATTAN 7 PRECINCT,19 1/2 PITT STREET LOWER EAST SIDE,NEW YORK,NY,10002,"http://maps.google.com/maps?q=19 1/2 PITT STREET LOWER EAST SIDE,+NEW YORK,+NY+10002&hl=en"
DEA NEW YORK DIVISION,NEW YORK CITY POLICE DEPARTMENT QUEENS 100TH PRECINCT,92-24 ROCKAWAY BEACH BOULEVARD (ROCKAWAY),FAR ROCKAWAY,NY,11693,"http://maps.google.com/maps?q=92-24 ROCKAWAY BEACH BOULEVARD (ROCKAWAY),+FAR ROCKAWAY,+NY+11693&hl=en"
DEA NEW YORK DIVISION,NEW YORK CITY POLICE DEPARTMENT QUEENS 103RD PRECINCT,168-02 PO EDWARD BYRNE AVENUE (JAMAICA),JAMAICA,NY,11432,"http://maps.google.com/maps?q=168-02 PO EDWARD BYRNE AVENUE (JAMAICA),+JAMAICA,+NY+11432&hl=en"
DEA NEW YORK DIVISION,NEW YORK CITY POLICE DEPARTMENT QUEENS 111 PRECINCT,45-06 215TH STREET (BAYSIDE),BAYSIDE,NY,11361,"http://maps.google.com/maps?q=45-06 215TH STREET (BAYSIDE),+BAYSIDE,+NY+11361&hl=en"
DEA NEW YORK DIVISION,NEW YORK CITY POLICE DEPARTMENT QUEENS 112TH PRECINCT,68-04 AUSTIN STREET (FOREST HILLS),FOREST HILLS,NY,11375,"http://maps.google.com/maps?q=68-04 AUSTIN STREET (FOREST HILLS),+FOREST HILLS,+NY+11375&hl=en"
DEA NEW YORK DIVISION,NEW YORK CITY POLICE DEPARTMENT STATEN ISLAND 120TH PRECINCT,78 RICHMOND TERRACE (STGEORGE),STATEN ISLAND,NY,10301,"http://maps.google.com/maps?q=78 RICHMOND TERRACE (STGEORGE),+STATEN ISLAND,+NY+10301&hl=en"
DEA NEW YORK DIVISION,NEW YORK CITY POLICE DEPARTMENT STATEN ISLAND 123RD PRECINCT,116 MAIN STREET (TOTTENVILLE),STATEN ISLAND,NY,10307,"http://maps.google.com/maps?q=116 MAIN STREET (TOTTENVILLE),+STATEN ISLAND,+NY+10307&hl=en"
DEA NEW YORK DIVISION,NEW YORK POLICE DEPARTMENT STATEN ISLAND 122ND PRECINCT,2320 HYLAN BLVD (NEW DORP),STATEN ISLAND,NY,10306,"http://maps.google.com/maps?q=2320 HYLAN BLVD (NEW DORP),+STATEN ISLAND,+NY+10306&hl=en"
DEAL POLICE DEPARTMENT,DEAL FIRE DEPARTMENT 732-531-1113,110 BRIGHTON AVE.,DEAL,NJ,07723,"http://maps.google.com/maps?q=110 BRIGHTON AVE.,+DEAL,+NJ+07723&hl=en"
EAST BRUNSWICK POLICE DEPARTMENT,EAST BRUNSWICK POLICE DEPARTMENT,1 CIVIC CENTER DRIVE,EAST BRUNSWICK,NJ,08816,"http://maps.google.com/maps?q=1 CIVIC CENTER DRIVE,+EAST BRUNSWICK,+NJ+08816&hl=en"
EATONTOWN POLICE DEPARTMENT,EATONTOWN POLICE DEPARTMENT 732-542-0100,47 BROAD ST.55 WYCKOFF RD.,EATONTOWN,NJ,07724,"http://maps.google.com/maps?q=47 BROAD ST.,+EATONTOWN,+NJ+07724&hl=en"
EDISON POLICE DEPARTMENT,EDISON POLICE DEPARTMENT 732-248-6442,100 MUNICIPAL BLVD.,EDISON,NJ,08817,"http://maps.google.com/maps?q=100 MUNICIPAL BLVD.,+EDISON,+NJ+08817&hl=en"
ELIZABETH POLICE DEPARTMENT,CVS PHARMACY,214 RAHWAY AVENUE,ELIZABETH,NJ,07202,"http://maps.google.com/maps?q=214 RAHWAY AVENUE,+ELIZABETH,+NJ+07202&hl=en"
ELMWOOD PARK POLICE DEPARTMENT,ELMWOOK PARK PD,182 MARKET ST,ELMWOOD PARK,NJ,07407,"http://maps.google.com/maps?q=182 MARKET ST,+ELMWOOD PARK,+NJ+07407&hl=en"
EMERSON P.D.,EMERSON POLICE HQ,1 MUNICIPAL PLACE,EMERSON,NJ,07630,"http://maps.google.com/maps?q=1 MUNICIPAL PLACE,+EMERSON,+NJ+07630&hl=en"
ESSEX COUNTY SHERIFF'S OFFICE,ESSEX COUNTY SHERIFF'S OFFICE 973-621-4111,525 WEST MARKET STPATROL HQ,NEWARK,NJ,07105,"http://maps.google.com/maps?q=525 WEST MARKET ST,+NEWARK,+NJ+07105&hl=en"
ESSEX FELLS POLICE DEPARTMENT,ESSEX FELLS POLICE DEPARTMENT,255 ROSELAND AVENUE,ESSEX FELLS,NJ,07021,"http://maps.google.com/maps?q=255 ROSELAND AVENUE,+ESSEX FELLS,+NJ+07021&hl=en"
FLORAL PARK POLICE DEPARTMENT,FLORAL PARK POLICE DEPARTMENT,1 FLORAL BLVD,GREAT NECK,NY,11022,"http://maps.google.com/maps?q=1 FLORAL BLVD,+GREAT NECK,+NY+11022&hl=en"
FLORHAM PARK POLICE DEPARTMENT,RIDGEDALE MIDDLE SCHOOL 973-377-2200,71 RIDGEDALE AVE.,FLORHAM PARK,NJ,07932,"http://maps.google.com/maps?q=71 RIDGEDALE AVE.,+FLORHAM PARK,+NJ+07932&hl=en"
FORT LEE POLICE DEPARTMENT,FORT LEE POLICE DEPARTMENT 201-592-3700,1327 16TH ST.,FORT LEE,NJ,07024,"http://maps.google.com/maps?q=1327 16TH ST.,+FORT LEE,+NJ+07024&hl=en"
FRANKLIN TOWNSHIP,FRANKLIN TWP. P.D.,495 DEMOTT LANE,SOMERSET,NJ,08873,"http://maps.google.com/maps?q=495 DEMOTT LANE,+SOMERSET,+NJ+08873&hl=en"
FREEHOLD BOROUGH POLICE DEPARTMENT,FREEHOLD BOROUGH POLICE DEPARTMENT 732-462-1234 RXT. 107,36 JACKSON ST.,FREEHOLD,NJ,07728,"http://maps.google.com/maps?q=36 JACKSON ST.,+FREEHOLD,+NJ+07728&hl=en"
FREEHOLD TWP. POLICE DEPARTMENT,FREEHOLD RACEWAY MALL,3710 RT. 9CAROUSEL ENTRANCE,FREEHOLD,NJ,07728,"http://maps.google.com/maps?q=3710 RT. 9,+FREEHOLD,+NJ+07728&hl=en"
FREEHOLD TWP. POLICE DEPARTMENT,FREEHOLD TWP. POLICE DEPARTMENT 732-462-7500,1 MUNICIPAL PLAZA,FREEHOLD,NJ,07728,"http://maps.google.com/maps?q=1 MUNICIPAL PLAZA,+FREEHOLD,+NJ+07728&hl=en"
FREEHOLD TWP. POLICE DEPARTMENT,MICHAEL J. TIGHE PARK 732-462-7500,76 GEORGIA ROAD,FREEHOLD,NJ,07728,"http://maps.google.com/maps?q=76 GEORGIA ROAD,+FREEHOLD,+NJ+07728&hl=en"
FREEPORT POLICE DEPARTMENT,FREEPORT POLICE DEPARTMENT DET/LT. WAYNE GIGLIO 516 377-2414,40 N. OCEAN AVENUE,FREEPORT,NY,11520,"http://maps.google.com/maps?q=40 N. OCEAN AVENUE,+FREEPORT,+NY+11520&hl=en"
GARDEN CITY POLICE DEPARTMENT,GARDEN CITY POLICE DEPARTMENT,349 STEWART AVENUE,GARDEN CITY,NY,11530,"http://maps.google.com/maps?q=349 STEWART AVENUE,+GARDEN CITY,+NY+11530&hl=en"
GARFIELD POLICE DEPARTMENT,GARFIELD POLICE DEPARTMENT 973-478-8500,160 BELMONT AVE.,GARFIELD,NJ,07026,"http://maps.google.com/maps?q=160 BELMONT AVE.,+GARFIELD,+NJ+07026&hl=en"
GARWOOD POLICE DEPARTMENT,GARWOOD POLICE DEPARTMENT 908-789-1500,403 SOUTH AVE.,GARWOOD,NJ,07027,"http://maps.google.com/maps?q=403 SOUTH AVE.,+GARWOOD,+NJ+07027&hl=en"
GREEN BROOK,GREEN BROOK POLICE DEPT.,109 GREENBROOK ROAD,GREEN BROOK,NJ,08812,"http://maps.google.com/maps?q=109 GREENBROOK ROAD,+GREEN BROOK,+NJ+08812&hl=en"
GREENWICH POLICE DEPARTMERNT,PUBLIC SAFETY COMPLEX,11 BRUCE PLACE,GREENWICH,CT,06830,"http://maps.google.com/maps?q=11 BRUCE PLACE,+GREENWICH,+CT+06830&hl=en"
HANOVER TOWNSHIP POLICE,WEGMANS SUPERMARKET,34 SYLVAN WAY,WHIPPANY,NJ,07981,"http://maps.google.com/maps?q=34 SYLVAN WAY,+WHIPPANY,+NJ+07981&hl=en"
HAVERSTRAW POLICE DEPARTMENT,CVS,12 WEST RAMAPO ROAD,GARNERVILLE,NY,10923,"http://maps.google.com/maps?q=12 WEST RAMAPO ROAD,+GARNERVILLE,+NY+10923&hl=en"
HAWORTH POLICE DEPARTMENT,HAWORTH POLICE DEPARTMENT,300 HAWORTH AVENUE,HAWORTH,NJ,07641,"http://maps.google.com/maps?q=300 HAWORTH AVENUE,+HAWORTH,+NJ+07641&hl=en"
HEMPSTEAD POLICE DEPARTMENT,HEMPSTEAD POLICE DEPARTMENT,99 NICHOLAS COURTS,HEMPSTEAD,NY,11550,"http://maps.google.com/maps?q=99 NICHOLAS COURTS,+HEMPSTEAD,+NY+11550&hl=en"
HIGHLAND PARK POLICE DEPARTMENT,HIGHLAND PARK COMMUNITY YOUTH CENTER 732-572-3800,222 SOUTH 6TH AVE.,HIGHLAND PARK,NJ,08904,"http://maps.google.com/maps?q=222 SOUTH 6TH AVE.,+HIGHLAND PARK,+NJ+08904&hl=en"
HILLSBOROUGH TWP POLICE DEPT.,HILLSBOROUGH TWP POLICE DEPT.,379 S. BRANCH RD.,HILLSBOROUGH,NJ,08844,"http://maps.google.com/maps?q=379 S. BRANCH RD.,+HILLSBOROUGH,+NJ+08844&hl=en"
HOBOKEN POLICE DEPARTMENT,HOBOKEN POLICE DEPARTMENT,106 HUDSON STREET,HOBOKEN,NJ,07030,"http://maps.google.com/maps?q=106 HUDSON STREET,+HOBOKEN,+NJ+07030&hl=en"
HOWELL TWP. POLICE DEPARTMENT,HOWELL TWP. POLICE DEPARTMENT 732-938-4111,300 OLD TAVERN RD.,HOWELL,NJ,07731,"http://maps.google.com/maps?q=300 OLD TAVERN RD.,+HOWELL,+NJ+07731&hl=en"
HUDSON COUNTY SHERIFF'S OFFICE,HUDSON COUNTY SHERIFF'S OFFICE,257 CORNELISON AVENUE,JERSEY CITY,NJ,07302,"http://maps.google.com/maps?q=257 CORNELISON AVENUE,+JERSEY CITY,+NJ+07302&hl=en"
JAMESBURG POLICE DEPARTMENT,JAMESBURG POLICE DEPT.,131 PERRINEVILLE ROAD,JAMESBURG,NJ,08831,"http://maps.google.com/maps?q=131 PERRINEVILLE ROAD,+JAMESBURG,+NJ+08831&hl=en"
KEANSBURG POLICE DEPARTMENT,FALLON MANOR,43 CHURCH ST.,KEANSBURG,NJ,07734,"http://maps.google.com/maps?q=43 CHURCH ST.,+KEANSBURG,+NJ+07734&hl=en"
KEANSBURG POLICE DEPARTMENT,GRANDVIEW APARTMENTS,1 CHURCH ST.,KEANSBURG,NJ,07734,"http://maps.google.com/maps?q=1 CHURCH ST.,+KEANSBURG,+NJ+07734&hl=en"
KEANSBURG POLICE DEPARTMENT,KEANSBURG POLICE DEPARTMENT,331 CARR AVENUE,KEANSBURG,NJ,07734,"http://maps.google.com/maps?q=331 CARR AVENUE,+KEANSBURG,+NJ+07734&hl=en"
KEANSBURG POLICE DEPARTMENT,MCGRATH TOWERS,25 HANCOCK ST.,KEANSBURG,NJ,07734,"http://maps.google.com/maps?q=25 HANCOCK ST.,+KEANSBURG,+NJ+07734&hl=en"
KEYPORT POLICE DEPARTMENT,KEYPORT POLICE DEPARTMENT 732-264-0706,70 WEST FRONT ST.,KEYPORT,NJ,07735,"http://maps.google.com/maps?q=70 WEST FRONT ST.,+KEYPORT,+NJ+07735&hl=en"
KINGS POINT POLICE DEPARTMENT,KINGS POINT POLICE DEPARTMENT GEORGE J. BANVILLE 516 482-1000,32 STEPPINGSTONE LANE,KINGS POINT,NY,11024,"http://maps.google.com/maps?q=32 STEPPINGSTONE LANE,+KINGS POINT,+NY+11024&hl=en"
LAKE SUCCESS POLICE DEPARTMENT,LAKE SUCCESS POLICE DEPARTMENT,15 VANDERBILT DRIVE,GREAT NECK,NY,11020,"http://maps.google.com/maps?q=15 VANDERBILT DRIVE,+GREAT NECK,+NY+11020&hl=en"
LENOX HEALTH GREENWICH VILLAGE,LENOX HEALTH GREENWICH VILLAGE,30 7TH AVENUE,NEW YORK,NY,10011,"http://maps.google.com/maps?q=30 7TH AVENUE,+NEW YORK,+NY+10011&hl=en"
LENOX HILL HOSPITAL,LENOX HILL HOSPITAL MICHAEL LOMBARDI,100 EAST 77TH STREET,NEW YORK,NY,10075,"http://maps.google.com/maps?q=100 EAST 77TH STREET,+NEW YORK,+NY+10075&hl=en"
LITTLE SILVER POLICE DEPARTMENT,LITTLE SILVER BOROUGH HALL 732-747-5900,480 PROSPECT AVE.,LITTLE SILVER,NJ,07739,"http://maps.google.com/maps?q=480 PROSPECT AVE.,+LITTLE SILVER,+NJ+07739&hl=en"
LONG BEACH POLICE DEPARTMENT,LONG BEACH POLICE DEPARTMENT,1 WEST CHESTER STREET,LONG BEACH,NY,11561,"http://maps.google.com/maps?q=1 WEST CHESTER STREET,+LONG BEACH,+NY+11561&hl=en"
LONG BRANCH POLICE DEPARTMENT,LONG BRANCH SENIOR CENTER,85 SECOND AVENUE,LONG BRANCH,NJ,07740,"http://maps.google.com/maps?q=85 SECOND AVENUE,+LONG BRANCH,+NJ+07740&hl=en"
LONG ISLAND JEWISH MEDICAL CENTER,LONG ISLAND JEWISH MEDICAL CENTER LOBBY,270-05 76ST AVENUE,NEW HYDE PARK,NY,11040,"http://maps.google.com/maps?q=270-05 76ST AVENUE,+NEW HYDE PARK,+NY+11040&hl=en"
LYNBROOK POLICE DEPARTMENT,LYNBROOK POLICE DEPARTMENT SGT SEAN MURPHY,1 COLUMBUS DR AVENUE,LYNBROOK,NY,11563,"http://maps.google.com/maps?q=1 COLUMBUS DR AVENUE,+LYNBROOK,+NY+11563&hl=en"
MAHWAH POLICE DEPARTMENT,MAHWAY POLICE DEPT.,221 FRANKLIN TURNPIKE,MAHWAH,NJ,07430,"http://maps.google.com/maps?q=221 FRANKLIN TURNPIKE,+MAHWAH,+NJ+07430&hl=en"
MALVERNE POLICE DEPARTMENT,MALVERNE POLICE DEPARTMENT,1 BRITTON CIRCLE AVENUE,MALVERNE,NY,11565,"http://maps.google.com/maps?q=1 BRITTON CIRCLE AVENUE,+MALVERNE,+NY+11565&hl=en"
MANALAPAN TWP POLICE DEPT.,MANALAPAN TOWNSHIP POLICE DEPARTMENT,120 RT 522,MANALAPAN,NJ,07726,"http://maps.google.com/maps?q=120 RT 522,+MANALAPAN,+NJ+07726&hl=en"
MANVILLE POLICE DEPARTMENT,MANVILLE POLICE DEPARTMENT 908-725-1900,2 NORTH MAIN ST.,MANVILLE,NJ,08835,"http://maps.google.com/maps?q=2 NORTH MAIN ST.,+MANVILLE,+NJ+08835&hl=en"
MARLBORO TWP. POLICE DEPARTMENT,MARLBORO TWP. POLICE DEPARTMENT 732-536-0100,1979 TOWNSHIP DR.,MARLBORO,NJ,07746,"http://maps.google.com/maps?q=1979 TOWNSHIP DR.,+MARLBORO,+NJ+07746&hl=en"
MATAWAN BOROUGH POLICE DEPARTMENT,MATAWAN POLICE DEPARTMENT,150 MAIN STREET,MATAWAN,NJ,07747,"http://maps.google.com/maps?q=150 MAIN STREET,+MATAWAN,+NJ+07747&hl=en"
METUCHEN POLICE DEPARTMENT,METUCHEN POLICE DEPARTMENT,500 MAIN STREET,METUCHEN,NJ,08840,"http://maps.google.com/maps?q=500 MAIN STREET,+METUCHEN,+NJ+08840&hl=en"
MIDDLESEX POLICE DEPARTMENT,MIDDLESEX POLICE DEPARTMENT 732-356-1900,1101 MOUNTAIN AVE.,MIDDLESEX,NJ,08846,"http://maps.google.com/maps?q=1101 MOUNTAIN AVE.,+MIDDLESEX,+NJ+08846&hl=en"
MIDDLETOWN TOWNSHIP PD,MIDDLETOWN TOWNSHIP PD 7326152100,1 KINGS HWY,MIDDLETOWN,NJ,07748,"http://maps.google.com/maps?q=1 KINGS HWY,+MIDDLETOWN,+NJ+07748&hl=en"
MIDLAND PARK POLICE DEPARTMENT,MIDLAND PARK POLICE DEPARTMENT,280 GODWIN AVENUE,MIDLAND PARK,NJ,07432,"http://maps.google.com/maps?q=280 GODWIN AVENUE,+MIDLAND PARK,+NJ+07432&hl=en"
MONMOUTH BEACH POLICE DEPARTMENT,MONMOUTH BEACH POLICE DEPARTMENT 732-229-1313,14 WILLOW AVE.,MONMOUTH BEACH,NJ,07750,"http://maps.google.com/maps?q=14 WILLOW AVE.,+MONMOUTH BEACH,+NJ+07750&hl=en"
MONMOUTH COUNTY SHERIFF'S OFFICE,MONMOUTH COUNTY SHERIFF'S OFFICE PUBLIC SAFETY COMPLEX,2500 KOZLOSKI RD.,FREEHOLD,NJ,07728,"http://maps.google.com/maps?q=2500 KOZLOSKI RD.,+FREEHOLD,+NJ+07728&hl=en"
MONMOUTH UNIVERSITY POLICE DEPARTMENT,MONMOUTH UNIVERSITY POLICE DEPARTMENT 732-571-4444,400 CEDAR AVE.,WEST LONG BRANCH,NJ,07764,"http://maps.google.com/maps?q=400 CEDAR AVE.,+WEST LONG BRANCH,+NJ+07764&hl=en"
MONROE TOWNSHIP POLICE DEPT.,MONROE TOWNSHIP POLICE DEPT.,3 MUNICIPAL PLAZA,MONROE TOWNSHIP,NJ,08831,"http://maps.google.com/maps?q=3 MUNICIPAL PLAZA,+MONROE TOWNSHIP,+NJ+08831&hl=en"
MONTGOMERY TOWNSHIP P.D.,MONTGOMERY TOWNSHIP P.D,2261 US ROUTE 206,BELLE MEAD,NJ,08502,"http://maps.google.com/maps?q=2261 US ROUTE 206,+BELLE MEAD,+NJ+08502&hl=en"
MORRIS COUNTY PROSECUTOR'S OFFICE,HANOVER SHOPRITE,178 HANOVER AVE,CEDAR KNOLLS,NJ,07927,"http://maps.google.com/maps?q=178 HANOVER AVE,+CEDAR KNOLLS,+NJ+07927&hl=en"
MORRIS COUNTY PROSECUTOR'S OFFICE,MORRIS PLAINS STOP & SHOP SUPERMARKET,245 LITTLETON RD,MORRISTOWN,NJ,07963,"http://maps.google.com/maps?q=245 LITTLETON RD,+MORRISTOWN,+NJ+07963&hl=en"
NEPTUNE TWP. POLICE DEPARTMENT,NEPTUNE TWP. POLICE DEPARTMENT 732-988-8000 EXT. 428,25 NEPTUNE BLVD.,NEPTUNE,NJ,07753,"http://maps.google.com/maps?q=25 NEPTUNE BLVD.,+NEPTUNE,+NJ+07753&hl=en"
NEW BRUNSWICK POLICE DEPARTMENT,NEW BRUNSWICK POLICE DEPARTMENT 732-745-5200,25 KIRKPATRICK ST.,NEW BRUNSWICK,NJ,08901,"http://maps.google.com/maps?q=25 KIRKPATRICK ST.,+NEW BRUNSWICK,+NJ+08901&hl=en"
NEW PROVIDENCE PD,NEW PROVIDENCE PD,360 ELKWOOD AVE.,NEW PROVIDENCE,NJ,07974,"http://maps.google.com/maps?q=360 ELKWOOD AVE.,+NEW PROVIDENCE,+NJ+07974&hl=en"
NEW YORK STATE POLICE,NEW YORK STATE POLICE PETER MCARDLE,7140 REPUBLIC AIRPORT,FARMINGDALE,NY,11735,"http://maps.google.com/maps?q=7140 REPUBLIC AIRPORT,+FARMINGDALE,+NY+11735&hl=en"
NEWARK POLICE DEPT.,1ST PRECINCT,10 17TH AVE.,NEWARK,NJ,07108,"http://maps.google.com/maps?q=10  17TH AVE.,+NEWARK,+NJ+07108&hl=en"
NEWARK POLICE DEPT.,2ND PRECINCT,1 LINCOLN AVE.,NEWARK,NJ,07108,"http://maps.google.com/maps?q=1 LINCOLN AVE.,+NEWARK,+NJ+07108&hl=en"
NEWARK POLICE DEPT.,3RD PRECINCT,649 MARKET ST.,NEWARK,NJ,07102,"http://maps.google.com/maps?q=649 MARKET ST.,+NEWARK,+NJ+07102&hl=en"
NEWARK POLICE DEPT.,4TH PRECINCT,247 16TH AVE.,NEWARK,NJ,07108,"http://maps.google.com/maps?q=247 16TH AVE.,+NEWARK,+NJ+07108&hl=en"
NEWARK POLICE DEPT.,5TH PRECINCT,480 CLINTON AVE.,NEWARK,NJ,07108,"http://maps.google.com/maps?q=480 CLINTON AVE.,+NEWARK,+NJ+07108&hl=en"
NEWARK POLICE DEPT.,6TH PRECINCT,491 IRVINGTON AVENUE,NEWARK,NJ,07106,"http://maps.google.com/maps?q=491 IRVINGTON AVENUE,+NEWARK,+NJ+07106&hl=en"
NEWARK POLICE DEPT.,JUVENILE SERVICES SECTION,43 DICKERSON ST.,NEWARK,NJ,07108,"http://maps.google.com/maps?q=43 DICKERSON ST.,+NEWARK,+NJ+07108&hl=en"
NEWARK POLICE DEPT.,POLICE MAIN DESK,22 FRANKLIN ST.,NEWARK,NJ,07108,"http://maps.google.com/maps?q=22 FRANKLIN ST.,+NEWARK,+NJ+07108&hl=en"
NEWARK POLICE DEPT.,SPECIAL OPERATIONS DIVISION,472 ORANGE ST.,NEWARK,NJ,07108,"http://maps.google.com/maps?q=472 ORANGE ST.,+NEWARK,+NJ+07108&hl=en"
NORTH BERGEN P.D.,NORTH BERGEN P.D.,4233 KENNEDY BLVD.,NORTH BERGEN,NJ,07047,"http://maps.google.com/maps?q=4233 KENNEDY BLVD.,+NORTH BERGEN,+NJ+07047&hl=en"
NORTH BRUNSWICK POLICE DEPARTMENT,NORTH BRUNSWICK POLICE DEPT.,710 HERMANN ROAD,NORTH BRUNSWICK,NJ,08902,"http://maps.google.com/maps?q=710 HERMANN ROAD,+NORTH BRUNSWICK,+NJ+08902&hl=en"
NORTH CASTLE POLICE DEPARTMENT,NORTH CASTLE POLICE DEPARTMENT TOWN HALL,15 BEDFORD ROAD,ARMONK,NY,10504,"http://maps.google.com/maps?q=15 BEDFORD ROAD,+ARMONK,+NY+10504&hl=en"
NORTH PLAINFIELD POLICE DEPT.,NORTH PLAINFIELD POLICE DEPARTMENT,263 SOMERSET STREET,PLAINFIELD,NJ,07060,"http://maps.google.com/maps?q=263 SOMERSET STREET,+PLAINFIELD,+NJ+07060&hl=en"
NORTH SHORE HEALTH LIJ HUNTINGTON HOSPITAL,NORTH SHORE HEALTH LIJ HUNTINGTON LOBBY,270 PARK AVENUE,HUNTINGTON,NY,11743,"http://maps.google.com/maps?q=270 PARK AVENUE,+HUNTINGTON,+NY+11743&hl=en"
NORTH SHORE UNIVERSITY HOSPITAL,NORTH SHORE UNIVERSITY HOSPITAL,300 COMMUNITY DRIVE,MANHASSET,NY,11030,"http://maps.google.com/maps?q=300 COMMUNITY DRIVE,+MANHASSET,+NY+11030&hl=en"
NORTHPORT VA POLICE DEPARTMENT,NORTHPORT VA POLICE DEPARTMENT,79 MIDDLEVILLE ROAD,NORTHPORT,NY,11768,"http://maps.google.com/maps?q=79 MIDDLEVILLE ROAD,+NORTHPORT,+NY+11768&hl=en"
NORTHVALE POLICE DEPARTMENT,NORTHVALE POLICE DEPARTMENT 201-768-5900,116 PARIS AVE.,NORTHVALE,NJ,07647,"http://maps.google.com/maps?q=116 PARIS AVE.,+NORTHVALE,+NJ+07647&hl=en"
NORWOOD POLICE DEPT.,NORWOOD BOROUGH COMMUNITY CENTER,453 BROADWAY,NORWOOD,NJ,07648,"http://maps.google.com/maps?q=453 BROADWAY,+NORWOOD,+NJ+07648&hl=en"
NYPD 26TH PRECINCT,COLUMBIA UNIVERSITY SIDEWALK,WEST 116TH STREET AND BROADWAY,NEW YORK,NY,10027,"http://maps.google.com/maps?q=WEST 116TH STREET AND BROADWAY,+NEW YORK,+NY+10027&hl=en"
NYPD 33 PCT./ COLUMBIA UNIVERSITY,COLUMBIA UNIVERSITY,650 W 168 ST.,NEW YORK,NY,10032,"http://maps.google.com/maps?q=650 W 168 ST.,+NEW YORK,+NY+10032&hl=en"
OAKLAND POLICE DEPARTMENT,OAKLAND POLICE DEPARTMENT,295 RAMAPO VALLEY ROAD,OAKLAND,NJ,07436,"http://maps.google.com/maps?q=295 RAMAPO VALLEY ROAD,+OAKLAND,+NJ+07436&hl=en"
OCEAN TWP. POLICE DEPARTMENT,OCEAN POLICE DEPARTMENT 7325311800,399 MONMOUTH RD.,OAKHURST,NJ,07755,"http://maps.google.com/maps?q=399 MONMOUTH RD.,+OAKHURST,+NJ+07755&hl=en"
OCEANPORT POLICE DEPARTMENT,OCEANPORT POLICE DEPT.,282 HILDRETH AVE.,OCEANPORT,NJ,07757,"http://maps.google.com/maps?q=282 HILDRETH AVE.,+OCEANPORT,+NJ+07757&hl=en"
OLD BRIDGE POLICE DEPARTMENT,OLD BRIDGE POLICE DEPARTMENT 7327214000,1 OLD BRIDGE PLAZA,OLD BRIDGE,NJ,08857,"http://maps.google.com/maps?q=1 OLD BRIDGE PLAZA,+OLD BRIDGE,+NJ+08857&hl=en"
OYSTER BAY POLICE DEPARTMENT,ST JOHNS EPISCOPAL CHURCH CHURCH BEHIND FISH HATCHERY,1670 NORTH HEMPSTEAD TURNPIKE,SYOSSET,NY,11791,"http://maps.google.com/maps?q=1670 NORTH HEMPSTEAD TURNPIKE,+SYOSSET,+NY+11791&hl=en"
PARSIPPANY-TROY HILLS PD,PARSIPPANY POLICE DEPARTMENT,3339 US HIGHWAY 46 EAST,PARSIPPANY,NJ,07054,"http://maps.google.com/maps?q=3339 US HIGHWAY 46 EAST,+PARSIPPANY,+NJ+07054&hl=en"
PISCATAWAY POLICE DEPARTMENT,PISCATAWAY POLICE DEPARTMENT 732-562-2300,555 SIDNEY ROAD,PISCATAWAY,NJ,08854,"http://maps.google.com/maps?q=555 SIDNEY ROAD,+PISCATAWAY,+NJ+08854&hl=en"
PORT WASHINGTON POLICE DEPARTMENT,PORT WASHINGTON POLICE DEPARTMENT DET THOMAS MCCARTY,500 PORT WASHINGTON BLVD,PORT WASHINGTON,NY,11050,"http://maps.google.com/maps?q=500 PORT WASHINGTON BLVD,+PORT WASHINGTON,+NY+11050&hl=en"
RAHWAY POLICE DEPARTMENT,RAHWAY POLICE DEPARTMENT,1 CITY HALL PLAZA,RAHWAY,NJ,07065,"http://maps.google.com/maps?q=1 CITY HALL PLAZA,+RAHWAY,+NJ+07065&hl=en"
RARITAN BORO POLICE DEPARTMENT,RARITAN BOROUGH POLICE DEPARTMENT,20 FIRST ST.,RARITAN,NJ,08869,"http://maps.google.com/maps?q=20 FIRST ST.,+RARITAN,+NJ+08869&hl=en"
RED BANK POLICE DEPARTMENT,RED BANK POLICE DEPARTMENT,90 MONMOUTH ST,RED BANK,NJ,07701,"http://maps.google.com/maps?q=90 MONMOUTH ST,+RED BANK,+NJ+07701&hl=en"
RIDGEFIELD PARK POLICE DEPARTMENT,RIDGEFIELD PARK POLICE DEPARTMENT 201-641-6400,234 MAIN ST.,RIDGEFIELD PARK,NJ,07660,"http://maps.google.com/maps?q=234 MAIN ST.,+RIDGEFIELD PARK,+NJ+07660&hl=en"
RIDGEWOOD POLICE DEPARTMENT,RIDGEWOOD POLICE DEPARTMENT,131 N. MAPLE AVENUE,RIDGEWOOD,NJ,07450,"http://maps.google.com/maps?q=131 N. MAPLE AVENUE,+RIDGEWOOD,+NJ+07450&hl=en"
ROCKLAND COUNTY SHERIFFS OFFICE,ROCKLAND COUNTY SHERIFF OFFICE WALGREENS PARKING LOT,16 ROUTE 59,NYACK,NY,10960,"http://maps.google.com/maps?q=16 ROUTE 59,+NYACK,+NY+10960&hl=en"
RUMSON POLICE DEPARTMENT,RUMSON POLICE DEPARTMENT,80 EAST RIVER ROAD,RUMSON,NJ,07760,"http://maps.google.com/maps?q=80 EAST RIVER ROAD,+RUMSON,+NJ+07760&hl=en"
RUTGERS POLICE DEPARTMENT,COLLEGE AVE STUDENT CENTER & LIVINGSTON CAMPUS,190 COLLEGE AVE,NEW BRUNSWICK,NJ,08901,"http://maps.google.com/maps?q=190 COLLEGE AVE,+NEW BRUNSWICK,+NJ+08901&hl=en"
SANDS POINT POLICE DEPARTMENT,SANDS POINT POLICE DEPARTMENT,26 TIBBITS LANE,PORT WASHINGTON,NY,11050,"http://maps.google.com/maps?q=26 TIBBITS LANE,+PORT WASHINGTON,+NY+11050&hl=en"
SHREWSBURY BOROUGH POLICE DEPARTMENT,SHREWSBURY BOROUGH POLICE DEPARTMENT,419 SYCAMORE AVENUE,SHREWSBURY,NJ,07702,"http://maps.google.com/maps?q=419 SYCAMORE AVENUE,+SHREWSBURY,+NJ+07702&hl=en"
SOUTH BOUND BROOK,SOUTH BOUND BROOK POLICE DEPARTMENT,12 MAIN STREET,SOUTH BOUND BROOK,NJ,08880,"http://maps.google.com/maps?q=12 MAIN STREET,+SOUTH BOUND BROOK,+NJ+08880&hl=en"
SOUTH BRUNSWICK POLICE DEPARTMENT,SOUTH BRUNSWICK POLICE DEPARTMENT 732-329-4000,540 RIDGE RD.,MONMOUTH JUNCTION,NJ,08852,"http://maps.google.com/maps?q=540 RIDGE RD.,+MONMOUTH JUNCTION,+NJ+08852&hl=en"
SOUTH HACKENSACK POLICE DEPARTMENT,SOUTH HACKENSACK POLICE DEPARTMENT 201-440-0042,227 PHILLIPS AVE.,SOUTH HACKENSACK,NJ,07606,"http://maps.google.com/maps?q=227 PHILLIPS AVE.,+SOUTH HACKENSACK,+NJ+07606&hl=en"
SOUTH PLAINFIELD POLICE DEPARTMENT,SOUTH PLAINFIELD MUNICIPAL COURTROOM 9082267688,2480 PLAINFIELD AVE.,SOUTH PLAINFIELD,NJ,07080,"http://maps.google.com/maps?q=2480 PLAINFIELD AVE.,+SOUTH PLAINFIELD,+NJ+07080&hl=en"
SPRING VALLEY POLICE,SPRING VALLEY POLICE DEPARTMENT,200 NORTH MAIN STREET,SPRING VALLEY,NY,10977,"http://maps.google.com/maps?q=200 NORTH MAIN STREET,+SPRING VALLEY,+NY+10977&hl=en"
SPRING VALLEY POLICE,WALGREENS,208 E ROUTE 59,SPRING VALLEY,NY,10977,"http://maps.google.com/maps?q=208 E ROUTE 59,+SPRING VALLEY,+NY+10977&hl=en"
STAMFORD POLICE DEPARTMENT,STAMFORD POLICE DEPARTMENT,805 BEDFORD STREET,STAMFORD,CT,06901,"http://maps.google.com/maps?q=805 BEDFORD STREET,+STAMFORD,+CT+06901&hl=en"
STATEN ISLAND UNIVERSITY HOSPITAL,STATEN ISLAND UNIVERSITY HOSPITAL,475 SEAVIEW AVENUE,STATEN ISLAND,NY,10305,"http://maps.google.com/maps?q=475 SEAVIEW AVENUE,+STATEN ISLAND,+NY+10305&hl=en"
STONY POINT POLICE DEPARTMENT,WALGREENS,135 SOUTH LIBERTY DRIVE,STONY POINT,NY,10980,"http://maps.google.com/maps?q=135 SOUTH LIBERTY DRIVE,+STONY POINT,+NY+10980&hl=en"
SUNY OLD WESTBURY,SUNY OLD WESTBURY CAMPUS POLICE STATION,223 STOREHILL ROAD,OLD WESTBURY,NY,11568,"http://maps.google.com/maps?q=223 STOREHILL ROAD,+OLD WESTBURY,+NY+11568&hl=en"
TOWNSHIP OF MAPLEWOOD,MAPLEWOOD POLICE DEPARTMENT,1618 SPRINGFIELD AVENUE,MAPLEWOOD,NJ,07040,"http://maps.google.com/maps?q=1618 SPRINGFIELD AVENUE,+MAPLEWOOD,+NJ+07040&hl=en"
UNION BEACH,UNION BEACH P.D.,650 POOLE AVE.,UNION BEACH,NJ,07735,"http://maps.google.com/maps?q=650 POOLE AVE.,+UNION BEACH,+NJ+07735&hl=en"
UNION CITY POLICE DEPARTMENT,BELLA VISTA,522 22ND STREET,UNION CITY,NJ,07087,"http://maps.google.com/maps?q=522 22ND STREET,+UNION CITY,+NJ+07087&hl=en"
UPPER SADDLE RIVER POLICE DEPARTMENT,UPPER SADDLE RIVER POLICE DEPARTMENT 201-327-2700,368 W. SADDLE RIVER RD.,SADDLE RIVER,NJ,07458,"http://maps.google.com/maps?q=368 W. SADDLE RIVER RD.,+SADDLE RIVER,+NJ+07458&hl=en"
VILLAGE OF DOBBS FERRY POLICE DEPARTMENT,VILLAGE OF DOBBS FERRY,112 MAIN STREET,DOBBS FERRY,NY,10522,"http://maps.google.com/maps?q=112 MAIN STREET,+DOBBS FERRY,+NY+10522&hl=en"
VILLAGE OF HASTINGS ON HUDSON PD,HASTINGS POLICE DEPARTMENT,7 MAPLE AVENUE,HASTINGS ON HUDSON,NY,10706,"http://maps.google.com/maps?q=7 MAPLE AVENUE,+HASTINGS ON HUDSON,+NY+10706&hl=en"
VILLAGE OF HASTINGS ON HUDSON PD,VILLAGE OF HASTINGS ON HUDSON PD,44 MAIN STREET,HASTINGS ON HUDSON,NY,10706,"http://maps.google.com/maps?q=44 MAIN STREET,+HASTINGS ON HUDSON,+NY+10706&hl=en"
VILLAGE OF OSSINING POLICE DEPARTMENT,BIRDSALL FAGAN POLICE/COURT FACILITY COURT LOBBY,86-88 SPRING STREET,OSSINING,NY,10562,"http://maps.google.com/maps?q=86-88 SPRING STREET,+OSSINING,+NY+10562&hl=en"
WALL TWP. POLICE DEPARTMENT,WALL TWP. POLICE DEPARTMENT 732-449-4500,2700 ALLAIRE ROADFRONT LOBBY,WALL,NJ,07719,"http://maps.google.com/maps?q=2700 ALLAIRE ROAD,+WALL,+NJ+07719&hl=en"
WALLINGTON POLICE DEPARTMENT,WALLINGTON POLICE DEPT.,54 UNION BLVD.,WALLINGTON,NJ,07057,"http://maps.google.com/maps?q=54 UNION BLVD.,+WALLINGTON,+NJ+07057&hl=en"
WATCHUNG POLICE DEPARTMENT,WATCHUNG POLICE DEPARTMENT 908-756-3663,840 SOMERSET ST.,WATCHUNG,NJ,07069,"http://maps.google.com/maps?q=840 SOMERSET ST.,+WATCHUNG,+NJ+07069&hl=en"
WAYNE TWP. POLICE DEPARTMENT,WAYNE POLICE DEPARTMENT 973-633-3550,475 VALLEY ROAD,WAYNE,NJ,07470,"http://maps.google.com/maps?q=475 VALLEY ROAD,+WAYNE,+NJ+07470&hl=en"
WEST CALDWELL POLICE,WEST CALDWELL PD,21 CLINTON ROAD,WEST CALDWELL,NJ,07006,"http://maps.google.com/maps?q=21 CLINTON ROAD,+WEST CALDWELL,+NJ+07006&hl=en"
WEST LONG BRANCH POLICE DEPARTMENT,WEST LONG BRANCH POLICE DEPARTMENT 732-229-5000,965 BROADWAY,WEST LONG BRANCH,NJ,07764,"http://maps.google.com/maps?q=965 BROADWAY,+WEST LONG BRANCH,+NJ+07764&hl=en"
WESTCHESTER COUNTY POLICE,NORTHERN WESTCHESTER HOSPITAL MAIN LOBBY,400 MAIN ST.,MOUNT KISCO,NY,10549,"http://maps.google.com/maps?q=400 MAIN ST.,+MOUNT KISCO,+NY+10549&hl=en"
WOODBRIDGE POLICE DEPARTMENT,WOODBRIDGE POLICE DEPARTMENT 732-634-7700,1 MAIN STREET,WOODBRIDGE,NJ,07095,"http://maps.google.com/maps?q=1 MAIN STREET,+WOODBRIDGE,+NJ+07095&hl=en"
