Participant,CollectionSite,Address,City,State,Zip,MapURL
ADAIR COUNTY SHERIFF'S OFFICE,ADAIR COUNTY SHERIFF'S OFFICE,215 N. FRANKLIN,KIRKSVILLE,MO,63501,"http://maps.google.com/maps?q=215 N. FRANKLIN,+KIRKSVILLE,+MO+63501&hl=en"
ALBIA POLICE DEPARTMENT,MONROE COUNTY LAW ENFORCEMENT CENTER,114 19TH AVE WEST,ALBIA,IA,52531,"http://maps.google.com/maps?q=114 19TH AVE WEST,+ALBIA,+IA+52531&hl=en"
ALEDO POLICE DEPARTMENT,ALEDO POLICE DEPARTMENT PARKING AREA ADJACENT TO NORTH SIDE OF BLDG,200 NE 2ND ST,ALEDO,IL,61231,"http://maps.google.com/maps?q=200 NE 2ND ST,+ALEDO,+IL+61231&hl=en"
ALGONQUIN POLICE,ALGONQUIN POLICE DEPARTMENT,2200 HARNISH DRIVE,ALGONQUIN,IL,60102,"http://maps.google.com/maps?q=2200 HARNISH DRIVE,+ALGONQUIN,+IL+60102&hl=en"
ARLINGTON HEIGHTS POLICE DEPARTMENT,ARLINGTON HEIGHTS VILLAGE HALL,33 S. ARLINGTON HEIGHTS ROAD,ARLINGTON HEIGHTS,IL,60005,"http://maps.google.com/maps?q=33 S. ARLINGTON HEIGHTS ROAD,+ARLINGTON HEIGHTS,+IL+60005&hl=en"
AURORA POLICE DEPARTMENT,AURORA POLICE DEPARTMENT,1200 E. INDIAN TRAIL,AURORA,IL,60505,"http://maps.google.com/maps?q=1200 E. INDIAN TRAIL,+AURORA,+IL+60505&hl=en"
BARRINGTON POLICE DEPARTMENT,BARRINGTON PUBLIC SAFETY BUILDING,400 N. NORTHWEST HWY,BARRINGTON,IL,60010,"http://maps.google.com/maps?q=400 N. NORTHWEST HWY,+BARRINGTON,+IL+60010&hl=en"
BELVIDERE POLICE DEPARTMENT,BELVIDERE TOWNSHIP OFFICE 9 A.M. TO NOON,8200 FAIRGROUNDS RD,BELVIDERE,IL,61008,"http://maps.google.com/maps?q=8200 FAIRGROUNDS RD,+BELVIDERE,+IL+61008&hl=en"
BENTON COUNTY SHERIFF'S OFFICE,BENTON COUNTY SHERIFF'S OFFICE,113 E 3 STREET,VINTON,IA,52349,"http://maps.google.com/maps?q=113 E 3 STREET,+VINTON,+IA+52349&hl=en"
BERWYN POLICE DEPARTMENT,BERWYN POLICE DEPARTMENT,6401 W 31ST,BERWYN,IL,60402,"http://maps.google.com/maps?q=6401 W 31ST,+BERWYN,+IL+60402&hl=en"
BLOOMINGTON POLICE DEPARTMENT,BLOOMINGTON POLICE DEPARTMENT MAIN LOBBY,305 S. EAST ST.,BLOOMINGTON,IL,61701,"http://maps.google.com/maps?q=305 S. EAST ST.,+BLOOMINGTON,+IL+61701&hl=en"
BOLINGBROOK POLICE DEPARTMENT,BOLINGBROOK POLICE DEPARTMENT,375 W BRIARCLIFF ROAD,BOLINGBROOK,IL,60440,"http://maps.google.com/maps?q=375 W BRIARCLIFF ROAD,+BOLINGBROOK,+IL+60440&hl=en"
BRIDGEVIEW POLICE DEPARTMENT,BRIDGEVIEW POLICE DEPARTMENT,7500 S. OKETO AVE,BRIDGEVIEW,IL,60455,"http://maps.google.com/maps?q=7500 S. OKETO AVE,+BRIDGEVIEW,+IL+60455&hl=en"
BROOKFIELD POLICE DEPARTMENT,BROOKFIELD POLICE DEPARTMENT 10:00AM-2:00PM,655 N. JANACEK RD,BROOKFIELD,WI,53045,"http://maps.google.com/maps?q=655 N. JANACEK RD,+BROOKFIELD,+WI+53045&hl=en"
BROWN COUNTY SHERIFF'S OFFICE,MT. STERLING IGA,200 PITTSFIELD ROAD,MOUNT STERLING,IL,62353,"http://maps.google.com/maps?q=200 PITTSFIELD ROAD,+MOUNT STERLING,+IL+62353&hl=en"
BUCHANAN COUNTY SHERIFF'S OFFICE,"BCSO DEA DROP SITE (FAREWAY) LOCATED AT FAREWAY, INDEPENDENCE, IA",1400 3RD AVENUE SE,INDEPENDENCE,IA,50644,"http://maps.google.com/maps?q=1400 3RD AVENUE SE,+INDEPENDENCE,+IA+50644&hl=en"
BUFFALO GROVE POLICE DEPARTMENT,BUFFALO GROVE POLICE,46 RAUPP BLV,BUFFALO GROVE,IL,60089,"http://maps.google.com/maps?q=46 RAUPP BLV,+BUFFALO GROVE,+IL+60089&hl=en"
BUFFALO GROVE POLICE DEPARTMENT,BUFFALO GROVE POLICE @ MARIANO'S,450 W. HALF DAY ROAD,BUFFALO GROVE,IL,60089,"http://maps.google.com/maps?q=450 W. HALF DAY ROAD,+BUFFALO GROVE,+IL+60089&hl=en"
CAMPBELL POLICE DEPARTMENT,CAMPBELL TOWN HALL EVENT 10:00AM-2:00PM,2219 BAINBRIDGE ST,LA CROSSE,WI,54603,"http://maps.google.com/maps?q=2219 BAINBRIDGE ST,+LA CROSSE,+WI+54603&hl=en"
CANTON POLICE DEPARTMENT,CANTON POLICE DEPARTMENT,2 N. MAIN STREET,CANTON,IL,61520,"http://maps.google.com/maps?q=2 N. MAIN STREET,+CANTON,+IL+61520&hl=en"
CARY POLICE DEPARTMENT,CARY POLICE DEPARTMENT,654 VILLAGE HALL DRIVE,CARY,IL,60013,"http://maps.google.com/maps?q=654 VILLAGE HALL DRIVE,+CARY,+IL+60013&hl=en"
CEDAR COUNTY SHERIFF'S OFFICE,CEDAR COUNTY SHERIFF'S OFFICE,711 E. SOUTH STREET,TIPTON,IA,52772,"http://maps.google.com/maps?q=711 E. SOUTH STREET,+TIPTON,+IA+52772&hl=en"
CEDAR FALLS POLICE DEPARTMENT,CEDAR FALLS POLICE DEPARTMENT,220 CLAY STREET,CEDAR FALLS,IA,50613,"http://maps.google.com/maps?q=220 CLAY STREET,+CEDAR FALLS,+IA+50613&hl=en"
CEDAR RAPIDS POLICE DEPT.,CEDAR RAPIDS POLICE DEPARTMENT,505 1ST ST SW,CEDAR RAPIDS,IA,52404,"http://maps.google.com/maps?q=505 1ST ST SW,+CEDAR RAPIDS,+IA+52404&hl=en"
CITY OF DELAVAN POLICE DEPARTMENT,DELAVAN CITY HALL EVENT 10:00AM-2:00PM,123 S 2ND ST #1,DELAVAN,WI,53115,"http://maps.google.com/maps?q=123 S 2ND ST #1,+DELAVAN,+WI+53115&hl=en"
CITY OF LODI POLICE DEPARTMENT,CITY OF LODI POLICE DEPARTMENT EVENT 8:00AM -11:00AM,142 S MAIN ST,LODI,WI,53555,"http://maps.google.com/maps?q=142 S MAIN ST,+LODI,+WI+53555&hl=en"
CITY OF WAUKESHA POLICE DEPARTMENT,CITY OF WAUKESHA POLICE DEPARTMENT EVENT 10:00AM-2:00PM,1901 DELAFIELD ST,WAUKESHA,WI,53188,"http://maps.google.com/maps?q=1901 DELAFIELD ST,+WAUKESHA,+WI+53188&hl=en"
CLINTON COUNTY SHERIFF'S OFFICE,CLINTON COUNTY SHERIFF'S OFFICE SATELLITE OFFICE,226 11TH STREET,DE WITT,IA,52742,"http://maps.google.com/maps?q=226 11TH STREET,+DE WITT,+IA+52742&hl=en"
CLINTON POLICE DEPARTMENT,CLINTON POLICE DEPARTMENT WILLIAM GREENWALT,537 BALLPARK DRIVE,CLINTON,IA,52732,"http://maps.google.com/maps?q=537 BALLPARK DRIVE,+CLINTON,+IA+52732&hl=en"
COLONA POLICE DEPARTMENT,COLONA POLICE DEPARTMENT LOBBY,215 1ST STREET,COLONA,IL,61241,"http://maps.google.com/maps?q=215 1ST STREET,+COLONA,+IL+61241&hl=en"
CORALVILLE POLICE DEPARTMENT,CORALVILLE POLICE DEPARTMENT,1503 5TH ST.,CORALVILLE,IA,52241,"http://maps.google.com/maps?q=1503 5TH ST.,+CORALVILLE,+IA+52241&hl=en"
CORALVILLE POLICE DEPARTMENT,WALGREENS- 2ND ST.,102 2ND ST.,CORALVILLE,IA,52241,"http://maps.google.com/maps?q=102 2ND ST.,+CORALVILLE,+IA+52241&hl=en"
CORALVILLE POLICE DEPARTMENT,WALGREENS- HEARTLAND DR,2751 HEARTLAND DR.,CORALVILLE,IA,52241,"http://maps.google.com/maps?q=2751 HEARTLAND DR.,+CORALVILLE,+IA+52241&hl=en"
CROSS PLAINS POLICE DEPARTMENT,CROSS PLAINS POLICE DEPARTMENT EVENT 10:00 AM TO 2:00 PM,2417 BREWERY RD,CROSS PLAINS,WI,53528,"http://maps.google.com/maps?q=2417 BREWERY RD,+CROSS PLAINS,+WI+53528&hl=en"
CRYSTAL LAKE POLICE DEPARTMENT,CRYSTAL LAKE POLICE DEPARTMENT,100 W WOODSTOCK STREET,CRYSTAL LAKE,IL,60014,"http://maps.google.com/maps?q=100 W WOODSTOCK STREET,+CRYSTAL LAKE,+IL+60014&hl=en"
DECATUR POLICE DEPARTMENT,DECATUR POLICE DEPARTMENT,707 W. SOUTH SIDE DR,DECATUR,IL,62521,"http://maps.google.com/maps?q=707 W. SOUTH SIDE DR,+DECATUR,+IL+62521&hl=en"
DEFOREST POLICE DEPARTMENT,DEFOREST POLICE DEPARTMENT EVENT 10:00 AM - 2:00 PM,110 SOUTH STEVENSON STREET,DEFOREST,WI,53532,"http://maps.google.com/maps?q=110 SOUTH STEVENSON STREET,+DEFOREST,+WI+53532&hl=en"
DEKALB POLICE DEPARTMENT,DEKALB POLICE DEPARTMENT,700 W. LINCOLN HWY,DEKALB,IL,60115,"http://maps.google.com/maps?q=700 W. LINCOLN HWY,+DEKALB,+IL+60115&hl=en"
DES PLAINES POLICE DEPARTMENT,DES PLAINES POLICE DEPARTMENT FRONT LOBBY,1418 MINER ST.,DES PLAINES,IL,60016,"http://maps.google.com/maps?q=1418 MINER ST.,+DES PLAINES,+IL+60016&hl=en"
DICKEYVILLE POLICE DEPARTMENT,DICKEYVILLE POLICE DEPARTMENT EVENT 9:00AM-12:00PM,500 EAST AVENUE,DICKEYVILLE,WI,53808,"http://maps.google.com/maps?q=500 EAST AVENUE,+DICKEYVILLE,+WI+53808&hl=en"
DUBUQUE DRUG TASK FORCE,SAM'S CLUB,4400 ASBURY RD,DUBUQUE,IA,52002,"http://maps.google.com/maps?q=4400 ASBURY RD,+DUBUQUE,+IA+52002&hl=en"
EAST MOLINE POLICE DEPARTMENT,EAST MOLINE POLICE DEPARTMENT 1ST FLOOR COMMUNITY ROOM,915 16TH AVENUE,EAST MOLINE,IL,61244,"http://maps.google.com/maps?q=915 16TH AVENUE,+EAST MOLINE,+IL+61244&hl=en"
EAST PEORIA POLICE DEPARTMENT,EAST PEORIA FIRE DEPARTMENT CENTRAL HOUSE - FIRE BAYS,201 W. WASHINGTON STREET,EAST PEORIA,IL,61611,"http://maps.google.com/maps?q=201 W. WASHINGTON STREET,+EAST PEORIA,+IL+61611&hl=en"
EDGERTON POLICE DEPARTMENT,EDGERTON POLICE DEPARTMENT EVENT 11:00AM-2:00PM,215 W FULTON ST,EDGERTON,WI,53534,"http://maps.google.com/maps?q=215 W FULTON ST,+EDGERTON,+WI+53534&hl=en"
EL PASO POLICE DEPARTMENT,EL PASO POLICE DEPARTMENT,540 E. MAIN STREET,EL PASO,IL,61738,"http://maps.google.com/maps?q=540 E. MAIN STREET,+EL PASO,+IL+61738&hl=en"
ELK GROVE VILLAGE POLICE DEPARTMENT,ELK GROVE VIILAGE POLICE DEPARTMENT,901 WELLINGTON AVE,ELK GROVE VILLAGE,IL,60007,"http://maps.google.com/maps?q=901 WELLINGTON AVE,+ELK GROVE VILLAGE,+IL+60007&hl=en"
ELKHORN POLICE DEPARTMENT,PHARMACY STATION EVENT 10:00AM-2:00PM,3 E GENEVA ST,ELKHORN,WI,53121,"http://maps.google.com/maps?q=3 E GENEVA ST,+ELKHORN,+WI+53121&hl=en"
ELM GROVE POLICE DEPARTMENT,WALGREENS EVENT 10:00AM-2:00PM,15350 WEST BLUEMOUND RD,ELM GROVE,WI,53122,"http://maps.google.com/maps?q=15350 WEST BLUEMOUND RD,+ELM GROVE,+WI+53122&hl=en"
ELMHURST POLICE,ELMHURST POLICE DEPARTMENT,125 E. FIRST,ELMHURST,IL,60126,"http://maps.google.com/maps?q=125 E. FIRST,+ELMHURST,+IL+60126&hl=en"
ELROY POLICE DEPARTMENT,ELROY POLICE DEPARTMENT EVENT 9:00AM-11:30AM,1717 OMAHA STREET,ELROY,WI,53929,"http://maps.google.com/maps?q=1717 OMAHA STREET,+ELROY,+WI+53929&hl=en"
EVANSTON POLICE DEPARTMENT,EVANSTON POLICE DEPARTMENT,1454 ELMWOOD AVE.,EVANSTON,IL,60201,"http://maps.google.com/maps?q=1454 ELMWOOD AVE.,+EVANSTON,+IL+60201&hl=en"
EVANSVILLE POLICE DEPARTMENT,EVANSVILLE POLICE DEPARTMENT EVENT 8:00 AM TO 11:00 AM,10 WEST CHURCH STREET,EVANSVILLE,WI,53536,"http://maps.google.com/maps?q=10 WEST CHURCH STREET,+EVANSVILLE,+WI+53536&hl=en"
EVERGREEN PARK POLICE DEPARTMENT,EVERGREEN PARK POLICE DEPARMENT,9420 S KEDZIE AVE,EVERGREEN PARK,IL,60805,"http://maps.google.com/maps?q=9420 S KEDZIE AVE,+EVERGREEN PARK,+IL+60805&hl=en"
FARMINGTON POLICE DEPARTMENT,FARMINGTON POLICE DEPARTMENT,322 E. FORST STREET,FARMINGTON,IL,61531,"http://maps.google.com/maps?q=322 E. FORST STREET,+FARMINGTON,+IL+61531&hl=en"
FILLMORE COUNTY SO,LANESBORO CITY HALL,202 PARKWAY AVENUE NORTH,LANESBORO,MN,55949,"http://maps.google.com/maps?q=202 PARKWAY AVENUE NORTH,+LANESBORO,+MN+55949&hl=en"
FILLMORE COUNTY SO,MABEL CITY HALL,201 SOUTH MAIN STREET,MABEL,MN,55954,"http://maps.google.com/maps?q=201 SOUTH MAIN STREET,+MABEL,+MN+55954&hl=en"
FILLMORE COUNTY SO,RUSHFORD POLICE DEPARTMENT,405 ELM STREET SOUTH,RUSHFORD,MN,55971,"http://maps.google.com/maps?q=405 ELM STREET SOUTH,+RUSHFORD,+MN+55971&hl=en"
FOX LAKE POLICE DEPARTMENT,FOX LAKE POLICE DEPARTMENT EVENT 10:00AM-2:00PM,248 E STATE ST,FOX LAKE,WI,53933,"http://maps.google.com/maps?q=248 E STATE ST,+FOX LAKE,+WI+53933&hl=en"
GENESEO POLICE DEPARTMENT,GENESEO MUNICIPAL BUILDING CITY HALL AND POLICE DEPARTMENT,115 SOUTH OAKWOOD AVE,GENESEO,IL,61254,"http://maps.google.com/maps?q=115 SOUTH OAKWOOD AVE,+GENESEO,+IL+61254&hl=en"
GLENDALE POLICE DEPARTMENT,GLENDALE POLICE DEPARTMENT EVENT 12:00PM-3:00PM,5909 N. MILWAUKEE RIVER PKWY,GLENDALE,WI,53209,"http://maps.google.com/maps?q=5909 N. MILWAUKEE RIVER PKWY,+GLENDALE,+WI+53209&hl=en"
GLENVIEW P.D.,GLENVIEW P.D. EAST PARKING LOT,2500 EAST LAKE AVE.,GLENVIEW,IL,60026,"http://maps.google.com/maps?q=2500 EAST LAKE AVE.,+GLENVIEW,+IL+60026&hl=en"
GREENFIELD POLICE DEPARTMENT,PICK N SAVE EVENT 10:00AM-2:00PM,4279 S 76TH STREET,GREENFIELD,WI,53220,"http://maps.google.com/maps?q=4279 S 76TH STREET,+GREENFIELD,+WI+53220&hl=en"
HALES CORNERS POLICE DEPARTMENT,HALES CORNERS POLICE DEPARTMENT EVENT 9:00AM-2:00PM,5635 S NEW BERLIN ROAD,HALES CORNERS,WI,53130,"http://maps.google.com/maps?q=5635 S NEW BERLIN ROAD,+HALES CORNERS,+WI+53130&hl=en"
HANCOCK COUNTY SHERIFF'S OFFICE,DALLAS CITY HALL DALLAS CITY POLICE DEPARTMENT,120 W. 1ST STREET,DALLAS CITY,IL,62330,"http://maps.google.com/maps?q=120 W. 1ST STREET,+DALLAS CITY,+IL+62330&hl=en"
HANCOCK COUNTY SHERIFF'S OFFICE,HAMILTON POLICE DEPARTMENT,1010 BROADWAY ST,HAMILTON,IL,62341,"http://maps.google.com/maps?q=1010 BROADWAY ST,+HAMILTON,+IL+62341&hl=en"
HANCOCK COUNTY SHERIFF'S OFFICE,HANCOCK COUNTY SHERIFF'S OFFICE,98 BUCHANAN ST,CARTHAGE,IL,62321,"http://maps.google.com/maps?q=98 BUCHANAN ST,+CARTHAGE,+IL+62321&hl=en"
HANCOCK COUNTY SHERIFF'S OFFICE,JIFFI STOP,101 S. WORRELL STREET,BOWEN,IL,62316,"http://maps.google.com/maps?q=101 S. WORRELL STREET,+BOWEN,+IL+62316&hl=en"
HANCOCK COUNTY SHERIFF'S OFFICE,LAHARPE POLICE DEPARTMENT,207 E. MAIN STREET,LA HARPE,IL,61450,"http://maps.google.com/maps?q=207 E. MAIN STREET,+LA HARPE,+IL+61450&hl=en"
HANCOCK COUNTY SHERIFF'S OFFICE,NAUVOO POLICE DEPARTMENT,60 N BLUFF ST,NAUVOO,IL,62354,"http://maps.google.com/maps?q=60 N BLUFF ST,+NAUVOO,+IL+62354&hl=en"
HANCOCK COUNTY SHERIFF'S OFFICE,WARSAW CITY HALL WARSAW POLICE DEPARTMENT,210 N 4TH ST,WARSAW,IL,62379,"http://maps.google.com/maps?q=210 N 4TH ST,+WARSAW,+IL+62379&hl=en"
HARPER COLLEGE POLICE DEPARTMENT,HARPER COLLEGE POLICE DEPARTMENT,1200 W. ALGONQUIN ROAD,PALATINE,IL,60067,"http://maps.google.com/maps?q=1200 W. ALGONQUIN ROAD,+PALATINE,+IL+60067&hl=en"
HARVARD POLICE DEPARTMENT,HARVARD POLICE DEPARTMENT,201 W. FRONT ST.,HARVARD,IL,60033,"http://maps.google.com/maps?q=201 W. FRONT ST.,+HARVARD,+IL+60033&hl=en"
HENRY COUNTY SHERIFF'S OFFICE,HENRY COUNTY SHERIFF'S OFFICE NO BOXES NEEDED FOR ANY SITE,106 EAST CLAY STREET,MOUNT PLEASANT,IA,52641,"http://maps.google.com/maps?q=106 EAST CLAY STREET,+MOUNT PLEASANT,+IA+52641&hl=en"
HENRY COUNTY SHERIFF'S OFFICE,NEW LONDON POLICE DEPARTMENT,509 EAST MAIN STREET,NEW LONDON,IA,52645,"http://maps.google.com/maps?q=509 EAST MAIN STREET,+NEW LONDON,+IA+52645&hl=en"
HENRY COUNTY SHERIFF'S OFFICE,SALEM CITY HALL,201 SOUTH MAIN STREET,SALEM,IA,52649,"http://maps.google.com/maps?q=201 SOUTH MAIN STREET,+SALEM,+IA+52649&hl=en"
HENRY COUNTY SHERIFF'S OFFICE,WAYLAND FIRE DEPARTMENT,211 NORTH WASHINGTON STREET,WAYLAND,IA,52654,"http://maps.google.com/maps?q=211 NORTH WASHINGTON STREET,+WAYLAND,+IA+52654&hl=en"
HENRY COUNTY SHERIFF'S OFFICE,WINFIELD POLICE DEPARTMENT,115 NORTH LOCUST STREET,WINFIELD,IA,52659,"http://maps.google.com/maps?q=115 NORTH LOCUST STREET,+WINFIELD,+IA+52659&hl=en"
HIAWATHA POLICE DEPT,"HIAWATHA POLICE DEPT LOBBY, SOUTH WALL",101 EMMONS ST,HIAWATHA,IA,52233,"http://maps.google.com/maps?q=101 EMMONS ST,+HIAWATHA,+IA+52233&hl=en"
HIGHLAND POLICE DEPARTMENT,HIGHLAND POLICE DEPARTMENT EVENT 10:00 AM TO 2:00 PM,530 MAIN STREET,HIGHLAND,WI,53543,"http://maps.google.com/maps?q=530 MAIN STREET,+HIGHLAND,+WI+53543&hl=en"
HUNTLEY POLICE DEPARTMENT,HUNTLEY POLICE DEPARTMENT,10911 MAIN STREET,HUNTLEY,IL,60142,"http://maps.google.com/maps?q=10911 MAIN STREET,+HUNTLEY,+IL+60142&hl=en"
IOWA CITY POLICE DEPARTMENT,EAST SIDE RECYCLING CENTER,2401 SCOTT BLVD SE,IOWA CITY,IA,52240,"http://maps.google.com/maps?q=2401 SCOTT BLVD SE,+IOWA CITY,+IA+52240&hl=en"
IOWA COUNTY SHERIFF'S OFFICE,IOWA COUNTY SHERIFF'S OFFICE,960 FRANKLYN AVE.,MARENGO,IA,52301,"http://maps.google.com/maps?q=960 FRANKLYN AVE.,+MARENGO,+IA+52301&hl=en"
JACKSON COUNTY SHERIFF'S OFFICE,MAQUOKETA POLICE DEPARTMENT,102 S NIAGARA ST,MAQUOKETA,IA,52060,"http://maps.google.com/maps?q=102 S NIAGARA ST,+MAQUOKETA,+IA+52060&hl=en"
JACKSON COUNTY SHERIFF'S OFFICE,SABULA POLICE DEPARTMENT,411 BROAD ST,SABULA,IA,52070,"http://maps.google.com/maps?q=411 BROAD ST,+SABULA,+IA+52070&hl=en"
JOHNSBURG POLICE DEPARTMENT,JOHNSBURG POLICE DEPARTMENT PUBLIC SAFETY BUILDING,3611 CHAPEL HILL ROADATTN: JOHNSBURG POLICE DEPARTMENT,JOHNSBURG,IL,60051,"http://maps.google.com/maps?q=3611 CHAPEL HILL ROAD,+JOHNSBURG,+IL+60051&hl=en"
JOHNSON COUNTY SHERIFF'S OFFICE,JOHNSON COUNTY SHERIFF'S OFFICE LOBBY- (DOUBLE BOXES),511 S CAPITOL STREET,IOWA CITY,IA,52240,"http://maps.google.com/maps?q=511 S CAPITOL STREET,+IOWA CITY,+IA+52240&hl=en"
JUNEAU POLICE DEPT,JUNEAU PUBLIC SAFETY BLDG EVENT 10:00 AM TO 2:00 PM,128 E CROSS ST,JUNEAU,WI,53039,"http://maps.google.com/maps?q=128 E CROSS ST,+JUNEAU,+WI+53039&hl=en"
KANE COUNTY CORONER OFFICE,KANE COUNTY CORONER OFFICE STEVE LAKER,719 S. BATAVIA AVE. BUILDING E,GENEVA,IL,60134,"http://maps.google.com/maps?q=719 S. BATAVIA AVE. BUILDING E,+GENEVA,+IL+60134&hl=en"
KANE COUNTY SHERIFF'S OFFICE,KANE COUNTY SHERIFF'S OFFICE,37W755 IL ROUTE 38,SAINT CHARLES,IL,60175,"http://maps.google.com/maps?q=37W755 IL ROUTE 38,+SAINT CHARLES,+IL+60175&hl=en"
KENOSHA COUNTY SHERIFF'S DEPARTMENT,KENOSHA COUNTY CENTER EVENT 9:00AM-1:00PM,19600 75TH STREET,BRISTOL,WI,53104,"http://maps.google.com/maps?q=19600 75TH STREET,+BRISTOL,+WI+53104&hl=en"
LAGRANGE PARK POLICE,LAGRANGE PARK POLICE,447 N CATHERIN,LA GRANGE PARK,IL,60526,"http://maps.google.com/maps?q=447 N CATHERIN,+LA GRANGE PARK,+IL+60526&hl=en"
LAKE COUNTY SHERIFF OFFICE,LONG GROVE FIRE DEPT,1165 OLD MCHENRY RD,LAKE ZURICH,IL,60047,"http://maps.google.com/maps?q=1165 OLD MCHENRY RD,+LAKE ZURICH,+IL+60047&hl=en"
LAKE COUNTY SHERIFF OFFICE,SAINT PETER CHURCH,27551 VOLO VILLAGE RD,ROUND LAKE,IL,60073,"http://maps.google.com/maps?q=27551 VOLO VILLAGE RD,+ROUND LAKE,+IL+60073&hl=en"
LAKE COUNTY SHERIFF OFFICE,VILLAGE OF BEACH PARK,11270 W. WADSORTH RD,ZION,IL,60099,"http://maps.google.com/maps?q=11270 W. WADSORTH RD,+ZION,+IL+60099&hl=en"
LAKE FOREST POLICE DEPARTMENT,LAKE FOREST HOSPITAL BAYS MEDICAL BUILDING ENTRANCE,900 N WESTMORELAND,LAKE FOREST,IL,60045,"http://maps.google.com/maps?q=900 N WESTMORELAND,+LAKE FOREST,+IL+60045&hl=en"
LAKE IN THE HILLS POLICE DEPARTMENT,LAKE IN THE HILLS POLICE DEPARTMENT,1115 CRYSTAL LAKE RD,LAKE IN THE HILLS,IL,60156,"http://maps.google.com/maps?q=1115 CRYSTAL LAKE RD,+LAKE IN THE HILLS,+IL+60156&hl=en"
LAKE ZURICH POLICE DEPARTMENT,MARIANO'S GROCERY STORE,1350 E. ROUTE 22,LAKE ZURICH,IL,60047,"http://maps.google.com/maps?q=1350 E. ROUTE 22,+LAKE ZURICH,+IL+60047&hl=en"
LAKEWOOD POLICE DEPARTMENT,LAKEWOOD POLICE DEPARTMENT,2500 LAKE AVENUE,CRYSTAL LAKE,IL,60014,"http://maps.google.com/maps?q=2500 LAKE AVENUE,+CRYSTAL LAKE,+IL+60014&hl=en"
LASALLE COUNTY CORONER & SHERIFF,LASALLE COUNTY CORONER AND SHERIFF NORTH ENTRY POINT,707 EAST ETNA ROAD,OTTAWA,IL,61350,"http://maps.google.com/maps?q=707 EAST ETNA ROAD,+OTTAWA,+IL+61350&hl=en"
LEE COUNTY SHERIFF'S OFFICE,LEE COUNTY SHERIFF'S OFFICE,2530 255TH ST,MONTROSE,IA,52639,"http://maps.google.com/maps?q=2530 255TH ST,+MONTROSE,+IA+52639&hl=en"
LINN COUNTY SHERIFF'S OFFICE,CENTRAL CITY FIRE STATION,137 N 4TH ST,CENTRAL CITY,IA,52214,"http://maps.google.com/maps?q=137 N 4TH ST,+CENTRAL CITY,+IA+52214&hl=en"
LINN COUNTY SHERIFF'S OFFICE,LINN COUNTY SHERIFF'S OFFICE,310 2ND AV SW,CEDAR RAPIDS,IA,52404,"http://maps.google.com/maps?q=310 2ND AV SW,+CEDAR RAPIDS,+IA+52404&hl=en"
LINN COUNTY SHERIFF'S OFFICE,SPRINGVILLE FIRE STATION,300 BROADWAY ST,SPRINGVILLE,IA,52336,"http://maps.google.com/maps?q=300 BROADWAY ST,+SPRINGVILLE,+IA+52336&hl=en"
LOMBARD POLICE DEPARTMENT,LOMBARD POLICE DEPARTMENT,235 E. WILSON,LOMBARD,IL,60148,"http://maps.google.com/maps?q=235 E. WILSON,+LOMBARD,+IL+60148&hl=en"
LOVES PARK POLICE DEPARTMENT,LOVES PARK POLICE @ WALGREENS,5900 N. 2ND ST.,LOVES PARK,IL,61111,"http://maps.google.com/maps?q=5900 N. 2ND ST.,+LOVES PARK,+IL+61111&hl=en"
MACON POLICE DEPARTMENT,C&R SUPERMARKET PARKING LOT,703 E BRIGGS DRIVE,MACON,MO,63552,"http://maps.google.com/maps?q=703 E BRIGGS DRIVE,+MACON,+MO+63552&hl=en"
MANCHESTER POLICE DEPARTMENT,BLAKESLEY DRUG,220 EAST MAIN ST.,MANCHESTER,IA,52057,"http://maps.google.com/maps?q=220 EAST MAIN ST.,+MANCHESTER,+IA+52057&hl=en"
MAPLE BLUFF POLICE DEPARTMENT,VILLAGE OF MAPLE BLUFF POLICE DEPARTMENT EVENT 10:00AM-2:00PM,18 OXFORD PLACE,MADISON,WI,53704,"http://maps.google.com/maps?q=18 OXFORD PLACE,+MADISON,+WI+53704&hl=en"
MAR-MAC POLICE DEPARTMENT,MCGREGOR PUBLIC LIBRARY,334 MAIN STREET,MC GREGOR,IA,52157,"http://maps.google.com/maps?q=334 MAIN STREET,+MC GREGOR,+IA+52157&hl=en"
MARENGO POLICE DEPARTMENT,MARENGO POLICE DEPARTMENT,142 E. PRAIRIE STREET,MARENGO,IL,60152,"http://maps.google.com/maps?q=142 E. PRAIRIE STREET,+MARENGO,+IL+60152&hl=en"
MARION POLICE DEPARTMENT,MARION POLICE DEPARTMENT FRONT PARKING LOT,6315 HWY 151MARION,MARION,IA,52302,"http://maps.google.com/maps?q=6315 HWY 151,+MARION,+IA+52302&hl=en"
MARQUETTE COUNTY SHERIFF'S OFFICE,MARQUETTE COUNTY SHERIFF'S OFFICE EVENT 8:00AM-2:00PM,67 W PARK STREET,MONTELLO,WI,53949,"http://maps.google.com/maps?q=67 W PARK STREET,+MONTELLO,+WI+53949&hl=en"
MARSHALL POLICE DEPARTMENT,"MARSHALL POLICE DEPARTMENT 7:30AM-4:30PM, 7:30AM-1:30AM",130 S PARDEE STREET,MARSHALL,WI,53559,"http://maps.google.com/maps?q=130 S PARDEE STREET,+MARSHALL,+WI+53559&hl=en"
MASON COUNTY SHERIFF'S OFFICE,IGA STORE - MASON CITY 10:00 AM - 11:00 AM (PARKING LOT),201 WEST ELM,MASON CITY,IL,62664,"http://maps.google.com/maps?q=201 WEST ELM,+MASON CITY,+IL+62664&hl=en"
MASON COUNTY SHERIFF'S OFFICE,ONEY FOOD'S PARKING LOT PARKING LOT 1:00 PM - 2:00 PM,500 S. PROMENADE,HAVANA,IL,62644,"http://maps.google.com/maps?q=500 S. PROMENADE,+HAVANA,+IL+62644&hl=en"
MASON COUNTY SHERIFF'S OFFICE,THE LODGE AT MANITO 11:30 AM - 12:30 PM (PARKING LOT),1303 S. EAST AVENUE,MANITO,IL,61546,"http://maps.google.com/maps?q=1303 S. EAST AVENUE,+MANITO,+IL+61546&hl=en"
MAUSTON POLICE DEPARTMENT,MAUSTON POLICE DEPARTMENT EVENT 8:00AM-1:00PM,303 MANSION,MAUSTON,WI,53948,"http://maps.google.com/maps?q=303 MANSION,+MAUSTON,+WI+53948&hl=en"
MCHENRY POLICE DEPARTMENT,CITY OF MCHENRY POLICE DEPARTMENT,333 S. GREEN STREET,MCHENRY,IL,60050,"http://maps.google.com/maps?q=333 S. GREEN STREET,+MCHENRY,+IL+60050&hl=en"
MENARD COUNTY SHERIFF'S DEPT.,MENARD COUNTY JAIL,315 S. SIXTH STREET,PETERSBURG,IL,62675,"http://maps.google.com/maps?q=315 S. SIXTH STREET,+PETERSBURG,+IL+62675&hl=en"
MEQUON POLICE DEPARTMENT,CONCORDIA UNIVERSITY EVENT 10:00 AM - 2:00 PM,12800 N LAKE SHORE DR,MEQUON,WI,53092,"http://maps.google.com/maps?q=12800 N LAKE SHORE DR,+MEQUON,+WI+53092&hl=en"
METROPOLITAN WATER RECLAMATION POLICE,METOPOLITAN WATER RECLAMATION POLICE,6001 W. PERSHING RD,CHICAGO,IL,60609,"http://maps.google.com/maps?q=6001 W. PERSHING RD,+CHICAGO,+IL+60609&hl=en"
METROPOLITAN WATER RECLAMATION POLICE,METRO WATER RECLAMATION POLICE,3500 HOWARD ST,SKOKIE,IL,60076,"http://maps.google.com/maps?q=3500 HOWARD ST,+SKOKIE,+IL+60076&hl=en"
METROPOLITAN WATER RECLAMATION POLICE,METRO WATER RECLAMATION POLICE,400 E. 130TH ST,CHICAGO,IL,60628,"http://maps.google.com/maps?q=400 E. 130TH ST,+CHICAGO,+IL+60628&hl=en"
METROPOLITAN WATER RECLAMATION POLICE,METRO WATER RECLAMATION POLICE,6001 W. PERSHING RD,CICERO,IL,60804,"http://maps.google.com/maps?q=6001 W. PERSHING RD,+CICERO,+IL+60804&hl=en"
MILAN POLICE DEPARTMENT,MILAN MUNICIPAL BUILDING,405 E. 1ST ST.,MILAN,IL,61264,"http://maps.google.com/maps?q=405 E. 1ST ST.,+MILAN,+IL+61264&hl=en"
MINIER POLICE DEPARTMENT,MINIER POLICE DEPARTMENT,110 W. CENTRAL AVENUE,MINIER,IL,61759,"http://maps.google.com/maps?q=110 W. CENTRAL AVENUE,+MINIER,+IL+61759&hl=en"
"MOKENA, ILLINOIS POLICE DEPARTMENT",MOKENA POLICE DEPARMENT,10907 FRONT STREET,MOKENA,IL,60448,"http://maps.google.com/maps?q=10907 FRONT STREET,+MOKENA,+IL+60448&hl=en"
MOLINE POLICE DEPARTMENT,MOLINE POLICE DEPARTMENT,1640 6TH AVE,MOLINE,IL,61265,"http://maps.google.com/maps?q=1640 6TH AVE,+MOLINE,+IL+61265&hl=en"
MONONA POLICE DEPARTMENT,THE MEDICINE SHOPPE PHARMACY EVENT 9:00AM-1:00PM,4205 MONONA DR,MONONA,WI,53716,"http://maps.google.com/maps?q=4205 MONONA DR,+MONONA,+WI+53716&hl=en"
MONTICELLO POLICE DEPARTMENT,MONTICELLO POLICE DEPARTMENT,301 N. HAMILTON,MONTICELLO,IL,61856,"http://maps.google.com/maps?q=301 N. HAMILTON,+MONTICELLO,+IL+61856&hl=en"
MORTON POLICE DEPARTMENT,MORTON POLICE DEPARTMENT,375 W. BIRCHWOOD STREET,MORTON,IL,61550,"http://maps.google.com/maps?q=375 W. BIRCHWOOD STREET,+MORTON,+IL+61550&hl=en"
MOUNT HOREB POLICE DEPARTMENT,MOUNT HOREB POLICE DEPARTMENT EVENT 2:00PM-5:00PM,222 E FRONT ST,MOUNT HOREB,WI,53572,"http://maps.google.com/maps?q=222 E FRONT ST,+MOUNT HOREB,+WI+53572&hl=en"
MOUNT PLEASANT POLICE DEPT.,MOUNT PLEASANT POLICE DEPT.,204 E. WASHINGTON ST.,MOUNT PLEASANT,IA,52641,"http://maps.google.com/maps?q=204 E. WASHINGTON ST.,+MOUNT PLEASANT,+IA+52641&hl=en"
MOUNT PROSPECT POLICE DEPARTMENT,POLICE DEPARTMENT LOBBY,112 E. NORTHWEST HWY,MOUNT PROSPECT,IL,60056,"http://maps.google.com/maps?q=112 E. NORTHWEST HWY,+MOUNT PROSPECT,+IL+60056&hl=en"
MUSKEGO POLICE DEPARTMENT,MUSKEGO POLICE DEPARTMENT EVENT 2:00PM-5:00PM,W182 S8200 RACINE AVE,MUSKEGO,WI,53150,"http://maps.google.com/maps?q=W182 S8200 RACINE AVE,+MUSKEGO,+WI+53150&hl=en"
NAPERVILLE POLICE DEPARTMENT,NAPERVILLE POLICE DEPARTMENT,1350 AURORA AVENUE,NAPERVILLE,IL,60540,"http://maps.google.com/maps?q=1350 AURORA AVENUE,+NAPERVILLE,+IL+60540&hl=en"
NORMAL POLICE DEPARTMENT,NORMAL POLICE DEPARTMENT,100 E. PHOENIX AVENUE,NORMAL,IL,61761,"http://maps.google.com/maps?q=100 E. PHOENIX AVENUE,+NORMAL,+IL+61761&hl=en"
NORTH LIBERTY IOWA POLICE DEPARTMENT,NORTH LIBERTY POLICE DEPT.,5 E. CHERRY ST.,NORTH LIBERTY,IA,52317,"http://maps.google.com/maps?q=5 E. CHERRY ST.,+NORTH LIBERTY,+IA+52317&hl=en"
NORTH RIVERSIDE POLICE DEPARTMENT,NORTH RIVERSIDE POLICE DEPARTMENT,2359 S. DESPLAINES,NORTH RIVERSIDE,IL,60546,"http://maps.google.com/maps?q=2359 S. DESPLAINES,+NORTH RIVERSIDE,+IL+60546&hl=en"
NORTHBROOK POLICE DEPARTMENT,NORTHBROOK POLICE DEPARTMENT,1401 LANDWEHR RD.,NORTHBROOK,IL,60062,"http://maps.google.com/maps?q=1401 LANDWEHR RD.,+NORTHBROOK,+IL+60062&hl=en"
NORTHEAST IOWA DRUG TASK FORCE,CALMAR TRAIN DEPOT,202 MARYVILLE STREET,CALMAR,IA,52132,"http://maps.google.com/maps?q=202 MARYVILLE STREET,+CALMAR,+IA+52132&hl=en"
NORTHEAST IOWA DRUG TASK FORCE,CHICKASAW COUNTY COMMUNITY CENTER,260 EAST PROSPECT ST.,NEW HAMPTON,IA,50659,"http://maps.google.com/maps?q=260 EAST PROSPECT ST.,+NEW HAMPTON,+IA+50659&hl=en"
NORTHEAST IOWA DRUG TASK FORCE,CLAYTON COUNTY SHERIFF'S OFFICE,22680 230TH ST,SAINT OLAF,IA,52072,"http://maps.google.com/maps?q=22680 230TH ST,+SAINT OLAF,+IA+52072&hl=en"
NORTHEAST IOWA DRUG TASK FORCE,DONLON'S PHARMACY,201 WEST WATER STREET,DECORAH,IA,52101,"http://maps.google.com/maps?q=201 WEST WATER STREET,+DECORAH,+IA+52101&hl=en"
NORTHEAST IOWA DRUG TASK FORCE,ELKADER OPERA HOUSE,207 NORTH MAIN ST.,ELKADER,IA,52043,"http://maps.google.com/maps?q=207 NORTH MAIN ST.,+ELKADER,+IA+52043&hl=en"
NORTHEAST IOWA DRUG TASK FORCE,FAYETTE COUNTY SHERIFF'S OFFICE,220 NORTH INDISTRIAL PARKWAY,WEST UNION,IA,52175,"http://maps.google.com/maps?q=220 NORTH INDISTRIAL PARKWAY,+WEST UNION,+IA+52175&hl=en"
NORTHEAST IOWA DRUG TASK FORCE,HOWARD COUNTY SHERIFF'S OFFICE,124 S. PARK PLACE,CRESCO,IA,52136,"http://maps.google.com/maps?q=124 S. PARK PLACE,+CRESCO,+IA+52136&hl=en"
NORTHEAST IOWA DRUG TASK FORCE,LANSING FIRE DEPT.,51 NORTH FRONT ST.,LANSING,IA,52151,"http://maps.google.com/maps?q=51 NORTH FRONT ST.,+LANSING,+IA+52151&hl=en"
NORTHEAST IOWA DRUG TASK FORCE,MONONA POLICE DEPT.,104 EAST CENTER ST.,MONONA,IA,52159,"http://maps.google.com/maps?q=104 EAST CENTER ST.,+MONONA,+IA+52159&hl=en"
NORTHEAST IOWA DRUG TASK FORCE,POSTVILLE CITY HALL,147 N. LAWLWER ST.,POSTVILLE,IA,52162,"http://maps.google.com/maps?q=147 N. LAWLWER ST.,+POSTVILLE,+IA+52162&hl=en"
NORTHEAST IOWA DRUG TASK FORCE,PROTIVIN FIRE DEPARTMENT,132 LARSON STREET,PROTIVIN,IA,52163,"http://maps.google.com/maps?q=132 LARSON STREET,+PROTIVIN,+IA+52163&hl=en"
NORTHEAST IOWA DRUG TASK FORCE,STEEGE PHARMACY,119 NORTH VINE STREET,WEST UNION,IA,52175,"http://maps.google.com/maps?q=119 NORTH VINE STREET,+WEST UNION,+IA+52175&hl=en"
NORTHEAST IOWA DRUG TASK FORCE,THRIFTY WHITE PHARMACY,702 MONTGOMERY ST.,DECORAH,IA,52101,"http://maps.google.com/maps?q=702 MONTGOMERY ST.,+DECORAH,+IA+52101&hl=en"
NORTHEAST IOWA DRUG TASK FORCE,UNION DRUG STORE,315 HIGHWAY 150,WEST UNION,IA,52175,"http://maps.google.com/maps?q=315 HIGHWAY 150,+WEST UNION,+IA+52175&hl=en"
NORTHEAST IOWA DRUG TASK FORCE,WAL-MART SUPER CENTER,1798 OLD STAGE ROAD,DECORAH,IA,52101,"http://maps.google.com/maps?q=1798 OLD STAGE ROAD,+DECORAH,+IA+52101&hl=en"
NORTHEAST IOWA DRUG TASK FORCE,WAUKON POLICE DEPT.,565 11 1ST STREET,WAUKON,IA,52172,"http://maps.google.com/maps?q=565 11 1ST STREET,+WAUKON,+IA+52172&hl=en"
NORTHEAST IOWA DRUG TASK FORCE,WINNESHIEK CO/DECORAH POLICE LAW ENFORCEMENT CNTR,400 CLAIRBORNE DRIVE,DECORAH,IA,52101,"http://maps.google.com/maps?q=400 CLAIRBORNE DRIVE,+DECORAH,+IA+52101&hl=en"
NORTHEAST MISSOURI NARCOTICS TASK FORCE,COUNTY MARKET,1805 ELM ST,CANTON,MO,63435,"http://maps.google.com/maps?q=1805 ELM ST,+CANTON,+MO+63435&hl=en"
NORTHFIELD POLICE DEPARTMENT,NORTHFIELD POLICE DEPARTMENT,350 WALNUT AVE.,NORTHFIELD,IL,60093,"http://maps.google.com/maps?q=350 WALNUT AVE.,+NORTHFIELD,+IL+60093&hl=en"
OAK CREEK POLICE DEPARTMENT,PICK N SAVE EVENT 10:00AM-2:00PM,8770 S HOWELL AVE,OAK CREEK,WI,53154,"http://maps.google.com/maps?q=8770 S HOWELL AVE,+OAK CREEK,+WI+53154&hl=en"
OCONOMOWOC POLICE DEPARTMENT,PROHEALTH OCONOMOWOC MEMORIAL HOSPITAL EVENT 10:00AM-2:00PM,791 SUMMIT AVE,OCONOMOWOC,WI,53066,"http://maps.google.com/maps?q=791 SUMMIT AVE,+OCONOMOWOC,+WI+53066&hl=en"
ORDORDVILLE POLICE DEPARTMENT,ORFORDVILLE POLICE DEPARTMENT EVENT 10:00AM-2:00PM,303 E BELOIT ST,ORFORDVILLE,WI,53576,"http://maps.google.com/maps?q=303 E BELOIT ST,+ORFORDVILLE,+WI+53576&hl=en"
ORLAND PARK POLICE DEPARTMENT,ORLAND PARK POLICE DEPARTMENT,15100 RAVINIA AVE,ORLAND PARK,IL,60462,"http://maps.google.com/maps?q=15100 RAVINIA AVE,+ORLAND PARK,+IL+60462&hl=en"
OSKALOOSA IA POLICE DEPARTMENT,MAHASKA DRUG PHARMACY,207 NORTH E STREET,OSKALOOSA,IA,52577,"http://maps.google.com/maps?q=207 NORTH E STREET,+OSKALOOSA,+IA+52577&hl=en"
OTTAWA POLICE DEPARTMENT,OTTAWA POLICE DEPARTMENT LOBBY,301W. LAFYETTE ST.,OTTAWA,IL,61350,"http://maps.google.com/maps?q=301,+OTTAWA,+IL+61350&hl=en"
PALATINE POLICE DEPARTMENT,PALATINE POLICE DEPARTMENT,595 N. HICKS RD.,PALATINE,IL,60067,"http://maps.google.com/maps?q=595 N. HICKS RD.,+PALATINE,+IL+60067&hl=en"
PALMYRA POLICE DEPARTMENT,PALMYRA POLICE DEPARTMENT EVENT 10:00AM-2:00PM,126 N FIRST STREET,PALMYRA,WI,53156,"http://maps.google.com/maps?q=126 N FIRST STREET,+PALMYRA,+WI+53156&hl=en"
PEKIN POLICE DEPARTMENT,PEKIN POLICE DEPARTMENT LOBBY,111 SOUTH CAPITOL STREET,PEKIN,IL,61554,"http://maps.google.com/maps?q=111 SOUTH CAPITOL STREET,+PEKIN,+IL+61554&hl=en"
PEORIA POLICE DEPARTMENT,KROGER PHARMACY,9219 N. LINDBERGH DRIVE,PEORIA,IL,61615,"http://maps.google.com/maps?q=9219 N. LINDBERGH DRIVE,+PEORIA,+IL+61615&hl=en"
PEORIA POLICE DEPARTMENT,OSF CENTER FOR HEALTH,8800 STATE ROUTE 91,PEORIA,IL,61615,"http://maps.google.com/maps?q=8800 STATE ROUTE 91,+PEORIA,+IL+61615&hl=en"
PEORIA POLICE DEPARTMENT,PEORIA POLICE DEPARTMENT,600 SW ADAMS,PEORIA,IL,61602,"http://maps.google.com/maps?q=600 SW ADAMS,+PEORIA,+IL+61602&hl=en"
PLAINFIELD POLICE DEPARTMENT,PLAINFIELD POLICE DEPARTMENT,14300 S. COIL PLUS DRIVE,PLAINFIELD,IL,60544,"http://maps.google.com/maps?q=14300 S. COIL PLUS DRIVE,+PLAINFIELD,+IL+60544&hl=en"
PRINCETON POLICE DEPARTMENT,PRINCETON POLICE DEPARTMENT PEG MACIEJEWSKI,605 ELM PLACE,PRINCETON,IL,61356,"http://maps.google.com/maps?q=605 ELM PLACE,+PRINCETON,+IL+61356&hl=en"
RICHLAND CENTER POLICE DEPT,RICHLAND CENTER POLICE DEPT EVENT 10:00AM-2:00PM,470 S MAIN ST,RICHLAND CENTER,WI,53581,"http://maps.google.com/maps?q=470 S MAIN ST,+RICHLAND CENTER,+WI+53581&hl=en"
RIVERTON POLICE DEPARTMENT,RIVERTON POLICE DEPARTMENT,12500 E. RIVERTON ROAD,RIVERTON,IL,62561,"http://maps.google.com/maps?q=12500 E. RIVERTON ROAD,+RIVERTON,+IL+62561&hl=en"
ROCHELLE POLICE DEPT,ROCHELLE POLICE DEPT.,416 N 6TH ST,ROCHELLE,IL,61068,"http://maps.google.com/maps?q=416 N 6TH ST,+ROCHELLE,+IL+61068&hl=en"
ROCK ISLAND COUNTY SHERIFF'S OFFICE,ROCK ISLAND COUNTY JUSTICE CENTER,1317 3RD AVENUE,ROCK ISLAND,IL,61201,"http://maps.google.com/maps?q=1317 3RD AVENUE,+ROCK ISLAND,+IL+61201&hl=en"
ROLLING MEADOWS POLICE DEPARTMENT,ROLLING MEADOWS POLICE DEPARTMENT,3600 KIRCHOFF RD.,ROLLING MEADOWS,IL,60008,"http://maps.google.com/maps?q=3600 KIRCHOFF RD.,+ROLLING MEADOWS,+IL+60008&hl=en"
SANDWICH POLICE DEPARTMENT/NW MEDICINE/VALLEY WEST,NORTHWEST MEDICINE VALLEY WEST HOSPITAL,1302 N. MAIN STREET,SANDWICH,IL,60548,"http://maps.google.com/maps?q=1302 N. MAIN STREET,+SANDWICH,+IL+60548&hl=en"
SANGAMON COUNTY SHERIFF'S OFFICE,SANGAMON COUNTY PUBLIC HEALTH,2833 SOUTH GRAND AVE EAST,SPRINGFIELD,IL,62703,"http://maps.google.com/maps?q=2833 SOUTH GRAND AVE EAST,+SPRINGFIELD,+IL+62703&hl=en"
SHERMAN POLICE DEPARTMENT,SHERMAN POLICE DEPARTMENT,2629 E. ANDREW ROAD,SHERMAN,IL,62684,"http://maps.google.com/maps?q=2629 E. ANDREW ROAD,+SHERMAN,+IL+62684&hl=en"
SHOREWOOD HILLS POLICE DEPARTMENT,SHOREWOOD HILLS POLICE DEPARTMENT EVENT 8:00AM-1:00PM,810 SHOREWOOD BLVD,MADISON,WI,53705,"http://maps.google.com/maps?q=810 SHOREWOOD BLVD,+MADISON,+WI+53705&hl=en"
SHOREWOOD POLICE DEPARTMENT,SHOREWOOD POLICE DEPARTMENT EVENT 8:00AM-3:30PM,4057 N WILSON DR,SHOREWOOD,WI,53211,"http://maps.google.com/maps?q=4057 N WILSON DR,+SHOREWOOD,+WI+53211&hl=en"
SIGOURNEY POLICE DEPARTMENT,SIGOURNEY POLICE DEPARTMENT,100 N MIAN STREET,SIGOURNEY,IA,52591,"http://maps.google.com/maps?q=100 N MIAN STREET,+SIGOURNEY,+IA+52591&hl=en"
SKOKIE POLICE DEPARTMENT,SKOKIE POLICE DEPARTMENT,7300 NILES CENTER,SKOKIE,IL,60077,"http://maps.google.com/maps?q=7300 NILES CENTER,+SKOKIE,+IL+60077&hl=en"
SOUTH MILWAUKEE POLICE DEPARTMENT,SOUTH MILWAUKEE POLICE DEPARTMENT EVENT 10:00AM-1:00PM,2424 15TH AVE,SOUTH MILWAUKEE,WI,53172,"http://maps.google.com/maps?q=2424 15TH AVE,+SOUTH MILWAUKEE,+WI+53172&hl=en"
SOUTHEAST IOWA NARCOTICS TASK FORCE,SLUMBERLAND PARKING LOT POC : ADAM PLEIN PLEINA@DMCOUNTY.COM,3150 E AGENCY ST,BURLINGTON,IA,52601,"http://maps.google.com/maps?q=3150 E AGENCY ST,+BURLINGTON,+IA+52601&hl=en"
SPRINGFIELD POLICE DEPARTMENT,HY-VEE PHARMACY,2115 S. MACARTHUR,SPRINGFIELD,IL,62704,"http://maps.google.com/maps?q=2115 S. MACARTHUR,+SPRINGFIELD,+IL+62704&hl=en"
SPRINGFIELD POLICE DEPARTMENT,PREVENTION FIRST,2800 MONTVALE DR,SPRINGFIELD,IL,62704,"http://maps.google.com/maps?q=2800 MONTVALE DR,+SPRINGFIELD,+IL+62704&hl=en"
ST. CHARLES POLICE DEPARTMENT,NORTHWESTERN MEDICINE CONVENIENT CARE ST. CHARLES,2900 FOXFIELD DR,SAINT CHARLES,IL,60174,"http://maps.google.com/maps?q=2900 FOXFIELD DR,+SAINT CHARLES,+IL+60174&hl=en"
THIENSVILLE POLICE DEPARTMENT,PORT WASHINGTON STATE BANK EVENT 10:00AM-2:00PM,197 S MAIN STREET,THIENSVILLE,WI,53092,"http://maps.google.com/maps?q=197 S MAIN STREET,+THIENSVILLE,+WI+53092&hl=en"
TOWN OF BELOIT,TOWN OF BELOIT EVENT 10:00AM-2:00PM,1133 E INMAN PKWY,BELOIT,WI,53511,"http://maps.google.com/maps?q=1133 E INMAN PKWY,+BELOIT,+WI+53511&hl=en"
TOWN OF EAST TROY POLICE DEPARTMENT,TOWN OF EAST TROY POLICE DEPARTMENT EVENT 10:00AM-12:00PM,N9330 STEWART SCHOOL ROAD,EAST TROY,WI,53120,"http://maps.google.com/maps?q=N9330 STEWART SCHOOL ROAD,+EAST TROY,+WI+53120&hl=en"
VAN BUREN COUNTY SHERIFF'S OFFICE,LAW CENTER LOBBY,907 BROAD STREET,KEOSAUQUA,IA,52565,"http://maps.google.com/maps?q=907 BROAD STREET,+KEOSAUQUA,+IA+52565&hl=en"
VERONA POLICE DEPARTMENT,VERONA POLICE DEPARTMENT EVENT 10:00AM-2:00PM,111 LINCOLN STREET,VERONA,WI,53593,"http://maps.google.com/maps?q=111 LINCOLN STREET,+VERONA,+WI+53593&hl=en"
VILLAGE OF BUTLER,VILLAGE OF BUTLER POLICE DEPARTMENT EVENT 8:00AM-11:00AM,12621 W HAMPTON AVE,BUTLER,WI,53007,"http://maps.google.com/maps?q=12621 W HAMPTON AVE,+BUTLER,+WI+53007&hl=en"
VILLAGE OF COTTAGE GROVE POLICE DEPARTMENT,FOREWARD PHARMACY EVENT 9:00AM-12:00PM,429 W COTTAGE GROVE ROAD,COTTAGE GROVE,WI,53527,"http://maps.google.com/maps?q=429 W COTTAGE GROVE ROAD,+COTTAGE GROVE,+WI+53527&hl=en"
VILLAGE OF EAGLE POLICE DEPARTMENT,EAGLE MUNICIPAL BUILDING EVENT 12:00PM-2:00PM,820 E MAIN STREET,EAGLE,WI,53119,"http://maps.google.com/maps?q=820 E MAIN STREET,+EAGLE,+WI+53119&hl=en"
VILLAGE OF EAST TROY POLICE DEPARTMENT,VILLAGE OF EAST TROY POLICE DEPARTMENT EVENT 10:00AM-2:00PM,2015 ENERGY DRIVE,EAST TROY,WI,53120,"http://maps.google.com/maps?q=2015 ENERGY DRIVE,+EAST TROY,+WI+53120&hl=en"
VILLAGE OF MUKWONAGO POLICE DEPARTMENT,WALGREENS EVENT 10:00AM-2:00PM,212 NORTH ROCHESTER STREET,MUKWONAGO,WI,53149,"http://maps.google.com/maps?q=212 NORTH ROCHESTER STREET,+MUKWONAGO,+WI+53149&hl=en"
VILLAGE OF PEWAUKEE POLICE DEPARTMENT,VILLAGE OF PEWAUKEE POLICE DEPARTMENT EVENT 10:00-2:00PM,235 HICKORY STREET,PEWAUKEE,WI,53072,"http://maps.google.com/maps?q=235 HICKORY STREET,+PEWAUKEE,+WI+53072&hl=en"
VILLAGE OF WINFIELD,NORTHWESTERN MEDICINE CENTRAL DUPAGE HOSPITAL,25 N. WINFIELD ROAD,WINFIELD,IL,60190,"http://maps.google.com/maps?q=25 N. WINFIELD ROAD,+WINFIELD,+IL+60190&hl=en"
VIROQUA POLICE DEPARTMENT,VIROQUA POLICE DEPARTMENT EVENT 10:00AM-2:00PM,702 EAST BROADWAY,VIROQUA,WI,54665,"http://maps.google.com/maps?q=702 EAST BROADWAY,+VIROQUA,+WI+54665&hl=en"
WATERLOO POLICE DEPARTMENT,GREENWOOD PHARMACY,2104 KIMBALL AVE,WATERLOO,IA,50702,"http://maps.google.com/maps?q=2104 KIMBALL AVE,+WATERLOO,+IA+50702&hl=en"
WATERLOO POLICE DEPARTMENT,WATERLOO POLICE DEPT EVENT 10:00AM-12:00PM,136 N MONROE ST,WATERLOO,WI,53594,"http://maps.google.com/maps?q=136 N MONROE ST,+WATERLOO,+WI+53594&hl=en"
WAUKESHA COUNTY SHERIFF'S DEPARTMENT,PICK N SAVE EVENT 10:00AM-2:00PM,N65 W24838 MAIN STREET,SUSSEX,WI,53089,"http://maps.google.com/maps?q=N65 W24838 MAIN STREET,+SUSSEX,+WI+53089&hl=en"
WAVERLY POLICE DEPARTMENT,WAVERLY PUBLIC LIBRARY,1500 WEST BREMER AVE,WAVERLY,IA,50677,"http://maps.google.com/maps?q=1500 WEST BREMER AVE,+WAVERLY,+IA+50677&hl=en"
WEST ALLIS POLICE DEPARTMENT,WEST ALLIS POLICE DEPARTMENT EVENT 8:00AM-12:00PM,11301 W LINCOLN AVE,WEST ALLIS,WI,53227,"http://maps.google.com/maps?q=11301 W LINCOLN AVE,+WEST ALLIS,+WI+53227&hl=en"
WEST LIBERTY IOWA POLICE DEPARTMENT,CITY HALL LOBBY (10AM - 1PM),409 N. CALHOUN ST,WEST LIBERTY,IA,52776,"http://maps.google.com/maps?q=409 N. CALHOUN ST,+WEST LIBERTY,+IA+52776&hl=en"
WEST MILWAUKEE POLICE DEPARTMENT,PICK N SAVE EVENT 10:00AM-2:0PM,2201 MILLER PARK WAY,MILWAUKEE,WI,53219,"http://maps.google.com/maps?q=2201 MILLER PARK WAY,+MILWAUKEE,+WI+53219&hl=en"
WESTBY POLICE DEPARTMENT,WESTBY POLICE DEPARTMENT EVENT 1000AM-2:00PM,200 MELBY STREET,WESTBY,WI,54667,"http://maps.google.com/maps?q=200 MELBY STREET,+WESTBY,+WI+54667&hl=en"
WESTMONT POLICE DEPARTMENT,WESTMONT POLICE DEPARTMENT 2ND LOCATION - MARIANO'S OUTDOOR FOODCOURT,150 63RD STREET,WESTMONT,IL,60559,"http://maps.google.com/maps?q=150 63RD STREET,+WESTMONT,+IL+60559&hl=en"
WESTMONT POLICE DEPARTMENT,WESTMONT POLICE DEPARTMENT HEADQUARTERS,500 N. CASS AVE,WESTMONT,IL,60559,"http://maps.google.com/maps?q=500 N. CASS AVE,+WESTMONT,+IL+60559&hl=en"
WHITEFISH BAY POLICE DEPARTMENT,WHITEFISH BAY POLICE DEPARTMENT EVENT 10:00AM-2:00PM,5300 N. MARLBOROUGH DRIVE,WHITEFISH BAY,WI,53217,"http://maps.google.com/maps?q=5300 N. MARLBOROUGH DRIVE,+WHITEFISH BAY,+WI+53217&hl=en"
WILL COUNTY SHERIFF'S OFFICE,WILL COUNTY COURTHOUSE PARKING LOT,14 W. JEFFERSON ST,JOLIET,IL,60432,"http://maps.google.com/maps?q=14 W. JEFFERSON ST,+JOLIET,+IL+60432&hl=en"
WILLIAMSBURG POLICE DEPARTMENT,WILLIAMSBURG POLICE DEPARTMENT,210 STATE STREET,WILLIAMSBURG,IA,52361,"http://maps.google.com/maps?q=210 STATE STREET,+WILLIAMSBURG,+IA+52361&hl=en"
WILMINGTON POLICE DEPARTMENT,WILMINGTON POLICE DEPARTMENT PHILLIP ARNOLD,"WILMINGTON POLICE DEPARTMENT, 129 ROBERT WEIDLING DR",WILMINGTON,IL,60481,"http://maps.google.com/maps?q=WILMINGTON POLICE DEPARTMENT, 129 ROBERT WEIDLING DR,+WILMINGTON,+IL+60481&hl=en"
WOODFORD COUNTY SHERIFF'S OFFICE,"WOODFORD COUNTY SHERIFF'S OFFICE EUREKA, IL",111 E. COURT STREET,METAMORA,IL,61548,"http://maps.google.com/maps?q=111 E. COURT STREET,+METAMORA,+IL+61548&hl=en"
WOODSTOCK POLICE DEPARTMENT,WOODSTOCK POLICE DEPARTMENT COLLECTION SITE IS THE PUBLIC PARKING LOT,656 LAKE AVE.,WOODSTOCK,IL,60098,"http://maps.google.com/maps?q=656 LAKE AVE.,+WOODSTOCK,+IL+60098&hl=en"
