Participant,CollectionSite,Address,City,State,Zip,MapURL
ALBANY COUNTY SHERIFF,ALBANY COUNTY SHERIFF PATROL STATION,58 VERDA AVENUE,CLARKSVILLE,NY,12041,"http://maps.google.com/maps?q=58 VERDA AVENUE,+CLARKSVILLE,+NY+12041&hl=en"
ALBANY COUNTY SHERIFF,RCS COMMUNITY LIBRARY,95 MAIN STREET,RAVENA,NY,12143,"http://maps.google.com/maps?q=95 MAIN STREET,+RAVENA,+NY+12143&hl=en"
ALBANY NY POLICE DEPARTMENT,ALBANY COLLEGE OF PHARMACY CAR PORT (DRIVE UP DROP OFF),106 NEW SCOTLAND AVE.,ALBANY,NY,12208,"http://maps.google.com/maps?q=106 NEW SCOTLAND AVE.,+ALBANY,+NY+12208&hl=en"
ALBANY NY POLICE DEPARTMENT,ALBANY POLICE DEPT. SOUTH STATION,126 ARCH STREET,ALBANY,NY,12202,"http://maps.google.com/maps?q=126 ARCH STREET,+ALBANY,+NY+12202&hl=en"
ALBANY NY POLICE DEPARTMENT,CVS PHARMACY,885 CENTRAL AVE.,ALBANY,NY,12205,"http://maps.google.com/maps?q=885 CENTRAL AVE.,+ALBANY,+NY+12205&hl=en"
ALEXANDRIA POLICE DEPARTMENT,ALEXANDRIA TRANSFER STATION,29 SMITH RIVER RD,BRISTOL,NH,03222,"http://maps.google.com/maps?q=29 SMITH RIVER RD,+BRISTOL,+NH+03222&hl=en"
ALSTEAD POLICE DEPARTMENT,ALSTEAD POLICE DEPARTMENT,15 MECHANIC ST,ALSTEAD,NH,03602,"http://maps.google.com/maps?q=15 MECHANIC ST,+ALSTEAD,+NH+03602&hl=en"
ANDOVER POLICE DEPARTMENT,ANDOVER POLICE STATION 973-383-5544,145 LAKE ILIFF RD.,NEWTON,NJ,07860,"http://maps.google.com/maps?q=145 LAKE ILIFF RD.,+NEWTON,+NJ+07860&hl=en"
ANDOVER POLICE DEPARTMENT,CIRCLE K,718 MAIN ST,ANDOVER,NH,03216,"http://maps.google.com/maps?q=718 MAIN ST,+ANDOVER,+NH+03216&hl=en"
ASHLAND POLICE DEPARTMENT,ASHLAND POLICE DEPT.,20 HIGHLAND ST.,ASHLAND,NH,03217,"http://maps.google.com/maps?q=20 HIGHLAND ST.,+ASHLAND,+NH+03217&hl=en"
AUBURN POLICE DEPARTMENT,KINNEY DRUGS,62 OWASCO ST.,AUBURN,NY,13021,"http://maps.google.com/maps?q=62 OWASCO ST.,+AUBURN,+NY+13021&hl=en"
AUBURN POLICE DEPARTMENT,WEGMANS,1 LOOP ROAD,AUBURN,NY,13021,"http://maps.google.com/maps?q=1 LOOP ROAD,+AUBURN,+NY+13021&hl=en"
BALDWINSVILLE POLICE DEPARTMENT,KINNEY DRUGS,21 E. GENESEE STREET,BALDWINSVILLE,NY,13027,"http://maps.google.com/maps?q=21 E. GENESEE STREET,+BALDWINSVILLE,+NY+13027&hl=en"
BELMONT POLICE DEPARTMENT,BELMONT NH POLICE DEPARTMENT,16 FULLER STREET,BELMONT,NH,03220,"http://maps.google.com/maps?q=16 FULLER STREET,+BELMONT,+NH+03220&hl=en"
BENNINGTON POLICE DEPARTMENT,BENNINGTON COUNTY SHERIFF'S DEPT FRONT LOBBY,811 US ROUTE 7 SOUTH,BENNINGTON,VT,05201,"http://maps.google.com/maps?q=811 US ROUTE 7 SOUTH,+BENNINGTON,+VT+05201&hl=en"
BENNINGTON POLICE DEPARTMENT,BENNINGTON POLICE DEPARTMENT FRONT LOBBY,118 SOUTH STREET,BENNINGTON,VT,05201,"http://maps.google.com/maps?q=118 SOUTH STREET,+BENNINGTON,+VT+05201&hl=en"
BENNINGTON POLICE DEPARTMENT,MANCHESTER POLICE DEPARTMENT FRONT LOBBY,6041 MAIN STREET,MANCHESTER CENTER,VT,05255,"http://maps.google.com/maps?q=6041 MAIN STREET,+MANCHESTER CENTER,+VT+05255&hl=en"
BENNINGTON POLICE DEPARTMENT,SOUTHWESTERN VERMONT MEDICAL CENTER FRONT LOBBY,100 HOSPITAL DRIVE,BENNINGTON,VT,05201,"http://maps.google.com/maps?q=100 HOSPITAL DRIVE,+BENNINGTON,+VT+05201&hl=en"
BENNINGTON POLICE DEPARTMENT,WINHALL POLICE DEPARTMENT FRONT LOBBY,113 VT ROUTE 30,BONDVILLE,VT,05340,"http://maps.google.com/maps?q=113 VT ROUTE 30,+BONDVILLE,+VT+05340&hl=en"
BERKELEY HEIGHTS POLICE DEPARTMENT,BERKELEY HEIGHTS POLICE DEPARTMENT 908-464-1111,29 PARK AVE.,BERKELEY HEIGHTS,NJ,07922,"http://maps.google.com/maps?q=29 PARK AVE.,+BERKELEY HEIGHTS,+NJ+07922&hl=en"
BERNARDS TOWNSHIP POLICE DEPARTMENT,BERNARDS TOWNSHIP POLICE DEPARTMENT,1 COLLYER LANE,BASKING RIDGE,NJ,07920,"http://maps.google.com/maps?q=1 COLLYER LANE,+BASKING RIDGE,+NJ+07920&hl=en"
BERNARDSVILLE POLICE DEPARTMENT,BERNARDSVILLE POLICE DEPARTMENT,166 MINE BROOK ROAD,BERNARDSVILLE,NJ,07924,"http://maps.google.com/maps?q=166 MINE BROOK ROAD,+BERNARDSVILLE,+NJ+07924&hl=en"
BETHLEHEM POLICE DEPARTMENT,BETHLEHEM POLICCE DEPARTMENT,2155 MAIN ST,BETHLEHEM,NH,03574,"http://maps.google.com/maps?q=2155 MAIN ST,+BETHLEHEM,+NH+03574&hl=en"
BETHLEHEM POLICE DEPARTMENT,ELM AVENUE PARK FRONT PARKING LOT,249 ELM AVENUE,DELMAR,NY,12054,"http://maps.google.com/maps?q=249 ELM AVENUE,+DELMAR,+NY+12054&hl=en"
BETHLEHEM POLICE DEPARTMENT,WESTGATE MALL,2285 SCHOENERSVILLE ROAD,BETHLEHEM,PA,18017,"http://maps.google.com/maps?q=2285 SCHOENERSVILLE ROAD,+BETHLEHEM,+PA+18017&hl=en"
BETHLEHEM TWNSHP POLICE DEPARTMENT,CVS PHARMACY,4950 FREEMANSBURG AVENUE,EASTON,PA,18045,"http://maps.google.com/maps?q=4950 FREEMANSBURG AVENUE,+EASTON,+PA+18045&hl=en"
BETHLEHEM TWNSHP POLICE DEPARTMENT,GIANT PHARMACY #6366,3926 NAZARETH PIKE,BETHLEHEM,PA,18020,"http://maps.google.com/maps?q=3926 NAZARETH PIKE,+BETHLEHEM,+PA+18020&hl=en"
BETHLEHEM TWNSHP POLICE DEPARTMENT,"ST. LUKES HOSPITAL, ANDERSON CAMPUS",1872 ST LUKES BLVD,EASTON,PA,18045,"http://maps.google.com/maps?q=1872 ST LUKES BLVD,+EASTON,+PA+18045&hl=en"
BETHLEHEM TWNSHP POLICE DEPARTMENT,YOUNG'S PHARMACY,3708 FREEMANSBURG AVENUE,EASTON,PA,18045,"http://maps.google.com/maps?q=3708 FREEMANSBURG AVENUE,+EASTON,+PA+18045&hl=en"
BOSCAWEN POLICE DEPARTMENT,BOSCAWEN POLICE DEPARTMENT LT. JASON KILLARY,116 NORTH MAIN STREET,BOSCAWEN,NH,03303,"http://maps.google.com/maps?q=116 NORTH MAIN STREET,+BOSCAWEN,+NH+03303&hl=en"
BRADFORD POLICE DEPARTMENT,BRADFORD POLICE DEPARTMENT,2217 STATE ROUTE 114,BRADFORD,NH,03221,"http://maps.google.com/maps?q=2217 STATE ROUTE 114,+BRADFORD,+NH+03221&hl=en"
BRANCHBURG TOWNSHIP POLICE DEPARTMENT,BRANCHBURG TOWNSHIP POLICE DEPARTMENT,590 OLD YORK ROAD,BRANCHBURG,NJ,08876,"http://maps.google.com/maps?q=590 OLD YORK ROAD,+BRANCHBURG,+NJ+08876&hl=en"
BRIDGEWATER TWP. POLICE,BRIDGEWATER POLICE HQ,100 COMMONS WAY,BRIDGEWATER,NJ,08807,"http://maps.google.com/maps?q=100 COMMONS WAY,+BRIDGEWATER,+NJ+08807&hl=en"
BRISTOL POLICE DEPARTMENT,BRISTOL POLICE DEPARTMENT,72 MUNSILL AVENUE,BRISTOL,VT,05443,"http://maps.google.com/maps?q=72 MUNSILL AVENUE,+BRISTOL,+VT+05443&hl=en"
BROOME COUNTY SHERIFF'S DEPARTMENT,AMERICAN LEGION POST 1700,305 MAPLE STREET,ENDICOTT,NY,13760,"http://maps.google.com/maps?q=305 MAPLE STREET,+ENDICOTT,+NY+13760&hl=en"
BROOME COUNTY SHERIFF'S DEPARTMENT,BROOME COUNTY SHERIFF'S OFFICE,155 LT. VANWINKLE DR.,BINGHAMTON,NY,13905,"http://maps.google.com/maps?q=155 LT. VANWINKLE DR.,+BINGHAMTON,+NY+13905&hl=en"
BROOME COUNTY SHERIFF'S DEPARTMENT,JOHNSON CITY ELKS,4212 WATSON BLVD.,JOHNSON CITY,NY,13790,"http://maps.google.com/maps?q=4212 WATSON BLVD.,+JOHNSON CITY,+NY+13790&hl=en"
BROOME COUNTY SHERIFF'S DEPARTMENT,THE SCOOP,32876 STATE RT. 11,WHITNEY POINT,NY,13862,"http://maps.google.com/maps?q=32876 STATE RT. 11,+WHITNEY POINT,+NY+13862&hl=en"
BROOME COUNTY SHERIFF'S DEPARTMENT,VESTAL ELKS LODGE,2071 VESTAL PARKWAY WEST,VESTAL,NY,13850,"http://maps.google.com/maps?q=2071 VESTAL PARKWAY WEST,+VESTAL,+NY+13850&hl=en"
BROOME COUNTY SHERIFF'S DEPARTMENT,VESTAL FIRE STATION 4,3341 VESTAL PKWY EAST,VESTAL,NY,13850,"http://maps.google.com/maps?q=3341 VESTAL PKWY EAST,+VESTAL,+NY+13850&hl=en"
BROOME COUNTY SHERIFF'S DEPARTMENT,WINDSOR COMMUNITY CENTER,107 MAIN STREET,WINDSOR,NY,13865,"http://maps.google.com/maps?q=107 MAIN STREET,+WINDSOR,+NY+13865&hl=en"
BUCKINGHAM TWP PD,BUCKINGHAM TWP PD,4613 HUGHESIAN DR,BUCKINGHAM,PA,18912,"http://maps.google.com/maps?q=4613 HUGHESIAN DR,+BUCKINGHAM,+PA+18912&hl=en"
BUCKINGHAM TWP PD,MIDWAY FIRE DEPT,3879 ROUTE 413,DOYLESTOWN,PA,18902,"http://maps.google.com/maps?q=3879 ROUTE 413,+DOYLESTOWN,+PA+18902&hl=en"
BURLINGTON POLICE DEPARTMENT,BURLINGTON POLICE DEPARTMENT NORTH LOBBY,1 NORTH AVE,BURLINGTON,VT,05401,"http://maps.google.com/maps?q=1 NORTH AVE,+BURLINGTON,+VT+05401&hl=en"
BYRAM TWP. POLICE DEPARTMENT,CVS PHARMACY,77 RT. 206,STANHOPE,NJ,07874,"http://maps.google.com/maps?q=77 RT. 206,+STANHOPE,+NJ+07874&hl=en"
BYRAM TWP. POLICE DEPARTMENT,SHOP RITE,90 ROUTE 206,STANHOPE,NJ,07874,"http://maps.google.com/maps?q=90 ROUTE 206,+STANHOPE,+NJ+07874&hl=en"
CAIRO POLICE DEPARTMENT,HANNAFORD,223 MAIN STREET,CAIRO,NY,12413,"http://maps.google.com/maps?q=223 MAIN STREET,+CAIRO,+NY+12413&hl=en"
CALEDONIA COUNTY SHERIFF DEPT.,CALEDONIA COUNTY SHERIFF DEPT. DEAN SHATNEY,970 MEMORIAL DRIVE,SAINT JOHNSBURY,VT,05819,"http://maps.google.com/maps?q=970 MEMORIAL DRIVE,+SAINT JOHNSBURY,+VT+05819&hl=en"
CAMPTON POLICE DEPARTMENT,CAMPTON POLICE DEPARTMENT SGT. FOSS,12 GEARTY WAY,CAMPTON,NH,03223,"http://maps.google.com/maps?q=12 GEARTY WAY,+CAMPTON,+NH+03223&hl=en"
CANAAN POLICE DEPARTMENT,CANAAN POLICE DEPARTMENT 10 AM -2 PM,52 ROUTE 118,CANAAN,NH,03741,"http://maps.google.com/maps?q=52 ROUTE 118,+CANAAN,+NH+03741&hl=en"
CANTERBURY POLICE DEPARTMENT,CANTERBURY POLICE DEPARTMENT CANTERBURY NH TOM BIBEAU,26 BAPTIST RD,CANTERBURY,NH,03224,"http://maps.google.com/maps?q=26 BAPTIST RD,+CANTERBURY,+NH+03224&hl=en"
CASTLETON POLICE DEPARTMENT,CASTLETON POLICE DEPARTMENT,263 VT ROUTE 30,CASTLETON,VT,05735,"http://maps.google.com/maps?q=263 VT ROUTE 30,+CASTLETON,+VT+05735&hl=en"
CAYUGA COUNTY SHERIFF'S DEPARTMENT,CAYUGA COUNTY SHERIFF'S HQ DROP BOX,7445 COUNTY HOUSE ROAD,AUBURN,NY,13021,"http://maps.google.com/maps?q=7445 COUNTY HOUSE ROAD,+AUBURN,+NY+13021&hl=en"
CAZENOVIA POLICE DEPARTMENT,KINNEY DRUGS PARKING LOT,41 ALBANY STREET,CAZENOVIA,NY,13035,"http://maps.google.com/maps?q=41 ALBANY STREET,+CAZENOVIA,+NY+13035&hl=en"
CEDAR GROVE POLICE DEPARTMENT,CEDAR GROVE POLICE DEPARTMENT 973-239-4100,525 ROUTE 23,CEDAR GROVE,NJ,07009,"http://maps.google.com/maps?q=525 ROUTE 23,+CEDAR GROVE,+NJ+07009&hl=en"
CHATHAM BOROUGH POLICE DEPARTMENT,CVS PHARMACY,471 MAIN STREET,CHATHAM,NJ,07928,"http://maps.google.com/maps?q=471 MAIN STREET,+CHATHAM,+NJ+07928&hl=en"
CHATHAM POLICE DEPARTMENT,CHATHAM PD,77 MAIN STREET,CHATHAM,NY,12037,"http://maps.google.com/maps?q=77 MAIN STREET,+CHATHAM,+NY+12037&hl=en"
CHATHAM TOWNSHIP,CVS PHARMACY,641 SHUNPIKE ROAD,CHATHAM,NJ,07928,"http://maps.google.com/maps?q=641 SHUNPIKE ROAD,+CHATHAM,+NJ+07928&hl=en"
CHENANGO COUNTY SHERIFF'S OFFICE,COVENTRY FIRE DEPARTMENT,109 NORTH ROAD,GREENE,NY,13778,"http://maps.google.com/maps?q=109 NORTH ROAD,+GREENE,+NY+13778&hl=en"
CHENANGO COUNTY SHERIFF'S OFFICE,SMYRNA FIRE DEPARTMENT,MAIN STREET,SMYRNA,NY,13464,"http://maps.google.com/maps?q=MAIN STREET,+SMYRNA,+NY+13464&hl=en"
CHESTER POLICE DEPARTMENT,CHESTER TWP. POLICE HEADQUARTERS,1 PARKER ROAD,CHESTER,NJ,07930,"http://maps.google.com/maps?q=1 PARKER ROAD,+CHESTER,+NJ+07930&hl=en"
CHESTERFIELD POLICE DEPARTMENT,CHESTERFIELD POLICE DEPARTMENT CHIEF DUANE CHICKERING,490 ROUTE 63PO BOX 231,CHESTERFIELD,NH,03443,"http://maps.google.com/maps?q=490 ROUTE 63,+CHESTERFIELD,+NH+03443&hl=en"
CHITTENANGO POLICE DEPARTMENT,KINNEY DRUGS,540 GENESEE ST.,CHITTENANGO,NY,13037,"http://maps.google.com/maps?q=540 GENESEE ST.,+CHITTENANGO,+NY+13037&hl=en"
CHITTENANGO POLICE DEPARTMENT,MEDICINE SHOPPE,1315 W GENESEE STREET,CHITTENANGO,NY,13037,"http://maps.google.com/maps?q=1315 W GENESEE STREET,+CHITTENANGO,+NY+13037&hl=en"
CHITTENANGO POLICE DEPARTMENT,POLICE HQS,222 GENESEE STREET,CHITTENANGO,NY,13037,"http://maps.google.com/maps?q=222 GENESEE STREET,+CHITTENANGO,+NY+13037&hl=en"
CHITTENDEN COUNTY SHERIFF'S OFFICE,PRICE CHOPPER SUPERMARKET,595 SHELBURNE ROAD,BURLINGTON,VT,05401,"http://maps.google.com/maps?q=595 SHELBURNE ROAD,+BURLINGTON,+VT+05401&hl=en"
CICERO POLICE DEPARTMENT,KINNEY DRUGS,8150 THOMPSON RD.,CICERO,NY,13039,"http://maps.google.com/maps?q=8150 THOMPSON RD.,+CICERO,+NY+13039&hl=en"
CICERO POLICE DEPARTMENT,WALGREEN'S PARKING LOT,6189 ROUTE 31,CICERO,NY,13039,"http://maps.google.com/maps?q=6189 ROUTE 31,+CICERO,+NY+13039&hl=en"
CICERO POLICE DEPARTMENT,WEGMANS,7952 ROUTE 11,CICERO,NY,13039,"http://maps.google.com/maps?q=7952 ROUTE 11,+CICERO,+NY+13039&hl=en"
CLAREMONT POLICE DEPARTMENT,CVS PARKING LOT DRIVE UP AND DROP OFF SITE,1 WALL STREET,CLAREMONT,NH,03743,"http://maps.google.com/maps?q=1 WALL STREET,+CLAREMONT,+NH+03743&hl=en"
CLARKSTOWN POLICE,CVS PHARMACY,280 SOUTH MAIN ST,NEW CITY,NY,10956,"http://maps.google.com/maps?q=280 SOUTH MAIN ST,+NEW CITY,+NY+10956&hl=en"
CLARKSTOWN POLICE,CVS PHARMACY,330 ROUTE 304,BARDONIA,NY,10954,"http://maps.google.com/maps?q=330 ROUTE 304,+BARDONIA,+NY+10954&hl=en"
CLINTON TOWNSHIP POLICE DEPARTMENT,CLINTON TOWNSHIP POLICE DEPT.,1370 ROUTE 31 NORTH,ANNANDALE,NJ,08801,"http://maps.google.com/maps?q=1370 ROUTE 31 NORTH,+ANNANDALE,+NJ+08801&hl=en"
CLOSTER POLICE DEPARTMENT,CLOSTER POLICE DEPT. 201-768-5000,295 CLOSTER DOCK ROAD,CLOSTER,NJ,07624,"http://maps.google.com/maps?q=295 CLOSTER  DOCK ROAD,+CLOSTER,+NJ+07624&hl=en"
COLCHESTER POLICE DEPARTNEBT,COLCHESTER POLICE DEPARTMENT CHIEF DOUGLAS ALLEN,835 BLAKELY ROAD,COLCHESTER,VT,05446,"http://maps.google.com/maps?q=835 BLAKELY ROAD,+COLCHESTER,+VT+05446&hl=en"
COLEBROOK POLICE DEPARTMENT,COLEBROOK TOWN HALL CHIEF STEPHEN R. CASS,17 BRIDGE STREET,COLEBROOK,NH,03576,"http://maps.google.com/maps?q=17 BRIDGE STREET,+COLEBROOK,+NH+03576&hl=en"
COLONIAL REGIONAL PD,GIANT,859 NAZARETH PK,NAZARETH,PA,18064,"http://maps.google.com/maps?q=859 NAZARETH PK,+NAZARETH,+PA+18064&hl=en"
COLONIAL REGIONAL PD,WEGMAN'S,3797 NAZARETH HWY,EASTON,PA,18045,"http://maps.google.com/maps?q=3797 NAZARETH HWY,+EASTON,+PA+18045&hl=en"
COLONIAL REGIONAL PD,WEGMAN'S,5000 WEGMAN'S DR,BETHLEHEM,PA,18017,"http://maps.google.com/maps?q=5000 WEGMAN'S DR,+BETHLEHEM,+PA+18017&hl=en"
COLONIE POLICE DEPARTMENT,COLONIE POLICE DEPARTMENT COURT RM # 1,312 WOLF ROAD,LATHAM,NY,12110,"http://maps.google.com/maps?q=312 WOLF ROAD,+LATHAM,+NY+12110&hl=en"
COLUMBIA COUNTY SHERIFF'S OFFICE,COLUMBIA COUNTY SHERIFF'S OFFICE,85 INDUSTRIAL TRACT,HUDSON,NY,12534,"http://maps.google.com/maps?q=85 INDUSTRIAL TRACT,+HUDSON,+NY+12534&hl=en"
COLUMBIA COUNTY SHERIFF'S OFFICE,HILLSDALE SUB STATION,2684 STATE ROUTE 23,HILLSDALE,NY,12529,"http://maps.google.com/maps?q=2684 STATE ROUTE 23,+HILLSDALE,+NY+12529&hl=en"
CONCORD POLICE DEPARTMENT,CONCORD POLICE DEPARTMENT DET. MATTHEW LANKHORST,35 GREEN STREET,CONCORD,NH,03301,"http://maps.google.com/maps?q=35 GREEN STREET,+CONCORD,+NH+03301&hl=en"
COXSACKIE POLICE DEPARTMENT,COXSACKIE POLICE DEPARTMENT,119 MANSION STREET,COXSACKIE,NY,12051,"http://maps.google.com/maps?q=119 MANSION STREET,+COXSACKIE,+NY+12051&hl=en"
CRESSKILL POLICE DEPARTMENT,CRESSKILL POLICE DEPARTMENT,67 UNION AVENUE,CRESSKILL,NJ,07626,"http://maps.google.com/maps?q=67 UNION AVENUE,+CRESSKILL,+NJ+07626&hl=en"
CROTON ON HUDSON POLICE,CROTON COMMONS SHOPPING PLAZA,177 SOUTH RIVERSIDE AVENUE,CROTON ON HUDSON,NY,10520,"http://maps.google.com/maps?q=177 SOUTH RIVERSIDE AVENUE,+CROTON ON HUDSON,+NY+10520&hl=en"
CUMMINGTON POLICE DEPARTMENT,CUMMINGTON POLICE DEPARTMENT CUMMINGTON PUBLIC SAFETY COMPLEX,8 FAIRGROUNDS ROAD,CUMMINGTON,MA,01026,"http://maps.google.com/maps?q=8 FAIRGROUNDS ROAD,+CUMMINGTON,+MA+01026&hl=en"
DEA NEW YORK DIVISION,DEPARTMENT OF FAMILY SERVICES ROBERT TRAVIS BLDG SUSAN CLARK,16 COMMUNITY LANE,LIBERTY,NY,12754,"http://maps.google.com/maps?q=16 COMMUNITY LANE,+LIBERTY,+NY+12754&hl=en"
DEA NEW YORK DIVISION,FALLSBURG POLICE STATION ALETA M. GOMEZ 845.794.8080 X170,19 RAILROAD PLAZA,SOUTH FALLSBURG,NY,12779,"http://maps.google.com/maps?q=19 RAILROAD PLAZA,+SOUTH FALLSBURG,+NY+12779&hl=en"
DEA NEW YORK DIVISION,GROVER HERMANN HOSPITAL,8881 NY RTE 97,CALLICOON,NY,12723,"http://maps.google.com/maps?q=8881 NY RTE 97,+CALLICOON,+NY+12723&hl=en"
DEA NEW YORK DIVISION,LIBERTY POLICE DEPARTMENT ALETA M. GOMEZ 845.794.8080 X170,159 NORTH MAIN STREET,LIBERTY,NY,12754,"http://maps.google.com/maps?q=159 NORTH MAIN STREET,+LIBERTY,+NY+12754&hl=en"
DEA NEW YORK DIVISION,TOWN OF LUMBERLAND TOWN HALL,1054 PROCTOR ROAD,GLEN SPEY,NY,12737,"http://maps.google.com/maps?q=1054 PROCTOR ROAD,+GLEN SPEY,+NY+12737&hl=en"
DEERFIELD POLICE DEPARTMENT,DEERFIELD POLICE DEPARTMENT,8 CONWAY STREET,SOUTH DEERFIELD,MA,01373,"http://maps.google.com/maps?q=8 CONWAY STREET,+SOUTH DEERFIELD,+MA+01373&hl=en"
DEWITT POLICE DEPARTMENT,WEGMANS,4256 JAMES STREET,EAST SYRACUSE,NY,13057,"http://maps.google.com/maps?q=4256 JAMES STREET,+EAST SYRACUSE,+NY+13057&hl=en"
DEWITT POLICE DEPARTMENT,WEGMANS,6789 E. GENESEE STREET,FAYETTEVILLE,NY,13066,"http://maps.google.com/maps?q=6789 E. GENESEE STREET,+FAYETTEVILLE,+NY+13066&hl=en"
DOVER POLICE DEPT.,DOVER POLICE DEPARTMENT CHIEF RANDY JOHNSON,246 ROUTE 100,WEST DOVER,VT,05356,"http://maps.google.com/maps?q=246 ROUTE 100,+WEST DOVER,+VT+05356&hl=en"
DUBLIN POLICE DEPARTMENT,DUBLIN POLICE DEPARTMENT CHIEF TIMOTHY J. SUOKKO,1122 MAIN STREET,DUBLIN,NH,03444,"http://maps.google.com/maps?q=1122 MAIN STREET,+DUBLIN,+NH+03444&hl=en"
DURYEA POLICE DEPARTMENT,DURYEA BOROUGH TOWN HALL BUILDING,315 MAIN STREET,DURYEA,PA,18642,"http://maps.google.com/maps?q=315 MAIN STREET,+DURYEA,+PA+18642&hl=en"
DUTCHESS COUNTY SHERIFF'S OFFICE,VASSAR BROTHERS MEDICAL HOSPITAL,45 READE PLACE,POUGHKEEPSIE,NY,12601,"http://maps.google.com/maps?q=45 READE PLACE,+POUGHKEEPSIE,+NY+12601&hl=en"
EAST BRUNSWICK POLICE DEPARTMENT,EAST BRUNSWICK POLICE DEPARTMENT,1 CIVIC CENTER DRIVE,EAST BRUNSWICK,NJ,08816,"http://maps.google.com/maps?q=1 CIVIC CENTER DRIVE,+EAST BRUNSWICK,+NJ+08816&hl=en"
EAST GREENBUSH POLICE DEPARTMENT,EAST GREENBUSH POLICE DEPARTMENT,225 COLUMBIA TURNPIKE,RENSSELAER,NY,12144,"http://maps.google.com/maps?q=225 COLUMBIA TURNPIKE,+RENSSELAER,+NY+12144&hl=en"
EASTHAMPTON POLICE DEPARTMENT,EASTHAMPTON PUBLIC SAFETY COMPLEX,32 PAYSON AVENUE,EASTHAMPTON,MA,01027,"http://maps.google.com/maps?q=32 PAYSON AVENUE,+EASTHAMPTON,+MA+01027&hl=en"
EDISON POLICE DEPARTMENT,EDISON POLICE DEPARTMENT 732-248-6442,100 MUNICIPAL BLVD.,EDISON,NJ,08817,"http://maps.google.com/maps?q=100 MUNICIPAL BLVD.,+EDISON,+NJ+08817&hl=en"
ELIZABETH POLICE DEPARTMENT,CVS PHARMACY,214 RAHWAY AVENUE,ELIZABETH,NJ,07202,"http://maps.google.com/maps?q=214 RAHWAY AVENUE,+ELIZABETH,+NJ+07202&hl=en"
ELMWOOD PARK POLICE DEPARTMENT,ELMWOOK PARK PD,182 MARKET ST,ELMWOOD PARK,NJ,07407,"http://maps.google.com/maps?q=182 MARKET ST,+ELMWOOD PARK,+NJ+07407&hl=en"
EMERSON P.D.,EMERSON POLICE HQ,1 MUNICIPAL PLACE,EMERSON,NJ,07630,"http://maps.google.com/maps?q=1 MUNICIPAL PLACE,+EMERSON,+NJ+07630&hl=en"
ENFIELD POLICE DEPARTMENT,ENFIELD TRANSFER STATION,39 LOCKEHAVEN ROAD,ENFIELD,NH,03748,"http://maps.google.com/maps?q=39 LOCKEHAVEN ROAD,+ENFIELD,+NH+03748&hl=en"
ESSEX COUNTY SHERIFF,ESSEX COUNTY SHERIFF'S OFFICE,702 STOWERSVILLE RD.,LEWIS,NY,12950,"http://maps.google.com/maps?q=702 STOWERSVILLE RD.,+LEWIS,+NY+12950&hl=en"
ESSEX COUNTY SHERIFF'S OFFICE,ESSEX COUNTY SHERIFF'S OFFICE 973-621-4111,525 WEST MARKET STPATROL HQ,NEWARK,NJ,07105,"http://maps.google.com/maps?q=525 WEST MARKET ST,+NEWARK,+NJ+07105&hl=en"
ESSEX FELLS POLICE DEPARTMENT,ESSEX FELLS POLICE DEPARTMENT,255 ROSELAND AVENUE,ESSEX FELLS,NJ,07021,"http://maps.google.com/maps?q=255 ROSELAND AVENUE,+ESSEX FELLS,+NJ+07021&hl=en"
ESSEX POLICE DEPARTMENT,ESSEX POLICE DEPARTMENT,145 MAPLE STREET,ESSEX JUNCTION,VT,05452,"http://maps.google.com/maps?q=145 MAPLE STREET,+ESSEX JUNCTION,+VT+05452&hl=en"
ESSEX POLICE DEPARTMENT,KINNEY DRUGS PHARMACY,82 PEARL STREET,ESSEX JUNCTION,VT,05452,"http://maps.google.com/maps?q=82 PEARL STREET,+ESSEX JUNCTION,+VT+05452&hl=en"
EWING POLICE DEPARTMENT,EWING TOWNSHIP MUNICIPAL BUILDING 609-882-1313,2 JAKE GARZIO DRIVE,EWING,NJ,08628,"http://maps.google.com/maps?q=2 JAKE GARZIO DRIVE,+EWING,+NJ+08628&hl=en"
FAIR HAVEN POLICE DEPARTMENT,FAIR HAVEN POLICE DEPARTMENT BONNIE ROSATI,5 NORTH PARK PLACE,FAIR HAVEN,VT,05743,"http://maps.google.com/maps?q=5 NORTH PARK PLACE,+FAIR HAVEN,+VT+05743&hl=en"
FAR HILLS PD,FAR HILLS PD,6 PROSPECT STREET,FAR HILLS,NJ,07931,"http://maps.google.com/maps?q=6 PROSPECT STREET,+FAR HILLS,+NJ+07931&hl=en"
FLORHAM PARK POLICE DEPARTMENT,RIDGEDALE MIDDLE SCHOOL 973-377-2200,71 RIDGEDALE AVE.,FLORHAM PARK,NJ,07932,"http://maps.google.com/maps?q=71 RIDGEDALE AVE.,+FLORHAM PARK,+NJ+07932&hl=en"
FOREST CITY POLICE,FOREST CITY AREA EMERGENCY SERVICES,380 RAILROAD STREET,FOREST CITY,PA,18421,"http://maps.google.com/maps?q=380 RAILROAD STREET,+FOREST CITY,+PA+18421&hl=en"
FRANKLIN & TILTON POLICE DEPARTMENT,CVS PHARMACY PARKING LOT,861 CENTRAL STCVS PARKING LOT,FRANKLIN,NH,03235,"http://maps.google.com/maps?q=861 CENTRAL ST,+FRANKLIN,+NH+03235&hl=en"
FRANKLIN TOWNSHIP,FRANKLIN TWP. P.D.,495 DEMOTT LANE,SOMERSET,NJ,08873,"http://maps.google.com/maps?q=495 DEMOTT LANE,+SOMERSET,+NJ+08873&hl=en"
FRENCHTOWN BOROUGH POLICE DEPARTMENT,FRENCHTOWN BOROUGH POLICE DEPARTMENT,27 SECOND STREET,FRENCHTOWN,NJ,08825,"http://maps.google.com/maps?q=27 SECOND STREET,+FRENCHTOWN,+NJ+08825&hl=en"
FULTON COUNTY SHERIFF'S OFFICE,FULTON COUNTY SHERIFF'S OFFICE,2712 STATE HWY 29,JOHNSTOWN,NY,12095,"http://maps.google.com/maps?q=2712 STATE HWY 29,+JOHNSTOWN,+NY+12095&hl=en"
FULTON POLICE DEPARTMENT,KINNEY DRUGS,115 ONEIDA STREET,FULTON,NY,13069,"http://maps.google.com/maps?q=115 ONEIDA STREET,+FULTON,+NY+13069&hl=en"
GARFIELD POLICE DEPARTMENT,GARFIELD POLICE DEPARTMENT 973-478-8500,160 BELMONT AVE.,GARFIELD,NJ,07026,"http://maps.google.com/maps?q=160 BELMONT AVE.,+GARFIELD,+NJ+07026&hl=en"
GARWOOD POLICE DEPARTMENT,GARWOOD POLICE DEPARTMENT 908-789-1500,403 SOUTH AVE.,GARWOOD,NJ,07027,"http://maps.google.com/maps?q=403 SOUTH AVE.,+GARWOOD,+NJ+07027&hl=en"
GILMANTON POLICE DEPARTMENT,GILMANTON POLICE DEPARTMENT,297 NH ROUTE 140,GILMANTON,NH,03237,"http://maps.google.com/maps?q=297 NH ROUTE 140,+GILMANTON,+NH+03237&hl=en"
GOSHEN POLICE DEPARTMENT,GOSHEN POLICE DEPARTMENT,40A MAIN ST,GOSHEN,MA,01032,"http://maps.google.com/maps?q=40A MAIN ST,+GOSHEN,+MA+01032&hl=en"
GOUVERNEUR POLICE DEPARTMENT,KINNEY DRUGS,17 CLINTON STREET,GOUVERNEUR,NY,13642,"http://maps.google.com/maps?q=17 CLINTON STREET,+GOUVERNEUR,+NY+13642&hl=en"
GRAND ISLE COUNTY SHERIFF'S DEPARTMENT,ALBURGH FIRE DEPARTMENT,60 FIREHOUSE ROAD,ALBURGH,VT,05440,"http://maps.google.com/maps?q=60 FIREHOUSE ROAD,+ALBURGH,+VT+05440&hl=en"
GRAND ISLE COUNTY SHERIFF'S DEPARTMENT,SOUTH HERO RESCUE BUILDING,329 US RT 2,SOUTH HERO,VT,05486,"http://maps.google.com/maps?q=329 US RT 2,+SOUTH HERO,+VT+05486&hl=en"
GRANTHAM POLICE DEPARTMENT,GRANTHAM POLICE DEPARTMENT,300 ROUTE 10 SOUTH,GRANTHAM,NH,03753,"http://maps.google.com/maps?q=300 ROUTE 10 SOUTH,+GRANTHAM,+NH+03753&hl=en"
GREAT BEND POLICE DEPARTMENT,GREAT BEND POLICE STATION,335 WASHINGTON STREET,GREAT BEND,PA,18821,"http://maps.google.com/maps?q=335 WASHINGTON STREET,+GREAT BEND,+PA+18821&hl=en"
GREEN BROOK,GREEN BROOK POLICE DEPT.,109 GREENBROOK ROAD,GREEN BROOK,NJ,08812,"http://maps.google.com/maps?q=109 GREENBROOK ROAD,+GREEN BROOK,+NJ+08812&hl=en"
GREENFIELD POLICE DEPARTMENT,GREENFIELD POLICE DEPARTMENT,321 HIGH STREET,GREENFIELD,MA,01301,"http://maps.google.com/maps?q=321 HIGH STREET,+GREENFIELD,+MA+01301&hl=en"
GUILDERLAND POLICE DEPARTMENT,PUBLIC LIBRARY AUXILIARY PARKING LOT,2228 WESTERN AVENUE,GUILDERLAND,NY,12084,"http://maps.google.com/maps?q=2228 WESTERN AVENUE,+GUILDERLAND,+NY+12084&hl=en"
HADLEY POLICE DEPARTMENT,HOPKINS ACADEMY HIGH SCHOOL,131 RUSSELL STREET,HADLEY,MA,01035,"http://maps.google.com/maps?q=131 RUSSELL STREET,+HADLEY,+MA+01035&hl=en"
HAMILTON COUNTY SHERIFF'S OFFICE,HAMILTON COUNTY JAIL,102 COUNTY VIEW DRIVE,LAKE PLEASANT,NY,12108,"http://maps.google.com/maps?q=102 COUNTY VIEW DRIVE,+LAKE PLEASANT,+NY+12108&hl=en"
HANOVER POLICE DEPARTMENT,HANOVER POLICE DEPARTMENT,46 LYME RD,HANOVER,NH,03755,"http://maps.google.com/maps?q=46 LYME RD,+HANOVER,+NH+03755&hl=en"
HANOVER TOWNSHIP POLICE,WEGMANS SUPERMARKET,34 SYLVAN WAY,WHIPPANY,NJ,07981,"http://maps.google.com/maps?q=34 SYLVAN WAY,+WHIPPANY,+NJ+07981&hl=en"
HAVERHILL POLICE DEPARTMENT,HAVERHILL POLICE DEPARTMENT,2975 DARTMOUTH COLLEGE HIGHWAY,NORTH HAVERHILL,NH,03774,"http://maps.google.com/maps?q=2975 DARTMOUTH COLLEGE HIGHWAY,+NORTH HAVERHILL,+NH+03774&hl=en"
HAVERSTRAW POLICE DEPARTMENT,CVS,12 WEST RAMAPO ROAD,GARNERVILLE,NY,10923,"http://maps.google.com/maps?q=12 WEST RAMAPO ROAD,+GARNERVILLE,+NY+10923&hl=en"
HAWORTH POLICE DEPARTMENT,HAWORTH POLICE DEPARTMENT,300 HAWORTH AVENUE,HAWORTH,NJ,07641,"http://maps.google.com/maps?q=300 HAWORTH AVENUE,+HAWORTH,+NJ+07641&hl=en"
HENNIKER POLICE DEPARTMENT,HENNIKER POLICE DEPARTMENT,340 WESTERN AVE,HENNIKER,NH,03242,"http://maps.google.com/maps?q=340 WESTERN AVE,+HENNIKER,+NH+03242&hl=en"
HERKIMER COUNTY SHERIFF'S OFFICE,HERKIMER COUNTY SHERIFF'S OFFICE,320 NORTH MAIN STREET,HERKIMER,NY,13350,"http://maps.google.com/maps?q=320 NORTH MAIN STREET,+HERKIMER,+NY+13350&hl=en"
HERKIMER POLICE DEPARTMENT,HERKIMER PD,120 GREEN STREET,HERKIMER,NY,13350,"http://maps.google.com/maps?q=120 GREEN STREET,+HERKIMER,+NY+13350&hl=en"
HIGH BRIDGE POLICE,HIGH BRIDGE POLICE DEPARTMENT,99 WEST MAIN STREET,HIGH BRIDGE,NJ,08829,"http://maps.google.com/maps?q=99 WEST MAIN STREET,+HIGH BRIDGE,+NJ+08829&hl=en"
HIGHLAND PARK POLICE DEPARTMENT,HIGHLAND PARK COMMUNITY YOUTH CENTER 732-572-3800,222 SOUTH 6TH AVE.,HIGHLAND PARK,NJ,08904,"http://maps.google.com/maps?q=222 SOUTH 6TH AVE.,+HIGHLAND PARK,+NJ+08904&hl=en"
HILLSBOROUGH TWP POLICE DEPT.,HILLSBOROUGH TWP POLICE DEPT.,379 S. BRANCH RD.,HILLSBOROUGH,NJ,08844,"http://maps.google.com/maps?q=379 S. BRANCH RD.,+HILLSBOROUGH,+NJ+08844&hl=en"
HOLLAND TWP. POLICE DEPARTMENT.,HOLLAND TWP. POLICE DEPARTMENT 908-995-4670,61 CHURCH ROAD,MILFORD,NJ,08848,"http://maps.google.com/maps?q=61 CHURCH ROAD,+MILFORD,+NJ+08848&hl=en"
HOOSICK FALLS POLICE DEPARTMENT,HOOSICK FALLS PD STATION,24 MAIN STREET,HOOSICK FALLS,NY,12090,"http://maps.google.com/maps?q=24 MAIN STREET,+HOOSICK FALLS,+NY+12090&hl=en"
HOPATCONG BOROUGH POLICE DEPARTMENT,HOPATCONG POLICE DEPARTMENT 973-398-5000,111 RIVER STYX RD,HOPATCONG,NJ,07843,"http://maps.google.com/maps?q=111 RIVER STYX RD,+HOPATCONG,+NJ+07843&hl=en"
HOPEWELL TWP. POLICE DEPARTMENT,HOPEWELL TWP POLICE DEPT.,201 WISHINGTON CROSSING PENNINGTON ROAD,TITUSVILLE,NJ,08560,"http://maps.google.com/maps?q=201 WISHINGTON CROSSING PENNINGTON ROAD,+TITUSVILLE,+NJ+08560&hl=en"
ILION POLICE DEPARTMENT,KINNEY DRUGS,40 1ST STREET,ILION,NY,13357,"http://maps.google.com/maps?q=40 1ST  STREET,+ILION,+NY+13357&hl=en"
JAFFREY POLICE DEPARTMENT,JAFFREY POLICE DEPARTMENT WILLIAM OSWALT,26 MAIN STREET,JAFFREY,NH,03452,"http://maps.google.com/maps?q=26 MAIN STREET,+JAFFREY,+NH+03452&hl=en"
JEFFERSON TWP. POLICE DEPARTMENT,JEFFERSON TWP. MUNICIPAL BUILDING 973-697-1300,1033 WELDON ROAD,OAK RIDGE,NJ,07438,"http://maps.google.com/maps?q=1033 WELDON ROAD,+OAK RIDGE,+NJ+07438&hl=en"
JOHNSTOWN POLICE DEPARTMENT,JOHNSTOWN POLICE DEPARTMENT CITY HALL,33-41 EAST MAIN STREET,JOHNSTOWN,NY,12095,"http://maps.google.com/maps?q=33-41 EAST MAIN STREET,+JOHNSTOWN,+NY+12095&hl=en"
KEENE POLICE DEPARTMENT,KEENE POLICE DEPARTMENT,400 MARLBORO STREET,KEENE,NH,03431,"http://maps.google.com/maps?q=400 MARLBORO STREET,+KEENE,+NH+03431&hl=en"
KINGSTON TOWNSHIP POLICE DEPARTMENT,KINGSTON TOWNSHIP POLICE DEPARTMENT,180 EAST CENTER STREET,SHAVERTOWN,PA,18708,"http://maps.google.com/maps?q=180 EAST CENTER STREET,+SHAVERTOWN,+PA+18708&hl=en"
KIRKLAND POLICE DEPARTMENT,KINNEY DRUGS,12 FRANKLIN AVE.,CLINTON,NY,13323,"http://maps.google.com/maps?q=12 FRANKLIN AVE.,+CLINTON,+NY+13323&hl=en"
LACONIA POLICE DEPARTMENT,LACONIA POLICE DEPARTMENT,126 NEW SALEM ST,LACONIA,NH,03246,"http://maps.google.com/maps?q=126 NEW SALEM ST,+LACONIA,+NH+03246&hl=en"
LAMBERTVILLE CITY POLICE DEPARTMENT,LAMBERTVILLE CITY POLICE DEPARTMENT,349 NORTH MAIN STREET,LAMBERTVILLE,NJ,08530,"http://maps.google.com/maps?q=349 NORTH MAIN STREET,+LAMBERTVILLE,+NJ+08530&hl=en"
LAMOILLE COUNTY SHERIFFS DEPT,HARDWICK POLICE DEPT,56 HIGH ST,HARDWICK,VT,05843,"http://maps.google.com/maps?q=56 HIGH ST,+HARDWICK,+VT+05843&hl=en"
LAMOILLE COUNTY SHERIFFS DEPT,KINNEY DRUGS,155 S MAIN ST,CAMBRIDGE,VT,05444,"http://maps.google.com/maps?q=155 S MAIN ST,+CAMBRIDGE,+VT+05444&hl=en"
LAMOILLE COUNTY SHERIFFS DEPT,KINNEY DRUGS,97 MORRISVILLE PLAZA,MORRISVILLE,VT,05661,"http://maps.google.com/maps?q=97 MORRISVILLE PLAZA,+MORRISVILLE,+VT+05661&hl=en"
LAMOILLE COUNTY SHERIFFS DEPT,LAMOILLE COUNTY SHERIFFS DEPT LUCAS MARCOUX,162 COMMONWEALTH AVE,HYDE PARK,VT,05655,"http://maps.google.com/maps?q=162 COMMONWEALTH AVE,+HYDE PARK,+VT+05655&hl=en"
LAMOILLE COUNTY SHERIFFS DEPT,STOWE POLICE DEPARTMENT,350 SOUTH MAIN ST,STOWE,VT,05672,"http://maps.google.com/maps?q=350 SOUTH MAIN ST,+STOWE,+VT+05672&hl=en"
LANCASTER POLICE DEPARTMENT,LANCASTER POLICE DEPARTMENT CHIEF TIM CHARBONNEAU,11 MECHANIC ST,LANCASTER,NH,03584,"http://maps.google.com/maps?q=11 MECHANIC ST,+LANCASTER,+NH+03584&hl=en"
LAWRENCE TWP. POLICE DEPARTMENT,LAWRENCE TWP. POLICE DEPARTMENT 609-896-1111,2211 LAWRENCE RD.,LAWRENCE TOWNSHIP,NJ,08648,"http://maps.google.com/maps?q=2211 LAWRENCE RD.,+LAWRENCE TOWNSHIP,+NJ+08648&hl=en"
LEBANON POLICE DEPARTMENT,LEBANON PD,36 POVERTY LN,LEBANON,NH,03766,"http://maps.google.com/maps?q=36 POVERTY LN,+LEBANON,+NH+03766&hl=en"
LEBANON POLICE DEPARTMENT,QUAIL HOLLOW,365 N MAIN ST,WEST LEBANON,NH,03784,"http://maps.google.com/maps?q=365 N MAIN ST,+WEST LEBANON,+NH+03784&hl=en"
LEBANON POLICE DEPARTMENT,ROGERS HOUSE,55 N PARK ST,LEBANON,NH,03766,"http://maps.google.com/maps?q=55 N PARK ST,+LEBANON,+NH+03766&hl=en"
LEVERETT POLICE DEPARTMENT,LEVERETT POLICE DEPARTMENT CHIEF SCOTT D. MINCKLER,95 MONTAGUE ROAD,LEVERETT,MA,01054,"http://maps.google.com/maps?q=95 MONTAGUE ROAD,+LEVERETT,+MA+01054&hl=en"
LINCOLN POLICE DEPARTMENT,LINCOLN POLICE DEPARTMENT,148 MAIN ST.,LINCOLN,NH,03251,"http://maps.google.com/maps?q=148 MAIN ST.,+LINCOLN,+NH+03251&hl=en"
LISBON POLICE DEPARTMENT,LISBON POLICE DEPARTMENT,46 SCHOOL ST.,LISBON,NH,03585,"http://maps.google.com/maps?q=46 SCHOOL ST.,+LISBON,+NH+03585&hl=en"
LITTLETON POLICE DEPARTMENT,LITTLETON POLICE DEPARTMENT,2 KITTRIDGE LANE,LITTLETON,NH,03561,"http://maps.google.com/maps?q=2 KITTRIDGE LANE,+LITTLETON,+NH+03561&hl=en"
LOWER MAKEFIELD TWP POLICE DEPARTMENT,LOWER MAKEFIELD TWP POLICE DEPARTMENT,1100 EDGEWOOD ROAD,YARDLEY,PA,19067,"http://maps.google.com/maps?q=1100 EDGEWOOD ROAD,+YARDLEY,+PA+19067&hl=en"
MAHWAH POLICE DEPARTMENT,MAHWAY POLICE DEPT.,221 FRANKLIN TURNPIKE,MAHWAH,NJ,07430,"http://maps.google.com/maps?q=221 FRANKLIN TURNPIKE,+MAHWAH,+NJ+07430&hl=en"
MANVILLE POLICE DEPARTMENT,MANVILLE POLICE DEPARTMENT 908-725-1900,2 NORTH MAIN ST.,MANVILLE,NJ,08835,"http://maps.google.com/maps?q=2 NORTH MAIN ST.,+MANVILLE,+NJ+08835&hl=en"
MASSENA POLICE DEPARTMENT,KINNEY DRUGS,300 MAIN STREET,MASSENA,NY,13662,"http://maps.google.com/maps?q=300 MAIN STREET,+MASSENA,+NY+13662&hl=en"
MASSENA POLICE DEPARTMENT,MASSENA POLICE DEPARTMENT,60 MAIN STREET,MASSENA,NY,13662,"http://maps.google.com/maps?q=60 MAIN STREET,+MASSENA,+NY+13662&hl=en"
MECHANICVILLE POLICE DEPARTMENT,CVS PHARMACY PARKING LOT,12 SOUTH CENTRAL AVENUE,MECHANICVILLE,NY,12118,"http://maps.google.com/maps?q=12 SOUTH CENTRAL AVENUE,+MECHANICVILLE,+NY+12118&hl=en"
MEREDITH POLICE DEPARTMENT,MEREDITH POLICE DEPARTMNET CHIEF KEVIN MORROW,400 DANIEL WEBSTER HIGHWAY,MEREDITH,NH,03253,"http://maps.google.com/maps?q=400 DANIEL WEBSTER HIGHWAY,+MEREDITH,+NH+03253&hl=en"
METUCHEN POLICE DEPARTMENT,METUCHEN POLICE DEPARTMENT,500 MAIN STREET,METUCHEN,NJ,08840,"http://maps.google.com/maps?q=500 MAIN STREET,+METUCHEN,+NJ+08840&hl=en"
MIDDLEBURY POLICE DEPARTMENT,MIDDLEBURY POLICE DEPARTMENT,1 LUCIUS SHAW LN.,MIDDLEBURY,VT,05753,"http://maps.google.com/maps?q=1 LUCIUS SHAW LN.,+MIDDLEBURY,+VT+05753&hl=en"
MIDDLESEX POLICE DEPARTMENT,MIDDLESEX POLICE DEPARTMENT 732-356-1900,1101 MOUNTAIN AVE.,MIDDLESEX,NJ,08846,"http://maps.google.com/maps?q=1101 MOUNTAIN AVE.,+MIDDLESEX,+NJ+08846&hl=en"
MIDLAND PARK POLICE DEPARTMENT,MIDLAND PARK POLICE DEPARTMENT,280 GODWIN AVENUE,MIDLAND PARK,NJ,07432,"http://maps.google.com/maps?q=280 GODWIN AVENUE,+MIDLAND PARK,+NJ+07432&hl=en"
MILTON POLICE DEPARTMENT,KINNEY DRUGS PHARMACY,3 CENTRE DRIVE,MILTON,VT,05468,"http://maps.google.com/maps?q=3 CENTRE DRIVE,+MILTON,+VT+05468&hl=en"
MONTAGUE PD,MONTAGUE POLICE,180 TURNPIKE ROAD,TURNERS FALLS,MA,01376,"http://maps.google.com/maps?q=180 TURNPIKE ROAD,+TURNERS FALLS,+MA+01376&hl=en"
MONTGOMERY TOWNSHIP P.D.,MONTGOMERY TOWNSHIP P.D,2261 US ROUTE 206,BELLE MEAD,NJ,08502,"http://maps.google.com/maps?q=2261 US ROUTE 206,+BELLE MEAD,+NJ+08502&hl=en"
MONTICELLO POLICE DEPARTMENT,MONTICELLO POLICE DEPT CHIEF MUIR,2 PLEASANT STREET,MONTICELLO,NY,12701,"http://maps.google.com/maps?q=2 PLEASANT STREET,+MONTICELLO,+NY+12701&hl=en"
MORRIS COUNTY PROSECUTOR'S OFFICE,HANOVER SHOPRITE,178 HANOVER AVE,CEDAR KNOLLS,NJ,07927,"http://maps.google.com/maps?q=178 HANOVER AVE,+CEDAR KNOLLS,+NJ+07927&hl=en"
MORRIS COUNTY PROSECUTOR'S OFFICE,MORRIS PLAINS STOP & SHOP SUPERMARKET,245 LITTLETON RD,MORRISTOWN,NJ,07963,"http://maps.google.com/maps?q=245 LITTLETON RD,+MORRISTOWN,+NJ+07963&hl=en"
MORRIS COUNTY PROSECUTOR'S OFFICE,RANDOLPH ACME SUPERMARKET,690 MILLBROOK AVE,RANDOLPH,NJ,07869,"http://maps.google.com/maps?q=690 MILLBROOK AVE,+RANDOLPH,+NJ+07869&hl=en"
MOSCOW BOROUGH POLICE DEPARTMENT,MOSCOW BOROUGH MUNICIPAL BUILDING,123 VAN BRUNT ST,MOSCOW,PA,18444,"http://maps.google.com/maps?q=123 VAN BRUNT ST,+MOSCOW,+PA+18444&hl=en"
NEW BRUNSWICK POLICE DEPARTMENT,NEW BRUNSWICK POLICE DEPARTMENT 732-745-5200,25 KIRKPATRICK ST.,NEW BRUNSWICK,NJ,08901,"http://maps.google.com/maps?q=25 KIRKPATRICK ST.,+NEW BRUNSWICK,+NJ+08901&hl=en"
NEW HAMPTON POLICE DEPARTMENT,NEW HAMPTON POLICE DEPARTMENT,24 INTERVALE ROAD,NEW HAMPTON,NH,03256,"http://maps.google.com/maps?q=24 INTERVALE ROAD,+NEW HAMPTON,+NH+03256&hl=en"
NEW HARTFORD POLICE DEPARTMENT,NEW HARTFORD POLICE DEPARTMENT,32 KELLOGG RD,NEW HARTFORD,NY,13413,"http://maps.google.com/maps?q=32 KELLOGG RD,+NEW HARTFORD,+NY+13413&hl=en"
NEW HOPE POLICE DEPARTMENT,CVS PHARMACY,302 WEST BRIDGE STREET,NEW HOPE,PA,18938,"http://maps.google.com/maps?q=302 WEST BRIDGE STREET,+NEW HOPE,+PA+18938&hl=en"
NEW LONDON POLICE DEPARTMENT,NEW LONDON POLICE DEPARTMENT DETECTIVE ERNEST ROWE,25 SEAMANS ROAD375 MAIN STREET,NEW LONDON,NH,03257,"http://maps.google.com/maps?q=25 SEAMANS ROAD,+NEW LONDON,+NH+03257&hl=en"
NEW PALTZ POLICE DEPARTMENT,NEW PALTZ POLICE STATION DROP BOX IN LOBBY,83 SOUTH PUTT CORNERS ROAD,NEW PALTZ,NY,12561,"http://maps.google.com/maps?q=83 SOUTH PUTT CORNERS ROAD,+NEW PALTZ,+NY+12561&hl=en"
NEW PROVIDENCE PD,NEW PROVIDENCE PD,360 ELKWOOD AVE.,NEW PROVIDENCE,NJ,07974,"http://maps.google.com/maps?q=360 ELKWOOD AVE.,+NEW PROVIDENCE,+NJ+07974&hl=en"
NEW YORK STATE POLICE,NEW YORK STATE POLICE CLIFTON PARK,5 MUNICIPAL PLAZASTATE ROUTE 146,CLIFTON PARK,NY,12065,"http://maps.google.com/maps?q=5 MUNICIPAL PLAZA,+CLIFTON PARK,+NY+12065&hl=en"
NEW YORK STATE POLICE,NEW YORK STATE POLICE SCHODACK,1485 STATE ROUTE 9,CASTLETON,NY,12033,"http://maps.google.com/maps?q=1485 STATE ROUTE 9,+CASTLETON,+NY+12033&hl=en"
NEWARK POLICE DEPT.,1ST PRECINCT,10 17TH AVE.,NEWARK,NJ,07108,"http://maps.google.com/maps?q=10  17TH AVE.,+NEWARK,+NJ+07108&hl=en"
NEWARK POLICE DEPT.,2ND PRECINCT,1 LINCOLN AVE.,NEWARK,NJ,07108,"http://maps.google.com/maps?q=1 LINCOLN AVE.,+NEWARK,+NJ+07108&hl=en"
NEWARK POLICE DEPT.,3RD PRECINCT,649 MARKET ST.,NEWARK,NJ,07102,"http://maps.google.com/maps?q=649 MARKET ST.,+NEWARK,+NJ+07102&hl=en"
NEWARK POLICE DEPT.,4TH PRECINCT,247 16TH AVE.,NEWARK,NJ,07108,"http://maps.google.com/maps?q=247 16TH AVE.,+NEWARK,+NJ+07108&hl=en"
NEWARK POLICE DEPT.,5TH PRECINCT,480 CLINTON AVE.,NEWARK,NJ,07108,"http://maps.google.com/maps?q=480 CLINTON AVE.,+NEWARK,+NJ+07108&hl=en"
NEWARK POLICE DEPT.,6TH PRECINCT,491 IRVINGTON AVENUE,NEWARK,NJ,07106,"http://maps.google.com/maps?q=491 IRVINGTON AVENUE,+NEWARK,+NJ+07106&hl=en"
NEWARK POLICE DEPT.,JUVENILE SERVICES SECTION,43 DICKERSON ST.,NEWARK,NJ,07108,"http://maps.google.com/maps?q=43 DICKERSON ST.,+NEWARK,+NJ+07108&hl=en"
NEWARK POLICE DEPT.,POLICE MAIN DESK,22 FRANKLIN ST.,NEWARK,NJ,07108,"http://maps.google.com/maps?q=22 FRANKLIN ST.,+NEWARK,+NJ+07108&hl=en"
NEWARK POLICE DEPT.,SPECIAL OPERATIONS DIVISION,472 ORANGE ST.,NEWARK,NJ,07108,"http://maps.google.com/maps?q=472 ORANGE ST.,+NEWARK,+NJ+07108&hl=en"
NEWFAIRFEILD POLICE DEPARTMENT,NEW FAIRFIELD RESIDENT TROOPERS OFFICE,302 BALL POND ROAD,NEW FAIRFIELD,CT,06812,"http://maps.google.com/maps?q=302 BALL POND ROAD,+NEW FAIRFIELD,+CT+06812&hl=en"
NEWTON POLICE DEPARTMENT,NEWTON POLICE DEPARTMENT,39 TRINITY STREET,NEWTON,NJ,07860,"http://maps.google.com/maps?q=39 TRINITY STREET,+NEWTON,+NJ+07860&hl=en"
NEWTOWN BOROUGH POLCE DEPT.,NEWTOWN FIRE ASSOCIATION BUILDING,14 LIBERTY STREET,NEWTOWN,PA,18940,"http://maps.google.com/maps?q=14 LIBERTY STREET,+NEWTOWN,+PA+18940&hl=en"
NEWTOWN TWP. POLICE DEPARTMENT,NEWTOWN TWP. MUNICIPAL BUILDING,100 MUNICIPAL DRIVE,NEWTOWN,PA,18940,"http://maps.google.com/maps?q=100 MUNICIPAL DRIVE,+NEWTOWN,+PA+18940&hl=en"
NORTH BRUNSWICK POLICE DEPARTMENT,NORTH BRUNSWICK POLICE DEPT.,710 HERMANN ROAD,NORTH BRUNSWICK,NJ,08902,"http://maps.google.com/maps?q=710 HERMANN ROAD,+NORTH BRUNSWICK,+NJ+08902&hl=en"
NORTH GREENBUSH POLICE DEPARTMENT,NORTH GREENBUSH POLICE DEPARTMENT CHIEF ROBERT DURIVAGE,133 BLOOMING GROVE DRIVE,TROY,NY,12180,"http://maps.google.com/maps?q=133 BLOOMING GROVE DRIVE,+TROY,+NY+12180&hl=en"
NORTH PLAINFIELD POLICE DEPT.,NORTH PLAINFIELD POLICE DEPARTMENT,263 SOMERSET STREET,PLAINFIELD,NJ,07060,"http://maps.google.com/maps?q=263 SOMERSET STREET,+PLAINFIELD,+NJ+07060&hl=en"
NORTHAMPTON POLICE DEPARTMENT,JOHN F KENNEDY MIDDLE SCHOOL,100 BRIDGE RD,FLORENCE,MA,01062,"http://maps.google.com/maps?q=100 BRIDGE RD,+FLORENCE,+MA+01062&hl=en"
NORTHUMBERLAND POLICE DEPARTMENT,NORTHUMBERLAND POLICE DEPARTMENT,10 STATION SQUARE,GROVETON,NH,03582,"http://maps.google.com/maps?q=10 STATION SQUARE,+GROVETON,+NH+03582&hl=en"
NORTHVALE POLICE DEPARTMENT,NORTHVALE POLICE DEPARTMENT 201-768-5900,116 PARIS AVE.,NORTHVALE,NJ,07647,"http://maps.google.com/maps?q=116 PARIS AVE.,+NORTHVALE,+NJ+07647&hl=en"
NORWOOD POLICE DEPT.,NORWOOD BOROUGH COMMUNITY CENTER,453 BROADWAY,NORWOOD,NJ,07648,"http://maps.google.com/maps?q=453 BROADWAY,+NORWOOD,+NJ+07648&hl=en"
NYS UNIVERSITY POLICE @ ONEONTA,NYS UNIVERSITY POLICE SUNY ONEONTA,ALUMNI HALL51 SOUTH WEST DORM DRIVE,ONEONTA,NY,13820,"http://maps.google.com/maps?q=ALUMNI HALL,+ONEONTA,+NY+13820&hl=en"
OAKLAND POLICE DEPARTMENT,OAKLAND POLICE DEPARTMENT,295 RAMAPO VALLEY ROAD,OAKLAND,NJ,07436,"http://maps.google.com/maps?q=295 RAMAPO VALLEY ROAD,+OAKLAND,+NJ+07436&hl=en"
OGDENSBURG POLICE DEPARTMENT,KINNEY DRUGS,700 CANTON STREET,OGDENSBURG,NY,13669,"http://maps.google.com/maps?q=700 CANTON STREET,+OGDENSBURG,+NY+13669&hl=en"
OLD FORGE POLICE DEPARTMENT,CVS PHARMACY,101 S. MAIN STREET,OLD FORGE,PA,18518,"http://maps.google.com/maps?q=101 S. MAIN STREET,+OLD FORGE,+PA+18518&hl=en"
OLYPHANT POLICE DEPARTMENT,OLYPHANT BOROUGH POLICE STATION,604 EAST PARK STREET,OLYPHANT,PA,18447,"http://maps.google.com/maps?q=604 EAST PARK STREET,+OLYPHANT,+PA+18447&hl=en"
ORANGE COUNTY SHERIFF OFFICE,KINNEY DRUGS PHARMACY,151 VT RT12,RANDOLPH,VT,05060,"http://maps.google.com/maps?q=151 VT RT12,+RANDOLPH,+VT+05060&hl=en"
ORANGE COUNTY SHERIFF OFFICE,KINNEY DRUGS PHARMACY,910 LOWER PLAIN ROAD,BRADFORD,VT,05033,"http://maps.google.com/maps?q=910 LOWER PLAIN ROAD,+BRADFORD,+VT+05033&hl=en"
ORANGE COUNTY SHERIFF OFFICE,ORANGE COUNTY SHERIFF OFFICE LT SCOTT CLOUATRE,11 VT RT 113,CHELSEA,VT,05038,"http://maps.google.com/maps?q=11 VT RT 113,+CHELSEA,+VT+05038&hl=en"
ORLEANS COUNTY SHERIFF'S DEPARTMENT,KINNEY DRUGS PHARMACY,55 SHATTUCK HILL ROAD,NEWPORT,VT,05855,"http://maps.google.com/maps?q=55 SHATTUCK HILL ROAD,+NEWPORT,+VT+05855&hl=en"
OSSIPEE POLICE DEPARTMENT,TROY POLICE DEPARTMENT,14 CENTRAL SQUARE,TROY,NH,03465,"http://maps.google.com/maps?q=14 CENTRAL SQUARE,+TROY,+NH+03465&hl=en"
OSWEGO POLICE DEPARTMENT,KINNEY DRUGS,174 W. BRIDGE STREET,OSWEGO,NY,13126,"http://maps.google.com/maps?q=174 W. BRIDGE STREET,+OSWEGO,+NY+13126&hl=en"
OSWEGO POLICE DEPARTMENT,OSWEGO POLICE DEPARTMENT POLICE HQ,169 WEST 2ND STREET,OSWEGO,NY,13126,"http://maps.google.com/maps?q=169 WEST 2ND STREET,+OSWEGO,+NY+13126&hl=en"
OTSEGO COUNTY SHERIFF'S OFFICE,OTSEGO COUNTY SHERIFF'S OFFICE,172 COUNTY HWY 33 WEST,COOPERSTOWN,NY,13326,"http://maps.google.com/maps?q=172 COUNTY HWY 33 WEST,+COOPERSTOWN,+NY+13326&hl=en"
PARSIPPANY-TROY HILLS PD,PARSIPPANY POLICE DEPARTMENT,3339 US HIGHWAY 46 EAST,PARSIPPANY,NJ,07054,"http://maps.google.com/maps?q=3339 US HIGHWAY 46 EAST,+PARSIPPANY,+NJ+07054&hl=en"
PEAPACK & GLADSTONE POLICE DEPARTMENT,PEAPACK & GLADSTONE POLICE DEPARTMENT MUNICIPAL BUILDING,1 SCHOOL ST.,PEAPACK,NJ,07977,"http://maps.google.com/maps?q=1 SCHOOL ST.,+PEAPACK,+NJ+07977&hl=en"
PICATINNY ARSENAL POLICE DEPARTMENT,PICATINNY ARSENAL POLICE DEPARTMENT 9737246666,173 BUFFINGTON RD.,PICATINNY ARSENAL,NJ,07806,"http://maps.google.com/maps?q=173 BUFFINGTON RD.,+PICATINNY ARSENAL,+NJ+07806&hl=en"
PISCATAWAY POLICE DEPARTMENT,PISCATAWAY POLICE DEPARTMENT 732-562-2300,555 SIDNEY ROAD,PISCATAWAY,NJ,08854,"http://maps.google.com/maps?q=555 SIDNEY ROAD,+PISCATAWAY,+NJ+08854&hl=en"
PITTSFIELD POLICE DEPARTMENT,PITTSFIELD POLICE DEPARTMENT LT. JOHN SOULES,39 ALLEN STREET,PITTSFIELD,MA,01201,"http://maps.google.com/maps?q=39 ALLEN STREET,+PITTSFIELD,+MA+01201&hl=en"
PLAINFIELD POLICE DEPARTMENT,PLAINFIELD POLICE DEPARTMENT,110 MAIN ST,MERIDEN,NH,03770,"http://maps.google.com/maps?q=110 MAIN ST,+MERIDEN,+NH+03770&hl=en"
PLAINS TWP POLICE DEPT,PLAINS TWP PD,126 NORTH MAIN ST,WILKES BARRE,PA,18705,"http://maps.google.com/maps?q=126 NORTH MAIN ST,+WILKES BARRE,+PA+18705&hl=en"
PLAINSBORO POLICE DEPARTMENT,PLAINSBORO POLICE DEPARTMENT,641 PLAINSBORO ROAD,PLAINSBORO,NJ,08536,"http://maps.google.com/maps?q=641 PLAINSBORO ROAD,+PLAINSBORO,+NJ+08536&hl=en"
PLATTSBURGH POLICE DEPARTMENT,KINNEY DRUGS,288 CORNELIA ST,PLATTSBURGH,NY,12901,"http://maps.google.com/maps?q=288 CORNELIA ST,+PLATTSBURGH,+NY+12901&hl=en"
PLATTSBURGH POLICE DEPARTMENT,PLATTSBURGH PD,45 PINE STREET,PLATTSBURGH,NY,12901,"http://maps.google.com/maps?q=45 PINE STREET,+PLATTSBURGH,+NY+12901&hl=en"
PLUMSTEAD TWP. POLICE DEPARTMENT,K-MART CROSS KEYS PLACE SHOPPING CENTER,4377 SWAMP ROAD,DOYLESTOWN,PA,18902,"http://maps.google.com/maps?q=4377 SWAMP ROAD,+DOYLESTOWN,+PA+18902&hl=en"
PLYMOUTH POLICE DEPARTMENT,PLYMOUTH POLICE DEPARTMENT,334 MAIN STREET,PLYMOUTH,NH,03264,"http://maps.google.com/maps?q=334 MAIN STREET,+PLYMOUTH,+NH+03264&hl=en"
POCONO MOUNTAIN REGIONAL POLICE DEPT.,POCONO MOUNTAIN REGIONAL POLICE DEPARTMENT,2454 ROUTE 940,POCONO SUMMIT,PA,18346,"http://maps.google.com/maps?q=2454 ROUTE 940,+POCONO SUMMIT,+PA+18346&hl=en"
POCONO MOUNTAIN REGIONAL POLICE DEPT.,ST LUKES UNIVERSAL HEALTH NETWORK MONROE CAMPUS,100 ST LUKES LN,STROUDSBURG,PA,18360,"http://maps.google.com/maps?q=100 ST LUKES LN,+STROUDSBURG,+PA+18360&hl=en"
POTSDAM POLICE DEPARTMENT,KINNEY DRUGS,48 MAPLE STREET,POTSDAM,NY,13699,"http://maps.google.com/maps?q=48 MAPLE STREET,+POTSDAM,+NY+13699&hl=en"
PULASKI POLICE DEPARTMENT,KINNEY DRUGS,3873 ROME ROAD,PULASKI,NY,13142,"http://maps.google.com/maps?q=3873 ROME ROAD,+PULASKI,+NY+13142&hl=en"
PUTNAM COUNTY SHERIFF'S OFFICE,PUTNAM HOSPITAL CENTER,670 STONLEIGH AVE,CARMEL,NY,10512,"http://maps.google.com/maps?q=670 STONLEIGH AVE,+CARMEL,+NY+10512&hl=en"
RAHWAY POLICE DEPARTMENT,RAHWAY POLICE DEPARTMENT,1 CITY HALL PLAZA,RAHWAY,NJ,07065,"http://maps.google.com/maps?q=1 CITY HALL PLAZA,+RAHWAY,+NJ+07065&hl=en"
RARITAN BORO POLICE DEPARTMENT,RARITAN BOROUGH POLICE DEPARTMENT,20 FIRST ST.,RARITAN,NJ,08869,"http://maps.google.com/maps?q=20 FIRST ST.,+RARITAN,+NJ+08869&hl=en"
RENSSELAER CITY POLICE DEPARTMENT,NORTH END FIRE STATION,2 ST. FRANCIS PLACE,RENSSELAER,NY,12144,"http://maps.google.com/maps?q=2 ST. FRANCIS PLACE,+RENSSELAER,+NY+12144&hl=en"
RENSSELAER COUNTY SHERIFF'S OFFICE,WEST SAND LAKE FIRE DEPARTMENT,3697 NY-43,WEST SAND LAKE,NY,12196,"http://maps.google.com/maps?q=3697 NY-43,+WEST SAND LAKE,+NY+12196&hl=en"
RIDGEFIELD PARK POLICE DEPARTMENT,RIDGEFIELD PARK POLICE DEPARTMENT 201-641-6400,234 MAIN ST.,RIDGEFIELD PARK,NJ,07660,"http://maps.google.com/maps?q=234 MAIN ST.,+RIDGEFIELD PARK,+NJ+07660&hl=en"
RIDGEWOOD POLICE DEPARTMENT,RIDGEWOOD POLICE DEPARTMENT,131 N. MAPLE AVENUE,RIDGEWOOD,NJ,07450,"http://maps.google.com/maps?q=131 N. MAPLE AVENUE,+RIDGEWOOD,+NJ+07450&hl=en"
ROCKLAND COUNTY SHERIFFS OFFICE,ROCKLAND COUNTY SHERIFF OFFICE WALGREENS PARKING LOT,16 ROUTE 59,NYACK,NY,10960,"http://maps.google.com/maps?q=16 ROUTE 59,+NYACK,+NY+10960&hl=en"
ROME POLICE DEPARTMENT,POLICE HQ,301 N. JAMES ST.,ROME,NY,13440,"http://maps.google.com/maps?q=301 N. JAMES ST.,+ROME,+NY+13440&hl=en"
ROTTERDAM POLICE DEPARTMENT,ROTTERDAM PD,101 PRINCETOWN ROAD,ROTTERDAM,NY,12306,"http://maps.google.com/maps?q=101 PRINCETOWN ROAD,+ROTTERDAM,+NY+12306&hl=en"
RUTGERS POLICE DEPARTMENT,COLLEGE AVE STUDENT CENTER & LIVINGSTON CAMPUS,190 COLLEGE AVE,NEW BRUNSWICK,NJ,08901,"http://maps.google.com/maps?q=190 COLLEGE AVE,+NEW BRUNSWICK,+NJ+08901&hl=en"
RUTLAND COUNTY SHERIFF'S DEPARTMENT,DIAMOND RUN MALL,46 DIAMOND RUN MALL PLACE,RUTLAND,VT,05701,"http://maps.google.com/maps?q=46 DIAMOND RUN MALL PLACE,+RUTLAND,+VT+05701&hl=en"
SANBORNTON POLICE DEPARTMENT,SANBORNTON POLICE DEPARTMENT CHIEF STEPHEN HANKARD,565 SANBORN ROAD,SANBORNTON,NH,03269,"http://maps.google.com/maps?q=565 SANBORN ROAD,+SANBORNTON,+NH+03269&hl=en"
SARATOGA COUNTY SHERIFF OFFICE,CLIFTON PARK-HALFMOON EMERGENCY SQUAD,15 CROSSING BLVD.,CLIFTON PARK,NY,12065,"http://maps.google.com/maps?q=15 CROSSING BLVD.,+CLIFTON PARK,+NY+12065&hl=en"
SARATOGA COUNTY SHERIFF OFFICE,MOREAU EMERGENCY SQUAD,1583 ROUTE 9,FORT EDWARD,NY,12828,"http://maps.google.com/maps?q=1583 ROUTE 9,+FORT EDWARD,+NY+12828&hl=en"
SARATOGA POLICE DEPARTMENT,SARATOGA HOSPITAL MYRTLE STREET PARKING LOT- ER ENTRANCE,211 CHURCH STREET,SARATOGA SPRINGS,NY,12866,"http://maps.google.com/maps?q=211 CHURCH STREET,+SARATOGA SPRINGS,+NY+12866&hl=en"
SARATOGA POLICE DEPARTMENT,SARATOGA POLICE DEPARTMENT MAPLE AVENUE- BEHIND CITY HALL,474 BROADWAY,SARATOGA SPRINGS,NY,12866,"http://maps.google.com/maps?q=474 BROADWAY,+SARATOGA SPRINGS,+NY+12866&hl=en"
SCHENECTADY COUNTY SHERIFF'S OFFICE,SCHENECTADY COUNTY SHERIFF'S SUBSTATION,130 PRINCETOWN PLAZA,SCHENECTADY,NY,12306,"http://maps.google.com/maps?q=130 PRINCETOWN PLAZA,+SCHENECTADY,+NY+12306&hl=en"
SCHENECTADY POLICE DEPARTMENT,SCHENECTADY POLICE DEPARTMENT,531 LIBERTY ST.,SCHENECTADY,NY,12305,"http://maps.google.com/maps?q=531 LIBERTY ST.,+SCHENECTADY,+NY+12305&hl=en"
SCHODACK POLICE DEPARTMENT,POLICE DEPARTMENT,1797 COLUMBIA TURNPIKE,CASTLETON,NY,12033,"http://maps.google.com/maps?q=1797 COLUMBIA TURNPIKE,+CASTLETON,+NY+12033&hl=en"
SCOTIA POLICE DEPARTMENT,SCOTIA POLICE DEPARTMENT,4 NORTH TEN BROECK STREET,SCOTIA,NY,12302,"http://maps.google.com/maps?q=4 NORTH TEN BROECK STREET,+SCOTIA,+NY+12302&hl=en"
SHELBURNE POLICE DEPARTMENT,SHELBURNE POLICE DEPARTMENT,5420 SHELBURNE ROAD,SHELBURNE,VT,05482,"http://maps.google.com/maps?q=5420 SHELBURNE ROAD,+SHELBURNE,+VT+05482&hl=en"
SHERMAN RESIDENT TROOPER OFFICE,SHERMAN RESIDENT TROOPERS OFFICE,1 RT 39 N,SHERMAN,CT,06784,"http://maps.google.com/maps?q=1 RT 39 N,+SHERMAN,+CT+06784&hl=en"
SHERRILL POLICE DEPARTMENT,SHERRILL POLICE DEPARTMENT POLICE HQ,373 SHERRILL ROAD,SHERRILL,NY,13461,"http://maps.google.com/maps?q=373 SHERRILL ROAD,+SHERRILL,+NY+13461&hl=en"
SIDNEY POLICE DEPARTMENT,SIDNEY POLICE DEPARTMENT,21 LIBERTY STREET,SIDNEY,NY,13838,"http://maps.google.com/maps?q=21 LIBERTY STREET,+SIDNEY,+NY+13838&hl=en"
SOLEBURY TOWNSHIP POLICE DEPARTMENT,GIANT FOOD STORE,6542 LOGAN SQUARE,NEW HOPE,PA,18938,"http://maps.google.com/maps?q=6542 LOGAN SQUARE,+NEW HOPE,+PA+18938&hl=en"
SOLEBURY TOWNSHIP POLICE DEPARTMENT,SOLEBURY TOWNSHIP POLICE DEPARTMENT,3092 SUGAN ROAD,NEW HOPE,PA,18938,"http://maps.google.com/maps?q=3092 SUGAN ROAD,+NEW HOPE,+PA+18938&hl=en"
SOMERSET COUNTY SHERIFF'S OFFICE,SOMERSET COUNTY ADMIN. BUILDING,20 GROVE STREET,SOMERVILLE,NJ,08876,"http://maps.google.com/maps?q=20 GROVE STREET,+SOMERVILLE,+NJ+08876&hl=en"
SOMERVILLE POLICE DEPT.,SOMERVILLE POLICE DEPT.,24 SOUTH BRIDGE ST.,SOMERVILLE,NJ,08876,"http://maps.google.com/maps?q=24 SOUTH BRIDGE ST.,+SOMERVILLE,+NJ+08876&hl=en"
SOUTH BOUND BROOK,SOUTH BOUND BROOK POLICE DEPARTMENT,12 MAIN STREET,SOUTH BOUND BROOK,NJ,08880,"http://maps.google.com/maps?q=12 MAIN STREET,+SOUTH BOUND BROOK,+NJ+08880&hl=en"
SOUTH BRUNSWICK POLICE DEPARTMENT,SOUTH BRUNSWICK POLICE DEPARTMENT 732-329-4000,540 RIDGE RD.,MONMOUTH JUNCTION,NJ,08852,"http://maps.google.com/maps?q=540 RIDGE RD.,+MONMOUTH JUNCTION,+NJ+08852&hl=en"
SOUTH BURLINGTON POLICE DEPARTMENT,UNIVERSITY MALL,155 DORSET STREET,SOUTH BURLINGTON,VT,05403,"http://maps.google.com/maps?q=155 DORSET STREET,+SOUTH BURLINGTON,+VT+05403&hl=en"
SOUTH HACKENSACK POLICE DEPARTMENT,SOUTH HACKENSACK POLICE DEPARTMENT 201-440-0042,227 PHILLIPS AVE.,SOUTH HACKENSACK,NJ,07606,"http://maps.google.com/maps?q=227 PHILLIPS AVE.,+SOUTH HACKENSACK,+NJ+07606&hl=en"
SOUTH PLAINFIELD POLICE DEPARTMENT,SOUTH PLAINFIELD MUNICIPAL COURTROOM 9082267688,2480 PLAINFIELD AVE.,SOUTH PLAINFIELD,NJ,07080,"http://maps.google.com/maps?q=2480 PLAINFIELD AVE.,+SOUTH PLAINFIELD,+NJ+07080&hl=en"
SOUTHAMPTON POLICE DEPARTMENT,SOUTHAMPTON FIRE/TOWN HALL PARKING LOT IF RAIN-INSIDE TOWN HALL,210 COLLEGE HIGHWAY,SOUTHAMPTON,MA,01073,"http://maps.google.com/maps?q=210 COLLEGE HIGHWAY,+SOUTHAMPTON,+MA+01073&hl=en"
SPRING VALLEY POLICE,SPRING VALLEY POLICE DEPARTMENT,200 NORTH MAIN STREET,SPRING VALLEY,NY,10977,"http://maps.google.com/maps?q=200 NORTH MAIN STREET,+SPRING VALLEY,+NY+10977&hl=en"
SPRING VALLEY POLICE,WALGREENS,208 E ROUTE 59,SPRING VALLEY,NY,10977,"http://maps.google.com/maps?q=208 E ROUTE 59,+SPRING VALLEY,+NY+10977&hl=en"
ST. JOHNSBURY POLICE DEPARTMENT,ST. JOHNSBURY POLICE DEPARTMENT,1187 MAIN STREETSUITE 1,SAINT JOHNSBURY,VT,05819,"http://maps.google.com/maps?q=1187 MAIN STREET,+SAINT JOHNSBURY,+VT+05819&hl=en"
ST. JOHNSVILLE POLICE DEPARTMENT,KINNEY'S DRUGS,12 PARK PLACE,SAINT JOHNSVILLE,NY,13452,"http://maps.google.com/maps?q=12 PARK PLACE,+SAINT JOHNSVILLE,+NY+13452&hl=en"
ST. LAWRENCE COUNTY SHERIFF'S OFFICE,ST. LAWRENCE COUNTY SHERIFF'S OFFICE,48 COURT STREET,CANTON,NY,13617,"http://maps.google.com/maps?q=48 COURT STREET,+CANTON,+NY+13617&hl=en"
STATE POLICE TROOP L,TROOP L RESIDENT TROOPERS OFFICE,452 BANTAM RD,LITCHFIELD,CT,06759,"http://maps.google.com/maps?q=452 BANTAM RD,+LITCHFIELD,+CT+06759&hl=en"
STONY POINT POLICE DEPARTMENT,WALGREENS,135 SOUTH LIBERTY DRIVE,STONY POINT,NY,10980,"http://maps.google.com/maps?q=135 SOUTH LIBERTY DRIVE,+STONY POINT,+NY+10980&hl=en"
SULLIVAN COUNTY SHERIFF'S OFFICE,SULLIVAN COUNTY MUNICIPAL COMPLEX SHERIFF JOHN SIMONDS,14 MAIN STREET,NEWPORT,NH,03773,"http://maps.google.com/maps?q=14 MAIN STREET,+NEWPORT,+NH+03773&hl=en"
SUNAPEE POLICE DEPARTMENT,SUNAPEE POLICE DEPARTMENT,9 SARGENT ROAD,SUNAPEE,NH,03782,"http://maps.google.com/maps?q=9 SARGENT ROAD,+SUNAPEE,+NH+03782&hl=en"
SUNDERLAND POLICE DEPARTMENT,SUNDERLAND POLICE DEPARTMENT,105 RIVER ROAD,SUNDERLAND,MA,01375,"http://maps.google.com/maps?q=105 RIVER ROAD,+SUNDERLAND,+MA+01375&hl=en"
SUNY UPSTATE UNIVERSITY POLICE,UPSTATE MEDICAL UNIVERSITY COMMUNITY CAMPUS,4900 BROAD ROAD,SYRACUSE,NY,13215,"http://maps.google.com/maps?q=4900 BROAD ROAD,+SYRACUSE,+NY+13215&hl=en"
SUSQUEHANNA COUNTY SHERIFF'S OFFICE,SUSQUEHANNA COUNTY COURTHOUSE,31 LAKE AVENUE,MONTROSE,PA,18801,"http://maps.google.com/maps?q=31 LAKE AVENUE,+MONTROSE,+PA+18801&hl=en"
SWANTON VILLAGE POLICE,SWANTON REXALL DRUGS,44 MERCHANTS ROW,SWANTON,VT,05488,"http://maps.google.com/maps?q=44 MERCHANTS ROW,+SWANTON,+VT+05488&hl=en"
SYRACUSE POLICE DEPARTMENT,KINNEY DRUGS,104 LAFAYETTE RD.,SYRACUSE,NY,13205,"http://maps.google.com/maps?q=104 LAFAYETTE RD.,+SYRACUSE,+NY+13205&hl=en"
SYRACUSE POLICE DEPARTMENT,KINNEY DRUGS,2912 JAMES ST,SYRACUSE,NY,13206,"http://maps.google.com/maps?q=2912 JAMES ST,+SYRACUSE,+NY+13206&hl=en"
SYRACUSE POLICE DEPARTMENT,KINNEY DRUGS,406 BUTTERNUT STREET,SYRACUSE,NY,13208,"http://maps.google.com/maps?q=406 BUTTERNUT STREET,+SYRACUSE,+NY+13208&hl=en"
THORNTON POLICE DEPARTMENT,THORNTON POLICE DEPARTMENT KEN MILLER,16 MERRILL ACCESS ROAD,THORNTON,NH,03285,"http://maps.google.com/maps?q=16 MERRILL ACCESS ROAD,+THORNTON,+NH+03285&hl=en"
TICONDERGOA POLICE DEPARTMENT,TICONDEROGA POLICE DEPARTMENT,135 BURGOYNE ROAD,TICONDEROGA,NY,12883,"http://maps.google.com/maps?q=135 BURGOYNE ROAD,+TICONDEROGA,+NY+12883&hl=en"
TINICUM TOWNSHIP POLICE DEPARTMENT,WEHRUNG'S FAMILY HOME CENTER,7711 EASTON ROAD,OTTSVILLE,PA,18942,"http://maps.google.com/maps?q=7711 EASTON ROAD,+OTTSVILLE,+PA+18942&hl=en"
TOWN OF NISKAYUNA POLICE DEPARTMENT,NISKAYUNA TOWN HALL,1 NISKAYUNA CIRCLE,NISKAYUNA,NY,12309,"http://maps.google.com/maps?q=1 NISKAYUNA CIRCLE,+NISKAYUNA,+NY+12309&hl=en"
TOWN OF VESTAL POLICE,TOWN OF VESTAL POLICE STATION FRONT LOBBY,605 VESTAL PARKWAY WEST,VESTAL,NY,13850,"http://maps.google.com/maps?q=605 VESTAL PARKWAY WEST,+VESTAL,+NY+13850&hl=en"
TOWNSHIP OF MAPLEWOOD,MAPLEWOOD POLICE DEPARTMENT,1618 SPRINGFIELD AVENUE,MAPLEWOOD,NJ,07040,"http://maps.google.com/maps?q=1618 SPRINGFIELD AVENUE,+MAPLEWOOD,+NJ+07040&hl=en"
TROOP B,TROOP-B,463 ASHLEY FALLS RD,NORTH CANAAN,CT,06018,"http://maps.google.com/maps?q=463 ASHLEY FALLS RD,+NORTH CANAAN,+CT+06018&hl=en"
TROY POLICE DEPARTMENT,TROY POLICE DEPARTMENT,55 STATE STREET,TROY,NY,12180,"http://maps.google.com/maps?q=55 STATE STREET,+TROY,+NY+12180&hl=en"
UNIVERSITY OF VERMONT POLICE,UNIVERSITY OF VERMONT POLICE DUDLEY DAVIS CENTER FIRST FLOOR ATRIUM,284 EAST AVENUE,BURLINGTON,VT,05405,"http://maps.google.com/maps?q=284 EAST AVENUE,+BURLINGTON,+VT+05405&hl=en"
UPPER MAKEFIELD TWP. POLICE DEPARTMENT,UPPER MAKEFIELD TWP. POLICE DEPARTMENT,1076 EAGLE ROAD,NEWTOWN,PA,18940,"http://maps.google.com/maps?q=1076 EAGLE ROAD,+NEWTOWN,+PA+18940&hl=en"
UPPER SADDLE RIVER POLICE DEPARTMENT,UPPER SADDLE RIVER POLICE DEPARTMENT 201-327-2700,368 W. SADDLE RIVER RD.,SADDLE RIVER,NJ,07458,"http://maps.google.com/maps?q=368 W. SADDLE RIVER RD.,+SADDLE RIVER,+NJ+07458&hl=en"
VERMONT STATE POLICE,VERMONT STATE POLICE - NEW HAVEN BARRACKS,2490 ETHAN ALLEN HIGHWAY,NEW HAVEN,VT,05472,"http://maps.google.com/maps?q=2490 ETHAN ALLEN HIGHWAY,+NEW HAVEN,+VT+05472&hl=en"
VERMONT STATE POLICE,VERMONT STATE POLICE - RUTLAND BARRACKS,124 STATE PLACE,RUTLAND,VT,05701,"http://maps.google.com/maps?q=124 STATE PLACE,+RUTLAND,+VT+05701&hl=en"
VERMONT STATE POLICE,VERMONT STATE POLICE - SHAFTSBURY BARRACKS,96 AIRPORT ROAD,SHAFTSBURY,VT,05262,"http://maps.google.com/maps?q=96 AIRPORT ROAD,+SHAFTSBURY,+VT+05262&hl=en"
VERMONT STATE POLICE,VERMONT STATE POLICE - ST. ALBANS BARRACKS,140 FISHER POND ROAD,SAINT ALBANS,VT,05478,"http://maps.google.com/maps?q=140 FISHER POND ROAD,+SAINT ALBANS,+VT+05478&hl=en"
VERMONT STATE POLICE,VERMONT STATE POLICE - WESTMINSTER BARRACKS,1330 WESTMINSTER HIGHTS ROAD,PUTNEY,VT,05346,"http://maps.google.com/maps?q=1330 WESTMINSTER HIGHTS ROAD,+PUTNEY,+VT+05346&hl=en"
VERMONT STATE POLICE - WILLISTON BARRACKS,VERMONT STATE POLICE - WILLISTON BARRACKS,2777 ST. GEORGE ROAD,WILLISTON,VT,05495,"http://maps.google.com/maps?q=2777 ST. GEORGE ROAD,+WILLISTON,+VT+05495&hl=en"
VILLAGE OF DOBBS FERRY POLICE DEPARTMENT,VILLAGE OF DOBBS FERRY,112 MAIN STREET,DOBBS FERRY,NY,10522,"http://maps.google.com/maps?q=112 MAIN STREET,+DOBBS FERRY,+NY+10522&hl=en"
VILLAGE OF HASTINGS ON HUDSON PD,HASTINGS POLICE DEPARTMENT,7 MAPLE AVENUE,HASTINGS ON HUDSON,NY,10706,"http://maps.google.com/maps?q=7 MAPLE AVENUE,+HASTINGS ON HUDSON,+NY+10706&hl=en"
VILLAGE OF HASTINGS ON HUDSON PD,VILLAGE OF HASTINGS ON HUDSON PD,44 MAIN STREET,HASTINGS ON HUDSON,NY,10706,"http://maps.google.com/maps?q=44 MAIN STREET,+HASTINGS ON HUDSON,+NY+10706&hl=en"
VILLAGE OF MALONE POLICE DEPARTMENT,KINNEY DRUGS,485 E MAIN STREET,MALONE,NY,12953,"http://maps.google.com/maps?q=485 E MAIN STREET,+MALONE,+NY+12953&hl=en"
VILLAGE OF OSSINING POLICE DEPARTMENT,BIRDSALL FAGAN POLICE/COURT FACILITY COURT LOBBY,86-88 SPRING STREET,OSSINING,NY,10562,"http://maps.google.com/maps?q=86-88 SPRING STREET,+OSSINING,+NY+10562&hl=en"
VILLAGE OF RHINEBECK POLICE,NORTHERN DUTCHESS HOSPITAL,6511 SPRINGBROOK AVE,RHINEBECK,NY,12572,"http://maps.google.com/maps?q=6511 SPRINGBROOK AVE,+RHINEBECK,+NY+12572&hl=en"
WALLINGTON POLICE DEPARTMENT,WALLINGTON POLICE DEPT.,54 UNION BLVD.,WALLINGTON,NJ,07057,"http://maps.google.com/maps?q=54 UNION BLVD.,+WALLINGTON,+NJ+07057&hl=en"
WARREN COUNTY SHERIFF'S OFFICE,WARREN COUNTY SHERIFF'S OFFICE,1400 STATE ROUTE 9,LAKE GEORGE,NY,12845,"http://maps.google.com/maps?q=1400 STATE ROUTE 9,+LAKE GEORGE,+NY+12845&hl=en"
WASHINGTON COUNTY SHERIFF'S DEPARTMENT,BARRE CITY POLICE DEPARTMENT,15 FOURTH STREET,BARRE,VT,05641,"http://maps.google.com/maps?q=15 FOURTH STREET,+BARRE,+VT+05641&hl=en"
WASHINGTON COUNTY SHERIFF'S DEPARTMENT,MONTPELIER POLICE DEPARTMENT,1 PITKIN COURT,MONTPELIER,VT,05602,"http://maps.google.com/maps?q=1 PITKIN COURT,+MONTPELIER,+VT+05602&hl=en"
WASHINGTON COUNTY SHERIFF'S DEPARTMENT,NORTHFIELD POLICE DEPARTMENT,110 WALL STREET,NORTHFIELD,VT,05663,"http://maps.google.com/maps?q=110 WALL STREET,+NORTHFIELD,+VT+05663&hl=en"
WASHINGTON COUNTY SHERIFF'S DEPARTMENT,VERMONT STATE POLICE - MIDDLESEX BARRACKS,1080 US ROUTE 2,MIDDLESEX,VT,05602,"http://maps.google.com/maps?q=1080 US ROUTE 2,+MIDDLESEX,+VT+05602&hl=en"
WASHINGTON COUNTY SHERIFF'S DEPARTMENT,WASHINGTON COUNTY SHERIFF'S DEPARTMENT,10 ELM STREET,MONTPELIER,VT,05602,"http://maps.google.com/maps?q=10 ELM STREET,+MONTPELIER,+VT+05602&hl=en"
WASHINGTON POLICE DEPARTMENT,WASHINGTON POLICE DEPARTMENT,5 HALFMOON POND RD.,WASHINGTON,NH,03280,"http://maps.google.com/maps?q=5 HALFMOON POND RD.,+WASHINGTON,+NH+03280&hl=en"
WATCHUNG POLICE DEPARTMENT,WATCHUNG POLICE DEPARTMENT 908-756-3663,840 SOMERSET ST.,WATCHUNG,NJ,07069,"http://maps.google.com/maps?q=840 SOMERSET ST.,+WATCHUNG,+NJ+07069&hl=en"
WATERTOWN POLICE DEPARTMENT,KINNEY DRUGS,905 COFFEEN STREET,WATERTOWN,NY,13601,"http://maps.google.com/maps?q=905 COFFEEN STREET,+WATERTOWN,+NY+13601&hl=en"
WATERVILLE VALLEY POLICE DEPARTMENT,WATERVILLE VALLEY DEPARTMENT OF PUBLIC SAFETY RUST MUNICIPAL BUILDING,14 TAC LANE,WATERVILLE VALLEY,NH,03215,"http://maps.google.com/maps?q=14 TAC LANE,+WATERVILLE VALLEY,+NH+03215&hl=en"
WATERVLIET POLICE DEPARTMENT,WATERVLIET POLICE DEPARTMENT,2-15TH STREET,WATERVLIET,NY,12189,"http://maps.google.com/maps?q=2-15TH STREET,+WATERVLIET,+NY+12189&hl=en"
WAYNE TWP. POLICE DEPARTMENT,WAYNE POLICE DEPARTMENT 973-633-3550,475 VALLEY ROAD,WAYNE,NJ,07470,"http://maps.google.com/maps?q=475 VALLEY ROAD,+WAYNE,+NJ+07470&hl=en"
WEBSTER POLICE DEPARTMENT,WEBSTER POLICE DEPARTMENT,851 BATTLE STREET,WEBSTER,NH,03303,"http://maps.google.com/maps?q=851 BATTLE STREET,+WEBSTER,+NH+03303&hl=en"
WEST AMWELL TOWNSHIP POLICE DEPARTMENT,WEST AMWELL TOWNSHIP BUILDING,150 ROCKTOWN LAMBERTVILLE RD,LAMBERTVILLE,NJ,08530,"http://maps.google.com/maps?q=150 ROCKTOWN LAMBERTVILLE RD,+LAMBERTVILLE,+NJ+08530&hl=en"
WEST CALDWELL POLICE,WEST CALDWELL PD,21 CLINTON ROAD,WEST CALDWELL,NJ,07006,"http://maps.google.com/maps?q=21 CLINTON ROAD,+WEST CALDWELL,+NJ+07006&hl=en"
WESTCHESTER COUNTY POLICE,NORTHERN WESTCHESTER HOSPITAL MAIN LOBBY,400 MAIN ST.,MOUNT KISCO,NY,10549,"http://maps.google.com/maps?q=400 MAIN ST.,+MOUNT KISCO,+NY+10549&hl=en"
WILLIAMSBURG POLICE DEPT.,WILLIAMSBURG PHARMACY,49 MAIN ST,WILLIAMSBURG,MA,01096,"http://maps.google.com/maps?q=49 MAIN ST,+WILLIAMSBURG,+MA+01096&hl=en"
WINCHESTER POLICE DEPARTMENT,WINCHESTER POLICE DEPARTMENT LT. MIKE T. TOLLETT,6 PARKER STREET,WINCHESTER,NH,03470,"http://maps.google.com/maps?q=6 PARKER STREET,+WINCHESTER,+NH+03470&hl=en"
WINDHAM COUNTY SHERIFF'S OFFICE,BELLOWS FALLS POLICE DEPARTMENT,170 ROCKINGHAM STRREET,BELLOWS FALLS,VT,05101,"http://maps.google.com/maps?q=170 ROCKINGHAM STRREET,+BELLOWS FALLS,+VT+05101&hl=en"
WINDHAM COUNTY SHERIFF'S OFFICE,BRATTLEBORO POLICE DEPARTMENT,62 BLACK MOUNTAIN ROAD,BRATTLEBORO,VT,05301,"http://maps.google.com/maps?q=62 BLACK MOUNTAIN ROAD,+BRATTLEBORO,+VT+05301&hl=en"
WINDHAM COUNTY SHERIFF'S OFFICE,WILMINGTON POLICE DEPARTMENT,2 EAST MAIN STREET,WILMINGTON,VT,05363,"http://maps.google.com/maps?q=2 EAST MAIN STREET,+WILMINGTON,+VT+05363&hl=en"
WINDHAM COUNTY SHERIFF'S OFFICE,WINDHAM COUNTY SHERIFF'S OFFICE,11 JAIL STREET,NEWFANE,VT,05345,"http://maps.google.com/maps?q=11 JAIL STREET,+NEWFANE,+VT+05345&hl=en"
WINDSOR COUNTY SHERIFF'S DEPARTMENT,CHESTER POLICE DEPARTMENT,556 ELM STREET,CHESTER,VT,05143,"http://maps.google.com/maps?q=556 ELM STREET,+CHESTER,+VT+05143&hl=en"
WINDSOR COUNTY SHERIFF'S DEPARTMENT,HARTFORD POLICE DEPARTMENT,812 VA CUTOFF ROAD,WHITE RIVER JUNCTION,VT,05001,"http://maps.google.com/maps?q=812 VA CUTOFF ROAD,+WHITE RIVER JUNCTION,+VT+05001&hl=en"
WINDSOR COUNTY SHERIFF'S DEPARTMENT,LUDLOW POLICE DEPARTMENT,19 WEST HILL ROAD,LUDLOW,VT,05149,"http://maps.google.com/maps?q=19 WEST HILL ROAD,+LUDLOW,+VT+05149&hl=en"
WINDSOR COUNTY SHERIFF'S DEPARTMENT,NORWICH POLICE DEPARTMENT,10 HAZEN STREET,NORWICH,VT,05055,"http://maps.google.com/maps?q=10 HAZEN STREET,+NORWICH,+VT+05055&hl=en"
WINDSOR COUNTY SHERIFF'S DEPARTMENT,ROYALTON POLICE DEPARTMENT,2460 VT RT 14,SOUTH ROYALTON,VT,05068,"http://maps.google.com/maps?q=2460 VT RT 14,+SOUTH ROYALTON,+VT+05068&hl=en"
WINDSOR COUNTY SHERIFF'S DEPARTMENT,SPRINGFIELD POLICE DEPARTMENT,201 CLINTON STREET,SPRINGFIELD,VT,05156,"http://maps.google.com/maps?q=201 CLINTON STREET,+SPRINGFIELD,+VT+05156&hl=en"
WINDSOR COUNTY SHERIFF'S DEPARTMENT,VERMONT STATE POLICE - ROYALTON BARRACKS,2011 VT RT 107,SOUTH ROYALTON,VT,05068,"http://maps.google.com/maps?q=2011 VT RT 107,+SOUTH ROYALTON,+VT+05068&hl=en"
WINDSOR COUNTY SHERIFF'S DEPARTMENT,WEATHERSFIELD TRANSFER STATION WEATHERSFIELD POLICE DEPARTMENT,5024 VT RT 106,PERKINSVILLE,VT,05151,"http://maps.google.com/maps?q=5024 VT RT 106,+PERKINSVILLE,+VT+05151&hl=en"
WINDSOR COUNTY SHERIFF'S DEPARTMENT,WINDSOR POLICE DEPARTMENT,29 UNION STREET,WINDSOR,VT,05089,"http://maps.google.com/maps?q=29 UNION STREET,+WINDSOR,+VT+05089&hl=en"
WINDSOR COUNTY SHERIFF'S DEPARTMENT,WOODSTOCK POLICE DEPARTMENT,454 WOODSTOCK ROAD,WOODSTOCK,VT,05091,"http://maps.google.com/maps?q=454 WOODSTOCK ROAD,+WOODSTOCK,+VT+05091&hl=en"
WINHALL POLICE & RESCUE DEPT,WINHALL POLICE & RESCUE,113 VERMONT ROUTE 30,BONDVILLE,VT,05340,"http://maps.google.com/maps?q=113 VERMONT ROUTE 30,+BONDVILLE,+VT+05340&hl=en"
WORTHINGTON POLICE DEPARTMENT,COMPACTOR,64 HUNTINGTON ROAD,WORTHINGTON,MA,01098,"http://maps.google.com/maps?q=64 HUNTINGTON ROAD,+WORTHINGTON,+MA+01098&hl=en"
WYOMING COUNTY DISTRICT ATTORNEYS OFFIC DETECTIVES,CVS PHARMACY,BUSINESS ROUTE 6 AND SR 29,TUNKHANNOCK,PA,18657,"http://maps.google.com/maps?q=BUSINESS ROUTE 6 AND SR 29,+TUNKHANNOCK,+PA+18657&hl=en"
WYOMING COUNTY DISTRICT ATTORNEYS OFFIC DETECTIVES,LECH'S PHARMACY,SR0006,TUNKHANNOCK,PA,18657,"http://maps.google.com/maps?q=SR0006,+TUNKHANNOCK,+PA+18657&hl=en"
WYOMING COUNTY DISTRICT ATTORNEYS OFFIC DETECTIVES,RITE AID,420 TIOGA PLZ,TUNKHANNOCK,PA,18657,"http://maps.google.com/maps?q=420 TIOGA PLZ,+TUNKHANNOCK,+PA+18657&hl=en"
