Participant,CollectionSite,Address,City,State,Zip,MapURL
ALBANY COUNTY SHERIFF,ALBANY COUNTY SHERIFF PATROL STATION,58 VERDA AVENUE,CLARKSVILLE,NY,12041,"http://maps.google.com/maps?q=58 VERDA AVENUE,+CLARKSVILLE,+NY+12041&hl=en"
ALBANY COUNTY SHERIFF,RCS COMMUNITY LIBRARY,95 MAIN STREET,RAVENA,NY,12143,"http://maps.google.com/maps?q=95 MAIN STREET,+RAVENA,+NY+12143&hl=en"
ALBANY NY POLICE DEPARTMENT,ALBANY COLLEGE OF PHARMACY CAR PORT (DRIVE UP DROP OFF),106 NEW SCOTLAND AVE.,ALBANY,NY,12208,"http://maps.google.com/maps?q=106 NEW SCOTLAND AVE.,+ALBANY,+NY+12208&hl=en"
ALBANY NY POLICE DEPARTMENT,ALBANY POLICE DEPT. SOUTH STATION,126 ARCH STREET,ALBANY,NY,12202,"http://maps.google.com/maps?q=126 ARCH STREET,+ALBANY,+NY+12202&hl=en"
ALBANY NY POLICE DEPARTMENT,CVS PHARMACY,885 CENTRAL AVE.,ALBANY,NY,12205,"http://maps.google.com/maps?q=885 CENTRAL AVE.,+ALBANY,+NY+12205&hl=en"
ALLEGANY COUNTY SHERIFF'S OFFICE,CANASERGA FIRE HALL,10 MAIN STREET,CANASERAGA,NY,14822,"http://maps.google.com/maps?q=10 MAIN STREET,+CANASERAGA,+NY+14822&hl=en"
ALLEGANY COUNTY SHERIFF'S OFFICE,CUBA FIRE HALL,51 EAST MAIN STREET,CUBA,NY,14727,"http://maps.google.com/maps?q=51 EAST MAIN STREET,+CUBA,+NY+14727&hl=en"
ALLENTOWN POLICE DEPARTMENT,GIANT FOOD STORE #6074,3015 W. EMMAUS AVENUE,ALLENTOWN,PA,18103,"http://maps.google.com/maps?q=3015 W. EMMAUS AVENUE,+ALLENTOWN,+PA+18103&hl=en"
ALLENTOWN POLICE DEPARTMENT,REDNER'S MARKET,1201 AIRPORT ROAD,ALLENTOWN,PA,18109,"http://maps.google.com/maps?q=1201 AIRPORT ROAD,+ALLENTOWN,+PA+18109&hl=en"
ALLENTOWN POLICE DEPARTMENT,WEGMANS,3900 TILGHMAN ST,ALLENTOWN,PA,18104,"http://maps.google.com/maps?q=3900 TILGHMAN ST,+ALLENTOWN,+PA+18104&hl=en"
ANDOVER POLICE DEPARTMENT,ANDOVER POLICE STATION 973-383-5544,145 LAKE ILIFF RD.,NEWTON,NJ,07860,"http://maps.google.com/maps?q=145 LAKE ILIFF RD.,+NEWTON,+NJ+07860&hl=en"
AUBURN POLICE DEPARTMENT,KINNEY DRUGS,62 OWASCO ST.,AUBURN,NY,13021,"http://maps.google.com/maps?q=62 OWASCO ST.,+AUBURN,+NY+13021&hl=en"
AUBURN POLICE DEPARTMENT,WEGMANS,1 LOOP ROAD,AUBURN,NY,13021,"http://maps.google.com/maps?q=1 LOOP ROAD,+AUBURN,+NY+13021&hl=en"
BALDWINSVILLE POLICE DEPARTMENT,KINNEY DRUGS,21 E. GENESEE STREET,BALDWINSVILLE,NY,13027,"http://maps.google.com/maps?q=21 E. GENESEE STREET,+BALDWINSVILLE,+NY+13027&hl=en"
BATAVIA POLICE DEPARTMENT,BATAVIA POLICE DEPARTMENT,10 W. MAIN STREET,BATAVIA,NY,14020,"http://maps.google.com/maps?q=10 W. MAIN STREET,+BATAVIA,+NY+14020&hl=en"
BENNINGTON POLICE DEPARTMENT,BENNINGTON COUNTY SHERIFF'S DEPT FRONT LOBBY,811 US ROUTE 7 SOUTH,BENNINGTON,VT,05201,"http://maps.google.com/maps?q=811 US ROUTE 7 SOUTH,+BENNINGTON,+VT+05201&hl=en"
BENNINGTON POLICE DEPARTMENT,BENNINGTON POLICE DEPARTMENT FRONT LOBBY,118 SOUTH STREET,BENNINGTON,VT,05201,"http://maps.google.com/maps?q=118 SOUTH STREET,+BENNINGTON,+VT+05201&hl=en"
BENNINGTON POLICE DEPARTMENT,MANCHESTER POLICE DEPARTMENT FRONT LOBBY,6041 MAIN STREET,MANCHESTER CENTER,VT,05255,"http://maps.google.com/maps?q=6041 MAIN STREET,+MANCHESTER CENTER,+VT+05255&hl=en"
BENNINGTON POLICE DEPARTMENT,SOUTHWESTERN VERMONT MEDICAL CENTER FRONT LOBBY,100 HOSPITAL DRIVE,BENNINGTON,VT,05201,"http://maps.google.com/maps?q=100 HOSPITAL DRIVE,+BENNINGTON,+VT+05201&hl=en"
BENNINGTON POLICE DEPARTMENT,WINHALL POLICE DEPARTMENT FRONT LOBBY,113 VT ROUTE 30,BONDVILLE,VT,05340,"http://maps.google.com/maps?q=113 VT ROUTE 30,+BONDVILLE,+VT+05340&hl=en"
BERNARDSVILLE POLICE DEPARTMENT,BERNARDSVILLE POLICE DEPARTMENT,166 MINE BROOK ROAD,BERNARDSVILLE,NJ,07924,"http://maps.google.com/maps?q=166 MINE BROOK ROAD,+BERNARDSVILLE,+NJ+07924&hl=en"
BERWICK PD,BERWICK PD,1800 N MARKET ST,BERWICK,PA,18603,"http://maps.google.com/maps?q=1800 N MARKET ST,+BERWICK,+PA+18603&hl=en"
BETHLEHEM POLICE DEPARTMENT,ELM AVENUE PARK FRONT PARKING LOT,249 ELM AVENUE,DELMAR,NY,12054,"http://maps.google.com/maps?q=249 ELM AVENUE,+DELMAR,+NY+12054&hl=en"
BETHLEHEM POLICE DEPARTMENT,WESTGATE MALL,2285 SCHOENERSVILLE ROAD,BETHLEHEM,PA,18017,"http://maps.google.com/maps?q=2285 SCHOENERSVILLE ROAD,+BETHLEHEM,+PA+18017&hl=en"
BETHLEHEM TWNSHP POLICE DEPARTMENT,CVS PHARMACY,4950 FREEMANSBURG AVENUE,EASTON,PA,18045,"http://maps.google.com/maps?q=4950 FREEMANSBURG AVENUE,+EASTON,+PA+18045&hl=en"
BETHLEHEM TWNSHP POLICE DEPARTMENT,GIANT PHARMACY #6366,3926 NAZARETH PIKE,BETHLEHEM,PA,18020,"http://maps.google.com/maps?q=3926 NAZARETH PIKE,+BETHLEHEM,+PA+18020&hl=en"
BETHLEHEM TWNSHP POLICE DEPARTMENT,"ST. LUKES HOSPITAL, ANDERSON CAMPUS",1872 ST LUKES BLVD,EASTON,PA,18045,"http://maps.google.com/maps?q=1872 ST LUKES BLVD,+EASTON,+PA+18045&hl=en"
BETHLEHEM TWNSHP POLICE DEPARTMENT,YOUNG'S PHARMACY,3708 FREEMANSBURG AVENUE,EASTON,PA,18045,"http://maps.google.com/maps?q=3708 FREEMANSBURG AVENUE,+EASTON,+PA+18045&hl=en"
BLOOMSBURG UNIVERSITY PD,BLOOMSBURG UNIVERSITY PD,400 EAST SECOND ST,BLOOMSBURG,PA,17815,"http://maps.google.com/maps?q=400 EAST SECOND ST,+BLOOMSBURG,+PA+17815&hl=en"
BRISTOL POLICE DEPARTMENT,BRISTOL POLICE DEPARTMENT,72 MUNSILL AVENUE,BRISTOL,VT,05443,"http://maps.google.com/maps?q=72 MUNSILL AVENUE,+BRISTOL,+VT+05443&hl=en"
BROOME COUNTY SHERIFF'S DEPARTMENT,AMERICAN LEGION POST 1700,305 MAPLE STREET,ENDICOTT,NY,13760,"http://maps.google.com/maps?q=305 MAPLE STREET,+ENDICOTT,+NY+13760&hl=en"
BROOME COUNTY SHERIFF'S DEPARTMENT,BROOME COUNTY SHERIFF'S OFFICE,155 LT. VANWINKLE DR.,BINGHAMTON,NY,13905,"http://maps.google.com/maps?q=155 LT. VANWINKLE DR.,+BINGHAMTON,+NY+13905&hl=en"
BROOME COUNTY SHERIFF'S DEPARTMENT,JOHNSON CITY ELKS,4212 WATSON BLVD.,JOHNSON CITY,NY,13790,"http://maps.google.com/maps?q=4212 WATSON BLVD.,+JOHNSON CITY,+NY+13790&hl=en"
BROOME COUNTY SHERIFF'S DEPARTMENT,THE SCOOP,32876 STATE RT. 11,WHITNEY POINT,NY,13862,"http://maps.google.com/maps?q=32876 STATE RT. 11,+WHITNEY POINT,+NY+13862&hl=en"
BROOME COUNTY SHERIFF'S DEPARTMENT,VESTAL ELKS LODGE,2071 VESTAL PARKWAY WEST,VESTAL,NY,13850,"http://maps.google.com/maps?q=2071 VESTAL PARKWAY WEST,+VESTAL,+NY+13850&hl=en"
BROOME COUNTY SHERIFF'S DEPARTMENT,VESTAL FIRE STATION 4,3341 VESTAL PKWY EAST,VESTAL,NY,13850,"http://maps.google.com/maps?q=3341 VESTAL PKWY EAST,+VESTAL,+NY+13850&hl=en"
BROOME COUNTY SHERIFF'S DEPARTMENT,WINDSOR COMMUNITY CENTER,107 MAIN STREET,WINDSOR,NY,13865,"http://maps.google.com/maps?q=107 MAIN STREET,+WINDSOR,+NY+13865&hl=en"
BURLINGTON POLICE DEPARTMENT,BURLINGTON POLICE DEPARTMENT NORTH LOBBY,1 NORTH AVE,BURLINGTON,VT,05401,"http://maps.google.com/maps?q=1 NORTH AVE,+BURLINGTON,+VT+05401&hl=en"
BYRAM TWP. POLICE DEPARTMENT,CVS PHARMACY,77 RT. 206,STANHOPE,NJ,07874,"http://maps.google.com/maps?q=77 RT. 206,+STANHOPE,+NJ+07874&hl=en"
BYRAM TWP. POLICE DEPARTMENT,SHOP RITE,90 ROUTE 206,STANHOPE,NJ,07874,"http://maps.google.com/maps?q=90 ROUTE 206,+STANHOPE,+NJ+07874&hl=en"
CAIRO POLICE DEPARTMENT,HANNAFORD,223 MAIN STREET,CAIRO,NY,12413,"http://maps.google.com/maps?q=223 MAIN STREET,+CAIRO,+NY+12413&hl=en"
CASTLETON POLICE DEPARTMENT,CASTLETON POLICE DEPARTMENT,263 VT ROUTE 30,CASTLETON,VT,05735,"http://maps.google.com/maps?q=263 VT ROUTE 30,+CASTLETON,+VT+05735&hl=en"
CATASAUQUA POLICE DEPARTMENT,CATASAUQUA POLICE DEPARTMENT,90 BRIDGE ST.,CATASAUQUA,PA,18032,"http://maps.google.com/maps?q=90 BRIDGE ST.,+CATASAUQUA,+PA+18032&hl=en"
CAYUGA COUNTY SHERIFF'S DEPARTMENT,CAYUGA COUNTY SHERIFF'S HQ DROP BOX,7445 COUNTY HOUSE ROAD,AUBURN,NY,13021,"http://maps.google.com/maps?q=7445 COUNTY HOUSE ROAD,+AUBURN,+NY+13021&hl=en"
CAYUGA COUNTY SHERIFF'S DEPARTMENT,KINNEY DRUGS,130 MAIN STREET,MORAVIA,NY,13118,"http://maps.google.com/maps?q=130 MAIN STREET,+MORAVIA,+NY+13118&hl=en"
CAZENOVIA POLICE DEPARTMENT,KINNEY DRUGS PARKING LOT,41 ALBANY STREET,CAZENOVIA,NY,13035,"http://maps.google.com/maps?q=41 ALBANY STREET,+CAZENOVIA,+NY+13035&hl=en"
CHATHAM POLICE DEPARTMENT,CHATHAM PD,77 MAIN STREET,CHATHAM,NY,12037,"http://maps.google.com/maps?q=77 MAIN STREET,+CHATHAM,+NY+12037&hl=en"
CHENANGO COUNTY SHERIFF'S OFFICE,COVENTRY FIRE DEPARTMENT,109 NORTH ROAD,GREENE,NY,13778,"http://maps.google.com/maps?q=109 NORTH ROAD,+GREENE,+NY+13778&hl=en"
CHENANGO COUNTY SHERIFF'S OFFICE,SMYRNA FIRE DEPARTMENT,MAIN STREET,SMYRNA,NY,13464,"http://maps.google.com/maps?q=MAIN STREET,+SMYRNA,+NY+13464&hl=en"
CHESTER POLICE DEPARTMENT,CHESTER TWP. POLICE HEADQUARTERS,1 PARKER ROAD,CHESTER,NJ,07930,"http://maps.google.com/maps?q=1 PARKER ROAD,+CHESTER,+NJ+07930&hl=en"
CHITTENANGO POLICE DEPARTMENT,KINNEY DRUGS,540 GENESEE ST.,CHITTENANGO,NY,13037,"http://maps.google.com/maps?q=540 GENESEE ST.,+CHITTENANGO,+NY+13037&hl=en"
CHITTENANGO POLICE DEPARTMENT,MEDICINE SHOPPE,1315 W GENESEE STREET,CHITTENANGO,NY,13037,"http://maps.google.com/maps?q=1315 W GENESEE STREET,+CHITTENANGO,+NY+13037&hl=en"
CHITTENANGO POLICE DEPARTMENT,POLICE HQS,222 GENESEE STREET,CHITTENANGO,NY,13037,"http://maps.google.com/maps?q=222 GENESEE STREET,+CHITTENANGO,+NY+13037&hl=en"
CHITTENDEN COUNTY SHERIFF'S OFFICE,PRICE CHOPPER SUPERMARKET,595 SHELBURNE ROAD,BURLINGTON,VT,05401,"http://maps.google.com/maps?q=595 SHELBURNE ROAD,+BURLINGTON,+VT+05401&hl=en"
CICERO POLICE DEPARTMENT,KINNEY DRUGS,8150 THOMPSON RD.,CICERO,NY,13039,"http://maps.google.com/maps?q=8150 THOMPSON RD.,+CICERO,+NY+13039&hl=en"
CICERO POLICE DEPARTMENT,WALGREEN'S PARKING LOT,6189 ROUTE 31,CICERO,NY,13039,"http://maps.google.com/maps?q=6189 ROUTE 31,+CICERO,+NY+13039&hl=en"
CICERO POLICE DEPARTMENT,WEGMANS,7952 ROUTE 11,CICERO,NY,13039,"http://maps.google.com/maps?q=7952 ROUTE 11,+CICERO,+NY+13039&hl=en"
CLARKSTOWN POLICE,CVS PHARMACY,280 SOUTH MAIN ST,NEW CITY,NY,10956,"http://maps.google.com/maps?q=280 SOUTH MAIN ST,+NEW CITY,+NY+10956&hl=en"
CLARKSTOWN POLICE,CVS PHARMACY,330 ROUTE 304,BARDONIA,NY,10954,"http://maps.google.com/maps?q=330 ROUTE 304,+BARDONIA,+NY+10954&hl=en"
CLINTON TOWNSHIP POLICE DEPARTMENT,CLINTON TOWNSHIP POLICE DEPT.,1370 ROUTE 31 NORTH,ANNANDALE,NJ,08801,"http://maps.google.com/maps?q=1370 ROUTE 31 NORTH,+ANNANDALE,+NJ+08801&hl=en"
COLCHESTER POLICE DEPARTNEBT,COLCHESTER POLICE DEPARTMENT CHIEF DOUGLAS ALLEN,835 BLAKELY ROAD,COLCHESTER,VT,05446,"http://maps.google.com/maps?q=835 BLAKELY ROAD,+COLCHESTER,+VT+05446&hl=en"
COLONIAL REGIONAL PD,GIANT,859 NAZARETH PK,NAZARETH,PA,18064,"http://maps.google.com/maps?q=859 NAZARETH PK,+NAZARETH,+PA+18064&hl=en"
COLONIAL REGIONAL PD,WEGMAN'S,3797 NAZARETH HWY,EASTON,PA,18045,"http://maps.google.com/maps?q=3797 NAZARETH HWY,+EASTON,+PA+18045&hl=en"
COLONIAL REGIONAL PD,WEGMAN'S,5000 WEGMAN'S DR,BETHLEHEM,PA,18017,"http://maps.google.com/maps?q=5000 WEGMAN'S DR,+BETHLEHEM,+PA+18017&hl=en"
COLONIE POLICE DEPARTMENT,COLONIE POLICE DEPARTMENT COURT RM # 1,312 WOLF ROAD,LATHAM,NY,12110,"http://maps.google.com/maps?q=312 WOLF ROAD,+LATHAM,+NY+12110&hl=en"
COLUMBIA COUNTY SHERIFF'S OFFICE,COLUMBIA COUNTY SHERIFF'S OFFICE,85 INDUSTRIAL TRACT,HUDSON,NY,12534,"http://maps.google.com/maps?q=85 INDUSTRIAL TRACT,+HUDSON,+NY+12534&hl=en"
COLUMBIA COUNTY SHERIFF'S OFFICE,HILLSDALE SUB STATION,2684 STATE ROUTE 23,HILLSDALE,NY,12529,"http://maps.google.com/maps?q=2684 STATE ROUTE 23,+HILLSDALE,+NY+12529&hl=en"
COXSACKIE POLICE DEPARTMENT,COXSACKIE POLICE DEPARTMENT,119 MANSION STREET,COXSACKIE,NY,12051,"http://maps.google.com/maps?q=119 MANSION STREET,+COXSACKIE,+NY+12051&hl=en"
CROTON ON HUDSON POLICE,CROTON COMMONS SHOPPING PLAZA,177 SOUTH RIVERSIDE AVENUE,CROTON ON HUDSON,NY,10520,"http://maps.google.com/maps?q=177 SOUTH RIVERSIDE AVENUE,+CROTON ON HUDSON,+NY+10520&hl=en"
CUMMINGTON POLICE DEPARTMENT,CUMMINGTON POLICE DEPARTMENT CUMMINGTON PUBLIC SAFETY COMPLEX,8 FAIRGROUNDS ROAD,CUMMINGTON,MA,01026,"http://maps.google.com/maps?q=8 FAIRGROUNDS ROAD,+CUMMINGTON,+MA+01026&hl=en"
DANVILLE POLICE DEPARTMENT,DANVILLE POLICE DEPARTMENT,453 MILL STREET,DANVILLE,PA,17821,"http://maps.google.com/maps?q=453 MILL STREET,+DANVILLE,+PA+17821&hl=en"
DEA NEW YORK DIVISION,DEPARTMENT OF FAMILY SERVICES ROBERT TRAVIS BLDG SUSAN CLARK,16 COMMUNITY LANE,LIBERTY,NY,12754,"http://maps.google.com/maps?q=16 COMMUNITY LANE,+LIBERTY,+NY+12754&hl=en"
DEA NEW YORK DIVISION,FALLSBURG POLICE STATION ALETA M. GOMEZ 845.794.8080 X170,19 RAILROAD PLAZA,SOUTH FALLSBURG,NY,12779,"http://maps.google.com/maps?q=19 RAILROAD PLAZA,+SOUTH FALLSBURG,+NY+12779&hl=en"
DEA NEW YORK DIVISION,GROVER HERMANN HOSPITAL,8881 NY RTE 97,CALLICOON,NY,12723,"http://maps.google.com/maps?q=8881 NY RTE 97,+CALLICOON,+NY+12723&hl=en"
DEA NEW YORK DIVISION,LIBERTY POLICE DEPARTMENT ALETA M. GOMEZ 845.794.8080 X170,159 NORTH MAIN STREET,LIBERTY,NY,12754,"http://maps.google.com/maps?q=159 NORTH MAIN STREET,+LIBERTY,+NY+12754&hl=en"
DEA NEW YORK DIVISION,TOWN OF LUMBERLAND TOWN HALL,1054 PROCTOR ROAD,GLEN SPEY,NY,12737,"http://maps.google.com/maps?q=1054 PROCTOR ROAD,+GLEN SPEY,+NY+12737&hl=en"
DEWITT POLICE DEPARTMENT,WEGMANS,4256 JAMES STREET,EAST SYRACUSE,NY,13057,"http://maps.google.com/maps?q=4256 JAMES STREET,+EAST SYRACUSE,+NY+13057&hl=en"
DEWITT POLICE DEPARTMENT,WEGMANS,6789 E. GENESEE STREET,FAYETTEVILLE,NY,13066,"http://maps.google.com/maps?q=6789 E. GENESEE STREET,+FAYETTEVILLE,+NY+13066&hl=en"
DURYEA POLICE DEPARTMENT,DURYEA BOROUGH TOWN HALL BUILDING,315 MAIN STREET,DURYEA,PA,18642,"http://maps.google.com/maps?q=315 MAIN STREET,+DURYEA,+PA+18642&hl=en"
DUTCHESS COUNTY SHERIFF'S OFFICE,VASSAR BROTHERS MEDICAL HOSPITAL,45 READE PLACE,POUGHKEEPSIE,NY,12601,"http://maps.google.com/maps?q=45 READE PLACE,+POUGHKEEPSIE,+NY+12601&hl=en"
EAST GREENBUSH POLICE DEPARTMENT,EAST GREENBUSH POLICE DEPARTMENT,225 COLUMBIA TURNPIKE,RENSSELAER,NY,12144,"http://maps.google.com/maps?q=225 COLUMBIA TURNPIKE,+RENSSELAER,+NY+12144&hl=en"
ELMWOOD PARK POLICE DEPARTMENT,ELMWOOK PARK PD,182 MARKET ST,ELMWOOD PARK,NJ,07407,"http://maps.google.com/maps?q=182 MARKET ST,+ELMWOOD PARK,+NJ+07407&hl=en"
EMMAUS POLICE DEPARTMENT,EMMAUS POLICE DEPARTMENT,400 JUBILEE STREET,EMMAUS,PA,18049,"http://maps.google.com/maps?q=400  JUBILEE STREET,+EMMAUS,+PA+18049&hl=en"
ESSEX COUNTY SHERIFF,ESSEX COUNTY SHERIFF'S OFFICE,702 STOWERSVILLE RD.,LEWIS,NY,12950,"http://maps.google.com/maps?q=702 STOWERSVILLE RD.,+LEWIS,+NY+12950&hl=en"
ESSEX POLICE DEPARTMENT,ESSEX POLICE DEPARTMENT,145 MAPLE STREET,ESSEX JUNCTION,VT,05452,"http://maps.google.com/maps?q=145 MAPLE STREET,+ESSEX JUNCTION,+VT+05452&hl=en"
ESSEX POLICE DEPARTMENT,KINNEY DRUGS PHARMACY,82 PEARL STREET,ESSEX JUNCTION,VT,05452,"http://maps.google.com/maps?q=82 PEARL STREET,+ESSEX JUNCTION,+VT+05452&hl=en"
FAIR HAVEN POLICE DEPARTMENT,FAIR HAVEN POLICE DEPARTMENT BONNIE ROSATI,5 NORTH PARK PLACE,FAIR HAVEN,VT,05743,"http://maps.google.com/maps?q=5 NORTH PARK PLACE,+FAIR HAVEN,+VT+05743&hl=en"
FAR HILLS PD,FAR HILLS PD,6 PROSPECT STREET,FAR HILLS,NJ,07931,"http://maps.google.com/maps?q=6 PROSPECT STREET,+FAR HILLS,+NJ+07931&hl=en"
FLORHAM PARK POLICE DEPARTMENT,RIDGEDALE MIDDLE SCHOOL 973-377-2200,71 RIDGEDALE AVE.,FLORHAM PARK,NJ,07932,"http://maps.google.com/maps?q=71 RIDGEDALE AVE.,+FLORHAM PARK,+NJ+07932&hl=en"
FOREST CITY POLICE,FOREST CITY AREA EMERGENCY SERVICES,380 RAILROAD STREET,FOREST CITY,PA,18421,"http://maps.google.com/maps?q=380 RAILROAD STREET,+FOREST CITY,+PA+18421&hl=en"
FOUNTAIN HILL POLICE DEPARTMENT,FOUNTAIN HILL POLICE DEPARTMENT,941 LONG STREET,FOUNTAIN HILL,PA,18015,"http://maps.google.com/maps?q=941 LONG STREET,+FOUNTAIN HILL,+PA+18015&hl=en"
FOUNTAIN HILL POLICE DEPARTMENT,ST LUKES HOSPITAL MEDICAL BLDG PARKING LOT,801 OSTRUM ST,FOUNTAIN HILL,PA,18015,"http://maps.google.com/maps?q=801 OSTRUM ST,+FOUNTAIN HILL,+PA+18015&hl=en"
FULTON COUNTY SHERIFF'S OFFICE,FULTON COUNTY SHERIFF'S OFFICE,2712 STATE HWY 29,JOHNSTOWN,NY,12095,"http://maps.google.com/maps?q=2712 STATE HWY 29,+JOHNSTOWN,+NY+12095&hl=en"
FULTON POLICE DEPARTMENT,KINNEY DRUGS,115 ONEIDA STREET,FULTON,NY,13069,"http://maps.google.com/maps?q=115 ONEIDA STREET,+FULTON,+NY+13069&hl=en"
GOSHEN POLICE DEPARTMENT,GOSHEN POLICE DEPARTMENT,40A MAIN ST,GOSHEN,MA,01032,"http://maps.google.com/maps?q=40A MAIN ST,+GOSHEN,+MA+01032&hl=en"
GOUVERNEUR POLICE DEPARTMENT,KINNEY DRUGS,17 CLINTON STREET,GOUVERNEUR,NY,13642,"http://maps.google.com/maps?q=17 CLINTON STREET,+GOUVERNEUR,+NY+13642&hl=en"
GRAND ISLE COUNTY SHERIFF'S DEPARTMENT,ALBURGH FIRE DEPARTMENT,60 FIREHOUSE ROAD,ALBURGH,VT,05440,"http://maps.google.com/maps?q=60 FIREHOUSE ROAD,+ALBURGH,+VT+05440&hl=en"
GRAND ISLE COUNTY SHERIFF'S DEPARTMENT,SOUTH HERO RESCUE BUILDING,329 US RT 2,SOUTH HERO,VT,05486,"http://maps.google.com/maps?q=329 US RT 2,+SOUTH HERO,+VT+05486&hl=en"
GREAT BEND POLICE DEPARTMENT,GREAT BEND POLICE STATION,335 WASHINGTON STREET,GREAT BEND,PA,18821,"http://maps.google.com/maps?q=335 WASHINGTON STREET,+GREAT BEND,+PA+18821&hl=en"
GUILDERLAND POLICE DEPARTMENT,PUBLIC LIBRARY AUXILIARY PARKING LOT,2228 WESTERN AVENUE,GUILDERLAND,NY,12084,"http://maps.google.com/maps?q=2228 WESTERN AVENUE,+GUILDERLAND,+NY+12084&hl=en"
HAMILTON COUNTY SHERIFF'S OFFICE,HAMILTON COUNTY JAIL,102 COUNTY VIEW DRIVE,LAKE PLEASANT,NY,12108,"http://maps.google.com/maps?q=102 COUNTY VIEW DRIVE,+LAKE PLEASANT,+NY+12108&hl=en"
HANOVER TOWNSHIP POLICE,WEGMANS SUPERMARKET,34 SYLVAN WAY,WHIPPANY,NJ,07981,"http://maps.google.com/maps?q=34 SYLVAN WAY,+WHIPPANY,+NJ+07981&hl=en"
HAVERSTRAW POLICE DEPARTMENT,CVS,12 WEST RAMAPO ROAD,GARNERVILLE,NY,10923,"http://maps.google.com/maps?q=12 WEST RAMAPO ROAD,+GARNERVILLE,+NY+10923&hl=en"
HERKIMER COUNTY SHERIFF'S OFFICE,HERKIMER COUNTY SHERIFF'S OFFICE,320 NORTH MAIN STREET,HERKIMER,NY,13350,"http://maps.google.com/maps?q=320 NORTH MAIN STREET,+HERKIMER,+NY+13350&hl=en"
HERKIMER POLICE DEPARTMENT,HERKIMER PD,120 GREEN STREET,HERKIMER,NY,13350,"http://maps.google.com/maps?q=120 GREEN STREET,+HERKIMER,+NY+13350&hl=en"
HIGH BRIDGE POLICE,HIGH BRIDGE POLICE DEPARTMENT,99 WEST MAIN STREET,HIGH BRIDGE,NJ,08829,"http://maps.google.com/maps?q=99 WEST MAIN STREET,+HIGH BRIDGE,+NJ+08829&hl=en"
HOLLAND TWP. POLICE DEPARTMENT.,HOLLAND TWP. POLICE DEPARTMENT 908-995-4670,61 CHURCH ROAD,MILFORD,NJ,08848,"http://maps.google.com/maps?q=61 CHURCH ROAD,+MILFORD,+NJ+08848&hl=en"
HOOSICK FALLS POLICE DEPARTMENT,HOOSICK FALLS PD STATION,24 MAIN STREET,HOOSICK FALLS,NY,12090,"http://maps.google.com/maps?q=24 MAIN STREET,+HOOSICK FALLS,+NY+12090&hl=en"
HOPATCONG BOROUGH POLICE DEPARTMENT,HOPATCONG POLICE DEPARTMENT 973-398-5000,111 RIVER STYX RD,HOPATCONG,NJ,07843,"http://maps.google.com/maps?q=111 RIVER STYX RD,+HOPATCONG,+NJ+07843&hl=en"
ILION POLICE DEPARTMENT,KINNEY DRUGS,40 1ST STREET,ILION,NY,13357,"http://maps.google.com/maps?q=40 1ST  STREET,+ILION,+NY+13357&hl=en"
ITHACA POLICE DEPARTMENT,KINNEY DRUGS,513 N. CAYUGA STREET,ITHACA,NY,14850,"http://maps.google.com/maps?q=513 N. CAYUGA STREET,+ITHACA,+NY+14850&hl=en"
ITHACA POLICE DEPARTMENT,WEGMANS,500 S. MEADOW STREET,ITHACA,NY,14850,"http://maps.google.com/maps?q=500 S. MEADOW STREET,+ITHACA,+NY+14850&hl=en"
JEFFERSON TWP. POLICE DEPARTMENT,JEFFERSON TWP. MUNICIPAL BUILDING 973-697-1300,1033 WELDON ROAD,OAK RIDGE,NJ,07438,"http://maps.google.com/maps?q=1033 WELDON ROAD,+OAK RIDGE,+NJ+07438&hl=en"
JOHNSTOWN POLICE DEPARTMENT,JOHNSTOWN POLICE DEPARTMENT CITY HALL,33-41 EAST MAIN STREET,JOHNSTOWN,NY,12095,"http://maps.google.com/maps?q=33-41 EAST MAIN STREET,+JOHNSTOWN,+NY+12095&hl=en"
KINGSTON TOWNSHIP POLICE DEPARTMENT,KINGSTON TOWNSHIP POLICE DEPARTMENT,180 EAST CENTER STREET,SHAVERTOWN,PA,18708,"http://maps.google.com/maps?q=180 EAST CENTER STREET,+SHAVERTOWN,+PA+18708&hl=en"
KIRKLAND POLICE DEPARTMENT,KINNEY DRUGS,12 FRANKLIN AVE.,CLINTON,NY,13323,"http://maps.google.com/maps?q=12 FRANKLIN AVE.,+CLINTON,+NY+13323&hl=en"
KULPMONT POLICE DEPARTMENT,KULPMONT POLICE DEPARTMENT,9 NORTH 8TH STREET,KULPMONT,PA,17834,"http://maps.google.com/maps?q=9 NORTH 8TH STREET,+KULPMONT,+PA+17834&hl=en"
LAMOILLE COUNTY SHERIFFS DEPT,KINNEY DRUGS,155 S MAIN ST,CAMBRIDGE,VT,05444,"http://maps.google.com/maps?q=155 S MAIN ST,+CAMBRIDGE,+VT+05444&hl=en"
LEROY POLICE DEPARTMENT,LEROY POLICE DEPARTMENT VILLAGE HALL,3 WEST MAIN STREETRTS 5 & 19,LE ROY,NY,14482,"http://maps.google.com/maps?q=3 WEST MAIN STREET,+LE ROY,+NY+14482&hl=en"
LOCUST TOWNSHIP PD,LOCUST TOWNSHIP PD,1223 A NUMIDIA DR,CATAWISSA,PA,17820,"http://maps.google.com/maps?q=1223 A NUMIDIA DR,+CATAWISSA,+PA+17820&hl=en"
LOWER SAUCON TOWNSHIP POLICE DEPARTMENNT,LOWER SAUCON TOWNSHIP POLICE DEPARTMENT,3700 OLD PHILADELPHIA PIKE,BETHLEHEM,PA,18015,"http://maps.google.com/maps?q=3700 OLD PHILADELPHIA PIKE,+BETHLEHEM,+PA+18015&hl=en"
MAHWAH POLICE DEPARTMENT,MAHWAY POLICE DEPT.,221 FRANKLIN TURNPIKE,MAHWAH,NJ,07430,"http://maps.google.com/maps?q=221 FRANKLIN TURNPIKE,+MAHWAH,+NJ+07430&hl=en"
MASSENA POLICE DEPARTMENT,KINNEY DRUGS,300 MAIN STREET,MASSENA,NY,13662,"http://maps.google.com/maps?q=300 MAIN STREET,+MASSENA,+NY+13662&hl=en"
MASSENA POLICE DEPARTMENT,MASSENA POLICE DEPARTMENT,60 MAIN STREET,MASSENA,NY,13662,"http://maps.google.com/maps?q=60 MAIN STREET,+MASSENA,+NY+13662&hl=en"
MECHANICVILLE POLICE DEPARTMENT,CVS PHARMACY PARKING LOT,12 SOUTH CENTRAL AVENUE,MECHANICVILLE,NY,12118,"http://maps.google.com/maps?q=12 SOUTH CENTRAL AVENUE,+MECHANICVILLE,+NY+12118&hl=en"
MIDDLEBURY POLICE DEPARTMENT,MIDDLEBURY POLICE DEPARTMENT,1 LUCIUS SHAW LN.,MIDDLEBURY,VT,05753,"http://maps.google.com/maps?q=1 LUCIUS SHAW LN.,+MIDDLEBURY,+VT+05753&hl=en"
MIDLAND PARK POLICE DEPARTMENT,MIDLAND PARK POLICE DEPARTMENT,280 GODWIN AVENUE,MIDLAND PARK,NJ,07432,"http://maps.google.com/maps?q=280 GODWIN AVENUE,+MIDLAND PARK,+NJ+07432&hl=en"
MILTON PD,MILTON PD,1 FILBERT ST,MILTON,PA,17847,"http://maps.google.com/maps?q=1 FILBERT ST,+MILTON,+PA+17847&hl=en"
MILTON POLICE DEPARTMENT,KINNEY DRUGS PHARMACY,3 CENTRE DRIVE,MILTON,VT,05468,"http://maps.google.com/maps?q=3 CENTRE DRIVE,+MILTON,+VT+05468&hl=en"
MONTICELLO POLICE DEPARTMENT,MONTICELLO POLICE DEPT CHIEF MUIR,2 PLEASANT STREET,MONTICELLO,NY,12701,"http://maps.google.com/maps?q=2 PLEASANT STREET,+MONTICELLO,+NY+12701&hl=en"
MONTOUR COUNTY SHERIFF'S OFFICE,MONTOUR COUNTY COURTHOUSE,253 MILL ST,DANVILLE,PA,17821,"http://maps.google.com/maps?q=253 MILL ST,+DANVILLE,+PA+17821&hl=en"
MORRIS COUNTY PROSECUTOR'S OFFICE,HANOVER SHOPRITE,178 HANOVER AVE,CEDAR KNOLLS,NJ,07927,"http://maps.google.com/maps?q=178 HANOVER AVE,+CEDAR KNOLLS,+NJ+07927&hl=en"
MORRIS COUNTY PROSECUTOR'S OFFICE,MORRIS PLAINS STOP & SHOP SUPERMARKET,245 LITTLETON RD,MORRISTOWN,NJ,07963,"http://maps.google.com/maps?q=245 LITTLETON RD,+MORRISTOWN,+NJ+07963&hl=en"
MORRIS COUNTY PROSECUTOR'S OFFICE,RANDOLPH ACME SUPERMARKET,690 MILLBROOK AVE,RANDOLPH,NJ,07869,"http://maps.google.com/maps?q=690 MILLBROOK AVE,+RANDOLPH,+NJ+07869&hl=en"
MOSCOW BOROUGH POLICE DEPARTMENT,MOSCOW BOROUGH MUNICIPAL BUILDING,123 VAN BRUNT ST,MOSCOW,PA,18444,"http://maps.google.com/maps?q=123 VAN BRUNT ST,+MOSCOW,+PA+18444&hl=en"
MOUNT CARMEL BOROUGH POLICE,MOUNT CARMEL BOROUGH POLICE DEPARTMENT,137 WEST FOURTH STREET,MOUNT CARMEL,PA,17851,"http://maps.google.com/maps?q=137 WEST FOURTH STREET,+MOUNT CARMEL,+PA+17851&hl=en"
MOUNT CARMEL TWP POLICE DEPARTMENT,MOUNT CARMEL BOROUGH POLICE DEPARTMENT,300 LAUREL STREET,MOUNT CARMEL,PA,17851,"http://maps.google.com/maps?q=300 LAUREL STREET,+MOUNT CARMEL,+PA+17851&hl=en"
NEW HARTFORD POLICE DEPARTMENT,NEW HARTFORD POLICE DEPARTMENT,32 KELLOGG RD,NEW HARTFORD,NY,13413,"http://maps.google.com/maps?q=32 KELLOGG RD,+NEW HARTFORD,+NY+13413&hl=en"
NEW PALTZ POLICE DEPARTMENT,NEW PALTZ POLICE STATION DROP BOX IN LOBBY,83 SOUTH PUTT CORNERS ROAD,NEW PALTZ,NY,12561,"http://maps.google.com/maps?q=83 SOUTH PUTT CORNERS ROAD,+NEW PALTZ,+NY+12561&hl=en"
NEW YORK STATE POLICE,NEW YORK STATE POLICE CLIFTON PARK,5 MUNICIPAL PLAZASTATE ROUTE 146,CLIFTON PARK,NY,12065,"http://maps.google.com/maps?q=5 MUNICIPAL PLAZA,+CLIFTON PARK,+NY+12065&hl=en"
NEW YORK STATE POLICE,NEW YORK STATE POLICE SCHODACK,1485 STATE ROUTE 9,CASTLETON,NY,12033,"http://maps.google.com/maps?q=1485 STATE ROUTE 9,+CASTLETON,+NY+12033&hl=en"
NEWTON POLICE DEPARTMENT,NEWTON POLICE DEPARTMENT,39 TRINITY STREET,NEWTON,NJ,07860,"http://maps.google.com/maps?q=39 TRINITY STREET,+NEWTON,+NJ+07860&hl=en"
NORTH GREENBUSH POLICE DEPARTMENT,NORTH GREENBUSH POLICE DEPARTMENT CHIEF ROBERT DURIVAGE,133 BLOOMING GROVE DRIVE,TROY,NY,12180,"http://maps.google.com/maps?q=133 BLOOMING GROVE DRIVE,+TROY,+NY+12180&hl=en"
NORTHUMBERLAND COUNTY SHERIFF'S OFFICE,NORTHUMBERLAND COUNTY COURT HOUSE,201 MARKET STREET,SUNBURY,PA,17801,"http://maps.google.com/maps?q=201 MARKET STREET,+SUNBURY,+PA+17801&hl=en"
NYS UNIVERSITY POLICE @ ONEONTA,NYS UNIVERSITY POLICE SUNY ONEONTA,ALUMNI HALL51 SOUTH WEST DORM DRIVE,ONEONTA,NY,13820,"http://maps.google.com/maps?q=ALUMNI HALL,+ONEONTA,+NY+13820&hl=en"
OAKLAND POLICE DEPARTMENT,OAKLAND POLICE DEPARTMENT,295 RAMAPO VALLEY ROAD,OAKLAND,NJ,07436,"http://maps.google.com/maps?q=295 RAMAPO VALLEY ROAD,+OAKLAND,+NJ+07436&hl=en"
OGDENSBURG POLICE DEPARTMENT,KINNEY DRUGS,700 CANTON STREET,OGDENSBURG,NY,13669,"http://maps.google.com/maps?q=700 CANTON STREET,+OGDENSBURG,+NY+13669&hl=en"
OLD FORGE POLICE DEPARTMENT,CVS PHARMACY,101 S. MAIN STREET,OLD FORGE,PA,18518,"http://maps.google.com/maps?q=101 S. MAIN STREET,+OLD FORGE,+PA+18518&hl=en"
OLYPHANT POLICE DEPARTMENT,OLYPHANT BOROUGH POLICE STATION,604 EAST PARK STREET,OLYPHANT,PA,18447,"http://maps.google.com/maps?q=604 EAST PARK STREET,+OLYPHANT,+PA+18447&hl=en"
ORLEANS COUNTY SHERIFF'S OFFICE,HOLLEY FIRE DEPARTMENT,7 THOMAS STREET,HOLLEY,NY,14470,"http://maps.google.com/maps?q=7 THOMAS STREET,+HOLLEY,+NY+14470&hl=en"
ORLEANS COUNTY SHERIFF'S OFFICE,PUBLIC SAFETY BUILDING,13925 STATE ROUTE 31,ALBION,NY,14411,"http://maps.google.com/maps?q=13925 STATE ROUTE 31,+ALBION,+NY+14411&hl=en"
OSWEGO POLICE DEPARTMENT,KINNEY DRUGS,174 W. BRIDGE STREET,OSWEGO,NY,13126,"http://maps.google.com/maps?q=174 W. BRIDGE STREET,+OSWEGO,+NY+13126&hl=en"
OSWEGO POLICE DEPARTMENT,OSWEGO POLICE DEPARTMENT POLICE HQ,169 WEST 2ND STREET,OSWEGO,NY,13126,"http://maps.google.com/maps?q=169 WEST 2ND STREET,+OSWEGO,+NY+13126&hl=en"
OTSEGO COUNTY SHERIFF'S OFFICE,OTSEGO COUNTY SHERIFF'S OFFICE,172 COUNTY HWY 33 WEST,COOPERSTOWN,NY,13326,"http://maps.google.com/maps?q=172 COUNTY HWY 33 WEST,+COOPERSTOWN,+NY+13326&hl=en"
PARSIPPANY-TROY HILLS PD,PARSIPPANY POLICE DEPARTMENT,3339 US HIGHWAY 46 EAST,PARSIPPANY,NJ,07054,"http://maps.google.com/maps?q=3339 US HIGHWAY 46 EAST,+PARSIPPANY,+NJ+07054&hl=en"
PEAPACK & GLADSTONE POLICE DEPARTMENT,PEAPACK & GLADSTONE POLICE DEPARTMENT MUNICIPAL BUILDING,1 SCHOOL ST.,PEAPACK,NJ,07977,"http://maps.google.com/maps?q=1 SCHOOL ST.,+PEAPACK,+NJ+07977&hl=en"
PICATINNY ARSENAL POLICE DEPARTMENT,PICATINNY ARSENAL POLICE DEPARTMENT 9737246666,173 BUFFINGTON RD.,PICATINNY ARSENAL,NJ,07806,"http://maps.google.com/maps?q=173 BUFFINGTON RD.,+PICATINNY ARSENAL,+NJ+07806&hl=en"
PITTSFIELD POLICE DEPARTMENT,PITTSFIELD POLICE DEPARTMENT LT. JOHN SOULES,39 ALLEN STREET,PITTSFIELD,MA,01201,"http://maps.google.com/maps?q=39 ALLEN STREET,+PITTSFIELD,+MA+01201&hl=en"
PLAINS TWP POLICE DEPT,PLAINS TWP PD,126 NORTH MAIN ST,WILKES BARRE,PA,18705,"http://maps.google.com/maps?q=126 NORTH MAIN ST,+WILKES BARRE,+PA+18705&hl=en"
PLATTSBURGH POLICE DEPARTMENT,KINNEY DRUGS,288 CORNELIA ST,PLATTSBURGH,NY,12901,"http://maps.google.com/maps?q=288 CORNELIA ST,+PLATTSBURGH,+NY+12901&hl=en"
PLATTSBURGH POLICE DEPARTMENT,PLATTSBURGH PD,45 PINE STREET,PLATTSBURGH,NY,12901,"http://maps.google.com/maps?q=45 PINE STREET,+PLATTSBURGH,+NY+12901&hl=en"
POCONO MOUNTAIN REGIONAL POLICE DEPT.,POCONO MOUNTAIN REGIONAL POLICE DEPARTMENT,2454 ROUTE 940,POCONO SUMMIT,PA,18346,"http://maps.google.com/maps?q=2454 ROUTE 940,+POCONO SUMMIT,+PA+18346&hl=en"
POCONO MOUNTAIN REGIONAL POLICE DEPT.,ST LUKES UNIVERSAL HEALTH NETWORK MONROE CAMPUS,100 ST LUKES LN,STROUDSBURG,PA,18360,"http://maps.google.com/maps?q=100 ST LUKES LN,+STROUDSBURG,+PA+18360&hl=en"
POTSDAM POLICE DEPARTMENT,KINNEY DRUGS,48 MAPLE STREET,POTSDAM,NY,13699,"http://maps.google.com/maps?q=48 MAPLE STREET,+POTSDAM,+NY+13699&hl=en"
PULASKI POLICE DEPARTMENT,KINNEY DRUGS,3873 ROME ROAD,PULASKI,NY,13142,"http://maps.google.com/maps?q=3873 ROME ROAD,+PULASKI,+NY+13142&hl=en"
PUTNAM COUNTY SHERIFF'S OFFICE,PUTNAM HOSPITAL CENTER,670 STONLEIGH AVE,CARMEL,NY,10512,"http://maps.google.com/maps?q=670 STONLEIGH AVE,+CARMEL,+NY+10512&hl=en"
RENSSELAER CITY POLICE DEPARTMENT,NORTH END FIRE STATION,2 ST. FRANCIS PLACE,RENSSELAER,NY,12144,"http://maps.google.com/maps?q=2 ST. FRANCIS PLACE,+RENSSELAER,+NY+12144&hl=en"
RENSSELAER COUNTY SHERIFF'S OFFICE,WEST SAND LAKE FIRE DEPARTMENT,3697 NY-43,WEST SAND LAKE,NY,12196,"http://maps.google.com/maps?q=3697 NY-43,+WEST SAND LAKE,+NY+12196&hl=en"
RIDGEWOOD POLICE DEPARTMENT,RIDGEWOOD POLICE DEPARTMENT,131 N. MAPLE AVENUE,RIDGEWOOD,NJ,07450,"http://maps.google.com/maps?q=131 N. MAPLE AVENUE,+RIDGEWOOD,+NJ+07450&hl=en"
ROME POLICE DEPARTMENT,POLICE HQ,301 N. JAMES ST.,ROME,NY,13440,"http://maps.google.com/maps?q=301 N. JAMES ST.,+ROME,+NY+13440&hl=en"
ROTTERDAM POLICE DEPARTMENT,ROTTERDAM PD,101 PRINCETOWN ROAD,ROTTERDAM,NY,12306,"http://maps.google.com/maps?q=101 PRINCETOWN ROAD,+ROTTERDAM,+NY+12306&hl=en"
RUTLAND COUNTY SHERIFF'S DEPARTMENT,DIAMOND RUN MALL,46 DIAMOND RUN MALL PLACE,RUTLAND,VT,05701,"http://maps.google.com/maps?q=46 DIAMOND RUN MALL PLACE,+RUTLAND,+VT+05701&hl=en"
SALISBURY TOWNSHIP POLICE DEPARTMENT,SOUTH MALL,3300 LEHIGH STREET,ALLENTOWN,PA,18103,"http://maps.google.com/maps?q=3300 LEHIGH STREET,+ALLENTOWN,+PA+18103&hl=en"
SARATOGA COUNTY SHERIFF OFFICE,CLIFTON PARK-HALFMOON EMERGENCY SQUAD,15 CROSSING BLVD.,CLIFTON PARK,NY,12065,"http://maps.google.com/maps?q=15 CROSSING BLVD.,+CLIFTON PARK,+NY+12065&hl=en"
SARATOGA COUNTY SHERIFF OFFICE,MOREAU EMERGENCY SQUAD,1583 ROUTE 9,FORT EDWARD,NY,12828,"http://maps.google.com/maps?q=1583 ROUTE 9,+FORT EDWARD,+NY+12828&hl=en"
SARATOGA POLICE DEPARTMENT,SARATOGA HOSPITAL MYRTLE STREET PARKING LOT- ER ENTRANCE,211 CHURCH STREET,SARATOGA SPRINGS,NY,12866,"http://maps.google.com/maps?q=211 CHURCH STREET,+SARATOGA SPRINGS,+NY+12866&hl=en"
SARATOGA POLICE DEPARTMENT,SARATOGA POLICE DEPARTMENT MAPLE AVENUE- BEHIND CITY HALL,474 BROADWAY,SARATOGA SPRINGS,NY,12866,"http://maps.google.com/maps?q=474 BROADWAY,+SARATOGA SPRINGS,+NY+12866&hl=en"
SCHENECTADY COUNTY SHERIFF'S OFFICE,SCHENECTADY COUNTY SHERIFF'S SUBSTATION,130 PRINCETOWN PLAZA,SCHENECTADY,NY,12306,"http://maps.google.com/maps?q=130 PRINCETOWN PLAZA,+SCHENECTADY,+NY+12306&hl=en"
SCHENECTADY POLICE DEPARTMENT,SCHENECTADY POLICE DEPARTMENT,531 LIBERTY ST.,SCHENECTADY,NY,12305,"http://maps.google.com/maps?q=531 LIBERTY ST.,+SCHENECTADY,+NY+12305&hl=en"
SCHODACK POLICE DEPARTMENT,POLICE DEPARTMENT,1797 COLUMBIA TURNPIKE,CASTLETON,NY,12033,"http://maps.google.com/maps?q=1797 COLUMBIA TURNPIKE,+CASTLETON,+NY+12033&hl=en"
SCHUYLKILL COUNTY SHERIFF'S OFFICE,ASHLAND POLICE DEPARTMENT,401 SOUTH 18TH STREET,ASHLAND,PA,17921,"http://maps.google.com/maps?q=401 SOUTH 18TH STREET,+ASHLAND,+PA+17921&hl=en"
SCHUYLKILL COUNTY SHERIFF'S OFFICE,BUTLER TOWNSHIP POLICE DEPARTMENT,211 BROAD STREET,ASHLAND,PA,17921,"http://maps.google.com/maps?q=211 BROAD STREET,+ASHLAND,+PA+17921&hl=en"
SCHUYLKILL COUNTY SHERIFF'S OFFICE,CASS TOWNSHIP POLICE DEPARTMENT,1209 VALLEY ROAD,POTTSVILLE,PA,17901,"http://maps.google.com/maps?q=1209 VALLEY ROAD,+POTTSVILLE,+PA+17901&hl=en"
SCHUYLKILL COUNTY SHERIFF'S OFFICE,COALDALE POLICE DEPARTMENT,221-223 3RD STREET,COALDALE,PA,18218,"http://maps.google.com/maps?q=221-223 3RD STREET,+COALDALE,+PA+18218&hl=en"
SCHUYLKILL COUNTY SHERIFF'S OFFICE,FRACKVILLE POLICE DEPARTMENT,42 SOUTH CENTER STREET,FRACKVILLE,PA,17931,"http://maps.google.com/maps?q=42 SOUTH CENTER STREET,+FRACKVILLE,+PA+17931&hl=en"
SCHUYLKILL COUNTY SHERIFF'S OFFICE,HEGINS POLICE DEPARTMENT,417 GAP STREET,VALLEY VIEW,PA,17983,"http://maps.google.com/maps?q=417 GAP STREET,+VALLEY VIEW,+PA+17983&hl=en"
SCHUYLKILL COUNTY SHERIFF'S OFFICE,MAHANOY CITY POLICE DEPARTMENT,239 EAST PINE STREET,MAHANOY CITY,PA,17948,"http://maps.google.com/maps?q=239 EAST PINE STREET,+MAHANOY CITY,+PA+17948&hl=en"
SCHUYLKILL COUNTY SHERIFF'S OFFICE,MINERSVILLE POLICE DEPARTMENT,15 NORTH DELAWARE AVENUE,MINERSVILLE,PA,17954,"http://maps.google.com/maps?q=15 NORTH DELAWARE AVENUE,+MINERSVILLE,+PA+17954&hl=en"
SCHUYLKILL COUNTY SHERIFF'S OFFICE,ORWIGSBURG POLICE DEPARTMENT,209 NORTH WARREN STREET,ORWIGSBURG,PA,17961,"http://maps.google.com/maps?q=209 NORTH WARREN STREET,+ORWIGSBURG,+PA+17961&hl=en"
SCHUYLKILL COUNTY SHERIFF'S OFFICE,PALO ALTO POLICE DEPT,142 EAST BACON,POTTSVILLE,PA,17901,"http://maps.google.com/maps?q=142 EAST BACON,+POTTSVILLE,+PA+17901&hl=en"
SCHUYLKILL COUNTY SHERIFF'S OFFICE,PORT CARBON POLICE DEPARTMENT,90 WASHINGTON STREET,PORT CARBON,PA,17965,"http://maps.google.com/maps?q=90 WASHINGTON STREET,+PORT CARBON,+PA+17965&hl=en"
SCHUYLKILL COUNTY SHERIFF'S OFFICE,RUSH TOWNSHIP POLICE DEPT,104 MAHANOY AVE,TAMAQUA,PA,18252,"http://maps.google.com/maps?q=104 MAHANOY AVE,+TAMAQUA,+PA+18252&hl=en"
SCHUYLKILL COUNTY SHERIFF'S OFFICE,SAINT CLAIR POLICE DEPARTMENT,24 NORTH 2ND STREET,SAINT CLAIR,PA,17970,"http://maps.google.com/maps?q=24 NORTH 2ND STREET,+SAINT CLAIR,+PA+17970&hl=en"
SCHUYLKILL COUNTY SHERIFF'S OFFICE,SAINT LUKES MINERS CAMPUS,360 WEST RUDDLE ST,COALDALE,PA,18218,"http://maps.google.com/maps?q=360 WEST RUDDLE ST,+COALDALE,+PA+18218&hl=en"
SCHUYLKILL COUNTY SHERIFF'S OFFICE,SCHUYLKILL COUNTY COURT HOUSE (SECURITY ENTRANCE) SECURITY ENTRANCE,401 NORTH 2ND STREET,POTTSVILLE,PA,17901,"http://maps.google.com/maps?q=401 NORTH 2ND STREET,+POTTSVILLE,+PA+17901&hl=en"
SCHUYLKILL COUNTY SHERIFF'S OFFICE,SCHUYLKILL HAVEN POLICE DEPARTMENT,220 PARKWAY AVENUE,SCHUYLKILL HAVEN,PA,17972,"http://maps.google.com/maps?q=220 PARKWAY AVENUE,+SCHUYLKILL HAVEN,+PA+17972&hl=en"
SCHUYLKILL COUNTY SHERIFF'S OFFICE,SHENANDOAH POLICE DEPARTMENT,15 WEST WASHINGTON STREET,SHENANDOAH,PA,17976,"http://maps.google.com/maps?q=15 WEST WASHINGTON STREET,+SHENANDOAH,+PA+17976&hl=en"
SCHUYLKILL COUNTY SHERIFF'S OFFICE,TAMAQUA POLICE DEPARTMENT,320 BROAD STREET,TAMAQUA,PA,18252,"http://maps.google.com/maps?q=320 BROAD STREET,+TAMAQUA,+PA+18252&hl=en"
SCHUYLKILL COUNTY SHERIFF'S OFFICE,TREMONT POLICE DEPARTMENT,19 NORTH PINE STREET,TREMONT,PA,17981,"http://maps.google.com/maps?q=19 NORTH PINE STREET,+TREMONT,+PA+17981&hl=en"
SCHUYLKILL COUNTY SHERIFF'S OFFICE,WEST MAHANOY TWP PD,190 PENNA AVE,SHENANDOAH,PA,17976,"http://maps.google.com/maps?q=190 PENNA AVE,+SHENANDOAH,+PA+17976&hl=en"
SCOTIA POLICE DEPARTMENT,SCOTIA POLICE DEPARTMENT,4 NORTH TEN BROECK STREET,SCOTIA,NY,12302,"http://maps.google.com/maps?q=4 NORTH TEN BROECK STREET,+SCOTIA,+NY+12302&hl=en"
SHAMOKIN POLICE DEPARTMENT,SHAMOKIN POLICE DEPARTMENT,511 NORTH FRANKLIN STREET,SHAMOKIN,PA,17872,"http://maps.google.com/maps?q=511 NORTH FRANKLIN STREET,+SHAMOKIN,+PA+17872&hl=en"
SHELBURNE POLICE DEPARTMENT,SHELBURNE POLICE DEPARTMENT,5420 SHELBURNE ROAD,SHELBURNE,VT,05482,"http://maps.google.com/maps?q=5420 SHELBURNE ROAD,+SHELBURNE,+VT+05482&hl=en"
SHERRILL POLICE DEPARTMENT,SHERRILL POLICE DEPARTMENT POLICE HQ,373 SHERRILL ROAD,SHERRILL,NY,13461,"http://maps.google.com/maps?q=373 SHERRILL ROAD,+SHERRILL,+NY+13461&hl=en"
SIDNEY POLICE DEPARTMENT,SIDNEY POLICE DEPARTMENT,21 LIBERTY STREET,SIDNEY,NY,13838,"http://maps.google.com/maps?q=21 LIBERTY STREET,+SIDNEY,+NY+13838&hl=en"
SOUTH BURLINGTON POLICE DEPARTMENT,UNIVERSITY MALL,155 DORSET STREET,SOUTH BURLINGTON,VT,05403,"http://maps.google.com/maps?q=155 DORSET STREET,+SOUTH BURLINGTON,+VT+05403&hl=en"
SOUTH WHITEHALL TWP POLICE DEPT,SOUTH WHITEHALL TWP POLICE DEPT,4444 WALBERT AVENUE,ALLENTOWN,PA,18104,"http://maps.google.com/maps?q=4444 WALBERT AVENUE,+ALLENTOWN,+PA+18104&hl=en"
SPRING VALLEY POLICE,SPRING VALLEY POLICE DEPARTMENT,200 NORTH MAIN STREET,SPRING VALLEY,NY,10977,"http://maps.google.com/maps?q=200 NORTH MAIN STREET,+SPRING VALLEY,+NY+10977&hl=en"
SPRING VALLEY POLICE,WALGREENS,208 E ROUTE 59,SPRING VALLEY,NY,10977,"http://maps.google.com/maps?q=208 E ROUTE 59,+SPRING VALLEY,+NY+10977&hl=en"
ST. JOHNSVILLE POLICE DEPARTMENT,KINNEY'S DRUGS,12 PARK PLACE,SAINT JOHNSVILLE,NY,13452,"http://maps.google.com/maps?q=12 PARK PLACE,+SAINT JOHNSVILLE,+NY+13452&hl=en"
ST. LAWRENCE COUNTY SHERIFF'S OFFICE,ST. LAWRENCE COUNTY SHERIFF'S OFFICE,48 COURT STREET,CANTON,NY,13617,"http://maps.google.com/maps?q=48 COURT STREET,+CANTON,+NY+13617&hl=en"
STONY POINT POLICE DEPARTMENT,WALGREENS,135 SOUTH LIBERTY DRIVE,STONY POINT,NY,10980,"http://maps.google.com/maps?q=135 SOUTH LIBERTY DRIVE,+STONY POINT,+NY+10980&hl=en"
SULLIVAN COUNTY SHERIFF'S OFFICE,SULLIVAN COUNTY SHERIFF'S OFFICE,245 MUNCY ST,LAPORTE,PA,18626,"http://maps.google.com/maps?q=245 MUNCY ST,+LAPORTE,+PA+18626&hl=en"
SUMMIT HILL POLICE DEPARTMENT,SUMMIT HILL POLICE DEPARTMENT,"40 W. AMIDON STREET, SUITE 1",SUMMIT HILL,PA,18250,"http://maps.google.com/maps?q=40 W. AMIDON STREET, SUITE 1,+SUMMIT HILL,+PA+18250&hl=en"
SUNY UPSTATE UNIVERSITY POLICE,UPSTATE MEDICAL UNIVERSITY COMMUNITY CAMPUS,4900 BROAD ROAD,SYRACUSE,NY,13215,"http://maps.google.com/maps?q=4900 BROAD ROAD,+SYRACUSE,+NY+13215&hl=en"
SUSQUEHANNA COUNTY SHERIFF'S OFFICE,SUSQUEHANNA COUNTY COURTHOUSE,31 LAKE AVENUE,MONTROSE,PA,18801,"http://maps.google.com/maps?q=31 LAKE AVENUE,+MONTROSE,+PA+18801&hl=en"
SWANTON VILLAGE POLICE,SWANTON REXALL DRUGS,44 MERCHANTS ROW,SWANTON,VT,05488,"http://maps.google.com/maps?q=44 MERCHANTS ROW,+SWANTON,+VT+05488&hl=en"
SYRACUSE POLICE DEPARTMENT,KINNEY DRUGS,104 LAFAYETTE RD.,SYRACUSE,NY,13205,"http://maps.google.com/maps?q=104 LAFAYETTE RD.,+SYRACUSE,+NY+13205&hl=en"
SYRACUSE POLICE DEPARTMENT,KINNEY DRUGS,2912 JAMES ST,SYRACUSE,NY,13206,"http://maps.google.com/maps?q=2912 JAMES ST,+SYRACUSE,+NY+13206&hl=en"
SYRACUSE POLICE DEPARTMENT,KINNEY DRUGS,406 BUTTERNUT STREET,SYRACUSE,NY,13208,"http://maps.google.com/maps?q=406 BUTTERNUT STREET,+SYRACUSE,+NY+13208&hl=en"
TICONDERGOA POLICE DEPARTMENT,TICONDEROGA POLICE DEPARTMENT,135 BURGOYNE ROAD,TICONDEROGA,NY,12883,"http://maps.google.com/maps?q=135 BURGOYNE ROAD,+TICONDEROGA,+NY+12883&hl=en"
TIOGA COUNTY SHERIFF'S OFFICE,TIOGA COUNTY SHERIFF'S OFFICE TRINITY-CASA OF TIOGA,ACROSS FROM AGWAY6 MCMASTER ST.,OWEGO,NY,13827,"http://maps.google.com/maps?q=ACROSS FROM AGWAY,+OWEGO,+NY+13827&hl=en"
TOMPKINS COUNTY SHERIFF'S OFFICE,SHERIFF'S HQ,779 WARREN ROAD,ITHACA,NY,14850,"http://maps.google.com/maps?q=779 WARREN ROAD,+ITHACA,+NY+14850&hl=en"
TOMPKINS COUNTY SHERIFF'S OFFICE,SLATERVILLE FIRE STATION,2681 SLATERVILLE RD.,SLATERVILLE SPRINGS,NY,14881,"http://maps.google.com/maps?q=2681 SLATERVILLE RD.,+SLATERVILLE SPRINGS,+NY+14881&hl=en"
TOWN OF NISKAYUNA POLICE DEPARTMENT,NISKAYUNA TOWN HALL,1 NISKAYUNA CIRCLE,NISKAYUNA,NY,12309,"http://maps.google.com/maps?q=1 NISKAYUNA CIRCLE,+NISKAYUNA,+NY+12309&hl=en"
TOWN OF VESTAL POLICE,TOWN OF VESTAL POLICE STATION FRONT LOBBY,605 VESTAL PARKWAY WEST,VESTAL,NY,13850,"http://maps.google.com/maps?q=605 VESTAL PARKWAY WEST,+VESTAL,+NY+13850&hl=en"
TROOP B,TROOP-B,463 ASHLEY FALLS RD,NORTH CANAAN,CT,06018,"http://maps.google.com/maps?q=463 ASHLEY FALLS RD,+NORTH CANAAN,+CT+06018&hl=en"
TROY POLICE DEPARTMENT,TROY POLICE DEPARTMENT,55 STATE STREET,TROY,NY,12180,"http://maps.google.com/maps?q=55 STATE STREET,+TROY,+NY+12180&hl=en"
UNIVERSITY OF VERMONT POLICE,UNIVERSITY OF VERMONT POLICE DUDLEY DAVIS CENTER FIRST FLOOR ATRIUM,284 EAST AVENUE,BURLINGTON,VT,05405,"http://maps.google.com/maps?q=284 EAST AVENUE,+BURLINGTON,+VT+05405&hl=en"
UPPER SADDLE RIVER POLICE DEPARTMENT,UPPER SADDLE RIVER POLICE DEPARTMENT 201-327-2700,368 W. SADDLE RIVER RD.,SADDLE RIVER,NJ,07458,"http://maps.google.com/maps?q=368 W. SADDLE RIVER RD.,+SADDLE RIVER,+NJ+07458&hl=en"
UPPER SAUCON TWP POLICE DEPT,UPPER SAUCON PD,5500 CAMP MEETING RD,CENTER VALLEY,PA,18034,"http://maps.google.com/maps?q=5500 CAMP MEETING RD,+CENTER VALLEY,+PA+18034&hl=en"
VERMONT STATE POLICE,VERMONT STATE POLICE - NEW HAVEN BARRACKS,2490 ETHAN ALLEN HIGHWAY,NEW HAVEN,VT,05472,"http://maps.google.com/maps?q=2490 ETHAN ALLEN HIGHWAY,+NEW HAVEN,+VT+05472&hl=en"
VERMONT STATE POLICE,VERMONT STATE POLICE - RUTLAND BARRACKS,124 STATE PLACE,RUTLAND,VT,05701,"http://maps.google.com/maps?q=124 STATE PLACE,+RUTLAND,+VT+05701&hl=en"
VERMONT STATE POLICE,VERMONT STATE POLICE - SHAFTSBURY BARRACKS,96 AIRPORT ROAD,SHAFTSBURY,VT,05262,"http://maps.google.com/maps?q=96 AIRPORT ROAD,+SHAFTSBURY,+VT+05262&hl=en"
VERMONT STATE POLICE,VERMONT STATE POLICE - ST. ALBANS BARRACKS,140 FISHER POND ROAD,SAINT ALBANS,VT,05478,"http://maps.google.com/maps?q=140 FISHER POND ROAD,+SAINT ALBANS,+VT+05478&hl=en"
VERMONT STATE POLICE - WILLISTON BARRACKS,VERMONT STATE POLICE - WILLISTON BARRACKS,2777 ST. GEORGE ROAD,WILLISTON,VT,05495,"http://maps.google.com/maps?q=2777 ST. GEORGE ROAD,+WILLISTON,+VT+05495&hl=en"
VILLAGE OF MALONE POLICE DEPARTMENT,KINNEY DRUGS,485 E MAIN STREET,MALONE,NY,12953,"http://maps.google.com/maps?q=485 E MAIN STREET,+MALONE,+NY+12953&hl=en"
VILLAGE OF RHINEBECK POLICE,NORTHERN DUTCHESS HOSPITAL,6511 SPRINGBROOK AVE,RHINEBECK,NY,12572,"http://maps.google.com/maps?q=6511 SPRINGBROOK AVE,+RHINEBECK,+NY+12572&hl=en"
WARREN COUNTY SHERIFF'S OFFICE,WARREN COUNTY SHERIFF'S OFFICE,1400 STATE ROUTE 9,LAKE GEORGE,NY,12845,"http://maps.google.com/maps?q=1400 STATE ROUTE 9,+LAKE GEORGE,+NY+12845&hl=en"
WATERTOWN POLICE DEPARTMENT,KINNEY DRUGS,905 COFFEEN STREET,WATERTOWN,NY,13601,"http://maps.google.com/maps?q=905 COFFEEN STREET,+WATERTOWN,+NY+13601&hl=en"
WATERVLIET POLICE DEPARTMENT,WATERVLIET POLICE DEPARTMENT,2-15TH STREET,WATERVLIET,NY,12189,"http://maps.google.com/maps?q=2-15TH STREET,+WATERVLIET,+NY+12189&hl=en"
WATSONTOWN POLICE DEPARTMENT,WATSONTOWN PD,318 MAIN ST,WATSONTOWN,PA,17777,"http://maps.google.com/maps?q=318 MAIN ST,+WATSONTOWN,+PA+17777&hl=en"
WAYNE TWP. POLICE DEPARTMENT,WAYNE POLICE DEPARTMENT 973-633-3550,475 VALLEY ROAD,WAYNE,NJ,07470,"http://maps.google.com/maps?q=475 VALLEY ROAD,+WAYNE,+NJ+07470&hl=en"
WELLSBORO POLICE DEPARTMENT,WELLSBORO POLICE DEPT,28 CRAFTON ST,WELLSBORO,PA,16901,"http://maps.google.com/maps?q=28 CRAFTON ST,+WELLSBORO,+PA+16901&hl=en"
WEST CALDWELL POLICE,WEST CALDWELL PD,21 CLINTON ROAD,WEST CALDWELL,NJ,07006,"http://maps.google.com/maps?q=21 CLINTON ROAD,+WEST CALDWELL,+NJ+07006&hl=en"
WILLIAMSBURG POLICE DEPT.,WILLIAMSBURG PHARMACY,49 MAIN ST,WILLIAMSBURG,MA,01096,"http://maps.google.com/maps?q=49 MAIN ST,+WILLIAMSBURG,+MA+01096&hl=en"
WINHALL POLICE & RESCUE DEPT,WINHALL POLICE & RESCUE,113 VERMONT ROUTE 30,BONDVILLE,VT,05340,"http://maps.google.com/maps?q=113 VERMONT ROUTE 30,+BONDVILLE,+VT+05340&hl=en"
WORTHINGTON POLICE DEPARTMENT,COMPACTOR,64 HUNTINGTON ROAD,WORTHINGTON,MA,01098,"http://maps.google.com/maps?q=64 HUNTINGTON ROAD,+WORTHINGTON,+MA+01098&hl=en"
WRIGHT TOWNSHIP POLICE DEPARTMENT,WRIGHT TOWNSHIP POLICE DEPARTMENT,321 SOUTH MOUNTAIN. BLVD.,MOUNTAIN TOP,PA,18707,"http://maps.google.com/maps?q=321 SOUTH MOUNTAIN. BLVD.,+MOUNTAIN TOP,+PA+18707&hl=en"
WYOMING COUNTY DISTRICT ATTORNEYS OFFIC DETECTIVES,CVS PHARMACY,BUSINESS ROUTE 6 AND SR 29,TUNKHANNOCK,PA,18657,"http://maps.google.com/maps?q=BUSINESS ROUTE 6 AND SR 29,+TUNKHANNOCK,+PA+18657&hl=en"
WYOMING COUNTY DISTRICT ATTORNEYS OFFIC DETECTIVES,LECH'S PHARMACY,SR0006,TUNKHANNOCK,PA,18657,"http://maps.google.com/maps?q=SR0006,+TUNKHANNOCK,+PA+18657&hl=en"
WYOMING COUNTY DISTRICT ATTORNEYS OFFIC DETECTIVES,RITE AID,420 TIOGA PLZ,TUNKHANNOCK,PA,18657,"http://maps.google.com/maps?q=420 TIOGA PLZ,+TUNKHANNOCK,+PA+18657&hl=en"
WYOMING COUNTY SHERIFF'S DEPARTMENT,PERRY POLICE DEPARTMENT,46 NORTH MAIN STREET,PERRY,NY,14530,"http://maps.google.com/maps?q=46 NORTH MAIN STREET,+PERRY,+NY+14530&hl=en"
WYOMING COUNTY SHERIFF'S DEPARTMENT,WYOMING COUNTY SHERIFF'S OFFICE,151 N. MAIN STREET,WARSAW,NY,14569,"http://maps.google.com/maps?q=151 N. MAIN STREET,+WARSAW,+NY+14569&hl=en"
NORTHVALE POLICE DEPARTMENT,NORTHVALE POLICE DEPARTMENT 201-768-5900,116 PARIS AVE.,NORTHVALE,NJ,07647,"http://maps.google.com/maps?q=116 PARIS AVE.,+NORTHVALE,+NJ+07647&hl=en"
