Participant,CollectionSite,Address,City,State,Zip,MapURL
ALLEGHENY COUNTY POLICE - DISTRICT II,ALLEGHENY COUNTY POLICE DISTRICT II,1801 BROWNSVILLE RD.,SOUTH PARK,PA,15129,"http://maps.google.com/maps?q=1801 BROWNSVILLE RD.,+SOUTH PARK,+PA+15129&hl=en"
ALLEGHENY COUNTY POLICE DEPARTMENT,NORTH PARK STATION,700 WEST RIDGE DRIVE,ALLISON PARK,PA,15101,"http://maps.google.com/maps?q=700 WEST RIDGE DRIVE,+ALLISON PARK,+PA+15101&hl=en"
ALLEGHENY COUNTY POLICE DEPARTMENT,SOUTH PARK STATION,1801 BROWNSVILLE ROAD,SOUTH PARK,PA,15129,"http://maps.google.com/maps?q=1801 BROWNSVILLE ROAD,+SOUTH PARK,+PA+15129&hl=en"
ALLEGHENY COUNTY POLICE DEPARTMENT,WILMERDING STATION,315 STATION ST,WILMERDING,PA,15148,"http://maps.google.com/maps?q=315 STATION ST,+WILMERDING,+PA+15148&hl=en"
ALLEGHENY COUNTY POLICE DISTRICT III,ALLEGHENY COUNTY PD,700 WEST RIDGE RD,ALLISON PARK,PA,15101,"http://maps.google.com/maps?q=700 WEST RIDGE RD,+ALLISON PARK,+PA+15101&hl=en"
ANDOVER POLICE DEPARTMENT,ANDOVER POLICE DEPARTMENT,134 MAPLE ST,ANDOVER,OH,44003,"http://maps.google.com/maps?q=134 MAPLE ST,+ANDOVER,+OH+44003&hl=en"
ASHTABULA COUNTY SHERIFF'S OFFICE,ASHTABULA COUNTY SHERIFF'S OFFICE,25 W. JEFFERSON ST.,JEFFERSON,OH,44047,"http://maps.google.com/maps?q=25 W. JEFFERSON ST.,+JEFFERSON,+OH+44047&hl=en"
ASPINWALL POLICE DEPARTMENT,ASPINWALL POLICE STATION,217 COMMERCIAL AVENUE,ASPINWALL,PA,15215,"http://maps.google.com/maps?q=217 COMMERCIAL AVENUE,+ASPINWALL,+PA+15215&hl=en"
AUSTINTOWN POLICE DEPARTMENT,AUSTINTOWN TOWNSHIP POLICE DISTRICT OUTDOOR DRIVE-THRU COLLECTION,92 OHLTOWN RD.,YOUNGSTOWN,OH,44515,"http://maps.google.com/maps?q=92 OHLTOWN RD.,+YOUNGSTOWN,+OH+44515&hl=en"
BARBOUR COUNTY SHERIFF'S OFFICE,MACES PHARMACY,204 CRIM AVENUE,BELINGTON,WV,26250,"http://maps.google.com/maps?q=204 CRIM AVENUE,+BELINGTON,+WV+26250&hl=en"
BARBOUR COUNTY SHERIFF'S OFFICE,MACES PHARMACY,440 S MAIN ST,PHILIPPI,WV,26416,"http://maps.google.com/maps?q=440 S MAIN ST,+PHILIPPI,+WV+26416&hl=en"
BAZETTA TOWNSHIP POLICE DEPARTMENT,BAZETTA TOWNSHIP POLICE DEPARTMENT,2671 MCCLEARY JACOBY RD.,CORTLAND,OH,44410,"http://maps.google.com/maps?q=2671 MCCLEARY JACOBY RD.,+CORTLAND,+OH+44410&hl=en"
BEAVER POLICE DEPARTMENT,BEAVER POLICE DEPARTMENT FRONT LOBBY,601 W SOUTH RANGE RD,NORTH LIMA,OH,44452,"http://maps.google.com/maps?q=601 W SOUTH RANGE RD,+NORTH LIMA,+OH+44452&hl=en"
BELLEVUE BOROUGH POLICE DEPARTMENT,BELLEVUE BOROUGH POLICE DEPARTMENT,537 BAYNE AVENUE,PITTSBURGH,PA,15202,"http://maps.google.com/maps?q=537 BAYNE AVENUE,+PITTSBURGH,+PA+15202&hl=en"
BELMONT COUNTY SHERIFF'S OFFICE,OHIO STATE PATROL- ST. CLAIRSVILLE,51400 NATIONAL ROAD,SAINT CLAIRSVILLE,OH,43950,"http://maps.google.com/maps?q=51400 NATIONAL ROAD,+SAINT CLAIRSVILLE,+OH+43950&hl=en"
BELMONT COUNTY SHERIFF'S OFFICE,RIESBECK'S FOOD STORE,104 PLAZA DRIVE,SAINT CLAIRSVILLE,OH,43950,"http://maps.google.com/maps?q=104 PLAZA DRIVE,+SAINT CLAIRSVILLE,+OH+43950&hl=en"
BELMONT COUNTY SHERIFF'S OFFICE,RIESBECK'S FOOD STORE,4595 CENTRAL AVENUE,SHADYSIDE,OH,43947,"http://maps.google.com/maps?q=4595 CENTRAL AVENUE,+SHADYSIDE,+OH+43947&hl=en"
BELMONT COUNTY SHERIFF'S OFFICE,RIESBECK'S FOOD STORE,56130 NATIONAL ROAD,BRIDGEPORT,OH,43912,"http://maps.google.com/maps?q=56130 NATIONAL ROAD,+BRIDGEPORT,+OH+43912&hl=en"
BOARDMAN POLICE DEPARTMENT,BOARDMAN POLICE DEPARTMENT,8299 MARKET STREET,BOARDMAN,OH,44512,"http://maps.google.com/maps?q=8299 MARKET STREET,+BOARDMAN,+OH+44512&hl=en"
BRIDGEPORT POLICE DEPARTMENT,BRIDGEPORT POLICE DEPARTMENT DPTY CHIEF R. HARTLEY,515 WEST MAIN STREET,BRIDGEPORT,WV,26330,"http://maps.google.com/maps?q=515 WEST MAIN STREET,+BRIDGEPORT,+WV+26330&hl=en"
BRIMFIELD POLICE DEPARTMENT,BRIMFIELD POLICE DEPARTMENT,1287 TALLMADGE RD,KENT,OH,44240,"http://maps.google.com/maps?q=1287 TALLMADGE RD,+KENT,+OH+44240&hl=en"
BROOKE COUNTY SHERIFF'S OFFICE,BROOKE COUNTY COURTHOUSE GREEN ROOM,632 MAIN STREET,WELLSBURG,WV,26070,"http://maps.google.com/maps?q=632 MAIN STREET,+WELLSBURG,+WV+26070&hl=en"
CAMERON POLICE DEPARTMENT,CAMERON POLICE DEPARTMENT,44 MAIN STREET,CAMERON,WV,26033,"http://maps.google.com/maps?q=44 MAIN STREET,+CAMERON,+WV+26033&hl=en"
CANFIELD POLICE DEPARTMENT,CANFIELD POLICE DEPARTMENT JOSH WELLS,104 LISBON ST.,CANFIELD,OH,44406,"http://maps.google.com/maps?q=104 LISBON ST.,+CANFIELD,+OH+44406&hl=en"
CANONSBURG POLICE DEPARTMENT,SHOP AND SAVE GROCERY STORE,617 WEST PIKE STREET,CANONSBURG,PA,15317,"http://maps.google.com/maps?q=617 WEST PIKE STREET,+CANONSBURG,+PA+15317&hl=en"
CARLOW UNIVERSITY POLICE,CARLOW UNIVERSITY,3333 FIFTH AVE,PITTSBURGH,PA,15213,"http://maps.google.com/maps?q=3333 FIFTH AVE,+PITTSBURGH,+PA+15213&hl=en"
CARNEGIE MELLON UNIVERSITY POLICE DEPT,CMU POLICE STATION (LOBBY),300 S CRAIG ST,PITTSBURGH,PA,15213,"http://maps.google.com/maps?q=300 S CRAIG ST,+PITTSBURGH,+PA+15213&hl=en"
CARROLL TOWNSHIP POLICE DEPARTMENT,"MONONGAHELA VALLEY HOSPITAL, INC.",1163 COUNTRY CLUB ROAD,MONONGAHELA,PA,15063,"http://maps.google.com/maps?q=1163 COUNTRY CLUB ROAD,+MONONGAHELA,+PA+15063&hl=en"
CHARTIERS TOWNSHIP POLICE DEPARTMENT,CHARTIERS TOWNSHIP POLICE DEPARTMENT,2 BUCCANEER DRIVE,HOUSTON,PA,15342,"http://maps.google.com/maps?q=2 BUCCANEER DRIVE,+HOUSTON,+PA+15342&hl=en"
CHESTER POLICE DEPT,CHESTER POLICE DEPT,600 INDIANA AVE,CHESTER,WV,26034,"http://maps.google.com/maps?q=600 INDIANA AVE,+CHESTER,+WV+26034&hl=en"
CITY OF CLAIRTON POLICE DEPARTMENT,RITE AID DRUG STORE,623 ST. CLAIR AVE.,CLAIRTON,PA,15025,"http://maps.google.com/maps?q=623 ST. CLAIR AVE.,+CLAIRTON,+PA+15025&hl=en"
CITY OF WASHINGTON POLICE DEPT,CITY OF WASHINGTON POLICE DEPT,56 WEST STRAWBERRY AVE,WASHINGTON,PA,15301,"http://maps.google.com/maps?q=56 WEST STRAWBERRY AVE,+WASHINGTON,+PA+15301&hl=en"
CLARKSBURG POLICE DEPARTMENT,CLARKSBURG POLICE DEPARTMENT,222 WEST MAIN STREETREAR LOT,CLARKSBURG,WV,26301,"http://maps.google.com/maps?q=222 WEST MAIN STREET,+CLARKSBURG,+WV+26301&hl=en"
CRANBERRY TWP POLICE DEPT,CRANBERRY TWP POLICE DEPT,2525 ROCHESTER RD,CRANBERRY TOWNSHIP,PA,16066,"http://maps.google.com/maps?q=2525 ROCHESTER RD,+CRANBERRY TOWNSHIP,+PA+16066&hl=en"
CRESCENT TOWNSHIP POLICE,CRESCENT TOWNSHIP POLICE,225 SPRING RUN RD.,CRESCENT,PA,15046,"http://maps.google.com/maps?q=225 SPRING RUN RD.,+CRESCENT,+PA+15046&hl=en"
DORMONT POLICE DEPARTMENT,CVS PHARMACY,3075 WEST LIBERTY AVENUE,PITTSBURGH,PA,15216,"http://maps.google.com/maps?q=3075 WEST LIBERTY AVENUE,+PITTSBURGH,+PA+15216&hl=en"
DUQUESNE UNIVERSITY POLICE DEPT,BAYER SCHOOL,MCNAULTY DR,PITTSBURGH,PA,15282,"http://maps.google.com/maps?q=MCNAULTY DR,+PITTSBURGH,+PA+15282&hl=en"
ELLWOOD CITY POLICE DEPARTMENT,ELLWOOD CITY MUNICIPAL BUILDING,525 LAWRENCE AVENUE,ELLWOOD CITY,PA,16117,"http://maps.google.com/maps?q=525 LAWRENCE AVENUE,+ELLWOOD CITY,+PA+16117&hl=en"
FAIRMONT POLICE DEPARTMENT,FAIRMONT POLICE DEPARTMENT PUBLIC SAFETY BUILDING,500 QUINCY STREET,FAIRMONT,WV,26554,"http://maps.google.com/maps?q=500 QUINCY STREET,+FAIRMONT,+WV+26554&hl=en"
FINDLAY TOWNSHIP POLICE DEPARTMENT,FINDLAY TOWNSHIP POLICE DEPARTMENT,1271 ROUTE 30,CLINTON,PA,15026,"http://maps.google.com/maps?q=1271 ROUTE 30,+CLINTON,+PA+15026&hl=en"
FOLLANSBEE POLICE DEPARTMENT,FOLLANSBEE POLICE DEPARTMENT PL,872 MAIN STREET,FOLLANSBEE,WV,26037,"http://maps.google.com/maps?q=872 MAIN STREET,+FOLLANSBEE,+WV+26037&hl=en"
GEAUGA COUNTY SHERIFF'S OFFICE,MIDDLEFILED POLICE DEPARTMENT,14860 N. STATE AVE,MIDDLEFIELD,OH,44062,"http://maps.google.com/maps?q=14860 N. STATE AVE,+MIDDLEFIELD,+OH+44062&hl=en"
GEISTOWN POLICE DEPT,RICHLAND VOLUNTEER FIRE DEPT GEISTOWN STATION,631 LAMBERD AVE,JOHNSTOWN,PA,15904,"http://maps.google.com/maps?q=631 LAMBERD AVE,+JOHNSTOWN,+PA+15904&hl=en"
GRAFTON POLICE DEPARTMENT,GRAFTON POLICE DEPARTMENT,1 WEST MAIN ST,GRAFTON,WV,26354,"http://maps.google.com/maps?q=1 WEST MAIN ST,+GRAFTON,+WV+26354&hl=en"
GREEN TREE BOROUGH POLICE DEPARTMENT,GREEN TREE BOROUGH BUILDING,10 WEST MANILLA AVE.,PITTSBURGH,PA,15220,"http://maps.google.com/maps?q=10 WEST MANILLA AVE.,+PITTSBURGH,+PA+15220&hl=en"
HANCOCK COUNTY SHERIFF'S OFFICE,HANCOCK COUNTY SHERIFF'S OFFICE,102 NORTH COURT STREET,NEW CUMBERLAND,WV,26047,"http://maps.google.com/maps?q=102 NORTH COURT STREET,+NEW CUMBERLAND,+WV+26047&hl=en"
HEIDELBERG POLICE DEPARTMENT,WALGREENS,2055 WASHINGTON PIKE,CARNEGIE,PA,15106,"http://maps.google.com/maps?q=2055 WASHINGTON PIKE,+CARNEGIE,+PA+15106&hl=en"
HUBBARD CITY POLICE DEPARTMENT,HUBBARD CITY POLICE DEPARTMENT,233 SCHOOL STREET,HUBBARD,OH,44425,"http://maps.google.com/maps?q=233 SCHOOL STREET,+HUBBARD,+OH+44425&hl=en"
INDIANA COUNTY SHERIFF'S OFFICE,DIAMOND DRUG PHARMACY *COLLECTION TIME FROM 10 AM TO NOON ONLY*,670 PHILADELPHIA STREET,INDIANA,PA,15701,"http://maps.google.com/maps?q=670 PHILADELPHIA STREET,+INDIANA,+PA+15701&hl=en"
KENT POLICE DEPARTMENT,KENT POLICE DEPARTMENT NEW ADDRESS,301 S. DEPEYSTER ST.,KENT,OH,44240,"http://maps.google.com/maps?q=301 S. DEPEYSTER ST.,+KENT,+OH+44240&hl=en"
LIBERTY TOWNSHIP POLICE DEPARTMENT,LIBERTY TOWNSHIP GOVERNMENT BUILDING,1315 CHURCHILL-HUBBARD ROAD,YOUNGSTOWN,OH,44505,"http://maps.google.com/maps?q=1315 CHURCHILL-HUBBARD ROAD,+YOUNGSTOWN,+OH+44505&hl=en"
MARYLAND STATE POLICE,MSP MCHENRY BARRACK POC: JAMES PRITTS,67 FRIENDSVILLE ROAD,MC HENRY,MD,21541,"http://maps.google.com/maps?q=67 FRIENDSVILLE ROAD,+MC HENRY,+MD+21541&hl=en"
MCDONALD POLICE DEPARTMENT,BURGETTSTOWN BOROUGH BUILDING,1509 MAIN STREET,BURGETTSTOWN,PA,15021,"http://maps.google.com/maps?q=1509 MAIN STREET,+BURGETTSTOWN,+PA+15021&hl=en"
MCDONALD POLICE DEPARTMENT,MCDONALD POLICE DEPARTMENT,151 SCHOOL STREET,MC DONALD,PA,15057,"http://maps.google.com/maps?q=151 SCHOOL STREET,+MC DONALD,+PA+15057&hl=en"
MILLCREEK TOWNSHIP POLICE DEPARTMENT,MILLCREEK TOWNSHIP,3608 WEST 26TH STREET,ERIE,PA,16506,"http://maps.google.com/maps?q=3608 WEST 26TH STREET,+ERIE,+PA+16506&hl=en"
MILLCREEK TOWNSHIP POLICE DEPARTMENT,WEGMAN'S,5028 W RIDGE RDERIE,ERIE,PA,16506,"http://maps.google.com/maps?q=5028 W RIDGE RD,+ERIE,+PA+16506&hl=en"
MILLVALE POLICE DEPARTMENT,MILLVALE POLICE STATION,501 LINCOLN AVENUE,PITTSBURGH,PA,15209,"http://maps.google.com/maps?q=501 LINCOLN AVENUE,+PITTSBURGH,+PA+15209&hl=en"
MILTON TOWNSHIP POLICE DISTRICT,MILTON TOWNSHIP POLICE DEPARTMENT,15992 MILTON AVE.,LAKE MILTON,OH,44429,"http://maps.google.com/maps?q=15992 MILTON AVE.,+LAKE MILTON,+OH+44429&hl=en"
MONONGAH POLICE DEPT,MONONGAH PD,430 BRIDGE ST,FAIRMONT,WV,26554,"http://maps.google.com/maps?q=430 BRIDGE ST,+FAIRMONT,+WV+26554&hl=en"
MONONGALIA COUNTY SHERIFF'S OFFICE,KROGER @ SUNCREST TOWN CNTR,500 SUNCREST TOWN CENTER DR,MORGANTOWN,WV,26506,"http://maps.google.com/maps?q=500 SUNCREST TOWN CENTER DR,+MORGANTOWN,+WV+26506&hl=en"
MONONGALIA COUNTY SHERIFF'S OFFICE,MONONGALIA COUNTY SHERIFF'S OFFICE,116 WALNUT STREET,MORGANTOWN,WV,26505,"http://maps.google.com/maps?q=116 WALNUT STREET,+MORGANTOWN,+WV+26505&hl=en"
MONONGALIA COUNTY SHERIFF'S OFFICE,PIERPONT LANDING PHARMACY,7000 MID ATLANTIC RD,MORGANTOWN,WV,26508,"http://maps.google.com/maps?q=7000 MID ATLANTIC RD,+MORGANTOWN,+WV+26508&hl=en"
MONROEVILLE POLICE DEPARTMENT,MONROEVILLE POLICE DEPARTMENT,2700 MONROEVILLE BLVD.,MONROEVILLE,PA,15146,"http://maps.google.com/maps?q=2700 MONROEVILLE BLVD.,+MONROEVILLE,+PA+15146&hl=en"
MOON TOWNSHIP POLICE,MOON TOWNSHIP POLICE,1000 BEAVER GRADE RD,CORAOPOLIS,PA,15108,"http://maps.google.com/maps?q=1000 BEAVER GRADE RD,+CORAOPOLIS,+PA+15108&hl=en"
MORGANTOWN POLICE DEPARTMENT,KROGER,1851 EARL L. CORE ROAD,MORGANTOWN,WV,26505,"http://maps.google.com/maps?q=1851 EARL L. CORE ROAD,+MORGANTOWN,+WV+26505&hl=en"
MORGANTOWN POLICE DEPARTMENT,KROGER,350 PATTERSON DRIVE,MORGANTOWN,WV,26505,"http://maps.google.com/maps?q=350 PATTERSON DRIVE,+MORGANTOWN,+WV+26505&hl=en"
MOUNDSVILLE POLICE DEPARTMENT,MOUNDSVILLE POLICE DEPARTMENT,608 TOMLINSON AVENUE,MOUNDSVILLE,WV,26041,"http://maps.google.com/maps?q=608 TOMLINSON AVENUE,+MOUNDSVILLE,+WV+26041&hl=en"
MT. LEBANON POLICE DEPARTMENT,MEDIC RESCUE TEAM SOUTH AUTHORITY,315 CYPRESS WAY,PITTSBURGH,PA,15228,"http://maps.google.com/maps?q=315 CYPRESS WAY,+PITTSBURGH,+PA+15228&hl=en"
MT. PLEASANT TWP. POLICE DEPARTMENT,MT. PLEASANT TWP. MUNICIPAL BUILDING,31 MCCARRELL RD.,HICKORY,PA,15340,"http://maps.google.com/maps?q=31 MCCARRELL RD.,+HICKORY,+PA+15340&hl=en"
MUNHALL POLICE DEPARTMENT,MUNHALL CENTRAL VFC,1900 WEST STREET,MUNHALL,PA,15120,"http://maps.google.com/maps?q=1900 WEST STREET,+MUNHALL,+PA+15120&hl=en"
NESHANNOCK TWP POLICE DEPARTMENT,NESHANNOCK TWP. POLICE DEPARTMENT,3131 MERCER ROAD,NEW CASTLE,PA,16105,"http://maps.google.com/maps?q=3131 MERCER ROAD,+NEW CASTLE,+PA+16105&hl=en"
NEW CASTLE POLICE DEPARTMENT,NEW CASTLE POLICE DEPARTMENT,303 EAST NORTH STREET,NEW CASTLE,PA,16101,"http://maps.google.com/maps?q=303 EAST NORTH STREET,+NEW CASTLE,+PA+16101&hl=en"
NEW MIDDLETOWN POLICE DEPT,NEW MIDDLETOWN MUNICIPAL BUILDING,10711 MAIN STREET,NEW MIDDLETOWN,OH,44442,"http://maps.google.com/maps?q=10711 MAIN STREET,+NEW MIDDLETOWN,+OH+44442&hl=en"
NORTH HUNTINGDON TWP. POLICE DEPARTMENT,NORTH HUNTINGDON TWP. TOWNHOUSE NHT MUNICIPAL BUILDING - POLICE DEPT.,11279 CENTER HIGHWAY,NORTH HUNTINGDON,PA,15642,"http://maps.google.com/maps?q=11279 CENTER HIGHWAY,+NORTH HUNTINGDON,+PA+15642&hl=en"
OAKMONT BOROUGH POLICE,RITE-AID,109 ALLEGHENY RIVER BLVD,OAKMONT,PA,15139,"http://maps.google.com/maps?q=109 ALLEGHENY RIVER BLVD,+OAKMONT,+PA+15139&hl=en"
OHIO COUNTY SHERIFF'S OFFICE,ELTON GROVE PHARMACY,102 E BETHLEHEM BLVD,WHEELING,WV,26003,"http://maps.google.com/maps?q=102 E BETHLEHEM BLVD,+WHEELING,+WV+26003&hl=en"
PA STATE POLICE,BOSWELL PRESCRIPTION CENTER,210 OHIO ST,BOSWELL,PA,15531,"http://maps.google.com/maps?q=210 OHIO ST,+BOSWELL,+PA+15531&hl=en"
PETERS TOWNSHIP POLICE DEPARTMENT,GIANT EAGLE,4017 WASHINGTON ROAD,MCMURRAY,PA,15317,"http://maps.google.com/maps?q=4017 WASHINGTON ROAD,+MCMURRAY,+PA+15317&hl=en"
PETERS TOWNSHIP POLICE DEPARTMENT,HEISLER'S MARKET,601 E. MCMURRAY ROAD,MCMURRAY,PA,15317,"http://maps.google.com/maps?q=601 E. MCMURRAY ROAD,+MCMURRAY,+PA+15317&hl=en"
PETERS TOWNSHIP POLICE DEPARTMENT,RITE AID PHARMACY,4185 WASHINGTON RD,MCMURRAY,PA,15317,"http://maps.google.com/maps?q=4185 WASHINGTON RD,+MCMURRAY,+PA+15317&hl=en"
PETERS TOWNSHIP POLICE DEPARTMENT,THE COUNTRY STORE,698 VENETIA RD,VENETIA,PA,15367,"http://maps.google.com/maps?q=698 VENETIA RD,+VENETIA,+PA+15367&hl=en"
PITTSBURGH BUREAU OF POLICE,PHILLIPS RECREATION CENTER,201 PARKFIELD ST,PITTSBURGH,PA,15210,"http://maps.google.com/maps?q=201 PARKFIELD ST,+PITTSBURGH,+PA+15210&hl=en"
PITTSBURGH BUREAU OF POLICE,PITTSBURGH POLICE HEADQUARTERS,1203 WESTERN AVE.,PITTSBURGH,PA,15233,"http://maps.google.com/maps?q=1203 WESTERN AVE.,+PITTSBURGH,+PA+15233&hl=en"
PITTSBURGH BUREAU OF POLICE,ZONE #1 PITTSBURGH POLICE STATION COMMANDER CHRIS RAGLAND,1501 BRIGHTON RD.,PITTSBURGH,PA,15212,"http://maps.google.com/maps?q=1501 BRIGHTON RD.,+PITTSBURGH,+PA+15212&hl=en"
PITTSBURGH BUREAU OF POLICE,ZONE #2 PITTSBURGH POLICE STATION COMMANDER CRISTYN ZETT,2002 CENTRE AVENUE,PITTSBURGH,PA,15219,"http://maps.google.com/maps?q=2002 CENTRE AVENUE,+PITTSBURGH,+PA+15219&hl=en"
PITTSBURGH BUREAU OF POLICE,ZONE #3 PITTSBURGH POLICE STATION COMMANDER KAREN DIXON,830 EAST WARRINGTON AVE.,PITTSBURGH,PA,15210,"http://maps.google.com/maps?q=830 EAST WARRINGTON AVE.,+PITTSBURGH,+PA+15210&hl=en"
PITTSBURGH BUREAU OF POLICE,ZONE #4 PITTSBURGH POLICE STATION COMMANDER DAN HERRMANN,5858 NORTHUMBERLAND STREET,PITTSBURGH,PA,15217,"http://maps.google.com/maps?q=5858 NORTHUMBERLAND STREET,+PITTSBURGH,+PA+15217&hl=en"
PITTSBURGH BUREAU OF POLICE,ZONE #5 PITTSBURGH POLICE STATION COMMANDER JASON LANDO,1401 WASHINGTON BLVD.,PITTSBURGH,PA,15206,"http://maps.google.com/maps?q=1401 WASHINGTON BLVD.,+PITTSBURGH,+PA+15206&hl=en"
PITTSBURGH BUREAU OF POLICE,ZONE #6 PITTSBURGH POLICE STATION COMMANDER STEVEN VINANSKY,312 SOUTH MAIN STREET,PITTSBURGH,PA,15220,"http://maps.google.com/maps?q=312 SOUTH MAIN STREET,+PITTSBURGH,+PA+15220&hl=en"
PLEASANT HILLS POLICE DEPARTMENT,PLEASANT HILLS BOROUGH BUILDING,410 EAST BRUCETON RD,PITTSBURGH,PA,15236,"http://maps.google.com/maps?q=410 EAST BRUCETON RD,+PITTSBURGH,+PA+15236&hl=en"
PLUM BOROUGH POLICE DEPARTMENT,BILL'S HOMETOWN PHARMACY,1095 UNITY CENTER ROAD,PITTSBURGH,PA,15239,"http://maps.google.com/maps?q=1095 UNITY CENTER ROAD,+PITTSBURGH,+PA+15239&hl=en"
PLUM BOROUGH POLICE DEPARTMENT,BILL'S HOMETOWN PHARMACY,2362 GOLDEN MILE HWY,PITTSBURGH,PA,15239,"http://maps.google.com/maps?q=2362 GOLDEN MILE HWY,+PITTSBURGH,+PA+15239&hl=en"
PRESTON COUNTY SHERIFF,BELLDINA'S PHARMACY,107 S MAIN ST,MASONTOWN,WV,26542,"http://maps.google.com/maps?q=107 S MAIN ST,+MASONTOWN,+WV+26542&hl=en"
PRESTON COUNTY SHERIFF,PRESTON COUNTY SHERIFF'S OFFICE,103 W MAIN ST,KINGWOOD,WV,26537,"http://maps.google.com/maps?q=103 W MAIN ST,+KINGWOOD,+WV+26537&hl=en"
PRESTON COUNTY SHERIFF,TERRA ALTA TOWN HALL,701-A EAST STATE AVENUE,TERRA ALTA,WV,26764,"http://maps.google.com/maps?q=701-A EAST STATE AVENUE,+TERRA ALTA,+WV+26764&hl=en"
PUNXSUTAWNEY BOROUGH POLICE DEPARTMENT,PUNXSY HOMETOWN PHARMACY,203 HAMPTON ROAD,PUNXSUTAWNEY,PA,15767,"http://maps.google.com/maps?q=203 HAMPTON ROAD,+PUNXSUTAWNEY,+PA+15767&hl=en"
RICHLAND TOWNSHIP POLICE DEPT,RICHLAND TOWNSHIP POLICE,322 SCHOOLHOUSE RD,JOHNSTOWN,PA,15904,"http://maps.google.com/maps?q=322 SCHOOLHOUSE RD,+JOHNSTOWN,+PA+15904&hl=en"
ROBINSON TWP. POLICE DEPARTMENT,THE MALL AT ROBINSON PARKING LOT NEAR DICK'S & GOLDEN CORRAL,1000 ROBINSON CENTRE DRIVE,PITTSBURGH,PA,15205,"http://maps.google.com/maps?q=1000 ROBINSON CENTRE DRIVE,+PITTSBURGH,+PA+15205&hl=en"
SEWICKLEY POLICE DEPARTMENT,SEWICKLEY BOROUGH BUILDING,601 THORN STREET,SEWICKLEY,PA,15143,"http://maps.google.com/maps?q=601 THORN STREET,+SEWICKLEY,+PA+15143&hl=en"
SHADE TOWNSHIP POLICE,BOSWELL PHARMACY SERVICES,131 SCHOOLHOUSE RD,JENNERSTOWN,PA,15547,"http://maps.google.com/maps?q=131 SCHOOLHOUSE RD,+JENNERSTOWN,+PA+15547&hl=en"
SHADE TOWNSHIP POLICE,PENN LAUREL PHARMACY,112 SUNSHINE AVE,CENTRAL CITY,PA,15926,"http://maps.google.com/maps?q=112 SUNSHINE AVE,+CENTRAL CITY,+PA+15926&hl=en"
SHALER POLICE DEPARTMENT,SHALER NORTH HILLS LIBRARY,1822 MT. ROYAL BLVD.,GLENSHAW,PA,15116,"http://maps.google.com/maps?q=1822 MT. ROYAL BLVD.,+GLENSHAW,+PA+15116&hl=en"
STEUBENVILLE POLICE DEPARTMENT,KROGER,264 S. HOLLYWOOD PLAZA,STEUBENVILLE,OH,43952,"http://maps.google.com/maps?q=264 S. HOLLYWOOD PLAZA,+STEUBENVILLE,+OH+43952&hl=en"
STONYCREEK TOWNSHIP POLICE DEPARTMENT,DAISYTOWN BOROUGH BUILDING,125 LINTER AVENUE,JOHNSTOWN,PA,15902,"http://maps.google.com/maps?q=125 LINTER AVENUE,+JOHNSTOWN,+PA+15902&hl=en"
STONYCREEK TOWNSHIP POLICE DEPARTMENT,EAST HILLS PHARMACY,1111 SCALP AVENUE,JOHNSTOWN,PA,15904,"http://maps.google.com/maps?q=1111 SCALP AVENUE,+JOHNSTOWN,+PA+15904&hl=en"
STONYCREEK TOWNSHIP POLICE DEPARTMENT,MARTELLA'S PHARMACY,1079 FRANKLIN ST,JOHNSTOWN,PA,15905,"http://maps.google.com/maps?q=1079 FRANKLIN ST,+JOHNSTOWN,+PA+15905&hl=en"
STONYCREEK TOWNSHIP POLICE DEPARTMENT,MARTELLA'S PHARMACY,1932 WM PENN HWYPARK HILL,JOHNSTOWN,PA,15909,"http://maps.google.com/maps?q=1932 WM PENN HWY,+JOHNSTOWN,+PA+15909&hl=en"
STONYCREEK TOWNSHIP POLICE DEPARTMENT,OAKLAND VOLUNTEER FIRE DEPT,1714 BEDFORD STREET,JOHNSTOWN,PA,15902,"http://maps.google.com/maps?q=1714 BEDFORD STREET,+JOHNSTOWN,+PA+15902&hl=en"
STONYCREEK TOWNSHIP POLICE DEPARTMENT,RICHLAND FIRE STATION,1321 SCALP AVENUE,JOHNSTOWN,PA,15904,"http://maps.google.com/maps?q=1321 SCALP AVENUE,+JOHNSTOWN,+PA+15904&hl=en"
STONYCREEK TOWNSHIP POLICE DEPARTMENT,RICHLAND VOLUNTEER FIRE DEPT,631 LAMBERD AVENUE,JOHNSTOWN,PA,15904,"http://maps.google.com/maps?q=631 LAMBERD AVENUE,+JOHNSTOWN,+PA+15904&hl=en"
STONYCREEK TOWNSHIP POLICE DEPARTMENT,RIVERSIDE VOLUNTEER FIRE DEPT,615 LIBERTY AVE,JOHNSTOWN,PA,15905,"http://maps.google.com/maps?q=615 LIBERTY AVE,+JOHNSTOWN,+PA+15905&hl=en"
STONYCREEK TOWNSHIP POLICE DEPARTMENT,SOLOMON RUN FIRE STATION,176 MT AIRY DRIVE,JOHNSTOWN,PA,15904,"http://maps.google.com/maps?q=176 MT AIRY DRIVE,+JOHNSTOWN,+PA+15904&hl=en"
STONYCREEK TOWNSHIP POLICE DEPARTMENT,STONYCREEK TOWNSHIP MUNICIPAL BUILDING,1610 BEDFORD ST,JOHNSTOWN,PA,15902,"http://maps.google.com/maps?q=1610 BEDFORD ST,+JOHNSTOWN,+PA+15902&hl=en"
TAYLOR COUNTY SHERIFF'S OFFICE,WALMART,1 WALMART LANE,GRAFTON,WV,26354,"http://maps.google.com/maps?q=1 WALMART LANE,+GRAFTON,+WV+26354&hl=en"
TUSCARAWS COUNTY SHERIFFS OFFICE,TRINITY TWIN CITY HOSPITAL,819 N. 1ST STREET,DENNISON,OH,44621,"http://maps.google.com/maps?q=819 N. 1ST STREET,+DENNISON,+OH+44621&hl=en"
TUSCARAWS COUNTY SHERIFFS OFFICE,UNION HOSPITAL SOUTH ENTRANCE,659 BOULEVARD,DOVER,OH,44622,"http://maps.google.com/maps?q=659 BOULEVARD,+DOVER,+OH+44622&hl=en"
UNIVERSITY OF PITTSBURGH MED CTR,"CHILDREN'S HOSPITAL OF PITTSBURGH OF UPMC OUTPATIENT PHARMACY LOBBY (FRIDAY) OCT 26, 2018",4401 PENN AVE,PITTSBURGH,PA,15224,"http://maps.google.com/maps?q=4401 PENN AVE,+PITTSBURGH,+PA+15224&hl=en"
UNIVERSITY OF PITTSBURGH MED CTR,"FALK PHARMACY: FALK MEDICAL BDG 2ND FLOOR LOBBY FRIDAY) OCT 26, 2018",3601 FIFTH AVE.,PITTSBURGH,PA,15213,"http://maps.google.com/maps?q=3601 FIFTH AVE.,+PITTSBURGH,+PA+15213&hl=en"
UNIVERSITY OF PITTSBURGH MED CTR,"FORBES PHARMACY OF WPIC: OXFORD BUILDING 7TH FLOOR (FRIDAY) OCT 26, 2018",3501 FORBES AVE.,PITTSBURGH,PA,15213,"http://maps.google.com/maps?q=3501 FORBES AVE.,+PITTSBURGH,+PA+15213&hl=en"
UNIVERSITY OF PITTSBURGH MED CTR,"FORBES TOWER MAIN LOBBY FRIDAY) OCT 26, 2018",4028 FORBES AVENUE,PITTSBURGH,PA,15260,"http://maps.google.com/maps?q=4028 FORBES AVENUE,+PITTSBURGH,+PA+15260&hl=en"
UNIVERSITY OF PITTSBURGH MED CTR,"HILLMAN CANCER CENTER GROUND FLOOR ATRIUM FRIDAY) OCT 26, 2018",5115 CENTRE AVE.,PITTSBURGH,PA,15232,"http://maps.google.com/maps?q=5115 CENTRE AVE.,+PITTSBURGH,+PA+15232&hl=en"
UNIVERSITY OF PITTSBURGH MED CTR,"MAGEE-WOMENS HOSPITAL OF UPMC MAIN LOBBY, ZERO LEVEL (FRIDAY) OCT 26, 2018",300 HALKET STREET,PITTSBURGH,PA,15213,"http://maps.google.com/maps?q=300 HALKET STREET,+PITTSBURGH,+PA+15213&hl=en"
UNIVERSITY OF PITTSBURGH MED CTR,"U.S. STEEL TOWER-FRI. MYHEALTH@WORK, FLOOR 12 (FRIDAY)FRIDAY) OCT 26, 2018",600 GRANT STREET,PITTSBURGH,PA,15219,"http://maps.google.com/maps?q=600 GRANT STREET,+PITTSBURGH,+PA+15219&hl=en"
UNIVERSITY OF PITTSBURGH MED CTR,"UPMC EAST MAIN LOBBY FRIDAY) OCT 26, 2018",2775 MOSSIDE BLVD,MONROEVILLE,PA,15146,"http://maps.google.com/maps?q=2775 MOSSIDE BLVD,+MONROEVILLE,+PA+15146&hl=en"
UNIVERSITY OF PITTSBURGH MED CTR,"UPMC MCKEESPORT 1-CRAWFORD PATIENT DISCHARGE LOUNGE FRIDAY) OCT 26, 2018",1500 FIFTH AVE,MCKEESPORT,PA,15132,"http://maps.google.com/maps?q=1500 FIFTH AVE,+MCKEESPORT,+PA+15132&hl=en"
UNIVERSITY OF PITTSBURGH MED CTR,"UPMC MERCY: CAFETERIA 2ND FLOOR (FRIDAY) OCT 26, 2018",1400 LOCUST STREET,PITTSBURGH,PA,15219,"http://maps.google.com/maps?q=1400 LOCUST STREET,+PITTSBURGH,+PA+15219&hl=en"
UNIVERSITY OF PITTSBURGH MED CTR,"UPMC PASSAVANT MAIN LOBBY, MCCANDLESS CAMPUS (FRIDAY) OCT 26, 2018",9100 BABCOCK BLVD,PITTSBURGH,PA,15237,"http://maps.google.com/maps?q=9100 BABCOCK BLVD,+PITTSBURGH,+PA+15237&hl=en"
UNIVERSITY OF PITTSBURGH MED CTR,"UPMC PRESBYTERIAN, PRESCRIPTION SHOP FRIDAY) OCT 26, 2018",200 LOTHROP STREET,PITTSBURGH,PA,15213,"http://maps.google.com/maps?q=200 LOTHROP STREET,+PITTSBURGH,+PA+15213&hl=en"
UNIVERSITY OF PITTSBURGH MED CTR,"UPMC SHERWOOD OAKS FRIDAY) OCT 26, 2018",100 NORMAN DRIVE,CRANBERRY TOWNSHIP,PA,16066,"http://maps.google.com/maps?q=100 NORMAN DRIVE,+CRANBERRY TOWNSHIP,+PA+16066&hl=en"
UNIVERSITY OF PITTSBURGH POLICE DEPARTMENT,UNIVERSITY PHARMACY MARK A. NORDENBERG HALL,111 UNIVERSITY PLACE,PITTSBURGH,PA,15213,"http://maps.google.com/maps?q=111 UNIVERSITY PLACE,+PITTSBURGH,+PA+15213&hl=en"
UPPER ST. CLAIR POLICE DEPARTMENT,UPPER ST. CLAIR POLICE DEPARTMENT,1820 MCLAUGHLIN RUN ROAD,PITTSBURGH,PA,15241,"http://maps.google.com/maps?q=1820 MCLAUGHLIN RUN ROAD,+PITTSBURGH,+PA+15241&hl=en"
WEIRTON PD,WEIRTON POLICE DEPT,200 MUNICIPAL PLAZA,WEIRTON,WV,26062,"http://maps.google.com/maps?q=200 MUNICIPAL PLAZA,+WEIRTON,+WV+26062&hl=en"
WETZEL COUNTY SHERIFF'S OFFICE,NEW MARTINSVILLE FIRE DEPT,400 OHIO STREET,NEW MARTINSVILLE,WV,26155,"http://maps.google.com/maps?q=400 OHIO STREET,+NEW MARTINSVILLE,+WV+26155&hl=en"
WETZEL COUNTY SHERIFF'S OFFICE,THE HUNDRED CITY BUILDING,58 FOUR SEASONS DRIVE,HUNDRED,WV,26575,"http://maps.google.com/maps?q=58 FOUR SEASONS DRIVE,+HUNDRED,+WV+26575&hl=en"
WHEELING POLICE DEPT,MT DECHANTAL KROGER,200 MT DECHANTAL RD,WHEELING,WV,26003,"http://maps.google.com/maps?q=200 MT DECHANTAL RD,+WHEELING,+WV+26003&hl=en"
WILKINS TOWNSHIP POLICE DEPT,WILKINS ELK LODGE,718 BROWN AVE,TURTLE CREEK,PA,15145,"http://maps.google.com/maps?q=718 BROWN AVE,+TURTLE CREEK,+PA+15145&hl=en"
WINDBER BOROUGH POLICE DEPT,MARTELLA'S PHARMACY,901 GRAHAM AVE,WINDBER,PA,15963,"http://maps.google.com/maps?q=901 GRAHAM AVE,+WINDBER,+PA+15963&hl=en"
YOUNGSTOWN STATE UNIVERSITY PUBLIC SAFETY,YOUNGSTOWN STATE UNIVERSITY POLICE,266 WEST WOOD STREET,YOUNGSTOWN,OH,44555,"http://maps.google.com/maps?q=266 WEST WOOD STREET,+YOUNGSTOWN,+OH+44555&hl=en"
