Participant,CollectionSite,Address,City,State,Zip,MapURL
10TH JUDICIAL DISTRICT DRUG TASK FORCE,COLONY SQUARE,2524 KEITH ST NW,CLEVELAND,TN,37312,"http://maps.google.com/maps?q=2524 KEITH ST NW,+CLEVELAND,+TN+37312&hl=en"
10TH JUDICIAL DISTRICT DRUG TASK FORCE,CVS,WASHINGTON AVE,ATHENS,TN,37303,"http://maps.google.com/maps?q=WASHINGTON AVE,+ATHENS,+TN+37303&hl=en"
19TH JUDICIAL DISTRICT DRUG TASK FORCE,HARRIS PHARMACY,1157 FORT CAMPBELL BLVD,CLARKSVILLE,TN,37042,"http://maps.google.com/maps?q=1157 FORT CAMPBELL BLVD,+CLARKSVILLE,+TN+37042&hl=en"
19TH JUDICIAL DISTRICT DRUG TASK FORCE,SANGO PHARMACY,2622 MADISON STREET,CLARKSVILLE,TN,37043,"http://maps.google.com/maps?q=2622 MADISON STREET,+CLARKSVILLE,+TN+37043&hl=en"
19TH JUDICIAL DISTRICT DRUG TASK FORCE,WALGREENS PHARMACY,2975 FORT CAMPBELL BLVD,CLARKSVILLE,TN,37042,"http://maps.google.com/maps?q=2975 FORT CAMPBELL BLVD,+CLARKSVILLE,+TN+37042&hl=en"
25TH JUDICIAL DRUG TASK FORCE,25TH JUDICIAL DISTRICT ATTORNEYS,121 N MAIN STREET,RIPLEY,TN,38063,"http://maps.google.com/maps?q=121 N MAIN STREET,+RIPLEY,+TN+38063&hl=en"
ADAIR COUNTY SHERIFF'S OFFICE,ADAIR COUNTY SHERIFF'S OFFICE TACO BELL (PICK UP IN PARKING LOT),899 JAMES TOWN STREET,COLUMBIA,KY,42728,"http://maps.google.com/maps?q=899 JAMES TOWN STREET,+COLUMBIA,+KY+42728&hl=en"
ALEXANDER COUNTY SHERIFF'S OFFICE,EGYPTIAN HIGH SCHOOL,20023 DISWOOD RD,OLIVE BRANCH,IL,62969,"http://maps.google.com/maps?q=20023 DISWOOD RD,+OLIVE BRANCH,+IL+62969&hl=en"
ALGOOD POLICE DEPT.,ALGOOD CITY HALL LOBBY,215 W. MAIN STREET,COOKEVILLE,TN,38506,"http://maps.google.com/maps?q=215 W. MAIN STREET,+COOKEVILLE,+TN+38506&hl=en"
"ANDERSON COUNTY, KY SHERIFF",ANDERSON APOTHECARY,90 PLAZA DRIVE,LAWRENCEBURG,KY,40342,"http://maps.google.com/maps?q=90 PLAZA DRIVE,+LAWRENCEBURG,+KY+40342&hl=en"
ARKANSAS STATE UNIVERSITY POLICE,ARKANSAS STATE UNIVERSITY POLICE PERMANENT DROP BOX,503 ROBINSON ST.,JONESBORO,AR,72401,"http://maps.google.com/maps?q=503 ROBINSON ST.,+JONESBORO,+AR+72401&hl=en"
ARNOLD POLICE DEPARTMENT,ARNOLD CITY HALL,2101 JEFFCO BLVD.,ARNOLD,MO,63010,"http://maps.google.com/maps?q=2101 JEFFCO BLVD.,+ARNOLD,+MO+63010&hl=en"
ATHENS TN POLICE DEPARTMENT,ATHENS POLICE DEPARTMENT,815 NORTH JACKSON STREET,ATHENS,TN,37303,"http://maps.google.com/maps?q=815 NORTH JACKSON STREET,+ATHENS,+TN+37303&hl=en"
ATOKA POLICE DEPT.,ATOKA PD,68 ATOKA-MCLAUGHLIN,ATOKA,TN,38004,"http://maps.google.com/maps?q=68 ATOKA-MCLAUGHLIN,+ATOKA,+TN+38004&hl=en"
BARTLETT PD,KROGER HWY 70 / APPLING RD,7615 HWY 70,BARTLETT,TN,38133,"http://maps.google.com/maps?q=7615 HWY 70,+BARTLETT,+TN+38133&hl=en"
BELLEFONTAINE NEIGHBORS POLICE DEPARTMENT,BELLEFONTAINE NEIGHBORS POLICE DEPARTMENT,9641 BELLEFONTAINE RD,SAINT LOUIS,MO,63137,"http://maps.google.com/maps?q=9641 BELLEFONTAINE RD,+SAINT LOUIS,+MO+63137&hl=en"
BERNIE POLICE DEPARTMENT,BERNIE POLICE DEPARTMENT,206 WEST CRUMB,BERNIE,MO,63822,"http://maps.google.com/maps?q=206 WEST CRUMB,+BERNIE,+MO+63822&hl=en"
BOWLING GREEN- WARREN CO DRUG TASK FORCE,BOWLING GREEN POLICE DEPARTMENT,911 KENTUCKY STREET,BOWLING GREEN,KY,42101,"http://maps.google.com/maps?q=911 KENTUCKY STREET,+BOWLING GREEN,+KY+42101&hl=en"
BOWLING GREEN- WARREN CO DRUG TASK FORCE,KENTUCKY STATE POLICE POST 3,3119 NASHVILLE ROAD,BOWLING GREEN,KY,42101,"http://maps.google.com/maps?q=3119 NASHVILLE ROAD,+BOWLING GREEN,+KY+42101&hl=en"
BOWLING GREEN- WARREN CO DRUG TASK FORCE,SAFETY CITY IN FRONT OF GREENWOOD HIGH SCHOOL,5065 SCOTTSVILLE ROAD,BOWLING GREEN,KY,42104,"http://maps.google.com/maps?q=5065 SCOTTSVILLE ROAD,+BOWLING GREEN,+KY+42104&hl=en"
BRADLEY COUNTY SHERIFF'S OFFICE,COLONY SQUARE,KEITH STREET,CLEVELAND,TN,37312,"http://maps.google.com/maps?q=KEITH STREET,+CLEVELAND,+TN+37312&hl=en"
BREESE POLICE DEPT.,BREESE POLICE DEPT.,500 N. 1ST STREET,BREESE,IL,62230,"http://maps.google.com/maps?q=500 N. 1ST STREET,+BREESE,+IL+62230&hl=en"
BRENTWOOD POLICE DEPARTMENT,BRENTWOOD POLICE DEPARTMENT,5211 MARYLAND WAY,BRENTWOOD,TN,37027,"http://maps.google.com/maps?q=5211 MARYLAND WAY,+BRENTWOOD,+TN+37027&hl=en"
BROWNSVILLE POLICE DEPARTMENT,BROWNSVILLE POLICE DEPARTMENT,118 N.LAFAYETTE ST.,BROWNSVILLE,TN,38012,"http://maps.google.com/maps?q=118 N.LAFAYETTE ST.,+BROWNSVILLE,+TN+38012&hl=en"
CAIRO POLICE DEPARTMENT,CAIRO POLICE DEPARTMENT,1501 WASHINGTON,CAIRO,IL,62914,"http://maps.google.com/maps?q=1501 WASHINGTON,+CAIRO,+IL+62914&hl=en"
CALDWELL COUNTY SHERIFF'S OFFICE,CALDWELL COUNTY SHERIFF,100 E MARKET ST,PRINCETON,KY,42445,"http://maps.google.com/maps?q=100 E MARKET ST,+PRINCETON,+KY+42445&hl=en"
CAMDEN POLICE DEPT.,CAMDEN POLICE DEPT.,119 W. MAIN ST.,CAMDEN,TN,38320,"http://maps.google.com/maps?q=119 W. MAIN ST.,+CAMDEN,+TN+38320&hl=en"
CAPE GIRARDEAU COUNTY SHERIFF'S OFFICE,CAPE GIRARDEAU COUNTY SHERIFF'S OFFICE,216 N. MISSOURI STREET,JACKSON,MO,63755,"http://maps.google.com/maps?q=216 N. MISSOURI STREET,+JACKSON,+MO+63755&hl=en"
CAPE GIRARDEAU POLICE DEPT.,CAPE GIRARDEAU POLICE DEPARTMENT,2530 MARIA LOUISE,CAPE GIRARDEAU,MO,63701,"http://maps.google.com/maps?q=2530 MARIA LOUISE,+CAPE GIRARDEAU,+MO+63701&hl=en"
CARBONDALE POLICE DEPARTMENT,CARBONDALE POLICE DEPARTMENT,501 SOUTH WASHINGTON STREET,CARBONDALE,IL,62901,"http://maps.google.com/maps?q=501 SOUTH WASHINGTON STREET,+CARBONDALE,+IL+62901&hl=en"
CARBONDALE POLICE DEPARTMENT,KROGGER OUTSIDE THE PHARMACY,501 GIANT CITY ROAD,CARBONDALE,IL,62901,"http://maps.google.com/maps?q=501 GIANT CITY ROAD,+CARBONDALE,+IL+62901&hl=en"
CHAPEL HILL POLICE DEPT.,CHAPEL HILL POLICE DEPT.,119 N. HORTON PKWY,CHAPEL HILL,TN,37034,"http://maps.google.com/maps?q=119 N. HORTON PKWY,+CHAPEL HILL,+TN+37034&hl=en"
CHARLESTON DEPARTMENT OF PUBLIC SAFETY,CHARLESTON DEPT PUBLIC SAFETY HEADQUARTERS,204 N MAIN,CHARLESTON,MO,63834,"http://maps.google.com/maps?q=204 N MAIN,+CHARLESTON,+MO+63834&hl=en"
CHEATHAM CO SHERIFF OFFICE,KINGSTON SPRINGS PHARMACY,111 E KINGSTON RD #103,KINGSTON SPRINGS,TN,37082,"http://maps.google.com/maps?q=111 E KINGSTON RD #103,+KINGSTON SPRINGS,+TN+37082&hl=en"
CHEATHAM CO SHERIFF OFFICE,REN-MAR CENTER,240 REN-MAR DRIVE,PLEASANT VIEW,TN,37146,"http://maps.google.com/maps?q=240 REN-MAR DRIVE,+PLEASANT VIEW,+TN+37146&hl=en"
CHEATHAM CO SHERIFF OFFICE,WALMART,1626 HWY 12- SOUTH,ASHLAND CITY,TN,37015,"http://maps.google.com/maps?q=1626 HWY 12- SOUTH,+ASHLAND CITY,+TN+37015&hl=en"
CHESTER COUNTY SHERIFFS OFFICE,CHESTER COUNTY SHERIFF'S OFFICE,333 ERIC BELL DR.,HENDERSON,TN,38340,"http://maps.google.com/maps?q=333 ERIC BELL DR.,+HENDERSON,+TN+38340&hl=en"
CHESTER POLICE DEPARTMENT,CHESTER POLICE DEPARTMENT FRONT LOBBY,1330 SWANWICK ST.,CHESTER,IL,62233,"http://maps.google.com/maps?q=1330 SWANWICK ST.,+CHESTER,+IL+62233&hl=en"
CLARKSVILLE POLICE DEPARTMENT,CLARKSVILLE PD,1970 BROADWAY,CLARKSVILLE,IN,47129,"http://maps.google.com/maps?q=1970 BROADWAY,+CLARKSVILLE,+IN+47129&hl=en"
CLAY COUNTY SHERIFF'S DEPARTMENT,CLAY COUNTY DETENTION CENTER,268 SOUTH SECOND STREET,PIGGOTT,AR,72454,"http://maps.google.com/maps?q=268 SOUTH SECOND STREET,+PIGGOTT,+AR+72454&hl=en"
CLINTON COUNTY SHERIFF'S DEPARTMENT,CLINTON COUNTY SHERIFF'S OFFICE,810 FRANKLIN ST.,CARLYLE,IL,62231,"http://maps.google.com/maps?q=810 FRANKLIN ST.,+CARLYLE,+IL+62231&hl=en"
CLINTON POLICE DEPT.,CLINTON POLICE DEPT.,125 W. BROAD ST.,CLINTON,TN,37716,"http://maps.google.com/maps?q=125 W. BROAD ST.,+CLINTON,+TN+37716&hl=en"
COBDEN POLICE DEPARTMENT,COBDEN POLICE DEPARTMENT,112 EAST MAPLE,COBDEN,IL,62920,"http://maps.google.com/maps?q=112 EAST MAPLE,+COBDEN,+IL+62920&hl=en"
COLLIERVILLE POLICE DEPARTMENT,COLLIERVILLE POLICE DEPARTMENT,156 N. ROWLETT COLLIERVILLE,COLLIERVILLE,TN,38017,"http://maps.google.com/maps?q=156 N. ROWLETT COLLIERVILLE,+COLLIERVILLE,+TN+38017&hl=en"
COLUMBIA POLICE DEPARTMENT,COLUMBIA POLICE DEPARTMENT LOBBY (TRIPLE BOXES),1020 NORTH MAIN STREET,COLUMBIA,IL,62236,"http://maps.google.com/maps?q=1020 NORTH MAIN STREET,+COLUMBIA,+IL+62236&hl=en"
COOKEVILLE POLICE DEPT.,ANDY'S PHARMACY,305 W. SPRING STREET,COOKEVILLE,TN,38501,"http://maps.google.com/maps?q=305 W. SPRING STREET,+COOKEVILLE,+TN+38501&hl=en"
CROSS COUNTY SHERIFF'S OFFICE,CROSS COUNTY SHERIFF'S OFFICE PERMANENT DROP BOX,704 EAST CANAL ST.,WYNNE,AR,72396,"http://maps.google.com/maps?q=704 EAST CANAL ST.,+WYNNE,+AR+72396&hl=en"
CROSSVILLE POLICE DEPT.,CROSSVILLE POLICE DEPT.,115 HENRY ST.,CROSSVILLE,TN,38555,"http://maps.google.com/maps?q=115 HENRY ST.,+CROSSVILLE,+TN+38555&hl=en"
CRYSTAL CITY POLICE DEPARTMENT,CRYSTAL CITY POLICE DEPARTMENT LOBBY,130 MISSISSIPPI AVE,CRYSTAL CITY,MO,63019,"http://maps.google.com/maps?q=130 MISSISSIPPI AVE,+CRYSTAL CITY,+MO+63019&hl=en"
CUMBERLAND CO. SHERIFF'S DEPARTMENT,CUMBERLAND COUNTY SHERIFF,90 JUSTICE CENTER DR,CROSSVILLE,TN,38555,"http://maps.google.com/maps?q=90 JUSTICE CENTER DR,+CROSSVILLE,+TN+38555&hl=en"
DANVILLE POLICE DEPARTMENT,DANVILLE POLICE DEPARTMENT/CITY HALL,445 W MAIN STREET,DANVILLE,KY,40422,"http://maps.google.com/maps?q=445 W MAIN STREET,+DANVILLE,+KY+40422&hl=en"
DAVIDSON COUNTY SHERIFF'S DEPT.,KROGER,7087 HWY 70 S,NASHVILLE,TN,37221,"http://maps.google.com/maps?q=7087 HWY 70 S,+NASHVILLE,+TN+37221&hl=en"
DEA,ARMY NATIONAL GUARD ARMORY,3000 E. DIVISION STREET,EVANSVILLE,IN,47711,"http://maps.google.com/maps?q=3000 E. DIVISION STREET,+EVANSVILLE,+IN+47711&hl=en"
DEA - CHATTANOOGA,WALGREENS,14857 RANKIN AVENUE,DUNLAP,TN,37327,"http://maps.google.com/maps?q=14857 RANKIN AVENUE,+DUNLAP,+TN+37327&hl=en"
DEA-MEMPHIS,KROGER,3860 AUSTIN PEAY HWY,MEMPHIS,TN,38128,"http://maps.google.com/maps?q=3860 AUSTIN PEAY HWY,+MEMPHIS,+TN+38128&hl=en"
DESLOGE POLICE DEPARTMENT,PARKLAND HEALTH MART PHARMACY,617 NORTH COWLING ST,PARK HILLS,MO,63601,"http://maps.google.com/maps?q=617 NORTH COWLING ST,+PARK HILLS,+MO+63601&hl=en"
DEXTER POLICE DEPARTMENT,DEXTER POLICE DEPARTMENT,305 COOPER STREET,DEXTER,MO,63841,"http://maps.google.com/maps?q=305 COOPER STREET,+DEXTER,+MO+63841&hl=en"
DUBOIS CO. SHERIFF DEPT.,HOLLAND FIRE STATION,504 W MAIN ST,HOLLAND,IN,47541,"http://maps.google.com/maps?q=504 W MAIN ST,+HOLLAND,+IN+47541&hl=en"
DUBOIS CO. SHERIFF DEPT.,ST. ANTHONY FIRE STATION,4068 E 450 S,SAINT ANTHONY,IN,47575,"http://maps.google.com/maps?q=4068 E 450 S,+SAINT ANTHONY,+IN+47575&hl=en"
DUNLAP POLICE DEPT,DUNLAP POLICE DEPT,119 CHURCH ST,DUNLAP,TN,37327,"http://maps.google.com/maps?q=119 CHURCH ST,+DUNLAP,+TN+37327&hl=en"
DUQUOIN POLICE DEPARTMENT,DUQUOIN POLICE DEPARTMENT LOBBY,304 E. POPLAR ST,DU QUOIN,IL,62832,"http://maps.google.com/maps?q=304 E. POPLAR ST,+DU QUOIN,+IL+62832&hl=en"
EMINENCE POLICE DEPARTMENT,EMINENCE POLICE DEPARTMENT,45 DEPOT AVE,EMINENCE,KY,40019,"http://maps.google.com/maps?q=45 DEPOT AVE,+EMINENCE,+KY+40019&hl=en"
EUREKA POLICE DEPARTMENT,EUREKA PD,120 CITY HALL DRIVE,EUREKA,MO,63025,"http://maps.google.com/maps?q=120 CITY HALL DRIVE,+EUREKA,+MO+63025&hl=en"
FAIRFIELD GLADE POLICE DEPARTMENT,FOOD CITY,141 TOWN CENTER DR.,CROSSVILLE,TN,38558,"http://maps.google.com/maps?q=141 TOWN CENTER DR.,+CROSSVILLE,+TN+38558&hl=en"
FAIRVIEW HEIGHTS POLICE DEPARTMENT,FAIRVIEW HEIGHTS POLICE DEPT.,10027 BUNKUM ROAD,FAIRVIEW HEIGHTS,IL,62208,"http://maps.google.com/maps?q=10027 BUNKUM ROAD,+FAIRVIEW HEIGHTS,+IL+62208&hl=en"
FAIRVIEW HEIGHTS POLICE DEPARTMENT,ST CLAIR SQUARE,134 ST CLAIR SQUARE,FAIRVIEW HEIGHTS,IL,62208,"http://maps.google.com/maps?q=134 ST CLAIR SQUARE,+FAIRVIEW HEIGHTS,+IL+62208&hl=en"
FARMINGTON POLICE DEPARTMENT,FARMINGTON POLICE DEPT.,310 STE. GENEVIEVE AVE,FARMINGTON,MO,63640,"http://maps.google.com/maps?q=310 STE. GENEVIEVE AVE,+FARMINGTON,+MO+63640&hl=en"
FAYETTE COUNTY SHERIFF'S OFFICE,LANDRY'S PHARMACY,25 WOODBRIDGE ROAD,SOMERVILLE,TN,38068,"http://maps.google.com/maps?q=25 WOODBRIDGE ROAD,+SOMERVILLE,+TN+38068&hl=en"
FESTUS POLICE DEPARTMENT,FESTUS POLICE DEPARTMENT,100 PARK AVE,FESTUS,MO,63028,"http://maps.google.com/maps?q=100 PARK AVE,+FESTUS,+MO+63028&hl=en"
FRANKFORT POLICE DEPARTMENT,FRANKLIN COUNTY HEALTH DEPARTMENT EAST WEST CONNECTOR ROAD,851 EAST WEST CONNECTOR ROAD,FRANKFORT,KY,40601,"http://maps.google.com/maps?q=851 EAST WEST CONNECTOR ROAD,+FRANKFORT,+KY+40601&hl=en"
FREDERICKTOWN POLICE DEPARTMENT,FREDERICKTOWN WALMART SUPERCENTER,1025 WALTON DRIVE,FREDERICKTOWN,MO,63645,"http://maps.google.com/maps?q=1025 WALTON DRIVE,+FREDERICKTOWN,+MO+63645&hl=en"
GIBSON COUNTY SHERIFF'S OFFICE,GIBSON COUNTY SHERIFF'S OFFICE,401 N. COLLEGE STREET,TRENTON,TN,38382,"http://maps.google.com/maps?q=401 N. COLLEGE STREET,+TRENTON,+TN+38382&hl=en"
GILES COUNTY SHERIFF'S DEPT.,FRED'S PHARMACY,1670 W. COLLEGE ST. #1,PULASKI,TN,38478,"http://maps.google.com/maps?q=1670 W. COLLEGE ST. #1,+PULASKI,+TN+38478&hl=en"
GLASGOW POLICE DEPARTMENT,WALMART,2345 HAPPY VALLEY RD.,GLASGOW,KY,42141,"http://maps.google.com/maps?q=2345 HAPPY VALLEY RD.,+GLASGOW,+KY+42141&hl=en"
GOODLETTSVILLE POLICE DEPARTMENT,GOODLETTSVILLE POLICE DEPARTMENT,105 SOUTH MAIN STREET,GOODLETTSVILLE,TN,37072,"http://maps.google.com/maps?q=105 SOUTH MAIN STREET,+GOODLETTSVILLE,+TN+37072&hl=en"
GREENBRIER POLICE DEPARTMENT,GREENBRIER PHARMACY,2239 HWY 41 S,GREENBRIER,TN,37073,"http://maps.google.com/maps?q=2239 HWY 41 S,+GREENBRIER,+TN+37073&hl=en"
GREENE COUNTY SHERIFF'S OFFICE,GREENE COUNTY SHERIFF'S OFFICE PERMANENT DROP BOX,1809 ROCKINGCHAIR RD,PARAGOULD,AR,72450,"http://maps.google.com/maps?q=1809 ROCKINGCHAIR RD,+PARAGOULD,+AR+72450&hl=en"
GREENE COUNTY SHERIFF'S OFFICE,WAL-MART,2802 W. KINGS HWY,PARAGOULD,AR,72450,"http://maps.google.com/maps?q=2802 W. KINGS HWY,+PARAGOULD,+AR+72450&hl=en"
GREENVILLE POLICE DEPARTMENT,BOND COUNTY SHERIFF'S DEPARTMENT,403 S. SECOND ST,GREENVILLE,IL,62246,"http://maps.google.com/maps?q=403 S. SECOND ST,+GREENVILLE,+IL+62246&hl=en"
GREENVILLE POLICE DEPARTMENT,GREENVILLE POLICE DEPARTMENT,404 S. THIRD ST,GREENVILLE,IL,62246,"http://maps.google.com/maps?q=404 S. THIRD ST,+GREENVILLE,+IL+62246&hl=en"
HAMILTON COUNTY SHERIFF'S OFFICE,WALGREENS,121 HARRISON LN.,SODDY DAISY,TN,37379,"http://maps.google.com/maps?q=121 HARRISON LN.,+SODDY DAISY,+TN+37379&hl=en"
HARDIN COUNTY SHERIFF'S OFFICE,KROGER,3040 DOLPHIN DR,ELIZABETHTOWN,KY,42701,"http://maps.google.com/maps?q=3040 DOLPHIN DR,+ELIZABETHTOWN,+KY+42701&hl=en"
HARRIMAN POLICE DEPT.,KROGER FOOD STORE,1820 ROANE STATE HWY,HARRIMAN,TN,37748,"http://maps.google.com/maps?q=1820 ROANE STATE HWY,+HARRIMAN,+TN+37748&hl=en"
HARRIMAN POLICE DEPT.,WALGREENS,1797 ROANE STATE HWY,HARRIMAN,TN,37748,"http://maps.google.com/maps?q=1797 ROANE STATE HWY,+HARRIMAN,+TN+37748&hl=en"
HARRISBURG POLICE DEPARTMENT,HARRISBURG POLICE DEPARTMENT PERMANENT DROP BOX,202 N. EAST STREET,HARRISBURG,AR,72432,"http://maps.google.com/maps?q=202 N. EAST STREET,+HARRISBURG,+AR+72432&hl=en"
HART COUNTY SHERIFF'S OFFICE,HART COUNTY SHERIFF'S OFFICE,116 EAST UNION ST.,MUNFORDVILLE,KY,42765,"http://maps.google.com/maps?q=116 EAST UNION ST.,+MUNFORDVILLE,+KY+42765&hl=en"
HENDERSONVILLE POLICE DEPT.,HENDERSONVILLE PD,#3 EXECUTIVE PARK DR.,HENDERSONVILLE,TN,37075,"http://maps.google.com/maps?q=#3 EXECUTIVE PARK DR.,+HENDERSONVILLE,+TN+37075&hl=en"
HENRY COUNTY SHERIFF,HENRY COUNTY SHERIFF,123 N PROPERTY ROAD,NEW CASTLE,KY,40050,"http://maps.google.com/maps?q=123 N PROPERTY ROAD,+NEW CASTLE,+KY+40050&hl=en"
HOHENWALD POLICE DEPT.,HOHENWALD POLICE DEPT.,106 N. COURT ST.,HOHENWALD,TN,38462,"http://maps.google.com/maps?q=106 N. COURT ST.,+HOHENWALD,+TN+38462&hl=en"
HUMBOLDT POLICE DEPARTMENT,HUMBOLDT PD,1421 OSBORNE ST.,HUMBOLDT,TN,38343,"http://maps.google.com/maps?q=1421 OSBORNE ST.,+HUMBOLDT,+TN+38343&hl=en"
INDIANA BOARD OF PHARMACY,CVS #6256 POSEY COUNTY SHERIFF DEPT,700 E 4TH ST,MOUNT VERNON,IN,47620,"http://maps.google.com/maps?q=700 E 4TH ST,+MOUNT VERNON,+IN+47620&hl=en"
INDIANA STATE POLICE,INDIANA STATE POLICE DISTRICT 34,2209 NEWTON STREET,JASPER,IN,47546,"http://maps.google.com/maps?q=2209 NEWTON STREET,+JASPER,+IN+47546&hl=en"
INDIANA STATE POLICE,INDIANA STATE POLICE DISTRICT 35,19411 HIGHWAY 41 NORTH,EVANSVILLE,IN,47725,"http://maps.google.com/maps?q=19411 HIGHWAY 41 NORTH,+EVANSVILLE,+IN+47725&hl=en"
INDIANA STATE POLICE,INDIANA STATE POLICE DISTRICT 45,8014 HIGHWAY 311,SELLERSBURG,IN,47172,"http://maps.google.com/maps?q=8014 HIGHWAY 311,+SELLERSBURG,+IN+47172&hl=en"
JACKSON COUNTY SHERIFF'S OFFICE,JACKSON COUNTY HEALTH DEPARTMENT (DOUBLE BOXES),415 HEALTH DEPARTMENT ROAD,MURPHYSBORO,IL,62966,"http://maps.google.com/maps?q=415 HEALTH DEPARTMENT ROAD,+MURPHYSBORO,+IL+62966&hl=en"
JACKSON POLICE DEPARTMENT,JACKSON POLICE / FIRE COMPLEX,525 S. HOPE ST.,JACKSON,MO,63755,"http://maps.google.com/maps?q=525 S. HOPE ST.,+JACKSON,+MO+63755&hl=en"
JACKSON-MADISON COUNTY METRO NARCOTICS,CVS PHARMACY,1405 N HIGHLAND AVE,JACKSON,TN,38301,"http://maps.google.com/maps?q=1405 N HIGHLAND AVE,+JACKSON,+TN+38301&hl=en"
JACKSON-MADISON COUNTY METRO NARCOTICS,KROGER,35 W UNIVERSITY PKWY,JACKSON,TN,38305,"http://maps.google.com/maps?q=35 W UNIVERSITY PKWY,+JACKSON,+TN+38305&hl=en"
JACKSON-MADISON COUNTY METRO NARCOTICS,WALGREENS,1405 S HIGHLAND AVE.,JACKSON,TN,38301,"http://maps.google.com/maps?q=1405 S HIGHLAND AVE.,+JACKSON,+TN+38301&hl=en"
JEFFERSON COUNTY SHERIFF'S OFFICE,JEFFERSON COUNTY SHERIFF'S OFFICE,531 COURT PLACE SUITE 600,LOUISVILLE,KY,40202,"http://maps.google.com/maps?q=531 COURT PLACE SUITE 600,+LOUISVILLE,+KY+40202&hl=en"
JOHN A. LOGAN COLLEGE,LOT A JOHN A. LOGAN COLLEGE CAMPUS,700 LOGAN COLLEGE RD,CARTERVILLE,IL,62918,"http://maps.google.com/maps?q=700 LOGAN COLLEGE RD,+CARTERVILLE,+IL+62918&hl=en"
JONESBORO POLICE DEPARTMENT,JONESBORO POLICE DEPARTMENT PERMANENT DROP BOX,1001 S. CARAWAY RD,JONESBORO,AR,72401,"http://maps.google.com/maps?q=1001 S. CARAWAY RD,+JONESBORO,+AR+72401&hl=en"
JONESBORO POLICE DEPARTMENT,KROGER MARKETPLACE,1001 SOUTH CARAWAY ROAD,JONESBORO,AR,72401,"http://maps.google.com/maps?q=1001 SOUTH CARAWAY ROAD,+JONESBORO,+AR+72401&hl=en"
KENNETT POLICE DEPT,KENNETT POLICE DEPT,200 CEDAR,KENNETT,MO,63857,"http://maps.google.com/maps?q=200 CEDAR,+KENNETT,+MO+63857&hl=en"
KENTUCKY STATE POLICE POST 1,KSP POST 1,8366 US 45 NORTH,HICKORY,KY,42051,"http://maps.google.com/maps?q=8366 US 45 NORTH,+HICKORY,+KY+42051&hl=en"
KENTUCKY STATE POLICE POST 11,LAUREL COUNTY HEALTH DEPARTMENT,525 WHITLEY STREET,LONDON,KY,40741,"http://maps.google.com/maps?q=525 WHITLEY STREET,+LONDON,+KY+40741&hl=en"
KENTUCKY STATE POLICE POST 15,KENTUCKY STATE POLICE POST 15,1118 JAMESTOWN STREET,COLUMBIA,KY,42728,"http://maps.google.com/maps?q=1118 JAMESTOWN STREET,+COLUMBIA,+KY+42728&hl=en"
KENTUCKY STATE POLICE POST 16,KSP POST 16,8298 KEACH DRIVE,HENDERSON,KY,42420,"http://maps.google.com/maps?q=8298 KEACH DRIVE,+HENDERSON,+KY+42420&hl=en"
KENTUCKY STATE POLICE POST 2,KENTUCKY STATE POLICE POST 2,1000 WESTERN KENTUCKY PARKWAY,NORTONVILLE,KY,42442,"http://maps.google.com/maps?q=1000 WESTERN KENTUCKY PARKWAY,+NORTONVILLE,+KY+42442&hl=en"
KENTUCKY STATE POLICE POST 3,KENTUCKY STATE POLICE POST 3,3119NASHVILLE RD.,BOWLING GREEN,KY,42101,"http://maps.google.com/maps?q=3119,+BOWLING GREEN,+KY+42101&hl=en"
KENTUCKY STATE POLICE POST 4,KENTUCKY STATE POLICE POST 4,1055 NORTH MULBERRY ST,ELIZABETHTOWN,KY,42701,"http://maps.google.com/maps?q=1055 NORTH MULBERRY ST,+ELIZABETHTOWN,+KY+42701&hl=en"
KENTUCKY STATE POLICE POST 5,KENTUCKY STATE POLICE,160 CITATION LANE,CAMPBELLSBURG,KY,40011,"http://maps.google.com/maps?q=160 CITATION LANE,+CAMPBELLSBURG,+KY+40011&hl=en"
KENTUCKY STATE POLICE POST 7,KENTUCKY STATE POLICE POST 7,"699 EASTERN BYPASS, RICHMOND, KY",RICHMOND,KY,40475,"http://maps.google.com/maps?q=699 EASTERN BYPASS, RICHMOND, KY,+RICHMOND,+KY+40475&hl=en"
KINGSTON POLICE DEPT.,FOOD CITY,1000 LADD LANDING BLVD.,KINGSTON,TN,37763,"http://maps.google.com/maps?q=1000 LADD LANDING BLVD.,+KINGSTON,+TN+37763&hl=en"
KNOXVILLE POLICE DEPARTMENT,FOOD CITY,4805 N BROADWAY,KNOXVILLE,TN,37918,"http://maps.google.com/maps?q=4805 N BROADWAY,+KNOXVILLE,+TN+37918&hl=en"
LAFAYETTE POLICE DEPT.,LAFAYETTE POLICE DEPT,118 E LOCUST ST,LAFAYETTE,TN,37083,"http://maps.google.com/maps?q=118 E LOCUST ST,+LAFAYETTE,+TN+37083&hl=en"
LAVERGNE POLICE DEPARTMENT,KROGER,5145 MURFREESBORO RD,LA VERGNE,TN,37086,"http://maps.google.com/maps?q=5145 MURFREESBORO RD,+LA VERGNE,+TN+37086&hl=en"
LAWRENCE CO. SHERIFF'S DEPT.,WLX COUNTRY CAFE,1212 N. LOCUST AVE,LAWRENCEBURG,TN,38464,"http://maps.google.com/maps?q=1212 N. LOCUST AVE,+LAWRENCEBURG,+TN+38464&hl=en"
LAWRENCE CO. SHERIFF'S OFFICE,LAWRENCE CO. SHERIFF'S OFFICE,1306 LEXINGTON AVE,LAWRENCEVILLE,IL,62439,"http://maps.google.com/maps?q=1306 LEXINGTON AVE,+LAWRENCEVILLE,+IL+62439&hl=en"
LAWRENCE COUNTY SHERIFF'S DEPARTMENT,LAWRENCE COUNTY SHERIFF'S OFFICE PERMANENT DROP BOX,315 W MAIN STREET,WALNUT RIDGE,AR,72476,"http://maps.google.com/maps?q=315 W MAIN STREET,+WALNUT RIDGE,+AR+72476&hl=en"
LEBANON POLICE DEPARTMENT,WALGREENS,606 S. CUMBERLAND ST.,LEBANON,TN,37087,"http://maps.google.com/maps?q=606 S. CUMBERLAND ST.,+LEBANON,+TN+37087&hl=en"
LEITCHFIELD POLICE DEPARTMENT,LEITCHFIELD POLICE DEPT,117 SOUTH MAIN STREET,LEITCHFIELD,KY,42754,"http://maps.google.com/maps?q=117 SOUTH MAIN STREET,+LEITCHFIELD,+KY+42754&hl=en"
LEXINGTON POLICE DEPARTMENT,KENTUCKY AMERICAN WATER COMPANY,2300 RICHMOND RD,LEXINGTON,KY,40502,"http://maps.google.com/maps?q=2300 RICHMOND RD,+LEXINGTON,+KY+40502&hl=en"
LINCOLN CO. SHERIFF'S DEPT,LINCOLN COUNTY HIGH SCHOOL,1233 HUNTSVILLE HWY,FAYETTEVILLE,TN,37334,"http://maps.google.com/maps?q=1233 HUNTSVILLE HWY,+FAYETTEVILLE,+TN+37334&hl=en"
LIVINGSTON POLICE DEPARTMENT,LIVINGSTON POLICE DEPARTMENT,900 N. CHURCH ST,LIVINGSTON,TN,38570,"http://maps.google.com/maps?q=900 N. CHURCH ST,+LIVINGSTON,+TN+38570&hl=en"
LOUISVILLE METRO POLICE DEPARTMENT,KROGER,9440 BROWNBORO RD,LOUISVILLE,KY,40241,"http://maps.google.com/maps?q=9440 BROWNBORO RD,+LOUISVILLE,+KY+40241&hl=en"
LOUISVILLE METRO POLICE DEPARTMENT,KROGER PARKING LOT,291 N HUBBARD'S LN,LOUISVILLE,KY,40207,"http://maps.google.com/maps?q=291 N HUBBARD'S LN,+LOUISVILLE,+KY+40207&hl=en"
LOUISVILLE METRO POLICE DEPARTMENT,WALGREENS,2021 HIKES LANE,LOUISVILLE,KY,40218,"http://maps.google.com/maps?q=2021 HIKES LANE,+LOUISVILLE,+KY+40218&hl=en"
LOUISVILLE METRO POLICE DEPARTMENT,WALGREENS,3980 DIXIE HIGHWAY,LOUISVILLE,KY,40216,"http://maps.google.com/maps?q=3980 DIXIE HIGHWAY,+LOUISVILLE,+KY+40216&hl=en"
LOUISVILLE METRO POLICE DEPARTMENT,WALGREENS,7338 DIXIE HIGHWAY,LOUISVILLE,KY,40258,"http://maps.google.com/maps?q=7338 DIXIE HIGHWAY,+LOUISVILLE,+KY+40258&hl=en"
MADISONVILLE POLICE DEPT.,MADISONVILLE POLICE DEPARTMENT,315 ENGLEWOOD RD.,MADISONVILLE,TN,37354,"http://maps.google.com/maps?q=315 ENGLEWOOD RD.,+MADISONVILLE,+TN+37354&hl=en"
MALDEN POLICE DEPARTMENT,MALDEN POLICE DEPT.,112 E LACLEDE,MALDEN,MO,63863,"http://maps.google.com/maps?q=112 E LACLEDE,+MALDEN,+MO+63863&hl=en"
MANCHESTER POLICE DEPARTMENT,MANCHESTER POLICE DEPARTMENT DRUG TAKE BACK DROP BOX,200 WEST FORT STREET,MANCHESTER,TN,37355,"http://maps.google.com/maps?q=200 WEST FORT STREET,+MANCHESTER,+TN+37355&hl=en"
MARION COUNTY SHERIFF'S DEPT,MARION COUNTY SHERIFF'S DEPT,204 N. WASHINGTON STREET,SALEM,IL,62881,"http://maps.google.com/maps?q=204 N. WASHINGTON STREET,+SALEM,+IL+62881&hl=en"
MARION POLICE DEPARTMENT,MARION POLICE DEPARTMENT CHIEF RAY O'NEAL,217 SOUTH MAIN STREET,MARION,KY,42064,"http://maps.google.com/maps?q=217 SOUTH MAIN STREET,+MARION,+KY+42064&hl=en"
MARION POLICE DEPARTMENT,MARION POLICE DEPARTMENT PERMANENT DROP BOX,3477 HWY 77,MARION,AR,72364,"http://maps.google.com/maps?q=3477 HWY 77,+MARION,+AR+72364&hl=en"
MARSHALL COUNTY SHERIFF'S OFFICE,MARSHALL COUNTY SHERIFF'S OFFICE,209 1ST AVE N.,LEWISBURG,TN,37091,"http://maps.google.com/maps?q=209 1ST AVE N.,+LEWISBURG,+TN+37091&hl=en"
MARYVILLE POLICE DEPT,MARYVILLE POLICE DEPARTMENT,2500 N. CENTER,MARYVILLE,IL,62062,"http://maps.google.com/maps?q=2500 N. CENTER,+MARYVILLE,+IL+62062&hl=en"
MASSAC COUNTY SHERIFF'S DEPT,MASSAC COUNTY SHERIFF'S DEPT LOCATED IN THE LOBBY,515 MARKET ST,METROPOLIS,IL,62960,"http://maps.google.com/maps?q=515 MARKET ST,+METROPOLIS,+IL+62960&hl=en"
MCLEANSBORO POLICE DEPARTMENT,MCLEANSBORO FIRE DEPARTMENT,108 SOUTH MARSHALL AVE,MCLEANSBORO,IL,62859,"http://maps.google.com/maps?q=108 SOUTH MARSHALL AVE,+MCLEANSBORO,+IL+62859&hl=en"
MCMINN COUNTY SHERIFF OFFICE,CVS,928 DECATUR PIKE,ATHENS,TN,37303,"http://maps.google.com/maps?q=928 DECATUR PIKE,+ATHENS,+TN+37303&hl=en"
MCMINNVILLE POLICE DEPT.,MCMINNVILLE POLICE DEPARTMENT,204 RED ROAD,MCMINNVILLE,TN,37110,"http://maps.google.com/maps?q=204 RED ROAD,+MCMINNVILLE,+TN+37110&hl=en"
MEMPHIS POLICE DEPT.,HERENTON RENAISSANCE CENTER,990 COLLEGE PARK DR,MEMPHIS,TN,38126,"http://maps.google.com/maps?q=990 COLLEGE PARK DR,+MEMPHIS,+TN+38126&hl=en"
MEMPHIS POLICE DEPT.,KROGER,3444 PLAZA AVE.,MEMPHIS,TN,38111,"http://maps.google.com/maps?q=3444 PLAZA AVE.,+MEMPHIS,+TN+38111&hl=en"
MEMPHIS POLICE DEPT.,ST. LOUIS CATHOLIC CHURCH,203 S. WHITE STATION RD,MEMPHIS,TN,38117,"http://maps.google.com/maps?q=203 S. WHITE STATION RD,+MEMPHIS,+TN+38117&hl=en"
"MERCER COUNTY, KY SHERIFFS OFFICE",MERCER COUNTY SHERIFFS OFFICE,207 WEST LEXINGTON ST,HARRODSBURG,KY,40330,"http://maps.google.com/maps?q=207 WEST LEXINGTON ST,+HARRODSBURG,+KY+40330&hl=en"
METRO NASHVILLE POLICE DEPARTMENT,KROGER,5544 OLD HICKORY BLVD.,HERMITAGE,TN,37076,"http://maps.google.com/maps?q=5544 OLD HICKORY BLVD.,+HERMITAGE,+TN+37076&hl=en"
METRO NASHVILLE POLICE DEPARTMENT,KROGER,6690 NOLENSVILLE RD.,BRENTWOOD,TN,37027,"http://maps.google.com/maps?q=6690 NOLENSVILLE RD.,+BRENTWOOD,+TN+37027&hl=en"
METRO NASHVILLE POLICE DEPARTMENT,THE APOTHECARY,226 11TH AVE SOUTH,NASHVILLE,TN,37203,"http://maps.google.com/maps?q=226 11TH AVE SOUTH,+NASHVILLE,+TN+37203&hl=en"
MIDDLE TN STATE UNIVERSITY POLICE DEPARTMENT,"MTSU HEALTH SERVICES OCTOBER 25, 2018",1848 BLUE RAIDER DRIVE,MURFREESBORO,TN,37132,"http://maps.google.com/maps?q=1848 BLUE RAIDER DRIVE,+MURFREESBORO,+TN+37132&hl=en"
MILAN POLICE DEPARTMENT,MILAN PUBLIC SAFETY BUILDING DROP BOX IN LOBBY,7029 TELECOM DRIVE,MILAN,TN,38358,"http://maps.google.com/maps?q=7029 TELECOM DRIVE,+MILAN,+TN+38358&hl=en"
MILLINGTON POLICE DEPT.,KROGER,8039 HWY 51,MILLINGTON,TN,38053,"http://maps.google.com/maps?q=8039 HWY 51,+MILLINGTON,+TN+38053&hl=en"
MILLINGTON POLICE DEPT.,WALMART,8445 HWY 51,MILLINGTON,TN,38053,"http://maps.google.com/maps?q=8445 HWY 51,+MILLINGTON,+TN+38053&hl=en"
MONROE COUNTY SHERIFF'S OFFICE,MONROE COUNTY SHERIFF'S DEPT,319 HICKORY ST,MADISONVILLE,TN,37354,"http://maps.google.com/maps?q=319 HICKORY ST,+MADISONVILLE,+TN+37354&hl=en"
MONTEREY POLICE DEPARTMENT,FRED'S PHARMACY,250 E STRATTON AVE,MONTEREY,TN,38574,"http://maps.google.com/maps?q=250 E STRATTON AVE,+MONTEREY,+TN+38574&hl=en"
MONTEREY POLICE DEPARTMENT,MONTEREY DRUGS,201F NORTH ELMORE ST.,MONTEREY,TN,38574,"http://maps.google.com/maps?q=201F NORTH ELMORE ST.,+MONTEREY,+TN+38574&hl=en"
MT. VERNON POLICE DEPARTMENT,MT. VERNON POLICE DEPARTMENT,211 N. 10TH ST,MOUNT VERNON,IL,62864,"http://maps.google.com/maps?q=211 N. 10TH ST,+MOUNT VERNON,+IL+62864&hl=en"
MUNFORD POLICE DEPARTMENT,MUNFORD POLICE DEPARTMENT,79 COLLEGE STREET,MUNFORD,TN,38058,"http://maps.google.com/maps?q=79 COLLEGE STREET,+MUNFORD,+TN+38058&hl=en"
MURPHYSBORO POLICE DEPARTMENT,KROGERS,550 E. INDUSTRIAL PARK ROADLOT 1,MURPHYSBORO,IL,62966,"http://maps.google.com/maps?q=550 E. INDUSTRIAL PARK ROAD,+MURPHYSBORO,+IL+62966&hl=en"
NEW BADEN POLICE DEPARTMENT,NEW BADEN POLICE DEPARTMENT,100 E. HANOVER STREET,NEW BADEN,IL,62265,"http://maps.google.com/maps?q=100 E. HANOVER STREET,+NEW BADEN,+IL+62265&hl=en"
NOLENSVILLE POLICE DEPARTMENT,NOLENSVILLE PD,7218 NOLENSVILLE RD,NOLENSVILLE,TN,37135,"http://maps.google.com/maps?q=7218 NOLENSVILLE RD,+NOLENSVILLE,+TN+37135&hl=en"
O'FALLON POLICE DEPARTMENT,O'FALLON PUBLIC SAFETY BUILDING,285 NORTH SEVEN HILLS ROAD,O FALLON,IL,62269,"http://maps.google.com/maps?q=285 NORTH SEVEN HILLS ROAD,+O FALLON,+IL+62269&hl=en"
OAK RIDGE POLICE DEPT.,OAK RIDGE POLICE DEPT.,200 S. TULANE AVE,OAK RIDGE,TN,37830,"http://maps.google.com/maps?q=200 S. TULANE AVE,+OAK RIDGE,+TN+37830&hl=en"
OLDHAM COUNTY SHERIFF'S OFFICE,LAGRANGE FIRE DEPARTMENT STATION 2,3637 W HWY 146,BUCKNER,KY,40010,"http://maps.google.com/maps?q=3637 W HWY 146,+BUCKNER,+KY+40010&hl=en"
OLDHAM COUNTY SHERIFF'S OFFICE,NORTH OLDHAM FIRE DEPARTMENT,1660 HIGHWAY 1793,GOSHEN,KY,40026,"http://maps.google.com/maps?q=1660 HIGHWAY 1793,+GOSHEN,+KY+40026&hl=en"
OLDHAM COUNTY SHERIFF'S OFFICE,OLDHAM COUNTY POLICE DEPARTMENT,1855 NORTH HIGHWAY 393,LA GRANGE,KY,40031,"http://maps.google.com/maps?q=1855 NORTH HIGHWAY 393,+LA GRANGE,+KY+40031&hl=en"
OLNEY POLICE DEPARTMENT,OLNEY POLICE DEPARTMENT,320 S. WHITTLE AVE,OLNEY,IL,62450,"http://maps.google.com/maps?q=320 S. WHITTLE AVE,+OLNEY,+IL+62450&hl=en"
OVERTON COUNTY SHERIFF'S DEPT.,FRED'S PHARMACY,890 OVERTON PLAZA,LIVINGSTON,TN,38570,"http://maps.google.com/maps?q=890 OVERTON PLAZA,+LIVINGSTON,+TN+38570&hl=en"
PACIFIC POLICE DEPARTMENT,PACIFIC POLICE DEPARTMENT,300 HOVEN DRIVE,PACIFIC,MO,63069,"http://maps.google.com/maps?q=300 HOVEN DRIVE,+PACIFIC,+MO+63069&hl=en"
PADUCAH POLICE DEPARTMENT,KENTUCKY OAKS MALL MAIN ENTRANCE,5101 HINKLEVILLE RD,PADUCAH,KY,42001,"http://maps.google.com/maps?q=5101 HINKLEVILLE RD,+PADUCAH,+KY+42001&hl=en"
PARK HILLS POLICE DEPARTMENT,PARK HILLS POLICE DEPARTMENT,8 MUNICIPAL ST,PARK HILLS,MO,63601,"http://maps.google.com/maps?q=8 MUNICIPAL ST,+PARK HILLS,+MO+63601&hl=en"
PERRY COUNTY RECYCLING MANGEMENT DISTIRCT,MEMORIAL HEALTH BRISTOW,26020 IN-145,BRISTOW,IN,47515,"http://maps.google.com/maps?q=26020 IN-145,+BRISTOW,+IN+47515&hl=en"
PERRY COUNTY RECYCLING MANGEMENT DISTIRCT,TELL CITY FIRE STATION,707 MOZART STREET,TELL CITY,IN,47586,"http://maps.google.com/maps?q=707 MOZART STREET,+TELL CITY,+IN+47586&hl=en"
PERRY COUNTY SHERIFF,PERRY COUNTY SHERIFF,710 S. KINGSHIGHWAY ST,PERRYVILLE,MO,63775,"http://maps.google.com/maps?q=710 S. KINGSHIGHWAY ST,+PERRYVILLE,+MO+63775&hl=en"
PERRY COUNTY SHERIFF'S OFFICE,PERRY COUNTY SHERIFF'S OFFICE,12 E. WATER STREET,PINCKNEYVILLE,IL,62274,"http://maps.google.com/maps?q=12 E. WATER STREET,+PINCKNEYVILLE,+IL+62274&hl=en"
PERRYVILLE POLICE DEPARTMENT,PERRYVILLE POLICE DEPARTMENT,120 N. JACKSON STREET,PERRYVILLE,MO,63775,"http://maps.google.com/maps?q=120 N. JACKSON STREET,+PERRYVILLE,+MO+63775&hl=en"
PEVELY POLICE DEPARTMENT,PEVELY POLICE DEPARTMENT,401 MAIN STREET,PEVELY,MO,63070,"http://maps.google.com/maps?q=401 MAIN STREET,+PEVELY,+MO+63070&hl=en"
PIGGOTT POLICE DEPARTMENT,PIGGOTT POLICE DEPARTMENT/CITY HALL,194 WEST COURT STREET,PIGGOTT,AR,72454,"http://maps.google.com/maps?q=194 WEST COURT STREET,+PIGGOTT,+AR+72454&hl=en"
POCAHONTAS POLICE DEPARTMENT,POCAHONTAS CITY HALL PERMANENT DROP BOX,410 N. MARR,POCAHONTAS,AR,72455,"http://maps.google.com/maps?q=410 N. MARR,+POCAHONTAS,+AR+72455&hl=en"
POINSETT COUNTY SHERIFF'S OFFICE,POINSETT COUNTY DETENTION CENTER PERMANENT DROP BOX,1500 JUSTICE DRIVE,HARRISBURG,AR,72432,"http://maps.google.com/maps?q=1500 JUSTICE DRIVE,+HARRISBURG,+AR+72432&hl=en"
POPLAR BLUFF POLICE DEPARTMENT,POPLAR BLUFF POLICE DEPARTMENT,1111 POPLAR ST,POPLAR BLUFF,MO,63901,"http://maps.google.com/maps?q=1111 POPLAR ST,+POPLAR BLUFF,+MO+63901&hl=en"
PROSPECT POLICE DEPARTMENT,KROGER,5929 TIMBER RIDGE DR.,PROSPECT,KY,40059,"http://maps.google.com/maps?q=5929 TIMBER RIDGE DR.,+PROSPECT,+KY+40059&hl=en"
PULASKI COUNTY SERIFF'S OFFICE,KROGER PHARMACY SOUTH LOCATION STONEGATE CENTER,50 STONEGATE CENTER,SOMERSET,KY,42501,"http://maps.google.com/maps?q=50 STONEGATE CENTER,+SOMERSET,+KY+42501&hl=en"
PULASKI SHERIFF'S OFFICE,PULASKI SHERIFF'S OFFICE,500 ILLINOIS AVEROOM A,MOUND CITY,IL,62963,"http://maps.google.com/maps?q=500 ILLINOIS AVE,+MOUND CITY,+IL+62963&hl=en"
PUTNAM COUNTY SHERIFF DEPT.,NUNALLY DRUG STORE,226 WEST MAIN STREET,BAXTER,TN,38544,"http://maps.google.com/maps?q=226 WEST MAIN STREET,+BAXTER,+TN+38544&hl=en"
PUTNAM COUNTY SHERIFF DEPT.,WALGREENS,950 N WASHINGTON AVE,COOKEVILLE,TN,38501,"http://maps.google.com/maps?q=950 N WASHINGTON AVE,+COOKEVILLE,+TN+38501&hl=en"
PUTNAM COUNTY SHERIFF DEPT.,WALGREENS 5474,500 SOUTH WILLOW AVENUE,COOKEVILLE,TN,38501,"http://maps.google.com/maps?q=500 SOUTH WILLOW AVENUE,+COOKEVILLE,+TN+38501&hl=en"
PUXICO POLICE DEPARTMENT,PUXICO POLICE DEPARTMENT,141 N. HICKMAN,PUXICO,MO,63960,"http://maps.google.com/maps?q=141 N. HICKMAN,+PUXICO,+MO+63960&hl=en"
RED BUD POLICE DEPARTMENT (5 SETS),COULTERVILLE POLICE DEPARTMENT,114 N. 4TH STREET,COULTERVILLE,IL,62237,"http://maps.google.com/maps?q=114 N. 4TH STREET,+COULTERVILLE,+IL+62237&hl=en"
RED BUD POLICE DEPARTMENT (5 SETS),DOEHRINGS PHARMACY,143 S. WASHINGTON,NASHVILLE,IL,62263,"http://maps.google.com/maps?q=143 S.  WASHINGTON,+NASHVILLE,+IL+62263&hl=en"
RED BUD POLICE DEPARTMENT (5 SETS),RANDOLPH COUNTY SHERIFF,200 W. BUENA VISTA,CHESTER,IL,62233,"http://maps.google.com/maps?q=200 W. BUENA VISTA,+CHESTER,+IL+62233&hl=en"
RED BUD POLICE DEPARTMENT (5 SETS),RED BUD POLICE DEPARTMENT,200 E. MARKET,RED BUD,IL,62278,"http://maps.google.com/maps?q=200 E. MARKET,+RED BUD,+IL+62278&hl=en"
RED BUD POLICE DEPARTMENT (5 SETS),SPARTA POLICE DEPARTMENT,112 W. JACKSON,SPARTA,IL,62286,"http://maps.google.com/maps?q=112 W. JACKSON,+SPARTA,+IL+62286&hl=en"
REYNOLDS COUNTY SHERIFF'S OFFICE,REYNOLDS COUNTY SHERIFF'S OFFICE,2319 GREEN ST.,CENTERVILLE,MO,63633,"http://maps.google.com/maps?q=2319 GREEN ST.,+CENTERVILLE,+MO+63633&hl=en"
RHEA COUNTY SHERIFF'S DEPT.,"SPRING CITY, CITY HALL TENT LOCATED IN THE FRONT PARKING LOT",229 FRONT STREET,SPRING CITY,TN,37381,"http://maps.google.com/maps?q=229 FRONT STREET,+SPRING CITY,+TN+37381&hl=en"
RHEA COUNTY SHERIFF'S DEPT.,WALMART SUPERCENTER TENT LOCATED AT THE PARKING LOT ENTRANCE,3034 RHEA COUNTY HWY,DAYTON,TN,37321,"http://maps.google.com/maps?q=3034 RHEA COUNTY HWY,+DAYTON,+TN+37321&hl=en"
RICHMOND POLICE DEPARTMENT,RICHMOND POLICE DEPARTMENT,1721 LEXINGTON RD,RICHMOND,KY,40475,"http://maps.google.com/maps?q=1721 LEXINGTON RD,+RICHMOND,+KY+40475&hl=en"
ROBERTSON COUNTY SHERIFF'S OFFICE,CVS,903 MEMORIAL BLVD.,SPRINGFIELD,TN,37172,"http://maps.google.com/maps?q=903 MEMORIAL BLVD.,+SPRINGFIELD,+TN+37172&hl=en"
ROCKY TOP POLICE DEPARTMENT,ROCKY TOP POLICE AND FIRE DEPT.,104 LAWSON ST.,ROCKY TOP,TN,37769,"http://maps.google.com/maps?q=104 LAWSON ST.,+ROCKY TOP,+TN+37769&hl=en"
RUSSELL COUNTY SHERIFF'S OFFICE,RUSSELL COUNTY SHERIFF'S OFFICE,410 MONUMENT SQUARE #109,JAMESTOWN,KY,42629,"http://maps.google.com/maps?q=410 MONUMENT SQUARE #109,+JAMESTOWN,+KY+42629&hl=en"
RUTHERFORD COUNTY SHERIFF'S OFFICE,RUTHERFORD COUNTY SHERIFF'S OFFICE,940 NEW SALEM HIGHWAY,MURFREESBORO,TN,37129,"http://maps.google.com/maps?q=940 NEW SALEM HIGHWAY,+MURFREESBORO,+TN+37129&hl=en"
RUTHERFORD COUNTY SHERIFF'S OFFICE,STONE CREST MEDICAL CENTER,200 STONECREST BLVD.,SMYRNA,TN,37167,"http://maps.google.com/maps?q=200 STONECREST BLVD.,+SMYRNA,+TN+37167&hl=en"
SALEM POLICE DEPARTMENT,SALEM POLICE DEPARTMENT,201 S. ROTAN AVE.,SALEM,IL,62881,"http://maps.google.com/maps?q=201 S. ROTAN AVE.,+SALEM,+IL+62881&hl=en"
SALINE COUNTY SHERIFF'S OFFICE,SALINE COUNTY COURTHOUSE PARKING LOT,10 E POPLAR ST,HARRISBURG,IL,62946,"http://maps.google.com/maps?q=10 E POPLAR ST,+HARRISBURG,+IL+62946&hl=en"
SCOTT COUNTY PARTNERSHIP PFS / CEASE OF SCOTT CO.,SCOTT COUNTY SHERIFF'S DEPARTMENT LOBBY 24/7 CONTROLLED AND NON-CONTROLLED MEDICATION DROP,111 S. FIRST ST.,SCOTTSBURG,IN,47170,"http://maps.google.com/maps?q=111 S. FIRST ST.,+SCOTTSBURG,+IN+47170&hl=en"
SCOTT COUNTY PARTNERSHIP PFS / CEASE OF SCOTT CO.,"SCOTTSBURG WALMART DEA DRUG TAKE BACK: OCTOBER 27, 2018, 10AM-2PM",1618 W. MCCLAIN AVE.,SCOTTSBURG,IN,47170,"http://maps.google.com/maps?q=1618 W. MCCLAIN AVE.,+SCOTTSBURG,+IN+47170&hl=en"
SCOTT COUNTY SHERIFF'S OFFICE,SCOTT COUNTY SHERIFF'S OFFICE,575 SCOTT HIGH DRIVE,HUNTSVILLE,TN,37756,"http://maps.google.com/maps?q=575 SCOTT HIGH DRIVE,+HUNTSVILLE,+TN+37756&hl=en"
SHELBY COUNTY CORONER OFFICE,SHELBY COUNTY CORONER'S OFFICE,419 WASHINGTON STREET,SHELBYVILLE,KY,40065,"http://maps.google.com/maps?q=419 WASHINGTON STREET,+SHELBYVILLE,+KY+40065&hl=en"
SIKESTON DEPARTMENT OF PUBLIC SAFETY,SIKESTON DEPARTMENT OF PUBLIC SAFETY,201 NORTH KINGSHIGHWAY,SIKESTON,MO,63801,"http://maps.google.com/maps?q=201 NORTH KINGSHIGHWAY,+SIKESTON,+MO+63801&hl=en"
SPARTA POLICE DEPARTMENT,WALGREEN DRUG STORE,483 WEST BOCKMAN WAY,SPARTA,TN,38583,"http://maps.google.com/maps?q=483 WEST BOCKMAN WAY,+SPARTA,+TN+38583&hl=en"
SPRING HILL POLICE DEPARTMENT,B & B PHARMACY,5407 MAIN STREET,SPRING HILL,TN,37174,"http://maps.google.com/maps?q=5407 MAIN STREET,+SPRING HILL,+TN+37174&hl=en"
SPRING HILL POLICE DEPARTMENT,SPRING HILL POLICE DEPARTMENT LOWER LEVEL,199 TOWN CENTER PKWY - LOWER LEVEL,SPRING HILL,TN,37174,"http://maps.google.com/maps?q=199 TOWN CENTER PKWY - LOWER LEVEL,+SPRING HILL,+TN+37174&hl=en"
ST. CLAIR COUNTY SHERIFF'S DEPARTMENT,ST CLAIR COUNTY SHERIFF'S DEPARTMENT,700 NORTH 5TH STREET,BELLEVILLE,IL,62220,"http://maps.google.com/maps?q=700 NORTH 5TH STREET,+BELLEVILLE,+IL+62220&hl=en"
ST. CLAIRE STATE'S ATTORNEY'S OFFICE,ST. CLAIR COURTHOUSE,10 PUBLIC SQUARE,BELLEVILLE,IL,62220,"http://maps.google.com/maps?q=10 PUBLIC SQUARE,+BELLEVILLE,+IL+62220&hl=en"
ST. LOUIS COUNTY POLICE DEPARTMENT,CITY OF FENTON PRECINCT (IN MUNICIPAL BUILDING),625 NEW SMIZER MILL RD,FENTON,MO,63026,"http://maps.google.com/maps?q=625 NEW SMIZER MILL RD,+FENTON,+MO+63026&hl=en"
ST. LOUIS COUNTY POLICE DEPARTMENT,CITY OF GREEN PARK CITY HALL,11100 MUELLER ROAD #2,GREEN PARK,MO,63123,"http://maps.google.com/maps?q=11100 MUELLER ROAD #2,+GREEN PARK,+MO+63123&hl=en"
ST. LOUIS COUNTY POLICE DEPARTMENT,GRANTWOOD VILLAGE CITY HALL,ONE MISSIONARY RIDGE,SAINT LOUIS,MO,63123,"http://maps.google.com/maps?q=ONE MISSIONARY RIDGE,+SAINT LOUIS,+MO+63123&hl=en"
ST. LOUIS COUNTY POLICE DEPARTMENT,SOUTH COUNTY PRECINCT,324 SAPPINGTON BARRACKS,SAINT LOUIS,MO,63125,"http://maps.google.com/maps?q=324 SAPPINGTON BARRACKS,+SAINT LOUIS,+MO+63125&hl=en"
ST. LOUIS COUNTY POLICE DEPARTMENT,WEST COUNTY PRECINCT,232 VANCE ROAD,VALLEY PARK,MO,63088,"http://maps.google.com/maps?q=232 VANCE ROAD,+VALLEY PARK,+MO+63088&hl=en"
ST. LOUIS UNIVERSITY-DEPARTMENT OF PUBLIC SAFETY,WOOL CENTER - 27TH & 29TH @ DEBURG HALL DEPARTMENT OF PUBLIC SAFETY-SAINT LOUIS UNIVERSITY,3545 LINDELL DRIVE,SAINT LOUIS,MO,63103,"http://maps.google.com/maps?q=3545 LINDELL DRIVE,+SAINT LOUIS,+MO+63103&hl=en"
STEELE POLICE DEPARTMENT,STEELE POLICE DEPARTMENT,115 S WALNUT,STEELE,MO,63877,"http://maps.google.com/maps?q=115 S WALNUT,+STEELE,+MO+63877&hl=en"
SUMNER COUNTY SHERIFF`S OFFICE,BROWNS PHARMACY INSIDE MIKES FOODLAND STORE,1198 NEW HWY 52,WESTMORELAND,TN,37186,"http://maps.google.com/maps?q=1198 NEW HWY 52,+WESTMORELAND,+TN+37186&hl=en"
SUMNER COUNTY SHERIFF`S OFFICE,FREDS PHARMACY,114 WEST KNIGHT ST,PORTLAND,TN,37148,"http://maps.google.com/maps?q=114 WEST KNIGHT ST,+PORTLAND,+TN+37148&hl=en"
SUMNER COUNTY SHERIFF`S OFFICE,PERKINS DRUG STORE,532 HARTSVILLE PIKE,GALLATIN,TN,37066,"http://maps.google.com/maps?q=532 HARTSVILLE PIKE,+GALLATIN,+TN+37066&hl=en"
SUMNER COUNTY SHERIFF`S OFFICE,WALGREENS,104 HWY 52,PORTLAND,TN,37148,"http://maps.google.com/maps?q=104 HWY 52,+PORTLAND,+TN+37148&hl=en"
SUMNER COUNTY SHERIFF`S OFFICE,WALGREENS,198 E MAIN ST,HENDERSONVILLE,TN,37075,"http://maps.google.com/maps?q=198 E MAIN ST,+HENDERSONVILLE,+TN+37075&hl=en"
SUMNER COUNTY SHERIFF`S OFFICE,WALGREENS,365 NEW SHACKLE ISLAND,HENDERSONVILLE,TN,37075,"http://maps.google.com/maps?q=365 NEW SHACKLE ISLAND,+HENDERSONVILLE,+TN+37075&hl=en"
SUMNER COUNTY SHERIFF`S OFFICE,WALGREENS,455 LONG HOLLOW PIKE,GOODLETTSVILLE,TN,37072,"http://maps.google.com/maps?q=455 LONG HOLLOW PIKE,+GOODLETTSVILLE,+TN+37072&hl=en"
SUMNER COUNTY SHERIFF`S OFFICE,WALGREENS,585 HASHVILLE PIKE,GALLATIN,TN,37066,"http://maps.google.com/maps?q=585 HASHVILLE PIKE,+GALLATIN,+TN+37066&hl=en"
SUMNER COUNTY SHERIFF`S OFFICE,WALGREENS,914 GREENLEA BLVD,GALLATIN,TN,37066,"http://maps.google.com/maps?q=914 GREENLEA BLVD,+GALLATIN,+TN+37066&hl=en"
SUNSET HILLS POLICE DEPARTMENT,SUNSET HILLS POLICE DEPARTMENT,3905 S. LINDBERGH,SUNSET HILLS,MO,63127,"http://maps.google.com/maps?q=3905 S. LINDBERGH,+SUNSET HILLS,+MO+63127&hl=en"
SWANSEA POLICE DEPT,WALGREENS,2532 N. ILLINOIS STREET,BELLEVILLE,IL,62226,"http://maps.google.com/maps?q=2532 N. ILLINOIS STREET,+BELLEVILLE,+IL+62226&hl=en"
SWEETWATER POLICE DEPT.,SWEETWATER POLICE DEPT.,208 MONROE ST.,SWEETWATER,TN,37874,"http://maps.google.com/maps?q=208 MONROE ST.,+SWEETWATER,+TN+37874&hl=en"
TENNESSEE TECH UNIVERSITY POLICE,TENNESSEE TECH UNIVERSITY LOBBY,242 E 10TH ST,COOKEVILLE,TN,38501,"http://maps.google.com/maps?q=242 E 10TH ST,+COOKEVILLE,+TN+38501&hl=en"
TERRE DU LAC POLICE DEPARTMENT,TERRE DU LAC POLICE DEPARTMENT REAR OF BUILDING,111 RUE TERRE BONNE,BONNE TERRE,MO,63628,"http://maps.google.com/maps?q=111 RUE TERRE BONNE,+BONNE TERRE,+MO+63628&hl=en"
TRENTON POLICE DEPARTMENT,TRENTON POLICE DEPARTMENT,25 W. INDIANA STREET,TRENTON,IL,62293,"http://maps.google.com/maps?q=25 W. INDIANA STREET,+TRENTON,+IL+62293&hl=en"
TRIGG COUNTY SHERIFF'S OFFICE,TRIGG COUNTY SHERIFF'S OFFICE,134 COMMERCE STREET,CADIZ,KY,42211,"http://maps.google.com/maps?q=134 COMMERCE STREET,+CADIZ,+KY+42211&hl=en"
TROUSDALE COUNTY SHERIFF'S OFFICE,TROUSDALE COUNTY SHERIFF'S DEPT,210 BROADWAY,HARTSVILLE,TN,37074,"http://maps.google.com/maps?q=210 BROADWAY,+HARTSVILLE,+TN+37074&hl=en"
UNION CITY POLICE DEPARTMENT,BAPTIST MEMORIAL HOSPITAL,1201 BISHOP STREET,UNION CITY,TN,38261,"http://maps.google.com/maps?q=1201 BISHOP STREET,+UNION CITY,+TN+38261&hl=en"
UNION COUNTY SHERIFF'S OFFICE,UNION COUNTY SHERIFFS OFFICE,130 VETERANS STREET,MAYNARDVILLE,TN,37807,"http://maps.google.com/maps?q=130 VETERANS STREET,+MAYNARDVILLE,+TN+37807&hl=en"
VANDALIA POLICE DEPARTMENT,VANDALIA POLICE DEPARTMENT,219 SOUTH 5TH STREET,VANDALIA,IL,62471,"http://maps.google.com/maps?q=219 SOUTH 5TH STREET,+VANDALIA,+IL+62471&hl=en"
VANDERBILT UNIVERSITY POLICE DEPT,"CENTER FOR STUDENT WELLBEING OCTOBER 26, 2018 10:00 AM - 2:00 PM",1211 STEVENSON CENTER LANE,NASHVILLE,TN,37212,"http://maps.google.com/maps?q=1211 STEVENSON CENTER LANE,+NASHVILLE,+TN+37212&hl=en"
WABASH COUNTY SHERIFF'S OFFICE,WABASH COUNTY SHERIFF'S OFFICE,120 E. 4TH STREET,MOUNT CARMEL,IL,62863,"http://maps.google.com/maps?q=120 E. 4TH STREET,+MOUNT CARMEL,+IL+62863&hl=en"
WATERLOO POLICE DEPARTMENT,SCHNUCKS,150 WATERLOO COMMONS DRIVE,WATERLOO,IL,62298,"http://maps.google.com/maps?q=150 WATERLOO COMMONS DRIVE,+WATERLOO,+IL+62298&hl=en"
WATERLOO POLICE DEPARTMENT,WATERLOO POLICE DEPARMTMENT LOBBY,"301 S, MAIN STREET",WATERLOO,IL,62298,"http://maps.google.com/maps?q=301 S, MAIN STREET,+WATERLOO,+IL+62298&hl=en"
WAYNE COUNTY SHERIFF'S OFFICE,WAYNE COUNTY SHERIFF'S OFFICE,100 MAPLE ST,GREENVILLE,MO,63944,"http://maps.google.com/maps?q=100 MAPLE ST,+GREENVILLE,+MO+63944&hl=en"
WAYNE COUNTY SHERIFF'S OFFICE,WAYNE COUNTY SHERIFF'S OFFICE,305 EAST COURT,FAIRFIELD,IL,62837,"http://maps.google.com/maps?q=305 EAST COURT,+FAIRFIELD,+IL+62837&hl=en"
WAYNESBORO POLICE DEPT,FRED'S PHARMACY,307 HWY 64 E,WAYNESBORO,TN,38485,"http://maps.google.com/maps?q=307 HWY 64 E,+WAYNESBORO,+TN+38485&hl=en"
WEBSTER COUNTY SHERIFF'S OFFICE,WEBSTER COUNTY SHERIFF'S OFFICE,25 US HWY 41 A SOUTH,DIXON,KY,42409,"http://maps.google.com/maps?q=25 US HWY 41 A SOUTH,+DIXON,+KY+42409&hl=en"
WEINER POLICE DEPARTMENT,WEINER POLICE DEPARTMENT,123 WEST 2ND STREET,WEINER,AR,72479,"http://maps.google.com/maps?q=123 WEST 2ND STREET,+WEINER,+AR+72479&hl=en"
WEST CITY POLICE DEPT,WEST CITY POLICE DEPT.,201 S. BROWNING ST,WEST CITY,IL,62812,"http://maps.google.com/maps?q=201 S. BROWNING ST,+WEST CITY,+IL+62812&hl=en"
WEST MEMPHIS POLICE DEPARTMENT,WEST MEMPHIS POLICE DEPARTMENT PERMANENT DROP BOX,626 E. BROADWAY,WEST MEMPHIS,AR,72301,"http://maps.google.com/maps?q=626 E. BROADWAY,+WEST MEMPHIS,+AR+72301&hl=en"
WHITE COUNTY SHERIFF DEPARTMENT,WHITE COUNTY SHERIFF'S DEPARTMENT,111 DEPOT STREET,SPARTA,TN,38583,"http://maps.google.com/maps?q=111 DEPOT STREET,+SPARTA,+TN+38583&hl=en"
WHITE HOUSE POLICE DEPARTMENT,KROGERS,510 HWY 76,WHITE HOUSE,TN,37188,"http://maps.google.com/maps?q=510 HWY 76,+WHITE HOUSE,+TN+37188&hl=en"
WILLIAMSON COUNTY SHERIFF'S OFFICE,KROGER,4726 TRADERS WAY,THOMPSONS STATION,TN,37179,"http://maps.google.com/maps?q=4726 TRADERS WAY,+THOMPSONS STATION,+TN+37179&hl=en"
WILLIAMSON COUNTY SHERIFF'S OFFICE,WILLIAMSON COUNTY ADMINISTRATIVE BUILDING,407 N. MONROE,MARION,IL,62959,"http://maps.google.com/maps?q=407 N. MONROE,+MARION,+IL+62959&hl=en"
WILSON COUNTY SHERIFF'S DEPARTMENT,WILSON COUNTY SHERIFF'S OFFICE,105 EAST HIGH STREET,LEBANON,TN,37087,"http://maps.google.com/maps?q=105 EAST HIGH STREET,+LEBANON,+TN+37087&hl=en"
WINCHESTER POLICE DEPARTMENT,WINCHESTER POLICE DEPARTMENT WINCHESTER POLICE DEPARTMENT,16 SOUTH MAPLE STREET,WINCHESTER,KY,40391,"http://maps.google.com/maps?q=16 SOUTH MAPLE STREET,+WINCHESTER,+KY+40391&hl=en"
WOODFORD COUNTY SHERIFF'S OFFICE,KROGER,KROGER WAY,VERSAILLES,KY,40383,"http://maps.google.com/maps?q=KROGER WAY,+VERSAILLES,+KY+40383&hl=en"
WOODFORD COUNTY SHERIFF'S OFFICE,KROGERS,212 KROGER WAY,VERSAILLES,KY,40383,"http://maps.google.com/maps?q=212 KROGER WAY,+VERSAILLES,+KY+40383&hl=en"
WOODFORD COUNTY SHERIFF'S OFFICE,MIDWAY CITY HALL,101 E MAIN ST,MIDWAY,KY,40347,"http://maps.google.com/maps?q=101 E MAIN ST,+MIDWAY,+KY+40347&hl=en"
WOODFORD COUNTY SHERIFF'S OFFICE,WOODFORD COUNTY SHERIFFS OFFICE SIDE OF COURT HOUSE ON COURT ST.,103 SOUTH MAIN ST,VERSAILLES,KY,40383,"http://maps.google.com/maps?q=103 SOUTH MAIN ST,+VERSAILLES,+KY+40383&hl=en"
WYNNE POLICE DEPARTMENT,WYNNE POLICE DEPARTMENT PERMANENT DROP BOX,206 S. FALLS,WYNNE,AR,72396,"http://maps.google.com/maps?q=206 S. FALLS,+WYNNE,+AR+72396&hl=en"
