Participant,CollectionSite,Address,City,State,Zip,MapURL
ALABAMA COUSHATTA POLICE DEPARTMENT,ALABAMA COUSHATTA POLICE DEPARTMENT,571 STATE PARK ROAD 56,LIVINGSTON,TX,77351,"http://maps.google.com/maps?q=571 STATE PARK ROAD 56,+LIVINGSTON,+TX+77351&hl=en"
ALAMO HEIGHTS POLICE DEPARTMENT,ALAMO HEIGHTS POLICE DEPARTMENT,6116 BROADWAY,SAN ANTONIO,TX,78209,"http://maps.google.com/maps?q=6116 BROADWAY,+SAN ANTONIO,+TX+78209&hl=en"
AUSTIN POLICE DEPARTMENT,HOUSEHOLD HAZARDOUS WASTE FACILITY,2514 BUSINESS CENTER DRIVE,AUSTIN,TX,78744,"http://maps.google.com/maps?q=2514 BUSINESS CENTER DRIVE,+AUSTIN,+TX+78744&hl=en"
BANDERA COUNTY SHERIFF'S OFFICE,LAKEHILLS LIBRARY,7200 FM 1283,LAKEHILLS,TX,78063,"http://maps.google.com/maps?q=7200 FM 1283,+LAKEHILLS,+TX+78063&hl=en"
BASTROP COUNTY SHERIFF'S OFFICE,TRACTOR SUPPLY COMPANY,441 TEXAS 71,BASTROP,TX,78602,"http://maps.google.com/maps?q=441 TEXAS 71,+BASTROP,+TX+78602&hl=en"
BAYLOR POLICE DEPARTMENT,BAYLOR POLICE DEPARTMENT,1521 SOUTH 4TH,WACO,TX,76798,"http://maps.google.com/maps?q=1521 SOUTH 4TH,+WACO,+TX+76798&hl=en"
BAYTOWN POLICE DEPARTMENT,BAYTOWN POLICE DEPARTMENT RANDELL MORRIS,3200 NORTH MAIN STREET,BAYTOWN,TX,77521,"http://maps.google.com/maps?q=3200 NORTH MAIN STREET,+BAYTOWN,+TX+77521&hl=en"
BELLAIRE POLICE DEPARTMENT,BELLAIRE POLICE DEPARTMENT,7008 SOUTH RICE AVENUE,BELLAIRE,TX,77401,"http://maps.google.com/maps?q=7008 SOUTH RICE AVENUE,+BELLAIRE,+TX+77401&hl=en"
BELLMEAD POLICE DEPARTMENT,BELLMEAD POLICE DEPARTMENT,701 MAXFIELD ST.,WACO,TX,76705,"http://maps.google.com/maps?q=701 MAXFIELD ST.,+WACO,+TX+76705&hl=en"
BEXAR COUNTY SHERIFF'S OFFICE,H-E-B PLUS STORE #13,"4100 NEW BRAUNFELS AVENUE @ FAIR AVE.,",SAN ANTONIO,TX,78223,"http://maps.google.com/maps?q=4100 NEW BRAUNFELS AVENUE @ FAIR AVE.,,+SAN ANTONIO,+TX+78223&hl=en"
BEXAR COUNTY SHERIFF'S OFFICE,H-E-B PLUS STORE #27,8219 MARBACH RD,SAN ANTONIO,TX,78227,"http://maps.google.com/maps?q=8219 MARBACH RD,+SAN ANTONIO,+TX+78227&hl=en"
BEXAR COUNTY SHERIFF'S OFFICE,H-E-B PLUS STORE #32,9238 TX LOOP 1604,SAN ANTONIO,TX,78249,"http://maps.google.com/maps?q=9238 TX LOOP 1604,+SAN ANTONIO,+TX+78249&hl=en"
BEXAR COUNTY SHERIFF'S OFFICE,H-E-B PLUS STORE #36,"6818 S. ZARZAMORA ST.,",SAN ANTONIO,TX,78224,"http://maps.google.com/maps?q=6818 S. ZARZAMORA ST.,,+SAN ANTONIO,+TX+78224&hl=en"
BEXAR COUNTY SHERIFF'S OFFICE,H-E-B STORE #10,2130 CULEBRA,SAN ANTONIO,TX,78228,"http://maps.google.com/maps?q=2130 CULEBRA,+SAN ANTONIO,+TX+78228&hl=en"
BLAINE COUNTY SHERIFF'S DEPARTMENT,WATONGA EMS BUILDING,305 W. MAIN ST,WATONGA,OK,73772,"http://maps.google.com/maps?q=305 W. MAIN ST,+WATONGA,+OK+73772&hl=en"
BOERNE POLICE DEPARTMENT,BOERNE POLICE DEPARTMENT,124 OLD SAN ANTONIO ROAD,BOERNE,TX,78006,"http://maps.google.com/maps?q=124 OLD SAN ANTONIO ROAD,+BOERNE,+TX+78006&hl=en"
BRAZORIA COUNTY CONSTABLE PCT 3,ALVIN POLICE DEPARTMENT,1500 SOUTH GORDON STREET,ALVIN,TX,77511,"http://maps.google.com/maps?q=1500 SOUTH GORDON STREET,+ALVIN,+TX+77511&hl=en"
BRAZORIA COUNTY CONSTABLE PCT 3,REFLECTIVE BAY PARK @ SHADOW CREEK,12115 S. CLEAR LAKE LOOP,PEARLAND,TX,77584,"http://maps.google.com/maps?q=12115 S. CLEAR LAKE LOOP,+PEARLAND,+TX+77584&hl=en"
BRAZORIA COUNTY CONSTABLE PCT 3,STELLA ROBERTS RECYCLING CENTER,5800 MAGNOLIA,PEARLAND,TX,77584,"http://maps.google.com/maps?q=5800 MAGNOLIA,+PEARLAND,+TX+77584&hl=en"
BUDA POLICE DEPARTMENT,BUDA POLICE DEPARTMENT,"405 E. LOOP SOUTH, BUILDING #2",BUDA,TX,78610,"http://maps.google.com/maps?q=405 E. LOOP SOUTH, BUILDING #2,+BUDA,+TX+78610&hl=en"
BULVERDE CITY HALL,BULVERDE CITY HALL,30360 COUGAR BEND,BULVERDE,TX,78163,"http://maps.google.com/maps?q=30360 COUGAR BEND,+BULVERDE,+TX+78163&hl=en"
BURNET COUNTY SHERIFF'S OFFICE,BURNET COUNTY SHERIFF'S OFFICE,1601 EAST POLK STREET,BURNET,TX,78611,"http://maps.google.com/maps?q=1601 EAST POLK STREET,+BURNET,+TX+78611&hl=en"
CEDAR PARK POLICE DEPARTMENT,CEDAR PARK POLICE DEPARTMENT,911 QUEST PARKWAY,CEDAR PARK,TX,78613,"http://maps.google.com/maps?q=911 QUEST PARKWAY,+CEDAR PARK,+TX+78613&hl=en"
CIBOLO POLICE DEPARTMENT,CIBOLO POLICE DEPARTMENT,162 LOOP 539 EAST,CIBOLO,TX,78108,"http://maps.google.com/maps?q=162 LOOP 539 EAST,+CIBOLO,+TX+78108&hl=en"
CLEAR LAKE ISLAMIC CENTER,CLEAR LAKE ISLAMIC CENTER,17511 EL CAMINO REAL,HOUSTON,TX,77058,"http://maps.google.com/maps?q=17511 EL CAMINO REAL,+HOUSTON,+TX+77058&hl=en"
CLEVELAND POLICE DEPARTMENT,CLEVELAND POLICE DEPARTMENT,226 PEACH STREET,CLEVELAND,TX,77327,"http://maps.google.com/maps?q=226 PEACH STREET,+CLEVELAND,+TX+77327&hl=en"
COALITION OF SUBSTANCE ABUSE PREVENTION,CHURCH OF CHAMPIONS,12922 CUTTEN RD,HOUSTON,TX,77066,"http://maps.google.com/maps?q=12922 CUTTEN RD,+HOUSTON,+TX+77066&hl=en"
COALITION OF SUBSTANCE ABUSE PREVENTION,COALITION OF SUBSTANCE ABUSE PREVENTION HOUSTON COMMUNITY COLLEGE,1010 WEST SAM HOUSTON PARKWAY NORTH(MAIN ENTRANCE),HOUSTON,TX,77043,"http://maps.google.com/maps?q=1010 WEST SAM HOUSTON PARKWAY NORTH,+HOUSTON,+TX+77043&hl=en"
COLORADO COUNTY SHERIFF'S DEPARTMENT,COLORADO COUNTY SHERIFF'S DEPARTMENT,2215 WALNUT,COLUMBUS,TX,78934,"http://maps.google.com/maps?q=2215 WALNUT,+COLUMBUS,+TX+78934&hl=en"
COLORADO COUNTY SHERIFF'S DEPARTMENT,EAGLE LAKE POLICE DEPARTMENT,200 EAST POST OFFICE,EAGLE LAKE,TX,77434,"http://maps.google.com/maps?q=200 EAST POST OFFICE,+EAGLE LAKE,+TX+77434&hl=en"
COLORADO COUNTY SHERIFF'S DEPARTMENT,WEIMAR CITY HALL,106 EAST MAIN,WEIMAR,TX,78962,"http://maps.google.com/maps?q=106 EAST MAIN,+WEIMAR,+TX+78962&hl=en"
COMAL COUNTY SHERIFF'S OFFICE,BULVERDE SPRING BRANCH FIRE DEPARTMENT,353 RODEO DRIVE,SPRING BRANCH,TX,78070,"http://maps.google.com/maps?q=353 RODEO DRIVE,+SPRING BRANCH,+TX+78070&hl=en"
COMAL COUNTY SHERIFF'S OFFICE,COMAL COUNTY SHERIFF'S OFFICE,160 OAK DRIVE,NEW BRAUNFELS,TX,78132,"http://maps.google.com/maps?q=160 OAK DRIVE,+NEW BRAUNFELS,+TX+78132&hl=en"
COMANCHE NATION POLICE DEPARTMENT,COMANCHE NATION POLICE DEPT,8527 NW MADISCHE RD,LAWTON,OK,73507,"http://maps.google.com/maps?q=8527 NW MADISCHE RD,+LAWTON,+OK+73507&hl=en"
CONROE POLICE DEPARTMENT,CONROE POLICE DEPARTMENT,2300 PLANTATION DRIVE,CONROE,TX,77303,"http://maps.google.com/maps?q=2300 PLANTATION DRIVE,+CONROE,+TX+77303&hl=en"
COPPERAS COVE POLICE DEPARTMENT,COPPERAS COVE POLICE DEPARTMENT,302 E AVENUE E,COPPERAS COVE,TX,76522,"http://maps.google.com/maps?q=302 E AVENUE E,+COPPERAS COVE,+TX+76522&hl=en"
CORYELL COUNTY SHERIFF'S OFFICE,CORYELL COUNTY SHERIFF'S OFFICE,510 LEON STREET,GATESVILLE,TX,76528,"http://maps.google.com/maps?q=510 LEON STREET,+GATESVILLE,+TX+76528&hl=en"
CUERO POLICE DEPARTMENT,CUERO POLICE DEPARTMENT,100 N. CLINTON ST,CUERO,TX,77954,"http://maps.google.com/maps?q=100 N. CLINTON ST,+CUERO,+TX+77954&hl=en"
CURRY COUNTY SHERIFF,RODEN-SMITH PHARMACY,305 E LLANO ESTACADO BLVD,CLOVIS,NM,88101,"http://maps.google.com/maps?q=305 E LLANO ESTACADO BLVD,+CLOVIS,+NM+88101&hl=en"
CUSTER COUNTY SO,HOMELAND GROCERY STORE,1200 W. GARY BLVD.,CLINTON,OK,73601,"http://maps.google.com/maps?q=1200 W. GARY BLVD.,+CLINTON,+OK+73601&hl=en"
CYFAIR VFD STATION 11,CYFAIR VFD STATION 11,18132 WEST ROAD,CYPRESS,TX,77433,"http://maps.google.com/maps?q=18132 WEST ROAD,+CYPRESS,+TX+77433&hl=en"
DEA SPONSORED,BARTON CREEK SQUARE MALL - PARKING LOT UNIV OF TEXAS-COLLEGE OF PHARMACY,2901 SOUTH CAPITOL OF TEXAS HIGHWAY,AUSTIN,TX,78746,"http://maps.google.com/maps?q=2901 SOUTH CAPITOL OF TEXAS HIGHWAY,+AUSTIN,+TX+78746&hl=en"
DEA SPONSORED,GEORGE MEMORIAL LIBRARY,1001 GOLFVIEW DRIVE,RICHMOND,TX,77469,"http://maps.google.com/maps?q=1001 GOLFVIEW DRIVE,+RICHMOND,+TX+77469&hl=en"
DEA SPONSORED,LEGACY HILLS PARK PAVILLION SUN CITY CENTER,200 DEL WEBB BLVD.,GEORGETOWN,TX,78626,"http://maps.google.com/maps?q=200 DEL WEBB BLVD.,+GEORGETOWN,+TX+78626&hl=en"
DEER PARK POLICE DEPARTMENT,DEER PARK POLICE DEPARTMENT,2911 CENTER STREET,DEER PARK,TX,77536,"http://maps.google.com/maps?q=2911 CENTER STREET,+DEER PARK,+TX+77536&hl=en"
DICKINSON POLICE DEPARTMENT,DICKINSON POLICE DEPARTMENT,4000 LIGGIO STREET,DICKINSON,TX,77539,"http://maps.google.com/maps?q=4000 LIGGIO STREET,+DICKINSON,+TX+77539&hl=en"
EL CAMPO POLICE DEPARTMENT,EL CAMPO POLICE DEPARTMENT,1011 WEST LOOP,EL CAMPO,TX,77437,"http://maps.google.com/maps?q=1011 WEST LOOP,+EL CAMPO,+TX+77437&hl=en"
ELGIN POLICE DEPARTMENT,ELGIN POLICE DEPARTMENT,202 DEPOT STREET,ELGIN,TX,78621,"http://maps.google.com/maps?q=202 DEPOT STREET,+ELGIN,+TX+78621&hl=en"
FORT BEND COUNTY SHERIFF'S OFFICE,GUS GEORGE ACADEMY,1521 EUGENE HEIMANN CIRCLE,RICHMOND,TX,77469,"http://maps.google.com/maps?q=1521 EUGENE HEIMANN CIRCLE,+RICHMOND,+TX+77469&hl=en"
FORT BEND ISD POLICE DEPARTMENT,FORT BEND ISD POLICE DEPARTMENT FORT BEND ISD ADMINISTRATIVE BUILDING,16431 LEXINGTON BOULEVARD,SUGAR LAND,TX,77479,"http://maps.google.com/maps?q=16431 LEXINGTON BOULEVARD,+SUGAR LAND,+TX+77479&hl=en"
FREDERICKSBURG POLICE DEPARTMENT,FREDERICKSBURG POLICE DEPARTMENT,1601 EAST MAIN ST.,FREDERICKSBURG,TX,78624,"http://maps.google.com/maps?q=1601 EAST MAIN ST.,+FREDERICKSBURG,+TX+78624&hl=en"
FRIENDSWOOD POLICE DEPARTMENT,HOPE LUTHERAN CHURCH,1804 S. FRIENDSWOOD DR,FRIENDSWOOD,TX,77546,"http://maps.google.com/maps?q=1804 S. FRIENDSWOOD DR,+FRIENDSWOOD,+TX+77546&hl=en"
FULSHEAR POLICE DEPARTMENT,FULSHEAR POLICE DEPARTMENT,29255 FM1093,FULSHEAR,TX,77441,"http://maps.google.com/maps?q=29255 FM1093,+FULSHEAR,+TX+77441&hl=en"
GALVESTON PD,GALVESTON POLICE DEPARTMENT,601 54TH STREET,GALVESTON,TX,77551,"http://maps.google.com/maps?q=601 54TH STREET,+GALVESTON,+TX+77551&hl=en"
GATESVILLE POLICE DEPARTMENT,GATESVILLE POLICE DEPARTMENT,200 N. 8TH STREET,GATESVILLE,TX,76528,"http://maps.google.com/maps?q=200 N. 8TH STREET,+GATESVILLE,+TX+76528&hl=en"
GUADALUPE COUNTY SHERIFF'S OFFICE,GUADALUPE COUNTY SHERIFF'S OFFICE,2617 N. GUADALUPE STREET,SEGUIN,TX,78155,"http://maps.google.com/maps?q=2617 N. GUADALUPE STREET,+SEGUIN,+TX+78155&hl=en"
HALLETSVILLE POLICE DEPARTMENT,HALLETSVILLE POLICE DEPARTMENT,104 EAST 4TH STREET,HALLETTSVILLE,TX,77964,"http://maps.google.com/maps?q=104 EAST 4TH STREET,+HALLETTSVILLE,+TX+77964&hl=en"
HARKER HEIGHTS POLICE DEPARTMENT,HARKER HEIGHTS POLICE DEPARTMENT,402 INDIAN TRAIL,HARKER HEIGHTS,TX,76548,"http://maps.google.com/maps?q=402 INDIAN TRAIL,+HARKER HEIGHTS,+TX+76548&hl=en"
HARRIS COUNTY CONSTABLE PRECINCT 8,HARRIS COUNTY CONSTABLE PRECINCT 8 BAY AREA ANNEX,16602 DIANA LANE,HOUSTON,TX,77062,"http://maps.google.com/maps?q=16602 DIANA LANE,+HOUSTON,+TX+77062&hl=en"
HARRIS COUNTY CONTABLE PRECINCT 4,THE RECREATION CENTER OF ROB FLEMING PARK THE WOODLANDS TOWNSHIP,6464 CREEKSIDE FOREST DR,SPRING,TX,77389,"http://maps.google.com/maps?q=6464 CREEKSIDE FOREST DR,+SPRING,+TX+77389&hl=en"
HARRIS COUNTY HOUSEHOLD HAZARDOUS COLLECTION FACL.,HARRIS COUNTY HOUSEHOLD HAZARDOUS COLLECTION FACL.,6900 HAHL ROAD,HOUSTON,TX,77040,"http://maps.google.com/maps?q=6900 HAHL ROAD,+HOUSTON,+TX+77040&hl=en"
HARRIS COUNTY SHERIFF'S OFFICE - FRANZ ROAD,HARRIS COUNTY SHERIFF'S OFFICE FRANZ ROAD STOREFRONT,19818 FRANZ ROAD,KATY,TX,77449,"http://maps.google.com/maps?q=19818 FRANZ ROAD,+KATY,+TX+77449&hl=en"
HARRIS COUNTY SHERIFF'S OFFICE DISTRICT 1,HARRIS COUNTY SHERIFF'S OFFICE DISTRICT 1 HARRIS COUNTY COURT HOUSE,6831 CYPRESSWOOD DR.,SPRING,TX,77379,"http://maps.google.com/maps?q=6831 CYPRESSWOOD DR.,+SPRING,+TX+77379&hl=en"
HARRIS COUNTY SHERIFF'S OFFICE DISTRICT 2,HARRIS COUNTY SHERIFF'S OFFICE DISTRICT 2 HUMBLE COURT HOUSE,7900 WILL CLAYTON PKWY,HUMBLE,TX,77338,"http://maps.google.com/maps?q=7900 WILL CLAYTON PKWY,+HUMBLE,+TX+77338&hl=en"
HARRIS COUNTY SHERIFF'S OFFICE DISTRICT 3,HARRIS COUNTY SHERIFF'S OFFICE DISTRICT 3 JIM FONTENO HARRIS COUNTY COURT HOUSE ANNEX 26 BUILDING,14350 WALLISVILLE RD,HOUSTON,TX,77049,"http://maps.google.com/maps?q=14350 WALLISVILLE RD,+HOUSTON,+TX+77049&hl=en"
HARRIS COUNTY SHERIFF'S OFFICE DISTRICT 5,HARRIS COUNTY SHERIFF'S OFFICE DISTRICT 5,23828 TOMBALL PARKWAY,TOMBALL,TX,77375,"http://maps.google.com/maps?q=23828 TOMBALL PARKWAY,+TOMBALL,+TX+77375&hl=en"
HEWITT POLICE DEPARTMENT,HEWITT POLICE DEPARTMENT,100 PATRIOT COURT,HEWITT,TX,76643,"http://maps.google.com/maps?q=100 PATRIOT COURT,+HEWITT,+TX+76643&hl=en"
HOBBS POLICE DEPARTMENT,WALGREENS PARKING LOT,1401 N TURNER,HOBBS,NM,88240,"http://maps.google.com/maps?q=1401 N TURNER,+HOBBS,+NM+88240&hl=en"
HOBBS POLICE DEPARTMENT,WALGREENS PARKING LOT,801 W JOE HARVEY,HOBBS,NM,88240,"http://maps.google.com/maps?q=801 W JOE HARVEY,+HOBBS,+NM+88240&hl=en"
HOLLYWOOD PARK POLICE DEPARTMENT,HOLLYWOOD PARK POLICE DEPARTMENT,2 MECCA DRIVE,HOLLYWOOD PARK,TX,78232,"http://maps.google.com/maps?q=2 MECCA DRIVE,+HOLLYWOOD PARK,+TX+78232&hl=en"
HOUSTON POLICE DEPARTMENT CLEAR LAKE STATION,HOUSTON POLICE DEPARTMENT CLEAR LAKE STATION,2855 BAY AREA BLVD,HOUSTON,TX,77058,"http://maps.google.com/maps?q=2855 BAY AREA BLVD,+HOUSTON,+TX+77058&hl=en"
HOUSTON POLICE DEPARTMENT METRO PARK N RIDE,HOUSTON POLICE DEPARTMENT METRO PARK N RIDE,3210 W. LAKE HOUSTON PKWY,KINGWOOD,TX,77345,"http://maps.google.com/maps?q=3210 W. LAKE HOUSTON PKWY,+KINGWOOD,+TX+77345&hl=en"
HOUSTON POLICE DEPARTMENT NORTH STATION,HOUSTON POLICE DEPARTMENT NORTH STATION,9455 W. MONTGOMERY RD,HOUSTON,TX,77088,"http://maps.google.com/maps?q=9455 W. MONTGOMERY RD,+HOUSTON,+TX+77088&hl=en"
HOUSTON POLICE DEPARTMENT SOUTH CENTRAL STATION,HOUSTON POLICE DEPARTMENT SOUTH CENTRAL STATION,2202 ST. EMMANUEL ST,HOUSTON,TX,77003,"http://maps.google.com/maps?q=2202 ST. EMMANUEL ST,+HOUSTON,+TX+77003&hl=en"
HOUSTON POLICE DEPARTMENT SOUTH GESSNER STATION,HOUSTON POLICE DEPARTMENT SOUTH GESSNER STATION,8605 WESTPLACE DR,HOUSTON,TX,77071,"http://maps.google.com/maps?q=8605 WESTPLACE DR,+HOUSTON,+TX+77071&hl=en"
HOUSTON POLICE DEPARTMENT WESTSIDE STATION,HOUSTON POLICE DEPARTMENT WESTSIDE STATION,3203 S. DAIRY ASHFORD,HOUSTON,TX,77082,"http://maps.google.com/maps?q=3203 S. DAIRY ASHFORD,+HOUSTON,+TX+77082&hl=en"
HUNTSVILLE POLICE DEPARTMENT,HUNTSVILLE POLICE DEPARTMENT HUNTSVILLE HIGH SCHOOL,515 FM 2821 ROAD EAST,HUNTSVILLE,TX,77320,"http://maps.google.com/maps?q=515 FM 2821 ROAD EAST,+HUNTSVILLE,+TX+77320&hl=en"
JACKSON COUNTY SHERIFF'S OFFICE,JACKSON COUNTY SHERIFF'S OFFICE,115 WEST MAIN ST,EDNA,TX,77957,"http://maps.google.com/maps?q=115 WEST MAIN ST,+EDNA,+TX+77957&hl=en"
JONESTOWN POLICE DEPARTMENT,JONESTOWN POLICE DEPARTMENT,18304 NORTH PARK DR.,JONESTOWN,TX,78645,"http://maps.google.com/maps?q=18304 NORTH PARK DR.,+JONESTOWN,+TX+78645&hl=en"
JOURDANTON POLICE DEPARTMENT,JOURDANTON POLICE DEPARTMENT,1604 TX 97,JOURDANTON,TX,78026,"http://maps.google.com/maps?q=1604 TX 97,+JOURDANTON,+TX+78026&hl=en"
KATY ISD POLICE DEPARTMENT,KATY ISD POLICE DEPARTMENT KATY ISD LAW ENFORCEMENT CENTER,20370 FRANZ ROAD,KATY,TX,77449,"http://maps.google.com/maps?q=20370 FRANZ ROAD,+KATY,+TX+77449&hl=en"
KEMAH POLICE DEPARTMENT,KEMAH CITY HALL,1401 TX 146,KEMAH,TX,77565,"http://maps.google.com/maps?q=1401 TX 146,+KEMAH,+TX+77565&hl=en"
KENDALL COUNTY SHERIFF'S OFFICE,COMFORT COMMUNITY PARK,403 HIGHWAY 27,COMFORT,TX,78013,"http://maps.google.com/maps?q=403 HIGHWAY 27,+COMFORT,+TX+78013&hl=en"
KILLEEN POLICE DEPARTMENT,KILLEEN POLICE DEPARTMENT,3304 COMMUNITY BLVD.,KILLEEN,TX,76542,"http://maps.google.com/maps?q=3304 COMMUNITY BLVD.,+KILLEEN,+TX+76542&hl=en"
KLEIN ISD POLICE DEPARTMENT,KLEIN ISD POLICE DEPARTMENT,7407 LOUETTA ROAD,SPRING,TX,77379,"http://maps.google.com/maps?q=7407 LOUETTA ROAD,+SPRING,+TX+77379&hl=en"
LACY LAKEVIEW POLICE DEPARTMENT,LACY LAKEVIEW POLICE DEPARTMENT,503 E. CRAVEN AVE.,WACO,TX,76705,"http://maps.google.com/maps?q=503 E. CRAVEN AVE.,+WACO,+TX+76705&hl=en"
LAKEVIEW POLICE DEPARTMENT,LAKEVIEW POLICE DEPARTMENT TAYLOR LAKE VILLAGE CITY HALL,500 KIRBY ROAD,TAYLOR LAKE VILLAGE,TX,77586,"http://maps.google.com/maps?q=500 KIRBY ROAD,+TAYLOR LAKE VILLAGE,+TX+77586&hl=en"
LAKEWAY POLICE DEPARTMENT/BEE CAVE POLICE DEPT.,LAKEWAY POLICE DEPARTMENT,104 CROSS CREEK,LAKEWAY,TX,78734,"http://maps.google.com/maps?q=104 CROSS CREEK,+LAKEWAY,+TX+78734&hl=en"
LAMPASAS POLICE DEPARTMENT,LAMPASAS POLICE DEPARTMENT,301 EAST 4TH STREET,LAMPASAS,TX,76550,"http://maps.google.com/maps?q=301 EAST 4TH STREET,+LAMPASAS,+TX+76550&hl=en"
LEAGUE CITY POLICE DEPARTMENT,LEAGUE CITY POLICE DEPARTMENT PUBLIC SAFETY BUILDING,555 WEST WALKER STREET,LEAGUE CITY,TX,77573,"http://maps.google.com/maps?q=555 WEST WALKER STREET,+LEAGUE CITY,+TX+77573&hl=en"
LEANDER POLICE DEPARTMENT,LEANDER POLICE DEPARTMENT,705 LEANDER DRIVE,LEANDER,TX,78641,"http://maps.google.com/maps?q=705 LEANDER DRIVE,+LEANDER,+TX+78641&hl=en"
LEVELLAND PD,SOUTH PLAINS RURAL HEALTH,1000 FM 300,LEVELLAND,TX,79336,"http://maps.google.com/maps?q=1000 FM 300,+LEVELLAND,+TX+79336&hl=en"
LIBERTY POLICE DEPARTMENT,LIBERTY POLICE DEPARTMENT,1906 LAKELAND DRIVE,LIBERTY,TX,77575,"http://maps.google.com/maps?q=1906 LAKELAND DRIVE,+LIBERTY,+TX+77575&hl=en"
LIVE OAK POLICE DEPARTMENT,LIVE OAK POLICE DEPARTMENT,8022 SHIN OAK,LIVE OAK,TX,78233,"http://maps.google.com/maps?q=8022 SHIN OAK,+LIVE OAK,+TX+78233&hl=en"
MANVEL POLICE DEPARTMENT,MANVEL POLICE DEPARTMENT (PARKING LOT) DANNIELLE MEYER,6615 N MASTERS (CR 1128),MANVEL,TX,77578,"http://maps.google.com/maps?q=6615 N MASTERS (CR 1128),+MANVEL,+TX+77578&hl=en"
MARBLE FALLS POLICE DEPARTMENT,MARBLE FALLS POLICE DEPARTMENT,606 AVENUE NORTH,MARBLE FALLS,TX,78654,"http://maps.google.com/maps?q=606 AVENUE NORTH,+MARBLE FALLS,+TX+78654&hl=en"
MISSOURI CITY POLICE DEPARTMENT,MISSOURI CITY POLICE DEPARTMENT,3849 CARTWRIGHT ROAD,MISSOURI CITY,TX,77459,"http://maps.google.com/maps?q=3849 CARTWRIGHT ROAD,+MISSOURI CITY,+TX+77459&hl=en"
MONTGOMERY COUNTY CONSTABLE'S OFFICE PCT. 1,MONTGOMERY COUNTY CONSTABLE'S OFFICE PCT. 1,115 BUSINESS PARK DRIVE,WILLIS,TX,77378,"http://maps.google.com/maps?q=115 BUSINESS PARK DRIVE,+WILLIS,+TX+77378&hl=en"
MONTGOMERY COUNTY CONSTABLE'S OFFICE PCT. 3,GATEWAY BAPTIST CHURCH SGT. RYAN HUTSON,2930 RAYFORD RD,SPRING,TX,77386,"http://maps.google.com/maps?q=2930 RAYFORD RD,+SPRING,+TX+77386&hl=en"
MONTGOMERY COUNTY ISD POLICE DEPARTMENT,MONTGOMERY COUNTY ISD POLICE DEPT.,22825 HWY 105 W.,MONTGOMERY,TX,77356,"http://maps.google.com/maps?q=22825 HWY 105 W.,+MONTGOMERY,+TX+77356&hl=en"
MONTGOMERY COUNTY PRECINCT 4 CONSTABLE'S OFFICE,MONTGOMERY COUNTY PRECINCT 4 CONSTABLE'S OFFICE MONTGOMERY COUNTY ANNEX BUILDING,21130 US HWY 59,NEW CANEY,TX,77357,"http://maps.google.com/maps?q=21130 US HWY 59,+NEW CANEY,+TX+77357&hl=en"
MONTGOMERY COUNTY SHERIFF'S OFFICE,THE WOODLANDS TOWNSHIP TOWN HALL (FRONT PARKING LOT),2801 TECHNOLOGY FOREST BOULEVARD,THE WOODLANDS,TX,77381,"http://maps.google.com/maps?q=2801 TECHNOLOGY FOREST BOULEVARD,+THE WOODLANDS,+TX+77381&hl=en"
NEW BRAUNFELS POLICE DEPARTMENT,HEADWATERS AT THE COMAL,333 EAST KLINGERMAN,NEW BRAUNFELS,TX,78130,"http://maps.google.com/maps?q=333 EAST KLINGERMAN,+NEW BRAUNFELS,+TX+78130&hl=en"
NOLANVILLE POLICE DEPARTMENT,NOLANVILLE POLICE DEPARTMENT,101 N. FIFTH STREET,NOLANVILLE,TX,76559,"http://maps.google.com/maps?q=101 N. FIFTH STREET,+NOLANVILLE,+TX+76559&hl=en"
PASADENA POLICE DEPARTMENT,PASADENA POLICE DEPARTMENT THE SUMMIT ALTERNATIVE PROGRAM (PISD),1838 EAST SAM HOUSTON PARKWAY SOUTH,PASADENA,TX,77503,"http://maps.google.com/maps?q=1838 EAST SAM HOUSTON PARKWAY SOUTH,+PASADENA,+TX+77503&hl=en"
POTTER COUNTY SO,POTTER COUNTY DETENTION CENTER,13100 NE 29TH,AMARILLO,TX,79111,"http://maps.google.com/maps?q=13100 NE 29TH,+AMARILLO,+TX+79111&hl=en"
PRAIRIE VIEW A&M POLICE DEPARTMENT,PRAIRIE VIEW A&M POLICE DEPARTMENT,586 ANNE PRESTON ST,PRAIRIE VIEW,TX,77446,"http://maps.google.com/maps?q=586 ANNE PRESTON ST,+PRAIRIE VIEW,+TX+77446&hl=en"
PRATT KANSAS POLICE DEPARTMENT,WALMART,2003 E. 1ST ST.,PRATT,KS,67124,"http://maps.google.com/maps?q=2003 E. 1ST ST.,+PRATT,+KS+67124&hl=en"
RANDALL COUNTY SO,RANDALL COUNTY SO,9100 S. GEORGIA,AMARILLO,TX,79118,"http://maps.google.com/maps?q=9100 S. GEORGIA,+AMARILLO,+TX+79118&hl=en"
RICHMOND POLICE DEPARTMENT,RICHMOND POLICE DEPARTMENT,600 PRESTON STREET,RICHMOND,TX,77469,"http://maps.google.com/maps?q=600 PRESTON STREET,+RICHMOND,+TX+77469&hl=en"
RICHWOOD POLICE DEPARTMENT,RICHWOOD POLICE DEPARTMENT,1800 NORTH BRAZOSPORT BOULEVARD,RICHWOOD,TX,77531,"http://maps.google.com/maps?q=1800 NORTH BRAZOSPORT BOULEVARD,+RICHWOOD,+TX+77531&hl=en"
ROSWELL POLICE DEPT,NEIGHBORHOOD WATCH OFFICES,128 WEST 2ND ST,ROSWELL,NM,88201,"http://maps.google.com/maps?q=128 WEST 2ND ST,+ROSWELL,+NM+88201&hl=en"
ROUND ROCK POLICE DEPARTMENT,ROUND ROCK POLICE DEPARTMENT,2701 NORTH MAYS,ROUND ROCK,TX,78665,"http://maps.google.com/maps?q=2701 NORTH MAYS,+ROUND ROCK,+TX+78665&hl=en"
SAN ANTONIO ISD,YOUNG MEN'S LEADERSHIP ACADEMY,415 GABRIEL ST.,SAN ANTONIO,TX,78223,"http://maps.google.com/maps?q=415 GABRIEL ST.,+SAN ANTONIO,+TX+78223&hl=en"
SCHERTZ POLICE DEPARTMENT,SCHERTZ POLICE DEPARTMENT,1400 SCHERTZ PARKWAY,SCHERTZ,TX,78154,"http://maps.google.com/maps?q=1400 SCHERTZ PARKWAY,+SCHERTZ,+TX+78154&hl=en"
SHAVANO PARK POLICE DEPARTMENT,SHAVANO PARK POLICE DEPARTMENT,900 SADDLETREE COURT,SHAVANO PARK,TX,78231,"http://maps.google.com/maps?q=900 SADDLETREE COURT,+SHAVANO PARK,+TX+78231&hl=en"
SHENANDOAH POLICE DEPARTMENT,SHENANDOAH POLICE DEPARTMENT SHENANDOAH CITY HALL,29955 IH-45 NORTH,SHENANDOAH,TX,77381,"http://maps.google.com/maps?q=29955 IH-45 NORTH,+SHENANDOAH,+TX+77381&hl=en"
SLATON POLICE DEPARTMENT,HEARTS TOGETHER,340 W. DIVISION ST.,SLATON,TX,79364,"http://maps.google.com/maps?q=340 W. DIVISION ST.,+SLATON,+TX+79364&hl=en"
SMITHVILLE POLICE DEPARTMENT,SMITHVILLE POLICE DEPARTMENT,105 N.W. 4TH STREET,SMITHVILLE,TX,78957,"http://maps.google.com/maps?q=105 N.W. 4TH STREET,+SMITHVILLE,+TX+78957&hl=en"
STAFFORD POLICE DEPARTMENT,STAFFORD POLICE DEPARTMENT,2702 S. MAIN ST.,STAFFORD,TX,77477,"http://maps.google.com/maps?q=2702 S. MAIN ST.,+STAFFORD,+TX+77477&hl=en"
TEMPLE POLICE DEPARTMENT,TEMPLE POLICE DEPARTMENT,209 E. AVE. A,TEMPLE,TX,76501,"http://maps.google.com/maps?q=209 E. AVE. A,+TEMPLE,+TX+76501&hl=en"
TEXAS A&M,TEXAS A&M,ONE UNIVERSITY WAY,SAN ANTONIO,TX,78224,"http://maps.google.com/maps?q=ONE UNIVERSITY WAY,+SAN ANTONIO,+TX+78224&hl=en"
TEXAS CITY POLICE DEPARTMENT,TEXAS CITY POLICE DEPARTMENT,1004 9TH AVE N.,TEXAS CITY,TX,77590,"http://maps.google.com/maps?q=1004 9TH AVE N.,+TEXAS CITY,+TX+77590&hl=en"
TRAVIS COUNTY CONSTABLE - PRECINCT 5,TRAVIS COUNTY CONSTABLE - PRECINCT 5,1003 GUADALUPE STREET,AUSTIN,TX,78701,"http://maps.google.com/maps?q=1003 GUADALUPE STREET,+AUSTIN,+TX+78701&hl=en"
TRAVIS COUNTY CONSTABLE PRECINCT 1,TRAVIS COUNTY CONSTABLE - PRECINCT 1,"4717 HEFLIN LANE, SUITE 127",AUSTIN,TX,78721,"http://maps.google.com/maps?q=4717 HEFLIN LANE, SUITE 127,+AUSTIN,+TX+78721&hl=en"
TRAVIS COUNTY CONSTABLE PRECINCT 2,THE HILLS OF LAKEWAY,TWO CLUBS ESTATES PARKWAY,AUSTIN,TX,78738,"http://maps.google.com/maps?q=TWO CLUBS ESTATES PARKWAY,+AUSTIN,+TX+78738&hl=en"
TRAVIS COUNTY CONSTABLE PRECINCT 2,TRAVIS COUNTY CONSTABLE PRECINCT 2,"10409 BURNETT ROAD, #150",AUSTIN,TX,78758,"http://maps.google.com/maps?q=10409 BURNETT ROAD, #150,+AUSTIN,+TX+78758&hl=en"
TRAVIS COUNTY CONSTABLE PRECINCT 3,TRAVIS COUNTY CONSTABLE PRECINCT 3,"8656 HWY 71 W, BUILDING B, SUITE 132",AUSTIN,TX,78735,"http://maps.google.com/maps?q=8656 HWY 71 W, BUILDING B, SUITE 132,+AUSTIN,+TX+78735&hl=en"
TRAVIS COUNTY CONSTABLE PRECINCT 4,TRAVIS COUNTY CONSTABLE PRECINCT 4,4011 MCKINNEY FALLS PARKWAY #1100,AUSTIN,TX,78744,"http://maps.google.com/maps?q=4011 MCKINNEY FALLS PARKWAY #1100,+AUSTIN,+TX+78744&hl=en"
VICTORIA COUNTY SHERIFF'S OFFICE,VICTORIA COUNTY SHERIFF'S OFFICE,101 NORTH GLASS STREET,VICTORIA,TX,77901,"http://maps.google.com/maps?q=101 NORTH GLASS STREET,+VICTORIA,+TX+77901&hl=en"
WACO POLICE DEPARTMENT,WACO POLICE DEPARTMENT,3115 PINE AVENUE,WACO,TX,76701,"http://maps.google.com/maps?q=3115 PINE AVENUE,+WACO,+TX+76701&hl=en"
WAYLAND BAPTIST UNIVERSITY POLICE DEPARTMENT,COVENANT HEALTH PLAINVIEW,2601 DIMMITT RD,PLAINVIEW,TX,79072,"http://maps.google.com/maps?q=2601 DIMMITT RD,+PLAINVIEW,+TX+79072&hl=en"
WEBSTER POLICE DEPARTMENT,CITY OF WEBSTER FIRE STATION,18300 HIGHWAY 3,WEBSTER,TX,77598,"http://maps.google.com/maps?q=18300 HIGHWAY 3,+WEBSTER,+TX+77598&hl=en"
WEST UNIVERSITY PUBLIC WORKS FACILITY,WEST UNIVERSITY PUBLIC WORKS FACILITY,3800 MILTON,HOUSTON,TX,77005,"http://maps.google.com/maps?q=3800 MILTON,+HOUSTON,+TX+77005&hl=en"
WHEELER AVENUE BAPTIST CHURCH,WHEELER AVE BAPTIST CHURCH,3826 WHEELER AVE,HOUSTON,TX,77004,"http://maps.google.com/maps?q=3826 WHEELER AVE,+HOUSTON,+TX+77004&hl=en"
WILLIAMSON COUNTY SHERIFF'S OFFICE,WILLIAMSON COUNTY SHERIFF'S OFFICE,508 SOUTH ROCK STREET,GEORGETOWN,TX,78626,"http://maps.google.com/maps?q=508 SOUTH ROCK STREET,+GEORGETOWN,+TX+78626&hl=en"
WINDCREST POLICE DEPARTMENT,WINDCREST POLICE DEPARTMENT,8601 MIDCROWN,WINDCREST,TX,78239,"http://maps.google.com/maps?q=8601 MIDCROWN,+WINDCREST,+TX+78239&hl=en"
WOODWAY PUBLIC SAFETY DEPARTMENT,WOODWAY PUBLIC SAFETY DEPARTMENT,920 ESTATES DRIVE,WOODWAY,TX,76712,"http://maps.google.com/maps?q=920 ESTATES DRIVE,+WOODWAY,+TX+76712&hl=en"
