Participant,CollectionSite,Address,City,State,Zip,MapURL
ALTAMONTE SPRINGS POLICE DEPARTMENT,ALTAMONTE SPRINGS POLICE DEPARTMENT,451 EAST ALTAMONTE DRIVE,ALTAMONTE SPRINGS,FL,32701,"http://maps.google.com/maps?q=451 EAST ALTAMONTE DRIVE,+ALTAMONTE SPRINGS,+FL+32701&hl=en"
AUBURNDALE POLICE DEPARTMENT,AUBURNDALE PD,2 BOBBY GREEN PLAZA,AUBURNDALE,FL,33823,"http://maps.google.com/maps?q=2 BOBBY GREEN PLAZA,+AUBURNDALE,+FL+33823&hl=en"
BAKER COUNTY SHERIFFS OFFICRE,CVS PHARMACY,121 WEST MACCLENNY AVENUE,MACCLENNY,FL,32063,"http://maps.google.com/maps?q=121 WEST MACCLENNY AVENUE,+MACCLENNY,+FL+32063&hl=en"
BARTOW POLICE DEPARTMENT,BARTOW POLICE DEPARTMENT,450 NORTH BROADWAY AVENUE450 NORTH BROADWAY AVENUE,BARTOW,FL,33830,"http://maps.google.com/maps?q=450 NORTH BROADWAY AVENUE,+BARTOW,+FL+33830&hl=en"
BELLE ISLE POLICE DEPARTMENT,BELLE ISLE POLICE DEPARTMENT,1521 NELA AVE,BELLE ISLE,FL,32809,"http://maps.google.com/maps?q=1521 NELA AVE,+BELLE ISLE,+FL+32809&hl=en"
BREVARD COUNTY SHERIFF'S OFFICE,HOBBS PHARMACY,133 N BANANA RIVER DRIVE,MERRITT ISLAND,FL,32952,"http://maps.google.com/maps?q=133 N BANANA RIVER DRIVE,+MERRITT ISLAND,+FL+32952&hl=en"
CASSELBERRY POLICE DEPARTMENT,CASSELBERRY POLICE DEPARTMENT 407-262-7616 X 1054,4195 S. US HWY 17-92,CASSELBERRY,FL,32707,"http://maps.google.com/maps?q=4195 S. US HWY 17-92,+CASSELBERRY,+FL+32707&hl=en"
CEDAR KEY POLICE DEPARTMENT,CEDAR KEY POLICE DEPARTMENT,490 2ND STREETPO BOX 339,CEDAR KEY,FL,32625,"http://maps.google.com/maps?q=490 2ND STREET,+CEDAR KEY,+FL+32625&hl=en"
CHARLTON COUNTY SHERIFF'S OFFICE,SOUTH EASTERN BANK,4233 2ND STREET,FOLKSTON,GA,31537,"http://maps.google.com/maps?q=4233 2ND STREET,+FOLKSTON,+GA+31537&hl=en"
CITY OF DELAND POLICE DEPARTMENT,DELAND POLICE DEPARTMENT,219 W. HOWRY AVE.,DELAND,FL,32720,"http://maps.google.com/maps?q=219 W. HOWRY AVE.,+DELAND,+FL+32720&hl=en"
CITY OF HOLMES BEACH POLICE DEPARTMENT,CITY OF HOLMES BEACH POLICE DEPARTMENT FRONT LOBBY OF CITY HALL,5801 MARINA DRIVE,HOLMES BEACH,FL,34217,"http://maps.google.com/maps?q=5801 MARINA DRIVE,+HOLMES BEACH,+FL+34217&hl=en"
CITY OF INDIAN HARBOUR BEACH POLICE DEPARTMENT,CITY OF INDIAN HARBOUR BEACH CITY HALL,2055 SOUTH PATRICK DR,INDIAN HARBOUR BEACH,FL,32937,"http://maps.google.com/maps?q=2055 SOUTH PATRICK DR,+INDIAN HARBOUR BEACH,+FL+32937&hl=en"
CITY OF ORMOND BEACH PD,CITY OF ORMOND BEACH PD,170 WEST GRANADA BLVD,ORMOND BEACH,FL,32174,"http://maps.google.com/maps?q=170 WEST GRANADA BLVD,+ORMOND BEACH,+FL+32174&hl=en"
CITY OF STUART POLICE DEPARTMENT,CVS PHARMACY,2284 SE FEDERAL HIGHWAY,STUART,FL,34994,"http://maps.google.com/maps?q=2284 SE FEDERAL HIGHWAY,+STUART,+FL+34994&hl=en"
CLEARWATER POLICE DEPARTMENT,COUNTRYSIDE MALL,27001 US HWY 19 N,CLEARWATER,FL,33761,"http://maps.google.com/maps?q=27001 US HWY 19 N,+CLEARWATER,+FL+33761&hl=en"
CLERMONT POLICE DEPARTMENT,WALMART,1450 JOHNS LAKE RD,CLERMONT,FL,34711,"http://maps.google.com/maps?q=1450 JOHNS LAKE RD,+CLERMONT,+FL+34711&hl=en"
COCOA BEACH POLICE DEPARTMENT,CAPE CANAVERAL HOSPITAL MAIN ENTRANCE OF MEDICAL PLAZA,701 W COCOA BEACH CSWY,COCOA BEACH,FL,32931,"http://maps.google.com/maps?q=701 W COCOA BEACH CSWY,+COCOA BEACH,+FL+32931&hl=en"
COCOA POLICE DEPARTMENT,COCOA POLICE DEPARTMENT,1226 W KING ST,COCOA,FL,32922,"http://maps.google.com/maps?q=1226 W KING ST,+COCOA,+FL+32922&hl=en"
COLUMBIA COUNTY SHERIFF'S OFFICE,CHEEK AND SCOTT PHARMACY,161 SW STONEGATE TER SUITE 105,LAKE CITY,FL,32024,"http://maps.google.com/maps?q=161 SW STONEGATE TER SUITE 105,+LAKE CITY,+FL+32024&hl=en"
DAYTONA BEACH SHORES DEPARTMENT OF PUBLIC SAFETY,DAYTONA BEACH SHORES DEPARTMENT OF PUBLIC SAFETY,3050 S ATLANTIC AVE,DAYTONA BEACH SHORES,FL,32118,"http://maps.google.com/maps?q=3050 S ATLANTIC AVE,+DAYTONA BEACH SHORES,+FL+32118&hl=en"
DRUG ENFORCEMENT ADMINISTRATION,ORANGE PARK MALL SEARS PARKING LOT (ON BLANDING BLVD),1910 WELLS ROAD,ORANGE PARK,FL,32073,"http://maps.google.com/maps?q=1910 WELLS ROAD,+ORANGE PARK,+FL+32073&hl=en"
DUNNELLON POLICE DEPARTMENT,DUNNELLON POLICE DEPARTMENT LOBBY,12014 S WILLIAMS ST,DUNNELLON,FL,34432,"http://maps.google.com/maps?q=12014 S WILLIAMS ST,+DUNNELLON,+FL+34432&hl=en"
EDGEWATER POLICE DEPARTMENT,EDGEWATER POLICE DEPARTMENT,135 E. PARK AVE.,EDGEWATER,FL,32132,"http://maps.google.com/maps?q=135 E. PARK AVE.,+EDGEWATER,+FL+32132&hl=en"
EDGEWOOD POLICE DEPARTMENT,EDGEWOOD POLICE DEPARTMENT,5565 S. ORANGE AVE,ORLANDO,FL,32809,"http://maps.google.com/maps?q=5565 S. ORANGE AVE,+ORLANDO,+FL+32809&hl=en"
EXPERIENCE WORKS RSVP/ALACHUA SHERIFF'S OFFICE,SENIOR RECREATION CENTER,5701 NW 34TH BLVD,GAINESVILLE,FL,32653,"http://maps.google.com/maps?q=5701 NW 34TH BLVD,+GAINESVILLE,+FL+32653&hl=en"
FERNANDINA BEACH POLICE DEPARTMENT,FERNANDINA BEACH POLICE DEPARTMENT FRONT LOBBY,1525 LIME STREET,FERNANDINA BEACH,FL,32034,"http://maps.google.com/maps?q=1525 LIME STREET,+FERNANDINA BEACH,+FL+32034&hl=en"
FLAGLER CO. SHERIFF'S OFFICE,FLAGLER COUNTY SHERIFFS OFFICE DISTRICT 2 OFFICE,160 CYPRESS POINT PKWY SUITE 107,PALM COAST,FL,32137,"http://maps.google.com/maps?q=160 CYPRESS POINT PKWY SUITE 107,+PALM COAST,+FL+32137&hl=en"
FLAGLER CO. SHERIFF'S OFFICE,PUBLIX,250 PALM COAST PKWY NE UNIT 1000,PALM COAST,FL,32137,"http://maps.google.com/maps?q=250 PALM COAST PKWY NE  UNIT 1000,+PALM COAST,+FL+32137&hl=en"
FLAGLER CO. SHERIFF'S OFFICE,PUBLIX,4950 BELLE TERRE PKWY,PALM COAST,FL,32137,"http://maps.google.com/maps?q=4950 BELLE TERRE PKWY,+PALM COAST,+FL+32137&hl=en"
FLAGLER CO. SHERIFF'S OFFICE,PUBLIX,800 BELLE TERRE PKWY,PALM COAST,FL,32164,"http://maps.google.com/maps?q=800 BELLE TERRE PKWY,+PALM COAST,+FL+32164&hl=en"
FLORIDA NATIONAL GUARD,HAMILTON SHERIFF'S OFFICE CHEEK AND SCOTT PHARMACY (JASPER),1150 US HWY 41 NWSUITE13,JASPER,FL,32052,"http://maps.google.com/maps?q=1150 US HWY 41 NW,+JASPER,+FL+32052&hl=en"
FLORIDA NATIONAL GUARD,SAINT JOHNS SHERIFF'S OFC/ANCIENT CITY KIDS DAY FRANCIS FIELD (11 AM - 3 PM),25 WEST CASTILLO DRIVE,SAINT AUGUSTINE,FL,32084,"http://maps.google.com/maps?q=25 WEST CASTILLO DRIVE,+SAINT AUGUSTINE,+FL+32084&hl=en"
GADSDEN COUNTY SHERIFF'S OFFICE,GADSDEN COUNTY SHERIFF'S OFFICE,339 EAST JEFFERSON STREET,QUINCY,FL,32351,"http://maps.google.com/maps?q=339 EAST JEFFERSON STREET,+QUINCY,+FL+32351&hl=en"
GLYNN/BRUNSWICK NARCOTICS ENFORCEMENT UNIT,BRUNSWICK POLICE DEPARTMENT,206 MANSFIELD STREET,BRUNSWICK,GA,31520,"http://maps.google.com/maps?q=206 MANSFIELD STREET,+BRUNSWICK,+GA+31520&hl=en"
GLYNN/BRUNSWICK NARCOTICS ENFORCEMENT UNIT,GLYNN COUNTY POLICE DEPARTMENT,157 PUBLIC SAFETY BLVD.,BRUNSWICK,GA,31525,"http://maps.google.com/maps?q=157 PUBLIC SAFETY BLVD.,+BRUNSWICK,+GA+31525&hl=en"
HAINES CITY POLICE DEPARTMENT,HAINES CITY POLICE DEPARTMENT,35400 HIGHWAY 27,HAINES CITY,FL,33844,"http://maps.google.com/maps?q=35400 HIGHWAY 27,+HAINES CITY,+FL+33844&hl=en"
HAVANA POLICE DEPARTMENT,HAVANA POLICE DEPARTMENT,121 E. 7TH AVENUE,HAVANA,FL,32333,"http://maps.google.com/maps?q=121 E. 7TH AVENUE,+HAVANA,+FL+32333&hl=en"
HILLSBOROUGH COUNTY SHERIFF'S OFFICE,CVS,2109 STATE ROAD 60 E,VALRICO,FL,33594,"http://maps.google.com/maps?q=2109 STATE ROAD 60 E,+VALRICO,+FL+33594&hl=en"
HILLSBOROUGH COUNTY SHERIFF'S OFFICE,WALGREENS,8398 SHELDON RD,TAMPA,FL,33615,"http://maps.google.com/maps?q=8398 SHELDON RD,+TAMPA,+FL+33615&hl=en"
HOLLY HILL POLICE DEPARTMENT,HOLLY HILL POLICE DEPARTMENT,1065 RIDGEWOOD AVE,DAYTONA BEACH,FL,32117,"http://maps.google.com/maps?q=1065 RIDGEWOOD AVE,+DAYTONA BEACH,+FL+32117&hl=en"
LAKE ALFRED P.D.,LAKE ALFRED PD,190 N. SEMINOLE AV,LAKE ALFRED,FL,33850,"http://maps.google.com/maps?q=190 N. SEMINOLE AV,+LAKE ALFRED,+FL+33850&hl=en"
LAKE CITY POLICE DEPT.,LAKE CITY POLICE DEPT.,225 NW MAIN BLVD,LAKE CITY,FL,32055,"http://maps.google.com/maps?q=225 NW MAIN BLVD,+LAKE CITY,+FL+32055&hl=en"
LAKE HAMILTON POLICE DEPARTMENT,LAKE HAMILTON TOWN HALL,100 SMITH AVENUE,LAKE HAMILTON,FL,33851,"http://maps.google.com/maps?q=100 SMITH AVENUE,+LAKE HAMILTON,+FL+33851&hl=en"
LAKE MARY POLICE DEPARTMENT,LAKE MARY POLICE DEPT,165 E CRYSTAL LAKE AVE,LAKE MARY,FL,32746,"http://maps.google.com/maps?q=165 E CRYSTAL LAKE AVE,+LAKE MARY,+FL+32746&hl=en"
LAKE WALES POLICE DEPARTMENT,LAKE WALES POLICE DEPARTMENT,133 E. TILLMAN AVENUE,LAKE WALES,FL,33853,"http://maps.google.com/maps?q=133 E. TILLMAN AVENUE,+LAKE WALES,+FL+33853&hl=en"
LAKELAND POLICE DEPARTMENT,LAKELAND POLICE DEPARTMENT (813)625-5942,219 NORTH MASSACHUSETTS AVENUE,LAKELAND,FL,33801,"http://maps.google.com/maps?q=219 NORTH MASSACHUSETTS AVENUE,+LAKELAND,+FL+33801&hl=en"
LEVY COUNTY SHERIFF OFFICE,CEDAR KEY POLICE DEPARTMENT,490 2ND ST,CEDAR KEY,FL,32625,"http://maps.google.com/maps?q=490 2ND ST,+CEDAR KEY,+FL+32625&hl=en"
LEVY COUNTY SHERIFF OFFICE,CHIEFLAND POLICE DEPARTMENT,14 E PARK AVE,CHIEFLAND,FL,32626,"http://maps.google.com/maps?q=14 E PARK AVE,+CHIEFLAND,+FL+32626&hl=en"
LEVY COUNTY SHERIFF OFFICE,INGLIS TOWN HALL,135 HWY 40 WEST,INGLIS,FL,34449,"http://maps.google.com/maps?q=135 HWY 40 WEST,+INGLIS,+FL+34449&hl=en"
LEVY COUNTY SHERIFF OFFICE,LEVY COUNTY SHERIFF OFFICE,9150 NE 80 AVE,BRONSON,FL,32621,"http://maps.google.com/maps?q=9150 NE 80 AVE,+BRONSON,+FL+32621&hl=en"
LIVE OAK POLICE DEPARTMENT,CHEEK & SCOTT DRUGS,1520 S. OHIO AVE.,LIVE OAK,FL,32064,"http://maps.google.com/maps?q=1520 S. OHIO AVE.,+LIVE OAK,+FL+32064&hl=en"
LONGWOOD POLICE DEPARTMENT,LONGWOOD POLICE DEPARTMENT LOBBY,235 W. CHURCH AVE,LONGWOOD,FL,32750,"http://maps.google.com/maps?q=235 W. CHURCH AVE,+LONGWOOD,+FL+32750&hl=en"
MAITLAND POLICE DEPARTMENT,CITY OF MAITLAND CITY HALL,1776 INDEPENDENCE LANE,MAITLAND,FL,32751,"http://maps.google.com/maps?q=1776 INDEPENDENCE LANE,+MAITLAND,+FL+32751&hl=en"
MAITLAND POLICE DEPARTMENT,MAITLAND POLICE DEPARTMENT,1837 FENNELL STREET,MAITLAND,FL,32751,"http://maps.google.com/maps?q=1837 FENNELL STREET,+MAITLAND,+FL+32751&hl=en"
MARION COUNTY SHERIFF'S OFFICE,MARION COUNTY SHERIFF'S OFFICE CENTRAL OPERATIONS,692 NW 30TH AVE,OCALA,FL,34475,"http://maps.google.com/maps?q=692 NW 30TH AVE,+OCALA,+FL+34475&hl=en"
MARTIN COUNTY SHERIFF'S OFFICE,WALGREENS,1250 NE JENSEN BEACH BLVD,JENSEN BEACH,FL,34957,"http://maps.google.com/maps?q=1250 NE JENSEN BEACH BLVD,+JENSEN BEACH,+FL+34957&hl=en"
MARTIN COUNTY SHERIFF'S OFFICE,WALGREENS,5800 SE FEDERAL HWY,STUART,FL,34997,"http://maps.google.com/maps?q=5800 SE FEDERAL HWY,+STUART,+FL+34997&hl=en"
MASCOTTE POLICE DEPARTMENT,MASCOTTE POLICE DEPARTMENT LOBBY,529 E MYERS BLVD,MASCOTTE,FL,34753,"http://maps.google.com/maps?q=529 E MYERS BLVD,+MASCOTTE,+FL+34753&hl=en"
MELBOURNE POLICE DEPARTMENT,MELBOURNE POLICE DEPARTMENT HEADQUARTERS FACILITY,650 N. APOLLO BLVD.,MELBOURNE,FL,32935,"http://maps.google.com/maps?q=650 N. APOLLO BLVD.,+MELBOURNE,+FL+32935&hl=en"
NASSAU COUNTY SHERIFF'S OFFICE,NASSAU COUNTY SHERIFF'S OFFICE,77151 CITIZENS CIR,YULEE,FL,32097,"http://maps.google.com/maps?q=77151 CITIZENS CIR,+YULEE,+FL+32097&hl=en"
NEW COLLEGE OF FLORIDA POLICE DEPARTMENT,NEW COLLEGE OF FLORIDA POLICE DEPARTMENT POLICE DEPARTMENT LOBBY,501 COLLEGE DRIVE,SARASOTA,FL,34243,"http://maps.google.com/maps?q=501 COLLEGE DRIVE,+SARASOTA,+FL+34243&hl=en"
NEW SMYRNA BEACH POLICE DEPARTMENT,NEW SMYRNA BEACH POLICE DEPARTMENT,246 INDUSTRIAL PARK AVENUE,NEW SMYRNA BEACH,FL,32168,"http://maps.google.com/maps?q=246 INDUSTRIAL PARK AVENUE,+NEW SMYRNA BEACH,+FL+32168&hl=en"
NORTH PORT POLICE DEPARTMENT,NORTH PORT POLICE DEPARTMENT,4980 CITY HALL BLVD.,NORTH PORT,FL,34286,"http://maps.google.com/maps?q=4980 CITY HALL BLVD.,+NORTH PORT,+FL+34286&hl=en"
OCALA POLICE DEPARTMENT,OCALA POLICE DEPARTMENT FRONT ATRIUM,402 SOUTH PINE AVENUE,OCALA,FL,34471,"http://maps.google.com/maps?q=402 SOUTH PINE AVENUE,+OCALA,+FL+34471&hl=en"
OCOEE PD,OCOEE POLICE DEPARTMENT,646 OCOEE COMMERCE PARKWAY,OCOEE,FL,34761,"http://maps.google.com/maps?q=646 OCOEE COMMERCE PARKWAY,+OCOEE,+FL+34761&hl=en"
OKEECHOBEE COUNTY SHERIFF'S DEPARTMENT,OKEECHOBEE COUNTY SHERIFF'S OFFICE,504 NW 4TH STREET,OKEECHOBEE,FL,34972,"http://maps.google.com/maps?q=504 NW 4TH STREET,+OKEECHOBEE,+FL+34972&hl=en"
ORANGE CITY POLICE DEPARTMENT,ORANGE CITY POLICE DEPARTMENT,207 NORTH HOLLY AVE,ORANGE CITY,FL,32763,"http://maps.google.com/maps?q=207 NORTH HOLLY AVE,+ORANGE CITY,+FL+32763&hl=en"
ORLANDO POLICE DEPARTMENT,CVS PHARMACY,3502 EDGEWATER DRIVE,ORLANDO,FL,32804,"http://maps.google.com/maps?q=3502 EDGEWATER DRIVE,+ORLANDO,+FL+32804&hl=en"
ORLANDO POLICE DEPARTMENT,CVS PHARMACY,4315 CURRY FORD ROAD,ORLANDO,FL,32806,"http://maps.google.com/maps?q=4315 CURRY FORD ROAD,+ORLANDO,+FL+32806&hl=en"
ORLANDO POLICE DEPARTMENT,CVS PHARMACY,5886 CONROY ROAD,ORLANDO,FL,32835,"http://maps.google.com/maps?q=5886 CONROY ROAD,+ORLANDO,+FL+32835&hl=en"
OSCEOLA COUNTY SHERIFF'S OFFICE,BOGGY CREEK MARKETPLACE (STORE #1502) PHARMACY: (407) 348-7686,2625 SIMPSON RD,KISSIMMEE,FL,34744,"http://maps.google.com/maps?q=2625 SIMPSON RD,+KISSIMMEE,+FL+34744&hl=en"
OSCEOLA COUNTY SHERIFF'S OFFICE,PLEASANT HILL COMMONS (STORE #01179) PHARMACY: (407) 932-2605,3343 S ORANGE BLOSSOM TRL,KISSIMMEE,FL,34746,"http://maps.google.com/maps?q=3343 S ORANGE BLOSSOM TRL,+KISSIMMEE,+FL+34746&hl=en"
OSCEOLA COUNTY SHERIFF'S OFFICE,PUBLIX CENTER OF ST. CLOUD (STORE #00235) PHARMACY: (407) 498-3133,4401 13TH ST,SAINT CLOUD,FL,34769,"http://maps.google.com/maps?q=4401 13TH ST,+SAINT CLOUD,+FL+34769&hl=en"
OSCEOLA COUNTY SHERIFF'S OFFICE,THE PROMENADE (STORE #00758) PHARMACY: (321) 697-0009,841 CYPRESS PKWY,POINCIANA,FL,34759,"http://maps.google.com/maps?q=841 CYPRESS PKWY,+POINCIANA,+FL+34759&hl=en"
OVIEDO POLICE DEPARTMENT,OVIEDO POLICE DEPARTMENT,300 ALEXANDRIA BLVD,OVIEDO,FL,32765,"http://maps.google.com/maps?q=300 ALEXANDRIA BLVD,+OVIEDO,+FL+32765&hl=en"
PASCO SHERIFF'S OFFICE,GULF VIEW SQUARE MALL OVERFLOW PARKING AREA,9409 US HIGHWAY 19,PORT RICHEY,FL,34668,"http://maps.google.com/maps?q=9409 US HIGHWAY 19,+PORT RICHEY,+FL+34668&hl=en"
PASCO SHERIFF'S OFFICE,THE SHOPS AT WIREGRASS IST FLOOR PARKING GARAGE,28211 PASEO DR,WESLEY CHAPEL,FL,33543,"http://maps.google.com/maps?q=28211 PASEO DR,+WESLEY CHAPEL,+FL+33543&hl=en"
PLANT CITY POLICE DEPARTMENT,CVS PHARMACY,2302 JAMES L REDMAN PKWY,PLANT CITY,FL,33563,"http://maps.google.com/maps?q=2302 JAMES L REDMAN PKWY,+PLANT CITY,+FL+33563&hl=en"
PORT ORANGE POLICE DEPARTMENT,PORT ORANGE POLICE DEPARTMENT,4545 CLYDE MORRIS BLVD,PORT ORANGE,FL,32129,"http://maps.google.com/maps?q=4545 CLYDE MORRIS BLVD,+PORT ORANGE,+FL+32129&hl=en"
ROCKLEDGE POLICE DEPT,ROCKLEGCE POLICE DEPARTMENT,1776 JACK OATES BLVD,ROCKLEDGE,FL,32955,"http://maps.google.com/maps?q=1776 JACK OATES BLVD,+ROCKLEDGE,+FL+32955&hl=en"
SAINT LUCIE COUNTY SHERIFF OFFICE,WALGREENS,1661 NW SAINT LUCIE WEST BLVD,PORT SAINT LUCIE,FL,34986,"http://maps.google.com/maps?q=1661 NW SAINT LUCIE WEST BLVD,+PORT SAINT LUCIE,+FL+34986&hl=en"
SANFORD POLICE DEPARTMENT,SANFORD POLICE DEPARTMENT,815 HISTORIC GOLDSBORO BLVD.,SANFORD,FL,32771,"http://maps.google.com/maps?q=815 HISTORIC GOLDSBORO BLVD.,+SANFORD,+FL+32771&hl=en"
SARASOTA COUNTY SHERIFF'S OFFICE,SARASOTA COUNTY SHERIFF'S OFFICE,4531 STATE ROAD 776,VENICE,FL,34293,"http://maps.google.com/maps?q=4531 STATE ROAD 776,+VENICE,+FL+34293&hl=en"
SARASOTA COUNTY SHERIFF'S OFFICE,SARASOTA COUNTY SHERIFF'S OFFICE,6010 CATTLERIDGE BLVD,SARASOTA,FL,34232,"http://maps.google.com/maps?q=6010 CATTLERIDGE BLVD,+SARASOTA,+FL+34232&hl=en"
SARASOTA POLICE DEPT.,SARASOTA POLICE DEPARTMENT,2099 ADAMS LN.,SARASOTA,FL,34236,"http://maps.google.com/maps?q=2099 ADAMS LN.,+SARASOTA,+FL+34236&hl=en"
SEMINOLE COUNTY SHERIFF'S OFFICE,SEMINOLE COUNTY SHERIFF'S OFFICE - MAIN OFFICE,100 ESLINGER WAY,SANFORD,FL,32773,"http://maps.google.com/maps?q=100 ESLINGER WAY,+SANFORD,+FL+32773&hl=en"
SEMINOLE COUNTY SHERIFF'S OFFICE,SEMINOLE COUNTY SHERIFF'S OFFICE EAST REGION,1225 E BROADWAY STR,OVIEDO,FL,32765,"http://maps.google.com/maps?q=1225 E BROADWAY STR,+OVIEDO,+FL+32765&hl=en"
SEMINOLE COUNTY SHERIFF'S OFFICE,SEMINOLE COUNTY SHERIFF'S OFFICE NORTH REGION,805 PRIMERA BLVD.,LAKE MARY,FL,32746,"http://maps.google.com/maps?q=805 PRIMERA BLVD.,+LAKE MARY,+FL+32746&hl=en"
SEMINOLE COUNTY SHERIFF'S OFFICE,SEMINOLE COUNTY SHERIFF'S OFFICE SOUTH REGION,120 W. PINEVIEW ST.,ALTAMONTE SPRINGS,FL,32714,"http://maps.google.com/maps?q=120 W. PINEVIEW ST.,+ALTAMONTE SPRINGS,+FL+32714&hl=en"
ST. AUGUSTINE POLICE DEPARTMENT,ST AUGUSTINE POLICE DEPARTMENT,151 KING ST,SAINT AUGUSTINE,FL,32084,"http://maps.google.com/maps?q=151 KING ST,+SAINT AUGUSTINE,+FL+32084&hl=en"
ST. PETERSBURG POLICE DEPARTMENT,ST. PETERSBURG POLICE DEPARTMENT POLICE HEADQUARTERS,1300 1ST AVENUE NORTH,SAINT PETERSBURG,FL,33705,"http://maps.google.com/maps?q=1300 1ST AVENUE NORTH,+SAINT PETERSBURG,+FL+33705&hl=en"
TALLAHASSEE POLICE DEPARTMENT,TALLAHASSEE POLICE DEPARTMENT,234 E. 7TH AV,TALLAHASSEE,FL,32303,"http://maps.google.com/maps?q=234 E. 7TH AV,+TALLAHASSEE,+FL+32303&hl=en"
TAMPA POLICE DEPARTMENT,CVS,102 S DALE MABRY,TAMPA,FL,33609,"http://maps.google.com/maps?q=102 S DALE MABRY,+TAMPA,+FL+33609&hl=en"
TAMPA POLICE DEPARTMENT,CVS,2502 W HILLSBOURUGH AVE,TAMPA,FL,33614,"http://maps.google.com/maps?q=2502 W HILLSBOURUGH AVE,+TAMPA,+FL+33614&hl=en"
UNIVERSITY OF CENTRAL FLORIDA POLICE DEPT,UNIVERSITY OF CENTRAL FLORIDA,4000 CENTRAL FLORIDA BLVD,ORLANDO,FL,32816,"http://maps.google.com/maps?q=4000 CENTRAL FLORIDA BLVD,+ORLANDO,+FL+32816&hl=en"
UNIVERSITY OF SOUTH FLORIDA POLICE DEPARTMENT,USF MORSANI CENTER FOR ADVANCED HEALTHCARE,13330 USF LAUREL DRIVE,TAMPA,FL,33613,"http://maps.google.com/maps?q=13330 USF LAUREL DRIVE,+TAMPA,+FL+33613&hl=en"
VOLUSIA COUNTY SHERIFF'S OFFICE,VOLUSIA SHERIFF'S DIST 2 OFFICE,1706 S. WOODLAND BLVD.,DELAND,FL,32720,"http://maps.google.com/maps?q=1706 S. WOODLAND BLVD.,+DELAND,+FL+32720&hl=en"
VOLUSIA COUNTY SHERIFF'S OFFICE,VOLUSIA SHERIFF'S DIST 3 NORTH OFFICE,"1435 US HWY 1, SUITE D-3",ORMOND BEACH,FL,32174,"http://maps.google.com/maps?q=1435 US HWY 1, SUITE D-3,+ORMOND BEACH,+FL+32174&hl=en"
VOLUSIA COUNTY SHERIFF'S OFFICE,VOLUSIA SHERIFF'S DIST 3 SOUTH OFFICE,101 E. CANAL STREET,NEW SMYRNA BEACH,FL,32168,"http://maps.google.com/maps?q=101 E. CANAL STREET,+NEW SMYRNA BEACH,+FL+32168&hl=en"
VOLUSIA COUNTY SHERIFF'S OFFICE,VOLUSIA SHERIFF'S DIST 4 OFFICE,1691 PROVIDENCE BLVD.,DELTONA,FL,32725,"http://maps.google.com/maps?q=1691 PROVIDENCE BLVD.,+DELTONA,+FL+32725&hl=en"
VOLUSIA COUNTY SHERIFF'S OFFICE,VOLUSIA SHERIFF'S DIST 6 OFFICE,79 SOUTH CHARLES R. BEALL BLVD.,DEBARY,FL,32713,"http://maps.google.com/maps?q=79 SOUTH CHARLES R. BEALL BLVD.,+DEBARY,+FL+32713&hl=en"
WAKULLA COUNTY SHERIFFS OFFICE,WAKULLA COUNTY SHERIFF'S OFFICE ANNEX OUTSIDE FRONT DOOR,16 OAK STREET,CRAWFORDVILLE,FL,32327,"http://maps.google.com/maps?q=16 OAK STREET,+CRAWFORDVILLE,+FL+32327&hl=en"
WAUCHULA POLICE DEPARTMENT,WAUCHULA POLICE DEPARTMENT,128 S 7TH AVE,WAUCHULA,FL,33873,"http://maps.google.com/maps?q=128 S 7TH AVE,+WAUCHULA,+FL+33873&hl=en"
WEST MELBOURNE POLICE DEPARTMENT,WEST MELBOURNE POLICE DEPARTMENT,2290 MINTON ROAD,MELBOURNE,FL,32904,"http://maps.google.com/maps?q=2290 MINTON ROAD,+MELBOURNE,+FL+32904&hl=en"
WHITE SPRINGS POLICE DEPARTMENT,WHITE SPRINGS POLICE DEPARTMENT,10363 BRIDGE STREET,WHITE SPRINGS,FL,32096,"http://maps.google.com/maps?q=10363 BRIDGE STREET,+WHITE SPRINGS,+FL+32096&hl=en"
WILLISTON POLICE DEPARTMENT,WILLISTON POLICE DEPARTMENT,5 SOUTHWEST 1ST AVENUE,WILLISTON,FL,32696,"http://maps.google.com/maps?q=5 SOUTHWEST 1ST AVENUE,+WILLISTON,+FL+32696&hl=en"
WINDERMERE POLICE DEPARTMENT,WINDERMERE POLICE DEPARTMENT,620 MAIN ST.,WINDERMERE,FL,34786,"http://maps.google.com/maps?q=620 MAIN ST.,+WINDERMERE,+FL+34786&hl=en"
WINTER GARDEN POLICE DEPARTMENT,WINTER GARDEN POLICE DEPARTMENT,251 WEST PLANT STREET,WINTER GARDEN,FL,34787,"http://maps.google.com/maps?q=251 WEST PLANT STREET,+WINTER GARDEN,+FL+34787&hl=en"
WINTER HAVEN POLICE DEPARTMENT,WINTER HAVEN POLICE DEPARTMENT PERMANENT COLLECTION SITE - FRONT LOBBY,125 LAKE SILVER DR NW,WINTER HAVEN,FL,33881,"http://maps.google.com/maps?q=125  LAKE SILVER DR NW,+WINTER HAVEN,+FL+33881&hl=en"
WINTER PARK POLICE DEPARTMENT,WINTER PARK PD,500 NORTH VIRGINIA AVE.,WINTER PARK,FL,32789,"http://maps.google.com/maps?q=500 NORTH VIRGINIA AVE.,+WINTER PARK,+FL+32789&hl=en"
WINTER SPRINGS POLICE DEPARTMENT,WINTER SPRINGS POLICE DEPARTMENT,300 N. MOSS RD,WINTER SPRINGS,FL,32708,"http://maps.google.com/maps?q=300 N. MOSS RD,+WINTER SPRINGS,+FL+32708&hl=en"
ZEPHYRHILLS POLICE DEPARTMENT,ZEPHYRHILLS POLICE DEPARTMENT,6118 8TH STREET,ZEPHYRHILLS,FL,33542,"http://maps.google.com/maps?q=6118 8TH STREET,+ZEPHYRHILLS,+FL+33542&hl=en"
