Participant,CollectionSite,Address,City,State,Zip,MapURL
BEAVERHEAD COUNTY SHERIFF OFFICE,BEAVERHEAD COUNTY SHERIFF OFFICE,2 SOUTH PACIFIC STREETSTE 16,DILLON,MT,59725,"http://maps.google.com/maps?q=2 SOUTH PACIFIC STREET,+DILLON,+MT+59725&hl=en"
BLACKFEET LAW ENFORCEMENT,BLACKFEET COLLECTION,46 MUSEUM LOOP,BROWNING,MT,59417,"http://maps.google.com/maps?q=46 MUSEUM LOOP,+BROWNING,+MT+59417&hl=en"
BLACKFOOT POLICE DEPT,PATRIOT FIELD 217 WEST FRANCIS (AT THE CORNER OF FRANCIS AND ASH),FRANCIS AND ASH,BLACKFOOT,ID,83221,"http://maps.google.com/maps?q=FRANCIS AND ASH,+BLACKFOOT,+ID+83221&hl=en"
BUTTE_SILVER BOW LAW ENFORCEMENT,BUTTE PLAZA MALL,3100 HARRISON AVENUE,BUTTE,MT,59701,"http://maps.google.com/maps?q=3100 HARRISON AVENUE,+BUTTE,+MT+59701&hl=en"
CARBON COUNTY SHERIFF'S OFFICE,CARBON COUNTY SHERIFF'S OFFICE,102 N. BROADWAY,RED LODGE,MT,59068,"http://maps.google.com/maps?q=102 N. BROADWAY,+RED LODGE,+MT+59068&hl=en"
CHIPPAWA CREE LAW ENFORCEMENT,CHIPPAWA CREE,535 CLINIC ROAD,BOX ELDER,MT,59521,"http://maps.google.com/maps?q=535 CLINIC ROAD,+BOX ELDER,+MT+59521&hl=en"
CODY POLICE DEPARTMENT,CODY LAW ENFORCEMENT CENTER,1402 RIVER VIEW DRIVE,CODY,WY,82414,"http://maps.google.com/maps?q=1402 RIVER VIEW DRIVE,+CODY,+WY+82414&hl=en"
FT. BELKNAP LAW ENFORCEMENT,FT. BELKNAP,456 GROS VENTRE AVENUE,HARLEM,MT,59526,"http://maps.google.com/maps?q=456 GROS VENTRE AVENUE,+HARLEM,+MT+59526&hl=en"
GALLATIN COUNTY SHERIFF'S OFFICE/ BOZEMAN CITY POL,GALLATIN COUNTY LAW AND JUSTICE CENTER,615 SOUTH 16TH AVE,BOZEMAN,MT,59715,"http://maps.google.com/maps?q=615 SOUTH 16TH AVE,+BOZEMAN,+MT+59715&hl=en"
GARFIELD COUNTY SHERIFF'S OFFICE,GARFIELD COUNTY SHERIFF'S OFFICE,352 LEAVITT AVE,JORDAN,MT,59337,"http://maps.google.com/maps?q=352 LEAVITT AVE,+JORDAN,+MT+59337&hl=en"
GLACIER COUNTY SHERIFF'S OFFICE,GLACIER COUNTY SHERIFF SITE#1,913 EAST RAILROAD ST,CUT BANK,MT,59427,"http://maps.google.com/maps?q=913 EAST RAILROAD ST,+CUT BANK,+MT+59427&hl=en"
GLACIER COUNTY SHERIFF'S OFFICE,GLACIER PEAK'S CASINO,416 W CENTRAL AVEINTERSECTION US 2 & HWY 89N,BROWNING,MT,59417,"http://maps.google.com/maps?q=416 W CENTRAL AVE,+BROWNING,+MT+59417&hl=en"
HAVRE POLICE DEPARTMENT,HAVRE POLICE DEPARTMENT,520 4TH ST,HAVRE,MT,59501,"http://maps.google.com/maps?q=520 4TH ST,+HAVRE,+MT+59501&hl=en"
IDAHO FALLS POLICE DEPARTMENT,BONNEVILLE COUNTY COURTHOUSE,605 N. CAPITAL AVE,IDAHO FALLS,ID,83402,"http://maps.google.com/maps?q=605 N. CAPITAL AVE,+IDAHO FALLS,+ID+83402&hl=en"
JACKSON POLICE DEPARTMENT,JACKSON POLICE DEPARTMENT,150 EAST PEARL AVENUE,JACKSON,WY,83001,"http://maps.google.com/maps?q=150 EAST PEARL AVENUE,+JACKSON,+WY+83001&hl=en"
JEFFERSON COUNTY SHERIFF'S OFFICE,JEFFERSON COUNTY SHERIFF'S OFFICE,200 COURTHOUSE WAY,RIGBY,ID,83442,"http://maps.google.com/maps?q=200 COURTHOUSE WAY,+RIGBY,+ID+83442&hl=en"
LEWIS AND CLARK COUNTY SHERIFF'S OFFICE,LINCOLN POST OFFICE,237 MAIN STREET,LINCOLN,MT,59639,"http://maps.google.com/maps?q=237 MAIN STREET,+LINCOLN,+MT+59639&hl=en"
LEWIS AND CLARK COUNTY SHERIFF'S OFFICE,SHOPKO,3101 N MONTANA AVENUE,HELENA,MT,59602,"http://maps.google.com/maps?q=3101 N MONTANA AVENUE,+HELENA,+MT+59602&hl=en"
LEWIS AND CLARK COUNTY SHERIFF'S OFFICE,WALGREENS,1150 11TH AVE,HELENA,MT,59601,"http://maps.google.com/maps?q=1150 11TH AVE,+HELENA,+MT+59601&hl=en"
LEWISTOWN POLICE DEPARTMENT,LEWISTOWN POLICE DEPARTMENT,305 WEST WATSON STREET,LEWISTOWN,MT,59457,"http://maps.google.com/maps?q=305 WEST WATSON STREET,+LEWISTOWN,+MT+59457&hl=en"
LIVINGSTON POLICE DEPARTMENT AND ELKS CLUB,ELKS LODGE #246,130 SOUTH 2ND STREET,LIVINGSTON,MT,59047,"http://maps.google.com/maps?q=130 SOUTH 2ND STREET,+LIVINGSTON,+MT+59047&hl=en"
MADISON COUNTY SHERIFF'S OFFICE,FAT CATS,475 N. 2ND E,REXBURG,ID,83440,"http://maps.google.com/maps?q=475 N. 2ND E,+REXBURG,+ID+83440&hl=en"
MCCALL POLICE DEPT,POLICE DEPT,550 DEINHARD LANE,MCCALL,ID,83638,"http://maps.google.com/maps?q=550 DEINHARD LANE,+MCCALL,+ID+83638&hl=en"
MINERAL COUNTY SHERIFF'S OFFICE,MINERAL COUNTY SHERIFF'S OFFICE,310 RIVER STREET,SUPERIOR,MT,59872,"http://maps.google.com/maps?q=310 RIVER STREET,+SUPERIOR,+MT+59872&hl=en"
MISSOULA POLICE DEPARTMENT,SOUTHGATE MALL,2901 BROOKS AVENUE,MISSOULA,MT,59801,"http://maps.google.com/maps?q=2901 BROOKS AVENUE,+MISSOULA,+MT+59801&hl=en"
MONTANA HIGHWAY PATROL - GREAT FALLS,MONTANA HIGHWAY PATROL,812 - 14TH STREET NORTH,GREAT FALLS,MT,59401,"http://maps.google.com/maps?q=812 - 14TH STREET NORTH,+GREAT FALLS,+MT+59401&hl=en"
MONTANA HIGHWAY PATROL - HELENA,HELENA FAMILY YMCA,1200 N LAST CHANCE GULCH,HELENA,MT,59601,"http://maps.google.com/maps?q=1200 N LAST CHANCE GULCH,+HELENA,+MT+59601&hl=en"
MONTANA HIGHWAY PATROL - HELENA,HELENA SHOPKO,3101 N. MONTANA AVE.,HELENA,MT,59601,"http://maps.google.com/maps?q=3101 N. MONTANA AVE.,+HELENA,+MT+59601&hl=en"
MSU BOZEMEN POLICE DEPT,MSU BOZEMAN POLICE DEPT,101 HUFFMAN BUILDING,BOZEMAN,MT,59717,"http://maps.google.com/maps?q=101 HUFFMAN BUILDING,+BOZEMAN,+MT+59717&hl=en"
MUSSELSHELL COUNTY SHERIFF'S DEPT.,MUSSELSHELL COUNTY SHERIFF DEPARTMENT,820 MAIN STREET,ROUNDUP,MT,59072,"http://maps.google.com/maps?q=820 MAIN STREET,+ROUNDUP,+MT+59072&hl=en"
NATIONAL PARK SERVICE - MONTANA,YELLOWSTONE FOREVER,308 W PARK ST,GARDINER,MT,59030,"http://maps.google.com/maps?q=308 W PARK ST,+GARDINER,+MT+59030&hl=en"
POWELL POLICE DEPARTMENT,POWELL POLICE DEPARTMENT,250 NORTH CLARK STREET,POWELL,WY,82435,"http://maps.google.com/maps?q=250 NORTH CLARK STREET,+POWELL,+WY+82435&hl=en"
REXBURG POLICE DEPARTMENT,MADISON SCHOOL DISTRICT OFFICE MADISON SCHOOL DISTRICT OFFICE,60 WEST MAIN STREET,REXBURG,ID,83440,"http://maps.google.com/maps?q=60 WEST MAIN STREET,+REXBURG,+ID+83440&hl=en"
RONAN POLICE DEPARTMENT,RONAN POLICE DEPARTMENT,109 2ND AVE SW,RONAN,MT,59864,"http://maps.google.com/maps?q=109 2ND AVE SW,+RONAN,+MT+59864&hl=en"
ST. ANTHONY POLICE DEPT,ST. ANTHONTY CITY HALL BUILDING,420 N BRIDGE ST,SAINT ANTHONY,ID,83445,"http://maps.google.com/maps?q=420 N BRIDGE ST,+SAINT ANTHONY,+ID+83445&hl=en"
STILLWATER COUNTY SHERIFF'S OFFICE,STILLWATER COUNTY SHERIFF'S OFFICE,400 E 3RD AVE N,COLUMBUS,MT,59019,"http://maps.google.com/maps?q=400 E 3RD AVE N,+COLUMBUS,+MT+59019&hl=en"
SWEET GRASS COUNTY SHERIFF,SWEET GRASS COUNTY SHERIFF'S OFFICE,200 WEST FIRST STREET,BIG TIMBER,MT,59011,"http://maps.google.com/maps?q=200 WEST FIRST STREET,+BIG TIMBER,+MT+59011&hl=en"
WEST YELLOWSTONE POLICE DEPARTMENT,TOWN OF WEST YELLOWSTONE OFFICE,440 YELLOWSTONE AVE,WEST YELLOWSTONE,MT,59758,"http://maps.google.com/maps?q=440 YELLOWSTONE AVE,+WEST YELLOWSTONE,+MT+59758&hl=en"
WHEATLAND COUNTY SHERIFF'S OFFICE,WHEATLAND COUNTY SHERIFF'S OFFICE,203 A AVENUE NW,HARLOWTON,MT,59036,"http://maps.google.com/maps?q=203 A AVENUE NW,+HARLOWTON,+MT+59036&hl=en"
WHITEFISH POLICE DEPARTMENT,WHITEFISH POLICE DEPARTMENT,275 FLATHEAD AVE,WHITEFISH,MT,59937,"http://maps.google.com/maps?q=275 FLATHEAD AVE,+WHITEFISH,+MT+59937&hl=en"
