Participant,CollectionSite,Address,City,State,Zip,MapURL
ANDROSCOGGIN SHERIFF'S DEPARTMENT,POLAND TOWN OFFICE COMPLEX,1231 MAINE ST,POLAND,ME,04274,"http://maps.google.com/maps?q=1231 MAINE ST,+POLAND,+ME+04274&hl=en"
ANDROSCOGGIN SHERIFF'S DEPARTMENT,TURNER FIRE & RESCUE STATION,19 GENERAL TURNER HILL ROAD,TURNER,ME,04282,"http://maps.google.com/maps?q=19 GENERAL TURNER HILL ROAD,+TURNER,+ME+04282&hl=en"
AROOSTOOK COUNTY SHERIFF'S OFFICE,AROOSTOOK COUNTY SHERIFF'S OFFICE,25 SCHOOL STREET,HOULTON,ME,04730,"http://maps.google.com/maps?q=25 SCHOOL STREET,+HOULTON,+ME+04730&hl=en"
AUBURN POLICE DEPARTMENT,AUBURN POLICE DEPARTMENT COLLECTION BOX IN LOBBY,60 COURT STREET,AUBURN,ME,04210,"http://maps.google.com/maps?q=60 COURT STREET,+AUBURN,+ME+04210&hl=en"
AUBURN POLICE DEPARTMENT,BEDARD PHARMACY FRONT PARKING LOT,359 MINOT AVE,AUBURN,ME,04210,"http://maps.google.com/maps?q=359 MINOT AVE,+AUBURN,+ME+04210&hl=en"
AUGUSTA POLICE DEPARTMENT,AUGUSTA POLICE DEPARTMENT,33 UNION STREETSUITE #1,AUGUSTA,ME,04330,"http://maps.google.com/maps?q=33 UNION STREET,+AUGUSTA,+ME+04330&hl=en"
BAILEYVILLE POLICE DEPARTMENT,BAILEYVILLE POLICE DEPARTMENT,63 BROADWAY ST.,BAILEYVILLE,ME,04694,"http://maps.google.com/maps?q=63 BROADWAY ST.,+BAILEYVILLE,+ME+04694&hl=en"
BANGOR POLICE DEPARTMENT,BANGOR POLICE DEPARTMENT COLLECTION BOX IN LOBBY - JASON MCAMBLEY,240 MAIN STREET,BANGOR,ME,04401,"http://maps.google.com/maps?q=240 MAIN STREET,+BANGOR,+ME+04401&hl=en"
BAR HARBOR POLICE DEPARTMENT,BAR HARBOR POLICE DEPARTMENT,37 FIREFLY LANE,BAR HARBOR,ME,04609,"http://maps.google.com/maps?q=37 FIREFLY LANE,+BAR HARBOR,+ME+04609&hl=en"
BARTLETT POLICE DEPARTMENT,BARTLETT POLICE DEPARTMENT BARTLETT TOWN HALL LOBBY,56 TOWN HALL ROAD,INTERVALE,NH,03845,"http://maps.google.com/maps?q=56 TOWN HALL ROAD,+INTERVALE,+NH+03845&hl=en"
BATH POLICE DEPARTMENT,BATH POLICE DEPARTMENT,250 WATER STREET,BATH,ME,04530,"http://maps.google.com/maps?q=250 WATER STREET,+BATH,+ME+04530&hl=en"
BELFAST POLICE DEPARTMENT,BELFAST POLICE DEPARTMENT,112 CHURCH STREET,BELFAST,ME,04915,"http://maps.google.com/maps?q=112 CHURCH STREET,+BELFAST,+ME+04915&hl=en"
BERLIN POLICE DEPARTMENT,BERLIN POLICE DEPARTMENT,135 GREEN ST,BERLIN,NH,03570,"http://maps.google.com/maps?q=135 GREEN ST,+BERLIN,+NH+03570&hl=en"
BERWICK POLICE DEPARTMENT,BERWICK POLICE DEPARTMENT,20 WILSON STREET,BERWICK,ME,03901,"http://maps.google.com/maps?q=20 WILSON STREET,+BERWICK,+ME+03901&hl=en"
BETHLEHEM POLICE DEPARTMENT,BETHLEHEM POLICCE DEPARTMENT,2155 MAIN ST,BETHLEHEM,NH,03574,"http://maps.google.com/maps?q=2155 MAIN ST,+BETHLEHEM,+NH+03574&hl=en"
BIDDEFORD POLICE DEPARTMENT,BIDDEFORD PUBLIC WORKS,371 HILL ST.,BIDDEFORD,ME,04005,"http://maps.google.com/maps?q=371 HILL ST.,+BIDDEFORD,+ME+04005&hl=en"
BOOTHBAY HARBOR POLICE DEPARTMENT,BOOTHBAY HARBOR POLICE DEPARTMENT,11 HOWARD STREET,BOOTHBAY HARBOR,ME,04538,"http://maps.google.com/maps?q=11 HOWARD STREET,+BOOTHBAY HARBOR,+ME+04538&hl=en"
BREWER POLICE DEPARTMENT,BREWER POLICE DEPARTMENT,151 PARKWAY SOUTH,BREWER,ME,04412,"http://maps.google.com/maps?q=151 PARKWAY SOUTH,+BREWER,+ME+04412&hl=en"
BRIDGTON POLICE DEPARTMENT,BRIDGTON COMMUNITY CENTER,15 DEPOT STREET,BRIDGTON,ME,04009,"http://maps.google.com/maps?q=15 DEPOT STREET,+BRIDGTON,+ME+04009&hl=en"
BRUNSWICK POLICE DEPARTMENT,BRUNSWICK POLICE DEPARTMENT,85 PLEASANT STREET,BRUNSWICK,ME,04011,"http://maps.google.com/maps?q=85 PLEASANT STREET,+BRUNSWICK,+ME+04011&hl=en"
BUCKSPORT POLICE DEPARTMENT,BUCKSPORT POLICE DEPARTMENT,89 FRANKLIN STREET,BUCKSPORT,ME,04416,"http://maps.google.com/maps?q=89 FRANKLIN STREET,+BUCKSPORT,+ME+04416&hl=en"
BUXTON POLICE DEPARTMENT,BUXTON POLICE DEPARTMENT,185 PORTLAND ROAD,BUXTON,ME,04093,"http://maps.google.com/maps?q=185 PORTLAND ROAD,+BUXTON,+ME+04093&hl=en"
BUXTON POLICE DEPARTMENT,RITE AID PHARMACY COLLECTION BY BUXTON PD OUTSIDE PHARMACY,226 PARKER FARM ROAD,BUXTON,ME,04093,"http://maps.google.com/maps?q=226 PARKER FARM ROAD,+BUXTON,+ME+04093&hl=en"
CALAIS POLICE DEPARTMENT,CALAIS POLICE DEPARTMENT LOBBY,312 NORTH STREET,CALAIS,ME,04619,"http://maps.google.com/maps?q=312 NORTH STREET,+CALAIS,+ME+04619&hl=en"
CALEDONIA COUNTY SHERIFF DEPT.,CALEDONIA COUNTY SHERIFF DEPT. DEAN SHATNEY,970 MEMORIAL DRIVE,SAINT JOHNSBURY,VT,05819,"http://maps.google.com/maps?q=970 MEMORIAL DRIVE,+SAINT JOHNSBURY,+VT+05819&hl=en"
CAMDEN POLICE DEPARTMENT,CAMDEN POLICE DEPARTMENT,31 WASHINGTON STREET,CAMDEN,ME,04843,"http://maps.google.com/maps?q=31 WASHINGTON STREET,+CAMDEN,+ME+04843&hl=en"
CAMPTON POLICE DEPARTMENT,CAMPTON POLICE DEPARTMENT SGT. FOSS,12 GEARTY WAY,CAMPTON,NH,03223,"http://maps.google.com/maps?q=12 GEARTY WAY,+CAMPTON,+NH+03223&hl=en"
CAPE ELIZABETH POLICE DEPARTMENT,CAPE ELIZABETH POLICE DEPARTMENT,325 OCEAN HOUSE ROAD,CAPE ELIZABETH,ME,04107,"http://maps.google.com/maps?q=325 OCEAN HOUSE ROAD,+CAPE ELIZABETH,+ME+04107&hl=en"
CARIBOU POLICE DEPARTMENT,CARIBOU POLICE DEPARTMENT,25 HIGH STREET,CARIBOU,ME,04736,"http://maps.google.com/maps?q=25 HIGH STREET,+CARIBOU,+ME+04736&hl=en"
CARROLL COUNTY SHERIFF'S OFFICE,CARROLL COUNTY ADMINISTRATION BUILDING LOBBY BOX OR PARKING LOT ON 10/27/18 FROM 10 AM - 2 PM,95 WATER VILLAGE ROAD,OSSIPEE,NH,03864,"http://maps.google.com/maps?q=95 WATER VILLAGE ROAD,+OSSIPEE,+NH+03864&hl=en"
CLINTON POLICE DEPARTMENT,CLINTON POLICE DEPARTMENT,27 BAKER STREET,CLINTON,ME,04927,"http://maps.google.com/maps?q=27 BAKER STREET,+CLINTON,+ME+04927&hl=en"
COLEBROOK POLICE DEPARTMENT,COLEBROOK TOWN HALL CHIEF STEPHEN R. CASS,17 BRIDGE STREET,COLEBROOK,NH,03576,"http://maps.google.com/maps?q=17 BRIDGE STREET,+COLEBROOK,+NH+03576&hl=en"
CUMBERLAND COUNTY SHERIFF'S OFFICE,CUMBERLAND COUNTY SHERIFF'S OFFICE FRONT LOBBY - MEDICATION COLLECTION BOX,36 COUNTY WAY,PORTLAND,ME,04102,"http://maps.google.com/maps?q=36 COUNTY WAY,+PORTLAND,+ME+04102&hl=en"
CUMBERLAND COUNTY SHERIFF'S OFFICE,HARPSWELL TOWN HALL OPERATED BY CUMBERLAND COUNTY SHERIFF'S OFFICE,263 MOUNTAIN ROAD,HARPSWELL,ME,04079,"http://maps.google.com/maps?q=263 MOUNTAIN ROAD,+HARPSWELL,+ME+04079&hl=en"
CUMBERLAND COUNTY SHERIFF'S OFFICE,RAYMOND FIRE DEPARTMENT OPERATED BY CUMBERLAND COUNTY SHERIFF'S OFFICE,1443ROOSEVELT TRAIL,RAYMOND,ME,04071,"http://maps.google.com/maps?q=1443,+RAYMOND,+ME+04071&hl=en"
CUMBERLAND COUNTY SHERIFF'S OFFICE,STANDISH TOWN HALL OPERATED BY CUMBERLAND COUNTY SHERIFF'S OFFICE,175 NORTH EAST ROAD,STANDISH,ME,04084,"http://maps.google.com/maps?q=175 NORTH EAST ROAD,+STANDISH,+ME+04084&hl=en"
CUMBERLAND COUNTY SHERIFF'S OFFICE,UNIVERSITY OF NEW ENGLAND SCHOOL OF PHARMACY ENTRANCE ON STEVENS STREET - OPERATED BY DEA,716 STEVENS AVENUE,PORTLAND,ME,04103,"http://maps.google.com/maps?q=716 STEVENS AVENUE,+PORTLAND,+ME+04103&hl=en"
CUMBERLAND POLICE DEPARTMENT,CUMBERLAND POLICE DEPARTMENT,290 TUTTLE ROAD,CUMBERLAND CENTER,ME,04021,"http://maps.google.com/maps?q=290 TUTTLE ROAD,+CUMBERLAND CENTER,+ME+04021&hl=en"
DAMARISCOTTA POLICE DEPARTMENT,MILES MEMORIAL HOSPITAL FRONT WAITING ROOM MAIN ENTRANCE,35 MILES STREET,DAMARISCOTTA,ME,04543,"http://maps.google.com/maps?q=35 MILES STREET,+DAMARISCOTTA,+ME+04543&hl=en"
DEXTER POLICE DEPARTMENT,DEXTER POLICE STATION COLLECTION BOX IN LOBBY,1 MAIN STREET,DEXTER,ME,04930,"http://maps.google.com/maps?q=1 MAIN STREET,+DEXTER,+ME+04930&hl=en"
DIXFIELD POLICE DEPARTMENT,DIXFIELD POLICE DEPARTMENT,236 MAIN STREET,DIXFIELD,ME,04224,"http://maps.google.com/maps?q=236 MAIN STREET,+DIXFIELD,+ME+04224&hl=en"
DOVER POLICE DEPARTMENT,DOVER POLICE DEPARTMENT,46 CHESTNUT ST,DOVER,NH,03820,"http://maps.google.com/maps?q=46 CHESTNUT ST,+DOVER,+NH+03820&hl=en"
DOVER-FOXCROFT POLICE DEPARTMENT,DOVER-FOXCROFT POLICE DEPARTMENT,182 EAST MAIN STREET,DOVER FOXCROFT,ME,04426,"http://maps.google.com/maps?q=182 EAST MAIN STREET,+DOVER FOXCROFT,+ME+04426&hl=en"
EAST MILLINOCKET POLICE DEPARTMENT,EAST MILLINOCKET POLICE DEPARTMENT COLLECTION BOX IN LOBBY,125 MAIN STREET,EAST MILLINOCKET,ME,04430,"http://maps.google.com/maps?q=125 MAIN STREET,+EAST MILLINOCKET,+ME+04430&hl=en"
EASTPORT POLICE DEPARTMENT,EASTPORT POLICE DEPARTMENT,22 WASHINGTON STREET,EASTPORT,ME,04631,"http://maps.google.com/maps?q=22 WASHINGTON STREET,+EASTPORT,+ME+04631&hl=en"
ELIOT POLICE DEPARTMENT,ELIOT POLICE DEPARTMENT,27 DIXON ROAD,ELIOT,ME,03903,"http://maps.google.com/maps?q=27 DIXON ROAD,+ELIOT,+ME+03903&hl=en"
ELLSWORTH POLICE DEPARTMENT,ELLSWORTH POLICE DEPARTMENT,1 CITY HALL PLAZA,ELLSWORTH,ME,04605,"http://maps.google.com/maps?q=1 CITY HALL PLAZA,+ELLSWORTH,+ME+04605&hl=en"
FAIRFIELD POLICE DEPARTMENT,FAIRFIELD POLICE DEPARTMENT,1 POLICE PLAZA,FAIRFIELD,ME,04937,"http://maps.google.com/maps?q=1 POLICE PLAZA,+FAIRFIELD,+ME+04937&hl=en"
FALMOUTH POLICE DEPARTMENT,FALMOUTH POLICE DEPARTMENT,2 MARSHALL DRIVE,FALMOUTH,ME,04105,"http://maps.google.com/maps?q=2 MARSHALL DRIVE,+FALMOUTH,+ME+04105&hl=en"
FARMINGTON POLICE DEPARTMENT,FARMINGTON POLICE DEPARTMENT,160 MAIN ST,FARMINGTON,NH,03835,"http://maps.google.com/maps?q=160 MAIN ST,+FARMINGTON,+NH+03835&hl=en"
FARMINGTON POLICE DEPARTMENT,FARMINGTON POLICE DEPARTMENT MEDICATION COLLECTION BOX IN LOBBY,116 FRANKLIN AVENUE,FARMINGTON,ME,04938,"http://maps.google.com/maps?q=116 FRANKLIN AVENUE,+FARMINGTON,+ME+04938&hl=en"
FORT FAIRFIELD POLICE DEPARTMENT,FORT FAIRFIELD POLICE DEPARTMENT,18 COMMUNITY CENTER DRIVE,FORT FAIRFIELD,ME,04742,"http://maps.google.com/maps?q=18 COMMUNITY CENTER DRIVE,+FORT FAIRFIELD,+ME+04742&hl=en"
FRANKLIN COUNTY SHERIFF'S OFFICE,FRANKLIN COUNTY SHERIFF'S OFFICE,123 COUNTY WAY,FARMINGTON,ME,04938,"http://maps.google.com/maps?q=123 COUNTY WAY,+FARMINGTON,+ME+04938&hl=en"
FREEPORT POLICE DEPARTMENT,FREEPORT POLICE DEPARTMENT,16 MAIN STREET,FREEPORT,ME,04032,"http://maps.google.com/maps?q=16 MAIN STREET,+FREEPORT,+ME+04032&hl=en"
FRYEBURG POLICE DEPARTMENT,RITE AID PHARMACY OUTSIDE PARKING LOT,119 BRIDGTON ROAD AT 5 FRYEBURG PLAZA,FRYEBURG,ME,04037,"http://maps.google.com/maps?q=119 BRIDGTON ROAD AT 5 FRYEBURG PLAZA,+FRYEBURG,+ME+04037&hl=en"
GARDINER POLICE DEPARTMENT,GARDINER POLICE DEPARTMENT,6 CHURCH STREET,GARDINER,ME,04345,"http://maps.google.com/maps?q=6 CHURCH STREET,+GARDINER,+ME+04345&hl=en"
GORHAM POLICE DEPARTMENT,GORHAM POLICE DEPARTMENT,20 PARK STREET,GORHAM,NH,03581,"http://maps.google.com/maps?q=20 PARK STREET,+GORHAM,+NH+03581&hl=en"
GORHAM POLICE DEPARTMENT,GORHAM POLICE DEPARTMENT,270 MAIN STREET,GORHAM,ME,04038,"http://maps.google.com/maps?q=270 MAIN STREET,+GORHAM,+ME+04038&hl=en"
GOULDSBORO POLICE DEPARTMENT,GOULDSBORO TOWN OFFICE,59 MAIN STREET,PROSPECT HARBOR,ME,04669,"http://maps.google.com/maps?q=59 MAIN STREET,+PROSPECT HARBOR,+ME+04669&hl=en"
GREENVILLE POLICE DEPARTMENT,GREENVILLE POLICE DEPARTMENT,7 MINDEN ST,GREENVILLE,ME,04441,"http://maps.google.com/maps?q=7 MINDEN ST,+GREENVILLE,+ME+04441&hl=en"
HALLOWELL POLICE DEPARTMENT,HALLOWELL POLICE DEPARTMENT,1 WINTHROP STREET,HALLOWELL,ME,04347,"http://maps.google.com/maps?q=1 WINTHROP STREET,+HALLOWELL,+ME+04347&hl=en"
HAMPDEN POLICE DEPARTMENT,HAMPDEN POLICE DEPARTMENT,106 WESTERN AVENUE,HAMPDEN,ME,04444,"http://maps.google.com/maps?q=106 WESTERN AVENUE,+HAMPDEN,+ME+04444&hl=en"
HANCOCK COUNTY SHERIFF'S OFFICE,HANCOCK COUNTY SHERIFF'S OFFICE DROP BOX IN LOBBY,"50 STATE STREET, SUITE 10",ELLSWORTH,ME,04605,"http://maps.google.com/maps?q=50 STATE STREET, SUITE 10,+ELLSWORTH,+ME+04605&hl=en"
HOLDEN POLICE DEPARTMENT,HOLDEN POLICE DEPARTMENT,570 MAIN STREET,HOLDEN,ME,04429,"http://maps.google.com/maps?q=570 MAIN STREET,+HOLDEN,+ME+04429&hl=en"
HOULTON POLICE DEPARTMENT,HOULTON POLICE DEPARTMENT,97 MILITARY STREET,HOULTON,ME,04730,"http://maps.google.com/maps?q=97 MILITARY STREET,+HOULTON,+ME+04730&hl=en"
JACKSON POLICE DEPARTMENT,JACSKON GRAMMAR SCHOOL,10 BLACK MT. RD.,JACKSON,NH,03846,"http://maps.google.com/maps?q=10 BLACK MT. RD.,+JACKSON,+NH+03846&hl=en"
JAY POLICE DEPARTMENT,JAY POLICE DEPARTMENT,340 MAIN STREET,JAY,ME,04239,"http://maps.google.com/maps?q=340 MAIN STREET,+JAY,+ME+04239&hl=en"
KENNEBEC COUNTY SHERIFF'S OFFICE,BELGRADE TRANSFER STATION OPERATED BY KENNEBEC COUNTY SHERIFF'S OFFICE,6 MANCHESTER ROAD,BELGRADE,ME,04917,"http://maps.google.com/maps?q=6 MANCHESTER ROAD,+BELGRADE,+ME+04917&hl=en"
KENNEBEC COUNTY SHERIFF'S OFFICE,CHINA TRANSFER STATION OPERATED BY KENNEBEC COUNTY SHERIFF'S OFFICE,191 ALDER PARK ROAD,SOUTH CHINA,ME,04358,"http://maps.google.com/maps?q=191 ALDER PARK ROAD,+SOUTH CHINA,+ME+04358&hl=en"
KENNEBEC COUNTY SHERIFF'S OFFICE,KENNEBEC SHERIFFS OFFICE OPERATED BY KENNEBEC COUNTY SHERIFF'S OFFICE,125 STATE STREET,AUGUSTA,ME,04330,"http://maps.google.com/maps?q=125 STATE STREET,+AUGUSTA,+ME+04330&hl=en"
KENNEBEC COUNTY SHERIFF'S OFFICE,LITCHFIELD TRANSFER STATION OPERATED BY KENNEBEC COUNTY SHERIFF'S OFFICE,2274 HALLOWELL RD,LITCHFIELD,ME,04350,"http://maps.google.com/maps?q=2274 HALLOWELL RD,+LITCHFIELD,+ME+04350&hl=en"
KENNEBEC COUNTY SHERIFF'S OFFICE,READFIELD/WAYNE TRANSFER STATION OPERATED BY KENNEBEC COUNTY SHERIFF'S OFFICE,8 OLD KENTS HILL ROAD,READFIELD,ME,04355,"http://maps.google.com/maps?q=8 OLD KENTS HILL ROAD,+READFIELD,+ME+04355&hl=en"
KENNEBUNK POLICE DEPARTMENT,HANNAFORD SUPERMARKET OPERATED BY KENNUBUNK PD,65 PORTLAND ROAD,KENNEBUNK,ME,04043,"http://maps.google.com/maps?q=65 PORTLAND ROAD,+KENNEBUNK,+ME+04043&hl=en"
KENNEBUNK POLICE DEPARTMENT,KENNEBUNK POLICE DEPARTMENT LOBBY,4 SUMMER STREET,KENNEBUNK,ME,04043,"http://maps.google.com/maps?q=4 SUMMER STREET,+KENNEBUNK,+ME+04043&hl=en"
KENNEBUNKPORT POLICE DEPARTMENT,KENNEBUNKPORT POLICE DEPARTMENT,101 MAIN STREET,KENNEBUNKPORT,ME,04046,"http://maps.google.com/maps?q=101 MAIN STREET,+KENNEBUNKPORT,+ME+04046&hl=en"
KITTERY POLICE DEPARTMENT,KITTERY POLICE DEPARTMENT,200 ROGERS ROAD,KITTERY,ME,03904,"http://maps.google.com/maps?q=200 ROGERS ROAD,+KITTERY,+ME+03904&hl=en"
KNOX COUNTY SHERIFF'S OFFICE,UNION FIRE DEPARTMENT OPERATED BY KNOX COUNTY SHERIFF'S OFFICE,567 COMMON RD,UNION,ME,04862,"http://maps.google.com/maps?q=567 COMMON RD,+UNION,+ME+04862&hl=en"
KNOX COUNTY SHERIFF'S OFFICE,VINALHAVEN FIRE DEPARTMENT 207- 863-4604 OPERATED BY KNOX COUNTY SHERIFF'S OFFICE,56 WEST MAIN ST,VINALHAVEN,ME,04863,"http://maps.google.com/maps?q=56 WEST MAIN ST,+VINALHAVEN,+ME+04863&hl=en"
KNOX COUNTY SHERIFF'S OFFICE,WARREN FIRE DEPARTMENT OPERATED BY KNOX COUNTY SHERIFF'S OFFICE,167 WESTERN ROAD,WARREN,ME,04864,"http://maps.google.com/maps?q=167 WESTERN ROAD,+WARREN,+ME+04864&hl=en"
LANCASTER POLICE DEPARTMENT,LANCASTER POLICE DEPARTMENT CHIEF TIM CHARBONNEAU,11 MECHANIC ST,LANCASTER,NH,03584,"http://maps.google.com/maps?q=11 MECHANIC ST,+LANCASTER,+NH+03584&hl=en"
LEWISTON POLICE DEPARTMENT,LEWISTON HIGH SCHOOL OPERATED BY LEWISTON PD,156 EAST AVENUE,LEWISTON,ME,04240,"http://maps.google.com/maps?q=156 EAST AVENUE,+LEWISTON,+ME+04240&hl=en"
LIMESTONE POLICE DEPARTMENT,LIMESTONE POLICE DEPARTMENT STACEY MAHAN,93 MAIN STREET,LIMESTONE,ME,04750,"http://maps.google.com/maps?q=93 MAIN STREET,+LIMESTONE,+ME+04750&hl=en"
LINCOLN COUNTY SHERIFF'S DEPARTMENT,BOOTHBAY HARBOR FIRE EMS OPERATED BY LINCOLN COUNTY SHERIFFS OFFICE/BOOTHBAY HARB PD,11 HOWARD ST,BOOTHBAY HARBOR,ME,04538,"http://maps.google.com/maps?q=11 HOWARD ST,+BOOTHBAY HARBOR,+ME+04538&hl=en"
LINCOLN COUNTY SHERIFF'S DEPARTMENT,LINCOLN HEALTH MILES CAMPUS OPERATED BY LINCOLN COUNTY SHERIFFS OFFICE & DAMARISCOTTA PD,35 MILES ST,DAMARISCOTTA,ME,04543,"http://maps.google.com/maps?q=35 MILES ST,+DAMARISCOTTA,+ME+04543&hl=en"
LINCOLN COUNTY SHERIFF'S DEPARTMENT,SHEEPSCOT VALLEY HEALTH CENTER OPERATED BY LINCOLN COUNTY SHERIFF'S OFFICE,47 MAIN ST,COOPERS MILLS,ME,04341,"http://maps.google.com/maps?q=47 MAIN ST,+COOPERS MILLS,+ME+04341&hl=en"
LINCOLN POLICE DEPARTMENT,LINCOLN POLICE DEPARTMENT,148 MAIN ST.,LINCOLN,NH,03251,"http://maps.google.com/maps?q=148 MAIN ST.,+LINCOLN,+NH+03251&hl=en"
LINCOLN POLICE DEPARTMENT,LINCOLN PUBLIC SAFETY BUILDING,1 ADAMS STREET,LINCOLN,ME,04457,"http://maps.google.com/maps?q=1 ADAMS STREET,+LINCOLN,+ME+04457&hl=en"
LISBON POLICE DEPARTMENT,LISBON POLICE DEPARTMENT,300 LISBON ST,LISBON,ME,04250,"http://maps.google.com/maps?q=300 LISBON ST,+LISBON,+ME+04250&hl=en"
LISBON POLICE DEPARTMENT,LISBON POLICE DEPARTMENT,46 SCHOOL ST.,LISBON,NH,03585,"http://maps.google.com/maps?q=46 SCHOOL ST.,+LISBON,+NH+03585&hl=en"
LITTLETON POLICE DEPARTMENT,LITTLETON POLICE DEPARTMENT,2 KITTRIDGE LANE,LITTLETON,NH,03561,"http://maps.google.com/maps?q=2 KITTRIDGE LANE,+LITTLETON,+NH+03561&hl=en"
LIVERMORE FALLS POLICE DEPARTMENT,LIVERMORE FALLS POLICE DEPARTMENT,2 MAIN STREET,LIVERMORE FALLS,ME,04254,"http://maps.google.com/maps?q=2 MAIN STREET,+LIVERMORE FALLS,+ME+04254&hl=en"
MACHIAS POLICE DEPARTMENT,HANNAFORD SUPERMARKET OUTSIDE PARKING LOT - OPERATED BY MACHIAS PD,149 DUBLIN STREET,MACHIAS,ME,04654,"http://maps.google.com/maps?q=149 DUBLIN STREET,+MACHIAS,+ME+04654&hl=en"
MADISON POLICE DEPARTMENT,MADISON POLICE DEPARTMENT LOWER LEVEL OF TOW HALL,1923 VILLAGE ROAD,MADISON,NH,03849,"http://maps.google.com/maps?q=1923 VILLAGE ROAD,+MADISON,+NH+03849&hl=en"
MAINE STATE POLICE - TROOP B,MAINE STATE POLICE - TROOP B,1 GAME FARM ROAD,GRAY,ME,04039,"http://maps.google.com/maps?q=1 GAME FARM ROAD,+GRAY,+ME+04039&hl=en"
MAINE STATE POLICE - TROOP C,MAINE STATE POLICE - TROOP C,162 WEST FRONT STREET,SKOWHEGAN,ME,04976,"http://maps.google.com/maps?q=162 WEST FRONT STREET,+SKOWHEGAN,+ME+04976&hl=en"
MECHANIC FALLS POLICE DEPARTMENT,MECHANIC FALLS POLICE DEPARTMENT,108 LEWISTON STREET,MECHANIC FALLS,ME,04256,"http://maps.google.com/maps?q=108 LEWISTON STREET,+MECHANIC FALLS,+ME+04256&hl=en"
MEXICO POLICE DEPARTMENT,MEXICO TOWN OFFICE OPERATED BY MEXICO PD,134 MAIN STREET,MEXICO,ME,04257,"http://maps.google.com/maps?q=134 MAIN STREET,+MEXICO,+ME+04257&hl=en"
MILBRIDGE POLICE DEPARTMENT,MILBRIDGE FIRE DEPARTMENT TRAINING ROOM - OPERATED BY MILBRIDGE PD,16 SCHOOL ST,MILBRIDGE,ME,04658,"http://maps.google.com/maps?q=16 SCHOOL ST,+MILBRIDGE,+ME+04658&hl=en"
MILLINOCKET POLICE DEPARTMENT,MILLINOCKET POLICE DEPARTMENT,197 PENOBSCOT AVE,MILLINOCKET,ME,04462,"http://maps.google.com/maps?q=197 PENOBSCOT AVE,+MILLINOCKET,+ME+04462&hl=en"
MILO POLICE DEPARTMENT,MILO POLICE DEPARTMENT,6 PLEASANT STREET,MILO,ME,04463,"http://maps.google.com/maps?q=6 PLEASANT STREET,+MILO,+ME+04463&hl=en"
MILTON POLICE DEPARTMENT,MILTON POLICE DEPARTMENT CHIEF RICHARD KRAUSS,7 TOWNHOUSE RD,MILTON,NH,03851,"http://maps.google.com/maps?q=7 TOWNHOUSE RD,+MILTON,+NH+03851&hl=en"
MONMOUTH POLICE DEPARTMENT,MONMOUTH TRANSFER STATION OPERATED BY MONMOUTH PD,126 ROUTE 135,MONMOUTH,ME,04259,"http://maps.google.com/maps?q=126 ROUTE 135,+MONMOUTH,+ME+04259&hl=en"
MOULTONBOROUGH POLICE DEPARTMENT,MOULTONBOROUGH POLICE DEPARTMENT,1035 WHITTIER HWY,MOULTONBOROUGH,NH,03254,"http://maps.google.com/maps?q=1035 WHITTIER HWY,+MOULTONBOROUGH,+NH+03254&hl=en"
MOUNT DESERT POLICE DEPARTMENT,MOUNT DESERT POLICE DEPARTMENT NORTHEAST HARBOR,21 SEA STREET,NORTHEAST HARBOR,ME,04662,"http://maps.google.com/maps?q=21 SEA STREET,+NORTHEAST HARBOR,+ME+04662&hl=en"
NEWPORT POLICE DEPARTMENT,NEWPORT POLICE DEPARTMENT,21 WATER STREET,NEWPORT,ME,04953,"http://maps.google.com/maps?q=21 WATER STREET,+NEWPORT,+ME+04953&hl=en"
NORTH BERWICK POLICE DEPARTMENT,NORTH BERWICK POLICE DEPARTMENT CHIEF STEPHEN C. PEASLEY,21 MAIN STREET,NORTH BERWICK,ME,03906,"http://maps.google.com/maps?q=21 MAIN STREET,+NORTH BERWICK,+ME+03906&hl=en"
NORTHUMBERLAND POLICE DEPARTMENT,NORTHUMBERLAND POLICE DEPARTMENT,10 STATION SQUARE,GROVETON,NH,03582,"http://maps.google.com/maps?q=10 STATION SQUARE,+GROVETON,+NH+03582&hl=en"
NORWAY POLICE DEPARTMENT,NORWAY POLICE DEPARTMENT OFFICER JEFFREY CAMPBELL,19 DANFORTH STREET,NORWAY,ME,04268,"http://maps.google.com/maps?q=19 DANFORTH STREET,+NORWAY,+ME+04268&hl=en"
OAKLAND POLICE DEPARTMENT,OAKLAND POLICE DEPARTMENT,7 FAIRFIELD STREET,OAKLAND,ME,04963,"http://maps.google.com/maps?q=7 FAIRFIELD STREET,+OAKLAND,+ME+04963&hl=en"
OGUNQUIT POLICE DEPARTMENT,OGUNQUIT POLICE DEPARTMENT,20 COTTAGE STREET,OGUNQUIT,ME,03907,"http://maps.google.com/maps?q=20 COTTAGE STREET,+OGUNQUIT,+ME+03907&hl=en"
OLD ORCHARD BEACH POLICE DEPARTMENT,OLD ORCHARD POLICE DEPARTMENT MAIN ENTRANCE,16E EMERSON CUMMINGS BOULEVARD,OLD ORCHARD BEACH,ME,04064,"http://maps.google.com/maps?q=16E EMERSON CUMMINGS BOULEVARD,+OLD ORCHARD BEACH,+ME+04064&hl=en"
OLD TOWN POLICE DEPARTMENT,OLD TOWN POLICE DEPARTMENT,150 BRUNSWICK ST,OLD TOWN,ME,04468,"http://maps.google.com/maps?q=150 BRUNSWICK ST,+OLD TOWN,+ME+04468&hl=en"
ORONO POLICE DEPARTMENT,BELLS IGA SUPERMARKET PARKING LOT - OPERATED BY PD,6 STILLWATER AVE,ORONO,ME,04473,"http://maps.google.com/maps?q=6 STILLWATER AVE,+ORONO,+ME+04473&hl=en"
OXFORD COUNTY SHERIFF'S OFFICE,OXFORD COUNTY SHERIFF'S OFFICE,26 WESTERN AVENUE,SOUTH PARIS,ME,04281,"http://maps.google.com/maps?q=26 WESTERN AVENUE,+SOUTH PARIS,+ME+04281&hl=en"
OXFORD COUNTY SHERIFF'S OFFICE,OXFORD COUNTY SHERIFF'S OFFICE BETHEL SUB-STATION,18 MAYVILLE ROAD,BETHEL,ME,04217,"http://maps.google.com/maps?q=18 MAYVILLE ROAD,+BETHEL,+ME+04217&hl=en"
OXFORD COUNTY SHERIFF'S OFFICE,SACOPEE VALLEY HEALTH CENTER OPERATED BY OXFORD COUNTY SHERIFF'S OFFICE,70 MAIN STREET,PORTER,ME,04068,"http://maps.google.com/maps?q=70 MAIN STREET,+PORTER,+ME+04068&hl=en"
OXFORD POLICE DEPARTMENT,OXFORD POLICE DEPARTMENT OXFORD PUBLIC SAFETY BUILDING,701 MAIN ST,OXFORD,ME,04270,"http://maps.google.com/maps?q=701 MAIN ST,+OXFORD,+ME+04270&hl=en"
PARIS POLICE DEPARTMENT,PARIS POLICE DEPARTMENT,35 MARKET SQUARE,SOUTH PARIS,ME,04281,"http://maps.google.com/maps?q=35 MARKET SQUARE,+SOUTH PARIS,+ME+04281&hl=en"
PASSAMAQUODDY INDIAN TOWNSHIP POLICE DEPARTMENT,PASSAMAQUODDY INDIAN TOWNSHIP POLICE DEPARTMENT PUBLIC SAFETY COMPLEX,443 ROUTE 1,PRINCETON,ME,04668,"http://maps.google.com/maps?q=443 ROUTE 1,+PRINCETON,+ME+04668&hl=en"
PENOBSCOT COUNTY SHERIFF'S OFFICE,AIRPORT MALL PARKING LOT UNION ST BY HANNAFORD'S - OPERATED BY PENOBSCOT COUNTY SO,1129 UNION STREET,BANGOR,ME,04401,"http://maps.google.com/maps?q=1129 UNION STREET,+BANGOR,+ME+04401&hl=en"
PENOBSCOT NATION POLICE DEPARTMENT,PENOBSCOT NATION POLICE DEPARTMENT,12 WABANAKI WAY,INDIAN ISLAND,ME,04468,"http://maps.google.com/maps?q=12 WABANAKI WAY,+INDIAN ISLAND,+ME+04468&hl=en"
PHIPPSBURG POLICE DEPARTMENT,PHIPPSBURG POLICE DEPARTMENT SUPPORTED BY SAGADAHOC COUNTY SHERIFF'S OFFICE,1042 MAIN STREET,PHIPPSBURG,ME,04562,"http://maps.google.com/maps?q=1042 MAIN STREET,+PHIPPSBURG,+ME+04562&hl=en"
PISCATAQUIS COUNTY SHERIFF'S OFFICE,PISCATAQUIS COUNTY SHERIFF'S OFFICE,52 COURT STREET,DOVER FOXCROFT,ME,04426,"http://maps.google.com/maps?q=52 COURT STREET,+DOVER FOXCROFT,+ME+04426&hl=en"
PITTSFIELD POLICE DEPARTMENT,PITTSFIELD POLICE DEPARTMENT,112 SOMERSET AVENUE,PITTSFIELD,ME,04967,"http://maps.google.com/maps?q=112 SOMERSET AVENUE,+PITTSFIELD,+ME+04967&hl=en"
PLEASANT POINT POLICE DEPARTMENT,PLEASANT POINT HEALTH CENTER OPERATED BY PLEASANT POINT PD,11 BACK RD,PERRY,ME,04667,"http://maps.google.com/maps?q=11 BACK RD,+PERRY,+ME+04667&hl=en"
PORTLAND POLICE DEPARTMENT,BACK BAY PARKING LOT - ACROSS FROM HANNAFORDS OPERATED BY PORTLAND PD,295 FOREST AVENUE,PORTLAND,ME,04101,"http://maps.google.com/maps?q=295 FOREST AVENUE,+PORTLAND,+ME+04101&hl=en"
PORTLAND POLICE DEPARTMENT,WALGREENS PHARMACY (PARKING LOT) OPERATED BY PORTLAND PD,616 FOREST AVENUE,PORTLAND,ME,04101,"http://maps.google.com/maps?q=616 FOREST AVENUE,+PORTLAND,+ME+04101&hl=en"
PORTLAND POLICE DEPARTMENT,WALGREENS PHARMACY PARKING LOT - OPERATED BY PORTLAND PD,340 ALLEN AVENUE,PORTLAND,ME,04101,"http://maps.google.com/maps?q=340 ALLEN AVENUE,+PORTLAND,+ME+04101&hl=en"
PRESQUE ISLE POLICE DEPARTMENT,PRESQUE ISLE POLICE DEPARTMENT,"43 NORTH STREET, STE 2",PRESQUE ISLE,ME,04769,"http://maps.google.com/maps?q=43 NORTH STREET, STE 2,+PRESQUE ISLE,+ME+04769&hl=en"
RANGELEY POLICE DEPARTMENT,IGA SUPERMARKET OPERATED BY RANGELEY PD,2185 MAIN STREET,RANGELEY,ME,04970,"http://maps.google.com/maps?q=2185 MAIN STREET,+RANGELEY,+ME+04970&hl=en"
RICHMOND POLICE DEPARTMENT,RICHMOND SENIOR CENTER OPERATED BY RICHMOND PD,314 FRONT STREET,RICHMOND,ME,04357,"http://maps.google.com/maps?q=314 FRONT STREET,+RICHMOND,+ME+04357&hl=en"
ROCHESTER POLICE DEPARTMENT,ROCHESTER POLICE DEPARTMENT,23 WAKEFIELD STREET,ROCHESTER,NH,03867,"http://maps.google.com/maps?q=23 WAKEFIELD STREET,+ROCHESTER,+NH+03867&hl=en"
ROCKLAND POLICE DEPARTMENT,ROCKLAND POLICE DEPARTMENT,1 POLICE PLAZA,ROCKLAND,ME,04841,"http://maps.google.com/maps?q=1 POLICE PLAZA,+ROCKLAND,+ME+04841&hl=en"
ROLLINSFORD POLICE DEPARTMENT,ROLLINSFORD POLICE DEPARTMENT ROBERT DUCHARME,667 MAIN STREET,ROLLINSFORD,NH,03869,"http://maps.google.com/maps?q=667 MAIN STREET,+ROLLINSFORD,+NH+03869&hl=en"
RUMFORD POLICE DEPARTMENT,RUMFORD POLICE DEPARTMENT,150 RIVER STREET,RUMFORD,ME,04276,"http://maps.google.com/maps?q=150 RIVER STREET,+RUMFORD,+ME+04276&hl=en"
SABATTUS POLICE DEPARTMENT,SABATTUS POLICE DEPARTMENT,190 MIDDLE ROAD,SABATTUS,ME,04280,"http://maps.google.com/maps?q=190 MIDDLE ROAD,+SABATTUS,+ME+04280&hl=en"
SACO POLICE DEPARTMENT,SACO COMMUNITY CENTER OPERATED BY SACO PD,75 FRANKLIN STREET,SACO,ME,04072,"http://maps.google.com/maps?q=75 FRANKLIN STREET,+SACO,+ME+04072&hl=en"
SACO POLICE DEPARTMENT,SACO POLICE DEPARTMENT MEDICATION COLLECTION BOX IN LOBBY,20 STORER ST,SACO,ME,04072,"http://maps.google.com/maps?q=20 STORER ST,+SACO,+ME+04072&hl=en"
SAGADAHOC COUNTY SHERIFF'S OFFICE,GEORGETOWN FIRE DEPARTMENT,777 FIVE ISLANDS ROAD,GEORGETOWN,ME,04548,"http://maps.google.com/maps?q=777 FIVE ISLANDS ROAD,+GEORGETOWN,+ME+04548&hl=en"
SANFORD POLICE DEPARTMENT,SANFORD POLICE DEPARTMENT,935 MAIN STREET,SANFORD,ME,04073,"http://maps.google.com/maps?q=935 MAIN STREET,+SANFORD,+ME+04073&hl=en"
SCARBOROUGH POLICE DEPARTMENT,SCARBOROUGH POLICE DEPARTMENT SGT TIM BARKER,246 US RTE. 1,SCARBOROUGH,ME,04074,"http://maps.google.com/maps?q=246 US RTE. 1,+SCARBOROUGH,+ME+04074&hl=en"
SEARSPORT POLICE DEPARTMENT,SEARSPORT POLICE DEPARTMENT DAN RICH PUBLIC SAFETY BUILDING,P O BOX 4993 UNION STREET,SEARSPORT,ME,04974,"http://maps.google.com/maps?q=P O  BOX 499,+SEARSPORT,+ME+04974&hl=en"
SKOWHEGAN POLICE DEPARTMENT,SKOWHEGAN POLICE DEPARTMENT,225 WATER STREET,SKOWHEGAN,ME,04976,"http://maps.google.com/maps?q=225 WATER STREET,+SKOWHEGAN,+ME+04976&hl=en"
SOMERSET COUNTY SHERIFF'S OFFICE,SOMERSET COUNTY SHERIFF'S OFFICE JACKMAN DIVISION,HEALD STREAM ROAD,JACKMAN,ME,04945,"http://maps.google.com/maps?q=HEALD STREAM ROAD,+JACKMAN,+ME+04945&hl=en"
SOMERSET COUNTY SHERIFF'S OFFICE,SOMERSET COUNTY SHERIFF'S OFFICE JAIL LOBBY,131 EAST MADISON ROAD,MADISON,ME,04950,"http://maps.google.com/maps?q=131 EAST MADISON ROAD,+MADISON,+ME+04950&hl=en"
SOMERSET COUNTY SHERIFF'S OFFICE,SOMERSET COUNTY SHERIFF'S OFFICE MADISON DIVISION,26 WESTON AVENUE,MADISON,ME,04950,"http://maps.google.com/maps?q=26 WESTON AVENUE,+MADISON,+ME+04950&hl=en"
SOMERSWORTH POLICE DEPARTMENT,SOMERSWORTH POLICE DEPT.,12 LILAC LANE,SOMERSWORTH,NH,03878,"http://maps.google.com/maps?q=12 LILAC LANE,+SOMERSWORTH,+NH+03878&hl=en"
SOUTH BERWICK POLICE DEPARTMENT,COMMUNITY CENTER OPERATED BY SOUTH BERWICK PD,71 NORTON STREET,SOUTH BERWICK,ME,03908,"http://maps.google.com/maps?q=71 NORTON STREET,+SOUTH BERWICK,+ME+03908&hl=en"
SOUTH PORTLAND POLICE DEPARTMENT,SOUTH PORTLAND POLICE DEPARTMENT MEDICATION COLLECTION BOX IN LOBBY,30 ANTHOINE STREET,SOUTH PORTLAND,ME,04106,"http://maps.google.com/maps?q=30 ANTHOINE STREET,+SOUTH PORTLAND,+ME+04106&hl=en"
SOUTHWEST HARBOR POLICE DEPARTMENT,SOUTHWEST HARBOR POLICE DEPARTMENT,26 VILLAGE GREEN WAY,SOUTHWEST HARBOR,ME,04679,"http://maps.google.com/maps?q=26 VILLAGE GREEN WAY,+SOUTHWEST HARBOR,+ME+04679&hl=en"
ST. JOHNSBURY POLICE DEPARTMENT,ST. JOHNSBURY POLICE DEPARTMENT,1187 MAIN STREETSUITE 1,SAINT JOHNSBURY,VT,05819,"http://maps.google.com/maps?q=1187 MAIN STREET,+SAINT JOHNSBURY,+VT+05819&hl=en"
THOMASTON POLICE DEPARTMENT,LOWE'S HOME CENTER OPERATED BY THOMASTON PD,164 NEW COUNTY ROAD,THOMASTON,ME,04861,"http://maps.google.com/maps?q=164 NEW COUNTY ROAD,+THOMASTON,+ME+04861&hl=en"
THORNTON POLICE DEPARTMENT,THORNTON POLICE DEPARTMENT KEN MILLER,16 MERRILL ACCESS ROAD,THORNTON,NH,03285,"http://maps.google.com/maps?q=16 MERRILL ACCESS ROAD,+THORNTON,+NH+03285&hl=en"
TOPSHAM POLICE DEPARTMENT,TOPSHAM TOWN HALL OPERATED BY TOPSHAM PD,100 MAIN STREET,TOPSHAM,ME,04086,"http://maps.google.com/maps?q=100 MAIN STREET,+TOPSHAM,+ME+04086&hl=en"
TROY POLICE DEPARTMENT,OSSIPEE POLICE DEPARTMENT,7 DORE ST,CENTER OSSIPEE,NH,03814,"http://maps.google.com/maps?q=7 DORE ST,+CENTER OSSIPEE,+NH+03814&hl=en"
TUFTONBORO POLICE DEPARTMENT,TUFTONBORO TRANSFER STATION,20 SARGENT'S CROSSING,CENTER TUFTONBORO,NH,03816,"http://maps.google.com/maps?q=20 SARGENT'S CROSSING,+CENTER TUFTONBORO,+NH+03816&hl=en"
VEAZIE POLICE DEPARTMENT,VEAZIE POLICE DEPARTMENT,1084 MAIN ST.,VEAZIE,ME,04401,"http://maps.google.com/maps?q=1084 MAIN ST.,+VEAZIE,+ME+04401&hl=en"
WAKEFIELD POLICE DEPARTMENT,WAKEFIELD NH PUBLIC SAFETY BUILDING WAKEFIELD NH PD,2017 WAKEFIELD ROAD,SANBORNVILLE,NH,03872,"http://maps.google.com/maps?q=2017 WAKEFIELD ROAD,+SANBORNVILLE,+NH+03872&hl=en"
WALDO COUNTY SHERIFF'S OFFICE,WALDO COUNTY SHERIFF'S OFFICE,6 PUBLIC SAFETY WAY,BELFAST,ME,04915,"http://maps.google.com/maps?q=6 PUBLIC SAFETY WAY,+BELFAST,+ME+04915&hl=en"
WALDOBORO POLICE DEPARTMENT,WALDOBORO POLICE DEPARTMENT,1600 ATLANTIC HIGHWAY,WALDOBORO,ME,04572,"http://maps.google.com/maps?q=1600 ATLANTIC HIGHWAY,+WALDOBORO,+ME+04572&hl=en"
WASHBURN POLICE DEPARTMENT,WASHBURN POLICE DEPARTMENT CHIEF DOUGLAS CONROY,1287 MAIN STREET,WASHBURN,ME,04786,"http://maps.google.com/maps?q=1287 MAIN STREET,+WASHBURN,+ME+04786&hl=en"
WASHINGTON COUNTY SHERIFF'S OFFICE,WASHINGTON COUNTY SHERIFF'S OFFICE,83 COURT STREET,MACHIAS,ME,04654,"http://maps.google.com/maps?q=83 COURT STREET,+MACHIAS,+ME+04654&hl=en"
WATERVILLE POLICE DEPARTMENT,WATERVILLE POLICE DEPARTMENT INSIDE LOBBY,10 COLBY ST,WATERVILLE,ME,04901,"http://maps.google.com/maps?q=10 COLBY ST,+WATERVILLE,+ME+04901&hl=en"
WATERVILLE VALLEY POLICE DEPARTMENT,WATERVILLE VALLEY DEPARTMENT OF PUBLIC SAFETY RUST MUNICIPAL BUILDING,14 TAC LANE,WATERVILLE VALLEY,NH,03215,"http://maps.google.com/maps?q=14 TAC LANE,+WATERVILLE VALLEY,+NH+03215&hl=en"
WELLS POLICE DEPARTMENT,YORK HOSPITAL AT WELLS URGENT CARE OPERATED BY WELLS PD,114 SANFORD ROAD,WELLS,ME,04090,"http://maps.google.com/maps?q=114 SANFORD ROAD,+WELLS,+ME+04090&hl=en"
WESTBROOK POLICE DEPARTMENT,WESTBROOK POLICE DEPARTMENT,570 MAIN STREET,WESTBROOK,ME,04092,"http://maps.google.com/maps?q=570 MAIN STREET,+WESTBROOK,+ME+04092&hl=en"
WILTON POLICE DEPARTMENT,WILTON POLICE DEPARTMENT,874 MAIN STREET,WILTON,ME,04294,"http://maps.google.com/maps?q=874 MAIN STREET,+WILTON,+ME+04294&hl=en"
WINDHAM POLICE DEPARTMENT,WINDHAM PUBLIC SAFETY BUILDING,375 GRAY ROAD,WINDHAM,ME,04062,"http://maps.google.com/maps?q=375 GRAY ROAD,+WINDHAM,+ME+04062&hl=en"
WINSLOW POLICE DEPARTMENT,WINSLOW POLICE DEPARTMENT MOBIL COLLECTION SITE,114 BENTON AVENUEMOBIL UNIT,WINSLOW,ME,04901,"http://maps.google.com/maps?q=114 BENTON AVENUE,+WINSLOW,+ME+04901&hl=en"
WINTER HARBOR POLICE DEPARTMENT,WINTER HARBOR POLICE DEPARTMENT,20 SCHOOL STREET,WINTER HARBOR,ME,04693,"http://maps.google.com/maps?q=20 SCHOOL STREET,+WINTER HARBOR,+ME+04693&hl=en"
WINTHROP POLICE DEPARTMENT,WINTHROP POLICE DEPARTMENT,15 TOWN HALL LANE,WINTHROP,ME,04364,"http://maps.google.com/maps?q=15 TOWN HALL LANE,+WINTHROP,+ME+04364&hl=en"
YARMOUTH POLICE DEPARTMENT,YARMOUTH TOWN HALL COMMUNITY ROOM - OPERATED BY YARMOUTH PD,200 MAIN STREET,YARMOUTH,ME,04096,"http://maps.google.com/maps?q=200 MAIN STREET,+YARMOUTH,+ME+04096&hl=en"
YORK COUNTY SHERIFF'S OFFICE,GOODWIN MILLS FIRE STATION OPERATED BY YORK COUNTY SHERIFF'S OFFICE,481 GOODWIN'S MILL ROAD,LYMAN,ME,04002,"http://maps.google.com/maps?q=481 GOODWIN'S MILL ROAD,+LYMAN,+ME+04002&hl=en"
YORK COUNTY SHERIFF'S OFFICE,HANNAFORD SUPERMARKET OPERATED BY YORK COUNTY SHERIFF'S OFFICE,20 SOKOKIS TRAIL,WATERBORO,ME,04087,"http://maps.google.com/maps?q=20 SOKOKIS TRAIL,+WATERBORO,+ME+04087&hl=en"
YORK COUNTY SHERIFF'S OFFICE,RITE AID DRUG STORE OPERATED BY YORK COUNTY SHERIFF'S OFFICE,151 MAPLE STREET,CORNISH,ME,04020,"http://maps.google.com/maps?q=151 MAPLE STREET,+CORNISH,+ME+04020&hl=en"
YORK POLICE DEPARTMENT,DEERFIELD PLACE OPERATED BY YORK POLICE DEPARTMENT,117 LONG SANDS ROAD,YORK,ME,03909,"http://maps.google.com/maps?q=117 LONG SANDS ROAD,+YORK,+ME+03909&hl=en"
YORK POLICE DEPARTMENT,HANNAFORD SUPERMARKET OPERATED BY YORK POLICE DEPARTMENT,9 HANNAFORD DRIVE,YORK,ME,03909,"http://maps.google.com/maps?q=9 HANNAFORD DRIVE,+YORK,+ME+03909&hl=en"
YORK POLICE DEPARTMENT,SENTRY HILL ASSISTED LIVING OPERATED BY YORK POLICE DEPARTMENT,2 VICTORIA COURT,YORK,ME,03909,"http://maps.google.com/maps?q=2 VICTORIA COURT,+YORK,+ME+03909&hl=en"
YORK POLICE DEPARTMENT,YORKSHIRE COMMONS OPERATED BY YORK POLICE DEPARTMENT,611 YORK STREET,YORK,ME,03909,"http://maps.google.com/maps?q=611 YORK STREET,+YORK,+ME+03909&hl=en"
