Participant,CollectionSite,Address,City,State,Zip,MapURL
7TH PHILADELPHIA POLICE DISTRICT,7TH PHILADELPHIA POLICE DISTRICT,1701 BOWLER ST,PHILADELPHIA,PA,19115,"http://maps.google.com/maps?q=1701 BOWLER ST,+PHILADELPHIA,+PA+19115&hl=en"
ABERDEEN POLICE DEPARTMENT,ABERDEEN TWP. POLICE DEPT. 732-566-2054,1 ABERDEEN SQUARE,ABERDEEN,NJ,07747,"http://maps.google.com/maps?q=1 ABERDEEN SQUARE,+ABERDEEN,+NJ+07747&hl=en"
ALLENHURST POLICE DEPARTMENT,ALLENHURST POLICE DEPARTMENT 732-531-2255,125 CORLIES AVENUE,ALLENHURST,NJ,07711,"http://maps.google.com/maps?q=125 CORLIES AVENUE,+ALLENHURST,+NJ+07711&hl=en"
ALLENTOWN POLICE DEPARTMENT,GIANT FOOD STORE #6074,3015 W. EMMAUS AVENUE,ALLENTOWN,PA,18103,"http://maps.google.com/maps?q=3015 W. EMMAUS AVENUE,+ALLENTOWN,+PA+18103&hl=en"
ALLENTOWN POLICE DEPARTMENT,REDNER'S MARKET,1201 AIRPORT ROAD,ALLENTOWN,PA,18109,"http://maps.google.com/maps?q=1201 AIRPORT ROAD,+ALLENTOWN,+PA+18109&hl=en"
ALLENTOWN POLICE DEPARTMENT,WEGMANS,3900 TILGHMAN ST,ALLENTOWN,PA,18104,"http://maps.google.com/maps?q=3900 TILGHMAN ST,+ALLENTOWN,+PA+18104&hl=en"
ANDOVER POLICE DEPARTMENT,ANDOVER POLICE STATION 973-383-5544,145 LAKE ILIFF RD.,NEWTON,NJ,07860,"http://maps.google.com/maps?q=145 LAKE ILIFF RD.,+NEWTON,+NJ+07860&hl=en"
ASBURY PARK POLICE DEPARTMENT,ASBURY PARK POLICE DEPT.,1 MUNICIPAL PLAZA,ASBURY PARK,NJ,07712,"http://maps.google.com/maps?q=1 MUNICIPAL PLAZA,+ASBURY PARK,+NJ+07712&hl=en"
ATLANTIC HIGHLANDS POLICE DEPT.,ATLANTIC HIGHLANDS POLICE DEPT.,100 FIRST AVE.,ATLANTIC HIGHLANDS,NJ,07716,"http://maps.google.com/maps?q=100 FIRST AVE.,+ATLANTIC HIGHLANDS,+NJ+07716&hl=en"
BELMAR POLICE DEPARTMENT,BELMAR POLICE DEPARTMENT 732-681-1700,601 MAIN ST.,BELMAR,NJ,07719,"http://maps.google.com/maps?q=601 MAIN ST.,+BELMAR,+NJ+07719&hl=en"
BENSALEM TWP POLICE DEPARTMENT,GIANT,2721 STREET RD,BENSALEM,PA,19020,"http://maps.google.com/maps?q=2721 STREET RD,+BENSALEM,+PA+19020&hl=en"
BERKELEY HEIGHTS POLICE DEPARTMENT,BERKELEY HEIGHTS POLICE DEPARTMENT 908-464-1111,29 PARK AVE.,BERKELEY HEIGHTS,NJ,07922,"http://maps.google.com/maps?q=29 PARK AVE.,+BERKELEY HEIGHTS,+NJ+07922&hl=en"
BERNARDS TOWNSHIP POLICE DEPARTMENT,BERNARDS TOWNSHIP POLICE DEPARTMENT,1 COLLYER LANE,BASKING RIDGE,NJ,07920,"http://maps.google.com/maps?q=1 COLLYER LANE,+BASKING RIDGE,+NJ+07920&hl=en"
BERNARDSVILLE POLICE DEPARTMENT,BERNARDSVILLE POLICE DEPARTMENT,166 MINE BROOK ROAD,BERNARDSVILLE,NJ,07924,"http://maps.google.com/maps?q=166 MINE BROOK ROAD,+BERNARDSVILLE,+NJ+07924&hl=en"
BETHLEHEM POLICE DEPARTMENT,WESTGATE MALL,2285 SCHOENERSVILLE ROAD,BETHLEHEM,PA,18017,"http://maps.google.com/maps?q=2285 SCHOENERSVILLE ROAD,+BETHLEHEM,+PA+18017&hl=en"
BETHLEHEM TWNSHP POLICE DEPARTMENT,CVS PHARMACY,4950 FREEMANSBURG AVENUE,EASTON,PA,18045,"http://maps.google.com/maps?q=4950 FREEMANSBURG AVENUE,+EASTON,+PA+18045&hl=en"
BETHLEHEM TWNSHP POLICE DEPARTMENT,GIANT PHARMACY #6366,3926 NAZARETH PIKE,BETHLEHEM,PA,18020,"http://maps.google.com/maps?q=3926 NAZARETH PIKE,+BETHLEHEM,+PA+18020&hl=en"
BETHLEHEM TWNSHP POLICE DEPARTMENT,"ST. LUKES HOSPITAL, ANDERSON CAMPUS",1872 ST LUKES BLVD,EASTON,PA,18045,"http://maps.google.com/maps?q=1872 ST LUKES BLVD,+EASTON,+PA+18045&hl=en"
BETHLEHEM TWNSHP POLICE DEPARTMENT,YOUNG'S PHARMACY,3708 FREEMANSBURG AVENUE,EASTON,PA,18045,"http://maps.google.com/maps?q=3708 FREEMANSBURG AVENUE,+EASTON,+PA+18045&hl=en"
BORDENTOWN TOWNSHIP POLICE DEPARTMENT,BORDENTOWN TOWNSHIP POLICE DEPARTMENT,1 MUNICIPAL DRIVE,BORDENTOWN,NJ,08505,"http://maps.google.com/maps?q=1 MUNICIPAL DRIVE,+BORDENTOWN,+NJ+08505&hl=en"
BRANCHBURG TOWNSHIP POLICE DEPARTMENT,BRANCHBURG TOWNSHIP POLICE DEPARTMENT,590 OLD YORK ROAD,BRANCHBURG,NJ,08876,"http://maps.google.com/maps?q=590 OLD YORK ROAD,+BRANCHBURG,+NJ+08876&hl=en"
BRIDGEWATER TWP. POLICE,BRIDGEWATER POLICE HQ,100 COMMONS WAY,BRIDGEWATER,NJ,08807,"http://maps.google.com/maps?q=100 COMMONS WAY,+BRIDGEWATER,+NJ+08807&hl=en"
BRISTOL BOROUGH POLICE DEPT.,BRISTOL BOROUGH POLICE DEPARTMENT,250 POND STREET,BRISTOL,PA,19007,"http://maps.google.com/maps?q=250 POND STREET,+BRISTOL,+PA+19007&hl=en"
BRISTOL TWP PD,BRISTOL TWP MUNICIPAL BLDG,2501 BATH RD,BRISTOL,PA,19007,"http://maps.google.com/maps?q=2501 BATH RD,+BRISTOL,+PA+19007&hl=en"
BRISTOL TWP PD,GRUNDY GARDENS,430 SOUTH OLDS BLVD,FAIRLESS HILLS,PA,19030,"http://maps.google.com/maps?q=430 SOUTH OLDS BLVD,+FAIRLESS HILLS,+PA+19030&hl=en"
BRISTOL TWP PD,LEVITTOWN LIBRARY,7311 NEW FALLS RD,LEVITTOWN,PA,19057,"http://maps.google.com/maps?q=7311 NEW FALLS RD,+LEVITTOWN,+PA+19057&hl=en"
BUCKINGHAM TWP PD,BUCKINGHAM TWP PD,4613 HUGHESIAN DR,BUCKINGHAM,PA,18912,"http://maps.google.com/maps?q=4613 HUGHESIAN DR,+BUCKINGHAM,+PA+18912&hl=en"
BUCKINGHAM TWP PD,MIDWAY FIRE DEPT,3879 ROUTE 413,DOYLESTOWN,PA,18902,"http://maps.google.com/maps?q=3879 ROUTE 413,+DOYLESTOWN,+PA+18902&hl=en"
BYRAM TWP. POLICE DEPARTMENT,CVS PHARMACY,77 RT. 206,STANHOPE,NJ,07874,"http://maps.google.com/maps?q=77 RT. 206,+STANHOPE,+NJ+07874&hl=en"
BYRAM TWP. POLICE DEPARTMENT,SHOP RITE,90 ROUTE 206,STANHOPE,NJ,07874,"http://maps.google.com/maps?q=90 ROUTE 206,+STANHOPE,+NJ+07874&hl=en"
CARTERET POLICE DEPARTMENT,CARTERET POLICE DEPARTMENT 732-541-4181,230 ROOSEVELT AVE.,CARTERET,NJ,07008,"http://maps.google.com/maps?q=230 ROOSEVELT AVE.,+CARTERET,+NJ+07008&hl=en"
CATASAUQUA POLICE DEPARTMENT,CATASAUQUA POLICE DEPARTMENT,90 BRIDGE ST.,CATASAUQUA,PA,18032,"http://maps.google.com/maps?q=90 BRIDGE ST.,+CATASAUQUA,+PA+18032&hl=en"
CEDAR GROVE POLICE DEPARTMENT,CEDAR GROVE POLICE DEPARTMENT 973-239-4100,525 ROUTE 23,CEDAR GROVE,NJ,07009,"http://maps.google.com/maps?q=525 ROUTE 23,+CEDAR GROVE,+NJ+07009&hl=en"
CENTRAL BUCKS REGIONAL POLICE DEPT,CVS,160 S MAIN ST,DOYLESTOWN,PA,18901,"http://maps.google.com/maps?q=160 S MAIN ST,+DOYLESTOWN,+PA+18901&hl=en"
CENTRAL BUCKS REGIONAL POLICE DEPT,RITE AID,306 TOWN CENTER,DOYLESTOWN,PA,18901,"http://maps.google.com/maps?q=306 TOWN CENTER,+DOYLESTOWN,+PA+18901&hl=en"
CHATHAM BOROUGH POLICE DEPARTMENT,CVS PHARMACY,471 MAIN STREET,CHATHAM,NJ,07928,"http://maps.google.com/maps?q=471 MAIN STREET,+CHATHAM,+NJ+07928&hl=en"
CHATHAM TOWNSHIP,CVS PHARMACY,641 SHUNPIKE ROAD,CHATHAM,NJ,07928,"http://maps.google.com/maps?q=641 SHUNPIKE ROAD,+CHATHAM,+NJ+07928&hl=en"
CHESTER POLICE DEPARTMENT,CHESTER TWP. POLICE HEADQUARTERS,1 PARKER ROAD,CHESTER,NJ,07930,"http://maps.google.com/maps?q=1 PARKER ROAD,+CHESTER,+NJ+07930&hl=en"
CLINTON TOWNSHIP POLICE DEPARTMENT,CLINTON TOWNSHIP POLICE DEPT.,1370 ROUTE 31 NORTH,ANNANDALE,NJ,08801,"http://maps.google.com/maps?q=1370 ROUTE 31 NORTH,+ANNANDALE,+NJ+08801&hl=en"
COLONIAL REGIONAL PD,GIANT,859 NAZARETH PK,NAZARETH,PA,18064,"http://maps.google.com/maps?q=859 NAZARETH PK,+NAZARETH,+PA+18064&hl=en"
COLONIAL REGIONAL PD,WEGMAN'S,3797 NAZARETH HWY,EASTON,PA,18045,"http://maps.google.com/maps?q=3797 NAZARETH HWY,+EASTON,+PA+18045&hl=en"
COLONIAL REGIONAL PD,WEGMAN'S,5000 WEGMAN'S DR,BETHLEHEM,PA,18017,"http://maps.google.com/maps?q=5000 WEGMAN'S DR,+BETHLEHEM,+PA+18017&hl=en"
CRANBURY TOWNSHIP POLICE DEPT.,CRANBURY TOWNSHIP POLICE DEPARTMENT,1 LOGAN DRIVE,CRANBURY,NJ,08512,"http://maps.google.com/maps?q=1 LOGAN DRIVE,+CRANBURY,+NJ+08512&hl=en"
DEA NEW YORK DIVISION,NEW YORK CITY POLICE DEPARTMENT BROOKLYN 61 PRECINCT,2575 CONEY ISLAND AVENUE (HOMECREST),BROOKLYN,NY,11223,"http://maps.google.com/maps?q=2575 CONEY ISLAND AVENUE (HOMECREST),+BROOKLYN,+NY+11223&hl=en"
DEA NEW YORK DIVISION,NEW YORK CITY POLICE DEPARTMENT BROOKLYN 68 PRECINCT,333 65TH STREET (BAY RIDGE),BROOKLYN,NY,11220,"http://maps.google.com/maps?q=333 65TH STREET (BAY RIDGE),+BROOKLYN,+NY+11220&hl=en"
DEA NEW YORK DIVISION,NEW YORK CITY POLICE DEPARTMENT BROOKLYN 78 PRECINCT,65 SIXTH AVENUE (FLATBUSH),BROOKLYN,NY,11217,"http://maps.google.com/maps?q=65 SIXTH AVENUE (FLATBUSH),+BROOKLYN,+NY+11217&hl=en"
DEA NEW YORK DIVISION,NEW YORK CITY POLICE DEPARTMENT BROOKLYN 84 PRECINCT,301 GOLD STREET,BROOKLYN,NY,11201,"http://maps.google.com/maps?q=301 GOLD STREET,+BROOKLYN,+NY+11201&hl=en"
DEA NEW YORK DIVISION,NEW YORK CITY POLICE DEPARTMENT STATEN ISLAND 120TH PRECINCT,78 RICHMOND TERRACE (STGEORGE),STATEN ISLAND,NY,10301,"http://maps.google.com/maps?q=78 RICHMOND TERRACE (STGEORGE),+STATEN ISLAND,+NY+10301&hl=en"
DEA NEW YORK DIVISION,NEW YORK CITY POLICE DEPARTMENT STATEN ISLAND 123RD PRECINCT,116 MAIN STREET (TOTTENVILLE),STATEN ISLAND,NY,10307,"http://maps.google.com/maps?q=116 MAIN STREET (TOTTENVILLE),+STATEN ISLAND,+NY+10307&hl=en"
DEA NEW YORK DIVISION,NEW YORK POLICE DEPARTMENT STATEN ISLAND 122ND PRECINCT,2320 HYLAN BLVD (NEW DORP),STATEN ISLAND,NY,10306,"http://maps.google.com/maps?q=2320 HYLAN BLVD (NEW DORP),+STATEN ISLAND,+NY+10306&hl=en"
DEAL POLICE DEPARTMENT,DEAL FIRE DEPARTMENT 732-531-1113,110 BRIGHTON AVE.,DEAL,NJ,07723,"http://maps.google.com/maps?q=110 BRIGHTON AVE.,+DEAL,+NJ+07723&hl=en"
DELANCO TOWNSHIP POLICE DEPARTMENT,DELANCO TOWNSHIP POLICE DEPARTMENT,770 COOPERSTOWN ROAD,DELANCO,NJ,08075,"http://maps.google.com/maps?q=770 COOPERSTOWN ROAD,+DELANCO,+NJ+08075&hl=en"
DELRAN TWP. POLICE DEPARTMENT,DELRAN TWP. POLICE DEPARTMENT 856-461-4498,900 CHESTER AVE.,DELRAN TOWNSHIP,NJ,08075,"http://maps.google.com/maps?q=900 CHESTER AVE.,+DELRAN TOWNSHIP,+NJ+08075&hl=en"
DOYLESTOWN TWP POLICE DEPT.,DOYLESTOWN HOSPITAL,595 W. STATE STREET,DOYLESTOWN,PA,18901,"http://maps.google.com/maps?q=595 W. STATE STREET,+DOYLESTOWN,+PA+18901&hl=en"
DUBLIN BOROUGH POLICE DEPARTMENT,DUBLIN IGA FOODSTORE,161 NORTH MAIN STREET,DUBLIN,PA,18917,"http://maps.google.com/maps?q=161 NORTH MAIN STREET,+DUBLIN,+PA+18917&hl=en"
EAST BRUNSWICK POLICE DEPARTMENT,EAST BRUNSWICK POLICE DEPARTMENT,1 CIVIC CENTER DRIVE,EAST BRUNSWICK,NJ,08816,"http://maps.google.com/maps?q=1 CIVIC CENTER DRIVE,+EAST BRUNSWICK,+NJ+08816&hl=en"
EAST WINDSOR TWP. POLICE DEPARTMENT,EAST WINDSOR POLICE DEPARTMENT 609-448-5678,80 ONE MILE RD.,EAST WINDSOR,NJ,08520,"http://maps.google.com/maps?q=80 ONE MILE RD.,+EAST WINDSOR,+NJ+08520&hl=en"
EATONTOWN POLICE DEPARTMENT,EATONTOWN POLICE DEPARTMENT 732-542-0100,47 BROAD ST.55 WYCKOFF RD.,EATONTOWN,NJ,07724,"http://maps.google.com/maps?q=47 BROAD ST.,+EATONTOWN,+NJ+07724&hl=en"
EDISON POLICE DEPARTMENT,EDISON POLICE DEPARTMENT 732-248-6442,100 MUNICIPAL BLVD.,EDISON,NJ,08817,"http://maps.google.com/maps?q=100 MUNICIPAL BLVD.,+EDISON,+NJ+08817&hl=en"
ELIZABETH POLICE DEPARTMENT,CVS PHARMACY,214 RAHWAY AVENUE,ELIZABETH,NJ,07202,"http://maps.google.com/maps?q=214 RAHWAY AVENUE,+ELIZABETH,+NJ+07202&hl=en"
EMMAUS POLICE DEPARTMENT,EMMAUS POLICE DEPARTMENT,400 JUBILEE STREET,EMMAUS,PA,18049,"http://maps.google.com/maps?q=400  JUBILEE STREET,+EMMAUS,+PA+18049&hl=en"
ESSEX COUNTY SHERIFF'S OFFICE,ESSEX COUNTY SHERIFF'S OFFICE 973-621-4111,525 WEST MARKET STPATROL HQ,NEWARK,NJ,07105,"http://maps.google.com/maps?q=525 WEST MARKET ST,+NEWARK,+NJ+07105&hl=en"
ESSEX FELLS POLICE DEPARTMENT,ESSEX FELLS POLICE DEPARTMENT,255 ROSELAND AVENUE,ESSEX FELLS,NJ,07021,"http://maps.google.com/maps?q=255 ROSELAND AVENUE,+ESSEX FELLS,+NJ+07021&hl=en"
EWING POLICE DEPARTMENT,EWING TOWNSHIP MUNICIPAL BUILDING 609-882-1313,2 JAKE GARZIO DRIVE,EWING,NJ,08628,"http://maps.google.com/maps?q=2 JAKE GARZIO DRIVE,+EWING,+NJ+08628&hl=en"
FALLS TOWNSHIP POLICE DEPARTMENT,FALLS TOWNSHIP POLICE DEPARTMENT,188 LINCOLN HIGHWAY,FAIRLESS HILLS,PA,19030,"http://maps.google.com/maps?q=188 LINCOLN HIGHWAY,+FAIRLESS HILLS,+PA+19030&hl=en"
FAR HILLS PD,FAR HILLS PD,6 PROSPECT STREET,FAR HILLS,NJ,07931,"http://maps.google.com/maps?q=6 PROSPECT STREET,+FAR HILLS,+NJ+07931&hl=en"
FLORHAM PARK POLICE DEPARTMENT,RIDGEDALE MIDDLE SCHOOL 973-377-2200,71 RIDGEDALE AVE.,FLORHAM PARK,NJ,07932,"http://maps.google.com/maps?q=71 RIDGEDALE AVE.,+FLORHAM PARK,+NJ+07932&hl=en"
FOUNTAIN HILL POLICE DEPARTMENT,FOUNTAIN HILL POLICE DEPARTMENT,941 LONG STREET,FOUNTAIN HILL,PA,18015,"http://maps.google.com/maps?q=941 LONG STREET,+FOUNTAIN HILL,+PA+18015&hl=en"
FOUNTAIN HILL POLICE DEPARTMENT,ST LUKES HOSPITAL MEDICAL BLDG PARKING LOT,801 OSTRUM ST,FOUNTAIN HILL,PA,18015,"http://maps.google.com/maps?q=801 OSTRUM ST,+FOUNTAIN HILL,+PA+18015&hl=en"
FRANKLIN TOWNSHIP,FRANKLIN TWP. P.D.,495 DEMOTT LANE,SOMERSET,NJ,08873,"http://maps.google.com/maps?q=495 DEMOTT LANE,+SOMERSET,+NJ+08873&hl=en"
FREEHOLD BOROUGH POLICE DEPARTMENT,FREEHOLD BOROUGH POLICE DEPARTMENT 732-462-1234 RXT. 107,36 JACKSON ST.,FREEHOLD,NJ,07728,"http://maps.google.com/maps?q=36 JACKSON ST.,+FREEHOLD,+NJ+07728&hl=en"
FREEHOLD TWP. POLICE DEPARTMENT,FREEHOLD RACEWAY MALL,3710 RT. 9CAROUSEL ENTRANCE,FREEHOLD,NJ,07728,"http://maps.google.com/maps?q=3710 RT. 9,+FREEHOLD,+NJ+07728&hl=en"
FREEHOLD TWP. POLICE DEPARTMENT,FREEHOLD TWP. POLICE DEPARTMENT 732-462-7500,1 MUNICIPAL PLAZA,FREEHOLD,NJ,07728,"http://maps.google.com/maps?q=1 MUNICIPAL PLAZA,+FREEHOLD,+NJ+07728&hl=en"
FREEHOLD TWP. POLICE DEPARTMENT,MICHAEL J. TIGHE PARK 732-462-7500,76 GEORGIA ROAD,FREEHOLD,NJ,07728,"http://maps.google.com/maps?q=76 GEORGIA ROAD,+FREEHOLD,+NJ+07728&hl=en"
FRENCHTOWN BOROUGH POLICE DEPARTMENT,FRENCHTOWN BOROUGH POLICE DEPARTMENT,27 SECOND STREET,FRENCHTOWN,NJ,08825,"http://maps.google.com/maps?q=27 SECOND STREET,+FRENCHTOWN,+NJ+08825&hl=en"
GARWOOD POLICE DEPARTMENT,GARWOOD POLICE DEPARTMENT 908-789-1500,403 SOUTH AVE.,GARWOOD,NJ,07027,"http://maps.google.com/maps?q=403 SOUTH AVE.,+GARWOOD,+NJ+07027&hl=en"
GREEN BROOK,GREEN BROOK POLICE DEPT.,109 GREENBROOK ROAD,GREEN BROOK,NJ,08812,"http://maps.google.com/maps?q=109 GREENBROOK ROAD,+GREEN BROOK,+NJ+08812&hl=en"
HANOVER TOWNSHIP POLICE,WEGMANS SUPERMARKET,34 SYLVAN WAY,WHIPPANY,NJ,07981,"http://maps.google.com/maps?q=34 SYLVAN WAY,+WHIPPANY,+NJ+07981&hl=en"
HATFIELD TOWNSHIP POLICE DEPARTMENT,HATFIELD TOWNSHIP ADMINISTRATIVE BUILDING,1950 SCHOOL ROAD,HATFIELD,PA,19440,"http://maps.google.com/maps?q=1950 SCHOOL ROAD,+HATFIELD,+PA+19440&hl=en"
HIGH BRIDGE POLICE,HIGH BRIDGE POLICE DEPARTMENT,99 WEST MAIN STREET,HIGH BRIDGE,NJ,08829,"http://maps.google.com/maps?q=99 WEST MAIN STREET,+HIGH BRIDGE,+NJ+08829&hl=en"
HIGHLAND PARK POLICE DEPARTMENT,HIGHLAND PARK COMMUNITY YOUTH CENTER 732-572-3800,222 SOUTH 6TH AVE.,HIGHLAND PARK,NJ,08904,"http://maps.google.com/maps?q=222 SOUTH 6TH AVE.,+HIGHLAND PARK,+NJ+08904&hl=en"
HIGHTSTOWN POLICE DEPARTMENT,HIGHTSTOWN POLICE DEPARTMENT,415A MERCER STREET,HIGHTSTOWN,NJ,08520,"http://maps.google.com/maps?q=415A MERCER STREET,+HIGHTSTOWN,+NJ+08520&hl=en"
HILLSBOROUGH TWP POLICE DEPT.,HILLSBOROUGH TWP POLICE DEPT.,379 S. BRANCH RD.,HILLSBOROUGH,NJ,08844,"http://maps.google.com/maps?q=379 S. BRANCH RD.,+HILLSBOROUGH,+NJ+08844&hl=en"
HOBOKEN POLICE DEPARTMENT,HOBOKEN POLICE DEPARTMENT,106 HUDSON STREET,HOBOKEN,NJ,07030,"http://maps.google.com/maps?q=106 HUDSON STREET,+HOBOKEN,+NJ+07030&hl=en"
HOLLAND TWP. POLICE DEPARTMENT.,HOLLAND TWP. POLICE DEPARTMENT 908-995-4670,61 CHURCH ROAD,MILFORD,NJ,08848,"http://maps.google.com/maps?q=61 CHURCH ROAD,+MILFORD,+NJ+08848&hl=en"
HOPATCONG BOROUGH POLICE DEPARTMENT,HOPATCONG POLICE DEPARTMENT 973-398-5000,111 RIVER STYX RD,HOPATCONG,NJ,07843,"http://maps.google.com/maps?q=111 RIVER STYX RD,+HOPATCONG,+NJ+07843&hl=en"
HOPEWELL TWP. POLICE DEPARTMENT,HOPEWELL TWP POLICE DEPT.,201 WISHINGTON CROSSING PENNINGTON ROAD,TITUSVILLE,NJ,08560,"http://maps.google.com/maps?q=201 WISHINGTON CROSSING PENNINGTON ROAD,+TITUSVILLE,+NJ+08560&hl=en"
HORSHAM TOWNSHIP POLICE DEPARTMENT,GIANT FOOD STORE,314 HORSHAM ROAD,HORSHAM,PA,19044,"http://maps.google.com/maps?q=314 HORSHAM ROAD,+HORSHAM,+PA+19044&hl=en"
HOWELL TWP. POLICE DEPARTMENT,HOWELL TWP. POLICE DEPARTMENT 732-938-4111,300 OLD TAVERN RD.,HOWELL,NJ,07731,"http://maps.google.com/maps?q=300 OLD TAVERN RD.,+HOWELL,+NJ+07731&hl=en"
HUDSON COUNTY SHERIFF'S OFFICE,HUDSON COUNTY SHERIFF'S OFFICE,257 CORNELISON AVENUE,JERSEY CITY,NJ,07302,"http://maps.google.com/maps?q=257 CORNELISON AVENUE,+JERSEY CITY,+NJ+07302&hl=en"
JAMESBURG POLICE DEPARTMENT,JAMESBURG POLICE DEPT.,131 PERRINEVILLE ROAD,JAMESBURG,NJ,08831,"http://maps.google.com/maps?q=131 PERRINEVILLE ROAD,+JAMESBURG,+NJ+08831&hl=en"
JEFFERSON TWP. POLICE DEPARTMENT,JEFFERSON TWP. MUNICIPAL BUILDING 973-697-1300,1033 WELDON ROAD,OAK RIDGE,NJ,07438,"http://maps.google.com/maps?q=1033 WELDON ROAD,+OAK RIDGE,+NJ+07438&hl=en"
KEANSBURG POLICE DEPARTMENT,FALLON MANOR,43 CHURCH ST.,KEANSBURG,NJ,07734,"http://maps.google.com/maps?q=43 CHURCH ST.,+KEANSBURG,+NJ+07734&hl=en"
KEANSBURG POLICE DEPARTMENT,GRANDVIEW APARTMENTS,1 CHURCH ST.,KEANSBURG,NJ,07734,"http://maps.google.com/maps?q=1 CHURCH ST.,+KEANSBURG,+NJ+07734&hl=en"
KEANSBURG POLICE DEPARTMENT,KEANSBURG POLICE DEPARTMENT,331 CARR AVENUE,KEANSBURG,NJ,07734,"http://maps.google.com/maps?q=331 CARR AVENUE,+KEANSBURG,+NJ+07734&hl=en"
KEANSBURG POLICE DEPARTMENT,MCGRATH TOWERS,25 HANCOCK ST.,KEANSBURG,NJ,07734,"http://maps.google.com/maps?q=25 HANCOCK ST.,+KEANSBURG,+NJ+07734&hl=en"
KEYPORT POLICE DEPARTMENT,KEYPORT POLICE DEPARTMENT 732-264-0706,70 WEST FRONT ST.,KEYPORT,NJ,07735,"http://maps.google.com/maps?q=70 WEST FRONT ST.,+KEYPORT,+NJ+07735&hl=en"
LAMBERTVILLE CITY POLICE DEPARTMENT,LAMBERTVILLE CITY POLICE DEPARTMENT,349 NORTH MAIN STREET,LAMBERTVILLE,NJ,08530,"http://maps.google.com/maps?q=349 NORTH MAIN STREET,+LAMBERTVILLE,+NJ+08530&hl=en"
LAWRENCE TWP. POLICE DEPARTMENT,LAWRENCE TWP. POLICE DEPARTMENT 609-896-1111,2211 LAWRENCE RD.,LAWRENCE TOWNSHIP,NJ,08648,"http://maps.google.com/maps?q=2211 LAWRENCE RD.,+LAWRENCE TOWNSHIP,+NJ+08648&hl=en"
LITTLE SILVER POLICE DEPARTMENT,LITTLE SILVER BOROUGH HALL 732-747-5900,480 PROSPECT AVE.,LITTLE SILVER,NJ,07739,"http://maps.google.com/maps?q=480 PROSPECT AVE.,+LITTLE SILVER,+NJ+07739&hl=en"
LONG BRANCH POLICE DEPARTMENT,LONG BRANCH SENIOR CENTER,85 SECOND AVENUE,LONG BRANCH,NJ,07740,"http://maps.google.com/maps?q=85 SECOND AVENUE,+LONG BRANCH,+NJ+07740&hl=en"
LOWER MAKEFIELD TWP POLICE DEPARTMENT,LOWER MAKEFIELD TWP POLICE DEPARTMENT,1100 EDGEWOOD ROAD,YARDLEY,PA,19067,"http://maps.google.com/maps?q=1100 EDGEWOOD ROAD,+YARDLEY,+PA+19067&hl=en"
LOWER SAUCON TOWNSHIP POLICE DEPARTMENNT,LOWER SAUCON TOWNSHIP POLICE DEPARTMENT,3700 OLD PHILADELPHIA PIKE,BETHLEHEM,PA,18015,"http://maps.google.com/maps?q=3700 OLD PHILADELPHIA PIKE,+BETHLEHEM,+PA+18015&hl=en"
LUMBERTON TOWNSHIP PD,MUNICIPAL BLDG,35 MUNICIPAL DRIV,LUMBERTON,NJ,08048,"http://maps.google.com/maps?q=35 MUNICIPAL DRIV,+LUMBERTON,+NJ+08048&hl=en"
MACUNGIE BOROUGH POLICE DEPT,MACUNGIE POLICE DEPT,21 LOCUST ST,MACUNGIE,PA,18062,"http://maps.google.com/maps?q=21 LOCUST ST,+MACUNGIE,+PA+18062&hl=en"
MANALAPAN TWP POLICE DEPT.,MANALAPAN TOWNSHIP POLICE DEPARTMENT,120 RT 522,MANALAPAN,NJ,07726,"http://maps.google.com/maps?q=120 RT 522,+MANALAPAN,+NJ+07726&hl=en"
MANVILLE POLICE DEPARTMENT,MANVILLE POLICE DEPARTMENT 908-725-1900,2 NORTH MAIN ST.,MANVILLE,NJ,08835,"http://maps.google.com/maps?q=2 NORTH MAIN ST.,+MANVILLE,+NJ+08835&hl=en"
MARLBORO TWP. POLICE DEPARTMENT,MARLBORO TWP. POLICE DEPARTMENT 732-536-0100,1979 TOWNSHIP DR.,MARLBORO,NJ,07746,"http://maps.google.com/maps?q=1979 TOWNSHIP DR.,+MARLBORO,+NJ+07746&hl=en"
MARLBOROUGH TOWNSHIP POLICE DEPARTMENT,MARLBOROUGH TOWNSHIP POLICE DEPARTMENT,6040 UPPER RIDGE ROAD,GREEN LANE,PA,18054,"http://maps.google.com/maps?q=6040 UPPER RIDGE ROAD,+GREEN LANE,+PA+18054&hl=en"
MATAWAN BOROUGH POLICE DEPARTMENT,MATAWAN POLICE DEPARTMENT,150 MAIN STREET,MATAWAN,NJ,07747,"http://maps.google.com/maps?q=150 MAIN STREET,+MATAWAN,+NJ+07747&hl=en"
MERCER COUNTY SHERIFF'S OFFICE,MERCER COUNTY SHERIFF'S OFFICE 609-278-7159,640 S. BROAD STREET,TRENTON,NJ,08610,"http://maps.google.com/maps?q=640 S. BROAD STREET,+TRENTON,+NJ+08610&hl=en"
METUCHEN POLICE DEPARTMENT,METUCHEN POLICE DEPARTMENT,500 MAIN STREET,METUCHEN,NJ,08840,"http://maps.google.com/maps?q=500 MAIN STREET,+METUCHEN,+NJ+08840&hl=en"
MIDDLESEX POLICE DEPARTMENT,MIDDLESEX POLICE DEPARTMENT 732-356-1900,1101 MOUNTAIN AVE.,MIDDLESEX,NJ,08846,"http://maps.google.com/maps?q=1101 MOUNTAIN AVE.,+MIDDLESEX,+NJ+08846&hl=en"
MIDDLETOWN TOWNSHIP PD,MIDDLETOWN TOWNSHIP PD 7326152100,1 KINGS HWY,MIDDLETOWN,NJ,07748,"http://maps.google.com/maps?q=1 KINGS HWY,+MIDDLETOWN,+NJ+07748&hl=en"
MIDDLETOWN TOWNSHIP POLICE DEPARTMENT,CVS PHARMACY AT TARGET STORE,2331 E. LINCOLN HIGHWAY,LANGHORNE,PA,19047,"http://maps.google.com/maps?q=2331 E. LINCOLN HIGHWAY,+LANGHORNE,+PA+19047&hl=en"
MIDDLETOWN TOWNSHIP POLICE DEPARTMENT,GIANT FOOD PHARMACY,4001 NEW FALLS ROAD,LEVITTOWN,PA,19056,"http://maps.google.com/maps?q=4001 NEW FALLS ROAD,+LEVITTOWN,+PA+19056&hl=en"
MIDDLETOWN TOWNSHIP POLICE DEPARTMENT,ST MARY MEDICAL CENTER,1201 LANGHORNE-NEWTOWN ROAD,LANGHORNE,PA,19047,"http://maps.google.com/maps?q=1201 LANGHORNE-NEWTOWN ROAD,+LANGHORNE,+PA+19047&hl=en"
MONMOUTH BEACH POLICE DEPARTMENT,MONMOUTH BEACH POLICE DEPARTMENT 732-229-1313,14 WILLOW AVE.,MONMOUTH BEACH,NJ,07750,"http://maps.google.com/maps?q=14 WILLOW AVE.,+MONMOUTH BEACH,+NJ+07750&hl=en"
MONMOUTH COUNTY SHERIFF'S OFFICE,MONMOUTH COUNTY SHERIFF'S OFFICE PUBLIC SAFETY COMPLEX,2500 KOZLOSKI RD.,FREEHOLD,NJ,07728,"http://maps.google.com/maps?q=2500 KOZLOSKI RD.,+FREEHOLD,+NJ+07728&hl=en"
MONMOUTH UNIVERSITY POLICE DEPARTMENT,MONMOUTH UNIVERSITY POLICE DEPARTMENT 732-571-4444,400 CEDAR AVE.,WEST LONG BRANCH,NJ,07764,"http://maps.google.com/maps?q=400 CEDAR AVE.,+WEST LONG BRANCH,+NJ+07764&hl=en"
MONROE TOWNSHIP POLICE DEPT.,MONROE TOWNSHIP POLICE DEPT.,3 MUNICIPAL PLAZA,MONROE TOWNSHIP,NJ,08831,"http://maps.google.com/maps?q=3 MUNICIPAL PLAZA,+MONROE TOWNSHIP,+NJ+08831&hl=en"
MONTGOMERY TOWNSHIP P.D.,MONTGOMERY TOWNSHIP P.D,2261 US ROUTE 206,BELLE MEAD,NJ,08502,"http://maps.google.com/maps?q=2261 US ROUTE 206,+BELLE MEAD,+NJ+08502&hl=en"
MONTGOMERY TWP. POLICE DEPARTMENT,WEGMANS SUPERMARKET,1201 KNAPP ROAD,NORTH WALES,PA,19454,"http://maps.google.com/maps?q=1201 KNAPP ROAD,+NORTH WALES,+PA+19454&hl=en"
MORRIS COUNTY PROSECUTOR'S OFFICE,HANOVER SHOPRITE,178 HANOVER AVE,CEDAR KNOLLS,NJ,07927,"http://maps.google.com/maps?q=178 HANOVER AVE,+CEDAR KNOLLS,+NJ+07927&hl=en"
MORRIS COUNTY PROSECUTOR'S OFFICE,MORRIS PLAINS STOP & SHOP SUPERMARKET,245 LITTLETON RD,MORRISTOWN,NJ,07963,"http://maps.google.com/maps?q=245 LITTLETON RD,+MORRISTOWN,+NJ+07963&hl=en"
MORRIS COUNTY PROSECUTOR'S OFFICE,RANDOLPH ACME SUPERMARKET,690 MILLBROOK AVE,RANDOLPH,NJ,07869,"http://maps.google.com/maps?q=690 MILLBROOK AVE,+RANDOLPH,+NJ+07869&hl=en"
NEPTUNE TWP. POLICE DEPARTMENT,NEPTUNE TWP. POLICE DEPARTMENT 732-988-8000 EXT. 428,25 NEPTUNE BLVD.,NEPTUNE,NJ,07753,"http://maps.google.com/maps?q=25 NEPTUNE BLVD.,+NEPTUNE,+NJ+07753&hl=en"
NEW BRITAIN TOWNSHIP POLICE DEPARTMENT,GIANT,4275 COUNTY LINE ROAD,CHALFONT,PA,18914,"http://maps.google.com/maps?q=4275 COUNTY LINE ROAD,+CHALFONT,+PA+18914&hl=en"
NEW BRITAIN TOWNSHIP POLICE DEPARTMENT,NEW BRITAIN TOWNSHIP POLICE DEPARTMENT,207 PARK AVENUE,CHALFONT,PA,18914,"http://maps.google.com/maps?q=207 PARK AVENUE,+CHALFONT,+PA+18914&hl=en"
NEW BRUNSWICK POLICE DEPARTMENT,NEW BRUNSWICK POLICE DEPARTMENT 732-745-5200,25 KIRKPATRICK ST.,NEW BRUNSWICK,NJ,08901,"http://maps.google.com/maps?q=25 KIRKPATRICK ST.,+NEW BRUNSWICK,+NJ+08901&hl=en"
NEW HOPE POLICE DEPARTMENT,CVS PHARMACY,302 WEST BRIDGE STREET,NEW HOPE,PA,18938,"http://maps.google.com/maps?q=302 WEST BRIDGE STREET,+NEW HOPE,+PA+18938&hl=en"
NEW PROVIDENCE PD,NEW PROVIDENCE PD,360 ELKWOOD AVE.,NEW PROVIDENCE,NJ,07974,"http://maps.google.com/maps?q=360 ELKWOOD AVE.,+NEW PROVIDENCE,+NJ+07974&hl=en"
NEWARK POLICE DEPT.,1ST PRECINCT,10 17TH AVE.,NEWARK,NJ,07108,"http://maps.google.com/maps?q=10  17TH AVE.,+NEWARK,+NJ+07108&hl=en"
NEWARK POLICE DEPT.,2ND PRECINCT,1 LINCOLN AVE.,NEWARK,NJ,07108,"http://maps.google.com/maps?q=1 LINCOLN AVE.,+NEWARK,+NJ+07108&hl=en"
NEWARK POLICE DEPT.,3RD PRECINCT,649 MARKET ST.,NEWARK,NJ,07102,"http://maps.google.com/maps?q=649 MARKET ST.,+NEWARK,+NJ+07102&hl=en"
NEWARK POLICE DEPT.,4TH PRECINCT,247 16TH AVE.,NEWARK,NJ,07108,"http://maps.google.com/maps?q=247 16TH AVE.,+NEWARK,+NJ+07108&hl=en"
NEWARK POLICE DEPT.,5TH PRECINCT,480 CLINTON AVE.,NEWARK,NJ,07108,"http://maps.google.com/maps?q=480 CLINTON AVE.,+NEWARK,+NJ+07108&hl=en"
NEWARK POLICE DEPT.,6TH PRECINCT,491 IRVINGTON AVENUE,NEWARK,NJ,07106,"http://maps.google.com/maps?q=491 IRVINGTON AVENUE,+NEWARK,+NJ+07106&hl=en"
NEWARK POLICE DEPT.,JUVENILE SERVICES SECTION,43 DICKERSON ST.,NEWARK,NJ,07108,"http://maps.google.com/maps?q=43 DICKERSON ST.,+NEWARK,+NJ+07108&hl=en"
NEWARK POLICE DEPT.,POLICE MAIN DESK,22 FRANKLIN ST.,NEWARK,NJ,07108,"http://maps.google.com/maps?q=22 FRANKLIN ST.,+NEWARK,+NJ+07108&hl=en"
NEWARK POLICE DEPT.,SPECIAL OPERATIONS DIVISION,472 ORANGE ST.,NEWARK,NJ,07108,"http://maps.google.com/maps?q=472 ORANGE ST.,+NEWARK,+NJ+07108&hl=en"
NEWTON POLICE DEPARTMENT,NEWTON POLICE DEPARTMENT,39 TRINITY STREET,NEWTON,NJ,07860,"http://maps.google.com/maps?q=39 TRINITY STREET,+NEWTON,+NJ+07860&hl=en"
NEWTOWN BOROUGH POLCE DEPT.,NEWTOWN FIRE ASSOCIATION BUILDING,14 LIBERTY STREET,NEWTOWN,PA,18940,"http://maps.google.com/maps?q=14 LIBERTY STREET,+NEWTOWN,+PA+18940&hl=en"
NEWTOWN TWP. POLICE DEPARTMENT,NEWTOWN TWP. MUNICIPAL BUILDING,100 MUNICIPAL DRIVE,NEWTOWN,PA,18940,"http://maps.google.com/maps?q=100 MUNICIPAL DRIVE,+NEWTOWN,+PA+18940&hl=en"
NORTH BRUNSWICK POLICE DEPARTMENT,NORTH BRUNSWICK POLICE DEPT.,710 HERMANN ROAD,NORTH BRUNSWICK,NJ,08902,"http://maps.google.com/maps?q=710 HERMANN ROAD,+NORTH BRUNSWICK,+NJ+08902&hl=en"
NORTH PLAINFIELD POLICE DEPT.,NORTH PLAINFIELD POLICE DEPARTMENT,263 SOMERSET STREET,PLAINFIELD,NJ,07060,"http://maps.google.com/maps?q=263 SOMERSET STREET,+PLAINFIELD,+NJ+07060&hl=en"
NORTHAMPTON TWP POLICE,MURRAY MARKET,1025 2ND ST PIKE,RICHBORO,PA,18954,"http://maps.google.com/maps?q=1025 2ND ST PIKE,+RICHBORO,+PA+18954&hl=en"
OCEAN TWP. POLICE DEPARTMENT,OCEAN POLICE DEPARTMENT 7325311800,399 MONMOUTH RD.,OAKHURST,NJ,07755,"http://maps.google.com/maps?q=399 MONMOUTH RD.,+OAKHURST,+NJ+07755&hl=en"
OCEANPORT POLICE DEPARTMENT,OCEANPORT POLICE DEPT.,282 HILDRETH AVE.,OCEANPORT,NJ,07757,"http://maps.google.com/maps?q=282 HILDRETH AVE.,+OCEANPORT,+NJ+07757&hl=en"
OLD BRIDGE POLICE DEPARTMENT,OLD BRIDGE POLICE DEPARTMENT 7327214000,1 OLD BRIDGE PLAZA,OLD BRIDGE,NJ,08857,"http://maps.google.com/maps?q=1 OLD BRIDGE PLAZA,+OLD BRIDGE,+NJ+08857&hl=en"
PARSIPPANY-TROY HILLS PD,PARSIPPANY POLICE DEPARTMENT,3339 US HIGHWAY 46 EAST,PARSIPPANY,NJ,07054,"http://maps.google.com/maps?q=3339 US HIGHWAY 46 EAST,+PARSIPPANY,+NJ+07054&hl=en"
PEAPACK & GLADSTONE POLICE DEPARTMENT,PEAPACK & GLADSTONE POLICE DEPARTMENT MUNICIPAL BUILDING,1 SCHOOL ST.,PEAPACK,NJ,07977,"http://maps.google.com/maps?q=1 SCHOOL ST.,+PEAPACK,+NJ+07977&hl=en"
PENNDEL BOROUGH POLICE DEPT,PENNDEL POLICE STATION,300 SOUTH BELLEVUE AVE,PENNDEL,PA,19047,"http://maps.google.com/maps?q=300 SOUTH BELLEVUE AVE,+PENNDEL,+PA+19047&hl=en"
PENNRIDGE REGIONAL POLICE DEPARTMENT,GRANDVIEW HOSPITAL,700 LAWN AVE,SELLERSVILLE,PA,18960,"http://maps.google.com/maps?q=700 LAWN AVE,+SELLERSVILLE,+PA+18960&hl=en"
PENNRIDGE REGIONAL POLICE DEPARTMENT,PENNRIDGE POLICE DEPARTMENT HQ,200 RIDGE ROAD,SELLERSVILLE,PA,18960,"http://maps.google.com/maps?q=200 RIDGE ROAD,+SELLERSVILLE,+PA+18960&hl=en"
PERKASIE BOROUGH POLICE DEPARTMENT,PERKASIE BOROUGH POLICE DEPARTMENT,311 SOUTH 9TH STREET,PERKASIE,PA,18944,"http://maps.google.com/maps?q=311 SOUTH 9TH STREET,+PERKASIE,+PA+18944&hl=en"
PHILADELPHIA POLICE DEPARTMENT,FIRE DEPARTMENT ENGINE 19 / LADDER 8,300 E. CHELTEN AVENUE,PHILADELPHIA,PA,19120,"http://maps.google.com/maps?q=300 E. CHELTEN AVENUE,+PHILADELPHIA,+PA+19120&hl=en"
PHILADELPHIA POLICE DEPARTMENT,FIRE DEPARTMENT ENGINE 22/LADDER 31,3270 COMLY ROAD,PHILADELPHIA,PA,19154,"http://maps.google.com/maps?q=3270 COMLY ROAD,+PHILADELPHIA,+PA+19154&hl=en"
PHILADELPHIA POLICE DEPARTMENT,FIRE DEPARTMENT ENGINE 51 / LADDER 29,5931 OLD YORK RD.,PHILADELPHIA,PA,19141,"http://maps.google.com/maps?q=5931 OLD YORK RD.,+PHILADELPHIA,+PA+19141&hl=en"
PHILADELPHIA POLICE DEPARTMENT,FIRE DEPARTMENT ENGINE 62 / LADDER 34,9845 BUSTLETON AVE.,PHILADELPHIA,PA,19115,"http://maps.google.com/maps?q=9845 BUSTLETON AVE.,+PHILADELPHIA,+PA+19115&hl=en"
PHILADELPHIA POLICE DEPARTMENT,FIRE DEPARTMENT ENGINE 7 / LADDER 10,3798 KENSINGTON AVE.,PHILADELPHIA,PA,19124,"http://maps.google.com/maps?q=3798 KENSINGTON AVE.,+PHILADELPHIA,+PA+19124&hl=en"
PHILADELPHIA POLICE DEPARTMENT,FIRE DEPARTMENT ENGINE 71 / LADDER 28,1900 COTTMAN AVENUE,PHILADELPHIA,PA,19111,"http://maps.google.com/maps?q=1900 COTTMAN AVENUE,+PHILADELPHIA,+PA+19111&hl=en"
PHILADELPHIA POLICE DEPARTMENT,FIRE DEPARTMENT ENGINE 73,7515 OGONTZ AVE.,PHILADELPHIA,PA,19150,"http://maps.google.com/maps?q=7515 OGONTZ AVE.,+PHILADELPHIA,+PA+19150&hl=en"
PICATINNY ARSENAL POLICE DEPARTMENT,PICATINNY ARSENAL POLICE DEPARTMENT 9737246666,173 BUFFINGTON RD.,PICATINNY ARSENAL,NJ,07806,"http://maps.google.com/maps?q=173 BUFFINGTON RD.,+PICATINNY ARSENAL,+NJ+07806&hl=en"
PISCATAWAY POLICE DEPARTMENT,PISCATAWAY POLICE DEPARTMENT 732-562-2300,555 SIDNEY ROAD,PISCATAWAY,NJ,08854,"http://maps.google.com/maps?q=555 SIDNEY ROAD,+PISCATAWAY,+NJ+08854&hl=en"
PLAINSBORO POLICE DEPARTMENT,PLAINSBORO POLICE DEPARTMENT,641 PLAINSBORO ROAD,PLAINSBORO,NJ,08536,"http://maps.google.com/maps?q=641 PLAINSBORO ROAD,+PLAINSBORO,+NJ+08536&hl=en"
PLUMSTEAD TWP. POLICE DEPARTMENT,K-MART CROSS KEYS PLACE SHOPPING CENTER,4377 SWAMP ROAD,DOYLESTOWN,PA,18902,"http://maps.google.com/maps?q=4377 SWAMP ROAD,+DOYLESTOWN,+PA+18902&hl=en"
POCONO MOUNTAIN REGIONAL POLICE DEPT.,ST LUKES UNIVERSAL HEALTH NETWORK MONROE CAMPUS,100 ST LUKES LN,STROUDSBURG,PA,18360,"http://maps.google.com/maps?q=100 ST LUKES LN,+STROUDSBURG,+PA+18360&hl=en"
QUAKERTOWN POLICE DEPARTMENT,QUAKERTOWN BOROUGH HALL PARKING LOT,35 N. 3RD STREET,QUAKERTOWN,PA,18951,"http://maps.google.com/maps?q=35 N. 3RD STREET,+QUAKERTOWN,+PA+18951&hl=en"
QUAKERTOWN POLICE DEPARTMENT,ST LUKES QUAKERTOWN HOSPITAL MAIN ENTRANCE,1021 PARK AVE,QUAKERTOWN,PA,18951,"http://maps.google.com/maps?q=1021 PARK AVE,+QUAKERTOWN,+PA+18951&hl=en"
RAHWAY POLICE DEPARTMENT,RAHWAY POLICE DEPARTMENT,1 CITY HALL PLAZA,RAHWAY,NJ,07065,"http://maps.google.com/maps?q=1 CITY HALL PLAZA,+RAHWAY,+NJ+07065&hl=en"
RARITAN BORO POLICE DEPARTMENT,RARITAN BOROUGH POLICE DEPARTMENT,20 FIRST ST.,RARITAN,NJ,08869,"http://maps.google.com/maps?q=20 FIRST ST.,+RARITAN,+NJ+08869&hl=en"
RED BANK POLICE DEPARTMENT,RED BANK POLICE DEPARTMENT,90 MONMOUTH ST,RED BANK,NJ,07701,"http://maps.google.com/maps?q=90 MONMOUTH ST,+RED BANK,+NJ+07701&hl=en"
RICHLAND TOWNSHIP POLICE DEPARTMENT,RICHLAND TOWNSHIP POLICE DEPARTMENT,229 CALIFORNIA ROAD,QUAKERTOWN,PA,18951,"http://maps.google.com/maps?q=229 CALIFORNIA ROAD,+QUAKERTOWN,+PA+18951&hl=en"
ROCKLEDGE BOROUGH POLICE DEPARTMENT,ROCKLEDGE POLICE DEPARTMENT,1 PARK AVENUE,ROCKLEDGE,PA,19046,"http://maps.google.com/maps?q=1 PARK AVENUE,+ROCKLEDGE,+PA+19046&hl=en"
RUMSON POLICE DEPARTMENT,RUMSON POLICE DEPARTMENT,80 EAST RIVER ROAD,RUMSON,NJ,07760,"http://maps.google.com/maps?q=80 EAST RIVER ROAD,+RUMSON,+NJ+07760&hl=en"
RUTGERS POLICE DEPARTMENT,COLLEGE AVE STUDENT CENTER & LIVINGSTON CAMPUS,190 COLLEGE AVE,NEW BRUNSWICK,NJ,08901,"http://maps.google.com/maps?q=190 COLLEGE AVE,+NEW BRUNSWICK,+NJ+08901&hl=en"
SALISBURY TOWNSHIP POLICE DEPARTMENT,SOUTH MALL,3300 LEHIGH STREET,ALLENTOWN,PA,18103,"http://maps.google.com/maps?q=3300 LEHIGH STREET,+ALLENTOWN,+PA+18103&hl=en"
SHREWSBURY BOROUGH POLICE DEPARTMENT,SHREWSBURY BOROUGH POLICE DEPARTMENT,419 SYCAMORE AVENUE,SHREWSBURY,NJ,07702,"http://maps.google.com/maps?q=419 SYCAMORE AVENUE,+SHREWSBURY,+NJ+07702&hl=en"
SOLEBURY TOWNSHIP POLICE DEPARTMENT,GIANT FOOD STORE,6542 LOGAN SQUARE,NEW HOPE,PA,18938,"http://maps.google.com/maps?q=6542 LOGAN SQUARE,+NEW HOPE,+PA+18938&hl=en"
SOLEBURY TOWNSHIP POLICE DEPARTMENT,SOLEBURY TOWNSHIP POLICE DEPARTMENT,3092 SUGAN ROAD,NEW HOPE,PA,18938,"http://maps.google.com/maps?q=3092 SUGAN ROAD,+NEW HOPE,+PA+18938&hl=en"
SOMERSET COUNTY SHERIFF'S OFFICE,SOMERSET COUNTY ADMIN. BUILDING,20 GROVE STREET,SOMERVILLE,NJ,08876,"http://maps.google.com/maps?q=20 GROVE STREET,+SOMERVILLE,+NJ+08876&hl=en"
SOMERVILLE POLICE DEPT.,SOMERVILLE POLICE DEPT.,24 SOUTH BRIDGE ST.,SOMERVILLE,NJ,08876,"http://maps.google.com/maps?q=24 SOUTH BRIDGE ST.,+SOMERVILLE,+NJ+08876&hl=en"
SOUDERTON BOROUGH POLICE,SOUDERTON BOROUGH POLICE STATION,31 WEST SUMMIT ST,SOUDERTON,PA,18964,"http://maps.google.com/maps?q=31 WEST SUMMIT ST,+SOUDERTON,+PA+18964&hl=en"
SOUTH BOUND BROOK,SOUTH BOUND BROOK POLICE DEPARTMENT,12 MAIN STREET,SOUTH BOUND BROOK,NJ,08880,"http://maps.google.com/maps?q=12 MAIN STREET,+SOUTH BOUND BROOK,+NJ+08880&hl=en"
SOUTH BRUNSWICK POLICE DEPARTMENT,SOUTH BRUNSWICK POLICE DEPARTMENT 732-329-4000,540 RIDGE RD.,MONMOUTH JUNCTION,NJ,08852,"http://maps.google.com/maps?q=540 RIDGE RD.,+MONMOUTH JUNCTION,+NJ+08852&hl=en"
SOUTH PLAINFIELD POLICE DEPARTMENT,SOUTH PLAINFIELD MUNICIPAL COURTROOM 9082267688,2480 PLAINFIELD AVE.,SOUTH PLAINFIELD,NJ,07080,"http://maps.google.com/maps?q=2480 PLAINFIELD AVE.,+SOUTH PLAINFIELD,+NJ+07080&hl=en"
SOUTH WHITEHALL TWP POLICE DEPT,SOUTH WHITEHALL TWP POLICE DEPT,4444 WALBERT AVENUE,ALLENTOWN,PA,18104,"http://maps.google.com/maps?q=4444 WALBERT AVENUE,+ALLENTOWN,+PA+18104&hl=en"
SPRINGFIELD TOWNSHIP PD,SPRINGFIELD ELEMENTARY,1950 ROUTE 212,QUAKERTOWN,PA,18951,"http://maps.google.com/maps?q=1950 ROUTE 212,+QUAKERTOWN,+PA+18951&hl=en"
SPRINGFIELD TWP PD,SPRINGFIELD TWP PD,1510 PAPER MILL RD,WYNDMOOR,PA,19038,"http://maps.google.com/maps?q=1510 PAPER MILL RD,+WYNDMOOR,+PA+19038&hl=en"
STATEN ISLAND UNIVERSITY HOSPITAL,STATEN ISLAND UNIVERSITY HOSPITAL,475 SEAVIEW AVENUE,STATEN ISLAND,NY,10305,"http://maps.google.com/maps?q=475 SEAVIEW AVENUE,+STATEN ISLAND,+NY+10305&hl=en"
TELFORD BOROUGH POLICE DEPARTMENT,INDIAN VALLEY PUBLIC LIBRARY,100 EAST CHURCH AVENUE,TELFORD,PA,18969,"http://maps.google.com/maps?q=100 EAST CHURCH AVENUE,+TELFORD,+PA+18969&hl=en"
TINICUM TOWNSHIP POLICE DEPARTMENT,WEHRUNG'S FAMILY HOME CENTER,7711 EASTON ROAD,OTTSVILLE,PA,18942,"http://maps.google.com/maps?q=7711 EASTON ROAD,+OTTSVILLE,+PA+18942&hl=en"
TOWNSHIP OF MAPLEWOOD,MAPLEWOOD POLICE DEPARTMENT,1618 SPRINGFIELD AVENUE,MAPLEWOOD,NJ,07040,"http://maps.google.com/maps?q=1618 SPRINGFIELD AVENUE,+MAPLEWOOD,+NJ+07040&hl=en"
TULLYTOWN POLICE,TULLYTOWN MUNICIPAL BLDG,500 MAIN ST,BRISTOL,PA,19007,"http://maps.google.com/maps?q=500 MAIN ST,+BRISTOL,+PA+19007&hl=en"
UNION BEACH,UNION BEACH P.D.,650 POOLE AVE.,UNION BEACH,NJ,07735,"http://maps.google.com/maps?q=650 POOLE AVE.,+UNION BEACH,+NJ+07735&hl=en"
UPPER DUBLIN TWP. POLICE DEPARTMENT,UPPER DUBLIN TOWNSHIP POLICE DEPT.,801 LOCH ALSH AVENUE,FORT WASHINGTON,PA,19034,"http://maps.google.com/maps?q=801 LOCH ALSH AVENUE,+FORT WASHINGTON,+PA+19034&hl=en"
UPPER MAKEFIELD TWP. POLICE DEPARTMENT,UPPER MAKEFIELD TWP. POLICE DEPARTMENT,1076 EAGLE ROAD,NEWTOWN,PA,18940,"http://maps.google.com/maps?q=1076 EAGLE ROAD,+NEWTOWN,+PA+18940&hl=en"
UPPER MORELAND TWP. POLICE DEPT.,GIANT FOOD STORE,315 N YORK RD,WILLOW GROVE,PA,19090,"http://maps.google.com/maps?q=315 N YORK RD,+WILLOW GROVE,+PA+19090&hl=en"
UPPER MORELAND TWP. POLICE DEPT.,UPPER MORELAND TOWNSHIP POLICE DEPARTMENT,117 PARK AVENUE,WILLOW GROVE,PA,19090,"http://maps.google.com/maps?q=117 PARK AVENUE,+WILLOW GROVE,+PA+19090&hl=en"
UPPER PERK POLICE DEPT,UPPER PERK POLICE STATION,88 W. 6TH STREET,PENNSBURG,PA,18073,"http://maps.google.com/maps?q=88 W. 6TH STREET,+PENNSBURG,+PA+18073&hl=en"
UPPER SAUCON TWP POLICE DEPT,UPPER SAUCON PD,5500 CAMP MEETING RD,CENTER VALLEY,PA,18034,"http://maps.google.com/maps?q=5500 CAMP MEETING RD,+CENTER VALLEY,+PA+18034&hl=en"
UPPER SOUTHAMPTON TOWNSHIP PD,RITE AID,1035 COUNTY LINE RD,HUNTINGDON VALLEY,PA,19006,"http://maps.google.com/maps?q=1035 COUNTY LINE RD,+HUNTINGDON VALLEY,+PA+19006&hl=en"
UPPER SOUTHAMPTON TOWNSHIP PD,SOUTHAMPTON ESTATES,238 STREET RD,SOUTHAMPTON,PA,18966,"http://maps.google.com/maps?q=238 STREET RD,+SOUTHAMPTON,+PA+18966&hl=en"
UPPER SOUTHAMPTON TOWNSHIP PD,UPPER SOUTHAMPTON PD,939 STREET RD,SOUTHAMPTON,PA,18966,"http://maps.google.com/maps?q=939 STREET RD,+SOUTHAMPTON,+PA+18966&hl=en"
WALL TWP. POLICE DEPARTMENT,WALL TWP. POLICE DEPARTMENT 732-449-4500,2700 ALLAIRE ROADFRONT LOBBY,WALL,NJ,07719,"http://maps.google.com/maps?q=2700 ALLAIRE ROAD,+WALL,+NJ+07719&hl=en"
WARMINSTER POLICE DEPARTMENT,ANN'S CHOICE **RESIDENTS ONLY**,3000 ANN'S CHOICE WAY,WARMINSTER,PA,18974,"http://maps.google.com/maps?q=3000 ANN'S CHOICE WAY,+WARMINSTER,+PA+18974&hl=en"
WARMINSTER POLICE DEPARTMENT,SHOP RITE OF WARMINSTER,942 W. STREET ROAD,WARMINSTER,PA,18974,"http://maps.google.com/maps?q=942 W. STREET ROAD,+WARMINSTER,+PA+18974&hl=en"
WARMINSTER POLICE DEPARTMENT,WARMINSTER TWP. POLICE HQ.,401 GIBSON AVE,WARMINSTER,PA,18974,"http://maps.google.com/maps?q=401 GIBSON AVE,+WARMINSTER,+PA+18974&hl=en"
WARRINGTON TOWNSHIP POLICE DEPARTMENT,WARRINGTON TOWNSHIP MUNICIPAL BUILDING LOBBY,852 EASTON ROAD,WARRINGTON,PA,18976,"http://maps.google.com/maps?q=852 EASTON ROAD,+WARRINGTON,+PA+18976&hl=en"
WARRINGTON TOWNSHIP POLICE DEPARTMENT,WEGMAN'S MARKET,1405 MAIN ST,WARRINGTON,PA,18976,"http://maps.google.com/maps?q=1405 MAIN ST,+WARRINGTON,+PA+18976&hl=en"
WARWICK TOWNSHIP POLICE DEPARTMENT,WAWA,1937 YORK ROAD,JAMISON,PA,18929,"http://maps.google.com/maps?q=1937 YORK ROAD,+JAMISON,+PA+18929&hl=en"
WATCHUNG POLICE DEPARTMENT,WATCHUNG POLICE DEPARTMENT 908-756-3663,840 SOMERSET ST.,WATCHUNG,NJ,07069,"http://maps.google.com/maps?q=840 SOMERSET ST.,+WATCHUNG,+NJ+07069&hl=en"
WAYNE TWP. POLICE DEPARTMENT,WAYNE POLICE DEPARTMENT 973-633-3550,475 VALLEY ROAD,WAYNE,NJ,07470,"http://maps.google.com/maps?q=475 VALLEY ROAD,+WAYNE,+NJ+07470&hl=en"
WEST AMWELL TOWNSHIP POLICE DEPARTMENT,WEST AMWELL TOWNSHIP BUILDING,150 ROCKTOWN LAMBERTVILLE RD,LAMBERTVILLE,NJ,08530,"http://maps.google.com/maps?q=150 ROCKTOWN LAMBERTVILLE RD,+LAMBERTVILLE,+NJ+08530&hl=en"
WEST CALDWELL POLICE,WEST CALDWELL PD,21 CLINTON ROAD,WEST CALDWELL,NJ,07006,"http://maps.google.com/maps?q=21 CLINTON ROAD,+WEST CALDWELL,+NJ+07006&hl=en"
WEST LONG BRANCH POLICE DEPARTMENT,WEST LONG BRANCH POLICE DEPARTMENT 732-229-5000,965 BROADWAY,WEST LONG BRANCH,NJ,07764,"http://maps.google.com/maps?q=965 BROADWAY,+WEST LONG BRANCH,+NJ+07764&hl=en"
WILLINGBORO POLICE DEPARTMENT,WILLINGBORO TWP. MUNICIPAL BUILDING,1 REV. MARTIN LUTHER KING JR. DRIVE,WILLINGBORO,NJ,08046,"http://maps.google.com/maps?q=1 REV. MARTIN LUTHER KING JR. DRIVE,+WILLINGBORO,+NJ+08046&hl=en"
WOODBRIDGE POLICE DEPARTMENT,WOODBRIDGE POLICE DEPARTMENT 732-634-7700,1 MAIN STREET,WOODBRIDGE,NJ,07095,"http://maps.google.com/maps?q=1 MAIN STREET,+WOODBRIDGE,+NJ+07095&hl=en"
