Participant,CollectionSite,Address,City,State,Zip,MapURL
10TH JUDICIAL DISTRICT DRUG TASK FORCE,COLONY SQUARE,2524 KEITH ST NW,CLEVELAND,TN,37312,"http://maps.google.com/maps?q=2524 KEITH ST NW,+CLEVELAND,+TN+37312&hl=en"
10TH JUDICIAL DISTRICT DRUG TASK FORCE,CVS,WASHINGTON AVE,ATHENS,TN,37303,"http://maps.google.com/maps?q=WASHINGTON AVE,+ATHENS,+TN+37303&hl=en"
10TH JUDICIAL DISTRICT DRUG TASK FORCE,EAST POLK CO SHERIFF DEPT,398 MAIN ST,DUCKTOWN,TN,37326,"http://maps.google.com/maps?q=398 MAIN ST,+DUCKTOWN,+TN+37326&hl=en"
10TH JUDICIAL DISTRICT DRUG TASK FORCE,WEST POLK CO SHERIFF OFFICE,164 INDUSTRIAL ACCESS CIRCLE,BENTON,TN,37307,"http://maps.google.com/maps?q=164 INDUSTRIAL ACCESS CIRCLE,+BENTON,+TN+37307&hl=en"
ACWORTH POLICE DEPARTMENT,TARGET,3378 COBB PARKWAY,ACWORTH,GA,30101,"http://maps.google.com/maps?q=3378 COBB PARKWAY,+ACWORTH,+GA+30101&hl=en"
"ANNISTON ARMY DEPOT, ASAP",ANNISTON ARMY DEPOT BLDG 206 AND 422,7 FRANKFORD AVEASAP,ANNISTON,AL,36201,"http://maps.google.com/maps?q=7 FRANKFORD AVE,+ANNISTON,+AL+36201&hl=en"
ATHENS TN POLICE DEPARTMENT,ATHENS POLICE DEPARTMENT,815 NORTH JACKSON STREET,ATHENS,TN,37303,"http://maps.google.com/maps?q=815 NORTH JACKSON STREET,+ATHENS,+TN+37303&hl=en"
AUBURN POLICE DIVISION,OUR HOME PHARMACY OGLETREE VILLAGE,2320 MOORES MILL ROAD #100,AUBURN,AL,36830,"http://maps.google.com/maps?q=2320 MOORES MILL ROAD #100,+AUBURN,+AL+36830&hl=en"
AVONDALE ESTATES POLICE DEPARTMENT,AVONDALE ESTATES PD,21 N. AVONDALE PLAZA,AVONDALE ESTATES,GA,30002,"http://maps.google.com/maps?q=21 N. AVONDALE PLAZA,+AVONDALE ESTATES,+GA+30002&hl=en"
BRADLEY COUNTY SHERIFF'S OFFICE,BCSO CID ENTRANCE,2290 BLYTHE AVE SE,CLEVELAND,TN,37311,"http://maps.google.com/maps?q=2290 BLYTHE AVE SE,+CLEVELAND,+TN+37311&hl=en"
BRADLEY COUNTY SHERIFF'S OFFICE,COLONY SQUARE,KEITH STREET,CLEVELAND,TN,37312,"http://maps.google.com/maps?q=KEITH STREET,+CLEVELAND,+TN+37312&hl=en"
BROOKHAVEN POLICE DEPARTMENT,KROGER PHARMACY,3871 PEACHTREE RD,ATLANTA,GA,30319,"http://maps.google.com/maps?q=3871 PEACHTREE RD,+ATLANTA,+GA+30319&hl=en"
CALHOUN COUNTY SHERIFF'S OFFICE,CVS PHARMACY,825 SOUTH QUINTARD AVE,OXFORD,AL,36203,"http://maps.google.com/maps?q=825 SOUTH QUINTARD AVE,+OXFORD,+AL+36203&hl=en"
CARROLL COUNTY SHERIFF'S OFFICE,CARROLL COUNTY SHERIFF'S OFFICE MAIN ENTRANCE,1000 NEWNAN ROAD,CARROLLTON,GA,30116,"http://maps.google.com/maps?q=1000 NEWNAN ROAD,+CARROLLTON,+GA+30116&hl=en"
CARTERSVILLE POLICE DEPARTMENT,CARTERSVILLE POLICE DEPARTMENT,195 CASSVILLE ROAD,CARTERSVILLE,GA,30120,"http://maps.google.com/maps?q=195 CASSVILLE ROAD,+CARTERSVILLE,+GA+30120&hl=en"
CATOOSA CO. SHERIFF'S OFFICE,CATOOSA CO. SHERIFF'S OFFICE,5842 HIGHWAY 41,RINGGOLD,GA,30736,"http://maps.google.com/maps?q=5842 HIGHWAY 41,+RINGGOLD,+GA+30736&hl=en"
CHAMBERS COUNTY DRUG TASK FORCE,CHAMBERS COUNTY COURTHOUSE,2 SOUTH LAFAYETTE STREET,LAFAYETTE,AL,36862,"http://maps.google.com/maps?q=2 SOUTH LAFAYETTE STREET,+LAFAYETTE,+AL+36862&hl=en"
CHAMBERS COUNTY DRUG TASK FORCE,CVS PHARMACY,10 VETERANS MEMORIAL PARKWAY,LANETT,AL,36863,"http://maps.google.com/maps?q=10 VETERANS MEMORIAL PARKWAY,+LANETT,+AL+36863&hl=en"
CHAMBERS COUNTY DRUG TASK FORCE,VALLEY POLICE DEPARTMENT,20 FOB JAMES DRIVE,VALLEY,AL,36854,"http://maps.google.com/maps?q=20 FOB JAMES DRIVE,+VALLEY,+AL+36854&hl=en"
CHEROKEE COUNTY SHERIFF'S OFFICE,CHEROKEE COUNTY SHERIFF'S OFFICE,110 CEDAR BLUFF RD,CENTRE,AL,35960,"http://maps.google.com/maps?q=110 CEDAR BLUFF RD,+CENTRE,+AL+35960&hl=en"
CLARKSTON POLICE DEPARTMENT,CLARKSTON POLICE DEPARTMENT,3921 CHURCH STREET,CLARKSTON,GA,30021,"http://maps.google.com/maps?q=3921 CHURCH STREET,+CLARKSTON,+GA+30021&hl=en"
CLAYTON COUNTY POLICE DEPARTMENT,CLAYTON COUNTY POLICE DEPARTMENT HQTRS,7911 NORTH MCDONOUGH STREET,JONESBORO,GA,30236,"http://maps.google.com/maps?q=7911 NORTH MCDONOUGH STREET,+JONESBORO,+GA+30236&hl=en"
COBB COUNTY POLICE DEPARTMENT,PRECINCT 1,2380 COBB PKWY NE,MARIETTA,GA,30060,"http://maps.google.com/maps?q=2380 COBB PKWY NE,+MARIETTA,+GA+30060&hl=en"
COBB COUNTY POLICE DEPARTMENT,YMCA WEST COBB,1700 DENNIS KEMP LANE,KENNESAW,GA,30152,"http://maps.google.com/maps?q=1700 DENNIS KEMP LANE,+KENNESAW,+GA+30152&hl=en"
COOSA COUNTY SHERIFF OFFICE,COOSA COUNTY SHERIFF'S OFFICE,296 SCHOOL STREET,ROCKFORD,AL,35136,"http://maps.google.com/maps?q=296 SCHOOL STREET,+ROCKFORD,+AL+35136&hl=en"
COWETA COUNTY SHERIFF'S OFFICE,CORNERSTONE UNITED METHODIST CHURCH,2956 SHARPSBURGH-MCCOLLUM RD.,NEWNAN,GA,30265,"http://maps.google.com/maps?q=2956 SHARPSBURGH-MCCOLLUM RD.,+NEWNAN,+GA+30265&hl=en"
CRISP COUNTY SHERIFF¿S OFFICE,CRISP COUNTY SHERIFF¿S OFFICE,196 HWY. 300 SOUTH,CORDELE,GA,31015,"http://maps.google.com/maps?q=196 HWY. 300 SOUTH,+CORDELE,+GA+31015&hl=en"
DEA - CHATTANOOGA,WALGREENS,110 NORTH MARKET ST.,CHATTANOOGA,TN,37405,"http://maps.google.com/maps?q=110 NORTH MARKET ST.,+CHATTANOOGA,+TN+37405&hl=en"
DEA - CHATTANOOGA,WALGREENS,14857 RANKIN AVENUE,DUNLAP,TN,37327,"http://maps.google.com/maps?q=14857 RANKIN AVENUE,+DUNLAP,+TN+37327&hl=en"
DEA - CHATTANOOGA,WALGREENS,2289 GUNBARREL ROAD,CHATTANOOGA,TN,37421,"http://maps.google.com/maps?q=2289 GUNBARREL ROAD,+CHATTANOOGA,+TN+37421&hl=en"
DEA - CHATTANOOGA,WALGREENS,35 25TH ST NW,CLEVELAND,TN,37311,"http://maps.google.com/maps?q=35 25TH ST NW,+CLEVELAND,+TN+37311&hl=en"
DECATUR POLICE DEPARTMENT,DECATUR POLICE DEPARTMENT,420 WEST TRINITY PLACE,DECATUR,GA,30030,"http://maps.google.com/maps?q=420 WEST TRINITY PLACE,+DECATUR,+GA+30030&hl=en"
DUBLIN POLICE DEPARTMENT,KROGER,1100 HILLCREST PARKWAY,DUBLIN,GA,31021,"http://maps.google.com/maps?q=1100 HILLCREST PARKWAY,+DUBLIN,+GA+31021&hl=en"
DUNLAP POLICE DEPT,DUNLAP POLICE DEPT,119 CHURCH ST,DUNLAP,TN,37327,"http://maps.google.com/maps?q=119 CHURCH ST,+DUNLAP,+TN+37327&hl=en"
DUNWOODY POLICE DEPT,DUNWOODY POLICE DEPARTMENT HEADQUARTERS,4800 ASHFORD DUNWOODY RD,ATLANTA,GA,30338,"http://maps.google.com/maps?q=4800 ASHFORD DUNWOODY RD,+ATLANTA,+GA+30338&hl=en"
EAST POINT POLICE DEPARTMENT,EAST POINT POLICE DEPARTMENT LAW ENFORCEMENT CENTER,2727 EAST POINT STREET,ATLANTA,GA,30344,"http://maps.google.com/maps?q=2727 EAST POINT STREET,+ATLANTA,+GA+30344&hl=en"
EAST RIDGE POLICE DEPARTMENT,ELKS LODGE,1069 GRAYSVILLE RD,CHATTANOOGA,TN,37421,"http://maps.google.com/maps?q=1069 GRAYSVILLE RD,+CHATTANOOGA,+TN+37421&hl=en"
EAST RIDGE POLICE DEPARTMENT,WALGREENS,5301 RINGGOLD RD,EAST RIDGE,TN,37412,"http://maps.google.com/maps?q=5301 RINGGOLD RD,+EAST RIDGE,+TN+37412&hl=en"
ETOWAH COUNTY DRUG ENFORCEMENT UNIT,WALMART,304 E. MEIGHAN BLVD.,GADSDEN,AL,35903,"http://maps.google.com/maps?q=304 E. MEIGHAN BLVD.,+GADSDEN,+AL+35903&hl=en"
FANNIN COUNTY SHERIFF'S OFFICE,FANNIN COUNTY SHERIFF'S OFFICE,645 WEST FIRST STREET,BLUE RIDGE,GA,30513,"http://maps.google.com/maps?q=645 WEST FIRST STREET,+BLUE RIDGE,+GA+30513&hl=en"
FAYETTE COUNTY SHERIFF'S DEPARTMENT,FAYETTE COUNTY SHERIFF'S DEPARTMENT,155 JOHNSON AVENUE,FAYETTEVILLE,GA,30214,"http://maps.google.com/maps?q=155 JOHNSON AVENUE,+FAYETTEVILLE,+GA+30214&hl=en"
FORSYTH COUNTY SHERIFF¿S OFFICE,NORTH PRECINCT,2310 KEITH BRIDGE RD,CUMMING,GA,30040,"http://maps.google.com/maps?q=2310 KEITH BRIDGE RD,+CUMMING,+GA+30040&hl=en"
FORSYTH COUNTY SHERIFF¿S OFFICE,SOUTH PRECINCT,2985 RONALD REAGAN BLVD,CUMMING,GA,30041,"http://maps.google.com/maps?q=2985 RONALD REAGAN BLVD,+CUMMING,+GA+30041&hl=en"
FORT PAYNE POLICE DEPARTMENT,FORT PAYNE POLICE DEPARTMENT,200 GAULT AVE S,FORT PAYNE,AL,35967,"http://maps.google.com/maps?q=200 GAULT AVE S,+FORT PAYNE,+AL+35967&hl=en"
FRANKLIN COUNTY SHERIFF'S OFFICE,FRANKLIN COUNTY SHERIFF,1 JAMES LITTLE STREET,CARNESVILLE,GA,30521,"http://maps.google.com/maps?q=1 JAMES LITTLE STREET,+CARNESVILLE,+GA+30521&hl=en"
FRANKLIN COUNTY SHERIFF'S OFFICE,FRANKLIN COUNTY SHERIFF CID,159 A. T. MAULDIN DRIVE,CARNESVILLE,GA,30521,"http://maps.google.com/maps?q=159 A. T. MAULDIN DRIVE,+CARNESVILLE,+GA+30521&hl=en"
GREENE COUNTY SHERIFF'S OFFICE,PUBLIX,6350 LAKE OCONEE PARKWAY,GREENSBORO,GA,30642,"http://maps.google.com/maps?q=6350 LAKE OCONEE PARKWAY,+GREENSBORO,+GA+30642&hl=en"
GREENVILLE HEALTH SYSTEM PD,OCONEE MEMORIAL HOSPITAL,298 MEMORIAL DR,SENECA,SC,29672,"http://maps.google.com/maps?q=298 MEMORIAL DR,+SENECA,+SC+29672&hl=en"
GWINNETT COUNTY POLICE DEPARTMENT,CITY OF BERKELEY LAKE CITY HALL,4040 S. BERKELEY LAKE ROAD,DULUTH,GA,30096,"http://maps.google.com/maps?q=4040 S. BERKELEY LAKE ROAD,+DULUTH,+GA+30096&hl=en"
GWINNETT COUNTY SHERIFF'S OFFICE,GWINNETT COUNTY POLICE DEPARTMENT,2900 UNIVESTIY PARKWAY,LAWRENCEVILLE,GA,30043,"http://maps.google.com/maps?q=2900 UNIVESTIY PARKWAY,+LAWRENCEVILLE,+GA+30043&hl=en"
GWINNETT COUNTY SHERIFF'S OFFICE,KROGER STORE 476,6555 SUGARLOAF PARKWAYSUITE 200,DULUTH,GA,30097,"http://maps.google.com/maps?q=6555 SUGARLOAF PARKWAY,+DULUTH,+GA+30097&hl=en"
HALL COUNTY SHERIFF'S OFFICE,KROGER,4025 WINDER HWY,FLOWERY BRANCH,GA,30542,"http://maps.google.com/maps?q=4025 WINDER HWY,+FLOWERY BRANCH,+GA+30542&hl=en"
HAMILTON COUNTY SHERIFF'S OFFICE,MT. CANNAN BAPTIST CHURCH,4801 HWY 58,CHATTANOOGA,TN,37416,"http://maps.google.com/maps?q=4801 HWY 58,+CHATTANOOGA,+TN+37416&hl=en"
HAMILTON COUNTY SHERIFF'S OFFICE,ORCHARD KNOB,1734 EAST 3RD ST,CHATTANOOGA,TN,37404,"http://maps.google.com/maps?q=1734 EAST 3RD ST,+CHATTANOOGA,+TN+37404&hl=en"
HAMILTON COUNTY SHERIFF'S OFFICE,WALGREENS,121 HARRISON LN.,SODDY DAISY,TN,37379,"http://maps.google.com/maps?q=121 HARRISON LN.,+SODDY DAISY,+TN+37379&hl=en"
HAMILTON COUNTY SHERIFF'S OFFICE,WALGREENS,3605 BRAINERD ROAD,CHATTANOOGA,TN,37411,"http://maps.google.com/maps?q=3605 BRAINERD ROAD,+CHATTANOOGA,+TN+37411&hl=en"
JACKSON COUNTY SHERIFF'S OFFICE,JACKSON COUNTY SHERIFF'S OFFICE,555 STAN EVANS DRIVE,JEFFERSON,GA,30549,"http://maps.google.com/maps?q=555 STAN EVANS DRIVE,+JEFFERSON,+GA+30549&hl=en"
JOHNS CREEK POLICE DEPARTMENT,TARGET,5950 STATE BRIDGE RD,ALPHARETTA,GA,30022,"http://maps.google.com/maps?q=5950 STATE BRIDGE RD,+ALPHARETTA,+GA+30022&hl=en"
JONES COUNTY SHERIFF'S OFFICE,JONES COUNTY SHERIFF'S OFFICE,123 HOLMES HAWKINS DRIVE,GRAY,GA,31032,"http://maps.google.com/maps?q=123 HOLMES HAWKINS DRIVE,+GRAY,+GA+31032&hl=en"
JONESBORO POLICE DEPARTMENT,JONESBORO POLCE DEPARTMENT,170 S. MAIN STREET,JONESBORO,GA,30236,"http://maps.google.com/maps?q=170 S. MAIN STREET,+JONESBORO,+GA+30236&hl=en"
KENNESAW POLICE DEPARTMENT,CVS PHARMACY,2782 COBB PKWY.,KENNESAW,GA,30144,"http://maps.google.com/maps?q=2782 COBB PKWY.,+KENNESAW,+GA+30144&hl=en"
LEE COUNTY SHERIFF'S OFFICE,SMITHS STATION GOVERNMENT CENTER,2336 LEE RD 430,SMITHS STATION,AL,36877,"http://maps.google.com/maps?q=2336 LEE RD 430,+SMITHS STATION,+AL+36877&hl=en"
LOGANVILLE POLICE DEPARTMENT,KROGER,4753 ATLANTA HIGHWAY,LOGANVILLE,GA,30052,"http://maps.google.com/maps?q=4753 ATLANTA HIGHWAY,+LOGANVILLE,+GA+30052&hl=en"
MCMINN COUNTY SHERIFF OFFICE,CVS,928 DECATUR PIKE,ATHENS,TN,37303,"http://maps.google.com/maps?q=928 DECATUR PIKE,+ATHENS,+TN+37303&hl=en"
MERCER UNIVERSITY POLICE DEPARTMENT,MERCER UNIVERSITY NORTH PARKING LOT,3001 MERCER UNIVERSITY DRIVE,ATLANTA,GA,30341,"http://maps.google.com/maps?q=3001 MERCER UNIVERSITY DRIVE,+ATLANTA,+GA+30341&hl=en"
MILLBROOK POLICE DEPARTMENT,JONES DRUG,4117 HWY 14,MILLBROOK,AL,36054,"http://maps.google.com/maps?q=4117 HWY 14,+MILLBROOK,+AL+36054&hl=en"
MILTON POLICE DEPARTMENT,TARGET,13055 HIGHWAY 9,ALPHARETTA,GA,30004,"http://maps.google.com/maps?q=13055 HIGHWAY 9,+ALPHARETTA,+GA+30004&hl=en"
MONROE COUNTY SHERIFF OFFICE,MONROE COUNTY SHERIFF'S OFFICE,145 L. CAREY BITTICK DR,FORSYTH,GA,31029,"http://maps.google.com/maps?q=145 L. CAREY BITTICK DR,+FORSYTH,+GA+31029&hl=en"
MONROE POLICE DEPARTMENT,MONROE POLICE DEPARTMENT,116 SOUTH BROAD STREET,MONROE,GA,30655,"http://maps.google.com/maps?q=116 SOUTH BROAD STREET,+MONROE,+GA+30655&hl=en"
MONTGOMERY POLICE DEPARTMENT,FRAZER UNITED METHODIST CHURCH,6000 ATLANTA HIGHWAY,MONTGOMERY,AL,36117,"http://maps.google.com/maps?q=6000 ATLANTA HIGHWAY,+MONTGOMERY,+AL+36117&hl=en"
MONTGOMERY POLICE DEPARTMENT,JONES DRUG,59 WEST FAIRVIEW AVE,MONTGOMERY,AL,36105,"http://maps.google.com/maps?q=59 WEST FAIRVIEW AVE,+MONTGOMERY,+AL+36105&hl=en"
MONTGOMERY POLICE DEPARTMENT,SOUTH CENTRAL,3003 EAST SOUTH BLVD,MONTGOMERY,AL,36109,"http://maps.google.com/maps?q=3003 EAST SOUTH BLVD,+MONTGOMERY,+AL+36109&hl=en"
MORGAN COUNTY SHERIFF¿S OFFICE,MORGAN COUNTY SHERIFF¿S OFFICE,1380 MONTICELLO RD,MADISON,GA,30650,"http://maps.google.com/maps?q=1380 MONTICELLO RD,+MADISON,+GA+30650&hl=en"
MUSCOGEE COUNTY SHERIFF'S OFFICE,AMC CLASSIC RITZ 13,1683 WHITTLESEY ROAD,COLUMBUS,GA,31904,"http://maps.google.com/maps?q=1683 WHITTLESEY ROAD,+COLUMBUS,+GA+31904&hl=en"
OCONEE COUNTY SHERIFF'S OFFICE,OCONEE COUNTY SHERIFF'S OFFICE,300 S. CHURCH ST.,WALHALLA,SC,29691,"http://maps.google.com/maps?q=300 S. CHURCH ST.,+WALHALLA,+SC+29691&hl=en"
OCONEE COUNTY SHERIFF'S OFFICE,OCONEE COUNTY SHERIFF'S OFFICE SUBSTATION,302 MEMORIAL DRIVE,SENECA,SC,29678,"http://maps.google.com/maps?q=302 MEMORIAL DRIVE,+SENECA,+SC+29678&hl=en"
PEACHTREE CITY POLICE DEPARTMENT,PEACHTREE CITY POLICE DEPARTMENT,350 HIGHWAY 74 SOUTH,PEACHTREE CITY,GA,30269,"http://maps.google.com/maps?q=350 HIGHWAY 74 SOUTH,+PEACHTREE CITY,+GA+30269&hl=en"
PICKENS COUNTY SHERIFF'S OFFICE,ANMED HEALTH COMMUNITY HOSPITAL,123 W G ACKER DR,PICKENS,SC,29671,"http://maps.google.com/maps?q=123 W G ACKER DR,+PICKENS,+SC+29671&hl=en"
PICKENS COUNTY SHERIFF'S OFFICE,BAPTIST EASLEY HOSPITAL,200 FLEET DR,EASLEY,SC,29640,"http://maps.google.com/maps?q=200 FLEET DR,+EASLEY,+SC+29640&hl=en"
PICKENS COUNTY SHERIFF'S OFFICE,CLEMSON FREE CLINIC,1200 CLEMSON,CLEMSON,SC,29631,"http://maps.google.com/maps?q=1200 CLEMSON,+CLEMSON,+SC+29631&hl=en"
POLK COUNTY SHERIFF'S OFFICE,POLK COUNTY SHERIFF'S OFFICE,1676 ROCKMART HWY.,CEDARTOWN,GA,30125,"http://maps.google.com/maps?q=1676 ROCKMART HWY.,+CEDARTOWN,+GA+30125&hl=en"
POWDER SPRINGS POLICE DEPARTMENT,POWDER SPRINGS POLICE DEPARTMENT,1114 RICHARD D. SAILORS PKWY,POWDER SPRINGS,GA,30127,"http://maps.google.com/maps?q=1114 RICHARD D. SAILORS PKWY,+POWDER SPRINGS,+GA+30127&hl=en"
PRATTVILLE POLICE DEPARTMENT,JONES DRUGS,959 EAST MAIN STREET,PRATTVILLE,AL,36067,"http://maps.google.com/maps?q=959 EAST MAIN STREET,+PRATTVILLE,+AL+36067&hl=en"
RED BANK POLICE DEPARTMENT,FOOD CITY,3901 DAYTON BLVD,CHATTANOOGA,TN,37415,"http://maps.google.com/maps?q=3901 DAYTON BLVD,+CHATTANOOGA,+TN+37415&hl=en"
RIVERDALE POLICE DEPARTMENT,RIVERDALE TOWN CENTER,7210 CHURCH ST,RIVERDALE,GA,30274,"http://maps.google.com/maps?q=7210 CHURCH ST,+RIVERDALE,+GA+30274&hl=en"
ROCKDALE COUNTY SHERIFFS OFFICE,ROCKDALE COUNTY SHERIFF'S OFFICE,911 CHAMBERS DR,CONYERS,GA,30012,"http://maps.google.com/maps?q=911 CHAMBERS DR,+CONYERS,+GA+30012&hl=en"
ROSWELL POLICE DEPARTMENT,ROSWELL RECYCLING CENTER,11570 MAXWELL RD,ALPHARETTA,GA,30009,"http://maps.google.com/maps?q=11570 MAXWELL RD,+ALPHARETTA,+GA+30009&hl=en"
ROYSTON POLICE DEPARTMENT,ROYSTON POLICE DEPARTMENT,830 CHURCH STREET,ROYSTON,GA,30662,"http://maps.google.com/maps?q=830 CHURCH STREET,+ROYSTON,+GA+30662&hl=en"
SANDY SPRINGS POLICE DEPT,KROGER,335 SANDY SPRINGS PL,ATLANTA,GA,30350,"http://maps.google.com/maps?q=335 SANDY SPRINGS PL,+ATLANTA,+GA+30350&hl=en"
SANDY SPRINGS POLICE DEPT,SANDY SPRINGS POLICE DEPT HEADQUARTERS,7840 ROSWELL RDSUITE 301,ATLANTA,GA,30350,"http://maps.google.com/maps?q=7840 ROSWELL RD,+ATLANTA,+GA+30350&hl=en"
SIGNAL MOUNTAIN POLICE DEPARTMENT,SIGNAL MOUNTAIN POLICE DEPARTMENT,1111 RIDGEWAY AVENUE,SIGNAL MOUNTAIN,TN,37377,"http://maps.google.com/maps?q=1111 RIDGEWAY AVENUE,+SIGNAL MOUNTAIN,+TN+37377&hl=en"
SMYRNA POLICE DEPARTMENT,SMYRNA POLICE DEPARTMENT,2646 ATLANTA ROAD,SMYRNA,GA,30080,"http://maps.google.com/maps?q=2646 ATLANTA ROAD,+SMYRNA,+GA+30080&hl=en"
SNELLVILLE POLICE DEPARTMENT,SNELLVILLE POLICE DEPARTMENT,2315 WISTERIA DR.,SNELLVILLE,GA,30078,"http://maps.google.com/maps?q=2315 WISTERIA DR.,+SNELLVILLE,+GA+30078&hl=en"
SOCIAL CIRCLE POLICE DEPARTMENT,SOCIAL CIRCLE POLICE DEPARTMENT,138 E. HIGHTOWER TRAIL,SOCIAL CIRCLE,GA,30025,"http://maps.google.com/maps?q=138 E. HIGHTOWER TRAIL,+SOCIAL CIRCLE,+GA+30025&hl=en"
TALLAPOOSA COUNTY NARCOTICS TF,WALGREENS PHARMACY,3140 US 280,ALEXANDER CITY,AL,35010,"http://maps.google.com/maps?q=3140 US 280,+ALEXANDER CITY,+AL+35010&hl=en"
TRANSYLVANIA COUNTY SHERIFF'S OFFICE,CVS,371 ASHEVILLE HWY,BREVARD,NC,28712,"http://maps.google.com/maps?q=371 ASHEVILLE HWY,+BREVARD,+NC+28712&hl=en"
TRUSSVILLE POLICE DEPARTMENT,TRUSSVILLE POLICE DEPARTMENT COURT,131 MAIN STREET,TRUSSVILLE,AL,35173,"http://maps.google.com/maps?q=131 MAIN STREET,+TRUSSVILLE,+AL+35173&hl=en"
UNIVERSITY OF TENNESSEE CHATTANOOGA,UTC HERITAGE PLAZA,615 MCCALLIE AVEDEPT 1951,CHATTANOOGA,TN,37403,"http://maps.google.com/maps?q=615 MCCALLIE AVE,+CHATTANOOGA,+TN+37403&hl=en"
WETUMPKA POLICE DEPARTMENT,WAL-MART,4538 US HWY 231,WETUMPKA,AL,36092,"http://maps.google.com/maps?q=4538 US HWY 231,+WETUMPKA,+AL+36092&hl=en"
