Participant,CollectionSite,Address,City,State,Zip,MapURL
18TH WEST JUDICIAL DRUG TASK FORCE,MONTGOMERY COUNTY SHERIFF'S OFFICE PERMANENT DROP BOX,105 HWY 270 EAST#9,MOUNT IDA,AR,71957,"http://maps.google.com/maps?q=105 HWY 270 EAST,+MOUNT IDA,+AR+71957&hl=en"
20TH JUDICIAL DISCTICT DRUG CRIME TASK FORCE,20TH JUDICIAL DRUG CRIME TASK FORCE PERMANENT DROP BOX,P.O.BOX 550,CONWAY,AR,72033,"http://maps.google.com/maps?q=P.O.BOX 550,+CONWAY,+AR+72033&hl=en"
20TH JUDICIAL DISCTICT DRUG CRIME TASK FORCE,GOODS CASH SAVER FOOD STORE,129 BONE ST.,CLINTON,AR,72031,"http://maps.google.com/maps?q=129 BONE ST.,+CLINTON,+AR+72031&hl=en"
5TH DRUG TASK FORCE,FALL FEST,DOWNTOWN,RUSSELLVILLE,AR,72801,"http://maps.google.com/maps?q=DOWNTOWN,+RUSSELLVILLE,+AR+72801&hl=en"
ALEXANDER POLICE DEPARTMENT,ALEXANDER POLICE DEPARTMENT CITY HALL,15605 ALEXANDER ROAD,ALEXANDER,AR,72002,"http://maps.google.com/maps?q=15605 ALEXANDER ROAD,+ALEXANDER,+AR+72002&hl=en"
ALMA POLICE DEPARTMENT,ALMA POLICE DEPARTMENT PERMANENT DROP BOX,804 FAYETTEVILLE AVE,ALMA,AR,72921,"http://maps.google.com/maps?q=804 FAYETTEVILLE AVE,+ALMA,+AR+72921&hl=en"
ARKADELPHIA POLICE DEPARTMENT,CLARK COUNTY COURTHOUSE,401 CLAY STREET,ARKADELPHIA,AR,71923,"http://maps.google.com/maps?q=401 CLAY STREET,+ARKADELPHIA,+AR+71923&hl=en"
ARKANSAS COMMUNITY CORRECTION,ARKANSAS COMMUNITY CORRECTION CENTER,4823 WEST 7TH STREET,LITTLE ROCK,AR,72205,"http://maps.google.com/maps?q=4823 WEST 7TH STREET,+LITTLE ROCK,+AR+72205&hl=en"
ARKANSAS COMMUNITY CORRECTION,WASHINGTON COUNTY SHERIFFS OFFICE,1155 WEST CLYDESDALE,FAYETTEVILLE,AR,72703,"http://maps.google.com/maps?q=1155 WEST CLYDESDALE,+FAYETTEVILLE,+AR+72703&hl=en"
BARTLESVILLE OKLAHOMA PD,BARTLESVILLE PD,615 S JOHNSTONE AVE,BARTLESVILLE,OK,74003,"http://maps.google.com/maps?q=615 S JOHNSTONE AVE,+BARTLESVILLE,+OK+74003&hl=en"
BARTLESVILLE OKLAHOMA PD,FIRE STATION NO. 3,100 SE MADISON BLVD,BARTLESVILLE,OK,74006,"http://maps.google.com/maps?q=100 SE MADISON BLVD,+BARTLESVILLE,+OK+74006&hl=en"
BARTLESVILLE OKLAHOMA PD,FIRE STATION NO. 4,3501 SE PRICE RD,BARTLESVILLE,OK,74006,"http://maps.google.com/maps?q=3501 SE PRICE RD,+BARTLESVILLE,+OK+74006&hl=en"
BAXTER COUNTY SHERIFFS DEPARTMENT,BAXTER COUNTY SHERIFF'S OFFICE PERMANENT DROP BOX,904 HIGHWAY 62 WEST,MOUNTAIN HOME,AR,72653,"http://maps.google.com/maps?q=904 HIGHWAY 62 WEST,+MOUNTAIN HOME,+AR+72653&hl=en"
BAXTER COUNTY SHERIFFS DEPARTMENT,LOWE'S HARDWARE STORE,124 CHARLES BLACKBURN DR,MOUNTAIN HOME,AR,72653,"http://maps.google.com/maps?q=124 CHARLES BLACKBURN DR,+MOUNTAIN HOME,+AR+72653&hl=en"
BEEBE POLICE DEPARTMENT,BEEBE POLICE DEPARTMENT,201 WEST ILLINOIS STREET,BEEBE,AR,72012,"http://maps.google.com/maps?q=201 WEST ILLINOIS STREET,+BEEBE,+AR+72012&hl=en"
BELLA VISTA POLICE DEPARTMENT,BELLA VISTA POLICE DEPARTMENT PERMANENT DROP BOX,105 TOWN CENTER,BELLA VISTA,AR,72714,"http://maps.google.com/maps?q=105 TOWN CENTER,+BELLA VISTA,+AR+72714&hl=en"
BENTON COUNTY SHERIFF'S OFFICE,ASP TROOP L HEADQUARTERS,900 SOUTH 48TH STREET,SPRINGDALE,AR,72766,"http://maps.google.com/maps?q=900 SOUTH 48TH STREET,+SPRINGDALE,+AR+72766&hl=en"
BENTON COUNTY SHERIFF'S OFFICE,BENTON COUNTY SHERIFF'S OFFICE PERMANENT DROP BOX,1300 SW 14TH STREET,BENTONVILLE,AR,72712,"http://maps.google.com/maps?q=1300 SW 14TH STREET,+BENTONVILLE,+AR+72712&hl=en"
BENTON POLICE DEPARTMENT,BENTON POLICE DEPARTMENT PERMANENT DROP BOX,114 S. EAST STREET #100,BENTON,AR,72015,"http://maps.google.com/maps?q=114 S. EAST STREET #100,+BENTON,+AR+72015&hl=en"
BENTON POLICE DEPARTMENT,FERGUSON'S FURNITURE PARKING LOT,1200 FERGUSON DRIVE,BENTON,AR,72015,"http://maps.google.com/maps?q=1200 FERGUSON DRIVE,+BENTON,+AR+72015&hl=en"
BENTON POLICE DEPARTMENT,KROGER MARKETPLACE,20820 I-30,BENTON,AR,72019,"http://maps.google.com/maps?q=20820 I-30,+BENTON,+AR+72019&hl=en"
BI-STATE NARCOTICS TASK FORCE,TEXARKANA EMERGENCY CENTER,4646 COWHORN CREEK,TEXARKANA,TX,75503,"http://maps.google.com/maps?q=4646 COWHORN CREEK,+TEXARKANA,+TX+75503&hl=en"
BOLIVAR POLICE DEPARTMENT,PUBLIC SAFETY BUILDING BOLIVAR POLICE DEPARTMENT,211 W WALNUT ST,BOLIVAR,MO,65613,"http://maps.google.com/maps?q=211 W WALNUT ST,+BOLIVAR,+MO+65613&hl=en"
BOONE COUNTY SHERIFF'S OFFICE,BOONE COUNTY SHERIFF'S OFFICE PERMANENT DROP BOX,5800 LAW DRIVE,HARRISON,AR,72601,"http://maps.google.com/maps?q=5800 LAW DRIVE,+HARRISON,+AR+72601&hl=en"
BOONEVILLE POLICE DEPARTMENT,BOONEVILLE POLICE DEPARTMENT PERMANENT DROP BOX,497 EAST MAIN ST.,BOONEVILLE,AR,72927,"http://maps.google.com/maps?q=497 EAST MAIN ST.,+BOONEVILLE,+AR+72927&hl=en"
BRANSON POLICE DEPARTMENT,COX MEDICAL CENTER BRANSON PHARMACY,525 BRANSON LANDING BLVD,BRANSON,MO,65616,"http://maps.google.com/maps?q=525 BRANSON LANDING BLVD,+BRANSON,+MO+65616&hl=en"
BRYANT POLICE DEPARTMENT,BRYANT POLICE DEPARTMENT PERMANENT DROP BOX,312 ROYA LANE,BRYANT,AR,72022,"http://maps.google.com/maps?q=312 ROYA LANE,+BRYANT,+AR+72022&hl=en"
BRYANT POLICE DEPARTMENT,WALMART,400 BRYANT AVE,BRYANT,AR,72022,"http://maps.google.com/maps?q=400 BRYANT AVE,+BRYANT,+AR+72022&hl=en"
BUREAU OF INDIAN AFFAIRS - OJS,NORTHERN TRIBAL HEALTH SYSTEMS,7600 S HIGHWAY 69 A,MIAMI,OK,74355,"http://maps.google.com/maps?q=7600 S HIGHWAY 69 A,+MIAMI,+OK+74355&hl=en"
CABOT POLICE DEPARTMENT,CABOT POLICE DEPARTMENT PERMANENT DROP BOX,101 NORTH SECOND STREET,CABOT,AR,72023,"http://maps.google.com/maps?q=101 NORTH SECOND STREET,+CABOT,+AR+72023&hl=en"
CABOT POLICE DEPARTMENT,EXPRESS RX,1848 WEST MAIN STREET,CABOT,AR,72023,"http://maps.google.com/maps?q=1848 WEST MAIN STREET,+CABOT,+AR+72023&hl=en"
CALHOUN COUNTY SHERIFF'S DEPARTMENT,CALHOUN COUNTY DETENTION CENTER PERMANENT DROP BOX,449 9TH ST,HAMPTON,AR,71744,"http://maps.google.com/maps?q=449 9TH ST,+HAMPTON,+AR+71744&hl=en"
CAMP ROBINSON POLICE DEPARTMENT,CAMP ROBINSON POLICE DEPARTMENT PERMANENT DROP BOX,7200 ARKANSAS AVECAMP ROBINSON,NORTH LITTLE ROCK,AR,72199,"http://maps.google.com/maps?q=7200 ARKANSAS AVE,+NORTH LITTLE ROCK,+AR+72199&hl=en"
CARLISLE POLICE DEPARTMENT,CARLISLE POLICE DEPARTMENT PERMANENT DROP BOX,120 W. MAIN STREET,CARLISLE,AR,72024,"http://maps.google.com/maps?q=120 W. MAIN STREET,+CARLISLE,+AR+72024&hl=en"
CASSVILLE POLICE DEPARTMENT,CITY HALL/CASSVILLE POLICE DEPT,300 MAIN STREET,CASSVILLE,MO,65625,"http://maps.google.com/maps?q=300 MAIN STREET,+CASSVILLE,+MO+65625&hl=en"
CENTERTON POLICE DEPARTMENT,CENTERTON POLICE DEPARTMENT PERMANENT DROP BOX,220 MUNICIPAL DR,CENTERTON,AR,72719,"http://maps.google.com/maps?q=220 MUNICIPAL DR,+CENTERTON,+AR+72719&hl=en"
CHANUTE POLICE DEPT,MEDICINE SHOPPE,421 W. MAIN,CHANUTE,KS,66720,"http://maps.google.com/maps?q=421 W. MAIN,+CHANUTE,+KS+66720&hl=en"
CHEROKEE COUNTY SHERIFF'S OFFICE,APPLE MARKET,103 NORTH EAST AVENUE,COLUMBUS,KS,66725,"http://maps.google.com/maps?q=103 NORTH EAST AVENUE,+COLUMBUS,+KS+66725&hl=en"
CHEROKEE COUNTY SHERIFF'S OFFICE,GALENA CITY HALL,211 WEST 7TH STREET,GALENA,KS,66739,"http://maps.google.com/maps?q=211 WEST 7TH STREET,+GALENA,+KS+66739&hl=en"
CHEROKEE COUNTY SHERIFF'S OFFICE,MARVINS IGA,1400 MILITARY AVENUE,BAXTER SPRINGS,KS,66713,"http://maps.google.com/maps?q=1400 MILITARY AVENUE,+BAXTER SPRINGS,+KS+66713&hl=en"
CLARKSVILLE POLICE DEPARTMENT,CLARKSVILLE POLICE DEPARTMENT PERMANENT DROP BOX,1008 WEST MAIN STREET,CLARKSVILLE,AR,72830,"http://maps.google.com/maps?q=1008 WEST MAIN STREET,+CLARKSVILLE,+AR+72830&hl=en"
CLEBURNE COUNTY SHERIFF'S OFFICE,CLEBURNE COUNTY SHERIFF'S OFFICE PERMANENT DROP BOX,914 SOUTH 9TH STREET,HEBER SPRINGS,AR,72543,"http://maps.google.com/maps?q=914 SOUTH 9TH STREET,+HEBER SPRINGS,+AR+72543&hl=en"
CLEVELAND COUNTY SHERIFF'S DEPARTMENT,CLEVELAND COUNTY SHERIFF'S DEPARTMENT,20 MAGNOLIA STREET,RISON,AR,71665,"http://maps.google.com/maps?q=20 MAGNOLIA STREET,+RISON,+AR+71665&hl=en"
COAL HILL POLICE DEPARTMENT,COAL HILL POLICE DEPARTMENT,101 EAST HIGHWAY 64,COAL HILL,AR,72832,"http://maps.google.com/maps?q=101 EAST HIGHWAY 64,+COAL HILL,+AR+72832&hl=en"
COFFEYVILLE POLICE DEPARTMENT,COFFEYVILLE POLICE DEPARTMENT,1206 W. 11TH STREET,COFFEYVILLE,KS,67337,"http://maps.google.com/maps?q=1206 W. 11TH STREET,+COFFEYVILLE,+KS+67337&hl=en"
CONWAY POLICE DEPARTMENT,CONWAY POLICE DEPARTMENT LOBBY PERMANENT DROP BOX,1105 PRAIRIE STREET,CONWAY,AR,72032,"http://maps.google.com/maps?q=1105 PRAIRIE STREET,+CONWAY,+AR+72032&hl=en"
CONWAY POLICE DEPARTMENT,KROGER MARKETPLACE,855 SALEM ROAD,CONWAY,AR,72034,"http://maps.google.com/maps?q=855 SALEM ROAD,+CONWAY,+AR+72034&hl=en"
CRAWFORD COUNTY SHERIFF'S OFFICE,CRAWFORD COUNTY JUSTICE CENTER PERMANENT DROP BOX,4235 ALMA HWY,VAN BUREN,AR,72956,"http://maps.google.com/maps?q=4235 ALMA HWY,+VAN BUREN,+AR+72956&hl=en"
DADE COUNTY SHERIFF,GREENFIELD PHARMACY,105 SOUTH GRANDE,GREENFIELD,MO,65661,"http://maps.google.com/maps?q=105 SOUTH GRANDE,+GREENFIELD,+MO+65661&hl=en"
DADE COUNTY SHERIFF,MFA OIL,401 MAIN STREET,LOCKWOOD,MO,65682,"http://maps.google.com/maps?q=401 MAIN STREET,+LOCKWOOD,+MO+65682&hl=en"
DANVILLE POLICE DEPARTMENT,DANVILLE POLICE DEPARTMENT PERMANENT DROP BOX,1299 EAST 8TH STREET,DANVILLE,AR,72833,"http://maps.google.com/maps?q=1299 EAST 8TH STREET,+DANVILLE,+AR+72833&hl=en"
DE QUEEN POLICE DEPARTMENT,WAL-MART PARKING LOT,926 EAST COLLIN RAYE DRIVE,DE QUEEN,AR,71832,"http://maps.google.com/maps?q=926 EAST COLLIN RAYE DRIVE,+DE QUEEN,+AR+71832&hl=en"
DEA TULSA RESIDENT OFFICE,NEWS ON 6,303 N. BOSTON AVENUE,TULSA,OK,74103,"http://maps.google.com/maps?q=303 N. BOSTON AVENUE,+TULSA,+OK+74103&hl=en"
DES ARC POLICE DEPARTMENT,DES ARC CITY HALL PERMANENT DROP BOX,107 SOUTH THIRD STREET,DES ARC,AR,72040,"http://maps.google.com/maps?q=107 SOUTH THIRD STREET,+DES ARC,+AR+72040&hl=en"
DOUGLAS COUNTY SHERIFFS OFFICE,DOUGLAS COUNTY SHERIFF'S OFFICE,209 SE 2ND AVE209 SE LINCOLN AVE,AVA,MO,65608,"http://maps.google.com/maps?q=209 SE 2ND AVE,+AVA,+MO+65608&hl=en"
EL DORADO SPRINGS POLICE DEPARTMENT,EL DORADO SPRINGS POLICE DEPT POLICE STATION,1207 SOUTH MAIN STREET,EL DORADO SPRINGS,MO,64744,"http://maps.google.com/maps?q=1207 SOUTH MAIN STREET,+EL DORADO SPRINGS,+MO+64744&hl=en"
EUREKA SPRINGS POLICE DEPARTMENT,EUREKA SPRINGS POLICE DEPARTMENT PERMANENT DROP BOX,147 PASSION PLAY ROAD,EUREKA SPRINGS,AR,72632,"http://maps.google.com/maps?q=147 PASSION PLAY ROAD,+EUREKA SPRINGS,+AR+72632&hl=en"
FAIR GROVE POLICE DEPARTMENT,FAMILY PHARMACY,49 E. OLD MILL RD,FAIR GROVE,MO,65648,"http://maps.google.com/maps?q=49 E. OLD MILL RD,+FAIR GROVE,+MO+65648&hl=en"
FAIRFIELD BAY POLICE DEPARTMENT,FAIRFIELD BAY POLICE DEPARTMENT PERMANENT DROP BOX,101 LITTLE ROCK DRIVE,FAIRFIELD BAY,AR,72088,"http://maps.google.com/maps?q=101 LITTLE ROCK DRIVE,+FAIRFIELD BAY,+AR+72088&hl=en"
FARMINGTON POLICE DEPARTMENT,FARMINGTON POLICE DEPARTMENT PERMANENT DROP BOX,354 WEST MAIN,FARMINGTON,AR,72730,"http://maps.google.com/maps?q=354 WEST MAIN,+FARMINGTON,+AR+72730&hl=en"
FAULKNER COUNTY SHERIFF'S OFFICE,FAULKNER COUNTY SHERIFF'S OFFICE PERMANENT DROP BOX,801 LOCUST STREET,CONWAY,AR,72034,"http://maps.google.com/maps?q=801 LOCUST STREET,+CONWAY,+AR+72034&hl=en"
FAYETTEVILLE POLICE DEPARTMENT,HARPS MARKETPLACE #124,1274 N. COLORADO DR,FAYETTEVILLE,AR,72704,"http://maps.google.com/maps?q=1274 N. COLORADO DR,+FAYETTEVILLE,+AR+72704&hl=en"
FORSYTH POLICE DEPARTMENT,COUNTRY MART,15720 US HWY 160,FORSYTH,MO,65653,"http://maps.google.com/maps?q=15720 US HWY 160,+FORSYTH,+MO+65653&hl=en"
FORT SMITH POLICE DEPARTMENT,FORT SMITH POLICE DEPARTMENT PERMANENT DROP BOX,100 SOUTH 10TH STREET,FORT SMITH,AR,72901,"http://maps.google.com/maps?q=100 SOUTH 10TH STREET,+FORT SMITH,+AR+72901&hl=en"
GARLAND COUNTY SHERIFFS DEPARTMENT,GARLAND COUNTY SHERIFF'S DEPARTMENT PERMANENT DROP BOX,525 OUACHITA AVENUE,HOT SPRINGS,AR,71901,"http://maps.google.com/maps?q=525 OUACHITA AVENUE,+HOT SPRINGS,+AR+71901&hl=en"
GENTRY POLICE DEPARTMENT,GENTRY POLICE DEPARTMENT PERMANENT DROP BOX,628 E. THIRD ST.,GENTRY,AR,72734,"http://maps.google.com/maps?q=628 E. THIRD ST.,+GENTRY,+AR+72734&hl=en"
GRANBY POLICE DEPARTMENT,RAMSEY'S GROCERY,469 W VALLEY ST,GRANBY,MO,64844,"http://maps.google.com/maps?q=469 W VALLEY ST,+GRANBY,+MO+64844&hl=en"
GRAVETTE POLICE DEPARTMENT,GRAVETTE POLICE DEPARTMENT PERMANENT DROP BOX,606 1ST AVE SE,GRAVETTE,AR,72736,"http://maps.google.com/maps?q=606 1ST AVE SE,+GRAVETTE,+AR+72736&hl=en"
GREENBRIER POLICE DEPARTMENT,GREENBRIER POLICE DEPARTMENT,11 WILSON FARM RD.,GREENBRIER,AR,72058,"http://maps.google.com/maps?q=11 WILSON FARM RD.,+GREENBRIER,+AR+72058&hl=en"
GREENE COUNTY SHERIFF'S OFFICE,COX SOUTH TURNER CENTER,1000 E. PRIMROSE,SPRINGFIELD,MO,65807,"http://maps.google.com/maps?q=1000 E. PRIMROSE,+SPRINGFIELD,+MO+65807&hl=en"
GREENE COUNTY SHERIFF'S OFFICE,DAN'S DRUG MART,2625 N. KANSAS EXPRESSWAY,SPRINGFIELD,MO,65803,"http://maps.google.com/maps?q=2625 N. KANSAS EXPRESSWAY,+SPRINGFIELD,+MO+65803&hl=en"
GREENE COUNTY SHERIFF'S OFFICE,FAMILY PHARMACY,527 W. KEARNEY,SPRINGFIELD,MO,65803,"http://maps.google.com/maps?q=527 W. KEARNEY,+SPRINGFIELD,+MO+65803&hl=en"
GREENE COUNTY SHERIFF'S OFFICE,GROVE PHARMACY,1636 S. GLENSTONE,SPRINGFIELD,MO,65804,"http://maps.google.com/maps?q=1636 S. GLENSTONE,+SPRINGFIELD,+MO+65804&hl=en"
GREENE COUNTY SHERIFF'S OFFICE,HYVEE PHARMACY,1720 W. BATTLEFIELD,SPRINGFIELD,MO,65807,"http://maps.google.com/maps?q=1720 W. BATTLEFIELD,+SPRINGFIELD,+MO+65807&hl=en"
GREENE COUNTY SHERIFF'S OFFICE,ORCHARD HILLS PHARMACY,3816A W. CHESTNUT EXPWY,SPRINGFIELD,MO,65802,"http://maps.google.com/maps?q=3816A W. CHESTNUT EXPWY,+SPRINGFIELD,+MO+65802&hl=en"
HARRISON POLICE DEPARTMENT,HARRISON POLICE DEPARTMENT,116 SOUTH SPRING STREET,HARRISON,AR,72601,"http://maps.google.com/maps?q=116 SOUTH SPRING STREET,+HARRISON,+AR+72601&hl=en"
HASKELL POLICE DEPARTMENT,HASKELL POLICE DEPARTMENT CITY HALL - PERMANENT DROP BOX,2520 HWY 229,HASKELL,AR,72015,"http://maps.google.com/maps?q=2520 HWY 229,+HASKELL,+AR+72015&hl=en"
HOLLISTER POLICE DEPARTMENT,FAMILY PHARMACY,180 MALL ROAD,HOLLISTER,MO,65672,"http://maps.google.com/maps?q=180 MALL ROAD,+HOLLISTER,+MO+65672&hl=en"
HOT SPRINGS POLICE DEPARTMENT,HOT SPRINGS POLICE DEPARTMENT PERMANENT DROP BOX,641 MALVERN AVE.,HOT SPRINGS NATIONAL PARK,AR,71901,"http://maps.google.com/maps?q=641 MALVERN AVE.,+HOT SPRINGS NATIONAL PARK,+AR+71901&hl=en"
HOT SPRINGS POLICE DEPARTMENT,KROGER MARKETPLACE,4407 CENTRAL AVE,HOT SPRINGS NATIONAL PARK,AR,71913,"http://maps.google.com/maps?q=4407 CENTRAL AVE,+HOT SPRINGS NATIONAL PARK,+AR+71913&hl=en"
HOT SPRINGS VILLAGE POLICE DEPARTMENT,HOT SPRINGS VILLAGE POLICE DEPARTMENT PERMANENT DROP BOX,113 CALELLA RD.,HOT SPRINGS VILLAGE,AR,71909,"http://maps.google.com/maps?q=113 CALELLA RD.,+HOT SPRINGS VILLAGE,+AR+71909&hl=en"
INDEPENDENCE COUNTY SHERIFF'S DEPARTMENT,ARKANSAS STATE POLICE TROOP B HEADQUARTERS,3200 HWY 67 NORTH,NEWPORT,AR,72112,"http://maps.google.com/maps?q=3200 HWY 67 NORTH,+NEWPORT,+AR+72112&hl=en"
INDEPENDENCE COUNTY SHERIFF'S DEPARTMENT,INDEPENDENCE COUNTY SHERIFF'S OFFICE PERMANENT DROP BOX,1750 MYERS STREET,BATESVILLE,AR,72501,"http://maps.google.com/maps?q=1750 MYERS STREET,+BATESVILLE,+AR+72501&hl=en"
JACKSON COUNTY SHERIFF'S OFFICE,I CARE PHARMACY,1117 MCCLAIN STREET,NEWPORT,AR,72112,"http://maps.google.com/maps?q=1117 MCCLAIN STREET,+NEWPORT,+AR+72112&hl=en"
JACKSON COUNTY SHERIFF'S OFFICE,JACKSON COUNTY SO PERMANENT DROP BOX,615 SECOND ST,NEWPORT,AR,72112,"http://maps.google.com/maps?q=615 SECOND ST,+NEWPORT,+AR+72112&hl=en"
JACKSONVILLE POLICE DEPARTMENT,JACKSONVILLE POLICE DEPARTMENT PERMANENT DROP BOX,1400 MARSHALL ROAD,JACKSONVILLE,AR,72076,"http://maps.google.com/maps?q=1400 MARSHALL ROAD,+JACKSONVILLE,+AR+72076&hl=en"
JASPER COUNTY SHERIFF'S OFFICE,JASPER COUNTY COURTHOUSE,601 PEARL AVE,JOPLIN,MO,64801,"http://maps.google.com/maps?q=601 PEARL AVE,+JOPLIN,+MO+64801&hl=en"
LAKEVIEW POLICE DEPARTMENT,LAKEVIEW POLICE DEPARTMENT PERMANENT DROP BOX,14 SKYLES LANE,LAKEVIEW,AR,72642,"http://maps.google.com/maps?q=14 SKYLES LANE,+LAKEVIEW,+AR+72642&hl=en"
LAMAR POLICE DEPARTMENT,LAMAR CITY HALL PERMANENT DROP BOX,437 W MAIN STREET,LAMAR,AR,72846,"http://maps.google.com/maps?q=437 W MAIN STREET,+LAMAR,+AR+72846&hl=en"
LAVACA POLICE DEPARTMENT,HEALTH WISE PHARMACY,1800 WEST MAIN STREET,LAVACA,AR,72941,"http://maps.google.com/maps?q=1800 WEST MAIN STREET,+LAVACA,+AR+72941&hl=en"
LAVACA POLICE DEPARTMENT,LAVACA POLICE DEPARTMENT PERMANENT DROP BOX,104 SOUTH DAVIS STREET,LAVACA,AR,72941,"http://maps.google.com/maps?q=104 SOUTH DAVIS STREET,+LAVACA,+AR+72941&hl=en"
LEBANON POLICE DEPARTMENT,LEBANON POLICE DEPARTMENT PARKING LOT,401 S. JEFFERSON AVENUE,LEBANON,MO,65536,"http://maps.google.com/maps?q=401 S. JEFFERSON AVENUE,+LEBANON,+MO+65536&hl=en"
LITTLE ROCK POLICE DEPARTMENT,EXPRESS RX,"10,506 STAGECOACH ROADSUITE F",LITTLE ROCK,AR,72210,"http://maps.google.com/maps?q=10,506 STAGECOACH ROAD,+LITTLE ROCK,+AR+72210&hl=en"
LITTLE ROCK POLICE DEPARTMENT,KROGER MARKETPLACE,14000 CANTRELL ROAD,LITTLE ROCK,AR,72223,"http://maps.google.com/maps?q=14000 CANTRELL ROAD,+LITTLE ROCK,+AR+72223&hl=en"
LITTLE ROCK POLICE DEPARTMENT,LITTLE ROCK POLICE DEPARTMENT PERMANENT DROP BOX,700 W MARKHAM ST,LITTLE ROCK,AR,72201,"http://maps.google.com/maps?q=700 W MARKHAM ST,+LITTLE ROCK,+AR+72201&hl=en"
LITTLE ROCK POLICE DEPARTMENT,SYNERGY,400 PRESIDENT CLINTON AVENUE,LITTLE ROCK,AR,72201,"http://maps.google.com/maps?q=400 PRESIDENT CLINTON AVENUE,+LITTLE ROCK,+AR+72201&hl=en"
LOGAN COUNTY SHERIFF'S OFFICE,LOGAN POLICE DEPARTMENT PERMANENT DROP BOX,508 W. GROBER ST,PARIS,AR,72855,"http://maps.google.com/maps?q=508 W. GROBER ST,+PARIS,+AR+72855&hl=en"
LOWELL POLICE DEPARTMENT,LOWELL POLICE DEPARTMENT,216 NORTH LINCOLN STREETPERMANENT DROP BOX,LOWELL,AR,72745,"http://maps.google.com/maps?q=216 NORTH LINCOLN STREET,+LOWELL,+AR+72745&hl=en"
MADISON COUNTY SHERIFF'S DEPARTMENT,MADISON COUNTY SHERIFF'S OFFICE PERMANENT DROP BOX,1 MAIN STREET,HUNTSVILLE,AR,72740,"http://maps.google.com/maps?q=1 MAIN STREET,+HUNTSVILLE,+AR+72740&hl=en"
MALVERN POLICE DEPARTMENT,MALVERN POLICE DEPARTMENT PERMANENT DROP BOX,215 EAST HIGHLAND AVE,MALVERN,AR,72104,"http://maps.google.com/maps?q=215 EAST HIGHLAND AVE,+MALVERN,+AR+72104&hl=en"
MALVERN POLICE DEPARTMENT,WALMART SUPERCENTER PARKING LOT,1910 MARTIN LUTHER KING BLVD,MALVERN,AR,72104,"http://maps.google.com/maps?q=1910 MARTIN LUTHER KING BLVD,+MALVERN,+AR+72104&hl=en"
MAUMELLE POLICE DEPARTMENT,MAUMELLE POLICE DEPARTMENT,2002 MURPHY DR.,MAUMELLE,AR,72113,"http://maps.google.com/maps?q=2002 MURPHY DR.,+MAUMELLE,+AR+72113&hl=en"
MAYFLOWER POLICE DEPARTMENT,MAYFLOWER POLICE DEPARTMENT,2 ASHMORE DRIVE,MAYFLOWER,AR,72106,"http://maps.google.com/maps?q=2 ASHMORE DRIVE,+MAYFLOWER,+AR+72106&hl=en"
MIAMI AGENCY,MIAMI AGENCY,34 A ST NE,MIAMI,OK,74355,"http://maps.google.com/maps?q=34 A ST NE,+MIAMI,+OK+74355&hl=en"
MIAMI NATION TRIBAL POLICE,MIAMI NATION TRIBAL POLICE,3410 P. STREET,MIAMI,OK,74354,"http://maps.google.com/maps?q=3410 P. STREET,+MIAMI,+OK+74354&hl=en"
MISSOURI SOUTHERN STATE UNIV POLICE DEPT,MSSU PD,726 N. MISSION HILLS DRIVE,JOPLIN,MO,64801,"http://maps.google.com/maps?q=726 N. MISSION HILLS DRIVE,+JOPLIN,+MO+64801&hl=en"
MONETT POLICE DEPARTMENT,MONETT POLICE DEPARTMENT,1901 EAST CLEVELAND AVE,MONETT,MO,65708,"http://maps.google.com/maps?q=1901 EAST CLEVELAND AVE,+MONETT,+MO+65708&hl=en"
MOUNT VERNON POLICE DEPARTMENT,MOUNT VERNON CITY HALL,319 EAST DALLAS,MOUNT VERNON,MO,65712,"http://maps.google.com/maps?q=319 EAST DALLAS,+MOUNT VERNON,+MO+65712&hl=en"
MOUNTAIN GROVE POLICE DEPT.,MOUNTAIN GROVE POLICE DEPT.,102 E. STATE,MOUNTAIN GROVE,MO,65711,"http://maps.google.com/maps?q=102 E. STATE,+MOUNTAIN GROVE,+MO+65711&hl=en"
MOUNTAIN VIEW POLICE DEPARTMENT,MITCHELL'S MAIN STREET PHARMACY,214 EAST MAIN ST,MOUNTAIN VIEW,AR,72560,"http://maps.google.com/maps?q=214 EAST MAIN ST,+MOUNTAIN VIEW,+AR+72560&hl=en"
MOUNTAIN VIEW POLICE DEPARTMENT,MOUNTAIN VIEW POLICE DEPARTMENT PERMANENT DROP BOX,203 SOUTH PEABODY,MOUNTAIN VIEW,AR,72560,"http://maps.google.com/maps?q=203 SOUTH PEABODY,+MOUNTAIN VIEW,+AR+72560&hl=en"
NEODESHA POLICE DEPARTMENT,NEODESHA POLICE DEPARTMENT,1407 N. 8TH STREET,NEODESHA,KS,66757,"http://maps.google.com/maps?q=1407 N. 8TH STREET,+NEODESHA,+KS+66757&hl=en"
NEOSHO POLICE DEPARTMENT,WILDCAT CORNER,817 S NEOSHO BLVD,NEOSHO,MO,64850,"http://maps.google.com/maps?q=817 S NEOSHO BLVD,+NEOSHO,+MO+64850&hl=en"
NEVADA POLICE DEPT,NEVADA POLICE DEPT,120 SOUTH ASH STEEET,NEVADA,MO,64772,"http://maps.google.com/maps?q=120 SOUTH ASH STEEET,+NEVADA,+MO+64772&hl=en"
NEWPORT POLICE DEPARTMENT,NEWPORT POLICE DEPARTMENT PERMANENT DROP BOX,615 THIRD ST.,NEWPORT,AR,72112,"http://maps.google.com/maps?q=615 THIRD ST.,+NEWPORT,+AR+72112&hl=en"
NEWTON COUNTY SHERIFF'S OFFICE,NEWTON COUNTY SHERIFF'S OFFICE,208 W. COLER ST.,NEOSHO,MO,64850,"http://maps.google.com/maps?q=208 W. COLER ST.,+NEOSHO,+MO+64850&hl=en"
NIXA POLICE DEPARTMENT,NIXA WALGREENS,106 NORTH MASSEY BLVD,NIXA,MO,65714,"http://maps.google.com/maps?q=106 NORTH MASSEY BLVD,+NIXA,+MO+65714&hl=en"
NORTH LITTLE ROCK POLICE DEPARTMENT,NORTH LITTLE ROCK POLICE & FIRE TRAINING FACILITY PERMANENT DROP BOX,2400 WILLOW STREET,NORTH LITTLE ROCK,AR,72114,"http://maps.google.com/maps?q=2400 WILLOW STREET,+NORTH LITTLE ROCK,+AR+72114&hl=en"
NORTH LITTLE ROCK POLICE DEPARTMENT,THE OTHER CENTER,4000 MCCAIN BLVD,NORTH LITTLE ROCK,AR,72116,"http://maps.google.com/maps?q=4000 MCCAIN BLVD,+NORTH LITTLE ROCK,+AR+72116&hl=en"
NORTHEASTERN STATE UNIVERSITY POLICE,NORTHEASTERN HEALTH SYSTEMS,1400 EAST DOWNING,TAHLEQUAH,OK,74464,"http://maps.google.com/maps?q=1400 EAST DOWNING,+TAHLEQUAH,+OK+74464&hl=en"
OKLAHOMA STATE UNIVERSITY PD,OKLAHOMA STATE UNIVERSITY IT,1801 E. 4TH ST.,OKMULGEE,OK,74447,"http://maps.google.com/maps?q=1801 E. 4TH ST.,+OKMULGEE,+OK+74447&hl=en"
OUACHITA COUNTY SHERIFF'S DEPARTMENT,OUACHITA COUNTY SHERIFF'S DEPARTMENT PERMANENT DROP BOX,109 GOODGAME,CAMDEN,AR,71701,"http://maps.google.com/maps?q=109 GOODGAME,+CAMDEN,+AR+71701&hl=en"
OZARK COUNTY SHERIFF,OZARK COUNTY SHERIFF'S OFFICE,1818 COUNTY ROAD 806,GAINESVILLE,MO,65655,"http://maps.google.com/maps?q=1818 COUNTY ROAD 806,+GAINESVILLE,+MO+65655&hl=en"
OZARK POLICE DEPARTMENT,OZARK POLICE DEPARTMENT PERMANENT DROP BOX,2914 WEST COMMERCIAL STREET,OZARK,AR,72949,"http://maps.google.com/maps?q=2914 WEST COMMERCIAL STREET,+OZARK,+AR+72949&hl=en"
PARIS POLICE DEPARTMENT,PARIS POLICE DEPARTMENT PERMANENT DROP BOX,1810 EAST WALNUT STREET,PARIS,AR,72855,"http://maps.google.com/maps?q=1810 EAST WALNUT STREET,+PARIS,+AR+72855&hl=en"
PEA RIDGE POLICE DEPARTMENT,PEA RIDGE POLICE DEPARTMENT PERMANENT DROP BOX,187 SLACK STREET,PEA RIDGE,AR,72751,"http://maps.google.com/maps?q=187 SLACK STREET,+PEA RIDGE,+AR+72751&hl=en"
PINE BLUFF POLICE DEPARTMENT,SUPER 1 FOOD STORE,1805 EAST HARDING AVE,PINE BLUFF,AR,71603,"http://maps.google.com/maps?q=1805 EAST HARDING AVE,+PINE BLUFF,+AR+71603&hl=en"
PITTSBURG KANSAS POLICE DEPT.,PITTSBURG POLICE DEPARTMENT,201 N. PINE ST.,PITTSBURG,KS,66762,"http://maps.google.com/maps?q=201 N. PINE ST.,+PITTSBURG,+KS+66762&hl=en"
PITTSBURG SHERIFF DEPARTMENT,PITTSBURG SHERIFF DEPARTMENT,1210 N WEST ST,MCALESTER,OK,74501,"http://maps.google.com/maps?q=1210 N WEST ST,+MCALESTER,+OK+74501&hl=en"
PLEASANT HOPE POLICE DEPARTMENT,PLEASANT HOPE POLICE DEPARTMENT,5492 HWY H,PLEASANT HOPE,MO,65725,"http://maps.google.com/maps?q=5492 HWY H,+PLEASANT HOPE,+MO+65725&hl=en"
POTTSVILLE POLICE DEPARTMENT,POTTSVILLE PHARMACY,7146 NORTH RIVER ROAD,POTTSVILLE,AR,72858,"http://maps.google.com/maps?q=7146 NORTH RIVER ROAD,+POTTSVILLE,+AR+72858&hl=en"
PRAIRIE GROVE POLICE DEPARTMENT,HARPS FOOD STORE #125,319 E. BUCHANAN ST.,PRAIRIE GROVE,AR,72753,"http://maps.google.com/maps?q=319 E. BUCHANAN ST.,+PRAIRIE GROVE,+AR+72753&hl=en"
PRAIRIE GROVE POLICE DEPARTMENT,PRAIRIE GROVE POLICE DEPARTMENT,955 E. DOUGLAS ST.#1,PRAIRIE GROVE,AR,72753,"http://maps.google.com/maps?q=955 E. DOUGLAS ST.,+PRAIRIE GROVE,+AR+72753&hl=en"
PRESCOTT POLICE DEPARTMENT,PRESCOTT POLICE DEPARTMENT PERMANENT DROP BOX,128 W. MAIN ST.,PRESCOTT,AR,71857,"http://maps.google.com/maps?q=128 W. MAIN ST.,+PRESCOTT,+AR+71857&hl=en"
PULASKI COUNTY SHERIFF'S OFFICE,ARKANSAS CHILDREN'S HOSPITAL MAIN ENTRANCE,1 CHILDREN'S WAY,LITTLE ROCK,AR,72202,"http://maps.google.com/maps?q=1 CHILDREN'S WAY,+LITTLE ROCK,+AR+72202&hl=en"
PULASKI COUNTY SHERIFF'S OFFICE,KROGER PHARMACY,6929 JFK BLVD,NORTH LITTLE ROCK,AR,72116,"http://maps.google.com/maps?q=6929 JFK BLVD,+NORTH LITTLE ROCK,+AR+72116&hl=en"
PULASKI COUNTY SHERIFF'S OFFICE,PULASKI COUNTY SHERIFF'S OFFICE PERMANENT DROP BOX,2900 SOUTH WOODROW STREET,LITTLE ROCK,AR,72204,"http://maps.google.com/maps?q=2900 SOUTH WOODROW STREET,+LITTLE ROCK,+AR+72204&hl=en"
PULASKI COUNTY SHERIFF'S OFFICE,REMEDY PHARMACY,8511 W. MARKHAM STREET,LITTLE ROCK,AR,72205,"http://maps.google.com/maps?q=8511 W. MARKHAM STREET,+LITTLE ROCK,+AR+72205&hl=en"
PULASKI COUNTY SHERIFF'S OFFICE,WALGREENS PARKING LOT,14820 CANTRELL ROAD,LITTLE ROCK,AR,72223,"http://maps.google.com/maps?q=14820 CANTRELL ROAD,+LITTLE ROCK,+AR+72223&hl=en"
RED RIVER ARMY DEPOT,RED RIVER ARMY DEPORT ACCESS CONTROL POINTS (GATES),100 JAMES CARLOW DRIVE,TEXARKANA,TX,75507,"http://maps.google.com/maps?q=100 JAMES CARLOW DRIVE,+TEXARKANA,+TX+75507&hl=en"
REPUBLIC POLICE DEPARTMENT,HINES STREET PHARMACY,1173 E. HINES ST,REPUBLIC,MO,65738,"http://maps.google.com/maps?q=1173 E. HINES ST,+REPUBLIC,+MO+65738&hl=en"
ROGERS POLICE DEPARTMENT,MERCY CLINIC PARKING LOT,3101 SE 14TH STREET,BENTONVILLE,AR,72712,"http://maps.google.com/maps?q=3101 SE 14TH STREET,+BENTONVILLE,+AR+72712&hl=en"
ROGERS POLICE DEPARTMENT,ROGERS POLICE DEPARTMENT PERMANENT DROP BOX,1905 S. DIXIELAND,ROGERS,AR,72758,"http://maps.google.com/maps?q=1905 S. DIXIELAND,+ROGERS,+AR+72758&hl=en"
SALINE COUNTY SHERIFF'S OFFICE,SALINE COUNTY SHERIFF'S OFFICE PERMANENT DROP BOX,735 S. NEELEY,BENTON,AR,72015,"http://maps.google.com/maps?q=735 S. NEELEY,+BENTON,+AR+72015&hl=en"
SAPULPA POLICE DEPARTMENT,SAPULPA POLICE DEPARTMENT,20 N. WALNUT ST.,SAPULPA,OK,74066,"http://maps.google.com/maps?q=20 N. WALNUT ST.,+SAPULPA,+OK+74066&hl=en"
SEBASTIAN COUNTY SHERIFF'S OFFICE,BARLING POLICE DEPARTMENT,304 CHURCH STREET,BARLING,AR,72923,"http://maps.google.com/maps?q=304 CHURCH STREET,+BARLING,+AR+72923&hl=en"
SEBASTIAN COUNTY SHERIFF'S OFFICE,SEBASTIAN COUNTY SHERIFF'S OFFICE PERMANENT DROP BOX,800 SOUTH A STREET,FORT SMITH,AR,72901,"http://maps.google.com/maps?q=800 SOUTH A STREET,+FORT SMITH,+AR+72901&hl=en"
SHANNON HILLS POLICE DEPARTMENT,SHANNON HILLS CITY PARK FALL FEST,SHANNON HILLS DR,MABELVALE,AR,72103,"http://maps.google.com/maps?q=SHANNON HILLS DR,+MABELVALE,+AR+72103&hl=en"
SHERWOOD POLICE DEPARTMENT,SHERWOOD POLICE DEPARTMENT PERMANENT DROP BOX,2201 EAST KIEHL AVE,SHERWOOD,AR,72120,"http://maps.google.com/maps?q=2201 EAST KIEHL AVE,+SHERWOOD,+AR+72120&hl=en"
SHERWOOD POLICE DEPARTMENT,ST. VINCENT MEDICAL CENTER- NORTH,2215 WILDWOOD AVE,SHERWOOD,AR,72120,"http://maps.google.com/maps?q=2215 WILDWOOD AVE,+SHERWOOD,+AR+72120&hl=en"
SHERWOOD POLICE DEPARTMENT,WALMART NEIGHBORHOOD MARKET,9053 HWY 107,SHERWOOD,AR,72120,"http://maps.google.com/maps?q=9053 HWY 107,+SHERWOOD,+AR+72120&hl=en"
SILOAM SPRINGS POLICE DEPARTMENT,SILOAM SPRINGS POLICE DEPARTMENT PERMANENT DROP BOX,100 US HIGHWAY 412 W.,SILOAM SPRINGS,AR,72761,"http://maps.google.com/maps?q=100 US HIGHWAY 412 W.,+SILOAM SPRINGS,+AR+72761&hl=en"
SPRINGDALE POLICE DEPARTMENT,HARPS FOOD STORES,918 SOUTH GUTENSOHN ROAD,SPRINGDALE,AR,72764,"http://maps.google.com/maps?q=918 SOUTH GUTENSOHN ROAD,+SPRINGDALE,+AR+72764&hl=en"
SPRINGDALE POLICE DEPARTMENT,SPRINGDALE POLICE DEPARTMENT PERMANENT DROP BOX,201 N. SPRING ST.,SPRINGDALE,AR,72764,"http://maps.google.com/maps?q=201 N. SPRING ST.,+SPRINGDALE,+AR+72764&hl=en"
TRI-COUNTY DRUG TASK FORCE,SUPER 1 FOODS,2801 S. HAZEL STREET,PINE BLUFF,AR,71601,"http://maps.google.com/maps?q=2801 S. HAZEL STREET,+PINE BLUFF,+AR+71601&hl=en"
TRI-COUNTY DRUG TASK FORCE,TRI-COUNTY DRUG TASK FORCE PERMANENT DROP BOX,117 MAIN STREET,PINE BLUFF,AR,71601,"http://maps.google.com/maps?q=117 MAIN STREET,+PINE BLUFF,+AR+71601&hl=en"
TULSA PD,PATRICK HENRY ELEMENTARY,3820 E. 41ST ST,TULSA,OK,74135,"http://maps.google.com/maps?q=3820 E. 41ST ST,+TULSA,+OK+74135&hl=en"
TULSA PD,SPIRIT HALLOWEEN OLD GANDER MOUNTAIN,8310 S. OLYMPIA AVE.,TULSA,OK,74129,"http://maps.google.com/maps?q=8310 S. OLYMPIA AVE.,+TULSA,+OK+74129&hl=en"
UALR POLICE,UALR POLICE DEPARTMENT,5820 ASHER AVENUE,LITTLE ROCK,AR,72204,"http://maps.google.com/maps?q=5820 ASHER AVENUE,+LITTLE ROCK,+AR+72204&hl=en"
UALR POLICE,UALR POLICE DEPARTMENT PERMANENT DROP BOX,2018 SOUTH UNIVERSITY AVENUE,LITTLE ROCK,AR,72201,"http://maps.google.com/maps?q=2018 SOUTH UNIVERSITY AVENUE,+LITTLE ROCK,+AR+72201&hl=en"
UCA POLICE DEPARTMENT,UCA POLICE DEPARTMENT PERMANENT DROP BOX,6 W.J. SOWDER,CONWAY,AR,72035,"http://maps.google.com/maps?q=6 W.J. SOWDER,+CONWAY,+AR+72035&hl=en"
UNIVERSITY OF ARKANSAS POLICE DEPARTMENT,UNIVERSITY OF ARKANSAS POLICE DEPARTMENT,155 SOUTH RAZORBACK ROAD,FAYETTEVILLE,AR,72701,"http://maps.google.com/maps?q=155 SOUTH RAZORBACK ROAD,+FAYETTEVILLE,+AR+72701&hl=en"
VAN BUREN POLICE DEPARTMENT,VAN BUREN POLICE DEPARTMENT PERMANENT DROP BOX,111 S. 11TH ST.,VAN BUREN,AR,72956,"http://maps.google.com/maps?q=111 S. 11TH ST.,+VAN BUREN,+AR+72956&hl=en"
WALDRON POLICE DEPARTMENT,HARPS FOOD PARKING LOT,1350 6TH STREET,WALDRON,AR,72958,"http://maps.google.com/maps?q=1350 6TH STREET,+WALDRON,+AR+72958&hl=en"
WALDRON POLICE DEPARTMENT,WALDRON POLICE DEPARTMENT PERMANENT DROP BOX,323 WASHINGTON ST.,WALDRON,AR,72958,"http://maps.google.com/maps?q=323 WASHINGTON ST.,+WALDRON,+AR+72958&hl=en"
WASHINGTON COUNTY SHERIFF'S OFFICE,VA MEDICAL CENTER PERMANENT DROP BOX,1100 NORTH COLLEGE AVE.1100 NORTH COLLEGE AVE.,FAYETTEVILLE,AR,72701,"http://maps.google.com/maps?q=1100 NORTH COLLEGE AVE.,+FAYETTEVILLE,+AR+72701&hl=en"
WASHINGTON COUNTY SHERIFF'S OFFICE,WASHINGTON COUNTY COURTHOUSE PERMANENT DROP BOX (MON-FRI ONLY),280 NORTH COLLEGE AVE.,FAYETTEVILLE,AR,72701,"http://maps.google.com/maps?q=280 NORTH COLLEGE AVE.,+FAYETTEVILLE,+AR+72701&hl=en"
WASHINGTON COUNTY SHERIFF'S OFFICE,WASHINGTON COUNTY SHERIFF'S DEPARTMENT PERMANENT DROP BOX,1155 CLYDESDALE DR.,FAYETTEVILLE,AR,72701,"http://maps.google.com/maps?q=1155 CLYDESDALE DR.,+FAYETTEVILLE,+AR+72701&hl=en"
WEBSTER COUNTY SHERIFF'S OFFICE,WEBSTER COUNTY HEALTH UNIT,233 E. WASHINGTON ST,MARSHFIELD,MO,65706,"http://maps.google.com/maps?q=233 E. WASHINGTON ST,+MARSHFIELD,+MO+65706&hl=en"
WEST FORK POLICE DEPARTMENT,WEST FORK POLICE DEPARTMENT PERMANENT DROP BOX,262 WEST MAIN STREET,WEST FORK,AR,72774,"http://maps.google.com/maps?q=262 WEST MAIN STREET,+WEST FORK,+AR+72774&hl=en"
WHITE COUNTY SHERIFF'S OFFICE,WHITE COUNTY SHERIFF'S OFFICE PERMANENT DROP BOX,1600 E BOOTH ROAD,SEARCY,AR,72143,"http://maps.google.com/maps?q=1600 E BOOTH ROAD,+SEARCY,+AR+72143&hl=en"
WHITE HALL POLICE DEPARTMENT,WHITE HALL POLICE DEPARTMENT PERMANENT DROP BOX,8204 DOLLARWAY ROAD,WHITE HALL,AR,71602,"http://maps.google.com/maps?q=8204 DOLLARWAY ROAD,+WHITE HALL,+AR+71602&hl=en"
WILLARD POLICE DEPT.,FAMILY PHARMACY,520 E JACKSONSUITE 10,WILLARD,MO,65781,"http://maps.google.com/maps?q=520 E JACKSON,+WILLARD,+MO+65781&hl=en"
WOODRUFF COUNTY SHERIFF'S DEPARTMENT,WOODRUFF COUNTY COURT HOUSE,500 NORTH 3RD STREET,AUGUSTA,AR,72006,"http://maps.google.com/maps?q=500 NORTH 3RD STREET,+AUGUSTA,+AR+72006&hl=en"
WRIGHT COUNTY SHERIFF'S OFFICE,ANN SHORT TURNER COMMUNITY CENTER,205 N MISSOURI AVE,MANSFIELD,MO,65704,"http://maps.google.com/maps?q=205 N MISSOURI AVE,+MANSFIELD,+MO+65704&hl=en"
WRIGHT COUNTY SHERIFF'S OFFICE,WRIGHT COUNTY SHERIFF'S OFFICE,PO BOX 250125 COURT SQUARE,HARTVILLE,MO,65667,"http://maps.google.com/maps?q=PO BOX 250,+HARTVILLE,+MO+65667&hl=en"
WYANDOTTE NATION TRIBAL POLICE,WYANDOTTE NATION TRIBAL POLICE,14 SOUTH MAIN,WYANDOTTE,OK,74370,"http://maps.google.com/maps?q=14 SOUTH MAIN,+WYANDOTTE,+OK+74370&hl=en"
