Participant,CollectionSite,Address,City,State,Zip,MapURL
ALBANY COUNTY SHERIFF,ALBANY COUNTY SHERIFF PATROL STATION,58 VERDA AVENUE,CLARKSVILLE,NY,12041,"http://maps.google.com/maps?q=58 VERDA AVENUE,+CLARKSVILLE,+NY+12041&hl=en"
ALBANY COUNTY SHERIFF,RCS COMMUNITY LIBRARY,95 MAIN STREET,RAVENA,NY,12143,"http://maps.google.com/maps?q=95 MAIN STREET,+RAVENA,+NY+12143&hl=en"
ALBANY NY POLICE DEPARTMENT,ALBANY COLLEGE OF PHARMACY CAR PORT (DRIVE UP DROP OFF),106 NEW SCOTLAND AVE.,ALBANY,NY,12208,"http://maps.google.com/maps?q=106 NEW SCOTLAND AVE.,+ALBANY,+NY+12208&hl=en"
ALBANY NY POLICE DEPARTMENT,ALBANY POLICE DEPT. SOUTH STATION,126 ARCH STREET,ALBANY,NY,12202,"http://maps.google.com/maps?q=126 ARCH STREET,+ALBANY,+NY+12202&hl=en"
ALBANY NY POLICE DEPARTMENT,CVS PHARMACY,885 CENTRAL AVE.,ALBANY,NY,12205,"http://maps.google.com/maps?q=885 CENTRAL AVE.,+ALBANY,+NY+12205&hl=en"
ALSTEAD POLICE DEPARTMENT,ALSTEAD POLICE DEPARTMENT,15 MECHANIC ST,ALSTEAD,NH,03602,"http://maps.google.com/maps?q=15 MECHANIC ST,+ALSTEAD,+NH+03602&hl=en"
AMHERST POLICE DEPARTMENT,WILDWOOD SCHOOL PARKING AREA,71 STRONG STREET,AMHERST,MA,01002,"http://maps.google.com/maps?q=71 STRONG STREET,+AMHERST,+MA+01002&hl=en"
ANDOVER POLICE DEPARTMENT,ANDOVER POLICE STATION 973-383-5544,145 LAKE ILIFF RD.,NEWTON,NJ,07860,"http://maps.google.com/maps?q=145 LAKE ILIFF RD.,+NEWTON,+NJ+07860&hl=en"
ARDSLEY SAYF COALITION,ARDSLEY VILLAGE HALL,507 ASHFORD HALL,ARDSLEY,NY,10502,"http://maps.google.com/maps?q=507 ASHFORD HALL,+ARDSLEY,+NY+10502&hl=en"
AUBURN POLICE DEPARTMENT,KINNEY DRUGS,62 OWASCO ST.,AUBURN,NY,13021,"http://maps.google.com/maps?q=62 OWASCO ST.,+AUBURN,+NY+13021&hl=en"
AUBURN POLICE DEPARTMENT,WEGMANS,1 LOOP ROAD,AUBURN,NY,13021,"http://maps.google.com/maps?q=1 LOOP ROAD,+AUBURN,+NY+13021&hl=en"
BALDWINSVILLE POLICE DEPARTMENT,KINNEY DRUGS,21 E. GENESEE STREET,BALDWINSVILLE,NY,13027,"http://maps.google.com/maps?q=21 E. GENESEE STREET,+BALDWINSVILLE,+NY+13027&hl=en"
BELCHERTOWN POLICE DEPARTMENT,BELCHERTOWN POLICE DEPARTMENT,PARK STREETTOWN COMMON,BELCHERTOWN,MA,01007,"http://maps.google.com/maps?q=PARK STREET,+BELCHERTOWN,+MA+01007&hl=en"
BENNINGTON POLICE DEPARTMENT,BENNINGTON COUNTY SHERIFF'S DEPT FRONT LOBBY,811 US ROUTE 7 SOUTH,BENNINGTON,VT,05201,"http://maps.google.com/maps?q=811 US ROUTE 7 SOUTH,+BENNINGTON,+VT+05201&hl=en"
BENNINGTON POLICE DEPARTMENT,BENNINGTON POLICE DEPARTMENT FRONT LOBBY,118 SOUTH STREET,BENNINGTON,VT,05201,"http://maps.google.com/maps?q=118 SOUTH STREET,+BENNINGTON,+VT+05201&hl=en"
BENNINGTON POLICE DEPARTMENT,MANCHESTER POLICE DEPARTMENT FRONT LOBBY,6041 MAIN STREET,MANCHESTER CENTER,VT,05255,"http://maps.google.com/maps?q=6041 MAIN STREET,+MANCHESTER CENTER,+VT+05255&hl=en"
BENNINGTON POLICE DEPARTMENT,SOUTHWESTERN VERMONT MEDICAL CENTER FRONT LOBBY,100 HOSPITAL DRIVE,BENNINGTON,VT,05201,"http://maps.google.com/maps?q=100 HOSPITAL DRIVE,+BENNINGTON,+VT+05201&hl=en"
BENNINGTON POLICE DEPARTMENT,WINHALL POLICE DEPARTMENT FRONT LOBBY,113 VT ROUTE 30,BONDVILLE,VT,05340,"http://maps.google.com/maps?q=113 VT ROUTE 30,+BONDVILLE,+VT+05340&hl=en"
BERLIN POLICE DEPARTMENT,BERLIN POLICE DEPARTMENT,240 KENSINGTON ROAD,BERLIN,CT,06037,"http://maps.google.com/maps?q=240 KENSINGTON ROAD,+BERLIN,+CT+06037&hl=en"
BETHLEHEM POLICE DEPARTMENT,ELM AVENUE PARK FRONT PARKING LOT,249 ELM AVENUE,DELMAR,NY,12054,"http://maps.google.com/maps?q=249 ELM AVENUE,+DELMAR,+NY+12054&hl=en"
BRISTOL POLICE DEPARTMENT,BRISTOL POLICE DEPARTMENT,72 MUNSILL AVENUE,BRISTOL,VT,05443,"http://maps.google.com/maps?q=72 MUNSILL AVENUE,+BRISTOL,+VT+05443&hl=en"
BRISTOL POLICE DEPARTMENT,BRISTOL SENIOR COMMUNITY CENTER HOURS OF COLLECTION 10:00 A.M- 1:00 P.M,240 STAFFORD AVENUE,BRISTOL,CT,06010,"http://maps.google.com/maps?q=240 STAFFORD AVENUE,+BRISTOL,+CT+06010&hl=en"
BROOME COUNTY SHERIFF'S DEPARTMENT,AMERICAN LEGION POST 1700,305 MAPLE STREET,ENDICOTT,NY,13760,"http://maps.google.com/maps?q=305 MAPLE STREET,+ENDICOTT,+NY+13760&hl=en"
BROOME COUNTY SHERIFF'S DEPARTMENT,BROOME COUNTY SHERIFF'S OFFICE,155 LT. VANWINKLE DR.,BINGHAMTON,NY,13905,"http://maps.google.com/maps?q=155 LT. VANWINKLE DR.,+BINGHAMTON,+NY+13905&hl=en"
BROOME COUNTY SHERIFF'S DEPARTMENT,JOHNSON CITY ELKS,4212 WATSON BLVD.,JOHNSON CITY,NY,13790,"http://maps.google.com/maps?q=4212 WATSON BLVD.,+JOHNSON CITY,+NY+13790&hl=en"
BROOME COUNTY SHERIFF'S DEPARTMENT,THE SCOOP,32876 STATE RT. 11,WHITNEY POINT,NY,13862,"http://maps.google.com/maps?q=32876 STATE RT. 11,+WHITNEY POINT,+NY+13862&hl=en"
BROOME COUNTY SHERIFF'S DEPARTMENT,VESTAL ELKS LODGE,2071 VESTAL PARKWAY WEST,VESTAL,NY,13850,"http://maps.google.com/maps?q=2071 VESTAL PARKWAY WEST,+VESTAL,+NY+13850&hl=en"
BROOME COUNTY SHERIFF'S DEPARTMENT,VESTAL FIRE STATION 4,3341 VESTAL PKWY EAST,VESTAL,NY,13850,"http://maps.google.com/maps?q=3341 VESTAL PKWY EAST,+VESTAL,+NY+13850&hl=en"
BROOME COUNTY SHERIFF'S DEPARTMENT,WINDSOR COMMUNITY CENTER,107 MAIN STREET,WINDSOR,NY,13865,"http://maps.google.com/maps?q=107 MAIN STREET,+WINDSOR,+NY+13865&hl=en"
BURLINGTON POLICE DEPARTMENT,BURLINGTON POLICE DEPARTMENT NORTH LOBBY,1 NORTH AVE,BURLINGTON,VT,05401,"http://maps.google.com/maps?q=1 NORTH AVE,+BURLINGTON,+VT+05401&hl=en"
CAIRO POLICE DEPARTMENT,HANNAFORD,223 MAIN STREET,CAIRO,NY,12413,"http://maps.google.com/maps?q=223 MAIN STREET,+CAIRO,+NY+12413&hl=en"
CASTLETON POLICE DEPARTMENT,CASTLETON POLICE DEPARTMENT,263 VT ROUTE 30,CASTLETON,VT,05735,"http://maps.google.com/maps?q=263 VT ROUTE 30,+CASTLETON,+VT+05735&hl=en"
CAYUGA COUNTY SHERIFF'S DEPARTMENT,CAYUGA COUNTY SHERIFF'S HQ DROP BOX,7445 COUNTY HOUSE ROAD,AUBURN,NY,13021,"http://maps.google.com/maps?q=7445 COUNTY HOUSE ROAD,+AUBURN,+NY+13021&hl=en"
CAYUGA COUNTY SHERIFF'S DEPARTMENT,KINNEY DRUGS,130 MAIN STREET,MORAVIA,NY,13118,"http://maps.google.com/maps?q=130 MAIN STREET,+MORAVIA,+NY+13118&hl=en"
CAZENOVIA POLICE DEPARTMENT,KINNEY DRUGS PARKING LOT,41 ALBANY STREET,CAZENOVIA,NY,13035,"http://maps.google.com/maps?q=41 ALBANY STREET,+CAZENOVIA,+NY+13035&hl=en"
CHATHAM POLICE DEPARTMENT,CHATHAM PD,77 MAIN STREET,CHATHAM,NY,12037,"http://maps.google.com/maps?q=77 MAIN STREET,+CHATHAM,+NY+12037&hl=en"
CHENANGO COUNTY SHERIFF'S OFFICE,COVENTRY FIRE DEPARTMENT,109 NORTH ROAD,GREENE,NY,13778,"http://maps.google.com/maps?q=109 NORTH ROAD,+GREENE,+NY+13778&hl=en"
CHENANGO COUNTY SHERIFF'S OFFICE,SMYRNA FIRE DEPARTMENT,MAIN STREET,SMYRNA,NY,13464,"http://maps.google.com/maps?q=MAIN STREET,+SMYRNA,+NY+13464&hl=en"
CHESHIRE POLICE DEPARTMENT,CHESHIRE POLICE DEPARTMENT,500 HIGHLAND AVE,CHESHIRE,CT,06410,"http://maps.google.com/maps?q=500 HIGHLAND AVE,+CHESHIRE,+CT+06410&hl=en"
CHESTERFIELD POLICE DEPARTMENT,CHESTERFIELD POLICE DEPARTMENT CHIEF DUANE CHICKERING,490 ROUTE 63PO BOX 231,CHESTERFIELD,NH,03443,"http://maps.google.com/maps?q=490 ROUTE 63,+CHESTERFIELD,+NH+03443&hl=en"
CHITTENANGO POLICE DEPARTMENT,KINNEY DRUGS,540 GENESEE ST.,CHITTENANGO,NY,13037,"http://maps.google.com/maps?q=540 GENESEE ST.,+CHITTENANGO,+NY+13037&hl=en"
CHITTENANGO POLICE DEPARTMENT,MEDICINE SHOPPE,1315 W GENESEE STREET,CHITTENANGO,NY,13037,"http://maps.google.com/maps?q=1315 W GENESEE STREET,+CHITTENANGO,+NY+13037&hl=en"
CHITTENANGO POLICE DEPARTMENT,POLICE HQS,222 GENESEE STREET,CHITTENANGO,NY,13037,"http://maps.google.com/maps?q=222 GENESEE STREET,+CHITTENANGO,+NY+13037&hl=en"
CHITTENDEN COUNTY SHERIFF'S OFFICE,PRICE CHOPPER SUPERMARKET,595 SHELBURNE ROAD,BURLINGTON,VT,05401,"http://maps.google.com/maps?q=595 SHELBURNE ROAD,+BURLINGTON,+VT+05401&hl=en"
CICERO POLICE DEPARTMENT,KINNEY DRUGS,8150 THOMPSON RD.,CICERO,NY,13039,"http://maps.google.com/maps?q=8150 THOMPSON RD.,+CICERO,+NY+13039&hl=en"
CICERO POLICE DEPARTMENT,WALGREEN'S PARKING LOT,6189 ROUTE 31,CICERO,NY,13039,"http://maps.google.com/maps?q=6189 ROUTE 31,+CICERO,+NY+13039&hl=en"
CICERO POLICE DEPARTMENT,WEGMANS,7952 ROUTE 11,CICERO,NY,13039,"http://maps.google.com/maps?q=7952 ROUTE 11,+CICERO,+NY+13039&hl=en"
CLAREMONT POLICE DEPARTMENT,CVS PARKING LOT DRIVE UP AND DROP OFF SITE,1 WALL STREET,CLAREMONT,NH,03743,"http://maps.google.com/maps?q=1 WALL STREET,+CLAREMONT,+NH+03743&hl=en"
CLARKSTOWN POLICE,CVS PHARMACY,280 SOUTH MAIN ST,NEW CITY,NY,10956,"http://maps.google.com/maps?q=280 SOUTH MAIN ST,+NEW CITY,+NY+10956&hl=en"
CLARKSTOWN POLICE,CVS PHARMACY,330 ROUTE 304,BARDONIA,NY,10954,"http://maps.google.com/maps?q=330 ROUTE 304,+BARDONIA,+NY+10954&hl=en"
CLOSTER POLICE DEPARTMENT,CLOSTER POLICE DEPT. 201-768-5000,295 CLOSTER DOCK ROAD,CLOSTER,NJ,07624,"http://maps.google.com/maps?q=295 CLOSTER  DOCK ROAD,+CLOSTER,+NJ+07624&hl=en"
COLCHESTER POLICE DEPARTNEBT,COLCHESTER POLICE DEPARTMENT CHIEF DOUGLAS ALLEN,835 BLAKELY ROAD,COLCHESTER,VT,05446,"http://maps.google.com/maps?q=835 BLAKELY ROAD,+COLCHESTER,+VT+05446&hl=en"
COLONIE POLICE DEPARTMENT,COLONIE POLICE DEPARTMENT COURT RM # 1,312 WOLF ROAD,LATHAM,NY,12110,"http://maps.google.com/maps?q=312 WOLF ROAD,+LATHAM,+NY+12110&hl=en"
COLUMBIA COUNTY SHERIFF'S OFFICE,COLUMBIA COUNTY SHERIFF'S OFFICE,85 INDUSTRIAL TRACT,HUDSON,NY,12534,"http://maps.google.com/maps?q=85 INDUSTRIAL TRACT,+HUDSON,+NY+12534&hl=en"
COLUMBIA COUNTY SHERIFF'S OFFICE,HILLSDALE SUB STATION,2684 STATE ROUTE 23,HILLSDALE,NY,12529,"http://maps.google.com/maps?q=2684 STATE ROUTE 23,+HILLSDALE,+NY+12529&hl=en"
CONNECTICUT STATE POLICE-TROOP G,TROOP G BARRACKS,149 PROSPECT ST,BRIDGEPORT,CT,06604,"http://maps.google.com/maps?q=149 PROSPECT ST,+BRIDGEPORT,+CT+06604&hl=en"
COXSACKIE POLICE DEPARTMENT,COXSACKIE POLICE DEPARTMENT,119 MANSION STREET,COXSACKIE,NY,12051,"http://maps.google.com/maps?q=119 MANSION STREET,+COXSACKIE,+NY+12051&hl=en"
CRESSKILL POLICE DEPARTMENT,CRESSKILL POLICE DEPARTMENT,67 UNION AVENUE,CRESSKILL,NJ,07626,"http://maps.google.com/maps?q=67 UNION AVENUE,+CRESSKILL,+NJ+07626&hl=en"
CROTON ON HUDSON POLICE,CROTON COMMONS SHOPPING PLAZA,177 SOUTH RIVERSIDE AVENUE,CROTON ON HUDSON,NY,10520,"http://maps.google.com/maps?q=177 SOUTH RIVERSIDE AVENUE,+CROTON ON HUDSON,+NY+10520&hl=en"
CUMMINGTON POLICE DEPARTMENT,CUMMINGTON POLICE DEPARTMENT CUMMINGTON PUBLIC SAFETY COMPLEX,8 FAIRGROUNDS ROAD,CUMMINGTON,MA,01026,"http://maps.google.com/maps?q=8 FAIRGROUNDS ROAD,+CUMMINGTON,+MA+01026&hl=en"
DANBURY POLICE DEPARTMENT,DANBURY POLICE DEPARTMENT,375 MAIN STREET,DANBURY,CT,06810,"http://maps.google.com/maps?q=375 MAIN STREET,+DANBURY,+CT+06810&hl=en"
DEA NEW YORK DIVISION,DEPARTMENT OF FAMILY SERVICES ROBERT TRAVIS BLDG SUSAN CLARK,16 COMMUNITY LANE,LIBERTY,NY,12754,"http://maps.google.com/maps?q=16 COMMUNITY LANE,+LIBERTY,+NY+12754&hl=en"
DEA NEW YORK DIVISION,FALLSBURG POLICE STATION ALETA M. GOMEZ 845.794.8080 X170,19 RAILROAD PLAZA,SOUTH FALLSBURG,NY,12779,"http://maps.google.com/maps?q=19 RAILROAD PLAZA,+SOUTH FALLSBURG,+NY+12779&hl=en"
DEA NEW YORK DIVISION,GROVER HERMANN HOSPITAL,8881 NY RTE 97,CALLICOON,NY,12723,"http://maps.google.com/maps?q=8881 NY RTE 97,+CALLICOON,+NY+12723&hl=en"
DEA NEW YORK DIVISION,LIBERTY POLICE DEPARTMENT ALETA M. GOMEZ 845.794.8080 X170,159 NORTH MAIN STREET,LIBERTY,NY,12754,"http://maps.google.com/maps?q=159 NORTH MAIN STREET,+LIBERTY,+NY+12754&hl=en"
DEA NEW YORK DIVISION,TOWN OF LUMBERLAND TOWN HALL,1054 PROCTOR ROAD,GLEN SPEY,NY,12737,"http://maps.google.com/maps?q=1054 PROCTOR ROAD,+GLEN SPEY,+NY+12737&hl=en"
DEERFIELD POLICE DEPARTMENT,DEERFIELD POLICE DEPARTMENT,8 CONWAY STREET,SOUTH DEERFIELD,MA,01373,"http://maps.google.com/maps?q=8 CONWAY STREET,+SOUTH DEERFIELD,+MA+01373&hl=en"
DEWITT POLICE DEPARTMENT,WEGMANS,4256 JAMES STREET,EAST SYRACUSE,NY,13057,"http://maps.google.com/maps?q=4256 JAMES STREET,+EAST SYRACUSE,+NY+13057&hl=en"
DEWITT POLICE DEPARTMENT,WEGMANS,6789 E. GENESEE STREET,FAYETTEVILLE,NY,13066,"http://maps.google.com/maps?q=6789 E. GENESEE STREET,+FAYETTEVILLE,+NY+13066&hl=en"
DOVER POLICE DEPT.,DOVER POLICE DEPARTMENT CHIEF RANDY JOHNSON,246 ROUTE 100,WEST DOVER,VT,05356,"http://maps.google.com/maps?q=246 ROUTE 100,+WEST DOVER,+VT+05356&hl=en"
DUBLIN POLICE DEPARTMENT,DUBLIN POLICE DEPARTMENT CHIEF TIMOTHY J. SUOKKO,1122 MAIN STREET,DUBLIN,NH,03444,"http://maps.google.com/maps?q=1122 MAIN STREET,+DUBLIN,+NH+03444&hl=en"
DURYEA POLICE DEPARTMENT,DURYEA BOROUGH TOWN HALL BUILDING,315 MAIN STREET,DURYEA,PA,18642,"http://maps.google.com/maps?q=315 MAIN STREET,+DURYEA,+PA+18642&hl=en"
DUTCHESS COUNTY SHERIFF'S OFFICE,VASSAR BROTHERS MEDICAL HOSPITAL,45 READE PLACE,POUGHKEEPSIE,NY,12601,"http://maps.google.com/maps?q=45 READE PLACE,+POUGHKEEPSIE,+NY+12601&hl=en"
EAST GRANBY RESIDENT TROOPERS OFFICE,EAST GRANBY RESIDENT TROOPER'S OFFICE,7 MEMORIAL DRIVE,EAST GRANBY,CT,06026,"http://maps.google.com/maps?q=7 MEMORIAL DRIVE,+EAST GRANBY,+CT+06026&hl=en"
EAST GREENBUSH POLICE DEPARTMENT,EAST GREENBUSH POLICE DEPARTMENT,225 COLUMBIA TURNPIKE,RENSSELAER,NY,12144,"http://maps.google.com/maps?q=225 COLUMBIA TURNPIKE,+RENSSELAER,+NY+12144&hl=en"
EAST HARTFORD POLICE,EAST HARTFORD PUBLIC SAFETY COMPLEX EAST HARTFORD POLICE HEADQUARTERS,31 SCHOOL STREET,EAST HARTFORD,CT,06108,"http://maps.google.com/maps?q=31 SCHOOL STREET,+EAST HARTFORD,+CT+06108&hl=en"
EASTHAMPTON POLICE DEPARTMENT,EASTHAMPTON PUBLIC SAFETY COMPLEX,32 PAYSON AVENUE,EASTHAMPTON,MA,01027,"http://maps.google.com/maps?q=32 PAYSON AVENUE,+EASTHAMPTON,+MA+01027&hl=en"
EMERSON P.D.,EMERSON POLICE HQ,1 MUNICIPAL PLACE,EMERSON,NJ,07630,"http://maps.google.com/maps?q=1 MUNICIPAL PLACE,+EMERSON,+NJ+07630&hl=en"
ESSEX COUNTY SHERIFF,ESSEX COUNTY SHERIFF'S OFFICE,702 STOWERSVILLE RD.,LEWIS,NY,12950,"http://maps.google.com/maps?q=702 STOWERSVILLE RD.,+LEWIS,+NY+12950&hl=en"
FAIR HAVEN POLICE DEPARTMENT,FAIR HAVEN POLICE DEPARTMENT BONNIE ROSATI,5 NORTH PARK PLACE,FAIR HAVEN,VT,05743,"http://maps.google.com/maps?q=5 NORTH PARK PLACE,+FAIR HAVEN,+VT+05743&hl=en"
FAIRFIELD POLICE DEPARTMENT,FAIRFIELD POLICE DEPARTMENT,100 REEF ROAD,FAIRFIELD,CT,06824,"http://maps.google.com/maps?q=100 REEF ROAD,+FAIRFIELD,+CT+06824&hl=en"
FOREST CITY POLICE,FOREST CITY AREA EMERGENCY SERVICES,380 RAILROAD STREET,FOREST CITY,PA,18421,"http://maps.google.com/maps?q=380 RAILROAD STREET,+FOREST CITY,+PA+18421&hl=en"
FULTON COUNTY SHERIFF'S OFFICE,FULTON COUNTY SHERIFF'S OFFICE,2712 STATE HWY 29,JOHNSTOWN,NY,12095,"http://maps.google.com/maps?q=2712 STATE HWY 29,+JOHNSTOWN,+NY+12095&hl=en"
FULTON POLICE DEPARTMENT,KINNEY DRUGS,115 ONEIDA STREET,FULTON,NY,13069,"http://maps.google.com/maps?q=115 ONEIDA STREET,+FULTON,+NY+13069&hl=en"
GARDNER POLICE DEPARTMENT,PRICE CHOPPER GROCERY/PHARMACY,560 MAIN ST,GARDNER,MA,01440,"http://maps.google.com/maps?q=560 MAIN ST,+GARDNER,+MA+01440&hl=en"
GOSHEN POLICE DEPARTMENT,GOSHEN POLICE DEPARTMENT,40A MAIN ST,GOSHEN,MA,01032,"http://maps.google.com/maps?q=40A MAIN ST,+GOSHEN,+MA+01032&hl=en"
GOUVERNEUR POLICE DEPARTMENT,KINNEY DRUGS,17 CLINTON STREET,GOUVERNEUR,NY,13642,"http://maps.google.com/maps?q=17 CLINTON STREET,+GOUVERNEUR,+NY+13642&hl=en"
GRAND ISLE COUNTY SHERIFF'S DEPARTMENT,SOUTH HERO RESCUE BUILDING,329 US RT 2,SOUTH HERO,VT,05486,"http://maps.google.com/maps?q=329 US RT 2,+SOUTH HERO,+VT+05486&hl=en"
GREAT BEND POLICE DEPARTMENT,GREAT BEND POLICE STATION,335 WASHINGTON STREET,GREAT BEND,PA,18821,"http://maps.google.com/maps?q=335 WASHINGTON STREET,+GREAT BEND,+PA+18821&hl=en"
GREENFIELD POLICE DEPARTMENT,GREENFIELD POLICE DEPARTMENT,321 HIGH STREET,GREENFIELD,MA,01301,"http://maps.google.com/maps?q=321 HIGH STREET,+GREENFIELD,+MA+01301&hl=en"
GREENWICH POLICE DEPARTMERNT,PUBLIC SAFETY COMPLEX,11 BRUCE PLACE,GREENWICH,CT,06830,"http://maps.google.com/maps?q=11 BRUCE PLACE,+GREENWICH,+CT+06830&hl=en"
GUILDERLAND POLICE DEPARTMENT,PUBLIC LIBRARY AUXILIARY PARKING LOT,2228 WESTERN AVENUE,GUILDERLAND,NY,12084,"http://maps.google.com/maps?q=2228 WESTERN AVENUE,+GUILDERLAND,+NY+12084&hl=en"
HADLEY POLICE DEPARTMENT,HOPKINS ACADEMY HIGH SCHOOL,131 RUSSELL STREET,HADLEY,MA,01035,"http://maps.google.com/maps?q=131 RUSSELL STREET,+HADLEY,+MA+01035&hl=en"
HAMILTON COUNTY SHERIFF'S OFFICE,HAMILTON COUNTY JAIL,102 COUNTY VIEW DRIVE,LAKE PLEASANT,NY,12108,"http://maps.google.com/maps?q=102 COUNTY VIEW DRIVE,+LAKE PLEASANT,+NY+12108&hl=en"
HARTFORD POLICE DEPARTMENT,HARTFORD POLICE DEPARTMENT,253 HIGH STREET,HARTFORD,CT,06103,"http://maps.google.com/maps?q=253 HIGH STREET,+HARTFORD,+CT+06103&hl=en"
HARWINTON RESIDENT TROOPER OFFICE,HARWINTON RESIDENT TROOPERS OFFICE,100 BENTLEY DRIVE,HARWINTON,CT,06791,"http://maps.google.com/maps?q=100 BENTLEY DRIVE,+HARWINTON,+CT+06791&hl=en"
HAVERSTRAW POLICE DEPARTMENT,CVS,12 WEST RAMAPO ROAD,GARNERVILLE,NY,10923,"http://maps.google.com/maps?q=12 WEST RAMAPO ROAD,+GARNERVILLE,+NY+10923&hl=en"
HAWORTH POLICE DEPARTMENT,HAWORTH POLICE DEPARTMENT,300 HAWORTH AVENUE,HAWORTH,NJ,07641,"http://maps.google.com/maps?q=300 HAWORTH AVENUE,+HAWORTH,+NJ+07641&hl=en"
HERKIMER COUNTY SHERIFF'S OFFICE,HERKIMER COUNTY SHERIFF'S OFFICE,320 NORTH MAIN STREET,HERKIMER,NY,13350,"http://maps.google.com/maps?q=320 NORTH MAIN STREET,+HERKIMER,+NY+13350&hl=en"
HERKIMER POLICE DEPARTMENT,HERKIMER PD,120 GREEN STREET,HERKIMER,NY,13350,"http://maps.google.com/maps?q=120 GREEN STREET,+HERKIMER,+NY+13350&hl=en"
HOLYOKE POLICE DEPARTMENT,HOLYOKE PD NARCOTICS/VICE DIVISION,138 APPLETON ST,HOLYOKE,MA,01040,"http://maps.google.com/maps?q=138 APPLETON ST,+HOLYOKE,+MA+01040&hl=en"
HOOSICK FALLS POLICE DEPARTMENT,HOOSICK FALLS PD STATION,24 MAIN STREET,HOOSICK FALLS,NY,12090,"http://maps.google.com/maps?q=24 MAIN STREET,+HOOSICK FALLS,+NY+12090&hl=en"
ILION POLICE DEPARTMENT,KINNEY DRUGS,40 1ST STREET,ILION,NY,13357,"http://maps.google.com/maps?q=40 1ST  STREET,+ILION,+NY+13357&hl=en"
ITHACA POLICE DEPARTMENT,KINNEY DRUGS,513 N. CAYUGA STREET,ITHACA,NY,14850,"http://maps.google.com/maps?q=513 N. CAYUGA STREET,+ITHACA,+NY+14850&hl=en"
ITHACA POLICE DEPARTMENT,WEGMANS,500 S. MEADOW STREET,ITHACA,NY,14850,"http://maps.google.com/maps?q=500 S. MEADOW STREET,+ITHACA,+NY+14850&hl=en"
JAFFREY POLICE DEPARTMENT,JAFFREY POLICE DEPARTMENT WILLIAM OSWALT,26 MAIN STREET,JAFFREY,NH,03452,"http://maps.google.com/maps?q=26 MAIN STREET,+JAFFREY,+NH+03452&hl=en"
JEFFERSON TWP. POLICE DEPARTMENT,JEFFERSON TWP. MUNICIPAL BUILDING 973-697-1300,1033 WELDON ROAD,OAK RIDGE,NJ,07438,"http://maps.google.com/maps?q=1033 WELDON ROAD,+OAK RIDGE,+NJ+07438&hl=en"
JOHNSTOWN POLICE DEPARTMENT,JOHNSTOWN POLICE DEPARTMENT CITY HALL,33-41 EAST MAIN STREET,JOHNSTOWN,NY,12095,"http://maps.google.com/maps?q=33-41 EAST MAIN STREET,+JOHNSTOWN,+NY+12095&hl=en"
KEENE POLICE DEPARTMENT,KEENE POLICE DEPARTMENT,400 MARLBORO STREET,KEENE,NH,03431,"http://maps.google.com/maps?q=400 MARLBORO STREET,+KEENE,+NH+03431&hl=en"
KIRKLAND POLICE DEPARTMENT,KINNEY DRUGS,12 FRANKLIN AVE.,CLINTON,NY,13323,"http://maps.google.com/maps?q=12 FRANKLIN AVE.,+CLINTON,+NY+13323&hl=en"
LEVERETT POLICE DEPARTMENT,LEVERETT POLICE DEPARTMENT CHIEF SCOTT D. MINCKLER,95 MONTAGUE ROAD,LEVERETT,MA,01054,"http://maps.google.com/maps?q=95 MONTAGUE ROAD,+LEVERETT,+MA+01054&hl=en"
LONGMEADOW POLICE DEPARTMENT,LONGMEADOW POLICE DEPARTMENT,34 WILLIAMS STREET,LONGMEADOW,MA,01106,"http://maps.google.com/maps?q=34 WILLIAMS STREET,+LONGMEADOW,+MA+01106&hl=en"
LUDLOW POLICE DEPARTMENT,LUDLOW POLICE DEPARTMENT,612 CHAPIN ST,LUDLOW,MA,01056,"http://maps.google.com/maps?q=612 CHAPIN ST,+LUDLOW,+MA+01056&hl=en"
MAHWAH POLICE DEPARTMENT,MAHWAY POLICE DEPT.,221 FRANKLIN TURNPIKE,MAHWAH,NJ,07430,"http://maps.google.com/maps?q=221 FRANKLIN TURNPIKE,+MAHWAH,+NJ+07430&hl=en"
MASSENA POLICE DEPARTMENT,KINNEY DRUGS,300 MAIN STREET,MASSENA,NY,13662,"http://maps.google.com/maps?q=300 MAIN STREET,+MASSENA,+NY+13662&hl=en"
MASSENA POLICE DEPARTMENT,MASSENA POLICE DEPARTMENT,60 MAIN STREET,MASSENA,NY,13662,"http://maps.google.com/maps?q=60 MAIN STREET,+MASSENA,+NY+13662&hl=en"
MECHANICVILLE POLICE DEPARTMENT,CVS PHARMACY PARKING LOT,12 SOUTH CENTRAL AVENUE,MECHANICVILLE,NY,12118,"http://maps.google.com/maps?q=12 SOUTH CENTRAL AVENUE,+MECHANICVILLE,+NY+12118&hl=en"
MIDDLEBURY POLICE DEPARTMENT,MIDDLEBURY POLICE DEPARTMENT,1 LUCIUS SHAW LN.,MIDDLEBURY,VT,05753,"http://maps.google.com/maps?q=1 LUCIUS SHAW LN.,+MIDDLEBURY,+VT+05753&hl=en"
MIDLAND PARK POLICE DEPARTMENT,MIDLAND PARK POLICE DEPARTMENT,280 GODWIN AVENUE,MIDLAND PARK,NJ,07432,"http://maps.google.com/maps?q=280 GODWIN AVENUE,+MIDLAND PARK,+NJ+07432&hl=en"
MONROE POLICE DEPARTMENT,MONROE SENIOR CENTER,235 CUTLERS FARM ROAD,MONROE,CT,06468,"http://maps.google.com/maps?q=235 CUTLERS FARM ROAD,+MONROE,+CT+06468&hl=en"
MONTAGUE PD,MONTAGUE POLICE,180 TURNPIKE ROAD,TURNERS FALLS,MA,01376,"http://maps.google.com/maps?q=180 TURNPIKE ROAD,+TURNERS FALLS,+MA+01376&hl=en"
MONTICELLO POLICE DEPARTMENT,MONTICELLO POLICE DEPT CHIEF MUIR,2 PLEASANT STREET,MONTICELLO,NY,12701,"http://maps.google.com/maps?q=2 PLEASANT STREET,+MONTICELLO,+NY+12701&hl=en"
MOSCOW BOROUGH POLICE DEPARTMENT,MOSCOW BOROUGH MUNICIPAL BUILDING,123 VAN BRUNT ST,MOSCOW,PA,18444,"http://maps.google.com/maps?q=123 VAN BRUNT ST,+MOSCOW,+PA+18444&hl=en"
NEW BRITAIN POLICE DEPARTMENT,NEW BRITAIN POLICE DEPARTMENT COMMUNITY ROOM - 1ST FLOOR,10 CHESTNUT STREET,NEW BRITAIN,CT,06051,"http://maps.google.com/maps?q=10 CHESTNUT STREET,+NEW BRITAIN,+CT+06051&hl=en"
NEW HARTFORD POLICE DEPARTMENT,NEW HARTFORD POLICE DEPARTMENT,32 KELLOGG RD,NEW HARTFORD,NY,13413,"http://maps.google.com/maps?q=32 KELLOGG RD,+NEW HARTFORD,+NY+13413&hl=en"
NEW PALTZ POLICE DEPARTMENT,NEW PALTZ POLICE STATION DROP BOX IN LOBBY,83 SOUTH PUTT CORNERS ROAD,NEW PALTZ,NY,12561,"http://maps.google.com/maps?q=83 SOUTH PUTT CORNERS ROAD,+NEW PALTZ,+NY+12561&hl=en"
NEW YORK STATE POLICE,NEW YORK STATE POLICE CLIFTON PARK,5 MUNICIPAL PLAZASTATE ROUTE 146,CLIFTON PARK,NY,12065,"http://maps.google.com/maps?q=5 MUNICIPAL PLAZA,+CLIFTON PARK,+NY+12065&hl=en"
NEW YORK STATE POLICE,NEW YORK STATE POLICE SCHODACK,1485 STATE ROUTE 9,CASTLETON,NY,12033,"http://maps.google.com/maps?q=1485 STATE ROUTE 9,+CASTLETON,+NY+12033&hl=en"
NEWFAIRFEILD POLICE DEPARTMENT,NEW FAIRFIELD RESIDENT TROOPERS OFFICE,302 BALL POND ROAD,NEW FAIRFIELD,CT,06812,"http://maps.google.com/maps?q=302 BALL POND ROAD,+NEW FAIRFIELD,+CT+06812&hl=en"
NEWTON POLICE DEPARTMENT,NEWTON POLICE DEPARTMENT,39 TRINITY STREET,NEWTON,NJ,07860,"http://maps.google.com/maps?q=39 TRINITY STREET,+NEWTON,+NJ+07860&hl=en"
NORTH CASTLE POLICE DEPARTMENT,NORTH CASTLE POLICE DEPARTMENT TOWN HALL,15 BEDFORD ROAD,ARMONK,NY,10504,"http://maps.google.com/maps?q=15 BEDFORD ROAD,+ARMONK,+NY+10504&hl=en"
NORTH GREENBUSH POLICE DEPARTMENT,NORTH GREENBUSH POLICE DEPARTMENT CHIEF ROBERT DURIVAGE,133 BLOOMING GROVE DRIVE,TROY,NY,12180,"http://maps.google.com/maps?q=133 BLOOMING GROVE DRIVE,+TROY,+NY+12180&hl=en"
NORTHAMPTON POLICE DEPARTMENT,JOHN F KENNEDY MIDDLE SCHOOL,100 BRIDGE RD,FLORENCE,MA,01062,"http://maps.google.com/maps?q=100 BRIDGE RD,+FLORENCE,+MA+01062&hl=en"
NORTHVALE POLICE DEPARTMENT,NORTHVALE POLICE DEPARTMENT 201-768-5900,116 PARIS AVE.,NORTHVALE,NJ,07647,"http://maps.google.com/maps?q=116 PARIS AVE.,+NORTHVALE,+NJ+07647&hl=en"
NORWOOD POLICE DEPT.,NORWOOD BOROUGH COMMUNITY CENTER,453 BROADWAY,NORWOOD,NJ,07648,"http://maps.google.com/maps?q=453 BROADWAY,+NORWOOD,+NJ+07648&hl=en"
NYS UNIVERSITY POLICE @ ONEONTA,NYS UNIVERSITY POLICE SUNY ONEONTA,ALUMNI HALL51 SOUTH WEST DORM DRIVE,ONEONTA,NY,13820,"http://maps.google.com/maps?q=ALUMNI HALL,+ONEONTA,+NY+13820&hl=en"
OAKLAND POLICE DEPARTMENT,OAKLAND POLICE DEPARTMENT,295 RAMAPO VALLEY ROAD,OAKLAND,NJ,07436,"http://maps.google.com/maps?q=295 RAMAPO VALLEY ROAD,+OAKLAND,+NJ+07436&hl=en"
OGDENSBURG POLICE DEPARTMENT,KINNEY DRUGS,700 CANTON STREET,OGDENSBURG,NY,13669,"http://maps.google.com/maps?q=700 CANTON STREET,+OGDENSBURG,+NY+13669&hl=en"
OLD FORGE POLICE DEPARTMENT,CVS PHARMACY,101 S. MAIN STREET,OLD FORGE,PA,18518,"http://maps.google.com/maps?q=101 S. MAIN STREET,+OLD FORGE,+PA+18518&hl=en"
OLYPHANT POLICE DEPARTMENT,OLYPHANT BOROUGH POLICE STATION,604 EAST PARK STREET,OLYPHANT,PA,18447,"http://maps.google.com/maps?q=604 EAST PARK STREET,+OLYPHANT,+PA+18447&hl=en"
ORANGE COUNTY SHERIFF OFFICE,KINNEY DRUGS PHARMACY,151 VT RT12,RANDOLPH,VT,05060,"http://maps.google.com/maps?q=151 VT RT12,+RANDOLPH,+VT+05060&hl=en"
OSSIPEE POLICE DEPARTMENT,TROY POLICE DEPARTMENT,14 CENTRAL SQUARE,TROY,NH,03465,"http://maps.google.com/maps?q=14 CENTRAL SQUARE,+TROY,+NH+03465&hl=en"
OSWEGO POLICE DEPARTMENT,KINNEY DRUGS,174 W. BRIDGE STREET,OSWEGO,NY,13126,"http://maps.google.com/maps?q=174 W. BRIDGE STREET,+OSWEGO,+NY+13126&hl=en"
OSWEGO POLICE DEPARTMENT,OSWEGO POLICE DEPARTMENT POLICE HQ,169 WEST 2ND STREET,OSWEGO,NY,13126,"http://maps.google.com/maps?q=169 WEST 2ND STREET,+OSWEGO,+NY+13126&hl=en"
OTSEGO COUNTY SHERIFF'S OFFICE,OTSEGO COUNTY SHERIFF'S OFFICE,172 COUNTY HWY 33 WEST,COOPERSTOWN,NY,13326,"http://maps.google.com/maps?q=172 COUNTY HWY 33 WEST,+COOPERSTOWN,+NY+13326&hl=en"
OXFORD RESIDENT STATE TROOPER,OXFORD RESIDENT TROOPER'S OFFICE,429 OXFORD ROAD,OXFORD,CT,06478,"http://maps.google.com/maps?q=429 OXFORD ROAD,+OXFORD,+CT+06478&hl=en"
PD GRANBY CT,GRANBY POLICE DEPARTMENT,15 NORTH GRANBY ROAD,GRANBY,CT,06035,"http://maps.google.com/maps?q=15 NORTH GRANBY ROAD,+GRANBY,+CT+06035&hl=en"
PELHAM POLICE DEPARTMENT,PELHAM POLICE DEPARTMENT,2 SOUTH VALLEY RD,PELHAM,MA,01002,"http://maps.google.com/maps?q=2 SOUTH VALLEY RD,+PELHAM,+MA+01002&hl=en"
PETERBOROUGH POLICE DEPARTMENT,PETERBOROUGH POLICE DEPARTMENT,73 GROVE ST,PETERBOROUGH,NH,03458,"http://maps.google.com/maps?q=73 GROVE ST,+PETERBOROUGH,+NH+03458&hl=en"
PITTSFIELD POLICE DEPARTMENT,PITTSFIELD POLICE DEPARTMENT LT. JOHN SOULES,39 ALLEN STREET,PITTSFIELD,MA,01201,"http://maps.google.com/maps?q=39 ALLEN STREET,+PITTSFIELD,+MA+01201&hl=en"
PLATTSBURGH POLICE DEPARTMENT,KINNEY DRUGS,288 CORNELIA ST,PLATTSBURGH,NY,12901,"http://maps.google.com/maps?q=288 CORNELIA ST,+PLATTSBURGH,+NY+12901&hl=en"
PLATTSBURGH POLICE DEPARTMENT,PLATTSBURGH PD,45 PINE STREET,PLATTSBURGH,NY,12901,"http://maps.google.com/maps?q=45 PINE STREET,+PLATTSBURGH,+NY+12901&hl=en"
POCONO MOUNTAIN REGIONAL POLICE DEPT.,POCONO MOUNTAIN REGIONAL POLICE DEPARTMENT,2454 ROUTE 940,POCONO SUMMIT,PA,18346,"http://maps.google.com/maps?q=2454 ROUTE 940,+POCONO SUMMIT,+PA+18346&hl=en"
POTSDAM POLICE DEPARTMENT,KINNEY DRUGS,48 MAPLE STREET,POTSDAM,NY,13699,"http://maps.google.com/maps?q=48 MAPLE STREET,+POTSDAM,+NY+13699&hl=en"
PULASKI POLICE DEPARTMENT,KINNEY DRUGS,3873 ROME ROAD,PULASKI,NY,13142,"http://maps.google.com/maps?q=3873 ROME ROAD,+PULASKI,+NY+13142&hl=en"
PUTNAM COUNTY SHERIFF'S OFFICE,PUTNAM HOSPITAL CENTER,670 STONLEIGH AVE,CARMEL,NY,10512,"http://maps.google.com/maps?q=670 STONLEIGH AVE,+CARMEL,+NY+10512&hl=en"
RENSSELAER CITY POLICE DEPARTMENT,NORTH END FIRE STATION,2 ST. FRANCIS PLACE,RENSSELAER,NY,12144,"http://maps.google.com/maps?q=2 ST. FRANCIS PLACE,+RENSSELAER,+NY+12144&hl=en"
RENSSELAER COUNTY SHERIFF'S OFFICE,WEST SAND LAKE FIRE DEPARTMENT,3697 NY-43,WEST SAND LAKE,NY,12196,"http://maps.google.com/maps?q=3697 NY-43,+WEST SAND LAKE,+NY+12196&hl=en"
RIDGEFIELD POLICE DEPARTMENT,RITE-AID,125 DANBURY RD,RIDGEFIELD,CT,06877,"http://maps.google.com/maps?q=125 DANBURY RD,+RIDGEFIELD,+CT+06877&hl=en"
RIDGEWOOD POLICE DEPARTMENT,RIDGEWOOD POLICE DEPARTMENT,131 N. MAPLE AVENUE,RIDGEWOOD,NJ,07450,"http://maps.google.com/maps?q=131 N. MAPLE AVENUE,+RIDGEWOOD,+NJ+07450&hl=en"
RINDGE POLICE DEPARTMENT,RINDGE POLICE DEPARTMENT DANIEL ANAIR,158 MAIN STPO BOX 7,RINDGE,NH,03461,"http://maps.google.com/maps?q=158 MAIN ST,+RINDGE,+NH+03461&hl=en"
ROCKLAND COUNTY SHERIFFS OFFICE,ROCKLAND COUNTY SHERIFF OFFICE WALGREENS PARKING LOT,16 ROUTE 59,NYACK,NY,10960,"http://maps.google.com/maps?q=16 ROUTE 59,+NYACK,+NY+10960&hl=en"
ROME POLICE DEPARTMENT,POLICE HQ,301 N. JAMES ST.,ROME,NY,13440,"http://maps.google.com/maps?q=301 N. JAMES ST.,+ROME,+NY+13440&hl=en"
ROTTERDAM POLICE DEPARTMENT,ROTTERDAM PD,101 PRINCETOWN ROAD,ROTTERDAM,NY,12306,"http://maps.google.com/maps?q=101 PRINCETOWN ROAD,+ROTTERDAM,+NY+12306&hl=en"
RUTLAND COUNTY SHERIFF'S DEPARTMENT,DIAMOND RUN MALL,46 DIAMOND RUN MALL PLACE,RUTLAND,VT,05701,"http://maps.google.com/maps?q=46 DIAMOND RUN MALL PLACE,+RUTLAND,+VT+05701&hl=en"
SARATOGA COUNTY SHERIFF OFFICE,CLIFTON PARK-HALFMOON EMERGENCY SQUAD,15 CROSSING BLVD.,CLIFTON PARK,NY,12065,"http://maps.google.com/maps?q=15 CROSSING BLVD.,+CLIFTON PARK,+NY+12065&hl=en"
SARATOGA COUNTY SHERIFF OFFICE,MOREAU EMERGENCY SQUAD,1583 ROUTE 9,FORT EDWARD,NY,12828,"http://maps.google.com/maps?q=1583 ROUTE 9,+FORT EDWARD,+NY+12828&hl=en"
SARATOGA POLICE DEPARTMENT,SARATOGA HOSPITAL MYRTLE STREET PARKING LOT- ER ENTRANCE,211 CHURCH STREET,SARATOGA SPRINGS,NY,12866,"http://maps.google.com/maps?q=211 CHURCH STREET,+SARATOGA SPRINGS,+NY+12866&hl=en"
SARATOGA POLICE DEPARTMENT,SARATOGA POLICE DEPARTMENT MAPLE AVENUE- BEHIND CITY HALL,474 BROADWAY,SARATOGA SPRINGS,NY,12866,"http://maps.google.com/maps?q=474 BROADWAY,+SARATOGA SPRINGS,+NY+12866&hl=en"
SCHENECTADY COUNTY SHERIFF'S OFFICE,SCHENECTADY COUNTY SHERIFF'S SUBSTATION,130 PRINCETOWN PLAZA,SCHENECTADY,NY,12306,"http://maps.google.com/maps?q=130 PRINCETOWN PLAZA,+SCHENECTADY,+NY+12306&hl=en"
SCHENECTADY POLICE DEPARTMENT,SCHENECTADY POLICE DEPARTMENT,531 LIBERTY ST.,SCHENECTADY,NY,12305,"http://maps.google.com/maps?q=531 LIBERTY ST.,+SCHENECTADY,+NY+12305&hl=en"
SCHODACK POLICE DEPARTMENT,POLICE DEPARTMENT,1797 COLUMBIA TURNPIKE,CASTLETON,NY,12033,"http://maps.google.com/maps?q=1797 COLUMBIA TURNPIKE,+CASTLETON,+NY+12033&hl=en"
SCOTIA POLICE DEPARTMENT,SCOTIA POLICE DEPARTMENT,4 NORTH TEN BROECK STREET,SCOTIA,NY,12302,"http://maps.google.com/maps?q=4 NORTH TEN BROECK STREET,+SCOTIA,+NY+12302&hl=en"
SHELBURNE POLICE DEPARTMENT,SHELBURNE POLICE DEPARTMENT,5420 SHELBURNE ROAD,SHELBURNE,VT,05482,"http://maps.google.com/maps?q=5420 SHELBURNE ROAD,+SHELBURNE,+VT+05482&hl=en"
SHERMAN RESIDENT TROOPER OFFICE,SHERMAN RESIDENT TROOPERS OFFICE,1 RT 39 N,SHERMAN,CT,06784,"http://maps.google.com/maps?q=1 RT 39 N,+SHERMAN,+CT+06784&hl=en"
SHERRILL POLICE DEPARTMENT,SHERRILL POLICE DEPARTMENT POLICE HQ,373 SHERRILL ROAD,SHERRILL,NY,13461,"http://maps.google.com/maps?q=373 SHERRILL ROAD,+SHERRILL,+NY+13461&hl=en"
SIDNEY POLICE DEPARTMENT,SIDNEY POLICE DEPARTMENT,21 LIBERTY STREET,SIDNEY,NY,13838,"http://maps.google.com/maps?q=21 LIBERTY STREET,+SIDNEY,+NY+13838&hl=en"
SOUTH BURLINGTON POLICE DEPARTMENT,UNIVERSITY MALL,155 DORSET STREET,SOUTH BURLINGTON,VT,05403,"http://maps.google.com/maps?q=155 DORSET STREET,+SOUTH BURLINGTON,+VT+05403&hl=en"
SOUTH WINDSOR POLICE DEPARTMENT,SOUTH WINDSOR POLICE DEPARTMENT,151 SAND HILL RD,SOUTH WINDSOR,CT,06074,"http://maps.google.com/maps?q=151 SAND HILL RD,+SOUTH WINDSOR,+CT+06074&hl=en"
SOUTHAMPTON POLICE DEPARTMENT,SOUTHAMPTON FIRE/TOWN HALL PARKING LOT IF RAIN-INSIDE TOWN HALL,210 COLLEGE HIGHWAY,SOUTHAMPTON,MA,01073,"http://maps.google.com/maps?q=210 COLLEGE HIGHWAY,+SOUTHAMPTON,+MA+01073&hl=en"
SOUTHBURY POLICE,"SOUTHBURY POLICE DEPARTMENT SGT. BRIAN VAN NESS, #138",421 MAIN STREET SOUTH,SOUTHBURY,CT,06488,"http://maps.google.com/maps?q=421 MAIN STREET SOUTH,+SOUTHBURY,+CT+06488&hl=en"
SPRING VALLEY POLICE,SPRING VALLEY POLICE DEPARTMENT,200 NORTH MAIN STREET,SPRING VALLEY,NY,10977,"http://maps.google.com/maps?q=200 NORTH MAIN STREET,+SPRING VALLEY,+NY+10977&hl=en"
SPRING VALLEY POLICE,WALGREENS,208 E ROUTE 59,SPRING VALLEY,NY,10977,"http://maps.google.com/maps?q=208 E ROUTE 59,+SPRING VALLEY,+NY+10977&hl=en"
SPRINGFIELD POLICE DEPARTMENT,CENTRAL HIGH SCHOOL,1840 ROOSEVELT AVE,SPRINGFIELD,MA,01109,"http://maps.google.com/maps?q=1840 ROOSEVELT AVE,+SPRINGFIELD,+MA+01109&hl=en"
ST. JOHNSVILLE POLICE DEPARTMENT,KINNEY'S DRUGS,12 PARK PLACE,SAINT JOHNSVILLE,NY,13452,"http://maps.google.com/maps?q=12 PARK PLACE,+SAINT JOHNSVILLE,+NY+13452&hl=en"
ST. LAWRENCE COUNTY SHERIFF'S OFFICE,ST. LAWRENCE COUNTY SHERIFF'S OFFICE,48 COURT STREET,CANTON,NY,13617,"http://maps.google.com/maps?q=48 COURT STREET,+CANTON,+NY+13617&hl=en"
STAMFORD POLICE DEPARTMENT,STAMFORD POLICE DEPARTMENT,805 BEDFORD STREET,STAMFORD,CT,06901,"http://maps.google.com/maps?q=805 BEDFORD STREET,+STAMFORD,+CT+06901&hl=en"
STATE POLICE TROOP L,TROOP L RESIDENT TROOPERS OFFICE,452 BANTAM RD,LITCHFIELD,CT,06759,"http://maps.google.com/maps?q=452 BANTAM RD,+LITCHFIELD,+CT+06759&hl=en"
STONY POINT POLICE DEPARTMENT,WALGREENS,135 SOUTH LIBERTY DRIVE,STONY POINT,NY,10980,"http://maps.google.com/maps?q=135 SOUTH LIBERTY DRIVE,+STONY POINT,+NY+10980&hl=en"
SULLIVAN COUNTY SHERIFF'S OFFICE,SULLIVAN COUNTY MUNICIPAL COMPLEX SHERIFF JOHN SIMONDS,14 MAIN STREET,NEWPORT,NH,03773,"http://maps.google.com/maps?q=14 MAIN STREET,+NEWPORT,+NH+03773&hl=en"
SUNDERLAND POLICE DEPARTMENT,SUNDERLAND POLICE DEPARTMENT,105 RIVER ROAD,SUNDERLAND,MA,01375,"http://maps.google.com/maps?q=105 RIVER ROAD,+SUNDERLAND,+MA+01375&hl=en"
SUNY UPSTATE UNIVERSITY POLICE,UPSTATE MEDICAL UNIVERSITY COMMUNITY CAMPUS,4900 BROAD ROAD,SYRACUSE,NY,13215,"http://maps.google.com/maps?q=4900 BROAD ROAD,+SYRACUSE,+NY+13215&hl=en"
SUSQUEHANNA COUNTY SHERIFF'S OFFICE,SUSQUEHANNA COUNTY COURTHOUSE,31 LAKE AVENUE,MONTROSE,PA,18801,"http://maps.google.com/maps?q=31 LAKE AVENUE,+MONTROSE,+PA+18801&hl=en"
SYRACUSE POLICE DEPARTMENT,KINNEY DRUGS,104 LAFAYETTE RD.,SYRACUSE,NY,13205,"http://maps.google.com/maps?q=104 LAFAYETTE RD.,+SYRACUSE,+NY+13205&hl=en"
SYRACUSE POLICE DEPARTMENT,KINNEY DRUGS,2912 JAMES ST,SYRACUSE,NY,13206,"http://maps.google.com/maps?q=2912 JAMES ST,+SYRACUSE,+NY+13206&hl=en"
SYRACUSE POLICE DEPARTMENT,KINNEY DRUGS,406 BUTTERNUT STREET,SYRACUSE,NY,13208,"http://maps.google.com/maps?q=406 BUTTERNUT STREET,+SYRACUSE,+NY+13208&hl=en"
THOMASTON POLICE DEPARTMENT,THOMASTON POLICE DEPARTMENT,158 MAIN ST,THOMASTON,CT,06787,"http://maps.google.com/maps?q=158 MAIN ST,+THOMASTON,+CT+06787&hl=en"
TICONDERGOA POLICE DEPARTMENT,TICONDEROGA POLICE DEPARTMENT,135 BURGOYNE ROAD,TICONDEROGA,NY,12883,"http://maps.google.com/maps?q=135 BURGOYNE ROAD,+TICONDEROGA,+NY+12883&hl=en"
TIOGA COUNTY SHERIFF'S OFFICE,TIOGA COUNTY SHERIFF'S OFFICE TRINITY-CASA OF TIOGA,ACROSS FROM AGWAY6 MCMASTER ST.,OWEGO,NY,13827,"http://maps.google.com/maps?q=ACROSS FROM AGWAY,+OWEGO,+NY+13827&hl=en"
TOMPKINS COUNTY SHERIFF'S OFFICE,SHERIFF'S HQ,779 WARREN ROAD,ITHACA,NY,14850,"http://maps.google.com/maps?q=779 WARREN ROAD,+ITHACA,+NY+14850&hl=en"
TOMPKINS COUNTY SHERIFF'S OFFICE,SLATERVILLE FIRE STATION,2681 SLATERVILLE RD.,SLATERVILLE SPRINGS,NY,14881,"http://maps.google.com/maps?q=2681 SLATERVILLE RD.,+SLATERVILLE SPRINGS,+NY+14881&hl=en"
TOWN OF NISKAYUNA POLICE DEPARTMENT,NISKAYUNA TOWN HALL,1 NISKAYUNA CIRCLE,NISKAYUNA,NY,12309,"http://maps.google.com/maps?q=1 NISKAYUNA CIRCLE,+NISKAYUNA,+NY+12309&hl=en"
"TOWN OF SOUTH HADLEY, POLICE DEPARTMENT","TOWN OF SOUTH HADLEY, POLICE DEPARTMENT CHIEF STEVE PARENTELA",41 BRIDGE STREET,SOUTH HADLEY,MA,01075,"http://maps.google.com/maps?q=41 BRIDGE STREET,+SOUTH HADLEY,+MA+01075&hl=en"
TOWN OF VESTAL POLICE,TOWN OF VESTAL POLICE STATION FRONT LOBBY,605 VESTAL PARKWAY WEST,VESTAL,NY,13850,"http://maps.google.com/maps?q=605 VESTAL PARKWAY WEST,+VESTAL,+NY+13850&hl=en"
TROOP B,TROOP-B,463 ASHLEY FALLS RD,NORTH CANAAN,CT,06018,"http://maps.google.com/maps?q=463 ASHLEY FALLS RD,+NORTH CANAAN,+CT+06018&hl=en"
TROY POLICE DEPARTMENT,TROY POLICE DEPARTMENT,55 STATE STREET,TROY,NY,12180,"http://maps.google.com/maps?q=55 STATE STREET,+TROY,+NY+12180&hl=en"
TRUMBULL POLICE DEPARTMENT,MIDDLEBROOK SCHOOL,200 MIDDLEBROOKS AVE.,TRUMBULL,CT,06611,"http://maps.google.com/maps?q=200 MIDDLEBROOKS AVE.,+TRUMBULL,+CT+06611&hl=en"
UNIVERSITY OF VERMONT POLICE,UNIVERSITY OF VERMONT POLICE DUDLEY DAVIS CENTER FIRST FLOOR ATRIUM,284 EAST AVENUE,BURLINGTON,VT,05405,"http://maps.google.com/maps?q=284 EAST AVENUE,+BURLINGTON,+VT+05405&hl=en"
UPPER SADDLE RIVER POLICE DEPARTMENT,UPPER SADDLE RIVER POLICE DEPARTMENT 201-327-2700,368 W. SADDLE RIVER RD.,SADDLE RIVER,NJ,07458,"http://maps.google.com/maps?q=368 W. SADDLE RIVER RD.,+SADDLE RIVER,+NJ+07458&hl=en"
VERMONT STATE POLICE,VERMONT STATE POLICE - NEW HAVEN BARRACKS,2490 ETHAN ALLEN HIGHWAY,NEW HAVEN,VT,05472,"http://maps.google.com/maps?q=2490 ETHAN ALLEN HIGHWAY,+NEW HAVEN,+VT+05472&hl=en"
VERMONT STATE POLICE,VERMONT STATE POLICE - RUTLAND BARRACKS,124 STATE PLACE,RUTLAND,VT,05701,"http://maps.google.com/maps?q=124 STATE PLACE,+RUTLAND,+VT+05701&hl=en"
VERMONT STATE POLICE,VERMONT STATE POLICE - SHAFTSBURY BARRACKS,96 AIRPORT ROAD,SHAFTSBURY,VT,05262,"http://maps.google.com/maps?q=96 AIRPORT ROAD,+SHAFTSBURY,+VT+05262&hl=en"
VERMONT STATE POLICE,VERMONT STATE POLICE - WESTMINSTER BARRACKS,1330 WESTMINSTER HIGHTS ROAD,PUTNEY,VT,05346,"http://maps.google.com/maps?q=1330 WESTMINSTER HIGHTS ROAD,+PUTNEY,+VT+05346&hl=en"
VILLAGE OF DOBBS FERRY POLICE DEPARTMENT,VILLAGE OF DOBBS FERRY,112 MAIN STREET,DOBBS FERRY,NY,10522,"http://maps.google.com/maps?q=112 MAIN STREET,+DOBBS FERRY,+NY+10522&hl=en"
VILLAGE OF HASTINGS ON HUDSON PD,HASTINGS POLICE DEPARTMENT,7 MAPLE AVENUE,HASTINGS ON HUDSON,NY,10706,"http://maps.google.com/maps?q=7 MAPLE AVENUE,+HASTINGS ON HUDSON,+NY+10706&hl=en"
VILLAGE OF HASTINGS ON HUDSON PD,VILLAGE OF HASTINGS ON HUDSON PD,44 MAIN STREET,HASTINGS ON HUDSON,NY,10706,"http://maps.google.com/maps?q=44 MAIN STREET,+HASTINGS ON HUDSON,+NY+10706&hl=en"
VILLAGE OF MALONE POLICE DEPARTMENT,KINNEY DRUGS,485 E MAIN STREET,MALONE,NY,12953,"http://maps.google.com/maps?q=485 E MAIN STREET,+MALONE,+NY+12953&hl=en"
VILLAGE OF OSSINING POLICE DEPARTMENT,BIRDSALL FAGAN POLICE/COURT FACILITY COURT LOBBY,86-88 SPRING STREET,OSSINING,NY,10562,"http://maps.google.com/maps?q=86-88 SPRING STREET,+OSSINING,+NY+10562&hl=en"
VILLAGE OF RHINEBECK POLICE,NORTHERN DUTCHESS HOSPITAL,6511 SPRINGBROOK AVE,RHINEBECK,NY,12572,"http://maps.google.com/maps?q=6511 SPRINGBROOK AVE,+RHINEBECK,+NY+12572&hl=en"
WARREN COUNTY SHERIFF'S OFFICE,WARREN COUNTY SHERIFF'S OFFICE,1400 STATE ROUTE 9,LAKE GEORGE,NY,12845,"http://maps.google.com/maps?q=1400 STATE ROUTE 9,+LAKE GEORGE,+NY+12845&hl=en"
WASHINGTON POLICE DEPARTMENT,WASHINGTON POLICE DEPARTMENT,5 HALFMOON POND RD.,WASHINGTON,NH,03280,"http://maps.google.com/maps?q=5 HALFMOON POND RD.,+WASHINGTON,+NH+03280&hl=en"
WATERBURY POLICE DEPARTMENT,WATERBURY POLICE DEPARTMENT FRONT LOBBY SAFE DISPOSAL,255 EAST MAIN ST,WATERBURY,CT,06702,"http://maps.google.com/maps?q=255 EAST MAIN ST,+WATERBURY,+CT+06702&hl=en"
WATERTOWN POLICE DEPARTMENT,KINNEY DRUGS,905 COFFEEN STREET,WATERTOWN,NY,13601,"http://maps.google.com/maps?q=905 COFFEEN STREET,+WATERTOWN,+NY+13601&hl=en"
WATERVLIET POLICE DEPARTMENT,WATERVLIET POLICE DEPARTMENT,2-15TH STREET,WATERVLIET,NY,12189,"http://maps.google.com/maps?q=2-15TH STREET,+WATERVLIET,+NY+12189&hl=en"
WEST HARTFORD POLICE DEPARTMENT,WETS HARTFORD PUBLIC WORKS LT SAM FERRUCCI,17 BRIXTON ST,WEST HARTFORD,CT,06107,"http://maps.google.com/maps?q=17 BRIXTON ST,+WEST HARTFORD,+CT+06107&hl=en"
WEST SPRINGFIELD POLICE DEPARTMENT,WEST SPRINGFIELD POLICE DEPARTMENT,26 CENTRAL STREET,WEST SPRINGFIELD,MA,01089,"http://maps.google.com/maps?q=26 CENTRAL STREET,+WEST SPRINGFIELD,+MA+01089&hl=en"
WESTCHESTER COUNTY POLICE,NORTHERN WESTCHESTER HOSPITAL MAIN LOBBY,400 MAIN ST.,MOUNT KISCO,NY,10549,"http://maps.google.com/maps?q=400 MAIN ST.,+MOUNT KISCO,+NY+10549&hl=en"
WILLIAMSBURG POLICE DEPT.,WILLIAMSBURG PHARMACY,49 MAIN ST,WILLIAMSBURG,MA,01096,"http://maps.google.com/maps?q=49 MAIN ST,+WILLIAMSBURG,+MA+01096&hl=en"
WINCHESTER POLICE DEPARTMENT,WINCHESTER POLICE DEPARTMENT LT. MIKE T. TOLLETT,6 PARKER STREET,WINCHESTER,NH,03470,"http://maps.google.com/maps?q=6 PARKER STREET,+WINCHESTER,+NH+03470&hl=en"
WINDHAM COUNTY SHERIFF'S OFFICE,BELLOWS FALLS POLICE DEPARTMENT,170 ROCKINGHAM STRREET,BELLOWS FALLS,VT,05101,"http://maps.google.com/maps?q=170 ROCKINGHAM STRREET,+BELLOWS FALLS,+VT+05101&hl=en"
WINDHAM COUNTY SHERIFF'S OFFICE,BRATTLEBORO POLICE DEPARTMENT,62 BLACK MOUNTAIN ROAD,BRATTLEBORO,VT,05301,"http://maps.google.com/maps?q=62 BLACK MOUNTAIN ROAD,+BRATTLEBORO,+VT+05301&hl=en"
WINDHAM COUNTY SHERIFF'S OFFICE,WILMINGTON POLICE DEPARTMENT,2 EAST MAIN STREET,WILMINGTON,VT,05363,"http://maps.google.com/maps?q=2 EAST MAIN STREET,+WILMINGTON,+VT+05363&hl=en"
WINDHAM COUNTY SHERIFF'S OFFICE,WINDHAM COUNTY SHERIFF'S OFFICE,11 JAIL STREET,NEWFANE,VT,05345,"http://maps.google.com/maps?q=11 JAIL STREET,+NEWFANE,+VT+05345&hl=en"
WINDSOR COUNTY SHERIFF'S DEPARTMENT,CHESTER POLICE DEPARTMENT,556 ELM STREET,CHESTER,VT,05143,"http://maps.google.com/maps?q=556 ELM STREET,+CHESTER,+VT+05143&hl=en"
WINDSOR COUNTY SHERIFF'S DEPARTMENT,LUDLOW POLICE DEPARTMENT,19 WEST HILL ROAD,LUDLOW,VT,05149,"http://maps.google.com/maps?q=19 WEST HILL ROAD,+LUDLOW,+VT+05149&hl=en"
WINDSOR COUNTY SHERIFF'S DEPARTMENT,ROYALTON POLICE DEPARTMENT,2460 VT RT 14,SOUTH ROYALTON,VT,05068,"http://maps.google.com/maps?q=2460 VT RT 14,+SOUTH ROYALTON,+VT+05068&hl=en"
WINDSOR COUNTY SHERIFF'S DEPARTMENT,SPRINGFIELD POLICE DEPARTMENT,201 CLINTON STREET,SPRINGFIELD,VT,05156,"http://maps.google.com/maps?q=201 CLINTON STREET,+SPRINGFIELD,+VT+05156&hl=en"
WINDSOR COUNTY SHERIFF'S DEPARTMENT,VERMONT STATE POLICE - ROYALTON BARRACKS,2011 VT RT 107,SOUTH ROYALTON,VT,05068,"http://maps.google.com/maps?q=2011 VT RT 107,+SOUTH ROYALTON,+VT+05068&hl=en"
WINDSOR COUNTY SHERIFF'S DEPARTMENT,WEATHERSFIELD TRANSFER STATION WEATHERSFIELD POLICE DEPARTMENT,5024 VT RT 106,PERKINSVILLE,VT,05151,"http://maps.google.com/maps?q=5024 VT RT 106,+PERKINSVILLE,+VT+05151&hl=en"
WINDSOR COUNTY SHERIFF'S DEPARTMENT,WINDSOR POLICE DEPARTMENT,29 UNION STREET,WINDSOR,VT,05089,"http://maps.google.com/maps?q=29 UNION STREET,+WINDSOR,+VT+05089&hl=en"
WINDSOR COUNTY SHERIFF'S DEPARTMENT,WOODSTOCK POLICE DEPARTMENT,454 WOODSTOCK ROAD,WOODSTOCK,VT,05091,"http://maps.google.com/maps?q=454 WOODSTOCK ROAD,+WOODSTOCK,+VT+05091&hl=en"
WINHALL POLICE & RESCUE DEPT,WINHALL POLICE & RESCUE,113 VERMONT ROUTE 30,BONDVILLE,VT,05340,"http://maps.google.com/maps?q=113 VERMONT ROUTE 30,+BONDVILLE,+VT+05340&hl=en"
WOLCOTT CT. POLICE DEPT.,WOLCOTT POLICE DEPT.,225 NICHOLS RD,WOLCOTT,CT,06716,"http://maps.google.com/maps?q=225 NICHOLS RD,+WOLCOTT,+CT+06716&hl=en"
WOODBURY RESIDENT TROOPERS OFFICE,WOODBURY RESIDENT TROOPER'S OFFICE,281 MAIN STREET SOUTH,WOODBURY,CT,06798,"http://maps.google.com/maps?q=281 MAIN STREET SOUTH,+WOODBURY,+CT+06798&hl=en"
WORTHINGTON POLICE DEPARTMENT,COMPACTOR,64 HUNTINGTON ROAD,WORTHINGTON,MA,01098,"http://maps.google.com/maps?q=64 HUNTINGTON ROAD,+WORTHINGTON,+MA+01098&hl=en"
WYOMING COUNTY DISTRICT ATTORNEYS OFFIC DETECTIVES,CVS PHARMACY,BUSINESS ROUTE 6 AND SR 29,TUNKHANNOCK,PA,18657,"http://maps.google.com/maps?q=BUSINESS ROUTE 6 AND SR 29,+TUNKHANNOCK,+PA+18657&hl=en"
WYOMING COUNTY DISTRICT ATTORNEYS OFFIC DETECTIVES,LECH'S PHARMACY,SR0006,TUNKHANNOCK,PA,18657,"http://maps.google.com/maps?q=SR0006,+TUNKHANNOCK,+PA+18657&hl=en"
WYOMING COUNTY DISTRICT ATTORNEYS OFFIC DETECTIVES,RITE AID,420 TIOGA PLZ,TUNKHANNOCK,PA,18657,"http://maps.google.com/maps?q=420 TIOGA PLZ,+TUNKHANNOCK,+PA+18657&hl=en"
