Participant,CollectionSite,Address,City,State,Zip,MapURL
10TH JUDICIAL DISTRICT DRUG TASK FORCE,MCGEHEE POLICE DEPARTMENT,2412 HIGHWAY 65,MC GEHEE,AR,71654,"http://maps.google.com/maps?q=2412 HIGHWAY 65,+MC GEHEE,+AR+71654&hl=en"
13TH JUDICIAL DTF,ELDORADO POLICE DEPARTMENT,402 NORTH WEST AVE,EL DORADO,AR,71730,"http://maps.google.com/maps?q=402 NORTH WEST AVE,+EL DORADO,+AR+71730&hl=en"
1ST JUDICIAL DISTRICT DRUG TASK FORCE,1ST JUDICIAL DISTRICT DRUG TASK FORCE PERMANENT DROP BOX,113 S. MAIN ST.,CLARENDON,AR,72029,"http://maps.google.com/maps?q=113 S. MAIN ST.,+CLARENDON,+AR+72029&hl=en"
20TH JUDICIAL DISCTICT DRUG CRIME TASK FORCE,20TH JUDICIAL DRUG CRIME TASK FORCE PERMANENT DROP BOX,P.O.BOX 550,CONWAY,AR,72033,"http://maps.google.com/maps?q=P.O.BOX 550,+CONWAY,+AR+72033&hl=en"
25TH JUDICIAL DRUG TASK FORCE,25TH JUDICIAL DISTRICT ATTORNEYS,121 N MAIN STREET,RIPLEY,TN,38063,"http://maps.google.com/maps?q=121 N MAIN STREET,+RIPLEY,+TN+38063&hl=en"
ALABAMA BOARD OF PHARMACY,ALABAMA BOARD OF PHARMACY,111 VILLAGE STREET,BIRMINGHAM,AL,35242,"http://maps.google.com/maps?q=111 VILLAGE STREET,+BIRMINGHAM,+AL+35242&hl=en"
ALEXANDER POLICE DEPARTMENT,ALEXANDER POLICE DEPARTMENT CITY HALL,15605 ALEXANDER ROAD,ALEXANDER,AR,72002,"http://maps.google.com/maps?q=15605 ALEXANDER ROAD,+ALEXANDER,+AR+72002&hl=en"
ARKANSAS COMMUNITY CORRECTION,ARKANSAS COMMUNITY CORRECTION CENTER,4823 WEST 7TH STREET,LITTLE ROCK,AR,72205,"http://maps.google.com/maps?q=4823 WEST 7TH STREET,+LITTLE ROCK,+AR+72205&hl=en"
ATOKA POLICE DEPT.,ATOKA PD,68 ATOKA-MCLAUGHLIN,ATOKA,TN,38004,"http://maps.google.com/maps?q=68 ATOKA-MCLAUGHLIN,+ATOKA,+TN+38004&hl=en"
BARTLETT PD,KROGER HWY 70 / APPLING RD,7615 HWY 70,BARTLETT,TN,38133,"http://maps.google.com/maps?q=7615 HWY 70,+BARTLETT,+TN+38133&hl=en"
BATESVILLE POLICE DEPARTMENT,KROGER,110 KEATING RD,BATESVILLE,MS,38606,"http://maps.google.com/maps?q=110 KEATING RD,+BATESVILLE,+MS+38606&hl=en"
BEEBE POLICE DEPARTMENT,BEEBE POLICE DEPARTMENT,201 WEST ILLINOIS STREET,BEEBE,AR,72012,"http://maps.google.com/maps?q=201 WEST ILLINOIS STREET,+BEEBE,+AR+72012&hl=en"
BENTON POLICE DEPARTMENT,BENTON POLICE DEPARTMENT PERMANENT DROP BOX,114 S. EAST STREET #100,BENTON,AR,72015,"http://maps.google.com/maps?q=114 S. EAST STREET #100,+BENTON,+AR+72015&hl=en"
BENTON POLICE DEPARTMENT,FERGUSON'S FURNITURE PARKING LOT,1200 FERGUSON DRIVE,BENTON,AR,72015,"http://maps.google.com/maps?q=1200 FERGUSON DRIVE,+BENTON,+AR+72015&hl=en"
BENTON POLICE DEPARTMENT,KROGER MARKETPLACE,20820 I-30,BENTON,AR,72019,"http://maps.google.com/maps?q=20820 I-30,+BENTON,+AR+72019&hl=en"
BESSEMER POLICE DEPARTMENT,BESSEMER POLICE DEPARTMENT,23 15TH STREET NORTH,BESSEMER,AL,35020,"http://maps.google.com/maps?q=23 15TH STREET NORTH,+BESSEMER,+AL+35020&hl=en"
BRANDON POLICE DEPARTMENT,BRANDON POLICE DEPARTMENT,1455 WEST GOVERNMENT STREET,BRANDON,MS,39042,"http://maps.google.com/maps?q=1455 WEST GOVERNMENT STREET,+BRANDON,+MS+39042&hl=en"
BRENTWOOD POLICE DEPARTMENT,BRENTWOOD POLICE DEPARTMENT,5211 MARYLAND WAY,BRENTWOOD,TN,37027,"http://maps.google.com/maps?q=5211 MARYLAND WAY,+BRENTWOOD,+TN+37027&hl=en"
BROWNSVILLE POLICE DEPARTMENT,BROWNSVILLE POLICE DEPARTMENT,118 N.LAFAYETTE ST.,BROWNSVILLE,TN,38012,"http://maps.google.com/maps?q=118 N.LAFAYETTE ST.,+BROWNSVILLE,+TN+38012&hl=en"
BRYANT POLICE DEPARTMENT,BRYANT POLICE DEPARTMENT PERMANENT DROP BOX,312 ROYA LANE,BRYANT,AR,72022,"http://maps.google.com/maps?q=312 ROYA LANE,+BRYANT,+AR+72022&hl=en"
BRYANT POLICE DEPARTMENT,WALMART,400 BRYANT AVE,BRYANT,AR,72022,"http://maps.google.com/maps?q=400 BRYANT AVE,+BRYANT,+AR+72022&hl=en"
CABOT POLICE DEPARTMENT,CABOT POLICE DEPARTMENT PERMANENT DROP BOX,101 NORTH SECOND STREET,CABOT,AR,72023,"http://maps.google.com/maps?q=101 NORTH SECOND STREET,+CABOT,+AR+72023&hl=en"
CABOT POLICE DEPARTMENT,EXPRESS RX,1848 WEST MAIN STREET,CABOT,AR,72023,"http://maps.google.com/maps?q=1848 WEST MAIN STREET,+CABOT,+AR+72023&hl=en"
CALHOUN COUNTY SHERIFF'S DEPARTMENT,CALHOUN COUNTY DETENTION CENTER PERMANENT DROP BOX,449 9TH ST,HAMPTON,AR,71744,"http://maps.google.com/maps?q=449 9TH ST,+HAMPTON,+AR+71744&hl=en"
CALHOUN COUNTY SHERIFF'S OFFFICE,CALHOUN COUNTY SHERIFF'S OFFICE,178 S. MURPHREE ST.,PITTSBORO,MS,38951,"http://maps.google.com/maps?q=178 S. MURPHREE ST.,+PITTSBORO,+MS+38951&hl=en"
CAMDEN POLICE DEPT.,CAMDEN POLICE DEPT.,119 W. MAIN ST.,CAMDEN,TN,38320,"http://maps.google.com/maps?q=119 W. MAIN ST.,+CAMDEN,+TN+38320&hl=en"
CAMP ROBINSON POLICE DEPARTMENT,CAMP ROBINSON POLICE DEPARTMENT PERMANENT DROP BOX,7200 ARKANSAS AVECAMP ROBINSON,NORTH LITTLE ROCK,AR,72199,"http://maps.google.com/maps?q=7200 ARKANSAS AVE,+NORTH LITTLE ROCK,+AR+72199&hl=en"
CARLISLE POLICE DEPARTMENT,CARLISLE POLICE DEPARTMENT PERMANENT DROP BOX,120 W. MAIN STREET,CARLISLE,AR,72024,"http://maps.google.com/maps?q=120 W. MAIN STREET,+CARLISLE,+AR+72024&hl=en"
CHAPEL HILL POLICE DEPT.,CHAPEL HILL POLICE DEPT.,119 N. HORTON PKWY,CHAPEL HILL,TN,37034,"http://maps.google.com/maps?q=119 N. HORTON PKWY,+CHAPEL HILL,+TN+37034&hl=en"
CHEATHAM CO SHERIFF OFFICE,KINGSTON SPRINGS PHARMACY,111 E KINGSTON RD #103,KINGSTON SPRINGS,TN,37082,"http://maps.google.com/maps?q=111 E KINGSTON RD #103,+KINGSTON SPRINGS,+TN+37082&hl=en"
CHEATHAM CO SHERIFF OFFICE,WALMART,1626 HWY 12- SOUTH,ASHLAND CITY,TN,37015,"http://maps.google.com/maps?q=1626 HWY 12- SOUTH,+ASHLAND CITY,+TN+37015&hl=en"
CHESTER COUNTY SHERIFFS OFFICE,CHESTER COUNTY SHERIFF'S OFFICE,333 ERIC BELL DR.,HENDERSON,TN,38340,"http://maps.google.com/maps?q=333 ERIC BELL DR.,+HENDERSON,+TN+38340&hl=en"
CHICOT COUNTY SHERIFF'S OFFICE,CHICOT COUNTY SHERIFF'S OFFICE,513 MAIN STREET,LAKE VILLAGE,AR,71653,"http://maps.google.com/maps?q=513 MAIN STREET,+LAKE VILLAGE,+AR+71653&hl=en"
CHOCTAW POLICE DEPARTMENT,CHOCTAW POLICE DEPARTMENT JOHN SMITH JUSTICE COMPLEX,125 RIVER RIDGE CIRCLE,CHOCTAW,MS,39350,"http://maps.google.com/maps?q=125 RIVER RIDGE CIRCLE,+CHOCTAW,+MS+39350&hl=en"
CLANTON POLICE DEPARTMENT,CVS PHARMACY,1105 7TH STREET NORTH,CLANTON,AL,35045,"http://maps.google.com/maps?q=1105 7TH STREET NORTH,+CLANTON,+AL+35045&hl=en"
CLEBURNE COUNTY SHERIFF'S OFFICE,CLEBURNE COUNTY SHERIFF'S OFFICE PERMANENT DROP BOX,914 SOUTH 9TH STREET,HEBER SPRINGS,AR,72543,"http://maps.google.com/maps?q=914 SOUTH 9TH STREET,+HEBER SPRINGS,+AR+72543&hl=en"
CLEVELAND COUNTY SHERIFF'S DEPARTMENT,CLEVELAND COUNTY SHERIFF'S DEPARTMENT,20 MAGNOLIA STREET,RISON,AR,71665,"http://maps.google.com/maps?q=20 MAGNOLIA STREET,+RISON,+AR+71665&hl=en"
CLEVELAND POLICE DEPARTMENT,CLEVELAND POLICE DEPARTMENT,301 S. SHARPE AVENUE,CLEVELAND,MS,38732,"http://maps.google.com/maps?q=301 S. SHARPE AVENUE,+CLEVELAND,+MS+38732&hl=en"
CLINTON POLICE DEPARTMENT,KROGER PARKING LOT,107 HIGHWAY 80 E.,CLINTON,MS,39056,"http://maps.google.com/maps?q=107 HIGHWAY 80 E.,+CLINTON,+MS+39056&hl=en"
COLLIERVILLE POLICE DEPARTMENT,COLLIERVILLE POLICE DEPARTMENT,156 N. ROWLETT COLLIERVILLE,COLLIERVILLE,TN,38017,"http://maps.google.com/maps?q=156 N. ROWLETT COLLIERVILLE,+COLLIERVILLE,+TN+38017&hl=en"
COLUMBUS POLICE DEPARTMENT,COLUMBUS POLICE DEPARTMENT,1501 MAIN ST.,COLUMBUS,MS,39701,"http://maps.google.com/maps?q=1501 MAIN ST.,+COLUMBUS,+MS+39701&hl=en"
CONWAY POLICE DEPARTMENT,CONWAY POLICE DEPARTMENT LOBBY PERMANENT DROP BOX,1105 PRAIRIE STREET,CONWAY,AR,72032,"http://maps.google.com/maps?q=1105 PRAIRIE STREET,+CONWAY,+AR+72032&hl=en"
CONWAY POLICE DEPARTMENT,KROGER MARKETPLACE,855 SALEM ROAD,CONWAY,AR,72034,"http://maps.google.com/maps?q=855 SALEM ROAD,+CONWAY,+AR+72034&hl=en"
CROSS COUNTY SHERIFF'S OFFICE,CROSS COUNTY SHERIFF'S OFFICE PERMANENT DROP BOX,704 EAST CANAL ST.,WYNNE,AR,72396,"http://maps.google.com/maps?q=704 EAST CANAL ST.,+WYNNE,+AR+72396&hl=en"
DAVIDSON COUNTY SHERIFF'S DEPT.,KROGER,7087 HWY 70 S,NASHVILLE,TN,37221,"http://maps.google.com/maps?q=7087 HWY 70 S,+NASHVILLE,+TN+37221&hl=en"
DE WITT POLICE DEPARTMENT,DE WITT POLICE DEPARTMENT PERMANENT DROP BOX,120 COURT SQUARE,DE WITT,AR,72042,"http://maps.google.com/maps?q=120 COURT SQUARE,+DE WITT,+AR+72042&hl=en"
DEA-JACKSON DISTRICT OFFICE,"OUTLETS OF MISSISSIPPI COLLECTING IN FRONT OF ""ADIDAS""",200 BASS PRO DRIVE,PEARL,MS,39208,"http://maps.google.com/maps?q=200 BASS PRO DRIVE,+PEARL,+MS+39208&hl=en"
DEA-MEMPHIS,KROGER,3860 AUSTIN PEAY HWY,MEMPHIS,TN,38128,"http://maps.google.com/maps?q=3860 AUSTIN PEAY HWY,+MEMPHIS,+TN+38128&hl=en"
DELHI POLICE DEPARTMENT,DELHI POLICE DEPARTMENT,304 TENNESSEE STREET,DELHI,LA,71232,"http://maps.google.com/maps?q=304 TENNESSEE STREET,+DELHI,+LA+71232&hl=en"
DES ARC POLICE DEPARTMENT,DES ARC CITY HALL PERMANENT DROP BOX,107 SOUTH THIRD STREET,DES ARC,AR,72040,"http://maps.google.com/maps?q=107 SOUTH THIRD STREET,+DES ARC,+AR+72040&hl=en"
DESOTO COUNTY SHERIFF'S DEPARTMENT,KROGER/HERNANDO,2380 MOUNT PLEASANT RD.,HERNANDO,MS,38632,"http://maps.google.com/maps?q=2380 MOUNT PLEASANT RD.,+HERNANDO,+MS+38632&hl=en"
DESOTO COUNTY SHERIFF'S DEPARTMENT,KROGER/SOUTHHAVEN,3095 GOODMAN ROAD E,SOUTHAVEN,MS,38671,"http://maps.google.com/maps?q=3095 GOODMAN ROAD E,+SOUTHAVEN,+MS+38671&hl=en"
DREW COUNTY SHERIFF'S OFFICE,FRED'S PHARMACY,US 425 SOUTH,MONTICELLO,AR,71655,"http://maps.google.com/maps?q=US 425 SOUTH,+MONTICELLO,+AR+71655&hl=en"
DUMAS POLICE DEPARTMENT,DUMAS POLICE DEPARTMENT PERMANENT DROP BOX,149 E WATERMAN,DUMAS,AR,71639,"http://maps.google.com/maps?q=149 E WATERMAN,+DUMAS,+AR+71639&hl=en"
FAULKNER COUNTY SHERIFF'S OFFICE,FAULKNER COUNTY SHERIFF'S OFFICE PERMANENT DROP BOX,801 LOCUST STREET,CONWAY,AR,72034,"http://maps.google.com/maps?q=801 LOCUST STREET,+CONWAY,+AR+72034&hl=en"
FAYETTE COUNTY SHERIFF'S OFFICE,LANDRY'S PHARMACY,25 WOODBRIDGE ROAD,SOMERVILLE,TN,38068,"http://maps.google.com/maps?q=25 WOODBRIDGE ROAD,+SOMERVILLE,+TN+38068&hl=en"
FAYETTE COUNTY SHERIFF'S OFFICE,MOSCOW CITY HALL,14075 HIGHWAY 57,MOSCOW,TN,38057,"http://maps.google.com/maps?q=14075 HIGHWAY 57,+MOSCOW,+TN+38057&hl=en"
FLORA POLICE DEPARTMENT,FLORA POLICE DEPARTMENT,176 CARTER ST.,FLORA,MS,39071,"http://maps.google.com/maps?q=176 CARTER ST.,+FLORA,+MS+39071&hl=en"
FULTON POLICE DEPARTMENT,WAL MART SUPERCENTER,101 INTERCHANGE DR.1409 S. ADAMS ST.,FULTON,MS,38843,"http://maps.google.com/maps?q=101 INTERCHANGE DR.,+FULTON,+MS+38843&hl=en"
GARDENDALE POLICE DEPARTMENT,GARDENDALE POLICE DEPARTMENT,1309 DECATUR HIGHWAY,GARDENDALE,AL,35071,"http://maps.google.com/maps?q=1309 DECATUR HIGHWAY,+GARDENDALE,+AL+35071&hl=en"
GERMANTOWN POLICE,KROGER,7735 FARMINGTON BLVD.,GERMANTOWN,TN,38138,"http://maps.google.com/maps?q=7735 FARMINGTON BLVD.,+GERMANTOWN,+TN+38138&hl=en"
GERMANTOWN POLICE,WALGREENS,9325 POPLAR AVENUE,GERMANTOWN,TN,38139,"http://maps.google.com/maps?q=9325 POPLAR AVENUE,+GERMANTOWN,+TN+38139&hl=en"
GIBSON COUNTY SHERIFF'S OFFICE,GIBSON COUNTY SHERIFF'S OFFICE,401 N. COLLEGE STREET,TRENTON,TN,38382,"http://maps.google.com/maps?q=401 N. COLLEGE STREET,+TRENTON,+TN+38382&hl=en"
GILES COUNTY SHERIFF'S DEPT.,FRED'S PHARMACY,1670 W. COLLEGE ST. #1,PULASKI,TN,38478,"http://maps.google.com/maps?q=1670 W. COLLEGE ST. #1,+PULASKI,+TN+38478&hl=en"
GOODLETTSVILLE POLICE DEPARTMENT,GOODLETTSVILLE POLICE DEPARTMENT,105 SOUTH MAIN STREET,GOODLETTSVILLE,TN,37072,"http://maps.google.com/maps?q=105 SOUTH MAIN STREET,+GOODLETTSVILLE,+TN+37072&hl=en"
GRAMBLING CITY POLICE DEPARTMENT,POLICE STATION,2045 MLK DRIVE,GRAMBLING,LA,71245,"http://maps.google.com/maps?q=2045 MLK DRIVE,+GRAMBLING,+LA+71245&hl=en"
GREENBRIER POLICE DEPARTMENT,GREENBRIER POLICE DEPARTMENT,11 WILSON FARM RD.,GREENBRIER,AR,72058,"http://maps.google.com/maps?q=11 WILSON FARM RD.,+GREENBRIER,+AR+72058&hl=en"
HARRISBURG POLICE DEPARTMENT,HARRISBURG POLICE DEPARTMENT PERMANENT DROP BOX,202 N. EAST STREET,HARRISBURG,AR,72432,"http://maps.google.com/maps?q=202 N. EAST STREET,+HARRISBURG,+AR+72432&hl=en"
HASKELL POLICE DEPARTMENT,HASKELL POLICE DEPARTMENT CITY HALL - PERMANENT DROP BOX,2520 HWY 229,HASKELL,AR,72015,"http://maps.google.com/maps?q=2520 HWY 229,+HASKELL,+AR+72015&hl=en"
HINDS COUNTY SHERIFF'S OFFICE RESERVE UNIT,HINDS COUNTY SHERIFF'S OFFICE,407 E. PASCAGOULA STREET,JACKSON,MS,39201,"http://maps.google.com/maps?q=407 E. PASCAGOULA STREET,+JACKSON,+MS+39201&hl=en"
HOHENWALD POLICE DEPT.,HOHENWALD POLICE DEPT.,106 N. COURT ST.,HOHENWALD,TN,38462,"http://maps.google.com/maps?q=106 N. COURT ST.,+HOHENWALD,+TN+38462&hl=en"
HOOVER POLICE DEPARTMENT,HOOVER POLICE DEPARTMENT,100 MUNICIPAL DRIVE,BIRMINGHAM,AL,35216,"http://maps.google.com/maps?q=100 MUNICIPAL DRIVE,+BIRMINGHAM,+AL+35216&hl=en"
HUMBOLDT POLICE DEPARTMENT,HUMBOLDT PD,1421 OSBORNE ST.,HUMBOLDT,TN,38343,"http://maps.google.com/maps?q=1421 OSBORNE ST.,+HUMBOLDT,+TN+38343&hl=en"
INDEPENDENCE COUNTY SHERIFF'S DEPARTMENT,ARKANSAS STATE POLICE TROOP B HEADQUARTERS,3200 HWY 67 NORTH,NEWPORT,AR,72112,"http://maps.google.com/maps?q=3200 HWY 67 NORTH,+NEWPORT,+AR+72112&hl=en"
JACKSON COUNTY SHERIFF'S OFFICE,I CARE PHARMACY,1117 MCCLAIN STREET,NEWPORT,AR,72112,"http://maps.google.com/maps?q=1117 MCCLAIN STREET,+NEWPORT,+AR+72112&hl=en"
JACKSON COUNTY SHERIFF'S OFFICE,JACKSON COUNTY SO PERMANENT DROP BOX,615 SECOND ST,NEWPORT,AR,72112,"http://maps.google.com/maps?q=615 SECOND ST,+NEWPORT,+AR+72112&hl=en"
JACKSON POLICE DEPARTMENT,JACKSON POLICE DEPARTMENT FRONT SIDEWALK - DRIVE THROUGH,327 E. PASCAGOULA STREET,JACKSON,MS,39206,"http://maps.google.com/maps?q=327 E. PASCAGOULA STREET,+JACKSON,+MS+39206&hl=en"
JACKSON-MADISON COUNTY METRO NARCOTICS,CVS PHARMACY,1405 N HIGHLAND AVE,JACKSON,TN,38301,"http://maps.google.com/maps?q=1405 N HIGHLAND AVE,+JACKSON,+TN+38301&hl=en"
JACKSON-MADISON COUNTY METRO NARCOTICS,KROGER,35 W UNIVERSITY PKWY,JACKSON,TN,38305,"http://maps.google.com/maps?q=35 W UNIVERSITY PKWY,+JACKSON,+TN+38305&hl=en"
JACKSON-MADISON COUNTY METRO NARCOTICS,WALGREENS,1405 S HIGHLAND AVE.,JACKSON,TN,38301,"http://maps.google.com/maps?q=1405 S HIGHLAND AVE.,+JACKSON,+TN+38301&hl=en"
JACKSONVILLE POLICE DEPARTMENT,JACKSONVILLE POLICE DEPARTMENT PERMANENT DROP BOX,1400 MARSHALL ROAD,JACKSONVILLE,AR,72076,"http://maps.google.com/maps?q=1400 MARSHALL ROAD,+JACKSONVILLE,+AR+72076&hl=en"
JASPER POLICE DEPARTMENT,JASPER POLICE DEPARTMENT,1610 ALABAMA AVENUE,JASPER,AL,35501,"http://maps.google.com/maps?q=1610 ALABAMA AVENUE,+JASPER,+AL+35501&hl=en"
JEFFERSON COUNTY SHERIFF DEPARTMENT,JEFFERSON COUNTY SHERIFF DEPARTMENT,2651 CENTER POINT ROAD,BIRMINGHAM,AL,35215,"http://maps.google.com/maps?q=2651 CENTER POINT ROAD,+BIRMINGHAM,+AL+35215&hl=en"
JEFFERSON COUNTY SHERIFF DEPARTMENT,JEFFERSON COUNTY SHERIFFF MCCALLA,5977 EASTERN VALLEY ROAD,MC CALLA,AL,35111,"http://maps.google.com/maps?q=5977 EASTERN VALLEY ROAD,+MC CALLA,+AL+35111&hl=en"
KENNETT POLICE DEPT,KENNETT POLICE DEPT,200 CEDAR,KENNETT,MO,63857,"http://maps.google.com/maps?q=200 CEDAR,+KENNETT,+MO+63857&hl=en"
LAVERGNE POLICE DEPARTMENT,KROGER,5145 MURFREESBORO RD,LA VERGNE,TN,37086,"http://maps.google.com/maps?q=5145 MURFREESBORO RD,+LA VERGNE,+TN+37086&hl=en"
LAWRENCE CO. SHERIFF'S DEPT.,WLX COUNTRY CAFE,1212 N. LOCUST AVE,LAWRENCEBURG,TN,38464,"http://maps.google.com/maps?q=1212 N. LOCUST AVE,+LAWRENCEBURG,+TN+38464&hl=en"
LEE COUNTY SHERIFF'S DEPARTMENT,LEE COUNTY COURTHOUSE,15 EAST CHESTNUT ST,MARIANNA,AR,72360,"http://maps.google.com/maps?q=15 EAST CHESTNUT ST,+MARIANNA,+AR+72360&hl=en"
LEE COUNTY SHERIFF'S DEPARTMENT,"LEE COUNTY SHERIFF'S DEPARTMENT FRIDAY, APRIL 27, 2018 - NTBI XV",510 NORTH COMMERCE ST.,TUPELO,MS,38804,"http://maps.google.com/maps?q=510 NORTH COMMERCE ST.,+TUPELO,+MS+38804&hl=en"
LINCOLN CO. SHERIFF'S DEPT,LINCOLN COUNTY HIGH SCHOOL,1233 HUNTSVILLE HWY,FAYETTEVILLE,TN,37334,"http://maps.google.com/maps?q=1233 HUNTSVILLE HWY,+FAYETTEVILLE,+TN+37334&hl=en"
LINCOLN COUNTY SHERIFF'S OFFICE,LINCOLN COUNTY SHERIFF'S OFFICE PERMANENT DROP BOX,300 SOUTH DREW STREET,STAR CITY,AR,71667,"http://maps.google.com/maps?q=300 SOUTH DREW STREET,+STAR CITY,+AR+71667&hl=en"
LINCOLN PARISH S.O,SUPER ONE FOODS,1500 NORTH TRENTON STREET,RUSTON,LA,71270,"http://maps.google.com/maps?q=1500 NORTH TRENTON STREET,+RUSTON,+LA+71270&hl=en"
LITTLE ROCK POLICE DEPARTMENT,EXPRESS RX,"10,506 STAGECOACH ROADSUITE F",LITTLE ROCK,AR,72210,"http://maps.google.com/maps?q=10,506 STAGECOACH ROAD,+LITTLE ROCK,+AR+72210&hl=en"
LITTLE ROCK POLICE DEPARTMENT,KROGER MARKETPLACE,14000 CANTRELL ROAD,LITTLE ROCK,AR,72223,"http://maps.google.com/maps?q=14000 CANTRELL ROAD,+LITTLE ROCK,+AR+72223&hl=en"
LITTLE ROCK POLICE DEPARTMENT,LITTLE ROCK POLICE DEPARTMENT PERMANENT DROP BOX,700 W MARKHAM ST,LITTLE ROCK,AR,72201,"http://maps.google.com/maps?q=700 W MARKHAM ST,+LITTLE ROCK,+AR+72201&hl=en"
LITTLE ROCK POLICE DEPARTMENT,SYNERGY,400 PRESIDENT CLINTON AVENUE,LITTLE ROCK,AR,72201,"http://maps.google.com/maps?q=400 PRESIDENT CLINTON AVENUE,+LITTLE ROCK,+AR+72201&hl=en"
LORETTO POLICE DEPT.,LORETTO CITY HALL,415 NORTH MILITARY STRREET,LORETTO,TN,38469,"http://maps.google.com/maps?q=415 NORTH MILITARY STRREET,+LORETTO,+TN+38469&hl=en"
LOUISIANA STATE POLICE TROOP F,TROOP F HEADQUARTERS,1240 LA HGHWAY 594,MONROE,LA,71203,"http://maps.google.com/maps?q=1240 LA HGHWAY 594,+MONROE,+LA+71203&hl=en"
LOUISVILLE POLICE DEPARTMENT,LOUISVILLE POLICE DEPARTMENT FRONT LOBBY,2363 SOUTH CHURCH AVE.,LOUISVILLE,MS,39339,"http://maps.google.com/maps?q=2363 SOUTH CHURCH AVE.,+LOUISVILLE,+MS+39339&hl=en"
MADISON COUNTY SHERIFF'S OFFICE,LAS TERRAZAS MEXICAN GRILL PARKING LOT,134 WEISENBERGER ROAD,MADISON,MS,39110,"http://maps.google.com/maps?q=134 WEISENBERGER ROAD,+MADISON,+MS+39110&hl=en"
MADISON POLICE DEPARTMENT,CITY CULTURAL CENTER PARKING LOT,2115 MAIN STREET,MADISON,MS,39110,"http://maps.google.com/maps?q=2115 MAIN STREET,+MADISON,+MS+39110&hl=en"
MAGEE POLICE DEPARTMENT,MAGEE POLICE DEPARTMENT,124 1ST STREET NE,MAGEE,MS,39111,"http://maps.google.com/maps?q=124 1ST STREET NE,+MAGEE,+MS+39111&hl=en"
MARION POLICE DEPARTMENT,MARION POLICE DEPARTMENT PERMANENT DROP BOX,3477 HWY 77,MARION,AR,72364,"http://maps.google.com/maps?q=3477 HWY 77,+MARION,+AR+72364&hl=en"
MARSHALL COUNTY SHERIFF'S OFFICE,MARSHALL COUNTY SHERIFF'S OFFICE,209 1ST AVE N.,LEWISBURG,TN,37091,"http://maps.google.com/maps?q=209 1ST AVE N.,+LEWISBURG,+TN+37091&hl=en"
MAUMELLE POLICE DEPARTMENT,MAUMELLE POLICE DEPARTMENT,2002 MURPHY DR.,MAUMELLE,AR,72113,"http://maps.google.com/maps?q=2002 MURPHY DR.,+MAUMELLE,+AR+72113&hl=en"
MAYFLOWER POLICE DEPARTMENT,MAYFLOWER POLICE DEPARTMENT,2 ASHMORE DRIVE,MAYFLOWER,AR,72106,"http://maps.google.com/maps?q=2 ASHMORE DRIVE,+MAYFLOWER,+AR+72106&hl=en"
MCGEHEE POLICE DEPARTMENT,MCGEHEE POLICE DEPARTMENT PERMANENT DROP BOX,2412 HIGHWAY 65 SOUTH,MC GEHEE,AR,71654,"http://maps.google.com/maps?q=2412 HIGHWAY 65 SOUTH,+MC GEHEE,+AR+71654&hl=en"
MEMPHIS POLICE DEPT.,HERENTON RENAISSANCE CENTER,990 COLLEGE PARK DR,MEMPHIS,TN,38126,"http://maps.google.com/maps?q=990 COLLEGE PARK DR,+MEMPHIS,+TN+38126&hl=en"
MEMPHIS POLICE DEPT.,KROGER,3444 PLAZA AVE.,MEMPHIS,TN,38111,"http://maps.google.com/maps?q=3444 PLAZA AVE.,+MEMPHIS,+TN+38111&hl=en"
MEMPHIS POLICE DEPT.,ST. LOUIS CATHOLIC CHURCH,203 S. WHITE STATION RD,MEMPHIS,TN,38117,"http://maps.google.com/maps?q=203 S. WHITE STATION RD,+MEMPHIS,+TN+38117&hl=en"
MERIDIAN POLICE DEPARTMENT,BONITA LAKES MALL NEAR MOVIE THEATRE ENTRANCE,1680 BONITA LAKES CIRCLE,MERIDIAN,MS,39301,"http://maps.google.com/maps?q=1680 BONITA LAKES CIRCLE,+MERIDIAN,+MS+39301&hl=en"
METRO NASHVILLE POLICE DEPARTMENT,KROGER,5544 OLD HICKORY BLVD.,HERMITAGE,TN,37076,"http://maps.google.com/maps?q=5544 OLD HICKORY BLVD.,+HERMITAGE,+TN+37076&hl=en"
METRO NASHVILLE POLICE DEPARTMENT,KROGER,6690 NOLENSVILLE RD.,BRENTWOOD,TN,37027,"http://maps.google.com/maps?q=6690 NOLENSVILLE RD.,+BRENTWOOD,+TN+37027&hl=en"
METRO NASHVILLE POLICE DEPARTMENT,THE APOTHECARY,226 11TH AVE SOUTH,NASHVILLE,TN,37203,"http://maps.google.com/maps?q=226 11TH AVE SOUTH,+NASHVILLE,+TN+37203&hl=en"
MILAN POLICE DEPARTMENT,MILAN PUBLIC SAFETY BUILDING DROP BOX IN LOBBY,7029 TELECOM DRIVE,MILAN,TN,38358,"http://maps.google.com/maps?q=7029 TELECOM DRIVE,+MILAN,+TN+38358&hl=en"
MILLINGTON POLICE DEPT.,KROGER,8039 HWY 51,MILLINGTON,TN,38053,"http://maps.google.com/maps?q=8039 HWY 51,+MILLINGTON,+TN+38053&hl=en"
MILLINGTON POLICE DEPT.,WALMART,8445 HWY 51,MILLINGTON,TN,38053,"http://maps.google.com/maps?q=8445 HWY 51,+MILLINGTON,+TN+38053&hl=en"
MISSISSIPPI STATE UNIVERSITY,MISSISSIPPI STATE UNIVERSITY POLICE DEPT,25 WALKER ROAD,MISSISSIPPI STATE,MS,39762,"http://maps.google.com/maps?q=25 WALKER ROAD,+MISSISSIPPI STATE,+MS+39762&hl=en"
MONROE COUNTY SHERIFF'S OFFICE,MONROE COUNTY SHERIFF'S DEPT,700 NORTH MERIDIAN STREET,ABERDEEN,MS,39730,"http://maps.google.com/maps?q=700 NORTH MERIDIAN STREET,+ABERDEEN,+MS+39730&hl=en"
MONROE POLICE DEPARTMENT,MONROE POLICE DEPARTMENT,700 WOOD STREET,MONROE,LA,71201,"http://maps.google.com/maps?q=700 WOOD STREET,+MONROE,+LA+71201&hl=en"
MUNFORD POLICE DEPARTMENT,MUNFORD POLICE DEPARTMENT,79 COLLEGE STREET,MUNFORD,TN,38058,"http://maps.google.com/maps?q=79 COLLEGE STREET,+MUNFORD,+TN+38058&hl=en"
NEWPORT POLICE DEPARTMENT,NEWPORT POLICE DEPARTMENT PERMANENT DROP BOX,615 THIRD ST.,NEWPORT,AR,72112,"http://maps.google.com/maps?q=615 THIRD ST.,+NEWPORT,+AR+72112&hl=en"
NOLENSVILLE POLICE DEPARTMENT,NOLENSVILLE PD,7218 NOLENSVILLE RD,NOLENSVILLE,TN,37135,"http://maps.google.com/maps?q=7218 NOLENSVILLE RD,+NOLENSVILLE,+TN+37135&hl=en"
NORTH LITTLE ROCK POLICE DEPARTMENT,NORTH LITTLE ROCK POLICE & FIRE TRAINING FACILITY PERMANENT DROP BOX,2400 WILLOW STREET,NORTH LITTLE ROCK,AR,72114,"http://maps.google.com/maps?q=2400 WILLOW STREET,+NORTH LITTLE ROCK,+AR+72114&hl=en"
NORTH LITTLE ROCK POLICE DEPARTMENT,THE OTHER CENTER,4000 MCCAIN BLVD,NORTH LITTLE ROCK,AR,72116,"http://maps.google.com/maps?q=4000 MCCAIN BLVD,+NORTH LITTLE ROCK,+AR+72116&hl=en"
OLIVE BRANCH POLICE DEPARTMENT,OLIVE BRANCH POLICE DEPARTMENT LT. JASON OLIVERIA,10470 HIGHWAY 178,OLIVE BRANCH,MS,38654,"http://maps.google.com/maps?q=10470 HIGHWAY 178,+OLIVE BRANCH,+MS+38654&hl=en"
OUACHITA PARISH SO,OPSO,400 ST. JOHN STREET,MONROE,LA,71201,"http://maps.google.com/maps?q=400 ST. JOHN STREET,+MONROE,+LA+71201&hl=en"
OXFORD POLICE DEPARTMENT,OXFORD POLICE DEPARTMENT,715 MOLLY BARR ROAD,OXFORD,MS,38655,"http://maps.google.com/maps?q=715 MOLLY BARR ROAD,+OXFORD,+MS+38655&hl=en"
PINE BLUFF POLICE DEPARTMENT,SUPER 1 FOOD STORE,1805 EAST HARDING AVE,PINE BLUFF,AR,71603,"http://maps.google.com/maps?q=1805 EAST HARDING AVE,+PINE BLUFF,+AR+71603&hl=en"
POINSETT COUNTY SHERIFF'S OFFICE,POINSETT COUNTY DETENTION CENTER PERMANENT DROP BOX,1500 JUSTICE DRIVE,HARRISBURG,AR,72432,"http://maps.google.com/maps?q=1500 JUSTICE DRIVE,+HARRISBURG,+AR+72432&hl=en"
PRATTVILLE POLICE DEPARTMENT,JONES DRUGS,959 EAST MAIN STREET,PRATTVILLE,AL,36067,"http://maps.google.com/maps?q=959 EAST MAIN STREET,+PRATTVILLE,+AL+36067&hl=en"
PULASKI COUNTY SHERIFF'S OFFICE,ARKANSAS CHILDREN'S HOSPITAL MAIN ENTRANCE,1 CHILDREN'S WAY,LITTLE ROCK,AR,72202,"http://maps.google.com/maps?q=1 CHILDREN'S WAY,+LITTLE ROCK,+AR+72202&hl=en"
PULASKI COUNTY SHERIFF'S OFFICE,KROGER PHARMACY,6929 JFK BLVD,NORTH LITTLE ROCK,AR,72116,"http://maps.google.com/maps?q=6929 JFK BLVD,+NORTH LITTLE ROCK,+AR+72116&hl=en"
PULASKI COUNTY SHERIFF'S OFFICE,PULASKI COUNTY SHERIFF'S OFFICE PERMANENT DROP BOX,2900 SOUTH WOODROW STREET,LITTLE ROCK,AR,72204,"http://maps.google.com/maps?q=2900 SOUTH WOODROW STREET,+LITTLE ROCK,+AR+72204&hl=en"
PULASKI COUNTY SHERIFF'S OFFICE,REMEDY PHARMACY,8511 W. MARKHAM STREET,LITTLE ROCK,AR,72205,"http://maps.google.com/maps?q=8511 W. MARKHAM STREET,+LITTLE ROCK,+AR+72205&hl=en"
PULASKI COUNTY SHERIFF'S OFFICE,WALGREENS PARKING LOT,14820 CANTRELL ROAD,LITTLE ROCK,AR,72223,"http://maps.google.com/maps?q=14820 CANTRELL ROAD,+LITTLE ROCK,+AR+72223&hl=en"
RANKIN COUNTY SHERIFF'S OFFICE,RANKIN COUNTY SHERIFF'S OFFICE,221 N. TIMBER ST.,BRANDON,MS,39042,"http://maps.google.com/maps?q=221 N. TIMBER ST.,+BRANDON,+MS+39042&hl=en"
RICHLAND PARISH SHERIFF'S OFFICE,BROOKSHIRE'S GROCERY,902 BROADWAY,DELHI,LA,71232,"http://maps.google.com/maps?q=902 BROADWAY,+DELHI,+LA+71232&hl=en"
RICHLAND PARISH SHERIFF'S OFFICE,WAL-MART,1806 S. JULIA STREET,RAYVILLE,LA,71269,"http://maps.google.com/maps?q=1806 S. JULIA STREET,+RAYVILLE,+LA+71269&hl=en"
RUTHERFORD COUNTY SHERIFF'S OFFICE,RUTHERFORD COUNTY SHERIFF'S OFFICE,940 NEW SALEM HIGHWAY,MURFREESBORO,TN,37129,"http://maps.google.com/maps?q=940 NEW SALEM HIGHWAY,+MURFREESBORO,+TN+37129&hl=en"
RUTHERFORD COUNTY SHERIFF'S OFFICE,STONE CREST MEDICAL CENTER,200 STONECREST BLVD.,SMYRNA,TN,37167,"http://maps.google.com/maps?q=200 STONECREST BLVD.,+SMYRNA,+TN+37167&hl=en"
SALINE COUNTY SHERIFF'S OFFICE,SALINE COUNTY SHERIFF'S OFFICE PERMANENT DROP BOX,735 S. NEELEY,BENTON,AR,72015,"http://maps.google.com/maps?q=735 S. NEELEY,+BENTON,+AR+72015&hl=en"
SHANNON HILLS POLICE DEPARTMENT,SHANNON HILLS CITY PARK FALL FEST,SHANNON HILLS DR,MABELVALE,AR,72103,"http://maps.google.com/maps?q=SHANNON HILLS DR,+MABELVALE,+AR+72103&hl=en"
SHELBY COUNTY TASK FORCE,GREYSTONE YMCA,5414 HIGHWAY 280,BIRMINGHAM,AL,35242,"http://maps.google.com/maps?q=5414 HIGHWAY 280,+BIRMINGHAM,+AL+35242&hl=en"
SHELBY COUNTY TASK FORCE,MONTEVALLO DRUG,3990 HWY 25,MONTEVALLO,AL,35115,"http://maps.google.com/maps?q=3990 HWY 25,+MONTEVALLO,+AL+35115&hl=en"
SHELBY COUNTY TASK FORCE,PELHAM POLICE DEPARTMENT,32 PHILIP DAVIS STREET,PELHAM,AL,35124,"http://maps.google.com/maps?q=32 PHILIP DAVIS STREET,+PELHAM,+AL+35124&hl=en"
SHELBY COUNTY TASK FORCE,TARGET,250 SOUTH COLONIAL DRIVE,ALABASTER,AL,35007,"http://maps.google.com/maps?q=250 SOUTH COLONIAL DRIVE,+ALABASTER,+AL+35007&hl=en"
SHELBY COUNTY TASK FORCE,WINN DIXIE,150 CHELSEA CORNERS WAY,CHELSEA,AL,35043,"http://maps.google.com/maps?q=150 CHELSEA CORNERS WAY,+CHELSEA,+AL+35043&hl=en"
SHERWOOD POLICE DEPARTMENT,SHERWOOD POLICE DEPARTMENT PERMANENT DROP BOX,2201 EAST KIEHL AVE,SHERWOOD,AR,72120,"http://maps.google.com/maps?q=2201 EAST KIEHL AVE,+SHERWOOD,+AR+72120&hl=en"
SHERWOOD POLICE DEPARTMENT,ST. VINCENT MEDICAL CENTER- NORTH,2215 WILDWOOD AVE,SHERWOOD,AR,72120,"http://maps.google.com/maps?q=2215 WILDWOOD AVE,+SHERWOOD,+AR+72120&hl=en"
SHERWOOD POLICE DEPARTMENT,WALMART NEIGHBORHOOD MARKET,9053 HWY 107,SHERWOOD,AR,72120,"http://maps.google.com/maps?q=9053 HWY 107,+SHERWOOD,+AR+72120&hl=en"
SPRING HILL POLICE DEPARTMENT,B & B PHARMACY,5407 MAIN STREET,SPRING HILL,TN,37174,"http://maps.google.com/maps?q=5407 MAIN STREET,+SPRING HILL,+TN+37174&hl=en"
SPRING HILL POLICE DEPARTMENT,SPRING HILL POLICE DEPARTMENT LOWER LEVEL,199 TOWN CENTER PKWY - LOWER LEVEL,SPRING HILL,TN,37174,"http://maps.google.com/maps?q=199 TOWN CENTER PKWY - LOWER LEVEL,+SPRING HILL,+TN+37174&hl=en"
ST FRANCIS COUNTY SHERIFF'S DEPARTMENT,ST. FRANCIS COUNTY COURT HOUSE,313 SOUTH IZARD,FORREST CITY,AR,72335,"http://maps.google.com/maps?q=313 SOUTH IZARD,+FORREST CITY,+AR+72335&hl=en"
STEELE POLICE DEPARTMENT,STEELE POLICE DEPARTMENT,115 S WALNUT,STEELE,MO,63877,"http://maps.google.com/maps?q=115 S WALNUT,+STEELE,+MO+63877&hl=en"
STUTTGART POLICE DEPARTMENT,COKER-HAMPTON DRUG CO,2187 SOUTH MAIN STREET,STUTTGART,AR,72160,"http://maps.google.com/maps?q=2187 SOUTH MAIN STREET,+STUTTGART,+AR+72160&hl=en"
STUTTGART POLICE DEPARTMENT,STUTTGART POLICE DEPARTMENT PERMANENT DROP BOX,514 SOUTH MAIN ST.,STUTTGART,AR,72160,"http://maps.google.com/maps?q=514 SOUTH MAIN ST.,+STUTTGART,+AR+72160&hl=en"
SUMNER COUNTY SHERIFF`S OFFICE,WALGREENS,455 LONG HOLLOW PIKE,GOODLETTSVILLE,TN,37072,"http://maps.google.com/maps?q=455 LONG HOLLOW PIKE,+GOODLETTSVILLE,+TN+37072&hl=en"
TERRY POLICE DEPARTMENT,FRED'S PHARMACY,422 WEST CUNNINGHAM AVE,TERRY,MS,39170,"http://maps.google.com/maps?q=422 WEST CUNNINGHAM AVE,+TERRY,+MS+39170&hl=en"
TISHOMINGO COUNTY SHERIFF'S OFFICE,TISHOMINGO COUNTY SHERIFF'S OFFICE,1208 BETTYDALE DRIVE,IUKA,MS,38852,"http://maps.google.com/maps?q=1208 BETTYDALE DRIVE,+IUKA,+MS+38852&hl=en"
TRI-COUNTY DRUG TASK FORCE,SUPER 1 FOODS,2801 S. HAZEL STREET,PINE BLUFF,AR,71601,"http://maps.google.com/maps?q=2801 S. HAZEL STREET,+PINE BLUFF,+AR+71601&hl=en"
TRI-COUNTY DRUG TASK FORCE,TRI-COUNTY DRUG TASK FORCE PERMANENT DROP BOX,117 MAIN STREET,PINE BLUFF,AR,71601,"http://maps.google.com/maps?q=117 MAIN STREET,+PINE BLUFF,+AR+71601&hl=en"
TRUSSVILLE POLICE DEPARTMENT,TRUSSVILLE POLICE DEPARTMENT COURT,131 MAIN STREET,TRUSSVILLE,AL,35173,"http://maps.google.com/maps?q=131 MAIN STREET,+TRUSSVILLE,+AL+35173&hl=en"
TUNICA COUNTY SHERIFF'S OFFICE,TUNICA COUNTY SHERIFF'S OFFICE,5126 OLD MHOON LANDING ROAD,TUNICA,MS,38676,"http://maps.google.com/maps?q=5126 OLD MHOON LANDING ROAD,+TUNICA,+MS+38676&hl=en"
TUPELO POLICE DEPARTMENT,TUPELO POLICE DEPARTMENT,400 NORTH FRONT STREET,TUPELO,MS,38804,"http://maps.google.com/maps?q=400 NORTH FRONT STREET,+TUPELO,+MS+38804&hl=en"
UALR POLICE,UALR POLICE DEPARTMENT,5820 ASHER AVENUE,LITTLE ROCK,AR,72204,"http://maps.google.com/maps?q=5820 ASHER AVENUE,+LITTLE ROCK,+AR+72204&hl=en"
UALR POLICE,UALR POLICE DEPARTMENT PERMANENT DROP BOX,2018 SOUTH UNIVERSITY AVENUE,LITTLE ROCK,AR,72201,"http://maps.google.com/maps?q=2018 SOUTH UNIVERSITY AVENUE,+LITTLE ROCK,+AR+72201&hl=en"
UCA POLICE DEPARTMENT,UCA POLICE DEPARTMENT PERMANENT DROP BOX,6 W.J. SOWDER,CONWAY,AR,72035,"http://maps.google.com/maps?q=6 W.J. SOWDER,+CONWAY,+AR+72035&hl=en"
UNIVERSITY OF MISSISSIPPI POLICE DEPARTMENT,THAD COCHRAN SIDEWALK IN FRONT OF THAD COCHRAN (NATURAL PRODUCTS),"THAD COCHRAN, UNIVERSITY AVENUE",UNIVERSITY,MS,38677,"http://maps.google.com/maps?q=THAD COCHRAN, UNIVERSITY AVENUE,+UNIVERSITY,+MS+38677&hl=en"
VANDERBILT UNIVERSITY POLICE DEPT,"CENTER FOR STUDENT WELLBEING OCTOBER 26, 2018 10:00 AM - 2:00 PM",1211 STEVENSON CENTER LANE,NASHVILLE,TN,37212,"http://maps.google.com/maps?q=1211 STEVENSON CENTER LANE,+NASHVILLE,+TN+37212&hl=en"
VICKSBURG POLICE DEPARTMENT,WALGREENS PHARMACY,3341 HALLS FERRY RD.,VICKSBURG,MS,39180,"http://maps.google.com/maps?q=3341 HALLS FERRY RD.,+VICKSBURG,+MS+39180&hl=en"
WARREN COUNTY SHERIFF'S OFFICE,OUTLETS MALL OF VICKSBURG,4000 S. FRONTAGE RD.,VICKSBURG,MS,39180,"http://maps.google.com/maps?q=4000 S. FRONTAGE RD.,+VICKSBURG,+MS+39180&hl=en"
WASHINGTON COUNTY SHERIFF'S DEPARTMENT,WASHINGTON COUNTY SHERIFF'S OFFICE,903 WEST ALEXANDER STREET,GREENVILLE,MS,38701,"http://maps.google.com/maps?q=903 WEST ALEXANDER STREET,+GREENVILLE,+MS+38701&hl=en"
WAYNESBORO POLICE DEPT,FRED'S PHARMACY,307 HWY 64 E,WAYNESBORO,TN,38485,"http://maps.google.com/maps?q=307 HWY 64 E,+WAYNESBORO,+TN+38485&hl=en"
WEINER POLICE DEPARTMENT,WEINER POLICE DEPARTMENT,123 WEST 2ND STREET,WEINER,AR,72479,"http://maps.google.com/maps?q=123 WEST 2ND STREET,+WEINER,+AR+72479&hl=en"
WEST MEMPHIS POLICE DEPARTMENT,WEST MEMPHIS POLICE DEPARTMENT PERMANENT DROP BOX,626 E. BROADWAY,WEST MEMPHIS,AR,72301,"http://maps.google.com/maps?q=626 E. BROADWAY,+WEST MEMPHIS,+AR+72301&hl=en"
WEST MONROE POLICE DEPARTMENT,WEST MONROE POLICE DEPARTMENT,2301 NORTH 7TH STREET,WEST MONROE,LA,71291,"http://maps.google.com/maps?q=2301 NORTH 7TH STREET,+WEST MONROE,+LA+71291&hl=en"
WEST POINT POLICE DEPARTMENT,SAVE-A-LOT,"411 W MAIN ST,",WEST POINT,MS,39773,"http://maps.google.com/maps?q=411 W MAIN ST,,+WEST POINT,+MS+39773&hl=en"
WEST POINT POLICE DEPARTMENT,WAL-MART,5509 US-45 ALT S.,WEST POINT,MS,39773,"http://maps.google.com/maps?q=5509 US-45  ALT S.,+WEST POINT,+MS+39773&hl=en"
WHITE COUNTY SHERIFF'S OFFICE,WHITE COUNTY SHERIFF'S OFFICE PERMANENT DROP BOX,1600 E BOOTH ROAD,SEARCY,AR,72143,"http://maps.google.com/maps?q=1600 E BOOTH ROAD,+SEARCY,+AR+72143&hl=en"
WHITE HALL POLICE DEPARTMENT,WHITE HALL POLICE DEPARTMENT PERMANENT DROP BOX,8204 DOLLARWAY ROAD,WHITE HALL,AR,71602,"http://maps.google.com/maps?q=8204 DOLLARWAY ROAD,+WHITE HALL,+AR+71602&hl=en"
WILLIAMSON COUNTY SHERIFF'S OFFICE,KROGER,4726 TRADERS WAY,THOMPSONS STATION,TN,37179,"http://maps.google.com/maps?q=4726 TRADERS WAY,+THOMPSONS STATION,+TN+37179&hl=en"
WOODRUFF COUNTY SHERIFF'S DEPARTMENT,WOODRUFF COUNTY COURT HOUSE,500 NORTH 3RD STREET,AUGUSTA,AR,72006,"http://maps.google.com/maps?q=500 NORTH 3RD STREET,+AUGUSTA,+AR+72006&hl=en"
WYNNE POLICE DEPARTMENT,WYNNE POLICE DEPARTMENT PERMANENT DROP BOX,206 S. FALLS,WYNNE,AR,72396,"http://maps.google.com/maps?q=206 S. FALLS,+WYNNE,+AR+72396&hl=en"
YAZOO COUNTY SHERIFF'S DEPARTMENT,YAZOO DRUG COMPANY PLAZA SHOPPING CENTER,745 E. 15TH STREET,YAZOO CITY,MS,39194,"http://maps.google.com/maps?q=745 E. 15TH STREET,+YAZOO CITY,+MS+39194&hl=en"
