Participant,CollectionSite,Address,City,State,Zip,MapURL
ALBANY COUNTY SHERIFF,ALBANY COUNTY SHERIFF PATROL STATION,58 VERDA AVENUE,CLARKSVILLE,NY,12041,"http://maps.google.com/maps?q=58 VERDA AVENUE,+CLARKSVILLE,+NY+12041&hl=en"
ALBANY COUNTY SHERIFF,RCS COMMUNITY LIBRARY,95 MAIN STREET,RAVENA,NY,12143,"http://maps.google.com/maps?q=95 MAIN STREET,+RAVENA,+NY+12143&hl=en"
ALBANY NY POLICE DEPARTMENT,ALBANY COLLEGE OF PHARMACY CAR PORT (DRIVE UP DROP OFF),106 NEW SCOTLAND AVE.,ALBANY,NY,12208,"http://maps.google.com/maps?q=106 NEW SCOTLAND AVE.,+ALBANY,+NY+12208&hl=en"
ALBANY NY POLICE DEPARTMENT,ALBANY POLICE DEPT. SOUTH STATION,126 ARCH STREET,ALBANY,NY,12202,"http://maps.google.com/maps?q=126 ARCH STREET,+ALBANY,+NY+12202&hl=en"
ALBANY NY POLICE DEPARTMENT,CVS PHARMACY,885 CENTRAL AVE.,ALBANY,NY,12205,"http://maps.google.com/maps?q=885 CENTRAL AVE.,+ALBANY,+NY+12205&hl=en"
ALLEGANY COUNTY SHERIFF'S OFFICE,CANASERGA FIRE HALL,10 MAIN STREET,CANASERAGA,NY,14822,"http://maps.google.com/maps?q=10 MAIN STREET,+CANASERAGA,+NY+14822&hl=en"
ALLEGANY COUNTY SHERIFF'S OFFICE,CUBA FIRE HALL,51 EAST MAIN STREET,CUBA,NY,14727,"http://maps.google.com/maps?q=51 EAST MAIN STREET,+CUBA,+NY+14727&hl=en"
AMHERST POLICE DEPARTMENT,MILLARD FILLMORE HOSPITAL,1540 MAPLE RD.,AMHERST,NY,14221,"http://maps.google.com/maps?q=1540 MAPLE RD.,+AMHERST,+NY+14221&hl=en"
AUBURN POLICE DEPARTMENT,KINNEY DRUGS,62 OWASCO ST.,AUBURN,NY,13021,"http://maps.google.com/maps?q=62 OWASCO ST.,+AUBURN,+NY+13021&hl=en"
AUBURN POLICE DEPARTMENT,WEGMANS,1 LOOP ROAD,AUBURN,NY,13021,"http://maps.google.com/maps?q=1 LOOP ROAD,+AUBURN,+NY+13021&hl=en"
BALDWINSVILLE POLICE DEPARTMENT,KINNEY DRUGS,21 E. GENESEE STREET,BALDWINSVILLE,NY,13027,"http://maps.google.com/maps?q=21 E. GENESEE STREET,+BALDWINSVILLE,+NY+13027&hl=en"
BATAVIA POLICE DEPARTMENT,BATAVIA POLICE DEPARTMENT,10 W. MAIN STREET,BATAVIA,NY,14020,"http://maps.google.com/maps?q=10 W. MAIN STREET,+BATAVIA,+NY+14020&hl=en"
BETHLEHEM POLICE DEPARTMENT,ELM AVENUE PARK FRONT PARKING LOT,249 ELM AVENUE,DELMAR,NY,12054,"http://maps.google.com/maps?q=249 ELM AVENUE,+DELMAR,+NY+12054&hl=en"
BROOME COUNTY SHERIFF'S DEPARTMENT,AMERICAN LEGION POST 1700,305 MAPLE STREET,ENDICOTT,NY,13760,"http://maps.google.com/maps?q=305 MAPLE STREET,+ENDICOTT,+NY+13760&hl=en"
BROOME COUNTY SHERIFF'S DEPARTMENT,BROOME COUNTY SHERIFF'S OFFICE,155 LT. VANWINKLE DR.,BINGHAMTON,NY,13905,"http://maps.google.com/maps?q=155 LT. VANWINKLE DR.,+BINGHAMTON,+NY+13905&hl=en"
BROOME COUNTY SHERIFF'S DEPARTMENT,JOHNSON CITY ELKS,4212 WATSON BLVD.,JOHNSON CITY,NY,13790,"http://maps.google.com/maps?q=4212 WATSON BLVD.,+JOHNSON CITY,+NY+13790&hl=en"
BROOME COUNTY SHERIFF'S DEPARTMENT,THE SCOOP,32876 STATE RT. 11,WHITNEY POINT,NY,13862,"http://maps.google.com/maps?q=32876 STATE RT. 11,+WHITNEY POINT,+NY+13862&hl=en"
BROOME COUNTY SHERIFF'S DEPARTMENT,VESTAL ELKS LODGE,2071 VESTAL PARKWAY WEST,VESTAL,NY,13850,"http://maps.google.com/maps?q=2071 VESTAL PARKWAY WEST,+VESTAL,+NY+13850&hl=en"
BROOME COUNTY SHERIFF'S DEPARTMENT,VESTAL FIRE STATION 4,3341 VESTAL PKWY EAST,VESTAL,NY,13850,"http://maps.google.com/maps?q=3341 VESTAL PKWY EAST,+VESTAL,+NY+13850&hl=en"
BROOME COUNTY SHERIFF'S DEPARTMENT,WINDSOR COMMUNITY CENTER,107 MAIN STREET,WINDSOR,NY,13865,"http://maps.google.com/maps?q=107 MAIN STREET,+WINDSOR,+NY+13865&hl=en"
BURLINGTON POLICE DEPARTMENT,BURLINGTON POLICE DEPARTMENT NORTH LOBBY,1 NORTH AVE,BURLINGTON,VT,05401,"http://maps.google.com/maps?q=1 NORTH AVE,+BURLINGTON,+VT+05401&hl=en"
CAIRO POLICE DEPARTMENT,HANNAFORD,223 MAIN STREET,CAIRO,NY,12413,"http://maps.google.com/maps?q=223 MAIN STREET,+CAIRO,+NY+12413&hl=en"
CATTARAUGUS COUNTY SHERIFF'S DEPARTMENT,CATTARAUGUS COUNTY OFFICE BUILDING,1 LEO MOSS DRIVE,OLEAN,NY,14760,"http://maps.google.com/maps?q=1 LEO MOSS DRIVE,+OLEAN,+NY+14760&hl=en"
CATTARAUGUS COUNTY SHERIFF'S DEPARTMENT,DELEVAN HEALTH CENTER,38 N. MAIN ST.,DELEVAN,NY,14042,"http://maps.google.com/maps?q=38 N. MAIN ST.,+DELEVAN,+NY+14042&hl=en"
CATTARAUGUS COUNTY SHERIFF'S DEPARTMENT,LIONEL R. JOHN HEALTH CENTER,987 R.C. HOAG DRIVE,SALAMANCA,NY,14779,"http://maps.google.com/maps?q=987 R.C. HOAG DRIVE,+SALAMANCA,+NY+14779&hl=en"
CATTARAUGUS COUNTY SHERIFF'S DEPARTMENT,SALAMANCA CITY MUNICIPAL BUILDING FIRE DEPARTMENT,225 WILDWOOD AVE,SALAMANCA,NY,14779,"http://maps.google.com/maps?q=225 WILDWOOD AVE,+SALAMANCA,+NY+14779&hl=en"
CAYUGA COUNTY SHERIFF'S DEPARTMENT,CAYUGA COUNTY SHERIFF'S HQ DROP BOX,7445 COUNTY HOUSE ROAD,AUBURN,NY,13021,"http://maps.google.com/maps?q=7445 COUNTY HOUSE ROAD,+AUBURN,+NY+13021&hl=en"
CAYUGA COUNTY SHERIFF'S DEPARTMENT,KINNEY DRUGS,130 MAIN STREET,MORAVIA,NY,13118,"http://maps.google.com/maps?q=130 MAIN STREET,+MORAVIA,+NY+13118&hl=en"
CAZENOVIA POLICE DEPARTMENT,KINNEY DRUGS PARKING LOT,41 ALBANY STREET,CAZENOVIA,NY,13035,"http://maps.google.com/maps?q=41 ALBANY STREET,+CAZENOVIA,+NY+13035&hl=en"
CHATHAM POLICE DEPARTMENT,CHATHAM PD,77 MAIN STREET,CHATHAM,NY,12037,"http://maps.google.com/maps?q=77 MAIN STREET,+CHATHAM,+NY+12037&hl=en"
CHEEKTOWAGA POLICE DEPARTMENT,ST. JOSEPH'S HOSPITAL,2605 HARLEM RD.,CHEEKTOWAGA,NY,14227,"http://maps.google.com/maps?q=2605 HARLEM RD.,+CHEEKTOWAGA,+NY+14227&hl=en"
CHENANGO COUNTY SHERIFF'S OFFICE,COVENTRY FIRE DEPARTMENT,109 NORTH ROAD,GREENE,NY,13778,"http://maps.google.com/maps?q=109 NORTH ROAD,+GREENE,+NY+13778&hl=en"
CHENANGO COUNTY SHERIFF'S OFFICE,SMYRNA FIRE DEPARTMENT,MAIN STREET,SMYRNA,NY,13464,"http://maps.google.com/maps?q=MAIN STREET,+SMYRNA,+NY+13464&hl=en"
CHITTENANGO POLICE DEPARTMENT,KINNEY DRUGS,540 GENESEE ST.,CHITTENANGO,NY,13037,"http://maps.google.com/maps?q=540 GENESEE ST.,+CHITTENANGO,+NY+13037&hl=en"
CHITTENANGO POLICE DEPARTMENT,MEDICINE SHOPPE,1315 W GENESEE STREET,CHITTENANGO,NY,13037,"http://maps.google.com/maps?q=1315 W GENESEE STREET,+CHITTENANGO,+NY+13037&hl=en"
CHITTENANGO POLICE DEPARTMENT,POLICE HQS,222 GENESEE STREET,CHITTENANGO,NY,13037,"http://maps.google.com/maps?q=222 GENESEE STREET,+CHITTENANGO,+NY+13037&hl=en"
CHITTENDEN COUNTY SHERIFF'S OFFICE,PRICE CHOPPER SUPERMARKET,595 SHELBURNE ROAD,BURLINGTON,VT,05401,"http://maps.google.com/maps?q=595 SHELBURNE ROAD,+BURLINGTON,+VT+05401&hl=en"
CICERO POLICE DEPARTMENT,KINNEY DRUGS,8150 THOMPSON RD.,CICERO,NY,13039,"http://maps.google.com/maps?q=8150 THOMPSON RD.,+CICERO,+NY+13039&hl=en"
CICERO POLICE DEPARTMENT,WALGREEN'S PARKING LOT,6189 ROUTE 31,CICERO,NY,13039,"http://maps.google.com/maps?q=6189 ROUTE 31,+CICERO,+NY+13039&hl=en"
CICERO POLICE DEPARTMENT,WEGMANS,7952 ROUTE 11,CICERO,NY,13039,"http://maps.google.com/maps?q=7952 ROUTE 11,+CICERO,+NY+13039&hl=en"
COLONIE POLICE DEPARTMENT,COLONIE POLICE DEPARTMENT COURT RM # 1,312 WOLF ROAD,LATHAM,NY,12110,"http://maps.google.com/maps?q=312 WOLF ROAD,+LATHAM,+NY+12110&hl=en"
COLUMBIA COUNTY SHERIFF'S OFFICE,COLUMBIA COUNTY SHERIFF'S OFFICE,85 INDUSTRIAL TRACT,HUDSON,NY,12534,"http://maps.google.com/maps?q=85 INDUSTRIAL TRACT,+HUDSON,+NY+12534&hl=en"
COLUMBIA COUNTY SHERIFF'S OFFICE,HILLSDALE SUB STATION,2684 STATE ROUTE 23,HILLSDALE,NY,12529,"http://maps.google.com/maps?q=2684 STATE ROUTE 23,+HILLSDALE,+NY+12529&hl=en"
COXSACKIE POLICE DEPARTMENT,COXSACKIE POLICE DEPARTMENT,119 MANSION STREET,COXSACKIE,NY,12051,"http://maps.google.com/maps?q=119 MANSION STREET,+COXSACKIE,+NY+12051&hl=en"
CROTON ON HUDSON POLICE,CROTON COMMONS SHOPPING PLAZA,177 SOUTH RIVERSIDE AVENUE,CROTON ON HUDSON,NY,10520,"http://maps.google.com/maps?q=177 SOUTH RIVERSIDE AVENUE,+CROTON ON HUDSON,+NY+10520&hl=en"
DEA NEW YORK DIVISION,DEPARTMENT OF FAMILY SERVICES ROBERT TRAVIS BLDG SUSAN CLARK,16 COMMUNITY LANE,LIBERTY,NY,12754,"http://maps.google.com/maps?q=16 COMMUNITY LANE,+LIBERTY,+NY+12754&hl=en"
DEA NEW YORK DIVISION,FALLSBURG POLICE STATION ALETA M. GOMEZ 845.794.8080 X170,19 RAILROAD PLAZA,SOUTH FALLSBURG,NY,12779,"http://maps.google.com/maps?q=19 RAILROAD PLAZA,+SOUTH FALLSBURG,+NY+12779&hl=en"
DEA NEW YORK DIVISION,GROVER HERMANN HOSPITAL,8881 NY RTE 97,CALLICOON,NY,12723,"http://maps.google.com/maps?q=8881 NY RTE 97,+CALLICOON,+NY+12723&hl=en"
DEA NEW YORK DIVISION,LIBERTY POLICE DEPARTMENT ALETA M. GOMEZ 845.794.8080 X170,159 NORTH MAIN STREET,LIBERTY,NY,12754,"http://maps.google.com/maps?q=159 NORTH MAIN STREET,+LIBERTY,+NY+12754&hl=en"
DEA NEW YORK DIVISION,TOWN OF LUMBERLAND TOWN HALL,1054 PROCTOR ROAD,GLEN SPEY,NY,12737,"http://maps.google.com/maps?q=1054 PROCTOR ROAD,+GLEN SPEY,+NY+12737&hl=en"
DEPEW POLICE DEPARTMENT,WEGMAN'S,651 DICK ROAD,DEPEW,NY,14043,"http://maps.google.com/maps?q=651 DICK ROAD,+DEPEW,+NY+14043&hl=en"
DEWITT POLICE DEPARTMENT,WEGMANS,4256 JAMES STREET,EAST SYRACUSE,NY,13057,"http://maps.google.com/maps?q=4256 JAMES STREET,+EAST SYRACUSE,+NY+13057&hl=en"
DEWITT POLICE DEPARTMENT,WEGMANS,6789 E. GENESEE STREET,FAYETTEVILLE,NY,13066,"http://maps.google.com/maps?q=6789 E. GENESEE STREET,+FAYETTEVILLE,+NY+13066&hl=en"
DURYEA POLICE DEPARTMENT,DURYEA BOROUGH TOWN HALL BUILDING,315 MAIN STREET,DURYEA,PA,18642,"http://maps.google.com/maps?q=315 MAIN STREET,+DURYEA,+PA+18642&hl=en"
DUTCHESS COUNTY SHERIFF'S OFFICE,VASSAR BROTHERS MEDICAL HOSPITAL,45 READE PLACE,POUGHKEEPSIE,NY,12601,"http://maps.google.com/maps?q=45 READE PLACE,+POUGHKEEPSIE,+NY+12601&hl=en"
EAST GREENBUSH POLICE DEPARTMENT,EAST GREENBUSH POLICE DEPARTMENT,225 COLUMBIA TURNPIKE,RENSSELAER,NY,12144,"http://maps.google.com/maps?q=225 COLUMBIA TURNPIKE,+RENSSELAER,+NY+12144&hl=en"
ERIE COUNTY SHERIFF'S OFFICE,BERTRAND CHAFFEE HOSPITAL,224 E. MAIN STREET,SPRINGVILLE,NY,14141,"http://maps.google.com/maps?q=224 E. MAIN STREET,+SPRINGVILLE,+NY+14141&hl=en"
ESSEX COUNTY SHERIFF,ESSEX COUNTY SHERIFF'S OFFICE,702 STOWERSVILLE RD.,LEWIS,NY,12950,"http://maps.google.com/maps?q=702 STOWERSVILLE RD.,+LEWIS,+NY+12950&hl=en"
FAIR HAVEN POLICE DEPARTMENT,FAIR HAVEN POLICE DEPARTMENT BONNIE ROSATI,5 NORTH PARK PLACE,FAIR HAVEN,VT,05743,"http://maps.google.com/maps?q=5 NORTH PARK PLACE,+FAIR HAVEN,+VT+05743&hl=en"
FOREST CITY POLICE,FOREST CITY AREA EMERGENCY SERVICES,380 RAILROAD STREET,FOREST CITY,PA,18421,"http://maps.google.com/maps?q=380 RAILROAD STREET,+FOREST CITY,+PA+18421&hl=en"
FULTON COUNTY SHERIFF'S OFFICE,FULTON COUNTY SHERIFF'S OFFICE,2712 STATE HWY 29,JOHNSTOWN,NY,12095,"http://maps.google.com/maps?q=2712 STATE HWY 29,+JOHNSTOWN,+NY+12095&hl=en"
FULTON POLICE DEPARTMENT,KINNEY DRUGS,115 ONEIDA STREET,FULTON,NY,13069,"http://maps.google.com/maps?q=115 ONEIDA STREET,+FULTON,+NY+13069&hl=en"
GENESEE COUNTY SHERIFF'S DEPARTMENT,PEMBROKE TOWN HIGWAY BARNS,ROUTES 5 & 77,EAST PEMBROKE,NY,14056,"http://maps.google.com/maps?q=ROUTES 5 & 77,+EAST PEMBROKE,+NY+14056&hl=en"
GOUVERNEUR POLICE DEPARTMENT,KINNEY DRUGS,17 CLINTON STREET,GOUVERNEUR,NY,13642,"http://maps.google.com/maps?q=17 CLINTON STREET,+GOUVERNEUR,+NY+13642&hl=en"
GREAT BEND POLICE DEPARTMENT,GREAT BEND POLICE STATION,335 WASHINGTON STREET,GREAT BEND,PA,18821,"http://maps.google.com/maps?q=335 WASHINGTON STREET,+GREAT BEND,+PA+18821&hl=en"
GUILDERLAND POLICE DEPARTMENT,PUBLIC LIBRARY AUXILIARY PARKING LOT,2228 WESTERN AVENUE,GUILDERLAND,NY,12084,"http://maps.google.com/maps?q=2228 WESTERN AVENUE,+GUILDERLAND,+NY+12084&hl=en"
HAMBURG POLICE DEPARTMENT,TOWN OF HAMBURG DEPT. OF YOUTH RECREATION & SENIOR SERVICES,4540 SOUTHWESTERN BLVD.,HAMBURG,NY,14075,"http://maps.google.com/maps?q=4540 SOUTHWESTERN BLVD.,+HAMBURG,+NY+14075&hl=en"
HAMILTON COUNTY SHERIFF'S OFFICE,HAMILTON COUNTY JAIL,102 COUNTY VIEW DRIVE,LAKE PLEASANT,NY,12108,"http://maps.google.com/maps?q=102 COUNTY VIEW DRIVE,+LAKE PLEASANT,+NY+12108&hl=en"
HAVERSTRAW POLICE DEPARTMENT,CVS,12 WEST RAMAPO ROAD,GARNERVILLE,NY,10923,"http://maps.google.com/maps?q=12 WEST RAMAPO ROAD,+GARNERVILLE,+NY+10923&hl=en"
HERKIMER COUNTY SHERIFF'S OFFICE,HERKIMER COUNTY SHERIFF'S OFFICE,320 NORTH MAIN STREET,HERKIMER,NY,13350,"http://maps.google.com/maps?q=320 NORTH MAIN STREET,+HERKIMER,+NY+13350&hl=en"
HERKIMER POLICE DEPARTMENT,HERKIMER PD,120 GREEN STREET,HERKIMER,NY,13350,"http://maps.google.com/maps?q=120 GREEN STREET,+HERKIMER,+NY+13350&hl=en"
HOOSICK FALLS POLICE DEPARTMENT,HOOSICK FALLS PD STATION,24 MAIN STREET,HOOSICK FALLS,NY,12090,"http://maps.google.com/maps?q=24 MAIN STREET,+HOOSICK FALLS,+NY+12090&hl=en"
ILION POLICE DEPARTMENT,KINNEY DRUGS,40 1ST STREET,ILION,NY,13357,"http://maps.google.com/maps?q=40 1ST  STREET,+ILION,+NY+13357&hl=en"
ITHACA POLICE DEPARTMENT,KINNEY DRUGS,513 N. CAYUGA STREET,ITHACA,NY,14850,"http://maps.google.com/maps?q=513 N. CAYUGA STREET,+ITHACA,+NY+14850&hl=en"
ITHACA POLICE DEPARTMENT,WEGMANS,500 S. MEADOW STREET,ITHACA,NY,14850,"http://maps.google.com/maps?q=500 S. MEADOW STREET,+ITHACA,+NY+14850&hl=en"
JOHNSTOWN POLICE DEPARTMENT,JOHNSTOWN POLICE DEPARTMENT CITY HALL,33-41 EAST MAIN STREET,JOHNSTOWN,NY,12095,"http://maps.google.com/maps?q=33-41 EAST MAIN STREET,+JOHNSTOWN,+NY+12095&hl=en"
KINGSTON TOWNSHIP POLICE DEPARTMENT,KINGSTON TOWNSHIP POLICE DEPARTMENT,180 EAST CENTER STREET,SHAVERTOWN,PA,18708,"http://maps.google.com/maps?q=180 EAST CENTER STREET,+SHAVERTOWN,+PA+18708&hl=en"
KIRKLAND POLICE DEPARTMENT,KINNEY DRUGS,12 FRANKLIN AVE.,CLINTON,NY,13323,"http://maps.google.com/maps?q=12 FRANKLIN AVE.,+CLINTON,+NY+13323&hl=en"
LACKAWANNA POLICE DEPARTMENT,LACKAWANNA POLICE DEPARTMENT,714 RIDGE ROAD,BUFFALO,NY,14218,"http://maps.google.com/maps?q=714 RIDGE ROAD,+BUFFALO,+NY+14218&hl=en"
LANCASTER POLICE DEPARTMENT,TWIN DISTRICT FIRE DEPARTMENT,4999 WILLIAM STREET,LANCASTER,NY,14086,"http://maps.google.com/maps?q=4999 WILLIAM STREET,+LANCASTER,+NY+14086&hl=en"
LEROY POLICE DEPARTMENT,LEROY POLICE DEPARTMENT VILLAGE HALL,3 WEST MAIN STREETRTS 5 & 19,LE ROY,NY,14482,"http://maps.google.com/maps?q=3 WEST MAIN STREET,+LE ROY,+NY+14482&hl=en"
MASSENA POLICE DEPARTMENT,KINNEY DRUGS,300 MAIN STREET,MASSENA,NY,13662,"http://maps.google.com/maps?q=300 MAIN STREET,+MASSENA,+NY+13662&hl=en"
MASSENA POLICE DEPARTMENT,MASSENA POLICE DEPARTMENT,60 MAIN STREET,MASSENA,NY,13662,"http://maps.google.com/maps?q=60 MAIN STREET,+MASSENA,+NY+13662&hl=en"
MECHANICVILLE POLICE DEPARTMENT,CVS PHARMACY PARKING LOT,12 SOUTH CENTRAL AVENUE,MECHANICVILLE,NY,12118,"http://maps.google.com/maps?q=12 SOUTH CENTRAL AVENUE,+MECHANICVILLE,+NY+12118&hl=en"
MONTICELLO POLICE DEPARTMENT,MONTICELLO POLICE DEPT CHIEF MUIR,2 PLEASANT STREET,MONTICELLO,NY,12701,"http://maps.google.com/maps?q=2 PLEASANT STREET,+MONTICELLO,+NY+12701&hl=en"
MOSCOW BOROUGH POLICE DEPARTMENT,MOSCOW BOROUGH MUNICIPAL BUILDING,123 VAN BRUNT ST,MOSCOW,PA,18444,"http://maps.google.com/maps?q=123 VAN BRUNT ST,+MOSCOW,+PA+18444&hl=en"
NEW HARTFORD POLICE DEPARTMENT,NEW HARTFORD POLICE DEPARTMENT,32 KELLOGG RD,NEW HARTFORD,NY,13413,"http://maps.google.com/maps?q=32 KELLOGG RD,+NEW HARTFORD,+NY+13413&hl=en"
NEW PALTZ POLICE DEPARTMENT,NEW PALTZ POLICE STATION DROP BOX IN LOBBY,83 SOUTH PUTT CORNERS ROAD,NEW PALTZ,NY,12561,"http://maps.google.com/maps?q=83 SOUTH PUTT CORNERS ROAD,+NEW PALTZ,+NY+12561&hl=en"
NEW YORK STATE POLICE,NEW YORK STATE POLICE CLIFTON PARK,5 MUNICIPAL PLAZASTATE ROUTE 146,CLIFTON PARK,NY,12065,"http://maps.google.com/maps?q=5 MUNICIPAL PLAZA,+CLIFTON PARK,+NY+12065&hl=en"
NEW YORK STATE POLICE,NEW YORK STATE POLICE SCHODACK,1485 STATE ROUTE 9,CASTLETON,NY,12033,"http://maps.google.com/maps?q=1485 STATE ROUTE 9,+CASTLETON,+NY+12033&hl=en"
NORTH GREENBUSH POLICE DEPARTMENT,NORTH GREENBUSH POLICE DEPARTMENT CHIEF ROBERT DURIVAGE,133 BLOOMING GROVE DRIVE,TROY,NY,12180,"http://maps.google.com/maps?q=133 BLOOMING GROVE DRIVE,+TROY,+NY+12180&hl=en"
NORTH TONAWANDA POLICE DEPARTMENT,DEGRAFF MEMORIAL HOSPITAL,445 TREMONT STREET,NORTH TONAWANDA,NY,14120,"http://maps.google.com/maps?q=445 TREMONT STREET,+NORTH TONAWANDA,+NY+14120&hl=en"
NYS UNIVERSITY POLICE @ ONEONTA,NYS UNIVERSITY POLICE SUNY ONEONTA,ALUMNI HALL51 SOUTH WEST DORM DRIVE,ONEONTA,NY,13820,"http://maps.google.com/maps?q=ALUMNI HALL,+ONEONTA,+NY+13820&hl=en"
OGDENSBURG POLICE DEPARTMENT,KINNEY DRUGS,700 CANTON STREET,OGDENSBURG,NY,13669,"http://maps.google.com/maps?q=700 CANTON STREET,+OGDENSBURG,+NY+13669&hl=en"
OLD FORGE POLICE DEPARTMENT,CVS PHARMACY,101 S. MAIN STREET,OLD FORGE,PA,18518,"http://maps.google.com/maps?q=101 S. MAIN STREET,+OLD FORGE,+PA+18518&hl=en"
OLYPHANT POLICE DEPARTMENT,OLYPHANT BOROUGH POLICE STATION,604 EAST PARK STREET,OLYPHANT,PA,18447,"http://maps.google.com/maps?q=604 EAST PARK STREET,+OLYPHANT,+PA+18447&hl=en"
ORCHARD PARK POLICE DEPARTMENT,MERCY AMBULATORY CENTER,3669 SOUTHWESTERN BLVD.,ORCHARD PARK,NY,14127,"http://maps.google.com/maps?q=3669 SOUTHWESTERN BLVD.,+ORCHARD PARK,+NY+14127&hl=en"
ORLEANS COUNTY SHERIFF'S OFFICE,HOLLEY FIRE DEPARTMENT,7 THOMAS STREET,HOLLEY,NY,14470,"http://maps.google.com/maps?q=7 THOMAS STREET,+HOLLEY,+NY+14470&hl=en"
ORLEANS COUNTY SHERIFF'S OFFICE,MEDINA FIRE DEPARTMENT,600 MAIN STREET,MEDINA,NY,14103,"http://maps.google.com/maps?q=600 MAIN STREET,+MEDINA,+NY+14103&hl=en"
ORLEANS COUNTY SHERIFF'S OFFICE,PUBLIC SAFETY BUILDING,13925 STATE ROUTE 31,ALBION,NY,14411,"http://maps.google.com/maps?q=13925 STATE ROUTE 31,+ALBION,+NY+14411&hl=en"
OSWEGO POLICE DEPARTMENT,KINNEY DRUGS,174 W. BRIDGE STREET,OSWEGO,NY,13126,"http://maps.google.com/maps?q=174 W. BRIDGE STREET,+OSWEGO,+NY+13126&hl=en"
OSWEGO POLICE DEPARTMENT,OSWEGO POLICE DEPARTMENT POLICE HQ,169 WEST 2ND STREET,OSWEGO,NY,13126,"http://maps.google.com/maps?q=169 WEST 2ND STREET,+OSWEGO,+NY+13126&hl=en"
OTSEGO COUNTY SHERIFF'S OFFICE,OTSEGO COUNTY SHERIFF'S OFFICE,172 COUNTY HWY 33 WEST,COOPERSTOWN,NY,13326,"http://maps.google.com/maps?q=172 COUNTY HWY 33 WEST,+COOPERSTOWN,+NY+13326&hl=en"
PITTSFIELD POLICE DEPARTMENT,PITTSFIELD POLICE DEPARTMENT LT. JOHN SOULES,39 ALLEN STREET,PITTSFIELD,MA,01201,"http://maps.google.com/maps?q=39 ALLEN STREET,+PITTSFIELD,+MA+01201&hl=en"
PLAINS TWP POLICE DEPT,PLAINS TWP PD,126 NORTH MAIN ST,WILKES BARRE,PA,18705,"http://maps.google.com/maps?q=126 NORTH MAIN ST,+WILKES BARRE,+PA+18705&hl=en"
PLATTSBURGH POLICE DEPARTMENT,KINNEY DRUGS,288 CORNELIA ST,PLATTSBURGH,NY,12901,"http://maps.google.com/maps?q=288 CORNELIA ST,+PLATTSBURGH,+NY+12901&hl=en"
PLATTSBURGH POLICE DEPARTMENT,PLATTSBURGH PD,45 PINE STREET,PLATTSBURGH,NY,12901,"http://maps.google.com/maps?q=45 PINE STREET,+PLATTSBURGH,+NY+12901&hl=en"
POTSDAM POLICE DEPARTMENT,KINNEY DRUGS,48 MAPLE STREET,POTSDAM,NY,13699,"http://maps.google.com/maps?q=48 MAPLE STREET,+POTSDAM,+NY+13699&hl=en"
PULASKI POLICE DEPARTMENT,KINNEY DRUGS,3873 ROME ROAD,PULASKI,NY,13142,"http://maps.google.com/maps?q=3873 ROME ROAD,+PULASKI,+NY+13142&hl=en"
RENSSELAER CITY POLICE DEPARTMENT,NORTH END FIRE STATION,2 ST. FRANCIS PLACE,RENSSELAER,NY,12144,"http://maps.google.com/maps?q=2 ST. FRANCIS PLACE,+RENSSELAER,+NY+12144&hl=en"
RENSSELAER COUNTY SHERIFF'S OFFICE,WEST SAND LAKE FIRE DEPARTMENT,3697 NY-43,WEST SAND LAKE,NY,12196,"http://maps.google.com/maps?q=3697 NY-43,+WEST SAND LAKE,+NY+12196&hl=en"
ROME POLICE DEPARTMENT,POLICE HQ,301 N. JAMES ST.,ROME,NY,13440,"http://maps.google.com/maps?q=301 N. JAMES ST.,+ROME,+NY+13440&hl=en"
ROTTERDAM POLICE DEPARTMENT,ROTTERDAM PD,101 PRINCETOWN ROAD,ROTTERDAM,NY,12306,"http://maps.google.com/maps?q=101 PRINCETOWN ROAD,+ROTTERDAM,+NY+12306&hl=en"
SARATOGA COUNTY SHERIFF OFFICE,CLIFTON PARK-HALFMOON EMERGENCY SQUAD,15 CROSSING BLVD.,CLIFTON PARK,NY,12065,"http://maps.google.com/maps?q=15 CROSSING BLVD.,+CLIFTON PARK,+NY+12065&hl=en"
SARATOGA COUNTY SHERIFF OFFICE,MOREAU EMERGENCY SQUAD,1583 ROUTE 9,FORT EDWARD,NY,12828,"http://maps.google.com/maps?q=1583 ROUTE 9,+FORT EDWARD,+NY+12828&hl=en"
SARATOGA POLICE DEPARTMENT,SARATOGA HOSPITAL MYRTLE STREET PARKING LOT- ER ENTRANCE,211 CHURCH STREET,SARATOGA SPRINGS,NY,12866,"http://maps.google.com/maps?q=211 CHURCH STREET,+SARATOGA SPRINGS,+NY+12866&hl=en"
SARATOGA POLICE DEPARTMENT,SARATOGA POLICE DEPARTMENT MAPLE AVENUE- BEHIND CITY HALL,474 BROADWAY,SARATOGA SPRINGS,NY,12866,"http://maps.google.com/maps?q=474 BROADWAY,+SARATOGA SPRINGS,+NY+12866&hl=en"
SCHENECTADY COUNTY SHERIFF'S OFFICE,SCHENECTADY COUNTY SHERIFF'S SUBSTATION,130 PRINCETOWN PLAZA,SCHENECTADY,NY,12306,"http://maps.google.com/maps?q=130 PRINCETOWN PLAZA,+SCHENECTADY,+NY+12306&hl=en"
SCHENECTADY POLICE DEPARTMENT,SCHENECTADY POLICE DEPARTMENT,531 LIBERTY ST.,SCHENECTADY,NY,12305,"http://maps.google.com/maps?q=531 LIBERTY ST.,+SCHENECTADY,+NY+12305&hl=en"
SCHODACK POLICE DEPARTMENT,POLICE DEPARTMENT,1797 COLUMBIA TURNPIKE,CASTLETON,NY,12033,"http://maps.google.com/maps?q=1797 COLUMBIA TURNPIKE,+CASTLETON,+NY+12033&hl=en"
SCOTIA POLICE DEPARTMENT,SCOTIA POLICE DEPARTMENT,4 NORTH TEN BROECK STREET,SCOTIA,NY,12302,"http://maps.google.com/maps?q=4 NORTH TEN BROECK STREET,+SCOTIA,+NY+12302&hl=en"
SHELBURNE POLICE DEPARTMENT,SHELBURNE POLICE DEPARTMENT,5420 SHELBURNE ROAD,SHELBURNE,VT,05482,"http://maps.google.com/maps?q=5420 SHELBURNE ROAD,+SHELBURNE,+VT+05482&hl=en"
SHERRILL POLICE DEPARTMENT,SHERRILL POLICE DEPARTMENT POLICE HQ,373 SHERRILL ROAD,SHERRILL,NY,13461,"http://maps.google.com/maps?q=373 SHERRILL ROAD,+SHERRILL,+NY+13461&hl=en"
SIDNEY POLICE DEPARTMENT,SIDNEY POLICE DEPARTMENT,21 LIBERTY STREET,SIDNEY,NY,13838,"http://maps.google.com/maps?q=21 LIBERTY STREET,+SIDNEY,+NY+13838&hl=en"
ST. JOHNSVILLE POLICE DEPARTMENT,KINNEY'S DRUGS,12 PARK PLACE,SAINT JOHNSVILLE,NY,13452,"http://maps.google.com/maps?q=12 PARK PLACE,+SAINT JOHNSVILLE,+NY+13452&hl=en"
ST. LAWRENCE COUNTY SHERIFF'S OFFICE,ST. LAWRENCE COUNTY SHERIFF'S OFFICE,48 COURT STREET,CANTON,NY,13617,"http://maps.google.com/maps?q=48 COURT STREET,+CANTON,+NY+13617&hl=en"
STONY POINT POLICE DEPARTMENT,WALGREENS,135 SOUTH LIBERTY DRIVE,STONY POINT,NY,10980,"http://maps.google.com/maps?q=135 SOUTH LIBERTY DRIVE,+STONY POINT,+NY+10980&hl=en"
SULLIVAN COUNTY SHERIFF'S OFFICE,SULLIVAN COUNTY SHERIFF'S OFFICE,245 MUNCY ST,LAPORTE,PA,18626,"http://maps.google.com/maps?q=245 MUNCY ST,+LAPORTE,+PA+18626&hl=en"
SUNY UPSTATE UNIVERSITY POLICE,UPSTATE MEDICAL UNIVERSITY COMMUNITY CAMPUS,4900 BROAD ROAD,SYRACUSE,NY,13215,"http://maps.google.com/maps?q=4900 BROAD ROAD,+SYRACUSE,+NY+13215&hl=en"
SUSQUEHANNA COUNTY SHERIFF'S OFFICE,SUSQUEHANNA COUNTY COURTHOUSE,31 LAKE AVENUE,MONTROSE,PA,18801,"http://maps.google.com/maps?q=31 LAKE AVENUE,+MONTROSE,+PA+18801&hl=en"
SYRACUSE POLICE DEPARTMENT,KINNEY DRUGS,104 LAFAYETTE RD.,SYRACUSE,NY,13205,"http://maps.google.com/maps?q=104 LAFAYETTE RD.,+SYRACUSE,+NY+13205&hl=en"
SYRACUSE POLICE DEPARTMENT,KINNEY DRUGS,2912 JAMES ST,SYRACUSE,NY,13206,"http://maps.google.com/maps?q=2912 JAMES ST,+SYRACUSE,+NY+13206&hl=en"
SYRACUSE POLICE DEPARTMENT,KINNEY DRUGS,406 BUTTERNUT STREET,SYRACUSE,NY,13208,"http://maps.google.com/maps?q=406 BUTTERNUT STREET,+SYRACUSE,+NY+13208&hl=en"
TICONDERGOA POLICE DEPARTMENT,TICONDEROGA POLICE DEPARTMENT,135 BURGOYNE ROAD,TICONDEROGA,NY,12883,"http://maps.google.com/maps?q=135 BURGOYNE ROAD,+TICONDEROGA,+NY+12883&hl=en"
TIOGA COUNTY SHERIFF'S OFFICE,TIOGA COUNTY SHERIFF'S OFFICE TRINITY-CASA OF TIOGA,ACROSS FROM AGWAY6 MCMASTER ST.,OWEGO,NY,13827,"http://maps.google.com/maps?q=ACROSS FROM AGWAY,+OWEGO,+NY+13827&hl=en"
TOMPKINS COUNTY SHERIFF'S OFFICE,SHERIFF'S HQ,779 WARREN ROAD,ITHACA,NY,14850,"http://maps.google.com/maps?q=779 WARREN ROAD,+ITHACA,+NY+14850&hl=en"
TOMPKINS COUNTY SHERIFF'S OFFICE,SLATERVILLE FIRE STATION,2681 SLATERVILLE RD.,SLATERVILLE SPRINGS,NY,14881,"http://maps.google.com/maps?q=2681 SLATERVILLE RD.,+SLATERVILLE SPRINGS,+NY+14881&hl=en"
TOWN OF HAMBURG POLICE DEPARTMENT,WEGMANS,3740 MCKINLEY PARKWAY,BUFFALO,NY,14219,"http://maps.google.com/maps?q=3740 MCKINLEY PARKWAY,+BUFFALO,+NY+14219&hl=en"
TOWN OF NISKAYUNA POLICE DEPARTMENT,NISKAYUNA TOWN HALL,1 NISKAYUNA CIRCLE,NISKAYUNA,NY,12309,"http://maps.google.com/maps?q=1 NISKAYUNA CIRCLE,+NISKAYUNA,+NY+12309&hl=en"
TOWN OF VESTAL POLICE,TOWN OF VESTAL POLICE STATION FRONT LOBBY,605 VESTAL PARKWAY WEST,VESTAL,NY,13850,"http://maps.google.com/maps?q=605 VESTAL PARKWAY WEST,+VESTAL,+NY+13850&hl=en"
TROY POLICE DEPARTMENT,TROY POLICE DEPARTMENT,55 STATE STREET,TROY,NY,12180,"http://maps.google.com/maps?q=55 STATE STREET,+TROY,+NY+12180&hl=en"
VERMONT STATE POLICE,VERMONT STATE POLICE - SHAFTSBURY BARRACKS,96 AIRPORT ROAD,SHAFTSBURY,VT,05262,"http://maps.google.com/maps?q=96 AIRPORT ROAD,+SHAFTSBURY,+VT+05262&hl=en"
VILLAGE OF MALONE POLICE DEPARTMENT,KINNEY DRUGS,485 E MAIN STREET,MALONE,NY,12953,"http://maps.google.com/maps?q=485 E MAIN STREET,+MALONE,+NY+12953&hl=en"
VILLAGE OF RHINEBECK POLICE,NORTHERN DUTCHESS HOSPITAL,6511 SPRINGBROOK AVE,RHINEBECK,NY,12572,"http://maps.google.com/maps?q=6511 SPRINGBROOK AVE,+RHINEBECK,+NY+12572&hl=en"
WARREN COUNTY SHERIFF'S OFFICE,WARREN COUNTY SHERIFF'S OFFICE,1400 STATE ROUTE 9,LAKE GEORGE,NY,12845,"http://maps.google.com/maps?q=1400 STATE ROUTE 9,+LAKE GEORGE,+NY+12845&hl=en"
WATERTOWN POLICE DEPARTMENT,KINNEY DRUGS,905 COFFEEN STREET,WATERTOWN,NY,13601,"http://maps.google.com/maps?q=905 COFFEEN STREET,+WATERTOWN,+NY+13601&hl=en"
WATERVLIET POLICE DEPARTMENT,WATERVLIET POLICE DEPARTMENT,2-15TH STREET,WATERVLIET,NY,12189,"http://maps.google.com/maps?q=2-15TH STREET,+WATERVLIET,+NY+12189&hl=en"
WATSONTOWN POLICE DEPARTMENT,WATSONTOWN PD,318 MAIN ST,WATSONTOWN,PA,17777,"http://maps.google.com/maps?q=318 MAIN ST,+WATSONTOWN,+PA+17777&hl=en"
WELLSBORO POLICE DEPARTMENT,WELLSBORO POLICE DEPT,28 CRAFTON ST,WELLSBORO,PA,16901,"http://maps.google.com/maps?q=28 CRAFTON ST,+WELLSBORO,+PA+16901&hl=en"
WEST SENECA POLICE DEPARTMENT,WEST SENECA SENIOR CENTER,4620 SENECA STREET,WEST SENECA,NY,14224,"http://maps.google.com/maps?q=4620 SENECA STREET,+WEST SENECA,+NY+14224&hl=en"
WRIGHT TOWNSHIP POLICE DEPARTMENT,WRIGHT TOWNSHIP POLICE DEPARTMENT,321 SOUTH MOUNTAIN. BLVD.,MOUNTAIN TOP,PA,18707,"http://maps.google.com/maps?q=321 SOUTH MOUNTAIN. BLVD.,+MOUNTAIN TOP,+PA+18707&hl=en"
WYOMING COUNTY DISTRICT ATTORNEYS OFFIC DETECTIVES,CVS PHARMACY,BUSINESS ROUTE 6 AND SR 29,TUNKHANNOCK,PA,18657,"http://maps.google.com/maps?q=BUSINESS ROUTE 6 AND SR 29,+TUNKHANNOCK,+PA+18657&hl=en"
WYOMING COUNTY DISTRICT ATTORNEYS OFFIC DETECTIVES,LECH'S PHARMACY,SR0006,TUNKHANNOCK,PA,18657,"http://maps.google.com/maps?q=SR0006,+TUNKHANNOCK,+PA+18657&hl=en"
WYOMING COUNTY DISTRICT ATTORNEYS OFFIC DETECTIVES,RITE AID,420 TIOGA PLZ,TUNKHANNOCK,PA,18657,"http://maps.google.com/maps?q=420 TIOGA PLZ,+TUNKHANNOCK,+PA+18657&hl=en"
WYOMING COUNTY SHERIFF'S DEPARTMENT,ATTICA POLICE DEPARTMENT,43 EXCHNAGE STREET,ATTICA,NY,14011,"http://maps.google.com/maps?q=43 EXCHNAGE STREET,+ATTICA,+NY+14011&hl=en"
WYOMING COUNTY SHERIFF'S DEPARTMENT,PERRY POLICE DEPARTMENT,46 NORTH MAIN STREET,PERRY,NY,14530,"http://maps.google.com/maps?q=46 NORTH MAIN STREET,+PERRY,+NY+14530&hl=en"
WYOMING COUNTY SHERIFF'S DEPARTMENT,WYOMING COUNTY SHERIFF'S OFFICE,151 N. MAIN STREET,WARSAW,NY,14569,"http://maps.google.com/maps?q=151 N. MAIN STREET,+WARSAW,+NY+14569&hl=en"
