Participant,CollectionSite,Address,City,State,Zip,MapURL
ALBEMARLE COUNTY POLICE DEPARTMENT,MARTHA JEFFERSON HOSPITAL BACKSIDE OF MAIN HOSPITAL,500 MARTHA JEFFERSON DRIVE,CHARLOTTESVILLE,VA,22911,"http://maps.google.com/maps?q=500 MARTHA JEFFERSON DRIVE,+CHARLOTTESVILLE,+VA+22911&hl=en"
ALBEMARLE COUNTY POLICE DEPARTMENT,WEGMANS,100 WEGMANS WAY,CHARLOTTESVILLE,VA,22902,"http://maps.google.com/maps?q=100 WEGMANS WAY,+CHARLOTTESVILLE,+VA+22902&hl=en"
ALEXANDRIA POLICE DEPARTMENT,ALEXANDRIA FIRE STATION 210,5525 EISENHOWER AVE,ALEXANDRIA,VA,22304,"http://maps.google.com/maps?q=5525 EISENHOWER AVE,+ALEXANDRIA,+VA+22304&hl=en"
ALEXANDRIA POLICE DEPARTMENT,ALEXANDRIA POLICE HEADQUARTERS FRONT ENTRANCE,3600 WHEELER AVENUE,ALEXANDRIA,VA,22304,"http://maps.google.com/maps?q=3600 WHEELER AVENUE,+ALEXANDRIA,+VA+22304&hl=en"
ALEXANDRIA POLICE DEPARTMENT,FIRST BAPTIST CHURCH FRONT ENTRANCE,2932 KING STREET,ALEXANDRIA,VA,22302,"http://maps.google.com/maps?q=2932 KING STREET,+ALEXANDRIA,+VA+22302&hl=en"
ALEXANDRIA SHERIFF'S OFFICE,NEIGHBORHOOD PHARMACY FRONT OF THE BUILDING,2204 MT. VERNON AVENUE,ALEXANDRIA,VA,22301,"http://maps.google.com/maps?q=2204 MT. VERNON AVENUE,+ALEXANDRIA,+VA+22301&hl=en"
ALLEGHANY COUNTY SHERIFF'S OFFICE,CVS/KROGER CLIFTON FORGE,1618 MAIN ST,CLIFTON FORGE,VA,24422,"http://maps.google.com/maps?q=1618 MAIN ST,+CLIFTON FORGE,+VA+24422&hl=en"
ALLEGHANY COUNTY SHERIFF'S OFFICE,WALMART SUPERCENTER,313 W. THACKER RD,COVINGTON,VA,24426,"http://maps.google.com/maps?q=313 W. THACKER RD,+COVINGTON,+VA+24426&hl=en"
AMELIA COUNTY SHERFF'S OFFICE,AMELIA PHARMACY INC. FRONT SIDEWALK BY STORE ENTRANCE,15412 PATRICK HENRY HWY.,AMELIA,VA,23002,"http://maps.google.com/maps?q=15412 PATRICK HENRY HWY.,+AMELIA,+VA+23002&hl=en"
AMELIA COUNTY SHERFF'S OFFICE,RITE AID PHARMACY FRONT SIDEWALK BY STORE ENTRANCE,15105 PATRICK HENRY HWY,AMELIA,VA,23002,"http://maps.google.com/maps?q=15105 PATRICK HENRY HWY,+AMELIA,+VA+23002&hl=en"
AMHERST COUNTY SHERIFF'S OFFICE,AMHERST COUNTY SHERIFF'S OFFICE PHONE NUMBER 434-946-9381,115 TAYLOR ST,AMHERST,VA,24521,"http://maps.google.com/maps?q=115 TAYLOR ST,+AMHERST,+VA+24521&hl=en"
ANNAPOLIS POLICE DEPARTMENT,ANNAPOLIS POLICE DEPARTMENT,199 TAYLOR AVENUE,ANNAPOLIS,MD,21401,"http://maps.google.com/maps?q=199 TAYLOR AVENUE,+ANNAPOLIS,+MD+21401&hl=en"
ANNE ARUNDEL CO,EASTERN DISTRICT,204 PASADENA ROAD,PASADENA,MD,21122,"http://maps.google.com/maps?q=204 PASADENA ROAD,+PASADENA,+MD+21122&hl=en"
ANNE ARUNDEL CO,HEADQUARTERS,8495 VETERAN'S HIGHWAY,MILLERSVILLE,MD,21108,"http://maps.google.com/maps?q=8495 VETERAN'S HIGHWAY,+MILLERSVILLE,+MD+21108&hl=en"
ANNE ARUNDEL CO,SOUTHERN DISTRICT,35 STEPNEY'S LANE,EDGEWATER,MD,21037,"http://maps.google.com/maps?q=35 STEPNEY'S LANE,+EDGEWATER,+MD+21037&hl=en"
ANNE ARUNDEL CO,WESTERN DISTRICT,8273 TELEGRAPH ROAD,ODENTON,MD,21113,"http://maps.google.com/maps?q=8273 TELEGRAPH ROAD,+ODENTON,+MD+21113&hl=en"
APPOMATTOX COUNTY SHERIFF'S OFFICE,HOMETOWN PHARMACY,199 OLD COURTHOUSE ROAD,APPOMATTOX,VA,24522,"http://maps.google.com/maps?q=199 OLD COURTHOUSE ROAD,+APPOMATTOX,+VA+24522&hl=en"
ARLINGTON COUNTY POLICE DEPARTMENT,ARLINGTON FIRE STATION #2,4805 WILSON BLVD,ARLINGTON,VA,22203,"http://maps.google.com/maps?q=4805 WILSON BLVD,+ARLINGTON,+VA+22203&hl=en"
ARLINGTON COUNTY POLICE DEPARTMENT,ARLINGTON FIRE STATION #5,1750 SOUTH HAYES STREET,ARLINGTON,VA,22202,"http://maps.google.com/maps?q=1750 SOUTH HAYES STREET,+ARLINGTON,+VA+22202&hl=en"
ARLINGTON COUNTY POLICE DEPARTMENT,ARLINGTON FIRE STATION #9 MAIN LEVEL COMMUNITY ROOM,1900 SOUTH WALTER REED DRIVE,ARLINGTON,VA,22204,"http://maps.google.com/maps?q=1900 SOUTH WALTER REED DRIVE,+ARLINGTON,+VA+22204&hl=en"
ASHLAND POLICE DEPARTMENT,ASHLAND POLICE DEPARTMENT VISITOR PARKING LOT,601 ENGLAND STREET,ASHLAND,VA,23005,"http://maps.google.com/maps?q=601 ENGLAND STREET,+ASHLAND,+VA+23005&hl=en"
BARBOUR COUNTY SHERIFF'S OFFICE,MACES PHARMACY,204 CRIM AVENUE,BELINGTON,WV,26250,"http://maps.google.com/maps?q=204 CRIM AVENUE,+BELINGTON,+WV+26250&hl=en"
BARBOUR COUNTY SHERIFF'S OFFICE,MACES PHARMACY,440 S MAIN ST,PHILIPPI,WV,26416,"http://maps.google.com/maps?q=440 S MAIN ST,+PHILIPPI,+WV+26416&hl=en"
BLACKSBURG POLICE DEPARTMENT,BLACKSBURG RECREATION CENTER PARKING LOT,725 PATRICK HENRY DRIVE,BLACKSBURG,VA,24060,"http://maps.google.com/maps?q=725 PATRICK HENRY DRIVE,+BLACKSBURG,+VA+24060&hl=en"
BLACKSTONE (TOWN OF) POLICE DEPARTMENT,BLACKSTONE POLICE DEPT CONFERENCE ROOM,101 WEST ELM STREET,BLACKSTONE,VA,23824,"http://maps.google.com/maps?q=101 WEST ELM STREET,+BLACKSTONE,+VA+23824&hl=en"
BOTETOURT COUNTY SHERIFF'S OFFICE,KROGER DALEVILLE,72 KINGSTON DRIVE,DALEVILLE,VA,24083,"http://maps.google.com/maps?q=72 KINGSTON DRIVE,+DALEVILLE,+VA+24083&hl=en"
BOWIE POLICE DEPARTMENT,BOWIE POLICE STATION,15901 EXCALIBUR ROAD,BOWIE,MD,20716,"http://maps.google.com/maps?q=15901 EXCALIBUR ROAD,+BOWIE,+MD+20716&hl=en"
BRAXTON CO. SHERRI'FS OFFICE,BRAXTON COUNTY COURT HOUSE IN FRONT OF COURTHOUSE,300 MAIN STREET,SUTTON,WV,26601,"http://maps.google.com/maps?q=300 MAIN STREET,+SUTTON,+WV+26601&hl=en"
BUENA VISTA POLICE DEPARTMENT,CVS PHARMACY EXTERIOR BREEZEWAY,2148 E. MIDLAND TRAIL,BUENA VISTA,VA,24416,"http://maps.google.com/maps?q=2148 E. MIDLAND TRAIL,+BUENA VISTA,+VA+24416&hl=en"
CALVERT COUNTY SHERIFF'S OFFICE,MT. HOPE COMMUNITY CENTER,104 PUSHAW STATION RD.,SUNDERLAND,MD,20689,"http://maps.google.com/maps?q=104 PUSHAW STATION RD.,+SUNDERLAND,+MD+20689&hl=en"
CALVERT COUNTY SHERIFF'S OFFICE,NORTHEAST COMMUNITY CENTER,4075 GORDON STINNETT AVE.,CHESAPEAKE BEACH,MD,20732,"http://maps.google.com/maps?q=4075 GORDON STINNETT AVE.,+CHESAPEAKE BEACH,+MD+20732&hl=en"
CALVERT COUNTY SHERIFF'S OFFICE,SOUTHERN COMMUNITY CENTER,20 APPEAL LANE,LUSBY,MD,20657,"http://maps.google.com/maps?q=20 APPEAL LANE,+LUSBY,+MD+20657&hl=en"
CAROLINE COUNTY SHERIFF'S OFFICE,CAROLINE SQUARE SHOPPING CENTER PARKING LOT PARKING LOT NEAR RITE AID PHARMACY ENTRANCE,104 W. BROADDUS AVENUE,BOWLING GREEN,VA,22427,"http://maps.google.com/maps?q=104 W. BROADDUS AVENUE,+BOWLING GREEN,+VA+22427&hl=en"
CAROLINE COUNTY SHERIFF'S OFFICE,CVS PHARMACY PARKING LOT,18048 JEFFERSON DAVIS HIGHWAY,RUTHER GLEN,VA,22546,"http://maps.google.com/maps?q=18048 JEFFERSON DAVIS HIGHWAY,+RUTHER GLEN,+VA+22546&hl=en"
"CAROLINE COUNTY SHERIFF'S OFFICE, DENTON",DENTON WALMART,610 LEGION ROAD,DENTON,MD,21629,"http://maps.google.com/maps?q=610 LEGION ROAD,+DENTON,+MD+21629&hl=en"
CARY POLICE DEPARTMENT,CARY POLICE DEPARTMENT DET. WHITNEY MATTHEWS,120 WILKINSON AVE,CARY,NC,27513,"http://maps.google.com/maps?q=120 WILKINSON AVE,+CARY,+NC+27513&hl=en"
CHARLES COUNTY GOVERNMENT,CHARLES COUNTY GOVERNMENT MAIN ENTRANCE PARKING LOT,200 BALTIMORE STREET,LA PLATA,MD,20646,"http://maps.google.com/maps?q=200 BALTIMORE STREET,+LA PLATA,+MD+20646&hl=en"
CHESAPEAKE POLICE DEPARTMENT,CHESAPEAKE POLICE 2ND PRECINCT,1209 20TH STREET,CHESAPEAKE,VA,23324,"http://maps.google.com/maps?q=1209 20TH STREET,+CHESAPEAKE,+VA+23324&hl=en"
CHESAPEAKE POLICE DEPARTMENT,CHESAPEAKE POLICE 3RD PRECINCT,949 NORTH GEORGE WASHINGTON HIGHWAY,CHESAPEAKE,VA,23323,"http://maps.google.com/maps?q=949 NORTH GEORGE WASHINGTON HIGHWAY,+CHESAPEAKE,+VA+23323&hl=en"
CHESAPEAKE POLICE DEPARTMENT,CHESAPEAKE POLICE 4TH PRECINCT,4764 STATION HOUSE ROAD,CHESAPEAKE,VA,23321,"http://maps.google.com/maps?q=4764 STATION HOUSE ROAD,+CHESAPEAKE,+VA+23321&hl=en"
CHESAPEAKE POLICE DEPARTMENT,CHESAPEAKE POLICE 5TH PRECINCT,400 VOLVO PARKWAY,CHESAPEAKE,VA,23320,"http://maps.google.com/maps?q=400 VOLVO PARKWAY,+CHESAPEAKE,+VA+23320&hl=en"
CHESAPEAKE SHERIFF'S OFFICE,CHESAPEAKE SHERIFF'S OFFICE ADMIN BUILDING ACROSS FROM CORRECTIONAL CENTER,401 ALBEMARLE DRIVE,CHESAPEAKE,VA,23322,"http://maps.google.com/maps?q=401 ALBEMARLE DRIVE,+CHESAPEAKE,+VA+23322&hl=en"
CHESTERFIELD COUNTY POLICE DEPARTMENT,WEGMANS,12501 STONE VILLAGE WAY,MIDLOTHIAN,VA,23113,"http://maps.google.com/maps?q=12501 STONE VILLAGE WAY,+MIDLOTHIAN,+VA+23113&hl=en"
CHEVY CHASE VILLAGE POLICE DEPARTMENT,CHEVY CHASE VILLAGE POLICE DEPARTMENT,5906 CONNECTICUT AVENUE,CHEVY CHASE,MD,20815,"http://maps.google.com/maps?q=5906 CONNECTICUT AVENUE,+CHEVY CHASE,+MD+20815&hl=en"
CHRISTIANSBURG POLICE DEPARTMENT,CVS PHARMACY PARKING LOT NEAR ENTRANCE,550 NORTH FRANKLIN ST,CHRISTIANSBURG,VA,24073,"http://maps.google.com/maps?q=550 NORTH FRANKLIN ST,+CHRISTIANSBURG,+VA+24073&hl=en"
CITY OF SEAFORD PD,CITY OF SEAFORD PD,300 VIRGINIA AVE,SEAFORD,DE,19973,"http://maps.google.com/maps?q=300 VIRGINIA AVE,+SEAFORD,+DE+19973&hl=en"
COLONIAL HEIGHTS POLICE DEPARTMENT,ASHLEY FURNITURE HOMESTORE PARKING LOT,1899 SOUTHPARK BLVD,COLONIAL HEIGHTS,VA,23834,"http://maps.google.com/maps?q=1899 SOUTHPARK BLVD,+COLONIAL HEIGHTS,+VA+23834&hl=en"
CRAIG COUNTY SHERIFF'S OFFICE,MARKET STREET PHARMACY PARKING LOT,317 MARKET ST,NEW CASTLE,VA,24127,"http://maps.google.com/maps?q=317 MARKET ST,+NEW CASTLE,+VA+24127&hl=en"
CURRITUCK COUNTY SHERIFF'S OFFICE,CURRITUCK FAMILY YMCA,130 COMMUNITY WAY,BARCO,NC,27917,"http://maps.google.com/maps?q=130 COMMUNITY WAY,+BARCO,+NC+27917&hl=en"
DAGSBORO POLICE DEPARTMENT,DAGSBORO POLICE DEPARTMENT,33134 MAIN STREET,DAGSBORO,DE,19939,"http://maps.google.com/maps?q=33134 MAIN STREET,+DAGSBORO,+DE+19939&hl=en"
DANVILLE POLICE DEPARTMENT,CENTRA MEDICAL GROUP DANVILLE PARKING LOT - WEST END OF THE BUILDING,414 PARK AVE,DANVILLE,VA,24541,"http://maps.google.com/maps?q=414 PARK AVE,+DANVILLE,+VA+24541&hl=en"
DEA - HEADQUARTERS,AURORA HILLS LIBRARY,735 18TH STREET,ARLINGTON,VA,22202,"http://maps.google.com/maps?q=735 18TH STREET,+ARLINGTON,+VA+22202&hl=en"
DEA / MONTCLAIR LIONS CLUB,MONTCLAIR LIONS,5183 WATERWAY DR,DUMFRIES,VA,22025,"http://maps.google.com/maps?q=5183 WATERWAY DR,+DUMFRIES,+VA+22025&hl=en"
DEA / MONTCLAIR LIONS CLUB,MONTCLAIR SHOPPING CENTER IN FRONT OF FRAMING OUTLET,5183 WATERWAY DRIVE,DUMFRIES,VA,22025,"http://maps.google.com/maps?q=5183 WATERWAY DRIVE,+DUMFRIES,+VA+22025&hl=en"
DELAWARE RIVER & BAY AUTHORITY,LEWES FERRY TERMINAL,43 CAPE HENLOPEN DRIVE,LEWES,DE,19958,"http://maps.google.com/maps?q=43 CAPE HENLOPEN DRIVE,+LEWES,+DE+19958&hl=en"
DELAWARE STATE POLICE,DELAWARE STATE POLICE - TROOP 7,18006 COASTAL HIGHWAY,LEWES,DE,19958,"http://maps.google.com/maps?q=18006 COASTAL HIGHWAY,+LEWES,+DE+19958&hl=en"
DELMAR POLICE DEPARTMENT,DELMAR POLICE DEPARTMENT,102 SOUTH PENNSYLVANIA AVENUE,DELMAR,MD,21875,"http://maps.google.com/maps?q=102 SOUTH PENNSYLVANIA AVENUE,+DELMAR,+MD+21875&hl=en"
DINWIDDIE COUNTY SHERIFF'S OFFICE,EASTSIDE ENHANCEMENT CENTER,7301 BOYDTON PLANK ROAD,PETERSBURG,VA,23803,"http://maps.google.com/maps?q=7301 BOYDTON PLANK ROAD,+PETERSBURG,+VA+23803&hl=en"
DUBLIN POLICE DEPARTMENT,CVS PHARMACY #7658,100 GILES AVENUE,DUBLIN,VA,24084,"http://maps.google.com/maps?q=100 GILES AVENUE,+DUBLIN,+VA+24084&hl=en"
DURHAM POLICE DEPARTMENT,CVS,3573 HILLSBOROUGH RD,DURHAM,NC,27705,"http://maps.google.com/maps?q=3573 HILLSBOROUGH RD,+DURHAM,+NC+27705&hl=en"
DURHAM POLICE DEPARTMENT,TRIANGLE PHARMACY,1700 E NC HIGHWAY 54,DURHAM,NC,27713,"http://maps.google.com/maps?q=1700 E NC HIGHWAY 54,+DURHAM,+NC+27713&hl=en"
DURHAM POLICE DEPARTMENT,WALGREENS,1812 HOLLOWAY STREET,DURHAM,NC,27701,"http://maps.google.com/maps?q=1812 HOLLOWAY STREET,+DURHAM,+NC+27701&hl=en"
DURHAM POLICE DEPARTMENT,WALGREENS,6405 FAYETTEVILLE RD,DURHAM,NC,27713,"http://maps.google.com/maps?q=6405 FAYETTEVILLE RD,+DURHAM,+NC+27713&hl=en"
FAIRFAX CITY POLICE DEPARTMENT,FAIRFAX CITY POLICE DEPARTMENT FRONT LOBBY,3730 OLD LEE HIGHWAY,FAIRFAX,VA,22030,"http://maps.google.com/maps?q=3730 OLD LEE HIGHWAY,+FAIRFAX,+VA+22030&hl=en"
FAIRFAX COUNTY POLICE DEPARTMENT,FAIR OAKS DISTRICT STATION PARKING LOT -OPERATING 10 AM TO 2 PM-,12300 LEE JACKSON MEMORIAL HIGHWAY,FAIRFAX,VA,22033,"http://maps.google.com/maps?q=12300 LEE JACKSON MEMORIAL HIGHWAY,+FAIRFAX,+VA+22033&hl=en"
FAIRFAX COUNTY POLICE DEPARTMENT,FRANCONIA DISTRICT STATION FRONT PARKING LOT -OPERATING 10 AM TO 2 PM-,6121 FRANCONIA ROAD,ALEXANDRIA,VA,22310,"http://maps.google.com/maps?q=6121 FRANCONIA ROAD,+ALEXANDRIA,+VA+22310&hl=en"
FAIRFAX COUNTY POLICE DEPARTMENT,MASON DISTRICT STATION FRONT PARKING LOT -OPERATING 10 AM TO 2 PM-,6507 COLUMBIA PIKE,ANNANDALE,VA,22003,"http://maps.google.com/maps?q=6507 COLUMBIA PIKE,+ANNANDALE,+VA+22003&hl=en"
FAIRFAX COUNTY POLICE DEPARTMENT,MCLEAN DISTRICT POLICE STATION FRONT PARKING LOT -OPERATING 10 AM TO 2 PM-,1437 BALLS HILL ROAD,MCLEAN,VA,22101,"http://maps.google.com/maps?q=1437 BALLS HILL ROAD,+MCLEAN,+VA+22101&hl=en"
FAIRFAX COUNTY POLICE DEPARTMENT,MOUNT VERNON DISTRICT POLICE STATION FRONT PARKING LOT -OPERATING 10 AM TO 2 PM-,2511 PARKERS LANE,ALEXANDRIA,VA,22306,"http://maps.google.com/maps?q=2511 PARKERS LANE,+ALEXANDRIA,+VA+22306&hl=en"
FAIRFAX COUNTY POLICE DEPARTMENT,RESTON DISTRICT STATION PARKING LOT -OPERATING 10 AM TO 2 PM-,12000 BOWMAN TOWNE DRIVE,RESTON,VA,20190,"http://maps.google.com/maps?q=12000 BOWMAN TOWNE DRIVE,+RESTON,+VA+20190&hl=en"
FAIRFAX COUNTY POLICE DEPARTMENT,SULLY DISTRICT POLICE STATION FRONT PARKING LOT -OPERATING 10 AM TO 2 PM-,4900 STONECROFT BOULEVARD,CHANTILLY,VA,20151,"http://maps.google.com/maps?q=4900 STONECROFT BOULEVARD,+CHANTILLY,+VA+20151&hl=en"
FAIRFAX COUNTY POLICE DEPARTMENT,WEST SPRINGFIELD DISTRICT STATION PARKING LOT -OPERATING 10 AM TO 2 PM-,6140 ROLLING ROAD,SPRINGFIELD,VA,22152,"http://maps.google.com/maps?q=6140 ROLLING ROAD,+SPRINGFIELD,+VA+22152&hl=en"
FALLS CHURCH POLICE DEPARTMENT,FALLS CHURCH CITY HALL EXTERIOR,300 PARK AVE,FALLS CHURCH,VA,22046,"http://maps.google.com/maps?q=300 PARK AVE,+FALLS CHURCH,+VA+22046&hl=en"
FARMVILLE POLICE DEPARTMENT/LONGWOOD UNIVERSITY PD,MIDTOWN SQUARE IN FRONT OF CHICK-FIL-A,156 S. SOUTH STREET,FARMVILLE,VA,23901,"http://maps.google.com/maps?q=156 S. SOUTH STREET,+FARMVILLE,+VA+23901&hl=en"
FLOYD COUNTY SHERIFF'S OFFICE,FLOYD COUNTY SHERIFF'S OFFICE MAIN ENTRANCE,100 MAIN STREET,FLOYD,VA,24091,"http://maps.google.com/maps?q=100 MAIN STREET,+FLOYD,+VA+24091&hl=en"
FLUVANNA COUNTY SHERIFF'S OFFICE,JEFFERSON PHARMACY,194 B TURKEY SAG TRAIL,PALMYRA,VA,22963,"http://maps.google.com/maps?q=194 B TURKEY SAG TRAIL,+PALMYRA,+VA+22963&hl=en"
FRANKLIN COUNTY SHERIFF'S OFFICE,FRANKLIN COUNTY SHERIFF'S WESTLAKE SUBSTATION,13205 BOOKER T. WASHINGTON HWY,HARDY,VA,24101,"http://maps.google.com/maps?q=13205 BOOKER T. WASHINGTON HWY,+HARDY,+VA+24101&hl=en"
FREDERICK COUNTY SHERIFF'S OFFICE,FREDERICK COUNTY PUBLIC SAFETY BUILDING,1080 COVERSTONE DRIVE,WINCHESTER,VA,22602,"http://maps.google.com/maps?q=1080 COVERSTONE DRIVE,+WINCHESTER,+VA+22602&hl=en"
FREDERICK COUNTY SHERIFF'S OFFICE,WALGREENS,131 VALLEY MILL ROAD,WINCHESTER,VA,22602,"http://maps.google.com/maps?q=131 VALLEY MILL ROAD,+WINCHESTER,+VA+22602&hl=en"
FREDERICKSBURG POLICE DEPARTMENT,MARY WASHINGTON HOSPITAL TOMPKINS-MARTIN MEDICAL PLAZA,1101 SAM PERRY BLVD,FREDERICKSBURG,VA,22401,"http://maps.google.com/maps?q=1101 SAM PERRY BLVD,+FREDERICKSBURG,+VA+22401&hl=en"
GAITHERSBURG POLICE DEPARTMENT,GAITHERSBURG POLICE DEPARTMENT,14 FULKS CORNER AVENUE,GAITHERSBURG,MD,20877,"http://maps.google.com/maps?q=14 FULKS CORNER AVENUE,+GAITHERSBURG,+MD+20877&hl=en"
GARRETT COUNTY SHERIFF'S OFFICE,GARRETT COUNTY SHERIFF'S OFFICE POC ROB CORELY,311 EAST ALDER STREET,OAKLAND,MD,21550,"http://maps.google.com/maps?q=311 EAST ALDER STREET,+OAKLAND,+MD+21550&hl=en"
GEORGE MASON UNIVERSITY POLICE DEPARTMENT,GEORGE MASON UNIVERSITY POLICE STATION,4393 UNIVERSITY DRIVE,FAIRFAX,VA,22030,"http://maps.google.com/maps?q=4393 UNIVERSITY DRIVE,+FAIRFAX,+VA+22030&hl=en"
GILES COUNTY SHERIFF'S OFFICE,GILES COUNTY SHERIFF'S OFFICE,1 TAYLOR AVENUE SUITE 3,PEARISBURG,VA,24134,"http://maps.google.com/maps?q=1 TAYLOR AVENUE SUITE 3,+PEARISBURG,+VA+24134&hl=en"
GLOUCESTER COUNTY SHERIFF'S OFFICE,GLOUCESTER PHARMACY,7453 HARGETT BLVD,GLOUCESTER,VA,23061,"http://maps.google.com/maps?q=7453 HARGETT BLVD,+GLOUCESTER,+VA+23061&hl=en"
GLOUCESTER COUNTY SHERIFF'S OFFICE,WALGREEN'S PHARMACY FRONT ENTRANCE,2418 GEORGE WASHINGTON MEMORIAL HIGHWAY,HAYES,VA,23072,"http://maps.google.com/maps?q=2418 GEORGE WASHINGTON MEMORIAL HIGHWAY,+HAYES,+VA+23072&hl=en"
GOOCHLAND COUNTY SHERIFF'S OFFICE,GOOCHLAND FIRE/RESCUE COMPANY 5,2710 FAIRGROUNDS ROAD,GOOCHLAND,VA,23063,"http://maps.google.com/maps?q=2710 FAIRGROUNDS ROAD,+GOOCHLAND,+VA+23063&hl=en"
GOOCHLAND COUNTY SHERIFF'S OFFICE,WEST CREEK EMERGENCY CENTER,12720 TUCKAHOE CREEK PKWY,HENRICO,VA,23238,"http://maps.google.com/maps?q=12720 TUCKAHOE CREEK PKWY,+HENRICO,+VA+23238&hl=en"
GREENBELT POLICE DEPARTMENT,GREENBELT POLICE DEPARTMENT,550 CRESCENT ROAD,GREENBELT,MD,20770,"http://maps.google.com/maps?q=550 CRESCENT ROAD,+GREENBELT,+MD+20770&hl=en"
HAMPSHIRE COUNTY SHERIFF'S OFFICE,HAMPSHIRE COUNTY SD,66 N HIGH STREET,ROMNEY,WV,26757,"http://maps.google.com/maps?q=66 N HIGH STREET,+ROMNEY,+WV+26757&hl=en"
HAMPTON POLICE DIVISION,SENTARA CAREPLEX HOSPITAL NEAR EMERGENCY ROOM ENTRANCE,3000 COLISEUM DRIVE,HAMPTON,VA,23666,"http://maps.google.com/maps?q=3000 COLISEUM DRIVE,+HAMPTON,+VA+23666&hl=en"
HANOVER COUNTY SHERIFF'S OFFICE,MECHANICSVILLE CONVENIENCE CENTER,7427 VERDI LANE,MECHANICSVILLE,VA,23116,"http://maps.google.com/maps?q=7427 VERDI LANE,+MECHANICSVILLE,+VA+23116&hl=en"
HENRICO POLICE DEPARTMENT,EASTERN HENRICO RECREATION CENTER,1440 N. LABURNUM AVENUE,RICHMOND,VA,23223,"http://maps.google.com/maps?q=1440 N. LABURNUM AVENUE,+RICHMOND,+VA+23223&hl=en"
HENRICO POLICE DEPARTMENT,HENRICO TRAINING CENTER ENTRANCE IS ON SHRADER ROAD,7721 E. PARHAM ROAD,HENRICO,VA,23294,"http://maps.google.com/maps?q=7721 E. PARHAM ROAD,+HENRICO,+VA+23294&hl=en"
HENRICO POLICE DEPARTMENT,VARINA PUBLIC LIBRARY,1875 NEW MARKET ROAD,HENRICO,VA,23231,"http://maps.google.com/maps?q=1875 NEW MARKET ROAD,+HENRICO,+VA+23231&hl=en"
HENRICO POLICE DEPARTMENT,WEGMANS,12200 WEGMANS BOULEVARD,HENRICO,VA,23233,"http://maps.google.com/maps?q=12200 WEGMANS BOULEVARD,+HENRICO,+VA+23233&hl=en"
HERNDON POLICE DEPARTMENT,HERNDON POLICE DEPARTMENT LOBBY AREA,397 HERNDON PARKWAY,HERNDON,VA,20170,"http://maps.google.com/maps?q=397 HERNDON PARKWAY,+HERNDON,+VA+20170&hl=en"
HIGHLAND COUNTY SHERIFF'S OFFICE,HIGHLAND COUNTY SHERIFF'S OFFICE,145 WEST MAIN STREET,MONTEREY,VA,24465,"http://maps.google.com/maps?q=145 WEST MAIN STREET,+MONTEREY,+VA+24465&hl=en"
HOPEWELL POLICE DEPARTMENT,HOPEWELL POLICE DEPARTMENT PARKING LOT BY MAIN ENTRANCE,300 N. MAIN STREET,HOPEWELL,VA,23860,"http://maps.google.com/maps?q=300 N. MAIN STREET,+HOPEWELL,+VA+23860&hl=en"
HOWARD COUNTY POLICE DEPARTMENT,HOWARD COUNTY POLICE COMMUNITY OUTREACH,10785 LITTLE PATUXENT PARKWAY,COLUMBIA,MD,21044,"http://maps.google.com/maps?q=10785 LITTLE PATUXENT PARKWAY,+COLUMBIA,+MD+21044&hl=en"
HOWARD COUNTY POLICE DEPARTMENT,HOWARD COUNTY POLICE SOUTHERN DISTRICT,11226 SCAGGSVILLE RD.,LAUREL,MD,20723,"http://maps.google.com/maps?q=11226 SCAGGSVILLE RD.,+LAUREL,+MD+20723&hl=en"
HYATTSVILLE CITY POLICE,HYATTSVILLE CITY POLICE DEPARTMENT,4310 GALLATIN STREET,HYATTSVILLE,MD,20781,"http://maps.google.com/maps?q=4310 GALLATIN STREET,+HYATTSVILLE,+MD+20781&hl=en"
JAMES CITY COUNTY POLICE DEPARTMENT,JAMES CITY COUNTY POLICE DEPARTMENT LAW ENFORCEMENT CENTER,4600 OPPORTUNITY WAY,WILLIAMSBURG,VA,23188,"http://maps.google.com/maps?q=4600 OPPORTUNITY WAY,+WILLIAMSBURG,+VA+23188&hl=en"
JEFFERSON COUNTY SHERIFF'S OFFICE,JEFFERSON COUNTY SHERIFF,102 INDUSTRIAL BOULEVARD,KEARNEYSVILLE,WV,25430,"http://maps.google.com/maps?q=102 INDUSTRIAL BOULEVARD,+KEARNEYSVILLE,+WV+25430&hl=en"
KING AND QUEEN SHERIFF'S OFFICE,NICK'S RESTAURANT SIDE PARKING LOT,3483 LEWIS B. PULLER HWY,SHACKLEFORDS,VA,23156,"http://maps.google.com/maps?q=3483 LEWIS B. PULLER HWY,+SHACKLEFORDS,+VA+23156&hl=en"
KING AND QUEEN SHERIFF'S OFFICE,PAMUNKEY REGIONAL LIBRARY FRONT PARKING LOT,396 NEWTOWN ROAD,SAINT STEPHENS CHURCH,VA,23148,"http://maps.google.com/maps?q=396 NEWTOWN ROAD,+SAINT STEPHENS CHURCH,+VA+23148&hl=en"
KING GEORGE SHERIFF'S OFFICE,KING GEORGE SHERIFF'S FRONT PARKING LOT,10445 GOVERNMENT CENTER BLVD.,KING GEORGE,VA,22485,"http://maps.google.com/maps?q=10445 GOVERNMENT CENTER BLVD.,+KING GEORGE,+VA+22485&hl=en"
KING WILLIAM COUNTY SHERIFF'S OFFICE,CENTRAL CROSSING FOOD LION PARKING LOT AREA NEAR FRONT OF STORE,4915 RICHMOND TAPPAHANNOCK HIGHWAY,AYLETT,VA,23009,"http://maps.google.com/maps?q=4915 RICHMOND TAPPAHANNOCK HIGHWAY,+AYLETT,+VA+23009&hl=en"
LANCASTER COUNTY SHERIFF'S DEPARTMENT,LANCASTER SHERIFF'S OFFICE,8293 MARY BALL ROAD,LANCASTER,VA,22503,"http://maps.google.com/maps?q=8293 MARY BALL ROAD,+LANCASTER,+VA+22503&hl=en"
LAUREL POLICE DEPARTMENT,LAUREL POLICE DEPARTMENT,205 MECHANIC STREET,LAUREL,DE,19956,"http://maps.google.com/maps?q=205 MECHANIC STREET,+LAUREL,+DE+19956&hl=en"
LAUREL POLICE DEPARTMENT,LAUREL POLICE DEPARTMENT,811 FIFTH STREET,LAUREL,MD,20707,"http://maps.google.com/maps?q=811 FIFTH STREET,+LAUREL,+MD+20707&hl=en"
LAWRENCEVILLE POLICE DEPARTMENT,LAWRENCEVILLE MUNICIPAL BUILDING AT THE ENTRANCE TO THE POLICE DEPARTMENT,400 N. MAIN STREET,LAWRENCEVILLE,VA,23868,"http://maps.google.com/maps?q=400 N. MAIN STREET,+LAWRENCEVILLE,+VA+23868&hl=en"
LEWES POLICE DEPARTMENT,CITY OF LEWES BOARD OF PUBLIC WORKS,129 SCHLEY AVENUE,LEWES,DE,19958,"http://maps.google.com/maps?q=129 SCHLEY AVENUE,+LEWES,+DE+19958&hl=en"
LEXINGTON POLICE DEPARTMENT,CVS PHARMACY,506 E NELSON STREET,LEXINGTON,VA,24450,"http://maps.google.com/maps?q=506 E NELSON STREET,+LEXINGTON,+VA+24450&hl=en"
LOUDOUN COUNTY SHERIFF'S OFFICE,ASHBURN STATION FRONT LOBBY,20272 SAVIN HILL DR,ASHBURN,VA,20147,"http://maps.google.com/maps?q=20272 SAVIN HILL DR,+ASHBURN,+VA+20147&hl=en"
LOUDOUN COUNTY SHERIFF'S OFFICE,DULLES SOUTH PUBLIC SAFETY CENTER FRONT LOBBY AREA,25216 LOUDOUN PARKWAY,CHANTILLY,VA,20152,"http://maps.google.com/maps?q=25216 LOUDOUN PARKWAY,+CHANTILLY,+VA+20152&hl=en"
LOUDOUN COUNTY SHERIFF'S OFFICE,EASTERN LOUDOUN STATION FRONT LOBBY AREA,46620 EAST FREDERICK DRIVE,STERLING,VA,20164,"http://maps.google.com/maps?q=46620 EAST FREDERICK DRIVE,+STERLING,+VA+20164&hl=en"
LOUDOUN COUNTY SHERIFF'S OFFICE,WEGMAN'S DULLES 28 CENTER,45131 COLUMBIA PL,STERLING,VA,20166,"http://maps.google.com/maps?q=45131 COLUMBIA PL,+STERLING,+VA+20166&hl=en"
LOUDOUN COUNTY SHERIFF'S OFFICE,WESTERN LOUDOUN STATION,47 W LOUDOUN ST,ROUND HILL,VA,20141,"http://maps.google.com/maps?q=47 W LOUDOUN ST,+ROUND HILL,+VA+20141&hl=en"
LOUISA COUNTY SHERIFF'S OFFICE,LOUISA COUNTY SHERIFF'S OFFICE,1 WOOLFOLK AVE,LOUISA,VA,23093,"http://maps.google.com/maps?q=1 WOOLFOLK AVE,+LOUISA,+VA+23093&hl=en"
LYNCHBURG POLICE DEPARTMENT,LYNCHBURG POLICE DEPARTMENT LOBBY,905 COURT STREET,LYNCHBURG,VA,24504,"http://maps.google.com/maps?q=905 COURT STREET,+LYNCHBURG,+VA+24504&hl=en"
MADISON COUNTY SHERIFF'S OFFICE,MADISON COUNTY SHERIFF'S OFFICE,115 CHURCH ST,MADISON,VA,22727,"http://maps.google.com/maps?q=115 CHURCH ST,+MADISON,+VA+22727&hl=en"
MANASSAS CITY POLICE DEPARTMENT,NOVANT HEALTH - PRINCE WILLIAM MEDICAL CENTER ENTRANCE TO WOMEN'S CENTER - OB/GYN,8700 SUDLEY ROAD,MANASSAS,VA,20110,"http://maps.google.com/maps?q=8700 SUDLEY ROAD,+MANASSAS,+VA+20110&hl=en"
MANASSAS PARK POLICE DEPARTMENT,MANASSAS PARK POLICE - COMMUNITY ROOM,329 MANASSAS DRIVE,MANASSAS PARK,VA,20111,"http://maps.google.com/maps?q=329 MANASSAS DRIVE,+MANASSAS PARK,+VA+20111&hl=en"
MARTINSVILLE POLICE DEPARTMENT,MARTINSVILLE FIRE DEPARTMENT FRONT ENTRANCE,65 WEST CHURCH ST.,MARTINSVILLE,VA,24112,"http://maps.google.com/maps?q=65 WEST CHURCH ST.,+MARTINSVILLE,+VA+24112&hl=en"
MARYLAND NATURAL RESOURCES POLICE,NATURAL RESOURCE POLICE BROADNECK OFFICE,1070 EAST COLLEGE PARKWAY,ANNAPOLIS,MD,21409,"http://maps.google.com/maps?q=1070 EAST COLLEGE PARKWAY,+ANNAPOLIS,+MD+21409&hl=en"
MARYLAND NATURAL RESOURCES POLICE,NATURAL RESOURCES POLICE HILLSBORO OFFICE,3001 STARR ROAD,QUEEN ANNE,MD,21657,"http://maps.google.com/maps?q=3001 STARR ROAD,+QUEEN ANNE,+MD+21657&hl=en"
MARYLAND STATE POLICE,MSP BERLIN BARRACK POC: D/SGT. RICK KLEBON,9758 OCEAN GATEWAY,BERLIN,MD,21811,"http://maps.google.com/maps?q=9758 OCEAN GATEWAY,+BERLIN,+MD+21811&hl=en"
MARYLAND STATE POLICE,MSP COLLEGE PARK BARRACK Q POC: LT. SEAN MORRIS,10100 RHODE ISLAND AVENUE,COLLEGE PARK,MD,20740,"http://maps.google.com/maps?q=10100 RHODE ISLAND AVENUE,+COLLEGE PARK,+MD+20740&hl=en"
MARYLAND STATE POLICE,MSP CUMBERLAND BARRACK POC: LT. MICHAEL FLUHARTY,1125 NATIONAL HIGHWAY,CUMBERLAND,MD,21502,"http://maps.google.com/maps?q=1125 NATIONAL HIGHWAY,+CUMBERLAND,+MD+21502&hl=en"
MARYLAND STATE POLICE,MSP EASTON BARRACK POC: D/SGT. MITCH PARKE,7053 OCEAN GATEWAY,EASTON,MD,21601,"http://maps.google.com/maps?q=7053 OCEAN GATEWAY,+EASTON,+MD+21601&hl=en"
MARYLAND STATE POLICE,MSP FORESTVILLE BARRACK POC: LT. ROLAND BUTLER,3500 FORESTVILLE ROAD,FORESTVILLE,MD,20747,"http://maps.google.com/maps?q=3500 FORESTVILLE ROAD,+FORESTVILLE,+MD+20747&hl=en"
MARYLAND STATE POLICE,MSP GLEN BURNIE BARRACK POC: SGT. EDWARD EICHER,6800 AVIATION BLVD.,GLEN BURNIE,MD,21061,"http://maps.google.com/maps?q=6800 AVIATION BLVD.,+GLEN BURNIE,+MD+21061&hl=en"
MARYLAND STATE POLICE,MSP LA PLATA BARRACK POC: D/SGT. KEVIN BEAUCHAMP,9500 MITCHELL ROAD,LA PLATA,MD,20646,"http://maps.google.com/maps?q=9500 MITCHELL ROAD,+LA PLATA,+MD+20646&hl=en"
MARYLAND STATE POLICE,MSP LEONARDTOWN BARRACK POC: D/SGT. WILLIAM ROSADO,23200 LEONARD HALL DRIVE,LEONARDTOWN,MD,20650,"http://maps.google.com/maps?q=23200 LEONARD HALL DRIVE,+LEONARDTOWN,+MD+20650&hl=en"
MARYLAND STATE POLICE,MSP MCHENRY BARRACK POC: JAMES PRITTS,67 FRIENDSVILLE ROAD,MC HENRY,MD,21541,"http://maps.google.com/maps?q=67 FRIENDSVILLE ROAD,+MC HENRY,+MD+21541&hl=en"
MARYLAND STATE POLICE,MSP PRINCESS ANNE BARRACK POC: D/SGT. KEEN,30581 PERRY ROAD,PRINCESS ANNE,MD,21853,"http://maps.google.com/maps?q=30581 PERRY ROAD,+PRINCESS ANNE,+MD+21853&hl=en"
MARYLAND STATE POLICE,MSP ROCKVILLE BARRACK POC: LT. H.B. MARTZ,7915 MONTROSE ROAD,ROCKVILLE,MD,20854,"http://maps.google.com/maps?q=7915 MONTROSE ROAD,+ROCKVILLE,+MD+20854&hl=en"
MARYLAND STATE POLICE,MSP SALISBURY BARRACK POC: D/SGT. ROBERT PHILLIPS,2765 NORTH SALISBURY BLVD.,SALISBURY,MD,21801,"http://maps.google.com/maps?q=2765 NORTH SALISBURY BLVD.,+SALISBURY,+MD+21801&hl=en"
MARYLAND STATE POLICE,MSP WATERLOO BARRACK POC: D/SGT. MYERS,7777 WASHINGTON BLVD,JESSUP,MD,20794,"http://maps.google.com/maps?q=7777 WASHINGTON BLVD,+JESSUP,+MD+20794&hl=en"
MARYLAND STATE POLICE,PRINCE FREDERICK BARRACK POC: RANDY STEVENS,210 MAIN STREET,PRINCE FREDERICK,MD,20678,"http://maps.google.com/maps?q=210 MAIN STREET,+PRINCE FREDERICK,+MD+20678&hl=en"
MILTON POLICE DEPARTMENT,MILTON POLICE DEPARTMENT,101 FEDERAL STREET,MILTON,DE,19968,"http://maps.google.com/maps?q=101 FEDERAL STREET,+MILTON,+DE+19968&hl=en"
MINERAL COUNTY SHERIFF'S OFFICE,MINERAL COUNTY DETENTION CENTER ACROSS STREET FROM COURTHOUSE,100 EAST STREET,KEYSER,WV,26726,"http://maps.google.com/maps?q=100 EAST STREET,+KEYSER,+WV+26726&hl=en"
MONROE COUNTY SHERIFF'S DEPT,MONROE CO SHERIFF'S DEPT,350 MAIN ST,UNION,WV,24983,"http://maps.google.com/maps?q=350 MAIN ST,+UNION,+WV+24983&hl=en"
MONTGOMERY COUNTY DEPARTMENT OF POLICE,2ND DISTRICT POLICE STATION,4823 RUGBY AVENUE,BETHESDA,MD,20814,"http://maps.google.com/maps?q=4823 RUGBY AVENUE,+BETHESDA,+MD+20814&hl=en"
MONTGOMERY COUNTY DEPARTMENT OF POLICE,3RD DISTRICT POLICE STATION,1001 MILESTONE DRIVE,SILVER SPRING,MD,20904,"http://maps.google.com/maps?q=1001 MILESTONE DRIVE,+SILVER SPRING,+MD+20904&hl=en"
MONTGOMERY COUNTY DEPARTMENT OF POLICE,4TH DISTRICT POLICE STATION,2300 RANDOLPH ROAD,WHEATON,MD,20902,"http://maps.google.com/maps?q=2300 RANDOLPH ROAD,+WHEATON,+MD+20902&hl=en"
MONTGOMERY COUNTY DEPARTMENT OF POLICE,5TH DISTRICT POLICE STATION,20000 AIRCRAFT DRIVE,GERMANTOWN,MD,20874,"http://maps.google.com/maps?q=20000 AIRCRAFT DRIVE,+GERMANTOWN,+MD+20874&hl=en"
MONTGOMERY COUNTY DEPARTMENT OF POLICE,6TH DISTRICT NORTH CREEK COMMUNITY CENTER,20125 ARROWHEAD ROAD,MONTGOMERY VILLAGE,MD,20886,"http://maps.google.com/maps?q=20125 ARROWHEAD ROAD,+MONTGOMERY VILLAGE,+MD+20886&hl=en"
MONTGOMERY COUNTY DEPARTMENT OF POLICE,FIRE STATION 1,8110 GEORGIA AVE.,SILVER SPRING,MD,20910,"http://maps.google.com/maps?q=8110 GEORGIA AVE.,+SILVER SPRING,+MD+20910&hl=en"
MONTGOMERY COUNTY DEPARTMENT OF POLICE,JEWISH COMMUNITY CENTER,6125 MONTROSE RD.,ROCKVILLE,MD,20852,"http://maps.google.com/maps?q=6125 MONTROSE RD.,+ROCKVILLE,+MD+20852&hl=en"
MONTGOMERY COUNTY DEPARTMENT OF POLICE,LEISURE WORLD,3305 N. LEISURE WORLD BLVD.,SILVER SPRING,MD,20906,"http://maps.google.com/maps?q=3305 N. LEISURE WORLD BLVD.,+SILVER SPRING,+MD+20906&hl=en"
MONTGOMERY COUNTY DEPARTMENT OF POLICE,SENIOR LIVING KENTLANDS MANOR,217 BOOTH ST.,GAITHERSBURG,MD,20878,"http://maps.google.com/maps?q=217 BOOTH ST.,+GAITHERSBURG,+MD+20878&hl=en"
MONTGOMERY COUNTY DEPARTMENT OF POLICE,VILLAGE OF FRIENDSHIP HEIGHTS COMMUNITY CENTER,4433 SOUTH PARK AVENUE,CHEVY CHASE,MD,20815,"http://maps.google.com/maps?q=4433 SOUTH PARK AVENUE,+CHEVY CHASE,+MD+20815&hl=en"
MOOREFIELD POLICE DEPARTMENT,MOOREFIELD POLICE DEPT/TOWN OFFICE,206 WINCHESTER AVE,MOOREFIELD,WV,26836,"http://maps.google.com/maps?q=206 WINCHESTER AVE,+MOOREFIELD,+WV+26836&hl=en"
NC STATE UNIVERSITY POLICE DEPT.,NC STATE UNIVERSITY POLICE DEPARTMENT FRONT LOBBY,2610 WOLF VILLAGE WAYCAMPUS BOX 7220,RALEIGH,NC,27695,"http://maps.google.com/maps?q=2610 WOLF VILLAGE WAY,+RALEIGH,+NC+27695&hl=en"
NEW KENT COUNTY SHERIFF'S OFFICE,NEW KENT SHERIFF'S OFFICE,11995 COURTHOUSE CIRCLE,NEW KENT,VA,23124,"http://maps.google.com/maps?q=11995 COURTHOUSE CIRCLE,+NEW KENT,+VA+23124&hl=en"
NEWPORT NEWS POLICE DEPARTMENT,NEWPORT NEWS PD NORTH PRECINCT LOT BETWEEN POLICE AND FIRE DEPARTMENTS,368 DESHAZOR DRIVE,NEWPORT NEWS,VA,23608,"http://maps.google.com/maps?q=368 DESHAZOR DRIVE,+NEWPORT NEWS,+VA+23608&hl=en"
NEWPORT NEWS POLICE DEPARTMENT,NEWPORT NEWS PD SOUTH PRECINCT,3303 JEFFERSON AVENUE,NEWPORT NEWS,VA,23607,"http://maps.google.com/maps?q=3303 JEFFERSON AVENUE,+NEWPORT NEWS,+VA+23607&hl=en"
NEWPORT NEWS POLICE DEPARTMENT,SENTARA PORT WARWICK AT THE EMERGENCY ROOM ENTRANCE,1031 LOFTIS BLVD.,NEWPORT NEWS,VA,23606,"http://maps.google.com/maps?q=1031 LOFTIS BLVD.,+NEWPORT NEWS,+VA+23606&hl=en"
NICHOLAS COUNTY SHERIFF'S DEPARTMENT,NICHOLAS COUNTY COURTHOUSE,700 MAIN ST,SUMMERSVILLE,WV,26651,"http://maps.google.com/maps?q=700 MAIN ST,+SUMMERSVILLE,+WV+26651&hl=en"
NORFOLK POLICE DEPARTMENT,NORFOLK POLICE 3RD DIVISION FRONT ENTRANCE,901 ASBURY AVENUE,NORFOLK,VA,23513,"http://maps.google.com/maps?q=901 ASBURY AVENUE,+NORFOLK,+VA+23513&hl=en"
NORFOLK POLICE DEPARTMENT,NORFOLK POLICE OPERATIONS CENTER FRONT ENTRANCE,3661 E. VIRGINIA BEACH BLVD,NORFOLK,VA,23502,"http://maps.google.com/maps?q=3661 E. VIRGINIA BEACH BLVD,+NORFOLK,+VA+23502&hl=en"
NORFOLK POLICE DEPARTMENT,NORFOLK POLICE TRAINING CENTER FRONT ENTRANCE,2500 N. MILITARY HWY,NORFOLK,VA,23502,"http://maps.google.com/maps?q=2500 N. MILITARY HWY,+NORFOLK,+VA+23502&hl=en"
NORFOLK STATE UNIVERSITY POLICE DEPARTMENT,NORFOLK STATE UNIVERSITY PD LOBBY AREA,2501 CORPREW AVE,NORFOLK,VA,23504,"http://maps.google.com/maps?q=2501 CORPREW AVE,+NORFOLK,+VA+23504&hl=en"
NORTHAMPTON COUNTY SHERIFF'S OFFICE,NORTHAMPTON COUNTY SHERIFF'S OFFICE FRONT LOBBY,5211 THE HORNES,EASTVILLE,VA,23347,"http://maps.google.com/maps?q=5211 THE HORNES,+EASTVILLE,+VA+23347&hl=en"
NORTHUMBERLAND COUNTY SHERIFF'S OFFICE,NORTHUMBERLAND COUNTY SHERIFF'S OFFICE,195 JUDICIAL PLACE,HEATHSVILLE,VA,22473,"http://maps.google.com/maps?q=195 JUDICIAL PLACE,+HEATHSVILLE,+VA+22473&hl=en"
OAKLAND CITY POLICE,OAKLAND POLICE DEPARTMENT,15 SOUTH THIRD STREET,OAKLAND,MD,21550,"http://maps.google.com/maps?q=15 SOUTH THIRD STREET,+OAKLAND,+MD+21550&hl=en"
OCEAN VIEW POLICE DEPARTMENT,OCEAN VIEW POLICE DEPARTMENT,201 CENTRAL AVENUE,OCEAN VIEW,DE,19970,"http://maps.google.com/maps?q=201 CENTRAL AVENUE,+OCEAN VIEW,+DE+19970&hl=en"
OLD DOMINION UNIVERSITY POLICE DEPARTMENT,CVS,3717 HAMPTON BLVD,NORFOLK,VA,23508,"http://maps.google.com/maps?q=3717 HAMPTON BLVD,+NORFOLK,+VA+23508&hl=en"
ORANGE (TOWN OF) POLICE DEPARTMENT,CVS PHARMACY FRONT SIDEWALK,308 RADNEY ROAD,ORANGE,VA,22960,"http://maps.google.com/maps?q=308 RADNEY ROAD,+ORANGE,+VA+22960&hl=en"
ORANGE (TOWN OF) POLICE DEPARTMENT,ORANGE PHARMACY FRONT SIDEWALK,130 WEST MAIN STREET,ORANGE,VA,22960,"http://maps.google.com/maps?q=130 WEST MAIN STREET,+ORANGE,+VA+22960&hl=en"
ORANGE COUNTY SHERIFF'S OFFICE,LOW CLUBHOUSE LOWER PARKING LOT,205 LAKE OF THE WOODS PARKWAY,LOCUST GROVE,VA,22508,"http://maps.google.com/maps?q=205 LAKE OF THE WOODS PARKWAY,+LOCUST GROVE,+VA+22508&hl=en"
ORANGE COUNTY SHERIFF'S OFFICE,SHADY GROVE BAPTIST CHURCH COMMUNITY HEALTH FAIR,21024 PINEY WOODS ROAD,ORANGE,VA,22960,"http://maps.google.com/maps?q=21024 PINEY WOODS ROAD,+ORANGE,+VA+22960&hl=en"
ORANGE COUNTY SHERIFFS OFFICE,CHAPEL HILL NORTH HARRIS TEETER ON OCTOBER 27TH,1800 MARTIN LUTHER KING JR BLVD,CHAPEL HILL,NC,27514,"http://maps.google.com/maps?q=1800 MARTIN LUTHER KING JR BLVD,+CHAPEL HILL,+NC+27514&hl=en"
ORANGE COUNTY SHERIFFS OFFICE,ORANGE COUNTY SHERIFFS OFFICE,106 E MARGARET LANE,HILLSBOROUGH,NC,27278,"http://maps.google.com/maps?q=106 E MARGARET LANE,+HILLSBOROUGH,+NC+27278&hl=en"
PATRICK COUNTY SHERIFF'S OFFICE,PATRICK COUNTY SHERIFF'S OFFICE,742 COMMERCE STREET,STUART,VA,24171,"http://maps.google.com/maps?q=742 COMMERCE STREET,+STUART,+VA+24171&hl=en"
PENDLETON COUNTY SHERIFF'S OFFICE,PENDLETON COUNTY SHERIFF'S DEPARTMENT,100 SOUTH MAIN STREET,FRANKLIN,WV,26807,"http://maps.google.com/maps?q=100 SOUTH MAIN STREET,+FRANKLIN,+WV+26807&hl=en"
PETERSBURG POLICE DEPARTMENT,CVS PHARMACY,2100 SOUTH CRATER RD,PETERSBURG,VA,23805,"http://maps.google.com/maps?q=2100 SOUTH CRATER RD,+PETERSBURG,+VA+23805&hl=en"
PETERSBURG SHERIFF'S OFFICE,WALMART #2160 PARKING LOT-PETERSBURG,3500 SOUTH CRATER ROAD,PETERSBURG,VA,23805,"http://maps.google.com/maps?q=3500 SOUTH CRATER ROAD,+PETERSBURG,+VA+23805&hl=en"
PITTSYLVANIA COUNTY SHERIFF'S OFFICE,MT. HERMON SHOPPING CENTER FOOD LION PARKING LOT,4048 FRANKLIN TURNPIKE,DANVILLE,VA,24540,"http://maps.google.com/maps?q=4048 FRANKLIN TURNPIKE,+DANVILLE,+VA+24540&hl=en"
PITTSYLVANIA COUNTY SHERIFF'S OFFICE,PITTSYLVANIA COUNTY SHERIFF'S OFFICE IN FRONT OF SHERIFF'S OFFICE,21 NORTH MAIN STREET,CHATHAM,VA,24531,"http://maps.google.com/maps?q=21 NORTH MAIN STREET,+CHATHAM,+VA+24531&hl=en"
POCAHONTAS COUNTY SHERIFF'S OFFICE,POCAHONTAS COUNTY SHERIFF'S DEPT,900 JAIL LANE,MARLINTON,WV,24954,"http://maps.google.com/maps?q=900 JAIL LANE,+MARLINTON,+WV+24954&hl=en"
POQUOSON POLICE DEPARTMENT,POQUOSON PHARMACY PARKING LOT,498 WYTHE CREEK ROAD,POQUOSON,VA,23662,"http://maps.google.com/maps?q=498 WYTHE CREEK ROAD,+POQUOSON,+VA+23662&hl=en"
PORTSMOUTH POLICE DEPARTMENT,PORTSMOUTH FIRE STATION #3 FRONT DOOR,4001 RIVERSHORE ROAD,PORTSMOUTH,VA,23703,"http://maps.google.com/maps?q=4001 RIVERSHORE ROAD,+PORTSMOUTH,+VA+23703&hl=en"
PORTSMOUTH POLICE DEPARTMENT,PORTSMOUTH POLICE DEPARTMENT HEADQUARTERS,801 WATER ST,PORTSMOUTH,VA,23704,"http://maps.google.com/maps?q=801 WATER ST,+PORTSMOUTH,+VA+23704&hl=en"
PORTSMOUTH POLICE DEPARTMENT,PORTSMOUTH SAFETY TOWN OUTSIDE FRONT DOOR,4404 DEEP CREEK BLVD,PORTSMOUTH,VA,23702,"http://maps.google.com/maps?q=4404 DEEP CREEK BLVD,+PORTSMOUTH,+VA+23702&hl=en"
POWHATAN COUNTY SHERIFF'S OFFICE,POWHATAN COUNTY COURTHOUSE,3880 OLD BUCKINGHAM ROAD,POWHATAN,VA,23139,"http://maps.google.com/maps?q=3880 OLD BUCKINGHAM ROAD,+POWHATAN,+VA+23139&hl=en"
PRESTON COUNTY SHERIFF,PRESTON COUNTY SHERIFF'S OFFICE,103 W MAIN ST,KINGWOOD,WV,26537,"http://maps.google.com/maps?q=103 W MAIN ST,+KINGWOOD,+WV+26537&hl=en"
PRESTON COUNTY SHERIFF,TERRA ALTA TOWN HALL,701-A EAST STATE AVENUE,TERRA ALTA,WV,26764,"http://maps.google.com/maps?q=701-A EAST STATE AVENUE,+TERRA ALTA,+WV+26764&hl=en"
PRINCE GEORGE COUNTY POLICE DEPARTMENT,PRINCE GEORGE COUNTY POLICE DEPARTMENT SIDE PARKING LOT,6600 COURTHOUSE ROAD,PRINCE GEORGE,VA,23875,"http://maps.google.com/maps?q=6600 COURTHOUSE ROAD,+PRINCE GEORGE,+VA+23875&hl=en"
PRINCE GEORGE'S COUNTY POLICE DEPARTMENT,"CENTRAL COLLECTION SITE DISTRICT III, PGPD",7600 BARLOWE ROAD,PALMER PARK,MD,20785,"http://maps.google.com/maps?q=7600 BARLOWE ROAD,+PALMER PARK,+MD+20785&hl=en"
PRINCE GEORGE'S COUNTY POLICE DEPARTMENT,DISTRICT 4 STATION - OXON HILL,5135 INDIAN HEAD HIGHWAY,OXON HILL,MD,20745,"http://maps.google.com/maps?q=5135 INDIAN HEAD HIGHWAY,+OXON HILL,+MD+20745&hl=en"
PRINCE GEORGE'S COUNTY POLICE DEPARTMENT,"NORTHERN COLLECTION SITE DISTRICT I, PGPD",5000 RHODE ISLAND AVENUE,HYATTSVILLE,MD,20784,"http://maps.google.com/maps?q=5000 RHODE ISLAND AVENUE,+HYATTSVILLE,+MD+20784&hl=en"
PRINCE WILLIAM CO. PD,NOVANT HEALTH HAYMARKET MEDICAL CENTER FRONT PARKING LOT,15225 HEATHCOTE BLVD,HAYMARKET,VA,20169,"http://maps.google.com/maps?q=15225 HEATHCOTE BLVD,+HAYMARKET,+VA+20169&hl=en"
PRINCE WILLIAM CO. PD,PWCPD CENTRAL DISTRICT STATION,5036 DAVIS FORD ROAD,WOODBRIDGE,VA,22192,"http://maps.google.com/maps?q=5036 DAVIS FORD ROAD,+WOODBRIDGE,+VA+22192&hl=en"
PRINCESS ANNE POLICE DEPARTMENT,PRINCESS ANNE POLICE DEPARTMENT,11780 BECKFORD AVENUE,PRINCESS ANNE,MD,21853,"http://maps.google.com/maps?q=11780 BECKFORD AVENUE,+PRINCESS ANNE,+MD+21853&hl=en"
PULASKI (TOWN OF) POLICE DEPARTMENT,FOOD CITY PARKING LOT NEAR ENTRANCE TO STORE,1400 BOB WHITE BLVD,PULASKI,VA,24301,"http://maps.google.com/maps?q=1400 BOB WHITE BLVD,+PULASKI,+VA+24301&hl=en"
PULASKI SHERIFF'S OFFICE,"FAIRLAWN WALMART APRIL 28, 2018 LOCATION",7373 PEPPERS FERRY BLVD,RADFORD,VA,24141,"http://maps.google.com/maps?q=7373 PEPPERS FERRY BLVD,+RADFORD,+VA+24141&hl=en"
PURCELLVILLE POLICE DEPARTMENT,FIREMAN'S FIELD,250 S. NURSERY AVENUE,PURCELLVILLE,VA,20132,"http://maps.google.com/maps?q=250 S. NURSERY AVENUE,+PURCELLVILLE,+VA+20132&hl=en"
QUANTICO MARINE CORPS BASE,QUANTICO MARINE CORPS EXCHANGE,4806 RUSSELL RD,QUANTICO,VA,22134,"http://maps.google.com/maps?q=4806 RUSSELL RD,+QUANTICO,+VA+22134&hl=en"
RADFORD CITY POLICE DEPARTMENT,RADFORD FIRE DEPARTMENT PARKING LOT,1500 WADSWORTH STREET,RADFORD,VA,24141,"http://maps.google.com/maps?q=1500 WADSWORTH STREET,+RADFORD,+VA+24141&hl=en"
RALEIGH POLICE DEPARTMENT,FALLS RIVER PHARMACY,10930 RAVEN RIDGE RD,RALEIGH,NC,27614,"http://maps.google.com/maps?q=10930 RAVEN RIDGE RD,+RALEIGH,+NC+27614&hl=en"
RALEIGH POLICE DEPARTMENT,HAYES BARTON PHARMACY,2000 FAIRVIEW RD,RALEIGH,NC,27608,"http://maps.google.com/maps?q=2000 FAIRVIEW RD,+RALEIGH,+NC+27608&hl=en"
RALEIGH POLICE DEPARTMENT,WELLNESS PHARMACY AND COMPOUNDING CENTER,2601 BLUE RIDGE RD,RALEIGH,NC,27607,"http://maps.google.com/maps?q=2601 BLUE RIDGE RD,+RALEIGH,+NC+27607&hl=en"
RANSON POLICE DEPARTMENT,RANSON POLICE DEPARTMENT,700 N. PRESTON ST,RANSON,WV,25438,"http://maps.google.com/maps?q=700 N. PRESTON ST,+RANSON,+WV+25438&hl=en"
REHOBOTH BEACH POLICE DEPT,REHOBOTH BEACH POLICE DEPT,229 REHOBOTH AVE,REHOBOTH BEACH,DE,19971,"http://maps.google.com/maps?q=229 REHOBOTH AVE,+REHOBOTH BEACH,+DE+19971&hl=en"
ROANOKE CITY POLICE DEPARTMENT,CVS 9TH STREET SE,702 9TH STREET SE,ROANOKE,VA,24013,"http://maps.google.com/maps?q=702 9TH STREET SE,+ROANOKE,+VA+24013&hl=en"
ROANOKE CITY POLICE DEPARTMENT,CVS AT TARGET,4737 VALLEY VIEW BLVD,ROANOKE,VA,24012,"http://maps.google.com/maps?q=4737 VALLEY VIEW BLVD,+ROANOKE,+VA+24012&hl=en"
ROANOKE CITY POLICE DEPARTMENT,CVS AT TOWERS SHOPPING CENTER,2001 COLONIAL AVE SW,ROANOKE,VA,24015,"http://maps.google.com/maps?q=2001 COLONIAL AVE SW,+ROANOKE,+VA+24015&hl=en"
ROANOKE COUNTY POLICE DEPARTMENT,KROGER @ TANGLEWOOD MALL FRONT PARKING LOT,4488 ELECTRIC ROAD,ROANOKE,VA,24015,"http://maps.google.com/maps?q=4488 ELECTRIC ROAD,+ROANOKE,+VA+24015&hl=en"
ROANOKE COUNTY POLICE DEPARTMENT,KROGER AT VALLEY GATEWAY NEAR FRONT ENTRANCE,3970 VALLEY GATEWAY BLVD,ROANOKE,VA,24012,"http://maps.google.com/maps?q=3970 VALLEY GATEWAY BLVD,+ROANOKE,+VA+24012&hl=en"
ROANOKE COUNTY POLICE DEPARTMENT,WALGREENS CORNER OF ELECTRIC ROAD & BRAMBLETON AVE,4049 BRAMBLETON AVE,ROANOKE,VA,24018,"http://maps.google.com/maps?q=4049 BRAMBLETON AVE,+ROANOKE,+VA+24018&hl=en"
ROANOKE COUNTY SHERIFF'S OFFICE,ROANOKE COUNTY FIRE STATION #1 PARKING LOT,150 HERSHBERGER ROAD,ROANOKE,VA,24019,"http://maps.google.com/maps?q=150 HERSHBERGER ROAD,+ROANOKE,+VA+24019&hl=en"
ROCKVILLE CITY POLICE DEPARTMENT,ROCKVILLE CITY POLICE DEPARTMENT,#2 W. MONTGOMERY AVENUE,ROCKVILLE,MD,20850,"http://maps.google.com/maps?q=#2 W. MONTGOMERY AVENUE,+ROCKVILLE,+MD+20850&hl=en"
ROCKY MOUNT POLICE DEPARTMENT,WAL MART,550 OLD FRANKLIN TURNPIKE ROCKY MOUNT,ROCKY MOUNT,VA,24151,"http://maps.google.com/maps?q=550 OLD FRANKLIN TURNPIKE ROCKY MOUNT,+ROCKY MOUNT,+VA+24151&hl=en"
SALEM POLICE DEPARTMENT,SUPER SHOES FRONT PARKING LOT,1838 W. MAIN STREET,SALEM,VA,24153,"http://maps.google.com/maps?q=1838 W. MAIN STREET,+SALEM,+VA+24153&hl=en"
SAS INSTITUTE COMPANY POLICE,SAS INSTITUTE,100 SAS CAMPUS DRIVE,CARY,NC,27513,"http://maps.google.com/maps?q=100 SAS CAMPUS DRIVE,+CARY,+NC+27513&hl=en"
SELBYVILLE POLICE DEPT,CVS,36252 LIGHTHOUSE RD,SELBYVILLE,DE,19975,"http://maps.google.com/maps?q=36252 LIGHTHOUSE RD,+SELBYVILLE,+DE+19975&hl=en"
SELBYVILLE POLICE DEPT,SELBYVILLE TOWN HALL,68 W CHURCH ST,SELBYVILLE,DE,19975,"http://maps.google.com/maps?q=68 W CHURCH ST,+SELBYVILLE,+DE+19975&hl=en"
SHENANDOAH COUNTY SHERIFF'S OFFICE,CVS PHARMACY PARKING LOT FACING RESERVOIR RD.,221 WEST RESERVOIR ROAD,WOODSTOCK,VA,22664,"http://maps.google.com/maps?q=221 WEST RESERVOIR ROAD,+WOODSTOCK,+VA+22664&hl=en"
SHEPERDSTOWN POLICE DEPARTMENT,SHEPERDSTOWN POLICE DEPARTMENT,104 N. KING ST.,SHEPHERDSTOWN,WV,25443,"http://maps.google.com/maps?q=104 N. KING ST.,+SHEPHERDSTOWN,+WV+25443&hl=en"
ST. MARY'S COUNTY SHERIFF'S OFFICE,ST. MARY'S COUNTY ELK'S LODGE,45779 FIRE DEPARTMENT LANE,CALIFORNIA,MD,20619,"http://maps.google.com/maps?q=45779 FIRE DEPARTMENT LANE,+CALIFORNIA,+MD+20619&hl=en"
ST. MARY'S COUNTY SHERIFF'S OFFICE,ST. MARY'S COUNTY SHERIFF'S OFFICE HQ,23150 LEONARD HALL DRIVE,LEONARDTOWN,MD,20650,"http://maps.google.com/maps?q=23150 LEONARD HALL DRIVE,+LEONARDTOWN,+MD+20650&hl=en"
STAFFORD COUNTY SHERIFF'S OFFICE,STAFFORD HOSPITAL CENTER SOUTH SIDE OF HOSPITAL NEAR ER,101 HOSPITAL CENTER BLVD,STAFFORD,VA,22554,"http://maps.google.com/maps?q=101 HOSPITAL CENTER BLVD,+STAFFORD,+VA+22554&hl=en"
STAUNTON POLICE DEPARTMENT,AUGUSTA HEALTH STAUNTON URGENT CARE FISHER AUTO PARKING LEFT OF URGENT CARE BUILDING,795 STATLER BLVD,STAUNTON,VA,24401,"http://maps.google.com/maps?q=795 STATLER BLVD,+STAUNTON,+VA+24401&hl=en"
STRASBURG POLICE DEPARTMENT,STRASBURG TOWN HALL SIDE PARKING LOT,174 EAST KING STREET,STRASBURG,VA,22657,"http://maps.google.com/maps?q=174 EAST KING STREET,+STRASBURG,+VA+22657&hl=en"
SURRY COUNTY SHERIFF'S OFFICE,SURRY COUNTY CIRCUIT COURT HOUSE PARKING LOT,28 COLONIAL TRAIL EAST,SURRY,VA,23883,"http://maps.google.com/maps?q=28 COLONIAL TRAIL EAST,+SURRY,+VA+23883&hl=en"
TAKOMA PARK POLICE DEPARTMENT,TAKOMA PARK POLICE DEPARTMENT LOBBY,7500 MAPLE AVENUE,TAKOMA PARK,MD,20912,"http://maps.google.com/maps?q=7500 MAPLE AVENUE,+TAKOMA PARK,+MD+20912&hl=en"
TAPPAHANNOCK PD / ESSEX COUNTY SO,WAL-MART PARKING LOT OUTSIDE BETWEEN TWO ENTRANCES,1660 TAPPAHANNOCK BLVD,TAPPAHANNOCK,VA,22560,"http://maps.google.com/maps?q=1660 TAPPAHANNOCK BLVD,+TAPPAHANNOCK,+VA+22560&hl=en"
TOWN OF BATH POLICE DEPARTMENT,MORGAN COUNTY HEALTH DEPARTMENT POC: BILL KEARNS,137 WAR MEMORIAL DR.,BERKELEY SPRINGS,WV,25411,"http://maps.google.com/maps?q=137 WAR MEMORIAL DR.,+BERKELEY SPRINGS,+WV+25411&hl=en"
TOWN OF DUCK POLICE DEPARTMENT,TOWN OF DUCK POLICE DEPARTMENT LT. JEFFREY ACKERMAN,1259 DUCK RD,DUCK,NC,27949,"http://maps.google.com/maps?q=1259 DUCK RD,+DUCK,+NC+27949&hl=en"
UNIVERSITY OF MD POLICE DEPT OF PUBLIC SAFETY,UNIVERSITY OF MD POLICE DEPT OF PUBLIC SAFETY,7569 BALTIMORE AVENUE,COLLEGE PARK,MD,20742,"http://maps.google.com/maps?q=7569 BALTIMORE AVENUE,+COLLEGE PARK,+MD+20742&hl=en"
US DEPARTMENT OF VETERANS AFFAIRS POLICE- SALEM,DEPARTMENT OF VETERANS AFFAIRS ENTRANCE TO BUILDING 143; MAIN HOSPITAL,1970 ROANOKE BOULEVARD,SALEM,VA,24153,"http://maps.google.com/maps?q=1970 ROANOKE BOULEVARD,+SALEM,+VA+24153&hl=en"
VIENNA POLICE DEPARTMENT,VIENNA POLICE DEPARTMENT,215 CENTER STREET SOUTH,VIENNA,VA,22180,"http://maps.google.com/maps?q=215 CENTER STREET SOUTH,+VIENNA,+VA+22180&hl=en"
VINTON POLICE DEPARTMENT,KROGER PARKING LOT LAKE DRIVE PLAZA,915 HARDY ROAD,VINTON,VA,24179,"http://maps.google.com/maps?q=915 HARDY ROAD,+VINTON,+VA+24179&hl=en"
VIRGINIA STATE POLICE,HALIFAX/SOUTH BOSTON REGIONAL TASK FORCE POC: SA JAY GEORGE,640 HAMILTON BOULEVARD(SOUTH BOSTON POLICE DEPARTMENT),APPOMATTOX,VA,24522,"http://maps.google.com/maps?q=640 HAMILTON BOULEVARD,+APPOMATTOX,+VA+24522&hl=en"
VIRGINIA STATE POLICE,VIRGINIA STATE POLICE - AREA 47 STATION POC: SGT ANDREA FISCHER,1557 S. MILITARY HIGHWAY,CHESAPEAKE,VA,23320,"http://maps.google.com/maps?q=1557 S. MILITARY HIGHWAY,+CHESAPEAKE,+VA+23320&hl=en"
VIRGINIA STATE POLICE,VIRGINIA STATE POLICE DIVISION I HQS POC: SGT MELANIE MCKENNEY,9300 BROOK ROAD,GLEN ALLEN,VA,23060,"http://maps.google.com/maps?q=9300 BROOK ROAD,+GLEN ALLEN,+VA+23060&hl=en"
VIRGINIA STATE POLICE,VIRGINIA STATE POLICE DIVISION II HQS POC: LT. JEFFREY LANE,15148 STATE POLICE ROAD,CULPEPER,VA,22701,"http://maps.google.com/maps?q=15148 STATE POLICE ROAD,+CULPEPER,+VA+22701&hl=en"
VIRGINIA STATE POLICE,VIRGINIA STATE POLICE DIVISION III HQS POC: SGT DREW MCCORMICK,240 THIRD DIVISION LOOP,APPOMATTOX,VA,24522,"http://maps.google.com/maps?q=240 THIRD DIVISION LOOP,+APPOMATTOX,+VA+24522&hl=en"
VIRGINIA STATE POLICE,VIRGINIA STATE POLICE DIVISION VI HQS POC: SGT. GLENN ARMSTRONG,3775 W. MAIN STREET,SALEM,VA,24153,"http://maps.google.com/maps?q=3775 W. MAIN STREET,+SALEM,+VA+24153&hl=en"
VIRGINIA STATE POLICE,VIRGINIA STATE POLICE DIVISION VII HQS POC: SGT BILL JOYNER,4977 ALLIANCE DRIVE,FAIRFAX,VA,22030,"http://maps.google.com/maps?q=4977 ALLIANCE DRIVE,+FAIRFAX,+VA+22030&hl=en"
WARREN COUNTY SHERIFF'S OFFICE,VALLEY HEALTH REHABILITATION SERVICES,120 NORTH COMMERCE AVE,FRONT ROYAL,VA,22630,"http://maps.google.com/maps?q=120 NORTH COMMERCE AVE,+FRONT ROYAL,+VA+22630&hl=en"
WASHINGTON METROPOLITAN POLICE DEPT,FIFTH POLICE DISTRICT,"1805 BLADENSBURG ROAD, NE",WASHINGTON,DC,20002,"http://maps.google.com/maps?q=1805 BLADENSBURG ROAD, NE,+WASHINGTON,+DC+20002&hl=en"
WASHINGTON METROPOLITAN POLICE DEPT,FIRST POLICE DISTRICT,"101 M STREET, SW",WASHINGTON,DC,20024,"http://maps.google.com/maps?q=101 M STREET, SW,+WASHINGTON,+DC+20024&hl=en"
WASHINGTON METROPOLITAN POLICE DEPT,FOURTH POLICE DISTRICT,"6001 GEORGIA AVENUE, NW",WASHINGTON,DC,20011,"http://maps.google.com/maps?q=6001 GEORGIA AVENUE, NW,+WASHINGTON,+DC+20011&hl=en"
WASHINGTON METROPOLITAN POLICE DEPT,SECOND POLICE DISTRICT,"3320 IDAHO AVENUE, NW",WASHINGTON,DC,20016,"http://maps.google.com/maps?q=3320 IDAHO AVENUE, NW,+WASHINGTON,+DC+20016&hl=en"
WASHINGTON METROPOLITAN POLICE DEPT,SEVENTH POLICE DISTRICT,"2455 ALABAMA AVENUE, SE",WASHINGTON,DC,20020,"http://maps.google.com/maps?q=2455 ALABAMA AVENUE, SE,+WASHINGTON,+DC+20020&hl=en"
WASHINGTON METROPOLITAN POLICE DEPT,SIXTH POLICE DISTRICT,5002 HAYES STREET NE,WASHINGTON,DC,20019,"http://maps.google.com/maps?q=5002 HAYES STREET NE,+WASHINGTON,+DC+20019&hl=en"
WASHINGTON METROPOLITAN POLICE DEPT,THIRD POLICE DISTRIST,"1620 V STREET, NW",WASHINGTON,DC,20009,"http://maps.google.com/maps?q=1620 V STREET, NW,+WASHINGTON,+DC+20009&hl=en"
WASHINGTON SUBURBAN SANITARY COMMISSION,WSSC POLICE DEPARTMENT,14501 SWEITZER LANE,LAUREL,MD,20707,"http://maps.google.com/maps?q=14501 SWEITZER LANE,+LAUREL,+MD+20707&hl=en"
WAYNESBORO POLICE DEPARTMENT,NEIGHBORHOOD MARKET PARKING LOT,1211 WEST BROAD STREET,WAYNESBORO,VA,22980,"http://maps.google.com/maps?q=1211 WEST BROAD STREET,+WAYNESBORO,+VA+22980&hl=en"
WEBSTER COUNTY SHERIFF,COWEN MUNICIPAL BLDG,3RD AVENUE,COWEN,WV,26206,"http://maps.google.com/maps?q=3RD AVENUE,+COWEN,+WV+26206&hl=en"
WEBSTER COUNTY SHERIFF,HACKER VALLEY FIRE DEPT,4999 HACKER VALLEY RD,HACKER VALLEY,WV,26222,"http://maps.google.com/maps?q=4999 HACKER VALLEY RD,+HACKER VALLEY,+WV+26222&hl=en"
WEBSTER COUNTY SHERIFF,WEBSTER COUNTY SHERIFF DEPT,"2 COURT SQUARE,G3",WEBSTER SPRINGS,WV,26288,"http://maps.google.com/maps?q=2 COURT SQUARE,,+WEBSTER SPRINGS,+WV+26288&hl=en"
WEST VIRGINIA STATE POLICE,WEST VIRGINIA STATE POLICE SGT J.R FLETCHER/3048223561,525 DEPOT STREET,ROMNEY,WV,26757,"http://maps.google.com/maps?q=525 DEPOT STREET,+ROMNEY,+WV+26757&hl=en"
WEST VIRGINIA STATE POLICE,WVSP-CHARLES TOWN SGT J.S. CHUMLEY/304-725-9779,409 INDUSTRIAL BLVD.,KEARNEYSVILLE,WV,25430,"http://maps.google.com/maps?q=409 INDUSTRIAL BLVD.,+KEARNEYSVILLE,+WV+25430&hl=en"
WEST VIRGINIA STATE POLICE,WVSP-KEYSER SGT. S.B. HUFFMAN/3047881101,"730 FORT ASHBY RDRT 1, BOX 172D",KEYSER,WV,26726,"http://maps.google.com/maps?q=730 FORT ASHBY RD,+KEYSER,+WV+26726&hl=en"
WEST VIRGINIA STATE POLICE,WVSP-LEWISBURG SGT D.A EVANS/3046477600,381 GREENBRIAR RD,LEWISBURG,WV,24901,"http://maps.google.com/maps?q=381 GREENBRIAR RD,+LEWISBURG,+WV+24901&hl=en"
WEST VIRGINIA STATE POLICE,WVSP-MARTINSBURG SGT M.A. COLE/3042670001,14 TROOPER DR,MARTINSBURG,WV,25404,"http://maps.google.com/maps?q=14 TROOPER DR,+MARTINSBURG,+WV+25404&hl=en"
WILLIAMSBURG POLICE DEPARTMENT,WILLIAMSBURG FIRE DEPARTMENT,WILLIAMSBURG FIRE DEPARTMENT440 N BOUNDARY STREET,WILLIAMSBURG,VA,23185,"http://maps.google.com/maps?q=WILLIAMSBURG FIRE DEPARTMENT,+WILLIAMSBURG,+VA+23185&hl=en"
WINCHESTER CITY SHERIFF'S OFFICE,COURTHOUSE,5 NORTH KENT ST,WINCHESTER,VA,22601,"http://maps.google.com/maps?q=5 NORTH KENT ST,+WINCHESTER,+VA+22601&hl=en"
WINCHESTER CITY SHERIFF'S OFFICE,CVS PHARMACY,840 BERRYVILLE AV,WINCHESTER,VA,22601,"http://maps.google.com/maps?q=840 BERRYVILLE AV,+WINCHESTER,+VA+22601&hl=en"
WINCHESTER CITY SHERIFF'S OFFICE,ROTZ PHARMACY,1338 AMHERST ST,WINCHESTER,VA,22601,"http://maps.google.com/maps?q=1338 AMHERST ST,+WINCHESTER,+VA+22601&hl=en"
WOODSTOCK POLICE DEPARTMENT,WALMART NEAR FRONT ENTRANCE,461 W. RESERVOIR RD,WOODSTOCK,VA,22664,"http://maps.google.com/maps?q=461 W. RESERVOIR RD,+WOODSTOCK,+VA+22664&hl=en"
YORK-POQUOSON SHERIFF'S OFFICE,YORK-POQUOSON SHERIFF'S OFFICE D.A.R.E. OFFICE NEXT TO SUBWAY,5338-D GEORGE WASHINGTON MEMORIAL HWY,YORKTOWN,VA,23692,"http://maps.google.com/maps?q=5338-D GEORGE WASHINGTON MEMORIAL HWY,+YORKTOWN,+VA+23692&hl=en"
