Participant,CollectionSite,Address,City,State,Zip,MapURL
AMERICAN FORK POLICE DEPARTMENT,AMERICAN FORK POLICE DEPARTMENT,75 E. 80 N.,AMERICAN FORK,UT,84003,"http://maps.google.com/maps?q=75 E. 80 N.,+AMERICAN FORK,+UT+84003&hl=en"
ARAPAHOE HEALTH CENTER,ARAPAHOE HEALTH CENTER,14 GREAT PLAINS ROAD,ARAPAHOE,WY,82510,"http://maps.google.com/maps?q=14 GREAT PLAINS ROAD,+ARAPAHOE,+WY+82510&hl=en"
BEAVERHEAD COUNTY SHERIFF OFFICE,BEAVERHEAD COUNTY SHERIFF OFFICE,2 SOUTH PACIFIC STREETSTE 16,DILLON,MT,59725,"http://maps.google.com/maps?q=2 SOUTH PACIFIC STREET,+DILLON,+MT+59725&hl=en"
BIA OJS WIND RIVER PD,BIA OJS WIND RIVER PD,29 BLACK COAL RIVE FT,FORT WASHAKIE,WY,82514,"http://maps.google.com/maps?q=29 BLACK COAL RIVE FT,+FORT WASHAKIE,+WY+82514&hl=en"
BLACKFOOT POLICE DEPT,PATRIOT FIELD 217 WEST FRANCIS (AT THE CORNER OF FRANCIS AND ASH),FRANCIS AND ASH,BLACKFOOT,ID,83221,"http://maps.google.com/maps?q=FRANCIS AND ASH,+BLACKFOOT,+ID+83221&hl=en"
BOISE POLICE DEPARTMENT - DRUG FREE IDAHO,ADA COUNTY SHERIFF'S OFFICE,7200 BARRISTER DRIVE,BOISE,ID,83704,"http://maps.google.com/maps?q=7200 BARRISTER DRIVE,+BOISE,+ID+83704&hl=en"
BOISE POLICE DEPARTMENT - DRUG FREE IDAHO,FRED MEYER GARDEN CITY OF BOISE,5425 W. CHINDEN BLVD,GARDEN CITY,ID,83714,"http://maps.google.com/maps?q=5425 W. CHINDEN BLVD,+GARDEN CITY,+ID+83714&hl=en"
BOUNTIFUL POLICE,SMITH'S MARKETPLACE,555 S 200 W,BOUNTIFUL,UT,84010,"http://maps.google.com/maps?q=555 S 200 W,+BOUNTIFUL,+UT+84010&hl=en"
BUREAU OF INDIAN AFFAIRS (BIA),BIA LAME DEER,100 SUNBEAR RD,LAME DEER,MT,59043,"http://maps.google.com/maps?q=100 SUNBEAR RD,+LAME DEER,+MT+59043&hl=en"
BUREAU OF INDIAN AFFAIRS (BIA),BIA OJS CROW AGENCY PD,124 RIVER ROAD,CROW AGENCY,MT,59022,"http://maps.google.com/maps?q=124 RIVER ROAD,+CROW AGENCY,+MT+59022&hl=en"
BUTTE_SILVER BOW LAW ENFORCEMENT,BUTTE PLAZA MALL,3100 HARRISON AVENUE,BUTTE,MT,59701,"http://maps.google.com/maps?q=3100 HARRISON AVENUE,+BUTTE,+MT+59701&hl=en"
CAMPBELL COUNTY SHERIFF'S OFFICE,CAMPBELL COUNTY SHERIFFS OFFICE,600 W. BOXELDER RD,GILLETTE,WY,82718,"http://maps.google.com/maps?q=600 W. BOXELDER RD,+GILLETTE,+WY+82718&hl=en"
CARBON COUNTY SHERIFF'S OFFICE,CARBON COUNTY SHERIFF'S OFFICE,102 N. BROADWAY,RED LODGE,MT,59068,"http://maps.google.com/maps?q=102 N. BROADWAY,+RED LODGE,+MT+59068&hl=en"
CASSIA COUNTY SHERIFF,SMITH'S FOOD KING PARKING LOT,937 E. MAIN,BURLEY,ID,83318,"http://maps.google.com/maps?q=937 E. MAIN,+BURLEY,+ID+83318&hl=en"
CODY POLICE DEPARTMENT,CODY LAW ENFORCEMENT CENTER,1402 RIVER VIEW DRIVE,CODY,WY,82414,"http://maps.google.com/maps?q=1402 RIVER VIEW DRIVE,+CODY,+WY+82414&hl=en"
DAVIS COUNTY SHERIFF'S OFFICE,SMITH'S,2353 N. MAIN ST.,SUNSET,UT,84015,"http://maps.google.com/maps?q=2353 N. MAIN ST.,+SUNSET,+UT+84015&hl=en"
DEA - BILLINGS RESIDENT OFFICE,ELKS LODGE PARKING LOT,934 LEWIS AVENUE,BILLINGS,MT,59101,"http://maps.google.com/maps?q=934 LEWIS AVENUE,+BILLINGS,+MT+59101&hl=en"
DRAPER CITY POLICE DEPARTMENT,SMITH'S,212 E. 12300 S.,DRAPER,UT,84020,"http://maps.google.com/maps?q=212 E. 12300 S.,+DRAPER,+UT+84020&hl=en"
DRUG ENFORCEMENT ADMINISTRATION,UTAH STATE CAPITOL,350 STATE ST.,SALT LAKE CITY,UT,84111,"http://maps.google.com/maps?q=350 STATE ST.,+SALT LAKE CITY,+UT+84111&hl=en"
DUCHESNE COUNTY SHERIFF'S OFFICE,AL'S FOOD TOWN,150 E. HWY. 40,DUCHESNE,UT,84021,"http://maps.google.com/maps?q=150 E. HWY. 40,+DUCHESNE,+UT+84021&hl=en"
EAST CARBON P.D.,EAST CARBON POLICE DEPT.,101 W. GENEVA DR.,EAST CARBON,UT,84520,"http://maps.google.com/maps?q=101 W. GENEVA DR.,+EAST CARBON,+UT+84520&hl=en"
ELMORE COUNTY SHERIFF'S OFFICE,ELMORE COUNTY SHERIFF'S OFFICE,250 AMERICAN LEGION BLVD,MOUNTAIN HOME,ID,83647,"http://maps.google.com/maps?q=250 AMERICAN LEGION BLVD,+MOUNTAIN HOME,+ID+83647&hl=en"
EMMETT POLICE DEPT,EMMETT POLICE DEPT (INSIDE POLICE LOBBY),501 E MAIN ST,EMMETT,ID,83617,"http://maps.google.com/maps?q=501 E MAIN ST,+EMMETT,+ID+83617&hl=en"
FARMINGTON POLICE DEPARTMENT,SMITH'S FOOD & DRUG,1316 NORTH U.S. HIGHWAY 89,FARMINGTON,UT,84025,"http://maps.google.com/maps?q=1316 NORTH U.S. HIGHWAY 89,+FARMINGTON,+UT+84025&hl=en"
FORT HALL TRIBAL PD,SHOSHONE-BANNOCK JR/SR HIGH SCHOOL,17400 HILINE ROAD,POCATELLO,ID,83202,"http://maps.google.com/maps?q=17400 HILINE ROAD,+POCATELLO,+ID+83202&hl=en"
GRANGEVILLE PD,CITY COUNCIL CHAMBERS,225 WEST NORTH STREET,GRANGEVILLE,ID,83530,"http://maps.google.com/maps?q=225 WEST NORTH STREET,+GRANGEVILLE,+ID+83530&hl=en"
GREEN RIVER POLICE DEPARTMENT,SMITH'S FOOD AND DRUG,905 BRIDGER DRIVE,GREEN RIVER,WY,82935,"http://maps.google.com/maps?q=905 BRIDGER DRIVE,+GREEN RIVER,+WY+82935&hl=en"
HILL AIR FORCE BASE,BASE EXCHANGE,7440 6TH STREET,HILL AFB,UT,84056,"http://maps.google.com/maps?q=7440 6TH STREET,+HILL AFB,+UT+84056&hl=en"
HILL AIR FORCE BASE,HILL AIR FORCE BASE COMMISSARY,7451 6TH STREET,HILL AFB,UT,84056,"http://maps.google.com/maps?q=7451 6TH STREET,+HILL AFB,+UT+84056&hl=en"
IDAHO FALLS POLICE DEPARTMENT,BONNEVILLE COUNTY COURTHOUSE,605 N. CAPITAL AVE,IDAHO FALLS,ID,83402,"http://maps.google.com/maps?q=605 N. CAPITAL AVE,+IDAHO FALLS,+ID+83402&hl=en"
JACKSON POLICE DEPARTMENT,JACKSON POLICE DEPARTMENT,150 EAST PEARL AVENUE,JACKSON,WY,83001,"http://maps.google.com/maps?q=150 EAST PEARL AVENUE,+JACKSON,+WY+83001&hl=en"
JEFFERSON COUNTY SHERIFF'S OFFICE,JEFFERSON COUNTY SHERIFF'S OFFICE,200 COURTHOUSE WAY,RIGBY,ID,83442,"http://maps.google.com/maps?q=200 COURTHOUSE WAY,+RIGBY,+ID+83442&hl=en"
JOHNSON COUNTY SHERIFF'S OFFICE,JOHNSON COUNTY JUSTICE CENTER,639 FORT STREET,BUFFALO,WY,82834,"http://maps.google.com/maps?q=639 FORT STREET,+BUFFALO,+WY+82834&hl=en"
KAYSVILLE POLICE DEPARTMENT,SMITH'S,1370 W. 200 N.,KAYSVILLE,UT,84037,"http://maps.google.com/maps?q=1370 W. 200 N.,+KAYSVILLE,+UT+84037&hl=en"
KIMBERLY-HANSEN POLICE DEPARTMENT,KIMBERLY-HANSEN CITY HALL,242 HWY 30,KIMBERLY,ID,83341,"http://maps.google.com/maps?q=242 HWY 30,+KIMBERLY,+ID+83341&hl=en"
LAYTON POLICE DEPARTMENT,SMITH'S FOOD & DRUG,1170 E. GENTILE ST.,LAYTON,UT,84040,"http://maps.google.com/maps?q=1170 E. GENTILE ST.,+LAYTON,+UT+84040&hl=en"
LEHI POLICE DEPARTMENT,MACEY'S SUPERMARKET,760 EAST MAIN,LEHI,UT,84043,"http://maps.google.com/maps?q=760 EAST MAIN,+LEHI,+UT+84043&hl=en"
LINDON POLICE DEPARTMENT,LINDON WALMART,585 NORTH STATE STREET,LINDON,UT,84042,"http://maps.google.com/maps?q=585 NORTH STATE STREET,+LINDON,+UT+84042&hl=en"
MADISON COUNTY SHERIFF'S OFFICE,FAT CATS,475 N. 2ND E,REXBURG,ID,83440,"http://maps.google.com/maps?q=475 N. 2ND E,+REXBURG,+ID+83440&hl=en"
MCCALL POLICE DEPT,POLICE DEPT,550 DEINHARD LANE,MCCALL,ID,83638,"http://maps.google.com/maps?q=550 DEINHARD LANE,+MCCALL,+ID+83638&hl=en"
MERIDIAN ANTI-DRUG COALITION WITH MERIDIAN PD,BLUE CROSS OF IDAHO,3000 E. PINE AVE,MERIDIAN,ID,83642,"http://maps.google.com/maps?q=3000 E. PINE AVE,+MERIDIAN,+ID+83642&hl=en"
MORGAN COUNTY SHERIFF'S OFFICE,RIDLEY'S FAMILY MARKET,275 N. 300 W.,MORGAN,UT,84050,"http://maps.google.com/maps?q=275 N. 300 W.,+MORGAN,+UT+84050&hl=en"
NATIONAL PARK SERVICE - MONTANA,YELLOWSTONE FOREVER,308 W PARK ST,GARDINER,MT,59030,"http://maps.google.com/maps?q=308 W PARK ST,+GARDINER,+MT+59030&hl=en"
NORTH OGDEN CITY POLICE,SMITH'S MARKET,2560 N. 400 E.,OGDEN,UT,84404,"http://maps.google.com/maps?q=2560 N. 400 E.,+OGDEN,+UT+84404&hl=en"
OGDEN POLICE DEPARTMENT,SMITH'S MARKET,1485 HARRISON BLVD,OGDEN,UT,84404,"http://maps.google.com/maps?q=1485 HARRISON BLVD,+OGDEN,+UT+84404&hl=en"
OGDEN POLICE DEPARTMENT,SMITH'S MARKETPLACE,4275 HARRISON BLVD,OGDEN,UT,84403,"http://maps.google.com/maps?q=4275 HARRISON BLVD,+OGDEN,+UT+84403&hl=en"
ONEIDA COUNTY SHERIFF'S OFFICE,ONEIDA COUNTY COURTHOUSE,10 COURT STREET,MALAD CITY,ID,83252,"http://maps.google.com/maps?q=10 COURT STREET,+MALAD CITY,+ID+83252&hl=en"
PAYSON POLICE DEPARTMENT,PAYSON MARKET,586 NORTH MAIN STREET,PAYSON,UT,84651,"http://maps.google.com/maps?q=586 NORTH MAIN STREET,+PAYSON,+UT+84651&hl=en"
PLEASANT GROVE POLICE DEPARTMENT,SMITH'S,210 E. 700 S.,PLEASANT GROVE,UT,84062,"http://maps.google.com/maps?q=210 E. 700 S.,+PLEASANT GROVE,+UT+84062&hl=en"
POCATELLO POLICE DEPARTMENT,POCATELLO POLICE DEPARTMENT CITY HALL PARKING LOT,911 N. 7TH AVE,POCATELLO,ID,83201,"http://maps.google.com/maps?q=911 N. 7TH AVE,+POCATELLO,+ID+83201&hl=en"
POWELL POLICE DEPARTMENT,POWELL POLICE DEPARTMENT,250 NORTH CLARK STREET,POWELL,WY,82435,"http://maps.google.com/maps?q=250 NORTH CLARK STREET,+POWELL,+WY+82435&hl=en"
PRESTON POLICE DEPARTMENT,PRESTON POLICE DEPARTMENT,70 W. ONEIDA,PRESTON,ID,83263,"http://maps.google.com/maps?q=70 W. ONEIDA,+PRESTON,+ID+83263&hl=en"
PROVO POLICE DEPARTMENT,SMITH'S FOOD AND DRUG,48 S. 300 W.,PROVO,UT,84601,"http://maps.google.com/maps?q=48 S. 300 W.,+PROVO,+UT+84601&hl=en"
RAWLINS POLICE DEPARTMENT,RAWLINS POLICE DEPARTMENT,215 5TH STREET,RAWLINS,WY,82301,"http://maps.google.com/maps?q=215 5TH STREET,+RAWLINS,+WY+82301&hl=en"
RCSO,RCSO,2025 SHIELD DRIVE,STEAMBOAT SPRINGS,CO,80487,"http://maps.google.com/maps?q=2025 SHIELD DRIVE,+STEAMBOAT SPRINGS,+CO+80487&hl=en"
REXBURG POLICE DEPARTMENT,MADISON SCHOOL DISTRICT OFFICE MADISON SCHOOL DISTRICT OFFICE,60 WEST MAIN STREET,REXBURG,ID,83440,"http://maps.google.com/maps?q=60 WEST MAIN STREET,+REXBURG,+ID+83440&hl=en"
ROCK SPRINGS POLICE DEPARTMENT,SMITH'S FOOD AND DRUG,2518 FOOTHILL BLVD,ROCK SPRINGS,WY,82901,"http://maps.google.com/maps?q=2518 FOOTHILL BLVD,+ROCK SPRINGS,+WY+82901&hl=en"
ROOSEVELT CITY POLICE,STEWART'S MARKET PARKING LOT,300 W. HWY 40,ROOSEVELT,UT,84066,"http://maps.google.com/maps?q=300 W. HWY 40,+ROOSEVELT,+UT+84066&hl=en"
ROY CITY POLICE,KENT'S MARKET,3535 W. 5600 S.,ROY,UT,84067,"http://maps.google.com/maps?q=3535 W. 5600 S.,+ROY,+UT+84067&hl=en"
SALEM POLICE DEPARTMENT,SALEM POLICE DEPARTMENT,30 W. 100 S.,SALEM,UT,84653,"http://maps.google.com/maps?q=30 W. 100 S.,+SALEM,+UT+84653&hl=en"
SANDY CITY POLICE DEPARTMENT,SANDY POLICE DEPARTMENT,10000 SOUTH CENTENNIAL PARKWAY,SANDY,UT,84070,"http://maps.google.com/maps?q=10000 SOUTH CENTENNIAL PARKWAY,+SANDY,+UT+84070&hl=en"
SANTAQUIN CITY POLICE DEPT.,SANTAQUIN CITY POLICE DEPT,275 W. MAIN,SANTAQUIN,UT,84655,"http://maps.google.com/maps?q=275 W. MAIN,+SANTAQUIN,+UT+84655&hl=en"
SARATOGA SPRINGS POLICE DEPARTMENT,SMITH'S MARKETPLACE,689 N. REDWOOD ROAD,SARATOGA SPRINGS,UT,84045,"http://maps.google.com/maps?q=689 N. REDWOOD ROAD,+SARATOGA SPRINGS,+UT+84045&hl=en"
SHERIDAN POLICE DEPARTMENT,WALGREENS,1766 COFFEEN AVENUE,SHERIDAN,WY,82801,"http://maps.google.com/maps?q=1766 COFFEEN AVENUE,+SHERIDAN,+WY+82801&hl=en"
SOUTH JORDAN POLICE DEPARTMENT,SOUTH JORDAN POLICE DEPT/ CITY HALL,1600 WEST TOWNE CENTER DRIVE (10610 S),SOUTH JORDAN,UT,84095,"http://maps.google.com/maps?q=1600 WEST TOWNE CENTER DRIVE (10610 S),+SOUTH JORDAN,+UT+84095&hl=en"
SOUTH OGDEN CITY POLICE,MACEY'S GROCERY,325 36TH STREET,OGDEN,UT,84403,"http://maps.google.com/maps?q=325 36TH STREET,+OGDEN,+UT+84403&hl=en"
SOUTH SALT LAKE POLICE DEPARTMENT,RITE AID,3250 S. 700 E.,SALT LAKE CITY,UT,84115,"http://maps.google.com/maps?q=3250 S. 700 E.,+SALT LAKE CITY,+UT+84115&hl=en"
SPANISH FORK POLICE DEPARTMENT,SPANISH FORK POLICE DEPARTMENT,789 W. CENTER ST.,SPANISH FORK,UT,84660,"http://maps.google.com/maps?q=789 W. CENTER ST.,+SPANISH FORK,+UT+84660&hl=en"
SPRINGVILLE POLICE DEPARTMENT,SPRINGVILLE CITY LIBRARY,45 SOUTH MAIN,SPRINGVILLE,UT,84663,"http://maps.google.com/maps?q=45 SOUTH MAIN,+SPRINGVILLE,+UT+84663&hl=en"
ST. ANTHONY POLICE DEPT,ST. ANTHONTY CITY HALL BUILDING,420 N BRIDGE ST,SAINT ANTHONY,ID,83445,"http://maps.google.com/maps?q=420 N BRIDGE ST,+SAINT ANTHONY,+ID+83445&hl=en"
STILLWATER COUNTY SHERIFF'S OFFICE,STILLWATER COUNTY SHERIFF'S OFFICE,400 E 3RD AVE N,COLUMBUS,MT,59019,"http://maps.google.com/maps?q=400 E 3RD AVE N,+COLUMBUS,+MT+59019&hl=en"
SYRACUSE POLICE DEPARTMENT,SMITH'S FOOD AND DRUG,951 WEST 1700 SOUTH,SYRACUSE,UT,84075,"http://maps.google.com/maps?q=951 WEST 1700 SOUTH,+SYRACUSE,+UT+84075&hl=en"
TOOELE CITY POLICE DEPARTMENT,WALMART,99 W. 1280 N.,TOOELE,UT,84074,"http://maps.google.com/maps?q=99 W. 1280 N.,+TOOELE,+UT+84074&hl=en"
UINTA COUNTY SHERIFF'S OFFICE,BENEDICT'S,950 NORTH HWY 414,MOUNTAIN VIEW,WY,82939,"http://maps.google.com/maps?q=950 NORTH HWY 414,+MOUNTAIN VIEW,+WY+82939&hl=en"
UINTA COUNTY SHERIFF'S OFFICE,SMITH'S,70 YELLOW CREEK RD,EVANSTON,WY,82930,"http://maps.google.com/maps?q=70 YELLOW CREEK RD,+EVANSTON,+WY+82930&hl=en"
UINTA COUNTY SHERIFF'S OFFICE,UINTA COUNTY SHERIFFS OFFICE,77 CR 109,EVANSTON,WY,82930,"http://maps.google.com/maps?q=77 CR 109,+EVANSTON,+WY+82930&hl=en"
UINTAH COUNTY SHERIFF'S DEPARTMENT,WALMART PARKING LOT,1851 W. US-40,VERNAL,UT,84078,"http://maps.google.com/maps?q=1851 W. US-40,+VERNAL,+UT+84078&hl=en"
UNIFIED POLICE DEPARTMENT - TAYLORSVILLE,TAYLORSVILLE CITY HALL,2600 W TAYLORSVILLE BVD.,TAYLORSVILLE,UT,84129,"http://maps.google.com/maps?q=2600 W TAYLORSVILLE BVD.,+TAYLORSVILLE,+UT+84129&hl=en"
UNIFIED POLICE DEPARTMENT-RIVERTON,UNIFIED POLICE DEPARTMENT-RIVERTON,12810 S. REDWOOD RD.,RIVERTON,UT,84065,"http://maps.google.com/maps?q=12810 S. REDWOOD RD.,+RIVERTON,+UT+84065&hl=en"
UNIFIED POLICE DEPT. MIDVALE PRECINCT,HILLCREST HIGH SCHOOL PARKING LOT,7350 S. 900 E.,MIDVALE,UT,84047,"http://maps.google.com/maps?q=7350 S. 900 E.,+MIDVALE,+UT+84047&hl=en"
UNIFIED POLICE-MILLCREEK,MILLCREEK COMMUNITY CENTER,2266 E. EVERGREEN AVE.,SALT LAKE CITY,UT,84124,"http://maps.google.com/maps?q=2266 E. EVERGREEN AVE.,+SALT LAKE CITY,+UT+84124&hl=en"
UNIVERSITY OF UTAH POLICE,UNIVERSITY OF UTAH POLICE DEPARTMENT,1735 E. SOUTH CAMPUS DR.,SALT LAKE CITY,UT,84112,"http://maps.google.com/maps?q=1735 E. SOUTH CAMPUS DR.,+SALT LAKE CITY,+UT+84112&hl=en"
WEST JORDAN POLICE DEPARTMENT,SMITH'S,5710 W. 7800 S.,WEST JORDAN,UT,84081,"http://maps.google.com/maps?q=5710 W. 7800 S.,+WEST JORDAN,+UT+84081&hl=en"
WEST VALLEY POLICE DEPARTMENT,CVS PHARMACY,3148 W. 3500 S.,WEST VALLEY CITY,UT,84119,"http://maps.google.com/maps?q=3148 W. 3500 S.,+WEST VALLEY CITY,+UT+84119&hl=en"
WEST YELLOWSTONE POLICE DEPARTMENT,TOWN OF WEST YELLOWSTONE OFFICE,440 YELLOWSTONE AVE,WEST YELLOWSTONE,MT,59758,"http://maps.google.com/maps?q=440 YELLOWSTONE AVE,+WEST YELLOWSTONE,+MT+59758&hl=en"
WIND RIVER AGENCY BIA,ARAPAHOE HEALTH CENTER,14 GREAT PLAINS RD.,ARAPAHOE,WY,82510,"http://maps.google.com/maps?q=14 GREAT PLAINS RD.,+ARAPAHOE,+WY+82510&hl=en"
WIND RIVER AGENCY BIA,FORT WASHNKIE INDIAN HEALTH SERVICE,29 BLACK COOL DRIVE,FORT WASHAKIE,WY,82514,"http://maps.google.com/maps?q=29 BLACK COOL DRIVE,+FORT WASHAKIE,+WY+82514&hl=en"
WOODS CROSS POLICE DEPARTMENT,WOODS CROSS POLICE DEPARTMENT,1555 SOUTH 800 WEST,WOODS CROSS,UT,84087,"http://maps.google.com/maps?q=1555 SOUTH 800 WEST,+WOODS CROSS,+UT+84087&hl=en"
