Participant,CollectionSite,Address,City,State,Zip,MapURL
7TH PHILADELPHIA POLICE DISTRICT,7TH PHILADELPHIA POLICE DISTRICT,1701 BOWLER ST,PHILADELPHIA,PA,19115,"http://maps.google.com/maps?q=1701 BOWLER ST,+PHILADELPHIA,+PA+19115&hl=en"
AKRON BOROUGH POLICE DEPT,ROYER PHARMACY,113 S 7TH ST,AKRON,PA,17501,"http://maps.google.com/maps?q=113 S 7TH ST,+AKRON,+PA+17501&hl=en"
ALDAN POLICE DEPARTMENT,ALDAN MUNICIPAL BUILDING,ONE WEST PROVIDENCE ROAD,ALDAN,PA,19018,"http://maps.google.com/maps?q=ONE WEST PROVIDENCE ROAD,+ALDAN,+PA+19018&hl=en"
ALLENTOWN POLICE DEPARTMENT,GIANT FOOD STORE #6074,3015 W. EMMAUS AVENUE,ALLENTOWN,PA,18103,"http://maps.google.com/maps?q=3015 W. EMMAUS AVENUE,+ALLENTOWN,+PA+18103&hl=en"
ALLENTOWN POLICE DEPARTMENT,WEGMANS,3900 TILGHMAN ST,ALLENTOWN,PA,18104,"http://maps.google.com/maps?q=3900 TILGHMAN ST,+ALLENTOWN,+PA+18104&hl=en"
BENSALEM TWP POLICE DEPARTMENT,GIANT,2721 STREET RD,BENSALEM,PA,19020,"http://maps.google.com/maps?q=2721 STREET RD,+BENSALEM,+PA+19020&hl=en"
BORDENTOWN TOWNSHIP POLICE DEPARTMENT,BORDENTOWN TOWNSHIP POLICE DEPARTMENT,1 MUNICIPAL DRIVE,BORDENTOWN,NJ,08505,"http://maps.google.com/maps?q=1 MUNICIPAL DRIVE,+BORDENTOWN,+NJ+08505&hl=en"
BRISTOL BOROUGH POLICE DEPT.,BRISTOL BOROUGH POLICE DEPARTMENT,250 POND STREET,BRISTOL,PA,19007,"http://maps.google.com/maps?q=250 POND STREET,+BRISTOL,+PA+19007&hl=en"
BRISTOL TWP PD,BRISTOL TWP MUNICIPAL BLDG,2501 BATH RD,BRISTOL,PA,19007,"http://maps.google.com/maps?q=2501 BATH RD,+BRISTOL,+PA+19007&hl=en"
BRISTOL TWP PD,GRUNDY GARDENS,430 SOUTH OLDS BLVD,FAIRLESS HILLS,PA,19030,"http://maps.google.com/maps?q=430 SOUTH OLDS BLVD,+FAIRLESS HILLS,+PA+19030&hl=en"
BRISTOL TWP PD,LEVITTOWN LIBRARY,7311 NEW FALLS RD,LEVITTOWN,PA,19057,"http://maps.google.com/maps?q=7311 NEW FALLS RD,+LEVITTOWN,+PA+19057&hl=en"
BUCKINGHAM TWP PD,BUCKINGHAM TWP PD,4613 HUGHESIAN DR,BUCKINGHAM,PA,18912,"http://maps.google.com/maps?q=4613 HUGHESIAN DR,+BUCKINGHAM,+PA+18912&hl=en"
BUCKINGHAM TWP PD,MIDWAY FIRE DEPT,3879 ROUTE 413,DOYLESTOWN,PA,18902,"http://maps.google.com/maps?q=3879 ROUTE 413,+DOYLESTOWN,+PA+18902&hl=en"
CALN TOWNSHIP POLICE DEPARTMENT,CVS,101 REECEVILLE ROAD,COATESVILLE,PA,19320,"http://maps.google.com/maps?q=101 REECEVILLE ROAD,+COATESVILLE,+PA+19320&hl=en"
CAMDEN POLICE DEPARTMENT,CAMDEN POLICE DEPARTMENT,1783 FRIENDS WAY,CAMDEN WYOMING,DE,19934,"http://maps.google.com/maps?q=1783 FRIENDS WAY,+CAMDEN WYOMING,+DE+19934&hl=en"
CENTRAL BUCKS REGIONAL POLICE DEPT,CVS,160 S MAIN ST,DOYLESTOWN,PA,18901,"http://maps.google.com/maps?q=160 S MAIN ST,+DOYLESTOWN,+PA+18901&hl=en"
CENTRAL BUCKS REGIONAL POLICE DEPT,RITE AID,306 TOWN CENTER,DOYLESTOWN,PA,18901,"http://maps.google.com/maps?q=306 TOWN CENTER,+DOYLESTOWN,+PA+18901&hl=en"
CHESWOLD POLICE DEPARTMENT,CHESWOLD POLICE DEPT,691 MAIN ST,DOVER,DE,19904,"http://maps.google.com/maps?q=691 MAIN ST,+DOVER,+DE+19904&hl=en"
CITY OF COATESVILLE POLICE DEPARTMENT,COATESVILLE POLICE DEPARTMENT,1 CITY HALL PLACE,COATESVILLE,PA,19320,"http://maps.google.com/maps?q=1 CITY HALL PLACE,+COATESVILLE,+PA+19320&hl=en"
CLEMENTON POLICE DEPARTMENT,CLEMENTON POLICE DEPARTMENT,101 GIBBSBORO ROAD,CLEMENTON,NJ,08021,"http://maps.google.com/maps?q=101 GIBBSBORO ROAD,+CLEMENTON,+NJ+08021&hl=en"
COLLEGEVILLE POLICE DEPARTMENT,COLLEGEVILLE BOROUGH MUNICIPAL BUILDING,491 EAST MAIN ST,COLLEGEVILLE,PA,19426,"http://maps.google.com/maps?q=491 EAST MAIN ST,+COLLEGEVILLE,+PA+19426&hl=en"
DELANCO TOWNSHIP POLICE DEPARTMENT,DELANCO TOWNSHIP POLICE DEPARTMENT,770 COOPERSTOWN ROAD,DELANCO,NJ,08075,"http://maps.google.com/maps?q=770 COOPERSTOWN ROAD,+DELANCO,+NJ+08075&hl=en"
DELAWARE CITY POLICE,DELAWARE CITY POLICE DEPARTMENT,407 CLINTON STREET,DELAWARE CITY,DE,19706,"http://maps.google.com/maps?q=407 CLINTON STREET,+DELAWARE CITY,+DE+19706&hl=en"
DELAWARE DEPARTMENT OF JUSTICE MFCU,SHIPLEY MANOR NURSING HOME,2723 SHIPLEY ROAD,WILMINGTON,DE,19801,"http://maps.google.com/maps?q=2723 SHIPLEY ROAD,+WILMINGTON,+DE+19801&hl=en"
DELAWARE RIVER AND BAY AUTHORITY POLICE,NEW CASTLE COUNTY AIRPORT,151 NORTH DUPONT HIGHWAY (RT. 13),NEW CASTLE,DE,19720,"http://maps.google.com/maps?q=151 NORTH DUPONT HIGHWAY (RT. 13),+NEW CASTLE,+DE+19720&hl=en"
DELAWARE STATE POLICE,CHRISTIANA CARE SURGI CENTER,4755 OGLETOWN STANTON ROAD,NEWARK,DE,19718,"http://maps.google.com/maps?q=4755 OGLETOWN STANTON ROAD,+NEWARK,+DE+19718&hl=en"
DELAWARE STATE POLICE,DELAWARE STATE POLICE - TROOP 2,100 LAGRANGE AVE,NEWARK,DE,19702,"http://maps.google.com/maps?q=100 LAGRANGE AVE,+NEWARK,+DE+19702&hl=en"
DELAWARE STATE POLICE,DELAWARE STATE POLICE - TROOP 3,3759 SOUTH STATE STREET,CAMDEN WYOMING,DE,19934,"http://maps.google.com/maps?q=3759 SOUTH STATE STREET,+CAMDEN WYOMING,+DE+19934&hl=en"
DELRAN TWP. POLICE DEPARTMENT,DELRAN TWP. POLICE DEPARTMENT 856-461-4498,900 CHESTER AVE.,DELRAN TOWNSHIP,NJ,08075,"http://maps.google.com/maps?q=900 CHESTER AVE.,+DELRAN TOWNSHIP,+NJ+08075&hl=en"
DERRY TOWNSHIP POLICE DEPARTMENT,PENN STATE HERSHEY MEDICAL CENTER ACADEMIC SUPPORT BUILDING,90 HOPE DR.,HERSHEY,PA,17033,"http://maps.google.com/maps?q=90 HOPE DR.,+HERSHEY,+PA+17033&hl=en"
DOUGLASS TOWNSHIP POLICE,GIANT,173 HOLLY RD,GILBERTSVILLE,PA,19525,"http://maps.google.com/maps?q=173 HOLLY RD,+GILBERTSVILLE,+PA+19525&hl=en"
DOWNINGTOWN POLICE DEPARTMENT,DOWNINGTOWN POLICE DEPARTMENT,10 WEST LANCASTER AVE.,DOWNINGTOWN,PA,19335,"http://maps.google.com/maps?q=10 WEST LANCASTER AVE.,+DOWNINGTOWN,+PA+19335&hl=en"
DOYLESTOWN TWP POLICE DEPT.,DOYLESTOWN HOSPITAL,595 W. STATE STREET,DOYLESTOWN,PA,18901,"http://maps.google.com/maps?q=595 W. STATE STREET,+DOYLESTOWN,+PA+18901&hl=en"
DUBLIN BOROUGH POLICE DEPARTMENT,DUBLIN IGA FOODSTORE,161 NORTH MAIN STREET,DUBLIN,PA,18917,"http://maps.google.com/maps?q=161 NORTH MAIN STREET,+DUBLIN,+PA+18917&hl=en"
EAST GREENWICH TWP. POLICE DEPARTMENT,EAST GREENWICH TWP. POLICE DEPARTMENT 856-423-4322,159 DEMOCRAT RD.,MICKLETON,NJ,08056,"http://maps.google.com/maps?q=159 DEMOCRAT RD.,+MICKLETON,+NJ+08056&hl=en"
EAST LAMPERTER TWP POLICE DEPT,ROYER PHARMACY,335 W MAIN ST,LEOLA,PA,17540,"http://maps.google.com/maps?q=335 W MAIN ST,+LEOLA,+PA+17540&hl=en"
ELK TOWNSHIP POLICE DEPARTMENT,ELK TOWNSHIP POLICE DEPARTMENT,680 WHIG LANE,MONROEVILLE,NJ,08343,"http://maps.google.com/maps?q=680 WHIG LANE,+MONROEVILLE,+NJ+08343&hl=en"
ELKTON POLICE DEPARTMENT,ELKTON POLICE DEPARTMENT,100 RAILROAD AVENUE,ELKTON,MD,21921,"http://maps.google.com/maps?q=100 RAILROAD AVENUE,+ELKTON,+MD+21921&hl=en"
EMMAUS POLICE DEPARTMENT,EMMAUS POLICE DEPARTMENT,400 JUBILEE STREET,EMMAUS,PA,18049,"http://maps.google.com/maps?q=400  JUBILEE STREET,+EMMAUS,+PA+18049&hl=en"
EPHRATA POLICE DEPT,EPHRATA PD,124 SOUTH STATE ST,EPHRATA,PA,17522,"http://maps.google.com/maps?q=124 SOUTH STATE ST,+EPHRATA,+PA+17522&hl=en"
EWING POLICE DEPARTMENT,EWING TOWNSHIP MUNICIPAL BUILDING 609-882-1313,2 JAKE GARZIO DRIVE,EWING,NJ,08628,"http://maps.google.com/maps?q=2 JAKE GARZIO DRIVE,+EWING,+NJ+08628&hl=en"
FALLS TOWNSHIP POLICE DEPARTMENT,FALLS TOWNSHIP POLICE DEPARTMENT,188 LINCOLN HIGHWAY,FAIRLESS HILLS,PA,19030,"http://maps.google.com/maps?q=188 LINCOLN HIGHWAY,+FAIRLESS HILLS,+PA+19030&hl=en"
FRENCHTOWN BOROUGH POLICE DEPARTMENT,FRENCHTOWN BOROUGH POLICE DEPARTMENT,27 SECOND STREET,FRENCHTOWN,NJ,08825,"http://maps.google.com/maps?q=27 SECOND STREET,+FRENCHTOWN,+NJ+08825&hl=en"
GLASSBORO POLICE DEPARTMENT,GLASSBORO POLICE DEPARTMENT 856-881-1500,1 SOUTH MAIN STREET,GLASSBORO,NJ,08028,"http://maps.google.com/maps?q=1 SOUTH MAIN STREET,+GLASSBORO,+NJ+08028&hl=en"
GLOUCESTER COUNTY SHERIFF'S OFFICE,GLOUCESTER COUNTY STORE DEPTFORD MALL,1750 DEPTFORD CENTER ROAD,DEPTFORD,NJ,08096,"http://maps.google.com/maps?q=1750 DEPTFORD CENTER ROAD,+DEPTFORD,+NJ+08096&hl=en"
GLOUCESTER TWP. POLICE DEPARTMENT,GLOUCESTER TWP. POLICE HQ 856-228-4500,1261 CHEWS LANDING RD.,LAUREL SPRINGS,NJ,08021,"http://maps.google.com/maps?q=1261 CHEWS LANDING RD.,+LAUREL SPRINGS,+NJ+08021&hl=en"
HARFORD COUNTY SHERIFF'S OFFICE,COUNTY OFFICE BUILDING PARKING LOT,220 SOUTH MAIN STREETCORNER OF BUSINESS RT 1 AND MAIN ST.,BEL AIR,MD,21014,"http://maps.google.com/maps?q=220 SOUTH MAIN STREET,+BEL AIR,+MD+21014&hl=en"
HARRISON TWP. POLICE DEPARTMENT,HARRISON TWP. POLICE DEPARTMENT 856-478-6839,199 COLSON LANE,MULLICA HILL,NJ,08062,"http://maps.google.com/maps?q=199 COLSON LANE,+MULLICA HILL,+NJ+08062&hl=en"
HATFIELD TOWNSHIP POLICE DEPARTMENT,HATFIELD TOWNSHIP ADMINISTRATIVE BUILDING,1950 SCHOOL ROAD,HATFIELD,PA,19440,"http://maps.google.com/maps?q=1950 SCHOOL ROAD,+HATFIELD,+PA+19440&hl=en"
HAVRE DE GRACE POLICE DEPARTMENT,HAVRE DE GRACE POLICE DEPARTMENT,715 PENNINGTON AVENUE,HAVRE DE GRACE,MD,21078,"http://maps.google.com/maps?q=715 PENNINGTON AVENUE,+HAVRE DE GRACE,+MD+21078&hl=en"
HOPEWELL TWP. POLICE DEPARTMENT,HOPEWELL TWP POLICE DEPT.,201 WISHINGTON CROSSING PENNINGTON ROAD,TITUSVILLE,NJ,08560,"http://maps.google.com/maps?q=201 WISHINGTON CROSSING PENNINGTON ROAD,+TITUSVILLE,+NJ+08560&hl=en"
HORSHAM TOWNSHIP POLICE DEPARTMENT,GIANT FOOD STORE,314 HORSHAM ROAD,HORSHAM,PA,19044,"http://maps.google.com/maps?q=314 HORSHAM ROAD,+HORSHAM,+PA+19044&hl=en"
KENNETT TWP POLICE DEPT.,KENNETT TWP POLICE DEPARTMENT,801 BURROWS RUN ROAD,CHADDS FORD,PA,19317,"http://maps.google.com/maps?q=801 BURROWS RUN ROAD,+CHADDS FORD,+PA+19317&hl=en"
LAMBERTVILLE CITY POLICE DEPARTMENT,LAMBERTVILLE CITY POLICE DEPARTMENT,349 NORTH MAIN STREET,LAMBERTVILLE,NJ,08530,"http://maps.google.com/maps?q=349 NORTH MAIN STREET,+LAMBERTVILLE,+NJ+08530&hl=en"
LAUREL SPRINGS POLICE DEPARTMENT,LAUREL SPRINGS POLICE DEPARTMENT,723 W. ATLANTIC AVENUE,LAUREL SPRINGS,NJ,08021,"http://maps.google.com/maps?q=723 W. ATLANTIC AVENUE,+LAUREL SPRINGS,+NJ+08021&hl=en"
LAWRENCE TWP. POLICE DEPARTMENT,LAWRENCE TWP. POLICE DEPARTMENT 609-896-1111,2211 LAWRENCE RD.,LAWRENCE TOWNSHIP,NJ,08648,"http://maps.google.com/maps?q=2211 LAWRENCE RD.,+LAWRENCE TOWNSHIP,+NJ+08648&hl=en"
LIMERICK TOWNSHIP POLICE DEPARTMENT,LIMERICK TOWNSHIP POLICE STATION,155 SOUTH LIMERICK ROAD,LIMERICK,PA,19468,"http://maps.google.com/maps?q=155 SOUTH LIMERICK ROAD,+LIMERICK,+PA+19468&hl=en"
LOGAN TOWNSHIP POLICE DEPARTMENT,LOGAN TWP. POLICE DEPARTMENT 856-467-0061,125 MAIN ST.,BRIDGEPORT,NJ,08014,"http://maps.google.com/maps?q=125 MAIN ST.,+BRIDGEPORT,+NJ+08014&hl=en"
LOWER MAKEFIELD TWP POLICE DEPARTMENT,LOWER MAKEFIELD TWP POLICE DEPARTMENT,1100 EDGEWOOD ROAD,YARDLEY,PA,19067,"http://maps.google.com/maps?q=1100 EDGEWOOD ROAD,+YARDLEY,+PA+19067&hl=en"
LOWER MERION TWP. POLICE DEPARTMENT,LOWER MERION TWP. POLICE DEPARTMENT LOBBY,71 E. LANCASTER AVE.,ARDMORE,PA,19003,"http://maps.google.com/maps?q=71 E. LANCASTER AVE.,+ARDMORE,+PA+19003&hl=en"
LOWER POTTSGROVE TWP PD,SANATOGA FIRE DEPT,2222 E HIGH ST,POTTSTOWN,PA,19464,"http://maps.google.com/maps?q=2222 E HIGH ST,+POTTSTOWN,+PA+19464&hl=en"
LOWER PROVIDENCE POLICE DEPARTMENT,LOWER PROVIDENCE POLICE DEPARTMENT,100 PARKLANE DR,EAGLEVILLE,PA,19403,"http://maps.google.com/maps?q=100 PARKLANE DR,+EAGLEVILLE,+PA+19403&hl=en"
LUMBERTON TOWNSHIP PD,MUNICIPAL BLDG,35 MUNICIPAL DRIV,LUMBERTON,NJ,08048,"http://maps.google.com/maps?q=35 MUNICIPAL DRIV,+LUMBERTON,+NJ+08048&hl=en"
MACUNGIE BOROUGH POLICE DEPT,MACUNGIE POLICE DEPT,21 LOCUST ST,MACUNGIE,PA,18062,"http://maps.google.com/maps?q=21 LOCUST ST,+MACUNGIE,+PA+18062&hl=en"
MANHEIM TOWNSHIP PD,WEGMAN'S,2000 CROSSINGS BLVD,LANCASTER,PA,17601,"http://maps.google.com/maps?q=2000 CROSSINGS BLVD,+LANCASTER,+PA+17601&hl=en"
MARLBOROUGH TOWNSHIP POLICE DEPARTMENT,MARLBOROUGH TOWNSHIP POLICE DEPARTMENT,6040 UPPER RIDGE ROAD,GREEN LANE,PA,18054,"http://maps.google.com/maps?q=6040 UPPER RIDGE ROAD,+GREEN LANE,+PA+18054&hl=en"
MARPLE TOWNSHIP POLICE DEPARTMENT,GIANT FOOD STORE,2910 SPRINGFIELD ROAD,BROOMALL,PA,19008,"http://maps.google.com/maps?q=2910 SPRINGFIELD ROAD,+BROOMALL,+PA+19008&hl=en"
MARYLAND NATURAL RESOURCES POLICE,NATURAL RESOURCES POLICE HILLSBORO OFFICE,3001 STARR ROAD,QUEEN ANNE,MD,21657,"http://maps.google.com/maps?q=3001 STARR ROAD,+QUEEN ANNE,+MD+21657&hl=en"
MARYLAND STATE POLICE,MSP BEL AIR BARRACK D POC: D/SGT. JEFF THOMAS,1401 BELAIR ROAD,BEL AIR,MD,21014,"http://maps.google.com/maps?q=1401 BELAIR ROAD,+BEL AIR,+MD+21014&hl=en"
MARYLAND STATE POLICE,MSP CENTREVILLE BARRACK POC: LT. DWAYNE BOARDMAN,311 SAFETY DRIVE,CENTREVILLE,MD,21617,"http://maps.google.com/maps?q=311 SAFETY DRIVE,+CENTREVILLE,+MD+21617&hl=en"
MARYLAND STATE POLICE,MSP JFK HIGHWAY BARRACK POC: D/SGT. SHAWN WARD,15 TURNPIKE DRIVE,PERRYVILLE,MD,21903,"http://maps.google.com/maps?q=15 TURNPIKE DRIVE,+PERRYVILLE,+MD+21903&hl=en"
MARYLAND STATE POLICE,MSP NORTH EAST BARRACK POC: LT. STEPHEN KONOLD,2433 W. PULASKI HIGHWAY,NORTH EAST,MD,21901,"http://maps.google.com/maps?q=2433 W. PULASKI HIGHWAY,+NORTH EAST,+MD+21901&hl=en"
MERCER COUNTY SHERIFF'S OFFICE,MERCER COUNTY SHERIFF'S OFFICE 609-278-7159,640 S. BROAD STREET,TRENTON,NJ,08610,"http://maps.google.com/maps?q=640 S. BROAD STREET,+TRENTON,+NJ+08610&hl=en"
MERCHANTVILLE BOROUGH POLICE DEPARTMENT,CVS PHARMACY,18 W MAPLE AVE,MERCHANTVILLE,NJ,08109,"http://maps.google.com/maps?q=18 W MAPLE AVE,+MERCHANTVILLE,+NJ+08109&hl=en"
MIDDLETOWN POLICE DEPARTMENT,MIDDLETOWN POLICE DEPARTMENT,130 HAMPDEN ROAD,MIDDLETOWN,DE,19709,"http://maps.google.com/maps?q=130 HAMPDEN ROAD,+MIDDLETOWN,+DE+19709&hl=en"
MIDDLETOWN TOWNSHIP POLICE DEPARTMENT,CVS PHARMACY AT TARGET STORE,2331 E. LINCOLN HIGHWAY,LANGHORNE,PA,19047,"http://maps.google.com/maps?q=2331 E. LINCOLN HIGHWAY,+LANGHORNE,+PA+19047&hl=en"
MIDDLETOWN TOWNSHIP POLICE DEPARTMENT,GIANT FOOD PHARMACY,4001 NEW FALLS ROAD,LEVITTOWN,PA,19056,"http://maps.google.com/maps?q=4001 NEW FALLS ROAD,+LEVITTOWN,+PA+19056&hl=en"
MIDDLETOWN TOWNSHIP POLICE DEPARTMENT,ST MARY MEDICAL CENTER,1201 LANGHORNE-NEWTOWN ROAD,LANGHORNE,PA,19047,"http://maps.google.com/maps?q=1201 LANGHORNE-NEWTOWN ROAD,+LANGHORNE,+PA+19047&hl=en"
MONTGOMERY COUNTY DISTRICT ATTORNEY,UPPER MERION TOWNSHIP MUNICIPAL BUILDING,175 WEST VALLEY FORGE ROAD,KING OF PRUSSIA,PA,19406,"http://maps.google.com/maps?q=175 WEST VALLEY FORGE ROAD,+KING OF PRUSSIA,+PA+19406&hl=en"
MONTGOMERY TWP. POLICE DEPARTMENT,WEGMANS SUPERMARKET,1201 KNAPP ROAD,NORTH WALES,PA,19454,"http://maps.google.com/maps?q=1201 KNAPP ROAD,+NORTH WALES,+PA+19454&hl=en"
MOUNT LAUREL POLICE DEPARTMENT,WEGMAN'S SUPERMARKET,2 CENTERTON ROAD,MOUNT LAUREL,NJ,08054,"http://maps.google.com/maps?q=2 CENTERTON ROAD,+MOUNT LAUREL,+NJ+08054&hl=en"
NARCOTICS STRIKE FORCE,UNIVERSITY OF THE SCIENCES ROSENBERGER HALL,600 S 43RD STROOM 100,PHILADELPHIA,PA,19104,"http://maps.google.com/maps?q=600 S 43RD ST,+PHILADELPHIA,+PA+19104&hl=en"
NEW BRITAIN TOWNSHIP POLICE DEPARTMENT,GIANT,4275 COUNTY LINE ROAD,CHALFONT,PA,18914,"http://maps.google.com/maps?q=4275 COUNTY LINE ROAD,+CHALFONT,+PA+18914&hl=en"
NEW BRITAIN TOWNSHIP POLICE DEPARTMENT,NEW BRITAIN TOWNSHIP POLICE DEPARTMENT,207 PARK AVENUE,CHALFONT,PA,18914,"http://maps.google.com/maps?q=207 PARK AVENUE,+CHALFONT,+PA+18914&hl=en"
NEW CASTLE COUNTY POLICE DEPARTMENT,"NEW CASTLE COUNTY POLICE HEADQUARTERS CPL. PAUL J, SWEENEY PUBLIC SAFETY BUILDING",3601 N. DUPONT HIGHWAY,NEW CASTLE,DE,19720,"http://maps.google.com/maps?q=3601 N. DUPONT HIGHWAY,+NEW CASTLE,+DE+19720&hl=en"
NEW HANOVER TOWNSHIP POLICE DEPT,NEW HANOVER TOWNSHIP POLICE DEPT,2943 N CHARLOTTE ST,GILBERTSVILLE,PA,19525,"http://maps.google.com/maps?q=2943 N CHARLOTTE ST,+GILBERTSVILLE,+PA+19525&hl=en"
NEW HOPE POLICE DEPARTMENT,CVS PHARMACY,302 WEST BRIDGE STREET,NEW HOPE,PA,18938,"http://maps.google.com/maps?q=302 WEST BRIDGE STREET,+NEW HOPE,+PA+18938&hl=en"
NEWARK POLICE DEPARTMENT,NEWARK POLICE DEPARTMENT,220 SOUTH MAIN STREET,NEWARK,DE,19711,"http://maps.google.com/maps?q=220 SOUTH MAIN STREET,+NEWARK,+DE+19711&hl=en"
NEWTOWN BOROUGH POLCE DEPT.,NEWTOWN FIRE ASSOCIATION BUILDING,14 LIBERTY STREET,NEWTOWN,PA,18940,"http://maps.google.com/maps?q=14 LIBERTY STREET,+NEWTOWN,+PA+18940&hl=en"
NEWTOWN TWP. POLICE DEPARTMENT,NEWTOWN TWP. MUNICIPAL BUILDING,100 MUNICIPAL DRIVE,NEWTOWN,PA,18940,"http://maps.google.com/maps?q=100 MUNICIPAL DRIVE,+NEWTOWN,+PA+18940&hl=en"
NORTH LONDONDERRY TWP PD,PENN STATE MEDICAL GROUP,941 PARK DR,PALMYRA,PA,17078,"http://maps.google.com/maps?q=941 PARK DR,+PALMYRA,+PA+17078&hl=en"
NORTHAMPTON TWP POLICE,MURRAY MARKET,1025 2ND ST PIKE,RICHBORO,PA,18954,"http://maps.google.com/maps?q=1025 2ND ST PIKE,+RICHBORO,+PA+18954&hl=en"
NORTHEASTERN REGIONAL POLICE,GIANT FOODS,205 GLEN DR,MANCHESTER,PA,17345,"http://maps.google.com/maps?q=205 GLEN DR,+MANCHESTER,+PA+17345&hl=en"
NORTHERN LANCASTER COUNTY REGIONAL POLICE DEPT.,ROYER PHARMACY,1021 SHARP AVE,EPHRATA,PA,17522,"http://maps.google.com/maps?q=1021 SHARP AVE,+EPHRATA,+PA+17522&hl=en"
NORTHWEST LANCASTER CO REGIONAL POLICE DEPT,GIANT FOOD STORE,1278 N MARKET ST,ELIZABETHTOWN,PA,17022,"http://maps.google.com/maps?q=1278 N MARKET ST,+ELIZABETHTOWN,+PA+17022&hl=en"
PENNDEL BOROUGH POLICE DEPT,PENNDEL POLICE STATION,300 SOUTH BELLEVUE AVE,PENNDEL,PA,19047,"http://maps.google.com/maps?q=300 SOUTH BELLEVUE AVE,+PENNDEL,+PA+19047&hl=en"
PENNRIDGE REGIONAL POLICE DEPARTMENT,GRANDVIEW HOSPITAL,700 LAWN AVE,SELLERSVILLE,PA,18960,"http://maps.google.com/maps?q=700 LAWN AVE,+SELLERSVILLE,+PA+18960&hl=en"
PENNRIDGE REGIONAL POLICE DEPARTMENT,PENNRIDGE POLICE DEPARTMENT HQ,200 RIDGE ROAD,SELLERSVILLE,PA,18960,"http://maps.google.com/maps?q=200 RIDGE ROAD,+SELLERSVILLE,+PA+18960&hl=en"
PENNSYLVANIA STATE POLICE,WEGMANS,100 APPLIED BANK BLVD,GLEN MILLS,PA,19342,"http://maps.google.com/maps?q=100 APPLIED BANK BLVD,+GLEN MILLS,+PA+19342&hl=en"
"PENNSYLVANIA STATE POLICE- TROOP J, YORK",DELTA- CARDIFF VOUNTEER FIRE CO,500 MAIN ST,DELTA,PA,17314,"http://maps.google.com/maps?q=500 MAIN ST,+DELTA,+PA+17314&hl=en"
PERKASIE BOROUGH POLICE DEPARTMENT,PERKASIE BOROUGH POLICE DEPARTMENT,311 SOUTH 9TH STREET,PERKASIE,PA,18944,"http://maps.google.com/maps?q=311 SOUTH 9TH STREET,+PERKASIE,+PA+18944&hl=en"
PERRYVILLE POLICE DEPARTMENT,PERRYVILLE POLICE DEPARTMENT,2 PERRYVILLE TOWN CENTER DRIVE,PERRYVILLE,MD,21903,"http://maps.google.com/maps?q=2 PERRYVILLE TOWN CENTER DRIVE,+PERRYVILLE,+MD+21903&hl=en"
PHILADELPHIA POLICE DEPARTMENT,FIRE DEPARTMENT ENGINE 19 / LADDER 8,300 E. CHELTEN AVENUE,PHILADELPHIA,PA,19120,"http://maps.google.com/maps?q=300 E. CHELTEN AVENUE,+PHILADELPHIA,+PA+19120&hl=en"
PHILADELPHIA POLICE DEPARTMENT,FIRE DEPARTMENT ENGINE 2 / LADDER 3,2426-32 N. 2ND ST.,PHILADELPHIA,PA,19133,"http://maps.google.com/maps?q=2426-32 N. 2ND ST.,+PHILADELPHIA,+PA+19133&hl=en"
PHILADELPHIA POLICE DEPARTMENT,FIRE DEPARTMENT ENGINE 22/LADDER 31,3270 COMLY ROAD,PHILADELPHIA,PA,19154,"http://maps.google.com/maps?q=3270 COMLY ROAD,+PHILADELPHIA,+PA+19154&hl=en"
PHILADELPHIA POLICE DEPARTMENT,FIRE DEPARTMENT ENGINE 33,4750 RICHMOND ST.,PHILADELPHIA,PA,19137,"http://maps.google.com/maps?q=4750 RICHMOND ST.,+PHILADELPHIA,+PA+19137&hl=en"
PHILADELPHIA POLICE DEPARTMENT,FIRE DEPARTMENT ENGINE 43 / LADDER 9,2108-14 MARKET ST.,PHILADELPHIA,PA,19103,"http://maps.google.com/maps?q=2108-14 MARKET ST.,+PHILADELPHIA,+PA+19103&hl=en"
PHILADELPHIA POLICE DEPARTMENT,FIRE DEPARTMENT ENGINE 45 / LADDER 14,2401 N. 26TH ST.,PHILADELPHIA,PA,19132,"http://maps.google.com/maps?q=2401 N. 26TH ST.,+PHILADELPHIA,+PA+19132&hl=en"
PHILADELPHIA POLICE DEPARTMENT,FIRE DEPARTMENT ENGINE 50 / LADDER 12,1325 W. CAMBRIA ST.,PHILADELPHIA,PA,19132,"http://maps.google.com/maps?q=1325 W. CAMBRIA ST.,+PHILADELPHIA,+PA+19132&hl=en"
PHILADELPHIA POLICE DEPARTMENT,FIRE DEPARTMENT ENGINE 51 / LADDER 29,5931 OLD YORK RD.,PHILADELPHIA,PA,19141,"http://maps.google.com/maps?q=5931 OLD YORK RD.,+PHILADELPHIA,+PA+19141&hl=en"
PHILADELPHIA POLICE DEPARTMENT,FIRE DEPARTMENT ENGINE 54,1913 N. 63RD ST.,PHILADELPHIA,PA,19151,"http://maps.google.com/maps?q=1913 N. 63RD ST.,+PHILADELPHIA,+PA+19151&hl=en"
PHILADELPHIA POLICE DEPARTMENT,FIRE DEPARTMENT ENGINE 57,5559 CHESTNUT ST.,PHILADELPHIA,PA,19139,"http://maps.google.com/maps?q=5559 CHESTNUT ST.,+PHILADELPHIA,+PA+19139&hl=en"
PHILADELPHIA POLICE DEPARTMENT,FIRE DEPARTMENT ENGINE 60 / LADDER 19,2301 S. 24TH ST.,PHILADELPHIA,PA,19145,"http://maps.google.com/maps?q=2301 S. 24TH ST.,+PHILADELPHIA,+PA+19145&hl=en"
PHILADELPHIA POLICE DEPARTMENT,FIRE DEPARTMENT ENGINE 62 / LADDER 34,9845 BUSTLETON AVE.,PHILADELPHIA,PA,19115,"http://maps.google.com/maps?q=9845 BUSTLETON AVE.,+PHILADELPHIA,+PA+19115&hl=en"
PHILADELPHIA POLICE DEPARTMENT,FIRE DEPARTMENT ENGINE 68 / LADDER 13,801 S. 52ND ST.,PHILADELPHIA,PA,19143,"http://maps.google.com/maps?q=801 S. 52ND ST.,+PHILADELPHIA,+PA+19143&hl=en"
PHILADELPHIA POLICE DEPARTMENT,FIRE DEPARTMENT ENGINE 7 / LADDER 10,3798 KENSINGTON AVE.,PHILADELPHIA,PA,19124,"http://maps.google.com/maps?q=3798 KENSINGTON AVE.,+PHILADELPHIA,+PA+19124&hl=en"
PHILADELPHIA POLICE DEPARTMENT,FIRE DEPARTMENT ENGINE 71 / LADDER 28,1900 COTTMAN AVENUE,PHILADELPHIA,PA,19111,"http://maps.google.com/maps?q=1900 COTTMAN AVENUE,+PHILADELPHIA,+PA+19111&hl=en"
PHILADELPHIA POLICE DEPARTMENT,FIRE DEPARTMENT ENGINE 73,7515 OGONTZ AVE.,PHILADELPHIA,PA,19150,"http://maps.google.com/maps?q=7515 OGONTZ AVE.,+PHILADELPHIA,+PA+19150&hl=en"
PHILADELPHIA POLICE DEPARTMENT,FIRE DEPARTMENT ENGING 36 / LADDER 20,7818 FRANKFORD AVE.,PHILADELPHIA,PA,19136,"http://maps.google.com/maps?q=7818 FRANKFORD AVE.,+PHILADELPHIA,+PA+19136&hl=en"
PHILADELPHIA POLICE DEPARTMENT,FIRE DEPARTMENT ENGING 9 / LADDER 21,6900 GERMANTOWN AVENUE,PHILADELPHIA,PA,19119,"http://maps.google.com/maps?q=6900 GERMANTOWN AVENUE,+PHILADELPHIA,+PA+19119&hl=en"
PHILADELPHIA POLICE DEPARTMENT,FIRE DEPARTMENT LADDER 2,101-15 N. 4TH ST.,PHILADELPHIA,PA,19106,"http://maps.google.com/maps?q=101-15 N. 4TH ST.,+PHILADELPHIA,+PA+19106&hl=en"
PHILADELPHIA POLICE DEPARTMENT,FIRE DEPARTMENT LADDER 30,6630 RIDGE AVE.,PHILADELPHIA,PA,19128,"http://maps.google.com/maps?q=6630 RIDGE AVE.,+PHILADELPHIA,+PA+19128&hl=en"
PHILADELPHIA SHERIFF'S OFFICE,18TH STREET APOTHECARY,113 SOUTH 18TH STREET,PHILADELPHIA,PA,19103,"http://maps.google.com/maps?q=113 SOUTH 18TH STREET,+PHILADELPHIA,+PA+19103&hl=en"
PHILADELPHIA SHERIFF'S OFFICE,STATE REPRESENTATIVES OFC OF ANGEL CRUZ,"3503 B STREET, #7",PHILADELPHIA,PA,19134,"http://maps.google.com/maps?q=3503 B STREET, #7,+PHILADELPHIA,+PA+19134&hl=en"
PINE HILL POLICE DEPARTMENT,PINE HILL POLICE DEPARTMENT,48 WEST 6TH AVENUE,PINE HILL,NJ,08021,"http://maps.google.com/maps?q=48 WEST 6TH AVENUE,+PINE HILL,+NJ+08021&hl=en"
PITMAN POLICE DEPARTMENT,PITMAN POLICE DEPARTMENT,110 S. BROADWAY,PITMAN,NJ,08071,"http://maps.google.com/maps?q=110 S. BROADWAY,+PITMAN,+NJ+08071&hl=en"
PLUMSTEAD TWP. POLICE DEPARTMENT,K-MART CROSS KEYS PLACE SHOPPING CENTER,4377 SWAMP ROAD,DOYLESTOWN,PA,18902,"http://maps.google.com/maps?q=4377 SWAMP ROAD,+DOYLESTOWN,+PA+18902&hl=en"
POTTSTOWN POLICE DEPARTMENT,BOROUGH OF POTTSTOWN,100 EAST HIGH ST,POTTSTOWN,PA,19464,"http://maps.google.com/maps?q=100 EAST HIGH ST,+POTTSTOWN,+PA+19464&hl=en"
QUAKERTOWN POLICE DEPARTMENT,QUAKERTOWN BOROUGH HALL PARKING LOT,35 N. 3RD STREET,QUAKERTOWN,PA,18951,"http://maps.google.com/maps?q=35 N. 3RD STREET,+QUAKERTOWN,+PA+18951&hl=en"
QUAKERTOWN POLICE DEPARTMENT,ST LUKES QUAKERTOWN HOSPITAL MAIN ENTRANCE,1021 PARK AVE,QUAKERTOWN,PA,18951,"http://maps.google.com/maps?q=1021 PARK AVE,+QUAKERTOWN,+PA+18951&hl=en"
QUEEN ANNE'S COUNTY SHERIFF'S OFFICE,QUEEN ANNE'S COUNTY SHERIFF'S OFFICE,505 RAILROAD AVENUE,CENTREVILLE,MD,21617,"http://maps.google.com/maps?q=505 RAILROAD AVENUE,+CENTREVILLE,+MD+21617&hl=en"
RICHLAND TOWNSHIP POLICE DEPARTMENT,RICHLAND TOWNSHIP POLICE DEPARTMENT,229 CALIFORNIA ROAD,QUAKERTOWN,PA,18951,"http://maps.google.com/maps?q=229 CALIFORNIA ROAD,+QUAKERTOWN,+PA+18951&hl=en"
ROCKLEDGE BOROUGH POLICE DEPARTMENT,ROCKLEDGE POLICE DEPARTMENT,1 PARK AVENUE,ROCKLEDGE,PA,19046,"http://maps.google.com/maps?q=1 PARK AVENUE,+ROCKLEDGE,+PA+19046&hl=en"
ROYERSFORD POLICE DEPARTMENT,ROYERSFORD POLICE DEPARTMENT,300 MAIN STREET,ROYERSFORD,PA,19468,"http://maps.google.com/maps?q=300 MAIN STREET,+ROYERSFORD,+PA+19468&hl=en"
SALEM CITY POLICE DEPARTMENT,SALEM CITY POLICE DEPARTMENT,129 WEST BROADWAY,SALEM,NJ,08079,"http://maps.google.com/maps?q=129 WEST BROADWAY,+SALEM,+NJ+08079&hl=en"
SALISBURY TOWNSHIP POLICE DEPARTMENT,SOUTH MALL,3300 LEHIGH STREET,ALLENTOWN,PA,18103,"http://maps.google.com/maps?q=3300 LEHIGH STREET,+ALLENTOWN,+PA+18103&hl=en"
SCHUYLKILL COUNTY SHERIFF'S OFFICE,COALDALE POLICE DEPARTMENT,221-223 3RD STREET,COALDALE,PA,18218,"http://maps.google.com/maps?q=221-223 3RD STREET,+COALDALE,+PA+18218&hl=en"
SCHUYLKILL COUNTY SHERIFF'S OFFICE,ORWIGSBURG POLICE DEPARTMENT,209 NORTH WARREN STREET,ORWIGSBURG,PA,17961,"http://maps.google.com/maps?q=209 NORTH WARREN STREET,+ORWIGSBURG,+PA+17961&hl=en"
SCHUYLKILL COUNTY SHERIFF'S OFFICE,PORT CARBON POLICE DEPARTMENT,90 WASHINGTON STREET,PORT CARBON,PA,17965,"http://maps.google.com/maps?q=90 WASHINGTON STREET,+PORT CARBON,+PA+17965&hl=en"
SCHUYLKILL COUNTY SHERIFF'S OFFICE,RUSH TOWNSHIP POLICE DEPT,104 MAHANOY AVE,TAMAQUA,PA,18252,"http://maps.google.com/maps?q=104 MAHANOY AVE,+TAMAQUA,+PA+18252&hl=en"
SCHUYLKILL COUNTY SHERIFF'S OFFICE,SAINT LUKES MINERS CAMPUS,360 WEST RUDDLE ST,COALDALE,PA,18218,"http://maps.google.com/maps?q=360 WEST RUDDLE ST,+COALDALE,+PA+18218&hl=en"
SCHUYLKILL COUNTY SHERIFF'S OFFICE,SCHUYLKILL HAVEN POLICE DEPARTMENT,220 PARKWAY AVENUE,SCHUYLKILL HAVEN,PA,17972,"http://maps.google.com/maps?q=220 PARKWAY AVENUE,+SCHUYLKILL HAVEN,+PA+17972&hl=en"
SCHUYLKILL COUNTY SHERIFF'S OFFICE,TAMAQUA POLICE DEPARTMENT,320 BROAD STREET,TAMAQUA,PA,18252,"http://maps.google.com/maps?q=320 BROAD STREET,+TAMAQUA,+PA+18252&hl=en"
SMYRNA POLICE DEPARTMENT,ATLANTIC APOTHECARY,103 S. DUPONT BLVD.SUITE #2,SMYRNA,DE,19977,"http://maps.google.com/maps?q=103 S. DUPONT BLVD.,+SMYRNA,+DE+19977&hl=en"
SOLEBURY TOWNSHIP POLICE DEPARTMENT,GIANT FOOD STORE,6542 LOGAN SQUARE,NEW HOPE,PA,18938,"http://maps.google.com/maps?q=6542 LOGAN SQUARE,+NEW HOPE,+PA+18938&hl=en"
SOLEBURY TOWNSHIP POLICE DEPARTMENT,SOLEBURY TOWNSHIP POLICE DEPARTMENT,3092 SUGAN ROAD,NEW HOPE,PA,18938,"http://maps.google.com/maps?q=3092 SUGAN ROAD,+NEW HOPE,+PA+18938&hl=en"
SOUDERTON BOROUGH POLICE,SOUDERTON BOROUGH POLICE STATION,31 WEST SUMMIT ST,SOUDERTON,PA,18964,"http://maps.google.com/maps?q=31 WEST SUMMIT ST,+SOUDERTON,+PA+18964&hl=en"
SOUTH WHITEHALL TWP POLICE DEPT,SOUTH WHITEHALL TWP POLICE DEPT,4444 WALBERT AVENUE,ALLENTOWN,PA,18104,"http://maps.google.com/maps?q=4444 WALBERT AVENUE,+ALLENTOWN,+PA+18104&hl=en"
SOUTHERN CHESTER COUNTY REGIONAL POLICE DEPARTMENT,GIANT FOOD STORES,350 SCARLETT ROAD,KENNETT SQUARE,PA,19348,"http://maps.google.com/maps?q=350 SCARLETT ROAD,+KENNETT SQUARE,+PA+19348&hl=en"
SOUTHERN CHESTER COUNTY REGIONAL POLICE DEPARTMENT,WEST GROVE BOROUGH BUILDING SCCRPD LOBBY,117 ROSEHILL AVE,WEST GROVE,PA,19390,"http://maps.google.com/maps?q=117 ROSEHILL AVE,+WEST GROVE,+PA+19390&hl=en"
SPRINGFIELD TOWNSHIP PD,SPRINGFIELD ELEMENTARY,1950 ROUTE 212,QUAKERTOWN,PA,18951,"http://maps.google.com/maps?q=1950 ROUTE 212,+QUAKERTOWN,+PA+18951&hl=en"
SPRINGFIELD TWP PD,SPRINGFIELD TWP PD,1510 PAPER MILL RD,WYNDMOOR,PA,19038,"http://maps.google.com/maps?q=1510 PAPER MILL RD,+WYNDMOOR,+PA+19038&hl=en"
SUMMIT HILL POLICE DEPARTMENT,SUMMIT HILL POLICE DEPARTMENT,"40 W. AMIDON STREET, SUITE 1",SUMMIT HILL,PA,18250,"http://maps.google.com/maps?q=40 W. AMIDON STREET, SUITE 1,+SUMMIT HILL,+PA+18250&hl=en"
TELFORD BOROUGH POLICE DEPARTMENT,INDIAN VALLEY PUBLIC LIBRARY,100 EAST CHURCH AVENUE,TELFORD,PA,18969,"http://maps.google.com/maps?q=100 EAST CHURCH AVENUE,+TELFORD,+PA+18969&hl=en"
TINICUM TOWNSHIP POLICE DEPARTMENT,WEHRUNG'S FAMILY HOME CENTER,7711 EASTON ROAD,OTTSVILLE,PA,18942,"http://maps.google.com/maps?q=7711 EASTON ROAD,+OTTSVILLE,+PA+18942&hl=en"
TULLYTOWN POLICE,TULLYTOWN MUNICIPAL BLDG,500 MAIN ST,BRISTOL,PA,19007,"http://maps.google.com/maps?q=500 MAIN ST,+BRISTOL,+PA+19007&hl=en"
TWP OF SPRING POLICE DEPT,GIANT FOOD STORE,2104 VAN REED RD,READING,PA,19609,"http://maps.google.com/maps?q=2104 VAN REED RD,+READING,+PA+19609&hl=en"
TWP OF SPRING POLICE DEPT,GIANT FOOD STORE,2641 SHILLINGTON RD,READING,PA,19608,"http://maps.google.com/maps?q=2641 SHILLINGTON RD,+READING,+PA+19608&hl=en"
UPPER DUBLIN TWP. POLICE DEPARTMENT,UPPER DUBLIN TOWNSHIP POLICE DEPT.,801 LOCH ALSH AVENUE,FORT WASHINGTON,PA,19034,"http://maps.google.com/maps?q=801 LOCH ALSH AVENUE,+FORT WASHINGTON,+PA+19034&hl=en"
UPPER MAKEFIELD TWP. POLICE DEPARTMENT,UPPER MAKEFIELD TWP. POLICE DEPARTMENT,1076 EAGLE ROAD,NEWTOWN,PA,18940,"http://maps.google.com/maps?q=1076 EAGLE ROAD,+NEWTOWN,+PA+18940&hl=en"
UPPER MORELAND TWP. POLICE DEPT.,GIANT FOOD STORE,315 N YORK RD,WILLOW GROVE,PA,19090,"http://maps.google.com/maps?q=315 N YORK RD,+WILLOW GROVE,+PA+19090&hl=en"
UPPER MORELAND TWP. POLICE DEPT.,UPPER MORELAND TOWNSHIP POLICE DEPARTMENT,117 PARK AVENUE,WILLOW GROVE,PA,19090,"http://maps.google.com/maps?q=117 PARK AVENUE,+WILLOW GROVE,+PA+19090&hl=en"
UPPER PERK POLICE DEPT,UPPER PERK POLICE STATION,88 W. 6TH STREET,PENNSBURG,PA,18073,"http://maps.google.com/maps?q=88 W. 6TH STREET,+PENNSBURG,+PA+18073&hl=en"
UPPER PROVIDENCE TWP POLICE DEPT.,WEGMAN'S,600 COMMERCE DR,COLLEGEVILLE,PA,19426,"http://maps.google.com/maps?q=600 COMMERCE DR,+COLLEGEVILLE,+PA+19426&hl=en"
UPPER SAUCON TWP POLICE DEPT,UPPER SAUCON PD,5500 CAMP MEETING RD,CENTER VALLEY,PA,18034,"http://maps.google.com/maps?q=5500 CAMP MEETING RD,+CENTER VALLEY,+PA+18034&hl=en"
UPPER SOUTHAMPTON TOWNSHIP PD,RITE AID,1035 COUNTY LINE RD,HUNTINGDON VALLEY,PA,19006,"http://maps.google.com/maps?q=1035 COUNTY LINE RD,+HUNTINGDON VALLEY,+PA+19006&hl=en"
UPPER SOUTHAMPTON TOWNSHIP PD,SOUTHAMPTON ESTATES,238 STREET RD,SOUTHAMPTON,PA,18966,"http://maps.google.com/maps?q=238 STREET RD,+SOUTHAMPTON,+PA+18966&hl=en"
UPPER SOUTHAMPTON TOWNSHIP PD,UPPER SOUTHAMPTON PD,939 STREET RD,SOUTHAMPTON,PA,18966,"http://maps.google.com/maps?q=939 STREET RD,+SOUTHAMPTON,+PA+18966&hl=en"
WARMINSTER POLICE DEPARTMENT,ANN'S CHOICE **RESIDENTS ONLY**,3000 ANN'S CHOICE WAY,WARMINSTER,PA,18974,"http://maps.google.com/maps?q=3000 ANN'S CHOICE WAY,+WARMINSTER,+PA+18974&hl=en"
WARMINSTER POLICE DEPARTMENT,SHOP RITE OF WARMINSTER,942 W. STREET ROAD,WARMINSTER,PA,18974,"http://maps.google.com/maps?q=942 W. STREET ROAD,+WARMINSTER,+PA+18974&hl=en"
WARMINSTER POLICE DEPARTMENT,WARMINSTER TWP. POLICE HQ.,401 GIBSON AVE,WARMINSTER,PA,18974,"http://maps.google.com/maps?q=401 GIBSON AVE,+WARMINSTER,+PA+18974&hl=en"
WARRINGTON TOWNSHIP POLICE DEPARTMENT,WARRINGTON TOWNSHIP MUNICIPAL BUILDING LOBBY,852 EASTON ROAD,WARRINGTON,PA,18976,"http://maps.google.com/maps?q=852 EASTON ROAD,+WARRINGTON,+PA+18976&hl=en"
WARRINGTON TOWNSHIP POLICE DEPARTMENT,WEGMAN'S MARKET,1405 MAIN ST,WARRINGTON,PA,18976,"http://maps.google.com/maps?q=1405 MAIN ST,+WARRINGTON,+PA+18976&hl=en"
WARWICK TOWNSHIP POLICE DEPARTMENT,WAWA,1937 YORK ROAD,JAMISON,PA,18929,"http://maps.google.com/maps?q=1937 YORK ROAD,+JAMISON,+PA+18929&hl=en"
WASHINGTON TOWNSHIP POLICE DEPARTMENT,WASHINGTON TOWNSHIP POLICE,1 MCCLURE DRIVE,SEWELL,NJ,08080,"http://maps.google.com/maps?q=1 MCCLURE DRIVE,+SEWELL,+NJ+08080&hl=en"
WEST AMWELL TOWNSHIP POLICE DEPARTMENT,WEST AMWELL TOWNSHIP BUILDING,150 ROCKTOWN LAMBERTVILLE RD,LAMBERTVILLE,NJ,08530,"http://maps.google.com/maps?q=150 ROCKTOWN LAMBERTVILLE RD,+LAMBERTVILLE,+NJ+08530&hl=en"
WEST CONSHOHOCKEN POLICE DEPARTMENT,WEST CONSHOHOCKEN BOROUGH HALL,112 FORD STREET,WEST CONSHOHOCKEN,PA,19428,"http://maps.google.com/maps?q=112 FORD STREET,+WEST CONSHOHOCKEN,+PA+19428&hl=en"
WEST LAMPETER TOWNSHIP PD,THE MANOR CLUB- WILLOW VALLEY COMMUNITIES,211 WILLOW VALLEY SQUARE,LANCASTER,PA,17602,"http://maps.google.com/maps?q=211 WILLOW VALLEY SQUARE,+LANCASTER,+PA+17602&hl=en"
WEST MANCHESTER TOWNSHIP POLICE DEPT,GIANT,1255 CARLISLE RD,YORK,PA,17404,"http://maps.google.com/maps?q=1255 CARLISLE RD,+YORK,+PA+17404&hl=en"
WESTVILLE POLICE DEPARTMENT,WESTVILLE POLICE DEPARTMENT,167 BROADWAY,WESTVILLE,NJ,08093,"http://maps.google.com/maps?q=167 BROADWAY,+WESTVILLE,+NJ+08093&hl=en"
WHITEMARSH POLICE DEPARTMENT,WHITEMARSH TOWNSHIP POLICE STATION (LOBBY),616 EAST GERMANTOWN PIKE,LAFAYETTE HILL,PA,19444,"http://maps.google.com/maps?q=616 EAST GERMANTOWN PIKE,+LAFAYETTE HILL,+PA+19444&hl=en"
WILLINGBORO POLICE DEPARTMENT,WILLINGBORO TWP. MUNICIPAL BUILDING,1 REV. MARTIN LUTHER KING JR. DRIVE,WILLINGBORO,NJ,08046,"http://maps.google.com/maps?q=1 REV. MARTIN LUTHER KING JR. DRIVE,+WILLINGBORO,+NJ+08046&hl=en"
WOODBURY CITY,WOODBURY POLICE DEPARTMENT,220 S. BROAD ST.,WOODBURY,NJ,08096,"http://maps.google.com/maps?q=220 S. BROAD ST.,+WOODBURY,+NJ+08096&hl=en"
WOODBURY HEIGHTS POLICE DEPARTMENT,WOODBURY HEIGHTS POLICE DEPARTMENT 856-848-6707,500 ELM AVE.,WOODBURY HEIGHTS,NJ,08097,"http://maps.google.com/maps?q=500 ELM AVE.,+WOODBURY HEIGHTS,+NJ+08097&hl=en"
WOOLWICH TWP. POLICE DEPARTMENT,WOOLWICH TWP. POLICE DEPARTMENT,120 VILLAGE GREEN,WOOLWICH,NJ,08085,"http://maps.google.com/maps?q=120 VILLAGE GREEN,+WOOLWICH,+NJ+08085&hl=en"
YORK CITY POLICE DEPT,CENTRAL MARKET,34 W PHILADELPHIA ST,YORK,PA,17401,"http://maps.google.com/maps?q=34 W PHILADELPHIA ST,+YORK,+PA+17401&hl=en"
