Participant,CollectionSite,Address,City,State,Zip,MapURL
ACTON POLICE DEPARTMENT,ACTON POLICE STATION LOBBY KIOSK ACTON POLICE DEPARTMENT,371 MAIN ST,ACTON,MA,01720,"http://maps.google.com/maps?q=371 MAIN ST,+ACTON,+MA+01720&hl=en"
ALBANY COUNTY SHERIFF,ALBANY COUNTY SHERIFF PATROL STATION,58 VERDA AVENUE,CLARKSVILLE,NY,12041,"http://maps.google.com/maps?q=58 VERDA AVENUE,+CLARKSVILLE,+NY+12041&hl=en"
ALBANY COUNTY SHERIFF,RCS COMMUNITY LIBRARY,95 MAIN STREET,RAVENA,NY,12143,"http://maps.google.com/maps?q=95 MAIN STREET,+RAVENA,+NY+12143&hl=en"
ALBANY NY POLICE DEPARTMENT,ALBANY COLLEGE OF PHARMACY CAR PORT (DRIVE UP DROP OFF),106 NEW SCOTLAND AVE.,ALBANY,NY,12208,"http://maps.google.com/maps?q=106 NEW SCOTLAND AVE.,+ALBANY,+NY+12208&hl=en"
ALBANY NY POLICE DEPARTMENT,ALBANY POLICE DEPT. SOUTH STATION,126 ARCH STREET,ALBANY,NY,12202,"http://maps.google.com/maps?q=126 ARCH STREET,+ALBANY,+NY+12202&hl=en"
ALBANY NY POLICE DEPARTMENT,CVS PHARMACY,885 CENTRAL AVE.,ALBANY,NY,12205,"http://maps.google.com/maps?q=885 CENTRAL AVE.,+ALBANY,+NY+12205&hl=en"
ALLENSTOWN POLICE DEPARTMENT,ALLENSTOWN POLICE DEPARTMENT DET. SGT. DAWN SHEA,40 ALLENSTOWN ROAD,ALLENSTOWN,NH,03275,"http://maps.google.com/maps?q=40 ALLENSTOWN ROAD,+ALLENSTOWN,+NH+03275&hl=en"
ALSTEAD POLICE DEPARTMENT,ALSTEAD POLICE DEPARTMENT,15 MECHANIC ST,ALSTEAD,NH,03602,"http://maps.google.com/maps?q=15 MECHANIC ST,+ALSTEAD,+NH+03602&hl=en"
AMHERST POLICE DEPARTMENT,AMHERST POLICE DEPARTMENT MAIN LOBBY,175 AMHERST STREET,AMHERST,NH,03031,"http://maps.google.com/maps?q=175 AMHERST STREET,+AMHERST,+NH+03031&hl=en"
AMHERST POLICE DEPARTMENT,WILDWOOD SCHOOL PARKING AREA,71 STRONG STREET,AMHERST,MA,01002,"http://maps.google.com/maps?q=71 STRONG STREET,+AMHERST,+MA+01002&hl=en"
ANDOVER POLICE DEPARTMENT,CIRCLE K,718 MAIN ST,ANDOVER,NH,03216,"http://maps.google.com/maps?q=718 MAIN ST,+ANDOVER,+NH+03216&hl=en"
ANDOVER POLICE DEPARTMENT,WEST ELEMENTARY SCHOOL FRONT CIRCLE ON BEACON ST,58 BEACON ST,ANDOVER,MA,01810,"http://maps.google.com/maps?q=58 BEACON ST,+ANDOVER,+MA+01810&hl=en"
ARLINGTON POLICE DEPARTMENT,ARLINGTON POLICE DEPARTMENT,112 MYSTIC STREET,ARLINGTON,MA,02474,"http://maps.google.com/maps?q=112 MYSTIC STREET,+ARLINGTON,+MA+02474&hl=en"
ASHBY POLICE DEPARTMENT,ASHBY POLICE DEPARTMENT,893 MAIN ST.,ASHBY,MA,01431,"http://maps.google.com/maps?q=893 MAIN ST.,+ASHBY,+MA+01431&hl=en"
ASHLAND POLICE DEPARTMENT,ASHLAND POLICE DEPARTMENT LT. DAVID BEAUDOIN,137 MAIN STREET,ASHLAND,MA,01721,"http://maps.google.com/maps?q=137 MAIN STREET,+ASHLAND,+MA+01721&hl=en"
ATKINSON POLICE DEPARTMENT,ATKINSON POLICE DEPARTMENT,27 ACADEMY AVENUE,ATKINSON,NH,03811,"http://maps.google.com/maps?q=27 ACADEMY AVENUE,+ATKINSON,+NH+03811&hl=en"
ATTLEBORO POLICE DEPARTMENT,ATTLEBORO POLICE DEPARTMENT,12 UNION ST,ATTLEBORO,MA,02703,"http://maps.google.com/maps?q=12 UNION ST,+ATTLEBORO,+MA+02703&hl=en"
AUBURN POLICE DEPARTMENT,AUBURN SAFETY COMPLEX LOBBY,55 EATON HILL RD,AUBURN,NH,03032,"http://maps.google.com/maps?q=55 EATON HILL RD,+AUBURN,+NH+03032&hl=en"
AYER POLICE DEPARTMENT,WESTFORD POLICE DEPARTMENT,53 MAIN STREET,WESTFORD,MA,01886,"http://maps.google.com/maps?q=53 MAIN STREET,+WESTFORD,+MA+01886&hl=en"
BARRINGTON POLICE DEPARTMENT,BARRINGTON POLICE DEPARTMENT,100 FEDERAL RD,BARRINGTON,RI,02806,"http://maps.google.com/maps?q=100 FEDERAL RD,+BARRINGTON,+RI+02806&hl=en"
BEDFORD POLICE DEPARTMENT,BEDFORD POLICE DEPARTMENT JAMES GRAHAM,2 MUDGE WAYPOLICE DEPARTMENT,BEDFORD,MA,01730,"http://maps.google.com/maps?q=2 MUDGE WAY,+BEDFORD,+MA+01730&hl=en"
BEDFORD POLICE DEPARTMENT,BEDFORD SAFETY COMPLEX,55 CONSTITUTION DR.,BEDFORD,NH,03110,"http://maps.google.com/maps?q=55 CONSTITUTION DR.,+BEDFORD,+NH+03110&hl=en"
BELCHERTOWN POLICE DEPARTMENT,BELCHERTOWN POLICE DEPARTMENT,PARK STREETTOWN COMMON,BELCHERTOWN,MA,01007,"http://maps.google.com/maps?q=PARK STREET,+BELCHERTOWN,+MA+01007&hl=en"
BELLINGHAM POLICE DEPARTMENT,BELLINGHAM POLICE DEPARTMENT,30 BLACKSTONE STREET,BELLINGHAM,MA,02019,"http://maps.google.com/maps?q=30 BLACKSTONE STREET,+BELLINGHAM,+MA+02019&hl=en"
BELMONT POLICE DEPARTMENT,BELMONT DEPARTMENT OF PUBLIC WORKS,37 C STREET,BELMONT,MA,02478,"http://maps.google.com/maps?q=37 C STREET,+BELMONT,+MA+02478&hl=en"
BENNINGTON POLICE DEPARTMENT,BENNINGTON COUNTY SHERIFF'S DEPT FRONT LOBBY,811 US ROUTE 7 SOUTH,BENNINGTON,VT,05201,"http://maps.google.com/maps?q=811 US ROUTE 7 SOUTH,+BENNINGTON,+VT+05201&hl=en"
BENNINGTON POLICE DEPARTMENT,BENNINGTON POLICE DEPARTMENT FRONT LOBBY,118 SOUTH STREET,BENNINGTON,VT,05201,"http://maps.google.com/maps?q=118 SOUTH STREET,+BENNINGTON,+VT+05201&hl=en"
BENNINGTON POLICE DEPARTMENT,MANCHESTER POLICE DEPARTMENT FRONT LOBBY,6041 MAIN STREET,MANCHESTER CENTER,VT,05255,"http://maps.google.com/maps?q=6041 MAIN STREET,+MANCHESTER CENTER,+VT+05255&hl=en"
BENNINGTON POLICE DEPARTMENT,SOUTHWESTERN VERMONT MEDICAL CENTER FRONT LOBBY,100 HOSPITAL DRIVE,BENNINGTON,VT,05201,"http://maps.google.com/maps?q=100 HOSPITAL DRIVE,+BENNINGTON,+VT+05201&hl=en"
BENNINGTON POLICE DEPARTMENT,WINHALL POLICE DEPARTMENT FRONT LOBBY,113 VT ROUTE 30,BONDVILLE,VT,05340,"http://maps.google.com/maps?q=113 VT ROUTE 30,+BONDVILLE,+VT+05340&hl=en"
BERLIN POLICE DEPARTMENT,BERLIN POLICE DEPARTMENT,240 KENSINGTON ROAD,BERLIN,CT,06037,"http://maps.google.com/maps?q=240 KENSINGTON ROAD,+BERLIN,+CT+06037&hl=en"
BETHANY POLICE DEPARTMENT,TROOP I RESIDENT TROOPERS OFFICE,631 AMITY ROAD,NEW HAVEN,CT,06525,"http://maps.google.com/maps?q=631 AMITY ROAD,+NEW HAVEN,+CT+06525&hl=en"
BETHLEHEM POLICE DEPARTMENT,ELM AVENUE PARK FRONT PARKING LOT,249 ELM AVENUE,DELMAR,NY,12054,"http://maps.google.com/maps?q=249 ELM AVENUE,+DELMAR,+NY+12054&hl=en"
BILLERICA POLICE,BILLERICA POLICE,6 GOOD ST,BILLERICA,MA,01821,"http://maps.google.com/maps?q=6 GOOD ST,+BILLERICA,+MA+01821&hl=en"
BLACKSTONE POLICE DEPARTMENT,BLACKSTONE POLICE DEPARTMENT LT. GREGORY GILMORE,15 ST. PAUL STREET,BLACKSTONE,MA,01504,"http://maps.google.com/maps?q=15 ST. PAUL STREET,+BLACKSTONE,+MA+01504&hl=en"
BOSCAWEN POLICE DEPARTMENT,BOSCAWEN POLICE DEPARTMENT LT. JASON KILLARY,116 NORTH MAIN STREET,BOSCAWEN,NH,03303,"http://maps.google.com/maps?q=116 NORTH MAIN STREET,+BOSCAWEN,+NH+03303&hl=en"
BOSTON POLICE DEPARTMENT,BOSTON POLICE DEPARTMENT DISTRICT A-1,40 NEW SUDBURY ST,BOSTON,MA,02114,"http://maps.google.com/maps?q=40 NEW SUDBURY ST,+BOSTON,+MA+02114&hl=en"
BOSTON POLICE DEPARTMENT,BOSTON POLICE DEPARTMENT DISTRICT A-15,20 VINE ST,CHARLESTOWN,MA,02129,"http://maps.google.com/maps?q=20 VINE ST,+CHARLESTOWN,+MA+02129&hl=en"
BOSTON POLICE DEPARTMENT,BOSTON POLICE DEPARTMENT DISTRICT A-7,69 PARIS ST,EAST BOSTON,MA,02128,"http://maps.google.com/maps?q=69 PARIS ST,+EAST BOSTON,+MA+02128&hl=en"
BOSTON POLICE DEPARTMENT,BOSTON POLICE DEPARTMENT DISTRICT B-2,2400 WASHINGTON ST,ROXBURY,MA,02119,"http://maps.google.com/maps?q=2400 WASHINGTON ST,+ROXBURY,+MA+02119&hl=en"
BOSTON POLICE DEPARTMENT,BOSTON POLICE DEPARTMENT DISTRICT B-3,1165 BLUE HILL AVE,DORCHESTER CENTER,MA,02124,"http://maps.google.com/maps?q=1165 BLUE HILL AVE,+DORCHESTER CENTER,+MA+02124&hl=en"
BOSTON POLICE DEPARTMENT,BOSTON POLICE DEPARTMENT DISTRICT C-11,40 GIBSON ST,DORCHESTER,MA,02122,"http://maps.google.com/maps?q=40 GIBSON ST,+DORCHESTER,+MA+02122&hl=en"
BOSTON POLICE DEPARTMENT,BOSTON POLICE DEPARTMENT DISTRICT C-6,101 WEST BROADWAY,SOUTH BOSTON,MA,02127,"http://maps.google.com/maps?q=101 WEST BROADWAY,+SOUTH BOSTON,+MA+02127&hl=en"
BOSTON POLICE DEPARTMENT,BOSTON POLICE DEPARTMENT DISTRICT D-14,301 WASHINGTON ST,BRIGHTON,MA,02135,"http://maps.google.com/maps?q=301 WASHINGTON ST,+BRIGHTON,+MA+02135&hl=en"
BOSTON POLICE DEPARTMENT,BOSTON POLICE DEPARTMENT DISTRICT D-4,650 HARRISON AVE,BOSTON,MA,02116,"http://maps.google.com/maps?q=650 HARRISON AVE,+BOSTON,+MA+02116&hl=en"
BOSTON POLICE DEPARTMENT,BOSTON POLICE DEPARTMENT DISTRICT E-13,3347 WASHINGTON ST,JAMAICA PLAIN,MA,02130,"http://maps.google.com/maps?q=3347 WASHINGTON ST,+JAMAICA PLAIN,+MA+02130&hl=en"
BOSTON POLICE DEPARTMENT,BOSTON POLICE DEPARTMENT DISTRICT E-18,1249 HYDE PARK AVE,HYDE PARK,MA,02136,"http://maps.google.com/maps?q=1249 HYDE PARK AVE,+HYDE PARK,+MA+02136&hl=en"
BOSTON POLICE DEPARTMENT,BOSTON POLICE DEPARTMENT DISTRICT E-5,1708 CENTRE ST,WEST ROXBURY,MA,02132,"http://maps.google.com/maps?q=1708 CENTRE ST,+WEST ROXBURY,+MA+02132&hl=en"
BOW POLICE DEPARTMENT,BOW SAFETY CENTER,7 KNOX RD,BOW,NH,03304,"http://maps.google.com/maps?q=7 KNOX RD,+BOW,+NH+03304&hl=en"
BOXBOROUGH POLICE DEPARTMENT,BOXBOROUGH POLICE DEPARTMENT WARREN B RYDER,520 MASSACHUSETTS AVENUEPOLICE DEPARTMENT,BOXBOROUGH,MA,01719,"http://maps.google.com/maps?q=520 MASSACHUSETTS AVENUE,+BOXBOROUGH,+MA+01719&hl=en"
BRADFORD POLICE DEPARTMENT,BRADFORD POLICE DEPARTMENT,2217 STATE ROUTE 114,BRADFORD,NH,03221,"http://maps.google.com/maps?q=2217 STATE ROUTE 114,+BRADFORD,+NH+03221&hl=en"
BRAINTREE POLICE DEPT.,BRAINTREE POLICE DEPARTMENT OFFICER RONALD SOLIMINI,282 UNION ST,BRAINTREE,MA,02184,"http://maps.google.com/maps?q=282 UNION ST,+BRAINTREE,+MA+02184&hl=en"
BRANFORD POLICE DEPARTMENT,BRANFORD POLICE DEPARTMENT,33 LAUREL STREET,BRANFORD,CT,06405,"http://maps.google.com/maps?q=33 LAUREL STREET,+BRANFORD,+CT+06405&hl=en"
BRIDGEWATER POLICE DEPARTMENT,BRIDGEWATER POLICE DEPARTMENT LOBBY,220 PLEASANT ST,BRIDGEWATER,MA,02324,"http://maps.google.com/maps?q=220 PLEASANT ST,+BRIDGEWATER,+MA+02324&hl=en"
BRISTOL POLICE DEPARTMENT,BRISTOL POLICE DEPARTMENT,395 METACOM AVE,BRISTOL,RI,02809,"http://maps.google.com/maps?q=395 METACOM AVE,+BRISTOL,+RI+02809&hl=en"
BRISTOL POLICE DEPARTMENT,BRISTOL SENIOR COMMUNITY CENTER HOURS OF COLLECTION 10:00 A.M- 1:00 P.M,240 STAFFORD AVENUE,BRISTOL,CT,06010,"http://maps.google.com/maps?q=240 STAFFORD AVENUE,+BRISTOL,+CT+06010&hl=en"
BROCKTON POLICE DEPARTMENT,BROCKTON COUNCIL ON AGING,10 FATHER KENNY WAY,BROCKTON,MA,02301,"http://maps.google.com/maps?q=10 FATHER KENNY WAY,+BROCKTON,+MA+02301&hl=en"
BROOKLINE POLICE DEPARTMENT,BROOKLINE PUBLIC SAFETY BUILDING COMMUNITY ROOM,350 WASHINGTON ST.,BROOKLINE,MA,02445,"http://maps.google.com/maps?q=350 WASHINGTON ST.,+BROOKLINE,+MA+02445&hl=en"
BROOKLINE POLICE DEPARTMENT,BROOKLINE SAFETY COMPLEX AMBULANCE BAY DRIVE THROUGH,3 POST OFFICE DR,BROOKLINE,NH,03033,"http://maps.google.com/maps?q=3 POST OFFICE DR,+BROOKLINE,+NH+03033&hl=en"
BURLINGTON POLICE DEPARTMENT,BURLINGTON PD,45 CENTER ST,BURLINGTON,MA,01803,"http://maps.google.com/maps?q=45 CENTER ST,+BURLINGTON,+MA+01803&hl=en"
BURRILLVILLE POLICE DEPARTMENT,BURRILLVILLE POLICE DEPARTMENT,1477 VICTORY HIGHWAY,HARRISVILLE,RI,02830,"http://maps.google.com/maps?q=1477 VICTORY HIGHWAY,+HARRISVILLE,+RI+02830&hl=en"
CAIRO POLICE DEPARTMENT,HANNAFORD,223 MAIN STREET,CAIRO,NY,12413,"http://maps.google.com/maps?q=223 MAIN STREET,+CAIRO,+NY+12413&hl=en"
CAMBRIDGE POLICE DEPT,CAMBRIDGE POLICE DEPT,125 SIXTH ST,CAMBRIDGE,MA,02142,"http://maps.google.com/maps?q=125 SIXTH ST,+CAMBRIDGE,+MA+02142&hl=en"
CANAAN POLICE DEPARTMENT,CANAAN POLICE DEPARTMENT 10 AM -2 PM,52 ROUTE 118,CANAAN,NH,03741,"http://maps.google.com/maps?q=52 ROUTE 118,+CANAAN,+NH+03741&hl=en"
CANDIA POLICE DEPARTMENT,CANDIA FIRE DEPARTMENT,11 DEERFIELD RD.,CANDIA,NH,03034,"http://maps.google.com/maps?q=11 DEERFIELD RD.,+CANDIA,+NH+03034&hl=en"
CANTERBURY POLICE DEPARTMENT,CANTERBURY POLICE DEPARTMENT CANTERBURY NH TOM BIBEAU,26 BAPTIST RD,CANTERBURY,NH,03224,"http://maps.google.com/maps?q=26 BAPTIST RD,+CANTERBURY,+NH+03224&hl=en"
CASTLETON POLICE DEPARTMENT,CASTLETON POLICE DEPARTMENT,263 VT ROUTE 30,CASTLETON,VT,05735,"http://maps.google.com/maps?q=263 VT ROUTE 30,+CASTLETON,+VT+05735&hl=en"
CENTRAL FALLS POLICE DEPARTMENT,CENTRAL FALLS POLICE DEPARTMENT LT. CHRISTOPHER REED,160 ILLINOIS STREET,CENTRAL FALLS,RI,02863,"http://maps.google.com/maps?q=160 ILLINOIS STREET,+CENTRAL FALLS,+RI+02863&hl=en"
CHARLESTOWN POLICE DEPARTMENT,CHARLESTOWN,4901 OLD POST ROAD,CHARLESTOWN,RI,02813,"http://maps.google.com/maps?q=4901 OLD POST ROAD,+CHARLESTOWN,+RI+02813&hl=en"
CHATHAM POLICE DEPARTMENT,CHATHAM PD,77 MAIN STREET,CHATHAM,NY,12037,"http://maps.google.com/maps?q=77 MAIN STREET,+CHATHAM,+NY+12037&hl=en"
CHELMSFORD POLICE DEPARTMENT,CHELMSFORD POLICE DEPARTMENT,2 OLDE NORTH RD,CHELMSFORD,MA,01824,"http://maps.google.com/maps?q=2 OLDE NORTH RD,+CHELMSFORD,+MA+01824&hl=en"
CHELSEA POLICE,CHELSEA POLICE DEPARTMENT,19 PARK STREET,CHELSEA,MA,02150,"http://maps.google.com/maps?q=19 PARK STREET,+CHELSEA,+MA+02150&hl=en"
CHESHIRE POLICE DEPARTMENT,CHESHIRE POLICE DEPARTMENT,500 HIGHLAND AVE,CHESHIRE,CT,06410,"http://maps.google.com/maps?q=500 HIGHLAND AVE,+CHESHIRE,+CT+06410&hl=en"
CHESTER POLICE DEPARTMENT,CHESTER POLICE DEPARTMENT AARON P. BERUBE,84 CHESTER STREET,CHESTER,NH,03036,"http://maps.google.com/maps?q=84 CHESTER STREET,+CHESTER,+NH+03036&hl=en"
CHESTERFIELD POLICE DEPARTMENT,CHESTERFIELD POLICE DEPARTMENT CHIEF DUANE CHICKERING,490 ROUTE 63PO BOX 231,CHESTERFIELD,NH,03443,"http://maps.google.com/maps?q=490 ROUTE 63,+CHESTERFIELD,+NH+03443&hl=en"
CITY OF MEDFORD,REAR OF CITY HALL LOT - MAIN SITE,85 GEORGE P HASSETT DRIVE,MEDFORD,MA,02155,"http://maps.google.com/maps?q=85 GEORGE P HASSETT DRIVE,+MEDFORD,+MA+02155&hl=en"
CITY OF MEDFORD,WEGMAN'S,3850 MYSTIC VALLEY PARKWAY,MEDFORD,MA,02155,"http://maps.google.com/maps?q=3850 MYSTIC VALLEY PARKWAY,+MEDFORD,+MA+02155&hl=en"
CITY OF PROVIDENCE,PROVIDENCE POLICE DEPARTMENT,325 WASHINGTON ST,PROVIDENCE,RI,02903,"http://maps.google.com/maps?q=325 WASHINGTON ST,+PROVIDENCE,+RI+02903&hl=en"
CITY OF PROVIDENCE,WALGREENS PHARMACY,1 POCASSET AVE,PROVIDENCE,RI,02909,"http://maps.google.com/maps?q=1 POCASSET AVE,+PROVIDENCE,+RI+02909&hl=en"
CITY OF PROVIDENCE,WALGREENS PHARMACY,533 ELMWOOD AVE,PROVIDENCE,RI,02907,"http://maps.google.com/maps?q=533 ELMWOOD AVE,+PROVIDENCE,+RI+02907&hl=en"
CLAREMONT POLICE DEPARTMENT,CVS PARKING LOT DRIVE UP AND DROP OFF SITE,1 WALL STREET,CLAREMONT,NH,03743,"http://maps.google.com/maps?q=1 WALL STREET,+CLAREMONT,+NH+03743&hl=en"
CLARKU,CLARK UNIVERSITY,950 MAIN STREETHIGGINS STUDENT CENTER,WORCESTER,MA,01610,"http://maps.google.com/maps?q=950 MAIN STREET,+WORCESTER,+MA+01610&hl=en"
COLONIE POLICE DEPARTMENT,COLONIE POLICE DEPARTMENT COURT RM # 1,312 WOLF ROAD,LATHAM,NY,12110,"http://maps.google.com/maps?q=312 WOLF ROAD,+LATHAM,+NY+12110&hl=en"
COLUMBIA COUNTY SHERIFF'S OFFICE,COLUMBIA COUNTY SHERIFF'S OFFICE,85 INDUSTRIAL TRACT,HUDSON,NY,12534,"http://maps.google.com/maps?q=85 INDUSTRIAL TRACT,+HUDSON,+NY+12534&hl=en"
COLUMBIA COUNTY SHERIFF'S OFFICE,HILLSDALE SUB STATION,2684 STATE ROUTE 23,HILLSDALE,NY,12529,"http://maps.google.com/maps?q=2684 STATE ROUTE 23,+HILLSDALE,+NY+12529&hl=en"
CONCORD POLICE DEPARTMENT,CONCORD POLICE DEPARTMENT DET. MATTHEW LANKHORST,35 GREEN STREET,CONCORD,NH,03301,"http://maps.google.com/maps?q=35 GREEN STREET,+CONCORD,+NH+03301&hl=en"
CONNECTICUT STATE POLICE-TROOP G,TROOP G BARRACKS,149 PROSPECT ST,BRIDGEPORT,CT,06604,"http://maps.google.com/maps?q=149 PROSPECT ST,+BRIDGEPORT,+CT+06604&hl=en"
COXSACKIE POLICE DEPARTMENT,COXSACKIE POLICE DEPARTMENT,119 MANSION STREET,COXSACKIE,NY,12051,"http://maps.google.com/maps?q=119 MANSION STREET,+COXSACKIE,+NY+12051&hl=en"
CRANSTON POLICE DEPARTMENT,CRANSTON POLICE DEPARTMENT,5 GARFIELD ST,CRANSTON,RI,02920,"http://maps.google.com/maps?q=5 GARFIELD ST,+CRANSTON,+RI+02920&hl=en"
CT STATE POLICE TROOP C,CT STATE POLICE TROOP C,1320 TOLLAND STAGE RD.,TOLLAND,CT,06084,"http://maps.google.com/maps?q=1320 TOLLAND STAGE RD.,+TOLLAND,+CT+06084&hl=en"
CT STATE POLICE TROOP E,GRISWOLD TOWN HALL,28 MAIN STREET,JEWETT CITY,CT,06351,"http://maps.google.com/maps?q=28 MAIN STREET,+JEWETT CITY,+CT+06351&hl=en"
CUMBERLAND POLICE,CUMBERLAND POLICE DEPARTMENT,1380 DIAMOND HILL ROAD,CUMBERLAND,RI,02864,"http://maps.google.com/maps?q=1380 DIAMOND HILL ROAD,+CUMBERLAND,+RI+02864&hl=en"
CUMMINGTON POLICE DEPARTMENT,CUMMINGTON POLICE DEPARTMENT CUMMINGTON PUBLIC SAFETY COMPLEX,8 FAIRGROUNDS ROAD,CUMMINGTON,MA,01026,"http://maps.google.com/maps?q=8 FAIRGROUNDS ROAD,+CUMMINGTON,+MA+01026&hl=en"
DANBURY POLICE DEPARTMENT,DANBURY POLICE DEPARTMENT,375 MAIN STREET,DANBURY,CT,06810,"http://maps.google.com/maps?q=375 MAIN STREET,+DANBURY,+CT+06810&hl=en"
DANVERS PD,DANVERS POLICE DEPARTMENT,120 ASH ST,DANVERS,MA,01923,"http://maps.google.com/maps?q=120 ASH ST,+DANVERS,+MA+01923&hl=en"
DEDHAM POLICE,DEDHAM POLICE MICHAEL D'ENTREMONT,600 HIGH STREET,DEDHAM,MA,02026,"http://maps.google.com/maps?q=600 HIGH STREET,+DEDHAM,+MA+02026&hl=en"
DEERFIELD POLICE DEPARTMENT,DEERFIELD POLICE DEPARTMENT,8 CONWAY STREET,SOUTH DEERFIELD,MA,01373,"http://maps.google.com/maps?q=8 CONWAY STREET,+SOUTH DEERFIELD,+MA+01373&hl=en"
DERRY POLICE DEPARTMENT,DERRY POLICE HEADQUARTERS FRONT PARKING LOT,1 MUNICIPAL DR.,DERRY,NH,03038,"http://maps.google.com/maps?q=1 MUNICIPAL DR.,+DERRY,+NH+03038&hl=en"
DOVER POLICE DEPAQRTMENT,DOVER HQ LOBBY,3 WALPOLE ST,DOVER,MA,02030,"http://maps.google.com/maps?q=3 WALPOLE ST,+DOVER,+MA+02030&hl=en"
DOVER POLICE DEPT.,DOVER POLICE DEPARTMENT CHIEF RANDY JOHNSON,246 ROUTE 100,WEST DOVER,VT,05356,"http://maps.google.com/maps?q=246 ROUTE 100,+WEST DOVER,+VT+05356&hl=en"
DRACUT POLICE DEPARTMENT,DRACUT POLICE DEPARTMENT DEPUTY CHIEF DAVID CHARTRAND,110 LOON HILL ROAD,DRACUT,MA,01826,"http://maps.google.com/maps?q=110 LOON HILL ROAD,+DRACUT,+MA+01826&hl=en"
DUBLIN POLICE DEPARTMENT,DUBLIN POLICE DEPARTMENT CHIEF TIMOTHY J. SUOKKO,1122 MAIN STREET,DUBLIN,NH,03444,"http://maps.google.com/maps?q=1122 MAIN STREET,+DUBLIN,+NH+03444&hl=en"
DUDLEY POLICE DEPARTMENT,DUDLEY POLICE DEPARTMENT,71 WEST MAIN ST,DUDLEY,MA,01571,"http://maps.google.com/maps?q=71 WEST MAIN ST,+DUDLEY,+MA+01571&hl=en"
DUNBARTON POLICE DEPARTMENT,DUNBARTON POLICE DEPARTMENT,18 ROBERT ROGERS ROAD,DUNBARTON,NH,03046,"http://maps.google.com/maps?q=18 ROBERT ROGERS ROAD,+DUNBARTON,+NH+03046&hl=en"
DUTCHESS COUNTY SHERIFF'S OFFICE,VASSAR BROTHERS MEDICAL HOSPITAL,45 READE PLACE,POUGHKEEPSIE,NY,12601,"http://maps.google.com/maps?q=45 READE PLACE,+POUGHKEEPSIE,+NY+12601&hl=en"
EAST BRIDGEWATER PD,EAST BRIDGEWATER POLICE DEPARTMENT,153 CENTRAL STREET,EAST BRIDGEWATER,MA,02333,"http://maps.google.com/maps?q=153 CENTRAL STREET,+EAST BRIDGEWATER,+MA+02333&hl=en"
EAST GRANBY RESIDENT TROOPERS OFFICE,EAST GRANBY RESIDENT TROOPER'S OFFICE,7 MEMORIAL DRIVE,EAST GRANBY,CT,06026,"http://maps.google.com/maps?q=7 MEMORIAL DRIVE,+EAST GRANBY,+CT+06026&hl=en"
EAST GREENBUSH POLICE DEPARTMENT,EAST GREENBUSH POLICE DEPARTMENT,225 COLUMBIA TURNPIKE,RENSSELAER,NY,12144,"http://maps.google.com/maps?q=225 COLUMBIA TURNPIKE,+RENSSELAER,+NY+12144&hl=en"
EAST HADDAM POLICE/RESIDENT TROOPER,EAST HADDAM POLICE/RESIDENT TROOPER JEFFREY RHOADES,1 PLAINS ROAD,MOODUS,CT,06469,"http://maps.google.com/maps?q=1 PLAINS ROAD,+MOODUS,+CT+06469&hl=en"
EAST HAMPTON POLICE DEPARTMENT,CHATHAM ACRES EAST HAMPTON HOUSING AUTHORITY 10:00 A.M. TO 2:00 P.M.,GOVERNOR BILL O'NEILL DRIVE,EAST HAMPTON,CT,06424,"http://maps.google.com/maps?q=GOVERNOR BILL O'NEILL DRIVE,+EAST HAMPTON,+CT+06424&hl=en"
EAST HARTFORD POLICE,EAST HARTFORD PUBLIC SAFETY COMPLEX EAST HARTFORD POLICE HEADQUARTERS,31 SCHOOL STREET,EAST HARTFORD,CT,06108,"http://maps.google.com/maps?q=31 SCHOOL STREET,+EAST HARTFORD,+CT+06108&hl=en"
EAST HAVEN POLICE DEPARTMENT,EAST HAVEN POLICE DEPARTMENT,471 NORTH HIGH STREET,EAST HAVEN,CT,06512,"http://maps.google.com/maps?q=471 NORTH HIGH STREET,+EAST HAVEN,+CT+06512&hl=en"
EAST PROVIDENCE POLICE DEPARTMENT,EAST PROVIDENCE POLICE DEPARTMENT,750 WATERMAN AVE,EAST PROVIDENCE,RI,02914,"http://maps.google.com/maps?q=750 WATERMAN AVE,+EAST PROVIDENCE,+RI+02914&hl=en"
EASTHAMPTON POLICE DEPARTMENT,EASTHAMPTON PUBLIC SAFETY COMPLEX,32 PAYSON AVENUE,EASTHAMPTON,MA,01027,"http://maps.google.com/maps?q=32 PAYSON AVENUE,+EASTHAMPTON,+MA+01027&hl=en"
EASTON POLICE DEPARTMENT,EASTON POLICE DEPARTMENT,46 LOTHROP STREET,EASTON,MA,02356,"http://maps.google.com/maps?q=46 LOTHROP STREET,+EASTON,+MA+02356&hl=en"
ELLINGTON RESIDENT TROOPERS OFFICE,ELLINGTON RESIDENT TROOPERS OFFICE,33 ARBOR WAY,ELLINGTON,CT,06029,"http://maps.google.com/maps?q=33 ARBOR WAY,+ELLINGTON,+CT+06029&hl=en"
ENFIELD POLICE DEPARTMENT,ENFIELD TRANSFER STATION,39 LOCKEHAVEN ROAD,ENFIELD,NH,03748,"http://maps.google.com/maps?q=39 LOCKEHAVEN ROAD,+ENFIELD,+NH+03748&hl=en"
EVERETT POLICE DEPARTMENT,EVERETT BOARD OF HEALTH,484 BROADWAYEVERETT CITY HALL,EVERETT,MA,02149,"http://maps.google.com/maps?q=484 BROADWAY,+EVERETT,+MA+02149&hl=en"
EVERETT POLICE DEPARTMENT,EVERETT POLICE DEPARTMENT,45 ELM ST,EVERETT,MA,02149,"http://maps.google.com/maps?q=45 ELM ST,+EVERETT,+MA+02149&hl=en"
FAIR HAVEN POLICE DEPARTMENT,FAIR HAVEN POLICE DEPARTMENT BONNIE ROSATI,5 NORTH PARK PLACE,FAIR HAVEN,VT,05743,"http://maps.google.com/maps?q=5 NORTH PARK PLACE,+FAIR HAVEN,+VT+05743&hl=en"
FAIRFIELD POLICE DEPARTMENT,FAIRFIELD POLICE DEPARTMENT,100 REEF ROAD,FAIRFIELD,CT,06824,"http://maps.google.com/maps?q=100 REEF ROAD,+FAIRFIELD,+CT+06824&hl=en"
FOSTER POLICE DEPARTMENT,FOSTER POLICE DEPARTMENT FRONT LOBBY,182 HOWARD HILL RD,FOSTER,RI,02825,"http://maps.google.com/maps?q=182 HOWARD HILL RD,+FOSTER,+RI+02825&hl=en"
FOXBOROUGH POLICE DEPARTMENT,FOXBOROUGH POLICE DEPARTMENT,8 CHESTNUT STREET,FOXBORO,MA,02035,"http://maps.google.com/maps?q=8 CHESTNUT STREET,+FOXBORO,+MA+02035&hl=en"
FRAMINGHAM HEALTH DEPARTMENT,CITY OF FRAMINGHAM POLICE DEPARTMENT KITTY MAHONEY,1 WILLIAM H. WELCH WAYFRAMINGHAM,FRAMINGHAM,MA,01702,"http://maps.google.com/maps?q=1 WILLIAM H. WELCH WAY,+FRAMINGHAM,+MA+01702&hl=en"
GARDNER POLICE DEPARTMENT,PRICE CHOPPER GROCERY/PHARMACY,560 MAIN ST,GARDNER,MA,01440,"http://maps.google.com/maps?q=560 MAIN ST,+GARDNER,+MA+01440&hl=en"
GEORGETOWN POLICE DEPARTMENT,GEORGETOWN POLICE DEPARTMENT,47 CENTRAL ST,GEORGETOWN,MA,01833,"http://maps.google.com/maps?q=47 CENTRAL ST,+GEORGETOWN,+MA+01833&hl=en"
GLASTONBURY POLICE DEPARTMENT,PARKS AND REC DEPARTMENT,2143 MAIN ST.,GLASTONBURY,CT,06033,"http://maps.google.com/maps?q=2143 MAIN ST.,+GLASTONBURY,+CT+06033&hl=en"
GLOCESTER POLICE DEPARTMENT,GLOCESTER POLICE DEPARTMENT,162 CHOPMIST HILL ROAD,CHEPACHET,RI,02814,"http://maps.google.com/maps?q=162 CHOPMIST HILL ROAD,+CHEPACHET,+RI+02814&hl=en"
GOFFSTOWN POLICE DEPARTMENT,GOFFSTOWN POLICE DEPARTMENT,326 MAST ROAD,GOFFSTOWN,NH,03045,"http://maps.google.com/maps?q=326 MAST ROAD,+GOFFSTOWN,+NH+03045&hl=en"
GOSHEN POLICE DEPARTMENT,GOSHEN POLICE DEPARTMENT,40A MAIN ST,GOSHEN,MA,01032,"http://maps.google.com/maps?q=40A MAIN ST,+GOSHEN,+MA+01032&hl=en"
GRAFTON POLICE DEPARTMENT,GRAFTON POLICE DEPARTMENT CHIEF NORMAND CREPEAU,28 PROVIDENCE ROAD,GRAFTON,MA,01519,"http://maps.google.com/maps?q=28 PROVIDENCE ROAD,+GRAFTON,+MA+01519&hl=en"
GRANTHAM POLICE DEPARTMENT,GRANTHAM POLICE DEPARTMENT,300 ROUTE 10 SOUTH,GRANTHAM,NH,03753,"http://maps.google.com/maps?q=300 ROUTE 10 SOUTH,+GRANTHAM,+NH+03753&hl=en"
GREENFIELD POLICE DEPARTMENT,GREENFIELD POLICE DEPARTMENT,321 HIGH STREET,GREENFIELD,MA,01301,"http://maps.google.com/maps?q=321 HIGH STREET,+GREENFIELD,+MA+01301&hl=en"
GREENWICH POLICE DEPARTMERNT,PUBLIC SAFETY COMPLEX,11 BRUCE PLACE,GREENWICH,CT,06830,"http://maps.google.com/maps?q=11 BRUCE PLACE,+GREENWICH,+CT+06830&hl=en"
GROTON POLICE DEPARTMENT,GROTON POLICE DEPARTMENT,99 PLEASANT STREET,GROTON,MA,01450,"http://maps.google.com/maps?q=99 PLEASANT STREET,+GROTON,+MA+01450&hl=en"
GROVELAND POLICE DEPARTMENT,GROVELAND POLICE DEPARTMENT SGT. ERIC C. RYAN,181 MAIN STREETSTATION LOBBY,GROVELAND,MA,01834,"http://maps.google.com/maps?q=181 MAIN STREET,+GROVELAND,+MA+01834&hl=en"
GUILDERLAND POLICE DEPARTMENT,PUBLIC LIBRARY AUXILIARY PARKING LOT,2228 WESTERN AVENUE,GUILDERLAND,NY,12084,"http://maps.google.com/maps?q=2228 WESTERN AVENUE,+GUILDERLAND,+NY+12084&hl=en"
HADDAM RESIDENT STATE TROOPERS OFFICE- CSP TROOP F,HIGGANUM PHARMACY IN FRONT PARKING LOT AREA,23 KILLINGWORTH RD,HIGGANUM,CT,06441,"http://maps.google.com/maps?q=23 KILLINGWORTH RD,+HIGGANUM,+CT+06441&hl=en"
HADLEY POLICE DEPARTMENT,HOPKINS ACADEMY HIGH SCHOOL,131 RUSSELL STREET,HADLEY,MA,01035,"http://maps.google.com/maps?q=131 RUSSELL STREET,+HADLEY,+MA+01035&hl=en"
HAMDEN POLICE DEPARTMENT,HAMDEN POLICE DEPARTMENT,2900 DIXWELL AVE.,HAMDEN,CT,06518,"http://maps.google.com/maps?q=2900 DIXWELL AVE.,+HAMDEN,+CT+06518&hl=en"
HAMPSTEAD POLICE DEPARTMENT,HAMPSTEAD POLICE DEPARTMENT,30 VETERANS WAY,HAMPSTEAD,NH,03841,"http://maps.google.com/maps?q=30 VETERANS WAY,+HAMPSTEAD,+NH+03841&hl=en"
HANSON POLICE DEPARTMENT,HANSON POLICE DEPARTMENT HQ,775 MAIN ST.,HANSON,MA,02341,"http://maps.google.com/maps?q=775 MAIN ST.,+HANSON,+MA+02341&hl=en"
HARTFORD POLICE DEPARTMENT,HARTFORD POLICE DEPARTMENT,253 HIGH STREET,HARTFORD,CT,06103,"http://maps.google.com/maps?q=253 HIGH STREET,+HARTFORD,+CT+06103&hl=en"
HARVARD POLICE,HARVARD PUBLIC SAFETY BUILDING HARVARD POLICE,40 AYER ROAD,HARVARD,MA,01451,"http://maps.google.com/maps?q=40 AYER ROAD,+HARVARD,+MA+01451&hl=en"
HARWINTON RESIDENT TROOPER OFFICE,HARWINTON RESIDENT TROOPERS OFFICE,100 BENTLEY DRIVE,HARWINTON,CT,06791,"http://maps.google.com/maps?q=100 BENTLEY DRIVE,+HARWINTON,+CT+06791&hl=en"
HEBRON RESIDENT TROOPER'S OFFICE - CSP TROOP K,RHAM HIGH SCHOOL,85 WALL ST.,HEBRON,CT,06248,"http://maps.google.com/maps?q=85 WALL ST.,+HEBRON,+CT+06248&hl=en"
HENNIKER POLICE DEPARTMENT,HENNIKER POLICE DEPARTMENT,340 WESTERN AVE,HENNIKER,NH,03242,"http://maps.google.com/maps?q=340 WESTERN AVE,+HENNIKER,+NH+03242&hl=en"
HOLBROOK POLICE DEPARTMENT,HOLBROOK POLICE DEPARTMENT,300 SOUTH FRANKLIN ST,HOLBROOK,MA,02343,"http://maps.google.com/maps?q=300 SOUTH FRANKLIN ST,+HOLBROOK,+MA+02343&hl=en"
HOLLAND POLICE DEPARTMENT,HOLLAND POLICE DEPARTMENT COMMUNITY ROOM 1ST FLR.,27 STURBRIDGE RD.,HOLLAND,MA,01521,"http://maps.google.com/maps?q=27 STURBRIDGE RD.,+HOLLAND,+MA+01521&hl=en"
HOLLIS POLICE DEPARTMENT,HOLLIS POLICE DEPARTMENT,9 SILVER LAKE ROAD,HOLLIS,NH,03049,"http://maps.google.com/maps?q=9 SILVER LAKE ROAD,+HOLLIS,+NH+03049&hl=en"
HOLLISTON POLICE DEPARTMENT,HOLLISTON POLICE DEPARTMENT LT. CHAD THOMPSON,550 WASHINGTON STREET,HOLLISTON,MA,01746,"http://maps.google.com/maps?q=550 WASHINGTON STREET,+HOLLISTON,+MA+01746&hl=en"
HOLYOKE POLICE DEPARTMENT,HOLYOKE PD NARCOTICS/VICE DIVISION,138 APPLETON ST,HOLYOKE,MA,01040,"http://maps.google.com/maps?q=138 APPLETON ST,+HOLYOKE,+MA+01040&hl=en"
HOOKSETT POLICE DEPARTMENT,HOOKSETT POLICE DEPARTMENT LT. JUSTIN SARGENT,15 LEGENDS DRIVE,HOOKSETT,NH,03106,"http://maps.google.com/maps?q=15 LEGENDS DRIVE,+HOOKSETT,+NH+03106&hl=en"
HOOSICK FALLS POLICE DEPARTMENT,HOOSICK FALLS PD STATION,24 MAIN STREET,HOOSICK FALLS,NY,12090,"http://maps.google.com/maps?q=24 MAIN STREET,+HOOSICK FALLS,+NY+12090&hl=en"
HOPKINTON POLICE DEPARTMENT,HOPKINTON POLICE DEPARTMENT,1696 HOPKINTON ROAD,HOPKINTON,NH,03229,"http://maps.google.com/maps?q=1696 HOPKINTON ROAD,+HOPKINTON,+NH+03229&hl=en"
HOPKINTON POLICE DEPARTMENT,HOPKINTON POLICE DEPARTMENT,406 WOODVILLE ROAD,HOPKINTON,RI,02833,"http://maps.google.com/maps?q=406 WOODVILLE ROAD,+HOPKINTON,+RI+02833&hl=en"
HOPKINTON POLICE DEPARTMENT,HOPKINTON POLICE DEPARTMENT JOSEPH BENNETT,74 MAIN STREET,HOPKINTON,MA,01748,"http://maps.google.com/maps?q=74 MAIN STREET,+HOPKINTON,+MA+01748&hl=en"
HUDSON POLICE DEPARTMENT,WALMART,254 LOWELL ROAD,HUDSON,NH,03051,"http://maps.google.com/maps?q=254 LOWELL ROAD,+HUDSON,+NH+03051&hl=en"
JAFFREY POLICE DEPARTMENT,JAFFREY POLICE DEPARTMENT WILLIAM OSWALT,26 MAIN STREET,JAFFREY,NH,03452,"http://maps.google.com/maps?q=26 MAIN STREET,+JAFFREY,+NH+03452&hl=en"
JAMESTOWN POLICE DEPARTMENT,JAMESTOWN POLICE DEPARTMENT,250 CONANICUS AVE,JAMESTOWN,RI,02835,"http://maps.google.com/maps?q=250 CONANICUS AVE,+JAMESTOWN,+RI+02835&hl=en"
KEENE POLICE DEPARTMENT,KEENE POLICE DEPARTMENT,400 MARLBORO STREET,KEENE,NH,03431,"http://maps.google.com/maps?q=400 MARLBORO STREET,+KEENE,+NH+03431&hl=en"
LEBANON POLICE DEPARTMENT,LEBANON PD,36 POVERTY LN,LEBANON,NH,03766,"http://maps.google.com/maps?q=36 POVERTY LN,+LEBANON,+NH+03766&hl=en"
LEBANON POLICE DEPARTMENT,QUAIL HOLLOW,365 N MAIN ST,WEST LEBANON,NH,03784,"http://maps.google.com/maps?q=365 N MAIN ST,+WEST LEBANON,+NH+03784&hl=en"
LEBANON POLICE DEPARTMENT,ROGERS HOUSE,55 N PARK ST,LEBANON,NH,03766,"http://maps.google.com/maps?q=55 N PARK ST,+LEBANON,+NH+03766&hl=en"
LEICESTER POLICE DEPARTMENT,LEICESTER POLICE DEPARTMENT JAMES HURLEY,90 SOUTH MAIN STREET,LEICESTER,MA,01524,"http://maps.google.com/maps?q=90 SOUTH MAIN STREET,+LEICESTER,+MA+01524&hl=en"
LEICESTER POLICE DEPARTMENT,LEICESTER RECYCLING CENTER JAMES HURLEY,200 MANNVILLE STREET,LEICESTER,MA,01524,"http://maps.google.com/maps?q=200 MANNVILLE STREET,+LEICESTER,+MA+01524&hl=en"
LEOMINSTER POLICE DEPARTMENT,LEOMINSTER POLICE DEPARTMENT,29 CHURCH STREET,LEOMINSTER,MA,01453,"http://maps.google.com/maps?q=29 CHURCH STREET,+LEOMINSTER,+MA+01453&hl=en"
LEVERETT POLICE DEPARTMENT,LEVERETT POLICE DEPARTMENT CHIEF SCOTT D. MINCKLER,95 MONTAGUE ROAD,LEVERETT,MA,01054,"http://maps.google.com/maps?q=95 MONTAGUE ROAD,+LEVERETT,+MA+01054&hl=en"
LINCOLN POLICE DEPARTMENT,LINCOLN POLICE DEPARTMENT,100 OLD RIVER ROAD,LINCOLN,RI,02865,"http://maps.google.com/maps?q=100 OLD RIVER ROAD,+LINCOLN,+RI+02865&hl=en"
LITTLETON POLICE DEPARTMENT,LITTLETON POLICE DEPARTMENT,500 GREAT RD,LITTLETON,MA,01460,"http://maps.google.com/maps?q=500 GREAT RD,+LITTLETON,+MA+01460&hl=en"
LONDONDERRY POLICE DEPARTMENT,LONDONDERRY POLICE DEPARTMENT,268A MAMMOTH ROAD,LONDONDERRY,NH,03053,"http://maps.google.com/maps?q=268A MAMMOTH ROAD,+LONDONDERRY,+NH+03053&hl=en"
LONGMEADOW POLICE DEPARTMENT,LONGMEADOW POLICE DEPARTMENT,34 WILLIAMS STREET,LONGMEADOW,MA,01106,"http://maps.google.com/maps?q=34 WILLIAMS STREET,+LONGMEADOW,+MA+01106&hl=en"
LOWELL POLICE DEPARTMENT,"LOWELL GENERAL HOSPITAL, SAINTS CAMPUS",2 HOSPITAL DRIVE,LOWELL,MA,01852,"http://maps.google.com/maps?q=2 HOSPITAL DRIVE,+LOWELL,+MA+01852&hl=en"
LUDLOW POLICE DEPARTMENT,LUDLOW POLICE DEPARTMENT,612 CHAPIN ST,LUDLOW,MA,01056,"http://maps.google.com/maps?q=612 CHAPIN ST,+LUDLOW,+MA+01056&hl=en"
LUNENBURG POLICE DEPARTMENT,LUNENBURG POLICE DEPARTMENT LT. THOMAS L GAMMEL,655 MASS. AVE.,LUNENBURG,MA,01462,"http://maps.google.com/maps?q=655 MASS. AVE.,+LUNENBURG,+MA+01462&hl=en"
LYNN POLICE DEPARTMENT,CVS PHARMACY,65 BOSTON STREET,LYNN,MA,01904,"http://maps.google.com/maps?q=65 BOSTON STREET,+LYNN,+MA+01904&hl=en"
LYNNFIELD POLICE DEPARTMENT,LYNNFIELD POLICE DEPARTMENT,55 SUMMER STREET,LYNNFIELD,MA,01940,"http://maps.google.com/maps?q=55 SUMMER STREET,+LYNNFIELD,+MA+01940&hl=en"
MADISON POLICE DEPARTMENT,MADISON POLICE DEPARTMENT,9 CAMPUS DRIVE,MADISON,CT,06443,"http://maps.google.com/maps?q=9 CAMPUS DRIVE,+MADISON,+CT+06443&hl=en"
MALDEN POLICE,MALDEN POLICE DEPARTMENT,800 EASTERN AVE,MALDEN,MA,02148,"http://maps.google.com/maps?q=800 EASTERN AVE,+MALDEN,+MA+02148&hl=en"
MANCHESTER POLICE DEPARTMENT,CATHOLIC MEDICAL CENTER 195 MCGREGOR ST. PARKING LOT ACROSS FROM MAIN HOSPITAL.,100 MCGREGOR STREET,MANCHESTER,NH,03102,"http://maps.google.com/maps?q=100 MCGREGOR STREET,+MANCHESTER,+NH+03102&hl=en"
MANCHESTER POLICE DEPARTMENT,ELLIOT AT RIVER'S EDGE PHARMACY PARKING LOT,185 QUEEN CITY AVENUE,MANCHESTER,NH,03103,"http://maps.google.com/maps?q=185 QUEEN CITY AVENUE,+MANCHESTER,+NH+03103&hl=en"
MANCHESTER POLICE DEPARTMENT,MANCHESTER POLICE DEPARTMENT,405 VALLEY STREET,MANCHESTER,NH,03103,"http://maps.google.com/maps?q=405 VALLEY STREET,+MANCHESTER,+NH+03103&hl=en"
MANSFIELD POLICE DEPARTMENT,MANSFIELD POLICE DEPARTMENT DET. NICOLE BOLDRIGHINI,50 WEST STREET,MANSFIELD,MA,02048,"http://maps.google.com/maps?q=50 WEST STREET,+MANSFIELD,+MA+02048&hl=en"
MARLBOROUGH POLICE DEPARTMENT,MARLBOROUGH POLICE DEPARTMENT,355 BOLTON STREET,MARLBOROUGH,MA,01752,"http://maps.google.com/maps?q=355 BOLTON STREET,+MARLBOROUGH,+MA+01752&hl=en"
MASON POLICE DEPARTMENT,MASON POLICE DEPARTMENT,38 DARLING HILL ROAD,MASON,NH,03048,"http://maps.google.com/maps?q=38 DARLING HILL ROAD,+MASON,+NH+03048&hl=en"
MATHER HOSPITAL/NORTHWELL HEALTH,MATHER HOSPITAL/NORTHWELL HEALTH,75 NORTH COUNTRY ROAD,PORT JEFFERSON,NY,11777,"http://maps.google.com/maps?q=75 NORTH COUNTRY ROAD,+PORT JEFFERSON,+NY+11777&hl=en"
MBTA TRANSIT POLICE,MBTA TRANSIT POLICE DEPARTMENT,240 SOUTHAMPTON STREET,BOSTON,MA,02118,"http://maps.google.com/maps?q=240 SOUTHAMPTON STREET,+BOSTON,+MA+02118&hl=en"
MECHANICVILLE POLICE DEPARTMENT,CVS PHARMACY PARKING LOT,12 SOUTH CENTRAL AVENUE,MECHANICVILLE,NY,12118,"http://maps.google.com/maps?q=12 SOUTH CENTRAL AVENUE,+MECHANICVILLE,+NY+12118&hl=en"
MEDFIELD POLICE DEPARTMENT,MEDFIELD POLICE DEPARTMENT FRONT LOBBY,112 NORTH STREET,MEDFIELD,MA,02052,"http://maps.google.com/maps?q=112 NORTH STREET,+MEDFIELD,+MA+02052&hl=en"
MELROSE POLICE DEPARTMENT,WALGREENS PHARMACY RYAN HANLEY 781-665-1329,897 MAIN ST,MELROSE,MA,02176,"http://maps.google.com/maps?q=897 MAIN ST,+MELROSE,+MA+02176&hl=en"
MERIDEN POLICE DEPARTMENT,MERIDEN POLICE DEPARTMENT FRONT LOBBY,50 WEST MAIN ST.,MERIDEN,CT,06451,"http://maps.google.com/maps?q=50 WEST MAIN ST.,+MERIDEN,+CT+06451&hl=en"
MERRIMACK POLICE DEPARTMENT,MERRIMACK POLICE DEPARTMENT FRONT PARKING LOT / DEPARTMENT ENTRANCE,31 BABOOSIC LAKE ROAD,MERRIMACK,NH,03054,"http://maps.google.com/maps?q=31 BABOOSIC LAKE ROAD,+MERRIMACK,+NH+03054&hl=en"
METHUEN POLICE DEPARTMENT,METHUEN POLICE DEPARTMENT LIEUTENANT JAMES GUNTER,90 HAMPSHIRE STREET,METHUEN,MA,01844,"http://maps.google.com/maps?q=90 HAMPSHIRE STREET,+METHUEN,+MA+01844&hl=en"
MIDDLEFIELD RESIDENT TROOPER,MIDDLEFIELD RESIDENT TROOPERS OFFICE,405 MAIN ST,MIDDLEFIELD,CT,06455,"http://maps.google.com/maps?q=405 MAIN ST,+MIDDLEFIELD,+CT+06455&hl=en"
MIDDLETOWN POLICE CT,MIDDLETOWN PD,222 MAIN STREET,MIDDLETOWN,CT,06457,"http://maps.google.com/maps?q=222 MAIN STREET,+MIDDLETOWN,+CT+06457&hl=en"
MILFORD POLICE,MILFORD SENIOR CENTER,60 NORTH BOW STREET,MILFORD,MA,01757,"http://maps.google.com/maps?q=60 NORTH BOW STREET,+MILFORD,+MA+01757&hl=en"
MILFORD POLICE DEPARTMENT,MILFORD PD,19 GARDEN STREET,MILFORD,NH,03055,"http://maps.google.com/maps?q=19 GARDEN STREET,+MILFORD,+NH+03055&hl=en"
MILTON POLICE DEPARTMENT,MILTON POLICE DEPARTMENT LT. CHARLES CAPUTO,40 HIGHLAND STREET,MILTON,MA,02186,"http://maps.google.com/maps?q=40 HIGHLAND STREET,+MILTON,+MA+02186&hl=en"
MONROE POLICE DEPARTMENT,MONROE SENIOR CENTER,235 CUTLERS FARM ROAD,MONROE,CT,06468,"http://maps.google.com/maps?q=235 CUTLERS FARM ROAD,+MONROE,+CT+06468&hl=en"
MONTAGUE PD,MONTAGUE POLICE,180 TURNPIKE ROAD,TURNERS FALLS,MA,01376,"http://maps.google.com/maps?q=180 TURNPIKE ROAD,+TURNERS FALLS,+MA+01376&hl=en"
NARRAGASNETT POLICE DEPARTMENT,NARRAGANSETT POLICE DEPARTMENT SRO KEVIN O'CONNOR,40 CASWELL ST,NARRAGANSETT,RI,02882,"http://maps.google.com/maps?q=40 CASWELL ST,+NARRAGANSETT,+RI+02882&hl=en"
NASHUA POLICE DEPARTMENT,NASHUA DEPARTMENT OF PUBLIC WORKS,9 RIVERSIDE ST,NASHUA,NH,03062,"http://maps.google.com/maps?q=9 RIVERSIDE ST,+NASHUA,+NH+03062&hl=en"
NATICK POLICE DEPARTMENT,NATICK POLICE DEPARTMENT BRIAN GRASSEY,20 EAST CENTRAL ST,NATICK,MA,01760,"http://maps.google.com/maps?q=20 EAST CENTRAL ST,+NATICK,+MA+01760&hl=en"
NATICK POLICE DEPARTMENT,WEGMAN'S SUPERMARKET BRIAN GRASSEY,1245 WORCESTER ST,NATICK,MA,01760,"http://maps.google.com/maps?q=1245 WORCESTER ST,+NATICK,+MA+01760&hl=en"
NEEDHAM POLICE DEPARTMENT,NEEDHAM POLICE,99 SCHOOL ST,NEEDHAM,MA,02492,"http://maps.google.com/maps?q=99 SCHOOL ST,+NEEDHAM,+MA+02492&hl=en"
NEW BOSTON POLICE DEPARTMENT,NEW BOSTON POLICE DEPARTMENT,116 OLD COACH ROAD,NEW BOSTON,NH,03070,"http://maps.google.com/maps?q=116 OLD COACH ROAD,+NEW BOSTON,+NH+03070&hl=en"
NEW BRITAIN POLICE DEPARTMENT,NEW BRITAIN POLICE DEPARTMENT COMMUNITY ROOM - 1ST FLOOR,10 CHESTNUT STREET,NEW BRITAIN,CT,06051,"http://maps.google.com/maps?q=10 CHESTNUT STREET,+NEW BRITAIN,+CT+06051&hl=en"
NEW LONDON POLICE DEPARTMENT,NEW LONDON POLICE DEPARTMENT DETECTIVE ERNEST ROWE,25 SEAMANS ROAD375 MAIN STREET,NEW LONDON,NH,03257,"http://maps.google.com/maps?q=25 SEAMANS ROAD,+NEW LONDON,+NH+03257&hl=en"
NEW PALTZ POLICE DEPARTMENT,NEW PALTZ POLICE STATION DROP BOX IN LOBBY,83 SOUTH PUTT CORNERS ROAD,NEW PALTZ,NY,12561,"http://maps.google.com/maps?q=83 SOUTH PUTT CORNERS ROAD,+NEW PALTZ,+NY+12561&hl=en"
NEW YORK STATE POLICE,NEW YORK STATE POLICE CLIFTON PARK,5 MUNICIPAL PLAZASTATE ROUTE 146,CLIFTON PARK,NY,12065,"http://maps.google.com/maps?q=5 MUNICIPAL PLAZA,+CLIFTON PARK,+NY+12065&hl=en"
NEW YORK STATE POLICE,NEW YORK STATE POLICE SCHODACK,1485 STATE ROUTE 9,CASTLETON,NY,12033,"http://maps.google.com/maps?q=1485 STATE ROUTE 9,+CASTLETON,+NY+12033&hl=en"
NEWFAIRFEILD POLICE DEPARTMENT,NEW FAIRFIELD RESIDENT TROOPERS OFFICE,302 BALL POND ROAD,NEW FAIRFIELD,CT,06812,"http://maps.google.com/maps?q=302 BALL POND ROAD,+NEW FAIRFIELD,+CT+06812&hl=en"
NEWTON POLICE DEPARTMENT,NEWTON POLICE DEPARTMENT CAPT. DENNIS BERUBE,1321 WASHINGTON ST.,WEST NEWTON,MA,02465,"http://maps.google.com/maps?q=1321 WASHINGTON ST.,+WEST NEWTON,+MA+02465&hl=en"
NEWTON POLICE DEPARTMENT,WEGMAN'S,200 BOYLSTON STREET,CHESTNUT HILL,MA,02467,"http://maps.google.com/maps?q=200 BOYLSTON STREET,+CHESTNUT HILL,+MA+02467&hl=en"
NORTH ANDOVER POLICE DEPARTMENT,NORTH ANDOVER POLICE DEPARTMENT,1475 OSGOOD STREET,NORTH ANDOVER,MA,01845,"http://maps.google.com/maps?q=1475 OSGOOD STREET,+NORTH ANDOVER,+MA+01845&hl=en"
NORTH ATTLEBORO PD,NORTH ATTLEBORO PD,102 SOUTH WASHINGTON STREET,NORTH ATTLEBORO,MA,02760,"http://maps.google.com/maps?q=102 SOUTH WASHINGTON STREET,+NORTH ATTLEBORO,+MA+02760&hl=en"
NORTH CASTLE POLICE DEPARTMENT,NORTH CASTLE POLICE DEPARTMENT TOWN HALL,15 BEDFORD ROAD,ARMONK,NY,10504,"http://maps.google.com/maps?q=15 BEDFORD ROAD,+ARMONK,+NY+10504&hl=en"
NORTH GREENBUSH POLICE DEPARTMENT,NORTH GREENBUSH POLICE DEPARTMENT CHIEF ROBERT DURIVAGE,133 BLOOMING GROVE DRIVE,TROY,NY,12180,"http://maps.google.com/maps?q=133 BLOOMING GROVE DRIVE,+TROY,+NY+12180&hl=en"
NORTH HAVEN SUBSTANCE ABUSE ACTION COUNCIL,FIRE DEPARTMENT,11 BROADWAY,NORTH HAVEN,CT,06473,"http://maps.google.com/maps?q=11 BROADWAY,+NORTH HAVEN,+CT+06473&hl=en"
NORTH KINGSTOWN POLICE DEPARTMENT,NORTH KINGSTOWN POLICE DEPARTMENT HQ,8166 POST ROAD,NORTH KINGSTOWN,RI,02852,"http://maps.google.com/maps?q=8166 POST ROAD,+NORTH KINGSTOWN,+RI+02852&hl=en"
NORTH PROVIDENCE POLICE DEPARTMENT,NORTH PROVIDENCE POLICE DEPARTMENT LIEUTENANT MICHAEL TAVAROZZI,1967 MINERAL SPRING AVENUE,NORTH PROVIDENCE,RI,02904,"http://maps.google.com/maps?q=1967 MINERAL SPRING AVENUE,+NORTH PROVIDENCE,+RI+02904&hl=en"
NORTH SHORE HEALTH LIJ HUNTINGTON HOSPITAL,NORTH SHORE HEALTH LIJ HUNTINGTON LOBBY,270 PARK AVENUE,HUNTINGTON,NY,11743,"http://maps.google.com/maps?q=270 PARK AVENUE,+HUNTINGTON,+NY+11743&hl=en"
NORTHAMPTON POLICE DEPARTMENT,JOHN F KENNEDY MIDDLE SCHOOL,100 BRIDGE RD,FLORENCE,MA,01062,"http://maps.google.com/maps?q=100 BRIDGE RD,+FLORENCE,+MA+01062&hl=en"
NORTHBOROUGH POLICE DEPARTMENT,NORTHBOROUGH POLICE DEPARTMENT,211 MAIN STREET,NORTHBOROUGH,MA,01532,"http://maps.google.com/maps?q=211 MAIN STREET,+NORTHBOROUGH,+MA+01532&hl=en"
NORTHBOROUGH POLICE DEPARTMENT,WEGMAN'S,9102 SHOPS WAY,NORTHBOROUGH,MA,01532,"http://maps.google.com/maps?q=9102 SHOPS WAY,+NORTHBOROUGH,+MA+01532&hl=en"
NORTHBRIDGE POLICE DEPARTMENT,NORTHBRIDGE POLICE DEPARTMENT,1 HOPE STREET,WHITINSVILLE,MA,01588,"http://maps.google.com/maps?q=1 HOPE STREET,+WHITINSVILLE,+MA+01588&hl=en"
NORTHPORT VA POLICE DEPARTMENT,NORTHPORT VA POLICE DEPARTMENT,79 MIDDLEVILLE ROAD,NORTHPORT,NY,11768,"http://maps.google.com/maps?q=79 MIDDLEVILLE ROAD,+NORTHPORT,+NY+11768&hl=en"
NORTON POLICE DEPARTMENT,NORTON POLICE DEPARTMENT,82 EAST MAIN STREET,NORTON,MA,02766,"http://maps.google.com/maps?q=82 EAST MAIN STREET,+NORTON,+MA+02766&hl=en"
NORWICH POLICE DEPARTMENT,NORWICH PD,70 THAMES STREET,NORWICH,CT,06360,"http://maps.google.com/maps?q=70 THAMES STREET,+NORWICH,+CT+06360&hl=en"
NORWOOD POLICE,NORWOOD POLICE DEPARTMENT,137 NAHATAN STREET,NORWOOD,MA,02062,"http://maps.google.com/maps?q=137 NAHATAN STREET,+NORWOOD,+MA+02062&hl=en"
ORANGE POLICE DEPARTMENT,CVS,279 BOSTON POST ROAD,ORANGE,CT,06477,"http://maps.google.com/maps?q=279 BOSTON POST ROAD,+ORANGE,+CT+06477&hl=en"
OSSIPEE POLICE DEPARTMENT,TROY POLICE DEPARTMENT,14 CENTRAL SQUARE,TROY,NH,03465,"http://maps.google.com/maps?q=14 CENTRAL SQUARE,+TROY,+NH+03465&hl=en"
OXFORD RESIDENT STATE TROOPER,OXFORD RESIDENT TROOPER'S OFFICE,429 OXFORD ROAD,OXFORD,CT,06478,"http://maps.google.com/maps?q=429 OXFORD ROAD,+OXFORD,+CT+06478&hl=en"
PD GRANBY CT,GRANBY POLICE DEPARTMENT,15 NORTH GRANBY ROAD,GRANBY,CT,06035,"http://maps.google.com/maps?q=15 NORTH GRANBY ROAD,+GRANBY,+CT+06035&hl=en"
PEABODY POLICE DEPARTMENT,PEABODY POLICE DEPARTMENT,6 ALLEN'S LANE,PEABODY,MA,01960,"http://maps.google.com/maps?q=6 ALLEN'S LANE,+PEABODY,+MA+01960&hl=en"
PELHAM POLICE DEPARTMENT,PELHAM POLICE DEPARTMENT,2 SOUTH VALLEY RD,PELHAM,MA,01002,"http://maps.google.com/maps?q=2 SOUTH VALLEY RD,+PELHAM,+MA+01002&hl=en"
PELHAM POLICE DEPARTMENT,PELHAM POLICE DEPARTMENT MAIN LOBBY,14 VILLAGE GREEN,PELHAM,NH,03076,"http://maps.google.com/maps?q=14 VILLAGE GREEN,+PELHAM,+NH+03076&hl=en"
PEMBROKE POLICE DEPARTMENT,PEMBROKE POLICE,247 PEMBROKE STREET,PEMBROKE,NH,03275,"http://maps.google.com/maps?q=247 PEMBROKE STREET,+PEMBROKE,+NH+03275&hl=en"
PEPPERELL POLICE DEPARTMENT,PEPPERELL POLICE DEPARTMENT LOBBY KIOSK,59 MAIN STREET,PEPPERELL,MA,01463,"http://maps.google.com/maps?q=59 MAIN STREET,+PEPPERELL,+MA+01463&hl=en"
PETERBOROUGH POLICE DEPARTMENT,PETERBOROUGH POLICE DEPARTMENT,73 GROVE ST,PETERBOROUGH,NH,03458,"http://maps.google.com/maps?q=73 GROVE ST,+PETERBOROUGH,+NH+03458&hl=en"
PITTSFIELD POLICE DEPARTMENT,PITTSFIELD POLICE DEPARTMENT LT. JOHN SOULES,39 ALLEN STREET,PITTSFIELD,MA,01201,"http://maps.google.com/maps?q=39 ALLEN STREET,+PITTSFIELD,+MA+01201&hl=en"
PLAINFIELD POLICE DEPARTMENT,PLAINFIELD POLICE DEPARTMENT,110 MAIN ST,MERIDEN,NH,03770,"http://maps.google.com/maps?q=110 MAIN ST,+MERIDEN,+NH+03770&hl=en"
PLAINVILLE POLICE DEPARTMENT,PLAINVILLE POLICE DEPARTMENT JAMES FLOYD,157 SOUTH STREET,PLAINVILLE,MA,02762,"http://maps.google.com/maps?q=157 SOUTH STREET,+PLAINVILLE,+MA+02762&hl=en"
PLAISTOW POLICE DEPARTMENT,RITE AID PHARMACY,31 GARDEN ROAD,PLAISTOW,NH,03865,"http://maps.google.com/maps?q=31 GARDEN ROAD,+PLAISTOW,+NH+03865&hl=en"
PUTNAM COUNTY SHERIFF'S OFFICE,PUTNAM HOSPITAL CENTER,670 STONLEIGH AVE,CARMEL,NY,10512,"http://maps.google.com/maps?q=670 STONLEIGH AVE,+CARMEL,+NY+10512&hl=en"
PUTNAM POLICE DEPARTMENT,PUTNAM RIVERVIEW MARKETPLACE KENNEDY DR. PUTNAM,18 KENNEDY DRIVE,PUTNAM,CT,06260,"http://maps.google.com/maps?q=18 KENNEDY DRIVE,+PUTNAM,+CT+06260&hl=en"
QUINCY POLICE DEPARTMENT,QUINCY POLICE DEPARTMENT LT. PATRICK GLYNN,1 SEA STREET,QUINCY,MA,02169,"http://maps.google.com/maps?q=1 SEA STREET,+QUINCY,+MA+02169&hl=en"
RANDOLPH POLICE DEPARTMENT,RANDOLPH POLICE DEPARTMENT LT. JEFF CHAPLIN,41 SOUTH MAIN ST,RANDOLPH,MA,02368,"http://maps.google.com/maps?q=41 SOUTH MAIN ST,+RANDOLPH,+MA+02368&hl=en"
RAYNHAM POLICE DEPARTMENT,RAYNHAM POLICE DEPT,53 ORCHARD ST.,RAYNHAM,MA,02767,"http://maps.google.com/maps?q=53 ORCHARD ST.,+RAYNHAM,+MA+02767&hl=en"
RENSSELAER CITY POLICE DEPARTMENT,NORTH END FIRE STATION,2 ST. FRANCIS PLACE,RENSSELAER,NY,12144,"http://maps.google.com/maps?q=2 ST. FRANCIS PLACE,+RENSSELAER,+NY+12144&hl=en"
RENSSELAER COUNTY SHERIFF'S OFFICE,WEST SAND LAKE FIRE DEPARTMENT,3697 NY-43,WEST SAND LAKE,NY,12196,"http://maps.google.com/maps?q=3697 NY-43,+WEST SAND LAKE,+NY+12196&hl=en"
RHODE ISLAND STATE POLICE,RHODE ISLAND STATE POLICE,1565 OLD LOUISQUISSETE PIKE,LINCOLN,RI,02865,"http://maps.google.com/maps?q=1565 OLD LOUISQUISSETE PIKE,+LINCOLN,+RI+02865&hl=en"
RHODE ISLAND STATE POLICE,RHODE ISLAND STATE POLICE,311 DANIELSON PIKE,NORTH SCITUATE,RI,02857,"http://maps.google.com/maps?q=311 DANIELSON PIKE,+NORTH SCITUATE,+RI+02857&hl=en"
RHODE ISLAND STATE POLICE,RHODE ISLAND STATE POLICE,7875 POST ROAD,NORTH KINGSTOWN,RI,02852,"http://maps.google.com/maps?q=7875 POST ROAD,+NORTH KINGSTOWN,+RI+02852&hl=en"
RICHMOND POLICE DEPARTMENT,RICHMOND POLICE DEPARTMENT,1168 MAIN ST,WYOMING,RI,02898,"http://maps.google.com/maps?q=1168 MAIN ST,+WYOMING,+RI+02898&hl=en"
RIDGEFIELD POLICE DEPARTMENT,RITE-AID,125 DANBURY RD,RIDGEFIELD,CT,06877,"http://maps.google.com/maps?q=125 DANBURY RD,+RIDGEFIELD,+CT+06877&hl=en"
RINDGE POLICE DEPARTMENT,RINDGE POLICE DEPARTMENT DANIEL ANAIR,158 MAIN STPO BOX 7,RINDGE,NH,03461,"http://maps.google.com/maps?q=158 MAIN ST,+RINDGE,+NH+03461&hl=en"
ROCKLAND POLICE DEPARTMENT,ROCKLAND POLICE DEPARTMENT,490 MARKET ST,ROCKLAND,MA,02370,"http://maps.google.com/maps?q=490 MARKET ST,+ROCKLAND,+MA+02370&hl=en"
ROCKY HILL POLICE DEPARTMENT,ROCKY HILL POLICE DEPARTMENT STEVE MORGAN,699 OLD MAIN STREET,ROCKY HILL,CT,06067,"http://maps.google.com/maps?q=699 OLD MAIN STREET,+ROCKY HILL,+CT+06067&hl=en"
ROTTERDAM POLICE DEPARTMENT,ROTTERDAM PD,101 PRINCETOWN ROAD,ROTTERDAM,NY,12306,"http://maps.google.com/maps?q=101 PRINCETOWN ROAD,+ROTTERDAM,+NY+12306&hl=en"
RUTLAND COUNTY SHERIFF'S DEPARTMENT,DIAMOND RUN MALL,46 DIAMOND RUN MALL PLACE,RUTLAND,VT,05701,"http://maps.google.com/maps?q=46 DIAMOND RUN MALL PLACE,+RUTLAND,+VT+05701&hl=en"
SALEM POLICE DEPARTMENT,SALEM POLICE DEPARTMENT,9 VETERAN'S MEMORIAL PARKWAY,SALEM,NH,03079,"http://maps.google.com/maps?q=9 VETERAN'S MEMORIAL PARKWAY,+SALEM,+NH+03079&hl=en"
SARATOGA COUNTY SHERIFF OFFICE,CLIFTON PARK-HALFMOON EMERGENCY SQUAD,15 CROSSING BLVD.,CLIFTON PARK,NY,12065,"http://maps.google.com/maps?q=15 CROSSING BLVD.,+CLIFTON PARK,+NY+12065&hl=en"
SARATOGA COUNTY SHERIFF OFFICE,MOREAU EMERGENCY SQUAD,1583 ROUTE 9,FORT EDWARD,NY,12828,"http://maps.google.com/maps?q=1583 ROUTE 9,+FORT EDWARD,+NY+12828&hl=en"
SARATOGA POLICE DEPARTMENT,SARATOGA HOSPITAL MYRTLE STREET PARKING LOT- ER ENTRANCE,211 CHURCH STREET,SARATOGA SPRINGS,NY,12866,"http://maps.google.com/maps?q=211 CHURCH STREET,+SARATOGA SPRINGS,+NY+12866&hl=en"
SARATOGA POLICE DEPARTMENT,SARATOGA POLICE DEPARTMENT MAPLE AVENUE- BEHIND CITY HALL,474 BROADWAY,SARATOGA SPRINGS,NY,12866,"http://maps.google.com/maps?q=474 BROADWAY,+SARATOGA SPRINGS,+NY+12866&hl=en"
SAUGUS POLICE DEPARTMENT,SAUGUS POLICE STATION ROUNDHILL ST SIDE OF BUILDING,27 HAMILTON ST,SAUGUS,MA,01906,"http://maps.google.com/maps?q=27 HAMILTON ST,+SAUGUS,+MA+01906&hl=en"
SCHENECTADY COUNTY SHERIFF'S OFFICE,SCHENECTADY COUNTY SHERIFF'S SUBSTATION,130 PRINCETOWN PLAZA,SCHENECTADY,NY,12306,"http://maps.google.com/maps?q=130 PRINCETOWN PLAZA,+SCHENECTADY,+NY+12306&hl=en"
SCHENECTADY POLICE DEPARTMENT,SCHENECTADY POLICE DEPARTMENT,531 LIBERTY ST.,SCHENECTADY,NY,12305,"http://maps.google.com/maps?q=531 LIBERTY ST.,+SCHENECTADY,+NY+12305&hl=en"
SCHODACK POLICE DEPARTMENT,POLICE DEPARTMENT,1797 COLUMBIA TURNPIKE,CASTLETON,NY,12033,"http://maps.google.com/maps?q=1797 COLUMBIA TURNPIKE,+CASTLETON,+NY+12033&hl=en"
SCOTIA POLICE DEPARTMENT,SCOTIA POLICE DEPARTMENT,4 NORTH TEN BROECK STREET,SCOTIA,NY,12302,"http://maps.google.com/maps?q=4 NORTH TEN BROECK STREET,+SCOTIA,+NY+12302&hl=en"
SETAUKET FIRE HOUSE,SETAUKET FIRE HOUSE DAVE STONE,394 NICOLLS ROAD,EAST SETAUKET,NY,11733,"http://maps.google.com/maps?q=394 NICOLLS ROAD,+EAST SETAUKET,+NY+11733&hl=en"
SHARON POLICE DEPARTMENT,SHARON PUBLIC SAFETY BUILDING SHARON POLICE DEPARTMENT MAIN ENTRANCE,213SOUTH MAIN STREET,SHARON,MA,02067,"http://maps.google.com/maps?q=213,+SHARON,+MA+02067&hl=en"
SHERMAN RESIDENT TROOPER OFFICE,SHERMAN RESIDENT TROOPERS OFFICE,1 RT 39 N,SHERMAN,CT,06784,"http://maps.google.com/maps?q=1 RT 39 N,+SHERMAN,+CT+06784&hl=en"
SMITHFIELD POLICE DEPARTMENT,SMITHFIELD POLICE DEPARTMENT,215 PLEASANT VIEW AVE,SMITHFIELD,RI,02917,"http://maps.google.com/maps?q=215 PLEASANT VIEW AVE,+SMITHFIELD,+RI+02917&hl=en"
SOMERSET POLICE DEPARTMENT,CVS PHARMACY,1587 BRAYTON POINT ROAD,SOMERSET,MA,02726,"http://maps.google.com/maps?q=1587 BRAYTON POINT ROAD,+SOMERSET,+MA+02726&hl=en"
SOMERVILLE POLICE DEPARTMENT,SOMERVILLE FIRE DEPARTMENT,6 NEWBURY ST,SOMERVILLE,MA,02144,"http://maps.google.com/maps?q=6 NEWBURY ST,+SOMERVILLE,+MA+02144&hl=en"
SOUTH WINDSOR POLICE DEPARTMENT,SOUTH WINDSOR POLICE DEPARTMENT,151 SAND HILL RD,SOUTH WINDSOR,CT,06074,"http://maps.google.com/maps?q=151 SAND HILL RD,+SOUTH WINDSOR,+CT+06074&hl=en"
SOUTHAMPTON POLICE DEPARTMENT,SOUTHAMPTON FIRE/TOWN HALL PARKING LOT IF RAIN-INSIDE TOWN HALL,210 COLLEGE HIGHWAY,SOUTHAMPTON,MA,01073,"http://maps.google.com/maps?q=210 COLLEGE HIGHWAY,+SOUTHAMPTON,+MA+01073&hl=en"
SOUTHBRIDGE POLICE DEPARTMENT,SOUTHBRIDGE POLICE DEPARTMENT,1 MECHANIC STREET,SOUTHBRIDGE,MA,01550,"http://maps.google.com/maps?q=1 MECHANIC STREET,+SOUTHBRIDGE,+MA+01550&hl=en"
SOUTHBURY POLICE,"SOUTHBURY POLICE DEPARTMENT SGT. BRIAN VAN NESS, #138",421 MAIN STREET SOUTH,SOUTHBURY,CT,06488,"http://maps.google.com/maps?q=421 MAIN STREET SOUTH,+SOUTHBURY,+CT+06488&hl=en"
SPENCER POLICE DEPARTMENT,CVS PHARMACY SGT MICHAEL BEFFORD,133 MAIN STREET,SPENCER,MA,01562,"http://maps.google.com/maps?q=133 MAIN STREET,+SPENCER,+MA+01562&hl=en"
SPRINGFIELD POLICE DEPARTMENT,CENTRAL HIGH SCHOOL,1840 ROOSEVELT AVE,SPRINGFIELD,MA,01109,"http://maps.google.com/maps?q=1840 ROOSEVELT AVE,+SPRINGFIELD,+MA+01109&hl=en"
STAMFORD POLICE DEPARTMENT,STAMFORD POLICE DEPARTMENT,805 BEDFORD STREET,STAMFORD,CT,06901,"http://maps.google.com/maps?q=805 BEDFORD STREET,+STAMFORD,+CT+06901&hl=en"
STATE POLICE TROOP L,TROOP L RESIDENT TROOPERS OFFICE,452 BANTAM RD,LITCHFIELD,CT,06759,"http://maps.google.com/maps?q=452 BANTAM RD,+LITCHFIELD,+CT+06759&hl=en"
STONEHAM POLICE DEPARTMENT,STONEHAM POLICE DEPARTMENT,47 CENTRAL STREET,STONEHAM,MA,02180,"http://maps.google.com/maps?q=47 CENTRAL STREET,+STONEHAM,+MA+02180&hl=en"
STONINGTON POLICE DEPARTMENT,STONINGTON POLICE DEPARTMENT,173 SOUTH BROAD STREET,PAWCATUCK,CT,06379,"http://maps.google.com/maps?q=173 SOUTH BROAD STREET,+PAWCATUCK,+CT+06379&hl=en"
SUDBURY POLICE DEPARTMENT,SUDBURY POLICE DEPARTMENT REAR PARKING AREA,75 HUDSON RD.,SUDBURY,MA,01776,"http://maps.google.com/maps?q=75 HUDSON RD.,+SUDBURY,+MA+01776&hl=en"
SULLIVAN COUNTY SHERIFF'S OFFICE,SULLIVAN COUNTY MUNICIPAL COMPLEX SHERIFF JOHN SIMONDS,14 MAIN STREET,NEWPORT,NH,03773,"http://maps.google.com/maps?q=14 MAIN STREET,+NEWPORT,+NH+03773&hl=en"
SUNAPEE POLICE DEPARTMENT,SUNAPEE POLICE DEPARTMENT,9 SARGENT ROAD,SUNAPEE,NH,03782,"http://maps.google.com/maps?q=9 SARGENT ROAD,+SUNAPEE,+NH+03782&hl=en"
SUNDERLAND POLICE DEPARTMENT,SUNDERLAND POLICE DEPARTMENT,105 RIVER ROAD,SUNDERLAND,MA,01375,"http://maps.google.com/maps?q=105 RIVER ROAD,+SUNDERLAND,+MA+01375&hl=en"
TAUNTON POLICE DEPT.,TAUNTON POLICE DEPT MAIN LOBBY,23 SUMMER STREET,TAUNTON,MA,02780,"http://maps.google.com/maps?q=23 SUMMER STREET,+TAUNTON,+MA+02780&hl=en"
TEWKSBURY POLICE DEPARTMENT,TEWKSBURY POLICE DEPARTMENT,918 MAIN STREET,TEWKSBURY,MA,01876,"http://maps.google.com/maps?q=918 MAIN STREET,+TEWKSBURY,+MA+01876&hl=en"
THOMASTON POLICE DEPARTMENT,THOMASTON POLICE DEPARTMENT,158 MAIN ST,THOMASTON,CT,06787,"http://maps.google.com/maps?q=158 MAIN ST,+THOMASTON,+CT+06787&hl=en"
TOPSFIELD POLICE DEPARTMENT,TOPSFIELD POLICE DEPARTMENT DET. SGT. GARY HAYWARD,210 BOSTON STREET,TOPSFIELD,MA,01983,"http://maps.google.com/maps?q=210 BOSTON STREET,+TOPSFIELD,+MA+01983&hl=en"
TOWN OF COLCHESTER POLICE DEPT.,COLCHESTER POLICE DEPARTMENT,127 NORWICH AVE.,COLCHESTER,CT,06415,"http://maps.google.com/maps?q=127 NORWICH AVE.,+COLCHESTER,+CT+06415&hl=en"
TOWN OF NISKAYUNA POLICE DEPARTMENT,NISKAYUNA TOWN HALL,1 NISKAYUNA CIRCLE,NISKAYUNA,NY,12309,"http://maps.google.com/maps?q=1 NISKAYUNA CIRCLE,+NISKAYUNA,+NY+12309&hl=en"
"TOWN OF SOUTH HADLEY, POLICE DEPARTMENT","TOWN OF SOUTH HADLEY, POLICE DEPARTMENT CHIEF STEVE PARENTELA",41 BRIDGE STREET,SOUTH HADLEY,MA,01075,"http://maps.google.com/maps?q=41 BRIDGE STREET,+SOUTH HADLEY,+MA+01075&hl=en"
TOWN OF WEST WARWICK POLICE DEPARTMENT,WEST WARWICK POLICE DEPARTMENT HEADQUARTERS,1162 MAIN STREET,WEST WARWICK,RI,02893,"http://maps.google.com/maps?q=1162 MAIN STREET,+WEST WARWICK,+RI+02893&hl=en"
TOWN OF WEST WARWICK POLICE DEPARTMENT,WEST WARWICK YOUTH CENTER,40 FACTORY STREET,WEST WARWICK,RI,02893,"http://maps.google.com/maps?q=40 FACTORY STREET,+WEST WARWICK,+RI+02893&hl=en"
TOWNSEND MA POLICE,TOWNSEND POLICE DEPARTMENT,70 BROOKLINE STREET,TOWNSEND,MA,01469,"http://maps.google.com/maps?q=70 BROOKLINE STREET,+TOWNSEND,+MA+01469&hl=en"
TROOP B,TROOP-B,463 ASHLEY FALLS RD,NORTH CANAAN,CT,06018,"http://maps.google.com/maps?q=463 ASHLEY FALLS RD,+NORTH CANAAN,+CT+06018&hl=en"
TROOP E,.TROOP E RESIDENT TROOPERS OFFICE,1111 COUNTRY CLUB RD,MIDDLETOWN,CT,06457,"http://maps.google.com/maps?q=1111 COUNTRY CLUB RD,+MIDDLETOWN,+CT+06457&hl=en"
TROOP E LISBON RESIDENT TROOPER,LISBON RESIDENT TROOPER'S OFFICE,7 NEWENT RD. LISBON,JEWETT CITY,CT,06351,"http://maps.google.com/maps?q=7 NEWENT RD. LISBON,+JEWETT CITY,+CT+06351&hl=en"
TROOP K,TROOP K RESIDENT TROOPERS OFFICE,15A OLD HARTFORD ROAD,COLCHESTER,CT,06415,"http://maps.google.com/maps?q=15A OLD HARTFORD ROAD,+COLCHESTER,+CT+06415&hl=en"
TROY POLICE DEPARTMENT,TROY POLICE DEPARTMENT,55 STATE STREET,TROY,NY,12180,"http://maps.google.com/maps?q=55 STATE STREET,+TROY,+NY+12180&hl=en"
TRUMBULL POLICE DEPARTMENT,MIDDLEBROOK SCHOOL,200 MIDDLEBROOKS AVE.,TRUMBULL,CT,06611,"http://maps.google.com/maps?q=200 MIDDLEBROOKS AVE.,+TRUMBULL,+CT+06611&hl=en"
TYNGSBOROUGH POLICE DEPARTMENT,TYNGSBOROUGH POLICE DEPARTMENT DEPUTY CHIEF SHAUN WOODS,20 WESTFORD ROAD,TYNGSBORO,MA,01879,"http://maps.google.com/maps?q=20 WESTFORD ROAD,+TYNGSBORO,+MA+01879&hl=en"
VERMONT STATE POLICE,VERMONT STATE POLICE - RUTLAND BARRACKS,124 STATE PLACE,RUTLAND,VT,05701,"http://maps.google.com/maps?q=124 STATE PLACE,+RUTLAND,+VT+05701&hl=en"
VERMONT STATE POLICE,VERMONT STATE POLICE - SHAFTSBURY BARRACKS,96 AIRPORT ROAD,SHAFTSBURY,VT,05262,"http://maps.google.com/maps?q=96 AIRPORT ROAD,+SHAFTSBURY,+VT+05262&hl=en"
VERMONT STATE POLICE,VERMONT STATE POLICE - WESTMINSTER BARRACKS,1330 WESTMINSTER HIGHTS ROAD,PUTNEY,VT,05346,"http://maps.google.com/maps?q=1330 WESTMINSTER HIGHTS ROAD,+PUTNEY,+VT+05346&hl=en"
VERNON POLICE DEPARTMENT,WALGREENS,188 UNION ST,VERNON ROCKVILLE,CT,06066,"http://maps.google.com/maps?q=188 UNION ST,+VERNON ROCKVILLE,+CT+06066&hl=en"
VILLAGE OF RHINEBECK POLICE,NORTHERN DUTCHESS HOSPITAL,6511 SPRINGBROOK AVE,RHINEBECK,NY,12572,"http://maps.google.com/maps?q=6511 SPRINGBROOK AVE,+RHINEBECK,+NY+12572&hl=en"
WAKEFIELD POLICE DEPARTMENT,WAKEFIELD POLICE DEPARTMENT PUBLIC SAFETY BUILDING LOBBY,1 UNION ST,WAKEFIELD,MA,01880,"http://maps.google.com/maps?q=1 UNION ST,+WAKEFIELD,+MA+01880&hl=en"
WALTHAM POLICE DEPARTMENT,WALTHAM POLICE DEPARTMENT REAR OF THE POLICE SATION PARKING LOT,155 LEXINGTON ST,WALTHAM,MA,02452,"http://maps.google.com/maps?q=155 LEXINGTON ST,+WALTHAM,+MA+02452&hl=en"
WARREN COUNTY SHERIFF'S OFFICE,WARREN COUNTY SHERIFF'S OFFICE,1400 STATE ROUTE 9,LAKE GEORGE,NY,12845,"http://maps.google.com/maps?q=1400 STATE ROUTE 9,+LAKE GEORGE,+NY+12845&hl=en"
WARWICK POLICE DEPARTMENT,WARWICK POLICE DEPARTMENT,99 VETERANS MEMORIAL DRIVE,WARWICK,RI,02886,"http://maps.google.com/maps?q=99 VETERANS MEMORIAL DRIVE,+WARWICK,+RI+02886&hl=en"
WASHINGTON POLICE DEPARTMENT,WASHINGTON POLICE DEPARTMENT,5 HALFMOON POND RD.,WASHINGTON,NH,03280,"http://maps.google.com/maps?q=5 HALFMOON POND RD.,+WASHINGTON,+NH+03280&hl=en"
WATERBURY POLICE DEPARTMENT,WATERBURY POLICE DEPARTMENT FRONT LOBBY SAFE DISPOSAL,255 EAST MAIN ST,WATERBURY,CT,06702,"http://maps.google.com/maps?q=255 EAST MAIN ST,+WATERBURY,+CT+06702&hl=en"
WATERTOWN POLICE DEPARTMENT,WATERTOWN POLICE DEPARTMENT JENNIFER CONNORS,552 MAIN STREET,WATERTOWN,MA,02472,"http://maps.google.com/maps?q=552 MAIN STREET,+WATERTOWN,+MA+02472&hl=en"
WATERVLIET POLICE DEPARTMENT,WATERVLIET POLICE DEPARTMENT,2-15TH STREET,WATERVLIET,NY,12189,"http://maps.google.com/maps?q=2-15TH STREET,+WATERVLIET,+NY+12189&hl=en"
WAYLAND P.D.,WAYLAND P.D.,38 COCHITUATE ROAD,WAYLAND,MA,01778,"http://maps.google.com/maps?q=38 COCHITUATE ROAD,+WAYLAND,+MA+01778&hl=en"
WEBSTER POLICE DEPARTMENT,WEBSTER POLICE DEPARTMENT,851 BATTLE STREET,WEBSTER,NH,03303,"http://maps.google.com/maps?q=851 BATTLE STREET,+WEBSTER,+NH+03303&hl=en"
WELLESLEY POLICE DEPARTMENT,WELLESLEY POLICE DEPARTMENT,485 WASHINGTON STREET,WELLESLEY,MA,02482,"http://maps.google.com/maps?q=485 WASHINGTON STREET,+WELLESLEY,+MA+02482&hl=en"
WEST HARTFORD POLICE DEPARTMENT,WETS HARTFORD PUBLIC WORKS LT SAM FERRUCCI,17 BRIXTON ST,WEST HARTFORD,CT,06107,"http://maps.google.com/maps?q=17 BRIXTON ST,+WEST HARTFORD,+CT+06107&hl=en"
WEST SPRINGFIELD POLICE DEPARTMENT,WEST SPRINGFIELD POLICE DEPARTMENT,26 CENTRAL STREET,WEST SPRINGFIELD,MA,01089,"http://maps.google.com/maps?q=26 CENTRAL STREET,+WEST SPRINGFIELD,+MA+01089&hl=en"
WESTCHESTER COUNTY POLICE,NORTHERN WESTCHESTER HOSPITAL MAIN LOBBY,400 MAIN ST.,MOUNT KISCO,NY,10549,"http://maps.google.com/maps?q=400 MAIN ST.,+MOUNT KISCO,+NY+10549&hl=en"
WESTMINSTER POLICE DEPARTMENT,WESTMINSTER POLICE DEPARTMENT,7 SOUTH STREET,WESTMINSTER,MA,01473,"http://maps.google.com/maps?q=7 SOUTH STREET,+WESTMINSTER,+MA+01473&hl=en"
WESTWOOD POLICE DEPARTMENT,WEGMAN'S,169 UNIVERSITY AVE.,WESTWOOD,MA,02090,"http://maps.google.com/maps?q=169 UNIVERSITY AVE.,+WESTWOOD,+MA+02090&hl=en"
WESTWOOD POLICE DEPARTMENT,WESTWOOD POLICE DEPARTMENT,588 HIGH STREET,WESTWOOD,MA,02090,"http://maps.google.com/maps?q=588 HIGH STREET,+WESTWOOD,+MA+02090&hl=en"
WETHERSFIELD POLICE DEPARTMENT,WETHERSFIELD POLICE DEPARTMENT,250 SILAS DEANE HWY.,WETHERSFIELD,CT,06109,"http://maps.google.com/maps?q=250 SILAS DEANE HWY.,+WETHERSFIELD,+CT+06109&hl=en"
WILLIAMSBURG POLICE DEPT.,WILLIAMSBURG PHARMACY,49 MAIN ST,WILLIAMSBURG,MA,01096,"http://maps.google.com/maps?q=49 MAIN ST,+WILLIAMSBURG,+MA+01096&hl=en"
WILLIMANTIC POLICE DEPARTMENT,JILSON SQUARE,533 MAIN ST,WILLIMANTIC,CT,06226,"http://maps.google.com/maps?q=533 MAIN ST,+WILLIMANTIC,+CT+06226&hl=en"
WILMINGTON POLICE,WILMINGTON POLICE LT. JOSEPH DESMOND,1 ADELAIDE ST,WILMINGTON,MA,01887,"http://maps.google.com/maps?q=1 ADELAIDE ST,+WILMINGTON,+MA+01887&hl=en"
WILTON POLICE DEPARTMENT,WILTON NH POLICE DEPARTMENT CHIEF ERIC L. OLESEN,"7 BURNS HILL ROAD, P.O. BOX 183",WILTON,NH,03086,"http://maps.google.com/maps?q=7 BURNS HILL ROAD, P.O. BOX 183,+WILTON,+NH+03086&hl=en"
WINCHESTER POLICE DEPARTMENT,WINCHESTER POLICE DEPARTMENT LT. MIKE T. TOLLETT,6 PARKER STREET,WINCHESTER,NH,03470,"http://maps.google.com/maps?q=6 PARKER STREET,+WINCHESTER,+NH+03470&hl=en"
WINCHESTER POLICE DEPARTMENT,WINCHESTER TRANSFER STATION OUTSIDE FRONT GATES,7 MCKAY AVE,WINCHESTER,MA,01890,"http://maps.google.com/maps?q=7 MCKAY AVE,+WINCHESTER,+MA+01890&hl=en"
WINDHAM COUNTY SHERIFF'S OFFICE,BELLOWS FALLS POLICE DEPARTMENT,170 ROCKINGHAM STRREET,BELLOWS FALLS,VT,05101,"http://maps.google.com/maps?q=170 ROCKINGHAM STRREET,+BELLOWS FALLS,+VT+05101&hl=en"
WINDHAM COUNTY SHERIFF'S OFFICE,BRATTLEBORO POLICE DEPARTMENT,62 BLACK MOUNTAIN ROAD,BRATTLEBORO,VT,05301,"http://maps.google.com/maps?q=62 BLACK MOUNTAIN ROAD,+BRATTLEBORO,+VT+05301&hl=en"
WINDHAM COUNTY SHERIFF'S OFFICE,WILMINGTON POLICE DEPARTMENT,2 EAST MAIN STREET,WILMINGTON,VT,05363,"http://maps.google.com/maps?q=2 EAST MAIN STREET,+WILMINGTON,+VT+05363&hl=en"
WINDHAM COUNTY SHERIFF'S OFFICE,WINDHAM COUNTY SHERIFF'S OFFICE,11 JAIL STREET,NEWFANE,VT,05345,"http://maps.google.com/maps?q=11 JAIL STREET,+NEWFANE,+VT+05345&hl=en"
WINDHAM POLICE DEPARTMENT,WINDHAM POLICE DEPARTMENT CHRISTOPHER VAN HIRTUM,4 FELLOWS ROAD,WINDHAM,NH,03087,"http://maps.google.com/maps?q=4 FELLOWS ROAD,+WINDHAM,+NH+03087&hl=en"
WINDSOR COUNTY SHERIFF'S DEPARTMENT,CHESTER POLICE DEPARTMENT,556 ELM STREET,CHESTER,VT,05143,"http://maps.google.com/maps?q=556 ELM STREET,+CHESTER,+VT+05143&hl=en"
WINDSOR COUNTY SHERIFF'S DEPARTMENT,HARTFORD POLICE DEPARTMENT,812 VA CUTOFF ROAD,WHITE RIVER JUNCTION,VT,05001,"http://maps.google.com/maps?q=812 VA CUTOFF ROAD,+WHITE RIVER JUNCTION,+VT+05001&hl=en"
WINDSOR COUNTY SHERIFF'S DEPARTMENT,LUDLOW POLICE DEPARTMENT,19 WEST HILL ROAD,LUDLOW,VT,05149,"http://maps.google.com/maps?q=19 WEST HILL ROAD,+LUDLOW,+VT+05149&hl=en"
WINDSOR COUNTY SHERIFF'S DEPARTMENT,ROYALTON POLICE DEPARTMENT,2460 VT RT 14,SOUTH ROYALTON,VT,05068,"http://maps.google.com/maps?q=2460 VT RT 14,+SOUTH ROYALTON,+VT+05068&hl=en"
WINDSOR COUNTY SHERIFF'S DEPARTMENT,SPRINGFIELD POLICE DEPARTMENT,201 CLINTON STREET,SPRINGFIELD,VT,05156,"http://maps.google.com/maps?q=201 CLINTON STREET,+SPRINGFIELD,+VT+05156&hl=en"
WINDSOR COUNTY SHERIFF'S DEPARTMENT,VERMONT STATE POLICE - ROYALTON BARRACKS,2011 VT RT 107,SOUTH ROYALTON,VT,05068,"http://maps.google.com/maps?q=2011 VT RT 107,+SOUTH ROYALTON,+VT+05068&hl=en"
WINDSOR COUNTY SHERIFF'S DEPARTMENT,WEATHERSFIELD TRANSFER STATION WEATHERSFIELD POLICE DEPARTMENT,5024 VT RT 106,PERKINSVILLE,VT,05151,"http://maps.google.com/maps?q=5024 VT RT 106,+PERKINSVILLE,+VT+05151&hl=en"
WINDSOR COUNTY SHERIFF'S DEPARTMENT,WINDSOR POLICE DEPARTMENT,29 UNION STREET,WINDSOR,VT,05089,"http://maps.google.com/maps?q=29 UNION STREET,+WINDSOR,+VT+05089&hl=en"
WINDSOR COUNTY SHERIFF'S DEPARTMENT,WOODSTOCK POLICE DEPARTMENT,454 WOODSTOCK ROAD,WOODSTOCK,VT,05091,"http://maps.google.com/maps?q=454 WOODSTOCK ROAD,+WOODSTOCK,+VT+05091&hl=en"
WINHALL POLICE & RESCUE DEPT,WINHALL POLICE & RESCUE,113 VERMONT ROUTE 30,BONDVILLE,VT,05340,"http://maps.google.com/maps?q=113 VERMONT ROUTE 30,+BONDVILLE,+VT+05340&hl=en"
WOBURN POLICE DEPARTMENT,WOBURN POLICE DEPARTMENT,25 HARRISON AVE,WOBURN,MA,01801,"http://maps.google.com/maps?q=25 HARRISON AVE,+WOBURN,+MA+01801&hl=en"
WOLCOTT CT. POLICE DEPT.,WOLCOTT POLICE DEPT.,225 NICHOLS RD,WOLCOTT,CT,06716,"http://maps.google.com/maps?q=225 NICHOLS RD,+WOLCOTT,+CT+06716&hl=en"
WOODBURY RESIDENT TROOPERS OFFICE,WOODBURY RESIDENT TROOPER'S OFFICE,281 MAIN STREET SOUTH,WOODBURY,CT,06798,"http://maps.google.com/maps?q=281 MAIN STREET SOUTH,+WOODBURY,+CT+06798&hl=en"
WOONSOCKET POLICE DEPARTMENT,CVS PHARMACY/WOONSOCKET PD DET. SGT. MARC CARDIN,1054 CASS AVE.,WOONSOCKET,RI,02895,"http://maps.google.com/maps?q=1054 CASS AVE.,+WOONSOCKET,+RI+02895&hl=en"
WOONSOCKET POLICE DEPARTMENT,WOONSOCKET POLICE DEPARTMENT DET. SGT. MARC CARDIN,242 CLINTON ST.,WOONSOCKET,RI,02895,"http://maps.google.com/maps?q=242 CLINTON ST.,+WOONSOCKET,+RI+02895&hl=en"
WORTHINGTON POLICE DEPARTMENT,COMPACTOR,64 HUNTINGTON ROAD,WORTHINGTON,MA,01098,"http://maps.google.com/maps?q=64 HUNTINGTON ROAD,+WORTHINGTON,+MA+01098&hl=en"
