Participant,CollectionSite,Address,City,State,Zip,MapURL
ADELPHI UNIVERSITY,ADELPHI UNIVERSITY,"ONE SOUTH AVE, U.C. LOBBY",GARDEN CITY,NY,11530,"http://maps.google.com/maps?q=ONE SOUTH AVE, U.C. LOBBY,+GARDEN CITY,+NY+11530&hl=en"
ALBANY COUNTY SHERIFF,RCS COMMUNITY LIBRARY,95 MAIN STREET,RAVENA,NY,12143,"http://maps.google.com/maps?q=95 MAIN STREET,+RAVENA,+NY+12143&hl=en"
ALBANY NY POLICE DEPARTMENT,ALBANY POLICE DEPT. SOUTH STATION,126 ARCH STREET,ALBANY,NY,12202,"http://maps.google.com/maps?q=126 ARCH STREET,+ALBANY,+NY+12202&hl=en"
AMHERST POLICE DEPARTMENT,WILDWOOD SCHOOL PARKING AREA,71 STRONG STREET,AMHERST,MA,01002,"http://maps.google.com/maps?q=71 STRONG STREET,+AMHERST,+MA+01002&hl=en"
ARDSLEY SAYF COALITION,ARDSLEY VILLAGE HALL,507 ASHFORD HALL,ARDSLEY,NY,10502,"http://maps.google.com/maps?q=507 ASHFORD HALL,+ARDSLEY,+NY+10502&hl=en"
BELCHERTOWN POLICE DEPARTMENT,BELCHERTOWN POLICE DEPARTMENT,PARK STREETTOWN COMMON,BELCHERTOWN,MA,01007,"http://maps.google.com/maps?q=PARK STREET,+BELCHERTOWN,+MA+01007&hl=en"
BENNINGTON POLICE DEPARTMENT,BENNINGTON COUNTY SHERIFF'S DEPT FRONT LOBBY,811 US ROUTE 7 SOUTH,BENNINGTON,VT,05201,"http://maps.google.com/maps?q=811 US ROUTE 7 SOUTH,+BENNINGTON,+VT+05201&hl=en"
BENNINGTON POLICE DEPARTMENT,BENNINGTON POLICE DEPARTMENT FRONT LOBBY,118 SOUTH STREET,BENNINGTON,VT,05201,"http://maps.google.com/maps?q=118 SOUTH STREET,+BENNINGTON,+VT+05201&hl=en"
BENNINGTON POLICE DEPARTMENT,SOUTHWESTERN VERMONT MEDICAL CENTER FRONT LOBBY,100 HOSPITAL DRIVE,BENNINGTON,VT,05201,"http://maps.google.com/maps?q=100 HOSPITAL DRIVE,+BENNINGTON,+VT+05201&hl=en"
BERLIN POLICE DEPARTMENT,BERLIN POLICE DEPARTMENT,240 KENSINGTON ROAD,BERLIN,CT,06037,"http://maps.google.com/maps?q=240 KENSINGTON ROAD,+BERLIN,+CT+06037&hl=en"
BETHANY POLICE DEPARTMENT,TROOP I RESIDENT TROOPERS OFFICE,631 AMITY ROAD,NEW HAVEN,CT,06525,"http://maps.google.com/maps?q=631 AMITY ROAD,+NEW HAVEN,+CT+06525&hl=en"
BOROUGH OF FAIRVIEW,FAIRVIEW POLICE DEPARTMENT 201-943-2100,59 ANDERSON AVE.,FAIRVIEW,NJ,07022,"http://maps.google.com/maps?q=59 ANDERSON AVE.,+FAIRVIEW,+NJ+07022&hl=en"
BRANFORD POLICE DEPARTMENT,BRANFORD POLICE DEPARTMENT,33 LAUREL STREET,BRANFORD,CT,06405,"http://maps.google.com/maps?q=33 LAUREL STREET,+BRANFORD,+CT+06405&hl=en"
BRISTOL POLICE DEPARTMENT,BRISTOL SENIOR COMMUNITY CENTER HOURS OF COLLECTION 10:00 A.M- 1:00 P.M,240 STAFFORD AVENUE,BRISTOL,CT,06010,"http://maps.google.com/maps?q=240 STAFFORD AVENUE,+BRISTOL,+CT+06010&hl=en"
CAIRO POLICE DEPARTMENT,HANNAFORD,223 MAIN STREET,CAIRO,NY,12413,"http://maps.google.com/maps?q=223 MAIN STREET,+CAIRO,+NY+12413&hl=en"
CEDAR GROVE POLICE DEPARTMENT,CEDAR GROVE POLICE DEPARTMENT 973-239-4100,525 ROUTE 23,CEDAR GROVE,NJ,07009,"http://maps.google.com/maps?q=525 ROUTE 23,+CEDAR GROVE,+NJ+07009&hl=en"
CHATHAM POLICE DEPARTMENT,CHATHAM PD,77 MAIN STREET,CHATHAM,NY,12037,"http://maps.google.com/maps?q=77 MAIN STREET,+CHATHAM,+NY+12037&hl=en"
CHESHIRE POLICE DEPARTMENT,CHESHIRE POLICE DEPARTMENT,500 HIGHLAND AVE,CHESHIRE,CT,06410,"http://maps.google.com/maps?q=500 HIGHLAND AVE,+CHESHIRE,+CT+06410&hl=en"
CLARKSTOWN POLICE,CVS PHARMACY,280 SOUTH MAIN ST,NEW CITY,NY,10956,"http://maps.google.com/maps?q=280 SOUTH MAIN ST,+NEW CITY,+NY+10956&hl=en"
CLARKSTOWN POLICE,CVS PHARMACY,330 ROUTE 304,BARDONIA,NY,10954,"http://maps.google.com/maps?q=330 ROUTE 304,+BARDONIA,+NY+10954&hl=en"
CLOSTER POLICE DEPARTMENT,CLOSTER POLICE DEPT. 201-768-5000,295 CLOSTER DOCK ROAD,CLOSTER,NJ,07624,"http://maps.google.com/maps?q=295 CLOSTER  DOCK ROAD,+CLOSTER,+NJ+07624&hl=en"
COLUMBIA COUNTY SHERIFF'S OFFICE,COLUMBIA COUNTY SHERIFF'S OFFICE,85 INDUSTRIAL TRACT,HUDSON,NY,12534,"http://maps.google.com/maps?q=85 INDUSTRIAL TRACT,+HUDSON,+NY+12534&hl=en"
COLUMBIA COUNTY SHERIFF'S OFFICE,HILLSDALE SUB STATION,2684 STATE ROUTE 23,HILLSDALE,NY,12529,"http://maps.google.com/maps?q=2684 STATE ROUTE 23,+HILLSDALE,+NY+12529&hl=en"
CONNECTICUT STATE POLICE-TROOP G,TROOP G BARRACKS,149 PROSPECT ST,BRIDGEPORT,CT,06604,"http://maps.google.com/maps?q=149 PROSPECT ST,+BRIDGEPORT,+CT+06604&hl=en"
COXSACKIE POLICE DEPARTMENT,COXSACKIE POLICE DEPARTMENT,119 MANSION STREET,COXSACKIE,NY,12051,"http://maps.google.com/maps?q=119 MANSION STREET,+COXSACKIE,+NY+12051&hl=en"
CRESSKILL POLICE DEPARTMENT,CRESSKILL POLICE DEPARTMENT,67 UNION AVENUE,CRESSKILL,NJ,07626,"http://maps.google.com/maps?q=67 UNION AVENUE,+CRESSKILL,+NJ+07626&hl=en"
CROTON ON HUDSON POLICE,CROTON COMMONS SHOPPING PLAZA,177 SOUTH RIVERSIDE AVENUE,CROTON ON HUDSON,NY,10520,"http://maps.google.com/maps?q=177 SOUTH RIVERSIDE AVENUE,+CROTON ON HUDSON,+NY+10520&hl=en"
CT STATE POLICE TROOP C,CT STATE POLICE TROOP C,1320 TOLLAND STAGE RD.,TOLLAND,CT,06084,"http://maps.google.com/maps?q=1320 TOLLAND STAGE RD.,+TOLLAND,+CT+06084&hl=en"
CT STATE POLICE TROOP E,GRISWOLD TOWN HALL,28 MAIN STREET,JEWETT CITY,CT,06351,"http://maps.google.com/maps?q=28 MAIN STREET,+JEWETT CITY,+CT+06351&hl=en"
CUMMINGTON POLICE DEPARTMENT,CUMMINGTON POLICE DEPARTMENT CUMMINGTON PUBLIC SAFETY COMPLEX,8 FAIRGROUNDS ROAD,CUMMINGTON,MA,01026,"http://maps.google.com/maps?q=8 FAIRGROUNDS ROAD,+CUMMINGTON,+MA+01026&hl=en"
DANBURY POLICE DEPARTMENT,DANBURY POLICE DEPARTMENT,375 MAIN STREET,DANBURY,CT,06810,"http://maps.google.com/maps?q=375 MAIN STREET,+DANBURY,+CT+06810&hl=en"
DEA NEW YORK DIVISION,FALLSBURG POLICE STATION ALETA M. GOMEZ 845.794.8080 X170,19 RAILROAD PLAZA,SOUTH FALLSBURG,NY,12779,"http://maps.google.com/maps?q=19 RAILROAD PLAZA,+SOUTH FALLSBURG,+NY+12779&hl=en"
DEA NEW YORK DIVISION,NEW YORK CITY POLICE DEPARTMENT BRONX 42 PRECINCT,830 WASHINGTON AVENUE MORRISANIA,BRONX,NY,10451,"http://maps.google.com/maps?q=830 WASHINGTON AVENUE MORRISANIA,+BRONX,+NY+10451&hl=en"
DEA NEW YORK DIVISION,NEW YORK CITY POLICE DEPARTMENT BRONX 45 PRECINCT,2877 BARKLEY AVENUE (SCHUYLERVILLE),BRONX,NY,10465,"http://maps.google.com/maps?q=2877 BARKLEY AVENUE (SCHUYLERVILLE),+BRONX,+NY+10465&hl=en"
DEA NEW YORK DIVISION,NEW YORK CITY POLICE DEPARTMENT BRONX 46 PRECINCT,2120 RYER AVENUE (FORDHAM),BRONX,NY,10457,"http://maps.google.com/maps?q=2120 RYER AVENUE (FORDHAM),+BRONX,+NY+10457&hl=en"
DEA NEW YORK DIVISION,NEW YORK CITY POLICE DEPARTMENT BRONX 48 PRECINCT,450 CROSS BRONX EXPRESSWAY (EAST TREMONT),BRONX,NY,10457,"http://maps.google.com/maps?q=450 CROSS BRONX EXPRESSWAY (EAST TREMONT),+BRONX,+NY+10457&hl=en"
DEA NEW YORK DIVISION,NEW YORK CITY POLICE DEPARTMENT BRONX 50TH PRECINCT,3450 KINGSBRIDGE AVENUE (KINGSBRIDGE),BRONX,NY,10463,"http://maps.google.com/maps?q=3450 KINGSBRIDGE AVENUE (KINGSBRIDGE),+BRONX,+NY+10463&hl=en"
DEA NEW YORK DIVISION,NEW YORK CITY POLICE DEPARTMENT BROOKLYN 61 PRECINCT,2575 CONEY ISLAND AVENUE (HOMECREST),BROOKLYN,NY,11223,"http://maps.google.com/maps?q=2575 CONEY ISLAND AVENUE (HOMECREST),+BROOKLYN,+NY+11223&hl=en"
DEA NEW YORK DIVISION,NEW YORK CITY POLICE DEPARTMENT BROOKLYN 68 PRECINCT,333 65TH STREET (BAY RIDGE),BROOKLYN,NY,11220,"http://maps.google.com/maps?q=333 65TH STREET (BAY RIDGE),+BROOKLYN,+NY+11220&hl=en"
DEA NEW YORK DIVISION,NEW YORK CITY POLICE DEPARTMENT BROOKLYN 78 PRECINCT,65 SIXTH AVENUE (FLATBUSH),BROOKLYN,NY,11217,"http://maps.google.com/maps?q=65 SIXTH AVENUE (FLATBUSH),+BROOKLYN,+NY+11217&hl=en"
DEA NEW YORK DIVISION,NEW YORK CITY POLICE DEPARTMENT BROOKLYN 84 PRECINCT,301 GOLD STREET,BROOKLYN,NY,11201,"http://maps.google.com/maps?q=301 GOLD STREET,+BROOKLYN,+NY+11201&hl=en"
DEA NEW YORK DIVISION,NEW YORK CITY POLICE DEPARTMENT BROOKLYN 90TH PRECINCT,211 UNION AVENUE (WILLIAMSBURG),BROOKLYN,NY,11206,"http://maps.google.com/maps?q=211 UNION AVENUE (WILLIAMSBURG),+BROOKLYN,+NY+11206&hl=en"
DEA NEW YORK DIVISION,NEW YORK CITY POLICE DEPARTMENT MANHATTAN 10 PRECINCT,230 WEST 20TH STREET CHELSEA,NEW YORK,NY,10011,"http://maps.google.com/maps?q=230 WEST 20TH STREET CHELSEA,+NEW YORK,+NY+10011&hl=en"
DEA NEW YORK DIVISION,NEW YORK CITY POLICE DEPARTMENT MANHATTAN 13 PRECINCT,230 EAST 21ST STREET STUYVESTANT TOWN,NEW YORK,NY,10010,"http://maps.google.com/maps?q=230 EAST 21ST STREET STUYVESTANT TOWN,+NEW YORK,+NY+10010&hl=en"
DEA NEW YORK DIVISION,NEW YORK CITY POLICE DEPARTMENT MANHATTAN 20 PRECINCT,120 WEST 82ND STREET,NEW YORK,NY,10024,"http://maps.google.com/maps?q=120 WEST 82ND STREET,+NEW YORK,+NY+10024&hl=en"
DEA NEW YORK DIVISION,NEW YORK CITY POLICE DEPARTMENT MANHATTAN 25 PRECINCT,120 EAST 119TH STREET,NEW YORK,NY,10035,"http://maps.google.com/maps?q=120 EAST 119TH STREET,+NEW YORK,+NY+10035&hl=en"
DEA NEW YORK DIVISION,NEW YORK CITY POLICE DEPARTMENT MANHATTAN 7 PRECINCT,19 1/2 PITT STREET LOWER EAST SIDE,NEW YORK,NY,10002,"http://maps.google.com/maps?q=19 1/2 PITT STREET LOWER EAST SIDE,+NEW YORK,+NY+10002&hl=en"
DEA NEW YORK DIVISION,NEW YORK CITY POLICE DEPARTMENT QUEENS 100TH PRECINCT,92-24 ROCKAWAY BEACH BOULEVARD (ROCKAWAY),FAR ROCKAWAY,NY,11693,"http://maps.google.com/maps?q=92-24 ROCKAWAY BEACH BOULEVARD (ROCKAWAY),+FAR ROCKAWAY,+NY+11693&hl=en"
DEA NEW YORK DIVISION,NEW YORK CITY POLICE DEPARTMENT QUEENS 103RD PRECINCT,168-02 PO EDWARD BYRNE AVENUE (JAMAICA),JAMAICA,NY,11432,"http://maps.google.com/maps?q=168-02 PO EDWARD BYRNE AVENUE (JAMAICA),+JAMAICA,+NY+11432&hl=en"
DEA NEW YORK DIVISION,NEW YORK CITY POLICE DEPARTMENT QUEENS 111 PRECINCT,45-06 215TH STREET (BAYSIDE),BAYSIDE,NY,11361,"http://maps.google.com/maps?q=45-06 215TH STREET (BAYSIDE),+BAYSIDE,+NY+11361&hl=en"
DEA NEW YORK DIVISION,NEW YORK CITY POLICE DEPARTMENT QUEENS 112TH PRECINCT,68-04 AUSTIN STREET (FOREST HILLS),FOREST HILLS,NY,11375,"http://maps.google.com/maps?q=68-04 AUSTIN STREET (FOREST HILLS),+FOREST HILLS,+NY+11375&hl=en"
DEERFIELD POLICE DEPARTMENT,DEERFIELD POLICE DEPARTMENT,8 CONWAY STREET,SOUTH DEERFIELD,MA,01373,"http://maps.google.com/maps?q=8 CONWAY STREET,+SOUTH DEERFIELD,+MA+01373&hl=en"
DUTCHESS COUNTY SHERIFF'S OFFICE,VASSAR BROTHERS MEDICAL HOSPITAL,45 READE PLACE,POUGHKEEPSIE,NY,12601,"http://maps.google.com/maps?q=45 READE PLACE,+POUGHKEEPSIE,+NY+12601&hl=en"
EAST GRANBY RESIDENT TROOPERS OFFICE,EAST GRANBY RESIDENT TROOPER'S OFFICE,7 MEMORIAL DRIVE,EAST GRANBY,CT,06026,"http://maps.google.com/maps?q=7 MEMORIAL DRIVE,+EAST GRANBY,+CT+06026&hl=en"
EAST GREENBUSH POLICE DEPARTMENT,EAST GREENBUSH POLICE DEPARTMENT,225 COLUMBIA TURNPIKE,RENSSELAER,NY,12144,"http://maps.google.com/maps?q=225 COLUMBIA TURNPIKE,+RENSSELAER,+NY+12144&hl=en"
EAST HADDAM POLICE/RESIDENT TROOPER,EAST HADDAM POLICE/RESIDENT TROOPER JEFFREY RHOADES,1 PLAINS ROAD,MOODUS,CT,06469,"http://maps.google.com/maps?q=1 PLAINS ROAD,+MOODUS,+CT+06469&hl=en"
EAST HAMPTON POLICE DEPARTMENT,CHATHAM ACRES EAST HAMPTON HOUSING AUTHORITY 10:00 A.M. TO 2:00 P.M.,GOVERNOR BILL O'NEILL DRIVE,EAST HAMPTON,CT,06424,"http://maps.google.com/maps?q=GOVERNOR BILL O'NEILL DRIVE,+EAST HAMPTON,+CT+06424&hl=en"
EAST HARTFORD POLICE,EAST HARTFORD PUBLIC SAFETY COMPLEX EAST HARTFORD POLICE HEADQUARTERS,31 SCHOOL STREET,EAST HARTFORD,CT,06108,"http://maps.google.com/maps?q=31 SCHOOL STREET,+EAST HARTFORD,+CT+06108&hl=en"
EAST HAVEN POLICE DEPARTMENT,EAST HAVEN POLICE DEPARTMENT,471 NORTH HIGH STREET,EAST HAVEN,CT,06512,"http://maps.google.com/maps?q=471 NORTH HIGH STREET,+EAST HAVEN,+CT+06512&hl=en"
EASTHAMPTON POLICE DEPARTMENT,EASTHAMPTON PUBLIC SAFETY COMPLEX,32 PAYSON AVENUE,EASTHAMPTON,MA,01027,"http://maps.google.com/maps?q=32 PAYSON AVENUE,+EASTHAMPTON,+MA+01027&hl=en"
ELLINGTON RESIDENT TROOPERS OFFICE,ELLINGTON RESIDENT TROOPERS OFFICE,33 ARBOR WAY,ELLINGTON,CT,06029,"http://maps.google.com/maps?q=33 ARBOR WAY,+ELLINGTON,+CT+06029&hl=en"
ELMWOOD PARK POLICE DEPARTMENT,ELMWOOK PARK PD,182 MARKET ST,ELMWOOD PARK,NJ,07407,"http://maps.google.com/maps?q=182 MARKET ST,+ELMWOOD PARK,+NJ+07407&hl=en"
EMERSON P.D.,EMERSON POLICE HQ,1 MUNICIPAL PLACE,EMERSON,NJ,07630,"http://maps.google.com/maps?q=1 MUNICIPAL PLACE,+EMERSON,+NJ+07630&hl=en"
ESSEX COUNTY SHERIFF'S OFFICE,ESSEX COUNTY SHERIFF'S OFFICE 973-621-4111,525 WEST MARKET STPATROL HQ,NEWARK,NJ,07105,"http://maps.google.com/maps?q=525 WEST MARKET ST,+NEWARK,+NJ+07105&hl=en"
FAIRFIELD POLICE DEPARTMENT,FAIRFIELD POLICE DEPARTMENT,100 REEF ROAD,FAIRFIELD,CT,06824,"http://maps.google.com/maps?q=100 REEF ROAD,+FAIRFIELD,+CT+06824&hl=en"
FLORAL PARK POLICE DEPARTMENT,FLORAL PARK POLICE DEPARTMENT,1 FLORAL BLVD,GREAT NECK,NY,11022,"http://maps.google.com/maps?q=1 FLORAL BLVD,+GREAT NECK,+NY+11022&hl=en"
FORT LEE POLICE DEPARTMENT,FORT LEE POLICE DEPARTMENT 201-592-3700,1327 16TH ST.,FORT LEE,NJ,07024,"http://maps.google.com/maps?q=1327 16TH ST.,+FORT LEE,+NJ+07024&hl=en"
FREEPORT POLICE DEPARTMENT,FREEPORT POLICE DEPARTMENT DET/LT. WAYNE GIGLIO 516 377-2414,40 N. OCEAN AVENUE,FREEPORT,NY,11520,"http://maps.google.com/maps?q=40 N. OCEAN AVENUE,+FREEPORT,+NY+11520&hl=en"
GARDEN CITY POLICE DEPARTMENT,GARDEN CITY POLICE DEPARTMENT,349 STEWART AVENUE,GARDEN CITY,NY,11530,"http://maps.google.com/maps?q=349 STEWART AVENUE,+GARDEN CITY,+NY+11530&hl=en"
GARFIELD POLICE DEPARTMENT,GARFIELD POLICE DEPARTMENT 973-478-8500,160 BELMONT AVE.,GARFIELD,NJ,07026,"http://maps.google.com/maps?q=160 BELMONT AVE.,+GARFIELD,+NJ+07026&hl=en"
GLASTONBURY POLICE DEPARTMENT,PARKS AND REC DEPARTMENT,2143 MAIN ST.,GLASTONBURY,CT,06033,"http://maps.google.com/maps?q=2143 MAIN ST.,+GLASTONBURY,+CT+06033&hl=en"
GOOD SAMARITAN HOSPITAL,GOOD SAMARITAN HOSPITAL,1000 MONTAUK HWY,WEST ISLIP,NY,11795,"http://maps.google.com/maps?q=1000 MONTAUK HWY,+WEST ISLIP,+NY+11795&hl=en"
GOSHEN POLICE DEPARTMENT,GOSHEN POLICE DEPARTMENT,40A MAIN ST,GOSHEN,MA,01032,"http://maps.google.com/maps?q=40A MAIN ST,+GOSHEN,+MA+01032&hl=en"
GREENWICH POLICE DEPARTMERNT,PUBLIC SAFETY COMPLEX,11 BRUCE PLACE,GREENWICH,CT,06830,"http://maps.google.com/maps?q=11 BRUCE PLACE,+GREENWICH,+CT+06830&hl=en"
HADDAM RESIDENT STATE TROOPERS OFFICE- CSP TROOP F,HIGGANUM PHARMACY IN FRONT PARKING LOT AREA,23 KILLINGWORTH RD,HIGGANUM,CT,06441,"http://maps.google.com/maps?q=23 KILLINGWORTH RD,+HIGGANUM,+CT+06441&hl=en"
HADLEY POLICE DEPARTMENT,HOPKINS ACADEMY HIGH SCHOOL,131 RUSSELL STREET,HADLEY,MA,01035,"http://maps.google.com/maps?q=131 RUSSELL STREET,+HADLEY,+MA+01035&hl=en"
HAMDEN POLICE DEPARTMENT,HAMDEN POLICE DEPARTMENT,2900 DIXWELL AVE.,HAMDEN,CT,06518,"http://maps.google.com/maps?q=2900 DIXWELL AVE.,+HAMDEN,+CT+06518&hl=en"
HARTFORD POLICE DEPARTMENT,HARTFORD POLICE DEPARTMENT,253 HIGH STREET,HARTFORD,CT,06103,"http://maps.google.com/maps?q=253 HIGH STREET,+HARTFORD,+CT+06103&hl=en"
HARWINTON RESIDENT TROOPER OFFICE,HARWINTON RESIDENT TROOPERS OFFICE,100 BENTLEY DRIVE,HARWINTON,CT,06791,"http://maps.google.com/maps?q=100 BENTLEY DRIVE,+HARWINTON,+CT+06791&hl=en"
HAVERSTRAW POLICE DEPARTMENT,CVS,12 WEST RAMAPO ROAD,GARNERVILLE,NY,10923,"http://maps.google.com/maps?q=12 WEST RAMAPO ROAD,+GARNERVILLE,+NY+10923&hl=en"
HAWORTH POLICE DEPARTMENT,HAWORTH POLICE DEPARTMENT,300 HAWORTH AVENUE,HAWORTH,NJ,07641,"http://maps.google.com/maps?q=300 HAWORTH AVENUE,+HAWORTH,+NJ+07641&hl=en"
HEBRON RESIDENT TROOPER'S OFFICE - CSP TROOP K,RHAM HIGH SCHOOL,85 WALL ST.,HEBRON,CT,06248,"http://maps.google.com/maps?q=85 WALL ST.,+HEBRON,+CT+06248&hl=en"
HEMPSTEAD POLICE DEPARTMENT,HEMPSTEAD POLICE DEPARTMENT,99 NICHOLAS COURTS,HEMPSTEAD,NY,11550,"http://maps.google.com/maps?q=99 NICHOLAS COURTS,+HEMPSTEAD,+NY+11550&hl=en"
HOBOKEN POLICE DEPARTMENT,HOBOKEN POLICE DEPARTMENT,106 HUDSON STREET,HOBOKEN,NJ,07030,"http://maps.google.com/maps?q=106 HUDSON STREET,+HOBOKEN,+NJ+07030&hl=en"
HOLLAND POLICE DEPARTMENT,HOLLAND POLICE DEPARTMENT COMMUNITY ROOM 1ST FLR.,27 STURBRIDGE RD.,HOLLAND,MA,01521,"http://maps.google.com/maps?q=27 STURBRIDGE RD.,+HOLLAND,+MA+01521&hl=en"
HOLYOKE POLICE DEPARTMENT,HOLYOKE PD NARCOTICS/VICE DIVISION,138 APPLETON ST,HOLYOKE,MA,01040,"http://maps.google.com/maps?q=138 APPLETON ST,+HOLYOKE,+MA+01040&hl=en"
HOOSICK FALLS POLICE DEPARTMENT,HOOSICK FALLS PD STATION,24 MAIN STREET,HOOSICK FALLS,NY,12090,"http://maps.google.com/maps?q=24 MAIN STREET,+HOOSICK FALLS,+NY+12090&hl=en"
HOPKINTON POLICE DEPARTMENT,HOPKINTON POLICE DEPARTMENT,406 WOODVILLE ROAD,HOPKINTON,RI,02833,"http://maps.google.com/maps?q=406 WOODVILLE ROAD,+HOPKINTON,+RI+02833&hl=en"
HUDSON COUNTY SHERIFF'S OFFICE,HUDSON COUNTY SHERIFF'S OFFICE,257 CORNELISON AVENUE,JERSEY CITY,NJ,07302,"http://maps.google.com/maps?q=257 CORNELISON AVENUE,+JERSEY CITY,+NJ+07302&hl=en"
KINGS POINT POLICE DEPARTMENT,KINGS POINT POLICE DEPARTMENT GEORGE J. BANVILLE 516 482-1000,32 STEPPINGSTONE LANE,KINGS POINT,NY,11024,"http://maps.google.com/maps?q=32 STEPPINGSTONE LANE,+KINGS POINT,+NY+11024&hl=en"
LAKE SUCCESS POLICE DEPARTMENT,LAKE SUCCESS POLICE DEPARTMENT,15 VANDERBILT DRIVE,GREAT NECK,NY,11020,"http://maps.google.com/maps?q=15 VANDERBILT DRIVE,+GREAT NECK,+NY+11020&hl=en"
LENOX HEALTH GREENWICH VILLAGE,LENOX HEALTH GREENWICH VILLAGE,30 7TH AVENUE,NEW YORK,NY,10011,"http://maps.google.com/maps?q=30 7TH AVENUE,+NEW YORK,+NY+10011&hl=en"
LENOX HILL HOSPITAL,LENOX HILL HOSPITAL MICHAEL LOMBARDI,100 EAST 77TH STREET,NEW YORK,NY,10075,"http://maps.google.com/maps?q=100 EAST 77TH STREET,+NEW YORK,+NY+10075&hl=en"
LEVERETT POLICE DEPARTMENT,LEVERETT POLICE DEPARTMENT CHIEF SCOTT D. MINCKLER,95 MONTAGUE ROAD,LEVERETT,MA,01054,"http://maps.google.com/maps?q=95 MONTAGUE ROAD,+LEVERETT,+MA+01054&hl=en"
LONG BEACH POLICE DEPARTMENT,LONG BEACH POLICE DEPARTMENT,1 WEST CHESTER STREET,LONG BEACH,NY,11561,"http://maps.google.com/maps?q=1 WEST CHESTER STREET,+LONG BEACH,+NY+11561&hl=en"
LONG ISLAND JEWISH MEDICAL CENTER,LONG ISLAND JEWISH MEDICAL CENTER LOBBY,270-05 76ST AVENUE,NEW HYDE PARK,NY,11040,"http://maps.google.com/maps?q=270-05 76ST AVENUE,+NEW HYDE PARK,+NY+11040&hl=en"
LONGMEADOW POLICE DEPARTMENT,LONGMEADOW POLICE DEPARTMENT,34 WILLIAMS STREET,LONGMEADOW,MA,01106,"http://maps.google.com/maps?q=34 WILLIAMS STREET,+LONGMEADOW,+MA+01106&hl=en"
LUDLOW POLICE DEPARTMENT,LUDLOW POLICE DEPARTMENT,612 CHAPIN ST,LUDLOW,MA,01056,"http://maps.google.com/maps?q=612 CHAPIN ST,+LUDLOW,+MA+01056&hl=en"
LYNBROOK POLICE DEPARTMENT,LYNBROOK POLICE DEPARTMENT SGT SEAN MURPHY,1 COLUMBUS DR AVENUE,LYNBROOK,NY,11563,"http://maps.google.com/maps?q=1 COLUMBUS DR AVENUE,+LYNBROOK,+NY+11563&hl=en"
MADISON POLICE DEPARTMENT,MADISON POLICE DEPARTMENT,9 CAMPUS DRIVE,MADISON,CT,06443,"http://maps.google.com/maps?q=9 CAMPUS DRIVE,+MADISON,+CT+06443&hl=en"
MAHWAH POLICE DEPARTMENT,MAHWAY POLICE DEPT.,221 FRANKLIN TURNPIKE,MAHWAH,NJ,07430,"http://maps.google.com/maps?q=221 FRANKLIN TURNPIKE,+MAHWAH,+NJ+07430&hl=en"
MALVERNE POLICE DEPARTMENT,MALVERNE POLICE DEPARTMENT,1 BRITTON CIRCLE AVENUE,MALVERNE,NY,11565,"http://maps.google.com/maps?q=1 BRITTON CIRCLE AVENUE,+MALVERNE,+NY+11565&hl=en"
MATHER HOSPITAL/NORTHWELL HEALTH,MATHER HOSPITAL/NORTHWELL HEALTH,75 NORTH COUNTRY ROAD,PORT JEFFERSON,NY,11777,"http://maps.google.com/maps?q=75 NORTH COUNTRY ROAD,+PORT JEFFERSON,+NY+11777&hl=en"
MERIDEN POLICE DEPARTMENT,MERIDEN POLICE DEPARTMENT FRONT LOBBY,50 WEST MAIN ST.,MERIDEN,CT,06451,"http://maps.google.com/maps?q=50 WEST MAIN ST.,+MERIDEN,+CT+06451&hl=en"
MIDDLEFIELD RESIDENT TROOPER,MIDDLEFIELD RESIDENT TROOPERS OFFICE,405 MAIN ST,MIDDLEFIELD,CT,06455,"http://maps.google.com/maps?q=405 MAIN ST,+MIDDLEFIELD,+CT+06455&hl=en"
MIDDLETOWN POLICE CT,MIDDLETOWN PD,222 MAIN STREET,MIDDLETOWN,CT,06457,"http://maps.google.com/maps?q=222 MAIN STREET,+MIDDLETOWN,+CT+06457&hl=en"
MIDLAND PARK POLICE DEPARTMENT,MIDLAND PARK POLICE DEPARTMENT,280 GODWIN AVENUE,MIDLAND PARK,NJ,07432,"http://maps.google.com/maps?q=280 GODWIN AVENUE,+MIDLAND PARK,+NJ+07432&hl=en"
MONROE POLICE DEPARTMENT,MONROE SENIOR CENTER,235 CUTLERS FARM ROAD,MONROE,CT,06468,"http://maps.google.com/maps?q=235 CUTLERS FARM ROAD,+MONROE,+CT+06468&hl=en"
NEW BRITAIN POLICE DEPARTMENT,NEW BRITAIN POLICE DEPARTMENT COMMUNITY ROOM - 1ST FLOOR,10 CHESTNUT STREET,NEW BRITAIN,CT,06051,"http://maps.google.com/maps?q=10 CHESTNUT STREET,+NEW BRITAIN,+CT+06051&hl=en"
NEW PALTZ POLICE DEPARTMENT,NEW PALTZ POLICE STATION DROP BOX IN LOBBY,83 SOUTH PUTT CORNERS ROAD,NEW PALTZ,NY,12561,"http://maps.google.com/maps?q=83 SOUTH PUTT CORNERS ROAD,+NEW PALTZ,+NY+12561&hl=en"
NEW YORK STATE POLICE,NEW YORK STATE POLICE PETER MCARDLE,7140 REPUBLIC AIRPORT,FARMINGDALE,NY,11735,"http://maps.google.com/maps?q=7140 REPUBLIC AIRPORT,+FARMINGDALE,+NY+11735&hl=en"
NEW YORK STATE POLICE,NEW YORK STATE POLICE SCHODACK,1485 STATE ROUTE 9,CASTLETON,NY,12033,"http://maps.google.com/maps?q=1485 STATE ROUTE 9,+CASTLETON,+NY+12033&hl=en"
NEWARK POLICE DEPT.,3RD PRECINCT,649 MARKET ST.,NEWARK,NJ,07102,"http://maps.google.com/maps?q=649 MARKET ST.,+NEWARK,+NJ+07102&hl=en"
NEWFAIRFEILD POLICE DEPARTMENT,NEW FAIRFIELD RESIDENT TROOPERS OFFICE,302 BALL POND ROAD,NEW FAIRFIELD,CT,06812,"http://maps.google.com/maps?q=302 BALL POND ROAD,+NEW FAIRFIELD,+CT+06812&hl=en"
NORTH BERGEN P.D.,NORTH BERGEN P.D.,4233 KENNEDY BLVD.,NORTH BERGEN,NJ,07047,"http://maps.google.com/maps?q=4233 KENNEDY BLVD.,+NORTH BERGEN,+NJ+07047&hl=en"
NORTH CASTLE POLICE DEPARTMENT,NORTH CASTLE POLICE DEPARTMENT TOWN HALL,15 BEDFORD ROAD,ARMONK,NY,10504,"http://maps.google.com/maps?q=15 BEDFORD ROAD,+ARMONK,+NY+10504&hl=en"
NORTH GREENBUSH POLICE DEPARTMENT,NORTH GREENBUSH POLICE DEPARTMENT CHIEF ROBERT DURIVAGE,133 BLOOMING GROVE DRIVE,TROY,NY,12180,"http://maps.google.com/maps?q=133 BLOOMING GROVE DRIVE,+TROY,+NY+12180&hl=en"
NORTH HAVEN SUBSTANCE ABUSE ACTION COUNCIL,FIRE DEPARTMENT,11 BROADWAY,NORTH HAVEN,CT,06473,"http://maps.google.com/maps?q=11 BROADWAY,+NORTH HAVEN,+CT+06473&hl=en"
NORTH SHORE HEALTH LIJ HUNTINGTON HOSPITAL,NORTH SHORE HEALTH LIJ HUNTINGTON LOBBY,270 PARK AVENUE,HUNTINGTON,NY,11743,"http://maps.google.com/maps?q=270 PARK AVENUE,+HUNTINGTON,+NY+11743&hl=en"
NORTH SHORE UNIVERSITY HOSPITAL,NORTH SHORE UNIVERSITY HOSPITAL,300 COMMUNITY DRIVE,MANHASSET,NY,11030,"http://maps.google.com/maps?q=300 COMMUNITY DRIVE,+MANHASSET,+NY+11030&hl=en"
NORTHAMPTON POLICE DEPARTMENT,JOHN F KENNEDY MIDDLE SCHOOL,100 BRIDGE RD,FLORENCE,MA,01062,"http://maps.google.com/maps?q=100 BRIDGE RD,+FLORENCE,+MA+01062&hl=en"
NORTHPORT VA POLICE DEPARTMENT,NORTHPORT VA POLICE DEPARTMENT,79 MIDDLEVILLE ROAD,NORTHPORT,NY,11768,"http://maps.google.com/maps?q=79 MIDDLEVILLE ROAD,+NORTHPORT,+NY+11768&hl=en"
NORTHVALE POLICE DEPARTMENT,NORTHVALE POLICE DEPARTMENT 201-768-5900,116 PARIS AVE.,NORTHVALE,NJ,07647,"http://maps.google.com/maps?q=116 PARIS AVE.,+NORTHVALE,+NJ+07647&hl=en"
NORTHWELL SOUTHSIDE HOSPITAL,NORTHWELL SOUTHSIDE HOSPITAL,301 EAST MAIN STREET,BAY SHORE,NY,11706,"http://maps.google.com/maps?q=301 EAST MAIN STREET,+BAY SHORE,+NY+11706&hl=en"
NORWICH POLICE DEPARTMENT,NORWICH PD,70 THAMES STREET,NORWICH,CT,06360,"http://maps.google.com/maps?q=70 THAMES STREET,+NORWICH,+CT+06360&hl=en"
NORWOOD POLICE DEPT.,NORWOOD BOROUGH COMMUNITY CENTER,453 BROADWAY,NORWOOD,NJ,07648,"http://maps.google.com/maps?q=453 BROADWAY,+NORWOOD,+NJ+07648&hl=en"
NYPD 26TH PRECINCT,COLUMBIA UNIVERSITY SIDEWALK,WEST 116TH STREET AND BROADWAY,NEW YORK,NY,10027,"http://maps.google.com/maps?q=WEST 116TH STREET AND BROADWAY,+NEW YORK,+NY+10027&hl=en"
NYPD 33 PCT./ COLUMBIA UNIVERSITY,COLUMBIA UNIVERSITY,650 W 168 ST.,NEW YORK,NY,10032,"http://maps.google.com/maps?q=650 W 168 ST.,+NEW YORK,+NY+10032&hl=en"
OAKLAND POLICE DEPARTMENT,OAKLAND POLICE DEPARTMENT,295 RAMAPO VALLEY ROAD,OAKLAND,NJ,07436,"http://maps.google.com/maps?q=295 RAMAPO VALLEY ROAD,+OAKLAND,+NJ+07436&hl=en"
ORANGE POLICE DEPARTMENT,CVS,279 BOSTON POST ROAD,ORANGE,CT,06477,"http://maps.google.com/maps?q=279 BOSTON POST ROAD,+ORANGE,+CT+06477&hl=en"
OXFORD RESIDENT STATE TROOPER,OXFORD RESIDENT TROOPER'S OFFICE,429 OXFORD ROAD,OXFORD,CT,06478,"http://maps.google.com/maps?q=429 OXFORD ROAD,+OXFORD,+CT+06478&hl=en"
OYSTER BAY POLICE DEPARTMENT,ST JOHNS EPISCOPAL CHURCH CHURCH BEHIND FISH HATCHERY,1670 NORTH HEMPSTEAD TURNPIKE,SYOSSET,NY,11791,"http://maps.google.com/maps?q=1670 NORTH HEMPSTEAD TURNPIKE,+SYOSSET,+NY+11791&hl=en"
PD GRANBY CT,GRANBY POLICE DEPARTMENT,15 NORTH GRANBY ROAD,GRANBY,CT,06035,"http://maps.google.com/maps?q=15 NORTH GRANBY ROAD,+GRANBY,+CT+06035&hl=en"
PECONIC BAY MEDICAL CENTER,PECONIC BAY MEDICAL CENTER BRENDAN VAN SLYKE,1300 ROANOKE AVENUE,RIVERHEAD,NY,11901,"http://maps.google.com/maps?q=1300 ROANOKE AVENUE,+RIVERHEAD,+NY+11901&hl=en"
PELHAM POLICE DEPARTMENT,PELHAM POLICE DEPARTMENT,2 SOUTH VALLEY RD,PELHAM,MA,01002,"http://maps.google.com/maps?q=2 SOUTH VALLEY RD,+PELHAM,+MA+01002&hl=en"
PITTSFIELD POLICE DEPARTMENT,PITTSFIELD POLICE DEPARTMENT LT. JOHN SOULES,39 ALLEN STREET,PITTSFIELD,MA,01201,"http://maps.google.com/maps?q=39 ALLEN STREET,+PITTSFIELD,+MA+01201&hl=en"
PORT WASHINGTON POLICE DEPARTMENT,PORT WASHINGTON POLICE DEPARTMENT DET THOMAS MCCARTY,500 PORT WASHINGTON BLVD,PORT WASHINGTON,NY,11050,"http://maps.google.com/maps?q=500 PORT WASHINGTON BLVD,+PORT WASHINGTON,+NY+11050&hl=en"
PUTNAM COUNTY SHERIFF'S OFFICE,PUTNAM HOSPITAL CENTER,670 STONLEIGH AVE,CARMEL,NY,10512,"http://maps.google.com/maps?q=670 STONLEIGH AVE,+CARMEL,+NY+10512&hl=en"
RENSSELAER CITY POLICE DEPARTMENT,NORTH END FIRE STATION,2 ST. FRANCIS PLACE,RENSSELAER,NY,12144,"http://maps.google.com/maps?q=2 ST. FRANCIS PLACE,+RENSSELAER,+NY+12144&hl=en"
RENSSELAER COUNTY SHERIFF'S OFFICE,WEST SAND LAKE FIRE DEPARTMENT,3697 NY-43,WEST SAND LAKE,NY,12196,"http://maps.google.com/maps?q=3697 NY-43,+WEST SAND LAKE,+NY+12196&hl=en"
RIDGEFIELD PARK POLICE DEPARTMENT,RIDGEFIELD PARK POLICE DEPARTMENT 201-641-6400,234 MAIN ST.,RIDGEFIELD PARK,NJ,07660,"http://maps.google.com/maps?q=234 MAIN ST.,+RIDGEFIELD PARK,+NJ+07660&hl=en"
RIDGEFIELD POLICE DEPARTMENT,RITE-AID,125 DANBURY RD,RIDGEFIELD,CT,06877,"http://maps.google.com/maps?q=125 DANBURY RD,+RIDGEFIELD,+CT+06877&hl=en"
RIDGEWOOD POLICE DEPARTMENT,RIDGEWOOD POLICE DEPARTMENT,131 N. MAPLE AVENUE,RIDGEWOOD,NJ,07450,"http://maps.google.com/maps?q=131 N. MAPLE AVENUE,+RIDGEWOOD,+NJ+07450&hl=en"
ROCKLAND COUNTY SHERIFFS OFFICE,ROCKLAND COUNTY SHERIFF OFFICE WALGREENS PARKING LOT,16 ROUTE 59,NYACK,NY,10960,"http://maps.google.com/maps?q=16 ROUTE 59,+NYACK,+NY+10960&hl=en"
ROCKY HILL POLICE DEPARTMENT,ROCKY HILL POLICE DEPARTMENT STEVE MORGAN,699 OLD MAIN STREET,ROCKY HILL,CT,06067,"http://maps.google.com/maps?q=699 OLD MAIN STREET,+ROCKY HILL,+CT+06067&hl=en"
SANDS POINT POLICE DEPARTMENT,SANDS POINT POLICE DEPARTMENT,26 TIBBITS LANE,PORT WASHINGTON,NY,11050,"http://maps.google.com/maps?q=26 TIBBITS LANE,+PORT WASHINGTON,+NY+11050&hl=en"
SCHODACK POLICE DEPARTMENT,POLICE DEPARTMENT,1797 COLUMBIA TURNPIKE,CASTLETON,NY,12033,"http://maps.google.com/maps?q=1797 COLUMBIA TURNPIKE,+CASTLETON,+NY+12033&hl=en"
SETAUKET FIRE HOUSE,SETAUKET FIRE HOUSE DAVE STONE,394 NICOLLS ROAD,EAST SETAUKET,NY,11733,"http://maps.google.com/maps?q=394 NICOLLS ROAD,+EAST SETAUKET,+NY+11733&hl=en"
SHERMAN RESIDENT TROOPER OFFICE,SHERMAN RESIDENT TROOPERS OFFICE,1 RT 39 N,SHERMAN,CT,06784,"http://maps.google.com/maps?q=1 RT 39 N,+SHERMAN,+CT+06784&hl=en"
SOUTH HACKENSACK POLICE DEPARTMENT,SOUTH HACKENSACK POLICE DEPARTMENT 201-440-0042,227 PHILLIPS AVE.,SOUTH HACKENSACK,NJ,07606,"http://maps.google.com/maps?q=227 PHILLIPS AVE.,+SOUTH HACKENSACK,+NJ+07606&hl=en"
SOUTH WINDSOR POLICE DEPARTMENT,SOUTH WINDSOR POLICE DEPARTMENT,151 SAND HILL RD,SOUTH WINDSOR,CT,06074,"http://maps.google.com/maps?q=151 SAND HILL RD,+SOUTH WINDSOR,+CT+06074&hl=en"
SOUTHAMPTON POLICE DEPARTMENT,SOUTHAMPTON FIRE/TOWN HALL PARKING LOT IF RAIN-INSIDE TOWN HALL,210 COLLEGE HIGHWAY,SOUTHAMPTON,MA,01073,"http://maps.google.com/maps?q=210 COLLEGE HIGHWAY,+SOUTHAMPTON,+MA+01073&hl=en"
SOUTHBRIDGE POLICE DEPARTMENT,SOUTHBRIDGE POLICE DEPARTMENT,1 MECHANIC STREET,SOUTHBRIDGE,MA,01550,"http://maps.google.com/maps?q=1 MECHANIC STREET,+SOUTHBRIDGE,+MA+01550&hl=en"
SOUTHBURY POLICE,"SOUTHBURY POLICE DEPARTMENT SGT. BRIAN VAN NESS, #138",421 MAIN STREET SOUTH,SOUTHBURY,CT,06488,"http://maps.google.com/maps?q=421 MAIN STREET SOUTH,+SOUTHBURY,+CT+06488&hl=en"
SOUTHHAMPTON TOWN POLICE DEPARTMENT,BRIDGEHAMPTON COMMONS,2044 MONTAUK HWY,BRIDGEHAMPTON,NY,11932,"http://maps.google.com/maps?q=2044 MONTAUK HWY,+BRIDGEHAMPTON,+NY+11932&hl=en"
SOUTHHAMPTON TOWN POLICE DEPARTMENT,FLANDERS COMMUNITY CENTER,655 FLANDERS ROAD,RIVERHEAD,NY,11901,"http://maps.google.com/maps?q=655 FLANDERS ROAD,+RIVERHEAD,+NY+11901&hl=en"
SOUTHHAMPTON TOWN POLICE DEPARTMENT,HAMPTON BAYS COMMUNITY CENTER,25 PONQUOGUE AVENUE,HAMPTON BAYS,NY,11946,"http://maps.google.com/maps?q=25 PONQUOGUE AVENUE,+HAMPTON BAYS,+NY+11946&hl=en"
SPRING VALLEY POLICE,SPRING VALLEY POLICE DEPARTMENT,200 NORTH MAIN STREET,SPRING VALLEY,NY,10977,"http://maps.google.com/maps?q=200 NORTH MAIN STREET,+SPRING VALLEY,+NY+10977&hl=en"
SPRING VALLEY POLICE,WALGREENS,208 E ROUTE 59,SPRING VALLEY,NY,10977,"http://maps.google.com/maps?q=208 E ROUTE 59,+SPRING VALLEY,+NY+10977&hl=en"
SPRINGFIELD POLICE DEPARTMENT,CENTRAL HIGH SCHOOL,1840 ROOSEVELT AVE,SPRINGFIELD,MA,01109,"http://maps.google.com/maps?q=1840 ROOSEVELT AVE,+SPRINGFIELD,+MA+01109&hl=en"
STAMFORD POLICE DEPARTMENT,STAMFORD POLICE DEPARTMENT,805 BEDFORD STREET,STAMFORD,CT,06901,"http://maps.google.com/maps?q=805 BEDFORD STREET,+STAMFORD,+CT+06901&hl=en"
STATE POLICE TROOP L,TROOP L RESIDENT TROOPERS OFFICE,452 BANTAM RD,LITCHFIELD,CT,06759,"http://maps.google.com/maps?q=452 BANTAM RD,+LITCHFIELD,+CT+06759&hl=en"
STONY POINT POLICE DEPARTMENT,WALGREENS,135 SOUTH LIBERTY DRIVE,STONY POINT,NY,10980,"http://maps.google.com/maps?q=135 SOUTH LIBERTY DRIVE,+STONY POINT,+NY+10980&hl=en"
SUNDERLAND POLICE DEPARTMENT,SUNDERLAND POLICE DEPARTMENT,105 RIVER ROAD,SUNDERLAND,MA,01375,"http://maps.google.com/maps?q=105 RIVER ROAD,+SUNDERLAND,+MA+01375&hl=en"
SUNY OLD WESTBURY,SUNY OLD WESTBURY CAMPUS POLICE STATION,223 STOREHILL ROAD,OLD WESTBURY,NY,11568,"http://maps.google.com/maps?q=223 STOREHILL ROAD,+OLD WESTBURY,+NY+11568&hl=en"
THOMASTON POLICE DEPARTMENT,THOMASTON POLICE DEPARTMENT,158 MAIN ST,THOMASTON,CT,06787,"http://maps.google.com/maps?q=158 MAIN ST,+THOMASTON,+CT+06787&hl=en"
TOWN OF COLCHESTER POLICE DEPT.,COLCHESTER POLICE DEPARTMENT,127 NORWICH AVE.,COLCHESTER,CT,06415,"http://maps.google.com/maps?q=127 NORWICH AVE.,+COLCHESTER,+CT+06415&hl=en"
"TOWN OF SOUTH HADLEY, POLICE DEPARTMENT","TOWN OF SOUTH HADLEY, POLICE DEPARTMENT CHIEF STEVE PARENTELA",41 BRIDGE STREET,SOUTH HADLEY,MA,01075,"http://maps.google.com/maps?q=41 BRIDGE STREET,+SOUTH HADLEY,+MA+01075&hl=en"
TROOP B,TROOP-B,463 ASHLEY FALLS RD,NORTH CANAAN,CT,06018,"http://maps.google.com/maps?q=463 ASHLEY FALLS RD,+NORTH CANAAN,+CT+06018&hl=en"
TROOP E,.TROOP E RESIDENT TROOPERS OFFICE,1111 COUNTRY CLUB RD,MIDDLETOWN,CT,06457,"http://maps.google.com/maps?q=1111 COUNTRY CLUB RD,+MIDDLETOWN,+CT+06457&hl=en"
TROOP E LISBON RESIDENT TROOPER,LISBON RESIDENT TROOPER'S OFFICE,7 NEWENT RD. LISBON,JEWETT CITY,CT,06351,"http://maps.google.com/maps?q=7 NEWENT RD. LISBON,+JEWETT CITY,+CT+06351&hl=en"
TROOP K,TROOP K RESIDENT TROOPERS OFFICE,15A OLD HARTFORD ROAD,COLCHESTER,CT,06415,"http://maps.google.com/maps?q=15A OLD HARTFORD ROAD,+COLCHESTER,+CT+06415&hl=en"
TROY POLICE DEPARTMENT,TROY POLICE DEPARTMENT,55 STATE STREET,TROY,NY,12180,"http://maps.google.com/maps?q=55 STATE STREET,+TROY,+NY+12180&hl=en"
TRUMBULL POLICE DEPARTMENT,MIDDLEBROOK SCHOOL,200 MIDDLEBROOKS AVE.,TRUMBULL,CT,06611,"http://maps.google.com/maps?q=200 MIDDLEBROOKS AVE.,+TRUMBULL,+CT+06611&hl=en"
UNION CITY POLICE DEPARTMENT,BELLA VISTA,522 22ND STREET,UNION CITY,NJ,07087,"http://maps.google.com/maps?q=522 22ND STREET,+UNION CITY,+NJ+07087&hl=en"
UPPER SADDLE RIVER POLICE DEPARTMENT,UPPER SADDLE RIVER POLICE DEPARTMENT 201-327-2700,368 W. SADDLE RIVER RD.,SADDLE RIVER,NJ,07458,"http://maps.google.com/maps?q=368 W. SADDLE RIVER RD.,+SADDLE RIVER,+NJ+07458&hl=en"
VERMONT STATE POLICE,VERMONT STATE POLICE - SHAFTSBURY BARRACKS,96 AIRPORT ROAD,SHAFTSBURY,VT,05262,"http://maps.google.com/maps?q=96 AIRPORT ROAD,+SHAFTSBURY,+VT+05262&hl=en"
VERNON POLICE DEPARTMENT,WALGREENS,188 UNION ST,VERNON ROCKVILLE,CT,06066,"http://maps.google.com/maps?q=188 UNION ST,+VERNON ROCKVILLE,+CT+06066&hl=en"
VILLAGE OF DOBBS FERRY POLICE DEPARTMENT,VILLAGE OF DOBBS FERRY,112 MAIN STREET,DOBBS FERRY,NY,10522,"http://maps.google.com/maps?q=112 MAIN STREET,+DOBBS FERRY,+NY+10522&hl=en"
VILLAGE OF HASTINGS ON HUDSON PD,HASTINGS POLICE DEPARTMENT,7 MAPLE AVENUE,HASTINGS ON HUDSON,NY,10706,"http://maps.google.com/maps?q=7 MAPLE AVENUE,+HASTINGS ON HUDSON,+NY+10706&hl=en"
VILLAGE OF HASTINGS ON HUDSON PD,VILLAGE OF HASTINGS ON HUDSON PD,44 MAIN STREET,HASTINGS ON HUDSON,NY,10706,"http://maps.google.com/maps?q=44 MAIN STREET,+HASTINGS ON HUDSON,+NY+10706&hl=en"
VILLAGE OF OSSINING POLICE DEPARTMENT,BIRDSALL FAGAN POLICE/COURT FACILITY COURT LOBBY,86-88 SPRING STREET,OSSINING,NY,10562,"http://maps.google.com/maps?q=86-88 SPRING STREET,+OSSINING,+NY+10562&hl=en"
VILLAGE OF RHINEBECK POLICE,NORTHERN DUTCHESS HOSPITAL,6511 SPRINGBROOK AVE,RHINEBECK,NY,12572,"http://maps.google.com/maps?q=6511 SPRINGBROOK AVE,+RHINEBECK,+NY+12572&hl=en"
WALLINGTON POLICE DEPARTMENT,WALLINGTON POLICE DEPT.,54 UNION BLVD.,WALLINGTON,NJ,07057,"http://maps.google.com/maps?q=54 UNION BLVD.,+WALLINGTON,+NJ+07057&hl=en"
WATERBURY POLICE DEPARTMENT,WATERBURY POLICE DEPARTMENT FRONT LOBBY SAFE DISPOSAL,255 EAST MAIN ST,WATERBURY,CT,06702,"http://maps.google.com/maps?q=255 EAST MAIN ST,+WATERBURY,+CT+06702&hl=en"
WATERVLIET POLICE DEPARTMENT,WATERVLIET POLICE DEPARTMENT,2-15TH STREET,WATERVLIET,NY,12189,"http://maps.google.com/maps?q=2-15TH STREET,+WATERVLIET,+NY+12189&hl=en"
WAYNE TWP. POLICE DEPARTMENT,WAYNE POLICE DEPARTMENT 973-633-3550,475 VALLEY ROAD,WAYNE,NJ,07470,"http://maps.google.com/maps?q=475 VALLEY ROAD,+WAYNE,+NJ+07470&hl=en"
WEST CALDWELL POLICE,WEST CALDWELL PD,21 CLINTON ROAD,WEST CALDWELL,NJ,07006,"http://maps.google.com/maps?q=21 CLINTON ROAD,+WEST CALDWELL,+NJ+07006&hl=en"
WEST HAMPTON BEACH POLICE DEPARTMENT,WEST HAMPTON BEACH POLICE DEPARTMENT,165 MILL ROAD,WESTHAMPTON BEACH,NY,11978,"http://maps.google.com/maps?q=165 MILL ROAD,+WESTHAMPTON BEACH,+NY+11978&hl=en"
WEST HARTFORD POLICE DEPARTMENT,WETS HARTFORD PUBLIC WORKS LT SAM FERRUCCI,17 BRIXTON ST,WEST HARTFORD,CT,06107,"http://maps.google.com/maps?q=17 BRIXTON ST,+WEST HARTFORD,+CT+06107&hl=en"
WEST SPRINGFIELD POLICE DEPARTMENT,WEST SPRINGFIELD POLICE DEPARTMENT,26 CENTRAL STREET,WEST SPRINGFIELD,MA,01089,"http://maps.google.com/maps?q=26 CENTRAL STREET,+WEST SPRINGFIELD,+MA+01089&hl=en"
WESTCHESTER COUNTY POLICE,NORTHERN WESTCHESTER HOSPITAL MAIN LOBBY,400 MAIN ST.,MOUNT KISCO,NY,10549,"http://maps.google.com/maps?q=400 MAIN ST.,+MOUNT KISCO,+NY+10549&hl=en"
WETHERSFIELD POLICE DEPARTMENT,WETHERSFIELD POLICE DEPARTMENT,250 SILAS DEANE HWY.,WETHERSFIELD,CT,06109,"http://maps.google.com/maps?q=250 SILAS DEANE HWY.,+WETHERSFIELD,+CT+06109&hl=en"
WILLIAMSBURG POLICE DEPT.,WILLIAMSBURG PHARMACY,49 MAIN ST,WILLIAMSBURG,MA,01096,"http://maps.google.com/maps?q=49 MAIN ST,+WILLIAMSBURG,+MA+01096&hl=en"
WILLIMANTIC POLICE DEPARTMENT,JILSON SQUARE,533 MAIN ST,WILLIMANTIC,CT,06226,"http://maps.google.com/maps?q=533 MAIN ST,+WILLIMANTIC,+CT+06226&hl=en"
WINDHAM COUNTY SHERIFF'S OFFICE,WILMINGTON POLICE DEPARTMENT,2 EAST MAIN STREET,WILMINGTON,VT,05363,"http://maps.google.com/maps?q=2 EAST MAIN STREET,+WILMINGTON,+VT+05363&hl=en"
WOLCOTT CT. POLICE DEPT.,WOLCOTT POLICE DEPT.,225 NICHOLS RD,WOLCOTT,CT,06716,"http://maps.google.com/maps?q=225 NICHOLS RD,+WOLCOTT,+CT+06716&hl=en"
WOODBURY RESIDENT TROOPERS OFFICE,WOODBURY RESIDENT TROOPER'S OFFICE,281 MAIN STREET SOUTH,WOODBURY,CT,06798,"http://maps.google.com/maps?q=281 MAIN STREET SOUTH,+WOODBURY,+CT+06798&hl=en"
WORTHINGTON POLICE DEPARTMENT,COMPACTOR,64 HUNTINGTON ROAD,WORTHINGTON,MA,01098,"http://maps.google.com/maps?q=64 HUNTINGTON ROAD,+WORTHINGTON,+MA+01098&hl=en"
