Participant,CollectionSite,Address,City,State,Zip,MapURL
AKRON POLICE DEPARTMENT,AKRON METRO REGIONAL TRANSIT CENTER VISITOR'S PARKING LOT,631 S BROADWAY STREET,AKRON,OH,44311,"http://maps.google.com/maps?q=631 S BROADWAY STREET,+AKRON,+OH+44311&hl=en"
ALLEGHENY COUNTY POLICE - DISTRICT II,ALLEGHENY COUNTY POLICE DISTRICT II,1801 BROWNSVILLE RD.,SOUTH PARK,PA,15129,"http://maps.google.com/maps?q=1801 BROWNSVILLE RD.,+SOUTH PARK,+PA+15129&hl=en"
ALLEGHENY COUNTY POLICE DEPARTMENT,NORTH PARK STATION,700 WEST RIDGE DRIVE,ALLISON PARK,PA,15101,"http://maps.google.com/maps?q=700 WEST RIDGE DRIVE,+ALLISON PARK,+PA+15101&hl=en"
ALLEGHENY COUNTY POLICE DEPARTMENT,SOUTH PARK STATION,1801 BROWNSVILLE ROAD,SOUTH PARK,PA,15129,"http://maps.google.com/maps?q=1801 BROWNSVILLE ROAD,+SOUTH PARK,+PA+15129&hl=en"
ALLEGHENY COUNTY POLICE DEPARTMENT,WILMERDING STATION,315 STATION ST,WILMERDING,PA,15148,"http://maps.google.com/maps?q=315 STATION ST,+WILMERDING,+PA+15148&hl=en"
ALLEGHENY COUNTY POLICE DISTRICT III,ALLEGHENY COUNTY PD,700 WEST RIDGE RD,ALLISON PARK,PA,15101,"http://maps.google.com/maps?q=700 WEST RIDGE RD,+ALLISON PARK,+PA+15101&hl=en"
ANDOVER POLICE DEPARTMENT,ANDOVER POLICE DEPARTMENT,134 MAPLE ST,ANDOVER,OH,44003,"http://maps.google.com/maps?q=134 MAPLE ST,+ANDOVER,+OH+44003&hl=en"
ASHTABULA COUNTY SHERIFF'S OFFICE,ASHTABULA COUNTY SHERIFF'S OFFICE,25 W. JEFFERSON ST.,JEFFERSON,OH,44047,"http://maps.google.com/maps?q=25 W. JEFFERSON ST.,+JEFFERSON,+OH+44047&hl=en"
ASPINWALL POLICE DEPARTMENT,ASPINWALL POLICE STATION,217 COMMERCIAL AVENUE,ASPINWALL,PA,15215,"http://maps.google.com/maps?q=217 COMMERCIAL AVENUE,+ASPINWALL,+PA+15215&hl=en"
ATHENS POLICE DEPARTMENT,ATHENS ELKS LODGE PARKING LOT,600 WEST UNION STREET,ATHENS,OH,45701,"http://maps.google.com/maps?q=600 WEST UNION STREET,+ATHENS,+OH+45701&hl=en"
AURORA POLICE DEPARTMENT,AURORA POLICE DEPARTMENT,100 S. AURORA RD,AURORA,OH,44202,"http://maps.google.com/maps?q=100 S. AURORA RD,+AURORA,+OH+44202&hl=en"
AUSTINTOWN POLICE DEPARTMENT,AUSTINTOWN TOWNSHIP POLICE DISTRICT OUTDOOR DRIVE-THRU COLLECTION,92 OHLTOWN RD.,YOUNGSTOWN,OH,44515,"http://maps.google.com/maps?q=92 OHLTOWN RD.,+YOUNGSTOWN,+OH+44515&hl=en"
BARBERTON POLICE DEPARTMENT,THE OLD FIRST MERIT BUILDING,480 WEST TUSCAWARAS,BARBERTON,OH,44203,"http://maps.google.com/maps?q=480 WEST TUSCAWARAS,+BARBERTON,+OH+44203&hl=en"
BARBOUR COUNTY SHERIFF'S OFFICE,MACES PHARMACY,204 CRIM AVENUE,BELINGTON,WV,26250,"http://maps.google.com/maps?q=204 CRIM AVENUE,+BELINGTON,+WV+26250&hl=en"
BARBOUR COUNTY SHERIFF'S OFFICE,MACES PHARMACY,440 S MAIN ST,PHILIPPI,WV,26416,"http://maps.google.com/maps?q=440 S MAIN ST,+PHILIPPI,+WV+26416&hl=en"
BATH TOWNSHIP POLICE DEPARTMENT,ACME MARKET JIM PEARL- MANAGER,3979 MEDINA RD.,AKRON,OH,44333,"http://maps.google.com/maps?q=3979 MEDINA RD.,+AKRON,+OH+44333&hl=en"
BAZETTA TOWNSHIP POLICE DEPARTMENT,BAZETTA TOWNSHIP POLICE DEPARTMENT,2671 MCCLEARY JACOBY RD.,CORTLAND,OH,44410,"http://maps.google.com/maps?q=2671 MCCLEARY JACOBY RD.,+CORTLAND,+OH+44410&hl=en"
BEAVER POLICE DEPARTMENT,BEAVER POLICE DEPARTMENT FRONT LOBBY,601 W SOUTH RANGE RD,NORTH LIMA,OH,44452,"http://maps.google.com/maps?q=601 W SOUTH RANGE RD,+NORTH LIMA,+OH+44452&hl=en"
BELLEVUE BOROUGH POLICE DEPARTMENT,BELLEVUE BOROUGH POLICE DEPARTMENT,537 BAYNE AVENUE,PITTSBURGH,PA,15202,"http://maps.google.com/maps?q=537 BAYNE AVENUE,+PITTSBURGH,+PA+15202&hl=en"
BELLEVUE POLICE DEPARTMENT,BELLEVUE POLICE DEPARTMENT,3000 SENECA INDUSTRIAL PKWY,BELLEVUE,OH,44811,"http://maps.google.com/maps?q=3000 SENECA INDUSTRIAL PKWY,+BELLEVUE,+OH+44811&hl=en"
BELMONT COUNTY SHERIFF'S OFFICE,OHIO STATE PATROL- ST. CLAIRSVILLE,51400 NATIONAL ROAD,SAINT CLAIRSVILLE,OH,43950,"http://maps.google.com/maps?q=51400 NATIONAL ROAD,+SAINT CLAIRSVILLE,+OH+43950&hl=en"
BELMONT COUNTY SHERIFF'S OFFICE,RIESBECK'S FOOD STORE,104 PLAZA DRIVE,SAINT CLAIRSVILLE,OH,43950,"http://maps.google.com/maps?q=104 PLAZA DRIVE,+SAINT CLAIRSVILLE,+OH+43950&hl=en"
BELMONT COUNTY SHERIFF'S OFFICE,RIESBECK'S FOOD STORE,4595 CENTRAL AVENUE,SHADYSIDE,OH,43947,"http://maps.google.com/maps?q=4595 CENTRAL AVENUE,+SHADYSIDE,+OH+43947&hl=en"
BELMONT COUNTY SHERIFF'S OFFICE,RIESBECK'S FOOD STORE,56130 NATIONAL ROAD,BRIDGEPORT,OH,43912,"http://maps.google.com/maps?q=56130 NATIONAL ROAD,+BRIDGEPORT,+OH+43912&hl=en"
BEREA POLICE DEPARTMENT,BEREA ELKS LODGE #1815,626 N. ROCKY RIVER DR.,BEREA,OH,44017,"http://maps.google.com/maps?q=626 N. ROCKY RIVER DR.,+BEREA,+OH+44017&hl=en"
BOARDMAN POLICE DEPARTMENT,BOARDMAN POLICE DEPARTMENT,8299 MARKET STREET,BOARDMAN,OH,44512,"http://maps.google.com/maps?q=8299 MARKET STREET,+BOARDMAN,+OH+44512&hl=en"
BOWLING GREEN POLICE DIVISION,BOWLING GREEN POLICE DIVISION,175 W. WOOSTER,BOWLING GREEN,OH,43402,"http://maps.google.com/maps?q=175 W. WOOSTER,+BOWLING GREEN,+OH+43402&hl=en"
BRAXTON CO. SHERRI'FS OFFICE,BRAXTON COUNTY COURT HOUSE IN FRONT OF COURTHOUSE,300 MAIN STREET,SUTTON,WV,26601,"http://maps.google.com/maps?q=300 MAIN STREET,+SUTTON,+WV+26601&hl=en"
BRECKSVILLE POLICE DEPARTMENT,BRECKSVILLE POLICE DEPARTMENT HORTICULTURAL DEPARTMENT BUILDING,6916 STADIUM DRIVE,BRECKSVILLE,OH,44141,"http://maps.google.com/maps?q=6916 STADIUM DRIVE,+BRECKSVILLE,+OH+44141&hl=en"
BRIDGEPORT POLICE DEPARTMENT,BRIDGEPORT POLICE DEPARTMENT DPTY CHIEF R. HARTLEY,515 WEST MAIN STREET,BRIDGEPORT,WV,26330,"http://maps.google.com/maps?q=515 WEST MAIN STREET,+BRIDGEPORT,+WV+26330&hl=en"
BRIMFIELD POLICE DEPARTMENT,BRIMFIELD POLICE DEPARTMENT,1287 TALLMADGE RD,KENT,OH,44240,"http://maps.google.com/maps?q=1287 TALLMADGE RD,+KENT,+OH+44240&hl=en"
BROOKE COUNTY SHERIFF'S OFFICE,BROOKE COUNTY COURTHOUSE GREEN ROOM,632 MAIN STREET,WELLSBURG,WV,26070,"http://maps.google.com/maps?q=632 MAIN STREET,+WELLSBURG,+WV+26070&hl=en"
CALHOUN COUNTY SHERIFF,CALHOUN COUNTY SHERIFF,363 MAIN STSTE 204,GRANTSVILLE,WV,26147,"http://maps.google.com/maps?q=363 MAIN ST,+GRANTSVILLE,+WV+26147&hl=en"
CAMERON POLICE DEPARTMENT,CAMERON POLICE DEPARTMENT,44 MAIN STREET,CAMERON,WV,26033,"http://maps.google.com/maps?q=44 MAIN STREET,+CAMERON,+WV+26033&hl=en"
CANFIELD POLICE DEPARTMENT,CANFIELD POLICE DEPARTMENT JOSH WELLS,104 LISBON ST.,CANFIELD,OH,44406,"http://maps.google.com/maps?q=104 LISBON ST.,+CANFIELD,+OH+44406&hl=en"
CANONSBURG POLICE DEPARTMENT,SHOP AND SAVE GROCERY STORE,617 WEST PIKE STREET,CANONSBURG,PA,15317,"http://maps.google.com/maps?q=617 WEST PIKE STREET,+CANONSBURG,+PA+15317&hl=en"
CARLOW UNIVERSITY POLICE,CARLOW UNIVERSITY,3333 FIFTH AVE,PITTSBURGH,PA,15213,"http://maps.google.com/maps?q=3333 FIFTH AVE,+PITTSBURGH,+PA+15213&hl=en"
CARNEGIE MELLON UNIVERSITY POLICE DEPT,CMU POLICE STATION (LOBBY),300 S CRAIG ST,PITTSBURGH,PA,15213,"http://maps.google.com/maps?q=300 S CRAIG ST,+PITTSBURGH,+PA+15213&hl=en"
CARROLL TOWNSHIP POLICE DEPARTMENT,"MONONGAHELA VALLEY HOSPITAL, INC.",1163 COUNTRY CLUB ROAD,MONONGAHELA,PA,15063,"http://maps.google.com/maps?q=1163 COUNTRY CLUB ROAD,+MONONGAHELA,+PA+15063&hl=en"
CHARTIERS TOWNSHIP POLICE DEPARTMENT,CHARTIERS TOWNSHIP POLICE DEPARTMENT,2 BUCCANEER DRIVE,HOUSTON,PA,15342,"http://maps.google.com/maps?q=2 BUCCANEER DRIVE,+HOUSTON,+PA+15342&hl=en"
CHAUTAUQUA COUNTY SHERIFF'S DEPARTMENT,ALSTAR HQS. NORTH,738 MONROE STREET,DUNKIRK,NY,14048,"http://maps.google.com/maps?q=738 MONROE STREET,+DUNKIRK,+NY+14048&hl=en"
CHAUTAUQUA COUNTY SHERIFF'S DEPARTMENT,CHAUTAUQUE MALL,318 EAST FAIRMOUNT AVE,LAKEWOOD,NY,14750,"http://maps.google.com/maps?q=318 EAST FAIRMOUNT AVE,+LAKEWOOD,+NY+14750&hl=en"
CHAUTAUQUA COUNTY SHERIFF'S DEPARTMENT,SOUTHSIDE PHARMACY,766 FOOTE AVE.,JAMESTOWN,NY,14701,"http://maps.google.com/maps?q=766 FOOTE AVE.,+JAMESTOWN,+NY+14701&hl=en"
CHAUTAUQUA COUNTY SHERIFF'S DEPARTMENT,WESTFIELD FAMILY PHYSICIANS,138 E. MAIN ST.,WESTFIELD,NY,14787,"http://maps.google.com/maps?q=138 E. MAIN ST.,+WESTFIELD,+NY+14787&hl=en"
CHESTER POLICE DEPT,CHESTER POLICE DEPT,600 INDIANA AVE,CHESTER,WV,26034,"http://maps.google.com/maps?q=600 INDIANA AVE,+CHESTER,+WV+26034&hl=en"
CITY OF CLAIRTON POLICE DEPARTMENT,RITE AID DRUG STORE,623 ST. CLAIR AVE.,CLAIRTON,PA,15025,"http://maps.google.com/maps?q=623 ST. CLAIR AVE.,+CLAIRTON,+PA+15025&hl=en"
CITY OF ERIE BUREAU OF POLICE,CITY OF ERIE MUNICIPAL BUILDING,626 STATE STREET,ERIE,PA,16501,"http://maps.google.com/maps?q=626 STATE STREET,+ERIE,+PA+16501&hl=en"
CITY OF WARREN POLICE DEPARTMENT,WARREN POLICE DEPARTMENT,318 W. THIRD AVENUE,WARREN,PA,16365,"http://maps.google.com/maps?q=318 W. THIRD AVENUE,+WARREN,+PA+16365&hl=en"
CITY OF WASHINGTON POLICE DEPT,CITY OF WASHINGTON POLICE DEPT,56 WEST STRAWBERRY AVE,WASHINGTON,PA,15301,"http://maps.google.com/maps?q=56 WEST STRAWBERRY AVE,+WASHINGTON,+PA+15301&hl=en"
CLARKSBURG POLICE DEPARTMENT,CLARKSBURG POLICE DEPARTMENT,222 WEST MAIN STREETREAR LOT,CLARKSBURG,WV,26301,"http://maps.google.com/maps?q=222 WEST MAIN STREET,+CLARKSBURG,+WV+26301&hl=en"
CLAY COUNTY SHERIFF DEPT.,CLAY COUNTY COURT HOUSE FRONT DOOR/COURTYARD SQUARE,246 MAIN STREET,CLAY,WV,25043,"http://maps.google.com/maps?q=246 MAIN STREET,+CLAY,+WV+25043&hl=en"
CLEVELAND POLICE DEPARTMENT,3RD DISTRICT CLEVELAND POLICE DEPARTMENT,4501 CHESTER AVE,CLEVELAND,OH,44103,"http://maps.google.com/maps?q=4501 CHESTER AVE,+CLEVELAND,+OH+44103&hl=en"
CLEVELAND POLICE DEPARTMENT,CLEVELAND POLICE DEPARTMENT DISTRICT 1,3895 W 130TH STREET,CLEVELAND,OH,44111,"http://maps.google.com/maps?q=3895 W 130TH STREET,+CLEVELAND,+OH+44111&hl=en"
CLEVELAND POLICE DEPARTMENT,CLEVELAND POLICE DEPARTMENT DISTRICT 2,3481 FULTON ROAD,CLEVELAND,OH,44109,"http://maps.google.com/maps?q=3481 FULTON ROAD,+CLEVELAND,+OH+44109&hl=en"
CLEVELAND POLICE DEPARTMENT,CLEVELAND POLICE DEPARTMENT DISTRICT 4,9333 KINSMAN AVENUE,CLEVELAND,OH,44104,"http://maps.google.com/maps?q=9333 KINSMAN AVENUE,+CLEVELAND,+OH+44104&hl=en"
CLEVELAND POLICE DEPARTMENT,CLEVELAND POLICE DEPARTMENT DISTRICT 5,881 E 152ND STREET,CLEVELAND,OH,44114,"http://maps.google.com/maps?q=881 E 152ND STREET,+CLEVELAND,+OH+44114&hl=en"
CLYDE POLICE DEPARTMENT,CLYDE POLICE DEPARTMENT,222 N. MAIN ST.,CLYDE,OH,43410,"http://maps.google.com/maps?q=222 N. MAIN ST.,+CLYDE,+OH+43410&hl=en"
CONNEAUT POLICE DEPARTMENT,CITY OF CONNEAUT POLICE DEPT UNIVERSITY HOSPITAL CONNEAUT MEDICAL CENTER,158 W. MAIN ST.,CONNEAUT,OH,44030,"http://maps.google.com/maps?q=158 W. MAIN ST.,+CONNEAUT,+OH+44030&hl=en"
COPLEY POLICE DEPARTMENT,COPLEY POLICE DEPARTMENT,1280 SUNSET DRIVE,COPLEY,OH,44321,"http://maps.google.com/maps?q=1280 SUNSET DRIVE,+COPLEY,+OH+44321&hl=en"
CRANBERRY TWP POLICE DEPT,CRANBERRY TWP POLICE DEPT,2525 ROCHESTER RD,CRANBERRY TOWNSHIP,PA,16066,"http://maps.google.com/maps?q=2525 ROCHESTER RD,+CRANBERRY TOWNSHIP,+PA+16066&hl=en"
CRESCENT TOWNSHIP POLICE,CRESCENT TOWNSHIP POLICE,225 SPRING RUN RD.,CRESCENT,PA,15046,"http://maps.google.com/maps?q=225 SPRING RUN RD.,+CRESCENT,+PA+15046&hl=en"
CUYAHOGA FALLS POLICE DEPARTMENT,CITY OF CUYAHOGA FALLS CITY HALL,2310 SECOND ST,CUYAHOGA FALLS,OH,44221,"http://maps.google.com/maps?q=2310 SECOND ST,+CUYAHOGA FALLS,+OH+44221&hl=en"
DODDRIDGE COUNTY SHERIFF'S DEPARTMENT,DODDRIDGE CTY SD,89 COURT ST,WEST UNION,WV,26456,"http://maps.google.com/maps?q=89 COURT ST,+WEST UNION,+WV+26456&hl=en"
DORMONT POLICE DEPARTMENT,CVS PHARMACY,3075 WEST LIBERTY AVENUE,PITTSBURGH,PA,15216,"http://maps.google.com/maps?q=3075 WEST LIBERTY AVENUE,+PITTSBURGH,+PA+15216&hl=en"
DUQUESNE UNIVERSITY POLICE DEPT,BAYER SCHOOL,MCNAULTY DR,PITTSBURGH,PA,15282,"http://maps.google.com/maps?q=MCNAULTY DR,+PITTSBURGH,+PA+15282&hl=en"
ELLWOOD CITY POLICE DEPARTMENT,ELLWOOD CITY MUNICIPAL BUILDING,525 LAWRENCE AVENUE,ELLWOOD CITY,PA,16117,"http://maps.google.com/maps?q=525 LAWRENCE AVENUE,+ELLWOOD CITY,+PA+16117&hl=en"
FAIRMONT POLICE DEPARTMENT,FAIRMONT POLICE DEPARTMENT PUBLIC SAFETY BUILDING,500 QUINCY STREET,FAIRMONT,WV,26554,"http://maps.google.com/maps?q=500 QUINCY STREET,+FAIRMONT,+WV+26554&hl=en"
FINDLAY TOWNSHIP POLICE DEPARTMENT,FINDLAY TOWNSHIP POLICE DEPARTMENT,1271 ROUTE 30,CLINTON,PA,15026,"http://maps.google.com/maps?q=1271 ROUTE 30,+CLINTON,+PA+15026&hl=en"
FOLLANSBEE POLICE DEPARTMENT,FOLLANSBEE POLICE DEPARTMENT PL,872 MAIN STREET,FOLLANSBEE,WV,26037,"http://maps.google.com/maps?q=872 MAIN STREET,+FOLLANSBEE,+WV+26037&hl=en"
FREMONT POLICE DEPARTMENT,FREMONT POLICE DEPARTMENT,1141 W. STATE ST.,FREMONT,OH,43420,"http://maps.google.com/maps?q=1141 W. STATE ST.,+FREMONT,+OH+43420&hl=en"
GATES MILLS POLICE DEPARTMENT,GATES MILLS POLICE DEPARTMENT,1470 CHAGRIN RIVER ROAD,GATES MILLS,OH,44040,"http://maps.google.com/maps?q=1470 CHAGRIN RIVER ROAD,+GATES MILLS,+OH+44040&hl=en"
GEAUGA COUNTY SHERIFF'S OFFICE,CHARDON POLICE DEPARTMENT,111 WATER STREET,CHARDON,OH,44024,"http://maps.google.com/maps?q=111 WATER STREET,+CHARDON,+OH+44024&hl=en"
GEAUGA COUNTY SHERIFF'S OFFICE,CHESTERLAND POLICE DEPARTMENT,12696 OPALOCKA DRIVE,CHESTERLAND,OH,44026,"http://maps.google.com/maps?q=12696 OPALOCKA DRIVE,+CHESTERLAND,+OH+44026&hl=en"
GEAUGA COUNTY SHERIFF'S OFFICE,MIDDLEFILED POLICE DEPARTMENT,14860 N. STATE AVE,MIDDLEFIELD,OH,44062,"http://maps.google.com/maps?q=14860 N. STATE AVE,+MIDDLEFIELD,+OH+44062&hl=en"
GEAUGA COUNTY SHERIFF'S OFFICE,RUSSELL POLICE DEPARTMENT,14820 CHILLICOTHE ROAD,NOVELTY,OH,44072,"http://maps.google.com/maps?q=14820 CHILLICOTHE ROAD,+NOVELTY,+OH+44072&hl=en"
GRAFTON POLICE DEPARTMENT,GRAFTON POLICE DEPARTMENT,1 WEST MAIN ST,GRAFTON,WV,26354,"http://maps.google.com/maps?q=1 WEST MAIN ST,+GRAFTON,+WV+26354&hl=en"
GREEN TREE BOROUGH POLICE DEPARTMENT,GREEN TREE BOROUGH BUILDING,10 WEST MANILLA AVE.,PITTSBURGH,PA,15220,"http://maps.google.com/maps?q=10 WEST MANILLA AVE.,+PITTSBURGH,+PA+15220&hl=en"
GUERNSEY COUNTY SHERIFF'S OFFICE,RIESBECK'S FOOD MARKET,55 S 23RD STREET,CAMBRIDGE,OH,43725,"http://maps.google.com/maps?q=55 S 23RD STREET,+CAMBRIDGE,+OH+43725&hl=en"
HANCOCK COUNTY SHERIFF'S OFFICE,HANCOCK COUNTY SHERIFF'S OFFICE,102 NORTH COURT STREET,NEW CUMBERLAND,WV,26047,"http://maps.google.com/maps?q=102 NORTH COURT STREET,+NEW CUMBERLAND,+WV+26047&hl=en"
HEIDELBERG POLICE DEPARTMENT,WALGREENS,2055 WASHINGTON PIKE,CARNEGIE,PA,15106,"http://maps.google.com/maps?q=2055 WASHINGTON PIKE,+CARNEGIE,+PA+15106&hl=en"
HUBBARD CITY POLICE DEPARTMENT,HUBBARD CITY POLICE DEPARTMENT,233 SCHOOL STREET,HUBBARD,OH,44425,"http://maps.google.com/maps?q=233 SCHOOL STREET,+HUBBARD,+OH+44425&hl=en"
HUDSON CITY POLICE DEPARTMENT,HUDSON ACME PLAZA INSIDE THE ACME GROCERY STORE,116 W. STREETSBORO ST.,HUDSON,OH,44236,"http://maps.google.com/maps?q=116 W. STREETSBORO ST.,+HUDSON,+OH+44236&hl=en"
JACKSON COUNTY SHERIFF'S DEPARTMENT,RAVENSWOOD VOLUNTEER FIRE DEPT,333 VIRGINIA STREET,RAVENSWOOD,WV,26164,"http://maps.google.com/maps?q=333 VIRGINIA STREET,+RAVENSWOOD,+WV+26164&hl=en"
JACKSON COUNTY SHERIFF'S DEPARTMENT,RIPLEY CITY HALL,203 SOUTH CHURCH ST,RIPLEY,WV,25271,"http://maps.google.com/maps?q=203 SOUTH CHURCH ST,+RIPLEY,+WV+25271&hl=en"
KENT POLICE DEPARTMENT,KENT POLICE DEPARTMENT NEW ADDRESS,301 S. DEPEYSTER ST.,KENT,OH,44240,"http://maps.google.com/maps?q=301 S. DEPEYSTER ST.,+KENT,+OH+44240&hl=en"
KNOX COUNTY SHERIFF'S OFFICE,DANVILLE POLICE DEPARTMENT,512 MARKET ST.,DANVILLE,OH,43014,"http://maps.google.com/maps?q=512 MARKET ST.,+DANVILLE,+OH+43014&hl=en"
KNOX COUNTY SHERIFF'S OFFICE,FOSTER'S HEALTHMART PHARMACY OUTSIDE OF BUILDING,4584 COLUMBUS RD,CENTERBURG,OH,43011,"http://maps.google.com/maps?q=4584 COLUMBUS RD,+CENTERBURG,+OH+43011&hl=en"
KNOX COUNTY SHERIFF'S OFFICE,FREDERICKTOWN POLICE DEPARTMENT,182 S. MAIN ST.,FREDERICKTOWN,OH,43019,"http://maps.google.com/maps?q=182 S. MAIN ST.,+FREDERICKTOWN,+OH+43019&hl=en"
LAKE COUNTY NARCOTICS AGENCY,KIRTLAND HILLS POLICE DEPARTMENT,8026 CHILLICOTHE ROAD,MENTOR,OH,44060,"http://maps.google.com/maps?q=8026 CHILLICOTHE ROAD,+MENTOR,+OH+44060&hl=en"
LAKE COUNTY NARCOTICS AGENCY,LAKE COUNTY CRIME LABORATORY,235 FAIRGROUNDS ROAD,PAINESVILLE,OH,44077,"http://maps.google.com/maps?q=235 FAIRGROUNDS ROAD,+PAINESVILLE,+OH+44077&hl=en"
LAKE COUNTY NARCOTICS AGENCY,LAKE WEST HOSPITAL,36000 EUCLID AVENUE,WILLOUGHBY,OH,44094,"http://maps.google.com/maps?q=36000 EUCLID AVENUE,+WILLOUGHBY,+OH+44094&hl=en"
LIBERTY TOWNSHIP POLICE DEPARTMENT,LIBERTY TOWNSHIP GOVERNMENT BUILDING,1315 CHURCHILL-HUBBARD ROAD,YOUNGSTOWN,OH,44505,"http://maps.google.com/maps?q=1315 CHURCHILL-HUBBARD ROAD,+YOUNGSTOWN,+OH+44505&hl=en"
LORAIN COUNTY SHERIFF'S OFFICE,AMHERST POLICE DEPARTMENT,911 N LAKE STREET,AMHERST,OH,44001,"http://maps.google.com/maps?q=911 N LAKE STREET,+AMHERST,+OH+44001&hl=en"
LORAIN COUNTY SHERIFF'S OFFICE,AVON LAKE POLICE DEPARTMENT,32855 WALKER ROAD,AVON LAKE,OH,44012,"http://maps.google.com/maps?q=32855 WALKER ROAD,+AVON LAKE,+OH+44012&hl=en"
LORAIN COUNTY SHERIFF'S OFFICE,AVON POLICE DEPARTMENT,36145 DETROIT ROAD,AVON,OH,44011,"http://maps.google.com/maps?q=36145 DETROIT ROAD,+AVON,+OH+44011&hl=en"
LORAIN COUNTY SHERIFF'S OFFICE,COLUMBIA TOWNSHIP FIRE STATION,25540 ROYALTON ROAD,COLUMBIA STATION,OH,44028,"http://maps.google.com/maps?q=25540 ROYALTON ROAD,+COLUMBIA STATION,+OH+44028&hl=en"
LORAIN COUNTY SHERIFF'S OFFICE,ELYRIA POLICE DEPARTMENT,18 WEST AVENUE,ELYRIA,OH,44035,"http://maps.google.com/maps?q=18 WEST AVENUE,+ELYRIA,+OH+44035&hl=en"
LORAIN COUNTY SHERIFF'S OFFICE,GRAFTON POLICE DEPARTMENT,1009 CHESTNUT STREET,GRAFTON,OH,44044,"http://maps.google.com/maps?q=1009 CHESTNUT STREET,+GRAFTON,+OH+44044&hl=en"
LORAIN COUNTY SHERIFF'S OFFICE,KIPTON VILLAGE HALL,299 STATE STREET,KIPTON,OH,44049,"http://maps.google.com/maps?q=299 STATE STREET,+KIPTON,+OH+44049&hl=en"
LORAIN COUNTY SHERIFF'S OFFICE,LAGRANGE POLICE DEPARTMENT,355 S CENTER STREET,LAGRANGE,OH,44050,"http://maps.google.com/maps?q=355 S CENTER STREET,+LAGRANGE,+OH+44050&hl=en"
LORAIN COUNTY SHERIFF'S OFFICE,LORAIN COUNTY SHERIFF'S OFFICE,9896 MURRAY RIDGE ROAD,ELYRIA,OH,44035,"http://maps.google.com/maps?q=9896 MURRAY RIDGE ROAD,+ELYRIA,+OH+44035&hl=en"
LORAIN COUNTY SHERIFF'S OFFICE,LORAIN POLICE DEPARTMENT,100 WEST ERIE AVENUE,LORAIN,OH,44052,"http://maps.google.com/maps?q=100 WEST ERIE AVENUE,+LORAIN,+OH+44052&hl=en"
LORAIN COUNTY SHERIFF'S OFFICE,NORTH RIDGEVILLE POLICE DEPARTMENT,7307 AVON-BELDON ROAD,NORTH RIDGEVILLE,OH,44039,"http://maps.google.com/maps?q=7307 AVON-BELDON ROAD,+NORTH RIDGEVILLE,+OH+44039&hl=en"
LORAIN COUNTY SHERIFF'S OFFICE,OBERLIN POLICE DEPARTMENT,85 S MAIN STREET,OBERLIN,OH,44074,"http://maps.google.com/maps?q=85 S MAIN STREET,+OBERLIN,+OH+44074&hl=en"
LORAIN COUNTY SHERIFF'S OFFICE,SHEFFIELD LAKE POLICE DEPARTMENT,609 HARRIS ROAD,SHEFFIELD LAKE,OH,44054,"http://maps.google.com/maps?q=609 HARRIS ROAD,+SHEFFIELD LAKE,+OH+44054&hl=en"
LORAIN COUNTY SHERIFF'S OFFICE,SHEFFIELD VILLAGE POLICE DEPARTMENT,4340 COLORADO AVENUE,SHEFFIELD LAKE,OH,44054,"http://maps.google.com/maps?q=4340 COLORADO AVENUE,+SHEFFIELD LAKE,+OH+44054&hl=en"
LORAIN COUNTY SHERIFF'S OFFICE,VERMILION POLICE DEPARTMENT,5791 LIBERTY AVENUE,VERMILION,OH,44089,"http://maps.google.com/maps?q=5791 LIBERTY AVENUE,+VERMILION,+OH+44089&hl=en"
LORAIN COUNTY SHERIFF'S OFFICE,WELLINGTON POLICE,117 WILLARD MEMORIAL SQ,WELLINGTON,OH,44090,"http://maps.google.com/maps?q=117 WILLARD MEMORIAL SQ,+WELLINGTON,+OH+44090&hl=en"
LUCAS COUNTY SHERIFF'S OFFICE,KROGER,8730 WATERVILLE SWANTON ROAD,WATERVILLE,OH,43566,"http://maps.google.com/maps?q=8730 WATERVILLE SWANTON ROAD,+WATERVILLE,+OH+43566&hl=en"
LUCAS COUNTY SHERIFF'S OFFICE,LUCAS COUNTY HEALTH DEPARTMENT,635 NORTH ERIE STREET,TOLEDO,OH,43604,"http://maps.google.com/maps?q=635 NORTH ERIE STREET,+TOLEDO,+OH+43604&hl=en"
LUCAS COUNTY SHERIFF'S OFFICE,WASHINGTON TWP FIRE DEPARTMENT,2469 SHORELAND DRIVE,TOLEDO,OH,43611,"http://maps.google.com/maps?q=2469 SHORELAND DRIVE,+TOLEDO,+OH+43611&hl=en"
MARINE CITY POLICE DEPARTMENT,MARINE CITY POLICE DEPARTMENT,375 S PARKER,MARINE CITY,MI,48039,"http://maps.google.com/maps?q=375 S PARKER,+MARINE CITY,+MI+48039&hl=en"
MARION COUNTY SHERIFF'S OFFICE/MARION POLICE DEPT,OHIO HEALTH MARION MEDICAL CAMPUS,1050 DELAWARE AVENUE,MARION,OH,43302,"http://maps.google.com/maps?q=1050 DELAWARE AVENUE,+MARION,+OH+43302&hl=en"
MARYLAND STATE POLICE,MSP MCHENRY BARRACK POC: JAMES PRITTS,67 FRIENDSVILLE ROAD,MC HENRY,MD,21541,"http://maps.google.com/maps?q=67 FRIENDSVILLE ROAD,+MC HENRY,+MD+21541&hl=en"
MAUMEE POLICE DIVISION,MAUMEE POLICE DIVISION,109 EAST DUDLEY ST,MAUMEE,OH,43537,"http://maps.google.com/maps?q=109 EAST DUDLEY ST,+MAUMEE,+OH+43537&hl=en"
MAUMEE POLICE DIVISION,ST LUKES HOSPITAL ENTRANCE YELLOW 3,5901 MONCLOVA,MAUMEE,OH,43537,"http://maps.google.com/maps?q=5901 MONCLOVA,+MAUMEE,+OH+43537&hl=en"
MCDONALD POLICE DEPARTMENT,BURGETTSTOWN BOROUGH BUILDING,1509 MAIN STREET,BURGETTSTOWN,PA,15021,"http://maps.google.com/maps?q=1509 MAIN STREET,+BURGETTSTOWN,+PA+15021&hl=en"
MCDONALD POLICE DEPARTMENT,MCDONALD POLICE DEPARTMENT,151 SCHOOL STREET,MC DONALD,PA,15057,"http://maps.google.com/maps?q=151 SCHOOL STREET,+MC DONALD,+PA+15057&hl=en"
MEDINA COUNTY DRUG TASK FORCE,MEDINA TOWNSHIP POLICE DEPARTMENT,4877 FENN ROAD,MEDINA,OH,44256,"http://maps.google.com/maps?q=4877 FENN ROAD,+MEDINA,+OH+44256&hl=en"
MEDINA COUNTY DRUG TASK FORCE,WADSWORTH POLICE DEPARTMENT,120 MAPLE STREET,WADSWORTH,OH,44281,"http://maps.google.com/maps?q=120 MAPLE STREET,+WADSWORTH,+OH+44281&hl=en"
MEDWAY DRUG ENFORCEMENT AGENCY,WOOSTER POLICE DEPARTMENT -SAFETY SERVICE CENTER,3333 BURBANK ROAD,WOOSTER,OH,44691,"http://maps.google.com/maps?q=3333 BURBANK ROAD,+WOOSTER,+OH+44691&hl=en"
MENTOR ON THE LAKE POLICE DEPARTMENT,MENTOR ON THE LAKE POLICE DEPARTMENT,5860 ANDREWS ROAD,MENTOR,OH,44060,"http://maps.google.com/maps?q=5860 ANDREWS ROAD,+MENTOR,+OH+44060&hl=en"
METRICH DRUG TASK FORCE,ASHLAND COUNTY SHERIFF'S OFFICE,1205 E. MAIN ST.,ASHLAND,OH,44805,"http://maps.google.com/maps?q=1205 E. MAIN ST.,+ASHLAND,+OH+44805&hl=en"
METRICH DRUG TASK FORCE,BELLVILLE POLICE DEPARTMENT,320 BELL ST.,BELLVILLE,OH,44813,"http://maps.google.com/maps?q=320 BELL ST.,+BELLVILLE,+OH+44813&hl=en"
METRICH DRUG TASK FORCE,CAREY POLICE DEPARTMENT,127 N. VANCE ST.,CAREY,OH,43316,"http://maps.google.com/maps?q=127 N. VANCE ST.,+CAREY,+OH+43316&hl=en"
METRICH DRUG TASK FORCE,CRAWFORD COUNTY SHERIFF'S OFFICE,3613 STETZER RD.,BUCYRUS,OH,44820,"http://maps.google.com/maps?q=3613 STETZER RD.,+BUCYRUS,+OH+44820&hl=en"
METRICH DRUG TASK FORCE,FOSTORIA POLICE DEPARTMENT,213 S. MAIN ST.,FOSTORIA,OH,44830,"http://maps.google.com/maps?q=213 S. MAIN ST.,+FOSTORIA,+OH+44830&hl=en"
METRICH DRUG TASK FORCE,GALION POLICE DEPARTMENT,212 HARDING WAY EAST,GALION,OH,44833,"http://maps.google.com/maps?q=212 HARDING WAY EAST,+GALION,+OH+44833&hl=en"
METRICH DRUG TASK FORCE,GREENWICH POLICE DEPT.,3305 GREENWICH ANGLING RD,GREENWICH,OH,44837,"http://maps.google.com/maps?q=3305 GREENWICH ANGLING RD,+GREENWICH,+OH+44837&hl=en"
METRICH DRUG TASK FORCE,LEXINGTON POLICE DEPARTMENT,44 W. MAIN ST.,LEXINGTON,OH,44904,"http://maps.google.com/maps?q=44 W. MAIN ST.,+LEXINGTON,+OH+44904&hl=en"
METRICH DRUG TASK FORCE,MANSFIELD POLICE DEPARTMENT,1125 NATIONAL PARKWAY,MANSFIELD,OH,44906,"http://maps.google.com/maps?q=1125 NATIONAL PARKWAY,+MANSFIELD,+OH+44906&hl=en"
METRICH DRUG TASK FORCE,MARION COUNTY SHERIFF'S OFFICE MARION POLICE DEPARTMENT,1050 DELAWARE AVE.,MARION,OH,43302,"http://maps.google.com/maps?q=1050 DELAWARE AVE.,+MARION,+OH+43302&hl=en"
METRICH DRUG TASK FORCE,MONROEVILLE POLICE DEPARTMENT,9 MONROE STREET,MONROEVILLE,OH,44847,"http://maps.google.com/maps?q=9 MONROE STREET,+MONROEVILLE,+OH+44847&hl=en"
METRICH DRUG TASK FORCE,MORROW CO. SHERIFF'S OFFICE KROGER PARKING LOT,555 WEST MARION RD.,MOUNT GILEAD,OH,43338,"http://maps.google.com/maps?q=555 WEST MARION RD.,+MOUNT GILEAD,+OH+43338&hl=en"
METRICH DRUG TASK FORCE,MOUNT VERNON PD,11660 UPPER GILCHREST RD,MOUNT VERNON,OH,43050,"http://maps.google.com/maps?q=11660 UPPER GILCHREST RD,+MOUNT VERNON,+OH+43050&hl=en"
METRICH DRUG TASK FORCE,NORWALK POLICE DEPARTMENT,37 NORTH LINWOOD AVE,NORWALK,OH,44857,"http://maps.google.com/maps?q=37 NORTH LINWOOD AVE,+NORWALK,+OH+44857&hl=en"
METRICH DRUG TASK FORCE,RICHLAND CO. SHERIFF'S OFFICE,597 PARK AVE. EAST,MANSFIELD,OH,44905,"http://maps.google.com/maps?q=597 PARK AVE. EAST,+MANSFIELD,+OH+44905&hl=en"
METRICH DRUG TASK FORCE,SENECA CO. SHERIFF'S OFFICE,3040 S. ST. RTE. 100,TIFFIN,OH,44883,"http://maps.google.com/maps?q=3040 S. ST. RTE. 100,+TIFFIN,+OH+44883&hl=en"
METRICH DRUG TASK FORCE,SHELBY POLICE DEPARTMENT,31 MACK AVE,SHELBY,OH,44875,"http://maps.google.com/maps?q=31 MACK AVE,+SHELBY,+OH+44875&hl=en"
METRICH DRUG TASK FORCE,TIFFIN POLICE DEPARTMENT,51 E. MARKET ST. #4TIFFIN,TIFFIN,OH,44883,"http://maps.google.com/maps?q=51 E. MARKET ST. #4,+TIFFIN,+OH+44883&hl=en"
METRICH DRUG TASK FORCE,UPPER SANDUSKY POLICE DEPT,120 N. 7TH STREET,UPPER SANDUSKY,OH,43351,"http://maps.google.com/maps?q=120 N. 7TH STREET,+UPPER SANDUSKY,+OH+43351&hl=en"
METRICH DRUG TASK FORCE,WILLARD POLICE DEPARTMENT,425 FORT BALL RD.,WILLARD,OH,44888,"http://maps.google.com/maps?q=425 FORT BALL RD.,+WILLARD,+OH+44888&hl=en"
METRICH DRUG TASK FORCE,WYANDOT COUNTY SHERIFF'S OFFICE,125 E.WYANDOT AVE,UPPER SANDUSKY,OH,43351,"http://maps.google.com/maps?q=125 E.WYANDOT AVE,+UPPER SANDUSKY,+OH+43351&hl=en"
METROHEALTH POLICE DEPARTMENT,METROHEALTH MEDICAL CENTER SCRANTON RD - OUTPATIENT PLAZA PHARMACY ENTRANCE,2500 METROHEALTH DR,CLEVELAND,OH,44109,"http://maps.google.com/maps?q=2500 METROHEALTH DR,+CLEVELAND,+OH+44109&hl=en"
MILLCREEK TOWNSHIP POLICE DEPARTMENT,MILLCREEK TOWNSHIP,3608 WEST 26TH STREET,ERIE,PA,16506,"http://maps.google.com/maps?q=3608 WEST 26TH STREET,+ERIE,+PA+16506&hl=en"
MILLCREEK TOWNSHIP POLICE DEPARTMENT,WEGMAN'S,5028 W RIDGE RDERIE,ERIE,PA,16506,"http://maps.google.com/maps?q=5028 W RIDGE RD,+ERIE,+PA+16506&hl=en"
MILLCREEK TOWNSHIP POLICE DEPARTMENT,WEGMAN'S,6143 PEACH STERIE,ERIE,PA,16509,"http://maps.google.com/maps?q=6143 PEACH ST,+ERIE,+PA+16509&hl=en"
MILLVALE POLICE DEPARTMENT,MILLVALE POLICE STATION,501 LINCOLN AVENUE,PITTSBURGH,PA,15209,"http://maps.google.com/maps?q=501 LINCOLN AVENUE,+PITTSBURGH,+PA+15209&hl=en"
MILTON TOWNSHIP POLICE DISTRICT,MILTON TOWNSHIP POLICE DEPARTMENT,15992 MILTON AVE.,LAKE MILTON,OH,44429,"http://maps.google.com/maps?q=15992 MILTON AVE.,+LAKE MILTON,+OH+44429&hl=en"
MONONGAH POLICE DEPT,MONONGAH PD,430 BRIDGE ST,FAIRMONT,WV,26554,"http://maps.google.com/maps?q=430 BRIDGE ST,+FAIRMONT,+WV+26554&hl=en"
MONONGALIA COUNTY SHERIFF'S OFFICE,KROGER @ SUNCREST TOWN CNTR,500 SUNCREST TOWN CENTER DR,MORGANTOWN,WV,26506,"http://maps.google.com/maps?q=500 SUNCREST TOWN CENTER DR,+MORGANTOWN,+WV+26506&hl=en"
MONONGALIA COUNTY SHERIFF'S OFFICE,MONONGALIA COUNTY SHERIFF'S OFFICE,116 WALNUT STREET,MORGANTOWN,WV,26505,"http://maps.google.com/maps?q=116 WALNUT STREET,+MORGANTOWN,+WV+26505&hl=en"
MONONGALIA COUNTY SHERIFF'S OFFICE,PIERPONT LANDING PHARMACY,7000 MID ATLANTIC RD,MORGANTOWN,WV,26508,"http://maps.google.com/maps?q=7000 MID ATLANTIC RD,+MORGANTOWN,+WV+26508&hl=en"
MONROEVILLE POLICE DEPARTMENT,MONROEVILLE POLICE DEPARTMENT,2700 MONROEVILLE BLVD.,MONROEVILLE,PA,15146,"http://maps.google.com/maps?q=2700 MONROEVILLE BLVD.,+MONROEVILLE,+PA+15146&hl=en"
MOON TOWNSHIP POLICE,MOON TOWNSHIP POLICE,1000 BEAVER GRADE RD,CORAOPOLIS,PA,15108,"http://maps.google.com/maps?q=1000 BEAVER GRADE RD,+CORAOPOLIS,+PA+15108&hl=en"
MORGAN COUNTY SHERIFF'S OFFICE,EMA BUILDING,60 S. 4TH STREET,MCCONNELSVILLE,OH,43756,"http://maps.google.com/maps?q=60 S. 4TH STREET,+MCCONNELSVILLE,+OH+43756&hl=en"
MORGANTOWN POLICE DEPARTMENT,KROGER,1851 EARL L. CORE ROAD,MORGANTOWN,WV,26505,"http://maps.google.com/maps?q=1851 EARL L. CORE ROAD,+MORGANTOWN,+WV+26505&hl=en"
MORGANTOWN POLICE DEPARTMENT,KROGER,350 PATTERSON DRIVE,MORGANTOWN,WV,26505,"http://maps.google.com/maps?q=350 PATTERSON DRIVE,+MORGANTOWN,+WV+26505&hl=en"
MOUNDSVILLE POLICE DEPARTMENT,MOUNDSVILLE POLICE DEPARTMENT,608 TOMLINSON AVENUE,MOUNDSVILLE,WV,26041,"http://maps.google.com/maps?q=608 TOMLINSON AVENUE,+MOUNDSVILLE,+WV+26041&hl=en"
MT. LEBANON POLICE DEPARTMENT,MEDIC RESCUE TEAM SOUTH AUTHORITY,315 CYPRESS WAY,PITTSBURGH,PA,15228,"http://maps.google.com/maps?q=315 CYPRESS WAY,+PITTSBURGH,+PA+15228&hl=en"
MT. PLEASANT TWP. POLICE DEPARTMENT,MT. PLEASANT TWP. MUNICIPAL BUILDING,31 MCCARRELL RD.,HICKORY,PA,15340,"http://maps.google.com/maps?q=31 MCCARRELL RD.,+HICKORY,+PA+15340&hl=en"
MUNHALL POLICE DEPARTMENT,MUNHALL CENTRAL VFC,1900 WEST STREET,MUNHALL,PA,15120,"http://maps.google.com/maps?q=1900 WEST STREET,+MUNHALL,+PA+15120&hl=en"
MUSKINGUM COUNTY SHERIFF'S OFFICE,MUSKINGUM COUNTY HEALTH DEPARTMENT PARKING LOT,205 N 7TH STREET,ZANESVILLE,OH,43701,"http://maps.google.com/maps?q=205 N 7TH STREET,+ZANESVILLE,+OH+43701&hl=en"
MUSKINGUM COUNTY SHERIFF'S OFFICE,RIESBECKS PICK'N SAVE,2200 JUNE PARKWAY,ZANESVILLE,OH,43701,"http://maps.google.com/maps?q=2200 JUNE PARKWAY,+ZANESVILLE,+OH+43701&hl=en"
NESHANNOCK TWP POLICE DEPARTMENT,NESHANNOCK TWP. POLICE DEPARTMENT,3131 MERCER ROAD,NEW CASTLE,PA,16105,"http://maps.google.com/maps?q=3131 MERCER ROAD,+NEW CASTLE,+PA+16105&hl=en"
NEW CASTLE POLICE DEPARTMENT,NEW CASTLE POLICE DEPARTMENT,303 EAST NORTH STREET,NEW CASTLE,PA,16101,"http://maps.google.com/maps?q=303 EAST NORTH STREET,+NEW CASTLE,+PA+16101&hl=en"
NEW CONCORD POLICE DEPARTMENT,NEW CONCORD POLICE DEPARTMENT,2 WEST MAIN STREET,NEW CONCORD,OH,43762,"http://maps.google.com/maps?q=2 WEST MAIN STREET,+NEW CONCORD,+OH+43762&hl=en"
NEW MIDDLETOWN POLICE DEPT,NEW MIDDLETOWN MUNICIPAL BUILDING,10711 MAIN STREET,NEW MIDDLETOWN,OH,44442,"http://maps.google.com/maps?q=10711 MAIN STREET,+NEW MIDDLETOWN,+OH+44442&hl=en"
NICHOLAS COUNTY SHERIFF'S DEPARTMENT,NICHOLAS COUNTY COURTHOUSE,700 MAIN ST,SUMMERSVILLE,WV,26651,"http://maps.google.com/maps?q=700 MAIN ST,+SUMMERSVILLE,+WV+26651&hl=en"
NOBLE COUNTY SHERIFFS OFFICE,CALDWELL ELEMENTARY SCHOOL,44350FAIRGROUND RD,CALDWELL,OH,43724,"http://maps.google.com/maps?q=44350,+CALDWELL,+OH+43724&hl=en"
NOBLE COUNTY SHERIFFS OFFICE,SHENANDOAH ELEMENTARY SCHOOL,20977ZEP ROAD,SARAHSVILLE,OH,43779,"http://maps.google.com/maps?q=20977,+SARAHSVILLE,+OH+43779&hl=en"
NORTH HUNTINGDON TWP. POLICE DEPARTMENT,NORTH HUNTINGDON TWP. TOWNHOUSE NHT MUNICIPAL BUILDING - POLICE DEPT.,11279 CENTER HIGHWAY,NORTH HUNTINGDON,PA,15642,"http://maps.google.com/maps?q=11279 CENTER HIGHWAY,+NORTH HUNTINGDON,+PA+15642&hl=en"
NORTH ROYALTON POLICE DEPARTMENT,GIANT EAGLE PLAZA AT STATE ROAD,6000 ROYALTON ROAD,NORTH ROYALTON,OH,44133,"http://maps.google.com/maps?q=6000 ROYALTON ROAD,+NORTH ROYALTON,+OH+44133&hl=en"
NORTH ROYALTON POLICE DEPARTMENT,TIMBER RIDGE PLAZA AT YORK ROAD,9199 SPRAGUE ROAD,NORTH ROYALTON,OH,44133,"http://maps.google.com/maps?q=9199 SPRAGUE ROAD,+NORTH ROYALTON,+OH+44133&hl=en"
NORTON POLICE DEPARTMENT,THE MEDICINE SHOPPE,3300 GREENWICH RD,NORTON,OH,44203,"http://maps.google.com/maps?q=3300 GREENWICH RD,+NORTON,+OH+44203&hl=en"
OAKMONT BOROUGH POLICE,RITE-AID,109 ALLEGHENY RIVER BLVD,OAKMONT,PA,15139,"http://maps.google.com/maps?q=109 ALLEGHENY RIVER BLVD,+OAKMONT,+PA+15139&hl=en"
OHIO COUNTY SHERIFF'S OFFICE,ELTON GROVE PHARMACY,102 E BETHLEHEM BLVD,WHEELING,WV,26003,"http://maps.google.com/maps?q=102 E BETHLEHEM BLVD,+WHEELING,+WV+26003&hl=en"
OLMSTED FALLS POLICE DEPARTMENT,OLMSTED FALLS POLICE DEPARTMENT,26100 BAGLEY ROAD,OLMSTED FALLS,OH,44138,"http://maps.google.com/maps?q=26100 BAGLEY ROAD,+OLMSTED FALLS,+OH+44138&hl=en"
"PARKERSBURG, WV POLICE DEPARTMENT",CVS PHARMACY,2323 MURDOCH AVENUE,PARKERSBURG,WV,26101,"http://maps.google.com/maps?q=2323 MURDOCH AVENUE,+PARKERSBURG,+WV+26101&hl=en"
PEPPER PIKE POLICE DEPARTMENT,PEPPER PIKE POLICE DEPARTMENT,28000 SHAKER BLVD,CLEVELAND,OH,44124,"http://maps.google.com/maps?q=28000 SHAKER BLVD,+CLEVELAND,+OH+44124&hl=en"
PERKINS TOWNSHIP POLICE DEPARTMENT,PERKINS TOWNSHIP POLICE DEPARTMENT,2610 COLUMBUS AVE,SANDUSKY,OH,44870,"http://maps.google.com/maps?q=2610 COLUMBUS AVE,+SANDUSKY,+OH+44870&hl=en"
PERRY VILLAGE PD (LAKE CO),PERRY VILLAGE POLICE DEPARTMENT CHIEF TROY HAGER,3758 CENTER RD.PERRY,PERRY,OH,44081,"http://maps.google.com/maps?q=3758 CENTER RD.,+PERRY,+OH+44081&hl=en"
PERRYSBURG TOWNSHIP POLICE DEPARTMENT,PERRYSBURG TOWNSHIP POLICE DEPARTMENT,26711 LIME CITY ROAD,PERRYSBURG,OH,43551,"http://maps.google.com/maps?q=26711 LIME CITY ROAD,+PERRYSBURG,+OH+43551&hl=en"
PETERS TOWNSHIP POLICE DEPARTMENT,GIANT EAGLE,4017 WASHINGTON ROAD,MCMURRAY,PA,15317,"http://maps.google.com/maps?q=4017 WASHINGTON ROAD,+MCMURRAY,+PA+15317&hl=en"
PETERS TOWNSHIP POLICE DEPARTMENT,HEISLER'S MARKET,601 E. MCMURRAY ROAD,MCMURRAY,PA,15317,"http://maps.google.com/maps?q=601 E. MCMURRAY ROAD,+MCMURRAY,+PA+15317&hl=en"
PETERS TOWNSHIP POLICE DEPARTMENT,RITE AID PHARMACY,4185 WASHINGTON RD,MCMURRAY,PA,15317,"http://maps.google.com/maps?q=4185 WASHINGTON RD,+MCMURRAY,+PA+15317&hl=en"
PETERS TOWNSHIP POLICE DEPARTMENT,THE COUNTRY STORE,698 VENETIA RD,VENETIA,PA,15367,"http://maps.google.com/maps?q=698 VENETIA RD,+VENETIA,+PA+15367&hl=en"
PITTSBURGH BUREAU OF POLICE,PHILLIPS RECREATION CENTER,201 PARKFIELD ST,PITTSBURGH,PA,15210,"http://maps.google.com/maps?q=201 PARKFIELD ST,+PITTSBURGH,+PA+15210&hl=en"
PITTSBURGH BUREAU OF POLICE,PITTSBURGH POLICE HEADQUARTERS,1203 WESTERN AVE.,PITTSBURGH,PA,15233,"http://maps.google.com/maps?q=1203 WESTERN AVE.,+PITTSBURGH,+PA+15233&hl=en"
PITTSBURGH BUREAU OF POLICE,ZONE #1 PITTSBURGH POLICE STATION COMMANDER CHRIS RAGLAND,1501 BRIGHTON RD.,PITTSBURGH,PA,15212,"http://maps.google.com/maps?q=1501 BRIGHTON RD.,+PITTSBURGH,+PA+15212&hl=en"
PITTSBURGH BUREAU OF POLICE,ZONE #2 PITTSBURGH POLICE STATION COMMANDER CRISTYN ZETT,2002 CENTRE AVENUE,PITTSBURGH,PA,15219,"http://maps.google.com/maps?q=2002 CENTRE AVENUE,+PITTSBURGH,+PA+15219&hl=en"
PITTSBURGH BUREAU OF POLICE,ZONE #3 PITTSBURGH POLICE STATION COMMANDER KAREN DIXON,830 EAST WARRINGTON AVE.,PITTSBURGH,PA,15210,"http://maps.google.com/maps?q=830 EAST WARRINGTON AVE.,+PITTSBURGH,+PA+15210&hl=en"
PITTSBURGH BUREAU OF POLICE,ZONE #4 PITTSBURGH POLICE STATION COMMANDER DAN HERRMANN,5858 NORTHUMBERLAND STREET,PITTSBURGH,PA,15217,"http://maps.google.com/maps?q=5858 NORTHUMBERLAND STREET,+PITTSBURGH,+PA+15217&hl=en"
PITTSBURGH BUREAU OF POLICE,ZONE #5 PITTSBURGH POLICE STATION COMMANDER JASON LANDO,1401 WASHINGTON BLVD.,PITTSBURGH,PA,15206,"http://maps.google.com/maps?q=1401 WASHINGTON BLVD.,+PITTSBURGH,+PA+15206&hl=en"
PITTSBURGH BUREAU OF POLICE,ZONE #6 PITTSBURGH POLICE STATION COMMANDER STEVEN VINANSKY,312 SOUTH MAIN STREET,PITTSBURGH,PA,15220,"http://maps.google.com/maps?q=312 SOUTH MAIN STREET,+PITTSBURGH,+PA+15220&hl=en"
PLEASANT HILLS POLICE DEPARTMENT,PLEASANT HILLS BOROUGH BUILDING,410 EAST BRUCETON RD,PITTSBURGH,PA,15236,"http://maps.google.com/maps?q=410 EAST BRUCETON RD,+PITTSBURGH,+PA+15236&hl=en"
PLEASANTS COUNTY SHERIFF,PHILLIPS PHARMACY,329 2ND STREET,SAINT MARYS,WV,26170,"http://maps.google.com/maps?q=329 2ND STREET,+SAINT MARYS,+WV+26170&hl=en"
PLUM BOROUGH POLICE DEPARTMENT,BILL'S HOMETOWN PHARMACY,1095 UNITY CENTER ROAD,PITTSBURGH,PA,15239,"http://maps.google.com/maps?q=1095 UNITY CENTER ROAD,+PITTSBURGH,+PA+15239&hl=en"
PLUM BOROUGH POLICE DEPARTMENT,BILL'S HOMETOWN PHARMACY,2362 GOLDEN MILE HWY,PITTSBURGH,PA,15239,"http://maps.google.com/maps?q=2362 GOLDEN MILE HWY,+PITTSBURGH,+PA+15239&hl=en"
PRESTON COUNTY SHERIFF,BELLDINA'S PHARMACY,107 S MAIN ST,MASONTOWN,WV,26542,"http://maps.google.com/maps?q=107 S MAIN ST,+MASONTOWN,+WV+26542&hl=en"
PRESTON COUNTY SHERIFF,PRESTON COUNTY SHERIFF'S OFFICE,103 W MAIN ST,KINGWOOD,WV,26537,"http://maps.google.com/maps?q=103 W MAIN ST,+KINGWOOD,+WV+26537&hl=en"
PRESTON COUNTY SHERIFF,TERRA ALTA TOWN HALL,701-A EAST STATE AVENUE,TERRA ALTA,WV,26764,"http://maps.google.com/maps?q=701-A EAST STATE AVENUE,+TERRA ALTA,+WV+26764&hl=en"
ROBINSON TWP. POLICE DEPARTMENT,THE MALL AT ROBINSON PARKING LOT NEAR DICK'S & GOLDEN CORRAL,1000 ROBINSON CENTRE DRIVE,PITTSBURGH,PA,15205,"http://maps.google.com/maps?q=1000 ROBINSON CENTRE DRIVE,+PITTSBURGH,+PA+15205&hl=en"
RUSSELL TOWNSHIP POLICE DEPARTMENT,RUSSELL TOWNSHIP POLICE DEPARTMENT,14820 CHILLICOTHE ROAD,NOVELTY,OH,44072,"http://maps.google.com/maps?q=14820 CHILLICOTHE ROAD,+NOVELTY,+OH+44072&hl=en"
SANDUSKY COUNTY SHERIFF'S OFFICE,EASTSIDE FIRE AND POLICE,506 PINE ST.,FREMONT,OH,43420,"http://maps.google.com/maps?q=506 PINE ST.,+FREMONT,+OH+43420&hl=en"
SEWICKLEY POLICE DEPARTMENT,SEWICKLEY BOROUGH BUILDING,601 THORN STREET,SEWICKLEY,PA,15143,"http://maps.google.com/maps?q=601 THORN STREET,+SEWICKLEY,+PA+15143&hl=en"
SHALER POLICE DEPARTMENT,SHALER NORTH HILLS LIBRARY,1822 MT. ROYAL BLVD.,GLENSHAW,PA,15116,"http://maps.google.com/maps?q=1822 MT. ROYAL BLVD.,+GLENSHAW,+PA+15116&hl=en"
SISTERVILLE POLICE DEPARTMENT,SISTERVILLE PD,200 DIAMOND ST,SISTERSVILLE,WV,26175,"http://maps.google.com/maps?q=200 DIAMOND ST,+SISTERSVILLE,+WV+26175&hl=en"
SOLON POLICE DEPARTMENT,SOLON SENIOR CENTER,35000 PORTZ PARKWAY,SOLON,OH,44139,"http://maps.google.com/maps?q=35000 PORTZ PARKWAY,+SOLON,+OH+44139&hl=en"
SPENCER POLICE DEPARTMENT,SPENCER POLICE DEPARTMENT,116 COURT ST,SPENCER,WV,25276,"http://maps.google.com/maps?q=116 COURT ST,+SPENCER,+WV+25276&hl=en"
STEUBENVILLE POLICE DEPARTMENT,KROGER,264 S. HOLLYWOOD PLAZA,STEUBENVILLE,OH,43952,"http://maps.google.com/maps?q=264 S. HOLLYWOOD PLAZA,+STEUBENVILLE,+OH+43952&hl=en"
STOW POLICE DEPARTMENT,STOW POLICE DEPARTMENT,3800 DARROW RD,STOW,OH,44224,"http://maps.google.com/maps?q=3800 DARROW RD,+STOW,+OH+44224&hl=en"
STRONGSVILLE PD,STRONGSVILLE PD,18688 ROYALTON,STRONGSVILLE,OH,44136,"http://maps.google.com/maps?q=18688 ROYALTON,+STRONGSVILLE,+OH+44136&hl=en"
SUMMA HEALTH POLICE DEPARTMENT,SUMMA HEALTH MEDINA MEDICAL CENTER,3780 MEDINA RD,MEDINA,OH,44256,"http://maps.google.com/maps?q=3780 MEDINA RD,+MEDINA,+OH+44256&hl=en"
SUMMIT COUNTY SHERIFF / DRUG UNIT,SUMMIT COUNTY SHERIFF'S OFFICE / DRUG UNIT,393 E. TURKEYFOOT LAKE ROAD,AKRON,OH,44319,"http://maps.google.com/maps?q=393 E. TURKEYFOOT LAKE ROAD,+AKRON,+OH+44319&hl=en"
TALLMADGE POLICE DEPARTMENT,ACME FRESH MARKET,600 SOUTH AVENUE,TALLMADGE,OH,44278,"http://maps.google.com/maps?q=600 SOUTH AVENUE,+TALLMADGE,+OH+44278&hl=en"
TALLMADGE POLICE DEPARTMENT,TALLMADGE POLICE DEPARTMENT,53 NORTHEAST AVE,TALLMADGE,OH,44278,"http://maps.google.com/maps?q=53 NORTHEAST AVE,+TALLMADGE,+OH+44278&hl=en"
TAYLOR COUNTY SHERIFF'S OFFICE,WALMART,1 WALMART LANE,GRAFTON,WV,26354,"http://maps.google.com/maps?q=1 WALMART LANE,+GRAFTON,+WV+26354&hl=en"
TUSCARAWS COUNTY SHERIFFS OFFICE,TRINITY TWIN CITY HOSPITAL,819 N. 1ST STREET,DENNISON,OH,44621,"http://maps.google.com/maps?q=819 N. 1ST STREET,+DENNISON,+OH+44621&hl=en"
TUSCARAWS COUNTY SHERIFFS OFFICE,UNION HOSPITAL SOUTH ENTRANCE,659 BOULEVARD,DOVER,OH,44622,"http://maps.google.com/maps?q=659 BOULEVARD,+DOVER,+OH+44622&hl=en"
UNIVERSITY OF PITTSBURGH MED CTR,"CHILDREN'S HOSPITAL OF PITTSBURGH OF UPMC OUTPATIENT PHARMACY LOBBY (FRIDAY) OCT 26, 2018",4401 PENN AVE,PITTSBURGH,PA,15224,"http://maps.google.com/maps?q=4401 PENN AVE,+PITTSBURGH,+PA+15224&hl=en"
UNIVERSITY OF PITTSBURGH MED CTR,"FALK PHARMACY: FALK MEDICAL BDG 2ND FLOOR LOBBY FRIDAY) OCT 26, 2018",3601 FIFTH AVE.,PITTSBURGH,PA,15213,"http://maps.google.com/maps?q=3601 FIFTH AVE.,+PITTSBURGH,+PA+15213&hl=en"
UNIVERSITY OF PITTSBURGH MED CTR,"FORBES PHARMACY OF WPIC: OXFORD BUILDING 7TH FLOOR (FRIDAY) OCT 26, 2018",3501 FORBES AVE.,PITTSBURGH,PA,15213,"http://maps.google.com/maps?q=3501 FORBES AVE.,+PITTSBURGH,+PA+15213&hl=en"
UNIVERSITY OF PITTSBURGH MED CTR,"FORBES TOWER MAIN LOBBY FRIDAY) OCT 26, 2018",4028 FORBES AVENUE,PITTSBURGH,PA,15260,"http://maps.google.com/maps?q=4028 FORBES AVENUE,+PITTSBURGH,+PA+15260&hl=en"
UNIVERSITY OF PITTSBURGH MED CTR,"HILLMAN CANCER CENTER GROUND FLOOR ATRIUM FRIDAY) OCT 26, 2018",5115 CENTRE AVE.,PITTSBURGH,PA,15232,"http://maps.google.com/maps?q=5115 CENTRE AVE.,+PITTSBURGH,+PA+15232&hl=en"
UNIVERSITY OF PITTSBURGH MED CTR,"MAGEE-WOMENS HOSPITAL OF UPMC MAIN LOBBY, ZERO LEVEL (FRIDAY) OCT 26, 2018",300 HALKET STREET,PITTSBURGH,PA,15213,"http://maps.google.com/maps?q=300 HALKET STREET,+PITTSBURGH,+PA+15213&hl=en"
UNIVERSITY OF PITTSBURGH MED CTR,"U.S. STEEL TOWER-FRI. MYHEALTH@WORK, FLOOR 12 (FRIDAY)FRIDAY) OCT 26, 2018",600 GRANT STREET,PITTSBURGH,PA,15219,"http://maps.google.com/maps?q=600 GRANT STREET,+PITTSBURGH,+PA+15219&hl=en"
UNIVERSITY OF PITTSBURGH MED CTR,"UPMC EAST MAIN LOBBY FRIDAY) OCT 26, 2018",2775 MOSSIDE BLVD,MONROEVILLE,PA,15146,"http://maps.google.com/maps?q=2775 MOSSIDE BLVD,+MONROEVILLE,+PA+15146&hl=en"
UNIVERSITY OF PITTSBURGH MED CTR,"UPMC HAMOT WOMEN'S HOSPITAL LOBBY FRIDAY) OCT 26, 2018",201 STATE STREET,ERIE,PA,16550,"http://maps.google.com/maps?q=201 STATE STREET,+ERIE,+PA+16550&hl=en"
UNIVERSITY OF PITTSBURGH MED CTR,"UPMC MCKEESPORT 1-CRAWFORD PATIENT DISCHARGE LOUNGE FRIDAY) OCT 26, 2018",1500 FIFTH AVE,MCKEESPORT,PA,15132,"http://maps.google.com/maps?q=1500 FIFTH AVE,+MCKEESPORT,+PA+15132&hl=en"
UNIVERSITY OF PITTSBURGH MED CTR,"UPMC MERCY: CAFETERIA 2ND FLOOR (FRIDAY) OCT 26, 2018",1400 LOCUST STREET,PITTSBURGH,PA,15219,"http://maps.google.com/maps?q=1400 LOCUST STREET,+PITTSBURGH,+PA+15219&hl=en"
UNIVERSITY OF PITTSBURGH MED CTR,"UPMC PASSAVANT MAIN LOBBY, MCCANDLESS CAMPUS (FRIDAY) OCT 26, 2018",9100 BABCOCK BLVD,PITTSBURGH,PA,15237,"http://maps.google.com/maps?q=9100 BABCOCK BLVD,+PITTSBURGH,+PA+15237&hl=en"
UNIVERSITY OF PITTSBURGH MED CTR,"UPMC PRESBYTERIAN, PRESCRIPTION SHOP FRIDAY) OCT 26, 2018",200 LOTHROP STREET,PITTSBURGH,PA,15213,"http://maps.google.com/maps?q=200 LOTHROP STREET,+PITTSBURGH,+PA+15213&hl=en"
UNIVERSITY OF PITTSBURGH MED CTR,"UPMC SHERWOOD OAKS FRIDAY) OCT 26, 2018",100 NORMAN DRIVE,CRANBERRY TOWNSHIP,PA,16066,"http://maps.google.com/maps?q=100 NORMAN DRIVE,+CRANBERRY TOWNSHIP,+PA+16066&hl=en"
UNIVERSITY OF PITTSBURGH POLICE DEPARTMENT,UNIVERSITY PHARMACY MARK A. NORDENBERG HALL,111 UNIVERSITY PLACE,PITTSBURGH,PA,15213,"http://maps.google.com/maps?q=111 UNIVERSITY PLACE,+PITTSBURGH,+PA+15213&hl=en"
UPMC HAMOT POLICE,"HAMOT WOMEN'S HOSPITAL EVENT IS ON FRIDAY OCTOBER 26, 10AM-2PM",104 2ND STREET,ERIE,PA,16550,"http://maps.google.com/maps?q=104 2ND STREET,+ERIE,+PA+16550&hl=en"
UPPER ST. CLAIR POLICE DEPARTMENT,UPPER ST. CLAIR POLICE DEPARTMENT,1820 MCLAUGHLIN RUN ROAD,PITTSBURGH,PA,15241,"http://maps.google.com/maps?q=1820 MCLAUGHLIN RUN ROAD,+PITTSBURGH,+PA+15241&hl=en"
VIENNA WV POLICE DEPARTMENT,VIENNA VOLUNTEER FD,609 28TH ST,VIENNA,WV,26105,"http://maps.google.com/maps?q=609 28TH ST,+VIENNA,+WV+26105&hl=en"
WARREN COUNTY SHERIFF'S OFFICE,YOUNGSVILLE POLICE DEPARTMENT,40 RAILROAD STREET,YOUNGSVILLE,PA,16371,"http://maps.google.com/maps?q=40 RAILROAD STREET,+YOUNGSVILLE,+PA+16371&hl=en"
WASHINGTON COUNTY SHERIFF'S OFFICE,BELPRE SENIOR CENTER PARKING LOT,1614 WASHINGTON BLVD,BELPRE,OH,45714,"http://maps.google.com/maps?q=1614 WASHINGTON BLVD,+BELPRE,+OH+45714&hl=en"
WASHINGTON COUNTY SHERIFF'S OFFICE,BUCKEYE HILLS AREA AGENCY ON AGING PARKING LOT,1400 NEWPORT PIKE,RENO,OH,45773,"http://maps.google.com/maps?q=1400 NEWPORT PIKE,+RENO,+OH+45773&hl=en"
WASHINGTON COUNTY SHERIFF'S OFFICE,CORNER OF 2ND ST AND PUTNAM ST,CORNER OF 2ND ST AND PUTNAM ST,MARIETTA,OH,45750,"http://maps.google.com/maps?q=CORNER OF 2ND ST AND PUTNAM ST,+MARIETTA,+OH+45750&hl=en"
WASHINGTON COUNTY SHERIFF'S OFFICE,DEVOLA MEDICAL CENTER PARKING LOT,4727 STATE ROUTE 60,MARIETTA,OH,45750,"http://maps.google.com/maps?q=4727 STATE ROUTE 60,+MARIETTA,+OH+45750&hl=en"
WASHINGTON COUNTY SHERIFF'S OFFICE,FORT FRYE HIGH SCHOOL PARKING LOT,420 FIFTH STREET,BEVERLY,OH,45715,"http://maps.google.com/maps?q=420 FIFTH STREET,+BEVERLY,+OH+45715&hl=en"
WASHINGTON COUNTY SHERIFF'S OFFICE,"HARDWARE COMPONENTS, INC",1021 PARK AVENUE,NEW MATAMORAS,OH,45767,"http://maps.google.com/maps?q=1021 PARK AVENUE,+NEW MATAMORAS,+OH+45767&hl=en"
WASHINGTON COUNTY SHERIFF'S OFFICE,WASHINGTON COUNTY SHERIFF'S OFFICE 24HR DROP BOX LOCATED IN LOBBY,309 4TH STREET,MARIETTA,OH,45750,"http://maps.google.com/maps?q=309 4TH STREET,+MARIETTA,+OH+45750&hl=en"
WASHINGTON COUNTY SHERIFF'S OFFICE,WHITE OAK PHARMACY PARKING LOT,8465 STATE ROUTE 339,BARLOW,OH,45712,"http://maps.google.com/maps?q=8465 STATE ROUTE 339,+BARLOW,+OH+45712&hl=en"
WEBSTER COUNTY SHERIFF,HACKER VALLEY FIRE DEPT,4999 HACKER VALLEY RD,HACKER VALLEY,WV,26222,"http://maps.google.com/maps?q=4999 HACKER VALLEY RD,+HACKER VALLEY,+WV+26222&hl=en"
WEIRTON PD,WEIRTON POLICE DEPT,200 MUNICIPAL PLAZA,WEIRTON,WV,26062,"http://maps.google.com/maps?q=200 MUNICIPAL PLAZA,+WEIRTON,+WV+26062&hl=en"
WEST VIRGINIA STATE POLICE,WEST VIRGINIA STATE POLICE SGT R.E. RICHARDSON/3044204600,3828 STAUNTON TPK.,PARKERSBURG,WV,26104,"http://maps.google.com/maps?q=3828 STAUNTON TPK.,+PARKERSBURG,+WV+26104&hl=en"
WESTSHORE ENFORCEMENT BUREAU NARC. TASK FORCE,BAY VILLAGE POLICE DEPARTMENT,28000 WOLF RD.,BAY VILLAGE,OH,44140,"http://maps.google.com/maps?q=28000 WOLF RD.,+BAY VILLAGE,+OH+44140&hl=en"
WESTSHORE ENFORCEMENT BUREAU NARC. TASK FORCE,FAIRVIEW PARK POLICE DEPARTMENT,20777 LORAIN RD.,FAIRVIEW PARK,OH,44126,"http://maps.google.com/maps?q=20777 LORAIN RD.,+FAIRVIEW PARK,+OH+44126&hl=en"
WESTSHORE ENFORCEMENT BUREAU NARC. TASK FORCE,LAKEWOOD POLICE DEPARTMENT,12650 DETROIT AVE.,LAKEWOOD,OH,44107,"http://maps.google.com/maps?q=12650 DETROIT AVE.,+LAKEWOOD,+OH+44107&hl=en"
WESTSHORE ENFORCEMENT BUREAU NARC. TASK FORCE,NORTH OLMSTED POLICE DEPARTMENT,27243 LORAIN ROAD,NORTH OLMSTED,OH,44070,"http://maps.google.com/maps?q=27243 LORAIN ROAD,+NORTH OLMSTED,+OH+44070&hl=en"
WESTSHORE ENFORCEMENT BUREAU NARC. TASK FORCE,ROCKY RIVER POLICE DEPARTMENT,21012 HILLIARD BLVD.,ROCKY RIVER,OH,44116,"http://maps.google.com/maps?q=21012 HILLIARD BLVD.,+ROCKY RIVER,+OH+44116&hl=en"
WESTSHORE ENFORCEMENT BUREAU NARC. TASK FORCE,WESTLAKE POLICE DEPT.,27300 HILLIARD BLVD.,WESTLAKE,OH,44145,"http://maps.google.com/maps?q=27300 HILLIARD BLVD.,+WESTLAKE,+OH+44145&hl=en"
WETZEL COUNTY SHERIFF'S OFFICE,NEW MARTINSVILLE FIRE DEPT,400 OHIO STREET,NEW MARTINSVILLE,WV,26155,"http://maps.google.com/maps?q=400 OHIO STREET,+NEW MARTINSVILLE,+WV+26155&hl=en"
WETZEL COUNTY SHERIFF'S OFFICE,THE HUNDRED CITY BUILDING,58 FOUR SEASONS DRIVE,HUNDRED,WV,26575,"http://maps.google.com/maps?q=58 FOUR SEASONS DRIVE,+HUNDRED,+WV+26575&hl=en"
WHEELING POLICE DEPT,MT DECHANTAL KROGER,200 MT DECHANTAL RD,WHEELING,WV,26003,"http://maps.google.com/maps?q=200 MT DECHANTAL RD,+WHEELING,+WV+26003&hl=en"
WILKINS TOWNSHIP POLICE DEPT,WILKINS ELK LODGE,718 BROWN AVE,TURTLE CREEK,PA,15145,"http://maps.google.com/maps?q=718 BROWN AVE,+TURTLE CREEK,+PA+15145&hl=en"
WILLIAMSTOWN POLICE DEPT,WILLIAMSTOWN PD,100 WEST 5TH ST,WILLIAMSTOWN,WV,26187,"http://maps.google.com/maps?q=100 WEST 5TH ST,+WILLIAMSTOWN,+WV+26187&hl=en"
WILLOWICK POLICE DEPARTMENT,WILLOWICK POLICE DEPARTMENT,30435LAKESHORE BLVD.,WILLOWICK,OH,44095,"http://maps.google.com/maps?q=30435,+WILLOWICK,+OH+44095&hl=en"
WIRT COUNTY SHERIFF'S DEPARTMENT,WIRT COUNTY SHERIFF'S DEPT,100 COURT SQURE,ELIZABETH,WV,26143,"http://maps.google.com/maps?q=100 COURT SQURE,+ELIZABETH,+WV+26143&hl=en"
WOOD COUNTY SHERIFF'S OFFICE,WOOD COUNTY SHERIFF'S OFFICE DET. SGT. ROD SMITH,1960 E. GYPSY LNBOWLING GREEN,BOWLING GREEN,OH,43402,"http://maps.google.com/maps?q=1960 E. GYPSY LN,+BOWLING GREEN,+OH+43402&hl=en"
WOOD COUNTY WV SHERIFF'S DEPARTMENT,LUBECK VFD,1340 HARRIS HWY,PARKERSBURG,WV,26101,"http://maps.google.com/maps?q=1340 HARRIS HWY,+PARKERSBURG,+WV+26101&hl=en"
WOOD COUNTY WV SHERIFF'S DEPARTMENT,MINERAL WELLS VFD,1695 ELIZABETH PIKE,MINERAL WELLS,WV,26150,"http://maps.google.com/maps?q=1695 ELIZABETH PIKE,+MINERAL WELLS,+WV+26150&hl=en"
WOOD COUNTY WV SHERIFF'S DEPARTMENT,WAVERLY VFD,15425 EMERSON AVE,WAVERLY,WV,26184,"http://maps.google.com/maps?q=15425 EMERSON AVE,+WAVERLY,+WV+26184&hl=en"
YOUNGSTOWN STATE UNIVERSITY PUBLIC SAFETY,YOUNGSTOWN STATE UNIVERSITY POLICE,266 WEST WOOD STREET,YOUNGSTOWN,OH,44555,"http://maps.google.com/maps?q=266 WEST WOOD STREET,+YOUNGSTOWN,+OH+44555&hl=en"
YOUNGSVILLE BOROUGH POLICE DEPARTMENT,YOUNGSVILLE MUNICIPAL BUILDING,40 RAILROAD STREET,YOUNGSVILLE,PA,16371,"http://maps.google.com/maps?q=40 RAILROAD STREET,+YOUNGSVILLE,+PA+16371&hl=en"
