Participant,CollectionSite,Address,City,State,Zip,MapURL
ALBION DEPARTMENT OF PUBLIC SAFETY,FAMILY FARE SUPERMARKET DRUG TAKE-BACK DAYS ONLY,1406 N. EATON ST.,ALBION,MI,49224,"http://maps.google.com/maps?q=1406 N. EATON ST.,+ALBION,+MI+49224&hl=en"
ALLEGAN COUNTY SHERIFF'S OFC.,ALLEGAN COUNTY SHERIFF'S OFC.,640 RIVER ST.,ALLEGAN,MI,49010,"http://maps.google.com/maps?q=640 RIVER ST.,+ALLEGAN,+MI+49010&hl=en"
ALPENA COUNTY SHERIFF'S OFFICE,ALPENA COUNTY SHERIFF'S OFFICE,320 JOHNSON STREET,ALPENA,MI,49707,"http://maps.google.com/maps?q=320 JOHNSON STREET,+ALPENA,+MI+49707&hl=en"
ARCHBOLD POLICE DEPARTMENT,ARCHBOLD POLICE DEPARTMENT,405 E. LUTZ RD,ARCHBOLD,OH,43502,"http://maps.google.com/maps?q=405 E. LUTZ RD,+ARCHBOLD,+OH+43502&hl=en"
ARENAC COUNTY SHERIFF'S OFFICE,ARENAC COUNTY SHERIFF'S OFFICE,126 GROVE STREET,STANDISH,MI,48658,"http://maps.google.com/maps?q=126 GROVE STREET,+STANDISH,+MI+48658&hl=en"
ARLINGTON HEIGHTS POLICE DEPARTMENT,ARLINGTON HEIGHTS VILLAGE HALL,33 S. ARLINGTON HEIGHTS ROAD,ARLINGTON HEIGHTS,IL,60005,"http://maps.google.com/maps?q=33 S. ARLINGTON HEIGHTS ROAD,+ARLINGTON HEIGHTS,+IL+60005&hl=en"
BAKER COLLEGE DPS,BAKER COLLEGE OF FLINT CAMPUS SAFETY OFFICE,1050 W. BRISTOL RD,FLINT,MI,48507,"http://maps.google.com/maps?q=1050 W. BRISTOL RD,+FLINT,+MI+48507&hl=en"
BARRY COUNTY SHERIFF'S DEPARTMENT,BARRY COUNTY SHERIFF'S DEPARTMENT,1212 W STATE STREET,HASTINGS,MI,49058,"http://maps.google.com/maps?q=1212 W STATE STREET,+HASTINGS,+MI+49058&hl=en"
BAY CITY DEPARTMENT OF PUBLIC SAFETY,LAW ENFORCEMENT CENTER BAY CITY DEPARTMENT OF PUBLIC SAFETY,501 3RD STREET,BAY CITY,MI,48708,"http://maps.google.com/maps?q=501 3RD STREET,+BAY CITY,+MI+48708&hl=en"
BENZIE COUNTY SHERIFF'S OFFICE,BENZIE COUNTY SHERIFF'S OFFICE,505 MICHIGAN AVE,BEULAH,MI,49617,"http://maps.google.com/maps?q=505 MICHIGAN AVE,+BEULAH,+MI+49617&hl=en"
BERKLEY PUBLIC SAFETY,BERKLEY PUBLIC SAFETY LOBBY,2395 W 12 MILE,BERKLEY,MI,48072,"http://maps.google.com/maps?q=2395 W 12 MILE,+BERKLEY,+MI+48072&hl=en"
BERWYN POLICE DEPARTMENT,BERWYN POLICE DEPARTMENT,6401 W 31ST,BERWYN,IL,60402,"http://maps.google.com/maps?q=6401 W 31ST,+BERWYN,+IL+60402&hl=en"
BIG RAPIDS DEPARTMENT OF PUBLIC SAFETY,BIG RAPIDS DEPARTMENT OF PUBLIC SAFETY,435 NORTH MICHIGAN AVE,BIG RAPIDS,MI,49307,"http://maps.google.com/maps?q=435 NORTH MICHIGAN AVE,+BIG RAPIDS,+MI+49307&hl=en"
BLOOMFIELD HILLS DEPARTMENT OF PUBLIC SAFETY,BLOOMFIELD HILLS DEPARTMENT OF PUBLIC SAFETY,45 E. LONG LAKE RD.,BLOOMFIELD HILLS,MI,48304,"http://maps.google.com/maps?q=45 E. LONG LAKE RD.,+BLOOMFIELD HILLS,+MI+48304&hl=en"
BLOOMFIELD HILLS DEPARTMENT OF PUBLIC SAFETY,CITY OF BLOOMFIELD HILLS DEPARTMETNOF PUBLIC SAFETY,45 E. LONG LAKE RD,BLOOMFIELD HILLS,MI,48304,"http://maps.google.com/maps?q=45 E. LONG LAKE RD,+BLOOMFIELD HILLS,+MI+48304&hl=en"
BLOOMFIELD TOWNSHIP POLICE DEPARTMENT,BLOOMFIELD TOWNSHIP POLICE DEPARTMENT,4200 TELEGRAPH ROAD,BLOOMFIELD HILLS,MI,48302,"http://maps.google.com/maps?q=4200 TELEGRAPH ROAD,+BLOOMFIELD HILLS,+MI+48302&hl=en"
BOWLING GREEN POLICE DIVISION,BOWLING GREEN POLICE DIVISION,175 W. WOOSTER,BOWLING GREEN,OH,43402,"http://maps.google.com/maps?q=175 W. WOOSTER,+BOWLING GREEN,+OH+43402&hl=en"
BREMEN POLICE DEPARTMENT,CVS PHARMACY,1150 W. PLYMOUTH STREET,BREMEN,IN,46506,"http://maps.google.com/maps?q=1150 W. PLYMOUTH STREET,+BREMEN,+IN+46506&hl=en"
BRIDGEVIEW POLICE DEPARTMENT,BRIDGEVIEW POLICE DEPARTMENT,7500 S. OKETO AVE,BRIDGEVIEW,IL,60455,"http://maps.google.com/maps?q=7500 S. OKETO AVE,+BRIDGEVIEW,+IL+60455&hl=en"
BRIGHTON POLICE DEPARTMENT,BRIGHTON POLICE DEPARTMENT,440 S THIRD STREET,BRIGHTON,MI,48116,"http://maps.google.com/maps?q=440 S THIRD STREET,+BRIGHTON,+MI+48116&hl=en"
BROOKFIELD POLICE DEPARTMENT,BROOKFIELD POLICE DEPARTMENT 10:00AM-2:00PM,655 N. JANACEK RD,BROOKFIELD,WI,53045,"http://maps.google.com/maps?q=655 N. JANACEK RD,+BROOKFIELD,+WI+53045&hl=en"
BROWN COUNTY SHERIFF'S OFFICE,ALLOUEZ VILLAGE HALL EVENT 10:00 AM - 2:00 PM,1900 LIBAL STREET,GREEN BAY,WI,54301,"http://maps.google.com/maps?q=1900 LIBAL STREET,+GREEN BAY,+WI+54301&hl=en"
BROWN COUNTY SHERIFF'S OFFICE,BELLEVUE VILLAGE HALL EVENT 10:00 AM - 2:00 PM,3100 EATON ROAD,GREEN BAY,WI,54311,"http://maps.google.com/maps?q=3100 EATON ROAD,+GREEN BAY,+WI+54311&hl=en"
BROWN COUNTY SHERIFF'S OFFICE,DENMARK VILLAGE HALL EVENT 10:00 AM - 2:00 PM,118 EAST MAIN STREET,DENMARK,WI,54208,"http://maps.google.com/maps?q=118 EAST MAIN STREET,+DENMARK,+WI+54208&hl=en"
BROWN COUNTY SHERIFF'S OFFICE,SUAMICO MUNICIPAL SERVICE CENTER EVENT 10:00 AM - 2:00 PM,12781 VELP AVE,SUAMICO,WI,54313,"http://maps.google.com/maps?q=12781 VELP AVE,+SUAMICO,+WI+54313&hl=en"
BROWNSTOWN TOWNSHIP POLICE DEPARTMENT,BROWNSTOWN POLICE DEPARTMENT,23125 KING ROAD,BROWNSTOWN,MI,48183,"http://maps.google.com/maps?q=23125 KING ROAD,+BROWNSTOWN,+MI+48183&hl=en"
BUFFALO GROVE POLICE DEPARTMENT,BUFFALO GROVE POLICE,46 RAUPP BLV,BUFFALO GROVE,IL,60089,"http://maps.google.com/maps?q=46 RAUPP BLV,+BUFFALO GROVE,+IL+60089&hl=en"
BUFFALO GROVE POLICE DEPARTMENT,BUFFALO GROVE POLICE @ MARIANO'S,450 W. HALF DAY ROAD,BUFFALO GROVE,IL,60089,"http://maps.google.com/maps?q=450 W. HALF DAY ROAD,+BUFFALO GROVE,+IL+60089&hl=en"
BURTON POLICE DEPARTMENT,BURTON POLICE DEPARTMENT,4090 MANOR DRIVE,BURTON,MI,48519,"http://maps.google.com/maps?q=4090 MANOR DRIVE,+BURTON,+MI+48519&hl=en"
CANTON MI POLICE DEPARTMENT,CANTON POLICE DEPARTMENT,1150 S. CANTON CENTER ROAD,CANTON,MI,48188,"http://maps.google.com/maps?q=1150 S. CANTON CENTER ROAD,+CANTON,+MI+48188&hl=en"
CARROLLTON TOWNSHIP POLICE DEPARTMENT,CARROLLTON TOWNSHIP POLICE DEPARTMENT,1645 MAPLERIDGE ROAD,SAGINAW,MI,48604,"http://maps.google.com/maps?q=1645 MAPLERIDGE ROAD,+SAGINAW,+MI+48604&hl=en"
CASS COALITION,CASS COUNTY SHERIFF'S OFFICE PERMANENT DROP BOX AVAILABLE 24/7,321 M-62,CASSOPOLIS,MI,49031,"http://maps.google.com/maps?q=321 M-62,+CASSOPOLIS,+MI+49031&hl=en"
CASS COALITION,FAMILY FARE RED BOX AVAILABLE,56151 M-51 SOUTH,DOWAGIAC,MI,49047,"http://maps.google.com/maps?q=56151 M-51 SOUTH,+DOWAGIAC,+MI+49047&hl=en"
CASS COALITION,HOWARD TOWNSHIP HALL,1345 BARRON LAKE ROAD,NILES,MI,49120,"http://maps.google.com/maps?q=1345 BARRON LAKE ROAD,+NILES,+MI+49120&hl=en"
CASS COALITION,MARCELLUS TOWNSHIP HALL,13163 MARCELLUS HWY,MARCELLUS,MI,49067,"http://maps.google.com/maps?q=13163 MARCELLUS HWY,+MARCELLUS,+MI+49067&hl=en"
CASS COALITION,ONTWA TWP/EDWARDSBURG POLICE DEPT EXTENDED RED MED BOX AVAILABLITY,26296 US-12,EDWARDSBURG,MI,49112,"http://maps.google.com/maps?q=26296 US-12,+EDWARDSBURG,+MI+49112&hl=en"
CASS COALITION,SILVER CREEK TOWNSHIP HALL,32764 DIXON ST,DOWAGIAC,MI,49047,"http://maps.google.com/maps?q=32764 DIXON ST,+DOWAGIAC,+MI+49047&hl=en"
CHESTERTON POLICE DEPARTMENT,CHESTERTON POLICE DEPARTMENT DROP BOX 24/7,790 BROADWAY,CHESTERTON,IN,46304,"http://maps.google.com/maps?q=790 BROADWAY,+CHESTERTON,+IN+46304&hl=en"
CITY OF ANN ARBOR POLICE DEPARTMENT,ST. FRANCIS OF ASSISI CATHOLIC CHURCH,2250 E STADIUM BLVD,ANN ARBOR,MI,48104,"http://maps.google.com/maps?q=2250 E STADIUM BLVD,+ANN ARBOR,+MI+48104&hl=en"
CITY OF DAVISON POLICE DEPARTMENT,CITY OF DAVISON POLICE DEPARTMENT,200 E. FLINT STREET,DAVISON,MI,48423,"http://maps.google.com/maps?q=200 E. FLINT STREET,+DAVISON,+MI+48423&hl=en"
CLYDE POLICE DEPARTMENT,CLYDE POLICE DEPARTMENT,222 N. MAIN ST.,CLYDE,OH,43410,"http://maps.google.com/maps?q=222 N. MAIN ST.,+CLYDE,+OH+43410&hl=en"
CMHSAS OF ST. JOSEPH COUNTY,ST. JOSEPH COUNTY SHERIFF'S OFFICE,650 EAST MAIN STREET,CENTREVILLE,MI,49032,"http://maps.google.com/maps?q=650 EAST MAIN STREET,+CENTREVILLE,+MI+49032&hl=en"
CRAWFORD COUNTY SHERIFF'S OFFICE,CRAWFORD COUNTY SHERIFF'S OFFICE,200 W MICHIGAN AVE,GRAYLING,MI,49738,"http://maps.google.com/maps?q=200 W MICHIGAN AVE,+GRAYLING,+MI+49738&hl=en"
CROWN POINT POLICE DEPARTMENT,CROWN POINT POLICE DEPARTMENT DROP BOX,124 NORTH EAST STREET,CROWN POINT,IN,46307,"http://maps.google.com/maps?q=124 NORTH EAST STREET,+CROWN POINT,+IN+46307&hl=en"
DAVE CENTALA,ELK RAPIDS POLICE DEPARTMENT,321 BRIDGE,ELK RAPIDS,MI,49629,"http://maps.google.com/maps?q=321 BRIDGE,+ELK RAPIDS,+MI+49629&hl=en"
DEARBORN HEIGHTS POLICE DEPARTMENT,DEARBORN HEIGHTS POLICE DEPARTMENT,25637 MICHIGAN AVE,DEARBORN HEIGHTS,MI,48125,"http://maps.google.com/maps?q=25637 MICHIGAN AVE,+DEARBORN HEIGHTS,+MI+48125&hl=en"
DEARBORN POLICE DEPARTMENT,DEARBORN POLICE DEPARTMENT,16099 MICHIGAN AVE,DEARBORN,MI,48126,"http://maps.google.com/maps?q=16099 MICHIGAN AVE,+DEARBORN,+MI+48126&hl=en"
DECATUR POLICE DEPARTMENT,DECATUR POLICE DEPARTMENT,112 SOUTH 7TH STREET,DECATUR,IN,46733,"http://maps.google.com/maps?q=112 SOUTH 7TH STREET,+DECATUR,+IN+46733&hl=en"
DEFIANCE COUNTY SHERIFF'S OFFICE,DEFIANCE COUNTY SHERIFF'S OFFICE,113 BIEDE AVE,DEFIANCE,OH,43512,"http://maps.google.com/maps?q=113 BIEDE AVE,+DEFIANCE,+OH+43512&hl=en"
DELTA POLICE DEPARTMENT,DELTA MEMORIAL HALL,401 MAIN STREET,DELTA,OH,43515,"http://maps.google.com/maps?q=401 MAIN STREET,+DELTA,+OH+43515&hl=en"
DES PLAINES POLICE DEPARTMENT,DES PLAINES POLICE DEPARTMENT FRONT LOBBY,1418 MINER ST.,DES PLAINES,IL,60016,"http://maps.google.com/maps?q=1418 MINER ST.,+DES PLAINES,+IL+60016&hl=en"
DETROIT POLICE DEPARTMENT,DETROIT POLICE DEPARTMENT 10TH PRECINCT,12000 LIVERNOIS,DETROIT,MI,48206,"http://maps.google.com/maps?q=12000 LIVERNOIS,+DETROIT,+MI+48206&hl=en"
DETROIT POLICE DEPARTMENT,DETROIT POLICE DEPARTMENT 11TH PRECINCT,5100 E. NEVADA,DETROIT,MI,48234,"http://maps.google.com/maps?q=5100 E. NEVADA,+DETROIT,+MI+48234&hl=en"
DETROIT POLICE DEPARTMENT,DETROIT POLICE DEPARTMENT 12TH PRECINCT,1441 W 7 MILE,HIGHLAND PARK,MI,48203,"http://maps.google.com/maps?q=1441 W 7 MILE,+HIGHLAND PARK,+MI+48203&hl=en"
DETROIT POLICE DEPARTMENT,DETROIT POLICE DEPARTMENT 3RD PRECINCT,2875 W. GRAND BLVDSUITE 227,DETROIT,MI,48202,"http://maps.google.com/maps?q=2875 W. GRAND BLVD,+DETROIT,+MI+48202&hl=en"
DETROIT POLICE DEPARTMENT,DETROIT POLICE DEPARTMENT 4TH PRECINCT,4700 W. FORT,DETROIT,MI,48209,"http://maps.google.com/maps?q=4700 W. FORT,+DETROIT,+MI+48209&hl=en"
DETROIT POLICE DEPARTMENT,DETROIT POLICE DEPARTMENT 5TH PRECINCT,3500 CONNER AVE,DETROIT,MI,48215,"http://maps.google.com/maps?q=3500 CONNER AVE,+DETROIT,+MI+48215&hl=en"
DETROIT POLICE DEPARTMENT,DETROIT POLICE DEPARTMENT 6TH PRECINCT,11450 WARWICK,DETROIT,MI,48228,"http://maps.google.com/maps?q=11450 WARWICK,+DETROIT,+MI+48228&hl=en"
DETROIT POLICE DEPARTMENT,DETROIT POLICE DEPARTMENT 7TH PRECINCT,3501 CHENE ST,DETROIT,MI,48207,"http://maps.google.com/maps?q=3501 CHENE ST,+DETROIT,+MI+48207&hl=en"
DETROIT POLICE DEPARTMENT,DETROIT POLICE DEPARTMENT 8TH PRECINCT,21555 W. MCNICHOLS RD.,DETROIT,MI,48219,"http://maps.google.com/maps?q=21555 W. MCNICHOLS RD.,+DETROIT,+MI+48219&hl=en"
DETROIT POLICE DEPARTMENT,DETROIT POLICE DEPARTMENT 9TH PRECINCT,11187 GRATIOT,DETROIT,MI,48213,"http://maps.google.com/maps?q=11187 GRATIOT,+DETROIT,+MI+48213&hl=en"
DETROIT POLICE DEPARTMENT,DETROIT POLICE DEPARTMENT DOWNTOWN SERVICES,20 ATWATER,DETROIT,MI,48226,"http://maps.google.com/maps?q=20 ATWATER,+DETROIT,+MI+48226&hl=en"
DETROIT POLICE DEPARTMENT,ST. JOHNS CONNER CREEK 11TH PRECINCT SECONDARY,4777 E OUTER DRIVE,DETROIT,MI,48234,"http://maps.google.com/maps?q=4777 E OUTER DRIVE,+DETROIT,+MI+48234&hl=en"
DETROIT POLICE DEPARTMENT'S PRECINCT #9,DETROIT POLICE PRECINCT #9,11187 GRATIOT AVE,DETROIT,MI,48213,"http://maps.google.com/maps?q=11187 GRATIOT AVE,+DETROIT,+MI+48213&hl=en"
EAST GRAND RAPIDS PUBLIC SAFETY,EAST GRAND RAPIDS PUBLIC SAFETY MAIN ENTRANCE,770 LAKESIDE DRIVE SE,GRAND RAPIDS,MI,49506,"http://maps.google.com/maps?q=770 LAKESIDE DRIVE SE,+GRAND RAPIDS,+MI+49506&hl=en"
EASTPOINTE POLICE DEPARTMENT,EASTPOINTE POLICE DEPARTMENT,16083 NINE MILE ROAD,EASTPOINTE,MI,48021,"http://maps.google.com/maps?q=16083 NINE MILE ROAD,+EASTPOINTE,+MI+48021&hl=en"
ELK RAPIDS POLICE DEPARTMENT,ELK RAPIDS POLICE,321 BRIDGE STREET,ELK RAPIDS,MI,49629,"http://maps.google.com/maps?q=321 BRIDGE STREET,+ELK RAPIDS,+MI+49629&hl=en"
ELM GROVE POLICE DEPARTMENT,WALGREENS EVENT 10:00AM-2:00PM,15350 WEST BLUEMOUND RD,ELM GROVE,WI,53122,"http://maps.google.com/maps?q=15350 WEST BLUEMOUND RD,+ELM GROVE,+WI+53122&hl=en"
EVANSTON POLICE DEPARTMENT,EVANSTON POLICE DEPARTMENT,1454 ELMWOOD AVE.,EVANSTON,IL,60201,"http://maps.google.com/maps?q=1454 ELMWOOD AVE.,+EVANSTON,+IL+60201&hl=en"
EVART POLICE DEPARTMENT,EVART POLICE DEPARTMENT LIMITED LOBBY HOURS PLEASE CALL OR EMAIL FOR PICKUPS,137 N RIVER ST,EVART,MI,49631,"http://maps.google.com/maps?q=137 N RIVER ST,+EVART,+MI+49631&hl=en"
EVERGREEN PARK POLICE DEPARTMENT,EVERGREEN PARK POLICE DEPARMENT,9420 S KEDZIE AVE,EVERGREEN PARK,IL,60805,"http://maps.google.com/maps?q=9420 S KEDZIE AVE,+EVERGREEN PARK,+IL+60805&hl=en"
FARMINGTON HILLS POLICE DEPARTMENT,FARMINGTON HILLS POLICE DEPARTMENT,31655 W ELEVEN MILE RD.,FARMINGTON HILLS,MI,48336,"http://maps.google.com/maps?q=31655 W ELEVEN MILE RD.,+FARMINGTON HILLS,+MI+48336&hl=en"
FENTON CITY POLICE DEPARTMENT,FENTON CITY POLICE DEPARTMENT,311 S. LEROY STREET,FENTON,MI,48430,"http://maps.google.com/maps?q=311 S. LEROY STREET,+FENTON,+MI+48430&hl=en"
FERNDALE POLICE DEPARTMENT,FERNDALE POLICE DEPARTMENT,310 E NINE MILE,FERNDALE,MI,48220,"http://maps.google.com/maps?q=310 E NINE MILE,+FERNDALE,+MI+48220&hl=en"
FERRIS STATE UNIVERSITY DEPT OF PUBLIC SAFETY,FERRIS STATE UNIVERSITY DEPT OF PUBLIC SAFETY,1319 CRAMER CIRCLE,BIG RAPIDS,MI,49307,"http://maps.google.com/maps?q=1319 CRAMER CIRCLE,+BIG RAPIDS,+MI+49307&hl=en"
FLINT TOWNSHIP POLICE DEPARTMENT,FLINT TOWNSHIP POLICE DEPARTMENT,5200 NORKO DR,FLINT,MI,48507,"http://maps.google.com/maps?q=5200 NORKO DR,+FLINT,+MI+48507&hl=en"
FLUSHING POLICE DEPARTMENT,FLUSHING POLICE DEPARTMENT,725 E MAIN STREET,FLUSHING,MI,48433,"http://maps.google.com/maps?q=725 E MAIN STREET,+FLUSHING,+MI+48433&hl=en"
FREEDOM POLICE DEPARTMENT,FREEDOM TOWN HALL EVENT 11:00 AM TO 2:00 PM,W2004 CNTY RD S,FREEDOM,WI,54131,"http://maps.google.com/maps?q=W2004 CNTY RD S,+FREEDOM,+WI+54131&hl=en"
FREMONT POLICE DEPARTMENT,FREMONT POLICE DEPARTMENT,1141 W. STATE ST.,FREMONT,OH,43420,"http://maps.google.com/maps?q=1141 W. STATE ST.,+FREMONT,+OH+43420&hl=en"
FULTON COUNTY SHERIFF'S OFFICE,FULTON COUNTY SHERIFF'S OFFICE,129 COURTHOUSE PLAZA,WAUSEON,OH,43567,"http://maps.google.com/maps?q=129 COURTHOUSE PLAZA,+WAUSEON,+OH+43567&hl=en"
GIBRALTAR POLICE DEPARTMENT,GIBRALTAR POLICE DEPARTMENT,29450 MUNRO ST,GIBRALTAR,MI,48173,"http://maps.google.com/maps?q=29450 MUNRO ST,+GIBRALTAR,+MI+48173&hl=en"
GLADWIN CITY POLICE,CITY POLICE HEADQUARTERS DROP BOX,109 S CITY PARK,GLADWIN,MI,48624,"http://maps.google.com/maps?q=109 S CITY PARK,+GLADWIN,+MI+48624&hl=en"
GLENDALE POLICE DEPARTMENT,GLENDALE POLICE DEPARTMENT EVENT 12:00PM-3:00PM,5909 N. MILWAUKEE RIVER PKWY,GLENDALE,WI,53209,"http://maps.google.com/maps?q=5909 N. MILWAUKEE RIVER PKWY,+GLENDALE,+WI+53209&hl=en"
GLENVIEW P.D.,GLENVIEW P.D. EAST PARKING LOT,2500 EAST LAKE AVE.,GLENVIEW,IL,60026,"http://maps.google.com/maps?q=2500 EAST LAKE AVE.,+GLENVIEW,+IL+60026&hl=en"
GRAND BLANC TOWNSHIP POLICE DEPARTMENT,GRAND BLANC TOWNSHIP POLICE DEPARTMENT,5405 S SAGINAW STREET,FLINT,MI,48507,"http://maps.google.com/maps?q=5405 S SAGINAW STREET,+FLINT,+MI+48507&hl=en"
GRAND LEDGE POLICE DEPARTMENT,GRAND LEDGE POLICE DEPARTMENT,310 GREENWOOD,GRAND LEDGE,MI,48837,"http://maps.google.com/maps?q=310 GREENWOOD,+GRAND LEDGE,+MI+48837&hl=en"
GRAND RAPIDS POLICE DEPARTMENT,GRAND RAPIDS POLICE DEPARTMENT,1 MONROE CENTER NORTHWEST,GRAND RAPIDS,MI,49503,"http://maps.google.com/maps?q=1 MONROE CENTER NORTHWEST,+GRAND RAPIDS,+MI+49503&hl=en"
GRAND TRAVERSE BAND TRIBAL POLICE,GRAND TRAVERSE BAND TRIBAL POLICE,2300 N. STALLMAN RD.,SUTTONS BAY,MI,49682,"http://maps.google.com/maps?q=2300 N. STALLMAN RD.,+SUTTONS BAY,+MI+49682&hl=en"
GRAND TRAVERSE COUNTY SHERIFF'S OFFICE,ACME TOWNSHIP HALL,6042 ACME ROAD,WILLIAMSBURG,MI,49690,"http://maps.google.com/maps?q=6042 ACME ROAD,+WILLIAMSBURG,+MI+49690&hl=en"
GRAND TRAVERSE COUNTY SHERIFF'S OFFICE,FIFE LAKE TOWNSHIP FIRE DEPARTMENT,134 MORGAN STREET,FIFE LAKE,MI,49633,"http://maps.google.com/maps?q=134 MORGAN STREET,+FIFE LAKE,+MI+49633&hl=en"
GRAND TRAVERSE COUNTY SHERIFF'S OFFICE,GRAND TRAVERSE MALL LOCATION SOUTH OF FOOD COURT ENTRANCE,3200 WEST SOUTH AIRPORT ROAD,TRAVERSE CITY,MI,49684,"http://maps.google.com/maps?q=3200 WEST SOUTH AIRPORT ROAD,+TRAVERSE CITY,+MI+49684&hl=en"
GRAND TRAVERSE COUNTY SHERIFF'S OFFICE,MUNSON COMMUNITY HEALTH CENTER LOCATION STAFFED BY TRAVERSE CITY POLICE DEPARTMENT,550 MUNSON AVENUE,TRAVERSE CITY,MI,49686,"http://maps.google.com/maps?q=550 MUNSON AVENUE,+TRAVERSE CITY,+MI+49686&hl=en"
GRAND TRAVERSE COUNTY SHERIFF'S OFFICE,PARADISE TOWNSHIP EMERGENCY SERVICES,2266 EAST M-113,KINGSLEY,MI,49649,"http://maps.google.com/maps?q=2266 EAST M-113,+KINGSLEY,+MI+49649&hl=en"
GRAND TRAVERSE COUNTY SHERIFF'S OFFICE,PENINSULA TOWNSHIP FIRE DEPARTMENT,14247 CENTER ROAD,TRAVERSE CITY,MI,49686,"http://maps.google.com/maps?q=14247 CENTER ROAD,+TRAVERSE CITY,+MI+49686&hl=en"
GRAND TRAVERSE COUNTY SHERIFF'S OFFICE,SGT. DENNIS FINCH LAW ENFORCEMENT CENTER LOCATION STAFFED BY TRAVERSE CITY POLICE DEPARTMENT,851 WOODMERE AVENUE,TRAVERSE CITY,MI,49686,"http://maps.google.com/maps?q=851 WOODMERE AVENUE,+TRAVERSE CITY,+MI+49686&hl=en"
GRATIOT COUNTY SHERIFF'S DEPARTMENT,GRATIOT COUNTY SHERIFF'S DEPARTMENT,226 E CENTER,ITHACA,MI,48847,"http://maps.google.com/maps?q=226 E CENTER,+ITHACA,+MI+48847&hl=en"
GRAYLING POLICE DEPARTMENT,GRAYLING POLICE DEPARTMENT,1020 CITY BLVD,GRAYLING,MI,49738,"http://maps.google.com/maps?q=1020 CITY BLVD,+GRAYLING,+MI+49738&hl=en"
GREENFIELD POLICE DEPARTMENT,PICK N SAVE EVENT 10:00AM-2:00PM,4279 S 76TH STREET,GREENFIELD,WI,53220,"http://maps.google.com/maps?q=4279 S 76TH STREET,+GREENFIELD,+WI+53220&hl=en"
GRIFFITH POLICE DEPARTMENT,GRIFFITH POLICE DEPARTMENT DROP BOX,115 NORTH BROAD STREET,GRIFFITH,IN,46319,"http://maps.google.com/maps?q=115 NORTH BROAD STREET,+GRIFFITH,+IN+46319&hl=en"
GUN LAKE TRIBE PUBLIC SAFETY DEPARTMENT,GUN LAKE TRIBE PUBLIC SAFETY,2869 MNO BMADZEWEN DR.,SHELBYVILLE,MI,49344,"http://maps.google.com/maps?q=2869 MNO BMADZEWEN DR.,+SHELBYVILLE,+MI+49344&hl=en"
HALES CORNERS POLICE DEPARTMENT,HALES CORNERS POLICE DEPARTMENT EVENT 9:00AM-2:00PM,5635 S NEW BERLIN ROAD,HALES CORNERS,WI,53130,"http://maps.google.com/maps?q=5635 S NEW BERLIN ROAD,+HALES CORNERS,+WI+53130&hl=en"
HAMMOND POLICE DEPARTMENT,HAMMOND POLICE DEPARTMENT,509 DOUGLAS STREET,HAMMOND,IN,46320,"http://maps.google.com/maps?q=509 DOUGLAS STREET,+HAMMOND,+IN+46320&hl=en"
HAMTRAMCK POLICE DEPARTMENT,SENIOR HOUSING PLAZA,2600 HOLBROOK,HAMTRAMCK,MI,48212,"http://maps.google.com/maps?q=2600 HOLBROOK,+HAMTRAMCK,+MI+48212&hl=en"
HAZEL PARK POLICE,HAZEL PARK POLICE DEPARTMENT,111 E NINE MILE,HAZEL PARK,MI,48030,"http://maps.google.com/maps?q=111 E NINE MILE,+HAZEL PARK,+MI+48030&hl=en"
HEBRON POLICE DEPARTMENT,HEBRON POLICE DEPARTMENT DROP BOX,611 NORTH MAIN STREET,HEBRON,IN,46341,"http://maps.google.com/maps?q=611 NORTH MAIN STREET,+HEBRON,+IN+46341&hl=en"
HENRY COUNTY SHERIFF'S OFFICE,HENRY COUNTY SHERIFF'S OFFICE,123 E WASHINGTON,NAPOLEON,OH,43545,"http://maps.google.com/maps?q=123 E WASHINGTON,+NAPOLEON,+OH+43545&hl=en"
HIGHLAND POLICE DEPARTMENT,HIGHLAND POLICE DEPARTMENT DROP BOX,3315 RIDGE RD.,HIGHLAND,IN,46322,"http://maps.google.com/maps?q=3315 RIDGE RD.,+HIGHLAND,+IN+46322&hl=en"
HOBART POLICE DEPARTMENT,HOBART POLICE DEPARTMENT DROP BOX M-F 8-5,705 EAST FOURTH STREET,HOBART,IN,46342,"http://maps.google.com/maps?q=705 EAST FOURTH STREET,+HOBART,+IN+46342&hl=en"
HOLLAND DEPARTMENT OF PUBLIC SAFETY,HOLLAND DEPARTMENT OF PUBLIC SAFETY,89 W 8TH STREET,HOLLAND,MI,49423,"http://maps.google.com/maps?q=89 W 8TH STREET,+HOLLAND,+MI+49423&hl=en"
HOLLAND POLICE DEPARTMENT,HOLLAND KROGER,7059 ORCHARD CENTRE DR,HOLLAND,OH,43528,"http://maps.google.com/maps?q=7059 ORCHARD CENTRE DR,+HOLLAND,+OH+43528&hl=en"
HOLLAND POLICE DEPARTMENT,HOLLAND POLICE DEPARTMENT,1245 CLARION AVENUE,HOLLAND,OH,43528,"http://maps.google.com/maps?q=1245 CLARION AVENUE,+HOLLAND,+OH+43528&hl=en"
INDIANA BOARD OF PHARMACY,IU NORTHWEST CAMPUS IU CAMPUS PD,3400 BROADWAY,GARY,IN,46408,"http://maps.google.com/maps?q=3400 BROADWAY,+GARY,+IN+46408&hl=en"
INDIANA BOARD OF PHARMACY,PARKVIEW WHITLEY HOSPITAL PARKING LOT WHITLEY COUNTY SHERIFF DEPT,1260 E STATE ROAD 205,COLUMBIA CITY,IN,46725,"http://maps.google.com/maps?q=1260 E STATE ROAD 205,+COLUMBIA CITY,+IN+46725&hl=en"
INDIANA STATE POLICE,INDIANA STATE POLICE DISTRICT 22,5811 ELLISON ROAD,FORT WAYNE,IN,46804,"http://maps.google.com/maps?q=5811 ELLISON ROAD,+FORT WAYNE,+IN+46804&hl=en"
INDIANA STATE POLICE,INDIANA STATE POLICE DISTRICT 24,1425 MIAMI TRAIL,BREMEN,IN,46506,"http://maps.google.com/maps?q=1425 MIAMI TRAIL,+BREMEN,+IN+46506&hl=en"
IOSCO COUNTY SHERIFF'S OFFICE,IOSCO COUNTY SHERIFF'S OFFICE,428 W LAKE STREET,TAWAS CITY,MI,48763,"http://maps.google.com/maps?q=428 W LAKE STREET,+TAWAS CITY,+MI+48763&hl=en"
KALKASKA COUNTY SHERIFF'S OFFICE,KALKASKA COUNTY SHERIFF'S OFFICE,605 N BIRCH STREET,KALKASKA,MI,49646,"http://maps.google.com/maps?q=605 N BIRCH STREET,+KALKASKA,+MI+49646&hl=en"
KALKASKA COUNTY SHERIFF'S OFFICE,KALKASKA COUNTY SHERIFF'S OFFICE,605 N. BIRCH STREET,KALKASKA,MI,49646,"http://maps.google.com/maps?q=605 N. BIRCH STREET,+KALKASKA,+MI+49646&hl=en"
KAUKAUNA POLICE DEPARTMENT,KAUKAUNA POLICE DEPARTMENT EVENT 12:00AM-4:00PM,144 W 2ND STREET,KAUKAUNA,WI,54130,"http://maps.google.com/maps?q=144 W 2ND STREET,+KAUKAUNA,+WI+54130&hl=en"
KENOSHA COUNTY SHERIFF'S DEPARTMENT,KENOSHA COUNTY CENTER EVENT 9:00AM-1:00PM,19600 75TH STREET,BRISTOL,WI,53104,"http://maps.google.com/maps?q=19600 75TH STREET,+BRISTOL,+WI+53104&hl=en"
KENT COUNTY SHERIFF'S DEPARTMENT,METRO HEALTH PARK EAST PHARMACY JANIS JILES (616) 252-4045,4055 CASCADE RD. SE,GRAND RAPIDS,MI,49546,"http://maps.google.com/maps?q=4055 CASCADE RD. SE,+GRAND RAPIDS,+MI+49546&hl=en"
KENTWOOD POLICE DEPARTMENT,KENTWOOD POLICE DEPARTMENT,4742 WALMA AVENUE SE,GRAND RAPIDS,MI,49512,"http://maps.google.com/maps?q=4742 WALMA AVENUE SE,+GRAND RAPIDS,+MI+49512&hl=en"
LAGRANGE PARK POLICE,LAGRANGE PARK POLICE,447 N CATHERIN,LA GRANGE PARK,IL,60526,"http://maps.google.com/maps?q=447 N CATHERIN,+LA GRANGE PARK,+IL+60526&hl=en"
LAKE COUNTY SHERIFF OFFICE,LONG GROVE FIRE DEPT,1165 OLD MCHENRY RD,LAKE ZURICH,IL,60047,"http://maps.google.com/maps?q=1165 OLD MCHENRY RD,+LAKE ZURICH,+IL+60047&hl=en"
LAKE COUNTY SHERIFF OFFICE,SAINT PETER CHURCH,27551 VOLO VILLAGE RD,ROUND LAKE,IL,60073,"http://maps.google.com/maps?q=27551 VOLO VILLAGE RD,+ROUND LAKE,+IL+60073&hl=en"
LAKE COUNTY SHERIFF OFFICE,VILLAGE OF BEACH PARK,11270 W. WADSORTH RD,ZION,IL,60099,"http://maps.google.com/maps?q=11270 W. WADSORTH RD,+ZION,+IL+60099&hl=en"
LAKE COUNTY SHERIFF'S DEPARTMENT,"LAKE COUNTY SHERIFF'S DEPARTMENT BUILDING C, MAIN LOBBY",2293 NORTH MAIN STREET,CROWN POINT,IN,46307,"http://maps.google.com/maps?q=2293 NORTH MAIN STREET,+CROWN POINT,+IN+46307&hl=en"
LAKE FOREST POLICE DEPARTMENT,LAKE FOREST HOSPITAL BAYS MEDICAL BUILDING ENTRANCE,900 N WESTMORELAND,LAKE FOREST,IL,60045,"http://maps.google.com/maps?q=900 N WESTMORELAND,+LAKE FOREST,+IL+60045&hl=en"
LAKE ORION POLICE DEPARTMENT,LAKE ORION POLICE DEPARTMENT,21 E. CHURCH ST.,LAKE ORION,MI,48362,"http://maps.google.com/maps?q=21 E. CHURCH ST.,+LAKE ORION,+MI+48362&hl=en"
LAKE ZURICH POLICE DEPARTMENT,MARIANO'S GROCERY STORE,1350 E. ROUTE 22,LAKE ZURICH,IL,60047,"http://maps.google.com/maps?q=1350 E. ROUTE 22,+LAKE ZURICH,+IL+60047&hl=en"
LEELANAU COUNTY SHERIFF'S OFFICE,LEELANAU COUNTY SHERIFF'S OFFICE,8525 EAST GOVERNMENT CENTER DRIVE,SUTTONS BAY,MI,49682,"http://maps.google.com/maps?q=8525 EAST GOVERNMENT CENTER DRIVE,+SUTTONS BAY,+MI+49682&hl=en"
LENAWEE COUNTY SHERIFF'S OFFICE,PROMEDICA BIXBY HOSPITAL,818 RIVERSIDE AVE,ADRIAN,MI,49221,"http://maps.google.com/maps?q=818 RIVERSIDE AVE,+ADRIAN,+MI+49221&hl=en"
LITTLE RIVER BAND OF OTTAWA INDIANS,"3031 DOMRES RD, MANISTEE, MI. 49660",3031 DOMRES RD,MANISTEE,MI,49660,"http://maps.google.com/maps?q=3031 DOMRES RD,+MANISTEE,+MI+49660&hl=en"
LIVINGSTON COUNTY SHERRIFF'S OFFICE,LIVINGSTON COUNTY SHERIFF'S OFFICE JAIL LOBBY,150 S HIGHLANDER WAY,HOWELL,MI,48843,"http://maps.google.com/maps?q=150 S HIGHLANDER WAY,+HOWELL,+MI+48843&hl=en"
LOWELL POLICE DEPARTMENT,LOWELL POLICE DEPARTMENT,111 N MONROE,LOWELL,MI,49331,"http://maps.google.com/maps?q=111 N MONROE,+LOWELL,+MI+49331&hl=en"
LUCAS COUNTY SHERIFF'S OFFICE,KROGER,8730 WATERVILLE SWANTON ROAD,WATERVILLE,OH,43566,"http://maps.google.com/maps?q=8730 WATERVILLE SWANTON ROAD,+WATERVILLE,+OH+43566&hl=en"
LUCAS COUNTY SHERIFF'S OFFICE,LUCAS COUNTY HEALTH DEPARTMENT,635 NORTH ERIE STREET,TOLEDO,OH,43604,"http://maps.google.com/maps?q=635 NORTH ERIE STREET,+TOLEDO,+OH+43604&hl=en"
LUCAS COUNTY SHERIFF'S OFFICE,MONCLOVA TOWNSHIP FIRE DEPARTMENT,4395 ALBON ROAD,MONCLOVA,OH,43542,"http://maps.google.com/maps?q=4395 ALBON ROAD,+MONCLOVA,+OH+43542&hl=en"
LUCAS COUNTY SHERIFF'S OFFICE,SPRINGFIELD TOWNSHIP FIRE STATION #3,7145 GARDEN ROAD,MAUMEE,OH,43537,"http://maps.google.com/maps?q=7145 GARDEN ROAD,+MAUMEE,+OH+43537&hl=en"
LUCAS COUNTY SHERIFF'S OFFICE,VILLAGE OF WHITEHOUSE FIRE DEPARTMENT,10550 WATERVILLE STREET,WHITEHOUSE,OH,43571,"http://maps.google.com/maps?q=10550 WATERVILLE STREET,+WHITEHOUSE,+OH+43571&hl=en"
LUCAS COUNTY SHERIFF'S OFFICE,WASHINGTON TWP FIRE DEPARTMENT,2469 SHORELAND DRIVE,TOLEDO,OH,43611,"http://maps.google.com/maps?q=2469 SHORELAND DRIVE,+TOLEDO,+OH+43611&hl=en"
MACOMB COLLEGE POLICE,MACOMB COLLEGE POLICE SGT. ANTHONY GREENE,14500 E. 12 MILE RD. - K340,WARREN,MI,48088,"http://maps.google.com/maps?q=14500 E. 12 MILE RD. - K340,+WARREN,+MI+48088&hl=en"
MADISON HEIGHTS POLICE DEPARTMENT,MADISON HEIGHTS POLICE DEPARTMENT,280 W 13 MILE ROAD,MADISON HEIGHTS,MI,48071,"http://maps.google.com/maps?q=280 W 13 MILE ROAD,+MADISON HEIGHTS,+MI+48071&hl=en"
MARION POLICE DEPARTMENT,MARION POLICE DEPARTMENT ALEX KENWORTHY,301 S. BRANSONMARION,MARION,IN,46952,"http://maps.google.com/maps?q=301 S. BRANSON,+MARION,+IN+46952&hl=en"
MAUMEE POLICE DIVISION,MAUMEE POLICE DIVISION,109 EAST DUDLEY ST,MAUMEE,OH,43537,"http://maps.google.com/maps?q=109 EAST DUDLEY ST,+MAUMEE,+OH+43537&hl=en"
MAUMEE POLICE DIVISION,ST LUKES HOSPITAL ENTRANCE YELLOW 3,5901 MONCLOVA,MAUMEE,OH,43537,"http://maps.google.com/maps?q=5901 MONCLOVA,+MAUMEE,+OH+43537&hl=en"
MECOSTA COUNTY SHERIFF'S OFFICE,MECOSTA COUNTY SHERIFF'S OFFICE,225 S STEWART STREET,BIG RAPIDS,MI,49307,"http://maps.google.com/maps?q=225 S STEWART STREET,+BIG RAPIDS,+MI+49307&hl=en"
MELVINDALE POLICE DEPARTMENT,MELVINDALE POLICE DEPARTMENT,3100 OAKWOOD BLVD,MELVINDALE,MI,48122,"http://maps.google.com/maps?q=3100 OAKWOOD BLVD,+MELVINDALE,+MI+48122&hl=en"
MEQUON POLICE DEPARTMENT,CONCORDIA UNIVERSITY EVENT 10:00 AM - 2:00 PM,12800 N LAKE SHORE DR,MEQUON,WI,53092,"http://maps.google.com/maps?q=12800 N LAKE SHORE DR,+MEQUON,+WI+53092&hl=en"
MERCER COUNTY SHERIFF'S OFFICE,FORT RECOVERY POLICE DEPARTMENT,201 SOUTH MAIN STREET,FORT RECOVERY,OH,45846,"http://maps.google.com/maps?q=201 SOUTH MAIN STREET,+FORT RECOVERY,+OH+45846&hl=en"
METRICH DRUG TASK FORCE,CAREY POLICE DEPARTMENT,127 N. VANCE ST.,CAREY,OH,43316,"http://maps.google.com/maps?q=127 N. VANCE ST.,+CAREY,+OH+43316&hl=en"
METRICH DRUG TASK FORCE,FOSTORIA POLICE DEPARTMENT,213 S. MAIN ST.,FOSTORIA,OH,44830,"http://maps.google.com/maps?q=213 S. MAIN ST.,+FOSTORIA,+OH+44830&hl=en"
METRICH DRUG TASK FORCE,HANCOCK CO. SHERIFF'S OFFICE,200 W. CRAWFORD ST.,FINDLAY,OH,45840,"http://maps.google.com/maps?q=200 W. CRAWFORD ST.,+FINDLAY,+OH+45840&hl=en"
METRICH DRUG TASK FORCE,SENECA CO. SHERIFF'S OFFICE,3040 S. ST. RTE. 100,TIFFIN,OH,44883,"http://maps.google.com/maps?q=3040 S. ST. RTE. 100,+TIFFIN,+OH+44883&hl=en"
METRICH DRUG TASK FORCE,TIFFIN POLICE DEPARTMENT,51 E. MARKET ST. #4TIFFIN,TIFFIN,OH,44883,"http://maps.google.com/maps?q=51 E. MARKET ST. #4,+TIFFIN,+OH+44883&hl=en"
METROPOLITAN WATER RECLAMATION POLICE,METOPOLITAN WATER RECLAMATION POLICE,6001 W. PERSHING RD,CHICAGO,IL,60609,"http://maps.google.com/maps?q=6001 W. PERSHING RD,+CHICAGO,+IL+60609&hl=en"
METROPOLITAN WATER RECLAMATION POLICE,METRO WATER RECLAMATION POLICE,3500 HOWARD ST,SKOKIE,IL,60076,"http://maps.google.com/maps?q=3500 HOWARD ST,+SKOKIE,+IL+60076&hl=en"
METROPOLITAN WATER RECLAMATION POLICE,METRO WATER RECLAMATION POLICE,400 E. 130TH ST,CHICAGO,IL,60628,"http://maps.google.com/maps?q=400 E. 130TH ST,+CHICAGO,+IL+60628&hl=en"
METROPOLITAN WATER RECLAMATION POLICE,METRO WATER RECLAMATION POLICE,6001 W. PERSHING RD,CICERO,IL,60804,"http://maps.google.com/maps?q=6001 W. PERSHING RD,+CICERO,+IL+60804&hl=en"
MICHIGAN STATE POLICE,MICHIGAN STATE POLICE ALPENA POST,3283 WEST WASHINGTON,ALPENA,MI,49707,"http://maps.google.com/maps?q=3283 WEST WASHINGTON,+ALPENA,+MI+49707&hl=en"
MICHIGAN STATE POLICE,MICHIGAN STATE POLICE BRIGHTON POST,4337 BUNO ROAD,BRIGHTON,MI,48114,"http://maps.google.com/maps?q=4337 BUNO ROAD,+BRIGHTON,+MI+48114&hl=en"
MICHIGAN STATE POLICE,MICHIGAN STATE POLICE CADILLAC POST,7711 U.S. 131,CADILLAC,MI,49601,"http://maps.google.com/maps?q=7711 U.S. 131,+CADILLAC,+MI+49601&hl=en"
MICHIGAN STATE POLICE,MICHIGAN STATE POLICE CARO POST,1485 CLEAVER ROAD,CARO,MI,48723,"http://maps.google.com/maps?q=1485 CLEAVER ROAD,+CARO,+MI+48723&hl=en"
MICHIGAN STATE POLICE,MICHIGAN STATE POLICE FLINT POST,G-4481 CORUNNA ROAD,FLINT,MI,48532,"http://maps.google.com/maps?q=G-4481 CORUNNA ROAD,+FLINT,+MI+48532&hl=en"
MICHIGAN STATE POLICE,MICHIGAN STATE POLICE GAYLORD POST,563 SOUTH OTSEGO,GAYLORD,MI,49735,"http://maps.google.com/maps?q=563 SOUTH OTSEGO,+GAYLORD,+MI+49735&hl=en"
MICHIGAN STATE POLICE,MICHIGAN STATE POLICE HART POST,3793 WEST POLK ROAD,HART,MI,49420,"http://maps.google.com/maps?q=3793 WEST POLK ROAD,+HART,+MI+49420&hl=en"
MICHIGAN STATE POLICE,MICHIGAN STATE POLICE HOUGHTON LAKE POST,9011 W LAKE CITY ROAD,HOUGHTON LAKE,MI,48629,"http://maps.google.com/maps?q=9011 W LAKE CITY ROAD,+HOUGHTON LAKE,+MI+48629&hl=en"
MICHIGAN STATE POLICE,MICHIGAN STATE POLICE JACKSON POST,3401 COOPER STREET,JACKSON,MI,49201,"http://maps.google.com/maps?q=3401 COOPER STREET,+JACKSON,+MI+49201&hl=en"
MICHIGAN STATE POLICE,MICHIGAN STATE POLICE LAKEVIEW POST,10300 HOWARD CITY-EDMORE ROAD,LAKEVIEW,MI,48850,"http://maps.google.com/maps?q=10300 HOWARD CITY-EDMORE ROAD,+LAKEVIEW,+MI+48850&hl=en"
MICHIGAN STATE POLICE,MICHIGAN STATE POLICE LANSING POST,7119 NORTH CANAL ROAD,LANSING,MI,48913,"http://maps.google.com/maps?q=7119 NORTH CANAL ROAD,+LANSING,+MI+48913&hl=en"
MICHIGAN STATE POLICE,MICHIGAN STATE POLICE LAPEER POST,975 SOUTH MAIN STREET,LAPEER,MI,48446,"http://maps.google.com/maps?q=975 SOUTH MAIN STREET,+LAPEER,+MI+48446&hl=en"
MICHIGAN STATE POLICE,MICHIGAN STATE POLICE MARSHALL POST (MOVED FROM COLDWATER),714 US HIGHWAY 27N,MARSHALL,MI,49068,"http://maps.google.com/maps?q=714 US HIGHWAY 27N,+MARSHALL,+MI+49068&hl=en"
MICHIGAN STATE POLICE,MICHIGAN STATE POLICE METRO NORTH POST,14350 W. 10 MILE RD.,OAK PARK,MI,48237,"http://maps.google.com/maps?q=14350 W. 10 MILE RD.,+OAK PARK,+MI+48237&hl=en"
MICHIGAN STATE POLICE,MICHIGAN STATE POLICE METRO SOUTH POST,12111 TELEGRAPH,TAYLOR,MI,48180,"http://maps.google.com/maps?q=12111 TELEGRAPH,+TAYLOR,+MI+48180&hl=en"
MICHIGAN STATE POLICE,MICHIGAN STATE POLICE MONROE POST,300 JONES AVENUE,MONROE,MI,48161,"http://maps.google.com/maps?q=300 JONES AVENUE,+MONROE,+MI+48161&hl=en"
MICHIGAN STATE POLICE,MICHIGAN STATE POLICE MOUNT PLEASANT POST,3580 SOUTH ISABELLA ROAD,MOUNT PLEASANT,MI,48858,"http://maps.google.com/maps?q=3580 SOUTH ISABELLA ROAD,+MOUNT PLEASANT,+MI+48858&hl=en"
MICHIGAN STATE POLICE,MICHIGAN STATE POLICE NILES POST,1600 SILVERBROOK AVENUE,NILES,MI,49120,"http://maps.google.com/maps?q=1600 SILVERBROOK AVENUE,+NILES,+MI+49120&hl=en"
MICHIGAN STATE POLICE,MICHIGAN STATE POLICE PAW PAW POST,43255 60TH AVENUE,PAW PAW,MI,49079,"http://maps.google.com/maps?q=43255 60TH AVENUE,+PAW PAW,+MI+49079&hl=en"
MICHIGAN STATE POLICE,MICHIGAN STATE POLICE ROCKFORD POST,345 NORTHLAND DRIVE NE,ROCKFORD,MI,49341,"http://maps.google.com/maps?q=345 NORTHLAND DRIVE NE,+ROCKFORD,+MI+49341&hl=en"
MICHIGAN STATE POLICE,MICHIGAN STATE POLICE TRI-CITY POST,2402 SALZBURG ROAD,FREELAND,MI,48623,"http://maps.google.com/maps?q=2402 SALZBURG ROAD,+FREELAND,+MI+48623&hl=en"
MICHIGAN STATE POLICE,MICHIGAN STATE POLICE WAYLAND POST,544 NORTH MAIN STREET,WAYLAND,MI,49348,"http://maps.google.com/maps?q=544 NORTH MAIN STREET,+WAYLAND,+MI+49348&hl=en"
MICHIGAN STATE POLICE,MICHIGAN STATE POLICE WEST BRANCH POST,496 EAST HOUGHTON,WEST BRANCH,MI,48661,"http://maps.google.com/maps?q=496 EAST HOUGHTON,+WEST BRANCH,+MI+48661&hl=en"
MILAN POLICE DEPARTMENT,MILAN POLICE DEPARTMENT,35 NECKEL COURT,MILAN,MI,48160,"http://maps.google.com/maps?q=35 NECKEL COURT,+MILAN,+MI+48160&hl=en"
MISSAUKEE COUNTY SHERIFF'S DEPARTMENT,MISSAUKEE COUNTY SHERIFF'S DEPARTMENT,110 S PINE STREET,LAKE CITY,MI,49651,"http://maps.google.com/maps?q=110 S PINE STREET,+LAKE CITY,+MI+49651&hl=en"
MONTPELIER POLICE DEPARTMENT,MONTPELIER POLICE DEPARTMENT,221 EMPIRE ST.,MONTPELIER,OH,43543,"http://maps.google.com/maps?q=221 EMPIRE ST.,+MONTPELIER,+OH+43543&hl=en"
MOTT COMMUNITY COLLEGE PUBLIC SAFETY,MOTT COMMUNITY COLLEGE PUBLIC SAFETY BLDG,ENTRANCE @ PRESIDENTIAL DR AT GORMAN DRIVE,FLINT,MI,48503,"http://maps.google.com/maps?q=ENTRANCE @ PRESIDENTIAL DR AT GORMAN DRIVE,+FLINT,+MI+48503&hl=en"
MOUNT PROSPECT POLICE DEPARTMENT,POLICE DEPARTMENT LOBBY,112 E. NORTHWEST HWY,MOUNT PROSPECT,IL,60056,"http://maps.google.com/maps?q=112 E. NORTHWEST HWY,+MOUNT PROSPECT,+IL+60056&hl=en"
MUNSTER POLICE DEPARTMENT,MUNSTER POLICE DEPARTMENT DROP BOX,1001 RIDGE RD.,MUNSTER,IN,46321,"http://maps.google.com/maps?q=1001 RIDGE RD.,+MUNSTER,+IN+46321&hl=en"
MUSKEGO POLICE DEPARTMENT,MUSKEGO POLICE DEPARTMENT EVENT 2:00PM-5:00PM,W182 S8200 RACINE AVE,MUSKEGO,WI,53150,"http://maps.google.com/maps?q=W182 S8200 RACINE AVE,+MUSKEGO,+WI+53150&hl=en"
MUSKEGON COUNTY SHERIFF'S OFFICE AND MAMDP,MUSKEGON CITY FIRE DEPARTMENT PROGRAM RUNS FROM 9:00 AM TO 1:00 PM,770 TERRACE ST,MUSKEGON,MI,49440,"http://maps.google.com/maps?q=770 TERRACE ST,+MUSKEGON,+MI+49440&hl=en"
NAPOLEON POLICE DEPARTMENT,NAPOLEON POLICE DEPARTMENT COLLECTED AT MAN UNIT,310 GLENWOOD AVE,NAPOLEON,OH,43545,"http://maps.google.com/maps?q=310 GLENWOOD AVE,+NAPOLEON,+OH+43545&hl=en"
NAPOLEON POLICE DEPARTMENT,NAPOLEON POLICE DEPARTMENT COLLECTED AT MAN UNIT,401 GREENHOUSE ST,DEFIANCE,OH,43512,"http://maps.google.com/maps?q=401 GREENHOUSE ST,+DEFIANCE,+OH+43512&hl=en"
NEWAYGO COUNTY SHERIFF'S OFFICE,FREMONT FIRE DEPARTMENT FREMONT CITY POLICE WILL BE MANNING THIS STATION.,101 E MAIN ST #2,FREMONT,MI,49412,"http://maps.google.com/maps?q=101 E MAIN ST #2,+FREMONT,+MI+49412&hl=en"
NEWAYGO COUNTY SHERIFF'S OFFICE,GRANT FIRE DEPARTMENT GRANT PD WILL BE MANNING THIS STATION.,62 W STATE RD,GRANT,MI,49327,"http://maps.google.com/maps?q=62 W STATE RD,+GRANT,+MI+49327&hl=en"
NEWAYGO COUNTY SHERIFF'S OFFICE,HOMETOWN PHARMACY- NEWAYGO NEWAYGO CITY POLICE WILL BE MANNING THIS COLLECTION SITE.,60 82ND STREET,NEWAYGO,MI,49337,"http://maps.google.com/maps?q=60 82ND STREET,+NEWAYGO,+MI+49337&hl=en"
NEWAYGO COUNTY SHERIFF'S OFFICE,WHITE CLOUD FAMILY HEALTH CARE NEWAYGO COUNTY SHERIFF'S OFFICE WILL MAN THIS STATION.,1035 E WILCOX AVE,WHITE CLOUD,MI,49349,"http://maps.google.com/maps?q=1035 E WILCOX AVE,+WHITE CLOUD,+MI+49349&hl=en"
NEWAYGO POLICE DEPARTMENT,HOMETOWN PHARMACY,226 W RIVER VALLEY DR,NEWAYGO,MI,49337,"http://maps.google.com/maps?q=226 W RIVER VALLEY DR,+NEWAYGO,+MI+49337&hl=en"
NORTH RIVERSIDE POLICE DEPARTMENT,NORTH RIVERSIDE POLICE DEPARTMENT,2359 S. DESPLAINES,NORTH RIVERSIDE,IL,60546,"http://maps.google.com/maps?q=2359 S. DESPLAINES,+NORTH RIVERSIDE,+IL+60546&hl=en"
NORTHBROOK POLICE DEPARTMENT,NORTHBROOK POLICE DEPARTMENT,1401 LANDWEHR RD.,NORTHBROOK,IL,60062,"http://maps.google.com/maps?q=1401 LANDWEHR RD.,+NORTHBROOK,+IL+60062&hl=en"
NORTHFIELD POLICE DEPARTMENT,NORTHFIELD POLICE DEPARTMENT,350 WALNUT AVE.,NORTHFIELD,IL,60093,"http://maps.google.com/maps?q=350 WALNUT AVE.,+NORTHFIELD,+IL+60093&hl=en"
NOVI POLICE DEPARTMENT,NOVI POLICE DEPARTMENT,45125 W 10 MILE RD,NOVI,MI,48375,"http://maps.google.com/maps?q=45125 W 10 MILE RD,+NOVI,+MI+48375&hl=en"
OAK CREEK POLICE DEPARTMENT,PICK N SAVE EVENT 10:00AM-2:00PM,8770 S HOWELL AVE,OAK CREEK,WI,53154,"http://maps.google.com/maps?q=8770 S HOWELL AVE,+OAK CREEK,+WI+53154&hl=en"
OAKLAND COUNTY SHERIFF'S OFFICE - LAKE ORION,OAKLAND COUNTY SHERIFF'S OFFICE SUB-STATION,2525 JOSLYN ROAD,LAKE ORION,MI,48360,"http://maps.google.com/maps?q=2525 JOSLYN ROAD,+LAKE ORION,+MI+48360&hl=en"
OAKLAND COUNTY SHERIFF'S OFFICE COMMERCE TWP.,OAKLAND COUNTY SHERIFF'S OFFICE (COMMERCE TWP) DRUG TAKE BACK DAY,9170 COMMERCE RD,COMMERCE TOWNSHIP,MI,48390,"http://maps.google.com/maps?q=9170 COMMERCE RD,+COMMERCE TOWNSHIP,+MI+48390&hl=en"
OCSO ORION TOWNSHIP SUBSTATION,OCSO ORION TOWNSHIP SUBSTATION,2525 JOSLYN ROAD,LAKE ORION,MI,48362,"http://maps.google.com/maps?q=2525 JOSLYN ROAD,+LAKE ORION,+MI+48362&hl=en"
OFFICE OF GENESEE COUNTY SHERIFF,OFFICE OF GENESEE COUNTY SHERIFF ATLAS SUB-STAION,7386 GALE RD,GRAND BLANC,MI,48439,"http://maps.google.com/maps?q=7386 GALE RD,+GRAND BLANC,+MI+48439&hl=en"
OFFICE OF GENESEE COUNTY SHERIFF,OFFICE OF GENESEE COUNTY SHERIFF FENTON SUB-STATION,12060 MANTAWAUKA DRIVEFENTON,FENTON,MI,48430,"http://maps.google.com/maps?q=12060 MANTAWAUKA DRIVE,+FENTON,+MI+48430&hl=en"
OFFICE OF GENESEE COUNTY SHERIFF,OFFICE OF GENESEE COUNTY SHERIFF VIENNA SUB-STATION,3400 W VIENNA RDCLIO,CLIO,MI,48420,"http://maps.google.com/maps?q=3400 W VIENNA RD,+CLIO,+MI+48420&hl=en"
ORCHARD LAKE POLICE DEPARTMENT,ORCHARD LAKE POLICE DEPARTMENT MON-FRIDAY 8AM-4PM EXCEPT ON HOLIDAYS,3955 ORCHARD LAKE RD.,ORCHARD LAKE,MI,48323,"http://maps.google.com/maps?q=3955 ORCHARD LAKE RD.,+ORCHARD LAKE,+MI+48323&hl=en"
OSCODA COUNTY SHERIFF'S OFFICE,OSCODA COUNTY SHERIFF'S OFFICE,301 MORENCI STREET,MIO,MI,48647,"http://maps.google.com/maps?q=301 MORENCI STREET,+MIO,+MI+48647&hl=en"
OTTAWA HILLS POLICE DEPARTMENT,OTTAWA HILLS POLICE DEPARTMENT,2125 RICHARDS RD.,OTTAWA HILLS,OH,43606,"http://maps.google.com/maps?q=2125 RICHARDS RD.,+OTTAWA HILLS,+OH+43606&hl=en"
OWOSSO POLICE DEPARTMENT,OWOSSO POLICE DEPARTMENT,202 S WATER STREET,OWOSSO,MI,48867,"http://maps.google.com/maps?q=202 S WATER STREET,+OWOSSO,+MI+48867&hl=en"
OZAUKEE COUNTY SHERIFF'S OFFICE,OZAUKEE COUNTY TRANSIT CENTER EVENT 10:00 AM - 2:00 PM,741 N OAKLAND AVE,PORT WASHINGTON,WI,53074,"http://maps.google.com/maps?q=741 N OAKLAND AVE,+PORT WASHINGTON,+WI+53074&hl=en"
PAULDING COUNTY SHERIFF'S OFFICE,PAULDING COUNTY SHERIFF'S OFFICE,500 EAST PERRY STREET,PAULDING,OH,45879,"http://maps.google.com/maps?q=500 EAST PERRY STREET,+PAULDING,+OH+45879&hl=en"
PERRYSBURG TOWNSHIP POLICE DEPARTMENT,PERRYSBURG TOWNSHIP POLICE DEPARTMENT,26711 LIME CITY ROAD,PERRYSBURG,OH,43551,"http://maps.google.com/maps?q=26711 LIME CITY ROAD,+PERRYSBURG,+OH+43551&hl=en"
PITTSFIELD POLICE DEPARTMENT,"KROGER STORE, PITTSFIELD TWP. MI",3200 CARPENTER RD.,YPSILANTI,MI,48197,"http://maps.google.com/maps?q=3200 CARPENTER RD.,+YPSILANTI,+MI+48197&hl=en"
PITTSFIELD POLICE DEPARTMENT,PITTSFIELD TWP. POLICE DEPT. MAIN STATION,6227 W. MICHIGAN AVE,ANN ARBOR,MI,48108,"http://maps.google.com/maps?q=6227 W. MICHIGAN AVE,+ANN ARBOR,+MI+48108&hl=en"
PLYMOUTH TOWNSHIP POLICE,PLYMOUTH TOWNSHIP POLICE,9955 N HAGGERTY,PLYMOUTH,MI,48170,"http://maps.google.com/maps?q=9955 N HAGGERTY,+PLYMOUTH,+MI+48170&hl=en"
PORTAGE POLICE DEPARTMENT,PORTAGE POLICE DEPARTMENT DROP BOX 24/7,6260 CENTRAL AVENUE,PORTAGE,IN,46368,"http://maps.google.com/maps?q=6260 CENTRAL AVENUE,+PORTAGE,+IN+46368&hl=en"
PORTER COUNTY SHERIFF'S DEPARTMENT,PORTER COUNTY SHERIFF'S DEPARTMENT DROP BOX,2755 IN-49,VALPARAISO,IN,46383,"http://maps.google.com/maps?q=2755 IN-49,+VALPARAISO,+IN+46383&hl=en"
PORTER POLICE DEPARTMENT,PORTER POLICE DEPARTMENT DROP BOX,50 FRANCIS STREET,PORTER,IN,46304,"http://maps.google.com/maps?q=50 FRANCIS STREET,+PORTER,+IN+46304&hl=en"
PULASKI POLICE DEPARTMENT,PULASKI POLICE DEPARTMENT EVENT 9:00AM-12:00PM,585 E GLENBROOK DRIVE,PULASKI,WI,54162,"http://maps.google.com/maps?q=585 E GLENBROOK DRIVE,+PULASKI,+WI+54162&hl=en"
PUTNAM COUNTY SHERIFF'S OFFICE,PUTNAM COUNTY SHERIFF'S OFFICE,1035 HERITAGE TRAIL,OTTAWA,OH,45875,"http://maps.google.com/maps?q=1035 HERITAGE TRAIL,+OTTAWA,+OH+45875&hl=en"
REDFORD TWP POLICE DEPARTMENT,REDFORD TWP POLICE DEPARTMENT,25833 ELSINORE,REDFORD,MI,48239,"http://maps.google.com/maps?q=25833 ELSINORE,+REDFORD,+MI+48239&hl=en"
REED CITY POLICE DEPARTMENT,REED CITY POLICE DEPARTMENT,229 E LINCOLN AVE,REED CITY,MI,49677,"http://maps.google.com/maps?q=229 E LINCOLN AVE,+REED CITY,+MI+49677&hl=en"
RIVER ROUGE POLICE DEPARTMENT,RIVER ROUGE POLICE DEPARTMENT,10600 W JEFFERSON AVENUE,RIVER ROUGE,MI,48218,"http://maps.google.com/maps?q=10600 W JEFFERSON AVENUE,+RIVER ROUGE,+MI+48218&hl=en"
RIVERVIEW POLICE DEPARTMENT,RIVERVIEW POLICE DEPARTMENT,14100 CIVIC PARK DR,RIVERVIEW,MI,48193,"http://maps.google.com/maps?q=14100 CIVIC PARK DR,+RIVERVIEW,+MI+48193&hl=en"
ROCHESTER POLICE DEPARTMENT,ROCHESTER POLICE DEPARTMENT,400 SIXTH STREET,ROCHESTER,MI,48307,"http://maps.google.com/maps?q=400 SIXTH STREET,+ROCHESTER,+MI+48307&hl=en"
ROCKFORD DEPARTMENT OF PUBLIC SAFETY,ROCKFORD DEPARTMENT OF PUBLIC SAFETY,7 SOUTH MONROE,ROCKFORD,MI,49341,"http://maps.google.com/maps?q=7 SOUTH MONROE,+ROCKFORD,+MI+49341&hl=en"
ROMULUS POLICE DEPARTMENT,ROMULUS POLICE DEPARTMENT,11165 OLIVE,ROMULUS,MI,48174,"http://maps.google.com/maps?q=11165 OLIVE,+ROMULUS,+MI+48174&hl=en"
ROSEVILLE POLICE DEPARTMENT,ROSEVILLE POLICE DEPARTMENT,29753 GRATIOT,ROSEVILLE,MI,48066,"http://maps.google.com/maps?q=29753 GRATIOT,+ROSEVILLE,+MI+48066&hl=en"
ROYAL OAK POLICE DEPARTMENT,ROYAL OAK POLICE DEPARTMENT,211 EAST THIRD STREET,ROYAL OAK,MI,48067,"http://maps.google.com/maps?q=211 EAST THIRD STREET,+ROYAL OAK,+MI+48067&hl=en"
SAGINAW CHIPPEWA TRIBAL POLICE DEPARTMENT,SAGINAW CHIPPEWA TRIBAL POLICE,6954 E. BROADWAY RD.,MOUNT PLEASANT,MI,48858,"http://maps.google.com/maps?q=6954 E. BROADWAY RD.,+MOUNT PLEASANT,+MI+48858&hl=en"
SALINE POLICE DEPARTMENT,SALINE POLICE DEPARTMENT,100 NORTH HARRIS,SALINE,MI,48176,"http://maps.google.com/maps?q=100 NORTH HARRIS,+SALINE,+MI+48176&hl=en"
SANDUSKY COUNTY SHERIFF'S OFFICE,EASTSIDE FIRE AND POLICE,506 PINE ST.,FREMONT,OH,43420,"http://maps.google.com/maps?q=506 PINE ST.,+FREMONT,+OH+43420&hl=en"
SAUK VILLAGE POLICE DEPARTMENT,SAUK VILLAGE POLICE DEPARTMENT POLICE DEPARTMENT LOBBY,21701 TORRENCE AVE.,SAUK VILLAGE,IL,60411,"http://maps.google.com/maps?q=21701 TORRENCE AVE.,+SAUK VILLAGE,+IL+60411&hl=en"
SHEBOYGAN POLICE DEPARTMENT,"GENERATIONS, AN INTERGENERATIONAL CENTER EVENT 10:00 AM-1:00PM",1500 DOUGLAS DR.,PLYMOUTH,WI,53073,"http://maps.google.com/maps?q=1500 DOUGLAS DR.,+PLYMOUTH,+WI+53073&hl=en"
SHEBOYGAN POLICE DEPARTMENT,HOWARDS GROVE VILLAGE HALL EVENT 10:00AM-1:00PM,913 SOUTH WISCONSIN DR,SHEBOYGAN,WI,53083,"http://maps.google.com/maps?q=913 SOUTH WISCONSIN DR,+SHEBOYGAN,+WI+53083&hl=en"
SHEBOYGAN POLICE DEPARTMENT,OOSTBURG HIGH SCHOOL EVENT 10:00AM-1:00PM,410 NEW YORK AVE,OOSTBURG,WI,53070,"http://maps.google.com/maps?q=410 NEW YORK AVE,+OOSTBURG,+WI+53070&hl=en"
SHEBOYGAN POLICE DEPARTMENT,RANDOM LAKE FIRE DEPARTMENT EVENT 10:00AM-1:00PM,718 SPRING STREET,RANDOM LAKE,WI,53075,"http://maps.google.com/maps?q=718 SPRING STREET,+RANDOM LAKE,+WI+53075&hl=en"
SHEBOYGAN POLICE DEPARTMENT,ST. NICHOLAS HOSPITAL EVENT 10:00 AM-1:00PM,3100 SUPERIOR AVE,SHEBOYGAN,WI,53081,"http://maps.google.com/maps?q=3100 SUPERIOR AVE,+SHEBOYGAN,+WI+53081&hl=en"
SHOREWOOD POLICE DEPARTMENT,SHOREWOOD POLICE DEPARTMENT EVENT 8:00AM-3:30PM,4057 N WILSON DR,SHOREWOOD,WI,53211,"http://maps.google.com/maps?q=4057 N WILSON DR,+SHOREWOOD,+WI+53211&hl=en"
SKOKIE POLICE DEPARTMENT,SKOKIE POLICE DEPARTMENT,7300 NILES CENTER,SKOKIE,IL,60077,"http://maps.google.com/maps?q=7300 NILES CENTER,+SKOKIE,+IL+60077&hl=en"
SOUTH LYON POLICE DEPARTMENT,SOUTH LYON PD,219 WHIPPLE ST,SOUTH LYON,MI,48178,"http://maps.google.com/maps?q=219 WHIPPLE ST,+SOUTH LYON,+MI+48178&hl=en"
SOUTH MILWAUKEE POLICE DEPARTMENT,SOUTH MILWAUKEE POLICE DEPARTMENT EVENT 10:00AM-1:00PM,2424 15TH AVE,SOUTH MILWAUKEE,WI,53172,"http://maps.google.com/maps?q=2424 15TH AVE,+SOUTH MILWAUKEE,+WI+53172&hl=en"
ST. JOSEPH COUNTY POLICE,CLAY FIRE STATION 21,18776 CLEVELAND ROAD,SOUTH BEND,IN,46637,"http://maps.google.com/maps?q=18776 CLEVELAND ROAD,+SOUTH BEND,+IN+46637&hl=en"
ST. JOSEPH COUNTY POLICE,CLAY FIRE STATION 25,12481 ANDERSON ROADBITTERSWEET AND ANDERSON,GRANGER,IN,46530,"http://maps.google.com/maps?q=12481 ANDERSON ROAD,+GRANGER,+IN+46530&hl=en"
ST. JOSEPH COUNTY POLICE,DROP BOX,401 WEST SAMPLE STREET,SOUTH BEND,IN,46601,"http://maps.google.com/maps?q=401 WEST SAMPLE STREET,+SOUTH BEND,+IN+46601&hl=en"
ST. JOSEPH COUNTY POLICE,MISHAWAKA FIRE STATION,333 EAST DOUGLAS ROAD,MISHAWAKA,IN,46545,"http://maps.google.com/maps?q=333 EAST DOUGLAS ROAD,+MISHAWAKA,+IN+46545&hl=en"
ST. JOSEPH COUNTY POLICE,NEW CARLISLE FIRE STATION,204 EAST MICHIGAN AVENUE,NEW CARLISLE,IN,46552,"http://maps.google.com/maps?q=204 EAST MICHIGAN AVENUE,+NEW CARLISLE,+IN+46552&hl=en"
ST. JOSEPH COUNTY POLICE,NORTH LIBERTY FIRE STATION,305 S. STATE ST.,NORTH LIBERTY,IN,46554,"http://maps.google.com/maps?q=305 S. STATE ST.,+NORTH LIBERTY,+IN+46554&hl=en"
STERLING HEIGHTS POLICE,FELLOWSHIP CHAPEL,12875 E. 14 MILE RD,STERLING HEIGHTS,MI,48312,"http://maps.google.com/maps?q=12875 E. 14 MILE RD,+STERLING HEIGHTS,+MI+48312&hl=en"
STERLING HEIGHTS POLICE,UTICA UNITED METHODIST CHURCH,8650 CANAL ROAD,STERLING HEIGHTS,MI,48314,"http://maps.google.com/maps?q=8650 CANAL ROAD,+STERLING HEIGHTS,+MI+48314&hl=en"
STURGIS POLICE DEPARTMENT,STURGIS POLICE DEPARTMENT,122 N NOTTAWA STREET,STURGIS,MI,49091,"http://maps.google.com/maps?q=122 N NOTTAWA STREET,+STURGIS,+MI+49091&hl=en"
SYLVANIA POLICE DIVISION,CITY OF SYLVANIA POLICE,6635 MAPLEWOOD AVE.,SYLVANIA,OH,43560,"http://maps.google.com/maps?q=6635 MAPLEWOOD AVE.,+SYLVANIA,+OH+43560&hl=en"
SYLVANIA TOWNSHIP POLICE,SYLVANIA TOWNSHIP POLICE,4420 KING ROAD,SYLVANIA,OH,43560,"http://maps.google.com/maps?q=4420 KING ROAD,+SYLVANIA,+OH+43560&hl=en"
TAWAS POLICE AUTHORITY,TAWAS POLICE AUTHORITY,810 W WESTOVER STREET,EAST TAWAS,MI,48730,"http://maps.google.com/maps?q=810 W WESTOVER STREET,+EAST TAWAS,+MI+48730&hl=en"
THE CENTER FOR URBAN YOUTH AND FAMILY DEVELOPMENT,HARTFORD MEMORIAL BAPTIST CHURCH,18700 JAMES COUSINS,DETROIT,MI,48235,"http://maps.google.com/maps?q=18700 JAMES COUSINS,+DETROIT,+MI+48235&hl=en"
THIENSVILLE POLICE DEPARTMENT,PORT WASHINGTON STATE BANK EVENT 10:00AM-2:00PM,197 S MAIN STREET,THIENSVILLE,WI,53092,"http://maps.google.com/maps?q=197 S MAIN STREET,+THIENSVILLE,+WI+53092&hl=en"
THREE RIVERS POLICE DEPARTMENT,THREE RIVERS POLICE DEPARTMENT,333 W MICHIGAN AVENUE,THREE RIVERS,MI,49093,"http://maps.google.com/maps?q=333 W MICHIGAN AVENUE,+THREE RIVERS,+MI+49093&hl=en"
UNIVERSITY OF MICHIGAN-FLINT DEPT OF PUBLIC SAFETY,UNIVERSITY OF MICHIGAN - FLINT DPS UCEN LOOP,400 MILL STREET,FLINT,MI,48502,"http://maps.google.com/maps?q=400 MILL STREET,+FLINT,+MI+48502&hl=en"
UNIVERSITY OF NOTRE DAME,UNIVERSITY OF NOTRE DAME POLICE DEPARTMENT,HAMMES MOWBRAY HALL,NOTRE DAME,IN,46556,"http://maps.google.com/maps?q=HAMMES MOWBRAY HALL,+NOTRE DAME,+IN+46556&hl=en"
VALPARAISO POLICE DEPARTMENT,VALPARAISO POLICE DEPARTMENT DROP BOX,355 WASHINGTON ST.,VALPARAISO,IN,46383,"http://maps.google.com/maps?q=355 WASHINGTON ST.,+VALPARAISO,+IN+46383&hl=en"
VAN BUREN COUNTY SHERIFF'S OFFICE,ANTWERP TOWNSHIP ACTIVITY CENTER,24821 FRONT AVE,MATTAWAN,MI,49071,"http://maps.google.com/maps?q=24821 FRONT AVE,+MATTAWAN,+MI+49071&hl=en"
VAN BUREN COUNTY SHERIFF'S OFFICE,SHORELINE WELLNESS & REHAB CENTER,950 S BAILEY AVE,SOUTH HAVEN,MI,49090,"http://maps.google.com/maps?q=950 S BAILEY AVE,+SOUTH HAVEN,+MI+49090&hl=en"
VAN BUREN TOWNSHIP POLICE DEPARTMENT,POLICE DEPARTMENT LOBBY 10:00 AM - 2:00 PM,46425 TYLER RD,BELLEVILLE,MI,48111,"http://maps.google.com/maps?q=46425 TYLER RD,+BELLEVILLE,+MI+48111&hl=en"
VAN WERT COUNTY SHERIFF'S OFFICE,VAN WERT COUNTY SHERIFF'S OFFICE,113 NORTH MARKET STREET,VAN WERT,OH,45891,"http://maps.google.com/maps?q=113 NORTH MARKET STREET,+VAN WERT,+OH+45891&hl=en"
VILLAGE OF BUTLER,VILLAGE OF BUTLER POLICE DEPARTMENT EVENT 8:00AM-11:00AM,12621 W HAMPTON AVE,BUTLER,WI,53007,"http://maps.google.com/maps?q=12621 W HAMPTON AVE,+BUTLER,+WI+53007&hl=en"
VILLAGE OF DUNDEE POLICE DEPARTMENT,VILLAGE OF DUNDEE POLICE DEPARTMENT,350 W MONROE ST,DUNDEE,MI,48131,"http://maps.google.com/maps?q=350 W MONROE ST,+DUNDEE,+MI+48131&hl=en"
VILLAGE OF LAKE ODESSA,VILLAGE OF LAKE ODESSA CHIEF KENDRA BACKING,839 4TH AVE,LAKE ODESSA,MI,48849,"http://maps.google.com/maps?q=839 4TH AVE,+LAKE ODESSA,+MI+48849&hl=en"
VILLAGE OF PEWAUKEE POLICE DEPARTMENT,VILLAGE OF PEWAUKEE POLICE DEPARTMENT EVENT 10:00-2:00PM,235 HICKORY STREET,PEWAUKEE,WI,53072,"http://maps.google.com/maps?q=235 HICKORY STREET,+PEWAUKEE,+WI+53072&hl=en"
VILLAGE OF SAUK VILLAGE POLICE DEPARTMENT,SAUK VILLAGE POLICE DEPARTMENT POLICE DEPARTMENT LOBBY,21701 TORRENCE AVE,SAUK VILLAGE,IL,60411,"http://maps.google.com/maps?q=21701 TORRENCE AVE,+SAUK VILLAGE,+IL+60411&hl=en"
WALLED LAKE POLICE DEPARTMENT,WALLED LAKE POLICE DEPARTMENT,1499 E. WEST MAPLE RD,WALLED LAKE,MI,48390,"http://maps.google.com/maps?q=1499 E. WEST MAPLE RD,+WALLED LAKE,+MI+48390&hl=en"
WAPAKONETA POLICE DEPARTMENT,WAPAKONETA POLICE DEPARTMENT,701 PARLETTE CT,WAPAKONETA,OH,45895,"http://maps.google.com/maps?q=701 PARLETTE CT,+WAPAKONETA,+OH+45895&hl=en"
WARREN POLICE DEPARTMENT,ELKS LODGE,25950 SCHOENHERR,WARREN,MI,48089,"http://maps.google.com/maps?q=25950 SCHOENHERR,+WARREN,+MI+48089&hl=en"
WARREN POLICE DEPARTMENT,WARREN POLICE DEPARTMENT,29900 CIVIC CENTER BLVD.,WARREN,MI,48093,"http://maps.google.com/maps?q=29900 CIVIC CENTER BLVD.,+WARREN,+MI+48093&hl=en"
WASHINGTON ISLAND POLICE DEPARTMENT,WASHINGTON ISLAND POLICE DEPARTMENT EVENT 10:00AM-12:00PM,1045 MAIN ROAD,WASHINGTON ISLAND,WI,54246,"http://maps.google.com/maps?q=1045 MAIN ROAD,+WASHINGTON ISLAND,+WI+54246&hl=en"
WATERFORD TOWNSHIP POLICE DEPARTMENT,WATERFORD TOWNSHIP POLICE DEPARTMENT,5150 CIVIC CENTER,WATERFORD,MI,48329,"http://maps.google.com/maps?q=5150 CIVIC CENTER,+WATERFORD,+MI+48329&hl=en"
WAUKESHA COUNTY SHERIFF'S DEPARTMENT,PICK N SAVE EVENT 10:00AM-2:00PM,N65 W24838 MAIN STREET,SUSSEX,WI,53089,"http://maps.google.com/maps?q=N65 W24838 MAIN STREET,+SUSSEX,+WI+53089&hl=en"
WAUSEON POLICE DEPARTMENT,WALMART,485 E AIRPORT HWY,WAUSEON,OH,43567,"http://maps.google.com/maps?q=485 E AIRPORT HWY,+WAUSEON,+OH+43567&hl=en"
WAUSEON POLICE DEPARTMENT,WAUSEON POLICE DEPT,230 CLINTON ST.,WAUSEON,OH,43567,"http://maps.google.com/maps?q=230 CLINTON ST.,+WAUSEON,+OH+43567&hl=en"
WEST ALLIS POLICE DEPARTMENT,WEST ALLIS POLICE DEPARTMENT EVENT 8:00AM-12:00PM,11301 W LINCOLN AVE,WEST ALLIS,WI,53227,"http://maps.google.com/maps?q=11301 W LINCOLN AVE,+WEST ALLIS,+WI+53227&hl=en"
WEST BLOOMFIELD POLICE DEPARTMENT,WEST BLOOMFIELD POLICE DEPARTMENT,4530 WALNUT LAKE ROAD,WEST BLOOMFIELD,MI,48325,"http://maps.google.com/maps?q=4530 WALNUT LAKE ROAD,+WEST BLOOMFIELD,+MI+48325&hl=en"
WEST MILWAUKEE POLICE DEPARTMENT,PICK N SAVE EVENT 10:00AM-2:0PM,2201 MILLER PARK WAY,MILWAUKEE,WI,53219,"http://maps.google.com/maps?q=2201 MILLER PARK WAY,+MILWAUKEE,+WI+53219&hl=en"
WHITE LAKE TOWNSHIP POLICE DEPT,WHITE LAKE TWP POLICE DEPT DEPARTMENT LOBBY DROP BOX,7525 HIGHLAND RD,WHITE LAKE,MI,48383,"http://maps.google.com/maps?q=7525 HIGHLAND RD,+WHITE LAKE,+MI+48383&hl=en"
WHITEFISH BAY POLICE DEPARTMENT,WHITEFISH BAY POLICE DEPARTMENT EVENT 10:00AM-2:00PM,5300 N. MARLBOROUGH DRIVE,WHITEFISH BAY,WI,53217,"http://maps.google.com/maps?q=5300 N. MARLBOROUGH DRIVE,+WHITEFISH BAY,+WI+53217&hl=en"
WILLIAMS COUNTY SHERIFF'S OFFICE,WILLIAMS COUNTY SHERIFF'S OFFICE MICHELLE JACOB,"1425 E HIGH ST, SUITE 103BRYAN",BRYAN,OH,43506,"http://maps.google.com/maps?q=1425 E HIGH ST, SUITE 103,+BRYAN,+OH+43506&hl=en"
WINFIELD POLICE DEPARTMENT,WALGREENS PHARMACY,10920 RANDOLPH STREET,CROWN POINT,IN,46307,"http://maps.google.com/maps?q=10920 RANDOLPH STREET,+CROWN POINT,+IN+46307&hl=en"
WIXOM POLICE DEPARTMENT,WIXOM POLICE DEPARTMENT,49045 PONTIAC TRAIL,WIXOM,MI,48393,"http://maps.google.com/maps?q=49045 PONTIAC TRAIL,+WIXOM,+MI+48393&hl=en"
WOOD COUNTY SHERIFF'S OFFICE,WOOD COUNTY SHERIFF'S OFFICE DET. SGT. ROD SMITH,1960 E. GYPSY LNBOWLING GREEN,BOWLING GREEN,OH,43402,"http://maps.google.com/maps?q=1960 E. GYPSY LN,+BOWLING GREEN,+OH+43402&hl=en"
WOODHAVEN POLICE DEPARTMENT,WOODHAVEN POLICE DEPARTMENT,21869 WEST RD.,WOODHAVEN,MI,48183,"http://maps.google.com/maps?q=21869 WEST RD.,+WOODHAVEN,+MI+48183&hl=en"
WRIGHTSTOWN POLICE DEPARTMENT,WRIGHTSTOWN POLICE DEPARTMENT EVENT 10:00AM-2:00PM,352 HIGH ST,WRIGHTSTOWN,WI,54180,"http://maps.google.com/maps?q=352 HIGH ST,+WRIGHTSTOWN,+WI+54180&hl=en"
WYANDOTTE POLICE DEPARTMENT,WYANDOTTE POLICE DEPARTMENT FRONT LOBBY 1ST-FLOOR,2015 BIDDLE AVE.,WYANDOTTE,MI,48192,"http://maps.google.com/maps?q=2015 BIDDLE AVE.,+WYANDOTTE,+MI+48192&hl=en"
WYOMING POLICE DEPARTMENT,METRO HEALTH HOSPITAL,5900 BYRON CENTER AVENUE,WYOMING,MI,49519,"http://maps.google.com/maps?q=5900 BYRON CENTER AVENUE,+WYOMING,+MI+49519&hl=en"
WYOMING POLICE DEPARTMENT,WYOMING POLICE DEPARTMENT,2300 DEHOOP AVE. SW,WYOMING,MI,49509,"http://maps.google.com/maps?q=2300 DEHOOP AVE. SW,+WYOMING,+MI+49509&hl=en"
ZEELAND POLICE DEPARTMENT,ZEELAND POLICE DEPARTMENT,29 W. MAIN ST.,ZEELAND,MI,49464,"http://maps.google.com/maps?q=29 W. MAIN ST.,+ZEELAND,+MI+49464&hl=en"
