Participant,CollectionSite,Address,City,State,Zip,MapURL
ALAMO HEIGHTS POLICE DEPARTMENT,ALAMO HEIGHTS POLICE DEPARTMENT,6116 BROADWAY,SAN ANTONIO,TX,78209,"http://maps.google.com/maps?q=6116 BROADWAY,+SAN ANTONIO,+TX+78209&hl=en"
ALAMO POLICE DEPARTMENT,ALAMO POLICE DEPARTMENT,423 N. TOWER ROAD,ALAMO,TX,78516,"http://maps.google.com/maps?q=423 N. TOWER ROAD,+ALAMO,+TX+78516&hl=en"
ALICE POLICE DEPARTMENT,ALICE POLICE DEPARTMENT,415 E. MAIN,ALICE,TX,78332,"http://maps.google.com/maps?q=415 E. MAIN,+ALICE,+TX+78332&hl=en"
ALTON POLICE DEPARTMENT,ALTON POLICE DEPARTMENT,509 SOUTH ALTON BLVD,ALTON,TX,78573,"http://maps.google.com/maps?q=509 SOUTH ALTON BLVD,+ALTON,+TX+78573&hl=en"
AUSTIN POLICE DEPARTMENT,HOUSEHOLD HAZARDOUS WASTE FACILITY,2514 BUSINESS CENTER DRIVE,AUSTIN,TX,78744,"http://maps.google.com/maps?q=2514 BUSINESS CENTER DRIVE,+AUSTIN,+TX+78744&hl=en"
BANDERA COUNTY SHERIFF'S OFFICE,BANDERA CITY HALL,511 MAIN STREET,BANDERA,TX,78003,"http://maps.google.com/maps?q=511 MAIN STREET,+BANDERA,+TX+78003&hl=en"
BANDERA COUNTY SHERIFF'S OFFICE,LAKEHILLS LIBRARY,7200 FM 1283,LAKEHILLS,TX,78063,"http://maps.google.com/maps?q=7200 FM 1283,+LAKEHILLS,+TX+78063&hl=en"
BASTROP COUNTY SHERIFF'S OFFICE,TRACTOR SUPPLY COMPANY,441 TEXAS 71,BASTROP,TX,78602,"http://maps.google.com/maps?q=441 TEXAS 71,+BASTROP,+TX+78602&hl=en"
BAYLOR POLICE DEPARTMENT,BAYLOR POLICE DEPARTMENT,1521 SOUTH 4TH,WACO,TX,76798,"http://maps.google.com/maps?q=1521 SOUTH 4TH,+WACO,+TX+76798&hl=en"
BELLAIRE POLICE DEPARTMENT,BELLAIRE POLICE DEPARTMENT,7008 SOUTH RICE AVENUE,BELLAIRE,TX,77401,"http://maps.google.com/maps?q=7008 SOUTH RICE AVENUE,+BELLAIRE,+TX+77401&hl=en"
BELLMEAD POLICE DEPARTMENT,BELLMEAD POLICE DEPARTMENT,701 MAXFIELD ST.,WACO,TX,76705,"http://maps.google.com/maps?q=701 MAXFIELD ST.,+WACO,+TX+76705&hl=en"
BEXAR COUNTY SHERIFF'S OFFICE,H-E-B PLUS STORE #13,"4100 NEW BRAUNFELS AVENUE @ FAIR AVE.,",SAN ANTONIO,TX,78223,"http://maps.google.com/maps?q=4100 NEW BRAUNFELS AVENUE @ FAIR AVE.,,+SAN ANTONIO,+TX+78223&hl=en"
BEXAR COUNTY SHERIFF'S OFFICE,H-E-B PLUS STORE #27,8219 MARBACH RD,SAN ANTONIO,TX,78227,"http://maps.google.com/maps?q=8219 MARBACH RD,+SAN ANTONIO,+TX+78227&hl=en"
BEXAR COUNTY SHERIFF'S OFFICE,H-E-B PLUS STORE #32,9238 TX LOOP 1604,SAN ANTONIO,TX,78249,"http://maps.google.com/maps?q=9238 TX LOOP 1604,+SAN ANTONIO,+TX+78249&hl=en"
BEXAR COUNTY SHERIFF'S OFFICE,H-E-B PLUS STORE #36,"6818 S. ZARZAMORA ST.,",SAN ANTONIO,TX,78224,"http://maps.google.com/maps?q=6818 S. ZARZAMORA ST.,,+SAN ANTONIO,+TX+78224&hl=en"
BEXAR COUNTY SHERIFF'S OFFICE,H-E-B STORE #10,2130 CULEBRA,SAN ANTONIO,TX,78228,"http://maps.google.com/maps?q=2130 CULEBRA,+SAN ANTONIO,+TX+78228&hl=en"
BOERNE POLICE DEPARTMENT,BOERNE POLICE DEPARTMENT,124 OLD SAN ANTONIO ROAD,BOERNE,TX,78006,"http://maps.google.com/maps?q=124 OLD SAN ANTONIO ROAD,+BOERNE,+TX+78006&hl=en"
BROWNWOOD POLICE DEPARTMENT,AUSTIN/COGGIN LOT,1401 AUSTIN AVE,BROWNWOOD,TX,76801,"http://maps.google.com/maps?q=1401 AUSTIN AVE,+BROWNWOOD,+TX+76801&hl=en"
BROWNWOOD POLICE DEPARTMENT,BROWNWOOD POLICE DEPARTMENT,1050 W COMMERCE,BROWNWOOD,TX,76801,"http://maps.google.com/maps?q=1050 W COMMERCE,+BROWNWOOD,+TX+76801&hl=en"
BUDA POLICE DEPARTMENT,BUDA POLICE DEPARTMENT,"405 E. LOOP SOUTH, BUILDING #2",BUDA,TX,78610,"http://maps.google.com/maps?q=405 E. LOOP SOUTH, BUILDING #2,+BUDA,+TX+78610&hl=en"
BULVERDE CITY HALL,BULVERDE CITY HALL,30360 COUGAR BEND,BULVERDE,TX,78163,"http://maps.google.com/maps?q=30360 COUGAR BEND,+BULVERDE,+TX+78163&hl=en"
BURNET COUNTY SHERIFF'S OFFICE,BURNET COUNTY SHERIFF'S OFFICE,1601 EAST POLK STREET,BURNET,TX,78611,"http://maps.google.com/maps?q=1601 EAST POLK STREET,+BURNET,+TX+78611&hl=en"
CEDAR PARK POLICE DEPARTMENT,CEDAR PARK POLICE DEPARTMENT,911 QUEST PARKWAY,CEDAR PARK,TX,78613,"http://maps.google.com/maps?q=911 QUEST PARKWAY,+CEDAR PARK,+TX+78613&hl=en"
CIBOLO POLICE DEPARTMENT,CIBOLO POLICE DEPARTMENT,162 LOOP 539 EAST,CIBOLO,TX,78108,"http://maps.google.com/maps?q=162 LOOP 539 EAST,+CIBOLO,+TX+78108&hl=en"
CLEBURNE PD,CLEBURNE MUNICIPAL COURT PARKING LOT,303 W. HENDERSON,CLEBURNE,TX,76033,"http://maps.google.com/maps?q=303 W. HENDERSON,+CLEBURNE,+TX+76033&hl=en"
COALITION OF SUBSTANCE ABUSE PREVENTION,CHURCH OF CHAMPIONS,12922 CUTTEN RD,HOUSTON,TX,77066,"http://maps.google.com/maps?q=12922 CUTTEN RD,+HOUSTON,+TX+77066&hl=en"
COALITION OF SUBSTANCE ABUSE PREVENTION,COALITION OF SUBSTANCE ABUSE PREVENTION HOUSTON COMMUNITY COLLEGE,1010 WEST SAM HOUSTON PARKWAY NORTH(MAIN ENTRANCE),HOUSTON,TX,77043,"http://maps.google.com/maps?q=1010 WEST SAM HOUSTON PARKWAY NORTH,+HOUSTON,+TX+77043&hl=en"
COLORADO COUNTY SHERIFF'S DEPARTMENT,COLORADO COUNTY SHERIFF'S DEPARTMENT,2215 WALNUT,COLUMBUS,TX,78934,"http://maps.google.com/maps?q=2215 WALNUT,+COLUMBUS,+TX+78934&hl=en"
COLORADO COUNTY SHERIFF'S DEPARTMENT,EAGLE LAKE POLICE DEPARTMENT,200 EAST POST OFFICE,EAGLE LAKE,TX,77434,"http://maps.google.com/maps?q=200 EAST POST OFFICE,+EAGLE LAKE,+TX+77434&hl=en"
COLORADO COUNTY SHERIFF'S DEPARTMENT,WEIMAR CITY HALL,106 EAST MAIN,WEIMAR,TX,78962,"http://maps.google.com/maps?q=106 EAST MAIN,+WEIMAR,+TX+78962&hl=en"
COMAL COUNTY SHERIFF'S OFFICE,BULVERDE SPRING BRANCH FIRE DEPARTMENT,353 RODEO DRIVE,SPRING BRANCH,TX,78070,"http://maps.google.com/maps?q=353 RODEO DRIVE,+SPRING BRANCH,+TX+78070&hl=en"
COMAL COUNTY SHERIFF'S OFFICE,COMAL COUNTY SHERIFF'S OFFICE,160 OAK DRIVE,NEW BRAUNFELS,TX,78132,"http://maps.google.com/maps?q=160 OAK DRIVE,+NEW BRAUNFELS,+TX+78132&hl=en"
COMANCHE POLICE DEPARTMENT,BROOKSHIRE'S GROCERY,404 W. CENTRAL AVE.,COMANCHE,TX,76442,"http://maps.google.com/maps?q=404 W. CENTRAL AVE.,+COMANCHE,+TX+76442&hl=en"
COPPERAS COVE POLICE DEPARTMENT,COPPERAS COVE POLICE DEPARTMENT,302 E AVENUE E,COPPERAS COVE,TX,76522,"http://maps.google.com/maps?q=302 E AVENUE E,+COPPERAS COVE,+TX+76522&hl=en"
CORPUS CHRISTI FIRE DEPARTMENT,CORPUS CHRISTI FIRE DEPARTMENT,3722 S. STAPLES STREET,CORPUS CHRISTI,TX,78411,"http://maps.google.com/maps?q=3722 S. STAPLES STREET,+CORPUS CHRISTI,+TX+78411&hl=en"
CORPUS CHRISTI FIRE DEPARTMENT,CORPUS CHRISTI FIRE STATION,5901 S. STAPLES STREET,CORPUS CHRISTI,TX,78413,"http://maps.google.com/maps?q=5901 S. STAPLES STREET,+CORPUS CHRISTI,+TX+78413&hl=en"
CORPUS CHRISTI FIRE DEPARTMENT,CORPUS CHRISTI FIRE STATION 13 (FLOUR BLUFF),1802 WALDRON ROAD,CORPUS CHRISTI,TX,78418,"http://maps.google.com/maps?q=1802 WALDRON ROAD,+CORPUS CHRISTI,+TX+78418&hl=en"
CORSICANA ISD POLICE DEPT.,FIRST BAPTIST CHURCH CHURCH PARKING,510 W. COLLIN,CORSICANA,TX,75110,"http://maps.google.com/maps?q=510 W. COLLIN,+CORSICANA,+TX+75110&hl=en"
CORYELL COUNTY SHERIFF'S OFFICE,CORYELL COUNTY SHERIFF'S OFFICE,510 LEON STREET,GATESVILLE,TX,76528,"http://maps.google.com/maps?q=510 LEON STREET,+GATESVILLE,+TX+76528&hl=en"
COTULLA COURTHOUSE,COTULLA COURTHOUSE,101 COURTHOUSE SQUARE,COTULLA,TX,78014,"http://maps.google.com/maps?q=101 COURTHOUSE SQUARE,+COTULLA,+TX+78014&hl=en"
CUERO POLICE DEPARTMENT,CUERO POLICE DEPARTMENT,100 N. CLINTON ST,CUERO,TX,77954,"http://maps.google.com/maps?q=100 N. CLINTON ST,+CUERO,+TX+77954&hl=en"
CYFAIR VFD STATION 11,CYFAIR VFD STATION 11,18132 WEST ROAD,CYPRESS,TX,77433,"http://maps.google.com/maps?q=18132 WEST ROAD,+CYPRESS,+TX+77433&hl=en"
DEA SPONSORED,BARTON CREEK SQUARE MALL - PARKING LOT UNIV OF TEXAS-COLLEGE OF PHARMACY,2901 SOUTH CAPITOL OF TEXAS HIGHWAY,AUSTIN,TX,78746,"http://maps.google.com/maps?q=2901 SOUTH CAPITOL OF TEXAS HIGHWAY,+AUSTIN,+TX+78746&hl=en"
DEA SPONSORED,FIRE DEPARTMENT ADMIN. BUILDING,"616 E, DEL MAR BLVD",LAREDO,TX,78045,"http://maps.google.com/maps?q=616 E, DEL MAR BLVD,+LAREDO,+TX+78045&hl=en"
DEA SPONSORED,GEORGE MEMORIAL LIBRARY,1001 GOLFVIEW DRIVE,RICHMOND,TX,77469,"http://maps.google.com/maps?q=1001 GOLFVIEW DRIVE,+RICHMOND,+TX+77469&hl=en"
DEA SPONSORED,KGNS,120 W. DEL MAR BLVD,LAREDO,TX,78045,"http://maps.google.com/maps?q=120 W. DEL MAR BLVD,+LAREDO,+TX+78045&hl=en"
DEA SPONSORED,LAREDO PUBLIC LIBRARY,1120 E. CALTON RD,LAREDO,TX,78045,"http://maps.google.com/maps?q=1120 E. CALTON RD,+LAREDO,+TX+78045&hl=en"
DEA SPONSORED,LEGACY HILLS PARK PAVILLION SUN CITY CENTER,200 DEL WEBB BLVD.,GEORGETOWN,TX,78626,"http://maps.google.com/maps?q=200 DEL WEBB BLVD.,+GEORGETOWN,+TX+78626&hl=en"
DEA SPONSORED,MARTIN HIGH SCHOOL/SHIRLEY STADIUM,2002 SAN BERNARDO,LAREDO,TX,78045,"http://maps.google.com/maps?q=2002 SAN BERNARDO,+LAREDO,+TX+78045&hl=en"
DEA SPONSORED,MASONIC LODGE,503 S. ANN,BRACKETTVILLE,TX,78832,"http://maps.google.com/maps?q=503 S. ANN,+BRACKETTVILLE,+TX+78832&hl=en"
DEA SPONSORED,RYAN ELEMENTARY SCHOOL,2401 CLARK BLVD,LAREDO,TX,78045,"http://maps.google.com/maps?q=2401 CLARK BLVD,+LAREDO,+TX+78045&hl=en"
DEA SPONSORED,SAN MARTIN DE PORRES CHURCH,1704 SANDMAN STREET,LAREDO,TX,78045,"http://maps.google.com/maps?q=1704 SANDMAN STREET,+LAREDO,+TX+78045&hl=en"
DEA SPONSORED,SUNRISE MALL INSIDE MALL IN FRONT OF LUBY'S RESTAURANT,2370 N. EXPRESSWAY,BROWNSVILLE,TX,78521,"http://maps.google.com/maps?q=2370 N. EXPRESSWAY,+BROWNSVILLE,+TX+78521&hl=en"
DEA SPONSORED,TRACTOR SUPPLY COMPANY,421 E. MAIN STREET,UVALDE,TX,78801,"http://maps.google.com/maps?q=421 E. MAIN STREET,+UVALDE,+TX+78801&hl=en"
DEA SPONSORED,VALLE VISTA MALL INSIDE MALL IN FRONT OF FOOD COURT ENTRANCE,2020 SOUTH EXPRESSWAY 83,HARLINGEN,TX,78552,"http://maps.google.com/maps?q=2020 SOUTH EXPRESSWAY 83,+HARLINGEN,+TX+78552&hl=en"
DONNA POLICE DEPARTMENT,DONNA POLICE DEPARTMENT,207 SOUTH 10TH STREET,DONNA,TX,78537,"http://maps.google.com/maps?q=207 SOUTH 10TH STREET,+DONNA,+TX+78537&hl=en"
EDINBURG POLICE DEPARTMENT,EDINBURG POLICE DEPARTMENT,1702 SOUTH CLOSNER,EDINBURG,TX,78539,"http://maps.google.com/maps?q=1702 SOUTH CLOSNER,+EDINBURG,+TX+78539&hl=en"
EL CAMPO POLICE DEPARTMENT,EL CAMPO POLICE DEPARTMENT,1011 WEST LOOP,EL CAMPO,TX,77437,"http://maps.google.com/maps?q=1011 WEST LOOP,+EL CAMPO,+TX+77437&hl=en"
ELGIN POLICE DEPARTMENT,ELGIN POLICE DEPARTMENT,202 DEPOT STREET,ELGIN,TX,78621,"http://maps.google.com/maps?q=202 DEPOT STREET,+ELGIN,+TX+78621&hl=en"
ELLIS COUNTY CONSTABLE'S OFFICE PCT ONE,ENNIS ISD ADMINISTRATION BUILDING,303 KNOX ST,ENNIS,TX,75119,"http://maps.google.com/maps?q=303 KNOX ST,+ENNIS,+TX+75119&hl=en"
ELLIS COUNTY SO,COLEMAN JR. HIGH PARKING LOT,1000 N HWY 77,WAXAHACHIE,TX,75165,"http://maps.google.com/maps?q=1000 N HWY 77,+WAXAHACHIE,+TX+75165&hl=en"
FORT BEND COUNTY SHERIFF'S OFFICE,GUS GEORGE ACADEMY,1521 EUGENE HEIMANN CIRCLE,RICHMOND,TX,77469,"http://maps.google.com/maps?q=1521 EUGENE HEIMANN CIRCLE,+RICHMOND,+TX+77469&hl=en"
FORT BEND ISD POLICE DEPARTMENT,FORT BEND ISD POLICE DEPARTMENT FORT BEND ISD ADMINISTRATIVE BUILDING,16431 LEXINGTON BOULEVARD,SUGAR LAND,TX,77479,"http://maps.google.com/maps?q=16431 LEXINGTON BOULEVARD,+SUGAR LAND,+TX+77479&hl=en"
FREDERICKSBURG POLICE DEPARTMENT,FREDERICKSBURG POLICE DEPARTMENT,1601 EAST MAIN ST.,FREDERICKSBURG,TX,78624,"http://maps.google.com/maps?q=1601 EAST MAIN ST.,+FREDERICKSBURG,+TX+78624&hl=en"
FULSHEAR POLICE DEPARTMENT,FULSHEAR POLICE DEPARTMENT,29255 FM1093,FULSHEAR,TX,77441,"http://maps.google.com/maps?q=29255 FM1093,+FULSHEAR,+TX+77441&hl=en"
GATESVILLE POLICE DEPARTMENT,GATESVILLE POLICE DEPARTMENT,200 N. 8TH STREET,GATESVILLE,TX,76528,"http://maps.google.com/maps?q=200 N. 8TH STREET,+GATESVILLE,+TX+76528&hl=en"
GUADALUPE COUNTY SHERIFF'S OFFICE,GUADALUPE COUNTY SHERIFF'S OFFICE,2617 N. GUADALUPE STREET,SEGUIN,TX,78155,"http://maps.google.com/maps?q=2617 N. GUADALUPE STREET,+SEGUIN,+TX+78155&hl=en"
HALLETSVILLE POLICE DEPARTMENT,HALLETSVILLE POLICE DEPARTMENT,104 EAST 4TH STREET,HALLETTSVILLE,TX,77964,"http://maps.google.com/maps?q=104 EAST 4TH STREET,+HALLETTSVILLE,+TX+77964&hl=en"
HARKER HEIGHTS POLICE DEPARTMENT,HARKER HEIGHTS POLICE DEPARTMENT,402 INDIAN TRAIL,HARKER HEIGHTS,TX,76548,"http://maps.google.com/maps?q=402 INDIAN TRAIL,+HARKER HEIGHTS,+TX+76548&hl=en"
HARRIS COUNTY CONTABLE PRECINCT 4,THE RECREATION CENTER OF ROB FLEMING PARK THE WOODLANDS TOWNSHIP,6464 CREEKSIDE FOREST DR,SPRING,TX,77389,"http://maps.google.com/maps?q=6464 CREEKSIDE FOREST DR,+SPRING,+TX+77389&hl=en"
HARRIS COUNTY HOUSEHOLD HAZARDOUS COLLECTION FACL.,HARRIS COUNTY HOUSEHOLD HAZARDOUS COLLECTION FACL.,6900 HAHL ROAD,HOUSTON,TX,77040,"http://maps.google.com/maps?q=6900 HAHL ROAD,+HOUSTON,+TX+77040&hl=en"
HARRIS COUNTY SHERIFF'S OFFICE - FRANZ ROAD,HARRIS COUNTY SHERIFF'S OFFICE FRANZ ROAD STOREFRONT,19818 FRANZ ROAD,KATY,TX,77449,"http://maps.google.com/maps?q=19818 FRANZ ROAD,+KATY,+TX+77449&hl=en"
HARRIS COUNTY SHERIFF'S OFFICE DISTRICT 1,HARRIS COUNTY SHERIFF'S OFFICE DISTRICT 1 HARRIS COUNTY COURT HOUSE,6831 CYPRESSWOOD DR.,SPRING,TX,77379,"http://maps.google.com/maps?q=6831 CYPRESSWOOD DR.,+SPRING,+TX+77379&hl=en"
HARRIS COUNTY SHERIFF'S OFFICE DISTRICT 5,HARRIS COUNTY SHERIFF'S OFFICE DISTRICT 5,23828 TOMBALL PARKWAY,TOMBALL,TX,77375,"http://maps.google.com/maps?q=23828 TOMBALL PARKWAY,+TOMBALL,+TX+77375&hl=en"
HEWITT POLICE DEPARTMENT,HEWITT POLICE DEPARTMENT,100 PATRIOT COURT,HEWITT,TX,76643,"http://maps.google.com/maps?q=100 PATRIOT COURT,+HEWITT,+TX+76643&hl=en"
HILLSBORO POLICE DEPARTMENT,HILLSBORO POLICE DEPARTMENT,303 N. WACO STREET,HILLSBORO,TX,76645,"http://maps.google.com/maps?q=303 N. WACO STREET,+HILLSBORO,+TX+76645&hl=en"
HOLLYWOOD PARK POLICE DEPARTMENT,HOLLYWOOD PARK POLICE DEPARTMENT,2 MECCA DRIVE,HOLLYWOOD PARK,TX,78232,"http://maps.google.com/maps?q=2 MECCA DRIVE,+HOLLYWOOD PARK,+TX+78232&hl=en"
HONDO POLICE DEPARTMENT,HONDO POLICE DEPARTMENT,1101 16TH STREET,HONDO,TX,78861,"http://maps.google.com/maps?q=1101 16TH STREET,+HONDO,+TX+78861&hl=en"
HOUSTON POLICE DEPARTMENT NORTH STATION,HOUSTON POLICE DEPARTMENT NORTH STATION,9455 W. MONTGOMERY RD,HOUSTON,TX,77088,"http://maps.google.com/maps?q=9455 W. MONTGOMERY RD,+HOUSTON,+TX+77088&hl=en"
HOUSTON POLICE DEPARTMENT SOUTH GESSNER STATION,HOUSTON POLICE DEPARTMENT SOUTH GESSNER STATION,8605 WESTPLACE DR,HOUSTON,TX,77071,"http://maps.google.com/maps?q=8605 WESTPLACE DR,+HOUSTON,+TX+77071&hl=en"
HOUSTON POLICE DEPARTMENT WESTSIDE STATION,HOUSTON POLICE DEPARTMENT WESTSIDE STATION,3203 S. DAIRY ASHFORD,HOUSTON,TX,77082,"http://maps.google.com/maps?q=3203 S. DAIRY ASHFORD,+HOUSTON,+TX+77082&hl=en"
HUNTSVILLE POLICE DEPARTMENT,HUNTSVILLE POLICE DEPARTMENT HUNTSVILLE HIGH SCHOOL,515 FM 2821 ROAD EAST,HUNTSVILLE,TX,77320,"http://maps.google.com/maps?q=515 FM 2821 ROAD EAST,+HUNTSVILLE,+TX+77320&hl=en"
ITALY PD,ITALY PD,161 W. MAIN,ITALY,TX,76651,"http://maps.google.com/maps?q=161 W. MAIN,+ITALY,+TX+76651&hl=en"
JACKSON COUNTY SHERIFF'S OFFICE,JACKSON COUNTY SHERIFF'S OFFICE,115 WEST MAIN ST,EDNA,TX,77957,"http://maps.google.com/maps?q=115 WEST MAIN ST,+EDNA,+TX+77957&hl=en"
JOHNSON COUNTY CONSTABLE'S OFFICE PCT. 1,RIO VISTA CIVIC CENTER,201 TX-174,RIO VISTA,TX,76093,"http://maps.google.com/maps?q=201 TX-174,+RIO VISTA,+TX+76093&hl=en"
JONESTOWN POLICE DEPARTMENT,JONESTOWN POLICE DEPARTMENT,18304 NORTH PARK DR.,JONESTOWN,TX,78645,"http://maps.google.com/maps?q=18304 NORTH PARK DR.,+JONESTOWN,+TX+78645&hl=en"
JOURDANTON POLICE DEPARTMENT,JOURDANTON POLICE DEPARTMENT,1604 TX 97,JOURDANTON,TX,78026,"http://maps.google.com/maps?q=1604 TX 97,+JOURDANTON,+TX+78026&hl=en"
JUNIOR'S GROCERY STORE,JUNIOR'S GROCERY STORE,108 E. FM 495,SAN JUAN,TX,78589,"http://maps.google.com/maps?q=108 E. FM 495,+SAN JUAN,+TX+78589&hl=en"
KATY ISD POLICE DEPARTMENT,KATY ISD POLICE DEPARTMENT KATY ISD LAW ENFORCEMENT CENTER,20370 FRANZ ROAD,KATY,TX,77449,"http://maps.google.com/maps?q=20370 FRANZ ROAD,+KATY,+TX+77449&hl=en"
KENDALL COUNTY SHERIFF'S OFFICE,COMFORT COMMUNITY PARK,403 HIGHWAY 27,COMFORT,TX,78013,"http://maps.google.com/maps?q=403 HIGHWAY 27,+COMFORT,+TX+78013&hl=en"
KERRVILLE POLICE DEPARTMENT,KERRVILLE POLICE DEPARTMENT,429 SIDNEY BAKER,KERRVILLE,TX,78028,"http://maps.google.com/maps?q=429 SIDNEY BAKER,+KERRVILLE,+TX+78028&hl=en"
KIII TV STATION,KIII TV STATION,5002 SPID,CORPUS CHRISTI,TX,78411,"http://maps.google.com/maps?q=5002 SPID,+CORPUS CHRISTI,+TX+78411&hl=en"
KILLEEN POLICE DEPARTMENT,KILLEEN POLICE DEPARTMENT,3304 COMMUNITY BLVD.,KILLEEN,TX,76542,"http://maps.google.com/maps?q=3304 COMMUNITY BLVD.,+KILLEEN,+TX+76542&hl=en"
KINGSVILLE CHAMBER OF COMMERCE,KINGSVILLE CHAMBER OF COMMERCE,635 W. KING AVENUE,KINGSVILLE,TX,78363,"http://maps.google.com/maps?q=635 W. KING AVENUE,+KINGSVILLE,+TX+78363&hl=en"
KLEIN ISD POLICE DEPARTMENT,KLEIN ISD POLICE DEPARTMENT,7407 LOUETTA ROAD,SPRING,TX,77379,"http://maps.google.com/maps?q=7407 LOUETTA ROAD,+SPRING,+TX+77379&hl=en"
LA JOYA POLICE DEPARTMENT,LA JOYA POLICE DEPARTMENT,100 WEST US 83,LA JOYA,TX,78560,"http://maps.google.com/maps?q=100 WEST US 83,+LA JOYA,+TX+78560&hl=en"
LACY LAKEVIEW POLICE DEPARTMENT,LACY LAKEVIEW POLICE DEPARTMENT,503 E. CRAVEN AVE.,WACO,TX,76705,"http://maps.google.com/maps?q=503 E. CRAVEN AVE.,+WACO,+TX+76705&hl=en"
LAKEWAY POLICE DEPARTMENT/BEE CAVE POLICE DEPT.,LAKEWAY POLICE DEPARTMENT,104 CROSS CREEK,LAKEWAY,TX,78734,"http://maps.google.com/maps?q=104 CROSS CREEK,+LAKEWAY,+TX+78734&hl=en"
LAMPASAS POLICE DEPARTMENT,LAMPASAS POLICE DEPARTMENT,301 EAST 4TH STREET,LAMPASAS,TX,76550,"http://maps.google.com/maps?q=301 EAST 4TH STREET,+LAMPASAS,+TX+76550&hl=en"
LEANDER POLICE DEPARTMENT,LEANDER POLICE DEPARTMENT,705 LEANDER DRIVE,LEANDER,TX,78641,"http://maps.google.com/maps?q=705 LEANDER DRIVE,+LEANDER,+TX+78641&hl=en"
LIVE OAK POLICE DEPARTMENT,LIVE OAK POLICE DEPARTMENT,8022 SHIN OAK,LIVE OAK,TX,78233,"http://maps.google.com/maps?q=8022 SHIN OAK,+LIVE OAK,+TX+78233&hl=en"
LYFORD ISD POLICE DEPARTMENT,LYFORD ISD POLICE DEPARTMENT,8204 SIMON GOMEZ RD,LYFORD,TX,78569,"http://maps.google.com/maps?q=8204 SIMON GOMEZ RD,+LYFORD,+TX+78569&hl=en"
MARBLE FALLS POLICE DEPARTMENT,MARBLE FALLS POLICE DEPARTMENT,606 AVENUE NORTH,MARBLE FALLS,TX,78654,"http://maps.google.com/maps?q=606 AVENUE NORTH,+MARBLE FALLS,+TX+78654&hl=en"
MAYPEARL PD,MAYPEARL PD,104 E. SECOND,MAYPEARL,TX,76064,"http://maps.google.com/maps?q=104 E. SECOND,+MAYPEARL,+TX+76064&hl=en"
MCALLEN POLICE DEPARTMENT,OFFICE DEPOT,5115 NORTH 10TH ST.,MCALLEN,TX,78504,"http://maps.google.com/maps?q=5115 NORTH 10TH ST.,+MCALLEN,+TX+78504&hl=en"
MILFORD PD,MILFORD PD,107 S. MAIN,MILFORD,TX,76670,"http://maps.google.com/maps?q=107 S. MAIN,+MILFORD,+TX+76670&hl=en"
MISSION FIRE STATION #3,MISSION FIRE STATION #3,1804 N. SHARY ROAD,MISSION,TX,78572,"http://maps.google.com/maps?q=1804 N. SHARY ROAD,+MISSION,+TX+78572&hl=en"
MISSOURI CITY POLICE DEPARTMENT,MISSOURI CITY POLICE DEPARTMENT,3849 CARTWRIGHT ROAD,MISSOURI CITY,TX,77459,"http://maps.google.com/maps?q=3849 CARTWRIGHT ROAD,+MISSOURI CITY,+TX+77459&hl=en"
MONTGOMERY COUNTY ISD POLICE DEPARTMENT,MONTGOMERY COUNTY ISD POLICE DEPT.,22825 HWY 105 W.,MONTGOMERY,TX,77356,"http://maps.google.com/maps?q=22825 HWY 105 W.,+MONTGOMERY,+TX+77356&hl=en"
MONTGOMERY COUNTY SHERIFF'S OFFICE,THE WOODLANDS TOWNSHIP TOWN HALL (FRONT PARKING LOT),2801 TECHNOLOGY FOREST BOULEVARD,THE WOODLANDS,TX,77381,"http://maps.google.com/maps?q=2801 TECHNOLOGY FOREST BOULEVARD,+THE WOODLANDS,+TX+77381&hl=en"
NEW BRAUNFELS POLICE DEPARTMENT,HEADWATERS AT THE COMAL,333 EAST KLINGERMAN,NEW BRAUNFELS,TX,78130,"http://maps.google.com/maps?q=333 EAST KLINGERMAN,+NEW BRAUNFELS,+TX+78130&hl=en"
NOLANVILLE POLICE DEPARTMENT,NOLANVILLE POLICE DEPARTMENT,101 N. FIFTH STREET,NOLANVILLE,TX,76559,"http://maps.google.com/maps?q=101 N. FIFTH STREET,+NOLANVILLE,+TX+76559&hl=en"
PALMVIEW POLICE DEPARTMENT,PALMVIEW POLICE DEPARTMENT,400 W. VETERANS BLVD,PALMVIEW,TX,78572,"http://maps.google.com/maps?q=400 W. VETERANS BLVD,+PALMVIEW,+TX+78572&hl=en"
PHARR POLICE DEPARTMENT,PETER PIPER PIZZA,2311 SOUTH CAGE BLVD,PHARR,TX,78577,"http://maps.google.com/maps?q=2311 SOUTH CAGE BLVD,+PHARR,+TX+78577&hl=en"
PRAIRIE VIEW A&M POLICE DEPARTMENT,PRAIRIE VIEW A&M POLICE DEPARTMENT,586 ANNE PRESTON ST,PRAIRIE VIEW,TX,77446,"http://maps.google.com/maps?q=586 ANNE PRESTON ST,+PRAIRIE VIEW,+TX+77446&hl=en"
RAYMONDVILLE POLICE DEPARTMENT,RAYMONDVILLE POLICE DEPARTMENT,523 WEST HIDALGO AVENUE,RAYMONDVILLE,TX,78580,"http://maps.google.com/maps?q=523 WEST HIDALGO AVENUE,+RAYMONDVILLE,+TX+78580&hl=en"
RICHMOND POLICE DEPARTMENT,RICHMOND POLICE DEPARTMENT,600 PRESTON STREET,RICHMOND,TX,77469,"http://maps.google.com/maps?q=600 PRESTON STREET,+RICHMOND,+TX+77469&hl=en"
RIO GRANDE CITY POLICE DEPARTMENT,LACK'S,2500 E. US HWY 83,RIO GRANDE CITY,TX,78582,"http://maps.google.com/maps?q=2500 E. US HWY 83,+RIO GRANDE CITY,+TX+78582&hl=en"
ROUND ROCK POLICE DEPARTMENT,ROUND ROCK POLICE DEPARTMENT,2701 NORTH MAYS,ROUND ROCK,TX,78665,"http://maps.google.com/maps?q=2701 NORTH MAYS,+ROUND ROCK,+TX+78665&hl=en"
SAN ANTONIO ISD,YOUNG MEN'S LEADERSHIP ACADEMY,415 GABRIEL ST.,SAN ANTONIO,TX,78223,"http://maps.google.com/maps?q=415 GABRIEL ST.,+SAN ANTONIO,+TX+78223&hl=en"
SCHERTZ POLICE DEPARTMENT,SCHERTZ POLICE DEPARTMENT,1400 SCHERTZ PARKWAY,SCHERTZ,TX,78154,"http://maps.google.com/maps?q=1400 SCHERTZ PARKWAY,+SCHERTZ,+TX+78154&hl=en"
SHAVANO PARK POLICE DEPARTMENT,SHAVANO PARK POLICE DEPARTMENT,900 SADDLETREE COURT,SHAVANO PARK,TX,78231,"http://maps.google.com/maps?q=900 SADDLETREE COURT,+SHAVANO PARK,+TX+78231&hl=en"
SHENANDOAH POLICE DEPARTMENT,SHENANDOAH POLICE DEPARTMENT SHENANDOAH CITY HALL,29955 IH-45 NORTH,SHENANDOAH,TX,77381,"http://maps.google.com/maps?q=29955 IH-45 NORTH,+SHENANDOAH,+TX+77381&hl=en"
SMITHVILLE POLICE DEPARTMENT,SMITHVILLE POLICE DEPARTMENT,105 N.W. 4TH STREET,SMITHVILLE,TX,78957,"http://maps.google.com/maps?q=105 N.W. 4TH STREET,+SMITHVILLE,+TX+78957&hl=en"
STAFFORD POLICE DEPARTMENT,STAFFORD POLICE DEPARTMENT,2702 S. MAIN ST.,STAFFORD,TX,77477,"http://maps.google.com/maps?q=2702 S. MAIN ST.,+STAFFORD,+TX+77477&hl=en"
STEPHENVILLE POLICE DEPARTMENT,TANGLEWOOD PHARMACY,2445 NORTHWEST LOOP,STEPHENVILLE,TX,76401,"http://maps.google.com/maps?q=2445 NORTHWEST LOOP,+STEPHENVILLE,+TX+76401&hl=en"
TEMPLE POLICE DEPARTMENT,TEMPLE POLICE DEPARTMENT,209 E. AVE. A,TEMPLE,TX,76501,"http://maps.google.com/maps?q=209 E. AVE. A,+TEMPLE,+TX+76501&hl=en"
TEXAS A&M,TEXAS A&M,1010 WEST AVENUE B.,KINGSVILLE,TX,78363,"http://maps.google.com/maps?q=1010 WEST AVENUE B.,+KINGSVILLE,+TX+78363&hl=en"
TEXAS A&M,TEXAS A&M,ONE UNIVERSITY WAY,SAN ANTONIO,TX,78224,"http://maps.google.com/maps?q=ONE UNIVERSITY WAY,+SAN ANTONIO,+TX+78224&hl=en"
TEXAS A&M INTERNATIONAL UNIVERSITY,TEXAS A & M INTERNATIONAL UNIVERSITY,5201 UNIVERSITY BLVD,LAREDO,TX,78041,"http://maps.google.com/maps?q=5201 UNIVERSITY BLVD,+LAREDO,+TX+78041&hl=en"
TRAVIS COUNTY CONSTABLE - PRECINCT 5,TRAVIS COUNTY CONSTABLE - PRECINCT 5,1003 GUADALUPE STREET,AUSTIN,TX,78701,"http://maps.google.com/maps?q=1003 GUADALUPE STREET,+AUSTIN,+TX+78701&hl=en"
TRAVIS COUNTY CONSTABLE PRECINCT 1,TRAVIS COUNTY CONSTABLE - PRECINCT 1,"4717 HEFLIN LANE, SUITE 127",AUSTIN,TX,78721,"http://maps.google.com/maps?q=4717 HEFLIN LANE, SUITE 127,+AUSTIN,+TX+78721&hl=en"
TRAVIS COUNTY CONSTABLE PRECINCT 2,THE HILLS OF LAKEWAY,TWO CLUBS ESTATES PARKWAY,AUSTIN,TX,78738,"http://maps.google.com/maps?q=TWO CLUBS ESTATES PARKWAY,+AUSTIN,+TX+78738&hl=en"
TRAVIS COUNTY CONSTABLE PRECINCT 2,TRAVIS COUNTY CONSTABLE PRECINCT 2,"10409 BURNETT ROAD, #150",AUSTIN,TX,78758,"http://maps.google.com/maps?q=10409 BURNETT ROAD, #150,+AUSTIN,+TX+78758&hl=en"
TRAVIS COUNTY CONSTABLE PRECINCT 3,TRAVIS COUNTY CONSTABLE PRECINCT 3,"8656 HWY 71 W, BUILDING B, SUITE 132",AUSTIN,TX,78735,"http://maps.google.com/maps?q=8656 HWY 71 W, BUILDING B, SUITE 132,+AUSTIN,+TX+78735&hl=en"
TRAVIS COUNTY CONSTABLE PRECINCT 4,TRAVIS COUNTY CONSTABLE PRECINCT 4,4011 MCKINNEY FALLS PARKWAY #1100,AUSTIN,TX,78744,"http://maps.google.com/maps?q=4011 MCKINNEY FALLS PARKWAY #1100,+AUSTIN,+TX+78744&hl=en"
VICTORIA COUNTY SHERIFF'S OFFICE,VICTORIA COUNTY SHERIFF'S OFFICE,101 NORTH GLASS STREET,VICTORIA,TX,77901,"http://maps.google.com/maps?q=101 NORTH GLASS STREET,+VICTORIA,+TX+77901&hl=en"
WACO POLICE DEPARTMENT,WACO POLICE DEPARTMENT,3115 PINE AVENUE,WACO,TX,76701,"http://maps.google.com/maps?q=3115 PINE AVENUE,+WACO,+TX+76701&hl=en"
WEBB COUNTY CONSTABLE,GATEWAY COMMUNITY HEALTH CENTER YVONNE PACHECO,1515 PAPPAS ST,LAREDO,TX,78041,"http://maps.google.com/maps?q=1515 PAPPAS ST,+LAREDO,+TX+78041&hl=en"
WESLACO POLICE DEPARTMENT,WESLACO POLICE DEPARTMENT,901 NORTH AIRPORT DRIVE,WESLACO,TX,78596,"http://maps.google.com/maps?q=901 NORTH AIRPORT DRIVE,+WESLACO,+TX+78596&hl=en"
WILLIAMSON COUNTY SHERIFF'S OFFICE,WILLIAMSON COUNTY SHERIFF'S OFFICE,508 SOUTH ROCK STREET,GEORGETOWN,TX,78626,"http://maps.google.com/maps?q=508 SOUTH ROCK STREET,+GEORGETOWN,+TX+78626&hl=en"
WINDCREST POLICE DEPARTMENT,WINDCREST POLICE DEPARTMENT,8601 MIDCROWN,WINDCREST,TX,78239,"http://maps.google.com/maps?q=8601 MIDCROWN,+WINDCREST,+TX+78239&hl=en"
WOODWAY PUBLIC SAFETY DEPARTMENT,WOODWAY PUBLIC SAFETY DEPARTMENT,920 ESTATES DRIVE,WOODWAY,TX,76712,"http://maps.google.com/maps?q=920 ESTATES DRIVE,+WOODWAY,+TX+76712&hl=en"
ZAPATA COUNTY PAVILLION,ZAPATA COURTHOUSE,200 7TH STREET,ZAPATA,TX,78076,"http://maps.google.com/maps?q=200 7TH STREET,+ZAPATA,+TX+78076&hl=en"
