Participant,CollectionSite,Address,City,State,Zip,MapURL
ALBION DEPARTMENT OF PUBLIC SAFETY,FAMILY FARE SUPERMARKET DRUG TAKE-BACK DAYS ONLY,1406 N. EATON ST.,ALBION,MI,49224,"http://maps.google.com/maps?q=1406 N. EATON ST.,+ALBION,+MI+49224&hl=en"
ALLEGAN COUNTY SHERIFF'S OFC.,ALLEGAN COUNTY SHERIFF'S OFC.,640 RIVER ST.,ALLEGAN,MI,49010,"http://maps.google.com/maps?q=640 RIVER ST.,+ALLEGAN,+MI+49010&hl=en"
AMBERLEY VILLAGE,AMBERLEY VILLAGE FIRE DEPARTMENT,7149 RIDGE ROAD,CINCINNATI,OH,45237,"http://maps.google.com/maps?q=7149 RIDGE ROAD,+CINCINNATI,+OH+45237&hl=en"
ARCHBOLD POLICE DEPARTMENT,ARCHBOLD POLICE DEPARTMENT,405 E. LUTZ RD,ARCHBOLD,OH,43502,"http://maps.google.com/maps?q=405 E. LUTZ RD,+ARCHBOLD,+OH+43502&hl=en"
BARRY COUNTY SHERIFF'S DEPARTMENT,BARRY COUNTY SHERIFF'S DEPARTMENT,1212 W STATE STREET,HASTINGS,MI,49058,"http://maps.google.com/maps?q=1212 W STATE STREET,+HASTINGS,+MI+49058&hl=en"
BELLEFONTAINE POLICE DEPARTMENT,MARY RUTAN HOSPITAL (OUTSIDE MAIN ENTRANCE),205 PALMER AVE.,BELLEFONTAINE,OH,43311,"http://maps.google.com/maps?q=205 PALMER AVE.,+BELLEFONTAINE,+OH+43311&hl=en"
BOWLING GREEN POLICE DIVISION,BOWLING GREEN POLICE DIVISION,175 W. WOOSTER,BOWLING GREEN,OH,43402,"http://maps.google.com/maps?q=175 W. WOOSTER,+BOWLING GREEN,+OH+43402&hl=en"
BREMEN POLICE DEPARTMENT,CVS PHARMACY,1150 W. PLYMOUTH STREET,BREMEN,IN,46506,"http://maps.google.com/maps?q=1150 W. PLYMOUTH STREET,+BREMEN,+IN+46506&hl=en"
BRIGHTON POLICE DEPARTMENT,BRIGHTON POLICE DEPARTMENT,440 S THIRD STREET,BRIGHTON,MI,48116,"http://maps.google.com/maps?q=440 S THIRD STREET,+BRIGHTON,+MI+48116&hl=en"
BUTLER COUNTY SHERIFF'S OFFICE,KROGER MARKETPLACE,7300 YANKEE RD,MIDDLETOWN,OH,45044,"http://maps.google.com/maps?q=7300 YANKEE RD,+MIDDLETOWN,+OH+45044&hl=en"
BUTLER COUNTY SHERIFF'S OFFICE,LIBERTY TWP. PRINCETON GLENDALE FIRE STATION,6682 PRINCETON-GLENDALE RD.,HAMILTON,OH,45011,"http://maps.google.com/maps?q=6682 PRINCETON-GLENDALE RD.,+HAMILTON,+OH+45011&hl=en"
BUTLER TOWNSHIP POLICE DEPARTMENT,BUTLER TOWNSHIP POLICE DEPARTMENT MAIN LOBBY,3510 SUDACHI DR,DAYTON,OH,45414,"http://maps.google.com/maps?q=3510 SUDACHI DR,+DAYTON,+OH+45414&hl=en"
CANTON MI POLICE DEPARTMENT,CANTON POLICE DEPARTMENT,1150 S. CANTON CENTER ROAD,CANTON,MI,48188,"http://maps.google.com/maps?q=1150 S. CANTON CENTER ROAD,+CANTON,+MI+48188&hl=en"
CASS COALITION,CASS COUNTY SHERIFF'S OFFICE PERMANENT DROP BOX AVAILABLE 24/7,321 M-62,CASSOPOLIS,MI,49031,"http://maps.google.com/maps?q=321 M-62,+CASSOPOLIS,+MI+49031&hl=en"
CASS COALITION,FAMILY FARE RED BOX AVAILABLE,56151 M-51 SOUTH,DOWAGIAC,MI,49047,"http://maps.google.com/maps?q=56151 M-51 SOUTH,+DOWAGIAC,+MI+49047&hl=en"
CASS COALITION,HOWARD TOWNSHIP HALL,1345 BARRON LAKE ROAD,NILES,MI,49120,"http://maps.google.com/maps?q=1345 BARRON LAKE ROAD,+NILES,+MI+49120&hl=en"
CASS COALITION,MARCELLUS TOWNSHIP HALL,13163 MARCELLUS HWY,MARCELLUS,MI,49067,"http://maps.google.com/maps?q=13163 MARCELLUS HWY,+MARCELLUS,+MI+49067&hl=en"
CASS COALITION,ONTWA TWP/EDWARDSBURG POLICE DEPT EXTENDED RED MED BOX AVAILABLITY,26296 US-12,EDWARDSBURG,MI,49112,"http://maps.google.com/maps?q=26296 US-12,+EDWARDSBURG,+MI+49112&hl=en"
CASS COALITION,SILVER CREEK TOWNSHIP HALL,32764 DIXON ST,DOWAGIAC,MI,49047,"http://maps.google.com/maps?q=32764 DIXON ST,+DOWAGIAC,+MI+49047&hl=en"
CEDAR LAKE POLICE DEPARTMENT,CEDAR LAKE POLICE DEPARTMENT DROP BOX 24/7,7408 CONSTITUTION AVENUE,CEDAR LAKE,IN,46303,"http://maps.google.com/maps?q=7408 CONSTITUTION AVENUE,+CEDAR LAKE,+IN+46303&hl=en"
CENTERVILLE POLICE DEPARTMENT,KROGER PARKING LOT,1095 S. MAIN ST.,CENTERVILLE,OH,45458,"http://maps.google.com/maps?q=1095 S. MAIN ST.,+CENTERVILLE,+OH+45458&hl=en"
CHESTERTON POLICE DEPARTMENT,CHESTERTON POLICE DEPARTMENT DROP BOX 24/7,790 BROADWAY,CHESTERTON,IN,46304,"http://maps.google.com/maps?q=790 BROADWAY,+CHESTERTON,+IN+46304&hl=en"
CINCINNATI POLICE,KENARD KROGER PARKING LOT BY STREET,4777 KENARD AVE,CINCINNATI,OH,45232,"http://maps.google.com/maps?q=4777 KENARD AVE,+CINCINNATI,+OH+45232&hl=en"
CITY OF ANN ARBOR POLICE DEPARTMENT,ST. FRANCIS OF ASSISI CATHOLIC CHURCH,2250 E STADIUM BLVD,ANN ARBOR,MI,48104,"http://maps.google.com/maps?q=2250 E STADIUM BLVD,+ANN ARBOR,+MI+48104&hl=en"
CITY OF DEERPARK,"CITY OF DEERPARK 24HR DROP BOX ONLY, LOCATED IN POLICE LOBBY.",7777 BLUE ASH RD,CINCINNATI,OH,45236,"http://maps.google.com/maps?q=7777 BLUE ASH RD,+CINCINNATI,+OH+45236&hl=en"
CITY OF OXFORD,EAST PARK BY THE AMPHITHEATER,EAST PARK @ EAST HIGH ST.,OXFORD,OH,45056,"http://maps.google.com/maps?q=EAST  PARK @ EAST HIGH ST.,+OXFORD,+OH+45056&hl=en"
CITY OF READING POLICE DEPARTMENT,CITY OF READING POLICE DEPARTMENT POLICE DEPARTMENT LOBBY,1000 MARKET STREETREADING,CINCINNATI,OH,45215,"http://maps.google.com/maps?q=1000 MARKET STREET,+CINCINNATI,+OH+45215&hl=en"
CLARK COUNTY SHERIFF'S OFFICE,CLARK COUNTY SHERIFF'S OFFICE EAST DISTRICT OFFICE,3130 EAST MAIN STREET,SPRINGFIELD,OH,45503,"http://maps.google.com/maps?q=3130 EAST MAIN STREET,+SPRINGFIELD,+OH+45503&hl=en"
CLEARCREEK TOWNSHIP POLICE DEPARTMENT,CLEARCREEK TOWNSHIP POLICE DEPARTMENT,7593 BUNNELL HILL RD,SPRINGBORO,OH,45066,"http://maps.google.com/maps?q=7593 BUNNELL HILL RD,+SPRINGBORO,+OH+45066&hl=en"
CLYDE POLICE DEPARTMENT,CLYDE POLICE DEPARTMENT,222 N. MAIN ST.,CLYDE,OH,43410,"http://maps.google.com/maps?q=222 N. MAIN ST.,+CLYDE,+OH+43410&hl=en"
CMHSAS OF ST. JOSEPH COUNTY,ST. JOSEPH COUNTY SHERIFF'S OFFICE,650 EAST MAIN STREET,CENTREVILLE,MI,49032,"http://maps.google.com/maps?q=650 EAST MAIN STREET,+CENTREVILLE,+MI+49032&hl=en"
CRAWFORDSVILLE POLICE DEPT.,MONTGOMERY COUNTY HEALTH DEPARTMENT,110 W. SOUTH BOULEVARD,CRAWFORDSVILLE,IN,47933,"http://maps.google.com/maps?q=110 W. SOUTH BOULEVARD,+CRAWFORDSVILLE,+IN+47933&hl=en"
CROWN POINT POLICE DEPARTMENT,CROWN POINT POLICE DEPARTMENT DROP BOX,124 NORTH EAST STREET,CROWN POINT,IN,46307,"http://maps.google.com/maps?q=124 NORTH EAST STREET,+CROWN POINT,+IN+46307&hl=en"
DAYTON POLICE DEPARTMENT,DAYTON POLICE DEPARTMENT 1ST DISTRICT OFFICE,417 EAST HELENA STREET,DAYTON,OH,45420,"http://maps.google.com/maps?q=417 EAST HELENA STREET,+DAYTON,+OH+45420&hl=en"
DAYTON POLICE DEPARTMENT,DAYTON POLICE DEPARTMENT 2ND DISTRICT OFFICE,2721 WAYNE AVENUE,DAYTON,OH,45420,"http://maps.google.com/maps?q=2721 WAYNE AVENUE,+DAYTON,+OH+45420&hl=en"
DAYTON POLICE DEPARTMENT,DAYTON POLICE DEPARTMENT 3RD DISTRICT OFFICE,951 WASHINGTON STREET,DAYTON,OH,45402,"http://maps.google.com/maps?q=951 WASHINGTON STREET,+DAYTON,+OH+45402&hl=en"
DAYTON POLICE DEPARTMENT,DAYTON POLICE DEPARTMENT 5TH DISTRICT OFFICE,248 SALEM AVENUE,DAYTON,OH,45406,"http://maps.google.com/maps?q=248 SALEM AVENUE,+DAYTON,+OH+45406&hl=en"
DAYTON POLICE DEPARTMENT,DAYTON POLICE SAFETY BUILDING,335 W THIRD STREET,DAYTON,OH,45402,"http://maps.google.com/maps?q=335 W THIRD STREET,+DAYTON,+OH+45402&hl=en"
DEA / ST. VINCENT HOSPITAL,ST. VINCENT HOSPITAL FRONT ENTRANCE - DOOR 1,2001 W 86TH ST,INDIANAPOLIS,IN,46260,"http://maps.google.com/maps?q=2001 W 86TH ST,+INDIANAPOLIS,+IN+46260&hl=en"
DECATUR POLICE DEPARTMENT,DECATUR POLICE DEPARTMENT,112 SOUTH 7TH STREET,DECATUR,IN,46733,"http://maps.google.com/maps?q=112 SOUTH 7TH STREET,+DECATUR,+IN+46733&hl=en"
DEFIANCE COUNTY SHERIFF'S OFFICE,DEFIANCE COUNTY SHERIFF'S OFFICE,113 BIEDE AVE,DEFIANCE,OH,43512,"http://maps.google.com/maps?q=113 BIEDE AVE,+DEFIANCE,+OH+43512&hl=en"
DELTA POLICE DEPARTMENT,DELTA MEMORIAL HALL,401 MAIN STREET,DELTA,OH,43515,"http://maps.google.com/maps?q=401 MAIN STREET,+DELTA,+OH+43515&hl=en"
EAST GRAND RAPIDS PUBLIC SAFETY,EAST GRAND RAPIDS PUBLIC SAFETY MAIN ENTRANCE,770 LAKESIDE DRIVE SE,GRAND RAPIDS,MI,49506,"http://maps.google.com/maps?q=770 LAKESIDE DRIVE SE,+GRAND RAPIDS,+MI+49506&hl=en"
EDGEWOOD POLICE DEPARTMENT,EDGEWOOD POLICE DEPARTMENT,3405 NICHOL AVE,ANDERSON,IN,46011,"http://maps.google.com/maps?q=3405 NICHOL AVE,+ANDERSON,+IN+46011&hl=en"
ENGLEWOOD POLICE DEPARTMENT,ENGLEWOOD GOVERNMENT CENTER,333 W NATIONAL ROAD,ENGLEWOOD,OH,45322,"http://maps.google.com/maps?q=333 W NATIONAL ROAD,+ENGLEWOOD,+OH+45322&hl=en"
FAIRFIELD POLICE DEPARTMENT,FAIRFIELD POLICE DEPARTMENT,5230 PLEASANT AVE,FAIRFIELD,OH,45014,"http://maps.google.com/maps?q=5230 PLEASANT AVE,+FAIRFIELD,+OH+45014&hl=en"
FAIRFIELD TOWNSHIP POLICE DEPARTMENT,FAIRFIELD TOWNSHIP POLICE DEPARTMENT,6485 VONNIE VALE COURT,HAMILTON,OH,45011,"http://maps.google.com/maps?q=6485 VONNIE VALE COURT,+HAMILTON,+OH+45011&hl=en"
FRANKLIN POLICE DEPARTMENT (LOBBY),FRANKLIN POLICE DEPT BOOTH FALL FESTIVAL POLICE BOOTH,FALL FEST BOOTHSOUTH MAIN ST @ EAST SECOND STREET,FRANKLIN,OH,45005,"http://maps.google.com/maps?q=FALL FEST BOOTH,+FRANKLIN,+OH+45005&hl=en"
FREMONT POLICE DEPARTMENT,FREMONT POLICE DEPARTMENT,1141 W. STATE ST.,FREMONT,OH,43420,"http://maps.google.com/maps?q=1141 W. STATE ST.,+FREMONT,+OH+43420&hl=en"
FULTON COUNTY SHERIFF'S OFFICE,FULTON COUNTY JAIL DROP BOX,815 MADISON STREET,ROCHESTER,IN,46975,"http://maps.google.com/maps?q=815 MADISON STREET,+ROCHESTER,+IN+46975&hl=en"
FULTON COUNTY SHERIFF'S OFFICE,FULTON COUNTY SHERIFF'S OFFICE,129 COURTHOUSE PLAZA,WAUSEON,OH,43567,"http://maps.google.com/maps?q=129 COURTHOUSE PLAZA,+WAUSEON,+OH+43567&hl=en"
GIBRALTAR POLICE DEPARTMENT,GIBRALTAR POLICE DEPARTMENT,29450 MUNRO ST,GIBRALTAR,MI,48173,"http://maps.google.com/maps?q=29450 MUNRO ST,+GIBRALTAR,+MI+48173&hl=en"
GRAND LEDGE POLICE DEPARTMENT,GRAND LEDGE POLICE DEPARTMENT,310 GREENWOOD,GRAND LEDGE,MI,48837,"http://maps.google.com/maps?q=310 GREENWOOD,+GRAND LEDGE,+MI+48837&hl=en"
GRAND RAPIDS POLICE DEPARTMENT,GRAND RAPIDS POLICE DEPARTMENT,1 MONROE CENTER NORTHWEST,GRAND RAPIDS,MI,49503,"http://maps.google.com/maps?q=1 MONROE CENTER NORTHWEST,+GRAND RAPIDS,+MI+49503&hl=en"
GREEN TOWNSHIP POLICE DEPARTMENT,GREEN TOWNSHIP POLICE KIOSK IN THE LOBBY ONLY,6303 HARRISON AVE.,CINCINNATI,OH,45247,"http://maps.google.com/maps?q=6303 HARRISON AVE.,+CINCINNATI,+OH+45247&hl=en"
GREENE COUNTY SHERIFF'S OFFICE,BEAVERCREEK POLICE DEPARTMENT,1388 RESEARCH PARK DRIVE,DAYTON,OH,45432,"http://maps.google.com/maps?q=1388 RESEARCH PARK DRIVE,+DAYTON,+OH+45432&hl=en"
GREENE COUNTY SHERIFF'S OFFICE,FAIRBORN POLICE DEPARTMENT,70 W HEBBLE ROAD,FAIRBORN,OH,45324,"http://maps.google.com/maps?q=70 W HEBBLE ROAD,+FAIRBORN,+OH+45324&hl=en"
GREENE COUNTY SHERIFF'S OFFICE,GREENE COUNTY SHERIFF'S OFFICE,120 E MAIN STREET,XENIA,OH,45385,"http://maps.google.com/maps?q=120 E MAIN STREET,+XENIA,+OH+45385&hl=en"
GREENE COUNTY SHERIFF'S OFFICE,SUGARCREEK TOWNSHIP POLICE DEPARTMENT,4398 CLYO ROAD,DAYTON,OH,45459,"http://maps.google.com/maps?q=4398 CLYO ROAD,+DAYTON,+OH+45459&hl=en"
GREENHILLS POLICE,GREENHILLS MUNCIPAL BUILDING,11000 WINTON RD,CINCINNATI,OH,45218,"http://maps.google.com/maps?q=11000 WINTON RD,+CINCINNATI,+OH+45218&hl=en"
GREENVILLE POLICE DEPARTMENT,GREENVILLE POLICE DEPARTMENT,122 W. MAIN ST,GREENVILLE,OH,45331,"http://maps.google.com/maps?q=122 W. MAIN ST,+GREENVILLE,+OH+45331&hl=en"
GRIFFITH POLICE DEPARTMENT,GRIFFITH POLICE DEPARTMENT DROP BOX,115 NORTH BROAD STREET,GRIFFITH,IN,46319,"http://maps.google.com/maps?q=115 NORTH BROAD STREET,+GRIFFITH,+IN+46319&hl=en"
GUN LAKE TRIBE PUBLIC SAFETY DEPARTMENT,GUN LAKE TRIBE PUBLIC SAFETY,2869 MNO BMADZEWEN DR.,SHELBYVILLE,MI,49344,"http://maps.google.com/maps?q=2869 MNO BMADZEWEN DR.,+SHELBYVILLE,+MI+49344&hl=en"
HAMILTON COUNTY SHERIFF'S OFFICE,VILLAGE OF SILVERTON,6943 MONTGOMERY ROAD,CINCINNATI,OH,45236,"http://maps.google.com/maps?q=6943 MONTGOMERY ROAD,+CINCINNATI,+OH+45236&hl=en"
HAMILTON POLICE DEPARTMENT,HAMILTON POLICE DEPARTMENT,331 SOUTH FRONT STREET,HAMILTON,OH,45011,"http://maps.google.com/maps?q=331 SOUTH FRONT STREET,+HAMILTON,+OH+45011&hl=en"
HAMMOND POLICE DEPARTMENT,HAMMOND POLICE DEPARTMENT,509 DOUGLAS STREET,HAMMOND,IN,46320,"http://maps.google.com/maps?q=509 DOUGLAS STREET,+HAMMOND,+IN+46320&hl=en"
HEBRON POLICE DEPARTMENT,HEBRON POLICE DEPARTMENT DROP BOX,611 NORTH MAIN STREET,HEBRON,IN,46341,"http://maps.google.com/maps?q=611 NORTH MAIN STREET,+HEBRON,+IN+46341&hl=en"
HENRY COUNTY SHERIFF'S OFFICE,HENRY COUNTY SHERIFF'S OFFICE,123 E WASHINGTON,NAPOLEON,OH,43545,"http://maps.google.com/maps?q=123 E WASHINGTON,+NAPOLEON,+OH+43545&hl=en"
HIGHLAND POLICE DEPARTMENT,HIGHLAND POLICE DEPARTMENT DROP BOX,3315 RIDGE RD.,HIGHLAND,IN,46322,"http://maps.google.com/maps?q=3315 RIDGE RD.,+HIGHLAND,+IN+46322&hl=en"
HOBART POLICE DEPARTMENT,HOBART POLICE DEPARTMENT DROP BOX M-F 8-5,705 EAST FOURTH STREET,HOBART,IN,46342,"http://maps.google.com/maps?q=705 EAST FOURTH STREET,+HOBART,+IN+46342&hl=en"
HOLLAND DEPARTMENT OF PUBLIC SAFETY,HOLLAND DEPARTMENT OF PUBLIC SAFETY,89 W 8TH STREET,HOLLAND,MI,49423,"http://maps.google.com/maps?q=89 W 8TH STREET,+HOLLAND,+MI+49423&hl=en"
HOLLAND POLICE DEPARTMENT,HOLLAND KROGER,7059 ORCHARD CENTRE DR,HOLLAND,OH,43528,"http://maps.google.com/maps?q=7059 ORCHARD CENTRE DR,+HOLLAND,+OH+43528&hl=en"
HOLLAND POLICE DEPARTMENT,HOLLAND POLICE DEPARTMENT,1245 CLARION AVENUE,HOLLAND,OH,43528,"http://maps.google.com/maps?q=1245 CLARION AVENUE,+HOLLAND,+OH+43528&hl=en"
HUBER HEIGHTS POLICE DEPARTMENT,HUBER HEIGHTS POLICE DEPARTMENT,6121 TAYLORSVILLE ROAD,DAYTON,OH,45424,"http://maps.google.com/maps?q=6121 TAYLORSVILLE ROAD,+DAYTON,+OH+45424&hl=en"
INDIANA BOARD OF PHARMACY,COMMUNITY CANCER CENTER-NORTH COMMUNITY HEALTH CAMPUS PD,7979 N SHADELAND AVE,INDIANAPOLIS,IN,46250,"http://maps.google.com/maps?q=7979 N SHADELAND AVE,+INDIANAPOLIS,+IN+46250&hl=en"
INDIANA BOARD OF PHARMACY,COMMUNITY HOSPITAL-SOUTH CAMPUS COMMUNITY HEALTH PD,1402 E COUNTY LINE RD,INDIANAPOLIS,IN,46227,"http://maps.google.com/maps?q=1402 E COUNTY LINE RD,+INDIANAPOLIS,+IN+46227&hl=en"
INDIANA BOARD OF PHARMACY,CVS PHARMACY #6658 PENDLETON PD,620 E STATE ST,PENDLETON,IN,46064,"http://maps.google.com/maps?q=620 E STATE ST,+PENDLETON,+IN+46064&hl=en"
INDIANA BOARD OF PHARMACY,IU NORTHWEST CAMPUS IU CAMPUS PD,3400 BROADWAY,GARY,IN,46408,"http://maps.google.com/maps?q=3400 BROADWAY,+GARY,+IN+46408&hl=en"
INDIANA BOARD OF PHARMACY,PARKVIEW WHITLEY HOSPITAL PARKING LOT WHITLEY COUNTY SHERIFF DEPT,1260 E STATE ROAD 205,COLUMBIA CITY,IN,46725,"http://maps.google.com/maps?q=1260 E STATE ROAD 205,+COLUMBIA CITY,+IN+46725&hl=en"
INDIANA BOARD OF PHARMACY,SAM'S CLUB JOHNSON COUNTY SHERIFF DEPT,1101 WINDHORST WAY,GREENWOOD,IN,46143,"http://maps.google.com/maps?q=1101 WINDHORST WAY,+GREENWOOD,+IN+46143&hl=en"
INDIANA STATE POLICE,INDIANA STATE POLICE,1550 E. 181ST AVENUE,LOWELL,IN,46356,"http://maps.google.com/maps?q=1550 E. 181ST AVENUE,+LOWELL,+IN+46356&hl=en"
INDIANA STATE POLICE,INDIANA STATE POLICE DISTRICT 14,5921 SR 43 NORTH,WEST LAFAYETTE,IN,47906,"http://maps.google.com/maps?q=5921 SR 43 NORTH,+WEST LAFAYETTE,+IN+47906&hl=en"
INDIANA STATE POLICE,INDIANA STATE POLICE DISTRICT 16,145 N. EEL RIVER CEMETERY RD.,PERU,IN,46970,"http://maps.google.com/maps?q=145 N. EEL RIVER CEMETERY RD.,+PERU,+IN+46970&hl=en"
INDIANA STATE POLICE,INDIANA STATE POLICE DISTRICT 22,5811 ELLISON ROAD,FORT WAYNE,IN,46804,"http://maps.google.com/maps?q=5811 ELLISON ROAD,+FORT WAYNE,+IN+46804&hl=en"
INDIANA STATE POLICE,INDIANA STATE POLICE DISTRICT 24,1425 MIAMI TRAIL,BREMEN,IN,46506,"http://maps.google.com/maps?q=1425 MIAMI TRAIL,+BREMEN,+IN+46506&hl=en"
INDIANA STATE POLICE,INDIANA STATE POLICE DISTRICT 51,9022 SOUTH SR 67,PENDLETON,IN,46064,"http://maps.google.com/maps?q=9022 SOUTH SR 67,+PENDLETON,+IN+46064&hl=en"
INDIANA STATE POLICE,INDIANA STATE POLICE DISTRICT 52,8620 E. 21ST STREET,INDIANAPOLIS,IN,46219,"http://maps.google.com/maps?q=8620 E. 21ST STREET,+INDIANAPOLIS,+IN+46219&hl=en"
INDIANA STATE POLICE,INDIANA STATE POLICE DISTRICT 53,1927 WEST US 40,GREENCASTLE,IN,46135,"http://maps.google.com/maps?q=1927 WEST US 40,+GREENCASTLE,+IN+46135&hl=en"
INDIANA STATE POLICE,INDIANA STATE POLICE DISTRICT13,1550 E. 181ST STREET,LOWELL,IN,46356,"http://maps.google.com/maps?q=1550 E. 181ST STREET,+LOWELL,+IN+46356&hl=en"
INDIANA STATE POLICE,ISP INDIANAPOLIS POST,8620 EAST 21ST STREET,INDIANAPOLIS,IN,46219,"http://maps.google.com/maps?q=8620 EAST 21ST STREET,+INDIANAPOLIS,+IN+46219&hl=en"
INDIANA STATE POLICE,ISP LOWELL POST,1550 EAST 181ST STREET,LOWELL,IN,46356,"http://maps.google.com/maps?q=1550 EAST 181ST STREET,+LOWELL,+IN+46356&hl=en"
INDIANA STATE POLICE,ISP PERU POST,1451 N. EEL RIVER CEMETERY RD.,PERU,IN,46970,"http://maps.google.com/maps?q=1451 N. EEL RIVER CEMETERY RD.,+PERU,+IN+46970&hl=en"
INDIANAPOLIS FIRE DEPARTMENT,IFD FIRE STATION 1,1903 W 10TH ST,INDIANAPOLIS,IN,46222,"http://maps.google.com/maps?q=1903 W 10TH ST,+INDIANAPOLIS,+IN+46222&hl=en"
INDIANAPOLIS FIRE DEPARTMENT,IFD FIRE STATION 2,4120 MITTHOEFFER RD,INDIANAPOLIS,IN,46235,"http://maps.google.com/maps?q=4120 MITTHOEFFER RD,+INDIANAPOLIS,+IN+46235&hl=en"
INDIANAPOLIS FIRE DEPARTMENT,IFD FIRE STATION 23,1108 E THOMPSON RD,INDIANAPOLIS,IN,46227,"http://maps.google.com/maps?q=1108 E THOMPSON RD,+INDIANAPOLIS,+IN+46227&hl=en"
INDIANAPOLIS FIRE DEPARTMENT,IFD FIRE STATION 27,2918 E 10TH ST,INDIANAPOLIS,IN,46201,"http://maps.google.com/maps?q=2918 E 10TH ST,+INDIANAPOLIS,+IN+46201&hl=en"
INDIANAPOLIS FIRE DEPARTMENT,IFD FIRE STATION 4,8404 N DITCH RD,INDIANAPOLIS,IN,46260,"http://maps.google.com/maps?q=8404 N DITCH RD,+INDIANAPOLIS,+IN+46260&hl=en"
KENT COUNTY SHERIFF'S DEPARTMENT,METRO HEALTH PARK EAST PHARMACY JANIS JILES (616) 252-4045,4055 CASCADE RD. SE,GRAND RAPIDS,MI,49546,"http://maps.google.com/maps?q=4055 CASCADE RD. SE,+GRAND RAPIDS,+MI+49546&hl=en"
KENTWOOD POLICE DEPARTMENT,KENTWOOD POLICE DEPARTMENT,4742 WALMA AVENUE SE,GRAND RAPIDS,MI,49512,"http://maps.google.com/maps?q=4742 WALMA AVENUE SE,+GRAND RAPIDS,+MI+49512&hl=en"
KETTERING POLICE DEPARTMENT,KETTERING POLICE DEPARTMENT 10AM TO 2PM,3600 SHROYER ROAD,KETTERING,OH,45429,"http://maps.google.com/maps?q=3600 SHROYER ROAD,+KETTERING,+OH+45429&hl=en"
LAFAYETTE POLICE DEPARTMENT,LAFAYETTE POLICE TRAINING CENTER,1301 SOUTH STREET,LAFAYETTE,IN,47901,"http://maps.google.com/maps?q=1301 SOUTH STREET,+LAFAYETTE,+IN+47901&hl=en"
LAKE COUNTY SHERIFF'S DEPARTMENT,"LAKE COUNTY SHERIFF'S DEPARTMENT BUILDING C, MAIN LOBBY",2293 NORTH MAIN STREET,CROWN POINT,IN,46307,"http://maps.google.com/maps?q=2293 NORTH MAIN STREET,+CROWN POINT,+IN+46307&hl=en"
LAWRENCEBURG POLICE DEPT.,LAWRENCEBURG KROGER STORE DONALD B COMBS,880 W. EADS PKWY,LAWRENCEBURG,IN,47025,"http://maps.google.com/maps?q=880 W. EADS PKWY,+LAWRENCEBURG,+IN+47025&hl=en"
LEBANON DIVISION OF POLICE,COUNTRYSIDE YMCA,1699 DEERFIELD RD.,LEBANON,OH,45036,"http://maps.google.com/maps?q=1699 DEERFIELD RD.,+LEBANON,+OH+45036&hl=en"
LEBANON DIVISION OF POLICE,KROGER (PARKING LOT),1425 COLUMBUS AVE,LEBANON,OH,45036,"http://maps.google.com/maps?q=1425 COLUMBUS AVE,+LEBANON,+OH+45036&hl=en"
LENAWEE COUNTY SHERIFF'S OFFICE,PROMEDICA BIXBY HOSPITAL,818 RIVERSIDE AVE,ADRIAN,MI,49221,"http://maps.google.com/maps?q=818 RIVERSIDE AVE,+ADRIAN,+MI+49221&hl=en"
LIVINGSTON COUNTY SHERRIFF'S OFFICE,LIVINGSTON COUNTY SHERIFF'S OFFICE JAIL LOBBY,150 S HIGHLANDER WAY,HOWELL,MI,48843,"http://maps.google.com/maps?q=150 S HIGHLANDER WAY,+HOWELL,+MI+48843&hl=en"
LOCKLAND POLICE DEPARTMENT,LOCKLAND CHURCH OF NAZARENE,335 W WYOMING AV,LOCKLAND,OH,45215,"http://maps.google.com/maps?q=335 W WYOMING AV,+LOCKLAND,+OH+45215&hl=en"
LOWELL POLICE DEPARTMENT,LOWELL POLICE DEPARTMENT,111 N MONROE,LOWELL,MI,49331,"http://maps.google.com/maps?q=111 N MONROE,+LOWELL,+MI+49331&hl=en"
LOWELL POLICE DEPARTMENT,LOWELL POLICE DEPARTMENT DROP BOX,1333 COMMERCIAL AVENUE,LOWELL,IN,46356,"http://maps.google.com/maps?q=1333 COMMERCIAL AVENUE,+LOWELL,+IN+46356&hl=en"
LUCAS COUNTY SHERIFF'S OFFICE,KROGER,8730 WATERVILLE SWANTON ROAD,WATERVILLE,OH,43566,"http://maps.google.com/maps?q=8730 WATERVILLE SWANTON ROAD,+WATERVILLE,+OH+43566&hl=en"
LUCAS COUNTY SHERIFF'S OFFICE,LUCAS COUNTY HEALTH DEPARTMENT,635 NORTH ERIE STREET,TOLEDO,OH,43604,"http://maps.google.com/maps?q=635 NORTH ERIE STREET,+TOLEDO,+OH+43604&hl=en"
LUCAS COUNTY SHERIFF'S OFFICE,MONCLOVA TOWNSHIP FIRE DEPARTMENT,4395 ALBON ROAD,MONCLOVA,OH,43542,"http://maps.google.com/maps?q=4395 ALBON ROAD,+MONCLOVA,+OH+43542&hl=en"
LUCAS COUNTY SHERIFF'S OFFICE,SPRINGFIELD TOWNSHIP FIRE STATION #3,7145 GARDEN ROAD,MAUMEE,OH,43537,"http://maps.google.com/maps?q=7145 GARDEN ROAD,+MAUMEE,+OH+43537&hl=en"
LUCAS COUNTY SHERIFF'S OFFICE,VILLAGE OF WHITEHOUSE FIRE DEPARTMENT,10550 WATERVILLE STREET,WHITEHOUSE,OH,43571,"http://maps.google.com/maps?q=10550 WATERVILLE STREET,+WHITEHOUSE,+OH+43571&hl=en"
LUCAS COUNTY SHERIFF'S OFFICE,WASHINGTON TWP FIRE DEPARTMENT,2469 SHORELAND DRIVE,TOLEDO,OH,43611,"http://maps.google.com/maps?q=2469 SHORELAND DRIVE,+TOLEDO,+OH+43611&hl=en"
MARION COUNTY SHERIFF'S OFFICE/MARION POLICE DEPT,OHIO HEALTH MARION MEDICAL CAMPUS,1050 DELAWARE AVENUE,MARION,OH,43302,"http://maps.google.com/maps?q=1050 DELAWARE AVENUE,+MARION,+OH+43302&hl=en"
MARION POLICE DEPARTMENT,MARION POLICE DEPARTMENT ALEX KENWORTHY,301 S. BRANSONMARION,MARION,IN,46952,"http://maps.google.com/maps?q=301 S. BRANSON,+MARION,+IN+46952&hl=en"
MARKLEVILLE POLICE DEPARTMENT,MARKLEVILLE POLICE DEPARTMENT,10 SOUTH STATE ST,MARKLEVILLE,IN,46056,"http://maps.google.com/maps?q=10 SOUTH STATE ST,+MARKLEVILLE,+IN+46056&hl=en"
MARYSVILLE DIVISION OF POLICE,WALGREENS,180 COLEMANS CROSSING BLVD,MARYSVILLE,OH,43040,"http://maps.google.com/maps?q=180 COLEMANS CROSSING BLVD,+MARYSVILLE,+OH+43040&hl=en"
MAUMEE POLICE DIVISION,MAUMEE POLICE DIVISION,109 EAST DUDLEY ST,MAUMEE,OH,43537,"http://maps.google.com/maps?q=109 EAST DUDLEY ST,+MAUMEE,+OH+43537&hl=en"
MAUMEE POLICE DIVISION,ST LUKES HOSPITAL ENTRANCE YELLOW 3,5901 MONCLOVA,MAUMEE,OH,43537,"http://maps.google.com/maps?q=5901 MONCLOVA,+MAUMEE,+OH+43537&hl=en"
MECHANICSBURG POLICE DEPARTMENT,MECHANICSBURG POLICE DEPARTMENT MAIN OFFICE,18 N. MAIN ST.,MECHANICSBURG,OH,43044,"http://maps.google.com/maps?q=18 N. MAIN ST.,+MECHANICSBURG,+OH+43044&hl=en"
MECHANICSBURG POLICE DEPARTMENT,MECHANICSBURG POLICE DEPARTMENT NORTH LEWISBURG OFFICE,60 E. MAPLE ST.,NORTH LEWISBURG,OH,43060,"http://maps.google.com/maps?q=60 E. MAPLE ST.,+NORTH LEWISBURG,+OH+43060&hl=en"
MERCER COUNTY SHERIFF'S OFFICE,FORT RECOVERY POLICE DEPARTMENT,201 SOUTH MAIN STREET,FORT RECOVERY,OH,45846,"http://maps.google.com/maps?q=201 SOUTH MAIN STREET,+FORT RECOVERY,+OH+45846&hl=en"
METRICH DRUG TASK FORCE,CAREY POLICE DEPARTMENT,127 N. VANCE ST.,CAREY,OH,43316,"http://maps.google.com/maps?q=127 N. VANCE ST.,+CAREY,+OH+43316&hl=en"
METRICH DRUG TASK FORCE,CRAWFORD COUNTY SHERIFF'S OFFICE,3613 STETZER RD.,BUCYRUS,OH,44820,"http://maps.google.com/maps?q=3613 STETZER RD.,+BUCYRUS,+OH+44820&hl=en"
METRICH DRUG TASK FORCE,FOSTORIA POLICE DEPARTMENT,213 S. MAIN ST.,FOSTORIA,OH,44830,"http://maps.google.com/maps?q=213 S. MAIN ST.,+FOSTORIA,+OH+44830&hl=en"
METRICH DRUG TASK FORCE,HANCOCK CO. SHERIFF'S OFFICE,200 W. CRAWFORD ST.,FINDLAY,OH,45840,"http://maps.google.com/maps?q=200 W. CRAWFORD ST.,+FINDLAY,+OH+45840&hl=en"
METRICH DRUG TASK FORCE,MARION COUNTY SHERIFF'S OFFICE MARION POLICE DEPARTMENT,1050 DELAWARE AVE.,MARION,OH,43302,"http://maps.google.com/maps?q=1050 DELAWARE AVE.,+MARION,+OH+43302&hl=en"
METRICH DRUG TASK FORCE,SENECA CO. SHERIFF'S OFFICE,3040 S. ST. RTE. 100,TIFFIN,OH,44883,"http://maps.google.com/maps?q=3040 S. ST. RTE. 100,+TIFFIN,+OH+44883&hl=en"
METRICH DRUG TASK FORCE,TIFFIN POLICE DEPARTMENT,51 E. MARKET ST. #4TIFFIN,TIFFIN,OH,44883,"http://maps.google.com/maps?q=51 E. MARKET ST. #4,+TIFFIN,+OH+44883&hl=en"
METRICH DRUG TASK FORCE,UPPER SANDUSKY POLICE DEPT,120 N. 7TH STREET,UPPER SANDUSKY,OH,43351,"http://maps.google.com/maps?q=120 N. 7TH STREET,+UPPER SANDUSKY,+OH+43351&hl=en"
METRICH DRUG TASK FORCE,WYANDOT COUNTY SHERIFF'S OFFICE,125 E.WYANDOT AVE,UPPER SANDUSKY,OH,43351,"http://maps.google.com/maps?q=125 E.WYANDOT AVE,+UPPER SANDUSKY,+OH+43351&hl=en"
MIAMI COUNTY SHERIFF'S OFFICE,MIAMI COUNTY TRANSFER STATION,2500 N COUNTY ROAD 25A,TROY,OH,45373,"http://maps.google.com/maps?q=2500 N COUNTY ROAD 25A,+TROY,+OH+45373&hl=en"
MIAMI TOWNSHIP POLICE DEPARTMENT,MIAMI TOWNSHIP POLICE DEPARTMENT,2660 LYONS ROAD,MIAMISBURG,OH,45342,"http://maps.google.com/maps?q=2660 LYONS ROAD,+MIAMISBURG,+OH+45342&hl=en"
MICHIGAN STATE POLICE,MICHIGAN STATE POLICE BRIGHTON POST,4337 BUNO ROAD,BRIGHTON,MI,48114,"http://maps.google.com/maps?q=4337 BUNO ROAD,+BRIGHTON,+MI+48114&hl=en"
MICHIGAN STATE POLICE,MICHIGAN STATE POLICE JACKSON POST,3401 COOPER STREET,JACKSON,MI,49201,"http://maps.google.com/maps?q=3401 COOPER STREET,+JACKSON,+MI+49201&hl=en"
MICHIGAN STATE POLICE,MICHIGAN STATE POLICE LANSING POST,7119 NORTH CANAL ROAD,LANSING,MI,48913,"http://maps.google.com/maps?q=7119 NORTH CANAL ROAD,+LANSING,+MI+48913&hl=en"
MICHIGAN STATE POLICE,MICHIGAN STATE POLICE MARSHALL POST (MOVED FROM COLDWATER),714 US HIGHWAY 27N,MARSHALL,MI,49068,"http://maps.google.com/maps?q=714 US HIGHWAY 27N,+MARSHALL,+MI+49068&hl=en"
MICHIGAN STATE POLICE,MICHIGAN STATE POLICE MONROE POST,300 JONES AVENUE,MONROE,MI,48161,"http://maps.google.com/maps?q=300 JONES AVENUE,+MONROE,+MI+48161&hl=en"
MICHIGAN STATE POLICE,MICHIGAN STATE POLICE NILES POST,1600 SILVERBROOK AVENUE,NILES,MI,49120,"http://maps.google.com/maps?q=1600 SILVERBROOK AVENUE,+NILES,+MI+49120&hl=en"
MICHIGAN STATE POLICE,MICHIGAN STATE POLICE PAW PAW POST,43255 60TH AVENUE,PAW PAW,MI,49079,"http://maps.google.com/maps?q=43255 60TH AVENUE,+PAW PAW,+MI+49079&hl=en"
MICHIGAN STATE POLICE,MICHIGAN STATE POLICE ROCKFORD POST,345 NORTHLAND DRIVE NE,ROCKFORD,MI,49341,"http://maps.google.com/maps?q=345 NORTHLAND DRIVE NE,+ROCKFORD,+MI+49341&hl=en"
MICHIGAN STATE POLICE,MICHIGAN STATE POLICE WAYLAND POST,544 NORTH MAIN STREET,WAYLAND,MI,49348,"http://maps.google.com/maps?q=544 NORTH MAIN STREET,+WAYLAND,+MI+49348&hl=en"
MILAN POLICE DEPARTMENT,MILAN POLICE DEPARTMENT,35 NECKEL COURT,MILAN,MI,48160,"http://maps.google.com/maps?q=35 NECKEL COURT,+MILAN,+MI+48160&hl=en"
MONTGOMERY COUNTY SHERIFF'S OFFICE,MONTGOMERY COUNTY SHERIFF'S OFFICE,345 W. SECOND ST.,DAYTON,OH,45422,"http://maps.google.com/maps?q=345 W. SECOND ST.,+DAYTON,+OH+45422&hl=en"
MONTPELIER POLICE DEPARTMENT,MONTPELIER POLICE DEPARTMENT,221 EMPIRE ST.,MONTPELIER,OH,43543,"http://maps.google.com/maps?q=221 EMPIRE ST.,+MONTPELIER,+OH+43543&hl=en"
MORAINE POLICE DEPARTMENT,KROGER,2917 W. ALEX BELL RD.,MORAINE,OH,45439,"http://maps.google.com/maps?q=2917 W. ALEX BELL RD.,+MORAINE,+OH+45439&hl=en"
MUNSTER POLICE DEPARTMENT,MUNSTER POLICE DEPARTMENT DROP BOX,1001 RIDGE RD.,MUNSTER,IN,46321,"http://maps.google.com/maps?q=1001 RIDGE RD.,+MUNSTER,+IN+46321&hl=en"
NAPOLEON POLICE DEPARTMENT,NAPOLEON POLICE DEPARTMENT COLLECTED AT MAN UNIT,310 GLENWOOD AVE,NAPOLEON,OH,43545,"http://maps.google.com/maps?q=310 GLENWOOD AVE,+NAPOLEON,+OH+43545&hl=en"
NAPOLEON POLICE DEPARTMENT,NAPOLEON POLICE DEPARTMENT COLLECTED AT MAN UNIT,401 GREENHOUSE ST,DEFIANCE,OH,43512,"http://maps.google.com/maps?q=401 GREENHOUSE ST,+DEFIANCE,+OH+43512&hl=en"
OTTAWA HILLS POLICE DEPARTMENT,OTTAWA HILLS POLICE DEPARTMENT,2125 RICHARDS RD.,OTTAWA HILLS,OH,43606,"http://maps.google.com/maps?q=2125 RICHARDS RD.,+OTTAWA HILLS,+OH+43606&hl=en"
OWOSSO POLICE DEPARTMENT,OWOSSO POLICE DEPARTMENT,202 S WATER STREET,OWOSSO,MI,48867,"http://maps.google.com/maps?q=202 S WATER STREET,+OWOSSO,+MI+48867&hl=en"
PAULDING COUNTY SHERIFF'S OFFICE,PAULDING COUNTY SHERIFF'S OFFICE,500 EAST PERRY STREET,PAULDING,OH,45879,"http://maps.google.com/maps?q=500 EAST PERRY STREET,+PAULDING,+OH+45879&hl=en"
PERRYSBURG TOWNSHIP POLICE DEPARTMENT,PERRYSBURG TOWNSHIP POLICE DEPARTMENT,26711 LIME CITY ROAD,PERRYSBURG,OH,43551,"http://maps.google.com/maps?q=26711 LIME CITY ROAD,+PERRYSBURG,+OH+43551&hl=en"
PIQUA POLICE DEPARTMENT,PIQUA POLICE DEPARTMENT,100 N. WAYNE ST.,PIQUA,OH,45356,"http://maps.google.com/maps?q=100 N. WAYNE ST.,+PIQUA,+OH+45356&hl=en"
PITTSFIELD POLICE DEPARTMENT,"KROGER STORE, PITTSFIELD TWP. MI",3200 CARPENTER RD.,YPSILANTI,MI,48197,"http://maps.google.com/maps?q=3200 CARPENTER RD.,+YPSILANTI,+MI+48197&hl=en"
PITTSFIELD POLICE DEPARTMENT,PITTSFIELD TWP. POLICE DEPT. MAIN STATION,6227 W. MICHIGAN AVE,ANN ARBOR,MI,48108,"http://maps.google.com/maps?q=6227 W. MICHIGAN AVE,+ANN ARBOR,+MI+48108&hl=en"
PLYMOUTH TOWNSHIP POLICE,PLYMOUTH TOWNSHIP POLICE,9955 N HAGGERTY,PLYMOUTH,MI,48170,"http://maps.google.com/maps?q=9955 N HAGGERTY,+PLYMOUTH,+MI+48170&hl=en"
PORTAGE POLICE DEPARTMENT,PORTAGE POLICE DEPARTMENT DROP BOX 24/7,6260 CENTRAL AVENUE,PORTAGE,IN,46368,"http://maps.google.com/maps?q=6260 CENTRAL AVENUE,+PORTAGE,+IN+46368&hl=en"
PORTER COUNTY SHERIFF'S DEPARTMENT,PORTER COUNTY SHERIFF'S DEPARTMENT DROP BOX,2755 IN-49,VALPARAISO,IN,46383,"http://maps.google.com/maps?q=2755 IN-49,+VALPARAISO,+IN+46383&hl=en"
PORTER POLICE DEPARTMENT,PORTER POLICE DEPARTMENT DROP BOX,50 FRANCIS STREET,PORTER,IN,46304,"http://maps.google.com/maps?q=50 FRANCIS STREET,+PORTER,+IN+46304&hl=en"
PREBLE COUNTY SHERIFF'S OFFICE,PREBLE COUNTY SHERIFF'S OFFICE,1139 PREBLE DRIVE,EATON,OH,45320,"http://maps.google.com/maps?q=1139 PREBLE DRIVE,+EATON,+OH+45320&hl=en"
PUTNAM COUNTY SHERIFF'S OFFICE,PUTNAM COUNTY SHERIFF'S OFFICE,1035 HERITAGE TRAIL,OTTAWA,OH,45875,"http://maps.google.com/maps?q=1035 HERITAGE TRAIL,+OTTAWA,+OH+45875&hl=en"
RICHMOND POLICE DEPARTMENT,RICHMOND POLICE DEPARTMENT MSUTTON@RICHMONDINDIANA.GOV,50 NORTH 5TH STREET,RICHMOND,IN,47374,"http://maps.google.com/maps?q=50 NORTH 5TH STREET,+RICHMOND,+IN+47374&hl=en"
ROCKFORD DEPARTMENT OF PUBLIC SAFETY,ROCKFORD DEPARTMENT OF PUBLIC SAFETY,7 SOUTH MONROE,ROCKFORD,MI,49341,"http://maps.google.com/maps?q=7 SOUTH MONROE,+ROCKFORD,+MI+49341&hl=en"
ROMULUS POLICE DEPARTMENT,ROMULUS POLICE DEPARTMENT,11165 OLIVE,ROMULUS,MI,48174,"http://maps.google.com/maps?q=11165 OLIVE,+ROMULUS,+MI+48174&hl=en"
ROSS TWP POLICE DEPARTMNET,ROSS TWP. POLICE DEPARTMENT,4055 HAMILTON CLEVES RD,FAIRFIELD,OH,45014,"http://maps.google.com/maps?q=4055 HAMILTON CLEVES RD,+FAIRFIELD,+OH+45014&hl=en"
RUSH COUNTY SHERIFF DEPARTMENT,RUSH MEMORIAL HOSPITAL 13TH STREET ENTRANCE,1300 N MAIN ST,RUSHVILLE,IN,46173,"http://maps.google.com/maps?q=1300 N MAIN ST,+RUSHVILLE,+IN+46173&hl=en"
SALINE POLICE DEPARTMENT,SALINE POLICE DEPARTMENT,100 NORTH HARRIS,SALINE,MI,48176,"http://maps.google.com/maps?q=100 NORTH HARRIS,+SALINE,+MI+48176&hl=en"
SANDUSKY COUNTY SHERIFF'S OFFICE,EASTSIDE FIRE AND POLICE,506 PINE ST.,FREMONT,OH,43420,"http://maps.google.com/maps?q=506 PINE ST.,+FREMONT,+OH+43420&hl=en"
SHARONVILLE POLICE DEPARTMENT,SHARONVILLE MUNICIPAL BUILDING,10900 READING ROAD,CINCINNATI,OH,45241,"http://maps.google.com/maps?q=10900 READING ROAD,+CINCINNATI,+OH+45241&hl=en"
SOUTH LYON POLICE DEPARTMENT,SOUTH LYON PD,219 WHIPPLE ST,SOUTH LYON,MI,48178,"http://maps.google.com/maps?q=219 WHIPPLE ST,+SOUTH LYON,+MI+48178&hl=en"
SPRINGBORO POLICE DEPARTMENT,CITY OF SPRINGBORO MUNICIPAL BUILDING,320 W CENTRAL AVE.,SPRINGBORO,OH,45066,"http://maps.google.com/maps?q=320 W CENTRAL AVE.,+SPRINGBORO,+OH+45066&hl=en"
SPRINGDALE POLICE DEPARTMENT,SPRINGDALE POLICE DEPARTMENT,12105 LAWNVIEW AVE.,CINCINNATI,OH,45246,"http://maps.google.com/maps?q=12105 LAWNVIEW AVE.,+CINCINNATI,+OH+45246&hl=en"
SPRINGFIELD TOWNSHIP POLICE DEPARTMENT,SPRINGFIELD TOWNSHIP POLICE DEPARTMENT,1130 COMPTON ROAD,CINCINNATI,OH,45231,"http://maps.google.com/maps?q=1130 COMPTON ROAD,+CINCINNATI,+OH+45231&hl=en"
ST. JOSEPH COUNTY POLICE,CLAY FIRE STATION 21,18776 CLEVELAND ROAD,SOUTH BEND,IN,46637,"http://maps.google.com/maps?q=18776 CLEVELAND ROAD,+SOUTH BEND,+IN+46637&hl=en"
ST. JOSEPH COUNTY POLICE,CLAY FIRE STATION 25,12481 ANDERSON ROADBITTERSWEET AND ANDERSON,GRANGER,IN,46530,"http://maps.google.com/maps?q=12481 ANDERSON ROAD,+GRANGER,+IN+46530&hl=en"
ST. JOSEPH COUNTY POLICE,DROP BOX,401 WEST SAMPLE STREET,SOUTH BEND,IN,46601,"http://maps.google.com/maps?q=401 WEST SAMPLE STREET,+SOUTH BEND,+IN+46601&hl=en"
ST. JOSEPH COUNTY POLICE,MISHAWAKA FIRE STATION,333 EAST DOUGLAS ROAD,MISHAWAKA,IN,46545,"http://maps.google.com/maps?q=333 EAST DOUGLAS ROAD,+MISHAWAKA,+IN+46545&hl=en"
ST. JOSEPH COUNTY POLICE,NEW CARLISLE FIRE STATION,204 EAST MICHIGAN AVENUE,NEW CARLISLE,IN,46552,"http://maps.google.com/maps?q=204 EAST MICHIGAN AVENUE,+NEW CARLISLE,+IN+46552&hl=en"
ST. JOSEPH COUNTY POLICE,NORTH LIBERTY FIRE STATION,305 S. STATE ST.,NORTH LIBERTY,IN,46554,"http://maps.google.com/maps?q=305 S. STATE ST.,+NORTH LIBERTY,+IN+46554&hl=en"
STURGIS POLICE DEPARTMENT,STURGIS POLICE DEPARTMENT,122 N NOTTAWA STREET,STURGIS,MI,49091,"http://maps.google.com/maps?q=122 N NOTTAWA STREET,+STURGIS,+MI+49091&hl=en"
SYLVANIA POLICE DIVISION,CITY OF SYLVANIA POLICE,6635 MAPLEWOOD AVE.,SYLVANIA,OH,43560,"http://maps.google.com/maps?q=6635 MAPLEWOOD AVE.,+SYLVANIA,+OH+43560&hl=en"
SYLVANIA TOWNSHIP POLICE,SYLVANIA TOWNSHIP POLICE,4420 KING ROAD,SYLVANIA,OH,43560,"http://maps.google.com/maps?q=4420 KING ROAD,+SYLVANIA,+OH+43560&hl=en"
THREE RIVERS POLICE DEPARTMENT,THREE RIVERS POLICE DEPARTMENT,333 W MICHIGAN AVENUE,THREE RIVERS,MI,49093,"http://maps.google.com/maps?q=333 W MICHIGAN AVENUE,+THREE RIVERS,+MI+49093&hl=en"
UNION COUNTY SHERIFF'S OFFICE,RICHWOOD POLICE DEPARTMENT,153 NORTH FRANKLIN ST,RICHWOOD,OH,43344,"http://maps.google.com/maps?q=153 NORTH FRANKLIN ST,+RICHWOOD,+OH+43344&hl=en"
UNION COUNTY SHERIFF'S OFFICE,UNION COUNTY SHERIFF'S OFFICE,221 WEST 5TH ST,MARYSVILLE,OH,43040,"http://maps.google.com/maps?q=221 WEST 5TH ST,+MARYSVILLE,+OH+43040&hl=en"
UNIVERSITY OF DAYTON POLICE DEPARTMENT,UNIVERSITY OF DAYTON POLICE DEPARTMENT,300 COLLEGE PARK,DAYTON,OH,45469,"http://maps.google.com/maps?q=300 COLLEGE PARK,+DAYTON,+OH+45469&hl=en"
UNIVERSITY OF NOTRE DAME,UNIVERSITY OF NOTRE DAME POLICE DEPARTMENT,HAMMES MOWBRAY HALL,NOTRE DAME,IN,46556,"http://maps.google.com/maps?q=HAMMES MOWBRAY HALL,+NOTRE DAME,+IN+46556&hl=en"
"URBANA, OH POLICE DIVISION",KROGER PARKING LOT,1637 E. U.S. HWY. 36,URBANA,OH,43078,"http://maps.google.com/maps?q=1637 E. U.S. HWY. 36,+URBANA,+OH+43078&hl=en"
VALPARAISO POLICE DEPARTMENT,VALPARAISO POLICE DEPARTMENT DROP BOX,355 WASHINGTON ST.,VALPARAISO,IN,46383,"http://maps.google.com/maps?q=355 WASHINGTON ST.,+VALPARAISO,+IN+46383&hl=en"
VAN BUREN COUNTY SHERIFF'S OFFICE,ANTWERP TOWNSHIP ACTIVITY CENTER,24821 FRONT AVE,MATTAWAN,MI,49071,"http://maps.google.com/maps?q=24821 FRONT AVE,+MATTAWAN,+MI+49071&hl=en"
VAN BUREN COUNTY SHERIFF'S OFFICE,SHORELINE WELLNESS & REHAB CENTER,950 S BAILEY AVE,SOUTH HAVEN,MI,49090,"http://maps.google.com/maps?q=950 S BAILEY AVE,+SOUTH HAVEN,+MI+49090&hl=en"
VAN BUREN TOWNSHIP POLICE DEPARTMENT,POLICE DEPARTMENT LOBBY 10:00 AM - 2:00 PM,46425 TYLER RD,BELLEVILLE,MI,48111,"http://maps.google.com/maps?q=46425 TYLER RD,+BELLEVILLE,+MI+48111&hl=en"
VAN WERT COUNTY SHERIFF'S OFFICE,VAN WERT COUNTY SHERIFF'S OFFICE,113 NORTH MARKET STREET,VAN WERT,OH,45891,"http://maps.google.com/maps?q=113 NORTH MARKET STREET,+VAN WERT,+OH+45891&hl=en"
VANDALIA DIVISION OF POLICE,VANDALIA KROGER,780 NORTHWOODS BLVD,VANDALIA,OH,45377,"http://maps.google.com/maps?q=780 NORTHWOODS BLVD,+VANDALIA,+OH+45377&hl=en"
VANDALIA DIVISION OF POLICE,VANDALIA POLICE DEPARTMENT,245 JAMES BOHANAN DR.,VANDALIA,OH,45377,"http://maps.google.com/maps?q=245 JAMES BOHANAN DR.,+VANDALIA,+OH+45377&hl=en"
VILLAGE OF DUNDEE POLICE DEPARTMENT,VILLAGE OF DUNDEE POLICE DEPARTMENT,350 W MONROE ST,DUNDEE,MI,48131,"http://maps.google.com/maps?q=350 W MONROE ST,+DUNDEE,+MI+48131&hl=en"
"VILLAGE OF EVENDALE, OHIO",EVENDALE POLICE DEPARTMENT CHIEF NIEL KORTE,10500 READING RD,CINCINNATI,OH,45241,"http://maps.google.com/maps?q=10500 READING RD,+CINCINNATI,+OH+45241&hl=en"
VILLAGE OF LAKE ODESSA,VILLAGE OF LAKE ODESSA CHIEF KENDRA BACKING,839 4TH AVE,LAKE ODESSA,MI,48849,"http://maps.google.com/maps?q=839 4TH AVE,+LAKE ODESSA,+MI+48849&hl=en"
WAPAKONETA POLICE DEPARTMENT,WAPAKONETA POLICE DEPARTMENT,701 PARLETTE CT,WAPAKONETA,OH,45895,"http://maps.google.com/maps?q=701 PARLETTE CT,+WAPAKONETA,+OH+45895&hl=en"
WARREN COUNTY DRUG TASK FORCE,KROGER,5100 TERRA FIRMA DR.,MASON,OH,45040,"http://maps.google.com/maps?q=5100 TERRA FIRMA DR.,+MASON,+OH+45040&hl=en"
WAUSEON POLICE DEPARTMENT,WALMART,485 E AIRPORT HWY,WAUSEON,OH,43567,"http://maps.google.com/maps?q=485 E AIRPORT HWY,+WAUSEON,+OH+43567&hl=en"
WAUSEON POLICE DEPARTMENT,WAUSEON POLICE DEPT,230 CLINTON ST.,WAUSEON,OH,43567,"http://maps.google.com/maps?q=230 CLINTON ST.,+WAUSEON,+OH+43567&hl=en"
WAYNESVILLE POLICE DEPARTMENT,WAYNESVILLE POLICE DEPARTMENT,1400 LYTLE ROAD,WAYNESVILLE,OH,45068,"http://maps.google.com/maps?q=1400 LYTLE ROAD,+WAYNESVILLE,+OH+45068&hl=en"
WEST CHESTER POLICE DEPARTMENT,WALGREENS PARKING LOT,7804 CINCINNATI-DAYTON ROAD,WEST CHESTER,OH,45069,"http://maps.google.com/maps?q=7804 CINCINNATI-DAYTON ROAD,+WEST CHESTER,+OH+45069&hl=en"
WHITE COUNTY SHERIFF'S DEPARTMENT,WHITE COUNTY SHERIFF'S DEPARTMENT DROP BOX,915 W. HANAWALT,MONTICELLO,IN,47960,"http://maps.google.com/maps?q=915 W. HANAWALT,+MONTICELLO,+IN+47960&hl=en"
WILLIAMS COUNTY SHERIFF'S OFFICE,WILLIAMS COUNTY SHERIFF'S OFFICE MICHELLE JACOB,"1425 E HIGH ST, SUITE 103BRYAN",BRYAN,OH,43506,"http://maps.google.com/maps?q=1425 E HIGH ST, SUITE 103,+BRYAN,+OH+43506&hl=en"
WINFIELD POLICE DEPARTMENT,WALGREENS PHARMACY,10920 RANDOLPH STREET,CROWN POINT,IN,46307,"http://maps.google.com/maps?q=10920 RANDOLPH STREET,+CROWN POINT,+IN+46307&hl=en"
WOOD COUNTY SHERIFF'S OFFICE,WOOD COUNTY SHERIFF'S OFFICE DET. SGT. ROD SMITH,1960 E. GYPSY LNBOWLING GREEN,BOWLING GREEN,OH,43402,"http://maps.google.com/maps?q=1960 E. GYPSY LN,+BOWLING GREEN,+OH+43402&hl=en"
WYOMING POLICE DEPARTMENT,METRO HEALTH HOSPITAL,5900 BYRON CENTER AVENUE,WYOMING,MI,49519,"http://maps.google.com/maps?q=5900 BYRON CENTER AVENUE,+WYOMING,+MI+49519&hl=en"
WYOMING POLICE DEPARTMENT,WYOMING POLICE DEPARTMENT,2300 DEHOOP AVE. SW,WYOMING,MI,49509,"http://maps.google.com/maps?q=2300 DEHOOP AVE. SW,+WYOMING,+MI+49509&hl=en"
ZEELAND POLICE DEPARTMENT,ZEELAND POLICE DEPARTMENT,29 W. MAIN ST.,ZEELAND,MI,49464,"http://maps.google.com/maps?q=29 W. MAIN ST.,+ZEELAND,+MI+49464&hl=en"
