Participant,CollectionSite,Address,City,State,Zip,MapURL
13TH JUDICIAL DTF,ELDORADO POLICE DEPARTMENT,402 NORTH WEST AVE,EL DORADO,AR,71730,"http://maps.google.com/maps?q=402 NORTH WEST AVE,+EL DORADO,+AR+71730&hl=en"
2D SECURITY FORCES SQUADRON,BARKSDALE AIR FORCE BASE EXCHANGE,4771 CURTISS RD,BARKSDALE AFB,LA,71110,"http://maps.google.com/maps?q=4771 CURTISS RD,+BARKSDALE AFB,+LA+71110&hl=en"
ALABAMA COUSHATTA POLICE DEPARTMENT,ALABAMA COUSHATTA POLICE DEPARTMENT,571 STATE PARK ROAD 56,LIVINGSTON,TX,77351,"http://maps.google.com/maps?q=571 STATE PARK ROAD 56,+LIVINGSTON,+TX+77351&hl=en"
ALEXANDER POLICE DEPARTMENT,ALEXANDRIA POLICE DEPARTMENT,1000 BOLTON,ALEXANDRIA,LA,71301,"http://maps.google.com/maps?q=1000 BOLTON,+ALEXANDRIA,+LA+71301&hl=en"
ALEXANDRIA POLICE DEPARTMENT,ALEXANDRIA POLICE DEPARTMENT,1000 BOLTON AVE,ALEXANDRIA,LA,71302,"http://maps.google.com/maps?q=1000 BOLTON AVE,+ALEXANDRIA,+LA+71302&hl=en"
BATON ROUGE PD,BATON ROUGE PD,9000 AIRLINE HWY,BATON ROUGE,LA,70815,"http://maps.google.com/maps?q=9000 AIRLINE HWY,+BATON ROUGE,+LA+70815&hl=en"
BAYTOWN POLICE DEPARTMENT,BAYTOWN POLICE DEPARTMENT RANDELL MORRIS,3200 NORTH MAIN STREET,BAYTOWN,TX,77521,"http://maps.google.com/maps?q=3200 NORTH MAIN STREET,+BAYTOWN,+TX+77521&hl=en"
BEAUMONT ROGERS PARK,ROGERS PARK,1455 DOWLEN ROAD,BEAUMONT,TX,77706,"http://maps.google.com/maps?q=1455 DOWLEN ROAD,+BEAUMONT,+TX+77706&hl=en"
BEAUREGARD PARISH SHERIFF'S DEPARTMENT,BEAUREGARD PARISH SHERIFF'S DEPARTMENT,412 BOLIVAR BISHOP DRIVE,DERIDDER,LA,70634,"http://maps.google.com/maps?q=412 BOLIVAR BISHOP DRIVE,+DERIDDER,+LA+70634&hl=en"
BERWICK POLICE DEPARTMENT,BERWICK TOWN HALL,3225 THIRD STREET,BERWICK,LA,70342,"http://maps.google.com/maps?q=3225 THIRD STREET,+BERWICK,+LA+70342&hl=en"
BOGALUSA POLICE DEPARTMENT,NIELSEN'S PHARMACY,1619 S. COLUMBIA STREET,BOGALUSA,LA,70427,"http://maps.google.com/maps?q=1619 S. COLUMBIA STREET,+BOGALUSA,+LA+70427&hl=en"
BRANDON POLICE DEPARTMENT,BRANDON POLICE DEPARTMENT,1455 WEST GOVERNMENT STREET,BRANDON,MS,39042,"http://maps.google.com/maps?q=1455 WEST GOVERNMENT STREET,+BRANDON,+MS+39042&hl=en"
BROUSSARD POLICE DEPARTMENT,WALGREENS PARKING LOT,105 ST. NAZAIRE,BROUSSARD,LA,70518,"http://maps.google.com/maps?q=105 ST. NAZAIRE,+BROUSSARD,+LA+70518&hl=en"
CADDO PARISH SHERIFF'S OFFICE,SHERIFF'S SAFETY TOWN,8910 JEWELLA AVENUE,SHREVEPORT,LA,71118,"http://maps.google.com/maps?q=8910 JEWELLA AVENUE,+SHREVEPORT,+LA+71118&hl=en"
CALHOUN COUNTY SHERIFF'S DEPARTMENT,CALHOUN COUNTY DETENTION CENTER PERMANENT DROP BOX,449 9TH ST,HAMPTON,AR,71744,"http://maps.google.com/maps?q=449 9TH ST,+HAMPTON,+AR+71744&hl=en"
CENTRAL POLICE DEPARTMENT,CENTRAL POLICE DEPARTMENT,13505 HOOPER RD,BATON ROUGE,LA,70818,"http://maps.google.com/maps?q=13505 HOOPER RD,+BATON ROUGE,+LA+70818&hl=en"
CHICOT COUNTY SHERIFF'S OFFICE,CHICOT COUNTY SHERIFF'S OFFICE,513 MAIN STREET,LAKE VILLAGE,AR,71653,"http://maps.google.com/maps?q=513 MAIN STREET,+LAKE VILLAGE,+AR+71653&hl=en"
CLAIBORNE PARISH S.O.,COURT HOUSE SQUARE,WEST MAIN STREET,HOMER,LA,71040,"http://maps.google.com/maps?q=WEST MAIN STREET,+HOMER,+LA+71040&hl=en"
CLEVELAND POLICE DEPARTMENT,CLEVELAND POLICE DEPARTMENT,226 PEACH STREET,CLEVELAND,TX,77327,"http://maps.google.com/maps?q=226 PEACH STREET,+CLEVELAND,+TX+77327&hl=en"
CLINTON POLICE DEPARTMENT,CLINTON TOWN HALL,11209 BANK STREET,CLINTON,LA,70722,"http://maps.google.com/maps?q=11209 BANK STREET,+CLINTON,+LA+70722&hl=en"
CLINTON POLICE DEPARTMENT,KROGER PARKING LOT,107 HIGHWAY 80 E.,CLINTON,MS,39056,"http://maps.google.com/maps?q=107 HIGHWAY 80 E.,+CLINTON,+MS+39056&hl=en"
CONROE POLICE DEPARTMENT,CONROE POLICE DEPARTMENT,2300 PLANTATION DRIVE,CONROE,TX,77303,"http://maps.google.com/maps?q=2300 PLANTATION DRIVE,+CONROE,+TX+77303&hl=en"
COVINGTON POLICE DEPARTMENT,COVINGTON POLICE DEPARTMENT,200 E KIRKLAND ST.,COVINGTON,LA,70433,"http://maps.google.com/maps?q=200 E KIRKLAND ST.,+COVINGTON,+LA+70433&hl=en"
DAINGERFIELD PD,DAINGERFIELD/LONE STAR ISD HS PARKINGLOT,200 TIGER DR,DAINGERFIELD,TX,75638,"http://maps.google.com/maps?q=200 TIGER DR,+DAINGERFIELD,+TX+75638&hl=en"
DE QUINCY POLICE DEPARTMENT,DEQUINCY POLICE DEPARTMENT,101 SOUTH PINE STREET,DEQUINCY,LA,70633,"http://maps.google.com/maps?q=101 SOUTH PINE STREET,+DEQUINCY,+LA+70633&hl=en"
DEA- NEW ORLEANS FIELD DIVISION,METAIRIE POST OFFICE BY THE DRIVE BY MAIL BOXES,3301 17TH STREET,METAIRIE,LA,70002,"http://maps.google.com/maps?q=3301 17TH STREET,+METAIRIE,+LA+70002&hl=en"
DEA-JACKSON DISTRICT OFFICE,"OUTLETS OF MISSISSIPPI COLLECTING IN FRONT OF ""ADIDAS""",200 BASS PRO DRIVE,PEARL,MS,39208,"http://maps.google.com/maps?q=200 BASS PRO DRIVE,+PEARL,+MS+39208&hl=en"
DELHI POLICE DEPARTMENT,DELHI POLICE DEPARTMENT,304 TENNESSEE STREET,DELHI,LA,71232,"http://maps.google.com/maps?q=304 TENNESSEE STREET,+DELHI,+LA+71232&hl=en"
DERIDDER POLICE DEPARTMENT,DERIDDER PD,200 SOUTH JEFFERSON STREET,DERIDDER,LA,70634,"http://maps.google.com/maps?q=200 SOUTH JEFFERSON STREET,+DERIDDER,+LA+70634&hl=en"
DIXIE INN POLICE DEPARTMENT,DIXIE INN POLICE DEPARTMENT,60 SHELL STREET,MINDEN,LA,71055,"http://maps.google.com/maps?q=60 SHELL STREET,+MINDEN,+LA+71055&hl=en"
DUBBERLY POLICE DEPARTMENT,DUBBERLY TOWN HALL,3465 HWY 531,DUBBERLY,LA,71024,"http://maps.google.com/maps?q=3465 HWY 531,+DUBBERLY,+LA+71024&hl=en"
EAST BATON ROUGE PARISH SHERIFF'S OFFICE,WOMEN'S HOSPITAL,100 WOMEN'S WAY,BATON ROUGE,LA,70817,"http://maps.google.com/maps?q=100 WOMEN'S WAY,+BATON ROUGE,+LA+70817&hl=en"
FLORA POLICE DEPARTMENT,FLORA POLICE DEPARTMENT,176 CARTER ST.,FLORA,MS,39071,"http://maps.google.com/maps?q=176 CARTER ST.,+FLORA,+MS+39071&hl=en"
FRANKLIN POLICE DEPARTMENT,FRANKLIN POLICE DEPARTMENT,508 SECOND STREET,FRANKLIN,LA,70538,"http://maps.google.com/maps?q=508 SECOND STREET,+FRANKLIN,+LA+70538&hl=en"
GRAMBLING CITY POLICE DEPARTMENT,POLICE STATION,2045 MLK DRIVE,GRAMBLING,LA,71245,"http://maps.google.com/maps?q=2045 MLK DRIVE,+GRAMBLING,+LA+71245&hl=en"
HARRISON COUNTY SHERIFF'S OFFICE,HARRISON COUNTY SHERIFF'S OFFICE,200 W. HOUSTON ST.,MARSHALL,TX,75670,"http://maps.google.com/maps?q=200 W. HOUSTON ST.,+MARSHALL,+TX+75670&hl=en"
HEFLIN POLICE DEPARTMENT,HEFLIN TOWN HALL,122 NORTH CHURCH STREET,HEFLIN,LA,71039,"http://maps.google.com/maps?q=122 NORTH CHURCH STREET,+HEFLIN,+LA+71039&hl=en"
HINDS COUNTY SHERIFF'S OFFICE RESERVE UNIT,HINDS COUNTY SHERIFF'S OFFICE,407 E. PASCAGOULA STREET,JACKSON,MS,39201,"http://maps.google.com/maps?q=407 E. PASCAGOULA STREET,+JACKSON,+MS+39201&hl=en"
HOUMA POLICE DEPARTMENT,HOUMA POLICE DEPARTMENT,500 HONDURAS,HOUMA,LA,70360,"http://maps.google.com/maps?q=500 HONDURAS,+HOUMA,+LA+70360&hl=en"
HOUSTON POLICE DEPARTMENT METRO PARK N RIDE,HOUSTON POLICE DEPARTMENT METRO PARK N RIDE,3210 W. LAKE HOUSTON PKWY,KINGWOOD,TX,77345,"http://maps.google.com/maps?q=3210 W. LAKE HOUSTON PKWY,+KINGWOOD,+TX+77345&hl=en"
IBERVILLE PARISH S.O,IBERVILLE PARISH COURTHOUSE,58050 MERIAM STREET,PLAQUEMINE,LA,70764,"http://maps.google.com/maps?q=58050 MERIAM STREET,+PLAQUEMINE,+LA+70764&hl=en"
JACKSON POLICE DEPARTMENT,JACKSON POLICE DEPARTMENT FRONT SIDEWALK - DRIVE THROUGH,327 E. PASCAGOULA STREET,JACKSON,MS,39206,"http://maps.google.com/maps?q=327 E. PASCAGOULA STREET,+JACKSON,+MS+39206&hl=en"
JACKSONVILLE PD,JACKSONVILLE CHAMBER OF COMMERCE,526 E. COMMERCE ST,JACKSONVILLE,TX,75766,"http://maps.google.com/maps?q=526 E. COMMERCE ST,+JACKSONVILLE,+TX+75766&hl=en"
JASPER POLICE DEPARTMENT,JASPER POLICE DEPARTMENT,555 S MAIN STREET,JASPER,TX,75951,"http://maps.google.com/maps?q=555 S MAIN STREET,+JASPER,+TX+75951&hl=en"
JEFFERSON DAVIS PARISH S.O.,JEFFERSON DAVIS PARISH S.O,321 EAST PLAQUEMINE ST.,JENNINGS,LA,70546,"http://maps.google.com/maps?q=321 EAST PLAQUEMINE ST.,+JENNINGS,+LA+70546&hl=en"
JEFFERSON PARISH SHERIFF'S OFFICE,OCHSNER MAIN,1514 JEFFERSON HWY,NEW ORLEANS,LA,70121,"http://maps.google.com/maps?q=1514 JEFFERSON HWY,+NEW ORLEANS,+LA+70121&hl=en"
JEFFERSON PARISH SHERIFF'S OFFICE,OCHSNER WESTBANK,25800 BELLE CHASSE HWY,GRETNA,LA,70056,"http://maps.google.com/maps?q=25800 BELLE CHASSE HWY,+GRETNA,+LA+70056&hl=en"
KENNER POLICE DEPARTMENT,OCHSNER MEDICAL CENTER-KENNER,180 W. ESPLANADE,KENNER,LA,70065,"http://maps.google.com/maps?q=180 W. ESPLANADE,+KENNER,+LA+70065&hl=en"
LAFAYETTE COUNTY SHERIFF'S OFFICE,LAFAYETTE COUNTY SHERIFF'S OFFICE PERMANENT DROP BOX,5 COURTHOUSE SQUARE,LEWISVILLE,AR,71845,"http://maps.google.com/maps?q=5 COURTHOUSE SQUARE,+LEWISVILLE,+AR+71845&hl=en"
LAFAYETTE PARISH SHERIFF'S OFFICE,LAFAYETTE PARISH SHERIFF'S OFFICE PUBLIC SAFETY CO,1825 W. WILLOW STREET,SCOTT,LA,70583,"http://maps.google.com/maps?q=1825 W. WILLOW STREET,+SCOTT,+LA+70583&hl=en"
LAFAYETTE POLICE DEPARTMENT,UNIVERSITY HOSPITALS AND CLINICS,2390 W. CONGRESS ST.,LAFAYETTE,LA,70506,"http://maps.google.com/maps?q=2390 W. CONGRESS ST.,+LAFAYETTE,+LA+70506&hl=en"
LAFOURCHE PARISH S.O,LAFOURCHE PARISH SHERIFF'S OFFICE,5200 HWY 1,LOCKPORT,LA,70374,"http://maps.google.com/maps?q=5200 HWY 1,+LOCKPORT,+LA+70374&hl=en"
LAKE CHARLES POLICE DEPARTMENT,LAKE CHARLES CIVIC CENTER,900 LAKE SHORE DRIVE,LAKE CHARLES,LA,70601,"http://maps.google.com/maps?q=900 LAKE SHORE DRIVE,+LAKE CHARLES,+LA+70601&hl=en"
LASALLE SHERIFFS OFFICE,LASALLE S.O,1050 COURTHOUSE STREET,JENA,LA,71342,"http://maps.google.com/maps?q=1050 COURTHOUSE STREET,+JENA,+LA+71342&hl=en"
LEESVILLE POLICE DEPARTMENT,WALGREENS,2008 S. 5TH STREET,LEESVILLE,LA,71446,"http://maps.google.com/maps?q=2008 S. 5TH STREET,+LEESVILLE,+LA+71446&hl=en"
LIBERTY POLICE DEPARTMENT,LIBERTY POLICE DEPARTMENT,1906 LAKELAND DRIVE,LIBERTY,TX,77575,"http://maps.google.com/maps?q=1906 LAKELAND DRIVE,+LIBERTY,+TX+77575&hl=en"
LINCOLN PARISH S.O,SUPER ONE FOODS,1500 NORTH TRENTON STREET,RUSTON,LA,71270,"http://maps.google.com/maps?q=1500 NORTH TRENTON STREET,+RUSTON,+LA+71270&hl=en"
LIVINGSTON PARISH OFFICE OF HOMLAND ECURITY AND EM,LOHSEP OFFICE,20355 GOV. BLVD. 2ND FLOOR SUITE D,LIVINGSTON,LA,70754,"http://maps.google.com/maps?q=20355 GOV. BLVD. 2ND FLOOR SUITE D,+LIVINGSTON,+LA+70754&hl=en"
LOUISIANA STATE POLICE,LSP TROOP B,2101 I-10 SERVICE RD,KENNER,LA,70065,"http://maps.google.com/maps?q=2101 I-10 SERVICE RD,+KENNER,+LA+70065&hl=en"
LOUISIANA STATE POLICE,LSP TROOP E BOI/NARC/ALEX,1710 ODOM ST,ALEXANDRIA,LA,71303,"http://maps.google.com/maps?q=1710  ODOM ST,+ALEXANDRIA,+LA+71303&hl=en"
LOUISIANA STATE POLICE,LSP TROOP G,5300 INDUSTRIAL DRIVE EXT.,BOSSIER CITY,LA,71111,"http://maps.google.com/maps?q=5300 INDUSTRIAL DRIVE EXT.,+BOSSIER CITY,+LA+71111&hl=en"
LOUISIANA STATE POLICE,LSP TROOP I HEAD QUARTERS,121 EAST PONT DES MOUTON,LAFAYETTE,LA,70507,"http://maps.google.com/maps?q=121 EAST PONT DES MOUTON,+LAFAYETTE,+LA+70507&hl=en"
LOUISIANA STATE POLICE TROOP F,TROOP F HEADQUARTERS,1240 LA HGHWAY 594,MONROE,LA,71203,"http://maps.google.com/maps?q=1240 LA HGHWAY 594,+MONROE,+LA+71203&hl=en"
LOUISIANA STATE POLICE TROOP L,TROOP L,2600 NORTH CAUSEWAY BLVD,MANDEVILLE,LA,70471,"http://maps.google.com/maps?q=2600 NORTH CAUSEWAY BLVD,+MANDEVILLE,+LA+70471&hl=en"
LUMBERTON POLICE DEPARTMENT,LUMBERTON POLICE DEPARTMENT,120 EAST CHANCE ROAD #A,LUMBERTON,TX,77657,"http://maps.google.com/maps?q=120 EAST CHANCE ROAD #A,+LUMBERTON,+TX+77657&hl=en"
MADISON COUNTY SHERIFF'S OFFICE,LAS TERRAZAS MEXICAN GRILL PARKING LOT,134 WEISENBERGER ROAD,MADISON,MS,39110,"http://maps.google.com/maps?q=134 WEISENBERGER ROAD,+MADISON,+MS+39110&hl=en"
MADISON POLICE DEPARTMENT,CITY CULTURAL CENTER PARKING LOT,2115 MAIN STREET,MADISON,MS,39110,"http://maps.google.com/maps?q=2115 MAIN STREET,+MADISON,+MS+39110&hl=en"
MAGEE POLICE DEPARTMENT,MAGEE POLICE DEPARTMENT,124 1ST STREET NE,MAGEE,MS,39111,"http://maps.google.com/maps?q=124 1ST STREET NE,+MAGEE,+MS+39111&hl=en"
MANDEVILLE POLICE DEPARTMENT,MANDEVILLE POLICE DEPARTMENT,1870 HWY 90,MANDEVILLE,LA,70448,"http://maps.google.com/maps?q=1870 HWY 90,+MANDEVILLE,+LA+70448&hl=en"
MARSHALL POLICE DEPARTMENT,MARSHALL POLICE DEPARTMENT LOBBY,"2101 EAST END BLVD, NORTH",MARSHALL,TX,75670,"http://maps.google.com/maps?q=2101 EAST END BLVD, NORTH,+MARSHALL,+TX+75670&hl=en"
MONROE POLICE DEPARTMENT,MONROE POLICE DEPARTMENT,700 WOOD STREET,MONROE,LA,71201,"http://maps.google.com/maps?q=700 WOOD STREET,+MONROE,+LA+71201&hl=en"
MONTGOMERY COUNTY CONSTABLE'S OFFICE PCT. 1,MONTGOMERY COUNTY CONSTABLE'S OFFICE PCT. 1,115 BUSINESS PARK DRIVE,WILLIS,TX,77378,"http://maps.google.com/maps?q=115 BUSINESS PARK DRIVE,+WILLIS,+TX+77378&hl=en"
MONTGOMERY COUNTY PRECINCT 4 CONSTABLE'S OFFICE,MONTGOMERY COUNTY PRECINCT 4 CONSTABLE'S OFFICE MONTGOMERY COUNTY ANNEX BUILDING,21130 US HWY 59,NEW CANEY,TX,77357,"http://maps.google.com/maps?q=21130 US HWY 59,+NEW CANEY,+TX+77357&hl=en"
MORGAN CITY POLICE DEPARTMENT,WALGREENS PHARMACY,815 BRASHEAR AVE,MORGAN CITY,LA,70380,"http://maps.google.com/maps?q=815 BRASHEAR AVE,+MORGAN CITY,+LA+70380&hl=en"
MORGAN CITY POLICE DEPARTMENT,WALMART NEIGHBORHOOD MARKET,1002 HWY 70,MORGAN CITY,LA,70380,"http://maps.google.com/maps?q=1002 HWY 70,+MORGAN CITY,+LA+70380&hl=en"
NACOGDOCHES COUNTY SHERIFF'S OFFICE,NACOGDOCHES COUNTY SHERIFF'S OFFICE,2306 DOUGLASS HIGHWAY,NACOGDOCHES,TX,75964,"http://maps.google.com/maps?q=2306 DOUGLASS HIGHWAY,+NACOGDOCHES,+TX+75964&hl=en"
NACOGDOCHES POLICE DEPARTMENT,NACOGDOCHES POLICE DEPARTMENT UNIVERSITY MALL,1122 NORTH UNIVERSITY DRIVE,NACOGDOCHES,TX,75961,"http://maps.google.com/maps?q=1122 NORTH UNIVERSITY DRIVE,+NACOGDOCHES,+TX+75961&hl=en"
ORANGE POLICE DEPARTMENT,ORANGE POLICE DEPARTMENT,201 8TH STREET,ORANGE,TX,77630,"http://maps.google.com/maps?q=201 8TH STREET,+ORANGE,+TX+77630&hl=en"
ORLEANS PARISH SHERIFF'S OFFICE,ORLEANS PARISH SHERIFF'S OFFICE,2614 TULANE AVE,NEW ORLEANS,LA,70119,"http://maps.google.com/maps?q=2614 TULANE AVE,+NEW ORLEANS,+LA+70119&hl=en"
OUACHITA PARISH SO,OPSO,400 ST. JOHN STREET,MONROE,LA,71201,"http://maps.google.com/maps?q=400 ST. JOHN STREET,+MONROE,+LA+71201&hl=en"
PEARL RIVER POLICE DEPARTMENT,PEARL RIVER POLICE DEPARTMENT,39470 WILLIS ALLEY,PEARL RIVER,LA,70452,"http://maps.google.com/maps?q=39470 WILLIS ALLEY,+PEARL RIVER,+LA+70452&hl=en"
PIKE COUNTY SHERIFF'S OFFICE,PIKE COUNTY SHERIFF'S OFFICE,2109 JESSE HALL MEMORIAL ROAD,MAGNOLIA,MS,39652,"http://maps.google.com/maps?q=2109 JESSE HALL MEMORIAL ROAD,+MAGNOLIA,+MS+39652&hl=en"
PLAQUEMINE POLICE DEPARTMENT,PLAQUEMINE POLICE DEPARTMENT,23540 RAILROAD AVENUE,PLAQUEMINE,LA,70764,"http://maps.google.com/maps?q=23540 RAILROAD AVENUE,+PLAQUEMINE,+LA+70764&hl=en"
PORT ARTHUR POLICE DEPARTMENT,PORT ARTHUR POLICE DEPARTMENT,645 4TH STREET,PORT ARTHUR,TX,77641,"http://maps.google.com/maps?q=645 4TH STREET,+PORT ARTHUR,+TX+77641&hl=en"
RANKIN COUNTY SHERIFF'S OFFICE,RANKIN COUNTY SHERIFF'S OFFICE,221 N. TIMBER ST.,BRANDON,MS,39042,"http://maps.google.com/maps?q=221 N. TIMBER ST.,+BRANDON,+MS+39042&hl=en"
RED RIVER ARMY DEPOT,RED RIVER ARMY DEPORT ACCESS CONTROL POINTS (GATES),100 JAMES CARLOW DRIVE,TEXARKANA,TX,75507,"http://maps.google.com/maps?q=100 JAMES CARLOW DRIVE,+TEXARKANA,+TX+75507&hl=en"
RICHLAND PARISH SHERIFF'S OFFICE,BROOKSHIRE'S GROCERY,902 BROADWAY,DELHI,LA,71232,"http://maps.google.com/maps?q=902 BROADWAY,+DELHI,+LA+71232&hl=en"
RICHLAND PARISH SHERIFF'S OFFICE,WAL-MART,1806 S. JULIA STREET,RAYVILLE,LA,71269,"http://maps.google.com/maps?q=1806 S. JULIA STREET,+RAYVILLE,+LA+71269&hl=en"
SAINT CHARLES PARISH S.O,ST. CHARLES PARISH SHERIFF'S OFFICE,260 JUDGE EDWARD DUFRENE PARKWAY,LULING,LA,70070,"http://maps.google.com/maps?q=260 JUDGE EDWARD DUFRENE PARKWAY,+LULING,+LA+70070&hl=en"
SAINT JAMES PARISH S.O,SAINT JAMES S.O 1ST FLOOR,5800 HWY,CONVENT,LA,70723,"http://maps.google.com/maps?q=5800 HWY,+CONVENT,+LA+70723&hl=en"
SAINT JAMES PARISH S.O,VACHERIE COURTHOUSE,2631 HWY 44,VACHERIE,LA,70090,"http://maps.google.com/maps?q=2631 HWY 44,+VACHERIE,+LA+70090&hl=en"
SAINT MARTIN PARISH SHERIFF'S OFFICE,WALLGREENS,1401 REES STREET 1,BREAUX BRIDGE,LA,70517,"http://maps.google.com/maps?q=1401 REES STREET 1,+BREAUX BRIDGE,+LA+70517&hl=en"
SAINT TAMMANY PARISH SHERIFF'S OFFICE,COVINGTON LEC,2070 COLLINS BLVD,COVINGTON,LA,70433,"http://maps.google.com/maps?q=2070 COLLINS BLVD,+COVINGTON,+LA+70433&hl=en"
SCOTT POLICE DEPARTMENT,SCOTT PUBLIC LIBRARY,5808 CAMERON ST,SCOTT,LA,70583,"http://maps.google.com/maps?q=5808 CAMERON ST,+SCOTT,+LA+70583&hl=en"
SILSBEE POLICE DEPARTMENT,SILSBEE POLICE DEPARTMENT,1104 NORTH 5TH STREET,SILSBEE,TX,77656,"http://maps.google.com/maps?q=1104 NORTH 5TH STREET,+SILSBEE,+TX+77656&hl=en"
ST MARY PARISH S.O,WAL- MART,200 NORTHWEST BLVD.,FRANKLIN,LA,70538,"http://maps.google.com/maps?q=200 NORTHWEST BLVD.,+FRANKLIN,+LA+70538&hl=en"
ST MARY PARISH S.O,WAL-MART,973 HWY 90 EAST,MORGAN CITY,LA,70380,"http://maps.google.com/maps?q=973 HWY 90 EAST,+MORGAN CITY,+LA+70380&hl=en"
SUNO POLICE DEPARTMENT,SUNO PD HQ MAINT. BLDG,6400 PRESS DRIVE,NEW ORLEANS,LA,70126,"http://maps.google.com/maps?q=6400 PRESS DRIVE,+NEW ORLEANS,+LA+70126&hl=en"
TANGIPAHOA PARISH S.O,TARGET,2030 HAMMOND SQUARE DRIVE,HAMMOND,LA,70403,"http://maps.google.com/maps?q=2030 HAMMOND SQUARE DRIVE,+HAMMOND,+LA+70403&hl=en"
TERRY POLICE DEPARTMENT,FRED'S PHARMACY,422 WEST CUNNINGHAM AVE,TERRY,MS,39170,"http://maps.google.com/maps?q=422 WEST CUNNINGHAM AVE,+TERRY,+MS+39170&hl=en"
TYLER POLICE DEPARTMENT,BROADWAY SQUARE MALL,4601 S BROADWAY,TYLER,TX,75703,"http://maps.google.com/maps?q=4601 S BROADWAY,+TYLER,+TX+75703&hl=en"
U.T. HEALTH SCIENCE CENTER AT TYLER,U.T. HEALTH SCIENCE CENTER AT TYLER,11937 US HWY 271,TYLER,TX,75708,"http://maps.google.com/maps?q=11937 US HWY 271,+TYLER,+TX+75708&hl=en"
VERNON PARISH SHERIFF'S OFFICE,VERNON POLICE DEPARTMENT,1204 SOUTH 4TH STREET,LEESVILLE,LA,71446,"http://maps.google.com/maps?q=1204 SOUTH 4TH STREET,+LEESVILLE,+LA+71446&hl=en"
VICKSBURG POLICE DEPARTMENT,WALGREENS PHARMACY,3341 HALLS FERRY RD.,VICKSBURG,MS,39180,"http://maps.google.com/maps?q=3341 HALLS FERRY RD.,+VICKSBURG,+MS+39180&hl=en"
VIDALIA POLICE DEPARTMENT,VIDALIA POLICE DEPARTMENT PARKING LOT,202 VERNON STEVENS BLVD,VIDALIA,LA,71373,"http://maps.google.com/maps?q=202 VERNON STEVENS BLVD,+VIDALIA,+LA+71373&hl=en"
WALKER POLICE DEPARTMENT,WALKER POLICE DEPARTMENT,13179 BURGESS AVE,WALKER,LA,70785,"http://maps.google.com/maps?q=13179 BURGESS AVE,+WALKER,+LA+70785&hl=en"
WARREN COUNTY SHERIFF'S OFFICE,OUTLETS MALL OF VICKSBURG,4000 S. FRONTAGE RD.,VICKSBURG,MS,39180,"http://maps.google.com/maps?q=4000 S. FRONTAGE RD.,+VICKSBURG,+MS+39180&hl=en"
WASHINGTON COUNTY SHERIFF'S DEPARTMENT,WASHINGTON COUNTY SHERIFF'S OFFICE,903 WEST ALEXANDER STREET,GREENVILLE,MS,38701,"http://maps.google.com/maps?q=903 WEST ALEXANDER STREET,+GREENVILLE,+MS+38701&hl=en"
WEST FELICIANA DRUG AND ALCOHOL AWARENESS,HWY 10 SHOPPING CENTER,US HWY 61 AT HWY 10,SAINT FRANCISVILLE,LA,70775,"http://maps.google.com/maps?q=US HWY 61 AT HWY 10,+SAINT FRANCISVILLE,+LA+70775&hl=en"
WEST MONROE POLICE DEPARTMENT,WEST MONROE POLICE DEPARTMENT,2301 NORTH 7TH STREET,WEST MONROE,LA,71291,"http://maps.google.com/maps?q=2301 NORTH 7TH STREET,+WEST MONROE,+LA+71291&hl=en"
WESTLAKE POLICE DEPARTMENT,WESTLAKE POLICE DEPARTMENT,701 JOHNSON STREET,WESTLAKE,LA,70669,"http://maps.google.com/maps?q=701 JOHNSON STREET,+WESTLAKE,+LA+70669&hl=en"
YAZOO COUNTY SHERIFF'S DEPARTMENT,YAZOO DRUG COMPANY PLAZA SHOPPING CENTER,745 E. 15TH STREET,YAZOO CITY,MS,39194,"http://maps.google.com/maps?q=745 E. 15TH STREET,+YAZOO CITY,+MS+39194&hl=en"
