Participant,CollectionSite,Address,City,State,Zip,MapURL
AMERICAN FORK POLICE DEPARTMENT,AMERICAN FORK POLICE DEPARTMENT,75 E. 80 N.,AMERICAN FORK,UT,84003,"http://maps.google.com/maps?q=75 E. 80 N.,+AMERICAN FORK,+UT+84003&hl=en"
ASOTIN COUNTY SHERIFF'S OFFICE,ASOTIN COUNTY FIRE DEPARTMENT,2314 APPLESIDE BLVD,CLARKSTON,WA,99403,"http://maps.google.com/maps?q=2314 APPLESIDE BLVD,+CLARKSTON,+WA+99403&hl=en"
BAKER CITY POLICE DEPT,BAKER CITY POLICE DEPT,1768 AUBURN AVE,BAKER CITY,OR,97814,"http://maps.google.com/maps?q=1768 AUBURN AVE,+BAKER CITY,+OR+97814&hl=en"
BOISE POLICE DEPARTMENT - DRUG FREE IDAHO,ADA COUNTY SHERIFF'S OFFICE,7200 BARRISTER DRIVE,BOISE,ID,83704,"http://maps.google.com/maps?q=7200 BARRISTER DRIVE,+BOISE,+ID+83704&hl=en"
BOISE POLICE DEPARTMENT - DRUG FREE IDAHO,FRED MEYER GARDEN CITY OF BOISE,5425 W. CHINDEN BLVD,GARDEN CITY,ID,83714,"http://maps.google.com/maps?q=5425 W. CHINDEN BLVD,+GARDEN CITY,+ID+83714&hl=en"
BOUNTIFUL POLICE,SMITH'S MARKETPLACE,555 S 200 W,BOUNTIFUL,UT,84010,"http://maps.google.com/maps?q=555 S 200 W,+BOUNTIFUL,+UT+84010&hl=en"
CALDWELL POLICE DEPARTMENT,CALDWELL POLICE DEPT,110 S 5TH AVE,CALDWELL,ID,83605,"http://maps.google.com/maps?q=110 S 5TH AVE,+CALDWELL,+ID+83605&hl=en"
CASSIA COUNTY SHERIFF,SMITH'S FOOD KING PARKING LOT,937 E. MAIN,BURLEY,ID,83318,"http://maps.google.com/maps?q=937 E. MAIN,+BURLEY,+ID+83318&hl=en"
COLFAX POLICE DEPARTMENT,CITY HALL,400 N MILL STREET,COLFAX,WA,99111,"http://maps.google.com/maps?q=400 N MILL STREET,+COLFAX,+WA+99111&hl=en"
COLLEGE PLACE POLICE DEPARTMENT,"WALMART *COLLECTION ON SUN, OCTOBER 28 ONLY*",1700 SE MEADOWBROOK BLVD,COLLEGE PLACE,WA,99324,"http://maps.google.com/maps?q=1700 SE MEADOWBROOK BLVD,+COLLEGE PLACE,+WA+99324&hl=en"
CONNELL POLICE DEPARTMENT,CONNELL CITY HALL AVAILABLE M-F 9AM TO 5 PM,104 E ADAMS STREET,CONNELL,WA,99326,"http://maps.google.com/maps?q=104 E ADAMS STREET,+CONNELL,+WA+99326&hl=en"
DAVIS COUNTY SHERIFF'S OFFICE,SMITH'S,2353 N. MAIN ST.,SUNSET,UT,84015,"http://maps.google.com/maps?q=2353 N. MAIN ST.,+SUNSET,+UT+84015&hl=en"
DELTA POLICE DEPARTMENT,DELTA POLICE DEPARTMENT,215 W. 5TH ST.,DELTA,CO,81416,"http://maps.google.com/maps?q=215 W. 5TH ST.,+DELTA,+CO+81416&hl=en"
DRAPER CITY POLICE DEPARTMENT,SMITH'S,212 E. 12300 S.,DRAPER,UT,84020,"http://maps.google.com/maps?q=212 E. 12300 S.,+DRAPER,+UT+84020&hl=en"
DRUG ENFORCEMENT ADMINISTRATION,UTAH STATE CAPITOL,350 STATE ST.,SALT LAKE CITY,UT,84111,"http://maps.google.com/maps?q=350 STATE ST.,+SALT LAKE CITY,+UT+84111&hl=en"
DUCHESNE COUNTY SHERIFF'S OFFICE,AL'S FOOD TOWN,150 E. HWY. 40,DUCHESNE,UT,84021,"http://maps.google.com/maps?q=150 E. HWY. 40,+DUCHESNE,+UT+84021&hl=en"
EAST CARBON P.D.,EAST CARBON POLICE DEPT.,101 W. GENEVA DR.,EAST CARBON,UT,84520,"http://maps.google.com/maps?q=101 W. GENEVA DR.,+EAST CARBON,+UT+84520&hl=en"
ELMORE COUNTY SHERIFF'S OFFICE,ELMORE COUNTY SHERIFF'S OFFICE,250 AMERICAN LEGION BLVD,MOUNTAIN HOME,ID,83647,"http://maps.google.com/maps?q=250 AMERICAN LEGION BLVD,+MOUNTAIN HOME,+ID+83647&hl=en"
EMMETT POLICE DEPT,EMMETT POLICE DEPT (INSIDE POLICE LOBBY),501 E MAIN ST,EMMETT,ID,83617,"http://maps.google.com/maps?q=501 E MAIN ST,+EMMETT,+ID+83617&hl=en"
FARMINGTON POLICE DEPARTMENT,SMITH'S FOOD & DRUG,1316 NORTH U.S. HIGHWAY 89,FARMINGTON,UT,84025,"http://maps.google.com/maps?q=1316 NORTH U.S. HIGHWAY 89,+FARMINGTON,+UT+84025&hl=en"
FERRY COUNTY CORRECTIONS,FERRY COUNTY CORRECTIONS,165 N JEFFERSON STREET,REPUBLIC,WA,99166,"http://maps.google.com/maps?q=165 N JEFFERSON STREET,+REPUBLIC,+WA+99166&hl=en"
FORT HALL TRIBAL PD,SHOSHONE-BANNOCK JR/SR HIGH SCHOOL,17400 HILINE ROAD,POCATELLO,ID,83202,"http://maps.google.com/maps?q=17400 HILINE ROAD,+POCATELLO,+ID+83202&hl=en"
GARFIELD CO SHERRIFFS OFFICE,GARFIELD CO SHERRIFFS OFFICE,789 MAIN STREET,POMEROY,WA,99347,"http://maps.google.com/maps?q=789 MAIN STREET,+POMEROY,+WA+99347&hl=en"
GLENWOOD SPRINGS POLICE DEPARTMENT,GLENWOOD SPRINGS POLICE DEPARTMENT,101 WEST 8TH STREET,GLENWOOD SPRINGS,CO,81601,"http://maps.google.com/maps?q=101 WEST 8TH STREET,+GLENWOOD SPRINGS,+CO+81601&hl=en"
GRAND COUNTY SHERIFF'S OFFICE,GRAND COUNTY SHERIFF'S OFFICE,25 SOUTH 100 EAST,MOAB,UT,84532,"http://maps.google.com/maps?q=25 SOUTH 100 EAST,+MOAB,+UT+84532&hl=en"
GRANGEVILLE PD,CITY COUNCIL CHAMBERS,225 WEST NORTH STREET,GRANGEVILLE,ID,83530,"http://maps.google.com/maps?q=225 WEST NORTH STREET,+GRANGEVILLE,+ID+83530&hl=en"
GREEN RIVER POLICE DEPARTMENT,SMITH'S FOOD AND DRUG,905 BRIDGER DRIVE,GREEN RIVER,WY,82935,"http://maps.google.com/maps?q=905 BRIDGER DRIVE,+GREEN RIVER,+WY+82935&hl=en"
GUNNISON VALLEY POLICE DEPARTMENT,CENTERFIELD CITY HALL,130 S. MAIN ST.,CENTERFIELD,UT,84622,"http://maps.google.com/maps?q=130 S. MAIN ST.,+CENTERFIELD,+UT+84622&hl=en"
HILL AIR FORCE BASE,BASE EXCHANGE,7440 6TH STREET,HILL AFB,UT,84056,"http://maps.google.com/maps?q=7440 6TH STREET,+HILL AFB,+UT+84056&hl=en"
HILL AIR FORCE BASE,HILL AIR FORCE BASE COMMISSARY,7451 6TH STREET,HILL AFB,UT,84056,"http://maps.google.com/maps?q=7451 6TH STREET,+HILL AFB,+UT+84056&hl=en"
KAYSVILLE POLICE DEPARTMENT,SMITH'S,1370 W. 200 N.,KAYSVILLE,UT,84037,"http://maps.google.com/maps?q=1370 W. 200 N.,+KAYSVILLE,+UT+84037&hl=en"
KIMBERLY-HANSEN POLICE DEPARTMENT,KIMBERLY-HANSEN CITY HALL,242 HWY 30,KIMBERLY,ID,83341,"http://maps.google.com/maps?q=242 HWY 30,+KIMBERLY,+ID+83341&hl=en"
KOOTENAI COUNTY SHERIFF'S OFFICE,EASTSIDE FIRE DEPARTMENT,20338 S. HIGHWAY 97,HARRISON,ID,83833,"http://maps.google.com/maps?q=20338 S. HIGHWAY 97,+HARRISON,+ID+83833&hl=en"
KOOTENAI COUNTY SHERIFF'S OFFICE,KOOTENAI COUNTY FIRE RESCUE,404 N. IDAHO ST,POST FALLS,ID,83854,"http://maps.google.com/maps?q=404 N. IDAHO ST,+POST FALLS,+ID+83854&hl=en"
KOOTENAI COUNTY SHERIFF'S OFFICE,NORTHERN LAKES FIRE DEPARTMENT,125 W. HAYDEN AVE,HAYDEN,ID,83835,"http://maps.google.com/maps?q=125 W. HAYDEN AVE,+HAYDEN,+ID+83835&hl=en"
KOOTENAI COUNTY SHERIFF'S OFFICE,TIMBERLAKE FIRE DEPARTMENT,5985 E. HIGHWAY 54,ATHOL,ID,83801,"http://maps.google.com/maps?q=5985 E. HIGHWAY 54,+ATHOL,+ID+83801&hl=en"
KOOTENAI COUNTY SHERIFF'S OFFICE,WORLEY FIRE DEPARTMENT,29803 S. 3RD ST,WORLEY,ID,83876,"http://maps.google.com/maps?q=29803 S. 3RD ST,+WORLEY,+ID+83876&hl=en"
LA GRANDE PD,SAFEWAY PARKING LOT,2111 ADAMS AVE,LA GRANDE,OR,97850,"http://maps.google.com/maps?q=2111 ADAMS AVE,+LA GRANDE,+OR+97850&hl=en"
LATAH COUNTY SHERIFF'S OFFICE,CITY PARK,MAIN ST. & 6TH ST.,KENDRICK,ID,83537,"http://maps.google.com/maps?q=MAIN ST. & 6TH ST.,+KENDRICK,+ID+83537&hl=en"
LATAH COUNTY SHERIFF'S OFFICE,GENESEE FOOD CENTER PARKING LOT,216 WEST CHESTNUT ST,GENESEE,ID,83832,"http://maps.google.com/maps?q=216 WEST CHESTNUT ST,+GENESEE,+ID+83832&hl=en"
LATAH COUNTY SHERIFF'S OFFICE,HARVEST FOOD PARKING LOG,150 6TH ST.,POTLATCH,ID,83855,"http://maps.google.com/maps?q=150 6TH ST.,+POTLATCH,+ID+83855&hl=en"
LATAH COUNTY SHERIFF'S OFFICE,SUNSET MART,105 HIGHWAY 8,TROY,ID,83871,"http://maps.google.com/maps?q=105 HIGHWAY 8,+TROY,+ID+83871&hl=en"
LAYTON POLICE DEPARTMENT,SMITH'S FOOD & DRUG,1170 E. GENTILE ST.,LAYTON,UT,84040,"http://maps.google.com/maps?q=1170 E. GENTILE ST.,+LAYTON,+UT+84040&hl=en"
LEHI POLICE DEPARTMENT,MACEY'S SUPERMARKET,760 EAST MAIN,LEHI,UT,84043,"http://maps.google.com/maps?q=760 EAST MAIN,+LEHI,+UT+84043&hl=en"
LEWISTON POLICE DEPARTMENT,LEWISTON POLICE DEPT,1224 F ST,LEWISTON,ID,83501,"http://maps.google.com/maps?q=1224 F ST,+LEWISTON,+ID+83501&hl=en"
LINCOLN COUNTY SHERIFF'S OFFICE,LINCOLN COUNTY SHERIFF'S OFFICE,512 CALIFORNIA AVE,LIBBY,MT,59923,"http://maps.google.com/maps?q=512 CALIFORNIA AVE,+LIBBY,+MT+59923&hl=en"
LINDON POLICE DEPARTMENT,LINDON WALMART,585 NORTH STATE STREET,LINDON,UT,84042,"http://maps.google.com/maps?q=585 NORTH STATE STREET,+LINDON,+UT+84042&hl=en"
MALHEUR COUNTY SHERIFF'S OFFICE,MALHEUR COUNTY SHERIFF'S OFFICE,151 B ST. WEST,VALE,OR,97918,"http://maps.google.com/maps?q=151 B ST. WEST,+VALE,+OR+97918&hl=en"
MCCALL POLICE DEPT,POLICE DEPT,550 DEINHARD LANE,MCCALL,ID,83638,"http://maps.google.com/maps?q=550 DEINHARD LANE,+MCCALL,+ID+83638&hl=en"
MERIDIAN ANTI-DRUG COALITION WITH MERIDIAN PD,BLUE CROSS OF IDAHO,3000 E. PINE AVE,MERIDIAN,ID,83642,"http://maps.google.com/maps?q=3000 E. PINE AVE,+MERIDIAN,+ID+83642&hl=en"
MILTON-FREEWATER POLICE DEPARTMENT,MILTON-FREEWATER POLICE DEPARTMENT,722 S. MAIN ST.,MILTON FREEWATER,OR,97862,"http://maps.google.com/maps?q=722 S. MAIN ST.,+MILTON FREEWATER,+OR+97862&hl=en"
MINERAL COUNTY SHERIFF'S OFFICE,MINERAL COUNTY SHERIFF'S OFFICE,310 RIVER STREET,SUPERIOR,MT,59872,"http://maps.google.com/maps?q=310 RIVER STREET,+SUPERIOR,+MT+59872&hl=en"
MISSOULA POLICE DEPARTMENT,SOUTHGATE MALL,2901 BROOKS AVENUE,MISSOULA,MT,59801,"http://maps.google.com/maps?q=2901 BROOKS AVENUE,+MISSOULA,+MT+59801&hl=en"
MORGAN COUNTY SHERIFF'S OFFICE,RIDLEY'S FAMILY MARKET,275 N. 300 W.,MORGAN,UT,84050,"http://maps.google.com/maps?q=275 N. 300 W.,+MORGAN,+UT+84050&hl=en"
NAMPA POLICE DEPARTMENT,NAMPA CIVIC CENTER,311 3RD ST. S,NAMPA,ID,83651,"http://maps.google.com/maps?q=311 3RD ST. S,+NAMPA,+ID+83651&hl=en"
NEPHI CITY POLICE DEPARTMENT,NEPHI CITY POLICE DEPARTMENT,42 EAST 200 NORTH,NEPHI,UT,84648,"http://maps.google.com/maps?q=42 EAST 200 NORTH,+NEPHI,+UT+84648&hl=en"
NORTH OGDEN CITY POLICE,SMITH'S MARKET,2560 N. 400 E.,OGDEN,UT,84404,"http://maps.google.com/maps?q=2560 N. 400 E.,+OGDEN,+UT+84404&hl=en"
ODESSA POLICE DEPARTMENT,ODESSA POLICE DEPARTMENT PLEASE CALL 509-725-3501 AT STATION FOR HELP,105 E FIRST AVENUE,ODESSA,WA,99159,"http://maps.google.com/maps?q=105 E FIRST AVENUE,+ODESSA,+WA+99159&hl=en"
OGDEN POLICE DEPARTMENT,SMITH'S MARKET,1485 HARRISON BLVD,OGDEN,UT,84404,"http://maps.google.com/maps?q=1485 HARRISON BLVD,+OGDEN,+UT+84404&hl=en"
OGDEN POLICE DEPARTMENT,SMITH'S MARKETPLACE,4275 HARRISON BLVD,OGDEN,UT,84403,"http://maps.google.com/maps?q=4275 HARRISON BLVD,+OGDEN,+UT+84403&hl=en"
ONEIDA COUNTY SHERIFF'S OFFICE,ONEIDA COUNTY COURTHOUSE,10 COURT STREET,MALAD CITY,ID,83252,"http://maps.google.com/maps?q=10 COURT STREET,+MALAD CITY,+ID+83252&hl=en"
ONTARIO POLICE DEPARTMENT,ONTARIO CITY HALL FRONT ENTRANCE,444 SW 4TH ST,ONTARIO,OR,97914,"http://maps.google.com/maps?q=444 SW 4TH ST,+ONTARIO,+OR+97914&hl=en"
OTHELLO POLICE DEPARTMENT,OTHELLO POLICE DEPARTMENT,500 E MAIN STREET,OTHELLO,WA,99344,"http://maps.google.com/maps?q=500 E MAIN STREET,+OTHELLO,+WA+99344&hl=en"
PASCO POLICE DEPARTMENT,WALMART,4820 N ROAD 68,PASCO,WA,99301,"http://maps.google.com/maps?q=4820 N ROAD 68,+PASCO,+WA+99301&hl=en"
PAYSON POLICE DEPARTMENT,PAYSON MARKET,586 NORTH MAIN STREET,PAYSON,UT,84651,"http://maps.google.com/maps?q=586 NORTH MAIN STREET,+PAYSON,+UT+84651&hl=en"
PEND OREILLE COUNTY SHERIFF'S OFFICE,PEND OREILLE COUNTY SHERIFF,331 S GARDEN AVENUE,NEWPORT,WA,99156,"http://maps.google.com/maps?q=331 S GARDEN AVENUE,+NEWPORT,+WA+99156&hl=en"
PLEASANT GROVE POLICE DEPARTMENT,SMITH'S,210 E. 700 S.,PLEASANT GROVE,UT,84062,"http://maps.google.com/maps?q=210 E. 700 S.,+PLEASANT GROVE,+UT+84062&hl=en"
POCATELLO POLICE DEPARTMENT,POCATELLO POLICE DEPARTMENT CITY HALL PARKING LOT,911 N. 7TH AVE,POCATELLO,ID,83201,"http://maps.google.com/maps?q=911 N. 7TH AVE,+POCATELLO,+ID+83201&hl=en"
POST FALLS POLICE DEPARTMENT,POST FALLS POLICE DEPARTMENT,1717 E POLSTON AVE.,POST FALLS,ID,83854,"http://maps.google.com/maps?q=1717 E POLSTON AVE.,+POST FALLS,+ID+83854&hl=en"
PRESTON POLICE DEPARTMENT,PRESTON POLICE DEPARTMENT,70 W. ONEIDA,PRESTON,ID,83263,"http://maps.google.com/maps?q=70 W. ONEIDA,+PRESTON,+ID+83263&hl=en"
PROVO POLICE DEPARTMENT,SMITH'S FOOD AND DRUG,48 S. 300 W.,PROVO,UT,84601,"http://maps.google.com/maps?q=48 S. 300 W.,+PROVO,+UT+84601&hl=en"
PULLMAN POLICE DEPARTMENT,PULLMAN POLICE DEPARTMENT LOBBY,260 SE KAMIAKEN STREET,PULLMAN,WA,99163,"http://maps.google.com/maps?q=260 SE KAMIAKEN STREET,+PULLMAN,+WA+99163&hl=en"
ROCK SPRINGS POLICE DEPARTMENT,SMITH'S FOOD AND DRUG,2518 FOOTHILL BLVD,ROCK SPRINGS,WY,82901,"http://maps.google.com/maps?q=2518 FOOTHILL BLVD,+ROCK SPRINGS,+WY+82901&hl=en"
RONAN POLICE DEPARTMENT,RONAN POLICE DEPARTMENT,109 2ND AVE SW,RONAN,MT,59864,"http://maps.google.com/maps?q=109 2ND AVE SW,+RONAN,+MT+59864&hl=en"
ROOSEVELT CITY POLICE,STEWART'S MARKET PARKING LOT,300 W. HWY 40,ROOSEVELT,UT,84066,"http://maps.google.com/maps?q=300 W. HWY 40,+ROOSEVELT,+UT+84066&hl=en"
ROY CITY POLICE,KENT'S MARKET,3535 W. 5600 S.,ROY,UT,84067,"http://maps.google.com/maps?q=3535 W. 5600 S.,+ROY,+UT+84067&hl=en"
SALEM POLICE DEPARTMENT,SALEM POLICE DEPARTMENT,30 W. 100 S.,SALEM,UT,84653,"http://maps.google.com/maps?q=30 W. 100 S.,+SALEM,+UT+84653&hl=en"
SANDPOINT POLICE DEPARTMENT,SANDPOINT POLICE DEPARTMENT,1123 LAKE STREET SANDPOINT,SANDPOINT,ID,83864,"http://maps.google.com/maps?q=1123 LAKE STREET SANDPOINT,+SANDPOINT,+ID+83864&hl=en"
SANDY CITY POLICE DEPARTMENT,SANDY POLICE DEPARTMENT,10000 SOUTH CENTENNIAL PARKWAY,SANDY,UT,84070,"http://maps.google.com/maps?q=10000 SOUTH CENTENNIAL PARKWAY,+SANDY,+UT+84070&hl=en"
SANTAQUIN CITY POLICE DEPT.,SANTAQUIN CITY POLICE DEPT,275 W. MAIN,SANTAQUIN,UT,84655,"http://maps.google.com/maps?q=275 W. MAIN,+SANTAQUIN,+UT+84655&hl=en"
SARATOGA SPRINGS POLICE DEPARTMENT,SMITH'S MARKETPLACE,689 N. REDWOOD ROAD,SARATOGA SPRINGS,UT,84045,"http://maps.google.com/maps?q=689 N. REDWOOD ROAD,+SARATOGA SPRINGS,+UT+84045&hl=en"
SOUTH JORDAN POLICE DEPARTMENT,SOUTH JORDAN POLICE DEPT/ CITY HALL,1600 WEST TOWNE CENTER DRIVE (10610 S),SOUTH JORDAN,UT,84095,"http://maps.google.com/maps?q=1600 WEST TOWNE CENTER DRIVE (10610 S),+SOUTH JORDAN,+UT+84095&hl=en"
SOUTH OGDEN CITY POLICE,MACEY'S GROCERY,325 36TH STREET,OGDEN,UT,84403,"http://maps.google.com/maps?q=325 36TH STREET,+OGDEN,+UT+84403&hl=en"
SOUTH SALT LAKE POLICE DEPARTMENT,RITE AID,3250 S. 700 E.,SALT LAKE CITY,UT,84115,"http://maps.google.com/maps?q=3250 S. 700 E.,+SALT LAKE CITY,+UT+84115&hl=en"
SPANISH FORK POLICE DEPARTMENT,SPANISH FORK POLICE DEPARTMENT,789 W. CENTER ST.,SPANISH FORK,UT,84660,"http://maps.google.com/maps?q=789 W. CENTER ST.,+SPANISH FORK,+UT+84660&hl=en"
SPOKANE POLICE DEPARTMENT,WEST CENTRAL COMMUNITY CENTER,1603 NORTH BELT STREET,SPOKANE,WA,99205,"http://maps.google.com/maps?q=1603 NORTH BELT STREET,+SPOKANE,+WA+99205&hl=en"
SPOKANE VALLEY POLICE PRECINCT,CHAS HEALTH,15812 E INDIANA AVENUE,SPOKANE,WA,99216,"http://maps.google.com/maps?q=15812 E INDIANA AVENUE,+SPOKANE,+WA+99216&hl=en"
SPRINGVILLE POLICE DEPARTMENT,SPRINGVILLE CITY LIBRARY,45 SOUTH MAIN,SPRINGVILLE,UT,84663,"http://maps.google.com/maps?q=45 SOUTH MAIN,+SPRINGVILLE,+UT+84663&hl=en"
SYRACUSE POLICE DEPARTMENT,SMITH'S FOOD AND DRUG,951 WEST 1700 SOUTH,SYRACUSE,UT,84075,"http://maps.google.com/maps?q=951 WEST 1700 SOUTH,+SYRACUSE,+UT+84075&hl=en"
TOOELE CITY POLICE DEPARTMENT,WALMART,99 W. 1280 N.,TOOELE,UT,84074,"http://maps.google.com/maps?q=99 W. 1280 N.,+TOOELE,+UT+84074&hl=en"
U.S. ARMY GARRISON DUGWAY POLICE DEPT,DUGWAY PROVING GROUND FIRE STATION,BLDG 5212DOOLOTTLE AVE,DUGWAY,UT,84022,"http://maps.google.com/maps?q=BLDG 5212,+DUGWAY,+UT+84022&hl=en"
UINTA COUNTY SHERIFF'S OFFICE,BENEDICT'S,950 NORTH HWY 414,MOUNTAIN VIEW,WY,82939,"http://maps.google.com/maps?q=950 NORTH HWY 414,+MOUNTAIN VIEW,+WY+82939&hl=en"
UINTA COUNTY SHERIFF'S OFFICE,SMITH'S,70 YELLOW CREEK RD,EVANSTON,WY,82930,"http://maps.google.com/maps?q=70 YELLOW CREEK RD,+EVANSTON,+WY+82930&hl=en"
UINTA COUNTY SHERIFF'S OFFICE,UINTA COUNTY SHERIFFS OFFICE,77 CR 109,EVANSTON,WY,82930,"http://maps.google.com/maps?q=77 CR 109,+EVANSTON,+WY+82930&hl=en"
UINTAH COUNTY SHERIFF'S DEPARTMENT,WALMART PARKING LOT,1851 W. US-40,VERNAL,UT,84078,"http://maps.google.com/maps?q=1851 W. US-40,+VERNAL,+UT+84078&hl=en"
UNIFIED POLICE DEPARTMENT - TAYLORSVILLE,TAYLORSVILLE CITY HALL,2600 W TAYLORSVILLE BVD.,TAYLORSVILLE,UT,84129,"http://maps.google.com/maps?q=2600 W TAYLORSVILLE BVD.,+TAYLORSVILLE,+UT+84129&hl=en"
UNIFIED POLICE DEPARTMENT-RIVERTON,UNIFIED POLICE DEPARTMENT-RIVERTON,12810 S. REDWOOD RD.,RIVERTON,UT,84065,"http://maps.google.com/maps?q=12810 S. REDWOOD RD.,+RIVERTON,+UT+84065&hl=en"
UNIFIED POLICE DEPT. MIDVALE PRECINCT,HILLCREST HIGH SCHOOL PARKING LOT,7350 S. 900 E.,MIDVALE,UT,84047,"http://maps.google.com/maps?q=7350 S. 900 E.,+MIDVALE,+UT+84047&hl=en"
UNIFIED POLICE-MILLCREEK,MILLCREEK COMMUNITY CENTER,2266 E. EVERGREEN AVE.,SALT LAKE CITY,UT,84124,"http://maps.google.com/maps?q=2266 E. EVERGREEN AVE.,+SALT LAKE CITY,+UT+84124&hl=en"
UNIVERSITY OF UTAH POLICE,UNIVERSITY OF UTAH POLICE DEPARTMENT,1735 E. SOUTH CAMPUS DR.,SALT LAKE CITY,UT,84112,"http://maps.google.com/maps?q=1735 E. SOUTH CAMPUS DR.,+SALT LAKE CITY,+UT+84112&hl=en"
WALLA WALLA COUNTY SHERIFF,WAITSBURG FIRE STATION,234 MAIN ST,WAITSBURG,WA,99361,"http://maps.google.com/maps?q=234 MAIN ST,+WAITSBURG,+WA+99361&hl=en"
WALLA WALLA POLICE DEPARTMENT,WALLA WALLA POLICE DEPARTMENT,54 EAST MOORE STREET,WALLA WALLA,WA,99362,"http://maps.google.com/maps?q=54 EAST MOORE STREET,+WALLA WALLA,+WA+99362&hl=en"
WALLOWA COUNTY SHERIFF'S OFFICE,WALLOWA COUNTY JUSTICE CENTER,104 W. GREENWOOD ST,ENTERPRISE,OR,97828,"http://maps.google.com/maps?q=104 W. GREENWOOD ST,+ENTERPRISE,+OR+97828&hl=en"
WEISER POLICE DEPT,WEISER MEMORIAL HOSPITAL,645 E 5TH ST,WEISER,ID,83672,"http://maps.google.com/maps?q=645 E 5TH ST,+WEISER,+ID+83672&hl=en"
WEST JORDAN POLICE DEPARTMENT,SMITH'S,5710 W. 7800 S.,WEST JORDAN,UT,84081,"http://maps.google.com/maps?q=5710 W. 7800 S.,+WEST JORDAN,+UT+84081&hl=en"
WEST VALLEY POLICE DEPARTMENT,CVS PHARMACY,3148 W. 3500 S.,WEST VALLEY CITY,UT,84119,"http://maps.google.com/maps?q=3148 W. 3500 S.,+WEST VALLEY CITY,+UT+84119&hl=en"
WHITEFISH POLICE DEPARTMENT,WHITEFISH POLICE DEPARTMENT,275 FLATHEAD AVE,WHITEFISH,MT,59937,"http://maps.google.com/maps?q=275 FLATHEAD AVE,+WHITEFISH,+MT+59937&hl=en"
WOODS CROSS POLICE DEPARTMENT,WOODS CROSS POLICE DEPARTMENT,1555 SOUTH 800 WEST,WOODS CROSS,UT,84087,"http://maps.google.com/maps?q=1555 SOUTH 800 WEST,+WOODS CROSS,+UT+84087&hl=en"
