Participant,CollectionSite,Address,City,State,Zip,MapURL
ABERDEEN POLICE DEPARTMENT,ABERDEEN POLICE DEPARTMENT,210 E MARKET STREET,ABERDEEN,WA,98520,"http://maps.google.com/maps?q=210 E MARKET STREET,+ABERDEEN,+WA+98520&hl=en"
ANACORTES POLICE DEPARTMENT,ANACORTES POLICE STATION,1218 24TH ST.,ANACORTES,WA,98221,"http://maps.google.com/maps?q=1218 24TH ST.,+ANACORTES,+WA+98221&hl=en"
ARLINGTON POLICE DEPARTMENT,ARLINGTON POLICE DEPARTMENT,110 E 3RD STREET,ARLINGTON,WA,98223,"http://maps.google.com/maps?q=110 E 3RD STREET,+ARLINGTON,+WA+98223&hl=en"
ASOTIN COUNTY SHERIFF'S OFFICE,ASOTIN COUNTY FIRE DEPARTMENT,2314 APPLESIDE BLVD,CLARKSTON,WA,99403,"http://maps.google.com/maps?q=2314 APPLESIDE BLVD,+CLARKSTON,+WA+99403&hl=en"
BAINBRIDGE ISLAND POLICE DEPARTMENT,BAINBRIDGE ISLAND POLICE DEPARTMENT LOBBY,625 WINSLOW WAY EAST,BAINBRIDGE ISLAND,WA,98110,"http://maps.google.com/maps?q=625 WINSLOW WAY EAST,+BAINBRIDGE ISLAND,+WA+98110&hl=en"
BATTLE GROUND POLICE DEPARTMENT,BATTLE GROUND POLICE DEPARTMENT,507 SW 1ST STREET,BATTLE GROUND,WA,98604,"http://maps.google.com/maps?q=507 SW 1ST STREET,+BATTLE GROUND,+WA+98604&hl=en"
BEAVERTON POLICE DEPARTMENT,BEAVERTON POLICE DEPARTMENT,4755 SW GRIFFITH DR,BEAVERTON,OR,97005,"http://maps.google.com/maps?q=4755 SW GRIFFITH DR,+BEAVERTON,+OR+97005&hl=en"
BELLEVUE POLICE DEPARTMENT,BELLEVUE CITY HALL,450 110TH AVENUE NE,BELLEVUE,WA,98004,"http://maps.google.com/maps?q=450 110TH AVENUE NE,+BELLEVUE,+WA+98004&hl=en"
BELLEVUE POLICE DEPARTMENT,CROSSROADS POLICE SUBSTATION,15600 NE 8TH STREET,BELLEVUE,WA,98008,"http://maps.google.com/maps?q=15600 NE 8TH STREET,+BELLEVUE,+WA+98008&hl=en"
BELLEVUE POLICE DEPARTMENT,FACTORIA MALL SUBSTATION,3915 FACTORIA BLVD SE,BELLEVUE,WA,98006,"http://maps.google.com/maps?q=3915 FACTORIA BLVD SE,+BELLEVUE,+WA+98006&hl=en"
BELLINGHAM POLICE DEPARTMENT,BELLINGHAM POLICE DEPARTMENT,505 GRAND AVE,BELLINGHAM,WA,98225,"http://maps.google.com/maps?q=505 GRAND AVE,+BELLINGHAM,+WA+98225&hl=en"
BINGEN-WHITE SALMON POLICE DEPARTMENT,KLICKITAT COUNTY COURTHOUSE,205 S COLUMBUS AVE,GOLDENDALE,WA,98620,"http://maps.google.com/maps?q=205 S COLUMBUS AVE,+GOLDENDALE,+WA+98620&hl=en"
BINGEN-WHITE SALMON POLICE DEPARTMENT,SKYLINE HOSPITAL,211 NE SKYLINE DRIVE,WHITE SALMON,WA,98672,"http://maps.google.com/maps?q=211 NE SKYLINE DRIVE,+WHITE SALMON,+WA+98672&hl=en"
BONNEY LAKE POLICE DEPARTMENT,BONNEY LAKE POLICE DEPARTMENT,18421 VETERANS MEMORIAL DRIVE E,BONNEY LAKE,WA,98391,"http://maps.google.com/maps?q=18421 VETERANS MEMORIAL DRIVE E,+BONNEY LAKE,+WA+98391&hl=en"
BURLINGTON POLICE DEPARTMENT,BURLINGTON POLICE DEPARTMENT,311 CEDAR STREETSUITE B,BURLINGTON,WA,98233,"http://maps.google.com/maps?q=311 CEDAR STREET,+BURLINGTON,+WA+98233&hl=en"
CANBY POLICE DEPARTMENT,CANBY POLICE DEPT,1175 NW 3RD AVE,CANBY,OR,97013,"http://maps.google.com/maps?q=1175 NW 3RD AVE,+CANBY,+OR+97013&hl=en"
CLALLAM COUNTY SHERIFF'S OFFICE,CLALLAM COUNTY COURTHOUSE,223 E. 4TH STREET,PORT ANGELES,WA,98362,"http://maps.google.com/maps?q=223 E. 4TH STREET,+PORT ANGELES,+WA+98362&hl=en"
COLFAX POLICE DEPARTMENT,CITY HALL,400 N MILL STREET,COLFAX,WA,99111,"http://maps.google.com/maps?q=400 N MILL STREET,+COLFAX,+WA+99111&hl=en"
COLLEGE PLACE POLICE DEPARTMENT,"WALMART *COLLECTION ON SUN, OCTOBER 28 ONLY*",1700 SE MEADOWBROOK BLVD,COLLEGE PLACE,WA,99324,"http://maps.google.com/maps?q=1700 SE MEADOWBROOK BLVD,+COLLEGE PLACE,+WA+99324&hl=en"
CONNELL POLICE DEPARTMENT,CONNELL CITY HALL AVAILABLE M-F 9AM TO 5 PM,104 E ADAMS STREET,CONNELL,WA,99326,"http://maps.google.com/maps?q=104 E ADAMS STREET,+CONNELL,+WA+99326&hl=en"
CORVALLIS PD,REPUBLIC SERVICES,110 NE WALNUT BLVD,CORVALLIS,OR,97330,"http://maps.google.com/maps?q=110 NE WALNUT BLVD,+CORVALLIS,+OR+97330&hl=en"
COSMOPOLIS POLICE DEPARTMENT,COSMOPOLIS POLICE DEPARTMENT,1312 FIRST STREET,COSMOPOLIS,WA,98537,"http://maps.google.com/maps?q=1312 FIRST STREET,+COSMOPOLIS,+WA+98537&hl=en"
COWLITZ TRIBAL POLICE DEPARTMENT OF PUBLIC SAFETY,COWLITZ TRIBAL POLICE DEPARTMENT OF PUBLIC SAFETY,31501 NW 31ST AVENUE,RIDGEFIELD,WA,98642,"http://maps.google.com/maps?q=31501 NW 31ST AVENUE,+RIDGEFIELD,+WA+98642&hl=en"
ELMA POLICE DEPARTMENT,ELMA POLICE DEPARTMENT,124 NORTH 3RD STREET,ELMA,WA,98541,"http://maps.google.com/maps?q=124 NORTH 3RD STREET,+ELMA,+WA+98541&hl=en"
EVERETT POLICE DEPARTMENT,EVERETT POLICE DEPARTMENT 9AM TO 4 PM,3002 WETMORE,EVERETT,WA,98201,"http://maps.google.com/maps?q=3002 WETMORE,+EVERETT,+WA+98201&hl=en"
FEDERAL WAY POLICE DEPARTMENT,VIRGINIA MASON FEDERAL WAY MEDICAL CENTER MAIN PARKING LOT IN FRONT OF BUILDING ENTRANCE,33501 1ST AVENUE S,FEDERAL WAY,WA,98003,"http://maps.google.com/maps?q=33501 1ST AVENUE S,+FEDERAL WAY,+WA+98003&hl=en"
FERNDALE POLICE DEPARTMENT,FERNDALE PD POLICE DEPARTMENT,2220 MAIN ST,FERNDALE,WA,98248,"http://maps.google.com/maps?q=2220 MAIN ST,+FERNDALE,+WA+98248&hl=en"
FERRY COUNTY CORRECTIONS,FERRY COUNTY CORRECTIONS,165 N JEFFERSON STREET,REPUBLIC,WA,99166,"http://maps.google.com/maps?q=165 N JEFFERSON STREET,+REPUBLIC,+WA+99166&hl=en"
FOREST GROVE POLICE DEPARTMENT,FOREST GROVE POLICE DEPARTMENT,2102 PACIFIC AVE,FOREST GROVE,OR,97116,"http://maps.google.com/maps?q=2102 PACIFIC AVE,+FOREST GROVE,+OR+97116&hl=en"
GARFIELD CO SHERRIFFS OFFICE,GARFIELD CO SHERRIFFS OFFICE,789 MAIN STREET,POMEROY,WA,99347,"http://maps.google.com/maps?q=789 MAIN STREET,+POMEROY,+WA+99347&hl=en"
GRANDE RONDE TRIBAL POLICE DEPARTMENT,GRAND RONDE TRIBAL POLICE DEPARTMENT,9655 GRAND RONDE ROAD,GRAND RONDE,OR,97347,"http://maps.google.com/maps?q=9655 GRAND RONDE ROAD,+GRAND RONDE,+OR+97347&hl=en"
HILLSBORO POLICE DEPARTMENT,HILLSBORO POLICE DEPARTMENT,250 SE 10TH AVE,HILLSBORO,OR,97123,"http://maps.google.com/maps?q=250 SE 10TH AVE,+HILLSBORO,+OR+97123&hl=en"
HOQUIAM POLICE DEPARTMENT,HOQUIAM POLICE DEPARTMENT,215 10TH STREET,HOQUIAM,WA,98550,"http://maps.google.com/maps?q=215 10TH STREET,+HOQUIAM,+WA+98550&hl=en"
HUBBARD POLICE DEPARTMENT,HUBBARD POLICE DEPARTMENT,3720 2ND ST,HUBBARD,OR,97032,"http://maps.google.com/maps?q=3720 2ND ST,+HUBBARD,+OR+97032&hl=en"
ISLAND COUNTY SHERIFF'S OFFICE,COUPEVILLE MARSHALS OFFICE,4 NE SEVENTH STREET,COUPEVILLE,WA,98239,"http://maps.google.com/maps?q=4 NE SEVENTH STREET,+COUPEVILLE,+WA+98239&hl=en"
ISLAND COUNTY SHERIFF'S OFFICE,ISLAND COUNTY SHERIFF'S OFFICE SOUTH PRECINCT,5521 EAST HARBOR ROAD,FREELAND,WA,98249,"http://maps.google.com/maps?q=5521 EAST HARBOR ROAD,+FREELAND,+WA+98249&hl=en"
ISSAQUAH POLICE DEPARTMENT,ISSAQUAH POLICE DEPARTMENT,130 EAST SUNSET WAY,ISSAQUAH,WA,98027,"http://maps.google.com/maps?q=130 EAST SUNSET WAY,+ISSAQUAH,+WA+98027&hl=en"
JEFFERSON COUNTY SHERIFF'S DEPARTMENT,QFC PORT HADLOCK,1890 IRONSIDE ROAD,PORT HADLOCK,WA,98339,"http://maps.google.com/maps?q=1890 IRONSIDE ROAD,+PORT HADLOCK,+WA+98339&hl=en"
JUNCTION CITY POLICE DEPARTMENT,JUNCTION CITY POLICE DEPARTMENT,672 GREENWOOD ST,JUNCTION CITY,OR,97448,"http://maps.google.com/maps?q=672 GREENWOOD ST,+JUNCTION CITY,+OR+97448&hl=en"
KALAMA POLICE DEPARTMENT,COWLITZ COUNTY FIRE DISTRICT 5,382 NE FRONTAGE ROAD,KALAMA,WA,98625,"http://maps.google.com/maps?q=382 NE FRONTAGE ROAD,+KALAMA,+WA+98625&hl=en"
KEIZER POLICE DEPT,SCHOOLHOUSE SQUARE,5013 RIVER RD N,SALEM,OR,97303,"http://maps.google.com/maps?q=5013 RIVER RD N,+SALEM,+OR+97303&hl=en"
KELSO POLICE DEPARTMENT,KELSO POLICE DEPARTMENT,201 PACIFIC AVENUE S,KELSO,WA,98626,"http://maps.google.com/maps?q=201 PACIFIC AVENUE S,+KELSO,+WA+98626&hl=en"
KENNEWICK POLICE DEPARTMENT,KENNEWICK POLICE DEPARTMENT,211 WEST 6TH AVENUE,KENNEWICK,WA,99336,"http://maps.google.com/maps?q=211 WEST 6TH AVENUE,+KENNEWICK,+WA+99336&hl=en"
KENT POLICE DEPARTMENT,KENT POLICE DEPARTMENT,232 4TH AVENUE SOUTH,KENT,WA,98032,"http://maps.google.com/maps?q=232 4TH AVENUE SOUTH,+KENT,+WA+98032&hl=en"
KING CITY POLICE DEPARTMENT,KING CITY POLICE DEPT,15300 SW 116TH AVE,KING CITY,OR,97224,"http://maps.google.com/maps?q=15300 SW 116TH AVE,+KING CITY,+OR+97224&hl=en"
KING COUNTY SHERIFF'S OFFICE FOUNDATION,COX PARK-WHITE CENTER,321 SW 102ND STREET,SEATTLE,WA,98146,"http://maps.google.com/maps?q=321 SW 102ND STREET,+SEATTLE,+WA+98146&hl=en"
KITSAP COUNTY SHERIFF'S OFFICE,KITSAP COUNTY SHERIFF'S OFFICE,3951 NW RANDALL WAY,SILVERDALE,WA,98383,"http://maps.google.com/maps?q=3951 NW RANDALL WAY,+SILVERDALE,+WA+98383&hl=en"
KOOTENAI COUNTY SHERIFF'S OFFICE,KOOTENAI COUNTY FIRE RESCUE,404 N. IDAHO ST,POST FALLS,ID,83854,"http://maps.google.com/maps?q=404 N. IDAHO ST,+POST FALLS,+ID+83854&hl=en"
KOOTENAI COUNTY SHERIFF'S OFFICE,WORLEY FIRE DEPARTMENT,29803 S. 3RD ST,WORLEY,ID,83876,"http://maps.google.com/maps?q=29803 S. 3RD ST,+WORLEY,+ID+83876&hl=en"
LA GRANDE PD,SAFEWAY PARKING LOT,2111 ADAMS AVE,LA GRANDE,OR,97850,"http://maps.google.com/maps?q=2111 ADAMS AVE,+LA GRANDE,+OR+97850&hl=en"
LACEY POLICE DEPARTMENT,QFC,4775 WHITMAN LANE SE,LACEY,WA,98513,"http://maps.google.com/maps?q=4775 WHITMAN LANE SE,+LACEY,+WA+98513&hl=en"
LAKE OSWEGO POLICE DEPARTMENT,LAKE OSWEGO ADULT COMMUNITY CENTER,505 G AVE,LAKE OSWEGO,OR,97034,"http://maps.google.com/maps?q=505 G AVE,+LAKE OSWEGO,+OR+97034&hl=en"
LEBANON POLICE DEPARTMENT,LEBANON JUSTICE CENTER,40 N. 2ND ST,LEBANON,OR,97355,"http://maps.google.com/maps?q=40 N. 2ND ST,+LEBANON,+OR+97355&hl=en"
LINCOLN CITY PD,LINCOLN CITY POLICE DEPARTMENT,1503 SE EAST DEVILS LAKE ROAD,LINCOLN CITY,OR,97367,"http://maps.google.com/maps?q=1503 SE EAST DEVILS LAKE ROAD,+LINCOLN CITY,+OR+97367&hl=en"
LINN COUNTY SHERIFF'S OFFICE,BROWNSVILL CITY HALL 12:30 - 1:30,255 N MAIN ST,BROWNSVILLE,OR,97327,"http://maps.google.com/maps?q=255 N MAIN ST,+BROWNSVILLE,+OR+97327&hl=en"
LINN COUNTY SHERIFF'S OFFICE,HARRISBURG CITY HALL 2PM - 3PM,120 SMITH ST,HARRISBURG,OR,97446,"http://maps.google.com/maps?q=120 SMITH ST,+HARRISBURG,+OR+97446&hl=en"
LINN COUNTY SHERIFF'S OFFICE,MILL CITY CITY HALL 9AM - 10AM,444 S 1ST AVE,MILL CITY,OR,97360,"http://maps.google.com/maps?q=444 S 1ST AVE,+MILL CITY,+OR+97360&hl=en"
LINN COUNTY SHERIFF'S OFFICE,SCIO FIRE HALL 10:30AM - 11:30AM,38975 SW 6TH AVE,SCIO,OR,97374,"http://maps.google.com/maps?q=38975 SW 6TH AVE,+SCIO,+OR+97374&hl=en"
LONG BEACH POLICE DEPARTMENT,OCEAN BEACH HOSPITAL,174 FIRST AVENUE NORTH,ILWACO,WA,98624,"http://maps.google.com/maps?q=174 FIRST AVENUE NORTH,+ILWACO,+WA+98624&hl=en"
LONGVIEW POLICE DEPARTMENT,LONGVIEW POLICE DEPARTMENT,1351 HUDSON STREET,LONGVIEW,WA,98632,"http://maps.google.com/maps?q=1351 HUDSON STREET,+LONGVIEW,+WA+98632&hl=en"
LUMMI NATION POLICE DEPARTMENT,LUMMI NATION POLICE DEPARTMENT,2665 KWINA ROAD,BELLINGHAM,WA,98226,"http://maps.google.com/maps?q=2665 KWINA ROAD,+BELLINGHAM,+WA+98226&hl=en"
LYNDEN POLICE DEPARTMENT,LYNDEN POLICE DEPARTMENT,203 19TH STREET,LYNDEN,WA,98264,"http://maps.google.com/maps?q=203 19TH STREET,+LYNDEN,+WA+98264&hl=en"
MARION COUNTY SHERIFF'S OFFICE,ROTH'S MARKET - PARKING LOT,702 LANCASTER DRIVE NE,SALEM,OR,97301,"http://maps.google.com/maps?q=702 LANCASTER DRIVE NE,+SALEM,+OR+97301&hl=en"
MASON COUNTY SHERIFF'S OFFICE,BELFAIR QFC,201 NE STATE ROUTE 300,BELFAIR,WA,98528,"http://maps.google.com/maps?q=201 NE STATE ROUTE 300,+BELFAIR,+WA+98528&hl=en"
MATTAWA POLICE DEPARTMENT,MATTAWA POLICE DEPARTMENT,521 GOVERNMENT ROAD,MATTAWA,WA,99349,"http://maps.google.com/maps?q=521 GOVERNMENT ROAD,+MATTAWA,+WA+99349&hl=en"
MEDINA POLICE DEPARTMENT,"MEDINA PARK **COLLECTION ON SATURDAY, OCTOBER 20**",NE 12TH ST AND 82ND AVENUE NE,MEDINA,WA,98039,"http://maps.google.com/maps?q=NE 12TH ST AND 82ND AVENUE NE,+MEDINA,+WA+98039&hl=en"
MERCER ISLAND POLICE DEPARTMENT,MERCER ISLAND CITY HALL WEST ENTRANCE - LOADING DOCK,9611 SE 36TH STREET,MERCER ISLAND,WA,98040,"http://maps.google.com/maps?q=9611 SE 36TH STREET,+MERCER ISLAND,+WA+98040&hl=en"
MILTON-FREEWATER POLICE DEPARTMENT,MILTON-FREEWATER POLICE DEPARTMENT,722 S. MAIN ST.,MILTON FREEWATER,OR,97862,"http://maps.google.com/maps?q=722 S. MAIN ST.,+MILTON FREEWATER,+OR+97862&hl=en"
MORTON POLICE DEPARTMENT,MORTON POLICE DEPARTMENT,260 MAIN AVE,MORTON,WA,98356,"http://maps.google.com/maps?q=260 MAIN AVE,+MORTON,+WA+98356&hl=en"
MOUNT VERNON POLICE DEPARTMENT,MOUNT VERNON POLICE DEPARTMENT,1805 CONTINENTAL PLACE,MOUNT VERNON,WA,98273,"http://maps.google.com/maps?q=1805 CONTINENTAL PLACE,+MOUNT VERNON,+WA+98273&hl=en"
MT ANGEL POLICE,THE TOWERS,L TOWERS LN.,MOUNT ANGEL,OR,97362,"http://maps.google.com/maps?q=L TOWERS LN.,+MOUNT ANGEL,+OR+97362&hl=en"
MULTNOMAH COUNTY SHERIFF,FAIRVIEW CITY HALL,1300 NE VILLAGE ST,FAIRVIEW,OR,97024,"http://maps.google.com/maps?q=1300 NE VILLAGE ST,+FAIRVIEW,+OR+97024&hl=en"
MULTNOMAH COUNTY SHERIFF,MULTNOMAH COUNTY SHERIFF'S OFFICE,234 SW KENDALL CT,TROUTDALE,OR,97060,"http://maps.google.com/maps?q=234 SW KENDALL CT,+TROUTDALE,+OR+97060&hl=en"
NORTH BEND POLICE DEPARTMENT,NORTH BEND CITY HALL,211 MAIN AVE N,NORTH BEND,WA,98045,"http://maps.google.com/maps?q=211 MAIN AVE N,+NORTH BEND,+WA+98045&hl=en"
NORTH PLAINS POLICE DEPARTMENT,CITY OF NORTH PLAINS - POLICE DEPARTMENT,31360 NW COMMERCIAL STREET,NORTH PLAINS,OR,97133,"http://maps.google.com/maps?q=31360 NW COMMERCIAL STREET,+NORTH PLAINS,+OR+97133&hl=en"
OAK HARBOR POLICE DEPARTMENT,OAK HARBOR POLICE DEPARTMENT NIGHT LOBBY,860 SE BARRINGTON DR.,OAK HARBOR,WA,98277,"http://maps.google.com/maps?q=860 SE BARRINGTON DR.,+OAK HARBOR,+WA+98277&hl=en"
OCEAN SHORE POLICE DEPARTMENT,OCEAN SHORES POLICE DEPARTMENT,677 POINT BROWN AVENUE NW,OCEAN SHORES,WA,98569,"http://maps.google.com/maps?q=677 POINT BROWN AVENUE NW,+OCEAN SHORES,+WA+98569&hl=en"
ODESSA POLICE DEPARTMENT,ODESSA POLICE DEPARTMENT PLEASE CALL 509-725-3501 AT STATION FOR HELP,105 E FIRST AVENUE,ODESSA,WA,99159,"http://maps.google.com/maps?q=105 E FIRST AVENUE,+ODESSA,+WA+99159&hl=en"
OHSU POLICE DEPARTMENT,OHSU OHSU ED DEPARTMENT PARKING LOT,3251 SW SAM JACKSON PARK ROAD,PORTLAND,OR,97239,"http://maps.google.com/maps?q=3251 SW SAM JACKSON PARK ROAD,+PORTLAND,+OR+97239&hl=en"
OREGON CITY POLICE DEPARTMENT,OREGON CITY PD,320 WARNER MILNE ROAD,OREGON CITY,OR,97045,"http://maps.google.com/maps?q=320 WARNER MILNE ROAD,+OREGON CITY,+OR+97045&hl=en"
OROVILLE POLICE DEPARTMENT/CARES,OROVILLE POLICE DEPARTMENT,1105 MAIN STREET,OROVILLE,WA,98844,"http://maps.google.com/maps?q=1105 MAIN STREET,+OROVILLE,+WA+98844&hl=en"
OTHELLO POLICE DEPARTMENT,OTHELLO POLICE DEPARTMENT,500 E MAIN STREET,OTHELLO,WA,99344,"http://maps.google.com/maps?q=500 E MAIN STREET,+OTHELLO,+WA+99344&hl=en"
PASCO POLICE DEPARTMENT,WALMART,4820 N ROAD 68,PASCO,WA,99301,"http://maps.google.com/maps?q=4820 N ROAD 68,+PASCO,+WA+99301&hl=en"
PEND OREILLE COUNTY SHERIFF'S OFFICE,PEND OREILLE COUNTY SHERIFF,331 S GARDEN AVENUE,NEWPORT,WA,99156,"http://maps.google.com/maps?q=331 S GARDEN AVENUE,+NEWPORT,+WA+99156&hl=en"
PHILOMATH PD,PHILOMATH PD,1010 APPLEGATE ST,PHILOMATH,OR,97370,"http://maps.google.com/maps?q=1010 APPLEGATE ST,+PHILOMATH,+OR+97370&hl=en"
PORTLAND POLICE BUREAU,PORTLAND POLICE - SOUTHEAST PRECINCT,4747 E BURNSIDE,PORTLAND,OR,97215,"http://maps.google.com/maps?q=4747 E BURNSIDE,+PORTLAND,+OR+97215&hl=en"
POST FALLS POLICE DEPARTMENT,POST FALLS POLICE DEPARTMENT,1717 E POLSTON AVE.,POST FALLS,ID,83854,"http://maps.google.com/maps?q=1717 E POLSTON AVE.,+POST FALLS,+ID+83854&hl=en"
PULLMAN POLICE DEPARTMENT,PULLMAN POLICE DEPARTMENT LOBBY,260 SE KAMIAKEN STREET,PULLMAN,WA,99163,"http://maps.google.com/maps?q=260 SE KAMIAKEN STREET,+PULLMAN,+WA+99163&hl=en"
PUYALLUP POLICE DEPARTMENT,PUYALLUP POLICE DEPARTMENT,311 WEST PIONEER,PUYALLUP,WA,98371,"http://maps.google.com/maps?q=311 WEST PIONEER,+PUYALLUP,+WA+98371&hl=en"
PUYALLUP TRIBAL POLICE DEPARTMENT,PUYALLUP TRIBAL POLICE DEPARTMENT,1423 E 29TH STREET,TACOMA,WA,98404,"http://maps.google.com/maps?q=1423 E 29TH STREET,+TACOMA,+WA+98404&hl=en"
SALEM POLICE DEPARTMENT,PEACE PLAZA COMMERCIAL ST,555 LIBERTY ST SE,SALEM,OR,97301,"http://maps.google.com/maps?q=555 LIBERTY ST SE,+SALEM,+OR+97301&hl=en"
SAN JUAN COUNTY SHERIFF,SAN JUAN COUNTY SHERIFF'S OFFICE,96 SECOND ST,FRIDAY HARBOR,WA,98250,"http://maps.google.com/maps?q=96 SECOND ST,+FRIDAY HARBOR,+WA+98250&hl=en"
SEATAC POLICE DEPARTMENT,SEATAC CITY HALL FRONT LOBBY AREA,4800 SOUTH 188TH STREET,SEATAC,WA,98188,"http://maps.google.com/maps?q=4800 SOUTH 188TH STREET,+SEATAC,+WA+98188&hl=en"
SEATTLE POLICE DEPARTMENT,EAST PRECINCT,1519 12TH AVENUE,SEATTLE,WA,98122,"http://maps.google.com/maps?q=1519 12TH AVENUE,+SEATTLE,+WA+98122&hl=en"
SEATTLE POLICE DEPARTMENT,NORTH PRECINCT,10049 COLLEGE WAY NORTH,SEATTLE,WA,98133,"http://maps.google.com/maps?q=10049 COLLEGE WAY NORTH,+SEATTLE,+WA+98133&hl=en"
SEATTLE POLICE DEPARTMENT,SOUTH PRECINCT,3001 SOUTH MYRTLE STREET,SEATTLE,WA,98108,"http://maps.google.com/maps?q=3001 SOUTH MYRTLE STREET,+SEATTLE,+WA+98108&hl=en"
SEATTLE POLICE DEPARTMENT,SOUTHWEST PRECINCT,2300 SW WEBSTER STREET,SEATTLE,WA,98106,"http://maps.google.com/maps?q=2300 SW WEBSTER STREET,+SEATTLE,+WA+98106&hl=en"
SEATTLE POLICE DEPARTMENT,WEST PRECINCT,810 VIRGINIA STREET,SEATTLE,WA,98101,"http://maps.google.com/maps?q=810 VIRGINIA STREET,+SEATTLE,+WA+98101&hl=en"
SEQUIM POLICE DEPARTMENT,SEQUIM CIVIC CENTER LOBBY,152 WEST CEDAR STREET,SEQUIM,WA,98382,"http://maps.google.com/maps?q=152 WEST CEDAR STREET,+SEQUIM,+WA+98382&hl=en"
SHERWOOD POLICE DEPARTMENT,SHERWOOD POLICE DEPT,20495 SW BORCHERS DR,SHERWOOD,OR,97140,"http://maps.google.com/maps?q=20495 SW BORCHERS DR,+SHERWOOD,+OR+97140&hl=en"
SKAGIT VALLEY SHERIFF'S OFFICE,CONCRETE COMMUNITY CENTER,45821 RAILROAD ST,CONCRETE,WA,98237,"http://maps.google.com/maps?q=45821 RAILROAD ST,+CONCRETE,+WA+98237&hl=en"
SKAMANIA COUNTY SHERIFF'S OFFICE,SKAMANIA COUNTY SHERIFF'S OFFICE,200 VANCOUVER AVENUE,STEVENSON,WA,98648,"http://maps.google.com/maps?q=200 VANCOUVER AVENUE,+STEVENSON,+WA+98648&hl=en"
SNOQUALMIE POLICE DEPARTMENT,SNOQUALMIE FIRE DEPARTMENT,37600 SE SNOQUALMIE PARKWAY,SNOQUALMIE,WA,98065,"http://maps.google.com/maps?q=37600 SE SNOQUALMIE PARKWAY,+SNOQUALMIE,+WA+98065&hl=en"
SOUTH BEND POLICE DEPARTMENT,PIONEER GROCERY,116 WILLAPA AVE,SOUTH BEND,WA,98586,"http://maps.google.com/maps?q=116 WILLAPA AVE,+SOUTH BEND,+WA+98586&hl=en"
SPOKANE POLICE DEPARTMENT,WEST CENTRAL COMMUNITY CENTER,1603 NORTH BELT STREET,SPOKANE,WA,99205,"http://maps.google.com/maps?q=1603 NORTH BELT STREET,+SPOKANE,+WA+99205&hl=en"
SPOKANE VALLEY POLICE PRECINCT,CHAS HEALTH,15812 E INDIANA AVENUE,SPOKANE,WA,99216,"http://maps.google.com/maps?q=15812 E INDIANA AVENUE,+SPOKANE,+WA+99216&hl=en"
STANFIELD POLICE DEPARTMENT,STANFIELD POLICE DEPARTMENT,105 W. WOOD AVE,STANFIELD,OR,97875,"http://maps.google.com/maps?q=105 W. WOOD AVE,+STANFIELD,+OR+97875&hl=en"
SUMNER POLICE DEPARTMENT,SUMNER POLICE DEPARTMENT - IN LOBBY,1104 MAPLE STREETSUITE 140,SUMNER,WA,98390,"http://maps.google.com/maps?q=1104 MAPLE STREET,+SUMNER,+WA+98390&hl=en"
TACOMA POLICE DEPARTMENT,TACOMA POLICE DEPARTMENT - SECTOR FOUR SUBSTATION STEWART HEIGHTS PARK,400 EAST 56TH STREET,TACOMA,WA,98404,"http://maps.google.com/maps?q=400 EAST 56TH STREET,+TACOMA,+WA+98404&hl=en"
TACOMA POLICE DEPARTMENT,TACOMA POLICE DEPARTMENT - SECTOR THREE SUBSTATION WAPATO PARK,1501 SOUTH 72ND STREET,TACOMA,WA,98408,"http://maps.google.com/maps?q=1501 SOUTH 72ND STREET,+TACOMA,+WA+98408&hl=en"
TACOMA POLICE DEPARTMENT,TACOMA POLICE DEPARTMENT - SECTOR TWO SUBSTATION NEXT TO BOYS AND GIRLS CLUB,5140 NORTH 26TH STREET,TACOMA,WA,98407,"http://maps.google.com/maps?q=5140 NORTH 26TH STREET,+TACOMA,+WA+98407&hl=en"
TACOMA POLICE DEPARTMENT,TACOMA POLICE DEPARTMENT NEAR ST JOSEPH'S HOSPITAL COMPLEX,1524 MARTIN LUTHER KING JUNIOR WAY,TACOMA,WA,98405,"http://maps.google.com/maps?q=1524 MARTIN LUTHER KING JUNIOR WAY,+TACOMA,+WA+98405&hl=en"
THURSTON COUNTY SHERIFF'S OFFICE,THURSTON COUNTY SHERIFF'S OFFICE OUTSIDE BUILDING 3,2000 LAKERIDGE DR. SW,OLYMPIA,WA,98512,"http://maps.google.com/maps?q=2000 LAKERIDGE DR. SW,+OLYMPIA,+WA+98512&hl=en"
TIGARD POLICE DEPT,TIGARD CITY HALL,13125 SW HALL BLVD,TIGARD,OR,97223,"http://maps.google.com/maps?q=13125 SW HALL BLVD,+TIGARD,+OR+97223&hl=en"
TILLAMOOK COUNTY SHERIFF'S OFFICE,TILLAMOOK COUNTY SHERIFF'S OFFICE,5995 LONG PRAIRIE RD,TILLAMOOK,OR,97141,"http://maps.google.com/maps?q=5995 LONG PRAIRIE RD,+TILLAMOOK,+OR+97141&hl=en"
TOLEDO POLICE DEPARTMENT,TOLEDO POLICE DEPARTMENT,250 W HIGHWAY 20,TOLEDO,OR,97391,"http://maps.google.com/maps?q=250 W HIGHWAY 20,+TOLEDO,+OR+97391&hl=en"
TUALATIN POLICE DEPARTMENT,TUALATIN POLICE DEPARTMENT,8650 SW TUALATIN RD,TUALATIN,OR,97062,"http://maps.google.com/maps?q=8650 SW TUALATIN RD,+TUALATIN,+OR+97062&hl=en"
TUKWILA POLICE DEPARTMENT,TUKWILA COMMUNITY CENTER,12424 42ND AVENUE S,TUKWILA,WA,98168,"http://maps.google.com/maps?q=12424 42ND AVENUE S,+TUKWILA,+WA+98168&hl=en"
VANCOUVER POLICE DEPARTMENT,KAISER PERMANENTE CASCADE PARK,12607 SE MILL PLAIN BLVD,VANCOUVER,WA,98684,"http://maps.google.com/maps?q=12607 SE MILL PLAIN BLVD,+VANCOUVER,+WA+98684&hl=en"
VANCOUVER POLICE DEPARTMENT,PEACEHEALTH MEMORIAL CAMPUS,100 EAST 33RD STREET,VANCOUVER,WA,98663,"http://maps.google.com/maps?q=100 EAST 33RD STREET,+VANCOUVER,+WA+98663&hl=en"
WAHKIAKUM COUNTY SHERIFF'S OFFICE,COURT HOUSE,64 MAIN STREET,CATHLAMET,WA,98612,"http://maps.google.com/maps?q=64 MAIN STREET,+CATHLAMET,+WA+98612&hl=en"
WALLA WALLA COUNTY SHERIFF,WAITSBURG FIRE STATION,234 MAIN ST,WAITSBURG,WA,99361,"http://maps.google.com/maps?q=234 MAIN ST,+WAITSBURG,+WA+99361&hl=en"
WALLA WALLA POLICE DEPARTMENT,WALLA WALLA POLICE DEPARTMENT,54 EAST MOORE STREET,WALLA WALLA,WA,99362,"http://maps.google.com/maps?q=54 EAST MOORE STREET,+WALLA WALLA,+WA+99362&hl=en"
WALLOWA COUNTY SHERIFF'S OFFICE,WALLOWA COUNTY JUSTICE CENTER,104 W. GREENWOOD ST,ENTERPRISE,OR,97828,"http://maps.google.com/maps?q=104 W. GREENWOOD ST,+ENTERPRISE,+OR+97828&hl=en"
WAPATO POLICE DEPARTMENT,WAPATO POLICE DEPARTMENT,205 SOUTH SIMCOE,WAPATO,WA,98951,"http://maps.google.com/maps?q=205 SOUTH SIMCOE,+WAPATO,+WA+98951&hl=en"
WARRENTON POLICE DEPARTMENT,WARRENTON CITY HALL,225 S. MAIN AVE,WARRENTON,OR,97146,"http://maps.google.com/maps?q=225 S. MAIN AVE,+WARRENTON,+OR+97146&hl=en"
WASHINGTON COUNTY SHERIFF'S OFFICE,ALOHA VILLA SHOPPINT VILLA,18075 SW TUALATIN VALLEY HWY,BEAVERTON,OR,97006,"http://maps.google.com/maps?q=18075 SW TUALATIN VALLEY HWY,+BEAVERTON,+OR+97006&hl=en"
WASHINGTON COUNTY SHERIFF'S OFFICE,BALES CEDAR MILL MARKET PLACE,12675 NW CORNELL RD,PORTLAND,OR,97229,"http://maps.google.com/maps?q=12675 NW CORNELL RD,+PORTLAND,+OR+97229&hl=en"
WASHOUGAL POLICE DEPARTMENT,SILVER STAR SEARCH AND RESCUE,1220 A STREET,WASHOUGAL,WA,98671,"http://maps.google.com/maps?q=1220 A STREET,+WASHOUGAL,+WA+98671&hl=en"
WEST RICHLAND POLICE DEPARTMENT,WEST RICHLAND POLICE DEPARTMENT,3805 WEST VAN GIESEN,WEST RICHLAND,WA,99353,"http://maps.google.com/maps?q=3805 WEST VAN GIESEN,+WEST RICHLAND,+WA+99353&hl=en"
WHATCOM COUNTY SHERIFF,NORTH FORK LIBRARY,7506 KENDALL ROAD,MAPLE FALLS,WA,98266,"http://maps.google.com/maps?q=7506 KENDALL ROAD,+MAPLE FALLS,+WA+98266&hl=en"
YAKIMA COUNTY CRIME STOPPERS,SOLARITY CREDIT UNION,115 N 5TH AVE.,YAKIMA,WA,98902,"http://maps.google.com/maps?q=115 N 5TH AVE.,+YAKIMA,+WA+98902&hl=en"
YAKIMA POLICE DEPARTMENT,CORNERSTONE MEDICAL CLINIC/VIRGINIA MASON MEMORIAL,4003 CREEKSIDE LOOP,YAKIMA,WA,98908,"http://maps.google.com/maps?q=4003 CREEKSIDE LOOP,+YAKIMA,+WA+98908&hl=en"
KOOTENAI COUNTY SHERIFF'S OFFICE,EASTSIDE FIRE DEPARTMENT,20338 S. HIGHWAY 97,HARRISON,ID,83833,"http://maps.google.com/maps?q=20338 S. HIGHWAY 97,+HARRISON,+ID+83833&hl=en"
KOOTENAI COUNTY SHERIFF'S OFFICE,NORTHERN LAKES FIRE DEPARTMENT,125 W. HAYDEN AVE,HAYDEN,ID,83835,"http://maps.google.com/maps?q=125 W. HAYDEN AVE,+HAYDEN,+ID+83835&hl=en"
KOOTENAI COUNTY SHERIFF'S OFFICE,TIMBERLAKE FIRE DEPARTMENT,5985 E. HIGHWAY 54,ATHOL,ID,83801,"http://maps.google.com/maps?q=5985 E. HIGHWAY 54,+ATHOL,+ID+83801&hl=en"
LATAH COUNTY SHERIFF'S OFFICE,HARVEST FOOD PARKING LOG,150 6TH ST.,POTLATCH,ID,83855,"http://maps.google.com/maps?q=150 6TH ST.,+POTLATCH,+ID+83855&hl=en"
LATAH COUNTY SHERIFF'S OFFICE,SUNSET MART,105 HIGHWAY 8,TROY,ID,83871,"http://maps.google.com/maps?q=105 HIGHWAY 8,+TROY,+ID+83871&hl=en"
LATAH COUNTY SHERIFF'S OFFICE,GENESEE FOOD CENTER PARKING LOT,216 WEST CHESTNUT ST,GENESEE,ID,83832,"http://maps.google.com/maps?q=216 WEST CHESTNUT ST,+GENESEE,+ID+83832&hl=en"
SANDPOINT POLICE DEPARTMENT,SANDPOINT POLICE DEPARTMENT,1123 LAKE STREET SANDPOINT,SANDPOINT,ID,83864,"http://maps.google.com/maps?q=1123 LAKE STREET SANDPOINT,+SANDPOINT,+ID+83864&hl=en"
LATAH COUNTY SHERIFF'S OFFICE,CITY PARK,MAIN ST. & 6TH ST.,KENDRICK,ID,83537,"http://maps.google.com/maps?q=MAIN ST. & 6TH ST.,+KENDRICK,+ID+83537&hl=en"
LEWISTON POLICE DEPARTMENT,LEWISTON POLICE DEPT,1224 F ST,LEWISTON,ID,83501,"http://maps.google.com/maps?q=1224 F ST,+LEWISTON,+ID+83501&hl=en"
LINCOLN COUNTY SHERIFF'S OFFICE,LINCOLN COUNTY SHERIFF'S OFFICE,512 CALIFORNIA AVE,LIBBY,MT,59923,"http://maps.google.com/maps?q=512 CALIFORNIA AVE,+LIBBY,+MT+59923&hl=en"
