Participant,CollectionSite,Address,City,State,Zip,MapURL
ACTON POLICE DEPARTMENT,ACTON POLICE STATION LOBBY KIOSK ACTON POLICE DEPARTMENT,371 MAIN ST,ACTON,MA,01720,"http://maps.google.com/maps?q=371 MAIN ST,+ACTON,+MA+01720&hl=en"
ADELPHI UNIVERSITY,ADELPHI UNIVERSITY,"ONE SOUTH AVE, U.C. LOBBY",GARDEN CITY,NY,11530,"http://maps.google.com/maps?q=ONE SOUTH AVE, U.C. LOBBY,+GARDEN CITY,+NY+11530&hl=en"
AMHERST POLICE DEPARTMENT,WILDWOOD SCHOOL PARKING AREA,71 STRONG STREET,AMHERST,MA,01002,"http://maps.google.com/maps?q=71 STRONG STREET,+AMHERST,+MA+01002&hl=en"
ARDSLEY SAYF COALITION,ARDSLEY VILLAGE HALL,507 ASHFORD HALL,ARDSLEY,NY,10502,"http://maps.google.com/maps?q=507 ASHFORD HALL,+ARDSLEY,+NY+10502&hl=en"
ASHBY POLICE DEPARTMENT,ASHBY POLICE DEPARTMENT,893 MAIN ST.,ASHBY,MA,01431,"http://maps.google.com/maps?q=893 MAIN ST.,+ASHBY,+MA+01431&hl=en"
ASHLAND POLICE DEPARTMENT,ASHLAND POLICE DEPARTMENT LT. DAVID BEAUDOIN,137 MAIN STREET,ASHLAND,MA,01721,"http://maps.google.com/maps?q=137 MAIN STREET,+ASHLAND,+MA+01721&hl=en"
ATTLEBORO POLICE DEPARTMENT,ATTLEBORO POLICE DEPARTMENT,12 UNION ST,ATTLEBORO,MA,02703,"http://maps.google.com/maps?q=12 UNION ST,+ATTLEBORO,+MA+02703&hl=en"
BARRINGTON POLICE DEPARTMENT,BARRINGTON POLICE DEPARTMENT,100 FEDERAL RD,BARRINGTON,RI,02806,"http://maps.google.com/maps?q=100 FEDERAL RD,+BARRINGTON,+RI+02806&hl=en"
BELCHERTOWN POLICE DEPARTMENT,BELCHERTOWN POLICE DEPARTMENT,PARK STREETTOWN COMMON,BELCHERTOWN,MA,01007,"http://maps.google.com/maps?q=PARK STREET,+BELCHERTOWN,+MA+01007&hl=en"
BELLINGHAM POLICE DEPARTMENT,BELLINGHAM POLICE DEPARTMENT,30 BLACKSTONE STREET,BELLINGHAM,MA,02019,"http://maps.google.com/maps?q=30 BLACKSTONE STREET,+BELLINGHAM,+MA+02019&hl=en"
BERLIN POLICE DEPARTMENT,BERLIN POLICE DEPARTMENT,240 KENSINGTON ROAD,BERLIN,CT,06037,"http://maps.google.com/maps?q=240 KENSINGTON ROAD,+BERLIN,+CT+06037&hl=en"
BETHANY POLICE DEPARTMENT,TROOP I RESIDENT TROOPERS OFFICE,631 AMITY ROAD,NEW HAVEN,CT,06525,"http://maps.google.com/maps?q=631 AMITY ROAD,+NEW HAVEN,+CT+06525&hl=en"
BLACKSTONE POLICE DEPARTMENT,BLACKSTONE POLICE DEPARTMENT LT. GREGORY GILMORE,15 ST. PAUL STREET,BLACKSTONE,MA,01504,"http://maps.google.com/maps?q=15 ST. PAUL STREET,+BLACKSTONE,+MA+01504&hl=en"
BOXBOROUGH POLICE DEPARTMENT,BOXBOROUGH POLICE DEPARTMENT WARREN B RYDER,520 MASSACHUSETTS AVENUEPOLICE DEPARTMENT,BOXBOROUGH,MA,01719,"http://maps.google.com/maps?q=520 MASSACHUSETTS AVENUE,+BOXBOROUGH,+MA+01719&hl=en"
BRANFORD POLICE DEPARTMENT,BRANFORD POLICE DEPARTMENT,33 LAUREL STREET,BRANFORD,CT,06405,"http://maps.google.com/maps?q=33 LAUREL STREET,+BRANFORD,+CT+06405&hl=en"
BRIDGEWATER POLICE DEPARTMENT,BRIDGEWATER POLICE DEPARTMENT LOBBY,220 PLEASANT ST,BRIDGEWATER,MA,02324,"http://maps.google.com/maps?q=220 PLEASANT ST,+BRIDGEWATER,+MA+02324&hl=en"
BRISTOL POLICE DEPARTMENT,BRISTOL POLICE DEPARTMENT,395 METACOM AVE,BRISTOL,RI,02809,"http://maps.google.com/maps?q=395 METACOM AVE,+BRISTOL,+RI+02809&hl=en"
BRISTOL POLICE DEPARTMENT,BRISTOL SENIOR COMMUNITY CENTER HOURS OF COLLECTION 10:00 A.M- 1:00 P.M,240 STAFFORD AVENUE,BRISTOL,CT,06010,"http://maps.google.com/maps?q=240 STAFFORD AVENUE,+BRISTOL,+CT+06010&hl=en"
BROCKTON POLICE DEPARTMENT,BROCKTON COUNCIL ON AGING,10 FATHER KENNY WAY,BROCKTON,MA,02301,"http://maps.google.com/maps?q=10 FATHER KENNY WAY,+BROCKTON,+MA+02301&hl=en"
BURRILLVILLE POLICE DEPARTMENT,BURRILLVILLE POLICE DEPARTMENT,1477 VICTORY HIGHWAY,HARRISVILLE,RI,02830,"http://maps.google.com/maps?q=1477 VICTORY HIGHWAY,+HARRISVILLE,+RI+02830&hl=en"
CENTRAL FALLS POLICE DEPARTMENT,CENTRAL FALLS POLICE DEPARTMENT LT. CHRISTOPHER REED,160 ILLINOIS STREET,CENTRAL FALLS,RI,02863,"http://maps.google.com/maps?q=160 ILLINOIS STREET,+CENTRAL FALLS,+RI+02863&hl=en"
CHARLESTOWN POLICE DEPARTMENT,CHARLESTOWN,4901 OLD POST ROAD,CHARLESTOWN,RI,02813,"http://maps.google.com/maps?q=4901 OLD POST ROAD,+CHARLESTOWN,+RI+02813&hl=en"
CHESHIRE POLICE DEPARTMENT,CHESHIRE POLICE DEPARTMENT,500 HIGHLAND AVE,CHESHIRE,CT,06410,"http://maps.google.com/maps?q=500 HIGHLAND AVE,+CHESHIRE,+CT+06410&hl=en"
CITY OF PROVIDENCE,PROVIDENCE POLICE DEPARTMENT,325 WASHINGTON ST,PROVIDENCE,RI,02903,"http://maps.google.com/maps?q=325 WASHINGTON ST,+PROVIDENCE,+RI+02903&hl=en"
CITY OF PROVIDENCE,WALGREENS PHARMACY,1 POCASSET AVE,PROVIDENCE,RI,02909,"http://maps.google.com/maps?q=1 POCASSET AVE,+PROVIDENCE,+RI+02909&hl=en"
CITY OF PROVIDENCE,WALGREENS PHARMACY,533 ELMWOOD AVE,PROVIDENCE,RI,02907,"http://maps.google.com/maps?q=533 ELMWOOD AVE,+PROVIDENCE,+RI+02907&hl=en"
CLARKSTOWN POLICE,CVS PHARMACY,280 SOUTH MAIN ST,NEW CITY,NY,10956,"http://maps.google.com/maps?q=280 SOUTH MAIN ST,+NEW CITY,+NY+10956&hl=en"
CLARKSTOWN POLICE,CVS PHARMACY,330 ROUTE 304,BARDONIA,NY,10954,"http://maps.google.com/maps?q=330 ROUTE 304,+BARDONIA,+NY+10954&hl=en"
CLARKU,CLARK UNIVERSITY,950 MAIN STREETHIGGINS STUDENT CENTER,WORCESTER,MA,01610,"http://maps.google.com/maps?q=950 MAIN STREET,+WORCESTER,+MA+01610&hl=en"
CLOSTER POLICE DEPARTMENT,CLOSTER POLICE DEPT. 201-768-5000,295 CLOSTER DOCK ROAD,CLOSTER,NJ,07624,"http://maps.google.com/maps?q=295 CLOSTER  DOCK ROAD,+CLOSTER,+NJ+07624&hl=en"
COLUMBIA COUNTY SHERIFF'S OFFICE,HILLSDALE SUB STATION,2684 STATE ROUTE 23,HILLSDALE,NY,12529,"http://maps.google.com/maps?q=2684 STATE ROUTE 23,+HILLSDALE,+NY+12529&hl=en"
CONNECTICUT STATE POLICE-TROOP G,TROOP G BARRACKS,149 PROSPECT ST,BRIDGEPORT,CT,06604,"http://maps.google.com/maps?q=149 PROSPECT ST,+BRIDGEPORT,+CT+06604&hl=en"
CRANSTON POLICE DEPARTMENT,CRANSTON POLICE DEPARTMENT,5 GARFIELD ST,CRANSTON,RI,02920,"http://maps.google.com/maps?q=5 GARFIELD ST,+CRANSTON,+RI+02920&hl=en"
CRESSKILL POLICE DEPARTMENT,CRESSKILL POLICE DEPARTMENT,67 UNION AVENUE,CRESSKILL,NJ,07626,"http://maps.google.com/maps?q=67 UNION AVENUE,+CRESSKILL,+NJ+07626&hl=en"
CROTON ON HUDSON POLICE,CROTON COMMONS SHOPPING PLAZA,177 SOUTH RIVERSIDE AVENUE,CROTON ON HUDSON,NY,10520,"http://maps.google.com/maps?q=177 SOUTH RIVERSIDE AVENUE,+CROTON ON HUDSON,+NY+10520&hl=en"
CT STATE POLICE TROOP C,CT STATE POLICE TROOP C,1320 TOLLAND STAGE RD.,TOLLAND,CT,06084,"http://maps.google.com/maps?q=1320 TOLLAND STAGE RD.,+TOLLAND,+CT+06084&hl=en"
CT STATE POLICE TROOP E,GRISWOLD TOWN HALL,28 MAIN STREET,JEWETT CITY,CT,06351,"http://maps.google.com/maps?q=28 MAIN STREET,+JEWETT CITY,+CT+06351&hl=en"
CUMBERLAND POLICE,CUMBERLAND POLICE DEPARTMENT,1380 DIAMOND HILL ROAD,CUMBERLAND,RI,02864,"http://maps.google.com/maps?q=1380 DIAMOND HILL ROAD,+CUMBERLAND,+RI+02864&hl=en"
CUMMINGTON POLICE DEPARTMENT,CUMMINGTON POLICE DEPARTMENT CUMMINGTON PUBLIC SAFETY COMPLEX,8 FAIRGROUNDS ROAD,CUMMINGTON,MA,01026,"http://maps.google.com/maps?q=8 FAIRGROUNDS ROAD,+CUMMINGTON,+MA+01026&hl=en"
DANBURY POLICE DEPARTMENT,DANBURY POLICE DEPARTMENT,375 MAIN STREET,DANBURY,CT,06810,"http://maps.google.com/maps?q=375 MAIN STREET,+DANBURY,+CT+06810&hl=en"
DEA NEW YORK DIVISION,NEW YORK CITY POLICE DEPARTMENT BRONX 45 PRECINCT,2877 BARKLEY AVENUE (SCHUYLERVILLE),BRONX,NY,10465,"http://maps.google.com/maps?q=2877 BARKLEY AVENUE (SCHUYLERVILLE),+BRONX,+NY+10465&hl=en"
DEA NEW YORK DIVISION,NEW YORK CITY POLICE DEPARTMENT BRONX 50TH PRECINCT,3450 KINGSBRIDGE AVENUE (KINGSBRIDGE),BRONX,NY,10463,"http://maps.google.com/maps?q=3450 KINGSBRIDGE AVENUE (KINGSBRIDGE),+BRONX,+NY+10463&hl=en"
DEA NEW YORK DIVISION,NEW YORK CITY POLICE DEPARTMENT QUEENS 111 PRECINCT,45-06 215TH STREET (BAYSIDE),BAYSIDE,NY,11361,"http://maps.google.com/maps?q=45-06 215TH STREET (BAYSIDE),+BAYSIDE,+NY+11361&hl=en"
DEERFIELD POLICE DEPARTMENT,DEERFIELD POLICE DEPARTMENT,8 CONWAY STREET,SOUTH DEERFIELD,MA,01373,"http://maps.google.com/maps?q=8 CONWAY STREET,+SOUTH DEERFIELD,+MA+01373&hl=en"
DOVER POLICE DEPAQRTMENT,DOVER HQ LOBBY,3 WALPOLE ST,DOVER,MA,02030,"http://maps.google.com/maps?q=3 WALPOLE ST,+DOVER,+MA+02030&hl=en"
DUBLIN POLICE DEPARTMENT,DUBLIN POLICE DEPARTMENT CHIEF TIMOTHY J. SUOKKO,1122 MAIN STREET,DUBLIN,NH,03444,"http://maps.google.com/maps?q=1122 MAIN STREET,+DUBLIN,+NH+03444&hl=en"
DUDLEY POLICE DEPARTMENT,DUDLEY POLICE DEPARTMENT,71 WEST MAIN ST,DUDLEY,MA,01571,"http://maps.google.com/maps?q=71 WEST MAIN ST,+DUDLEY,+MA+01571&hl=en"
DUTCHESS COUNTY SHERIFF'S OFFICE,VASSAR BROTHERS MEDICAL HOSPITAL,45 READE PLACE,POUGHKEEPSIE,NY,12601,"http://maps.google.com/maps?q=45 READE PLACE,+POUGHKEEPSIE,+NY+12601&hl=en"
EAST GRANBY RESIDENT TROOPERS OFFICE,EAST GRANBY RESIDENT TROOPER'S OFFICE,7 MEMORIAL DRIVE,EAST GRANBY,CT,06026,"http://maps.google.com/maps?q=7 MEMORIAL DRIVE,+EAST GRANBY,+CT+06026&hl=en"
EAST HADDAM POLICE/RESIDENT TROOPER,EAST HADDAM POLICE/RESIDENT TROOPER JEFFREY RHOADES,1 PLAINS ROAD,MOODUS,CT,06469,"http://maps.google.com/maps?q=1 PLAINS ROAD,+MOODUS,+CT+06469&hl=en"
EAST HAMPTON POLICE DEPARTMENT,CHATHAM ACRES EAST HAMPTON HOUSING AUTHORITY 10:00 A.M. TO 2:00 P.M.,GOVERNOR BILL O'NEILL DRIVE,EAST HAMPTON,CT,06424,"http://maps.google.com/maps?q=GOVERNOR BILL O'NEILL DRIVE,+EAST HAMPTON,+CT+06424&hl=en"
EAST HARTFORD POLICE,EAST HARTFORD PUBLIC SAFETY COMPLEX EAST HARTFORD POLICE HEADQUARTERS,31 SCHOOL STREET,EAST HARTFORD,CT,06108,"http://maps.google.com/maps?q=31 SCHOOL STREET,+EAST HARTFORD,+CT+06108&hl=en"
EAST HAVEN POLICE DEPARTMENT,EAST HAVEN POLICE DEPARTMENT,471 NORTH HIGH STREET,EAST HAVEN,CT,06512,"http://maps.google.com/maps?q=471 NORTH HIGH STREET,+EAST HAVEN,+CT+06512&hl=en"
EAST PROVIDENCE POLICE DEPARTMENT,EAST PROVIDENCE POLICE DEPARTMENT,750 WATERMAN AVE,EAST PROVIDENCE,RI,02914,"http://maps.google.com/maps?q=750 WATERMAN AVE,+EAST PROVIDENCE,+RI+02914&hl=en"
EASTHAMPTON POLICE DEPARTMENT,EASTHAMPTON PUBLIC SAFETY COMPLEX,32 PAYSON AVENUE,EASTHAMPTON,MA,01027,"http://maps.google.com/maps?q=32 PAYSON AVENUE,+EASTHAMPTON,+MA+01027&hl=en"
EASTON POLICE DEPARTMENT,EASTON POLICE DEPARTMENT,46 LOTHROP STREET,EASTON,MA,02356,"http://maps.google.com/maps?q=46 LOTHROP STREET,+EASTON,+MA+02356&hl=en"
ELLINGTON RESIDENT TROOPERS OFFICE,ELLINGTON RESIDENT TROOPERS OFFICE,33 ARBOR WAY,ELLINGTON,CT,06029,"http://maps.google.com/maps?q=33 ARBOR WAY,+ELLINGTON,+CT+06029&hl=en"
FAIRFIELD POLICE DEPARTMENT,FAIRFIELD POLICE DEPARTMENT,100 REEF ROAD,FAIRFIELD,CT,06824,"http://maps.google.com/maps?q=100 REEF ROAD,+FAIRFIELD,+CT+06824&hl=en"
FALL RIVER POLICE DEPARTMENT,BLESSED TRINITY CHURCH,1340 PLYMOUTH AVE,FALL RIVER,MA,02721,"http://maps.google.com/maps?q=1340 PLYMOUTH AVE,+FALL RIVER,+MA+02721&hl=en"
FLORAL PARK POLICE DEPARTMENT,FLORAL PARK POLICE DEPARTMENT,1 FLORAL BLVD,GREAT NECK,NY,11022,"http://maps.google.com/maps?q=1 FLORAL BLVD,+GREAT NECK,+NY+11022&hl=en"
FOSTER POLICE DEPARTMENT,FOSTER POLICE DEPARTMENT FRONT LOBBY,182 HOWARD HILL RD,FOSTER,RI,02825,"http://maps.google.com/maps?q=182 HOWARD HILL RD,+FOSTER,+RI+02825&hl=en"
FOXBOROUGH POLICE DEPARTMENT,FOXBOROUGH POLICE DEPARTMENT,8 CHESTNUT STREET,FOXBORO,MA,02035,"http://maps.google.com/maps?q=8 CHESTNUT STREET,+FOXBORO,+MA+02035&hl=en"
FRAMINGHAM HEALTH DEPARTMENT,CITY OF FRAMINGHAM POLICE DEPARTMENT KITTY MAHONEY,1 WILLIAM H. WELCH WAYFRAMINGHAM,FRAMINGHAM,MA,01702,"http://maps.google.com/maps?q=1 WILLIAM H. WELCH WAY,+FRAMINGHAM,+MA+01702&hl=en"
FREEPORT POLICE DEPARTMENT,FREEPORT POLICE DEPARTMENT DET/LT. WAYNE GIGLIO 516 377-2414,40 N. OCEAN AVENUE,FREEPORT,NY,11520,"http://maps.google.com/maps?q=40 N. OCEAN AVENUE,+FREEPORT,+NY+11520&hl=en"
GARDEN CITY POLICE DEPARTMENT,GARDEN CITY POLICE DEPARTMENT,349 STEWART AVENUE,GARDEN CITY,NY,11530,"http://maps.google.com/maps?q=349 STEWART AVENUE,+GARDEN CITY,+NY+11530&hl=en"
GARDNER POLICE DEPARTMENT,PRICE CHOPPER GROCERY/PHARMACY,560 MAIN ST,GARDNER,MA,01440,"http://maps.google.com/maps?q=560 MAIN ST,+GARDNER,+MA+01440&hl=en"
GLASTONBURY POLICE DEPARTMENT,PARKS AND REC DEPARTMENT,2143 MAIN ST.,GLASTONBURY,CT,06033,"http://maps.google.com/maps?q=2143 MAIN ST.,+GLASTONBURY,+CT+06033&hl=en"
GLOCESTER POLICE DEPARTMENT,GLOCESTER POLICE DEPARTMENT,162 CHOPMIST HILL ROAD,CHEPACHET,RI,02814,"http://maps.google.com/maps?q=162 CHOPMIST HILL ROAD,+CHEPACHET,+RI+02814&hl=en"
GOOD SAMARITAN HOSPITAL,GOOD SAMARITAN HOSPITAL,1000 MONTAUK HWY,WEST ISLIP,NY,11795,"http://maps.google.com/maps?q=1000 MONTAUK HWY,+WEST ISLIP,+NY+11795&hl=en"
GOSHEN POLICE DEPARTMENT,GOSHEN POLICE DEPARTMENT,40A MAIN ST,GOSHEN,MA,01032,"http://maps.google.com/maps?q=40A MAIN ST,+GOSHEN,+MA+01032&hl=en"
GRAFTON POLICE DEPARTMENT,GRAFTON POLICE DEPARTMENT CHIEF NORMAND CREPEAU,28 PROVIDENCE ROAD,GRAFTON,MA,01519,"http://maps.google.com/maps?q=28 PROVIDENCE ROAD,+GRAFTON,+MA+01519&hl=en"
GREENFIELD POLICE DEPARTMENT,GREENFIELD POLICE DEPARTMENT,321 HIGH STREET,GREENFIELD,MA,01301,"http://maps.google.com/maps?q=321 HIGH STREET,+GREENFIELD,+MA+01301&hl=en"
GREENWICH POLICE DEPARTMERNT,PUBLIC SAFETY COMPLEX,11 BRUCE PLACE,GREENWICH,CT,06830,"http://maps.google.com/maps?q=11 BRUCE PLACE,+GREENWICH,+CT+06830&hl=en"
GROTON POLICE DEPARTMENT,GROTON POLICE DEPARTMENT,99 PLEASANT STREET,GROTON,MA,01450,"http://maps.google.com/maps?q=99 PLEASANT STREET,+GROTON,+MA+01450&hl=en"
HADDAM RESIDENT STATE TROOPERS OFFICE- CSP TROOP F,HIGGANUM PHARMACY IN FRONT PARKING LOT AREA,23 KILLINGWORTH RD,HIGGANUM,CT,06441,"http://maps.google.com/maps?q=23 KILLINGWORTH RD,+HIGGANUM,+CT+06441&hl=en"
HADLEY POLICE DEPARTMENT,HOPKINS ACADEMY HIGH SCHOOL,131 RUSSELL STREET,HADLEY,MA,01035,"http://maps.google.com/maps?q=131 RUSSELL STREET,+HADLEY,+MA+01035&hl=en"
HAMDEN POLICE DEPARTMENT,HAMDEN POLICE DEPARTMENT,2900 DIXWELL AVE.,HAMDEN,CT,06518,"http://maps.google.com/maps?q=2900 DIXWELL AVE.,+HAMDEN,+CT+06518&hl=en"
HARTFORD POLICE DEPARTMENT,HARTFORD POLICE DEPARTMENT,253 HIGH STREET,HARTFORD,CT,06103,"http://maps.google.com/maps?q=253 HIGH STREET,+HARTFORD,+CT+06103&hl=en"
HARVARD POLICE,HARVARD PUBLIC SAFETY BUILDING HARVARD POLICE,40 AYER ROAD,HARVARD,MA,01451,"http://maps.google.com/maps?q=40 AYER ROAD,+HARVARD,+MA+01451&hl=en"
HARWINTON RESIDENT TROOPER OFFICE,HARWINTON RESIDENT TROOPERS OFFICE,100 BENTLEY DRIVE,HARWINTON,CT,06791,"http://maps.google.com/maps?q=100 BENTLEY DRIVE,+HARWINTON,+CT+06791&hl=en"
HAVERSTRAW POLICE DEPARTMENT,CVS,12 WEST RAMAPO ROAD,GARNERVILLE,NY,10923,"http://maps.google.com/maps?q=12 WEST RAMAPO ROAD,+GARNERVILLE,+NY+10923&hl=en"
HAWORTH POLICE DEPARTMENT,HAWORTH POLICE DEPARTMENT,300 HAWORTH AVENUE,HAWORTH,NJ,07641,"http://maps.google.com/maps?q=300 HAWORTH AVENUE,+HAWORTH,+NJ+07641&hl=en"
HEBRON RESIDENT TROOPER'S OFFICE - CSP TROOP K,RHAM HIGH SCHOOL,85 WALL ST.,HEBRON,CT,06248,"http://maps.google.com/maps?q=85 WALL ST.,+HEBRON,+CT+06248&hl=en"
HEMPSTEAD POLICE DEPARTMENT,HEMPSTEAD POLICE DEPARTMENT,99 NICHOLAS COURTS,HEMPSTEAD,NY,11550,"http://maps.google.com/maps?q=99 NICHOLAS COURTS,+HEMPSTEAD,+NY+11550&hl=en"
HOLLAND POLICE DEPARTMENT,HOLLAND POLICE DEPARTMENT COMMUNITY ROOM 1ST FLR.,27 STURBRIDGE RD.,HOLLAND,MA,01521,"http://maps.google.com/maps?q=27 STURBRIDGE RD.,+HOLLAND,+MA+01521&hl=en"
HOLLISTON POLICE DEPARTMENT,HOLLISTON POLICE DEPARTMENT LT. CHAD THOMPSON,550 WASHINGTON STREET,HOLLISTON,MA,01746,"http://maps.google.com/maps?q=550 WASHINGTON STREET,+HOLLISTON,+MA+01746&hl=en"
HOLYOKE POLICE DEPARTMENT,HOLYOKE PD NARCOTICS/VICE DIVISION,138 APPLETON ST,HOLYOKE,MA,01040,"http://maps.google.com/maps?q=138 APPLETON ST,+HOLYOKE,+MA+01040&hl=en"
HOPKINTON POLICE DEPARTMENT,HOPKINTON POLICE DEPARTMENT,406 WOODVILLE ROAD,HOPKINTON,RI,02833,"http://maps.google.com/maps?q=406 WOODVILLE ROAD,+HOPKINTON,+RI+02833&hl=en"
HOPKINTON POLICE DEPARTMENT,HOPKINTON POLICE DEPARTMENT JOSEPH BENNETT,74 MAIN STREET,HOPKINTON,MA,01748,"http://maps.google.com/maps?q=74 MAIN STREET,+HOPKINTON,+MA+01748&hl=en"
JAFFREY POLICE DEPARTMENT,JAFFREY POLICE DEPARTMENT WILLIAM OSWALT,26 MAIN STREET,JAFFREY,NH,03452,"http://maps.google.com/maps?q=26 MAIN STREET,+JAFFREY,+NH+03452&hl=en"
JAMESTOWN POLICE DEPARTMENT,JAMESTOWN POLICE DEPARTMENT,250 CONANICUS AVE,JAMESTOWN,RI,02835,"http://maps.google.com/maps?q=250 CONANICUS AVE,+JAMESTOWN,+RI+02835&hl=en"
KINGS POINT POLICE DEPARTMENT,KINGS POINT POLICE DEPARTMENT GEORGE J. BANVILLE 516 482-1000,32 STEPPINGSTONE LANE,KINGS POINT,NY,11024,"http://maps.google.com/maps?q=32 STEPPINGSTONE LANE,+KINGS POINT,+NY+11024&hl=en"
LAKE SUCCESS POLICE DEPARTMENT,LAKE SUCCESS POLICE DEPARTMENT,15 VANDERBILT DRIVE,GREAT NECK,NY,11020,"http://maps.google.com/maps?q=15 VANDERBILT DRIVE,+GREAT NECK,+NY+11020&hl=en"
LEICESTER POLICE DEPARTMENT,LEICESTER POLICE DEPARTMENT JAMES HURLEY,90 SOUTH MAIN STREET,LEICESTER,MA,01524,"http://maps.google.com/maps?q=90 SOUTH MAIN STREET,+LEICESTER,+MA+01524&hl=en"
LEICESTER POLICE DEPARTMENT,LEICESTER RECYCLING CENTER JAMES HURLEY,200 MANNVILLE STREET,LEICESTER,MA,01524,"http://maps.google.com/maps?q=200 MANNVILLE STREET,+LEICESTER,+MA+01524&hl=en"
LEOMINSTER POLICE DEPARTMENT,LEOMINSTER POLICE DEPARTMENT,29 CHURCH STREET,LEOMINSTER,MA,01453,"http://maps.google.com/maps?q=29 CHURCH STREET,+LEOMINSTER,+MA+01453&hl=en"
LEVERETT POLICE DEPARTMENT,LEVERETT POLICE DEPARTMENT CHIEF SCOTT D. MINCKLER,95 MONTAGUE ROAD,LEVERETT,MA,01054,"http://maps.google.com/maps?q=95 MONTAGUE ROAD,+LEVERETT,+MA+01054&hl=en"
LINCOLN POLICE DEPARTMENT,LINCOLN POLICE DEPARTMENT,100 OLD RIVER ROAD,LINCOLN,RI,02865,"http://maps.google.com/maps?q=100 OLD RIVER ROAD,+LINCOLN,+RI+02865&hl=en"
LITTLE COMPTON POLICE DEPARTMENT,LITTLE COMPTON PUBLIC SAFETY COMPLEX LITTLE COMPTON POLICE DEPARTMENT,60 SIMMONS ROAD,LITTLE COMPTON,RI,02837,"http://maps.google.com/maps?q=60 SIMMONS ROAD,+LITTLE COMPTON,+RI+02837&hl=en"
LONG BEACH POLICE DEPARTMENT,LONG BEACH POLICE DEPARTMENT,1 WEST CHESTER STREET,LONG BEACH,NY,11561,"http://maps.google.com/maps?q=1 WEST CHESTER STREET,+LONG BEACH,+NY+11561&hl=en"
LONG ISLAND JEWISH MEDICAL CENTER,LONG ISLAND JEWISH MEDICAL CENTER LOBBY,270-05 76ST AVENUE,NEW HYDE PARK,NY,11040,"http://maps.google.com/maps?q=270-05 76ST AVENUE,+NEW HYDE PARK,+NY+11040&hl=en"
LONGMEADOW POLICE DEPARTMENT,LONGMEADOW POLICE DEPARTMENT,34 WILLIAMS STREET,LONGMEADOW,MA,01106,"http://maps.google.com/maps?q=34 WILLIAMS STREET,+LONGMEADOW,+MA+01106&hl=en"
LUDLOW POLICE DEPARTMENT,LUDLOW POLICE DEPARTMENT,612 CHAPIN ST,LUDLOW,MA,01056,"http://maps.google.com/maps?q=612 CHAPIN ST,+LUDLOW,+MA+01056&hl=en"
LUNENBURG POLICE DEPARTMENT,LUNENBURG POLICE DEPARTMENT LT. THOMAS L GAMMEL,655 MASS. AVE.,LUNENBURG,MA,01462,"http://maps.google.com/maps?q=655 MASS. AVE.,+LUNENBURG,+MA+01462&hl=en"
LYNBROOK POLICE DEPARTMENT,LYNBROOK POLICE DEPARTMENT SGT SEAN MURPHY,1 COLUMBUS DR AVENUE,LYNBROOK,NY,11563,"http://maps.google.com/maps?q=1 COLUMBUS DR AVENUE,+LYNBROOK,+NY+11563&hl=en"
MADISON POLICE DEPARTMENT,MADISON POLICE DEPARTMENT,9 CAMPUS DRIVE,MADISON,CT,06443,"http://maps.google.com/maps?q=9 CAMPUS DRIVE,+MADISON,+CT+06443&hl=en"
MALVERNE POLICE DEPARTMENT,MALVERNE POLICE DEPARTMENT,1 BRITTON CIRCLE AVENUE,MALVERNE,NY,11565,"http://maps.google.com/maps?q=1 BRITTON CIRCLE AVENUE,+MALVERNE,+NY+11565&hl=en"
MANSFIELD POLICE DEPARTMENT,MANSFIELD POLICE DEPARTMENT DET. NICOLE BOLDRIGHINI,50 WEST STREET,MANSFIELD,MA,02048,"http://maps.google.com/maps?q=50 WEST STREET,+MANSFIELD,+MA+02048&hl=en"
MARLBOROUGH POLICE DEPARTMENT,MARLBOROUGH POLICE DEPARTMENT,355 BOLTON STREET,MARLBOROUGH,MA,01752,"http://maps.google.com/maps?q=355 BOLTON STREET,+MARLBOROUGH,+MA+01752&hl=en"
MASON POLICE DEPARTMENT,MASON POLICE DEPARTMENT,38 DARLING HILL ROAD,MASON,NH,03048,"http://maps.google.com/maps?q=38 DARLING HILL ROAD,+MASON,+NH+03048&hl=en"
MATHER HOSPITAL/NORTHWELL HEALTH,MATHER HOSPITAL/NORTHWELL HEALTH,75 NORTH COUNTRY ROAD,PORT JEFFERSON,NY,11777,"http://maps.google.com/maps?q=75 NORTH COUNTRY ROAD,+PORT JEFFERSON,+NY+11777&hl=en"
MEDFIELD POLICE DEPARTMENT,MEDFIELD POLICE DEPARTMENT FRONT LOBBY,112 NORTH STREET,MEDFIELD,MA,02052,"http://maps.google.com/maps?q=112 NORTH STREET,+MEDFIELD,+MA+02052&hl=en"
MERIDEN POLICE DEPARTMENT,MERIDEN POLICE DEPARTMENT FRONT LOBBY,50 WEST MAIN ST.,MERIDEN,CT,06451,"http://maps.google.com/maps?q=50 WEST MAIN ST.,+MERIDEN,+CT+06451&hl=en"
MIDDLEFIELD RESIDENT TROOPER,MIDDLEFIELD RESIDENT TROOPERS OFFICE,405 MAIN ST,MIDDLEFIELD,CT,06455,"http://maps.google.com/maps?q=405 MAIN ST,+MIDDLEFIELD,+CT+06455&hl=en"
MIDDLETOWN POLICE CT,MIDDLETOWN PD,222 MAIN STREET,MIDDLETOWN,CT,06457,"http://maps.google.com/maps?q=222 MAIN STREET,+MIDDLETOWN,+CT+06457&hl=en"
MIDDLETOWN POLICE DEPARTMENT,MIDDLETOWN POLICE DEPARTMENT JASON RYAN,123 VALLEY ROAD,MIDDLETOWN,RI,02842,"http://maps.google.com/maps?q=123 VALLEY ROAD,+MIDDLETOWN,+RI+02842&hl=en"
MILFORD POLICE,MILFORD SENIOR CENTER,60 NORTH BOW STREET,MILFORD,MA,01757,"http://maps.google.com/maps?q=60 NORTH BOW STREET,+MILFORD,+MA+01757&hl=en"
MONROE POLICE DEPARTMENT,MONROE SENIOR CENTER,235 CUTLERS FARM ROAD,MONROE,CT,06468,"http://maps.google.com/maps?q=235 CUTLERS FARM ROAD,+MONROE,+CT+06468&hl=en"
MONTAGUE PD,MONTAGUE POLICE,180 TURNPIKE ROAD,TURNERS FALLS,MA,01376,"http://maps.google.com/maps?q=180 TURNPIKE ROAD,+TURNERS FALLS,+MA+01376&hl=en"
NARRAGASNETT POLICE DEPARTMENT,NARRAGANSETT POLICE DEPARTMENT SRO KEVIN O'CONNOR,40 CASWELL ST,NARRAGANSETT,RI,02882,"http://maps.google.com/maps?q=40 CASWELL ST,+NARRAGANSETT,+RI+02882&hl=en"
NATICK POLICE DEPARTMENT,NATICK POLICE DEPARTMENT BRIAN GRASSEY,20 EAST CENTRAL ST,NATICK,MA,01760,"http://maps.google.com/maps?q=20 EAST CENTRAL ST,+NATICK,+MA+01760&hl=en"
NATICK POLICE DEPARTMENT,WEGMAN'S SUPERMARKET BRIAN GRASSEY,1245 WORCESTER ST,NATICK,MA,01760,"http://maps.google.com/maps?q=1245 WORCESTER ST,+NATICK,+MA+01760&hl=en"
NEEDHAM POLICE DEPARTMENT,NEEDHAM POLICE,99 SCHOOL ST,NEEDHAM,MA,02492,"http://maps.google.com/maps?q=99 SCHOOL ST,+NEEDHAM,+MA+02492&hl=en"
NEW BEDFORD POLICE DEPARTMENT,CITY OF NEW BEDFORD POLICE DEPARTMENT,871 ROCKDALE AVE,NEW BEDFORD,MA,02740,"http://maps.google.com/maps?q=871 ROCKDALE AVE,+NEW BEDFORD,+MA+02740&hl=en"
NEW BRITAIN POLICE DEPARTMENT,NEW BRITAIN POLICE DEPARTMENT COMMUNITY ROOM - 1ST FLOOR,10 CHESTNUT STREET,NEW BRITAIN,CT,06051,"http://maps.google.com/maps?q=10 CHESTNUT STREET,+NEW BRITAIN,+CT+06051&hl=en"
NEW YORK STATE POLICE,NEW YORK STATE POLICE PETER MCARDLE,7140 REPUBLIC AIRPORT,FARMINGDALE,NY,11735,"http://maps.google.com/maps?q=7140 REPUBLIC AIRPORT,+FARMINGDALE,+NY+11735&hl=en"
NEWFAIRFEILD POLICE DEPARTMENT,NEW FAIRFIELD RESIDENT TROOPERS OFFICE,302 BALL POND ROAD,NEW FAIRFIELD,CT,06812,"http://maps.google.com/maps?q=302 BALL POND ROAD,+NEW FAIRFIELD,+CT+06812&hl=en"
NEWPORT POLICE DEPARTMENT,"NEWPORT, RI POLICE DEPARTMENT",120 BROADWAY,NEWPORT,RI,02840,"http://maps.google.com/maps?q=120 BROADWAY,+NEWPORT,+RI+02840&hl=en"
NORTH ATTLEBORO PD,NORTH ATTLEBORO PD,102 SOUTH WASHINGTON STREET,NORTH ATTLEBORO,MA,02760,"http://maps.google.com/maps?q=102 SOUTH WASHINGTON STREET,+NORTH ATTLEBORO,+MA+02760&hl=en"
NORTH CASTLE POLICE DEPARTMENT,NORTH CASTLE POLICE DEPARTMENT TOWN HALL,15 BEDFORD ROAD,ARMONK,NY,10504,"http://maps.google.com/maps?q=15 BEDFORD ROAD,+ARMONK,+NY+10504&hl=en"
NORTH HAVEN SUBSTANCE ABUSE ACTION COUNCIL,FIRE DEPARTMENT,11 BROADWAY,NORTH HAVEN,CT,06473,"http://maps.google.com/maps?q=11 BROADWAY,+NORTH HAVEN,+CT+06473&hl=en"
NORTH KINGSTOWN POLICE DEPARTMENT,NORTH KINGSTOWN POLICE DEPARTMENT HQ,8166 POST ROAD,NORTH KINGSTOWN,RI,02852,"http://maps.google.com/maps?q=8166 POST ROAD,+NORTH KINGSTOWN,+RI+02852&hl=en"
NORTH PROVIDENCE POLICE DEPARTMENT,NORTH PROVIDENCE POLICE DEPARTMENT LIEUTENANT MICHAEL TAVAROZZI,1967 MINERAL SPRING AVENUE,NORTH PROVIDENCE,RI,02904,"http://maps.google.com/maps?q=1967 MINERAL SPRING AVENUE,+NORTH PROVIDENCE,+RI+02904&hl=en"
NORTH SHORE HEALTH LIJ HUNTINGTON HOSPITAL,NORTH SHORE HEALTH LIJ HUNTINGTON LOBBY,270 PARK AVENUE,HUNTINGTON,NY,11743,"http://maps.google.com/maps?q=270 PARK AVENUE,+HUNTINGTON,+NY+11743&hl=en"
NORTH SHORE UNIVERSITY HOSPITAL,NORTH SHORE UNIVERSITY HOSPITAL,300 COMMUNITY DRIVE,MANHASSET,NY,11030,"http://maps.google.com/maps?q=300 COMMUNITY DRIVE,+MANHASSET,+NY+11030&hl=en"
NORTHAMPTON POLICE DEPARTMENT,JOHN F KENNEDY MIDDLE SCHOOL,100 BRIDGE RD,FLORENCE,MA,01062,"http://maps.google.com/maps?q=100 BRIDGE RD,+FLORENCE,+MA+01062&hl=en"
NORTHBOROUGH POLICE DEPARTMENT,NORTHBOROUGH POLICE DEPARTMENT,211 MAIN STREET,NORTHBOROUGH,MA,01532,"http://maps.google.com/maps?q=211 MAIN STREET,+NORTHBOROUGH,+MA+01532&hl=en"
NORTHBOROUGH POLICE DEPARTMENT,WEGMAN'S,9102 SHOPS WAY,NORTHBOROUGH,MA,01532,"http://maps.google.com/maps?q=9102 SHOPS WAY,+NORTHBOROUGH,+MA+01532&hl=en"
NORTHBRIDGE POLICE DEPARTMENT,NORTHBRIDGE POLICE DEPARTMENT,1 HOPE STREET,WHITINSVILLE,MA,01588,"http://maps.google.com/maps?q=1 HOPE STREET,+WHITINSVILLE,+MA+01588&hl=en"
NORTHPORT VA POLICE DEPARTMENT,NORTHPORT VA POLICE DEPARTMENT,79 MIDDLEVILLE ROAD,NORTHPORT,NY,11768,"http://maps.google.com/maps?q=79 MIDDLEVILLE ROAD,+NORTHPORT,+NY+11768&hl=en"
NORTHVALE POLICE DEPARTMENT,NORTHVALE POLICE DEPARTMENT 201-768-5900,116 PARIS AVE.,NORTHVALE,NJ,07647,"http://maps.google.com/maps?q=116 PARIS AVE.,+NORTHVALE,+NJ+07647&hl=en"
NORTHWELL SOUTHSIDE HOSPITAL,NORTHWELL SOUTHSIDE HOSPITAL,301 EAST MAIN STREET,BAY SHORE,NY,11706,"http://maps.google.com/maps?q=301 EAST MAIN STREET,+BAY SHORE,+NY+11706&hl=en"
NORTON POLICE DEPARTMENT,NORTON POLICE DEPARTMENT,82 EAST MAIN STREET,NORTON,MA,02766,"http://maps.google.com/maps?q=82 EAST MAIN STREET,+NORTON,+MA+02766&hl=en"
NORWICH POLICE DEPARTMENT,NORWICH PD,70 THAMES STREET,NORWICH,CT,06360,"http://maps.google.com/maps?q=70 THAMES STREET,+NORWICH,+CT+06360&hl=en"
NORWOOD POLICE,NORWOOD POLICE DEPARTMENT,137 NAHATAN STREET,NORWOOD,MA,02062,"http://maps.google.com/maps?q=137 NAHATAN STREET,+NORWOOD,+MA+02062&hl=en"
NORWOOD POLICE DEPT.,NORWOOD BOROUGH COMMUNITY CENTER,453 BROADWAY,NORWOOD,NJ,07648,"http://maps.google.com/maps?q=453 BROADWAY,+NORWOOD,+NJ+07648&hl=en"
ORANGE POLICE DEPARTMENT,CVS,279 BOSTON POST ROAD,ORANGE,CT,06477,"http://maps.google.com/maps?q=279 BOSTON POST ROAD,+ORANGE,+CT+06477&hl=en"
OSSIPEE POLICE DEPARTMENT,TROY POLICE DEPARTMENT,14 CENTRAL SQUARE,TROY,NH,03465,"http://maps.google.com/maps?q=14 CENTRAL SQUARE,+TROY,+NH+03465&hl=en"
OXFORD RESIDENT STATE TROOPER,OXFORD RESIDENT TROOPER'S OFFICE,429 OXFORD ROAD,OXFORD,CT,06478,"http://maps.google.com/maps?q=429 OXFORD ROAD,+OXFORD,+CT+06478&hl=en"
OYSTER BAY POLICE DEPARTMENT,ST JOHNS EPISCOPAL CHURCH CHURCH BEHIND FISH HATCHERY,1670 NORTH HEMPSTEAD TURNPIKE,SYOSSET,NY,11791,"http://maps.google.com/maps?q=1670 NORTH HEMPSTEAD TURNPIKE,+SYOSSET,+NY+11791&hl=en"
PD GRANBY CT,GRANBY POLICE DEPARTMENT,15 NORTH GRANBY ROAD,GRANBY,CT,06035,"http://maps.google.com/maps?q=15 NORTH GRANBY ROAD,+GRANBY,+CT+06035&hl=en"
PECONIC BAY MEDICAL CENTER,PECONIC BAY MEDICAL CENTER BRENDAN VAN SLYKE,1300 ROANOKE AVENUE,RIVERHEAD,NY,11901,"http://maps.google.com/maps?q=1300 ROANOKE AVENUE,+RIVERHEAD,+NY+11901&hl=en"
PELHAM POLICE DEPARTMENT,PELHAM POLICE DEPARTMENT,2 SOUTH VALLEY RD,PELHAM,MA,01002,"http://maps.google.com/maps?q=2 SOUTH VALLEY RD,+PELHAM,+MA+01002&hl=en"
PETERBOROUGH POLICE DEPARTMENT,PETERBOROUGH POLICE DEPARTMENT,73 GROVE ST,PETERBOROUGH,NH,03458,"http://maps.google.com/maps?q=73 GROVE ST,+PETERBOROUGH,+NH+03458&hl=en"
PITTSFIELD POLICE DEPARTMENT,PITTSFIELD POLICE DEPARTMENT LT. JOHN SOULES,39 ALLEN STREET,PITTSFIELD,MA,01201,"http://maps.google.com/maps?q=39 ALLEN STREET,+PITTSFIELD,+MA+01201&hl=en"
PLAINVILLE POLICE DEPARTMENT,PLAINVILLE POLICE DEPARTMENT JAMES FLOYD,157 SOUTH STREET,PLAINVILLE,MA,02762,"http://maps.google.com/maps?q=157 SOUTH STREET,+PLAINVILLE,+MA+02762&hl=en"
PORT WASHINGTON POLICE DEPARTMENT,PORT WASHINGTON POLICE DEPARTMENT DET THOMAS MCCARTY,500 PORT WASHINGTON BLVD,PORT WASHINGTON,NY,11050,"http://maps.google.com/maps?q=500 PORT WASHINGTON BLVD,+PORT WASHINGTON,+NY+11050&hl=en"
PORTSMOUTH POLICE,PORTSMOUTH POLICE DEPARTMENT,2270 EAST MAIN ROAD,PORTSMOUTH,RI,02871,"http://maps.google.com/maps?q=2270 EAST MAIN ROAD,+PORTSMOUTH,+RI+02871&hl=en"
PUTNAM COUNTY SHERIFF'S OFFICE,PUTNAM HOSPITAL CENTER,670 STONLEIGH AVE,CARMEL,NY,10512,"http://maps.google.com/maps?q=670 STONLEIGH AVE,+CARMEL,+NY+10512&hl=en"
PUTNAM POLICE DEPARTMENT,PUTNAM RIVERVIEW MARKETPLACE KENNEDY DR. PUTNAM,18 KENNEDY DRIVE,PUTNAM,CT,06260,"http://maps.google.com/maps?q=18 KENNEDY DRIVE,+PUTNAM,+CT+06260&hl=en"
RAYNHAM POLICE DEPARTMENT,RAYNHAM POLICE DEPT,53 ORCHARD ST.,RAYNHAM,MA,02767,"http://maps.google.com/maps?q=53 ORCHARD ST.,+RAYNHAM,+MA+02767&hl=en"
RHODE ISLAND STATE POLICE,RHODE ISLAND STATE POLICE,1565 OLD LOUISQUISSETE PIKE,LINCOLN,RI,02865,"http://maps.google.com/maps?q=1565 OLD LOUISQUISSETE PIKE,+LINCOLN,+RI+02865&hl=en"
RHODE ISLAND STATE POLICE,RHODE ISLAND STATE POLICE,311 DANIELSON PIKE,NORTH SCITUATE,RI,02857,"http://maps.google.com/maps?q=311 DANIELSON PIKE,+NORTH SCITUATE,+RI+02857&hl=en"
RHODE ISLAND STATE POLICE,RHODE ISLAND STATE POLICE,7875 POST ROAD,NORTH KINGSTOWN,RI,02852,"http://maps.google.com/maps?q=7875 POST ROAD,+NORTH KINGSTOWN,+RI+02852&hl=en"
RHODE ISLAND STATE POLICE,RHODE ISLAND STATE POLICE,838 EAST MAIN ROAD,PORTSMOUTH,RI,02871,"http://maps.google.com/maps?q=838 EAST MAIN ROAD,+PORTSMOUTH,+RI+02871&hl=en"
RICHMOND POLICE DEPARTMENT,RICHMOND POLICE DEPARTMENT,1168 MAIN ST,WYOMING,RI,02898,"http://maps.google.com/maps?q=1168 MAIN ST,+WYOMING,+RI+02898&hl=en"
RIDGEFIELD POLICE DEPARTMENT,RITE-AID,125 DANBURY RD,RIDGEFIELD,CT,06877,"http://maps.google.com/maps?q=125 DANBURY RD,+RIDGEFIELD,+CT+06877&hl=en"
RINDGE POLICE DEPARTMENT,RINDGE POLICE DEPARTMENT DANIEL ANAIR,158 MAIN STPO BOX 7,RINDGE,NH,03461,"http://maps.google.com/maps?q=158 MAIN ST,+RINDGE,+NH+03461&hl=en"
ROCKLAND COUNTY SHERIFFS OFFICE,ROCKLAND COUNTY SHERIFF OFFICE WALGREENS PARKING LOT,16 ROUTE 59,NYACK,NY,10960,"http://maps.google.com/maps?q=16 ROUTE 59,+NYACK,+NY+10960&hl=en"
ROCKY HILL POLICE DEPARTMENT,ROCKY HILL POLICE DEPARTMENT STEVE MORGAN,699 OLD MAIN STREET,ROCKY HILL,CT,06067,"http://maps.google.com/maps?q=699 OLD MAIN STREET,+ROCKY HILL,+CT+06067&hl=en"
SANDS POINT POLICE DEPARTMENT,SANDS POINT POLICE DEPARTMENT,26 TIBBITS LANE,PORT WASHINGTON,NY,11050,"http://maps.google.com/maps?q=26 TIBBITS LANE,+PORT WASHINGTON,+NY+11050&hl=en"
SETAUKET FIRE HOUSE,SETAUKET FIRE HOUSE DAVE STONE,394 NICOLLS ROAD,EAST SETAUKET,NY,11733,"http://maps.google.com/maps?q=394 NICOLLS ROAD,+EAST SETAUKET,+NY+11733&hl=en"
SHARON POLICE DEPARTMENT,SHARON PUBLIC SAFETY BUILDING SHARON POLICE DEPARTMENT MAIN ENTRANCE,213SOUTH MAIN STREET,SHARON,MA,02067,"http://maps.google.com/maps?q=213,+SHARON,+MA+02067&hl=en"
SHERMAN RESIDENT TROOPER OFFICE,SHERMAN RESIDENT TROOPERS OFFICE,1 RT 39 N,SHERMAN,CT,06784,"http://maps.google.com/maps?q=1 RT 39 N,+SHERMAN,+CT+06784&hl=en"
SMITHFIELD POLICE DEPARTMENT,SMITHFIELD POLICE DEPARTMENT,215 PLEASANT VIEW AVE,SMITHFIELD,RI,02917,"http://maps.google.com/maps?q=215 PLEASANT VIEW AVE,+SMITHFIELD,+RI+02917&hl=en"
SOMERSET POLICE DEPARTMENT,CVS PHARMACY,1587 BRAYTON POINT ROAD,SOMERSET,MA,02726,"http://maps.google.com/maps?q=1587 BRAYTON POINT ROAD,+SOMERSET,+MA+02726&hl=en"
SOUTH WINDSOR POLICE DEPARTMENT,SOUTH WINDSOR POLICE DEPARTMENT,151 SAND HILL RD,SOUTH WINDSOR,CT,06074,"http://maps.google.com/maps?q=151 SAND HILL RD,+SOUTH WINDSOR,+CT+06074&hl=en"
SOUTHAMPTON POLICE DEPARTMENT,SOUTHAMPTON FIRE/TOWN HALL PARKING LOT IF RAIN-INSIDE TOWN HALL,210 COLLEGE HIGHWAY,SOUTHAMPTON,MA,01073,"http://maps.google.com/maps?q=210 COLLEGE HIGHWAY,+SOUTHAMPTON,+MA+01073&hl=en"
SOUTHBRIDGE POLICE DEPARTMENT,SOUTHBRIDGE POLICE DEPARTMENT,1 MECHANIC STREET,SOUTHBRIDGE,MA,01550,"http://maps.google.com/maps?q=1 MECHANIC STREET,+SOUTHBRIDGE,+MA+01550&hl=en"
SOUTHBURY POLICE,"SOUTHBURY POLICE DEPARTMENT SGT. BRIAN VAN NESS, #138",421 MAIN STREET SOUTH,SOUTHBURY,CT,06488,"http://maps.google.com/maps?q=421 MAIN STREET SOUTH,+SOUTHBURY,+CT+06488&hl=en"
SOUTHHAMPTON TOWN POLICE DEPARTMENT,BRIDGEHAMPTON COMMONS,2044 MONTAUK HWY,BRIDGEHAMPTON,NY,11932,"http://maps.google.com/maps?q=2044 MONTAUK HWY,+BRIDGEHAMPTON,+NY+11932&hl=en"
SOUTHHAMPTON TOWN POLICE DEPARTMENT,FLANDERS COMMUNITY CENTER,655 FLANDERS ROAD,RIVERHEAD,NY,11901,"http://maps.google.com/maps?q=655 FLANDERS ROAD,+RIVERHEAD,+NY+11901&hl=en"
SOUTHHAMPTON TOWN POLICE DEPARTMENT,HAMPTON BAYS COMMUNITY CENTER,25 PONQUOGUE AVENUE,HAMPTON BAYS,NY,11946,"http://maps.google.com/maps?q=25 PONQUOGUE AVENUE,+HAMPTON BAYS,+NY+11946&hl=en"
SPENCER POLICE DEPARTMENT,CVS PHARMACY SGT MICHAEL BEFFORD,133 MAIN STREET,SPENCER,MA,01562,"http://maps.google.com/maps?q=133 MAIN STREET,+SPENCER,+MA+01562&hl=en"
SPRING VALLEY POLICE,SPRING VALLEY POLICE DEPARTMENT,200 NORTH MAIN STREET,SPRING VALLEY,NY,10977,"http://maps.google.com/maps?q=200 NORTH MAIN STREET,+SPRING VALLEY,+NY+10977&hl=en"
SPRING VALLEY POLICE,WALGREENS,208 E ROUTE 59,SPRING VALLEY,NY,10977,"http://maps.google.com/maps?q=208 E ROUTE 59,+SPRING VALLEY,+NY+10977&hl=en"
SPRINGFIELD POLICE DEPARTMENT,CENTRAL HIGH SCHOOL,1840 ROOSEVELT AVE,SPRINGFIELD,MA,01109,"http://maps.google.com/maps?q=1840 ROOSEVELT AVE,+SPRINGFIELD,+MA+01109&hl=en"
STAMFORD POLICE DEPARTMENT,STAMFORD POLICE DEPARTMENT,805 BEDFORD STREET,STAMFORD,CT,06901,"http://maps.google.com/maps?q=805 BEDFORD STREET,+STAMFORD,+CT+06901&hl=en"
STATE POLICE TROOP L,TROOP L RESIDENT TROOPERS OFFICE,452 BANTAM RD,LITCHFIELD,CT,06759,"http://maps.google.com/maps?q=452 BANTAM RD,+LITCHFIELD,+CT+06759&hl=en"
STONINGTON POLICE DEPARTMENT,STONINGTON POLICE DEPARTMENT,173 SOUTH BROAD STREET,PAWCATUCK,CT,06379,"http://maps.google.com/maps?q=173 SOUTH BROAD STREET,+PAWCATUCK,+CT+06379&hl=en"
STONY POINT POLICE DEPARTMENT,WALGREENS,135 SOUTH LIBERTY DRIVE,STONY POINT,NY,10980,"http://maps.google.com/maps?q=135 SOUTH LIBERTY DRIVE,+STONY POINT,+NY+10980&hl=en"
SUDBURY POLICE DEPARTMENT,SUDBURY POLICE DEPARTMENT REAR PARKING AREA,75 HUDSON RD.,SUDBURY,MA,01776,"http://maps.google.com/maps?q=75 HUDSON RD.,+SUDBURY,+MA+01776&hl=en"
SUNDERLAND POLICE DEPARTMENT,SUNDERLAND POLICE DEPARTMENT,105 RIVER ROAD,SUNDERLAND,MA,01375,"http://maps.google.com/maps?q=105 RIVER ROAD,+SUNDERLAND,+MA+01375&hl=en"
SUNY OLD WESTBURY,SUNY OLD WESTBURY CAMPUS POLICE STATION,223 STOREHILL ROAD,OLD WESTBURY,NY,11568,"http://maps.google.com/maps?q=223 STOREHILL ROAD,+OLD WESTBURY,+NY+11568&hl=en"
TAUNTON POLICE DEPT.,TAUNTON POLICE DEPT MAIN LOBBY,23 SUMMER STREET,TAUNTON,MA,02780,"http://maps.google.com/maps?q=23 SUMMER STREET,+TAUNTON,+MA+02780&hl=en"
THOMASTON POLICE DEPARTMENT,THOMASTON POLICE DEPARTMENT,158 MAIN ST,THOMASTON,CT,06787,"http://maps.google.com/maps?q=158 MAIN ST,+THOMASTON,+CT+06787&hl=en"
TIVERTON POLICE DEPARTMENT,TIVERTON POLICE DEPARTMENT,20 INDUSTRIAL WAY,TIVERTON,RI,02878,"http://maps.google.com/maps?q=20 INDUSTRIAL WAY,+TIVERTON,+RI+02878&hl=en"
TOWN OF COLCHESTER POLICE DEPT.,COLCHESTER POLICE DEPARTMENT,127 NORWICH AVE.,COLCHESTER,CT,06415,"http://maps.google.com/maps?q=127 NORWICH AVE.,+COLCHESTER,+CT+06415&hl=en"
"TOWN OF SOUTH HADLEY, POLICE DEPARTMENT","TOWN OF SOUTH HADLEY, POLICE DEPARTMENT CHIEF STEVE PARENTELA",41 BRIDGE STREET,SOUTH HADLEY,MA,01075,"http://maps.google.com/maps?q=41 BRIDGE STREET,+SOUTH HADLEY,+MA+01075&hl=en"
TOWN OF WEST WARWICK POLICE DEPARTMENT,WEST WARWICK POLICE DEPARTMENT HEADQUARTERS,1162 MAIN STREET,WEST WARWICK,RI,02893,"http://maps.google.com/maps?q=1162 MAIN STREET,+WEST WARWICK,+RI+02893&hl=en"
TOWN OF WEST WARWICK POLICE DEPARTMENT,WEST WARWICK YOUTH CENTER,40 FACTORY STREET,WEST WARWICK,RI,02893,"http://maps.google.com/maps?q=40 FACTORY STREET,+WEST WARWICK,+RI+02893&hl=en"
TOWNSEND MA POLICE,TOWNSEND POLICE DEPARTMENT,70 BROOKLINE STREET,TOWNSEND,MA,01469,"http://maps.google.com/maps?q=70 BROOKLINE STREET,+TOWNSEND,+MA+01469&hl=en"
TROOP B,TROOP-B,463 ASHLEY FALLS RD,NORTH CANAAN,CT,06018,"http://maps.google.com/maps?q=463 ASHLEY FALLS RD,+NORTH CANAAN,+CT+06018&hl=en"
TROOP E,.TROOP E RESIDENT TROOPERS OFFICE,1111 COUNTRY CLUB RD,MIDDLETOWN,CT,06457,"http://maps.google.com/maps?q=1111 COUNTRY CLUB RD,+MIDDLETOWN,+CT+06457&hl=en"
TROOP E LISBON RESIDENT TROOPER,LISBON RESIDENT TROOPER'S OFFICE,7 NEWENT RD. LISBON,JEWETT CITY,CT,06351,"http://maps.google.com/maps?q=7 NEWENT RD. LISBON,+JEWETT CITY,+CT+06351&hl=en"
TROOP K,TROOP K RESIDENT TROOPERS OFFICE,15A OLD HARTFORD ROAD,COLCHESTER,CT,06415,"http://maps.google.com/maps?q=15A OLD HARTFORD ROAD,+COLCHESTER,+CT+06415&hl=en"
TRUMBULL POLICE DEPARTMENT,MIDDLEBROOK SCHOOL,200 MIDDLEBROOKS AVE.,TRUMBULL,CT,06611,"http://maps.google.com/maps?q=200 MIDDLEBROOKS AVE.,+TRUMBULL,+CT+06611&hl=en"
VERNON POLICE DEPARTMENT,WALGREENS,188 UNION ST,VERNON ROCKVILLE,CT,06066,"http://maps.google.com/maps?q=188 UNION ST,+VERNON ROCKVILLE,+CT+06066&hl=en"
VILLAGE OF DOBBS FERRY POLICE DEPARTMENT,VILLAGE OF DOBBS FERRY,112 MAIN STREET,DOBBS FERRY,NY,10522,"http://maps.google.com/maps?q=112 MAIN STREET,+DOBBS FERRY,+NY+10522&hl=en"
VILLAGE OF HASTINGS ON HUDSON PD,HASTINGS POLICE DEPARTMENT,7 MAPLE AVENUE,HASTINGS ON HUDSON,NY,10706,"http://maps.google.com/maps?q=7 MAPLE AVENUE,+HASTINGS ON HUDSON,+NY+10706&hl=en"
VILLAGE OF HASTINGS ON HUDSON PD,VILLAGE OF HASTINGS ON HUDSON PD,44 MAIN STREET,HASTINGS ON HUDSON,NY,10706,"http://maps.google.com/maps?q=44 MAIN STREET,+HASTINGS ON HUDSON,+NY+10706&hl=en"
VILLAGE OF OSSINING POLICE DEPARTMENT,BIRDSALL FAGAN POLICE/COURT FACILITY COURT LOBBY,86-88 SPRING STREET,OSSINING,NY,10562,"http://maps.google.com/maps?q=86-88 SPRING STREET,+OSSINING,+NY+10562&hl=en"
WARWICK POLICE DEPARTMENT,WARWICK POLICE DEPARTMENT,99 VETERANS MEMORIAL DRIVE,WARWICK,RI,02886,"http://maps.google.com/maps?q=99 VETERANS MEMORIAL DRIVE,+WARWICK,+RI+02886&hl=en"
WATERBURY POLICE DEPARTMENT,WATERBURY POLICE DEPARTMENT FRONT LOBBY SAFE DISPOSAL,255 EAST MAIN ST,WATERBURY,CT,06702,"http://maps.google.com/maps?q=255 EAST MAIN ST,+WATERBURY,+CT+06702&hl=en"
WAYLAND P.D.,WAYLAND P.D.,38 COCHITUATE ROAD,WAYLAND,MA,01778,"http://maps.google.com/maps?q=38 COCHITUATE ROAD,+WAYLAND,+MA+01778&hl=en"
WELLESLEY POLICE DEPARTMENT,WELLESLEY POLICE DEPARTMENT,485 WASHINGTON STREET,WELLESLEY,MA,02482,"http://maps.google.com/maps?q=485 WASHINGTON STREET,+WELLESLEY,+MA+02482&hl=en"
WEST HAMPTON BEACH POLICE DEPARTMENT,WEST HAMPTON BEACH POLICE DEPARTMENT,165 MILL ROAD,WESTHAMPTON BEACH,NY,11978,"http://maps.google.com/maps?q=165 MILL ROAD,+WESTHAMPTON BEACH,+NY+11978&hl=en"
WEST HARTFORD POLICE DEPARTMENT,WETS HARTFORD PUBLIC WORKS LT SAM FERRUCCI,17 BRIXTON ST,WEST HARTFORD,CT,06107,"http://maps.google.com/maps?q=17 BRIXTON ST,+WEST HARTFORD,+CT+06107&hl=en"
WEST SPRINGFIELD POLICE DEPARTMENT,WEST SPRINGFIELD POLICE DEPARTMENT,26 CENTRAL STREET,WEST SPRINGFIELD,MA,01089,"http://maps.google.com/maps?q=26 CENTRAL STREET,+WEST SPRINGFIELD,+MA+01089&hl=en"
WESTCHESTER COUNTY POLICE,NORTHERN WESTCHESTER HOSPITAL MAIN LOBBY,400 MAIN ST.,MOUNT KISCO,NY,10549,"http://maps.google.com/maps?q=400 MAIN ST.,+MOUNT KISCO,+NY+10549&hl=en"
WESTMINSTER POLICE DEPARTMENT,WESTMINSTER POLICE DEPARTMENT,7 SOUTH STREET,WESTMINSTER,MA,01473,"http://maps.google.com/maps?q=7 SOUTH STREET,+WESTMINSTER,+MA+01473&hl=en"
WESTPORT POLICE DEPARTMENT,WESTPORT POLICE DEPARTMENT SUB STATION,596 C STATE ROAD,WESTPORT,MA,02790,"http://maps.google.com/maps?q=596 C STATE ROAD,+WESTPORT,+MA+02790&hl=en"
WESTWOOD POLICE DEPARTMENT,WEGMAN'S,169 UNIVERSITY AVE.,WESTWOOD,MA,02090,"http://maps.google.com/maps?q=169 UNIVERSITY AVE.,+WESTWOOD,+MA+02090&hl=en"
WESTWOOD POLICE DEPARTMENT,WESTWOOD POLICE DEPARTMENT,588 HIGH STREET,WESTWOOD,MA,02090,"http://maps.google.com/maps?q=588 HIGH STREET,+WESTWOOD,+MA+02090&hl=en"
WETHERSFIELD POLICE DEPARTMENT,WETHERSFIELD POLICE DEPARTMENT,250 SILAS DEANE HWY.,WETHERSFIELD,CT,06109,"http://maps.google.com/maps?q=250 SILAS DEANE HWY.,+WETHERSFIELD,+CT+06109&hl=en"
WILLIAMSBURG POLICE DEPT.,WILLIAMSBURG PHARMACY,49 MAIN ST,WILLIAMSBURG,MA,01096,"http://maps.google.com/maps?q=49 MAIN ST,+WILLIAMSBURG,+MA+01096&hl=en"
WILLIMANTIC POLICE DEPARTMENT,JILSON SQUARE,533 MAIN ST,WILLIMANTIC,CT,06226,"http://maps.google.com/maps?q=533 MAIN ST,+WILLIMANTIC,+CT+06226&hl=en"
WINCHESTER POLICE DEPARTMENT,WINCHESTER POLICE DEPARTMENT LT. MIKE T. TOLLETT,6 PARKER STREET,WINCHESTER,NH,03470,"http://maps.google.com/maps?q=6 PARKER STREET,+WINCHESTER,+NH+03470&hl=en"
WINDHAM COUNTY SHERIFF'S OFFICE,BRATTLEBORO POLICE DEPARTMENT,62 BLACK MOUNTAIN ROAD,BRATTLEBORO,VT,05301,"http://maps.google.com/maps?q=62 BLACK MOUNTAIN ROAD,+BRATTLEBORO,+VT+05301&hl=en"
WOLCOTT CT. POLICE DEPT.,WOLCOTT POLICE DEPT.,225 NICHOLS RD,WOLCOTT,CT,06716,"http://maps.google.com/maps?q=225 NICHOLS RD,+WOLCOTT,+CT+06716&hl=en"
WOODBURY RESIDENT TROOPERS OFFICE,WOODBURY RESIDENT TROOPER'S OFFICE,281 MAIN STREET SOUTH,WOODBURY,CT,06798,"http://maps.google.com/maps?q=281 MAIN STREET SOUTH,+WOODBURY,+CT+06798&hl=en"
WOONSOCKET POLICE DEPARTMENT,CVS PHARMACY/WOONSOCKET PD DET. SGT. MARC CARDIN,1054 CASS AVE.,WOONSOCKET,RI,02895,"http://maps.google.com/maps?q=1054 CASS AVE.,+WOONSOCKET,+RI+02895&hl=en"
WOONSOCKET POLICE DEPARTMENT,WOONSOCKET POLICE DEPARTMENT DET. SGT. MARC CARDIN,242 CLINTON ST.,WOONSOCKET,RI,02895,"http://maps.google.com/maps?q=242 CLINTON ST.,+WOONSOCKET,+RI+02895&hl=en"
WORTHINGTON POLICE DEPARTMENT,COMPACTOR,64 HUNTINGTON ROAD,WORTHINGTON,MA,01098,"http://maps.google.com/maps?q=64 HUNTINGTON ROAD,+WORTHINGTON,+MA+01098&hl=en"
