Participant,CollectionSite,Address,City,State,Zip,MapURL
ANTIGO POLICE DEPARTMENT,ANTIGO POLICE DEPARTMENT EVENT 8:00 AM TO 4:00 PM,840 CLERMONT ST,ANTIGO,WI,54409,"http://maps.google.com/maps?q=840 CLERMONT ST,+ANTIGO,+WI+54409&hl=en"
BARAGA COUNTY SHERIFF'S OFFICE,BARAGA COUNTY SHERIFF'S OFFICE,940 HIGHWAY US 41,LANSE,MI,49946,"http://maps.google.com/maps?q=940 HIGHWAY US 41,+LANSE,+MI+49946&hl=en"
BOYCEVILLE POLICE DEPARTMENT,BOYCEVILLE VILLAGE HALL EVENT 10:00AM-2:00PM,1233 CHARLOTTE STREET,BOYCEVILLE,WI,54725,"http://maps.google.com/maps?q=1233 CHARLOTTE STREET,+BOYCEVILLE,+WI+54725&hl=en"
CHOCOLAY POLICE DEPARTMENT,CHOCOLAY POLICE DEPARTMENT,5010 US 41 SOUTH,MARQUETTE,MI,49855,"http://maps.google.com/maps?q=5010 US 41 SOUTH,+MARQUETTE,+MI+49855&hl=en"
CITY OF HAYWARD POLICE DEPARTMENT,CLERK'S OFFICE EVENT 9:00AM-12:00PM,15889W THIRD STREET,HAYWARD,WI,54843,"http://maps.google.com/maps?q=15889W THIRD STREET,+HAYWARD,+WI+54843&hl=en"
CLEAR LAKE POLICE DEPARTMENT,CLEAR LAKE VILLAGE HALL EVENT 10:00AM-1:00PM,350 4TH AVE,CLEAR LAKE,WI,54005,"http://maps.google.com/maps?q=350 4TH AVE,+CLEAR LAKE,+WI+54005&hl=en"
COLBY-ABBOTSFORD POLICE DEPARTMENT,COLBY-ABBOTSFORD POLICE DEPARTMENT EVENT 8:00AM-1:00PM,112 W SPRUCE STREET,ABBOTSFORD,WI,54405,"http://maps.google.com/maps?q=112 W SPRUCE STREET,+ABBOTSFORD,+WI+54405&hl=en"
COOK COUNTY SO,COOK COUNTY SHERIFF'S OFFICE,143 GUNFLINT TRAIL,GRAND MARAIS,MN,55604,"http://maps.google.com/maps?q=143 GUNFLINT TRAIL,+GRAND MARAIS,+MN+55604&hl=en"
COOK COUNTY SO,GRAND PORTAGE HEALTH SERVICES,62 UPPER ROAD,GRAND PORTAGE,MN,55605,"http://maps.google.com/maps?q=62 UPPER ROAD,+GRAND PORTAGE,+MN+55605&hl=en"
EDGAR POLICE DEPARTMENT,EDGAR POLICE DEPARTMENT EVENT 11:00AM-2:00PM,224 S. THIRD AVE,EDGAR,WI,54426,"http://maps.google.com/maps?q=224 S. THIRD AVE,+EDGAR,+WI+54426&hl=en"
ESCANABA DEPARTMENT OF PUBLIC SAFETY,ESCANABA DEPARTMENT OF PUBLIC SAFETY,1900 THIRD AVENUE N,ESCANABA,MI,49829,"http://maps.google.com/maps?q=1900 THIRD AVENUE N,+ESCANABA,+MI+49829&hl=en"
FLORENCE COUNTY SHERIFF'S OFFICE,FLORENCE COUNTY SHERIFF'S OFFICE EVENT 10:00AM-12:00PM,501 LAKE AVE,FLORENCE,WI,54121,"http://maps.google.com/maps?q=501 LAKE AVE,+FLORENCE,+WI+54121&hl=en"
FORSYTH TOWNSHIP POLICE DEPARTMENT,FORSYTH TOWNSHIP POLICE DEPARTMENT,99 NORTH PINE STREET,GWINN,MI,49841,"http://maps.google.com/maps?q=99 NORTH PINE STREET,+GWINN,+MI+49841&hl=en"
HANNAHVILLE TRIBAL POLICE DEPARTMENT,HANNAHVILLE TRIBAL POLICE DEPARTMENT LOCATED BEHIND THE ISLAND RESORT AND CASINO,W399 U.S. 2 & 41,HARRIS,MI,49845,"http://maps.google.com/maps?q=W399 U.S. 2 & 41,+HARRIS,+MI+49845&hl=en"
ISHPEMING CITY POLICE DEPARTMENT,ISHPEMING CITY POLICE DEPARTMENT,100 S. LAKE ST,ISHPEMING,MI,49849,"http://maps.google.com/maps?q=100 S. LAKE ST,+ISHPEMING,+MI+49849&hl=en"
KEWEENAW BAY TRIBAL POLICE,KEWEENAW BAY TRIBAL POLICE DEPT.,15817 US 41,BARAGA,MI,49908,"http://maps.google.com/maps?q=15817 US 41,+BARAGA,+MI+49908&hl=en"
LAC COURTE OREILLES TRIBAL POLICE DEPARTMENT,LAC COURTE OREILLES TRIBAL POLICE DEPARTMENT EVENT 10:00AM-2:00PM,9792 N COUNTY HIGHWAY K,HAYWARD,WI,54843,"http://maps.google.com/maps?q=9792 N COUNTY HIGHWAY K,+HAYWARD,+WI+54843&hl=en"
LAC DU FLAMBEU TRIBAL POLICE DEPARTMENT,LAC DU FLAMBEAU TRIBAL POLICE DEPARTMENT EVENT 10:00 AM - 2:00 PM,623 PEACE PIPE RD,LAC DU FLAMBEAU,WI,54538,"http://maps.google.com/maps?q=623 PEACE PIPE RD,+LAC DU FLAMBEAU,+WI+54538&hl=en"
LAC VIEUX DESERT TRIBAL POLICE DEPARTMENT,LAC VIEUX DESERT TRIBAL POLICE DEPARTMENT,E23924 POW WOW TRAIL,WATERSMEET,MI,49969,"http://maps.google.com/maps?q=E23924 POW WOW TRAIL,+WATERSMEET,+MI+49969&hl=en"
MARQUETTE POLICE DEPARTMENT,MARQUETTE POLICE DEPARTMENT,300 W BARAGA,MARQUETTE,MI,49855,"http://maps.google.com/maps?q=300 W BARAGA,+MARQUETTE,+MI+49855&hl=en"
MARSHFIELD POLICE DEPARTMENT,SHOPKO EVENT 10:00 AM - 2:00 PM,1306 N CENTRAL AVE,MARSHFIELD,WI,54449,"http://maps.google.com/maps?q=1306 N CENTRAL AVE,+MARSHFIELD,+WI+54449&hl=en"
MICHIGAN STATE POLICE,MICHIGAN STATE POLICE CALUMET POST,55195 NORTH U.S. HIGHWAY 41,CALUMET,MI,49913,"http://maps.google.com/maps?q=55195 NORTH U.S. HIGHWAY 41,+CALUMET,+MI+49913&hl=en"
MICHIGAN STATE POLICE,MICHIGAN STATE POLICE GLADSTONE POST,922 LAKE SHORE DRIVE,GLADSTONE,MI,49837,"http://maps.google.com/maps?q=922 LAKE SHORE DRIVE,+GLADSTONE,+MI+49837&hl=en"
MICHIGAN STATE POLICE,MICHIGAN STATE POLICE IRON MOUNTAIN POST,1916 NORTH STEPHENSON,IRON MOUNTAIN,MI,49801,"http://maps.google.com/maps?q=1916 NORTH STEPHENSON,+IRON MOUNTAIN,+MI+49801&hl=en"
MICHIGAN STATE POLICE,MICHIGAN STATE POLICE NEGAUNEE POST,180 U.S. 41 EAST,NEGAUNEE,MI,49866,"http://maps.google.com/maps?q=180 U.S. 41 EAST,+NEGAUNEE,+MI+49866&hl=en"
MICHIGAN STATE POLICE,MICHIGAN STATE POLICE WAKEFIELD POST,100 SUNDAY LAKE STREET,WAKEFIELD,MI,49968,"http://maps.google.com/maps?q=100 SUNDAY LAKE STREET,+WAKEFIELD,+MI+49968&hl=en"
MINOCQUA POLICE DEPARTMENT,MINOCQUA POLICE DEPARTMENT EVENT 10:00 AM TO 2:00 PM,418 E CHICAGO AVE,MINOCQUA,WI,54548,"http://maps.google.com/maps?q=418 E CHICAGO AVE,+MINOCQUA,+WI+54548&hl=en"
MOSINEE POLICE DEPARTMENT,MOSINEE POLICE DEPARTMENT EVENT 9:00AM-12:00PM,225 MAIN STREET,MOSINEE,WI,54455,"http://maps.google.com/maps?q=225 MAIN STREET,+MOSINEE,+WI+54455&hl=en"
NETT LAKE PD,BOIS FORTE TRIBAL GOVERNMENT VERMILION,1610 FARM ROAD SOUTH,TOWER,MN,55790,"http://maps.google.com/maps?q=1610 FARM ROAD SOUTH,+TOWER,+MN+55790&hl=en"
ONEIDA COUNTY SHERIFF'S OFFICE,ONEIDA COUNTY SHERIFF'S OFFICE EVENT 10:00AM-2:00PM,7450 COUNTY HIGHWAY K,RHINELANDER,WI,54501,"http://maps.google.com/maps?q=7450 COUNTY HIGHWAY K,+RHINELANDER,+WI+54501&hl=en"
ONTONAGON COUNTY SHERIFF OFFICE,ONTONAGON COUNTY SHERIFF OFFICE,620 CONGLOMERATE STREET,ONTONAGON,MI,49953,"http://maps.google.com/maps?q=620 CONGLOMERATE STREET,+ONTONAGON,+MI+49953&hl=en"
PRICE COUNTY SHERIFF'S OFFICE,NTC-PHILLIPS CAMPUS EVENT 10:00AM-2:00PM,1408 PINE RIDGE ROAD,PHILLIPS,WI,54555,"http://maps.google.com/maps?q=1408 PINE RIDGE ROAD,+PHILLIPS,+WI+54555&hl=en"
PULASKI POLICE DEPARTMENT,PULASKI POLICE DEPARTMENT EVENT 9:00AM-12:00PM,585 E GLENBROOK DRIVE,PULASKI,WI,54162,"http://maps.google.com/maps?q=585 E GLENBROOK DRIVE,+PULASKI,+WI+54162&hl=en"
RHINELANDER POLICE DEPARTMENT,RHINELANDER POLICE DEPARTMENT EVENT 10:00AM-2:00PM,201 N BROWN ST,RHINELANDER,WI,54501,"http://maps.google.com/maps?q=201 N BROWN ST,+RHINELANDER,+WI+54501&hl=en"
RUSK COUNTY SHERIFF'S OFFICE,RUSK COUNTY SHERIFF'S OFFICE EVENT 10:00AM-2:00PM,311 E. MINER AVE,LADYSMITH,WI,54848,"http://maps.google.com/maps?q=311 E. MINER AVE,+LADYSMITH,+WI+54848&hl=en"
SAWYER COUNTY SHERIFF'S OFFICE,WINTER CO-OP EVENT 10:00AM-1:00PM,5159 N MAIN ST,WINTER,WI,54896,"http://maps.google.com/maps?q=5159 N MAIN ST,+WINTER,+WI+54896&hl=en"
SHAWANO COUNTY SHERIFF'S OFFICE,STOCKBRIDGE POLICE DEPARTMENT EVENT 10:00AM-2:00PM,W13455 CAMP 14 ROAD,BOWLER,WI,54416,"http://maps.google.com/maps?q=W13455 CAMP 14 ROAD,+BOWLER,+WI+54416&hl=en"
STRATFORD POLICE DEPARTMENT,STRATFORD POLICE DEPARTMENT EVENT 10:00AM-2:00PM,265 N 3RD AVE,STRATFORD,WI,54484,"http://maps.google.com/maps?q=265 N 3RD AVE,+STRATFORD,+WI+54484&hl=en"
TAYLOR COUNTY SHERIFF'S OFFICE,ASSOCIATED BANK EVENT 10:00AM-2:00PM,160 MEDFORD PLAZA,MEDFORD,WI,54451,"http://maps.google.com/maps?q=160 MEDFORD PLAZA,+MEDFORD,+WI+54451&hl=en"
THREE LAKES POLICE DEPARTMENT,THREE LAKES POLICE DEPARTMENT EVENT 10:00AM-2:00PM,1733 SUPERIOR STREET,THREE LAKES,WI,54562,"http://maps.google.com/maps?q=1733 SUPERIOR STREET,+THREE LAKES,+WI+54562&hl=en"
TIGERTON POLICE DEPARTMENT,TIGERTON POLICE DEPARTMENT EVENT 12:00PM-2:00PM,221 BIRCH STREET,TIGERTON,WI,54486,"http://maps.google.com/maps?q=221 BIRCH STREET,+TIGERTON,+WI+54486&hl=en"
WASHINGTON ISLAND POLICE DEPARTMENT,WASHINGTON ISLAND POLICE DEPARTMENT EVENT 10:00AM-12:00PM,1045 MAIN ROAD,WASHINGTON ISLAND,WI,54246,"http://maps.google.com/maps?q=1045 MAIN ROAD,+WASHINGTON ISLAND,+WI+54246&hl=en"
COLFAX POLICE DEPARTMENT,COLFAX POLICE DEPARTMENT EVENT 10:00AM-2:00PM,613 MAIN STREET,COLFAX,WI,54730,"http://maps.google.com/maps?q=613 MAIN STREET,+COLFAX,+WI+54730&hl=en"
