Participant,CollectionSite,Address,City,State,Zip,MapURL
ANTELOPE CO SHERIFF DEPT,ANTELOPE COUNTY SHERIFF DEPT,1102 L ST,NELIGH,NE,68756,"http://maps.google.com/maps?q=1102 L ST,+NELIGH,+NE+68756&hl=en"
BLAIR POLICE DEPARTMENT,BLAIR POLICE DEPARTMENT,1730 LINCOLN STREET,BLAIR,NE,68008,"http://maps.google.com/maps?q=1730 LINCOLN STREET,+BLAIR,+NE+68008&hl=en"
BROWN COUNTY SHERIFF'S OFFICE,BROWN COUNTY SHERIFF'S OFFICE,142 WEST 4TH STREET,AINSWORTH,NE,69210,"http://maps.google.com/maps?q=142 WEST 4TH STREET,+AINSWORTH,+NE+69210&hl=en"
BUFFALO COUNTY SHERIFF'S OFFICE,KEARNEY GOOD SAMARITAN HOSPITAL,10 E 31ST STREETNORTH PARKING LOT,KEARNEY,NE,68847,"http://maps.google.com/maps?q=10 E 31ST STREET,+KEARNEY,+NE+68847&hl=en"
CLAY CENTER KANSAS POLICE DEPARTMENT,CLAY COUNTY HEALTH DEPARTMENT,820 SPELLMAN CIRCLE,CLAY CENTER,KS,67432,"http://maps.google.com/maps?q=820 SPELLMAN CIRCLE,+CLAY CENTER,+KS+67432&hl=en"
CONCORDIA POLICE DEPARTMENT,CONCORDIA CITY HALL ENTER THROUGH WEST GLASS DOORS,701 WASHINGTONCONCORDIA,CONCORDIA,KS,66901,"http://maps.google.com/maps?q=701 WASHINGTON,+CONCORDIA,+KS+66901&hl=en"
DOUGLAS COUNTY SHERIFF'S DEPARTMENT,HYVEE,1000 S 178TH STREET,OMAHA,NE,68118,"http://maps.google.com/maps?q=1000 S 178TH STREET,+OMAHA,+NE+68118&hl=en"
DOUGLAS COUNTY SHERIFF'S DEPARTMENT,HYVEE,3410 N 156TH STREET,OMAHA,NE,68116,"http://maps.google.com/maps?q=3410 N 156TH STREET,+OMAHA,+NE+68116&hl=en"
DOUGLAS COUNTY SHERIFF'S DEPARTMENT,WALGREENS,13155 W CENTER RD,OMAHA,NE,68144,"http://maps.google.com/maps?q=13155 W CENTER RD,+OMAHA,+NE+68144&hl=en"
FRANKLIN COUNTY SHERIFF'S OFFICE,FRANKLIN COUNTY COURHOUSE NO BOXES,405 15TH AVE.,FRANKLIN,NE,68939,"http://maps.google.com/maps?q=405 15TH AVE.,+FRANKLIN,+NE+68939&hl=en"
FREMONT POLICE DEPARTMENT,BAKERS STORE PAKING LOT(NO BOXES),1531 NORTH BELL ST,FREMONT,NE,68025,"http://maps.google.com/maps?q=1531 NORTH BELL ST,+FREMONT,+NE+68025&hl=en"
FREMONT POLICE DEPARTMENT,FREMONT POLICE DEPARTMENT LOBBY,725 N. PARK AVE,FREMONT,NE,68025,"http://maps.google.com/maps?q=725 N. PARK AVE,+FREMONT,+NE+68025&hl=en"
GAGE COUNTY SHERIFF,CAGE COUNTY SHERIFF,612 LINCOLN ST,BEATRICE,NE,68310,"http://maps.google.com/maps?q=612 LINCOLN ST,+BEATRICE,+NE+68310&hl=en"
GRAHAM COUNTY SHERIFF'S OFFICE,GRAHAM COUNTY SHERIFF'S OFFICE,410 N. POMEROY AVE,HILL CITY,KS,67642,"http://maps.google.com/maps?q=410 N. POMEROY AVE,+HILL CITY,+KS+67642&hl=en"
HOLDREGE POLICE DEPARTMENT,HOLDREGE MIDDLE SCHOOL,600 14TH AVENUE,HOLDREGE,NE,68949,"http://maps.google.com/maps?q=600 14TH AVENUE,+HOLDREGE,+NE+68949&hl=en"
IMPERIAL POLICE DEPARTMENT,IMPERIAL POLICE DEPARTMENT,637 BROADWAY,IMPERIAL,NE,69033,"http://maps.google.com/maps?q=637 BROADWAY,+IMPERIAL,+NE+69033&hl=en"
JEFFERSON COUNTY SHERIFF'S OFFICE,JEFFERSON COUNTY LAW ENFOCEMENT CENTER NE CORNER OF THE LEC BUILDING,606 3RD STREET,FAIRBURY,NE,68352,"http://maps.google.com/maps?q=606 3RD STREET,+FAIRBURY,+NE+68352&hl=en"
JUNCTION CITY POLICE DEPARTMENT,DILLIONS,618 WEST 6TH STREET,JUNCTION CITY,KS,66441,"http://maps.google.com/maps?q=618 WEST 6TH STREET,+JUNCTION CITY,+KS+66441&hl=en"
LA VISTA POLICE DEPARTMENT,LA VISTA POLICE DEPARTMENT,7701 S 96TH STREET,LA VISTA,NE,68128,"http://maps.google.com/maps?q=7701 S 96TH STREET,+LA VISTA,+NE+68128&hl=en"
LOGAN COUNTY SHERIFF'S OFFICE,LOGAN COUNTY SHERIFF'S OFFICE,317 MAIN STREET,STAPLETON,NE,69163,"http://maps.google.com/maps?q=317 MAIN STREET,+STAPLETON,+NE+69163&hl=en"
MARSHALL COUNTY HEALTH DEPARTMENT/SHERIFF'S OFFICE,MARSHALL COUNTY HEALTH DEPARTMENT,600 BROADWAY,MARYSVILLE,KS,66508,"http://maps.google.com/maps?q=600 BROADWAY,+MARYSVILLE,+KS+66508&hl=en"
MINDEN POLICE DEPARTMENT,MINDEN POLICE DEPARTMENT WEST SIDE OF THE BUILDING,246 N. COLORADO,MINDEN,NE,68959,"http://maps.google.com/maps?q=246 N. COLORADO,+MINDEN,+NE+68959&hl=en"
MORRIS COUNTY SHERIFF DEPT.,COUNCIL GROVE HIGH SCHOOL,129 HOCKADAY ST,COUNCIL GROVE,KS,66846,"http://maps.google.com/maps?q=129 HOCKADAY ST,+COUNCIL GROVE,+KS+66846&hl=en"
NEBRASKA STATE PATROL,CHI HEALTH ST. FRANCIS SOUTH PATIENT LOBBY ENTRANCE,2620 W. FAIDLEY AVENUE,GRAND ISLAND,NE,68803,"http://maps.google.com/maps?q=2620 W. FAIDLEY AVENUE,+GRAND ISLAND,+NE+68803&hl=en"
NEMAHA CO. SHERIFF'S OFFICE,NEMAHA CO. SHERIFF'S OFFICE,212 N. 6TH ST,SENECA,KS,66538,"http://maps.google.com/maps?q=212 N. 6TH ST,+SENECA,+KS+66538&hl=en"
OMAHA POLICE DEPT.-NW PRECINCT,HYVEE,747 N 132ND ST,OMAHA,NE,68154,"http://maps.google.com/maps?q=747 N 132ND ST,+OMAHA,+NE+68154&hl=en"
OMAHA POLICE DEPT.-NW PRECINCT,HYVEE,8809 W CENTER ROAD,OMAHA,NE,68124,"http://maps.google.com/maps?q=8809 W CENTER ROAD,+OMAHA,+NE+68124&hl=en"
RALSTON POLICE DEPARTMENT,WALGREENS 84TH & HARRISON,8380 HARRISON STREET,RALSTON,NE,68127,"http://maps.google.com/maps?q=8380 HARRISON STREET,+RALSTON,+NE+68127&hl=en"
RILEY COUNTY POLICE DEPARTMENT,DILLONS,1101 WESTLOOP PLACE,MANHATTAN,KS,66502,"http://maps.google.com/maps?q=1101 WESTLOOP PLACE,+MANHATTAN,+KS+66502&hl=en"
RILEY COUNTY POLICE DEPARTMENT,RILEY COUNTY POLICE DEPARTMENT,1001 S. SETH CHILD ROAD,MANHATTAN,KS,66502,"http://maps.google.com/maps?q=1001 S. SETH CHILD ROAD,+MANHATTAN,+KS+66502&hl=en"
SALINE COUNTY SHERIFF'S OFFICE,DILLONS,1235 E. CLOUD STREET,SALINA,KS,67401,"http://maps.google.com/maps?q=1235 E. CLOUD STREET,+SALINA,+KS+67401&hl=en"
SARPY COUNTY SHERIFF'S OFFICE,HY-VEE GROCERY STORE (SHADOW LAKE) NORTH PARKING LOT,11650 S. 73RD STREET,PAPILLION,NE,68046,"http://maps.google.com/maps?q=11650 S. 73RD STREET,+PAPILLION,+NE+68046&hl=en"
SHERMAN COUNTY SHERIFF'S DEPARTMENT,SHERMAN COUNTY SHERIFF'S OFFICE IN THE ALLEY BETWEEN COURT HOUSE AND SHERIFF'S OFFICE,813 1/2 BROADWAY,GOODLAND,KS,67735,"http://maps.google.com/maps?q=813 1/2 BROADWAY,+GOODLAND,+KS+67735&hl=en"
SIOUX CITY POLICE DEPARTMENT,DRILLING PHARMACY,4010 MORNINGSIDE AVE,SIOUX CITY,IA,51106,"http://maps.google.com/maps?q=4010 MORNINGSIDE AVE,+SIOUX CITY,+IA+51106&hl=en"
SIOUX CITY POLICE DEPARTMENT,FAREWAY GROCERY STORE,4040 WAR EAGLE DRIVE,SIOUX CITY,IA,51109,"http://maps.google.com/maps?q=4040 WAR EAGLE DRIVE,+SIOUX CITY,+IA+51109&hl=en"
SIOUX CITY POLICE DEPARTMENT,HY VEE FOOD STORES,2827 HAMILTON BLVD.,SIOUX CITY,IA,51103,"http://maps.google.com/maps?q=2827 HAMILTON BLVD.,+SIOUX CITY,+IA+51103&hl=en"
SIOUX CITY POLICE DEPARTMENT,HY-VEE,4500 SERGEANT ROAD,SIOUX CITY,IA,51106,"http://maps.google.com/maps?q=4500 SERGEANT ROAD,+SIOUX CITY,+IA+51106&hl=en"
SIOUX CITY POLICE DEPARTMENT,TARGET,5775 SUNNYBROOK DRIVE,SIOUX CITY,IA,51101,"http://maps.google.com/maps?q=5775 SUNNYBROOK DRIVE,+SIOUX CITY,+IA+51101&hl=en"
SIOUX CITY POLICE DEPARTMENT,WALGREENS,101 PIERCE STREET,SIOUX CITY,IA,51101,"http://maps.google.com/maps?q=101 PIERCE STREET,+SIOUX CITY,+IA+51101&hl=en"
SIOUX CITY POLICE DEPARTMENT,WALMART,3101 FLOYD BLVD.,SIOUX CITY,IA,51104,"http://maps.google.com/maps?q=3101 FLOYD BLVD.,+SIOUX CITY,+IA+51104&hl=en"
THOMAS COUNTY SHERIFFS OFFICE,THOMAS COUNTY LEC,225 N COURT,COLBY,KS,67701,"http://maps.google.com/maps?q=225 N COURT,+COLBY,+KS+67701&hl=en"
TREGO COUNTY SHERIFF'S OFFICE,TREGO COUNTY SHERIFF'S OFFICE,525 WARREN AVE,WAKEENEY,KS,67672,"http://maps.google.com/maps?q=525 WARREN AVE,+WAKEENEY,+KS+67672&hl=en"
WABAUNSEE COUNTY SHERIFF'S OFFICE,"WABAUNSEE COUNTY COURTHOUSE 4TH FLOOR,",215 KANSAS AVE.4TH FLOOR,ALMA,KS,66401,"http://maps.google.com/maps?q=215 KANSAS AVE.,+ALMA,+KS+66401&hl=en"
WAMEGO POLICE DEPT.,GENE'S HEARTLAND FOODS,1003 US 24 HWY,WAMEGO,KS,66547,"http://maps.google.com/maps?q=1003 US 24 HWY,+WAMEGO,+KS+66547&hl=en"
WASHINGTON COUNTY SHERIFF'S OFFICE,WASHINGTON COUNTY SHERIFF'S OFFICE,301 B. STREET,WASHINGTON,KS,66968,"http://maps.google.com/maps?q=301 B. STREET,+WASHINGTON,+KS+66968&hl=en"
WINNER POLICE DEPT,"WINNER POLICE DEPARTMENT NO BOXES NEEDED, PER PAUL SCHUETH",217 EAST 3RD ST,WINNER,SD,57580,"http://maps.google.com/maps?q=217 EAST 3RD ST,+WINNER,+SD+57580&hl=en"
OMAHA POLICE DEPT.-NW PRECINCT,WALGREENS,3005 LAKE ST,OMAHA,NE,68111,"http://maps.google.com/maps?q=3005 LAKE ST,+OMAHA,+NE+68111&hl=en"
DEUEL COUNTY SHERIFF'S OFFICE,DUEL COUNTY SHERIFF'S OFFICE SATELLITE OFFICE,302 PINE STREET,BIG SPRINGS,NE,69122,"http://maps.google.com/maps?q=302 PINE STREET,+BIG SPRINGS,+NE+69122&hl=en"
