Participant,CollectionSite,Address,City,State,Zip,MapURL
19TH JUDICIAL DISTRICT DRUG TASK FORCE,HARRIS PHARMACY,1157 FORT CAMPBELL BLVD,CLARKSVILLE,TN,37042,"http://maps.google.com/maps?q=1157 FORT CAMPBELL BLVD,+CLARKSVILLE,+TN+37042&hl=en"
19TH JUDICIAL DISTRICT DRUG TASK FORCE,WALGREENS PHARMACY,2975 FORT CAMPBELL BLVD,CLARKSVILLE,TN,37042,"http://maps.google.com/maps?q=2975 FORT CAMPBELL BLVD,+CLARKSVILLE,+TN+37042&hl=en"
20TH JUDICIAL DISCTICT DRUG CRIME TASK FORCE,GOODS CASH SAVER FOOD STORE,129 BONE ST.,CLINTON,AR,72031,"http://maps.google.com/maps?q=129 BONE ST.,+CLINTON,+AR+72031&hl=en"
25TH JUDICIAL DRUG TASK FORCE,25TH JUDICIAL DISTRICT ATTORNEYS,121 N MAIN STREET,RIPLEY,TN,38063,"http://maps.google.com/maps?q=121 N MAIN STREET,+RIPLEY,+TN+38063&hl=en"
ALEXANDER COUNTY SHERIFF'S OFFICE,EGYPTIAN HIGH SCHOOL,20023 DISWOOD RD,OLIVE BRANCH,IL,62969,"http://maps.google.com/maps?q=20023 DISWOOD RD,+OLIVE BRANCH,+IL+62969&hl=en"
ALTON POLICE DEPARTMENT,ALTON POLICE DEPARTMENT,1700 E. BROADWAY,ALTON,IL,62002,"http://maps.google.com/maps?q=1700 E. BROADWAY,+ALTON,+IL+62002&hl=en"
ARKANSAS STATE UNIVERSITY POLICE,ARKANSAS STATE UNIVERSITY POLICE PERMANENT DROP BOX,503 ROBINSON ST.,JONESBORO,AR,72401,"http://maps.google.com/maps?q=503 ROBINSON ST.,+JONESBORO,+AR+72401&hl=en"
ARNOLD POLICE DEPARTMENT,ARNOLD CITY HALL,2101 JEFFCO BLVD.,ARNOLD,MO,63010,"http://maps.google.com/maps?q=2101 JEFFCO BLVD.,+ARNOLD,+MO+63010&hl=en"
ATOKA POLICE DEPT.,ATOKA PD,68 ATOKA-MCLAUGHLIN,ATOKA,TN,38004,"http://maps.google.com/maps?q=68 ATOKA-MCLAUGHLIN,+ATOKA,+TN+38004&hl=en"
BALLWIN POLICE DEPARTMENT,BALLWIN POLICE DEPARTMENT,300 PARK DRIVE,BALLWIN,MO,63011,"http://maps.google.com/maps?q=300 PARK DRIVE,+BALLWIN,+MO+63011&hl=en"
BARTLETT PD,KROGER HWY 70 / APPLING RD,7615 HWY 70,BARTLETT,TN,38133,"http://maps.google.com/maps?q=7615 HWY 70,+BARTLETT,+TN+38133&hl=en"
BAXTER COUNTY SHERIFFS DEPARTMENT,BAXTER COUNTY SHERIFF'S OFFICE PERMANENT DROP BOX,904 HIGHWAY 62 WEST,MOUNTAIN HOME,AR,72653,"http://maps.google.com/maps?q=904 HIGHWAY 62 WEST,+MOUNTAIN HOME,+AR+72653&hl=en"
BAXTER COUNTY SHERIFFS DEPARTMENT,LOWE'S HARDWARE STORE,124 CHARLES BLACKBURN DR,MOUNTAIN HOME,AR,72653,"http://maps.google.com/maps?q=124 CHARLES BLACKBURN DR,+MOUNTAIN HOME,+AR+72653&hl=en"
BEEBE POLICE DEPARTMENT,BEEBE POLICE DEPARTMENT,201 WEST ILLINOIS STREET,BEEBE,AR,72012,"http://maps.google.com/maps?q=201 WEST ILLINOIS STREET,+BEEBE,+AR+72012&hl=en"
BELLEFONTAINE NEIGHBORS POLICE DEPARTMENT,BELLEFONTAINE NEIGHBORS POLICE DEPARTMENT,9641 BELLEFONTAINE RD,SAINT LOUIS,MO,63137,"http://maps.google.com/maps?q=9641 BELLEFONTAINE RD,+SAINT LOUIS,+MO+63137&hl=en"
BERNIE POLICE DEPARTMENT,BERNIE POLICE DEPARTMENT,206 WEST CRUMB,BERNIE,MO,63822,"http://maps.google.com/maps?q=206 WEST CRUMB,+BERNIE,+MO+63822&hl=en"
BREESE POLICE DEPT.,BREESE POLICE DEPT.,500 N. 1ST STREET,BREESE,IL,62230,"http://maps.google.com/maps?q=500 N. 1ST STREET,+BREESE,+IL+62230&hl=en"
BRENTWOOD POLICE DEPARTMENT,BRENTWOOD POLICE DEPARTMENT,272 HANLEY INDUSTRIAL COURT,SAINT LOUIS,MO,63144,"http://maps.google.com/maps?q=272 HANLEY INDUSTRIAL COURT,+SAINT LOUIS,+MO+63144&hl=en"
BROWNSVILLE POLICE DEPARTMENT,BROWNSVILLE POLICE DEPARTMENT,118 N.LAFAYETTE ST.,BROWNSVILLE,TN,38012,"http://maps.google.com/maps?q=118 N.LAFAYETTE ST.,+BROWNSVILLE,+TN+38012&hl=en"
CABOT POLICE DEPARTMENT,CABOT POLICE DEPARTMENT PERMANENT DROP BOX,101 NORTH SECOND STREET,CABOT,AR,72023,"http://maps.google.com/maps?q=101 NORTH SECOND STREET,+CABOT,+AR+72023&hl=en"
CABOT POLICE DEPARTMENT,EXPRESS RX,1848 WEST MAIN STREET,CABOT,AR,72023,"http://maps.google.com/maps?q=1848 WEST MAIN STREET,+CABOT,+AR+72023&hl=en"
CAIRO POLICE DEPARTMENT,CAIRO POLICE DEPARTMENT,1501 WASHINGTON,CAIRO,IL,62914,"http://maps.google.com/maps?q=1501 WASHINGTON,+CAIRO,+IL+62914&hl=en"
CALDWELL COUNTY SHERIFF'S OFFICE,CALDWELL COUNTY SHERIFF,100 E MARKET ST,PRINCETON,KY,42445,"http://maps.google.com/maps?q=100 E MARKET ST,+PRINCETON,+KY+42445&hl=en"
CAMDEN COUNTY SHERIFF'S OFFICE,CAMDEN COUNTY SHERIFF'S OFFICE,1 COURT CIR STE 13,CAMDENTON,MO,65020,"http://maps.google.com/maps?q=1 COURT CIR STE 13,+CAMDENTON,+MO+65020&hl=en"
CAMDEN POLICE DEPT.,CAMDEN POLICE DEPT.,119 W. MAIN ST.,CAMDEN,TN,38320,"http://maps.google.com/maps?q=119 W. MAIN ST.,+CAMDEN,+TN+38320&hl=en"
CAPE GIRARDEAU COUNTY SHERIFF'S OFFICE,CAPE GIRARDEAU COUNTY SHERIFF'S OFFICE,216 N. MISSOURI STREET,JACKSON,MO,63755,"http://maps.google.com/maps?q=216 N. MISSOURI STREET,+JACKSON,+MO+63755&hl=en"
CAPE GIRARDEAU POLICE DEPT.,CAPE GIRARDEAU POLICE DEPARTMENT,2530 MARIA LOUISE,CAPE GIRARDEAU,MO,63701,"http://maps.google.com/maps?q=2530 MARIA LOUISE,+CAPE GIRARDEAU,+MO+63701&hl=en"
CARBONDALE POLICE DEPARTMENT,CARBONDALE POLICE DEPARTMENT,501 SOUTH WASHINGTON STREET,CARBONDALE,IL,62901,"http://maps.google.com/maps?q=501 SOUTH WASHINGTON STREET,+CARBONDALE,+IL+62901&hl=en"
CARBONDALE POLICE DEPARTMENT,KROGGER OUTSIDE THE PHARMACY,501 GIANT CITY ROAD,CARBONDALE,IL,62901,"http://maps.google.com/maps?q=501 GIANT CITY ROAD,+CARBONDALE,+IL+62901&hl=en"
CARLISLE POLICE DEPARTMENT,CARLISLE POLICE DEPARTMENT PERMANENT DROP BOX,120 W. MAIN STREET,CARLISLE,AR,72024,"http://maps.google.com/maps?q=120 W. MAIN STREET,+CARLISLE,+AR+72024&hl=en"
CAVE CITY POLICE DEPARTMENT,CAVE CITY POLICE DEPARTMENT PERMANENT DROP BOX,120 E. SPRING STREET,CAVE CITY,AR,72521,"http://maps.google.com/maps?q=120 E. SPRING STREET,+CAVE CITY,+AR+72521&hl=en"
CHARLESTON DEPARTMENT OF PUBLIC SAFETY,CHARLESTON DEPT PUBLIC SAFETY HEADQUARTERS,204 N MAIN,CHARLESTON,MO,63834,"http://maps.google.com/maps?q=204 N MAIN,+CHARLESTON,+MO+63834&hl=en"
CHEROKEE VILLAGE POLICE DEPARTMENT,CHEROKEE VILLAGE POLICE DEPARTMENT,#2 SONTEE DRIVE,CHEROKEE VILLAGE,AR,72529,"http://maps.google.com/maps?q=#2 SONTEE DRIVE,+CHEROKEE VILLAGE,+AR+72529&hl=en"
CHESTER COUNTY SHERIFFS OFFICE,CHESTER COUNTY SHERIFF'S OFFICE,333 ERIC BELL DR.,HENDERSON,TN,38340,"http://maps.google.com/maps?q=333 ERIC BELL DR.,+HENDERSON,+TN+38340&hl=en"
CHESTER POLICE DEPARTMENT,CHESTER POLICE DEPARTMENT FRONT LOBBY,1330 SWANWICK ST.,CHESTER,IL,62233,"http://maps.google.com/maps?q=1330 SWANWICK ST.,+CHESTER,+IL+62233&hl=en"
CHESTERFIELD POLICE DEPARTMENT,CHESTERFIELD CITY HALL,690 CHESTERFIELD PARKWAY WEST,CHESTERFIELD,MO,63017,"http://maps.google.com/maps?q=690 CHESTERFIELD PARKWAY WEST,+CHESTERFIELD,+MO+63017&hl=en"
CHESTERFIELD POLICE DEPARTMENT,CLARKSON VALLEY CITY HALL PARKING LOT,15933 CLAYTON ROAD(CLARKSON VALLEY),BALLWIN,MO,63011,"http://maps.google.com/maps?q=15933 CLAYTON ROAD,+BALLWIN,+MO+63011&hl=en"
CLAY COUNTY SHERIFF'S DEPARTMENT,CLAY COUNTY DETENTION CENTER,268 SOUTH SECOND STREET,PIGGOTT,AR,72454,"http://maps.google.com/maps?q=268 SOUTH SECOND STREET,+PIGGOTT,+AR+72454&hl=en"
CLAYTON POLICE DEPARTMENT,CENTER OF CLAYTON,50 GAY AVENUE,CLAYTON,MO,63105,"http://maps.google.com/maps?q=50 GAY AVENUE,+CLAYTON,+MO+63105&hl=en"
CLEBURNE COUNTY SHERIFF'S OFFICE,CLEBURNE COUNTY SHERIFF'S OFFICE PERMANENT DROP BOX,914 SOUTH 9TH STREET,HEBER SPRINGS,AR,72543,"http://maps.google.com/maps?q=914 SOUTH 9TH STREET,+HEBER SPRINGS,+AR+72543&hl=en"
CLINTON COUNTY SHERIFF'S DEPARTMENT,CLINTON COUNTY SHERIFF'S OFFICE,810 FRANKLIN ST.,CARLYLE,IL,62231,"http://maps.google.com/maps?q=810 FRANKLIN ST.,+CARLYLE,+IL+62231&hl=en"
COBDEN POLICE DEPARTMENT,COBDEN POLICE DEPARTMENT,112 EAST MAPLE,COBDEN,IL,62920,"http://maps.google.com/maps?q=112 EAST MAPLE,+COBDEN,+IL+62920&hl=en"
COLLIERVILLE POLICE DEPARTMENT,COLLIERVILLE POLICE DEPARTMENT,156 N. ROWLETT COLLIERVILLE,COLLIERVILLE,TN,38017,"http://maps.google.com/maps?q=156 N. ROWLETT COLLIERVILLE,+COLLIERVILLE,+TN+38017&hl=en"
COLUMBIA POLICE DEPARTMENT,COLUMBIA POLICE DEPARTMENT LOBBY (TRIPLE BOXES),1020 NORTH MAIN STREET,COLUMBIA,IL,62236,"http://maps.google.com/maps?q=1020 NORTH MAIN STREET,+COLUMBIA,+IL+62236&hl=en"
CREVE COEUR POLICE DEPT,CREVE COEUR POLICE DEPT. FRONT LOBBY,300 NORTH NEW BALLAS,CREVE COEUR,MO,63141,"http://maps.google.com/maps?q=300 NORTH NEW BALLAS,+CREVE COEUR,+MO+63141&hl=en"
CROCKER POLICE DEPARTMENT,CROCKER POLICE DEPARTMENT CITY HALL,108 S COMMERCIAL ST.PO,CROCKER,MO,65452,"http://maps.google.com/maps?q=108 S COMMERCIAL ST.,+CROCKER,+MO+65452&hl=en"
CROSS COUNTY SHERIFF'S OFFICE,CROSS COUNTY SHERIFF'S OFFICE PERMANENT DROP BOX,704 EAST CANAL ST.,WYNNE,AR,72396,"http://maps.google.com/maps?q=704 EAST CANAL ST.,+WYNNE,+AR+72396&hl=en"
CRYSTAL CITY POLICE DEPARTMENT,CRYSTAL CITY POLICE DEPARTMENT LOBBY,130 MISSISSIPPI AVE,CRYSTAL CITY,MO,63019,"http://maps.google.com/maps?q=130 MISSISSIPPI AVE,+CRYSTAL CITY,+MO+63019&hl=en"
DEA,ARMY NATIONAL GUARD ARMORY,3000 E. DIVISION STREET,EVANSVILLE,IN,47711,"http://maps.google.com/maps?q=3000 E. DIVISION STREET,+EVANSVILLE,+IN+47711&hl=en"
DEA-MEMPHIS,KROGER,3860 AUSTIN PEAY HWY,MEMPHIS,TN,38128,"http://maps.google.com/maps?q=3860 AUSTIN PEAY HWY,+MEMPHIS,+TN+38128&hl=en"
DENT COUNTY SHERIFF'S OFFICE,RIVERWAYS BANK PARKING LOT,600 S. MAIN,SALEM,MO,65560,"http://maps.google.com/maps?q=600 S. MAIN,+SALEM,+MO+65560&hl=en"
DES ARC POLICE DEPARTMENT,DES ARC CITY HALL PERMANENT DROP BOX,107 SOUTH THIRD STREET,DES ARC,AR,72040,"http://maps.google.com/maps?q=107 SOUTH THIRD STREET,+DES ARC,+AR+72040&hl=en"
DES PERES DEPARTMENT OF PUBLIC SAFETY,THE LODGE,1050 DES PERES ROAD,DES PERES,MO,63131,"http://maps.google.com/maps?q=1050 DES PERES ROAD,+DES PERES,+MO+63131&hl=en"
DESLOGE POLICE DEPARTMENT,PARKLAND HEALTH MART PHARMACY,617 NORTH COWLING ST,PARK HILLS,MO,63601,"http://maps.google.com/maps?q=617 NORTH COWLING ST,+PARK HILLS,+MO+63601&hl=en"
DESOTO COUNTY SHERIFF'S DEPARTMENT,KROGER/HERNANDO,2380 MOUNT PLEASANT RD.,HERNANDO,MS,38632,"http://maps.google.com/maps?q=2380 MOUNT PLEASANT RD.,+HERNANDO,+MS+38632&hl=en"
DESOTO COUNTY SHERIFF'S DEPARTMENT,KROGER/SOUTHHAVEN,3095 GOODMAN ROAD E,SOUTHAVEN,MS,38671,"http://maps.google.com/maps?q=3095 GOODMAN ROAD E,+SOUTHAVEN,+MS+38671&hl=en"
DEXTER POLICE DEPARTMENT,DEXTER POLICE DEPARTMENT,305 COOPER STREET,DEXTER,MO,63841,"http://maps.google.com/maps?q=305 COOPER STREET,+DEXTER,+MO+63841&hl=en"
DOUGLAS COUNTY SHERIFFS OFFICE,DOUGLAS COUNTY SHERIFF'S OFFICE,209 SE 2ND AVE209 SE LINCOLN AVE,AVA,MO,65608,"http://maps.google.com/maps?q=209 SE 2ND AVE,+AVA,+MO+65608&hl=en"
DUQUOIN POLICE DEPARTMENT,DUQUOIN POLICE DEPARTMENT LOBBY,304 E. POPLAR ST,DU QUOIN,IL,62832,"http://maps.google.com/maps?q=304 E. POPLAR ST,+DU QUOIN,+IL+62832&hl=en"
EAST ALTON POLICE DEPT,EAST ALTON POLICE DEPARTMENT,211 N SHAMROCK,EAST ALTON,IL,62024,"http://maps.google.com/maps?q=211 N SHAMROCK,+EAST ALTON,+IL+62024&hl=en"
EDWARDSVILLE POLICE DEPARTMENT,EDWARDSVILLE POLICE DEPARTMENT FRONT / MAIN LOBBY,333 SOUTH MAIN STREET,EDWARDSVILLE,IL,62025,"http://maps.google.com/maps?q=333 SOUTH MAIN STREET,+EDWARDSVILLE,+IL+62025&hl=en"
ELLISVILLE POLICE DEPARTMENT,ELLISVILLE POLICE DEPARTMENT,37 WEIS AVENUE,ELLISVILLE,MO,63011,"http://maps.google.com/maps?q=37 WEIS AVENUE,+ELLISVILLE,+MO+63011&hl=en"
EUREKA POLICE DEPARTMENT,EUREKA PD,120 CITY HALL DRIVE,EUREKA,MO,63025,"http://maps.google.com/maps?q=120 CITY HALL DRIVE,+EUREKA,+MO+63025&hl=en"
FAIRFIELD BAY POLICE DEPARTMENT,FAIRFIELD BAY POLICE DEPARTMENT PERMANENT DROP BOX,101 LITTLE ROCK DRIVE,FAIRFIELD BAY,AR,72088,"http://maps.google.com/maps?q=101 LITTLE ROCK DRIVE,+FAIRFIELD BAY,+AR+72088&hl=en"
FAIRVIEW HEIGHTS POLICE DEPARTMENT,FAIRVIEW HEIGHTS POLICE DEPT.,10027 BUNKUM ROAD,FAIRVIEW HEIGHTS,IL,62208,"http://maps.google.com/maps?q=10027 BUNKUM ROAD,+FAIRVIEW HEIGHTS,+IL+62208&hl=en"
FAIRVIEW HEIGHTS POLICE DEPARTMENT,ST CLAIR SQUARE,134 ST CLAIR SQUARE,FAIRVIEW HEIGHTS,IL,62208,"http://maps.google.com/maps?q=134 ST CLAIR SQUARE,+FAIRVIEW HEIGHTS,+IL+62208&hl=en"
FARMINGTON POLICE DEPARTMENT,FARMINGTON POLICE DEPT.,310 STE. GENEVIEVE AVE,FARMINGTON,MO,63640,"http://maps.google.com/maps?q=310 STE. GENEVIEVE AVE,+FARMINGTON,+MO+63640&hl=en"
FAYETTE COUNTY SHERIFF'S OFFICE,LANDRY'S PHARMACY,25 WOODBRIDGE ROAD,SOMERVILLE,TN,38068,"http://maps.google.com/maps?q=25 WOODBRIDGE ROAD,+SOMERVILLE,+TN+38068&hl=en"
FAYETTE COUNTY SHERIFF'S OFFICE,MOSCOW CITY HALL,14075 HIGHWAY 57,MOSCOW,TN,38057,"http://maps.google.com/maps?q=14075 HIGHWAY 57,+MOSCOW,+TN+38057&hl=en"
FESTUS POLICE DEPARTMENT,FESTUS POLICE DEPARTMENT,100 PARK AVE,FESTUS,MO,63028,"http://maps.google.com/maps?q=100 PARK AVE,+FESTUS,+MO+63028&hl=en"
FLORISSANT POLICE DEPARTMENT,FLORISSANT POLICE DEPARTMENT LOBBY,1700 NORTH HIGHWAY 67,FLORISSANT,MO,63033,"http://maps.google.com/maps?q=1700 NORTH HIGHWAY 67,+FLORISSANT,+MO+63033&hl=en"
FRANKLIN COUNTY NARCOTICS ENFORCEMENT UNIT,SULLIVAN POLICE DEPARTMENT,106 PROGRESS PKWY,SULLIVAN,MO,63080,"http://maps.google.com/maps?q=106 PROGRESS PKWY,+SULLIVAN,+MO+63080&hl=en"
FRANKLIN COUNTY NARCOTICS ENFORCEMENT UNIT,UNION POLICE DEPARTMENT,119 S CHURCH ST,UNION,MO,63084,"http://maps.google.com/maps?q=119 S CHURCH ST,+UNION,+MO+63084&hl=en"
FRANKLIN COUNTY NARCOTICS ENFORCEMENT UNIT,WASHINGTON POLICE DEPARTMENT,301 JEFFERSON STREET,WASHINGTON,MO,63090,"http://maps.google.com/maps?q=301 JEFFERSON STREET,+WASHINGTON,+MO+63090&hl=en"
FREDERICKTOWN POLICE DEPARTMENT,FREDERICKTOWN WALMART SUPERCENTER,1025 WALTON DRIVE,FREDERICKTOWN,MO,63645,"http://maps.google.com/maps?q=1025 WALTON DRIVE,+FREDERICKTOWN,+MO+63645&hl=en"
FRONTENAC POLICE DEPARTMENT,FRONTENAC POLICE STATION DEPARTMENT LOBBY,10555 CLAYTON ROAD,FRONTENAC,MO,63131,"http://maps.google.com/maps?q=10555 CLAYTON ROAD,+FRONTENAC,+MO+63131&hl=en"
GERMANTOWN POLICE,KROGER,7735 FARMINGTON BLVD.,GERMANTOWN,TN,38138,"http://maps.google.com/maps?q=7735 FARMINGTON BLVD.,+GERMANTOWN,+TN+38138&hl=en"
GERMANTOWN POLICE,WALGREENS,9325 POPLAR AVENUE,GERMANTOWN,TN,38139,"http://maps.google.com/maps?q=9325 POPLAR AVENUE,+GERMANTOWN,+TN+38139&hl=en"
GIBSON COUNTY SHERIFF'S OFFICE,GIBSON COUNTY SHERIFF'S OFFICE,401 N. COLLEGE STREET,TRENTON,TN,38382,"http://maps.google.com/maps?q=401 N. COLLEGE STREET,+TRENTON,+TN+38382&hl=en"
GLENDALE POLICE DEPARTMENT,GLENDALE CITY AUDITORIUM,424 N SAPPINGTON ROAD,GLENDALE,MO,63122,"http://maps.google.com/maps?q=424 N SAPPINGTON ROAD,+GLENDALE,+MO+63122&hl=en"
GREENBRIER POLICE DEPARTMENT,GREENBRIER POLICE DEPARTMENT,11 WILSON FARM RD.,GREENBRIER,AR,72058,"http://maps.google.com/maps?q=11 WILSON FARM RD.,+GREENBRIER,+AR+72058&hl=en"
GREENE COUNTY SHERIFF'S OFFICE,GREENE COUNTY SHERIFF'S OFFICE PERMANENT DROP BOX,1809 ROCKINGCHAIR RD,PARAGOULD,AR,72450,"http://maps.google.com/maps?q=1809 ROCKINGCHAIR RD,+PARAGOULD,+AR+72450&hl=en"
GREENE COUNTY SHERIFF'S OFFICE,WAL-MART,2802 W. KINGS HWY,PARAGOULD,AR,72450,"http://maps.google.com/maps?q=2802 W. KINGS HWY,+PARAGOULD,+AR+72450&hl=en"
GREENVILLE POLICE DEPARTMENT,BOND COUNTY SHERIFF'S DEPARTMENT,403 S. SECOND ST,GREENVILLE,IL,62246,"http://maps.google.com/maps?q=403 S. SECOND ST,+GREENVILLE,+IL+62246&hl=en"
GREENVILLE POLICE DEPARTMENT,GREENVILLE POLICE DEPARTMENT,404 S. THIRD ST,GREENVILLE,IL,62246,"http://maps.google.com/maps?q=404 S. THIRD ST,+GREENVILLE,+IL+62246&hl=en"
HARRISBURG POLICE DEPARTMENT,HARRISBURG POLICE DEPARTMENT PERMANENT DROP BOX,202 N. EAST STREET,HARRISBURG,AR,72432,"http://maps.google.com/maps?q=202 N. EAST STREET,+HARRISBURG,+AR+72432&hl=en"
HAZELWOOD POLICE DEPARTMENT,CITY HALL/POLICE COMPLEX,415 ELM GROVE,HAZELWOOD,MO,63042,"http://maps.google.com/maps?q=415 ELM GROVE,+HAZELWOOD,+MO+63042&hl=en"
HOHENWALD POLICE DEPT.,HOHENWALD POLICE DEPT.,106 N. COURT ST.,HOHENWALD,TN,38462,"http://maps.google.com/maps?q=106 N. COURT ST.,+HOHENWALD,+TN+38462&hl=en"
HOWELL COUNTY SHERIFF'S OFFICE,HOWELL COUNTY SHERIFF'S OFFICE NORTH END OF PARKING LOT,1106 MISSOURI AVENUE,WEST PLAINS,MO,65775,"http://maps.google.com/maps?q=1106 MISSOURI AVENUE,+WEST PLAINS,+MO+65775&hl=en"
HUMBOLDT POLICE DEPARTMENT,HUMBOLDT PD,1421 OSBORNE ST.,HUMBOLDT,TN,38343,"http://maps.google.com/maps?q=1421 OSBORNE ST.,+HUMBOLDT,+TN+38343&hl=en"
INDEPENDENCE COUNTY SHERIFF'S DEPARTMENT,ARKANSAS STATE POLICE TROOP B HEADQUARTERS,3200 HWY 67 NORTH,NEWPORT,AR,72112,"http://maps.google.com/maps?q=3200 HWY 67 NORTH,+NEWPORT,+AR+72112&hl=en"
INDEPENDENCE COUNTY SHERIFF'S DEPARTMENT,INDEPENDENCE COUNTY SHERIFF'S OFFICE PERMANENT DROP BOX,1750 MYERS STREET,BATESVILLE,AR,72501,"http://maps.google.com/maps?q=1750 MYERS STREET,+BATESVILLE,+AR+72501&hl=en"
INDIANA BOARD OF PHARMACY,CVS #6256 POSEY COUNTY SHERIFF DEPT,700 E 4TH ST,MOUNT VERNON,IN,47620,"http://maps.google.com/maps?q=700 E 4TH ST,+MOUNT VERNON,+IN+47620&hl=en"
INDIANA STATE POLICE,INDIANA STATE POLICE DISTRICT 35,19411 HIGHWAY 41 NORTH,EVANSVILLE,IN,47725,"http://maps.google.com/maps?q=19411 HIGHWAY 41 NORTH,+EVANSVILLE,+IN+47725&hl=en"
JACKSON COUNTY SHERIFF'S OFFICE,I CARE PHARMACY,1117 MCCLAIN STREET,NEWPORT,AR,72112,"http://maps.google.com/maps?q=1117 MCCLAIN STREET,+NEWPORT,+AR+72112&hl=en"
JACKSON COUNTY SHERIFF'S OFFICE,JACKSON COUNTY HEALTH DEPARTMENT (DOUBLE BOXES),415 HEALTH DEPARTMENT ROAD,MURPHYSBORO,IL,62966,"http://maps.google.com/maps?q=415 HEALTH DEPARTMENT ROAD,+MURPHYSBORO,+IL+62966&hl=en"
JACKSON COUNTY SHERIFF'S OFFICE,JACKSON COUNTY SO PERMANENT DROP BOX,615 SECOND ST,NEWPORT,AR,72112,"http://maps.google.com/maps?q=615 SECOND ST,+NEWPORT,+AR+72112&hl=en"
JACKSON POLICE DEPARTMENT,JACKSON POLICE / FIRE COMPLEX,525 S. HOPE ST.,JACKSON,MO,63755,"http://maps.google.com/maps?q=525 S. HOPE ST.,+JACKSON,+MO+63755&hl=en"
JACKSON-MADISON COUNTY METRO NARCOTICS,CVS PHARMACY,1405 N HIGHLAND AVE,JACKSON,TN,38301,"http://maps.google.com/maps?q=1405 N HIGHLAND AVE,+JACKSON,+TN+38301&hl=en"
JACKSON-MADISON COUNTY METRO NARCOTICS,KROGER,35 W UNIVERSITY PKWY,JACKSON,TN,38305,"http://maps.google.com/maps?q=35 W UNIVERSITY PKWY,+JACKSON,+TN+38305&hl=en"
JACKSON-MADISON COUNTY METRO NARCOTICS,WALGREENS,1405 S HIGHLAND AVE.,JACKSON,TN,38301,"http://maps.google.com/maps?q=1405 S HIGHLAND AVE.,+JACKSON,+TN+38301&hl=en"
JEFFERSON CITY MISSOURI POLICE DEPARTMENT,JEFFERSON CITY POLICE HEADQUARTERS TRAINING ROOM ENTRANCE - SOUTHSIDE OF BUILDING,401 MONROE ST,JEFFERSON CITY,MO,65101,"http://maps.google.com/maps?q=401 MONROE ST,+JEFFERSON CITY,+MO+65101&hl=en"
JOHN A. LOGAN COLLEGE,LOT A JOHN A. LOGAN COLLEGE CAMPUS,700 LOGAN COLLEGE RD,CARTERVILLE,IL,62918,"http://maps.google.com/maps?q=700 LOGAN COLLEGE RD,+CARTERVILLE,+IL+62918&hl=en"
JONESBORO POLICE DEPARTMENT,JONESBORO POLICE DEPARTMENT PERMANENT DROP BOX,1001 S. CARAWAY RD,JONESBORO,AR,72401,"http://maps.google.com/maps?q=1001 S. CARAWAY RD,+JONESBORO,+AR+72401&hl=en"
JONESBORO POLICE DEPARTMENT,KROGER MARKETPLACE,1001 SOUTH CARAWAY ROAD,JONESBORO,AR,72401,"http://maps.google.com/maps?q=1001 SOUTH CARAWAY ROAD,+JONESBORO,+AR+72401&hl=en"
KENNETT POLICE DEPT,KENNETT POLICE DEPT,200 CEDAR,KENNETT,MO,63857,"http://maps.google.com/maps?q=200 CEDAR,+KENNETT,+MO+63857&hl=en"
KENTUCKY STATE POLICE POST 1,KSP POST 1,8366 US 45 NORTH,HICKORY,KY,42051,"http://maps.google.com/maps?q=8366 US 45 NORTH,+HICKORY,+KY+42051&hl=en"
KENTUCKY STATE POLICE POST 16,KSP POST 16,8298 KEACH DRIVE,HENDERSON,KY,42420,"http://maps.google.com/maps?q=8298 KEACH DRIVE,+HENDERSON,+KY+42420&hl=en"
KENTUCKY STATE POLICE POST 2,KENTUCKY STATE POLICE POST 2,1000 WESTERN KENTUCKY PARKWAY,NORTONVILLE,KY,42442,"http://maps.google.com/maps?q=1000 WESTERN KENTUCKY PARKWAY,+NORTONVILLE,+KY+42442&hl=en"
KIRKWOOD POLICE DEPARTMENT,KIRKWOOD POLICE STATION,131 WEST MADISON AVE,KIRKWOOD,MO,63122,"http://maps.google.com/maps?q=131 WEST MADISON AVE,+KIRKWOOD,+MO+63122&hl=en"
LADUE POLICE DEPARTMENT,LADUE POLICE DEPT.,9345 CLAYTON ROAD,SAINT LOUIS,MO,63124,"http://maps.google.com/maps?q=9345 CLAYTON ROAD,+SAINT LOUIS,+MO+63124&hl=en"
LAKEVIEW POLICE DEPARTMENT,LAKEVIEW POLICE DEPARTMENT PERMANENT DROP BOX,14 SKYLES LANE,LAKEVIEW,AR,72642,"http://maps.google.com/maps?q=14 SKYLES LANE,+LAKEVIEW,+AR+72642&hl=en"
LAURIE POLICE DEPARTMENT,LAURIE POLICE DEPARTMENT,147 S. MAIN,LAURIE,MO,65038,"http://maps.google.com/maps?q=147 S. MAIN,+LAURIE,+MO+65038&hl=en"
LAWRENCE COUNTY SHERIFF'S DEPARTMENT,LAWRENCE COUNTY SHERIFF'S OFFICE PERMANENT DROP BOX,315 W MAIN STREET,WALNUT RIDGE,AR,72476,"http://maps.google.com/maps?q=315 W MAIN STREET,+WALNUT RIDGE,+AR+72476&hl=en"
LEBANON POLICE DEPARTMENT,LEBANON POLICE DEPARTMENT PARKING LOT,401 S. JEFFERSON AVENUE,LEBANON,MO,65536,"http://maps.google.com/maps?q=401 S. JEFFERSON AVENUE,+LEBANON,+MO+65536&hl=en"
LEE COUNTY SHERIFF'S DEPARTMENT,LEE COUNTY COURTHOUSE,15 EAST CHESTNUT ST,MARIANNA,AR,72360,"http://maps.google.com/maps?q=15 EAST CHESTNUT ST,+MARIANNA,+AR+72360&hl=en"
LINN POLICE DEPARTMENT,LINN CITY HALL,1200 EAST MAIN STREET,LINN,MO,65051,"http://maps.google.com/maps?q=1200 EAST MAIN STREET,+LINN,+MO+65051&hl=en"
LITCHFIELD POLICE DEPARTMENT,LITCHFIELD POLICE DEPARTMENT LOBBY DROP BOX,120 E. RYDER STREET,LITCHFIELD,IL,62056,"http://maps.google.com/maps?q=120 E. RYDER STREET,+LITCHFIELD,+IL+62056&hl=en"
MADISON COUNTY SHERIFF'S OFFICE (TRIPLE BOXES),MADISON COUNTY ADMINISTRATION BUILDING PARKING LOT,157 N. MAIN STREETNORTH. 2ND STREET PARKING LOT,EDWARDSVILLE,IL,62025,"http://maps.google.com/maps?q=157 N. MAIN STREET,+EDWARDSVILLE,+IL+62025&hl=en"
MALDEN POLICE DEPARTMENT,MALDEN POLICE DEPT.,112 E LACLEDE,MALDEN,MO,63863,"http://maps.google.com/maps?q=112 E LACLEDE,+MALDEN,+MO+63863&hl=en"
MANCHESTER POLICE DEPARTMENT,MANCHESTER POLICE DEPARTMENT,200 HIGHLANDS BLVD,BALLWIN,MO,63011,"http://maps.google.com/maps?q=200 HIGHLANDS BLVD,+BALLWIN,+MO+63011&hl=en"
MAPLEWOOD POLICE DEPARTMENT,MAPLEWOOD POLICE DEPARTMENT,7601 MANCHESTER,MAPLEWOOD,MO,63143,"http://maps.google.com/maps?q=7601 MANCHESTER,+MAPLEWOOD,+MO+63143&hl=en"
MARION COUNTY SHERIFF'S DEPT,MARION COUNTY SHERIFF'S DEPT,204 N. WASHINGTON STREET,SALEM,IL,62881,"http://maps.google.com/maps?q=204 N. WASHINGTON STREET,+SALEM,+IL+62881&hl=en"
MARION POLICE DEPARTMENT,MARION POLICE DEPARTMENT CHIEF RAY O'NEAL,217 SOUTH MAIN STREET,MARION,KY,42064,"http://maps.google.com/maps?q=217 SOUTH MAIN STREET,+MARION,+KY+42064&hl=en"
MARION POLICE DEPARTMENT,MARION POLICE DEPARTMENT PERMANENT DROP BOX,3477 HWY 77,MARION,AR,72364,"http://maps.google.com/maps?q=3477 HWY 77,+MARION,+AR+72364&hl=en"
MARYLAND HEIGHTS POLICE DEPARTMENT,MARYLAND HEIGHTS POLICE DEPARTMENT,11911 DORSETTE ROAD,MARYLAND HEIGHTS,MO,63043,"http://maps.google.com/maps?q=11911 DORSETTE ROAD,+MARYLAND HEIGHTS,+MO+63043&hl=en"
MARYVILLE POLICE DEPT,MARYVILLE POLICE DEPARTMENT,2500 N. CENTER,MARYVILLE,IL,62062,"http://maps.google.com/maps?q=2500 N. CENTER,+MARYVILLE,+IL+62062&hl=en"
MASSAC COUNTY SHERIFF'S DEPT,MASSAC COUNTY SHERIFF'S DEPT LOCATED IN THE LOBBY,515 MARKET ST,METROPOLIS,IL,62960,"http://maps.google.com/maps?q=515 MARKET ST,+METROPOLIS,+IL+62960&hl=en"
MCLEANSBORO POLICE DEPARTMENT,MCLEANSBORO FIRE DEPARTMENT,108 SOUTH MARSHALL AVE,MCLEANSBORO,IL,62859,"http://maps.google.com/maps?q=108 SOUTH MARSHALL AVE,+MCLEANSBORO,+IL+62859&hl=en"
MEMPHIS POLICE DEPT.,HERENTON RENAISSANCE CENTER,990 COLLEGE PARK DR,MEMPHIS,TN,38126,"http://maps.google.com/maps?q=990 COLLEGE PARK DR,+MEMPHIS,+TN+38126&hl=en"
MEMPHIS POLICE DEPT.,KROGER,3444 PLAZA AVE.,MEMPHIS,TN,38111,"http://maps.google.com/maps?q=3444 PLAZA AVE.,+MEMPHIS,+TN+38111&hl=en"
MEMPHIS POLICE DEPT.,ST. LOUIS CATHOLIC CHURCH,203 S. WHITE STATION RD,MEMPHIS,TN,38117,"http://maps.google.com/maps?q=203 S. WHITE STATION RD,+MEMPHIS,+TN+38117&hl=en"
MILAN POLICE DEPARTMENT,MILAN PUBLIC SAFETY BUILDING DROP BOX IN LOBBY,7029 TELECOM DRIVE,MILAN,TN,38358,"http://maps.google.com/maps?q=7029 TELECOM DRIVE,+MILAN,+TN+38358&hl=en"
MILLINGTON POLICE DEPT.,KROGER,8039 HWY 51,MILLINGTON,TN,38053,"http://maps.google.com/maps?q=8039 HWY 51,+MILLINGTON,+TN+38053&hl=en"
MILLINGTON POLICE DEPT.,WALMART,8445 HWY 51,MILLINGTON,TN,38053,"http://maps.google.com/maps?q=8445 HWY 51,+MILLINGTON,+TN+38053&hl=en"
MOUNTAIN GROVE POLICE DEPT.,MOUNTAIN GROVE POLICE DEPT.,102 E. STATE,MOUNTAIN GROVE,MO,65711,"http://maps.google.com/maps?q=102 E. STATE,+MOUNTAIN GROVE,+MO+65711&hl=en"
MOUNTAIN VIEW POLICE DEPARTMENT,MITCHELL'S MAIN STREET PHARMACY,214 EAST MAIN ST,MOUNTAIN VIEW,AR,72560,"http://maps.google.com/maps?q=214 EAST MAIN ST,+MOUNTAIN VIEW,+AR+72560&hl=en"
MOUNTAIN VIEW POLICE DEPARTMENT,MOUNTAIN VIEW POLICE DEPARTMENT PERMANENT DROP BOX,203 SOUTH PEABODY,MOUNTAIN VIEW,AR,72560,"http://maps.google.com/maps?q=203 SOUTH PEABODY,+MOUNTAIN VIEW,+AR+72560&hl=en"
MT. VERNON POLICE DEPARTMENT,MT. VERNON POLICE DEPARTMENT,211 N. 10TH ST,MOUNT VERNON,IL,62864,"http://maps.google.com/maps?q=211 N. 10TH ST,+MOUNT VERNON,+IL+62864&hl=en"
MUNFORD POLICE DEPARTMENT,MUNFORD POLICE DEPARTMENT,79 COLLEGE STREET,MUNFORD,TN,38058,"http://maps.google.com/maps?q=79 COLLEGE STREET,+MUNFORD,+TN+38058&hl=en"
MURPHYSBORO POLICE DEPARTMENT,KROGERS,550 E. INDUSTRIAL PARK ROADLOT 1,MURPHYSBORO,IL,62966,"http://maps.google.com/maps?q=550 E. INDUSTRIAL PARK ROAD,+MURPHYSBORO,+IL+62966&hl=en"
NEW BADEN POLICE DEPARTMENT,NEW BADEN POLICE DEPARTMENT,100 E. HANOVER STREET,NEW BADEN,IL,62265,"http://maps.google.com/maps?q=100 E. HANOVER STREET,+NEW BADEN,+IL+62265&hl=en"
NEWPORT POLICE DEPARTMENT,NEWPORT POLICE DEPARTMENT PERMANENT DROP BOX,615 THIRD ST.,NEWPORT,AR,72112,"http://maps.google.com/maps?q=615 THIRD ST.,+NEWPORT,+AR+72112&hl=en"
O'FALLON POLICE DEPARTMENT,O'FALLON PUBLIC SAFETY BUILDING,285 NORTH SEVEN HILLS ROAD,O FALLON,IL,62269,"http://maps.google.com/maps?q=285 NORTH SEVEN HILLS ROAD,+O FALLON,+IL+62269&hl=en"
OLIVE BRANCH POLICE DEPARTMENT,OLIVE BRANCH POLICE DEPARTMENT LT. JASON OLIVERIA,10470 HIGHWAY 178,OLIVE BRANCH,MS,38654,"http://maps.google.com/maps?q=10470 HIGHWAY 178,+OLIVE BRANCH,+MS+38654&hl=en"
OLIVETTE POLICE DEPARTMENT,OLIVETTE MUNICIPAL BUILDING,1140 DIELMAN RD.,OLIVETTE,MO,63132,"http://maps.google.com/maps?q=1140 DIELMAN RD.,+OLIVETTE,+MO+63132&hl=en"
OSAGE BEACH POLICE DEPARTMENT,OSAGE BEACH POLICE DEPARTMENT,1000 CITY PARKWAY,OSAGE BEACH,MO,65065,"http://maps.google.com/maps?q=1000 CITY PARKWAY,+OSAGE BEACH,+MO+65065&hl=en"
OVERLAND (MO) POLICE DEPARTMENT,OVERLAND POLICE DEPT.,2410 GOODALE,OVERLAND,MO,63114,"http://maps.google.com/maps?q=2410 GOODALE,+OVERLAND,+MO+63114&hl=en"
OZARK COUNTY SHERIFF,OZARK COUNTY SHERIFF'S OFFICE,1818 COUNTY ROAD 806,GAINESVILLE,MO,65655,"http://maps.google.com/maps?q=1818 COUNTY ROAD 806,+GAINESVILLE,+MO+65655&hl=en"
PACIFIC POLICE DEPARTMENT,PACIFIC POLICE DEPARTMENT,300 HOVEN DRIVE,PACIFIC,MO,63069,"http://maps.google.com/maps?q=300 HOVEN DRIVE,+PACIFIC,+MO+63069&hl=en"
PADUCAH POLICE DEPARTMENT,KENTUCKY OAKS MALL MAIN ENTRANCE,5101 HINKLEVILLE RD,PADUCAH,KY,42001,"http://maps.google.com/maps?q=5101 HINKLEVILLE RD,+PADUCAH,+KY+42001&hl=en"
PARK HILLS POLICE DEPARTMENT,PARK HILLS POLICE DEPARTMENT,8 MUNICIPAL ST,PARK HILLS,MO,63601,"http://maps.google.com/maps?q=8 MUNICIPAL ST,+PARK HILLS,+MO+63601&hl=en"
PERRY COUNTY SHERIFF,PERRY COUNTY SHERIFF,710 S. KINGSHIGHWAY ST,PERRYVILLE,MO,63775,"http://maps.google.com/maps?q=710 S. KINGSHIGHWAY ST,+PERRYVILLE,+MO+63775&hl=en"
PERRY COUNTY SHERIFF'S OFFICE,PERRY COUNTY SHERIFF'S OFFICE,12 E. WATER STREET,PINCKNEYVILLE,IL,62274,"http://maps.google.com/maps?q=12 E. WATER STREET,+PINCKNEYVILLE,+IL+62274&hl=en"
PERRYVILLE POLICE DEPARTMENT,PERRYVILLE POLICE DEPARTMENT,120 N. JACKSON STREET,PERRYVILLE,MO,63775,"http://maps.google.com/maps?q=120 N. JACKSON STREET,+PERRYVILLE,+MO+63775&hl=en"
PEVELY POLICE DEPARTMENT,PEVELY POLICE DEPARTMENT,401 MAIN STREET,PEVELY,MO,63070,"http://maps.google.com/maps?q=401 MAIN STREET,+PEVELY,+MO+63070&hl=en"
PIGGOTT POLICE DEPARTMENT,PIGGOTT POLICE DEPARTMENT/CITY HALL,194 WEST COURT STREET,PIGGOTT,AR,72454,"http://maps.google.com/maps?q=194 WEST COURT STREET,+PIGGOTT,+AR+72454&hl=en"
POCAHONTAS POLICE DEPARTMENT,POCAHONTAS CITY HALL PERMANENT DROP BOX,410 N. MARR,POCAHONTAS,AR,72455,"http://maps.google.com/maps?q=410 N. MARR,+POCAHONTAS,+AR+72455&hl=en"
POINSETT COUNTY SHERIFF'S OFFICE,POINSETT COUNTY DETENTION CENTER PERMANENT DROP BOX,1500 JUSTICE DRIVE,HARRISBURG,AR,72432,"http://maps.google.com/maps?q=1500 JUSTICE DRIVE,+HARRISBURG,+AR+72432&hl=en"
POPLAR BLUFF POLICE DEPARTMENT,POPLAR BLUFF POLICE DEPARTMENT,1111 POPLAR ST,POPLAR BLUFF,MO,63901,"http://maps.google.com/maps?q=1111 POPLAR ST,+POPLAR BLUFF,+MO+63901&hl=en"
PULASKI SHERIFF'S OFFICE,PULASKI SHERIFF'S OFFICE,500 ILLINOIS AVEROOM A,MOUND CITY,IL,62963,"http://maps.google.com/maps?q=500 ILLINOIS AVE,+MOUND CITY,+IL+62963&hl=en"
PUXICO POLICE DEPARTMENT,PUXICO POLICE DEPARTMENT,141 N. HICKMAN,PUXICO,MO,63960,"http://maps.google.com/maps?q=141 N. HICKMAN,+PUXICO,+MO+63960&hl=en"
RED BUD POLICE DEPARTMENT (5 SETS),COULTERVILLE POLICE DEPARTMENT,114 N. 4TH STREET,COULTERVILLE,IL,62237,"http://maps.google.com/maps?q=114 N. 4TH STREET,+COULTERVILLE,+IL+62237&hl=en"
RED BUD POLICE DEPARTMENT (5 SETS),DOEHRINGS PHARMACY,143 S. WASHINGTON,NASHVILLE,IL,62263,"http://maps.google.com/maps?q=143 S.  WASHINGTON,+NASHVILLE,+IL+62263&hl=en"
RED BUD POLICE DEPARTMENT (5 SETS),RANDOLPH COUNTY SHERIFF,200 W. BUENA VISTA,CHESTER,IL,62233,"http://maps.google.com/maps?q=200 W. BUENA VISTA,+CHESTER,+IL+62233&hl=en"
RED BUD POLICE DEPARTMENT (5 SETS),RED BUD POLICE DEPARTMENT,200 E. MARKET,RED BUD,IL,62278,"http://maps.google.com/maps?q=200 E. MARKET,+RED BUD,+IL+62278&hl=en"
RED BUD POLICE DEPARTMENT (5 SETS),SPARTA POLICE DEPARTMENT,112 W. JACKSON,SPARTA,IL,62286,"http://maps.google.com/maps?q=112 W. JACKSON,+SPARTA,+IL+62286&hl=en"
REYNOLDS COUNTY SHERIFF'S OFFICE,REYNOLDS COUNTY SHERIFF'S OFFICE,2319 GREEN ST.,CENTERVILLE,MO,63633,"http://maps.google.com/maps?q=2319 GREEN ST.,+CENTERVILLE,+MO+63633&hl=en"
RICHMOND HEIGHTS POLICE DEPARTMENT,RICHMOND HEIGHTS POLICE DEPARTMENT FRONT LOBBY,7447 DALE AVENUE,RICHMOND HEIGHTS,MO,63117,"http://maps.google.com/maps?q=7447 DALE AVENUE,+RICHMOND HEIGHTS,+MO+63117&hl=en"
ROLLA POLICE DEPTARNEMT,ROLLA POLICE DEPARTMENT,1007 NORTH ELM STREET,ROLLA,MO,65401,"http://maps.google.com/maps?q=1007 NORTH ELM STREET,+ROLLA,+MO+65401&hl=en"
SALEM POLICE DEPARTMENT,SALEM POLICE DEPARTMENT,201 S. ROTAN AVE.,SALEM,IL,62881,"http://maps.google.com/maps?q=201 S. ROTAN AVE.,+SALEM,+IL+62881&hl=en"
SALINE COUNTY SHERIFF'S OFFICE,SALINE COUNTY COURTHOUSE PARKING LOT,10 E POPLAR ST,HARRISBURG,IL,62946,"http://maps.google.com/maps?q=10 E POPLAR ST,+HARRISBURG,+IL+62946&hl=en"
SIKESTON DEPARTMENT OF PUBLIC SAFETY,SIKESTON DEPARTMENT OF PUBLIC SAFETY,201 NORTH KINGSHIGHWAY,SIKESTON,MO,63801,"http://maps.google.com/maps?q=201 NORTH KINGSHIGHWAY,+SIKESTON,+MO+63801&hl=en"
ST FRANCIS COUNTY SHERIFF'S DEPARTMENT,ST. FRANCIS COUNTY COURT HOUSE,313 SOUTH IZARD,FORREST CITY,AR,72335,"http://maps.google.com/maps?q=313 SOUTH IZARD,+FORREST CITY,+AR+72335&hl=en"
ST. ANN POLICE DEPARTMENT (DOUBLE BOXES),ST. ANN POLICE DEPARTMENT,10405 ST. CHARLES ROCK RD.,SAINT ANN,MO,63074,"http://maps.google.com/maps?q=10405 ST. CHARLES ROCK RD.,+SAINT ANN,+MO+63074&hl=en"
ST. CLAIR COUNTY SHERIFF'S DEPARTMENT,ST CLAIR COUNTY SHERIFF'S DEPARTMENT,700 NORTH 5TH STREET,BELLEVILLE,IL,62220,"http://maps.google.com/maps?q=700 NORTH 5TH STREET,+BELLEVILLE,+IL+62220&hl=en"
ST. CLAIRE STATE'S ATTORNEY'S OFFICE,ST. CLAIR COURTHOUSE,10 PUBLIC SQUARE,BELLEVILLE,IL,62220,"http://maps.google.com/maps?q=10 PUBLIC SQUARE,+BELLEVILLE,+IL+62220&hl=en"
ST. JAMES POLICE DEPT,ST. JAMES POLICE DEPARTMENT,200 NORTH BOURBEUSE STREET,SAINT JAMES,MO,65559,"http://maps.google.com/maps?q=200 NORTH BOURBEUSE STREET,+SAINT JAMES,+MO+65559&hl=en"
ST. JOHN POLICE DEPARTMENT,CITY OF ST. JOHN MUNICIPAL BUILDING POLICE DEPARTMENT,8944 ST. CHARLES ROCK ROAD,SAINT JOHN,MO,63114,"http://maps.google.com/maps?q=8944 ST. CHARLES ROCK ROAD,+SAINT JOHN,+MO+63114&hl=en"
ST. LOUIS COUNTY POLICE DEPARTMENT,CENTRAL COUNTY PRECINCT,1333 ASHBY ROAD,SAINT LOUIS,MO,63132,"http://maps.google.com/maps?q=1333 ASHBY ROAD,+SAINT LOUIS,+MO+63132&hl=en"
ST. LOUIS COUNTY POLICE DEPARTMENT,CITY OF FENTON PRECINCT (IN MUNICIPAL BUILDING),625 NEW SMIZER MILL RD,FENTON,MO,63026,"http://maps.google.com/maps?q=625 NEW SMIZER MILL RD,+FENTON,+MO+63026&hl=en"
ST. LOUIS COUNTY POLICE DEPARTMENT,CITY OF GREEN PARK CITY HALL,11100 MUELLER ROAD #2,GREEN PARK,MO,63123,"http://maps.google.com/maps?q=11100 MUELLER ROAD #2,+GREEN PARK,+MO+63123&hl=en"
ST. LOUIS COUNTY POLICE DEPARTMENT,CITY OF HANLEY HILLS SUBSTATION,7713 UTICA,HANLEY HILLS,MO,63133,"http://maps.google.com/maps?q=7713 UTICA,+HANLEY HILLS,+MO+63133&hl=en"
ST. LOUIS COUNTY POLICE DEPARTMENT,CITY OF JENNINGS PRECINCT,5445 JENNINGS STATION ROAD,JENNINGS,MO,63136,"http://maps.google.com/maps?q=5445 JENNINGS STATION ROAD,+JENNINGS,+MO+63136&hl=en"
ST. LOUIS COUNTY POLICE DEPARTMENT,CITY OF TWIN OAKS CITY HALL,1393 BIG BEND ROADSUITE F,TWIN OAKS,MO,63021,"http://maps.google.com/maps?q=1393 BIG BEND ROAD,+TWIN OAKS,+MO+63021&hl=en"
ST. LOUIS COUNTY POLICE DEPARTMENT,CITY OF WINCHESTER CITY HALL,109 LINDY BLVD,WINCHESTER,MO,63021,"http://maps.google.com/maps?q=109 LINDY BLVD,+WINCHESTER,+MO+63021&hl=en"
ST. LOUIS COUNTY POLICE DEPARTMENT,GRANTWOOD VILLAGE CITY HALL,ONE MISSIONARY RIDGE,SAINT LOUIS,MO,63123,"http://maps.google.com/maps?q=ONE MISSIONARY RIDGE,+SAINT LOUIS,+MO+63123&hl=en"
ST. LOUIS COUNTY POLICE DEPARTMENT,NORTH COUNTY RECREATIONAL COMPLEX,2577 REDMAN ROAD,SAINT LOUIS,MO,63136,"http://maps.google.com/maps?q=2577 REDMAN ROAD,+SAINT LOUIS,+MO+63136&hl=en"
ST. LOUIS COUNTY POLICE DEPARTMENT,SOUTH COUNTY PRECINCT,324 SAPPINGTON BARRACKS,SAINT LOUIS,MO,63125,"http://maps.google.com/maps?q=324 SAPPINGTON BARRACKS,+SAINT LOUIS,+MO+63125&hl=en"
ST. LOUIS COUNTY POLICE DEPARTMENT,VILLAGE OF MARLBOROUGH CITY HALL,7826 WIMBLEDON,SAINT LOUIS,MO,63119,"http://maps.google.com/maps?q=7826 WIMBLEDON,+SAINT LOUIS,+MO+63119&hl=en"
ST. LOUIS COUNTY POLICE DEPARTMENT,WEST COUNTY PRECINCT,232 VANCE ROAD,VALLEY PARK,MO,63088,"http://maps.google.com/maps?q=232 VANCE ROAD,+VALLEY PARK,+MO+63088&hl=en"
ST. LOUIS UNIVERSITY-DEPARTMENT OF PUBLIC SAFETY,WOOL CENTER - 27TH & 29TH @ DEBURG HALL DEPARTMENT OF PUBLIC SAFETY-SAINT LOUIS UNIVERSITY,3545 LINDELL DRIVE,SAINT LOUIS,MO,63103,"http://maps.google.com/maps?q=3545 LINDELL DRIVE,+SAINT LOUIS,+MO+63103&hl=en"
STEELE POLICE DEPARTMENT,STEELE POLICE DEPARTMENT,115 S WALNUT,STEELE,MO,63877,"http://maps.google.com/maps?q=115 S WALNUT,+STEELE,+MO+63877&hl=en"
SUNSET HILLS POLICE DEPARTMENT,SUNSET HILLS POLICE DEPARTMENT,3905 S. LINDBERGH,SUNSET HILLS,MO,63127,"http://maps.google.com/maps?q=3905 S. LINDBERGH,+SUNSET HILLS,+MO+63127&hl=en"
SWANSEA POLICE DEPT,WALGREENS,2532 N. ILLINOIS STREET,BELLEVILLE,IL,62226,"http://maps.google.com/maps?q=2532 N. ILLINOIS STREET,+BELLEVILLE,+IL+62226&hl=en"
TERRE DU LAC POLICE DEPARTMENT,TERRE DU LAC POLICE DEPARTMENT REAR OF BUILDING,111 RUE TERRE BONNE,BONNE TERRE,MO,63628,"http://maps.google.com/maps?q=111 RUE TERRE BONNE,+BONNE TERRE,+MO+63628&hl=en"
THAYER POLICE DEPARTMENT,THAYER POLICE DEPARTMENT,102 FRONT ST.,THAYER,MO,65791,"http://maps.google.com/maps?q=102 FRONT ST.,+THAYER,+MO+65791&hl=en"
TISHOMINGO COUNTY SHERIFF'S OFFICE,TISHOMINGO COUNTY SHERIFF'S OFFICE,1208 BETTYDALE DRIVE,IUKA,MS,38852,"http://maps.google.com/maps?q=1208 BETTYDALE DRIVE,+IUKA,+MS+38852&hl=en"
TOWN AND COUNTRY PD,TOWN AND COUNTRY PD,1011 MUNICIPAL CENTER DRIVE,TOWN AND COUNTRY,MO,63131,"http://maps.google.com/maps?q=1011 MUNICIPAL CENTER DRIVE,+TOWN AND COUNTRY,+MO+63131&hl=en"
TRENTON POLICE DEPARTMENT,TRENTON POLICE DEPARTMENT,25 W. INDIANA STREET,TRENTON,IL,62293,"http://maps.google.com/maps?q=25 W. INDIANA STREET,+TRENTON,+IL+62293&hl=en"
TRIGG COUNTY SHERIFF'S OFFICE,TRIGG COUNTY SHERIFF'S OFFICE,134 COMMERCE STREET,CADIZ,KY,42211,"http://maps.google.com/maps?q=134 COMMERCE STREET,+CADIZ,+KY+42211&hl=en"
TUNICA COUNTY SHERIFF'S OFFICE,TUNICA COUNTY SHERIFF'S OFFICE,5126 OLD MHOON LANDING ROAD,TUNICA,MS,38676,"http://maps.google.com/maps?q=5126 OLD MHOON LANDING ROAD,+TUNICA,+MS+38676&hl=en"
UNION CITY POLICE DEPARTMENT,BAPTIST MEMORIAL HOSPITAL,1201 BISHOP STREET,UNION CITY,TN,38261,"http://maps.google.com/maps?q=1201 BISHOP STREET,+UNION CITY,+TN+38261&hl=en"
UNIVERSITY CITY POLICE DEPARTMENT,MILLBROOK PHARMACY,7010 PERSHING AVENUE,UNIVERSITY CITY,MO,63130,"http://maps.google.com/maps?q=7010 PERSHING AVENUE,+UNIVERSITY CITY,+MO+63130&hl=en"
VANDALIA POLICE DEPARTMENT,VANDALIA POLICE DEPARTMENT,219 SOUTH 5TH STREET,VANDALIA,IL,62471,"http://maps.google.com/maps?q=219 SOUTH 5TH STREET,+VANDALIA,+IL+62471&hl=en"
WABASH COUNTY SHERIFF'S OFFICE,WABASH COUNTY SHERIFF'S OFFICE,120 E. 4TH STREET,MOUNT CARMEL,IL,62863,"http://maps.google.com/maps?q=120 E. 4TH STREET,+MOUNT CARMEL,+IL+62863&hl=en"
WATERLOO POLICE DEPARTMENT,SCHNUCKS,150 WATERLOO COMMONS DRIVE,WATERLOO,IL,62298,"http://maps.google.com/maps?q=150 WATERLOO COMMONS DRIVE,+WATERLOO,+IL+62298&hl=en"
WATERLOO POLICE DEPARTMENT,WATERLOO POLICE DEPARMTMENT LOBBY,"301 S, MAIN STREET",WATERLOO,IL,62298,"http://maps.google.com/maps?q=301 S, MAIN STREET,+WATERLOO,+IL+62298&hl=en"
WAYNE COUNTY SHERIFF'S OFFICE,WAYNE COUNTY SHERIFF'S OFFICE,100 MAPLE ST,GREENVILLE,MO,63944,"http://maps.google.com/maps?q=100 MAPLE ST,+GREENVILLE,+MO+63944&hl=en"
WAYNE COUNTY SHERIFF'S OFFICE,WAYNE COUNTY SHERIFF'S OFFICE,305 EAST COURT,FAIRFIELD,IL,62837,"http://maps.google.com/maps?q=305 EAST COURT,+FAIRFIELD,+IL+62837&hl=en"
WAYNESBORO POLICE DEPT,FRED'S PHARMACY,307 HWY 64 E,WAYNESBORO,TN,38485,"http://maps.google.com/maps?q=307 HWY 64 E,+WAYNESBORO,+TN+38485&hl=en"
WEBSTER COUNTY SHERIFF'S OFFICE,WEBSTER COUNTY HEALTH UNIT,233 E. WASHINGTON ST,MARSHFIELD,MO,65706,"http://maps.google.com/maps?q=233 E. WASHINGTON ST,+MARSHFIELD,+MO+65706&hl=en"
WEBSTER COUNTY SHERIFF'S OFFICE,WEBSTER COUNTY SHERIFF'S OFFICE,25 US HWY 41 A SOUTH,DIXON,KY,42409,"http://maps.google.com/maps?q=25 US HWY 41 A SOUTH,+DIXON,+KY+42409&hl=en"
WEBSTER GROVES POLICE DEPARTMENT,WEBSTER GROVES RECREATION COMPLEX,33 EAST GLENDALE AVENUE,WEBSTER GROVES,MO,63119,"http://maps.google.com/maps?q=33 EAST GLENDALE AVENUE,+WEBSTER GROVES,+MO+63119&hl=en"
WEINER POLICE DEPARTMENT,WEINER POLICE DEPARTMENT,123 WEST 2ND STREET,WEINER,AR,72479,"http://maps.google.com/maps?q=123 WEST 2ND STREET,+WEINER,+AR+72479&hl=en"
WEST CITY POLICE DEPT,WEST CITY POLICE DEPT.,201 S. BROWNING ST,WEST CITY,IL,62812,"http://maps.google.com/maps?q=201 S. BROWNING ST,+WEST CITY,+IL+62812&hl=en"
WEST MEMPHIS POLICE DEPARTMENT,WEST MEMPHIS POLICE DEPARTMENT PERMANENT DROP BOX,626 E. BROADWAY,WEST MEMPHIS,AR,72301,"http://maps.google.com/maps?q=626 E. BROADWAY,+WEST MEMPHIS,+AR+72301&hl=en"
WHITE COUNTY SHERIFF'S OFFICE,WHITE COUNTY SHERIFF'S OFFICE PERMANENT DROP BOX,1600 E BOOTH ROAD,SEARCY,AR,72143,"http://maps.google.com/maps?q=1600 E BOOTH ROAD,+SEARCY,+AR+72143&hl=en"
WILLIAMSON COUNTY SHERIFF'S OFFICE,WILLIAMSON COUNTY ADMINISTRATIVE BUILDING,407 N. MONROE,MARION,IL,62959,"http://maps.google.com/maps?q=407 N. MONROE,+MARION,+IL+62959&hl=en"
WOODRUFF COUNTY SHERIFF'S DEPARTMENT,WOODRUFF COUNTY COURT HOUSE,500 NORTH 3RD STREET,AUGUSTA,AR,72006,"http://maps.google.com/maps?q=500 NORTH 3RD STREET,+AUGUSTA,+AR+72006&hl=en"
WRIGHT COUNTY SHERIFF'S OFFICE,ANN SHORT TURNER COMMUNITY CENTER,205 N MISSOURI AVE,MANSFIELD,MO,65704,"http://maps.google.com/maps?q=205 N MISSOURI AVE,+MANSFIELD,+MO+65704&hl=en"
WRIGHT COUNTY SHERIFF'S OFFICE,WRIGHT COUNTY SHERIFF'S OFFICE,PO BOX 250125 COURT SQUARE,HARTVILLE,MO,65667,"http://maps.google.com/maps?q=PO BOX 250,+HARTVILLE,+MO+65667&hl=en"
WYNNE POLICE DEPARTMENT,WYNNE POLICE DEPARTMENT PERMANENT DROP BOX,206 S. FALLS,WYNNE,AR,72396,"http://maps.google.com/maps?q=206 S. FALLS,+WYNNE,+AR+72396&hl=en"
