Participant,CollectionSite,Address,City,State,Zip,MapURL
ALEXANDRIA POLICE DEPARTMENT,ALEXANDRIA TRANSFER STATION,29 SMITH RIVER RD,BRISTOL,NH,03222,"http://maps.google.com/maps?q=29 SMITH RIVER RD,+BRISTOL,+NH+03222&hl=en"
ALLENSTOWN POLICE DEPARTMENT,ALLENSTOWN POLICE DEPARTMENT DET. SGT. DAWN SHEA,40 ALLENSTOWN ROAD,ALLENSTOWN,NH,03275,"http://maps.google.com/maps?q=40 ALLENSTOWN ROAD,+ALLENSTOWN,+NH+03275&hl=en"
ALSTEAD POLICE DEPARTMENT,ALSTEAD POLICE DEPARTMENT,15 MECHANIC ST,ALSTEAD,NH,03602,"http://maps.google.com/maps?q=15 MECHANIC ST,+ALSTEAD,+NH+03602&hl=en"
AMHERST POLICE DEPARTMENT,WILDWOOD SCHOOL PARKING AREA,71 STRONG STREET,AMHERST,MA,01002,"http://maps.google.com/maps?q=71 STRONG STREET,+AMHERST,+MA+01002&hl=en"
ANDOVER POLICE DEPARTMENT,CIRCLE K,718 MAIN ST,ANDOVER,NH,03216,"http://maps.google.com/maps?q=718 MAIN ST,+ANDOVER,+NH+03216&hl=en"
ANDROSCOGGIN SHERIFF'S DEPARTMENT,POLAND TOWN OFFICE COMPLEX,1231 MAINE ST,POLAND,ME,04274,"http://maps.google.com/maps?q=1231 MAINE ST,+POLAND,+ME+04274&hl=en"
ANDROSCOGGIN SHERIFF'S DEPARTMENT,TURNER FIRE & RESCUE STATION,19 GENERAL TURNER HILL ROAD,TURNER,ME,04282,"http://maps.google.com/maps?q=19 GENERAL TURNER HILL ROAD,+TURNER,+ME+04282&hl=en"
AROOSTOOK COUNTY SHERIFF'S OFFICE,AROOSTOOK COUNTY SHERIFF'S OFFICE,25 SCHOOL STREET,HOULTON,ME,04730,"http://maps.google.com/maps?q=25 SCHOOL STREET,+HOULTON,+ME+04730&hl=en"
ASHLAND POLICE DEPARTMENT,ASHLAND POLICE DEPT.,20 HIGHLAND ST.,ASHLAND,NH,03217,"http://maps.google.com/maps?q=20 HIGHLAND ST.,+ASHLAND,+NH+03217&hl=en"
AUBURN POLICE DEPARTMENT,AUBURN POLICE DEPARTMENT COLLECTION BOX IN LOBBY,60 COURT STREET,AUBURN,ME,04210,"http://maps.google.com/maps?q=60 COURT STREET,+AUBURN,+ME+04210&hl=en"
AUBURN POLICE DEPARTMENT,BEDARD PHARMACY FRONT PARKING LOT,359 MINOT AVE,AUBURN,ME,04210,"http://maps.google.com/maps?q=359 MINOT AVE,+AUBURN,+ME+04210&hl=en"
AUGUSTA POLICE DEPARTMENT,AUGUSTA POLICE DEPARTMENT,33 UNION STREETSUITE #1,AUGUSTA,ME,04330,"http://maps.google.com/maps?q=33 UNION STREET,+AUGUSTA,+ME+04330&hl=en"
BAILEYVILLE POLICE DEPARTMENT,BAILEYVILLE POLICE DEPARTMENT,63 BROADWAY ST.,BAILEYVILLE,ME,04694,"http://maps.google.com/maps?q=63 BROADWAY ST.,+BAILEYVILLE,+ME+04694&hl=en"
BANGOR POLICE DEPARTMENT,BANGOR POLICE DEPARTMENT COLLECTION BOX IN LOBBY - JASON MCAMBLEY,240 MAIN STREET,BANGOR,ME,04401,"http://maps.google.com/maps?q=240 MAIN STREET,+BANGOR,+ME+04401&hl=en"
BAR HARBOR POLICE DEPARTMENT,BAR HARBOR POLICE DEPARTMENT,37 FIREFLY LANE,BAR HARBOR,ME,04609,"http://maps.google.com/maps?q=37 FIREFLY LANE,+BAR HARBOR,+ME+04609&hl=en"
BARNSTEAD POLICE DEPARTMENT,BARNSTEAD POLICE DEPARTMENT,119 SOUTH BARNSTEAD ROAD,CENTER BARNSTEAD,NH,03225,"http://maps.google.com/maps?q=119 SOUTH BARNSTEAD ROAD,+CENTER BARNSTEAD,+NH+03225&hl=en"
BARTLETT POLICE DEPARTMENT,BARTLETT POLICE DEPARTMENT BARTLETT TOWN HALL LOBBY,56 TOWN HALL ROAD,INTERVALE,NH,03845,"http://maps.google.com/maps?q=56 TOWN HALL ROAD,+INTERVALE,+NH+03845&hl=en"
BATH POLICE DEPARTMENT,BATH POLICE DEPARTMENT,250 WATER STREET,BATH,ME,04530,"http://maps.google.com/maps?q=250 WATER STREET,+BATH,+ME+04530&hl=en"
BELCHERTOWN POLICE DEPARTMENT,BELCHERTOWN POLICE DEPARTMENT,PARK STREETTOWN COMMON,BELCHERTOWN,MA,01007,"http://maps.google.com/maps?q=PARK STREET,+BELCHERTOWN,+MA+01007&hl=en"
BELFAST POLICE DEPARTMENT,BELFAST POLICE DEPARTMENT,112 CHURCH STREET,BELFAST,ME,04915,"http://maps.google.com/maps?q=112 CHURCH STREET,+BELFAST,+ME+04915&hl=en"
BELMONT POLICE DEPARTMENT,BELMONT NH POLICE DEPARTMENT,16 FULLER STREET,BELMONT,NH,03220,"http://maps.google.com/maps?q=16 FULLER STREET,+BELMONT,+NH+03220&hl=en"
BENNINGTON POLICE DEPARTMENT,BENNINGTON COUNTY SHERIFF'S DEPT FRONT LOBBY,811 US ROUTE 7 SOUTH,BENNINGTON,VT,05201,"http://maps.google.com/maps?q=811 US ROUTE 7 SOUTH,+BENNINGTON,+VT+05201&hl=en"
BENNINGTON POLICE DEPARTMENT,BENNINGTON POLICE DEPARTMENT FRONT LOBBY,118 SOUTH STREET,BENNINGTON,VT,05201,"http://maps.google.com/maps?q=118 SOUTH STREET,+BENNINGTON,+VT+05201&hl=en"
BENNINGTON POLICE DEPARTMENT,MANCHESTER POLICE DEPARTMENT FRONT LOBBY,6041 MAIN STREET,MANCHESTER CENTER,VT,05255,"http://maps.google.com/maps?q=6041 MAIN STREET,+MANCHESTER CENTER,+VT+05255&hl=en"
BENNINGTON POLICE DEPARTMENT,SOUTHWESTERN VERMONT MEDICAL CENTER FRONT LOBBY,100 HOSPITAL DRIVE,BENNINGTON,VT,05201,"http://maps.google.com/maps?q=100 HOSPITAL DRIVE,+BENNINGTON,+VT+05201&hl=en"
BENNINGTON POLICE DEPARTMENT,WINHALL POLICE DEPARTMENT FRONT LOBBY,113 VT ROUTE 30,BONDVILLE,VT,05340,"http://maps.google.com/maps?q=113 VT ROUTE 30,+BONDVILLE,+VT+05340&hl=en"
BERLIN POLICE DEPARTMENT,BERLIN POLICE DEPARTMENT,135 GREEN ST,BERLIN,NH,03570,"http://maps.google.com/maps?q=135 GREEN ST,+BERLIN,+NH+03570&hl=en"
BETHLEHEM POLICE DEPARTMENT,BETHLEHEM POLICCE DEPARTMENT,2155 MAIN ST,BETHLEHEM,NH,03574,"http://maps.google.com/maps?q=2155 MAIN ST,+BETHLEHEM,+NH+03574&hl=en"
BIDDEFORD POLICE DEPARTMENT,BIDDEFORD PUBLIC WORKS,371 HILL ST.,BIDDEFORD,ME,04005,"http://maps.google.com/maps?q=371 HILL ST.,+BIDDEFORD,+ME+04005&hl=en"
BOOTHBAY HARBOR POLICE DEPARTMENT,BOOTHBAY HARBOR POLICE DEPARTMENT,11 HOWARD STREET,BOOTHBAY HARBOR,ME,04538,"http://maps.google.com/maps?q=11 HOWARD STREET,+BOOTHBAY HARBOR,+ME+04538&hl=en"
BOSCAWEN POLICE DEPARTMENT,BOSCAWEN POLICE DEPARTMENT LT. JASON KILLARY,116 NORTH MAIN STREET,BOSCAWEN,NH,03303,"http://maps.google.com/maps?q=116 NORTH MAIN STREET,+BOSCAWEN,+NH+03303&hl=en"
BOW POLICE DEPARTMENT,BOW SAFETY CENTER,7 KNOX RD,BOW,NH,03304,"http://maps.google.com/maps?q=7 KNOX RD,+BOW,+NH+03304&hl=en"
BRADFORD POLICE DEPARTMENT,BRADFORD POLICE DEPARTMENT,2217 STATE ROUTE 114,BRADFORD,NH,03221,"http://maps.google.com/maps?q=2217 STATE ROUTE 114,+BRADFORD,+NH+03221&hl=en"
BREWER POLICE DEPARTMENT,BREWER POLICE DEPARTMENT,151 PARKWAY SOUTH,BREWER,ME,04412,"http://maps.google.com/maps?q=151 PARKWAY SOUTH,+BREWER,+ME+04412&hl=en"
BRIDGTON POLICE DEPARTMENT,BRIDGTON COMMUNITY CENTER,15 DEPOT STREET,BRIDGTON,ME,04009,"http://maps.google.com/maps?q=15 DEPOT STREET,+BRIDGTON,+ME+04009&hl=en"
BRISTOL POLICE DEPARTMENT,BRISTOL POLICE DEPARTMENT,72 MUNSILL AVENUE,BRISTOL,VT,05443,"http://maps.google.com/maps?q=72 MUNSILL AVENUE,+BRISTOL,+VT+05443&hl=en"
BRUNSWICK POLICE DEPARTMENT,BRUNSWICK POLICE DEPARTMENT,85 PLEASANT STREET,BRUNSWICK,ME,04011,"http://maps.google.com/maps?q=85 PLEASANT STREET,+BRUNSWICK,+ME+04011&hl=en"
BUCKSPORT POLICE DEPARTMENT,BUCKSPORT POLICE DEPARTMENT,89 FRANKLIN STREET,BUCKSPORT,ME,04416,"http://maps.google.com/maps?q=89 FRANKLIN STREET,+BUCKSPORT,+ME+04416&hl=en"
BURLINGTON POLICE DEPARTMENT,BURLINGTON POLICE DEPARTMENT NORTH LOBBY,1 NORTH AVE,BURLINGTON,VT,05401,"http://maps.google.com/maps?q=1 NORTH AVE,+BURLINGTON,+VT+05401&hl=en"
BUXTON POLICE DEPARTMENT,BUXTON POLICE DEPARTMENT,185 PORTLAND ROAD,BUXTON,ME,04093,"http://maps.google.com/maps?q=185 PORTLAND ROAD,+BUXTON,+ME+04093&hl=en"
BUXTON POLICE DEPARTMENT,RITE AID PHARMACY COLLECTION BY BUXTON PD OUTSIDE PHARMACY,226 PARKER FARM ROAD,BUXTON,ME,04093,"http://maps.google.com/maps?q=226 PARKER FARM ROAD,+BUXTON,+ME+04093&hl=en"
CALAIS POLICE DEPARTMENT,CALAIS POLICE DEPARTMENT LOBBY,312 NORTH STREET,CALAIS,ME,04619,"http://maps.google.com/maps?q=312 NORTH STREET,+CALAIS,+ME+04619&hl=en"
CALEDONIA COUNTY SHERIFF DEPT.,CALEDONIA COUNTY SHERIFF DEPT. DEAN SHATNEY,970 MEMORIAL DRIVE,SAINT JOHNSBURY,VT,05819,"http://maps.google.com/maps?q=970 MEMORIAL DRIVE,+SAINT JOHNSBURY,+VT+05819&hl=en"
CAMDEN POLICE DEPARTMENT,CAMDEN POLICE DEPARTMENT,31 WASHINGTON STREET,CAMDEN,ME,04843,"http://maps.google.com/maps?q=31 WASHINGTON STREET,+CAMDEN,+ME+04843&hl=en"
CAMPTON POLICE DEPARTMENT,CAMPTON POLICE DEPARTMENT SGT. FOSS,12 GEARTY WAY,CAMPTON,NH,03223,"http://maps.google.com/maps?q=12 GEARTY WAY,+CAMPTON,+NH+03223&hl=en"
CANAAN POLICE DEPARTMENT,CANAAN POLICE DEPARTMENT 10 AM -2 PM,52 ROUTE 118,CANAAN,NH,03741,"http://maps.google.com/maps?q=52 ROUTE 118,+CANAAN,+NH+03741&hl=en"
CANTERBURY POLICE DEPARTMENT,CANTERBURY POLICE DEPARTMENT CANTERBURY NH TOM BIBEAU,26 BAPTIST RD,CANTERBURY,NH,03224,"http://maps.google.com/maps?q=26 BAPTIST RD,+CANTERBURY,+NH+03224&hl=en"
CAPE ELIZABETH POLICE DEPARTMENT,CAPE ELIZABETH POLICE DEPARTMENT,325 OCEAN HOUSE ROAD,CAPE ELIZABETH,ME,04107,"http://maps.google.com/maps?q=325 OCEAN HOUSE ROAD,+CAPE ELIZABETH,+ME+04107&hl=en"
CARROLL COUNTY SHERIFF'S OFFICE,CARROLL COUNTY ADMINISTRATION BUILDING LOBBY BOX OR PARKING LOT ON 10/27/18 FROM 10 AM - 2 PM,95 WATER VILLAGE ROAD,OSSIPEE,NH,03864,"http://maps.google.com/maps?q=95 WATER VILLAGE ROAD,+OSSIPEE,+NH+03864&hl=en"
CASTLETON POLICE DEPARTMENT,CASTLETON POLICE DEPARTMENT,263 VT ROUTE 30,CASTLETON,VT,05735,"http://maps.google.com/maps?q=263 VT ROUTE 30,+CASTLETON,+VT+05735&hl=en"
CHESTERFIELD POLICE DEPARTMENT,CHESTERFIELD POLICE DEPARTMENT CHIEF DUANE CHICKERING,490 ROUTE 63PO BOX 231,CHESTERFIELD,NH,03443,"http://maps.google.com/maps?q=490 ROUTE 63,+CHESTERFIELD,+NH+03443&hl=en"
CHITTENDEN COUNTY SHERIFF'S OFFICE,PRICE CHOPPER SUPERMARKET,595 SHELBURNE ROAD,BURLINGTON,VT,05401,"http://maps.google.com/maps?q=595 SHELBURNE ROAD,+BURLINGTON,+VT+05401&hl=en"
CLAREMONT POLICE DEPARTMENT,CVS PARKING LOT DRIVE UP AND DROP OFF SITE,1 WALL STREET,CLAREMONT,NH,03743,"http://maps.google.com/maps?q=1 WALL STREET,+CLAREMONT,+NH+03743&hl=en"
CLINTON POLICE DEPARTMENT,CLINTON POLICE DEPARTMENT,27 BAKER STREET,CLINTON,ME,04927,"http://maps.google.com/maps?q=27 BAKER STREET,+CLINTON,+ME+04927&hl=en"
COLCHESTER POLICE DEPARTNEBT,COLCHESTER POLICE DEPARTMENT CHIEF DOUGLAS ALLEN,835 BLAKELY ROAD,COLCHESTER,VT,05446,"http://maps.google.com/maps?q=835 BLAKELY ROAD,+COLCHESTER,+VT+05446&hl=en"
COLEBROOK POLICE DEPARTMENT,COLEBROOK TOWN HALL CHIEF STEPHEN R. CASS,17 BRIDGE STREET,COLEBROOK,NH,03576,"http://maps.google.com/maps?q=17 BRIDGE STREET,+COLEBROOK,+NH+03576&hl=en"
CONCORD POLICE DEPARTMENT,CONCORD POLICE DEPARTMENT DET. MATTHEW LANKHORST,35 GREEN STREET,CONCORD,NH,03301,"http://maps.google.com/maps?q=35 GREEN STREET,+CONCORD,+NH+03301&hl=en"
CUMBERLAND COUNTY SHERIFF'S OFFICE,CUMBERLAND COUNTY SHERIFF'S OFFICE FRONT LOBBY - MEDICATION COLLECTION BOX,36 COUNTY WAY,PORTLAND,ME,04102,"http://maps.google.com/maps?q=36 COUNTY WAY,+PORTLAND,+ME+04102&hl=en"
CUMBERLAND COUNTY SHERIFF'S OFFICE,HARPSWELL TOWN HALL OPERATED BY CUMBERLAND COUNTY SHERIFF'S OFFICE,263 MOUNTAIN ROAD,HARPSWELL,ME,04079,"http://maps.google.com/maps?q=263 MOUNTAIN ROAD,+HARPSWELL,+ME+04079&hl=en"
CUMBERLAND COUNTY SHERIFF'S OFFICE,RAYMOND FIRE DEPARTMENT OPERATED BY CUMBERLAND COUNTY SHERIFF'S OFFICE,1443ROOSEVELT TRAIL,RAYMOND,ME,04071,"http://maps.google.com/maps?q=1443,+RAYMOND,+ME+04071&hl=en"
CUMBERLAND COUNTY SHERIFF'S OFFICE,STANDISH TOWN HALL OPERATED BY CUMBERLAND COUNTY SHERIFF'S OFFICE,175 NORTH EAST ROAD,STANDISH,ME,04084,"http://maps.google.com/maps?q=175 NORTH EAST ROAD,+STANDISH,+ME+04084&hl=en"
CUMBERLAND COUNTY SHERIFF'S OFFICE,UNIVERSITY OF NEW ENGLAND SCHOOL OF PHARMACY ENTRANCE ON STEVENS STREET - OPERATED BY DEA,716 STEVENS AVENUE,PORTLAND,ME,04103,"http://maps.google.com/maps?q=716 STEVENS AVENUE,+PORTLAND,+ME+04103&hl=en"
CUMBERLAND POLICE DEPARTMENT,CUMBERLAND POLICE DEPARTMENT,290 TUTTLE ROAD,CUMBERLAND CENTER,ME,04021,"http://maps.google.com/maps?q=290 TUTTLE ROAD,+CUMBERLAND CENTER,+ME+04021&hl=en"
CUMMINGTON POLICE DEPARTMENT,CUMMINGTON POLICE DEPARTMENT CUMMINGTON PUBLIC SAFETY COMPLEX,8 FAIRGROUNDS ROAD,CUMMINGTON,MA,01026,"http://maps.google.com/maps?q=8 FAIRGROUNDS ROAD,+CUMMINGTON,+MA+01026&hl=en"
DAMARISCOTTA POLICE DEPARTMENT,MILES MEMORIAL HOSPITAL FRONT WAITING ROOM MAIN ENTRANCE,35 MILES STREET,DAMARISCOTTA,ME,04543,"http://maps.google.com/maps?q=35 MILES STREET,+DAMARISCOTTA,+ME+04543&hl=en"
DEERFIELD POLICE DEPARTMENT,DEERFIELD POLICE DEPARTMENT,8 CONWAY STREET,SOUTH DEERFIELD,MA,01373,"http://maps.google.com/maps?q=8 CONWAY STREET,+SOUTH DEERFIELD,+MA+01373&hl=en"
DEXTER POLICE DEPARTMENT,DEXTER POLICE STATION COLLECTION BOX IN LOBBY,1 MAIN STREET,DEXTER,ME,04930,"http://maps.google.com/maps?q=1 MAIN STREET,+DEXTER,+ME+04930&hl=en"
DIXFIELD POLICE DEPARTMENT,DIXFIELD POLICE DEPARTMENT,236 MAIN STREET,DIXFIELD,ME,04224,"http://maps.google.com/maps?q=236 MAIN STREET,+DIXFIELD,+ME+04224&hl=en"
DOVER POLICE DEPT.,DOVER POLICE DEPARTMENT CHIEF RANDY JOHNSON,246 ROUTE 100,WEST DOVER,VT,05356,"http://maps.google.com/maps?q=246 ROUTE 100,+WEST DOVER,+VT+05356&hl=en"
DOVER-FOXCROFT POLICE DEPARTMENT,DOVER-FOXCROFT POLICE DEPARTMENT,182 EAST MAIN STREET,DOVER FOXCROFT,ME,04426,"http://maps.google.com/maps?q=182 EAST MAIN STREET,+DOVER FOXCROFT,+ME+04426&hl=en"
DUBLIN POLICE DEPARTMENT,DUBLIN POLICE DEPARTMENT CHIEF TIMOTHY J. SUOKKO,1122 MAIN STREET,DUBLIN,NH,03444,"http://maps.google.com/maps?q=1122 MAIN STREET,+DUBLIN,+NH+03444&hl=en"
DUNBARTON POLICE DEPARTMENT,DUNBARTON POLICE DEPARTMENT,18 ROBERT ROGERS ROAD,DUNBARTON,NH,03046,"http://maps.google.com/maps?q=18 ROBERT ROGERS ROAD,+DUNBARTON,+NH+03046&hl=en"
EAST MILLINOCKET POLICE DEPARTMENT,EAST MILLINOCKET POLICE DEPARTMENT COLLECTION BOX IN LOBBY,125 MAIN STREET,EAST MILLINOCKET,ME,04430,"http://maps.google.com/maps?q=125 MAIN STREET,+EAST MILLINOCKET,+ME+04430&hl=en"
EASTHAMPTON POLICE DEPARTMENT,EASTHAMPTON PUBLIC SAFETY COMPLEX,32 PAYSON AVENUE,EASTHAMPTON,MA,01027,"http://maps.google.com/maps?q=32 PAYSON AVENUE,+EASTHAMPTON,+MA+01027&hl=en"
EASTPORT POLICE DEPARTMENT,EASTPORT POLICE DEPARTMENT,22 WASHINGTON STREET,EASTPORT,ME,04631,"http://maps.google.com/maps?q=22 WASHINGTON STREET,+EASTPORT,+ME+04631&hl=en"
ELLSWORTH POLICE DEPARTMENT,ELLSWORTH POLICE DEPARTMENT,1 CITY HALL PLAZA,ELLSWORTH,ME,04605,"http://maps.google.com/maps?q=1 CITY HALL PLAZA,+ELLSWORTH,+ME+04605&hl=en"
ENFIELD POLICE DEPARTMENT,ENFIELD TRANSFER STATION,39 LOCKEHAVEN ROAD,ENFIELD,NH,03748,"http://maps.google.com/maps?q=39 LOCKEHAVEN ROAD,+ENFIELD,+NH+03748&hl=en"
EPSOM POLICE DEPARTMENT,EPSOM POLICE DEPARTMENT WAYNE B PREVE,980 SUNCOOK VALLEY HWY,EPSOM,NH,03234,"http://maps.google.com/maps?q=980 SUNCOOK VALLEY HWY,+EPSOM,+NH+03234&hl=en"
ESSEX COUNTY SHERIFF,ESSEX COUNTY SHERIFF'S OFFICE,702 STOWERSVILLE RD.,LEWIS,NY,12950,"http://maps.google.com/maps?q=702 STOWERSVILLE RD.,+LEWIS,+NY+12950&hl=en"
ESSEX POLICE DEPARTMENT,ESSEX POLICE DEPARTMENT,145 MAPLE STREET,ESSEX JUNCTION,VT,05452,"http://maps.google.com/maps?q=145 MAPLE STREET,+ESSEX JUNCTION,+VT+05452&hl=en"
ESSEX POLICE DEPARTMENT,KINNEY DRUGS PHARMACY,82 PEARL STREET,ESSEX JUNCTION,VT,05452,"http://maps.google.com/maps?q=82 PEARL STREET,+ESSEX JUNCTION,+VT+05452&hl=en"
FAIR HAVEN POLICE DEPARTMENT,FAIR HAVEN POLICE DEPARTMENT BONNIE ROSATI,5 NORTH PARK PLACE,FAIR HAVEN,VT,05743,"http://maps.google.com/maps?q=5 NORTH PARK PLACE,+FAIR HAVEN,+VT+05743&hl=en"
FAIRFIELD POLICE DEPARTMENT,FAIRFIELD POLICE DEPARTMENT,1 POLICE PLAZA,FAIRFIELD,ME,04937,"http://maps.google.com/maps?q=1 POLICE PLAZA,+FAIRFIELD,+ME+04937&hl=en"
FALMOUTH POLICE DEPARTMENT,FALMOUTH POLICE DEPARTMENT,2 MARSHALL DRIVE,FALMOUTH,ME,04105,"http://maps.google.com/maps?q=2 MARSHALL DRIVE,+FALMOUTH,+ME+04105&hl=en"
FARMINGTON POLICE DEPARTMENT,FARMINGTON POLICE DEPARTMENT MEDICATION COLLECTION BOX IN LOBBY,116 FRANKLIN AVENUE,FARMINGTON,ME,04938,"http://maps.google.com/maps?q=116 FRANKLIN AVENUE,+FARMINGTON,+ME+04938&hl=en"
FORT KENT POLICE DEPARTMENT,FORT KENT POLICE DEPARTMENT,416 WEST MAIN STREET,FORT KENT,ME,04743,"http://maps.google.com/maps?q=416 WEST MAIN STREET,+FORT KENT,+ME+04743&hl=en"
FRANKLIN & TILTON POLICE DEPARTMENT,CVS PHARMACY PARKING LOT,861 CENTRAL STCVS PARKING LOT,FRANKLIN,NH,03235,"http://maps.google.com/maps?q=861 CENTRAL ST,+FRANKLIN,+NH+03235&hl=en"
FRANKLIN COUNTY SHERIFF'S OFFICE,FRANKLIN COUNTY SHERIFF'S OFFICE,123 COUNTY WAY,FARMINGTON,ME,04938,"http://maps.google.com/maps?q=123 COUNTY WAY,+FARMINGTON,+ME+04938&hl=en"
FREEPORT POLICE DEPARTMENT,FREEPORT POLICE DEPARTMENT,16 MAIN STREET,FREEPORT,ME,04032,"http://maps.google.com/maps?q=16 MAIN STREET,+FREEPORT,+ME+04032&hl=en"
FRYEBURG POLICE DEPARTMENT,RITE AID PHARMACY OUTSIDE PARKING LOT,119 BRIDGTON ROAD AT 5 FRYEBURG PLAZA,FRYEBURG,ME,04037,"http://maps.google.com/maps?q=119 BRIDGTON ROAD AT 5 FRYEBURG PLAZA,+FRYEBURG,+ME+04037&hl=en"
GARDINER POLICE DEPARTMENT,GARDINER POLICE DEPARTMENT,6 CHURCH STREET,GARDINER,ME,04345,"http://maps.google.com/maps?q=6 CHURCH STREET,+GARDINER,+ME+04345&hl=en"
GARDNER POLICE DEPARTMENT,PRICE CHOPPER GROCERY/PHARMACY,560 MAIN ST,GARDNER,MA,01440,"http://maps.google.com/maps?q=560 MAIN ST,+GARDNER,+MA+01440&hl=en"
GILMANTON POLICE DEPARTMENT,GILMANTON POLICE DEPARTMENT,297 NH ROUTE 140,GILMANTON,NH,03237,"http://maps.google.com/maps?q=297 NH ROUTE 140,+GILMANTON,+NH+03237&hl=en"
GOFFSTOWN POLICE DEPARTMENT,GOFFSTOWN POLICE DEPARTMENT,326 MAST ROAD,GOFFSTOWN,NH,03045,"http://maps.google.com/maps?q=326 MAST ROAD,+GOFFSTOWN,+NH+03045&hl=en"
GORHAM POLICE DEPARTMENT,GORHAM POLICE DEPARTMENT,20 PARK STREET,GORHAM,NH,03581,"http://maps.google.com/maps?q=20 PARK STREET,+GORHAM,+NH+03581&hl=en"
GORHAM POLICE DEPARTMENT,GORHAM POLICE DEPARTMENT,270 MAIN STREET,GORHAM,ME,04038,"http://maps.google.com/maps?q=270 MAIN STREET,+GORHAM,+ME+04038&hl=en"
GOSHEN POLICE DEPARTMENT,GOSHEN POLICE DEPARTMENT,40A MAIN ST,GOSHEN,MA,01032,"http://maps.google.com/maps?q=40A MAIN ST,+GOSHEN,+MA+01032&hl=en"
GOULDSBORO POLICE DEPARTMENT,GOULDSBORO TOWN OFFICE,59 MAIN STREET,PROSPECT HARBOR,ME,04669,"http://maps.google.com/maps?q=59 MAIN STREET,+PROSPECT HARBOR,+ME+04669&hl=en"
GRAND ISLE COUNTY SHERIFF'S DEPARTMENT,ALBURGH FIRE DEPARTMENT,60 FIREHOUSE ROAD,ALBURGH,VT,05440,"http://maps.google.com/maps?q=60 FIREHOUSE ROAD,+ALBURGH,+VT+05440&hl=en"
GRAND ISLE COUNTY SHERIFF'S DEPARTMENT,SOUTH HERO RESCUE BUILDING,329 US RT 2,SOUTH HERO,VT,05486,"http://maps.google.com/maps?q=329 US RT 2,+SOUTH HERO,+VT+05486&hl=en"
GRANTHAM POLICE DEPARTMENT,GRANTHAM POLICE DEPARTMENT,300 ROUTE 10 SOUTH,GRANTHAM,NH,03753,"http://maps.google.com/maps?q=300 ROUTE 10 SOUTH,+GRANTHAM,+NH+03753&hl=en"
GREENFIELD POLICE DEPARTMENT,GREENFIELD POLICE DEPARTMENT,321 HIGH STREET,GREENFIELD,MA,01301,"http://maps.google.com/maps?q=321 HIGH STREET,+GREENFIELD,+MA+01301&hl=en"
GREENVILLE POLICE DEPARTMENT,GREENVILLE POLICE DEPARTMENT,7 MINDEN ST,GREENVILLE,ME,04441,"http://maps.google.com/maps?q=7 MINDEN ST,+GREENVILLE,+ME+04441&hl=en"
HADLEY POLICE DEPARTMENT,HOPKINS ACADEMY HIGH SCHOOL,131 RUSSELL STREET,HADLEY,MA,01035,"http://maps.google.com/maps?q=131 RUSSELL STREET,+HADLEY,+MA+01035&hl=en"
HALLOWELL POLICE DEPARTMENT,HALLOWELL POLICE DEPARTMENT,1 WINTHROP STREET,HALLOWELL,ME,04347,"http://maps.google.com/maps?q=1 WINTHROP STREET,+HALLOWELL,+ME+04347&hl=en"
HAMPDEN POLICE DEPARTMENT,HAMPDEN POLICE DEPARTMENT,106 WESTERN AVENUE,HAMPDEN,ME,04444,"http://maps.google.com/maps?q=106 WESTERN AVENUE,+HAMPDEN,+ME+04444&hl=en"
HANCOCK COUNTY SHERIFF'S OFFICE,HANCOCK COUNTY SHERIFF'S OFFICE DROP BOX IN LOBBY,"50 STATE STREET, SUITE 10",ELLSWORTH,ME,04605,"http://maps.google.com/maps?q=50 STATE STREET, SUITE 10,+ELLSWORTH,+ME+04605&hl=en"
HANOVER POLICE DEPARTMENT,HANOVER POLICE DEPARTMENT,46 LYME RD,HANOVER,NH,03755,"http://maps.google.com/maps?q=46 LYME RD,+HANOVER,+NH+03755&hl=en"
HAVERHILL POLICE DEPARTMENT,HAVERHILL POLICE DEPARTMENT,2975 DARTMOUTH COLLEGE HIGHWAY,NORTH HAVERHILL,NH,03774,"http://maps.google.com/maps?q=2975 DARTMOUTH COLLEGE HIGHWAY,+NORTH HAVERHILL,+NH+03774&hl=en"
HENNIKER POLICE DEPARTMENT,HENNIKER POLICE DEPARTMENT,340 WESTERN AVE,HENNIKER,NH,03242,"http://maps.google.com/maps?q=340 WESTERN AVE,+HENNIKER,+NH+03242&hl=en"
HOLDEN POLICE DEPARTMENT,HOLDEN POLICE DEPARTMENT,570 MAIN STREET,HOLDEN,ME,04429,"http://maps.google.com/maps?q=570 MAIN STREET,+HOLDEN,+ME+04429&hl=en"
HOLYOKE POLICE DEPARTMENT,HOLYOKE PD NARCOTICS/VICE DIVISION,138 APPLETON ST,HOLYOKE,MA,01040,"http://maps.google.com/maps?q=138 APPLETON ST,+HOLYOKE,+MA+01040&hl=en"
HOOSICK FALLS POLICE DEPARTMENT,HOOSICK FALLS PD STATION,24 MAIN STREET,HOOSICK FALLS,NY,12090,"http://maps.google.com/maps?q=24 MAIN STREET,+HOOSICK FALLS,+NY+12090&hl=en"
HOPKINTON POLICE DEPARTMENT,HOPKINTON POLICE DEPARTMENT,1696 HOPKINTON ROAD,HOPKINTON,NH,03229,"http://maps.google.com/maps?q=1696 HOPKINTON ROAD,+HOPKINTON,+NH+03229&hl=en"
HOULTON POLICE DEPARTMENT,HOULTON POLICE DEPARTMENT,97 MILITARY STREET,HOULTON,ME,04730,"http://maps.google.com/maps?q=97 MILITARY STREET,+HOULTON,+ME+04730&hl=en"
JACKSON POLICE DEPARTMENT,JACSKON GRAMMAR SCHOOL,10 BLACK MT. RD.,JACKSON,NH,03846,"http://maps.google.com/maps?q=10 BLACK MT. RD.,+JACKSON,+NH+03846&hl=en"
JAFFREY POLICE DEPARTMENT,JAFFREY POLICE DEPARTMENT WILLIAM OSWALT,26 MAIN STREET,JAFFREY,NH,03452,"http://maps.google.com/maps?q=26 MAIN STREET,+JAFFREY,+NH+03452&hl=en"
JAY POLICE DEPARTMENT,JAY POLICE DEPARTMENT,340 MAIN STREET,JAY,ME,04239,"http://maps.google.com/maps?q=340 MAIN STREET,+JAY,+ME+04239&hl=en"
KEENE POLICE DEPARTMENT,KEENE POLICE DEPARTMENT,400 MARLBORO STREET,KEENE,NH,03431,"http://maps.google.com/maps?q=400 MARLBORO STREET,+KEENE,+NH+03431&hl=en"
KENNEBEC COUNTY SHERIFF'S OFFICE,BELGRADE TRANSFER STATION OPERATED BY KENNEBEC COUNTY SHERIFF'S OFFICE,6 MANCHESTER ROAD,BELGRADE,ME,04917,"http://maps.google.com/maps?q=6 MANCHESTER ROAD,+BELGRADE,+ME+04917&hl=en"
KENNEBEC COUNTY SHERIFF'S OFFICE,CHINA TRANSFER STATION OPERATED BY KENNEBEC COUNTY SHERIFF'S OFFICE,191 ALDER PARK ROAD,SOUTH CHINA,ME,04358,"http://maps.google.com/maps?q=191 ALDER PARK ROAD,+SOUTH CHINA,+ME+04358&hl=en"
KENNEBEC COUNTY SHERIFF'S OFFICE,KENNEBEC SHERIFFS OFFICE OPERATED BY KENNEBEC COUNTY SHERIFF'S OFFICE,125 STATE STREET,AUGUSTA,ME,04330,"http://maps.google.com/maps?q=125 STATE STREET,+AUGUSTA,+ME+04330&hl=en"
KENNEBEC COUNTY SHERIFF'S OFFICE,LITCHFIELD TRANSFER STATION OPERATED BY KENNEBEC COUNTY SHERIFF'S OFFICE,2274 HALLOWELL RD,LITCHFIELD,ME,04350,"http://maps.google.com/maps?q=2274 HALLOWELL RD,+LITCHFIELD,+ME+04350&hl=en"
KENNEBEC COUNTY SHERIFF'S OFFICE,READFIELD/WAYNE TRANSFER STATION OPERATED BY KENNEBEC COUNTY SHERIFF'S OFFICE,8 OLD KENTS HILL ROAD,READFIELD,ME,04355,"http://maps.google.com/maps?q=8 OLD KENTS HILL ROAD,+READFIELD,+ME+04355&hl=en"
KENNEBUNKPORT POLICE DEPARTMENT,KENNEBUNKPORT POLICE DEPARTMENT,101 MAIN STREET,KENNEBUNKPORT,ME,04046,"http://maps.google.com/maps?q=101 MAIN STREET,+KENNEBUNKPORT,+ME+04046&hl=en"
KNOX COUNTY SHERIFF'S OFFICE,UNION FIRE DEPARTMENT OPERATED BY KNOX COUNTY SHERIFF'S OFFICE,567 COMMON RD,UNION,ME,04862,"http://maps.google.com/maps?q=567 COMMON RD,+UNION,+ME+04862&hl=en"
KNOX COUNTY SHERIFF'S OFFICE,VINALHAVEN FIRE DEPARTMENT 207- 863-4604 OPERATED BY KNOX COUNTY SHERIFF'S OFFICE,56 WEST MAIN ST,VINALHAVEN,ME,04863,"http://maps.google.com/maps?q=56 WEST MAIN ST,+VINALHAVEN,+ME+04863&hl=en"
KNOX COUNTY SHERIFF'S OFFICE,WARREN FIRE DEPARTMENT OPERATED BY KNOX COUNTY SHERIFF'S OFFICE,167 WESTERN ROAD,WARREN,ME,04864,"http://maps.google.com/maps?q=167 WESTERN ROAD,+WARREN,+ME+04864&hl=en"
LACONIA POLICE DEPARTMENT,LACONIA POLICE DEPARTMENT,126 NEW SALEM ST,LACONIA,NH,03246,"http://maps.google.com/maps?q=126 NEW SALEM ST,+LACONIA,+NH+03246&hl=en"
LAMOILLE COUNTY SHERIFFS DEPT,HARDWICK POLICE DEPT,56 HIGH ST,HARDWICK,VT,05843,"http://maps.google.com/maps?q=56 HIGH ST,+HARDWICK,+VT+05843&hl=en"
LAMOILLE COUNTY SHERIFFS DEPT,KINNEY DRUGS,155 S MAIN ST,CAMBRIDGE,VT,05444,"http://maps.google.com/maps?q=155 S MAIN ST,+CAMBRIDGE,+VT+05444&hl=en"
LAMOILLE COUNTY SHERIFFS DEPT,KINNEY DRUGS,97 MORRISVILLE PLAZA,MORRISVILLE,VT,05661,"http://maps.google.com/maps?q=97 MORRISVILLE PLAZA,+MORRISVILLE,+VT+05661&hl=en"
LAMOILLE COUNTY SHERIFFS DEPT,LAMOILLE COUNTY SHERIFFS DEPT LUCAS MARCOUX,162 COMMONWEALTH AVE,HYDE PARK,VT,05655,"http://maps.google.com/maps?q=162 COMMONWEALTH AVE,+HYDE PARK,+VT+05655&hl=en"
LAMOILLE COUNTY SHERIFFS DEPT,STOWE POLICE DEPARTMENT,350 SOUTH MAIN ST,STOWE,VT,05672,"http://maps.google.com/maps?q=350 SOUTH MAIN ST,+STOWE,+VT+05672&hl=en"
LANCASTER POLICE DEPARTMENT,LANCASTER POLICE DEPARTMENT CHIEF TIM CHARBONNEAU,11 MECHANIC ST,LANCASTER,NH,03584,"http://maps.google.com/maps?q=11 MECHANIC ST,+LANCASTER,+NH+03584&hl=en"
LEBANON POLICE DEPARTMENT,LEBANON PD,36 POVERTY LN,LEBANON,NH,03766,"http://maps.google.com/maps?q=36 POVERTY LN,+LEBANON,+NH+03766&hl=en"
LEBANON POLICE DEPARTMENT,QUAIL HOLLOW,365 N MAIN ST,WEST LEBANON,NH,03784,"http://maps.google.com/maps?q=365 N MAIN ST,+WEST LEBANON,+NH+03784&hl=en"
LEBANON POLICE DEPARTMENT,ROGERS HOUSE,55 N PARK ST,LEBANON,NH,03766,"http://maps.google.com/maps?q=55 N PARK ST,+LEBANON,+NH+03766&hl=en"
LEVERETT POLICE DEPARTMENT,LEVERETT POLICE DEPARTMENT CHIEF SCOTT D. MINCKLER,95 MONTAGUE ROAD,LEVERETT,MA,01054,"http://maps.google.com/maps?q=95 MONTAGUE ROAD,+LEVERETT,+MA+01054&hl=en"
LEWISTON POLICE DEPARTMENT,LEWISTON HIGH SCHOOL OPERATED BY LEWISTON PD,156 EAST AVENUE,LEWISTON,ME,04240,"http://maps.google.com/maps?q=156 EAST AVENUE,+LEWISTON,+ME+04240&hl=en"
LINCOLN COUNTY SHERIFF'S DEPARTMENT,BOOTHBAY HARBOR FIRE EMS OPERATED BY LINCOLN COUNTY SHERIFFS OFFICE/BOOTHBAY HARB PD,11 HOWARD ST,BOOTHBAY HARBOR,ME,04538,"http://maps.google.com/maps?q=11 HOWARD ST,+BOOTHBAY HARBOR,+ME+04538&hl=en"
LINCOLN COUNTY SHERIFF'S DEPARTMENT,LINCOLN HEALTH MILES CAMPUS OPERATED BY LINCOLN COUNTY SHERIFFS OFFICE & DAMARISCOTTA PD,35 MILES ST,DAMARISCOTTA,ME,04543,"http://maps.google.com/maps?q=35 MILES ST,+DAMARISCOTTA,+ME+04543&hl=en"
LINCOLN COUNTY SHERIFF'S DEPARTMENT,SHEEPSCOT VALLEY HEALTH CENTER OPERATED BY LINCOLN COUNTY SHERIFF'S OFFICE,47 MAIN ST,COOPERS MILLS,ME,04341,"http://maps.google.com/maps?q=47 MAIN ST,+COOPERS MILLS,+ME+04341&hl=en"
LINCOLN POLICE DEPARTMENT,LINCOLN POLICE DEPARTMENT,148 MAIN ST.,LINCOLN,NH,03251,"http://maps.google.com/maps?q=148 MAIN ST.,+LINCOLN,+NH+03251&hl=en"
LINCOLN POLICE DEPARTMENT,LINCOLN PUBLIC SAFETY BUILDING,1 ADAMS STREET,LINCOLN,ME,04457,"http://maps.google.com/maps?q=1 ADAMS STREET,+LINCOLN,+ME+04457&hl=en"
LISBON POLICE DEPARTMENT,LISBON POLICE DEPARTMENT,300 LISBON ST,LISBON,ME,04250,"http://maps.google.com/maps?q=300 LISBON ST,+LISBON,+ME+04250&hl=en"
LISBON POLICE DEPARTMENT,LISBON POLICE DEPARTMENT,46 SCHOOL ST.,LISBON,NH,03585,"http://maps.google.com/maps?q=46 SCHOOL ST.,+LISBON,+NH+03585&hl=en"
LITTLETON POLICE DEPARTMENT,LITTLETON POLICE DEPARTMENT,2 KITTRIDGE LANE,LITTLETON,NH,03561,"http://maps.google.com/maps?q=2 KITTRIDGE LANE,+LITTLETON,+NH+03561&hl=en"
LIVERMORE FALLS POLICE DEPARTMENT,LIVERMORE FALLS POLICE DEPARTMENT,2 MAIN STREET,LIVERMORE FALLS,ME,04254,"http://maps.google.com/maps?q=2 MAIN STREET,+LIVERMORE FALLS,+ME+04254&hl=en"
LUDLOW POLICE DEPARTMENT,LUDLOW POLICE DEPARTMENT,612 CHAPIN ST,LUDLOW,MA,01056,"http://maps.google.com/maps?q=612 CHAPIN ST,+LUDLOW,+MA+01056&hl=en"
MACHIAS POLICE DEPARTMENT,HANNAFORD SUPERMARKET OUTSIDE PARKING LOT - OPERATED BY MACHIAS PD,149 DUBLIN STREET,MACHIAS,ME,04654,"http://maps.google.com/maps?q=149 DUBLIN STREET,+MACHIAS,+ME+04654&hl=en"
MADISON POLICE DEPARTMENT,MADISON POLICE DEPARTMENT LOWER LEVEL OF TOW HALL,1923 VILLAGE ROAD,MADISON,NH,03849,"http://maps.google.com/maps?q=1923 VILLAGE ROAD,+MADISON,+NH+03849&hl=en"
MAINE STATE POLICE - TROOP B,MAINE STATE POLICE - TROOP B,1 GAME FARM ROAD,GRAY,ME,04039,"http://maps.google.com/maps?q=1 GAME FARM ROAD,+GRAY,+ME+04039&hl=en"
MAINE STATE POLICE - TROOP C,MAINE STATE POLICE - TROOP C,162 WEST FRONT STREET,SKOWHEGAN,ME,04976,"http://maps.google.com/maps?q=162 WEST FRONT STREET,+SKOWHEGAN,+ME+04976&hl=en"
MECHANIC FALLS POLICE DEPARTMENT,MECHANIC FALLS POLICE DEPARTMENT,108 LEWISTON STREET,MECHANIC FALLS,ME,04256,"http://maps.google.com/maps?q=108 LEWISTON STREET,+MECHANIC FALLS,+ME+04256&hl=en"
MEREDITH POLICE DEPARTMENT,MEREDITH POLICE DEPARTMNET CHIEF KEVIN MORROW,400 DANIEL WEBSTER HIGHWAY,MEREDITH,NH,03253,"http://maps.google.com/maps?q=400 DANIEL WEBSTER HIGHWAY,+MEREDITH,+NH+03253&hl=en"
MEXICO POLICE DEPARTMENT,MEXICO TOWN OFFICE OPERATED BY MEXICO PD,134 MAIN STREET,MEXICO,ME,04257,"http://maps.google.com/maps?q=134 MAIN STREET,+MEXICO,+ME+04257&hl=en"
MIDDLEBURY POLICE DEPARTMENT,MIDDLEBURY POLICE DEPARTMENT,1 LUCIUS SHAW LN.,MIDDLEBURY,VT,05753,"http://maps.google.com/maps?q=1 LUCIUS SHAW LN.,+MIDDLEBURY,+VT+05753&hl=en"
MILBRIDGE POLICE DEPARTMENT,MILBRIDGE FIRE DEPARTMENT TRAINING ROOM - OPERATED BY MILBRIDGE PD,16 SCHOOL ST,MILBRIDGE,ME,04658,"http://maps.google.com/maps?q=16 SCHOOL ST,+MILBRIDGE,+ME+04658&hl=en"
MILLINOCKET POLICE DEPARTMENT,MILLINOCKET POLICE DEPARTMENT,197 PENOBSCOT AVE,MILLINOCKET,ME,04462,"http://maps.google.com/maps?q=197 PENOBSCOT AVE,+MILLINOCKET,+ME+04462&hl=en"
MILO POLICE DEPARTMENT,MILO POLICE DEPARTMENT,6 PLEASANT STREET,MILO,ME,04463,"http://maps.google.com/maps?q=6 PLEASANT STREET,+MILO,+ME+04463&hl=en"
MILTON POLICE DEPARTMENT,KINNEY DRUGS PHARMACY,3 CENTRE DRIVE,MILTON,VT,05468,"http://maps.google.com/maps?q=3 CENTRE DRIVE,+MILTON,+VT+05468&hl=en"
MILTON POLICE DEPARTMENT,MILTON POLICE DEPARTMENT CHIEF RICHARD KRAUSS,7 TOWNHOUSE RD,MILTON,NH,03851,"http://maps.google.com/maps?q=7 TOWNHOUSE RD,+MILTON,+NH+03851&hl=en"
MONMOUTH POLICE DEPARTMENT,MONMOUTH TRANSFER STATION OPERATED BY MONMOUTH PD,126 ROUTE 135,MONMOUTH,ME,04259,"http://maps.google.com/maps?q=126 ROUTE 135,+MONMOUTH,+ME+04259&hl=en"
MONTAGUE PD,MONTAGUE POLICE,180 TURNPIKE ROAD,TURNERS FALLS,MA,01376,"http://maps.google.com/maps?q=180 TURNPIKE ROAD,+TURNERS FALLS,+MA+01376&hl=en"
MOULTONBOROUGH POLICE DEPARTMENT,MOULTONBOROUGH POLICE DEPARTMENT,1035 WHITTIER HWY,MOULTONBOROUGH,NH,03254,"http://maps.google.com/maps?q=1035 WHITTIER HWY,+MOULTONBOROUGH,+NH+03254&hl=en"
MOUNT DESERT POLICE DEPARTMENT,MOUNT DESERT POLICE DEPARTMENT NORTHEAST HARBOR,21 SEA STREET,NORTHEAST HARBOR,ME,04662,"http://maps.google.com/maps?q=21 SEA STREET,+NORTHEAST HARBOR,+ME+04662&hl=en"
NEW BOSTON POLICE DEPARTMENT,NEW BOSTON POLICE DEPARTMENT,116 OLD COACH ROAD,NEW BOSTON,NH,03070,"http://maps.google.com/maps?q=116 OLD COACH ROAD,+NEW BOSTON,+NH+03070&hl=en"
NEW HAMPTON POLICE DEPARTMENT,NEW HAMPTON POLICE DEPARTMENT,24 INTERVALE ROAD,NEW HAMPTON,NH,03256,"http://maps.google.com/maps?q=24 INTERVALE ROAD,+NEW HAMPTON,+NH+03256&hl=en"
NEW LONDON POLICE DEPARTMENT,NEW LONDON POLICE DEPARTMENT DETECTIVE ERNEST ROWE,25 SEAMANS ROAD375 MAIN STREET,NEW LONDON,NH,03257,"http://maps.google.com/maps?q=25 SEAMANS ROAD,+NEW LONDON,+NH+03257&hl=en"
NEWPORT POLICE DEPARTMENT,NEWPORT POLICE DEPARTMENT,21 WATER STREET,NEWPORT,ME,04953,"http://maps.google.com/maps?q=21 WATER STREET,+NEWPORT,+ME+04953&hl=en"
NORTHAMPTON POLICE DEPARTMENT,JOHN F KENNEDY MIDDLE SCHOOL,100 BRIDGE RD,FLORENCE,MA,01062,"http://maps.google.com/maps?q=100 BRIDGE RD,+FLORENCE,+MA+01062&hl=en"
NORTHUMBERLAND POLICE DEPARTMENT,NORTHUMBERLAND POLICE DEPARTMENT,10 STATION SQUARE,GROVETON,NH,03582,"http://maps.google.com/maps?q=10 STATION SQUARE,+GROVETON,+NH+03582&hl=en"
NORWAY POLICE DEPARTMENT,NORWAY POLICE DEPARTMENT OFFICER JEFFREY CAMPBELL,19 DANFORTH STREET,NORWAY,ME,04268,"http://maps.google.com/maps?q=19 DANFORTH STREET,+NORWAY,+ME+04268&hl=en"
OAKLAND POLICE DEPARTMENT,OAKLAND POLICE DEPARTMENT,7 FAIRFIELD STREET,OAKLAND,ME,04963,"http://maps.google.com/maps?q=7 FAIRFIELD STREET,+OAKLAND,+ME+04963&hl=en"
OLD ORCHARD BEACH POLICE DEPARTMENT,OLD ORCHARD POLICE DEPARTMENT MAIN ENTRANCE,16E EMERSON CUMMINGS BOULEVARD,OLD ORCHARD BEACH,ME,04064,"http://maps.google.com/maps?q=16E EMERSON CUMMINGS BOULEVARD,+OLD ORCHARD BEACH,+ME+04064&hl=en"
OLD TOWN POLICE DEPARTMENT,OLD TOWN POLICE DEPARTMENT,150 BRUNSWICK ST,OLD TOWN,ME,04468,"http://maps.google.com/maps?q=150 BRUNSWICK ST,+OLD TOWN,+ME+04468&hl=en"
ORANGE COUNTY SHERIFF OFFICE,KINNEY DRUGS PHARMACY,151 VT RT12,RANDOLPH,VT,05060,"http://maps.google.com/maps?q=151 VT RT12,+RANDOLPH,+VT+05060&hl=en"
ORANGE COUNTY SHERIFF OFFICE,KINNEY DRUGS PHARMACY,910 LOWER PLAIN ROAD,BRADFORD,VT,05033,"http://maps.google.com/maps?q=910 LOWER PLAIN ROAD,+BRADFORD,+VT+05033&hl=en"
ORANGE COUNTY SHERIFF OFFICE,ORANGE COUNTY SHERIFF OFFICE LT SCOTT CLOUATRE,11 VT RT 113,CHELSEA,VT,05038,"http://maps.google.com/maps?q=11 VT RT 113,+CHELSEA,+VT+05038&hl=en"
ORLEANS COUNTY SHERIFF'S DEPARTMENT,KINNEY DRUGS PHARMACY,55 SHATTUCK HILL ROAD,NEWPORT,VT,05855,"http://maps.google.com/maps?q=55 SHATTUCK HILL ROAD,+NEWPORT,+VT+05855&hl=en"
ORONO POLICE DEPARTMENT,BELLS IGA SUPERMARKET PARKING LOT - OPERATED BY PD,6 STILLWATER AVE,ORONO,ME,04473,"http://maps.google.com/maps?q=6 STILLWATER AVE,+ORONO,+ME+04473&hl=en"
OSSIPEE POLICE DEPARTMENT,TROY POLICE DEPARTMENT,14 CENTRAL SQUARE,TROY,NH,03465,"http://maps.google.com/maps?q=14 CENTRAL SQUARE,+TROY,+NH+03465&hl=en"
OXFORD COUNTY SHERIFF'S OFFICE,OXFORD COUNTY SHERIFF'S OFFICE,26 WESTERN AVENUE,SOUTH PARIS,ME,04281,"http://maps.google.com/maps?q=26 WESTERN AVENUE,+SOUTH PARIS,+ME+04281&hl=en"
OXFORD COUNTY SHERIFF'S OFFICE,OXFORD COUNTY SHERIFF'S OFFICE BETHEL SUB-STATION,18 MAYVILLE ROAD,BETHEL,ME,04217,"http://maps.google.com/maps?q=18 MAYVILLE ROAD,+BETHEL,+ME+04217&hl=en"
OXFORD COUNTY SHERIFF'S OFFICE,SACOPEE VALLEY HEALTH CENTER OPERATED BY OXFORD COUNTY SHERIFF'S OFFICE,70 MAIN STREET,PORTER,ME,04068,"http://maps.google.com/maps?q=70 MAIN STREET,+PORTER,+ME+04068&hl=en"
OXFORD POLICE DEPARTMENT,OXFORD POLICE DEPARTMENT OXFORD PUBLIC SAFETY BUILDING,701 MAIN ST,OXFORD,ME,04270,"http://maps.google.com/maps?q=701 MAIN ST,+OXFORD,+ME+04270&hl=en"
PARIS POLICE DEPARTMENT,PARIS POLICE DEPARTMENT,35 MARKET SQUARE,SOUTH PARIS,ME,04281,"http://maps.google.com/maps?q=35 MARKET SQUARE,+SOUTH PARIS,+ME+04281&hl=en"
PASSAMAQUODDY INDIAN TOWNSHIP POLICE DEPARTMENT,PASSAMAQUODDY INDIAN TOWNSHIP POLICE DEPARTMENT PUBLIC SAFETY COMPLEX,443 ROUTE 1,PRINCETON,ME,04668,"http://maps.google.com/maps?q=443 ROUTE 1,+PRINCETON,+ME+04668&hl=en"
PELHAM POLICE DEPARTMENT,PELHAM POLICE DEPARTMENT,2 SOUTH VALLEY RD,PELHAM,MA,01002,"http://maps.google.com/maps?q=2 SOUTH VALLEY RD,+PELHAM,+MA+01002&hl=en"
PEMBROKE POLICE DEPARTMENT,PEMBROKE POLICE,247 PEMBROKE STREET,PEMBROKE,NH,03275,"http://maps.google.com/maps?q=247 PEMBROKE STREET,+PEMBROKE,+NH+03275&hl=en"
PENOBSCOT COUNTY SHERIFF'S OFFICE,AIRPORT MALL PARKING LOT UNION ST BY HANNAFORD'S - OPERATED BY PENOBSCOT COUNTY SO,1129 UNION STREET,BANGOR,ME,04401,"http://maps.google.com/maps?q=1129 UNION STREET,+BANGOR,+ME+04401&hl=en"
PENOBSCOT NATION POLICE DEPARTMENT,PENOBSCOT NATION POLICE DEPARTMENT,12 WABANAKI WAY,INDIAN ISLAND,ME,04468,"http://maps.google.com/maps?q=12 WABANAKI WAY,+INDIAN ISLAND,+ME+04468&hl=en"
PETERBOROUGH POLICE DEPARTMENT,PETERBOROUGH POLICE DEPARTMENT,73 GROVE ST,PETERBOROUGH,NH,03458,"http://maps.google.com/maps?q=73 GROVE ST,+PETERBOROUGH,+NH+03458&hl=en"
PHIPPSBURG POLICE DEPARTMENT,PHIPPSBURG POLICE DEPARTMENT SUPPORTED BY SAGADAHOC COUNTY SHERIFF'S OFFICE,1042 MAIN STREET,PHIPPSBURG,ME,04562,"http://maps.google.com/maps?q=1042 MAIN STREET,+PHIPPSBURG,+ME+04562&hl=en"
PISCATAQUIS COUNTY SHERIFF'S OFFICE,PISCATAQUIS COUNTY SHERIFF'S OFFICE,52 COURT STREET,DOVER FOXCROFT,ME,04426,"http://maps.google.com/maps?q=52 COURT STREET,+DOVER FOXCROFT,+ME+04426&hl=en"
PITTSFIELD POLICE DEPARTMENT,PITTSFIELD POLICE DEPARTMENT,112 SOMERSET AVENUE,PITTSFIELD,ME,04967,"http://maps.google.com/maps?q=112 SOMERSET AVENUE,+PITTSFIELD,+ME+04967&hl=en"
PLAINFIELD POLICE DEPARTMENT,PLAINFIELD POLICE DEPARTMENT,110 MAIN ST,MERIDEN,NH,03770,"http://maps.google.com/maps?q=110 MAIN ST,+MERIDEN,+NH+03770&hl=en"
PLATTSBURGH POLICE DEPARTMENT,KINNEY DRUGS,288 CORNELIA ST,PLATTSBURGH,NY,12901,"http://maps.google.com/maps?q=288 CORNELIA ST,+PLATTSBURGH,+NY+12901&hl=en"
PLATTSBURGH POLICE DEPARTMENT,PLATTSBURGH PD,45 PINE STREET,PLATTSBURGH,NY,12901,"http://maps.google.com/maps?q=45 PINE STREET,+PLATTSBURGH,+NY+12901&hl=en"
PLEASANT POINT POLICE DEPARTMENT,PLEASANT POINT HEALTH CENTER OPERATED BY PLEASANT POINT PD,11 BACK RD,PERRY,ME,04667,"http://maps.google.com/maps?q=11 BACK RD,+PERRY,+ME+04667&hl=en"
PLYMOUTH POLICE DEPARTMENT,PLYMOUTH POLICE DEPARTMENT,334 MAIN STREET,PLYMOUTH,NH,03264,"http://maps.google.com/maps?q=334 MAIN STREET,+PLYMOUTH,+NH+03264&hl=en"
PORTLAND POLICE DEPARTMENT,BACK BAY PARKING LOT - ACROSS FROM HANNAFORDS OPERATED BY PORTLAND PD,295 FOREST AVENUE,PORTLAND,ME,04101,"http://maps.google.com/maps?q=295 FOREST AVENUE,+PORTLAND,+ME+04101&hl=en"
PORTLAND POLICE DEPARTMENT,WALGREENS PHARMACY (PARKING LOT) OPERATED BY PORTLAND PD,616 FOREST AVENUE,PORTLAND,ME,04101,"http://maps.google.com/maps?q=616 FOREST AVENUE,+PORTLAND,+ME+04101&hl=en"
PORTLAND POLICE DEPARTMENT,WALGREENS PHARMACY PARKING LOT - OPERATED BY PORTLAND PD,340 ALLEN AVENUE,PORTLAND,ME,04101,"http://maps.google.com/maps?q=340 ALLEN AVENUE,+PORTLAND,+ME+04101&hl=en"
RANGELEY POLICE DEPARTMENT,IGA SUPERMARKET OPERATED BY RANGELEY PD,2185 MAIN STREET,RANGELEY,ME,04970,"http://maps.google.com/maps?q=2185 MAIN STREET,+RANGELEY,+ME+04970&hl=en"
RICHMOND POLICE DEPARTMENT,RICHMOND SENIOR CENTER OPERATED BY RICHMOND PD,314 FRONT STREET,RICHMOND,ME,04357,"http://maps.google.com/maps?q=314 FRONT STREET,+RICHMOND,+ME+04357&hl=en"
RINDGE POLICE DEPARTMENT,RINDGE POLICE DEPARTMENT DANIEL ANAIR,158 MAIN STPO BOX 7,RINDGE,NH,03461,"http://maps.google.com/maps?q=158 MAIN ST,+RINDGE,+NH+03461&hl=en"
ROCKLAND POLICE DEPARTMENT,ROCKLAND POLICE DEPARTMENT,1 POLICE PLAZA,ROCKLAND,ME,04841,"http://maps.google.com/maps?q=1 POLICE PLAZA,+ROCKLAND,+ME+04841&hl=en"
RUMFORD POLICE DEPARTMENT,RUMFORD POLICE DEPARTMENT,150 RIVER STREET,RUMFORD,ME,04276,"http://maps.google.com/maps?q=150 RIVER STREET,+RUMFORD,+ME+04276&hl=en"
RUTLAND COUNTY SHERIFF'S DEPARTMENT,DIAMOND RUN MALL,46 DIAMOND RUN MALL PLACE,RUTLAND,VT,05701,"http://maps.google.com/maps?q=46 DIAMOND RUN MALL PLACE,+RUTLAND,+VT+05701&hl=en"
SABATTUS POLICE DEPARTMENT,SABATTUS POLICE DEPARTMENT,190 MIDDLE ROAD,SABATTUS,ME,04280,"http://maps.google.com/maps?q=190 MIDDLE ROAD,+SABATTUS,+ME+04280&hl=en"
SACO POLICE DEPARTMENT,SACO COMMUNITY CENTER OPERATED BY SACO PD,75 FRANKLIN STREET,SACO,ME,04072,"http://maps.google.com/maps?q=75 FRANKLIN STREET,+SACO,+ME+04072&hl=en"
SACO POLICE DEPARTMENT,SACO POLICE DEPARTMENT MEDICATION COLLECTION BOX IN LOBBY,20 STORER ST,SACO,ME,04072,"http://maps.google.com/maps?q=20 STORER ST,+SACO,+ME+04072&hl=en"
SAGADAHOC COUNTY SHERIFF'S OFFICE,GEORGETOWN FIRE DEPARTMENT,777 FIVE ISLANDS ROAD,GEORGETOWN,ME,04548,"http://maps.google.com/maps?q=777 FIVE ISLANDS ROAD,+GEORGETOWN,+ME+04548&hl=en"
SANBORNTON POLICE DEPARTMENT,SANBORNTON POLICE DEPARTMENT CHIEF STEPHEN HANKARD,565 SANBORN ROAD,SANBORNTON,NH,03269,"http://maps.google.com/maps?q=565 SANBORN ROAD,+SANBORNTON,+NH+03269&hl=en"
SARATOGA COUNTY SHERIFF OFFICE,MOREAU EMERGENCY SQUAD,1583 ROUTE 9,FORT EDWARD,NY,12828,"http://maps.google.com/maps?q=1583 ROUTE 9,+FORT EDWARD,+NY+12828&hl=en"
SCARBOROUGH POLICE DEPARTMENT,SCARBOROUGH POLICE DEPARTMENT SGT TIM BARKER,246 US RTE. 1,SCARBOROUGH,ME,04074,"http://maps.google.com/maps?q=246 US RTE. 1,+SCARBOROUGH,+ME+04074&hl=en"
SEARSPORT POLICE DEPARTMENT,SEARSPORT POLICE DEPARTMENT DAN RICH PUBLIC SAFETY BUILDING,P O BOX 4993 UNION STREET,SEARSPORT,ME,04974,"http://maps.google.com/maps?q=P O  BOX 499,+SEARSPORT,+ME+04974&hl=en"
SHELBURNE POLICE DEPARTMENT,SHELBURNE POLICE DEPARTMENT,5420 SHELBURNE ROAD,SHELBURNE,VT,05482,"http://maps.google.com/maps?q=5420 SHELBURNE ROAD,+SHELBURNE,+VT+05482&hl=en"
SKOWHEGAN POLICE DEPARTMENT,SKOWHEGAN POLICE DEPARTMENT,225 WATER STREET,SKOWHEGAN,ME,04976,"http://maps.google.com/maps?q=225 WATER STREET,+SKOWHEGAN,+ME+04976&hl=en"
SOMERSET COUNTY SHERIFF'S OFFICE,SOMERSET COUNTY SHERIFF'S OFFICE JACKMAN DIVISION,HEALD STREAM ROAD,JACKMAN,ME,04945,"http://maps.google.com/maps?q=HEALD STREAM ROAD,+JACKMAN,+ME+04945&hl=en"
SOMERSET COUNTY SHERIFF'S OFFICE,SOMERSET COUNTY SHERIFF'S OFFICE JAIL LOBBY,131 EAST MADISON ROAD,MADISON,ME,04950,"http://maps.google.com/maps?q=131 EAST MADISON ROAD,+MADISON,+ME+04950&hl=en"
SOMERSET COUNTY SHERIFF'S OFFICE,SOMERSET COUNTY SHERIFF'S OFFICE MADISON DIVISION,26 WESTON AVENUE,MADISON,ME,04950,"http://maps.google.com/maps?q=26 WESTON AVENUE,+MADISON,+ME+04950&hl=en"
SOUTH BURLINGTON POLICE DEPARTMENT,UNIVERSITY MALL,155 DORSET STREET,SOUTH BURLINGTON,VT,05403,"http://maps.google.com/maps?q=155 DORSET STREET,+SOUTH BURLINGTON,+VT+05403&hl=en"
SOUTH PORTLAND POLICE DEPARTMENT,SOUTH PORTLAND POLICE DEPARTMENT MEDICATION COLLECTION BOX IN LOBBY,30 ANTHOINE STREET,SOUTH PORTLAND,ME,04106,"http://maps.google.com/maps?q=30 ANTHOINE STREET,+SOUTH PORTLAND,+ME+04106&hl=en"
SOUTHAMPTON POLICE DEPARTMENT,SOUTHAMPTON FIRE/TOWN HALL PARKING LOT IF RAIN-INSIDE TOWN HALL,210 COLLEGE HIGHWAY,SOUTHAMPTON,MA,01073,"http://maps.google.com/maps?q=210 COLLEGE HIGHWAY,+SOUTHAMPTON,+MA+01073&hl=en"
SOUTHWEST HARBOR POLICE DEPARTMENT,SOUTHWEST HARBOR POLICE DEPARTMENT,26 VILLAGE GREEN WAY,SOUTHWEST HARBOR,ME,04679,"http://maps.google.com/maps?q=26 VILLAGE GREEN WAY,+SOUTHWEST HARBOR,+ME+04679&hl=en"
ST. JOHNSBURY POLICE DEPARTMENT,ST. JOHNSBURY POLICE DEPARTMENT,1187 MAIN STREETSUITE 1,SAINT JOHNSBURY,VT,05819,"http://maps.google.com/maps?q=1187 MAIN STREET,+SAINT JOHNSBURY,+VT+05819&hl=en"
SULLIVAN COUNTY SHERIFF'S OFFICE,SULLIVAN COUNTY MUNICIPAL COMPLEX SHERIFF JOHN SIMONDS,14 MAIN STREET,NEWPORT,NH,03773,"http://maps.google.com/maps?q=14 MAIN STREET,+NEWPORT,+NH+03773&hl=en"
SUNAPEE POLICE DEPARTMENT,SUNAPEE POLICE DEPARTMENT,9 SARGENT ROAD,SUNAPEE,NH,03782,"http://maps.google.com/maps?q=9 SARGENT ROAD,+SUNAPEE,+NH+03782&hl=en"
SUNDERLAND POLICE DEPARTMENT,SUNDERLAND POLICE DEPARTMENT,105 RIVER ROAD,SUNDERLAND,MA,01375,"http://maps.google.com/maps?q=105 RIVER ROAD,+SUNDERLAND,+MA+01375&hl=en"
SWANTON VILLAGE POLICE,SWANTON REXALL DRUGS,44 MERCHANTS ROW,SWANTON,VT,05488,"http://maps.google.com/maps?q=44 MERCHANTS ROW,+SWANTON,+VT+05488&hl=en"
THOMASTON POLICE DEPARTMENT,LOWE'S HOME CENTER OPERATED BY THOMASTON PD,164 NEW COUNTY ROAD,THOMASTON,ME,04861,"http://maps.google.com/maps?q=164 NEW COUNTY ROAD,+THOMASTON,+ME+04861&hl=en"
THORNTON POLICE DEPARTMENT,THORNTON POLICE DEPARTMENT KEN MILLER,16 MERRILL ACCESS ROAD,THORNTON,NH,03285,"http://maps.google.com/maps?q=16 MERRILL ACCESS ROAD,+THORNTON,+NH+03285&hl=en"
TICONDERGOA POLICE DEPARTMENT,TICONDEROGA POLICE DEPARTMENT,135 BURGOYNE ROAD,TICONDEROGA,NY,12883,"http://maps.google.com/maps?q=135 BURGOYNE ROAD,+TICONDEROGA,+NY+12883&hl=en"
TOPSHAM POLICE DEPARTMENT,TOPSHAM TOWN HALL OPERATED BY TOPSHAM PD,100 MAIN STREET,TOPSHAM,ME,04086,"http://maps.google.com/maps?q=100 MAIN STREET,+TOPSHAM,+ME+04086&hl=en"
"TOWN OF SOUTH HADLEY, POLICE DEPARTMENT","TOWN OF SOUTH HADLEY, POLICE DEPARTMENT CHIEF STEVE PARENTELA",41 BRIDGE STREET,SOUTH HADLEY,MA,01075,"http://maps.google.com/maps?q=41 BRIDGE STREET,+SOUTH HADLEY,+MA+01075&hl=en"
TROY POLICE DEPARTMENT,OSSIPEE POLICE DEPARTMENT,7 DORE ST,CENTER OSSIPEE,NH,03814,"http://maps.google.com/maps?q=7 DORE ST,+CENTER OSSIPEE,+NH+03814&hl=en"
TUFTONBORO POLICE DEPARTMENT,TUFTONBORO TRANSFER STATION,20 SARGENT'S CROSSING,CENTER TUFTONBORO,NH,03816,"http://maps.google.com/maps?q=20 SARGENT'S CROSSING,+CENTER TUFTONBORO,+NH+03816&hl=en"
UNIVERSITY OF VERMONT POLICE,UNIVERSITY OF VERMONT POLICE DUDLEY DAVIS CENTER FIRST FLOOR ATRIUM,284 EAST AVENUE,BURLINGTON,VT,05405,"http://maps.google.com/maps?q=284 EAST AVENUE,+BURLINGTON,+VT+05405&hl=en"
VEAZIE POLICE DEPARTMENT,VEAZIE POLICE DEPARTMENT,1084 MAIN ST.,VEAZIE,ME,04401,"http://maps.google.com/maps?q=1084 MAIN ST.,+VEAZIE,+ME+04401&hl=en"
VERMONT STATE POLICE,VERMONT STATE POLICE - NEW HAVEN BARRACKS,2490 ETHAN ALLEN HIGHWAY,NEW HAVEN,VT,05472,"http://maps.google.com/maps?q=2490 ETHAN ALLEN HIGHWAY,+NEW HAVEN,+VT+05472&hl=en"
VERMONT STATE POLICE,VERMONT STATE POLICE - RUTLAND BARRACKS,124 STATE PLACE,RUTLAND,VT,05701,"http://maps.google.com/maps?q=124 STATE PLACE,+RUTLAND,+VT+05701&hl=en"
VERMONT STATE POLICE,VERMONT STATE POLICE - SHAFTSBURY BARRACKS,96 AIRPORT ROAD,SHAFTSBURY,VT,05262,"http://maps.google.com/maps?q=96 AIRPORT ROAD,+SHAFTSBURY,+VT+05262&hl=en"
VERMONT STATE POLICE,VERMONT STATE POLICE - ST. ALBANS BARRACKS,140 FISHER POND ROAD,SAINT ALBANS,VT,05478,"http://maps.google.com/maps?q=140 FISHER POND ROAD,+SAINT ALBANS,+VT+05478&hl=en"
VERMONT STATE POLICE,VERMONT STATE POLICE - WESTMINSTER BARRACKS,1330 WESTMINSTER HIGHTS ROAD,PUTNEY,VT,05346,"http://maps.google.com/maps?q=1330 WESTMINSTER HIGHTS ROAD,+PUTNEY,+VT+05346&hl=en"
VERMONT STATE POLICE - WILLISTON BARRACKS,VERMONT STATE POLICE - WILLISTON BARRACKS,2777 ST. GEORGE ROAD,WILLISTON,VT,05495,"http://maps.google.com/maps?q=2777 ST. GEORGE ROAD,+WILLISTON,+VT+05495&hl=en"
WAKEFIELD POLICE DEPARTMENT,WAKEFIELD NH PUBLIC SAFETY BUILDING WAKEFIELD NH PD,2017 WAKEFIELD ROAD,SANBORNVILLE,NH,03872,"http://maps.google.com/maps?q=2017 WAKEFIELD ROAD,+SANBORNVILLE,+NH+03872&hl=en"
WALDO COUNTY SHERIFF'S OFFICE,WALDO COUNTY SHERIFF'S OFFICE,6 PUBLIC SAFETY WAY,BELFAST,ME,04915,"http://maps.google.com/maps?q=6 PUBLIC SAFETY WAY,+BELFAST,+ME+04915&hl=en"
WALDOBORO POLICE DEPARTMENT,WALDOBORO POLICE DEPARTMENT,1600 ATLANTIC HIGHWAY,WALDOBORO,ME,04572,"http://maps.google.com/maps?q=1600 ATLANTIC HIGHWAY,+WALDOBORO,+ME+04572&hl=en"
WARREN COUNTY SHERIFF'S OFFICE,WARREN COUNTY SHERIFF'S OFFICE,1400 STATE ROUTE 9,LAKE GEORGE,NY,12845,"http://maps.google.com/maps?q=1400 STATE ROUTE 9,+LAKE GEORGE,+NY+12845&hl=en"
WASHINGTON COUNTY SHERIFF'S DEPARTMENT,BARRE CITY POLICE DEPARTMENT,15 FOURTH STREET,BARRE,VT,05641,"http://maps.google.com/maps?q=15 FOURTH STREET,+BARRE,+VT+05641&hl=en"
WASHINGTON COUNTY SHERIFF'S DEPARTMENT,MONTPELIER POLICE DEPARTMENT,1 PITKIN COURT,MONTPELIER,VT,05602,"http://maps.google.com/maps?q=1 PITKIN COURT,+MONTPELIER,+VT+05602&hl=en"
WASHINGTON COUNTY SHERIFF'S DEPARTMENT,NORTHFIELD POLICE DEPARTMENT,110 WALL STREET,NORTHFIELD,VT,05663,"http://maps.google.com/maps?q=110 WALL STREET,+NORTHFIELD,+VT+05663&hl=en"
WASHINGTON COUNTY SHERIFF'S DEPARTMENT,VERMONT STATE POLICE - MIDDLESEX BARRACKS,1080 US ROUTE 2,MIDDLESEX,VT,05602,"http://maps.google.com/maps?q=1080 US ROUTE 2,+MIDDLESEX,+VT+05602&hl=en"
WASHINGTON COUNTY SHERIFF'S DEPARTMENT,WASHINGTON COUNTY SHERIFF'S DEPARTMENT,10 ELM STREET,MONTPELIER,VT,05602,"http://maps.google.com/maps?q=10 ELM STREET,+MONTPELIER,+VT+05602&hl=en"
WASHINGTON COUNTY SHERIFF'S OFFICE,WASHINGTON COUNTY SHERIFF'S OFFICE,83 COURT STREET,MACHIAS,ME,04654,"http://maps.google.com/maps?q=83 COURT STREET,+MACHIAS,+ME+04654&hl=en"
WASHINGTON POLICE DEPARTMENT,WASHINGTON POLICE DEPARTMENT,5 HALFMOON POND RD.,WASHINGTON,NH,03280,"http://maps.google.com/maps?q=5 HALFMOON POND RD.,+WASHINGTON,+NH+03280&hl=en"
WATERVILLE POLICE DEPARTMENT,WATERVILLE POLICE DEPARTMENT INSIDE LOBBY,10 COLBY ST,WATERVILLE,ME,04901,"http://maps.google.com/maps?q=10 COLBY ST,+WATERVILLE,+ME+04901&hl=en"
WATERVILLE VALLEY POLICE DEPARTMENT,WATERVILLE VALLEY DEPARTMENT OF PUBLIC SAFETY RUST MUNICIPAL BUILDING,14 TAC LANE,WATERVILLE VALLEY,NH,03215,"http://maps.google.com/maps?q=14 TAC LANE,+WATERVILLE VALLEY,+NH+03215&hl=en"
WEBSTER POLICE DEPARTMENT,WEBSTER POLICE DEPARTMENT,851 BATTLE STREET,WEBSTER,NH,03303,"http://maps.google.com/maps?q=851 BATTLE STREET,+WEBSTER,+NH+03303&hl=en"
WESTBROOK POLICE DEPARTMENT,WESTBROOK POLICE DEPARTMENT,570 MAIN STREET,WESTBROOK,ME,04092,"http://maps.google.com/maps?q=570 MAIN STREET,+WESTBROOK,+ME+04092&hl=en"
WILLIAMSBURG POLICE DEPT.,WILLIAMSBURG PHARMACY,49 MAIN ST,WILLIAMSBURG,MA,01096,"http://maps.google.com/maps?q=49 MAIN ST,+WILLIAMSBURG,+MA+01096&hl=en"
WILTON POLICE DEPARTMENT,WILTON NH POLICE DEPARTMENT CHIEF ERIC L. OLESEN,"7 BURNS HILL ROAD, P.O. BOX 183",WILTON,NH,03086,"http://maps.google.com/maps?q=7 BURNS HILL ROAD, P.O. BOX 183,+WILTON,+NH+03086&hl=en"
WILTON POLICE DEPARTMENT,WILTON POLICE DEPARTMENT,874 MAIN STREET,WILTON,ME,04294,"http://maps.google.com/maps?q=874 MAIN STREET,+WILTON,+ME+04294&hl=en"
WINCHESTER POLICE DEPARTMENT,WINCHESTER POLICE DEPARTMENT LT. MIKE T. TOLLETT,6 PARKER STREET,WINCHESTER,NH,03470,"http://maps.google.com/maps?q=6 PARKER STREET,+WINCHESTER,+NH+03470&hl=en"
WINDHAM COUNTY SHERIFF'S OFFICE,BELLOWS FALLS POLICE DEPARTMENT,170 ROCKINGHAM STRREET,BELLOWS FALLS,VT,05101,"http://maps.google.com/maps?q=170 ROCKINGHAM STRREET,+BELLOWS FALLS,+VT+05101&hl=en"
WINDHAM COUNTY SHERIFF'S OFFICE,BRATTLEBORO POLICE DEPARTMENT,62 BLACK MOUNTAIN ROAD,BRATTLEBORO,VT,05301,"http://maps.google.com/maps?q=62 BLACK MOUNTAIN ROAD,+BRATTLEBORO,+VT+05301&hl=en"
WINDHAM COUNTY SHERIFF'S OFFICE,WILMINGTON POLICE DEPARTMENT,2 EAST MAIN STREET,WILMINGTON,VT,05363,"http://maps.google.com/maps?q=2 EAST MAIN STREET,+WILMINGTON,+VT+05363&hl=en"
WINDHAM COUNTY SHERIFF'S OFFICE,WINDHAM COUNTY SHERIFF'S OFFICE,11 JAIL STREET,NEWFANE,VT,05345,"http://maps.google.com/maps?q=11 JAIL STREET,+NEWFANE,+VT+05345&hl=en"
WINDHAM POLICE DEPARTMENT,WINDHAM PUBLIC SAFETY BUILDING,375 GRAY ROAD,WINDHAM,ME,04062,"http://maps.google.com/maps?q=375 GRAY ROAD,+WINDHAM,+ME+04062&hl=en"
WINDSOR COUNTY SHERIFF'S DEPARTMENT,CHESTER POLICE DEPARTMENT,556 ELM STREET,CHESTER,VT,05143,"http://maps.google.com/maps?q=556 ELM STREET,+CHESTER,+VT+05143&hl=en"
WINDSOR COUNTY SHERIFF'S DEPARTMENT,HARTFORD POLICE DEPARTMENT,812 VA CUTOFF ROAD,WHITE RIVER JUNCTION,VT,05001,"http://maps.google.com/maps?q=812 VA CUTOFF ROAD,+WHITE RIVER JUNCTION,+VT+05001&hl=en"
WINDSOR COUNTY SHERIFF'S DEPARTMENT,LUDLOW POLICE DEPARTMENT,19 WEST HILL ROAD,LUDLOW,VT,05149,"http://maps.google.com/maps?q=19 WEST HILL ROAD,+LUDLOW,+VT+05149&hl=en"
WINDSOR COUNTY SHERIFF'S DEPARTMENT,NORWICH POLICE DEPARTMENT,10 HAZEN STREET,NORWICH,VT,05055,"http://maps.google.com/maps?q=10 HAZEN STREET,+NORWICH,+VT+05055&hl=en"
WINDSOR COUNTY SHERIFF'S DEPARTMENT,ROYALTON POLICE DEPARTMENT,2460 VT RT 14,SOUTH ROYALTON,VT,05068,"http://maps.google.com/maps?q=2460 VT RT 14,+SOUTH ROYALTON,+VT+05068&hl=en"
WINDSOR COUNTY SHERIFF'S DEPARTMENT,SPRINGFIELD POLICE DEPARTMENT,201 CLINTON STREET,SPRINGFIELD,VT,05156,"http://maps.google.com/maps?q=201 CLINTON STREET,+SPRINGFIELD,+VT+05156&hl=en"
WINDSOR COUNTY SHERIFF'S DEPARTMENT,VERMONT STATE POLICE - ROYALTON BARRACKS,2011 VT RT 107,SOUTH ROYALTON,VT,05068,"http://maps.google.com/maps?q=2011 VT RT 107,+SOUTH ROYALTON,+VT+05068&hl=en"
WINDSOR COUNTY SHERIFF'S DEPARTMENT,WEATHERSFIELD TRANSFER STATION WEATHERSFIELD POLICE DEPARTMENT,5024 VT RT 106,PERKINSVILLE,VT,05151,"http://maps.google.com/maps?q=5024 VT RT 106,+PERKINSVILLE,+VT+05151&hl=en"
WINDSOR COUNTY SHERIFF'S DEPARTMENT,WINDSOR POLICE DEPARTMENT,29 UNION STREET,WINDSOR,VT,05089,"http://maps.google.com/maps?q=29 UNION STREET,+WINDSOR,+VT+05089&hl=en"
WINDSOR COUNTY SHERIFF'S DEPARTMENT,WOODSTOCK POLICE DEPARTMENT,454 WOODSTOCK ROAD,WOODSTOCK,VT,05091,"http://maps.google.com/maps?q=454 WOODSTOCK ROAD,+WOODSTOCK,+VT+05091&hl=en"
WINHALL POLICE & RESCUE DEPT,WINHALL POLICE & RESCUE,113 VERMONT ROUTE 30,BONDVILLE,VT,05340,"http://maps.google.com/maps?q=113 VERMONT ROUTE 30,+BONDVILLE,+VT+05340&hl=en"
WINSLOW POLICE DEPARTMENT,WINSLOW POLICE DEPARTMENT MOBIL COLLECTION SITE,114 BENTON AVENUEMOBIL UNIT,WINSLOW,ME,04901,"http://maps.google.com/maps?q=114 BENTON AVENUE,+WINSLOW,+ME+04901&hl=en"
WINTER HARBOR POLICE DEPARTMENT,WINTER HARBOR POLICE DEPARTMENT,20 SCHOOL STREET,WINTER HARBOR,ME,04693,"http://maps.google.com/maps?q=20 SCHOOL STREET,+WINTER HARBOR,+ME+04693&hl=en"
WINTHROP POLICE DEPARTMENT,WINTHROP POLICE DEPARTMENT,15 TOWN HALL LANE,WINTHROP,ME,04364,"http://maps.google.com/maps?q=15 TOWN HALL LANE,+WINTHROP,+ME+04364&hl=en"
WORTHINGTON POLICE DEPARTMENT,COMPACTOR,64 HUNTINGTON ROAD,WORTHINGTON,MA,01098,"http://maps.google.com/maps?q=64 HUNTINGTON ROAD,+WORTHINGTON,+MA+01098&hl=en"
YARMOUTH POLICE DEPARTMENT,YARMOUTH TOWN HALL COMMUNITY ROOM - OPERATED BY YARMOUTH PD,200 MAIN STREET,YARMOUTH,ME,04096,"http://maps.google.com/maps?q=200 MAIN STREET,+YARMOUTH,+ME+04096&hl=en"
YORK COUNTY SHERIFF'S OFFICE,GOODWIN MILLS FIRE STATION OPERATED BY YORK COUNTY SHERIFF'S OFFICE,481 GOODWIN'S MILL ROAD,LYMAN,ME,04002,"http://maps.google.com/maps?q=481 GOODWIN'S MILL ROAD,+LYMAN,+ME+04002&hl=en"
YORK COUNTY SHERIFF'S OFFICE,HANNAFORD SUPERMARKET OPERATED BY YORK COUNTY SHERIFF'S OFFICE,20 SOKOKIS TRAIL,WATERBORO,ME,04087,"http://maps.google.com/maps?q=20 SOKOKIS TRAIL,+WATERBORO,+ME+04087&hl=en"
YORK COUNTY SHERIFF'S OFFICE,RITE AID DRUG STORE OPERATED BY YORK COUNTY SHERIFF'S OFFICE,151 MAPLE STREET,CORNISH,ME,04020,"http://maps.google.com/maps?q=151 MAPLE STREET,+CORNISH,+ME+04020&hl=en"
