Participant,CollectionSite,Address,City,State,Zip,MapURL
ALTON POLICE DEPARTMENT,ALTON POLICE DEPARTMENT,1700 E. BROADWAY,ALTON,IL,62002,"http://maps.google.com/maps?q=1700 E. BROADWAY,+ALTON,+IL+62002&hl=en"
ARNOLD POLICE DEPARTMENT,ARNOLD CITY HALL,2101 JEFFCO BLVD.,ARNOLD,MO,63010,"http://maps.google.com/maps?q=2101 JEFFCO BLVD.,+ARNOLD,+MO+63010&hl=en"
AUXVASSE POLICE DEPARTMENT,GRAND PRAIRIE BAPTIST CHURCH,108 N. MAIN STREET,AUXVASSE,MO,65231,"http://maps.google.com/maps?q=108 N. MAIN STREET,+AUXVASSE,+MO+65231&hl=en"
BALLWIN POLICE DEPARTMENT,BALLWIN POLICE DEPARTMENT,300 PARK DRIVE,BALLWIN,MO,63011,"http://maps.google.com/maps?q=300 PARK DRIVE,+BALLWIN,+MO+63011&hl=en"
BELLEFONTAINE NEIGHBORS POLICE DEPARTMENT,BELLEFONTAINE NEIGHBORS POLICE DEPARTMENT,9641 BELLEFONTAINE RD,SAINT LOUIS,MO,63137,"http://maps.google.com/maps?q=9641 BELLEFONTAINE RD,+SAINT LOUIS,+MO+63137&hl=en"
BOONE COUNTY SHERIFF'S DEPT.,ASHLAND POLICE DEPARTMENT,109 E. BROADWAY,ASHLAND,MO,65010,"http://maps.google.com/maps?q=109 E. BROADWAY,+ASHLAND,+MO+65010&hl=en"
BOONE COUNTY SHERIFF'S DEPT.,CENTRALIA POLICE DEPT. LOBBY,114 S. ROLLINS,CENTRALIA,MO,65240,"http://maps.google.com/maps?q=114 S. ROLLINS,+CENTRALIA,+MO+65240&hl=en"
BOONE COUNTY SHERIFF'S DEPT.,HALLSVILLE POLICE DEPARTMENT,202 HIGHWAY 124 EAST,HALLSVILLE,MO,65255,"http://maps.google.com/maps?q=202 HIGHWAY 124 EAST,+HALLSVILLE,+MO+65255&hl=en"
BOONE COUNTY SHERIFF'S DEPT.,HARRY S. TRUMAN VA HOSPITAL,800 HOSPITAL DRIVE,COLUMBIA,MO,65201,"http://maps.google.com/maps?q=800 HOSPITAL DRIVE,+COLUMBIA,+MO+65201&hl=en"
BOONE COUNTY SHERIFF'S DEPT.,HICKMAN HIGH SCHOOL,1104 N. PROVIDENCE RD.,COLUMBIA,MO,65203,"http://maps.google.com/maps?q=1104 N. PROVIDENCE RD.,+COLUMBIA,+MO+65203&hl=en"
BOONE COUNTY SHERIFF'S DEPT.,MU STUDENT CENTER UNIVERSITY OF MISSOURI - COLUMBIA,2500 MU STUDENT CENTER,COLUMBIA,MO,65211,"http://maps.google.com/maps?q=2500 MU STUDENT CENTER,+COLUMBIA,+MO+65211&hl=en"
BOONE COUNTY SHERIFF'S DEPT.,ROCK BRIDGE HIGH SCHOOL,4303 S. PROVIDENCE RD.,COLUMBIA,MO,65203,"http://maps.google.com/maps?q=4303 S. PROVIDENCE RD.,+COLUMBIA,+MO+65203&hl=en"
BREESE POLICE DEPT.,BREESE POLICE DEPT.,500 N. 1ST STREET,BREESE,IL,62230,"http://maps.google.com/maps?q=500 N. 1ST STREET,+BREESE,+IL+62230&hl=en"
BRENTWOOD POLICE DEPARTMENT,BRENTWOOD POLICE DEPARTMENT,272 HANLEY INDUSTRIAL COURT,SAINT LOUIS,MO,63144,"http://maps.google.com/maps?q=272 HANLEY INDUSTRIAL COURT,+SAINT LOUIS,+MO+63144&hl=en"
BRIDGETON POLICE DEPARTMENT,BRIDGETON POLICE DEPARTMENT,12355 NATURAL BRIDGE RD,BRIDGETON,MO,63044,"http://maps.google.com/maps?q=12355 NATURAL BRIDGE RD,+BRIDGETON,+MO+63044&hl=en"
BROWN COUNTY SHERIFF'S OFFICE,MT. STERLING IGA,200 PITTSFIELD ROAD,MOUNT STERLING,IL,62353,"http://maps.google.com/maps?q=200 PITTSFIELD ROAD,+MOUNT STERLING,+IL+62353&hl=en"
CALIFORNIA POLICE DEPARTMENT,CALIFORNIA POLICE DEPARTMENT LOBBY,500 S. OAK,CALIFORNIA,MO,65018,"http://maps.google.com/maps?q=500 S. OAK,+CALIFORNIA,+MO+65018&hl=en"
CALLAWAY COUNTY SHERIFF'S OFFICE,CALLAWAY 2 WATER DISTRICT,2610 N. WESTMINSTER AVE,FULTON,MO,65251,"http://maps.google.com/maps?q=2610 N. WESTMINSTER AVE,+FULTON,+MO+65251&hl=en"
CAMDEN COUNTY SHERIFF'S OFFICE,CAMDEN COUNTY SHERIFF'S OFFICE,1 COURT CIR STE 13,CAMDENTON,MO,65020,"http://maps.google.com/maps?q=1 COURT CIR STE 13,+CAMDENTON,+MO+65020&hl=en"
CAPE GIRARDEAU COUNTY SHERIFF'S OFFICE,CAPE GIRARDEAU COUNTY SHERIFF'S OFFICE,216 N. MISSOURI STREET,JACKSON,MO,63755,"http://maps.google.com/maps?q=216 N. MISSOURI STREET,+JACKSON,+MO+63755&hl=en"
CARBONDALE POLICE DEPARTMENT,CARBONDALE POLICE DEPARTMENT,501 SOUTH WASHINGTON STREET,CARBONDALE,IL,62901,"http://maps.google.com/maps?q=501 SOUTH WASHINGTON STREET,+CARBONDALE,+IL+62901&hl=en"
CARLINVILLE POLICE DEPT.,CARLINVILLE POLICE DEPARTMENT,570 NORTH BROAD STREET,CARLINVILLE,IL,62626,"http://maps.google.com/maps?q=570 NORTH BROAD STREET,+CARLINVILLE,+IL+62626&hl=en"
CHATHAM POLICE DEPARTMENT,CHATHAM POLICE DEPARTMENT,117 EAST MULBERRY,CHATHAM,IL,62629,"http://maps.google.com/maps?q=117 EAST MULBERRY,+CHATHAM,+IL+62629&hl=en"
CHESTER POLICE DEPARTMENT,CHESTER POLICE DEPARTMENT FRONT LOBBY,1330 SWANWICK ST.,CHESTER,IL,62233,"http://maps.google.com/maps?q=1330 SWANWICK ST.,+CHESTER,+IL+62233&hl=en"
CHESTERFIELD POLICE DEPARTMENT,CHESTERFIELD CITY HALL,690 CHESTERFIELD PARKWAY WEST,CHESTERFIELD,MO,63017,"http://maps.google.com/maps?q=690 CHESTERFIELD PARKWAY WEST,+CHESTERFIELD,+MO+63017&hl=en"
CHESTERFIELD POLICE DEPARTMENT,CLARKSON VALLEY CITY HALL PARKING LOT,15933 CLAYTON ROAD(CLARKSON VALLEY),BALLWIN,MO,63011,"http://maps.google.com/maps?q=15933 CLAYTON ROAD,+BALLWIN,+MO+63011&hl=en"
CLAYTON POLICE DEPARTMENT,CENTER OF CLAYTON,50 GAY AVENUE,CLAYTON,MO,63105,"http://maps.google.com/maps?q=50 GAY AVENUE,+CLAYTON,+MO+63105&hl=en"
CLINTON COUNTY SHERIFF'S DEPARTMENT,CLINTON COUNTY SHERIFF'S OFFICE,810 FRANKLIN ST.,CARLYLE,IL,62231,"http://maps.google.com/maps?q=810 FRANKLIN ST.,+CARLYLE,+IL+62231&hl=en"
COLUMBIA POLICE DEPARTMENT,COLUMBIA POLICE DEPARTMENT LOBBY (TRIPLE BOXES),1020 NORTH MAIN STREET,COLUMBIA,IL,62236,"http://maps.google.com/maps?q=1020 NORTH MAIN STREET,+COLUMBIA,+IL+62236&hl=en"
COTTLEVILLE POLICE DEPT.,COTTLEVILLE POLICE DEPT,5490 5TH STREET,SAINT CHARLES,MO,63304,"http://maps.google.com/maps?q=5490 5TH STREET,+SAINT CHARLES,+MO+63304&hl=en"
COTTLEVILLE POLICE DEPT.,COTTLEVILLE POLICE DEPT.,5490 FIFTH STREET,COTTLEVILLE,MO,63304,"http://maps.google.com/maps?q=5490 FIFTH STREET,+COTTLEVILLE,+MO+63304&hl=en"
CREVE COEUR POLICE DEPT,CREVE COEUR POLICE DEPT. FRONT LOBBY,300 NORTH NEW BALLAS,CREVE COEUR,MO,63141,"http://maps.google.com/maps?q=300 NORTH NEW BALLAS,+CREVE COEUR,+MO+63141&hl=en"
CROCKER POLICE DEPARTMENT,CROCKER POLICE DEPARTMENT CITY HALL,108 S COMMERCIAL ST.PO,CROCKER,MO,65452,"http://maps.google.com/maps?q=108 S COMMERCIAL ST.,+CROCKER,+MO+65452&hl=en"
CRYSTAL CITY POLICE DEPARTMENT,CRYSTAL CITY POLICE DEPARTMENT LOBBY,130 MISSISSIPPI AVE,CRYSTAL CITY,MO,63019,"http://maps.google.com/maps?q=130 MISSISSIPPI AVE,+CRYSTAL CITY,+MO+63019&hl=en"
DENT COUNTY SHERIFF'S OFFICE,RIVERWAYS BANK PARKING LOT,600 S. MAIN,SALEM,MO,65560,"http://maps.google.com/maps?q=600 S. MAIN,+SALEM,+MO+65560&hl=en"
DES PERES DEPARTMENT OF PUBLIC SAFETY,THE LODGE,1050 DES PERES ROAD,DES PERES,MO,63131,"http://maps.google.com/maps?q=1050 DES PERES ROAD,+DES PERES,+MO+63131&hl=en"
DESLOGE POLICE DEPARTMENT,PARKLAND HEALTH MART PHARMACY,617 NORTH COWLING ST,PARK HILLS,MO,63601,"http://maps.google.com/maps?q=617 NORTH COWLING ST,+PARK HILLS,+MO+63601&hl=en"
DUQUOIN POLICE DEPARTMENT,DUQUOIN POLICE DEPARTMENT LOBBY,304 E. POPLAR ST,DU QUOIN,IL,62832,"http://maps.google.com/maps?q=304 E. POPLAR ST,+DU QUOIN,+IL+62832&hl=en"
EAST ALTON POLICE DEPT,EAST ALTON POLICE DEPARTMENT,211 N SHAMROCK,EAST ALTON,IL,62024,"http://maps.google.com/maps?q=211 N SHAMROCK,+EAST ALTON,+IL+62024&hl=en"
EDWARDSVILLE POLICE DEPARTMENT,EDWARDSVILLE POLICE DEPARTMENT FRONT / MAIN LOBBY,333 SOUTH MAIN STREET,EDWARDSVILLE,IL,62025,"http://maps.google.com/maps?q=333 SOUTH MAIN STREET,+EDWARDSVILLE,+IL+62025&hl=en"
ELLISVILLE POLICE DEPARTMENT,ELLISVILLE POLICE DEPARTMENT,37 WEIS AVENUE,ELLISVILLE,MO,63011,"http://maps.google.com/maps?q=37 WEIS AVENUE,+ELLISVILLE,+MO+63011&hl=en"
EUREKA POLICE DEPARTMENT,EUREKA PD,120 CITY HALL DRIVE,EUREKA,MO,63025,"http://maps.google.com/maps?q=120 CITY HALL DRIVE,+EUREKA,+MO+63025&hl=en"
FAIRVIEW HEIGHTS POLICE DEPARTMENT,FAIRVIEW HEIGHTS POLICE DEPT.,10027 BUNKUM ROAD,FAIRVIEW HEIGHTS,IL,62208,"http://maps.google.com/maps?q=10027 BUNKUM ROAD,+FAIRVIEW HEIGHTS,+IL+62208&hl=en"
FAIRVIEW HEIGHTS POLICE DEPARTMENT,ST CLAIR SQUARE,134 ST CLAIR SQUARE,FAIRVIEW HEIGHTS,IL,62208,"http://maps.google.com/maps?q=134 ST CLAIR SQUARE,+FAIRVIEW HEIGHTS,+IL+62208&hl=en"
FARMINGTON POLICE DEPARTMENT,FARMINGTON POLICE DEPT.,310 STE. GENEVIEVE AVE,FARMINGTON,MO,63640,"http://maps.google.com/maps?q=310 STE. GENEVIEVE AVE,+FARMINGTON,+MO+63640&hl=en"
FESTUS POLICE DEPARTMENT,FESTUS POLICE DEPARTMENT,100 PARK AVE,FESTUS,MO,63028,"http://maps.google.com/maps?q=100 PARK AVE,+FESTUS,+MO+63028&hl=en"
FLORISSANT POLICE DEPARTMENT,FLORISSANT POLICE DEPARTMENT LOBBY,1700 NORTH HIGHWAY 67,FLORISSANT,MO,63033,"http://maps.google.com/maps?q=1700 NORTH HIGHWAY 67,+FLORISSANT,+MO+63033&hl=en"
FRANKLIN COUNTY NARCOTICS ENFORCEMENT UNIT,SULLIVAN POLICE DEPARTMENT,106 PROGRESS PKWY,SULLIVAN,MO,63080,"http://maps.google.com/maps?q=106 PROGRESS PKWY,+SULLIVAN,+MO+63080&hl=en"
FRANKLIN COUNTY NARCOTICS ENFORCEMENT UNIT,UNION POLICE DEPARTMENT,119 S CHURCH ST,UNION,MO,63084,"http://maps.google.com/maps?q=119 S CHURCH ST,+UNION,+MO+63084&hl=en"
FRANKLIN COUNTY NARCOTICS ENFORCEMENT UNIT,WASHINGTON POLICE DEPARTMENT,301 JEFFERSON STREET,WASHINGTON,MO,63090,"http://maps.google.com/maps?q=301 JEFFERSON STREET,+WASHINGTON,+MO+63090&hl=en"
FREDERICKTOWN POLICE DEPARTMENT,FREDERICKTOWN WALMART SUPERCENTER,1025 WALTON DRIVE,FREDERICKTOWN,MO,63645,"http://maps.google.com/maps?q=1025 WALTON DRIVE,+FREDERICKTOWN,+MO+63645&hl=en"
FRONTENAC POLICE DEPARTMENT,FRONTENAC POLICE STATION DEPARTMENT LOBBY,10555 CLAYTON ROAD,FRONTENAC,MO,63131,"http://maps.google.com/maps?q=10555 CLAYTON ROAD,+FRONTENAC,+MO+63131&hl=en"
FULTON POLICE DEPARTMENT,FULTON FIRE DEPARTMENT,151 W. TENNYSON ROAD,FULTON,MO,65251,"http://maps.google.com/maps?q=151 W. TENNYSON ROAD,+FULTON,+MO+65251&hl=en"
GLENDALE POLICE DEPARTMENT,GLENDALE CITY AUDITORIUM,424 N SAPPINGTON ROAD,GLENDALE,MO,63122,"http://maps.google.com/maps?q=424 N SAPPINGTON ROAD,+GLENDALE,+MO+63122&hl=en"
GREENVILLE POLICE DEPARTMENT,BOND COUNTY SHERIFF'S DEPARTMENT,403 S. SECOND ST,GREENVILLE,IL,62246,"http://maps.google.com/maps?q=403 S. SECOND ST,+GREENVILLE,+IL+62246&hl=en"
GREENVILLE POLICE DEPARTMENT,GREENVILLE POLICE DEPARTMENT,404 S. THIRD ST,GREENVILLE,IL,62246,"http://maps.google.com/maps?q=404 S. THIRD ST,+GREENVILLE,+IL+62246&hl=en"
HAZELWOOD POLICE DEPARTMENT,CITY HALL/POLICE COMPLEX,415 ELM GROVE,HAZELWOOD,MO,63042,"http://maps.google.com/maps?q=415 ELM GROVE,+HAZELWOOD,+MO+63042&hl=en"
HILLSBORO POLICE DEPARTMENT,HILLSBORO POLICE DEPARTMENT,447 SOUTH MAIN STREETSUITE 5,HILLSBORO,IL,62049,"http://maps.google.com/maps?q=447 SOUTH MAIN STREET,+HILLSBORO,+IL+62049&hl=en"
HILLSBORO POLICE DEPARTMENT,JOHN'S PHARMACY,300 SOUTH MAIN STREET,HILLSBORO,IL,62049,"http://maps.google.com/maps?q=300 SOUTH MAIN STREET,+HILLSBORO,+IL+62049&hl=en"
HILLSBORO POLICE DEPARTMENT,SULLIVAN'S DRUG STORE,325 SOUTH MAIN STREET,HILLSBORO,IL,62049,"http://maps.google.com/maps?q=325 SOUTH MAIN STREET,+HILLSBORO,+IL+62049&hl=en"
HOLTS SUMMIT POLICE DEPARTMENT,HOLTS SUMMIT CITY HALL PARKING LOT,245 SOUTH SUMMIT DRIVE,HOLTS SUMMIT,MO,65043,"http://maps.google.com/maps?q=245 SOUTH SUMMIT DRIVE,+HOLTS SUMMIT,+MO+65043&hl=en"
JACKSON COUNTY SHERIFF'S OFFICE,JACKSON COUNTY HEALTH DEPARTMENT (DOUBLE BOXES),415 HEALTH DEPARTMENT ROAD,MURPHYSBORO,IL,62966,"http://maps.google.com/maps?q=415 HEALTH DEPARTMENT ROAD,+MURPHYSBORO,+IL+62966&hl=en"
JACKSON POLICE DEPARTMENT,JACKSON POLICE / FIRE COMPLEX,525 S. HOPE ST.,JACKSON,MO,63755,"http://maps.google.com/maps?q=525 S. HOPE ST.,+JACKSON,+MO+63755&hl=en"
JACKSONVILLE POLICE DEPARTMENT,JACKSONVILLE POLICE DEPARTMENT,200 W. DOUGLAS,JACKSONVILLE,IL,62650,"http://maps.google.com/maps?q=200 W. DOUGLAS,+JACKSONVILLE,+IL+62650&hl=en"
JEFFERSON CITY MISSOURI POLICE DEPARTMENT,JEFFERSON CITY POLICE HEADQUARTERS TRAINING ROOM ENTRANCE - SOUTHSIDE OF BUILDING,401 MONROE ST,JEFFERSON CITY,MO,65101,"http://maps.google.com/maps?q=401 MONROE ST,+JEFFERSON CITY,+MO+65101&hl=en"
KIRKWOOD POLICE DEPARTMENT,KIRKWOOD POLICE STATION,131 WEST MADISON AVE,KIRKWOOD,MO,63122,"http://maps.google.com/maps?q=131 WEST MADISON AVE,+KIRKWOOD,+MO+63122&hl=en"
LADUE POLICE DEPARTMENT,LADUE POLICE DEPT.,9345 CLAYTON ROAD,SAINT LOUIS,MO,63124,"http://maps.google.com/maps?q=9345 CLAYTON ROAD,+SAINT LOUIS,+MO+63124&hl=en"
LAKE SAINT LOUIS POLICE DEPARTMENT,LAKE SAINT LOUIS CIVIC CENTER COUNCIL CHAMBERS,200 CIVIC CENTER,LAKE SAINT LOUIS,MO,63367,"http://maps.google.com/maps?q=200 CIVIC CENTER,+LAKE SAINT LOUIS,+MO+63367&hl=en"
LAURIE POLICE DEPARTMENT,LAURIE POLICE DEPARTMENT,147 S. MAIN,LAURIE,MO,65038,"http://maps.google.com/maps?q=147 S. MAIN,+LAURIE,+MO+65038&hl=en"
LINN POLICE DEPARTMENT,LINN CITY HALL,1200 EAST MAIN STREET,LINN,MO,65051,"http://maps.google.com/maps?q=1200 EAST MAIN STREET,+LINN,+MO+65051&hl=en"
LITCHFIELD POLICE DEPARTMENT,LITCHFIELD POLICE DEPARTMENT LOBBY DROP BOX,120 E. RYDER STREET,LITCHFIELD,IL,62056,"http://maps.google.com/maps?q=120 E. RYDER STREET,+LITCHFIELD,+IL+62056&hl=en"
MADISON COUNTY SHERIFF'S OFFICE (TRIPLE BOXES),MADISON COUNTY ADMINISTRATION BUILDING PARKING LOT,157 N. MAIN STREETNORTH. 2ND STREET PARKING LOT,EDWARDSVILLE,IL,62025,"http://maps.google.com/maps?q=157 N. MAIN STREET,+EDWARDSVILLE,+IL+62025&hl=en"
MANCHESTER POLICE DEPARTMENT,MANCHESTER POLICE DEPARTMENT,200 HIGHLANDS BLVD,BALLWIN,MO,63011,"http://maps.google.com/maps?q=200 HIGHLANDS BLVD,+BALLWIN,+MO+63011&hl=en"
MAPLEWOOD POLICE DEPARTMENT,MAPLEWOOD POLICE DEPARTMENT,7601 MANCHESTER,MAPLEWOOD,MO,63143,"http://maps.google.com/maps?q=7601 MANCHESTER,+MAPLEWOOD,+MO+63143&hl=en"
MARION COUNTY SHERIFF'S DEPT,MARION COUNTY SHERIFF'S DEPT,204 N. WASHINGTON STREET,SALEM,IL,62881,"http://maps.google.com/maps?q=204 N. WASHINGTON STREET,+SALEM,+IL+62881&hl=en"
MARYLAND HEIGHTS POLICE DEPARTMENT,MARYLAND HEIGHTS POLICE DEPARTMENT,11911 DORSETTE ROAD,MARYLAND HEIGHTS,MO,63043,"http://maps.google.com/maps?q=11911 DORSETTE ROAD,+MARYLAND HEIGHTS,+MO+63043&hl=en"
MARYVILLE POLICE DEPT,MARYVILLE POLICE DEPARTMENT,2500 N. CENTER,MARYVILLE,IL,62062,"http://maps.google.com/maps?q=2500 N. CENTER,+MARYVILLE,+IL+62062&hl=en"
MEXICO DEPT OF PUBLIC SAFETY,CITY HALL/FIRE DEPARTMENT,300 N. COAL,MEXICO,MO,65265,"http://maps.google.com/maps?q=300 N. COAL,+MEXICO,+MO+65265&hl=en"
MT. VERNON POLICE DEPARTMENT,MT. VERNON POLICE DEPARTMENT,211 N. 10TH ST,MOUNT VERNON,IL,62864,"http://maps.google.com/maps?q=211 N. 10TH ST,+MOUNT VERNON,+IL+62864&hl=en"
MURPHYSBORO POLICE DEPARTMENT,KROGERS,550 E. INDUSTRIAL PARK ROADLOT 1,MURPHYSBORO,IL,62966,"http://maps.google.com/maps?q=550 E. INDUSTRIAL PARK ROAD,+MURPHYSBORO,+IL+62966&hl=en"
NEW BADEN POLICE DEPARTMENT,NEW BADEN POLICE DEPARTMENT,100 E. HANOVER STREET,NEW BADEN,IL,62265,"http://maps.google.com/maps?q=100 E. HANOVER STREET,+NEW BADEN,+IL+62265&hl=en"
O'FALLON POLICE DEPARTMENT,O'FALLON PUBLIC SAFETY BUILDING,285 NORTH SEVEN HILLS ROAD,O FALLON,IL,62269,"http://maps.google.com/maps?q=285 NORTH SEVEN HILLS ROAD,+O FALLON,+IL+62269&hl=en"
O'FALLON POLICE DEPT.,O'FALLON POLICE DEPT.,1019 BRYAN RD,OFALLON,MO,63366,"http://maps.google.com/maps?q=1019 BRYAN RD,+OFALLON,+MO+63366&hl=en"
OLIVETTE POLICE DEPARTMENT,OLIVETTE MUNICIPAL BUILDING,1140 DIELMAN RD.,OLIVETTE,MO,63132,"http://maps.google.com/maps?q=1140 DIELMAN RD.,+OLIVETTE,+MO+63132&hl=en"
OSAGE BEACH POLICE DEPARTMENT,OSAGE BEACH POLICE DEPARTMENT,1000 CITY PARKWAY,OSAGE BEACH,MO,65065,"http://maps.google.com/maps?q=1000 CITY PARKWAY,+OSAGE BEACH,+MO+65065&hl=en"
OVERLAND (MO) POLICE DEPARTMENT,OVERLAND POLICE DEPT.,2410 GOODALE,OVERLAND,MO,63114,"http://maps.google.com/maps?q=2410 GOODALE,+OVERLAND,+MO+63114&hl=en"
PACIFIC POLICE DEPARTMENT,PACIFIC POLICE DEPARTMENT,300 HOVEN DRIVE,PACIFIC,MO,63069,"http://maps.google.com/maps?q=300 HOVEN DRIVE,+PACIFIC,+MO+63069&hl=en"
PARK HILLS POLICE DEPARTMENT,PARK HILLS POLICE DEPARTMENT,8 MUNICIPAL ST,PARK HILLS,MO,63601,"http://maps.google.com/maps?q=8 MUNICIPAL ST,+PARK HILLS,+MO+63601&hl=en"
PERRY COUNTY SHERIFF,PERRY COUNTY SHERIFF,710 S. KINGSHIGHWAY ST,PERRYVILLE,MO,63775,"http://maps.google.com/maps?q=710 S. KINGSHIGHWAY ST,+PERRYVILLE,+MO+63775&hl=en"
PERRY COUNTY SHERIFF'S OFFICE,PERRY COUNTY SHERIFF'S OFFICE,12 E. WATER STREET,PINCKNEYVILLE,IL,62274,"http://maps.google.com/maps?q=12 E. WATER STREET,+PINCKNEYVILLE,+IL+62274&hl=en"
PERRYVILLE POLICE DEPARTMENT,PERRYVILLE POLICE DEPARTMENT,120 N. JACKSON STREET,PERRYVILLE,MO,63775,"http://maps.google.com/maps?q=120 N. JACKSON STREET,+PERRYVILLE,+MO+63775&hl=en"
PEVELY POLICE DEPARTMENT,PEVELY POLICE DEPARTMENT,401 MAIN STREET,PEVELY,MO,63070,"http://maps.google.com/maps?q=401 MAIN STREET,+PEVELY,+MO+63070&hl=en"
POPLAR BLUFF POLICE DEPARTMENT,POPLAR BLUFF POLICE DEPARTMENT,1111 POPLAR ST,POPLAR BLUFF,MO,63901,"http://maps.google.com/maps?q=1111 POPLAR ST,+POPLAR BLUFF,+MO+63901&hl=en"
PUXICO POLICE DEPARTMENT,PUXICO POLICE DEPARTMENT,141 N. HICKMAN,PUXICO,MO,63960,"http://maps.google.com/maps?q=141 N. HICKMAN,+PUXICO,+MO+63960&hl=en"
RED BUD POLICE DEPARTMENT (5 SETS),COULTERVILLE POLICE DEPARTMENT,114 N. 4TH STREET,COULTERVILLE,IL,62237,"http://maps.google.com/maps?q=114 N. 4TH STREET,+COULTERVILLE,+IL+62237&hl=en"
RED BUD POLICE DEPARTMENT (5 SETS),DOEHRINGS PHARMACY,143 S. WASHINGTON,NASHVILLE,IL,62263,"http://maps.google.com/maps?q=143 S.  WASHINGTON,+NASHVILLE,+IL+62263&hl=en"
RED BUD POLICE DEPARTMENT (5 SETS),RANDOLPH COUNTY SHERIFF,200 W. BUENA VISTA,CHESTER,IL,62233,"http://maps.google.com/maps?q=200 W. BUENA VISTA,+CHESTER,+IL+62233&hl=en"
RED BUD POLICE DEPARTMENT (5 SETS),RED BUD POLICE DEPARTMENT,200 E. MARKET,RED BUD,IL,62278,"http://maps.google.com/maps?q=200 E. MARKET,+RED BUD,+IL+62278&hl=en"
RED BUD POLICE DEPARTMENT (5 SETS),SPARTA POLICE DEPARTMENT,112 W. JACKSON,SPARTA,IL,62286,"http://maps.google.com/maps?q=112 W. JACKSON,+SPARTA,+IL+62286&hl=en"
REYNOLDS COUNTY SHERIFF'S OFFICE,REYNOLDS COUNTY SHERIFF'S OFFICE,2319 GREEN ST.,CENTERVILLE,MO,63633,"http://maps.google.com/maps?q=2319 GREEN ST.,+CENTERVILLE,+MO+63633&hl=en"
RICHMOND HEIGHTS POLICE DEPARTMENT,RICHMOND HEIGHTS POLICE DEPARTMENT FRONT LOBBY,7447 DALE AVENUE,RICHMOND HEIGHTS,MO,63117,"http://maps.google.com/maps?q=7447 DALE AVENUE,+RICHMOND HEIGHTS,+MO+63117&hl=en"
ROLLA POLICE DEPTARNEMT,ROLLA POLICE DEPARTMENT,1007 NORTH ELM STREET,ROLLA,MO,65401,"http://maps.google.com/maps?q=1007 NORTH ELM STREET,+ROLLA,+MO+65401&hl=en"
SALEM POLICE DEPARTMENT,SALEM POLICE DEPARTMENT,201 S. ROTAN AVE.,SALEM,IL,62881,"http://maps.google.com/maps?q=201 S. ROTAN AVE.,+SALEM,+IL+62881&hl=en"
ST. ANN POLICE DEPARTMENT (DOUBLE BOXES),ST. ANN POLICE DEPARTMENT,10405 ST. CHARLES ROCK RD.,SAINT ANN,MO,63074,"http://maps.google.com/maps?q=10405 ST. CHARLES ROCK RD.,+SAINT ANN,+MO+63074&hl=en"
ST. CHARLES CITY POLICE DEPARTMENT,ST. CHARLES CITY POLICE DEPARTMENT,1781 ZUMBEHL ROAD,SAINT CHARLES,MO,63303,"http://maps.google.com/maps?q=1781 ZUMBEHL ROAD,+SAINT CHARLES,+MO+63303&hl=en"
ST. CHARLES COUNTY POLICE DEPARTMENT,ST. CHARLES COUNTY POLICE DEPARTMENT,101 SHERIFF DIERKER COURT,OFALLON,MO,63366,"http://maps.google.com/maps?q=101 SHERIFF DIERKER COURT,+OFALLON,+MO+63366&hl=en"
ST. CHARLES COUNTY SHERIFF'S DEPARTMENT,ST. CHARLES COUNTY COURT HOUSE,300 N. SECOND STREET,SAINT CHARLES,MO,63301,"http://maps.google.com/maps?q=300 N. SECOND STREET,+SAINT CHARLES,+MO+63301&hl=en"
ST. CLAIR COUNTY SHERIFF'S DEPARTMENT,ST CLAIR COUNTY SHERIFF'S DEPARTMENT,700 NORTH 5TH STREET,BELLEVILLE,IL,62220,"http://maps.google.com/maps?q=700 NORTH 5TH STREET,+BELLEVILLE,+IL+62220&hl=en"
ST. CLAIRE STATE'S ATTORNEY'S OFFICE,ST. CLAIR COURTHOUSE,10 PUBLIC SQUARE,BELLEVILLE,IL,62220,"http://maps.google.com/maps?q=10 PUBLIC SQUARE,+BELLEVILLE,+IL+62220&hl=en"
ST. JAMES POLICE DEPT,ST. JAMES POLICE DEPARTMENT,200 NORTH BOURBEUSE STREET,SAINT JAMES,MO,65559,"http://maps.google.com/maps?q=200 NORTH BOURBEUSE STREET,+SAINT JAMES,+MO+65559&hl=en"
ST. JOHN POLICE DEPARTMENT,CITY OF ST. JOHN MUNICIPAL BUILDING POLICE DEPARTMENT,8944 ST. CHARLES ROCK ROAD,SAINT JOHN,MO,63114,"http://maps.google.com/maps?q=8944 ST. CHARLES ROCK ROAD,+SAINT JOHN,+MO+63114&hl=en"
ST. LOUIS COUNTY POLICE DEPARTMENT,CENTRAL COUNTY PRECINCT,1333 ASHBY ROAD,SAINT LOUIS,MO,63132,"http://maps.google.com/maps?q=1333 ASHBY ROAD,+SAINT LOUIS,+MO+63132&hl=en"
ST. LOUIS COUNTY POLICE DEPARTMENT,CITY OF FENTON PRECINCT (IN MUNICIPAL BUILDING),625 NEW SMIZER MILL RD,FENTON,MO,63026,"http://maps.google.com/maps?q=625 NEW SMIZER MILL RD,+FENTON,+MO+63026&hl=en"
ST. LOUIS COUNTY POLICE DEPARTMENT,CITY OF GREEN PARK CITY HALL,11100 MUELLER ROAD #2,GREEN PARK,MO,63123,"http://maps.google.com/maps?q=11100 MUELLER ROAD #2,+GREEN PARK,+MO+63123&hl=en"
ST. LOUIS COUNTY POLICE DEPARTMENT,CITY OF HANLEY HILLS SUBSTATION,7713 UTICA,HANLEY HILLS,MO,63133,"http://maps.google.com/maps?q=7713 UTICA,+HANLEY HILLS,+MO+63133&hl=en"
ST. LOUIS COUNTY POLICE DEPARTMENT,CITY OF JENNINGS PRECINCT,5445 JENNINGS STATION ROAD,JENNINGS,MO,63136,"http://maps.google.com/maps?q=5445 JENNINGS STATION ROAD,+JENNINGS,+MO+63136&hl=en"
ST. LOUIS COUNTY POLICE DEPARTMENT,CITY OF TWIN OAKS CITY HALL,1393 BIG BEND ROADSUITE F,TWIN OAKS,MO,63021,"http://maps.google.com/maps?q=1393 BIG BEND ROAD,+TWIN OAKS,+MO+63021&hl=en"
ST. LOUIS COUNTY POLICE DEPARTMENT,CITY OF WINCHESTER CITY HALL,109 LINDY BLVD,WINCHESTER,MO,63021,"http://maps.google.com/maps?q=109 LINDY BLVD,+WINCHESTER,+MO+63021&hl=en"
ST. LOUIS COUNTY POLICE DEPARTMENT,GRANTWOOD VILLAGE CITY HALL,ONE MISSIONARY RIDGE,SAINT LOUIS,MO,63123,"http://maps.google.com/maps?q=ONE MISSIONARY RIDGE,+SAINT LOUIS,+MO+63123&hl=en"
ST. LOUIS COUNTY POLICE DEPARTMENT,NORTH COUNTY RECREATIONAL COMPLEX,2577 REDMAN ROAD,SAINT LOUIS,MO,63136,"http://maps.google.com/maps?q=2577 REDMAN ROAD,+SAINT LOUIS,+MO+63136&hl=en"
ST. LOUIS COUNTY POLICE DEPARTMENT,SOUTH COUNTY PRECINCT,324 SAPPINGTON BARRACKS,SAINT LOUIS,MO,63125,"http://maps.google.com/maps?q=324 SAPPINGTON BARRACKS,+SAINT LOUIS,+MO+63125&hl=en"
ST. LOUIS COUNTY POLICE DEPARTMENT,VILLAGE OF MARLBOROUGH CITY HALL,7826 WIMBLEDON,SAINT LOUIS,MO,63119,"http://maps.google.com/maps?q=7826 WIMBLEDON,+SAINT LOUIS,+MO+63119&hl=en"
ST. LOUIS COUNTY POLICE DEPARTMENT,WEST COUNTY PRECINCT,232 VANCE ROAD,VALLEY PARK,MO,63088,"http://maps.google.com/maps?q=232 VANCE ROAD,+VALLEY PARK,+MO+63088&hl=en"
ST. LOUIS UNIVERSITY-DEPARTMENT OF PUBLIC SAFETY,WOOL CENTER - 27TH & 29TH @ DEBURG HALL DEPARTMENT OF PUBLIC SAFETY-SAINT LOUIS UNIVERSITY,3545 LINDELL DRIVE,SAINT LOUIS,MO,63103,"http://maps.google.com/maps?q=3545 LINDELL DRIVE,+SAINT LOUIS,+MO+63103&hl=en"
ST. PETERS POLICE DEPARTMENT (TRIPLE BOXES),ST. PETERS POLICE DEPARTMENT,1020 GRAND TETON DRIVE,SAINT PETERS,MO,63376,"http://maps.google.com/maps?q=1020 GRAND TETON DRIVE,+SAINT PETERS,+MO+63376&hl=en"
SUNSET HILLS POLICE DEPARTMENT,SUNSET HILLS POLICE DEPARTMENT,3905 S. LINDBERGH,SUNSET HILLS,MO,63127,"http://maps.google.com/maps?q=3905 S. LINDBERGH,+SUNSET HILLS,+MO+63127&hl=en"
SWANSEA POLICE DEPT,WALGREENS,2532 N. ILLINOIS STREET,BELLEVILLE,IL,62226,"http://maps.google.com/maps?q=2532 N. ILLINOIS STREET,+BELLEVILLE,+IL+62226&hl=en"
TERRE DU LAC POLICE DEPARTMENT,TERRE DU LAC POLICE DEPARTMENT REAR OF BUILDING,111 RUE TERRE BONNE,BONNE TERRE,MO,63628,"http://maps.google.com/maps?q=111 RUE TERRE BONNE,+BONNE TERRE,+MO+63628&hl=en"
TOWN AND COUNTRY PD,TOWN AND COUNTRY PD,1011 MUNICIPAL CENTER DRIVE,TOWN AND COUNTRY,MO,63131,"http://maps.google.com/maps?q=1011 MUNICIPAL CENTER DRIVE,+TOWN AND COUNTRY,+MO+63131&hl=en"
TRENTON POLICE DEPARTMENT,TRENTON POLICE DEPARTMENT,25 W. INDIANA STREET,TRENTON,IL,62293,"http://maps.google.com/maps?q=25 W. INDIANA STREET,+TRENTON,+IL+62293&hl=en"
TRUESDALE POLICE DEPARTMENT,TRUESDALE POLICE DEPARTMENT,109 PINCKNEY STREET,TRUESDALE,MO,63380,"http://maps.google.com/maps?q=109 PINCKNEY STREET,+TRUESDALE,+MO+63380&hl=en"
UNIVERSITY CITY POLICE DEPARTMENT,MILLBROOK PHARMACY,7010 PERSHING AVENUE,UNIVERSITY CITY,MO,63130,"http://maps.google.com/maps?q=7010 PERSHING AVENUE,+UNIVERSITY CITY,+MO+63130&hl=en"
VANDALIA POLICE DEPARTMENT,VANDALIA POLICE DEPARTMENT,219 SOUTH 5TH STREET,VANDALIA,IL,62471,"http://maps.google.com/maps?q=219 SOUTH 5TH STREET,+VANDALIA,+IL+62471&hl=en"
WATERLOO POLICE DEPARTMENT,SCHNUCKS,150 WATERLOO COMMONS DRIVE,WATERLOO,IL,62298,"http://maps.google.com/maps?q=150 WATERLOO COMMONS DRIVE,+WATERLOO,+IL+62298&hl=en"
WATERLOO POLICE DEPARTMENT,WATERLOO POLICE DEPARMTMENT LOBBY,"301 S, MAIN STREET",WATERLOO,IL,62298,"http://maps.google.com/maps?q=301 S, MAIN STREET,+WATERLOO,+IL+62298&hl=en"
WAYNE COUNTY SHERIFF'S OFFICE,WAYNE COUNTY SHERIFF'S OFFICE,100 MAPLE ST,GREENVILLE,MO,63944,"http://maps.google.com/maps?q=100 MAPLE ST,+GREENVILLE,+MO+63944&hl=en"
WEBSTER GROVES POLICE DEPARTMENT,WEBSTER GROVES RECREATION COMPLEX,33 EAST GLENDALE AVENUE,WEBSTER GROVES,MO,63119,"http://maps.google.com/maps?q=33 EAST GLENDALE AVENUE,+WEBSTER GROVES,+MO+63119&hl=en"
WENTZVILLE POLICE DEPARTMENT,WENTZVILLE POLICE DEPARTMENT,1019 SCHROEDER CREEK BLVD,WENTZVILLE,MO,63385,"http://maps.google.com/maps?q=1019 SCHROEDER CREEK BLVD,+WENTZVILLE,+MO+63385&hl=en"
