Participant,CollectionSite,Address,City,State,Zip,MapURL
20TH JUDICIAL DISCTICT DRUG CRIME TASK FORCE,20TH JUDICIAL DRUG CRIME TASK FORCE PERMANENT DROP BOX,P.O.BOX 550,CONWAY,AR,72033,"http://maps.google.com/maps?q=P.O.BOX 550,+CONWAY,+AR+72033&hl=en"
20TH JUDICIAL DISCTICT DRUG CRIME TASK FORCE,GOODS CASH SAVER FOOD STORE,129 BONE ST.,CLINTON,AR,72031,"http://maps.google.com/maps?q=129 BONE ST.,+CLINTON,+AR+72031&hl=en"
25TH JUDICIAL DRUG TASK FORCE,25TH JUDICIAL DISTRICT ATTORNEYS,121 N MAIN STREET,RIPLEY,TN,38063,"http://maps.google.com/maps?q=121 N MAIN STREET,+RIPLEY,+TN+38063&hl=en"
5TH DRUG TASK FORCE,FALL FEST,DOWNTOWN,RUSSELLVILLE,AR,72801,"http://maps.google.com/maps?q=DOWNTOWN,+RUSSELLVILLE,+AR+72801&hl=en"
ALMA POLICE DEPARTMENT,ALMA POLICE DEPARTMENT PERMANENT DROP BOX,804 FAYETTEVILLE AVE,ALMA,AR,72921,"http://maps.google.com/maps?q=804 FAYETTEVILLE AVE,+ALMA,+AR+72921&hl=en"
ARKANSAS COMMUNITY CORRECTION,WASHINGTON COUNTY SHERIFFS OFFICE,1155 WEST CLYDESDALE,FAYETTEVILLE,AR,72703,"http://maps.google.com/maps?q=1155 WEST CLYDESDALE,+FAYETTEVILLE,+AR+72703&hl=en"
ARKANSAS STATE UNIVERSITY POLICE,ARKANSAS STATE UNIVERSITY POLICE PERMANENT DROP BOX,503 ROBINSON ST.,JONESBORO,AR,72401,"http://maps.google.com/maps?q=503 ROBINSON ST.,+JONESBORO,+AR+72401&hl=en"
ARNOLD POLICE DEPARTMENT,ARNOLD CITY HALL,2101 JEFFCO BLVD.,ARNOLD,MO,63010,"http://maps.google.com/maps?q=2101 JEFFCO BLVD.,+ARNOLD,+MO+63010&hl=en"
ATOKA POLICE DEPT.,ATOKA PD,68 ATOKA-MCLAUGHLIN,ATOKA,TN,38004,"http://maps.google.com/maps?q=68 ATOKA-MCLAUGHLIN,+ATOKA,+TN+38004&hl=en"
AUGUSTA DEPT. OF PUBLIC SAFETY,AUGUSTA DEPT. OF PUBLIC SAFETY,2100 N. OHIO,AUGUSTA,KS,67010,"http://maps.google.com/maps?q=2100 N. OHIO,+AUGUSTA,+KS+67010&hl=en"
AUXVASSE POLICE DEPARTMENT,GRAND PRAIRIE BAPTIST CHURCH,108 N. MAIN STREET,AUXVASSE,MO,65231,"http://maps.google.com/maps?q=108 N. MAIN STREET,+AUXVASSE,+MO+65231&hl=en"
BALDWIN CITY POLICE DEPARTMENT,BALDWIN CITY POLICE DEPARTMENT,811 8TH STREET,BALDWIN CITY,KS,66006,"http://maps.google.com/maps?q=811 8TH STREET,+BALDWIN CITY,+KS+66006&hl=en"
BARTLESVILLE OKLAHOMA PD,FIRE STATION NO. 3,100 SE MADISON BLVD,BARTLESVILLE,OK,74006,"http://maps.google.com/maps?q=100 SE MADISON BLVD,+BARTLESVILLE,+OK+74006&hl=en"
BARTLESVILLE OKLAHOMA PD,FIRE STATION NO. 4,3501 SE PRICE RD,BARTLESVILLE,OK,74006,"http://maps.google.com/maps?q=3501 SE PRICE RD,+BARTLESVILLE,+OK+74006&hl=en"
BARTLETT PD,KROGER HWY 70 / APPLING RD,7615 HWY 70,BARTLETT,TN,38133,"http://maps.google.com/maps?q=7615 HWY 70,+BARTLETT,+TN+38133&hl=en"
BASEHOR POLICE DEPT.,BASEHOR LIBRARY DIANA WEAVER - CONTACT PERSON,1400 158TH ST.,BASEHOR,KS,66007,"http://maps.google.com/maps?q=1400 158TH ST.,+BASEHOR,+KS+66007&hl=en"
BAXTER COUNTY SHERIFFS DEPARTMENT,BAXTER COUNTY SHERIFF'S OFFICE PERMANENT DROP BOX,904 HIGHWAY 62 WEST,MOUNTAIN HOME,AR,72653,"http://maps.google.com/maps?q=904 HIGHWAY 62 WEST,+MOUNTAIN HOME,+AR+72653&hl=en"
BAXTER COUNTY SHERIFFS DEPARTMENT,LOWE'S HARDWARE STORE,124 CHARLES BLACKBURN DR,MOUNTAIN HOME,AR,72653,"http://maps.google.com/maps?q=124 CHARLES BLACKBURN DR,+MOUNTAIN HOME,+AR+72653&hl=en"
BEEBE POLICE DEPARTMENT,BEEBE POLICE DEPARTMENT,201 WEST ILLINOIS STREET,BEEBE,AR,72012,"http://maps.google.com/maps?q=201 WEST ILLINOIS STREET,+BEEBE,+AR+72012&hl=en"
BELLA VISTA POLICE DEPARTMENT,BELLA VISTA POLICE DEPARTMENT PERMANENT DROP BOX,105 TOWN CENTER,BELLA VISTA,AR,72714,"http://maps.google.com/maps?q=105 TOWN CENTER,+BELLA VISTA,+AR+72714&hl=en"
BENTON COUNTY SHERIFF'S OFFICE,ASP TROOP L HEADQUARTERS,900 SOUTH 48TH STREET,SPRINGDALE,AR,72766,"http://maps.google.com/maps?q=900 SOUTH 48TH STREET,+SPRINGDALE,+AR+72766&hl=en"
BENTON COUNTY SHERIFF'S OFFICE,BENTON COUNTY SHERIFF'S OFFICE PERMANENT DROP BOX,1300 SW 14TH STREET,BENTONVILLE,AR,72712,"http://maps.google.com/maps?q=1300 SW 14TH STREET,+BENTONVILLE,+AR+72712&hl=en"
BERNIE POLICE DEPARTMENT,BERNIE POLICE DEPARTMENT,206 WEST CRUMB,BERNIE,MO,63822,"http://maps.google.com/maps?q=206 WEST CRUMB,+BERNIE,+MO+63822&hl=en"
BLUE SPRINGS POLICE DEPARTMENT,BLUE SPRINGS POLICE DEPARTMENT,1100 SW SMITH STREET,BLUE SPRINGS,MO,64015,"http://maps.google.com/maps?q=1100 SW SMITH STREET,+BLUE SPRINGS,+MO+64015&hl=en"
BLUE SPRINGS POLICE DEPARTMENT,PRICE CHOPPER AT PHARMACY,1100 SW 7 HIGHWAY,BLUE SPRINGS,MO,64014,"http://maps.google.com/maps?q=1100 SW 7 HIGHWAY,+BLUE SPRINGS,+MO+64014&hl=en"
BLUE SPRINGS POLICE DEPARTMENT,PRICE CHOPPER AT PHARMACY,1305 NW 7 HIGHWAY,BLUE SPRINGS,MO,64015,"http://maps.google.com/maps?q=1305 NW 7 HIGHWAY,+BLUE SPRINGS,+MO+64015&hl=en"
BOLIVAR POLICE DEPARTMENT,PUBLIC SAFETY BUILDING BOLIVAR POLICE DEPARTMENT,211 W WALNUT ST,BOLIVAR,MO,65613,"http://maps.google.com/maps?q=211 W WALNUT ST,+BOLIVAR,+MO+65613&hl=en"
BONNER SPRINGS POLICE DEPARTMENT,BONNER SPRINGS PRICE CHOPPER,501 COMMERCIAL DRIVE,BONNER SPRINGS,KS,66012,"http://maps.google.com/maps?q=501 COMMERCIAL DRIVE,+BONNER SPRINGS,+KS+66012&hl=en"
BOONE COUNTY SHERIFF'S DEPT.,ASHLAND POLICE DEPARTMENT,109 E. BROADWAY,ASHLAND,MO,65010,"http://maps.google.com/maps?q=109 E. BROADWAY,+ASHLAND,+MO+65010&hl=en"
BOONE COUNTY SHERIFF'S DEPT.,CENTRALIA POLICE DEPT. LOBBY,114 S. ROLLINS,CENTRALIA,MO,65240,"http://maps.google.com/maps?q=114 S. ROLLINS,+CENTRALIA,+MO+65240&hl=en"
BOONE COUNTY SHERIFF'S DEPT.,HALLSVILLE POLICE DEPARTMENT,202 HIGHWAY 124 EAST,HALLSVILLE,MO,65255,"http://maps.google.com/maps?q=202 HIGHWAY 124 EAST,+HALLSVILLE,+MO+65255&hl=en"
BOONE COUNTY SHERIFF'S DEPT.,HARRY S. TRUMAN VA HOSPITAL,800 HOSPITAL DRIVE,COLUMBIA,MO,65201,"http://maps.google.com/maps?q=800 HOSPITAL DRIVE,+COLUMBIA,+MO+65201&hl=en"
BOONE COUNTY SHERIFF'S DEPT.,HICKMAN HIGH SCHOOL,1104 N. PROVIDENCE RD.,COLUMBIA,MO,65203,"http://maps.google.com/maps?q=1104 N. PROVIDENCE RD.,+COLUMBIA,+MO+65203&hl=en"
BOONE COUNTY SHERIFF'S DEPT.,MU STUDENT CENTER UNIVERSITY OF MISSOURI - COLUMBIA,2500 MU STUDENT CENTER,COLUMBIA,MO,65211,"http://maps.google.com/maps?q=2500 MU STUDENT CENTER,+COLUMBIA,+MO+65211&hl=en"
BOONE COUNTY SHERIFF'S DEPT.,ROCK BRIDGE HIGH SCHOOL,4303 S. PROVIDENCE RD.,COLUMBIA,MO,65203,"http://maps.google.com/maps?q=4303 S. PROVIDENCE RD.,+COLUMBIA,+MO+65203&hl=en"
BOONE COUNTY SHERIFF'S OFFICE,BOONE COUNTY SHERIFF'S OFFICE PERMANENT DROP BOX,5800 LAW DRIVE,HARRISON,AR,72601,"http://maps.google.com/maps?q=5800 LAW DRIVE,+HARRISON,+AR+72601&hl=en"
BOONEVILLE POLICE DEPARTMENT,BOONEVILLE POLICE DEPARTMENT PERMANENT DROP BOX,497 EAST MAIN ST.,BOONEVILLE,AR,72927,"http://maps.google.com/maps?q=497 EAST MAIN ST.,+BOONEVILLE,+AR+72927&hl=en"
BOONVILLE POLICE DEPARTMENT,BOONVILLE FIRE DEPT.,500 BINGHAM ROAD,BOONVILLE,MO,65233,"http://maps.google.com/maps?q=500 BINGHAM ROAD,+BOONVILLE,+MO+65233&hl=en"
BRANSON POLICE DEPARTMENT,COX MEDICAL CENTER BRANSON PHARMACY,525 BRANSON LANDING BLVD,BRANSON,MO,65616,"http://maps.google.com/maps?q=525 BRANSON LANDING BLVD,+BRANSON,+MO+65616&hl=en"
BROWN COUNTY SHERIFF'S OFFICE,BROWN COUNTY SHERIFFS OFFICE NO BOXES,709 UTAH STREET,HIAWATHA,KS,66434,"http://maps.google.com/maps?q=709 UTAH STREET,+HIAWATHA,+KS+66434&hl=en"
BUREAU OF INDIAN AFFAIRS - OJS,NORTHERN TRIBAL HEALTH SYSTEMS,7600 S HIGHWAY 69 A,MIAMI,OK,74355,"http://maps.google.com/maps?q=7600 S HIGHWAY 69 A,+MIAMI,+OK+74355&hl=en"
BURLINGTON POLICE DEPT,COFFEY CO. HOSPITAL AMBULANCE BAY,801 N 4TH ST.,BURLINGTON,KS,66839,"http://maps.google.com/maps?q=801 N 4TH ST.,+BURLINGTON,+KS+66839&hl=en"
BUTLER POLICE DEPARTMENT,BATES COUNTY HEALTH DEPARTMENT,501 N ORANGE,BUTLER,MO,64730,"http://maps.google.com/maps?q=501 N ORANGE,+BUTLER,+MO+64730&hl=en"
BUTLER POLICE DEPT.,BATES COUNTY HEALTH DEPARTMENT,501 N. ORANGE,BUTLER,MO,64730,"http://maps.google.com/maps?q=501 N. ORANGE,+BUTLER,+MO+64730&hl=en"
CALIFORNIA POLICE DEPARTMENT,CALIFORNIA POLICE DEPARTMENT LOBBY,500 S. OAK,CALIFORNIA,MO,65018,"http://maps.google.com/maps?q=500 S. OAK,+CALIFORNIA,+MO+65018&hl=en"
CALLAWAY COUNTY SHERIFF'S OFFICE,CALLAWAY 2 WATER DISTRICT,2610 N. WESTMINSTER AVE,FULTON,MO,65251,"http://maps.google.com/maps?q=2610 N. WESTMINSTER AVE,+FULTON,+MO+65251&hl=en"
CAMDEN COUNTY SHERIFF'S OFFICE,CAMDEN COUNTY SHERIFF'S OFFICE,1 COURT CIR STE 13,CAMDENTON,MO,65020,"http://maps.google.com/maps?q=1 COURT CIR STE 13,+CAMDENTON,+MO+65020&hl=en"
CAPE GIRARDEAU COUNTY SHERIFF'S OFFICE,CAPE GIRARDEAU COUNTY SHERIFF'S OFFICE,216 N. MISSOURI STREET,JACKSON,MO,63755,"http://maps.google.com/maps?q=216 N. MISSOURI STREET,+JACKSON,+MO+63755&hl=en"
CAPE GIRARDEAU POLICE DEPT.,CAPE GIRARDEAU POLICE DEPARTMENT,2530 MARIA LOUISE,CAPE GIRARDEAU,MO,63701,"http://maps.google.com/maps?q=2530 MARIA LOUISE,+CAPE GIRARDEAU,+MO+63701&hl=en"
CASSVILLE POLICE DEPARTMENT,CITY HALL/CASSVILLE POLICE DEPT,300 MAIN STREET,CASSVILLE,MO,65625,"http://maps.google.com/maps?q=300 MAIN STREET,+CASSVILLE,+MO+65625&hl=en"
CAVE CITY POLICE DEPARTMENT,CAVE CITY POLICE DEPARTMENT PERMANENT DROP BOX,120 E. SPRING STREET,CAVE CITY,AR,72521,"http://maps.google.com/maps?q=120 E. SPRING STREET,+CAVE CITY,+AR+72521&hl=en"
CENTERTON POLICE DEPARTMENT,CENTERTON POLICE DEPARTMENT PERMANENT DROP BOX,220 MUNICIPAL DR,CENTERTON,AR,72719,"http://maps.google.com/maps?q=220 MUNICIPAL DR,+CENTERTON,+AR+72719&hl=en"
CHANUTE POLICE DEPT,MEDICINE SHOPPE,421 W. MAIN,CHANUTE,KS,66720,"http://maps.google.com/maps?q=421 W. MAIN,+CHANUTE,+KS+66720&hl=en"
CHEROKEE COUNTY SHERIFF'S OFFICE,APPLE MARKET,103 NORTH EAST AVENUE,COLUMBUS,KS,66725,"http://maps.google.com/maps?q=103 NORTH EAST AVENUE,+COLUMBUS,+KS+66725&hl=en"
CHEROKEE COUNTY SHERIFF'S OFFICE,GALENA CITY HALL,211 WEST 7TH STREET,GALENA,KS,66739,"http://maps.google.com/maps?q=211 WEST 7TH STREET,+GALENA,+KS+66739&hl=en"
CHEROKEE COUNTY SHERIFF'S OFFICE,MARVINS IGA,1400 MILITARY AVENUE,BAXTER SPRINGS,KS,66713,"http://maps.google.com/maps?q=1400 MILITARY AVENUE,+BAXTER SPRINGS,+KS+66713&hl=en"
CHEROKEE VILLAGE POLICE DEPARTMENT,CHEROKEE VILLAGE POLICE DEPARTMENT,#2 SONTEE DRIVE,CHEROKEE VILLAGE,AR,72529,"http://maps.google.com/maps?q=#2 SONTEE DRIVE,+CHEROKEE VILLAGE,+AR+72529&hl=en"
CHESTER POLICE DEPARTMENT,CHESTER POLICE DEPARTMENT FRONT LOBBY,1330 SWANWICK ST.,CHESTER,IL,62233,"http://maps.google.com/maps?q=1330 SWANWICK ST.,+CHESTER,+IL+62233&hl=en"
CLARKSVILLE POLICE DEPARTMENT,CLARKSVILLE POLICE DEPARTMENT PERMANENT DROP BOX,1008 WEST MAIN STREET,CLARKSVILLE,AR,72830,"http://maps.google.com/maps?q=1008 WEST MAIN STREET,+CLARKSVILLE,+AR+72830&hl=en"
CLAY CENTER KANSAS POLICE DEPARTMENT,CLAY COUNTY HEALTH DEPARTMENT,820 SPELLMAN CIRCLE,CLAY CENTER,KS,67432,"http://maps.google.com/maps?q=820 SPELLMAN CIRCLE,+CLAY CENTER,+KS+67432&hl=en"
CLAY COUNTY SHERIFF'S DEPARTMENT,CLAY COUNTY DETENTION CENTER,268 SOUTH SECOND STREET,PIGGOTT,AR,72454,"http://maps.google.com/maps?q=268 SOUTH SECOND STREET,+PIGGOTT,+AR+72454&hl=en"
CLEBURNE COUNTY SHERIFF'S OFFICE,CLEBURNE COUNTY SHERIFF'S OFFICE PERMANENT DROP BOX,914 SOUTH 9TH STREET,HEBER SPRINGS,AR,72543,"http://maps.google.com/maps?q=914 SOUTH 9TH STREET,+HEBER SPRINGS,+AR+72543&hl=en"
COAL HILL POLICE DEPARTMENT,COAL HILL POLICE DEPARTMENT,101 EAST HIGHWAY 64,COAL HILL,AR,72832,"http://maps.google.com/maps?q=101 EAST HIGHWAY 64,+COAL HILL,+AR+72832&hl=en"
COFFEYVILLE POLICE DEPARTMENT,COFFEYVILLE POLICE DEPARTMENT,1206 W. 11TH STREET,COFFEYVILLE,KS,67337,"http://maps.google.com/maps?q=1206 W. 11TH STREET,+COFFEYVILLE,+KS+67337&hl=en"
COLLIERVILLE POLICE DEPARTMENT,COLLIERVILLE POLICE DEPARTMENT,156 N. ROWLETT COLLIERVILLE,COLLIERVILLE,TN,38017,"http://maps.google.com/maps?q=156 N. ROWLETT COLLIERVILLE,+COLLIERVILLE,+TN+38017&hl=en"
COUNCIL BLUFFS POLICE DEPARTMENT,WALGREENS,535 E BROADWAY,COUNCIL BLUFFS,IA,51503,"http://maps.google.com/maps?q=535 E BROADWAY,+COUNCIL BLUFFS,+IA+51503&hl=en"
CRAWFORD COUNTY SHERIFF'S OFFICE,CRAWFORD COUNTY JUSTICE CENTER PERMANENT DROP BOX,4235 ALMA HWY,VAN BUREN,AR,72956,"http://maps.google.com/maps?q=4235 ALMA HWY,+VAN BUREN,+AR+72956&hl=en"
CROCKER POLICE DEPARTMENT,CROCKER POLICE DEPARTMENT CITY HALL,108 S COMMERCIAL ST.PO,CROCKER,MO,65452,"http://maps.google.com/maps?q=108 S COMMERCIAL ST.,+CROCKER,+MO+65452&hl=en"
CROSS COUNTY SHERIFF'S OFFICE,CROSS COUNTY SHERIFF'S OFFICE PERMANENT DROP BOX,704 EAST CANAL ST.,WYNNE,AR,72396,"http://maps.google.com/maps?q=704 EAST CANAL ST.,+WYNNE,+AR+72396&hl=en"
CRYSTAL CITY POLICE DEPARTMENT,CRYSTAL CITY POLICE DEPARTMENT LOBBY,130 MISSISSIPPI AVE,CRYSTAL CITY,MO,63019,"http://maps.google.com/maps?q=130 MISSISSIPPI AVE,+CRYSTAL CITY,+MO+63019&hl=en"
DADE COUNTY SHERIFF,GREENFIELD PHARMACY,105 SOUTH GRANDE,GREENFIELD,MO,65661,"http://maps.google.com/maps?q=105 SOUTH GRANDE,+GREENFIELD,+MO+65661&hl=en"
DADE COUNTY SHERIFF,MFA OIL,401 MAIN STREET,LOCKWOOD,MO,65682,"http://maps.google.com/maps?q=401 MAIN STREET,+LOCKWOOD,+MO+65682&hl=en"
DEA-MEMPHIS,KROGER,3860 AUSTIN PEAY HWY,MEMPHIS,TN,38128,"http://maps.google.com/maps?q=3860 AUSTIN PEAY HWY,+MEMPHIS,+TN+38128&hl=en"
DENT COUNTY SHERIFF'S OFFICE,RIVERWAYS BANK PARKING LOT,600 S. MAIN,SALEM,MO,65560,"http://maps.google.com/maps?q=600 S. MAIN,+SALEM,+MO+65560&hl=en"
DESLOGE POLICE DEPARTMENT,PARKLAND HEALTH MART PHARMACY,617 NORTH COWLING ST,PARK HILLS,MO,63601,"http://maps.google.com/maps?q=617 NORTH COWLING ST,+PARK HILLS,+MO+63601&hl=en"
DEXTER POLICE DEPARTMENT,DEXTER POLICE DEPARTMENT,305 COOPER STREET,DEXTER,MO,63841,"http://maps.google.com/maps?q=305 COOPER STREET,+DEXTER,+MO+63841&hl=en"
DOUGLAS COUNTY SHERIFF'S OFFICE,DOUGLAS COUNTY SHERIFF'S OFFICE GARAGE PARKING LOT ON EAST SIDE OF BUILDING,111 E. 11TH STREET,LAWRENCE,KS,66044,"http://maps.google.com/maps?q=111 E. 11TH STREET,+LAWRENCE,+KS+66044&hl=en"
DOUGLAS COUNTY SHERIFF'S OFFICE,HY-VEE,4000 W 6TH ST,LAWRENCE,KS,66049,"http://maps.google.com/maps?q=4000 W 6TH ST,+LAWRENCE,+KS+66049&hl=en"
DOUGLAS COUNTY SHERIFFS OFFICE,DOUGLAS COUNTY SHERIFF'S OFFICE,209 SE 2ND AVE209 SE LINCOLN AVE,AVA,MO,65608,"http://maps.google.com/maps?q=209 SE 2ND AVE,+AVA,+MO+65608&hl=en"
EL DORADO POLICE DEPARTMENT,EL DORADO POLICE DEPARTMENT,128 N. VINE STREET,EL DORADO,KS,67042,"http://maps.google.com/maps?q=128 N. VINE STREET,+EL DORADO,+KS+67042&hl=en"
EL DORADO SPRINGS POLICE DEPARTMENT,EL DORADO SPRINGS POLICE DEPT POLICE STATION,1207 SOUTH MAIN STREET,EL DORADO SPRINGS,MO,64744,"http://maps.google.com/maps?q=1207 SOUTH MAIN STREET,+EL DORADO SPRINGS,+MO+64744&hl=en"
EMPORIA POLICE DEPT.,FLINT HILLS COMMUNITY HEALTH CENTER,420 WEST 15TH AVE,EMPORIA,KS,66801,"http://maps.google.com/maps?q=420 WEST 15TH AVE,+EMPORIA,+KS+66801&hl=en"
EUREKA SPRINGS POLICE DEPARTMENT,EUREKA SPRINGS POLICE DEPARTMENT PERMANENT DROP BOX,147 PASSION PLAY ROAD,EUREKA SPRINGS,AR,72632,"http://maps.google.com/maps?q=147 PASSION PLAY ROAD,+EUREKA SPRINGS,+AR+72632&hl=en"
EXCELSIOR SPRING POLICE DEPARTMENT,EXCELSIOR SPRINGS POLICE DEPARTMENT LOBBY,301 S. MAIN STREET,EXCELSIOR SPRINGS,MO,64024,"http://maps.google.com/maps?q=301 S. MAIN STREET,+EXCELSIOR SPRINGS,+MO+64024&hl=en"
FAIR GROVE POLICE DEPARTMENT,FAMILY PHARMACY,49 E. OLD MILL RD,FAIR GROVE,MO,65648,"http://maps.google.com/maps?q=49 E. OLD MILL RD,+FAIR GROVE,+MO+65648&hl=en"
FAIRFIELD BAY POLICE DEPARTMENT,FAIRFIELD BAY POLICE DEPARTMENT PERMANENT DROP BOX,101 LITTLE ROCK DRIVE,FAIRFIELD BAY,AR,72088,"http://maps.google.com/maps?q=101 LITTLE ROCK DRIVE,+FAIRFIELD BAY,+AR+72088&hl=en"
FAIRWAY POLICE DEPT.,HEN HOUSE GROCERY PHARMACY SITE,2724 W. 53RD STREET,FAIRWAY,KS,66205,"http://maps.google.com/maps?q=2724 W. 53RD STREET,+FAIRWAY,+KS+66205&hl=en"
FARMINGTON POLICE DEPARTMENT,FARMINGTON POLICE DEPARTMENT PERMANENT DROP BOX,354 WEST MAIN,FARMINGTON,AR,72730,"http://maps.google.com/maps?q=354 WEST MAIN,+FARMINGTON,+AR+72730&hl=en"
FARMINGTON POLICE DEPARTMENT,FARMINGTON POLICE DEPT.,310 STE. GENEVIEVE AVE,FARMINGTON,MO,63640,"http://maps.google.com/maps?q=310 STE. GENEVIEVE AVE,+FARMINGTON,+MO+63640&hl=en"
FAYETTEVILLE POLICE DEPARTMENT,HARPS MARKETPLACE #124,1274 N. COLORADO DR,FAYETTEVILLE,AR,72704,"http://maps.google.com/maps?q=1274 N. COLORADO DR,+FAYETTEVILLE,+AR+72704&hl=en"
FESTUS POLICE DEPARTMENT,FESTUS POLICE DEPARTMENT,100 PARK AVE,FESTUS,MO,63028,"http://maps.google.com/maps?q=100 PARK AVE,+FESTUS,+MO+63028&hl=en"
FORSYTH POLICE DEPARTMENT,COUNTRY MART,15720 US HWY 160,FORSYTH,MO,65653,"http://maps.google.com/maps?q=15720 US HWY 160,+FORSYTH,+MO+65653&hl=en"
FORT SMITH POLICE DEPARTMENT,FORT SMITH POLICE DEPARTMENT PERMANENT DROP BOX,100 SOUTH 10TH STREET,FORT SMITH,AR,72901,"http://maps.google.com/maps?q=100 SOUTH 10TH STREET,+FORT SMITH,+AR+72901&hl=en"
FRANKLIN COUNTY NARCOTICS ENFORCEMENT UNIT,SULLIVAN POLICE DEPARTMENT,106 PROGRESS PKWY,SULLIVAN,MO,63080,"http://maps.google.com/maps?q=106 PROGRESS PKWY,+SULLIVAN,+MO+63080&hl=en"
FRANKLIN COUNTY NARCOTICS ENFORCEMENT UNIT,UNION POLICE DEPARTMENT,119 S CHURCH ST,UNION,MO,63084,"http://maps.google.com/maps?q=119 S CHURCH ST,+UNION,+MO+63084&hl=en"
FRANKLIN COUNTY NARCOTICS ENFORCEMENT UNIT,WASHINGTON POLICE DEPARTMENT,301 JEFFERSON STREET,WASHINGTON,MO,63090,"http://maps.google.com/maps?q=301 JEFFERSON STREET,+WASHINGTON,+MO+63090&hl=en"
FREDERICKTOWN POLICE DEPARTMENT,FREDERICKTOWN WALMART SUPERCENTER,1025 WALTON DRIVE,FREDERICKTOWN,MO,63645,"http://maps.google.com/maps?q=1025 WALTON DRIVE,+FREDERICKTOWN,+MO+63645&hl=en"
FULTON POLICE DEPARTMENT,FULTON FIRE DEPARTMENT,151 W. TENNYSON ROAD,FULTON,MO,65251,"http://maps.google.com/maps?q=151 W. TENNYSON ROAD,+FULTON,+MO+65251&hl=en"
GAGE COUNTY SHERIFF,CAGE COUNTY SHERIFF,612 LINCOLN ST,BEATRICE,NE,68310,"http://maps.google.com/maps?q=612 LINCOLN ST,+BEATRICE,+NE+68310&hl=en"
GALLATIN POLICE DEPARTMENT,GALLATIN POLICE DEPARTMENT,112 E GRAND,GALLATIN,MO,64640,"http://maps.google.com/maps?q=112 E GRAND,+GALLATIN,+MO+64640&hl=en"
GARDEN CITY POLICE DEPARTMENT,GARDEN CITY POLICE DEPARTMENT,106 N. 3RD,GARDEN CITY,MO,64747,"http://maps.google.com/maps?q=106 N. 3RD,+GARDEN CITY,+MO+64747&hl=en"
GARDNER POLICE DEPT.,PRICE CHOPPER,830 E. MAIN STREET,GARDNER,KS,66030,"http://maps.google.com/maps?q=830 E. MAIN STREET,+GARDNER,+KS+66030&hl=en"
GENTRY POLICE DEPARTMENT,GENTRY POLICE DEPARTMENT PERMANENT DROP BOX,628 E. THIRD ST.,GENTRY,AR,72734,"http://maps.google.com/maps?q=628 E. THIRD ST.,+GENTRY,+AR+72734&hl=en"
GERMANTOWN POLICE,KROGER,7735 FARMINGTON BLVD.,GERMANTOWN,TN,38138,"http://maps.google.com/maps?q=7735 FARMINGTON BLVD.,+GERMANTOWN,+TN+38138&hl=en"
GERMANTOWN POLICE,WALGREENS,9325 POPLAR AVENUE,GERMANTOWN,TN,38139,"http://maps.google.com/maps?q=9325 POPLAR AVENUE,+GERMANTOWN,+TN+38139&hl=en"
GLENWOOD POLICE DEPARTMENT,MEDICAP PHARMACY,1206 S LOCUST,GLENWOOD,IA,51534,"http://maps.google.com/maps?q=1206 S LOCUST,+GLENWOOD,+IA+51534&hl=en"
GRAIN VALLEY POLICE DEPARTMENT,CITY HALL PARKING LOT,711 MAIN STREET,GRAIN VALLEY,MO,64029,"http://maps.google.com/maps?q=711 MAIN STREET,+GRAIN VALLEY,+MO+64029&hl=en"
GRANBY POLICE DEPARTMENT,RAMSEY'S GROCERY,469 W VALLEY ST,GRANBY,MO,64844,"http://maps.google.com/maps?q=469 W VALLEY ST,+GRANBY,+MO+64844&hl=en"
GRANDVIEW POLICE DEPT.,PRICE CHOPPER,12220 SOUTH US 71 HWY,GRANDVIEW,MO,64030,"http://maps.google.com/maps?q=12220 SOUTH US 71 HWY,+GRANDVIEW,+MO+64030&hl=en"
GRAVETTE POLICE DEPARTMENT,GRAVETTE POLICE DEPARTMENT PERMANENT DROP BOX,606 1ST AVE SE,GRAVETTE,AR,72736,"http://maps.google.com/maps?q=606 1ST AVE SE,+GRAVETTE,+AR+72736&hl=en"
GREENBRIER POLICE DEPARTMENT,GREENBRIER POLICE DEPARTMENT,11 WILSON FARM RD.,GREENBRIER,AR,72058,"http://maps.google.com/maps?q=11 WILSON FARM RD.,+GREENBRIER,+AR+72058&hl=en"
GREENE COUNTY SHERIFF'S OFFICE,COX SOUTH TURNER CENTER,1000 E. PRIMROSE,SPRINGFIELD,MO,65807,"http://maps.google.com/maps?q=1000 E. PRIMROSE,+SPRINGFIELD,+MO+65807&hl=en"
GREENE COUNTY SHERIFF'S OFFICE,DAN'S DRUG MART,2625 N. KANSAS EXPRESSWAY,SPRINGFIELD,MO,65803,"http://maps.google.com/maps?q=2625 N. KANSAS EXPRESSWAY,+SPRINGFIELD,+MO+65803&hl=en"
GREENE COUNTY SHERIFF'S OFFICE,FAMILY PHARMACY,527 W. KEARNEY,SPRINGFIELD,MO,65803,"http://maps.google.com/maps?q=527 W. KEARNEY,+SPRINGFIELD,+MO+65803&hl=en"
GREENE COUNTY SHERIFF'S OFFICE,GREENE COUNTY SHERIFF'S OFFICE PERMANENT DROP BOX,1809 ROCKINGCHAIR RD,PARAGOULD,AR,72450,"http://maps.google.com/maps?q=1809 ROCKINGCHAIR RD,+PARAGOULD,+AR+72450&hl=en"
GREENE COUNTY SHERIFF'S OFFICE,GROVE PHARMACY,1636 S. GLENSTONE,SPRINGFIELD,MO,65804,"http://maps.google.com/maps?q=1636 S. GLENSTONE,+SPRINGFIELD,+MO+65804&hl=en"
GREENE COUNTY SHERIFF'S OFFICE,HYVEE PHARMACY,1720 W. BATTLEFIELD,SPRINGFIELD,MO,65807,"http://maps.google.com/maps?q=1720 W. BATTLEFIELD,+SPRINGFIELD,+MO+65807&hl=en"
GREENE COUNTY SHERIFF'S OFFICE,ORCHARD HILLS PHARMACY,3816A W. CHESTNUT EXPWY,SPRINGFIELD,MO,65802,"http://maps.google.com/maps?q=3816A W. CHESTNUT EXPWY,+SPRINGFIELD,+MO+65802&hl=en"
GREENE COUNTY SHERIFF'S OFFICE,WAL-MART,2802 W. KINGS HWY,PARAGOULD,AR,72450,"http://maps.google.com/maps?q=2802 W. KINGS HWY,+PARAGOULD,+AR+72450&hl=en"
GRUNDY COUNTY LAW ENFORCEMENT CENTER,GRUNDY COUNTY LAW ENFORCEMENT CENTER,610 MAIN STREET,TRENTON,MO,64683,"http://maps.google.com/maps?q=610  MAIN STREET,+TRENTON,+MO+64683&hl=en"
HARRISBURG POLICE DEPARTMENT,HARRISBURG POLICE DEPARTMENT PERMANENT DROP BOX,202 N. EAST STREET,HARRISBURG,AR,72432,"http://maps.google.com/maps?q=202 N. EAST STREET,+HARRISBURG,+AR+72432&hl=en"
HARRISON POLICE DEPARTMENT,HARRISON POLICE DEPARTMENT,116 SOUTH SPRING STREET,HARRISON,AR,72601,"http://maps.google.com/maps?q=116 SOUTH SPRING STREET,+HARRISON,+AR+72601&hl=en"
HARRISONVILLE POLICE DEPARTMENT,CVS PHARMACY,300 S. COMMERICAL ST.,HARRISONVILLE,MO,64701,"http://maps.google.com/maps?q=300 S. COMMERICAL ST.,+HARRISONVILLE,+MO+64701&hl=en"
HARRISONVILLE POLICE DEPARTMENT,HARRISONVILLE POLICE DEPARTMENT,205 N. LEXINGTON,HARRISONVILLE,MO,64701,"http://maps.google.com/maps?q=205 N. LEXINGTON,+HARRISONVILLE,+MO+64701&hl=en"
HENRY COUNTY SHERIFF'S OFFICE,MERRYFIELD PHARMACY,200 WEST BENTON,WINDSOR,MO,65360,"http://maps.google.com/maps?q=200 WEST BENTON,+WINDSOR,+MO+65360&hl=en"
HENRY COUNTY SHERIFF'S OFFICE,SUMMERS PHARMACY OUT FRONT,605 PAWNEE,CLINTON,MO,64735,"http://maps.google.com/maps?q=605 PAWNEE,+CLINTON,+MO+64735&hl=en"
HIGGINSVILLE POLICE DEPARTMENT,WALMART PARKING LOT,1180 W. 19TH ST.,HIGGINSVILLE,MO,64037,"http://maps.google.com/maps?q=1180  W.  19TH ST.,+HIGGINSVILLE,+MO+64037&hl=en"
HOLLISTER POLICE DEPARTMENT,FAMILY PHARMACY,180 MALL ROAD,HOLLISTER,MO,65672,"http://maps.google.com/maps?q=180 MALL ROAD,+HOLLISTER,+MO+65672&hl=en"
HOLT COUNTY SHERIFF OFFICE,HOLT COUNTY SHERIFF OFFICE,107 S MAIN,OREGON,MO,64473,"http://maps.google.com/maps?q=107 S MAIN,+OREGON,+MO+64473&hl=en"
HOLTS SUMMIT POLICE DEPARTMENT,HOLTS SUMMIT CITY HALL PARKING LOT,245 SOUTH SUMMIT DRIVE,HOLTS SUMMIT,MO,65043,"http://maps.google.com/maps?q=245 SOUTH SUMMIT DRIVE,+HOLTS SUMMIT,+MO+65043&hl=en"
HOWELL COUNTY SHERIFF'S OFFICE,HOWELL COUNTY SHERIFF'S OFFICE NORTH END OF PARKING LOT,1106 MISSOURI AVENUE,WEST PLAINS,MO,65775,"http://maps.google.com/maps?q=1106 MISSOURI AVENUE,+WEST PLAINS,+MO+65775&hl=en"
INDEPENDENCE COUNTY SHERIFF'S DEPARTMENT,ARKANSAS STATE POLICE TROOP B HEADQUARTERS,3200 HWY 67 NORTH,NEWPORT,AR,72112,"http://maps.google.com/maps?q=3200 HWY 67 NORTH,+NEWPORT,+AR+72112&hl=en"
INDEPENDENCE COUNTY SHERIFF'S DEPARTMENT,INDEPENDENCE COUNTY SHERIFF'S OFFICE PERMANENT DROP BOX,1750 MYERS STREET,BATESVILLE,AR,72501,"http://maps.google.com/maps?q=1750 MYERS STREET,+BATESVILLE,+AR+72501&hl=en"
INDEPENDENCE POLICE DEPT.,INDEPENDENCE MISSOURI CITY HALL ACROSS THE STREET FROM THE POLICE DEPT IN THE PARKING LOT,111 E. MAPLE,INDEPENDENCE,MO,64050,"http://maps.google.com/maps?q=111 E. MAPLE,+INDEPENDENCE,+MO+64050&hl=en"
JACKSON COUNTY SHERIFF'S OFFICE,I CARE PHARMACY,1117 MCCLAIN STREET,NEWPORT,AR,72112,"http://maps.google.com/maps?q=1117 MCCLAIN STREET,+NEWPORT,+AR+72112&hl=en"
JACKSON COUNTY SHERIFF'S OFFICE,JACKSON COUNTY SHERIFF'S OFFICE,210 US HWY 75,HOLTON,KS,66436,"http://maps.google.com/maps?q=210  US HWY 75,+HOLTON,+KS+66436&hl=en"
JACKSON COUNTY SHERIFF'S OFFICE,JACKSON COUNTY SHERIFF'S OFFICE LOBBY,4001 NE LAKEWOOD CT,LEES SUMMIT,MO,64064,"http://maps.google.com/maps?q=4001 NE LAKEWOOD CT,+LEES SUMMIT,+MO+64064&hl=en"
JACKSON COUNTY SHERIFF'S OFFICE,JACKSON COUNTY SO PERMANENT DROP BOX,615 SECOND ST,NEWPORT,AR,72112,"http://maps.google.com/maps?q=615 SECOND ST,+NEWPORT,+AR+72112&hl=en"
JACKSON COUNTY SHERIFF'S OFFICE,JOHN KNOX VILLAGE PLACES RESTAURANT,1001 NW CHIPMAN ROAD,LEES SUMMIT,MO,64081,"http://maps.google.com/maps?q=1001 NW CHIPMAN ROAD,+LEES SUMMIT,+MO+64081&hl=en"
JACKSON COUNTY SHERIFF'S OFFICE,LEE'S SUMMIT MEDICAL CENTER EMERGENCY ROOM ENTRANCE,2100 SE BLUE PARKWAY,LEES SUMMIT,MO,64063,"http://maps.google.com/maps?q=2100 SE BLUE PARKWAY,+LEES SUMMIT,+MO+64063&hl=en"
JACKSON COUNTY SHERIFF'S OFFICE,LEE'S SUMMIT POLICE DEPARTMENT LOBBY,10 NE TUDOR ROAD,LEES SUMMIT,MO,64086,"http://maps.google.com/maps?q=10 NE TUDOR ROAD,+LEES SUMMIT,+MO+64086&hl=en"
JACKSON COUNTY SHERIFF'S OFFICE,ST. LUKE'S EAST HOSPITAL DIAGNOSTIC CENTER,100 NE ST. LUKE'S BLVD,LEES SUMMIT,MO,64086,"http://maps.google.com/maps?q=100 NE ST. LUKE'S BLVD,+LEES SUMMIT,+MO+64086&hl=en"
JACKSON POLICE DEPARTMENT,JACKSON POLICE / FIRE COMPLEX,525 S. HOPE ST.,JACKSON,MO,63755,"http://maps.google.com/maps?q=525 S. HOPE ST.,+JACKSON,+MO+63755&hl=en"
JASPER COUNTY SHERIFF'S OFFICE,JASPER COUNTY COURTHOUSE,601 PEARL AVE,JOPLIN,MO,64801,"http://maps.google.com/maps?q=601 PEARL AVE,+JOPLIN,+MO+64801&hl=en"
JEFFERSON CITY MISSOURI POLICE DEPARTMENT,JEFFERSON CITY POLICE HEADQUARTERS TRAINING ROOM ENTRANCE - SOUTHSIDE OF BUILDING,401 MONROE ST,JEFFERSON CITY,MO,65101,"http://maps.google.com/maps?q=401 MONROE ST,+JEFFERSON CITY,+MO+65101&hl=en"
JOHNSON CO COMM COLLEGE POLICE DEPT,JCCC CARLSEN CENTER NORTH MAIN ENTRANCE INTERSECTION OF COLLEGE BLVD & QUIVIRA,12345 COLLEGE BLVD,OVERLAND PARK,KS,66210,"http://maps.google.com/maps?q=12345 COLLEGE BLVD,+OVERLAND PARK,+KS+66210&hl=en"
JOHNSON COUNTY SHERIFF'S OFFICE,JOHNSON COUNTY COURTHOUSE,125 N CHERRY ST,OLATHE,KS,66061,"http://maps.google.com/maps?q=125 N CHERRY ST,+OLATHE,+KS+66061&hl=en"
JONESBORO POLICE DEPARTMENT,JONESBORO POLICE DEPARTMENT PERMANENT DROP BOX,1001 S. CARAWAY RD,JONESBORO,AR,72401,"http://maps.google.com/maps?q=1001 S. CARAWAY RD,+JONESBORO,+AR+72401&hl=en"
JONESBORO POLICE DEPARTMENT,KROGER MARKETPLACE,1001 SOUTH CARAWAY ROAD,JONESBORO,AR,72401,"http://maps.google.com/maps?q=1001 SOUTH CARAWAY ROAD,+JONESBORO,+AR+72401&hl=en"
JUNCTION CITY POLICE DEPARTMENT,DILLIONS,618 WEST 6TH STREET,JUNCTION CITY,KS,66441,"http://maps.google.com/maps?q=618 WEST 6TH STREET,+JUNCTION CITY,+KS+66441&hl=en"
KANSAS CITY KANSAS POLICE,CVS,4645 SHAWNEE DR,KANSAS CITY,KS,66106,"http://maps.google.com/maps?q=4645 SHAWNEE DR,+KANSAS CITY,+KS+66106&hl=en"
KANSAS CITY MISSOURI POLICE DEPT.,CHILDREN'S MERCY EAST CAMPUS,20300 E. VALLEY VIEW PKWY,INDEPENDENCE,MO,64057,"http://maps.google.com/maps?q=20300 E. VALLEY VIEW PKWY,+INDEPENDENCE,+MO+64057&hl=en"
KANSAS CITY MISSOURI POLICE DEPT.,CHILDREN'S MERCY KC,2401 GILLHAM ROAD,KANSAS CITY,MO,64108,"http://maps.google.com/maps?q=2401 GILLHAM ROAD,+KANSAS CITY,+MO+64108&hl=en"
KANSAS CITY MISSOURI POLICE DEPT.,CHILDREN'S MERCY NORTH CAMPUS,501 NW BARRY RD,KANSAS CITY,MO,64155,"http://maps.google.com/maps?q=501 NW BARRY RD,+KANSAS CITY,+MO+64155&hl=en"
KANSAS CITY MISSOURI POLICE DEPT.,CVS,4750 LEES SUMMIT RD,KANSAS CITY,MO,64136,"http://maps.google.com/maps?q=4750 LEES SUMMIT RD,+KANSAS CITY,+MO+64136&hl=en"
KANSAS CITY MISSOURI POLICE DEPT.,KCMO PD NORTH PATROL STATION BRAD STOTT,11000 NW PRAIRIE VIEW RD,KANSAS CITY,MO,64153,"http://maps.google.com/maps?q=11000 NW PRAIRIE VIEW RD,+KANSAS CITY,+MO+64153&hl=en"
KANSAS CITY MISSOURI POLICE DEPT.,KCMO PD SHOAL CREEK STATION,6801 PLEASANT VALLEY ROAD,KANSAS CITY,MO,64119,"http://maps.google.com/maps?q=6801 PLEASANT VALLEY ROAD,+KANSAS CITY,+MO+64119&hl=en"
KANSAS CITY MISSOURI POLICE DEPT.,KCMO PD SOUTH PATROL STATION,9701 MARION PARK,KANSAS CITY,MO,64137,"http://maps.google.com/maps?q=9701 MARION PARK,+KANSAS CITY,+MO+64137&hl=en"
KANSAS CITY MISSOURI POLICE DEPT.,LIBERTY HOSPITAL,2525 GLENN HENDREN DR.,LIBERTY,MO,64068,"http://maps.google.com/maps?q=2525 GLENN HENDREN DR.,+LIBERTY,+MO+64068&hl=en"
KANSAS CITY MISSOURI POLICE DEPT.,MAIN CORP PARKING LOT,3215 MAIN ST.,KANSAS CITY,MO,64110,"http://maps.google.com/maps?q=3215 MAIN ST.,+KANSAS CITY,+MO+64110&hl=en"
KANSAS CITY MISSOURI POLICE DEPT.,PRICE CHOPPER KCPD WITH FIRST CALL,8430 WORNALL RD,KANSAS CITY,MO,64114,"http://maps.google.com/maps?q=8430 WORNALL RD,+KANSAS CITY,+MO+64114&hl=en"
KANSAS CITY MISSOURI POLICE DEPT.,RESEARCH MEDICAL CENTER BROOKSIDE CAMPUS LOCATION,6601 ROCKHILL RD,KANSAS CITY,MO,64131,"http://maps.google.com/maps?q=6601 ROCKHILL RD,+KANSAS CITY,+MO+64131&hl=en"
KEARNEY MO POLICE DEPARTMENT,KEARNEY POLICE STATION,725 WEST MO-92 HIGHWAY,KEARNEY,MO,64060,"http://maps.google.com/maps?q=725 WEST MO-92 HIGHWAY,+KEARNEY,+MO+64060&hl=en"
KENNETT POLICE DEPT,KENNETT POLICE DEPT,200 CEDAR,KENNETT,MO,63857,"http://maps.google.com/maps?q=200 CEDAR,+KENNETT,+MO+63857&hl=en"
KNOB NOSTER POLICE DEPARTMENT,KNOB NOSTER POLICE DEPARTMENT,201 N. STATE ST.,KNOB NOSTER,MO,65336,"http://maps.google.com/maps?q=201 N. STATE ST.,+KNOB NOSTER,+MO+65336&hl=en"
LA CYGNE POLICE DEPARTMENT,CITY HALL,206 N. COMMERCIAL ST,LACYGNE,KS,66040,"http://maps.google.com/maps?q=206 N. COMMERCIAL ST,+LACYGNE,+KS+66040&hl=en"
LAFAYETTE COUNTY MISSOURI SHERIFF OFFICE,WAVERLY MISSIOURI POLICE DEPARTMENT/CITY HALL,111 EAST KELLING STREET,WAVERLY,MO,64096,"http://maps.google.com/maps?q=111 EAST KELLING STREET,+WAVERLY,+MO+64096&hl=en"
LAKE WAUKOMIS POLICE DEPT.,LAKE WAUKOMIS CITY HALL COMPLEX,1147 NW SOUTH SHORE DRIVE,LAKE WAUKOMIS,MO,64151,"http://maps.google.com/maps?q=1147 NW SOUTH SHORE DRIVE,+LAKE WAUKOMIS,+MO+64151&hl=en"
LAKEVIEW POLICE DEPARTMENT,LAKEVIEW POLICE DEPARTMENT PERMANENT DROP BOX,14 SKYLES LANE,LAKEVIEW,AR,72642,"http://maps.google.com/maps?q=14 SKYLES LANE,+LAKEVIEW,+AR+72642&hl=en"
LAMAR POLICE DEPARTMENT,LAMAR CITY HALL PERMANENT DROP BOX,437 W MAIN STREET,LAMAR,AR,72846,"http://maps.google.com/maps?q=437 W MAIN STREET,+LAMAR,+AR+72846&hl=en"
LANSING POLICE DEPT.,LANSING CITY HALL,800 1ST TERRACE,LANSING,KS,66043,"http://maps.google.com/maps?q=800 1ST TERRACE,+LANSING,+KS+66043&hl=en"
LAURIE POLICE DEPARTMENT,LAURIE POLICE DEPARTMENT,147 S. MAIN,LAURIE,MO,65038,"http://maps.google.com/maps?q=147 S. MAIN,+LAURIE,+MO+65038&hl=en"
LAVACA POLICE DEPARTMENT,HEALTH WISE PHARMACY,1800 WEST MAIN STREET,LAVACA,AR,72941,"http://maps.google.com/maps?q=1800 WEST MAIN STREET,+LAVACA,+AR+72941&hl=en"
LAVACA POLICE DEPARTMENT,LAVACA POLICE DEPARTMENT PERMANENT DROP BOX,104 SOUTH DAVIS STREET,LAVACA,AR,72941,"http://maps.google.com/maps?q=104 SOUTH DAVIS STREET,+LAVACA,+AR+72941&hl=en"
LAWRENCE COUNTY SHERIFF'S DEPARTMENT,LAWRENCE COUNTY SHERIFF'S OFFICE PERMANENT DROP BOX,315 W MAIN STREET,WALNUT RIDGE,AR,72476,"http://maps.google.com/maps?q=315 W MAIN STREET,+WALNUT RIDGE,+AR+72476&hl=en"
LEAVENWORTH COUNTY SHERIFFS OFFICE,CVS PHARMACY,390 LIMIT ST,LEAVENWORTH,KS,66048,"http://maps.google.com/maps?q=390 LIMIT ST,+LEAVENWORTH,+KS+66048&hl=en"
LEAVENWORTH POLICE DEPARTMENT,PRICE CHOPPER,2107 S. 4TH ST.,LEAVENWORTH,KS,66048,"http://maps.google.com/maps?q=2107 S. 4TH ST.,+LEAVENWORTH,+KS+66048&hl=en"
LEAWOOD POLICE DEPARTMENT,LEAWOOD POLICE DEPARTMENT,4201 TOWN CENTER DR.,LEAWOOD,KS,66211,"http://maps.google.com/maps?q=4201 TOWN CENTER DR.,+LEAWOOD,+KS+66211&hl=en"
LEBANON POLICE DEPARTMENT,LEBANON POLICE DEPARTMENT PARKING LOT,401 S. JEFFERSON AVENUE,LEBANON,MO,65536,"http://maps.google.com/maps?q=401 S. JEFFERSON AVENUE,+LEBANON,+MO+65536&hl=en"
LENEXA POLICE DEPARTMENT,LENEXA POLICE DEPARTMENT,12500 W 87TH ST PKWY,LENEXA,KS,66215,"http://maps.google.com/maps?q=12500 W 87TH ST PKWY,+LENEXA,+KS+66215&hl=en"
LIBERTY POLICE DEPT.,LIBERTY POLICE DEPT.,101 E. KANSAS STREET,LIBERTY,MO,64068,"http://maps.google.com/maps?q=101 E. KANSAS STREET,+LIBERTY,+MO+64068&hl=en"
LINN POLICE DEPARTMENT,LINN CITY HALL,1200 EAST MAIN STREET,LINN,MO,65051,"http://maps.google.com/maps?q=1200 EAST MAIN STREET,+LINN,+MO+65051&hl=en"
LOGAN COUNTY SHERIFF'S OFFICE,LOGAN POLICE DEPARTMENT PERMANENT DROP BOX,508 W. GROBER ST,PARIS,AR,72855,"http://maps.google.com/maps?q=508 W. GROBER ST,+PARIS,+AR+72855&hl=en"
LOUISBURG POLICE DEPARTMENT,LOUISBURG POLICE DEPARTMENT,209 S. METCALF,LOUISBURG,KS,66053,"http://maps.google.com/maps?q=209 S. METCALF,+LOUISBURG,+KS+66053&hl=en"
LOWELL POLICE DEPARTMENT,LOWELL POLICE DEPARTMENT,216 NORTH LINCOLN STREETPERMANENT DROP BOX,LOWELL,AR,72745,"http://maps.google.com/maps?q=216 NORTH LINCOLN STREET,+LOWELL,+AR+72745&hl=en"
MADISON COUNTY SHERIFF'S DEPARTMENT,MADISON COUNTY SHERIFF'S OFFICE PERMANENT DROP BOX,1 MAIN STREET,HUNTSVILLE,AR,72740,"http://maps.google.com/maps?q=1 MAIN STREET,+HUNTSVILLE,+AR+72740&hl=en"
MALDEN POLICE DEPARTMENT,MALDEN POLICE DEPT.,112 E LACLEDE,MALDEN,MO,63863,"http://maps.google.com/maps?q=112 E LACLEDE,+MALDEN,+MO+63863&hl=en"
MARION POLICE DEPARTMENT,MARION POLICE DEPARTMENT PERMANENT DROP BOX,3477 HWY 77,MARION,AR,72364,"http://maps.google.com/maps?q=3477 HWY 77,+MARION,+AR+72364&hl=en"
MARSHALL COUNTY HEALTH DEPARTMENT/SHERIFF'S OFFICE,MARSHALL COUNTY HEALTH DEPARTMENT,600 BROADWAY,MARYSVILLE,KS,66508,"http://maps.google.com/maps?q=600 BROADWAY,+MARYSVILLE,+KS+66508&hl=en"
MARSHALL MISSOURI POLICE DEPARTMENT,MARSHALL MUNICIPAL COURT BUILDING,5 EAST EASTWOOD ST,MARSHALL,MO,65340,"http://maps.google.com/maps?q=5 EAST EASTWOOD ST,+MARSHALL,+MO+65340&hl=en"
MARYVILLE DEPARTMENT OF PUBLIC SAFETY,MARYVILLE DEPARTMENT OF PUBLIC SAFETY,222 E. 3RD ST.,MARYVILLE,MO,64468,"http://maps.google.com/maps?q=222 E. 3RD ST.,+MARYVILLE,+MO+64468&hl=en"
MEMPHIS POLICE DEPT.,HERENTON RENAISSANCE CENTER,990 COLLEGE PARK DR,MEMPHIS,TN,38126,"http://maps.google.com/maps?q=990 COLLEGE PARK DR,+MEMPHIS,+TN+38126&hl=en"
MEMPHIS POLICE DEPT.,KROGER,3444 PLAZA AVE.,MEMPHIS,TN,38111,"http://maps.google.com/maps?q=3444 PLAZA AVE.,+MEMPHIS,+TN+38111&hl=en"
MEMPHIS POLICE DEPT.,ST. LOUIS CATHOLIC CHURCH,203 S. WHITE STATION RD,MEMPHIS,TN,38117,"http://maps.google.com/maps?q=203 S. WHITE STATION RD,+MEMPHIS,+TN+38117&hl=en"
MERCER COUNTY SHERIFF'S OFFICE,MERCER COUNTY SHERIFF'S OFFICE,802 EAST MAIN STREET,PRINCETON,MO,64673,"http://maps.google.com/maps?q=802 EAST MAIN STREET,+PRINCETON,+MO+64673&hl=en"
MERRIAM POLICE DEPARTMENT,WALGREENS,8701 JOHNSON DR,MERRIAM,KS,66202,"http://maps.google.com/maps?q=8701 JOHNSON DR,+MERRIAM,+KS+66202&hl=en"
MEXICO DEPT OF PUBLIC SAFETY,CITY HALL/FIRE DEPARTMENT,300 N. COAL,MEXICO,MO,65265,"http://maps.google.com/maps?q=300 N. COAL,+MEXICO,+MO+65265&hl=en"
MIAMI AGENCY,MIAMI AGENCY,34 A ST NE,MIAMI,OK,74355,"http://maps.google.com/maps?q=34 A ST NE,+MIAMI,+OK+74355&hl=en"
MIAMI COUNTY SHERIFF OFFICE (NO BOXES),MIAMI COUNTY SHERIFF'S OFFICE COMMUNITY ROOM,209 S. PEARL,PAOLA,KS,66071,"http://maps.google.com/maps?q=209 S. PEARL,+PAOLA,+KS+66071&hl=en"
MIAMI NATION TRIBAL POLICE,MIAMI NATION TRIBAL POLICE,3410 P. STREET,MIAMI,OK,74354,"http://maps.google.com/maps?q=3410 P. STREET,+MIAMI,+OK+74354&hl=en"
MILLINGTON POLICE DEPT.,KROGER,8039 HWY 51,MILLINGTON,TN,38053,"http://maps.google.com/maps?q=8039 HWY 51,+MILLINGTON,+TN+38053&hl=en"
MILLINGTON POLICE DEPT.,WALMART,8445 HWY 51,MILLINGTON,TN,38053,"http://maps.google.com/maps?q=8445 HWY 51,+MILLINGTON,+TN+38053&hl=en"
MISSION POLICE DEPARTMENT,HY-VEE,6655 MARTWAY,MISSION,KS,66202,"http://maps.google.com/maps?q=6655 MARTWAY,+MISSION,+KS+66202&hl=en"
MISSOURI SOUTHERN STATE UNIV POLICE DEPT,MSSU PD,726 N. MISSION HILLS DRIVE,JOPLIN,MO,64801,"http://maps.google.com/maps?q=726 N. MISSION HILLS DRIVE,+JOPLIN,+MO+64801&hl=en"
MOBERLY POLICE DEPARTMENT(DOUBLE BOXES),MOBERLY POLICE DEPARTMENT,300 N. CLARK,MOBERLY,MO,65270,"http://maps.google.com/maps?q=300 N. CLARK,+MOBERLY,+MO+65270&hl=en"
MOBERLY POLICE DEPARTMENT(DOUBLE BOXES),SAM'S HEALTH MART PHARMACY,530 E. HIGHWAY 24,MOBERLY,MO,65270,"http://maps.google.com/maps?q=530 E. HIGHWAY 24,+MOBERLY,+MO+65270&hl=en"
MONETT POLICE DEPARTMENT,MONETT POLICE DEPARTMENT,1901 EAST CLEVELAND AVE,MONETT,MO,65708,"http://maps.google.com/maps?q=1901 EAST CLEVELAND AVE,+MONETT,+MO+65708&hl=en"
MONTGOMERY COUNTY SHERIFFS OFFICE,HY VEE PHARMACY,1605 N BROADWAY ST,RED OAK,IA,51566,"http://maps.google.com/maps?q=1605 N BROADWAY ST,+RED OAK,+IA+51566&hl=en"
MORRIS COUNTY SHERIFF DEPT.,COUNCIL GROVE HIGH SCHOOL,129 HOCKADAY ST,COUNCIL GROVE,KS,66846,"http://maps.google.com/maps?q=129 HOCKADAY ST,+COUNCIL GROVE,+KS+66846&hl=en"
MOUND CITY POLICE DEPARTMENT,MOUND CITY POLICE DEPARTMENT,205 EAST SIXTH STREET,MOUND CITY,MO,64470,"http://maps.google.com/maps?q=205 EAST SIXTH STREET,+MOUND CITY,+MO+64470&hl=en"
MOUNT VERNON POLICE DEPARTMENT,MOUNT VERNON CITY HALL,319 EAST DALLAS,MOUNT VERNON,MO,65712,"http://maps.google.com/maps?q=319 EAST DALLAS,+MOUNT VERNON,+MO+65712&hl=en"
MOUNTAIN GROVE POLICE DEPT.,MOUNTAIN GROVE POLICE DEPT.,102 E. STATE,MOUNTAIN GROVE,MO,65711,"http://maps.google.com/maps?q=102 E. STATE,+MOUNTAIN GROVE,+MO+65711&hl=en"
MOUNTAIN VIEW POLICE DEPARTMENT,MITCHELL'S MAIN STREET PHARMACY,214 EAST MAIN ST,MOUNTAIN VIEW,AR,72560,"http://maps.google.com/maps?q=214 EAST MAIN ST,+MOUNTAIN VIEW,+AR+72560&hl=en"
MOUNTAIN VIEW POLICE DEPARTMENT,MOUNTAIN VIEW POLICE DEPARTMENT PERMANENT DROP BOX,203 SOUTH PEABODY,MOUNTAIN VIEW,AR,72560,"http://maps.google.com/maps?q=203 SOUTH PEABODY,+MOUNTAIN VIEW,+AR+72560&hl=en"
MUNFORD POLICE DEPARTMENT,MUNFORD POLICE DEPARTMENT,79 COLLEGE STREET,MUNFORD,TN,38058,"http://maps.google.com/maps?q=79 COLLEGE STREET,+MUNFORD,+TN+38058&hl=en"
NEMAHA CO. SHERIFF'S OFFICE,NEMAHA CO. SHERIFF'S OFFICE,212 N. 6TH ST,SENECA,KS,66538,"http://maps.google.com/maps?q=212 N. 6TH ST,+SENECA,+KS+66538&hl=en"
NEODESHA POLICE DEPARTMENT,NEODESHA POLICE DEPARTMENT,1407 N. 8TH STREET,NEODESHA,KS,66757,"http://maps.google.com/maps?q=1407 N. 8TH STREET,+NEODESHA,+KS+66757&hl=en"
NEOSHO POLICE DEPARTMENT,WILDCAT CORNER,817 S NEOSHO BLVD,NEOSHO,MO,64850,"http://maps.google.com/maps?q=817 S NEOSHO BLVD,+NEOSHO,+MO+64850&hl=en"
NEVADA POLICE DEPT,NEVADA POLICE DEPT,120 SOUTH ASH STEEET,NEVADA,MO,64772,"http://maps.google.com/maps?q=120 SOUTH ASH STEEET,+NEVADA,+MO+64772&hl=en"
NEWPORT POLICE DEPARTMENT,NEWPORT POLICE DEPARTMENT PERMANENT DROP BOX,615 THIRD ST.,NEWPORT,AR,72112,"http://maps.google.com/maps?q=615 THIRD ST.,+NEWPORT,+AR+72112&hl=en"
NEWTON COUNTY SHERIFF'S OFFICE,NEWTON COUNTY SHERIFF'S OFFICE,208 W. COLER ST.,NEOSHO,MO,64850,"http://maps.google.com/maps?q=208 W. COLER ST.,+NEOSHO,+MO+64850&hl=en"
NIXA POLICE DEPARTMENT,NIXA WALGREENS,106 NORTH MASSEY BLVD,NIXA,MO,65714,"http://maps.google.com/maps?q=106 NORTH MASSEY BLVD,+NIXA,+MO+65714&hl=en"
NORTH KANSAS CITY POLICE DEPARTMENT,NORTH KANSAS CITY POLICE DEPARTMENT PD LOBBY,2020 HOWELL,NORTH KANSAS CITY,MO,64116,"http://maps.google.com/maps?q=2020 HOWELL,+NORTH KANSAS CITY,+MO+64116&hl=en"
NORTHEASTERN STATE UNIVERSITY POLICE,NORTHEASTERN HEALTH SYSTEMS,1400 EAST DOWNING,TAHLEQUAH,OK,74464,"http://maps.google.com/maps?q=1400 EAST DOWNING,+TAHLEQUAH,+OK+74464&hl=en"
OAK GROVE POLICE DEPARTMENT,OAK GROVE POLICE DEPARTMENT,1903 S. BROADWAY,OAK GROVE,MO,64075,"http://maps.google.com/maps?q=1903 S. BROADWAY,+OAK GROVE,+MO+64075&hl=en"
ODESSA POLICE DEPARTMENT,NUTS AND BOLTS HARWARE PARKING LOT,204 OLD US HWY 40,ODESSA,MO,64076,"http://maps.google.com/maps?q=204 OLD US HWY 40,+ODESSA,+MO+64076&hl=en"
OLATHE POLICE DEPARTMENT,OLATHE POLICE DEPARTMENT,501 E OLD 56 HWY,OLATHE,KS,66061,"http://maps.google.com/maps?q=501 E OLD 56 HWY,+OLATHE,+KS+66061&hl=en"
OMAHA POLICE DEPT.-NW PRECINCT,FAMILY FARE SUPERMARKET,3026 S 24TH STREET,OMAHA,NE,68108,"http://maps.google.com/maps?q=3026 S 24TH STREET,+OMAHA,+NE+68108&hl=en"
OSAGE BEACH POLICE DEPARTMENT,OSAGE BEACH POLICE DEPARTMENT,1000 CITY PARKWAY,OSAGE BEACH,MO,65065,"http://maps.google.com/maps?q=1000 CITY PARKWAY,+OSAGE BEACH,+MO+65065&hl=en"
OSAGE COUNTY SHERIFF'S OFFICE,OSAGE COUNTY SHERIFF'S OFFICE,131 W. 14TH,LYNDON,KS,66451,"http://maps.google.com/maps?q=131 W. 14TH,+LYNDON,+KS+66451&hl=en"
OVERLAND PARK PD,BLACK AND VEATCH HOURS: 8:00AM - 2:00PM,11401 LAMAR,OVERLAND PARK,KS,66213,"http://maps.google.com/maps?q=11401 LAMAR,+OVERLAND PARK,+KS+66213&hl=en"
OVERLAND PARK PD,CHILDREN'S MERCY HOSPITAL,5808 W 110TH STREET,OVERLAND PARK,KS,66211,"http://maps.google.com/maps?q=5808 W 110TH STREET,+OVERLAND PARK,+KS+66211&hl=en"
OVERLAND PARK PD,HEN HOUSE MARKET,6900 W. 135TH STREET,OVERLAND PARK,KS,66213,"http://maps.google.com/maps?q=6900 W. 135TH STREET,+OVERLAND PARK,+KS+66213&hl=en"
OVERLAND PARK PD,MYRON E. SCAFE JUSTICE CENTER,8500 ANTIOCH,OVERLAND PARK,KS,66213,"http://maps.google.com/maps?q=8500 ANTIOCH,+OVERLAND PARK,+KS+66213&hl=en"
OVERLAND PARK PD,PRICE CHOPPER,11700 W. 135TH STREET,OVERLAND PARK,KS,66213,"http://maps.google.com/maps?q=11700 W. 135TH STREET,+OVERLAND PARK,+KS+66213&hl=en"
OVERLAND PARK PD,PRICE CHOPPER,7000 W. 75TH STREET,OVERLAND PARK,KS,66212,"http://maps.google.com/maps?q=7000 W. 75TH STREET,+OVERLAND PARK,+KS+66212&hl=en"
OVERLAND PARK PD,PRICE CHOPPER,7201 W. 151ST STREET,OVERLAND PARK,KS,66213,"http://maps.google.com/maps?q=7201 W. 151ST STREET,+OVERLAND PARK,+KS+66213&hl=en"
OVERLAND PARK PD,PRICE CHOPPER,7418 W. 119TH STREET,OVERLAND PARK,KS,66213,"http://maps.google.com/maps?q=7418 W. 119TH STREET,+OVERLAND PARK,+KS+66213&hl=en"
OVERLAND PARK PD,W. JACK SANDERS JUSTICE CENTER,12400 FOSTER,OVERLAND PARK,KS,66213,"http://maps.google.com/maps?q=12400 FOSTER,+OVERLAND PARK,+KS+66213&hl=en"
OZARK COUNTY SHERIFF,OZARK COUNTY SHERIFF'S OFFICE,1818 COUNTY ROAD 806,GAINESVILLE,MO,65655,"http://maps.google.com/maps?q=1818 COUNTY ROAD 806,+GAINESVILLE,+MO+65655&hl=en"
OZARK POLICE DEPARTMENT,OZARK POLICE DEPARTMENT PERMANENT DROP BOX,2914 WEST COMMERCIAL STREET,OZARK,AR,72949,"http://maps.google.com/maps?q=2914 WEST COMMERCIAL STREET,+OZARK,+AR+72949&hl=en"
PAOLA POLICE DEPARTMENT,PAOLA POLICE DEPARTMENT DROP BOX LOCATED IN LOBBY OF POLICE STATION,805 N PEARL,PAOLA,KS,66071,"http://maps.google.com/maps?q=805 N PEARL,+PAOLA,+KS+66071&hl=en"
PARIS POLICE DEPARTMENT,PARIS POLICE DEPARTMENT PERMANENT DROP BOX,1810 EAST WALNUT STREET,PARIS,AR,72855,"http://maps.google.com/maps?q=1810 EAST WALNUT STREET,+PARIS,+AR+72855&hl=en"
PARK HILLS POLICE DEPARTMENT,PARK HILLS POLICE DEPARTMENT,8 MUNICIPAL ST,PARK HILLS,MO,63601,"http://maps.google.com/maps?q=8 MUNICIPAL ST,+PARK HILLS,+MO+63601&hl=en"
PEA RIDGE POLICE DEPARTMENT,PEA RIDGE POLICE DEPARTMENT PERMANENT DROP BOX,187 SLACK STREET,PEA RIDGE,AR,72751,"http://maps.google.com/maps?q=187 SLACK STREET,+PEA RIDGE,+AR+72751&hl=en"
PECULIAR POLICE DEPARTMENT,PECULIAR POLICE DEPARTMENT,224 N. MAIN STREET,PECULIAR,MO,64078,"http://maps.google.com/maps?q=224 N. MAIN STREET,+PECULIAR,+MO+64078&hl=en"
PERRY COUNTY SHERIFF,PERRY COUNTY SHERIFF,710 S. KINGSHIGHWAY ST,PERRYVILLE,MO,63775,"http://maps.google.com/maps?q=710 S. KINGSHIGHWAY ST,+PERRYVILLE,+MO+63775&hl=en"
PERRYVILLE POLICE DEPARTMENT,PERRYVILLE POLICE DEPARTMENT,120 N. JACKSON STREET,PERRYVILLE,MO,63775,"http://maps.google.com/maps?q=120 N. JACKSON STREET,+PERRYVILLE,+MO+63775&hl=en"
PETTIS COUNTY SHERIFF'S OFFICE,PETTIS COUNTY SHERIFF'S OFFICE TODD ASBURY,319 S LAMINE AVE.,SEDALIA,MO,65301,"http://maps.google.com/maps?q=319 S LAMINE AVE.,+SEDALIA,+MO+65301&hl=en"
PEVELY POLICE DEPARTMENT,PEVELY POLICE DEPARTMENT,401 MAIN STREET,PEVELY,MO,63070,"http://maps.google.com/maps?q=401 MAIN STREET,+PEVELY,+MO+63070&hl=en"
PIGGOTT POLICE DEPARTMENT,PIGGOTT POLICE DEPARTMENT/CITY HALL,194 WEST COURT STREET,PIGGOTT,AR,72454,"http://maps.google.com/maps?q=194 WEST COURT STREET,+PIGGOTT,+AR+72454&hl=en"
PILOT GROVE POLICE DEPARTMENT,PILOT GROVE CITY HALL 10AM-12:00 (NO BOXES),213 COLLEGE ST.,PILOT GROVE,MO,65276,"http://maps.google.com/maps?q=213 COLLEGE ST.,+PILOT GROVE,+MO+65276&hl=en"
PITTSBURG KANSAS POLICE DEPT.,PITTSBURG POLICE DEPARTMENT,201 N. PINE ST.,PITTSBURG,KS,66762,"http://maps.google.com/maps?q=201 N. PINE ST.,+PITTSBURG,+KS+66762&hl=en"
PLATTE CITY POLICE DEPARTMENT,COSENTINO'S PRICE CHOPPER,2600 ENSIGN HILL DR.,PLATTE CITY,MO,64079,"http://maps.google.com/maps?q=2600 ENSIGN HILL DR.,+PLATTE CITY,+MO+64079&hl=en"
PLEASANT HILL POLICE DEPARTMENT,COSENTINO'S PRICE CHOPPER,2101 N. STATE ROUTE 7,PLEASANT HILL,MO,64080,"http://maps.google.com/maps?q=2101 N. STATE ROUTE 7,+PLEASANT HILL,+MO+64080&hl=en"
PLEASANT HOPE POLICE DEPARTMENT,PLEASANT HOPE POLICE DEPARTMENT,5492 HWY H,PLEASANT HOPE,MO,65725,"http://maps.google.com/maps?q=5492 HWY H,+PLEASANT HOPE,+MO+65725&hl=en"
POCAHONTAS POLICE DEPARTMENT,POCAHONTAS CITY HALL PERMANENT DROP BOX,410 N. MARR,POCAHONTAS,AR,72455,"http://maps.google.com/maps?q=410 N. MARR,+POCAHONTAS,+AR+72455&hl=en"
POINSETT COUNTY SHERIFF'S OFFICE,POINSETT COUNTY DETENTION CENTER PERMANENT DROP BOX,1500 JUSTICE DRIVE,HARRISBURG,AR,72432,"http://maps.google.com/maps?q=1500 JUSTICE DRIVE,+HARRISBURG,+AR+72432&hl=en"
POPLAR BLUFF POLICE DEPARTMENT,POPLAR BLUFF POLICE DEPARTMENT,1111 POPLAR ST,POPLAR BLUFF,MO,63901,"http://maps.google.com/maps?q=1111 POPLAR ST,+POPLAR BLUFF,+MO+63901&hl=en"
POTTSVILLE POLICE DEPARTMENT,POTTSVILLE PHARMACY,7146 NORTH RIVER ROAD,POTTSVILLE,AR,72858,"http://maps.google.com/maps?q=7146 NORTH RIVER ROAD,+POTTSVILLE,+AR+72858&hl=en"
PRAIRIE GROVE POLICE DEPARTMENT,HARPS FOOD STORE #125,319 E. BUCHANAN ST.,PRAIRIE GROVE,AR,72753,"http://maps.google.com/maps?q=319 E. BUCHANAN ST.,+PRAIRIE GROVE,+AR+72753&hl=en"
PRAIRIE GROVE POLICE DEPARTMENT,PRAIRIE GROVE POLICE DEPARTMENT,955 E. DOUGLAS ST.#1,PRAIRIE GROVE,AR,72753,"http://maps.google.com/maps?q=955 E. DOUGLAS ST.,+PRAIRIE GROVE,+AR+72753&hl=en"
PRAIRIE VILLAGE POLICE DEPARTMENT,PRAIRIE VILLAGE POLICE DEPT.,7710 MISSION ROAD,PRAIRIE VILLAGE,KS,66208,"http://maps.google.com/maps?q=7710 MISSION ROAD,+PRAIRIE VILLAGE,+KS+66208&hl=en"
PUXICO POLICE DEPARTMENT,PUXICO POLICE DEPARTMENT,141 N. HICKMAN,PUXICO,MO,63960,"http://maps.google.com/maps?q=141 N. HICKMAN,+PUXICO,+MO+63960&hl=en"
RAYMORE POLICE DEPT.,PRICE CHOPPER,900 W. FOXWOOD DR.,RAYMORE,MO,64083,"http://maps.google.com/maps?q=900 W. FOXWOOD DR.,+RAYMORE,+MO+64083&hl=en"
RAYMORE POLICE DEPT.,RAYMORE POLICE DEPARTMENT LOBBY,100 MUNICIPAL CIR,RAYMORE,MO,64083,"http://maps.google.com/maps?q=100 MUNICIPAL CIR,+RAYMORE,+MO+64083&hl=en"
RAYTOWN POLICE DEPARTMENT (DOUBLE),RAYTOWN CITY HALL PARKINGLOT (WEATHER PERMITTING),10000 E. 59TH STREET,KANSAS CITY,MO,64133,"http://maps.google.com/maps?q=10000 E. 59TH STREET,+KANSAS CITY,+MO+64133&hl=en"
RED BUD POLICE DEPARTMENT (5 SETS),RANDOLPH COUNTY SHERIFF,200 W. BUENA VISTA,CHESTER,IL,62233,"http://maps.google.com/maps?q=200 W. BUENA VISTA,+CHESTER,+IL+62233&hl=en"
RED BUD POLICE DEPARTMENT (5 SETS),RED BUD POLICE DEPARTMENT,200 E. MARKET,RED BUD,IL,62278,"http://maps.google.com/maps?q=200 E. MARKET,+RED BUD,+IL+62278&hl=en"
REPUBLIC POLICE DEPARTMENT,HINES STREET PHARMACY,1173 E. HINES ST,REPUBLIC,MO,65738,"http://maps.google.com/maps?q=1173 E. HINES ST,+REPUBLIC,+MO+65738&hl=en"
REYNOLDS COUNTY SHERIFF'S OFFICE,REYNOLDS COUNTY SHERIFF'S OFFICE,2319 GREEN ST.,CENTERVILLE,MO,63633,"http://maps.google.com/maps?q=2319 GREEN ST.,+CENTERVILLE,+MO+63633&hl=en"
RICHMOND POLICE DEPARTMENT,RICHMOND POLICE DEPARTMENT,207 SUMMIT ST.,RICHMOND,MO,64085,"http://maps.google.com/maps?q=207 SUMMIT ST.,+RICHMOND,+MO+64085&hl=en"
RILEY COUNTY POLICE DEPARTMENT,DILLONS,1101 WESTLOOP PLACE,MANHATTAN,KS,66502,"http://maps.google.com/maps?q=1101 WESTLOOP PLACE,+MANHATTAN,+KS+66502&hl=en"
RILEY COUNTY POLICE DEPARTMENT,RILEY COUNTY POLICE DEPARTMENT,1001 S. SETH CHILD ROAD,MANHATTAN,KS,66502,"http://maps.google.com/maps?q=1001 S. SETH CHILD ROAD,+MANHATTAN,+KS+66502&hl=en"
RINGGOLD COUNTY SHERIFF'S OFFICE,RINGGOLD CO SHERIFF'S OFFICE NO BOXES-SEND SHIPPING LABELS,801 W. SOUTH ST.,MOUNT AYR,IA,50854,"http://maps.google.com/maps?q=801 W. SOUTH ST.,+MOUNT AYR,+IA+50854&hl=en"
RIVERSIDE POLICE DEPARTMENT,RIVERSIDE POLICE DEPT.,2990 NW VIVION ROAD,RIVERSIDE,MO,64150,"http://maps.google.com/maps?q=2990 NW VIVION ROAD,+RIVERSIDE,+MO+64150&hl=en"
ROELAND PARK POLICE DEPARTMENT,PRICE CHOPPER GROCERY STORE ROELAND PARK LOCATION,4950 ROE AVENUE,ROELAND PARK,KS,66205,"http://maps.google.com/maps?q=4950 ROE AVENUE,+ROELAND PARK,+KS+66205&hl=en"
ROGERS POLICE DEPARTMENT,MERCY CLINIC PARKING LOT,3101 SE 14TH STREET,BENTONVILLE,AR,72712,"http://maps.google.com/maps?q=3101 SE 14TH STREET,+BENTONVILLE,+AR+72712&hl=en"
ROGERS POLICE DEPARTMENT,ROGERS POLICE DEPARTMENT PERMANENT DROP BOX,1905 S. DIXIELAND,ROGERS,AR,72758,"http://maps.google.com/maps?q=1905 S. DIXIELAND,+ROGERS,+AR+72758&hl=en"
ROLLA POLICE DEPTARNEMT,ROLLA POLICE DEPARTMENT,1007 NORTH ELM STREET,ROLLA,MO,65401,"http://maps.google.com/maps?q=1007 NORTH ELM STREET,+ROLLA,+MO+65401&hl=en"
SARPY COUNTY SHERIFF'S OFFICE,HY-VEE GROCERY STORE (SHADOW LAKE) NORTH PARKING LOT,11650 S. 73RD STREET,PAPILLION,NE,68046,"http://maps.google.com/maps?q=11650 S. 73RD STREET,+PAPILLION,+NE+68046&hl=en"
SAVANNAH POLICE DEPARTMENT,BROTHERS MARKET,402 EAST PRICE,SAVANNAH,MO,64485,"http://maps.google.com/maps?q=402 EAST PRICE,+SAVANNAH,+MO+64485&hl=en"
SEBASTIAN COUNTY SHERIFF'S OFFICE,BARLING POLICE DEPARTMENT,304 CHURCH STREET,BARLING,AR,72923,"http://maps.google.com/maps?q=304 CHURCH STREET,+BARLING,+AR+72923&hl=en"
SEBASTIAN COUNTY SHERIFF'S OFFICE,SEBASTIAN COUNTY SHERIFF'S OFFICE PERMANENT DROP BOX,800 SOUTH A STREET,FORT SMITH,AR,72901,"http://maps.google.com/maps?q=800 SOUTH A STREET,+FORT SMITH,+AR+72901&hl=en"
SHAWNEE COUNTY SHERIFF'S OFFICE (DOUBLE BOXES),SHAWNEE HEIGHTS FIRE DEPARTMENT,5301 SE CALIFORNIA AVE,TOPEKA,KS,66609,"http://maps.google.com/maps?q=5301 SE CALIFORNIA AVE,+TOPEKA,+KS+66609&hl=en"
SHAWNEE COUNTY SHERIFF'S OFFICE (DOUBLE BOXES),SOLDIER TOWNSHIP FIRE DEPARTMENT,600 NW 46TH STREET,TOPEKA,KS,66617,"http://maps.google.com/maps?q=600 NW 46TH STREET,+TOPEKA,+KS+66617&hl=en"
SHAWNEE POLICE DEPARTMENT,SHAWNEE POLICE DEPARTMENT,5850 RENNER RD,SHAWNEE,KS,66217,"http://maps.google.com/maps?q=5850 RENNER RD,+SHAWNEE,+KS+66217&hl=en"
SIKESTON DEPARTMENT OF PUBLIC SAFETY,SIKESTON DEPARTMENT OF PUBLIC SAFETY,201 NORTH KINGSHIGHWAY,SIKESTON,MO,63801,"http://maps.google.com/maps?q=201 NORTH KINGSHIGHWAY,+SIKESTON,+MO+63801&hl=en"
SILOAM SPRINGS POLICE DEPARTMENT,SILOAM SPRINGS POLICE DEPARTMENT PERMANENT DROP BOX,100 US HIGHWAY 412 W.,SILOAM SPRINGS,AR,72761,"http://maps.google.com/maps?q=100 US HIGHWAY 412 W.,+SILOAM SPRINGS,+AR+72761&hl=en"
SPRING HILL POLICE DEPARTMENT,SPRING HILL POLICE DEPARTMENT,318 E. NICHOLS ST,SPRING HILL,KS,66083,"http://maps.google.com/maps?q=318 E. NICHOLS ST,+SPRING HILL,+KS+66083&hl=en"
SPRINGDALE POLICE DEPARTMENT,HARPS FOOD STORES,918 SOUTH GUTENSOHN ROAD,SPRINGDALE,AR,72764,"http://maps.google.com/maps?q=918 SOUTH GUTENSOHN ROAD,+SPRINGDALE,+AR+72764&hl=en"
SPRINGDALE POLICE DEPARTMENT,SPRINGDALE POLICE DEPARTMENT PERMANENT DROP BOX,201 N. SPRING ST.,SPRINGDALE,AR,72764,"http://maps.google.com/maps?q=201 N. SPRING ST.,+SPRINGDALE,+AR+72764&hl=en"
ST. CLAIR COUNTY JAIL,ST. CLAIR COUNTY JAIL,360 CHESTNUT ST,OSCEOLA,MO,64776,"http://maps.google.com/maps?q=360 CHESTNUT ST,+OSCEOLA,+MO+64776&hl=en"
ST. JAMES POLICE DEPT,ST. JAMES POLICE DEPARTMENT,200 NORTH BOURBEUSE STREET,SAINT JAMES,MO,65559,"http://maps.google.com/maps?q=200 NORTH BOURBEUSE STREET,+SAINT JAMES,+MO+65559&hl=en"
ST. JOSEPH POLICE DEPARTMENT,EAST HILLS MALL EAST PARKING LOT NEAR DILLARDS DEPARTMENT STORE,3702 FREDERICK AVENUE,SAINT JOSEPH,MO,64506,"http://maps.google.com/maps?q=3702 FREDERICK AVENUE,+SAINT JOSEPH,+MO+64506&hl=en"
STEELE POLICE DEPARTMENT,STEELE POLICE DEPARTMENT,115 S WALNUT,STEELE,MO,63877,"http://maps.google.com/maps?q=115 S WALNUT,+STEELE,+MO+63877&hl=en"
SUGAR CREEK POLICE DEPARTMENT,SUGAR CREEK POLICE DEPARTMENT,1001 HEROES WAY,SUGAR CREEK,MO,64054,"http://maps.google.com/maps?q=1001 HEROES WAY,+SUGAR CREEK,+MO+64054&hl=en"
TERRE DU LAC POLICE DEPARTMENT,TERRE DU LAC POLICE DEPARTMENT REAR OF BUILDING,111 RUE TERRE BONNE,BONNE TERRE,MO,63628,"http://maps.google.com/maps?q=111 RUE TERRE BONNE,+BONNE TERRE,+MO+63628&hl=en"
THAYER POLICE DEPARTMENT,THAYER POLICE DEPARTMENT,102 FRONT ST.,THAYER,MO,65791,"http://maps.google.com/maps?q=102 FRONT ST.,+THAYER,+MO+65791&hl=en"
TRUESDALE POLICE DEPARTMENT,TRUESDALE POLICE DEPARTMENT,109 PINCKNEY STREET,TRUESDALE,MO,63380,"http://maps.google.com/maps?q=109 PINCKNEY STREET,+TRUESDALE,+MO+63380&hl=en"
UNIVERSITY OF ARKANSAS POLICE DEPARTMENT,UNIVERSITY OF ARKANSAS POLICE DEPARTMENT,155 SOUTH RAZORBACK ROAD,FAYETTEVILLE,AR,72701,"http://maps.google.com/maps?q=155 SOUTH RAZORBACK ROAD,+FAYETTEVILLE,+AR+72701&hl=en"
VAN BUREN POLICE DEPARTMENT,VAN BUREN POLICE DEPARTMENT PERMANENT DROP BOX,111 S. 11TH ST.,VAN BUREN,AR,72956,"http://maps.google.com/maps?q=111 S. 11TH ST.,+VAN BUREN,+AR+72956&hl=en"
WABAUNSEE COUNTY SHERIFF'S OFFICE,"WABAUNSEE COUNTY COURTHOUSE 4TH FLOOR,",215 KANSAS AVE.4TH FLOOR,ALMA,KS,66401,"http://maps.google.com/maps?q=215 KANSAS AVE.,+ALMA,+KS+66401&hl=en"
WAMEGO POLICE DEPT.,GENE'S HEARTLAND FOODS,1003 US 24 HWY,WAMEGO,KS,66547,"http://maps.google.com/maps?q=1003 US 24 HWY,+WAMEGO,+KS+66547&hl=en"
WARRENSBURG MO POLICE DEPARTMENT,BI-LO MARKET,410 E YOUNG ST,WARRENSBURG,MO,64093,"http://maps.google.com/maps?q=410 E YOUNG ST,+WARRENSBURG,+MO+64093&hl=en"
WARSAW POLICE DEPARTMENT,WARSAW POLICE DEPARTMENT,181 W HARRISON STREET,WARSAW,MO,65355,"http://maps.google.com/maps?q=181 W HARRISON STREET,+WARSAW,+MO+65355&hl=en"
WASHINGTON COUNTY SHERIFF'S OFFICE,VA MEDICAL CENTER PERMANENT DROP BOX,1100 NORTH COLLEGE AVE.1100 NORTH COLLEGE AVE.,FAYETTEVILLE,AR,72701,"http://maps.google.com/maps?q=1100 NORTH COLLEGE AVE.,+FAYETTEVILLE,+AR+72701&hl=en"
WASHINGTON COUNTY SHERIFF'S OFFICE,WASHINGTON COUNTY COURTHOUSE PERMANENT DROP BOX (MON-FRI ONLY),280 NORTH COLLEGE AVE.,FAYETTEVILLE,AR,72701,"http://maps.google.com/maps?q=280 NORTH COLLEGE AVE.,+FAYETTEVILLE,+AR+72701&hl=en"
WASHINGTON COUNTY SHERIFF'S OFFICE,WASHINGTON COUNTY SHERIFF'S DEPARTMENT PERMANENT DROP BOX,1155 CLYDESDALE DR.,FAYETTEVILLE,AR,72701,"http://maps.google.com/maps?q=1155 CLYDESDALE DR.,+FAYETTEVILLE,+AR+72701&hl=en"
WASHINGTON COUNTY SHERIFF'S OFFICE,WASHINGTON COUNTY SHERIFF'S OFFICE,301 B. STREET,WASHINGTON,KS,66968,"http://maps.google.com/maps?q=301 B. STREET,+WASHINGTON,+KS+66968&hl=en"
WATERLOO POLICE DEPARTMENT,SCHNUCKS,150 WATERLOO COMMONS DRIVE,WATERLOO,IL,62298,"http://maps.google.com/maps?q=150 WATERLOO COMMONS DRIVE,+WATERLOO,+IL+62298&hl=en"
WATERLOO POLICE DEPARTMENT,WATERLOO POLICE DEPARMTMENT LOBBY,"301 S, MAIN STREET",WATERLOO,IL,62298,"http://maps.google.com/maps?q=301 S, MAIN STREET,+WATERLOO,+IL+62298&hl=en"
WAYNE COUNTY SHERIFF'S OFFICE,WAYNE COUNTY SHERIFF'S OFFICE,100 MAPLE ST,GREENVILLE,MO,63944,"http://maps.google.com/maps?q=100 MAPLE ST,+GREENVILLE,+MO+63944&hl=en"
WEBSTER COUNTY SHERIFF'S OFFICE,WEBSTER COUNTY HEALTH UNIT,233 E. WASHINGTON ST,MARSHFIELD,MO,65706,"http://maps.google.com/maps?q=233 E. WASHINGTON ST,+MARSHFIELD,+MO+65706&hl=en"
WEINER POLICE DEPARTMENT,WEINER POLICE DEPARTMENT,123 WEST 2ND STREET,WEINER,AR,72479,"http://maps.google.com/maps?q=123 WEST 2ND STREET,+WEINER,+AR+72479&hl=en"
WEST FORK POLICE DEPARTMENT,WEST FORK POLICE DEPARTMENT PERMANENT DROP BOX,262 WEST MAIN STREET,WEST FORK,AR,72774,"http://maps.google.com/maps?q=262 WEST MAIN STREET,+WEST FORK,+AR+72774&hl=en"
WEST MEMPHIS POLICE DEPARTMENT,WEST MEMPHIS POLICE DEPARTMENT PERMANENT DROP BOX,626 E. BROADWAY,WEST MEMPHIS,AR,72301,"http://maps.google.com/maps?q=626 E. BROADWAY,+WEST MEMPHIS,+AR+72301&hl=en"
WHITE COUNTY SHERIFF'S OFFICE,WHITE COUNTY SHERIFF'S OFFICE PERMANENT DROP BOX,1600 E BOOTH ROAD,SEARCY,AR,72143,"http://maps.google.com/maps?q=1600 E BOOTH ROAD,+SEARCY,+AR+72143&hl=en"
WILLARD POLICE DEPT.,FAMILY PHARMACY,520 E JACKSONSUITE 10,WILLARD,MO,65781,"http://maps.google.com/maps?q=520 E JACKSON,+WILLARD,+MO+65781&hl=en"
WOODRUFF COUNTY SHERIFF'S DEPARTMENT,WOODRUFF COUNTY COURT HOUSE,500 NORTH 3RD STREET,AUGUSTA,AR,72006,"http://maps.google.com/maps?q=500 NORTH 3RD STREET,+AUGUSTA,+AR+72006&hl=en"
WRIGHT COUNTY SHERIFF'S OFFICE,ANN SHORT TURNER COMMUNITY CENTER,205 N MISSOURI AVE,MANSFIELD,MO,65704,"http://maps.google.com/maps?q=205 N MISSOURI AVE,+MANSFIELD,+MO+65704&hl=en"
WRIGHT COUNTY SHERIFF'S OFFICE,WRIGHT COUNTY SHERIFF'S OFFICE,PO BOX 250125 COURT SQUARE,HARTVILLE,MO,65667,"http://maps.google.com/maps?q=PO BOX 250,+HARTVILLE,+MO+65667&hl=en"
WYANDOTTE COUNTY SHERIFF,CVS,3750 STATE AVEKANSAS CITY,KANSAS CITY,KS,66102,"http://maps.google.com/maps?q=3750 STATE AVE,+KANSAS CITY,+KS+66102&hl=en"
WYANDOTTE COUNTY SHERIFF,CVS,4300 RAINBOW,KANSAS CITY,KS,66103,"http://maps.google.com/maps?q=4300 RAINBOW,+KANSAS CITY,+KS+66103&hl=en"
WYANDOTTE COUNTY SHERIFF,CVS,4645 SHAWNEE DRIVEKANSAS CITY,KANSAS CITY,KS,66106,"http://maps.google.com/maps?q=4645 SHAWNEE DRIVE,+KANSAS CITY,+KS+66106&hl=en"
WYANDOTTE COUNTY SHERIFF,CVS,950 MINNESOTAKANSAS CITY,KANSAS CITY,KS,66101,"http://maps.google.com/maps?q=950 MINNESOTA,+KANSAS CITY,+KS+66101&hl=en"
WYANDOTTE NATION TRIBAL POLICE,WYANDOTTE NATION TRIBAL POLICE,14 SOUTH MAIN,WYANDOTTE,OK,74370,"http://maps.google.com/maps?q=14 SOUTH MAIN,+WYANDOTTE,+OK+74370&hl=en"
WYNNE POLICE DEPARTMENT,WYNNE POLICE DEPARTMENT PERMANENT DROP BOX,206 S. FALLS,WYNNE,AR,72396,"http://maps.google.com/maps?q=206 S. FALLS,+WYNNE,+AR+72396&hl=en"
