Participant,CollectionSite,Address,City,State,Zip,MapURL
ASOTIN COUNTY SHERIFF'S OFFICE,ASOTIN COUNTY FIRE DEPARTMENT,2314 APPLESIDE BLVD,CLARKSTON,WA,99403,"http://maps.google.com/maps?q=2314 APPLESIDE BLVD,+CLARKSTON,+WA+99403&hl=en"
BEAVERHEAD COUNTY SHERIFF OFFICE,BEAVERHEAD COUNTY SHERIFF OFFICE,2 SOUTH PACIFIC STREETSTE 16,DILLON,MT,59725,"http://maps.google.com/maps?q=2 SOUTH PACIFIC STREET,+DILLON,+MT+59725&hl=en"
BLACKFEET LAW ENFORCEMENT,BLACKFEET COLLECTION,46 MUSEUM LOOP,BROWNING,MT,59417,"http://maps.google.com/maps?q=46 MUSEUM LOOP,+BROWNING,+MT+59417&hl=en"
BUTTE_SILVER BOW LAW ENFORCEMENT,BUTTE PLAZA MALL,3100 HARRISON AVENUE,BUTTE,MT,59701,"http://maps.google.com/maps?q=3100 HARRISON AVENUE,+BUTTE,+MT+59701&hl=en"
CARBON COUNTY SHERIFF'S OFFICE,CARBON COUNTY SHERIFF'S OFFICE,102 N. BROADWAY,RED LODGE,MT,59068,"http://maps.google.com/maps?q=102 N. BROADWAY,+RED LODGE,+MT+59068&hl=en"
CODY POLICE DEPARTMENT,CODY LAW ENFORCEMENT CENTER,1402 RIVER VIEW DRIVE,CODY,WY,82414,"http://maps.google.com/maps?q=1402 RIVER VIEW DRIVE,+CODY,+WY+82414&hl=en"
COLFAX POLICE DEPARTMENT,CITY HALL,400 N MILL STREET,COLFAX,WA,99111,"http://maps.google.com/maps?q=400 N MILL STREET,+COLFAX,+WA+99111&hl=en"
GALLATIN COUNTY SHERIFF'S OFFICE/ BOZEMAN CITY POL,GALLATIN COUNTY LAW AND JUSTICE CENTER,615 SOUTH 16TH AVE,BOZEMAN,MT,59715,"http://maps.google.com/maps?q=615 SOUTH 16TH AVE,+BOZEMAN,+MT+59715&hl=en"
GARFIELD CO SHERRIFFS OFFICE,GARFIELD CO SHERRIFFS OFFICE,789 MAIN STREET,POMEROY,WA,99347,"http://maps.google.com/maps?q=789 MAIN STREET,+POMEROY,+WA+99347&hl=en"
GLACIER COUNTY SHERIFF'S OFFICE,GLACIER COUNTY SHERIFF SITE#1,913 EAST RAILROAD ST,CUT BANK,MT,59427,"http://maps.google.com/maps?q=913 EAST RAILROAD ST,+CUT BANK,+MT+59427&hl=en"
GLACIER COUNTY SHERIFF'S OFFICE,GLACIER PEAK'S CASINO,416 W CENTRAL AVEINTERSECTION US 2 & HWY 89N,BROWNING,MT,59417,"http://maps.google.com/maps?q=416 W CENTRAL AVE,+BROWNING,+MT+59417&hl=en"
GRANGEVILLE PD,CITY COUNCIL CHAMBERS,225 WEST NORTH STREET,GRANGEVILLE,ID,83530,"http://maps.google.com/maps?q=225 WEST NORTH STREET,+GRANGEVILLE,+ID+83530&hl=en"
KOOTENAI COUNTY SHERIFF'S OFFICE,EASTSIDE FIRE DEPARTMENT,20338 S. HIGHWAY 97,HARRISON,ID,83833,"http://maps.google.com/maps?q=20338 S. HIGHWAY 97,+HARRISON,+ID+83833&hl=en"
KOOTENAI COUNTY SHERIFF'S OFFICE,KOOTENAI COUNTY FIRE RESCUE,404 N. IDAHO ST,POST FALLS,ID,83854,"http://maps.google.com/maps?q=404 N. IDAHO ST,+POST FALLS,+ID+83854&hl=en"
KOOTENAI COUNTY SHERIFF'S OFFICE,NORTHERN LAKES FIRE DEPARTMENT,125 W. HAYDEN AVE,HAYDEN,ID,83835,"http://maps.google.com/maps?q=125 W. HAYDEN AVE,+HAYDEN,+ID+83835&hl=en"
KOOTENAI COUNTY SHERIFF'S OFFICE,TIMBERLAKE FIRE DEPARTMENT,5985 E. HIGHWAY 54,ATHOL,ID,83801,"http://maps.google.com/maps?q=5985 E. HIGHWAY 54,+ATHOL,+ID+83801&hl=en"
KOOTENAI COUNTY SHERIFF'S OFFICE,WORLEY FIRE DEPARTMENT,29803 S. 3RD ST,WORLEY,ID,83876,"http://maps.google.com/maps?q=29803 S. 3RD ST,+WORLEY,+ID+83876&hl=en"
LATAH COUNTY SHERIFF'S OFFICE,CITY PARK,MAIN ST. & 6TH ST.,KENDRICK,ID,83537,"http://maps.google.com/maps?q=MAIN ST. & 6TH ST.,+KENDRICK,+ID+83537&hl=en"
LATAH COUNTY SHERIFF'S OFFICE,GENESEE FOOD CENTER PARKING LOT,216 WEST CHESTNUT ST,GENESEE,ID,83832,"http://maps.google.com/maps?q=216 WEST CHESTNUT ST,+GENESEE,+ID+83832&hl=en"
LATAH COUNTY SHERIFF'S OFFICE,HARVEST FOOD PARKING LOG,150 6TH ST.,POTLATCH,ID,83855,"http://maps.google.com/maps?q=150 6TH ST.,+POTLATCH,+ID+83855&hl=en"
LATAH COUNTY SHERIFF'S OFFICE,SUNSET MART,105 HIGHWAY 8,TROY,ID,83871,"http://maps.google.com/maps?q=105 HIGHWAY 8,+TROY,+ID+83871&hl=en"
LEWIS AND CLARK COUNTY SHERIFF'S OFFICE,LINCOLN POST OFFICE,237 MAIN STREET,LINCOLN,MT,59639,"http://maps.google.com/maps?q=237 MAIN STREET,+LINCOLN,+MT+59639&hl=en"
LEWIS AND CLARK COUNTY SHERIFF'S OFFICE,SHOPKO,3101 N MONTANA AVENUE,HELENA,MT,59602,"http://maps.google.com/maps?q=3101 N MONTANA AVENUE,+HELENA,+MT+59602&hl=en"
LEWIS AND CLARK COUNTY SHERIFF'S OFFICE,WALGREENS,1150 11TH AVE,HELENA,MT,59601,"http://maps.google.com/maps?q=1150 11TH AVE,+HELENA,+MT+59601&hl=en"
LEWISTON POLICE DEPARTMENT,LEWISTON POLICE DEPT,1224 F ST,LEWISTON,ID,83501,"http://maps.google.com/maps?q=1224 F ST,+LEWISTON,+ID+83501&hl=en"
LEWISTOWN POLICE DEPARTMENT,LEWISTOWN POLICE DEPARTMENT,305 WEST WATSON STREET,LEWISTOWN,MT,59457,"http://maps.google.com/maps?q=305 WEST WATSON STREET,+LEWISTOWN,+MT+59457&hl=en"
LINCOLN COUNTY SHERIFF'S OFFICE,LINCOLN COUNTY SHERIFF'S OFFICE,512 CALIFORNIA AVE,LIBBY,MT,59923,"http://maps.google.com/maps?q=512 CALIFORNIA AVE,+LIBBY,+MT+59923&hl=en"
LIVINGSTON POLICE DEPARTMENT AND ELKS CLUB,ELKS LODGE #246,130 SOUTH 2ND STREET,LIVINGSTON,MT,59047,"http://maps.google.com/maps?q=130 SOUTH 2ND STREET,+LIVINGSTON,+MT+59047&hl=en"
MCCALL POLICE DEPT,POLICE DEPT,550 DEINHARD LANE,MCCALL,ID,83638,"http://maps.google.com/maps?q=550 DEINHARD LANE,+MCCALL,+ID+83638&hl=en"
MINERAL COUNTY SHERIFF'S OFFICE,MINERAL COUNTY SHERIFF'S OFFICE,310 RIVER STREET,SUPERIOR,MT,59872,"http://maps.google.com/maps?q=310 RIVER STREET,+SUPERIOR,+MT+59872&hl=en"
MISSOULA POLICE DEPARTMENT,SOUTHGATE MALL,2901 BROOKS AVENUE,MISSOULA,MT,59801,"http://maps.google.com/maps?q=2901 BROOKS AVENUE,+MISSOULA,+MT+59801&hl=en"
MONTANA HIGHWAY PATROL - GREAT FALLS,MONTANA HIGHWAY PATROL,812 - 14TH STREET NORTH,GREAT FALLS,MT,59401,"http://maps.google.com/maps?q=812 - 14TH STREET NORTH,+GREAT FALLS,+MT+59401&hl=en"
MONTANA HIGHWAY PATROL - HELENA,HELENA FAMILY YMCA,1200 N LAST CHANCE GULCH,HELENA,MT,59601,"http://maps.google.com/maps?q=1200 N LAST CHANCE GULCH,+HELENA,+MT+59601&hl=en"
MONTANA HIGHWAY PATROL - HELENA,HELENA SHOPKO,3101 N. MONTANA AVE.,HELENA,MT,59601,"http://maps.google.com/maps?q=3101 N. MONTANA AVE.,+HELENA,+MT+59601&hl=en"
MSU BOZEMEN POLICE DEPT,MSU BOZEMAN POLICE DEPT,101 HUFFMAN BUILDING,BOZEMAN,MT,59717,"http://maps.google.com/maps?q=101 HUFFMAN BUILDING,+BOZEMAN,+MT+59717&hl=en"
NATIONAL PARK SERVICE - MONTANA,YELLOWSTONE FOREVER,308 W PARK ST,GARDINER,MT,59030,"http://maps.google.com/maps?q=308 W PARK ST,+GARDINER,+MT+59030&hl=en"
PEND OREILLE COUNTY SHERIFF'S OFFICE,PEND OREILLE COUNTY SHERIFF,331 S GARDEN AVENUE,NEWPORT,WA,99156,"http://maps.google.com/maps?q=331 S GARDEN AVENUE,+NEWPORT,+WA+99156&hl=en"
POST FALLS POLICE DEPARTMENT,POST FALLS POLICE DEPARTMENT,1717 E POLSTON AVE.,POST FALLS,ID,83854,"http://maps.google.com/maps?q=1717 E POLSTON AVE.,+POST FALLS,+ID+83854&hl=en"
POWELL POLICE DEPARTMENT,POWELL POLICE DEPARTMENT,250 NORTH CLARK STREET,POWELL,WY,82435,"http://maps.google.com/maps?q=250 NORTH CLARK STREET,+POWELL,+WY+82435&hl=en"
PULLMAN POLICE DEPARTMENT,PULLMAN POLICE DEPARTMENT LOBBY,260 SE KAMIAKEN STREET,PULLMAN,WA,99163,"http://maps.google.com/maps?q=260 SE KAMIAKEN STREET,+PULLMAN,+WA+99163&hl=en"
RONAN POLICE DEPARTMENT,RONAN POLICE DEPARTMENT,109 2ND AVE SW,RONAN,MT,59864,"http://maps.google.com/maps?q=109 2ND AVE SW,+RONAN,+MT+59864&hl=en"
SANDPOINT POLICE DEPARTMENT,SANDPOINT POLICE DEPARTMENT,1123 LAKE STREET SANDPOINT,SANDPOINT,ID,83864,"http://maps.google.com/maps?q=1123 LAKE STREET SANDPOINT,+SANDPOINT,+ID+83864&hl=en"
SPOKANE POLICE DEPARTMENT,WEST CENTRAL COMMUNITY CENTER,1603 NORTH BELT STREET,SPOKANE,WA,99205,"http://maps.google.com/maps?q=1603 NORTH BELT STREET,+SPOKANE,+WA+99205&hl=en"
SPOKANE VALLEY POLICE PRECINCT,CHAS HEALTH,15812 E INDIANA AVENUE,SPOKANE,WA,99216,"http://maps.google.com/maps?q=15812 E INDIANA AVENUE,+SPOKANE,+WA+99216&hl=en"
STILLWATER COUNTY SHERIFF'S OFFICE,STILLWATER COUNTY SHERIFF'S OFFICE,400 E 3RD AVE N,COLUMBUS,MT,59019,"http://maps.google.com/maps?q=400 E 3RD AVE N,+COLUMBUS,+MT+59019&hl=en"
SWEET GRASS COUNTY SHERIFF,SWEET GRASS COUNTY SHERIFF'S OFFICE,200 WEST FIRST STREET,BIG TIMBER,MT,59011,"http://maps.google.com/maps?q=200 WEST FIRST STREET,+BIG TIMBER,+MT+59011&hl=en"
WEST YELLOWSTONE POLICE DEPARTMENT,TOWN OF WEST YELLOWSTONE OFFICE,440 YELLOWSTONE AVE,WEST YELLOWSTONE,MT,59758,"http://maps.google.com/maps?q=440 YELLOWSTONE AVE,+WEST YELLOWSTONE,+MT+59758&hl=en"
WHEATLAND COUNTY SHERIFF'S OFFICE,WHEATLAND COUNTY SHERIFF'S OFFICE,203 A AVENUE NW,HARLOWTON,MT,59036,"http://maps.google.com/maps?q=203 A AVENUE NW,+HARLOWTON,+MT+59036&hl=en"
WHITEFISH POLICE DEPARTMENT,WHITEFISH POLICE DEPARTMENT,275 FLATHEAD AVE,WHITEFISH,MT,59937,"http://maps.google.com/maps?q=275 FLATHEAD AVE,+WHITEFISH,+MT+59937&hl=en"
