Participant,CollectionSite,Address,City,State,Zip,MapURL
JUNEAU POLICE DEPARTMENT,JUNEAU POLICE DEPARTMENT,6255 ALAWAY AVENUE,JUNEAU,AK,99801,"http://maps.google.com/maps?q=6255 ALAWAY AVENUE,+JUNEAU,+AK+99801&hl=en"
SKAGWAY POLICE DEPARTMENT,SKAGWAY PUBLIC SAFETY FACILITY,308 17TH AVENUE,SKAGWAY,AK,99840,"http://maps.google.com/maps?q=308 17TH AVENUE,+SKAGWAY,+AK+99840&hl=en"
SITKA POLICE DEPARTMENT,CENTENNIAL HALL,330 HARBOR DRIVE,SITKA,AK,99835,"http://maps.google.com/maps?q=330 HARBOR DRIVE,+SITKA,+AK+99835&hl=en"
SAN JUAN COUNTY SHERIFF,SAN JUAN COUNTY SHERIFF'S OFFICE,96 SECOND ST,FRIDAY HARBOR,WA,98250,"http://maps.google.com/maps?q=96 SECOND ST,+FRIDAY HARBOR,+WA+98250&hl=en"
FERNDALE POLICE DEPARTMENT,FERNDALE PD POLICE DEPARTMENT,2220 MAIN ST,FERNDALE,WA,98248,"http://maps.google.com/maps?q=2220 MAIN ST,+FERNDALE,+WA+98248&hl=en"
LYNDEN POLICE DEPARTMENT,LYNDEN POLICE DEPARTMENT,203 19TH STREET,LYNDEN,WA,98264,"http://maps.google.com/maps?q=203 19TH STREET,+LYNDEN,+WA+98264&hl=en"
BELLINGHAM POLICE DEPARTMENT,BELLINGHAM POLICE DEPARTMENT,505 GRAND AVE,BELLINGHAM,WA,98225,"http://maps.google.com/maps?q=505 GRAND AVE,+BELLINGHAM,+WA+98225&hl=en"
LUMMI NATION POLICE DEPARTMENT,LUMMI NATION POLICE DEPARTMENT,2665 KWINA ROAD,BELLINGHAM,WA,98226,"http://maps.google.com/maps?q=2665 KWINA ROAD,+BELLINGHAM,+WA+98226&hl=en"
ANACORTES POLICE DEPARTMENT,ANACORTES POLICE STATION,1218 24TH ST.,ANACORTES,WA,98221,"http://maps.google.com/maps?q=1218 24TH ST.,+ANACORTES,+WA+98221&hl=en"
WHATCOM COUNTY SHERIFF,NORTH FORK LIBRARY,7506 KENDALL ROAD,MAPLE FALLS,WA,98266,"http://maps.google.com/maps?q=7506 KENDALL ROAD,+MAPLE FALLS,+WA+98266&hl=en"
BURLINGTON POLICE DEPARTMENT,BURLINGTON POLICE DEPARTMENT,311 CEDAR STREETSUITE B,BURLINGTON,WA,98233,"http://maps.google.com/maps?q=311 CEDAR STREET,+BURLINGTON,+WA+98233&hl=en"
MOUNT VERNON POLICE DEPARTMENT,MOUNT VERNON POLICE DEPARTMENT,1805 CONTINENTAL PLACE,MOUNT VERNON,WA,98273,"http://maps.google.com/maps?q=1805 CONTINENTAL PLACE,+MOUNT VERNON,+WA+98273&hl=en"
SKAGIT VALLEY SHERIFF'S OFFICE,CONCRETE COMMUNITY CENTER,45821 RAILROAD ST,CONCRETE,WA,98237,"http://maps.google.com/maps?q=45821 RAILROAD ST,+CONCRETE,+WA+98237&hl=en"
OROVILLE POLICE DEPARTMENT/CARES,OROVILLE POLICE DEPARTMENT,1105 MAIN STREET,OROVILLE,WA,98844,"http://maps.google.com/maps?q=1105 MAIN STREET,+OROVILLE,+WA+98844&hl=en"
FERRY COUNTY CORRECTIONS,FERRY COUNTY CORRECTIONS,165 N JEFFERSON STREET,REPUBLIC,WA,99166,"http://maps.google.com/maps?q=165 N JEFFERSON STREET,+REPUBLIC,+WA+99166&hl=en"
NEAH BAY PUBLIC SAFETY,NEAH BAY COMMUNITY GYM,1394 BAYVIEW AVE,NEAH BAY,WA,98357,"http://maps.google.com/maps?q=1394 BAYVIEW AVE,+NEAH BAY,+WA+98357&hl=en"
OAK HARBOR POLICE DEPARTMENT,OAK HARBOR POLICE DEPARTMENT NIGHT LOBBY,860 SE BARRINGTON DR.,OAK HARBOR,WA,98277,"http://maps.google.com/maps?q=860 SE BARRINGTON DR.,+OAK HARBOR,+WA+98277&hl=en"
CLALLAM COUNTY SHERIFF'S OFFICE,CHINOOK PHARMACY,11 S FORKS AVENUE,FORKS,WA,98331,"http://maps.google.com/maps?q=11 S FORKS AVENUE,+FORKS,+WA+98331&hl=en"
LOWER ELWHA POLICE DEPARTMENT,ELWHA JUSTICE CENTER,341 SPOKWES DR.,PORT ANGELES,WA,98363,"http://maps.google.com/maps?q=341 SPOKWES DR.,+PORT ANGELES,+WA+98363&hl=en"
CLALLAM COUNTY SHERIFF'S OFFICE,CLALLAM COUNTY COURTHOUSE,223 E. 4TH STREET,PORT ANGELES,WA,98362,"http://maps.google.com/maps?q=223 E. 4TH STREET,+PORT ANGELES,+WA+98362&hl=en"
SEQUIM POLICE DEPARTMENT,SEQUIM CIVIC CENTER LOBBY,152 WEST CEDAR STREET,SEQUIM,WA,98382,"http://maps.google.com/maps?q=152 WEST CEDAR STREET,+SEQUIM,+WA+98382&hl=en"
ISLAND COUNTY SHERIFF'S OFFICE,COUPEVILLE MARSHALS OFFICE,4 NE SEVENTH STREET,COUPEVILLE,WA,98239,"http://maps.google.com/maps?q=4 NE SEVENTH STREET,+COUPEVILLE,+WA+98239&hl=en"
JEFFERSON COUNTY SHERIFF'S DEPARTMENT,QFC PORT HADLOCK,1890 IRONSIDE ROAD,PORT HADLOCK,WA,98339,"http://maps.google.com/maps?q=1890 IRONSIDE ROAD,+PORT HADLOCK,+WA+98339&hl=en"
ISLAND COUNTY SHERIFF'S OFFICE,ISLAND COUNTY SHERIFF'S OFFICE SOUTH PRECINCT,5521 EAST HARBOR ROAD,FREELAND,WA,98249,"http://maps.google.com/maps?q=5521 EAST HARBOR ROAD,+FREELAND,+WA+98249&hl=en"
EVERETT POLICE DEPARTMENT,EVERETT POLICE DEPARTMENT 9AM TO 4 PM,3002 WETMORE,EVERETT,WA,98201,"http://maps.google.com/maps?q=3002 WETMORE,+EVERETT,+WA+98201&hl=en"
ARLINGTON POLICE DEPARTMENT,ARLINGTON POLICE DEPARTMENT,110 E 3RD STREET,ARLINGTON,WA,98223,"http://maps.google.com/maps?q=110 E 3RD STREET,+ARLINGTON,+WA+98223&hl=en"
