Participant,CollectionSite,Address,City,State,Zip,MapURL
193 SPECIAL OPERATIONS WING,193 SOW PA AIR NATIONAL GUARD MILITARY ONLY- NOT OPEN TO PUBLIC,81 CONSTELLATION CT,MIDDLETOWN,PA,17057,"http://maps.google.com/maps?q=81 CONSTELLATION CT,+MIDDLETOWN,+PA+17057&hl=en"
AKRON POLICE DEPARTMENT,AKRON METRO REGIONAL TRANSIT CENTER VISITOR'S PARKING LOT,631 S BROADWAY STREET,AKRON,OH,44311,"http://maps.google.com/maps?q=631 S BROADWAY STREET,+AKRON,+OH+44311&hl=en"
ALLEGANY COUNTY SHERIFF'S OFFICE,CANASERGA FIRE HALL,10 MAIN STREET,CANASERAGA,NY,14822,"http://maps.google.com/maps?q=10 MAIN STREET,+CANASERAGA,+NY+14822&hl=en"
ALLEGANY COUNTY SHERIFF'S OFFICE,CUBA FIRE HALL,51 EAST MAIN STREET,CUBA,NY,14727,"http://maps.google.com/maps?q=51 EAST MAIN STREET,+CUBA,+NY+14727&hl=en"
ALLEGHENY COUNTY POLICE - DISTRICT II,ALLEGHENY COUNTY POLICE DISTRICT II,1801 BROWNSVILLE RD.,SOUTH PARK,PA,15129,"http://maps.google.com/maps?q=1801 BROWNSVILLE RD.,+SOUTH PARK,+PA+15129&hl=en"
ALLEGHENY COUNTY POLICE DEPARTMENT,NORTH PARK STATION,700 WEST RIDGE DRIVE,ALLISON PARK,PA,15101,"http://maps.google.com/maps?q=700 WEST RIDGE DRIVE,+ALLISON PARK,+PA+15101&hl=en"
ALLEGHENY COUNTY POLICE DEPARTMENT,SOUTH PARK STATION,1801 BROWNSVILLE ROAD,SOUTH PARK,PA,15129,"http://maps.google.com/maps?q=1801 BROWNSVILLE ROAD,+SOUTH PARK,+PA+15129&hl=en"
ALLEGHENY COUNTY POLICE DEPARTMENT,WILMERDING STATION,315 STATION ST,WILMERDING,PA,15148,"http://maps.google.com/maps?q=315 STATION ST,+WILMERDING,+PA+15148&hl=en"
ALLEGHENY COUNTY POLICE DISTRICT III,ALLEGHENY COUNTY PD,700 WEST RIDGE RD,ALLISON PARK,PA,15101,"http://maps.google.com/maps?q=700 WEST RIDGE RD,+ALLISON PARK,+PA+15101&hl=en"
AMHERST POLICE DEPARTMENT,MILLARD FILLMORE HOSPITAL,1540 MAPLE RD.,AMHERST,NY,14221,"http://maps.google.com/maps?q=1540 MAPLE RD.,+AMHERST,+NY+14221&hl=en"
ANDOVER POLICE DEPARTMENT,ANDOVER POLICE DEPARTMENT,134 MAPLE ST,ANDOVER,OH,44003,"http://maps.google.com/maps?q=134 MAPLE ST,+ANDOVER,+OH+44003&hl=en"
ASHTABULA COUNTY SHERIFF'S OFFICE,ASHTABULA COUNTY SHERIFF'S OFFICE,25 W. JEFFERSON ST.,JEFFERSON,OH,44047,"http://maps.google.com/maps?q=25 W. JEFFERSON ST.,+JEFFERSON,+OH+44047&hl=en"
ASPINWALL POLICE DEPARTMENT,ASPINWALL POLICE STATION,217 COMMERCIAL AVENUE,ASPINWALL,PA,15215,"http://maps.google.com/maps?q=217 COMMERCIAL AVENUE,+ASPINWALL,+PA+15215&hl=en"
AURORA POLICE DEPARTMENT,AURORA POLICE DEPARTMENT,100 S. AURORA RD,AURORA,OH,44202,"http://maps.google.com/maps?q=100 S. AURORA RD,+AURORA,+OH+44202&hl=en"
AUSTINTOWN POLICE DEPARTMENT,AUSTINTOWN TOWNSHIP POLICE DISTRICT OUTDOOR DRIVE-THRU COLLECTION,92 OHLTOWN RD.,YOUNGSTOWN,OH,44515,"http://maps.google.com/maps?q=92 OHLTOWN RD.,+YOUNGSTOWN,+OH+44515&hl=en"
BARBERTON POLICE DEPARTMENT,THE OLD FIRST MERIT BUILDING,480 WEST TUSCAWARAS,BARBERTON,OH,44203,"http://maps.google.com/maps?q=480 WEST TUSCAWARAS,+BARBERTON,+OH+44203&hl=en"
BATAVIA POLICE DEPARTMENT,BATAVIA POLICE DEPARTMENT,10 W. MAIN STREET,BATAVIA,NY,14020,"http://maps.google.com/maps?q=10 W. MAIN STREET,+BATAVIA,+NY+14020&hl=en"
BATH TOWNSHIP POLICE DEPARTMENT,ACME MARKET JIM PEARL- MANAGER,3979 MEDINA RD.,AKRON,OH,44333,"http://maps.google.com/maps?q=3979 MEDINA RD.,+AKRON,+OH+44333&hl=en"
BAZETTA TOWNSHIP POLICE DEPARTMENT,BAZETTA TOWNSHIP POLICE DEPARTMENT,2671 MCCLEARY JACOBY RD.,CORTLAND,OH,44410,"http://maps.google.com/maps?q=2671 MCCLEARY JACOBY RD.,+CORTLAND,+OH+44410&hl=en"
BEAVER POLICE DEPARTMENT,BEAVER POLICE DEPARTMENT FRONT LOBBY,601 W SOUTH RANGE RD,NORTH LIMA,OH,44452,"http://maps.google.com/maps?q=601 W SOUTH RANGE RD,+NORTH LIMA,+OH+44452&hl=en"
BELLEVUE BOROUGH POLICE DEPARTMENT,BELLEVUE BOROUGH POLICE DEPARTMENT,537 BAYNE AVENUE,PITTSBURGH,PA,15202,"http://maps.google.com/maps?q=537 BAYNE AVENUE,+PITTSBURGH,+PA+15202&hl=en"
BEREA POLICE DEPARTMENT,BEREA ELKS LODGE #1815,626 N. ROCKY RIVER DR.,BEREA,OH,44017,"http://maps.google.com/maps?q=626 N. ROCKY RIVER DR.,+BEREA,+OH+44017&hl=en"
BIGLERVILLE BOROUGH POLICE DEPARTMENT,BIGLERVILLE FIRE DEPARTMENT,111 SOUTH MAIN STREET,BIGLERVILLE,PA,17307,"http://maps.google.com/maps?q=111 SOUTH MAIN STREET,+BIGLERVILLE,+PA+17307&hl=en"
BLAIR COUNTY SHERIFF'S OFFICE,BLAIR COUNTY COURTHOUSE,423 ALLEGHENY ST,HOLLIDAYSBURG,PA,16648,"http://maps.google.com/maps?q=423 ALLEGHENY ST,+HOLLIDAYSBURG,+PA+16648&hl=en"
BOARDMAN POLICE DEPARTMENT,BOARDMAN POLICE DEPARTMENT,8299 MARKET STREET,BOARDMAN,OH,44512,"http://maps.google.com/maps?q=8299 MARKET STREET,+BOARDMAN,+OH+44512&hl=en"
BRECKSVILLE POLICE DEPARTMENT,BRECKSVILLE POLICE DEPARTMENT HORTICULTURAL DEPARTMENT BUILDING,6916 STADIUM DRIVE,BRECKSVILLE,OH,44141,"http://maps.google.com/maps?q=6916 STADIUM DRIVE,+BRECKSVILLE,+OH+44141&hl=en"
BRIMFIELD POLICE DEPARTMENT,BRIMFIELD POLICE DEPARTMENT,1287 TALLMADGE RD,KENT,OH,44240,"http://maps.google.com/maps?q=1287 TALLMADGE RD,+KENT,+OH+44240&hl=en"
BROOKE COUNTY SHERIFF'S OFFICE,BROOKE COUNTY COURTHOUSE GREEN ROOM,632 MAIN STREET,WELLSBURG,WV,26070,"http://maps.google.com/maps?q=632 MAIN STREET,+WELLSBURG,+WV+26070&hl=en"
BUFFALO POLICE DEPARTMENT,BUFFALO STATE COLLEGE CLEVELAND HALL,1300 ELMWOOD AVE.,BUFFALO,NY,14222,"http://maps.google.com/maps?q=1300 ELMWOOD AVE.,+BUFFALO,+NY+14222&hl=en"
CANFIELD POLICE DEPARTMENT,CANFIELD POLICE DEPARTMENT JOSH WELLS,104 LISBON ST.,CANFIELD,OH,44406,"http://maps.google.com/maps?q=104 LISBON ST.,+CANFIELD,+OH+44406&hl=en"
CANONSBURG POLICE DEPARTMENT,SHOP AND SAVE GROCERY STORE,617 WEST PIKE STREET,CANONSBURG,PA,15317,"http://maps.google.com/maps?q=617 WEST PIKE STREET,+CANONSBURG,+PA+15317&hl=en"
CARLOW UNIVERSITY POLICE,CARLOW UNIVERSITY,3333 FIFTH AVE,PITTSBURGH,PA,15213,"http://maps.google.com/maps?q=3333 FIFTH AVE,+PITTSBURGH,+PA+15213&hl=en"
CARNEGIE MELLON UNIVERSITY POLICE DEPT,CMU POLICE STATION (LOBBY),300 S CRAIG ST,PITTSBURGH,PA,15213,"http://maps.google.com/maps?q=300 S CRAIG ST,+PITTSBURGH,+PA+15213&hl=en"
CARROLL COUNTY SHERIFF'S OFFICE,CARROLL COUNTY SHERIFF'S OFFICE,100 NORTH COURT STREET,WESTMINSTER,MD,21157,"http://maps.google.com/maps?q=100 NORTH COURT STREET,+WESTMINSTER,+MD+21157&hl=en"
CARROLL COUNTY SHERIFF'S OFFICE,HAMPSTEAD POLICE DEPARTMENT POC: LT. GAEGLER,1112 MAIN STREET,HAMPSTEAD,MD,21074,"http://maps.google.com/maps?q=1112 MAIN STREET,+HAMPSTEAD,+MD+21074&hl=en"
CARROLL COUNTY SHERIFF'S OFFICE,MOUNT AIRY POLICE DEPARTMENT,"205 CENTER STREET,SUITE 203",MOUNT AIRY,MD,21771,"http://maps.google.com/maps?q=205 CENTER STREET,,+MOUNT AIRY,+MD+21771&hl=en"
CARROLL COUNTY SHERIFF'S OFFICE,TOTAL HEALTH EXPO,200 MEMORIAL AVENUE,WESTMINSTER,MD,21157,"http://maps.google.com/maps?q=200 MEMORIAL AVENUE,+WESTMINSTER,+MD+21157&hl=en"
CARROLL COUNTY SHERIFF'S OFFICE,WESTMINSTER POLICE DEPARTMENT POC: CHIEF SPAULDING,36 LOCUST STREET,WESTMINSTER,MD,21157,"http://maps.google.com/maps?q=36 LOCUST STREET,+WESTMINSTER,+MD+21157&hl=en"
CARROLL TOWNSHIP POLICE DEPARTMENT,"MONONGAHELA VALLEY HOSPITAL, INC.",1163 COUNTRY CLUB ROAD,MONONGAHELA,PA,15063,"http://maps.google.com/maps?q=1163 COUNTRY CLUB ROAD,+MONONGAHELA,+PA+15063&hl=en"
CARROLL VALLEY BOROUGH POLICE DEPARTMENT,CARROLL VALLEY BOROUGH OFFICE,5685 FAIRFIELD ROAD,FAIRFIELD,PA,17320,"http://maps.google.com/maps?q=5685 FAIRFIELD ROAD,+FAIRFIELD,+PA+17320&hl=en"
CATTARAUGUS COUNTY SHERIFF'S DEPARTMENT,CATTARAUGUS COUNTY OFFICE BUILDING,1 LEO MOSS DRIVE,OLEAN,NY,14760,"http://maps.google.com/maps?q=1 LEO MOSS DRIVE,+OLEAN,+NY+14760&hl=en"
CATTARAUGUS COUNTY SHERIFF'S DEPARTMENT,CATTARAUGUS INDIAN RESERVATION HEALTH CENTER,36 THOMAS INDIAN SCHOOL DRIVE,IRVING,NY,14081,"http://maps.google.com/maps?q=36 THOMAS INDIAN SCHOOL DRIVE,+IRVING,+NY+14081&hl=en"
CATTARAUGUS COUNTY SHERIFF'S DEPARTMENT,CORNER DRUG STORE,1 WASHINGTON STREET,CATTARAUGUS,NY,14719,"http://maps.google.com/maps?q=1 WASHINGTON STREET,+CATTARAUGUS,+NY+14719&hl=en"
CATTARAUGUS COUNTY SHERIFF'S DEPARTMENT,DELEVAN HEALTH CENTER,38 N. MAIN ST.,DELEVAN,NY,14042,"http://maps.google.com/maps?q=38 N. MAIN ST.,+DELEVAN,+NY+14042&hl=en"
CATTARAUGUS COUNTY SHERIFF'S DEPARTMENT,LIONEL R. JOHN HEALTH CENTER,987 R.C. HOAG DRIVE,SALAMANCA,NY,14779,"http://maps.google.com/maps?q=987 R.C. HOAG DRIVE,+SALAMANCA,+NY+14779&hl=en"
CATTARAUGUS COUNTY SHERIFF'S DEPARTMENT,SALAMANCA CITY MUNICIPAL BUILDING FIRE DEPARTMENT,225 WILDWOOD AVE,SALAMANCA,NY,14779,"http://maps.google.com/maps?q=225 WILDWOOD AVE,+SALAMANCA,+NY+14779&hl=en"
CHARTIERS TOWNSHIP POLICE DEPARTMENT,CHARTIERS TOWNSHIP POLICE DEPARTMENT,2 BUCCANEER DRIVE,HOUSTON,PA,15342,"http://maps.google.com/maps?q=2 BUCCANEER DRIVE,+HOUSTON,+PA+15342&hl=en"
CHAUTAUQUA COUNTY SHERIFF'S DEPARTMENT,ALSTAR HQS. NORTH,738 MONROE STREET,DUNKIRK,NY,14048,"http://maps.google.com/maps?q=738 MONROE STREET,+DUNKIRK,+NY+14048&hl=en"
CHAUTAUQUA COUNTY SHERIFF'S DEPARTMENT,CHAUTAUQUE MALL,318 EAST FAIRMOUNT AVE,LAKEWOOD,NY,14750,"http://maps.google.com/maps?q=318 EAST FAIRMOUNT AVE,+LAKEWOOD,+NY+14750&hl=en"
CHAUTAUQUA COUNTY SHERIFF'S DEPARTMENT,SOUTHSIDE PHARMACY,766 FOOTE AVE.,JAMESTOWN,NY,14701,"http://maps.google.com/maps?q=766 FOOTE AVE.,+JAMESTOWN,+NY+14701&hl=en"
CHAUTAUQUA COUNTY SHERIFF'S DEPARTMENT,WESTFIELD FAMILY PHYSICIANS,138 E. MAIN ST.,WESTFIELD,NY,14787,"http://maps.google.com/maps?q=138 E. MAIN ST.,+WESTFIELD,+NY+14787&hl=en"
CHEEKTOWAGA POLICE DEPARTMENT,ST. JOSEPH'S HOSPITAL,2605 HARLEM RD.,CHEEKTOWAGA,NY,14227,"http://maps.google.com/maps?q=2605 HARLEM RD.,+CHEEKTOWAGA,+NY+14227&hl=en"
CHESTER POLICE DEPT,CHESTER POLICE DEPT,600 INDIANA AVE,CHESTER,WV,26034,"http://maps.google.com/maps?q=600 INDIANA AVE,+CHESTER,+WV+26034&hl=en"
CITY OF CLAIRTON POLICE DEPARTMENT,RITE AID DRUG STORE,623 ST. CLAIR AVE.,CLAIRTON,PA,15025,"http://maps.google.com/maps?q=623 ST. CLAIR AVE.,+CLAIRTON,+PA+15025&hl=en"
CITY OF ERIE BUREAU OF POLICE,CITY OF ERIE MUNICIPAL BUILDING,626 STATE STREET,ERIE,PA,16501,"http://maps.google.com/maps?q=626 STATE STREET,+ERIE,+PA+16501&hl=en"
CITY OF WARREN POLICE DEPARTMENT,WARREN POLICE DEPARTMENT,318 W. THIRD AVENUE,WARREN,PA,16365,"http://maps.google.com/maps?q=318 W. THIRD AVENUE,+WARREN,+PA+16365&hl=en"
CITY OF WASHINGTON POLICE DEPT,CITY OF WASHINGTON POLICE DEPT,56 WEST STRAWBERRY AVE,WASHINGTON,PA,15301,"http://maps.google.com/maps?q=56 WEST STRAWBERRY AVE,+WASHINGTON,+PA+15301&hl=en"
CLEVELAND POLICE DEPARTMENT,3RD DISTRICT CLEVELAND POLICE DEPARTMENT,4501 CHESTER AVE,CLEVELAND,OH,44103,"http://maps.google.com/maps?q=4501 CHESTER AVE,+CLEVELAND,+OH+44103&hl=en"
CLEVELAND POLICE DEPARTMENT,CLEVELAND POLICE DEPARTMENT DISTRICT 1,3895 W 130TH STREET,CLEVELAND,OH,44111,"http://maps.google.com/maps?q=3895 W 130TH STREET,+CLEVELAND,+OH+44111&hl=en"
CLEVELAND POLICE DEPARTMENT,CLEVELAND POLICE DEPARTMENT DISTRICT 2,3481 FULTON ROAD,CLEVELAND,OH,44109,"http://maps.google.com/maps?q=3481 FULTON ROAD,+CLEVELAND,+OH+44109&hl=en"
CLEVELAND POLICE DEPARTMENT,CLEVELAND POLICE DEPARTMENT DISTRICT 4,9333 KINSMAN AVENUE,CLEVELAND,OH,44104,"http://maps.google.com/maps?q=9333 KINSMAN AVENUE,+CLEVELAND,+OH+44104&hl=en"
CLEVELAND POLICE DEPARTMENT,CLEVELAND POLICE DEPARTMENT DISTRICT 5,881 E 152ND STREET,CLEVELAND,OH,44114,"http://maps.google.com/maps?q=881 E 152ND STREET,+CLEVELAND,+OH+44114&hl=en"
CONEWAGO TOWNSHIP POLICE DEPARTMENT,CONEWAGO TOWNSHIP POLICE DEPARTMENT,541 OXFORD AVENUE,HANOVER,PA,17331,"http://maps.google.com/maps?q=541 OXFORD AVENUE,+HANOVER,+PA+17331&hl=en"
CONNEAUT POLICE DEPARTMENT,CITY OF CONNEAUT POLICE DEPT UNIVERSITY HOSPITAL CONNEAUT MEDICAL CENTER,158 W. MAIN ST.,CONNEAUT,OH,44030,"http://maps.google.com/maps?q=158 W. MAIN ST.,+CONNEAUT,+OH+44030&hl=en"
COPLEY POLICE DEPARTMENT,COPLEY POLICE DEPARTMENT,1280 SUNSET DRIVE,COPLEY,OH,44321,"http://maps.google.com/maps?q=1280 SUNSET DRIVE,+COPLEY,+OH+44321&hl=en"
CRANBERRY TWP POLICE DEPT,CRANBERRY TWP POLICE DEPT,2525 ROCHESTER RD,CRANBERRY TOWNSHIP,PA,16066,"http://maps.google.com/maps?q=2525 ROCHESTER RD,+CRANBERRY TOWNSHIP,+PA+16066&hl=en"
CRESCENT TOWNSHIP POLICE,CRESCENT TOWNSHIP POLICE,225 SPRING RUN RD.,CRESCENT,PA,15046,"http://maps.google.com/maps?q=225 SPRING RUN RD.,+CRESCENT,+PA+15046&hl=en"
CUMBERLAND TOWNSHIP POLICE,SAINT FRACIS XAVIER CENTER,465 TABLE ROCK ROAD,GETTYSBURG,PA,17325,"http://maps.google.com/maps?q=465 TABLE ROCK ROAD,+GETTYSBURG,+PA+17325&hl=en"
CUYAHOGA FALLS POLICE DEPARTMENT,CITY OF CUYAHOGA FALLS CITY HALL,2310 SECOND ST,CUYAHOGA FALLS,OH,44221,"http://maps.google.com/maps?q=2310 SECOND ST,+CUYAHOGA FALLS,+OH+44221&hl=en"
DANVILLE POLICE DEPARTMENT,DANVILLE POLICE DEPARTMENT,453 MILL STREET,DANVILLE,PA,17821,"http://maps.google.com/maps?q=453 MILL STREET,+DANVILLE,+PA+17821&hl=en"
DEA - HAGERSTOWN RESIDENT OFFICE,HEALTH FAIR FREDERICK FAIRGROUNDS,797 EAST PATRICK STREET,FREDERICK,MD,21701,"http://maps.google.com/maps?q=797 EAST PATRICK STREET,+FREDERICK,+MD+21701&hl=en"
DEPEW POLICE DEPARTMENT,WEGMAN'S,651 DICK ROAD,DEPEW,NY,14043,"http://maps.google.com/maps?q=651 DICK ROAD,+DEPEW,+NY+14043&hl=en"
DERRY TOWNSHIP POLICE DEPARTMENT,PENN STATE HERSHEY MEDICAL CENTER ACADEMIC SUPPORT BUILDING,90 HOPE DR.,HERSHEY,PA,17033,"http://maps.google.com/maps?q=90 HOPE DR.,+HERSHEY,+PA+17033&hl=en"
DORMONT POLICE DEPARTMENT,CVS PHARMACY,3075 WEST LIBERTY AVENUE,PITTSBURGH,PA,15216,"http://maps.google.com/maps?q=3075 WEST LIBERTY AVENUE,+PITTSBURGH,+PA+15216&hl=en"
DUQUESNE UNIVERSITY POLICE DEPT,BAYER SCHOOL,MCNAULTY DR,PITTSBURGH,PA,15282,"http://maps.google.com/maps?q=MCNAULTY DR,+PITTSBURGH,+PA+15282&hl=en"
EASTERN ADAMS REGIONAL POLICE DEPARTMENT,EASTERN ADAMS REGIONAL POLICE DEPARTMENT,110 N. BERLIN AVE,NEW OXFORD,PA,17350,"http://maps.google.com/maps?q=110 N. BERLIN AVE,+NEW OXFORD,+PA+17350&hl=en"
ELLWOOD CITY POLICE DEPARTMENT,ELLWOOD CITY MUNICIPAL BUILDING,525 LAWRENCE AVENUE,ELLWOOD CITY,PA,16117,"http://maps.google.com/maps?q=525 LAWRENCE AVENUE,+ELLWOOD CITY,+PA+16117&hl=en"
ERIE COUNTY SHERIFF'S OFFICE,BERTRAND CHAFFEE HOSPITAL,224 E. MAIN STREET,SPRINGVILLE,NY,14141,"http://maps.google.com/maps?q=224 E. MAIN STREET,+SPRINGVILLE,+NY+14141&hl=en"
ERIE COUNTY SHERIFF'S OFFICE,GOWANDA VILLAGE MUNICIPAL BUILDING,27 E. MAIN STREET,GOWANDA,NY,14070,"http://maps.google.com/maps?q=27 E. MAIN STREET,+GOWANDA,+NY+14070&hl=en"
ERIE COUNTY SHERIFF'S OFFICE,GRAND ISLAND TOWN HALL,2255 BASELINE ROAD,GRAND ISLAND,NY,14072,"http://maps.google.com/maps?q=2255 BASELINE ROAD,+GRAND ISLAND,+NY+14072&hl=en"
EVANS POLICE DEPARTMENT,EVANS MUNICIPAL CENTER,8787 ERIE RD. RT. #5,ANGOLA,NY,14006,"http://maps.google.com/maps?q=8787 ERIE RD. RT. #5,+ANGOLA,+NY+14006&hl=en"
FINDLAY TOWNSHIP POLICE DEPARTMENT,FINDLAY TOWNSHIP POLICE DEPARTMENT,1271 ROUTE 30,CLINTON,PA,15026,"http://maps.google.com/maps?q=1271 ROUTE 30,+CLINTON,+PA+15026&hl=en"
FOLLANSBEE POLICE DEPARTMENT,FOLLANSBEE POLICE DEPARTMENT PL,872 MAIN STREET,FOLLANSBEE,WV,26037,"http://maps.google.com/maps?q=872 MAIN STREET,+FOLLANSBEE,+WV+26037&hl=en"
FORT DETRICK EMERGENCY SERVICES,COMMISSARY BUILDING 1510 POC DET. LESTER MUMMERT,BUILDING # 1510,FORT DETRICK,MD,21702,"http://maps.google.com/maps?q=BUILDING # 1510,+FORT DETRICK,+MD+21702&hl=en"
FORT DETRICK EMERGENCY SERVICES,DIRECTORATE OF EMERGENCY SERVICES POC DET. LESTER MUMMERT,BUILDING # 1419,FORT DETRICK,MD,21702,"http://maps.google.com/maps?q=BUILDING # 1419,+FORT DETRICK,+MD+21702&hl=en"
FREDERICK COUNTY SHERIFF'S OFFICE,FREDERICK COUNTY PUBLIC SAFETY BUILDING,1080 COVERSTONE DRIVE,WINCHESTER,VA,22602,"http://maps.google.com/maps?q=1080 COVERSTONE DRIVE,+WINCHESTER,+VA+22602&hl=en"
FREDERICK COUNTY SHERIFF'S OFFICE,WALGREENS,131 VALLEY MILL ROAD,WINCHESTER,VA,22602,"http://maps.google.com/maps?q=131 VALLEY MILL ROAD,+WINCHESTER,+VA+22602&hl=en"
FREDERICK POLICE DEPARTMENT,WEGMANS,7830 WORMANS MILL ROAD,FREDERICK,MD,21701,"http://maps.google.com/maps?q=7830 WORMANS MILL ROAD,+FREDERICK,+MD+21701&hl=en"
GATES MILLS POLICE DEPARTMENT,GATES MILLS POLICE DEPARTMENT,1470 CHAGRIN RIVER ROAD,GATES MILLS,OH,44040,"http://maps.google.com/maps?q=1470 CHAGRIN RIVER ROAD,+GATES MILLS,+OH+44040&hl=en"
GEAUGA COUNTY SHERIFF'S OFFICE,CHARDON POLICE DEPARTMENT,111 WATER STREET,CHARDON,OH,44024,"http://maps.google.com/maps?q=111 WATER STREET,+CHARDON,+OH+44024&hl=en"
GEAUGA COUNTY SHERIFF'S OFFICE,CHESTERLAND POLICE DEPARTMENT,12696 OPALOCKA DRIVE,CHESTERLAND,OH,44026,"http://maps.google.com/maps?q=12696 OPALOCKA DRIVE,+CHESTERLAND,+OH+44026&hl=en"
GEAUGA COUNTY SHERIFF'S OFFICE,MIDDLEFILED POLICE DEPARTMENT,14860 N. STATE AVE,MIDDLEFIELD,OH,44062,"http://maps.google.com/maps?q=14860 N. STATE AVE,+MIDDLEFIELD,+OH+44062&hl=en"
GEAUGA COUNTY SHERIFF'S OFFICE,RUSSELL POLICE DEPARTMENT,14820 CHILLICOTHE ROAD,NOVELTY,OH,44072,"http://maps.google.com/maps?q=14820 CHILLICOTHE ROAD,+NOVELTY,+OH+44072&hl=en"
GEISTOWN POLICE DEPT,RICHLAND VOLUNTEER FIRE DEPT GEISTOWN STATION,631 LAMBERD AVE,JOHNSTOWN,PA,15904,"http://maps.google.com/maps?q=631 LAMBERD AVE,+JOHNSTOWN,+PA+15904&hl=en"
GENESEE COUNTY SHERIFF'S DEPARTMENT,PEMBROKE TOWN HIGWAY BARNS,ROUTES 5 & 77,EAST PEMBROKE,NY,14056,"http://maps.google.com/maps?q=ROUTES 5 & 77,+EAST PEMBROKE,+NY+14056&hl=en"
GETTYSBURG BOROUGH POLICE DEPARTMENT,ADAMS COUNTY HOUSING AUTHORITY,40 EAST HIGH STREET,GETTYSBURG,PA,17325,"http://maps.google.com/maps?q=40 EAST HIGH STREET,+GETTYSBURG,+PA+17325&hl=en"
GREEN TREE BOROUGH POLICE DEPARTMENT,GREEN TREE BOROUGH BUILDING,10 WEST MANILLA AVE.,PITTSBURGH,PA,15220,"http://maps.google.com/maps?q=10 WEST MANILLA AVE.,+PITTSBURGH,+PA+15220&hl=en"
HAGERSTOWN CITY POLICE DEPARTMENT,HAGERSTOWN CITY POLICE DEPARTMENT,925 N. BURHANS BOULEVARD,HAGERSTOWN,MD,21740,"http://maps.google.com/maps?q=925 N. BURHANS BOULEVARD,+HAGERSTOWN,+MD+21740&hl=en"
HAMBURG POLICE DEPARTMENT,TOWN OF HAMBURG DEPT. OF YOUTH RECREATION & SENIOR SERVICES,4540 SOUTHWESTERN BLVD.,HAMBURG,NY,14075,"http://maps.google.com/maps?q=4540 SOUTHWESTERN BLVD.,+HAMBURG,+NY+14075&hl=en"
HAMPSHIRE COUNTY SHERIFF'S OFFICE,HAMPSHIRE COUNTY SD,66 N HIGH STREET,ROMNEY,WV,26757,"http://maps.google.com/maps?q=66 N HIGH STREET,+ROMNEY,+WV+26757&hl=en"
HANCOCK COUNTY SHERIFF'S OFFICE,HANCOCK COUNTY SHERIFF'S OFFICE,102 NORTH COURT STREET,NEW CUMBERLAND,WV,26047,"http://maps.google.com/maps?q=102 NORTH COURT STREET,+NEW CUMBERLAND,+WV+26047&hl=en"
HEIDELBERG POLICE DEPARTMENT,WALGREENS,2055 WASHINGTON PIKE,CARNEGIE,PA,15106,"http://maps.google.com/maps?q=2055 WASHINGTON PIKE,+CARNEGIE,+PA+15106&hl=en"
HERNDON POLICE DEPARTMENT,HERNDON POLICE DEPARTMENT LOBBY AREA,397 HERNDON PARKWAY,HERNDON,VA,20170,"http://maps.google.com/maps?q=397 HERNDON PARKWAY,+HERNDON,+VA+20170&hl=en"
HIGHSPIRE BOROUGH POLICE DEPARTMENT,HIGHSPIRE BOROUGH BUILDING,640 ESHELMAN ST.,HIGHSPIRE,PA,17034,"http://maps.google.com/maps?q=640 ESHELMAN ST.,+HIGHSPIRE,+PA+17034&hl=en"
HUBBARD CITY POLICE DEPARTMENT,HUBBARD CITY POLICE DEPARTMENT,233 SCHOOL STREET,HUBBARD,OH,44425,"http://maps.google.com/maps?q=233 SCHOOL STREET,+HUBBARD,+OH+44425&hl=en"
HUDSON CITY POLICE DEPARTMENT,HUDSON ACME PLAZA INSIDE THE ACME GROCERY STORE,116 W. STREETSBORO ST.,HUDSON,OH,44236,"http://maps.google.com/maps?q=116 W. STREETSBORO ST.,+HUDSON,+OH+44236&hl=en"
INDIANA COUNTY SHERIFF'S OFFICE,DIAMOND DRUG PHARMACY *COLLECTION TIME FROM 10 AM TO NOON ONLY*,670 PHILADELPHIA STREET,INDIANA,PA,15701,"http://maps.google.com/maps?q=670 PHILADELPHIA STREET,+INDIANA,+PA+15701&hl=en"
JEFFERSON COUNTY SHERIFF'S OFFICE,JEFFERSON COUNTY SHERIFF,102 INDUSTRIAL BOULEVARD,KEARNEYSVILLE,WV,25430,"http://maps.google.com/maps?q=102 INDUSTRIAL BOULEVARD,+KEARNEYSVILLE,+WV+25430&hl=en"
KENT POLICE DEPARTMENT,KENT POLICE DEPARTMENT NEW ADDRESS,301 S. DEPEYSTER ST.,KENT,OH,44240,"http://maps.google.com/maps?q=301 S. DEPEYSTER ST.,+KENT,+OH+44240&hl=en"
KULPMONT POLICE DEPARTMENT,KULPMONT POLICE DEPARTMENT,9 NORTH 8TH STREET,KULPMONT,PA,17834,"http://maps.google.com/maps?q=9 NORTH 8TH STREET,+KULPMONT,+PA+17834&hl=en"
LACKAWANNA POLICE DEPARTMENT,LACKAWANNA POLICE DEPARTMENT,714 RIDGE ROAD,BUFFALO,NY,14218,"http://maps.google.com/maps?q=714 RIDGE ROAD,+BUFFALO,+NY+14218&hl=en"
LAKE COUNTY NARCOTICS AGENCY,KIRTLAND HILLS POLICE DEPARTMENT,8026 CHILLICOTHE ROAD,MENTOR,OH,44060,"http://maps.google.com/maps?q=8026 CHILLICOTHE ROAD,+MENTOR,+OH+44060&hl=en"
LAKE COUNTY NARCOTICS AGENCY,LAKE COUNTY CRIME LABORATORY,235 FAIRGROUNDS ROAD,PAINESVILLE,OH,44077,"http://maps.google.com/maps?q=235 FAIRGROUNDS ROAD,+PAINESVILLE,+OH+44077&hl=en"
LAKE COUNTY NARCOTICS AGENCY,LAKE WEST HOSPITAL,36000 EUCLID AVENUE,WILLOUGHBY,OH,44094,"http://maps.google.com/maps?q=36000 EUCLID AVENUE,+WILLOUGHBY,+OH+44094&hl=en"
LANCASTER POLICE DEPARTMENT,TWIN DISTRICT FIRE DEPARTMENT,4999 WILLIAM STREET,LANCASTER,NY,14086,"http://maps.google.com/maps?q=4999 WILLIAM STREET,+LANCASTER,+NY+14086&hl=en"
LATIMORE TOWNSHIP POLICE,BERMUDIAN SPRINGS SCHOOL DISTRICT,7335 CARLISLE PIKE,YORK SPRINGS,PA,17372,"http://maps.google.com/maps?q=7335 CARLISLE PIKE,+YORK SPRINGS,+PA+17372&hl=en"
LEROY POLICE DEPARTMENT,LEROY POLICE DEPARTMENT VILLAGE HALL,3 WEST MAIN STREETRTS 5 & 19,LE ROY,NY,14482,"http://maps.google.com/maps?q=3 WEST MAIN STREET,+LE ROY,+NY+14482&hl=en"
LIBERTY TOWNSHIP POLICE DEPARTMENT,LIBERTY TOWNSHIP GOVERNMENT BUILDING,1315 CHURCHILL-HUBBARD ROAD,YOUNGSTOWN,OH,44505,"http://maps.google.com/maps?q=1315 CHURCHILL-HUBBARD ROAD,+YOUNGSTOWN,+OH+44505&hl=en"
LITTLESTOWN POLICE DEPARTMENT,MAPLE AVE MIDDLE SCHOOL,75 MAPLE AVE,LITTLESTOWN,PA,17340,"http://maps.google.com/maps?q=75 MAPLE AVE,+LITTLESTOWN,+PA+17340&hl=en"
LORAIN COUNTY SHERIFF'S OFFICE,AVON LAKE POLICE DEPARTMENT,32855 WALKER ROAD,AVON LAKE,OH,44012,"http://maps.google.com/maps?q=32855 WALKER ROAD,+AVON LAKE,+OH+44012&hl=en"
LORAIN COUNTY SHERIFF'S OFFICE,AVON POLICE DEPARTMENT,36145 DETROIT ROAD,AVON,OH,44011,"http://maps.google.com/maps?q=36145 DETROIT ROAD,+AVON,+OH+44011&hl=en"
LORAIN COUNTY SHERIFF'S OFFICE,COLUMBIA TOWNSHIP FIRE STATION,25540 ROYALTON ROAD,COLUMBIA STATION,OH,44028,"http://maps.google.com/maps?q=25540 ROYALTON ROAD,+COLUMBIA STATION,+OH+44028&hl=en"
LORAIN COUNTY SHERIFF'S OFFICE,LORAIN POLICE DEPARTMENT,100 WEST ERIE AVENUE,LORAIN,OH,44052,"http://maps.google.com/maps?q=100 WEST ERIE AVENUE,+LORAIN,+OH+44052&hl=en"
LORAIN COUNTY SHERIFF'S OFFICE,NORTH RIDGEVILLE POLICE DEPARTMENT,7307 AVON-BELDON ROAD,NORTH RIDGEVILLE,OH,44039,"http://maps.google.com/maps?q=7307 AVON-BELDON ROAD,+NORTH RIDGEVILLE,+OH+44039&hl=en"
LORAIN COUNTY SHERIFF'S OFFICE,SHEFFIELD LAKE POLICE DEPARTMENT,609 HARRIS ROAD,SHEFFIELD LAKE,OH,44054,"http://maps.google.com/maps?q=609 HARRIS ROAD,+SHEFFIELD LAKE,+OH+44054&hl=en"
LORAIN COUNTY SHERIFF'S OFFICE,SHEFFIELD VILLAGE POLICE DEPARTMENT,4340 COLORADO AVENUE,SHEFFIELD LAKE,OH,44054,"http://maps.google.com/maps?q=4340 COLORADO AVENUE,+SHEFFIELD LAKE,+OH+44054&hl=en"
LOUDOUN COUNTY SHERIFF'S OFFICE,ASHBURN STATION FRONT LOBBY,20272 SAVIN HILL DR,ASHBURN,VA,20147,"http://maps.google.com/maps?q=20272 SAVIN HILL DR,+ASHBURN,+VA+20147&hl=en"
LOUDOUN COUNTY SHERIFF'S OFFICE,DULLES SOUTH PUBLIC SAFETY CENTER FRONT LOBBY AREA,25216 LOUDOUN PARKWAY,CHANTILLY,VA,20152,"http://maps.google.com/maps?q=25216 LOUDOUN PARKWAY,+CHANTILLY,+VA+20152&hl=en"
LOUDOUN COUNTY SHERIFF'S OFFICE,EASTERN LOUDOUN STATION FRONT LOBBY AREA,46620 EAST FREDERICK DRIVE,STERLING,VA,20164,"http://maps.google.com/maps?q=46620 EAST FREDERICK DRIVE,+STERLING,+VA+20164&hl=en"
LOUDOUN COUNTY SHERIFF'S OFFICE,WEGMAN'S DULLES 28 CENTER,45131 COLUMBIA PL,STERLING,VA,20166,"http://maps.google.com/maps?q=45131 COLUMBIA PL,+STERLING,+VA+20166&hl=en"
LOUDOUN COUNTY SHERIFF'S OFFICE,WESTERN LOUDOUN STATION,47 W LOUDOUN ST,ROUND HILL,VA,20141,"http://maps.google.com/maps?q=47 W LOUDOUN ST,+ROUND HILL,+VA+20141&hl=en"
LOWER PAXTON TOWNSHIP POLICE DEPARTMENT,LOWER PAXTON TOWNSHIP POLICE DEPARTMENT,425 PRINCE STREET,HARRISBURG,PA,17109,"http://maps.google.com/maps?q=425 PRINCE STREET,+HARRISBURG,+PA+17109&hl=en"
MANHEIM TOWNSHIP PD,WEGMAN'S,2000 CROSSINGS BLVD,LANCASTER,PA,17601,"http://maps.google.com/maps?q=2000 CROSSINGS BLVD,+LANCASTER,+PA+17601&hl=en"
MARTINSBURG POLICE DEPARTMENT,JAMES DRUG STORE,119 W. ALLEGHENY STREET,MARTINSBURG,PA,16662,"http://maps.google.com/maps?q=119 W. ALLEGHENY STREET,+MARTINSBURG,+PA+16662&hl=en"
MARYLAND NATURAL RESOURCES POLICE,NATURAL RESOURCES POLICE ECHO LAKE OFFICE,2011 MONUMENT ROAD,MYERSVILLE,MD,21773,"http://maps.google.com/maps?q=2011 MONUMENT ROAD,+MYERSVILLE,+MD+21773&hl=en"
MARYLAND STATE POLICE,MSP CUMBERLAND BARRACK POC: LT. MICHAEL FLUHARTY,1125 NATIONAL HIGHWAY,CUMBERLAND,MD,21502,"http://maps.google.com/maps?q=1125 NATIONAL HIGHWAY,+CUMBERLAND,+MD+21502&hl=en"
MARYLAND STATE POLICE,MSP FREDERICK BARRACK POC: LT. TODD MAY,110 AIRPORT DRIVE EAST,FREDERICK,MD,21701,"http://maps.google.com/maps?q=110 AIRPORT DRIVE EAST,+FREDERICK,+MD+21701&hl=en"
MARYLAND STATE POLICE,MSP HAGERSTOWN BARRACK POC- LT. WOODWARD,18345 COL. HENRY K. DOUGLAS DR.,HAGERSTOWN,MD,21740,"http://maps.google.com/maps?q=18345 COL. HENRY K. DOUGLAS DR.,+HAGERSTOWN,+MD+21740&hl=en"
MARYLAND STATE POLICE,MSP MCHENRY BARRACK POC: JAMES PRITTS,67 FRIENDSVILLE ROAD,MC HENRY,MD,21541,"http://maps.google.com/maps?q=67 FRIENDSVILLE ROAD,+MC HENRY,+MD+21541&hl=en"
MARYLAND STATE POLICE,MSP WESTMINSTER BARRACKS POC: LT. PATRICK MCCRORY,1100 BALTIMORE BLVD.,WESTMINSTER,MD,21157,"http://maps.google.com/maps?q=1100 BALTIMORE BLVD.,+WESTMINSTER,+MD+21157&hl=en"
MCDONALD POLICE DEPARTMENT,BURGETTSTOWN BOROUGH BUILDING,1509 MAIN STREET,BURGETTSTOWN,PA,15021,"http://maps.google.com/maps?q=1509 MAIN STREET,+BURGETTSTOWN,+PA+15021&hl=en"
MCDONALD POLICE DEPARTMENT,MCDONALD POLICE DEPARTMENT,151 SCHOOL STREET,MC DONALD,PA,15057,"http://maps.google.com/maps?q=151 SCHOOL STREET,+MC DONALD,+PA+15057&hl=en"
MCSHERRYSTOWN POLICE DEPT,MCSHERRYSTOWN MOOSE LODGE,534 SOUTH ST,MC SHERRYSTOWN,PA,17344,"http://maps.google.com/maps?q=534 SOUTH ST,+MC SHERRYSTOWN,+PA+17344&hl=en"
MEDINA COUNTY DRUG TASK FORCE,WADSWORTH POLICE DEPARTMENT,120 MAPLE STREET,WADSWORTH,OH,44281,"http://maps.google.com/maps?q=120 MAPLE STREET,+WADSWORTH,+OH+44281&hl=en"
MENTOR ON THE LAKE POLICE DEPARTMENT,MENTOR ON THE LAKE POLICE DEPARTMENT,5860 ANDREWS ROAD,MENTOR,OH,44060,"http://maps.google.com/maps?q=5860 ANDREWS ROAD,+MENTOR,+OH+44060&hl=en"
MERCERSBURG PD,MERCERSBURG BOROUGH HALL,113 SOUTH MAIN ST,MERCERSBURG,PA,17236,"http://maps.google.com/maps?q=113 SOUTH MAIN ST,+MERCERSBURG,+PA+17236&hl=en"
METROHEALTH POLICE DEPARTMENT,METROHEALTH MEDICAL CENTER SCRANTON RD - OUTPATIENT PLAZA PHARMACY ENTRANCE,2500 METROHEALTH DR,CLEVELAND,OH,44109,"http://maps.google.com/maps?q=2500 METROHEALTH DR,+CLEVELAND,+OH+44109&hl=en"
MIDDLETOWN POLICE,GIANT PHARMACY,450 EAST MAINT STREET,MIDDLETOWN,PA,17057,"http://maps.google.com/maps?q=450 EAST MAINT STREET,+MIDDLETOWN,+PA+17057&hl=en"
MILLCREEK TOWNSHIP POLICE DEPARTMENT,MILLCREEK TOWNSHIP,3608 WEST 26TH STREET,ERIE,PA,16506,"http://maps.google.com/maps?q=3608 WEST 26TH STREET,+ERIE,+PA+16506&hl=en"
MILLCREEK TOWNSHIP POLICE DEPARTMENT,WEGMAN'S,5028 W RIDGE RDERIE,ERIE,PA,16506,"http://maps.google.com/maps?q=5028 W RIDGE RD,+ERIE,+PA+16506&hl=en"
MILLCREEK TOWNSHIP POLICE DEPARTMENT,WEGMAN'S,6143 PEACH STERIE,ERIE,PA,16509,"http://maps.google.com/maps?q=6143 PEACH ST,+ERIE,+PA+16509&hl=en"
MILLVALE POLICE DEPARTMENT,MILLVALE POLICE STATION,501 LINCOLN AVENUE,PITTSBURGH,PA,15209,"http://maps.google.com/maps?q=501 LINCOLN AVENUE,+PITTSBURGH,+PA+15209&hl=en"
MILTON PD,MILTON PD,1 FILBERT ST,MILTON,PA,17847,"http://maps.google.com/maps?q=1 FILBERT ST,+MILTON,+PA+17847&hl=en"
MILTON TOWNSHIP POLICE DISTRICT,MILTON TOWNSHIP POLICE DEPARTMENT,15992 MILTON AVE.,LAKE MILTON,OH,44429,"http://maps.google.com/maps?q=15992 MILTON AVE.,+LAKE MILTON,+OH+44429&hl=en"
MINERAL COUNTY SHERIFF'S OFFICE,MINERAL COUNTY DETENTION CENTER ACROSS STREET FROM COURTHOUSE,100 EAST STREET,KEYSER,WV,26726,"http://maps.google.com/maps?q=100 EAST STREET,+KEYSER,+WV+26726&hl=en"
MONROEVILLE POLICE DEPARTMENT,MONROEVILLE POLICE DEPARTMENT,2700 MONROEVILLE BLVD.,MONROEVILLE,PA,15146,"http://maps.google.com/maps?q=2700 MONROEVILLE BLVD.,+MONROEVILLE,+PA+15146&hl=en"
MONTGOMERY COUNTY DEPARTMENT OF POLICE,5TH DISTRICT POLICE STATION,20000 AIRCRAFT DRIVE,GERMANTOWN,MD,20874,"http://maps.google.com/maps?q=20000 AIRCRAFT DRIVE,+GERMANTOWN,+MD+20874&hl=en"
MONTOUR COUNTY SHERIFF'S OFFICE,MONTOUR COUNTY COURTHOUSE,253 MILL ST,DANVILLE,PA,17821,"http://maps.google.com/maps?q=253 MILL ST,+DANVILLE,+PA+17821&hl=en"
MOON TOWNSHIP POLICE,MOON TOWNSHIP POLICE,1000 BEAVER GRADE RD,CORAOPOLIS,PA,15108,"http://maps.google.com/maps?q=1000 BEAVER GRADE RD,+CORAOPOLIS,+PA+15108&hl=en"
MOOREFIELD POLICE DEPARTMENT,MOOREFIELD POLICE DEPT/TOWN OFFICE,206 WINCHESTER AVE,MOOREFIELD,WV,26836,"http://maps.google.com/maps?q=206 WINCHESTER AVE,+MOOREFIELD,+WV+26836&hl=en"
MOUNT CARMEL BOROUGH POLICE,MOUNT CARMEL BOROUGH POLICE DEPARTMENT,137 WEST FOURTH STREET,MOUNT CARMEL,PA,17851,"http://maps.google.com/maps?q=137 WEST FOURTH STREET,+MOUNT CARMEL,+PA+17851&hl=en"
MOUNT CARMEL TWP POLICE DEPARTMENT,MOUNT CARMEL BOROUGH POLICE DEPARTMENT,300 LAUREL STREET,MOUNT CARMEL,PA,17851,"http://maps.google.com/maps?q=300 LAUREL STREET,+MOUNT CARMEL,+PA+17851&hl=en"
MT. LEBANON POLICE DEPARTMENT,MEDIC RESCUE TEAM SOUTH AUTHORITY,315 CYPRESS WAY,PITTSBURGH,PA,15228,"http://maps.google.com/maps?q=315 CYPRESS WAY,+PITTSBURGH,+PA+15228&hl=en"
MT. PLEASANT TWP. POLICE DEPARTMENT,MT. PLEASANT TWP. MUNICIPAL BUILDING,31 MCCARRELL RD.,HICKORY,PA,15340,"http://maps.google.com/maps?q=31 MCCARRELL RD.,+HICKORY,+PA+15340&hl=en"
MUNHALL POLICE DEPARTMENT,MUNHALL CENTRAL VFC,1900 WEST STREET,MUNHALL,PA,15120,"http://maps.google.com/maps?q=1900 WEST STREET,+MUNHALL,+PA+15120&hl=en"
NESHANNOCK TWP POLICE DEPARTMENT,NESHANNOCK TWP. POLICE DEPARTMENT,3131 MERCER ROAD,NEW CASTLE,PA,16105,"http://maps.google.com/maps?q=3131 MERCER ROAD,+NEW CASTLE,+PA+16105&hl=en"
NEW CASTLE POLICE DEPARTMENT,NEW CASTLE POLICE DEPARTMENT,303 EAST NORTH STREET,NEW CASTLE,PA,16101,"http://maps.google.com/maps?q=303 EAST NORTH STREET,+NEW CASTLE,+PA+16101&hl=en"
NEW MIDDLETOWN POLICE DEPT,NEW MIDDLETOWN MUNICIPAL BUILDING,10711 MAIN STREET,NEW MIDDLETOWN,OH,44442,"http://maps.google.com/maps?q=10711 MAIN STREET,+NEW MIDDLETOWN,+OH+44442&hl=en"
NIAGARA COUNTY NY SHERIFF'S OFFICE,MT. ST. MARY'S HOSPITAL,5300 MILITARY ROAD,LEWISTON,NY,14092,"http://maps.google.com/maps?q=5300 MILITARY ROAD,+LEWISTON,+NY+14092&hl=en"
NORTH COLLINS POLICE DEPARTMENT,NORTH COLLINS POLICE DEPARTMENT,10543 MAIN STREET,NORTH COLLINS,NY,14111,"http://maps.google.com/maps?q=10543 MAIN STREET,+NORTH COLLINS,+NY+14111&hl=en"
NORTH HUNTINGDON TWP. POLICE DEPARTMENT,NORTH HUNTINGDON TWP. TOWNHOUSE NHT MUNICIPAL BUILDING - POLICE DEPT.,11279 CENTER HIGHWAY,NORTH HUNTINGDON,PA,15642,"http://maps.google.com/maps?q=11279 CENTER HIGHWAY,+NORTH HUNTINGDON,+PA+15642&hl=en"
NORTH LONDONDERRY TWP PD,PENN STATE MEDICAL GROUP,941 PARK DR,PALMYRA,PA,17078,"http://maps.google.com/maps?q=941 PARK DR,+PALMYRA,+PA+17078&hl=en"
NORTH ROYALTON POLICE DEPARTMENT,GIANT EAGLE PLAZA AT STATE ROAD,6000 ROYALTON ROAD,NORTH ROYALTON,OH,44133,"http://maps.google.com/maps?q=6000 ROYALTON ROAD,+NORTH ROYALTON,+OH+44133&hl=en"
NORTH ROYALTON POLICE DEPARTMENT,TIMBER RIDGE PLAZA AT YORK ROAD,9199 SPRAGUE ROAD,NORTH ROYALTON,OH,44133,"http://maps.google.com/maps?q=9199 SPRAGUE ROAD,+NORTH ROYALTON,+OH+44133&hl=en"
NORTH TONAWANDA POLICE DEPARTMENT,DEGRAFF MEMORIAL HOSPITAL,445 TREMONT STREET,NORTH TONAWANDA,NY,14120,"http://maps.google.com/maps?q=445 TREMONT STREET,+NORTH TONAWANDA,+NY+14120&hl=en"
NORTHEASTERN REGIONAL POLICE,GIANT FOODS,205 GLEN DR,MANCHESTER,PA,17345,"http://maps.google.com/maps?q=205 GLEN DR,+MANCHESTER,+PA+17345&hl=en"
NORTHUMBERLAND COUNTY SHERIFF'S OFFICE,NORTHUMBERLAND COUNTY COURT HOUSE,201 MARKET STREET,SUNBURY,PA,17801,"http://maps.google.com/maps?q=201 MARKET STREET,+SUNBURY,+PA+17801&hl=en"
NORTHWEST LANCASTER CO REGIONAL POLICE DEPT,GIANT FOOD STORE,1278 N MARKET ST,ELIZABETHTOWN,PA,17022,"http://maps.google.com/maps?q=1278 N MARKET ST,+ELIZABETHTOWN,+PA+17022&hl=en"
NORTON POLICE DEPARTMENT,THE MEDICINE SHOPPE,3300 GREENWICH RD,NORTON,OH,44203,"http://maps.google.com/maps?q=3300 GREENWICH RD,+NORTON,+OH+44203&hl=en"
OAKMONT BOROUGH POLICE,RITE-AID,109 ALLEGHENY RIVER BLVD,OAKMONT,PA,15139,"http://maps.google.com/maps?q=109 ALLEGHENY RIVER BLVD,+OAKMONT,+PA+15139&hl=en"
OLMSTED FALLS POLICE DEPARTMENT,OLMSTED FALLS POLICE DEPARTMENT,26100 BAGLEY ROAD,OLMSTED FALLS,OH,44138,"http://maps.google.com/maps?q=26100 BAGLEY ROAD,+OLMSTED FALLS,+OH+44138&hl=en"
ORCHARD PARK POLICE DEPARTMENT,MERCY AMBULATORY CENTER,3669 SOUTHWESTERN BLVD.,ORCHARD PARK,NY,14127,"http://maps.google.com/maps?q=3669 SOUTHWESTERN BLVD.,+ORCHARD PARK,+NY+14127&hl=en"
ORLEANS COUNTY SHERIFF'S OFFICE,HOLLEY FIRE DEPARTMENT,7 THOMAS STREET,HOLLEY,NY,14470,"http://maps.google.com/maps?q=7 THOMAS STREET,+HOLLEY,+NY+14470&hl=en"
ORLEANS COUNTY SHERIFF'S OFFICE,MEDINA FIRE DEPARTMENT,600 MAIN STREET,MEDINA,NY,14103,"http://maps.google.com/maps?q=600 MAIN STREET,+MEDINA,+NY+14103&hl=en"
ORLEANS COUNTY SHERIFF'S OFFICE,PUBLIC SAFETY BUILDING,13925 STATE ROUTE 31,ALBION,NY,14411,"http://maps.google.com/maps?q=13925 STATE ROUTE 31,+ALBION,+NY+14411&hl=en"
PA STATE POLICE,BOSWELL PRESCRIPTION CENTER,210 OHIO ST,BOSWELL,PA,15531,"http://maps.google.com/maps?q=210 OHIO ST,+BOSWELL,+PA+15531&hl=en"
PA STATE POLICE TROOP H/GETTYSBURG,PA STATE POLICE/TROOP H/GETTYSBURG,3033 OLD HARRISBURG RD,GETTYSBURG,PA,17325,"http://maps.google.com/maps?q=3033 OLD HARRISBURG RD,+GETTYSBURG,+PA+17325&hl=en"
PEPPER PIKE POLICE DEPARTMENT,PEPPER PIKE POLICE DEPARTMENT,28000 SHAKER BLVD,CLEVELAND,OH,44124,"http://maps.google.com/maps?q=28000 SHAKER BLVD,+CLEVELAND,+OH+44124&hl=en"
PERRY VILLAGE PD (LAKE CO),PERRY VILLAGE POLICE DEPARTMENT CHIEF TROY HAGER,3758 CENTER RD.PERRY,PERRY,OH,44081,"http://maps.google.com/maps?q=3758 CENTER RD.,+PERRY,+OH+44081&hl=en"
PETERS TOWNSHIP POLICE DEPARTMENT,GIANT EAGLE,4017 WASHINGTON ROAD,MCMURRAY,PA,15317,"http://maps.google.com/maps?q=4017 WASHINGTON ROAD,+MCMURRAY,+PA+15317&hl=en"
PETERS TOWNSHIP POLICE DEPARTMENT,HEISLER'S MARKET,601 E. MCMURRAY ROAD,MCMURRAY,PA,15317,"http://maps.google.com/maps?q=601 E. MCMURRAY ROAD,+MCMURRAY,+PA+15317&hl=en"
PETERS TOWNSHIP POLICE DEPARTMENT,RITE AID PHARMACY,4185 WASHINGTON RD,MCMURRAY,PA,15317,"http://maps.google.com/maps?q=4185 WASHINGTON RD,+MCMURRAY,+PA+15317&hl=en"
PETERS TOWNSHIP POLICE DEPARTMENT,THE COUNTRY STORE,698 VENETIA RD,VENETIA,PA,15367,"http://maps.google.com/maps?q=698 VENETIA RD,+VENETIA,+PA+15367&hl=en"
PITTSBURGH BUREAU OF POLICE,PHILLIPS RECREATION CENTER,201 PARKFIELD ST,PITTSBURGH,PA,15210,"http://maps.google.com/maps?q=201 PARKFIELD ST,+PITTSBURGH,+PA+15210&hl=en"
PITTSBURGH BUREAU OF POLICE,PITTSBURGH POLICE HEADQUARTERS,1203 WESTERN AVE.,PITTSBURGH,PA,15233,"http://maps.google.com/maps?q=1203 WESTERN AVE.,+PITTSBURGH,+PA+15233&hl=en"
PITTSBURGH BUREAU OF POLICE,ZONE #1 PITTSBURGH POLICE STATION COMMANDER CHRIS RAGLAND,1501 BRIGHTON RD.,PITTSBURGH,PA,15212,"http://maps.google.com/maps?q=1501 BRIGHTON RD.,+PITTSBURGH,+PA+15212&hl=en"
PITTSBURGH BUREAU OF POLICE,ZONE #2 PITTSBURGH POLICE STATION COMMANDER CRISTYN ZETT,2002 CENTRE AVENUE,PITTSBURGH,PA,15219,"http://maps.google.com/maps?q=2002 CENTRE AVENUE,+PITTSBURGH,+PA+15219&hl=en"
PITTSBURGH BUREAU OF POLICE,ZONE #3 PITTSBURGH POLICE STATION COMMANDER KAREN DIXON,830 EAST WARRINGTON AVE.,PITTSBURGH,PA,15210,"http://maps.google.com/maps?q=830 EAST WARRINGTON AVE.,+PITTSBURGH,+PA+15210&hl=en"
PITTSBURGH BUREAU OF POLICE,ZONE #4 PITTSBURGH POLICE STATION COMMANDER DAN HERRMANN,5858 NORTHUMBERLAND STREET,PITTSBURGH,PA,15217,"http://maps.google.com/maps?q=5858 NORTHUMBERLAND STREET,+PITTSBURGH,+PA+15217&hl=en"
PITTSBURGH BUREAU OF POLICE,ZONE #5 PITTSBURGH POLICE STATION COMMANDER JASON LANDO,1401 WASHINGTON BLVD.,PITTSBURGH,PA,15206,"http://maps.google.com/maps?q=1401 WASHINGTON BLVD.,+PITTSBURGH,+PA+15206&hl=en"
PITTSBURGH BUREAU OF POLICE,ZONE #6 PITTSBURGH POLICE STATION COMMANDER STEVEN VINANSKY,312 SOUTH MAIN STREET,PITTSBURGH,PA,15220,"http://maps.google.com/maps?q=312 SOUTH MAIN STREET,+PITTSBURGH,+PA+15220&hl=en"
PLEASANT HILLS POLICE DEPARTMENT,PLEASANT HILLS BOROUGH BUILDING,410 EAST BRUCETON RD,PITTSBURGH,PA,15236,"http://maps.google.com/maps?q=410 EAST BRUCETON RD,+PITTSBURGH,+PA+15236&hl=en"
PLUM BOROUGH POLICE DEPARTMENT,BILL'S HOMETOWN PHARMACY,1095 UNITY CENTER ROAD,PITTSBURGH,PA,15239,"http://maps.google.com/maps?q=1095 UNITY CENTER ROAD,+PITTSBURGH,+PA+15239&hl=en"
PLUM BOROUGH POLICE DEPARTMENT,BILL'S HOMETOWN PHARMACY,2362 GOLDEN MILE HWY,PITTSBURGH,PA,15239,"http://maps.google.com/maps?q=2362 GOLDEN MILE HWY,+PITTSBURGH,+PA+15239&hl=en"
PRINCE WILLIAM CO. PD,NOVANT HEALTH HAYMARKET MEDICAL CENTER FRONT PARKING LOT,15225 HEATHCOTE BLVD,HAYMARKET,VA,20169,"http://maps.google.com/maps?q=15225 HEATHCOTE BLVD,+HAYMARKET,+VA+20169&hl=en"
PUNXSUTAWNEY BOROUGH POLICE DEPARTMENT,PUNXSY HOMETOWN PHARMACY,203 HAMPTON ROAD,PUNXSUTAWNEY,PA,15767,"http://maps.google.com/maps?q=203 HAMPTON ROAD,+PUNXSUTAWNEY,+PA+15767&hl=en"
PURCELLVILLE POLICE DEPARTMENT,FIREMAN'S FIELD,250 S. NURSERY AVENUE,PURCELLVILLE,VA,20132,"http://maps.google.com/maps?q=250 S. NURSERY AVENUE,+PURCELLVILLE,+VA+20132&hl=en"
RANSON POLICE DEPARTMENT,RANSON POLICE DEPARTMENT,700 N. PRESTON ST,RANSON,WV,25438,"http://maps.google.com/maps?q=700 N. PRESTON ST,+RANSON,+WV+25438&hl=en"
RICHLAND TOWNSHIP POLICE DEPT,RICHLAND TOWNSHIP POLICE,322 SCHOOLHOUSE RD,JOHNSTOWN,PA,15904,"http://maps.google.com/maps?q=322 SCHOOLHOUSE RD,+JOHNSTOWN,+PA+15904&hl=en"
ROBINSON TWP. POLICE DEPARTMENT,THE MALL AT ROBINSON PARKING LOT NEAR DICK'S & GOLDEN CORRAL,1000 ROBINSON CENTRE DRIVE,PITTSBURGH,PA,15205,"http://maps.google.com/maps?q=1000 ROBINSON CENTRE DRIVE,+PITTSBURGH,+PA+15205&hl=en"
RUSSELL TOWNSHIP POLICE DEPARTMENT,RUSSELL TOWNSHIP POLICE DEPARTMENT,14820 CHILLICOTHE ROAD,NOVELTY,OH,44072,"http://maps.google.com/maps?q=14820 CHILLICOTHE ROAD,+NOVELTY,+OH+44072&hl=en"
SCHUYLKILL COUNTY SHERIFF'S OFFICE,HEGINS POLICE DEPARTMENT,417 GAP STREET,VALLEY VIEW,PA,17983,"http://maps.google.com/maps?q=417 GAP STREET,+VALLEY VIEW,+PA+17983&hl=en"
SCHUYLKILL COUNTY SHERIFF'S OFFICE,PINE GROVE POLICE DEPARTMENT,ONE SNYDER DRIVE,PINE GROVE,PA,17963,"http://maps.google.com/maps?q=ONE SNYDER DRIVE,+PINE GROVE,+PA+17963&hl=en"
SCHUYLKILL COUNTY SHERIFF'S OFFICE,TREMONT POLICE DEPARTMENT,19 NORTH PINE STREET,TREMONT,PA,17981,"http://maps.google.com/maps?q=19 NORTH PINE STREET,+TREMONT,+PA+17981&hl=en"
SEWICKLEY POLICE DEPARTMENT,SEWICKLEY BOROUGH BUILDING,601 THORN STREET,SEWICKLEY,PA,15143,"http://maps.google.com/maps?q=601 THORN STREET,+SEWICKLEY,+PA+15143&hl=en"
SHADE TOWNSHIP POLICE,BOSWELL PHARMACY SERVICES,131 SCHOOLHOUSE RD,JENNERSTOWN,PA,15547,"http://maps.google.com/maps?q=131 SCHOOLHOUSE RD,+JENNERSTOWN,+PA+15547&hl=en"
SHADE TOWNSHIP POLICE,PENN LAUREL PHARMACY,112 SUNSHINE AVE,CENTRAL CITY,PA,15926,"http://maps.google.com/maps?q=112 SUNSHINE AVE,+CENTRAL CITY,+PA+15926&hl=en"
SHALER POLICE DEPARTMENT,SHALER NORTH HILLS LIBRARY,1822 MT. ROYAL BLVD.,GLENSHAW,PA,15116,"http://maps.google.com/maps?q=1822 MT. ROYAL BLVD.,+GLENSHAW,+PA+15116&hl=en"
SHAMOKIN POLICE DEPARTMENT,SHAMOKIN POLICE DEPARTMENT,511 NORTH FRANKLIN STREET,SHAMOKIN,PA,17872,"http://maps.google.com/maps?q=511 NORTH FRANKLIN STREET,+SHAMOKIN,+PA+17872&hl=en"
SHAWNEE STATE PARK,SHAWNEE STATE PARK OFFICE,132 STATE PARK ROAD,SCHELLSBURG,PA,15559,"http://maps.google.com/maps?q=132 STATE PARK ROAD,+SCHELLSBURG,+PA+15559&hl=en"
SHENANDOAH COUNTY SHERIFF'S OFFICE,CVS PHARMACY PARKING LOT FACING RESERVOIR RD.,221 WEST RESERVOIR ROAD,WOODSTOCK,VA,22664,"http://maps.google.com/maps?q=221 WEST RESERVOIR ROAD,+WOODSTOCK,+VA+22664&hl=en"
SHEPERDSTOWN POLICE DEPARTMENT,SHEPERDSTOWN POLICE DEPARTMENT,104 N. KING ST.,SHEPHERDSTOWN,WV,25443,"http://maps.google.com/maps?q=104 N. KING ST.,+SHEPHERDSTOWN,+WV+25443&hl=en"
SOLON POLICE DEPARTMENT,SOLON SENIOR CENTER,35000 PORTZ PARKWAY,SOLON,OH,44139,"http://maps.google.com/maps?q=35000 PORTZ PARKWAY,+SOLON,+OH+44139&hl=en"
STEUBENVILLE POLICE DEPARTMENT,KROGER,264 S. HOLLYWOOD PLAZA,STEUBENVILLE,OH,43952,"http://maps.google.com/maps?q=264 S. HOLLYWOOD PLAZA,+STEUBENVILLE,+OH+43952&hl=en"
STONYCREEK TOWNSHIP POLICE DEPARTMENT,DAISYTOWN BOROUGH BUILDING,125 LINTER AVENUE,JOHNSTOWN,PA,15902,"http://maps.google.com/maps?q=125 LINTER AVENUE,+JOHNSTOWN,+PA+15902&hl=en"
STONYCREEK TOWNSHIP POLICE DEPARTMENT,EAST HILLS PHARMACY,1111 SCALP AVENUE,JOHNSTOWN,PA,15904,"http://maps.google.com/maps?q=1111 SCALP AVENUE,+JOHNSTOWN,+PA+15904&hl=en"
STONYCREEK TOWNSHIP POLICE DEPARTMENT,MARTELLA'S PHARMACY,1079 FRANKLIN ST,JOHNSTOWN,PA,15905,"http://maps.google.com/maps?q=1079 FRANKLIN ST,+JOHNSTOWN,+PA+15905&hl=en"
STONYCREEK TOWNSHIP POLICE DEPARTMENT,MARTELLA'S PHARMACY,1932 WM PENN HWYPARK HILL,JOHNSTOWN,PA,15909,"http://maps.google.com/maps?q=1932 WM PENN HWY,+JOHNSTOWN,+PA+15909&hl=en"
STONYCREEK TOWNSHIP POLICE DEPARTMENT,OAKLAND VOLUNTEER FIRE DEPT,1714 BEDFORD STREET,JOHNSTOWN,PA,15902,"http://maps.google.com/maps?q=1714 BEDFORD STREET,+JOHNSTOWN,+PA+15902&hl=en"
STONYCREEK TOWNSHIP POLICE DEPARTMENT,RICHLAND FIRE STATION,1321 SCALP AVENUE,JOHNSTOWN,PA,15904,"http://maps.google.com/maps?q=1321 SCALP AVENUE,+JOHNSTOWN,+PA+15904&hl=en"
STONYCREEK TOWNSHIP POLICE DEPARTMENT,RICHLAND VOLUNTEER FIRE DEPT,631 LAMBERD AVENUE,JOHNSTOWN,PA,15904,"http://maps.google.com/maps?q=631 LAMBERD AVENUE,+JOHNSTOWN,+PA+15904&hl=en"
STONYCREEK TOWNSHIP POLICE DEPARTMENT,RIVERSIDE VOLUNTEER FIRE DEPT,615 LIBERTY AVE,JOHNSTOWN,PA,15905,"http://maps.google.com/maps?q=615 LIBERTY AVE,+JOHNSTOWN,+PA+15905&hl=en"
STONYCREEK TOWNSHIP POLICE DEPARTMENT,SOLOMON RUN FIRE STATION,176 MT AIRY DRIVE,JOHNSTOWN,PA,15904,"http://maps.google.com/maps?q=176 MT AIRY DRIVE,+JOHNSTOWN,+PA+15904&hl=en"
STONYCREEK TOWNSHIP POLICE DEPARTMENT,STONYCREEK TOWNSHIP MUNICIPAL BUILDING,1610 BEDFORD ST,JOHNSTOWN,PA,15902,"http://maps.google.com/maps?q=1610 BEDFORD ST,+JOHNSTOWN,+PA+15902&hl=en"
STOW POLICE DEPARTMENT,STOW POLICE DEPARTMENT,3800 DARROW RD,STOW,OH,44224,"http://maps.google.com/maps?q=3800 DARROW RD,+STOW,+OH+44224&hl=en"
STRASBURG POLICE DEPARTMENT,STRASBURG TOWN HALL SIDE PARKING LOT,174 EAST KING STREET,STRASBURG,VA,22657,"http://maps.google.com/maps?q=174 EAST KING STREET,+STRASBURG,+VA+22657&hl=en"
STRONGSVILLE PD,STRONGSVILLE PD,18688 ROYALTON,STRONGSVILLE,OH,44136,"http://maps.google.com/maps?q=18688 ROYALTON,+STRONGSVILLE,+OH+44136&hl=en"
SUMMA HEALTH POLICE DEPARTMENT,SUMMA HEALTH MEDINA MEDICAL CENTER,3780 MEDINA RD,MEDINA,OH,44256,"http://maps.google.com/maps?q=3780 MEDINA RD,+MEDINA,+OH+44256&hl=en"
SUMMIT COUNTY SHERIFF / DRUG UNIT,SUMMIT COUNTY SHERIFF'S OFFICE / DRUG UNIT,393 E. TURKEYFOOT LAKE ROAD,AKRON,OH,44319,"http://maps.google.com/maps?q=393 E. TURKEYFOOT LAKE ROAD,+AKRON,+OH+44319&hl=en"
SUSQUEHANNA TOWNSHIP POLICE DEPARTMENT,GIANT FOOD STORE,2300 LINGLESTOWN RD.,HARRISBURG,PA,17110,"http://maps.google.com/maps?q=2300 LINGLESTOWN RD.,+HARRISBURG,+PA+17110&hl=en"
TALLMADGE POLICE DEPARTMENT,ACME FRESH MARKET,600 SOUTH AVENUE,TALLMADGE,OH,44278,"http://maps.google.com/maps?q=600 SOUTH AVENUE,+TALLMADGE,+OH+44278&hl=en"
TALLMADGE POLICE DEPARTMENT,TALLMADGE POLICE DEPARTMENT,53 NORTHEAST AVE,TALLMADGE,OH,44278,"http://maps.google.com/maps?q=53 NORTHEAST AVE,+TALLMADGE,+OH+44278&hl=en"
TONAWANDA POLICE DEPARTMENT,KENMORE MERCY HOSPITAL,2950 ELMWOOD AVENUE,KENMORE,NY,14217,"http://maps.google.com/maps?q=2950 ELMWOOD AVENUE,+KENMORE,+NY+14217&hl=en"
TOWN NIAGARA POLICE DEPARTMENT,WEGMAN'S,1577 MILITARY ROAD,NIAGARA FALLS,NY,14304,"http://maps.google.com/maps?q=1577 MILITARY ROAD,+NIAGARA FALLS,+NY+14304&hl=en"
TOWN OF BATH POLICE DEPARTMENT,MORGAN COUNTY HEALTH DEPARTMENT POC: BILL KEARNS,137 WAR MEMORIAL DR.,BERKELEY SPRINGS,WV,25411,"http://maps.google.com/maps?q=137 WAR MEMORIAL DR.,+BERKELEY SPRINGS,+WV+25411&hl=en"
TOWN OF HAMBURG POLICE DEPARTMENT,WEGMANS,3740 MCKINLEY PARKWAY,BUFFALO,NY,14219,"http://maps.google.com/maps?q=3740 MCKINLEY PARKWAY,+BUFFALO,+NY+14219&hl=en"
UNIVERSITY OF PITTSBURGH MED CTR,"CHILDREN'S HOSPITAL OF PITTSBURGH OF UPMC OUTPATIENT PHARMACY LOBBY (FRIDAY) OCT 26, 2018",4401 PENN AVE,PITTSBURGH,PA,15224,"http://maps.google.com/maps?q=4401 PENN AVE,+PITTSBURGH,+PA+15224&hl=en"
UNIVERSITY OF PITTSBURGH MED CTR,"FALK PHARMACY: FALK MEDICAL BDG 2ND FLOOR LOBBY FRIDAY) OCT 26, 2018",3601 FIFTH AVE.,PITTSBURGH,PA,15213,"http://maps.google.com/maps?q=3601 FIFTH AVE.,+PITTSBURGH,+PA+15213&hl=en"
UNIVERSITY OF PITTSBURGH MED CTR,"FORBES PHARMACY OF WPIC: OXFORD BUILDING 7TH FLOOR (FRIDAY) OCT 26, 2018",3501 FORBES AVE.,PITTSBURGH,PA,15213,"http://maps.google.com/maps?q=3501 FORBES AVE.,+PITTSBURGH,+PA+15213&hl=en"
UNIVERSITY OF PITTSBURGH MED CTR,"FORBES TOWER MAIN LOBBY FRIDAY) OCT 26, 2018",4028 FORBES AVENUE,PITTSBURGH,PA,15260,"http://maps.google.com/maps?q=4028 FORBES AVENUE,+PITTSBURGH,+PA+15260&hl=en"
UNIVERSITY OF PITTSBURGH MED CTR,"HILLMAN CANCER CENTER GROUND FLOOR ATRIUM FRIDAY) OCT 26, 2018",5115 CENTRE AVE.,PITTSBURGH,PA,15232,"http://maps.google.com/maps?q=5115 CENTRE AVE.,+PITTSBURGH,+PA+15232&hl=en"
UNIVERSITY OF PITTSBURGH MED CTR,"MAGEE-WOMENS HOSPITAL OF UPMC MAIN LOBBY, ZERO LEVEL (FRIDAY) OCT 26, 2018",300 HALKET STREET,PITTSBURGH,PA,15213,"http://maps.google.com/maps?q=300 HALKET STREET,+PITTSBURGH,+PA+15213&hl=en"
UNIVERSITY OF PITTSBURGH MED CTR,"U.S. STEEL TOWER-FRI. MYHEALTH@WORK, FLOOR 12 (FRIDAY)FRIDAY) OCT 26, 2018",600 GRANT STREET,PITTSBURGH,PA,15219,"http://maps.google.com/maps?q=600 GRANT STREET,+PITTSBURGH,+PA+15219&hl=en"
UNIVERSITY OF PITTSBURGH MED CTR,"UPMC EAST MAIN LOBBY FRIDAY) OCT 26, 2018",2775 MOSSIDE BLVD,MONROEVILLE,PA,15146,"http://maps.google.com/maps?q=2775 MOSSIDE BLVD,+MONROEVILLE,+PA+15146&hl=en"
UNIVERSITY OF PITTSBURGH MED CTR,"UPMC HAMOT WOMEN'S HOSPITAL LOBBY FRIDAY) OCT 26, 2018",201 STATE STREET,ERIE,PA,16550,"http://maps.google.com/maps?q=201 STATE STREET,+ERIE,+PA+16550&hl=en"
UNIVERSITY OF PITTSBURGH MED CTR,"UPMC MCKEESPORT 1-CRAWFORD PATIENT DISCHARGE LOUNGE FRIDAY) OCT 26, 2018",1500 FIFTH AVE,MCKEESPORT,PA,15132,"http://maps.google.com/maps?q=1500 FIFTH AVE,+MCKEESPORT,+PA+15132&hl=en"
UNIVERSITY OF PITTSBURGH MED CTR,"UPMC MERCY: CAFETERIA 2ND FLOOR (FRIDAY) OCT 26, 2018",1400 LOCUST STREET,PITTSBURGH,PA,15219,"http://maps.google.com/maps?q=1400 LOCUST STREET,+PITTSBURGH,+PA+15219&hl=en"
UNIVERSITY OF PITTSBURGH MED CTR,"UPMC PASSAVANT MAIN LOBBY, MCCANDLESS CAMPUS (FRIDAY) OCT 26, 2018",9100 BABCOCK BLVD,PITTSBURGH,PA,15237,"http://maps.google.com/maps?q=9100 BABCOCK BLVD,+PITTSBURGH,+PA+15237&hl=en"
UNIVERSITY OF PITTSBURGH MED CTR,"UPMC PRESBYTERIAN, PRESCRIPTION SHOP FRIDAY) OCT 26, 2018",200 LOTHROP STREET,PITTSBURGH,PA,15213,"http://maps.google.com/maps?q=200 LOTHROP STREET,+PITTSBURGH,+PA+15213&hl=en"
UNIVERSITY OF PITTSBURGH MED CTR,"UPMC SHERWOOD OAKS FRIDAY) OCT 26, 2018",100 NORMAN DRIVE,CRANBERRY TOWNSHIP,PA,16066,"http://maps.google.com/maps?q=100 NORMAN DRIVE,+CRANBERRY TOWNSHIP,+PA+16066&hl=en"
UNIVERSITY OF PITTSBURGH POLICE DEPARTMENT,UNIVERSITY PHARMACY MARK A. NORDENBERG HALL,111 UNIVERSITY PLACE,PITTSBURGH,PA,15213,"http://maps.google.com/maps?q=111 UNIVERSITY PLACE,+PITTSBURGH,+PA+15213&hl=en"
UPMC HAMOT POLICE,"HAMOT WOMEN'S HOSPITAL EVENT IS ON FRIDAY OCTOBER 26, 10AM-2PM",104 2ND STREET,ERIE,PA,16550,"http://maps.google.com/maps?q=104 2ND STREET,+ERIE,+PA+16550&hl=en"
UPPER ST. CLAIR POLICE DEPARTMENT,UPPER ST. CLAIR POLICE DEPARTMENT,1820 MCLAUGHLIN RUN ROAD,PITTSBURGH,PA,15241,"http://maps.google.com/maps?q=1820 MCLAUGHLIN RUN ROAD,+PITTSBURGH,+PA+15241&hl=en"
WARREN COUNTY SHERIFF'S OFFICE,VALLEY HEALTH REHABILITATION SERVICES,120 NORTH COMMERCE AVE,FRONT ROYAL,VA,22630,"http://maps.google.com/maps?q=120 NORTH COMMERCE AVE,+FRONT ROYAL,+VA+22630&hl=en"
WARREN COUNTY SHERIFF'S OFFICE,YOUNGSVILLE POLICE DEPARTMENT,40 RAILROAD STREET,YOUNGSVILLE,PA,16371,"http://maps.google.com/maps?q=40 RAILROAD STREET,+YOUNGSVILLE,+PA+16371&hl=en"
WATSONTOWN POLICE DEPARTMENT,WATSONTOWN PD,318 MAIN ST,WATSONTOWN,PA,17777,"http://maps.google.com/maps?q=318 MAIN ST,+WATSONTOWN,+PA+17777&hl=en"
WEIRTON PD,WEIRTON POLICE DEPT,200 MUNICIPAL PLAZA,WEIRTON,WV,26062,"http://maps.google.com/maps?q=200 MUNICIPAL PLAZA,+WEIRTON,+WV+26062&hl=en"
WELLSBORO POLICE DEPARTMENT,WELLSBORO POLICE DEPT,28 CRAFTON ST,WELLSBORO,PA,16901,"http://maps.google.com/maps?q=28 CRAFTON ST,+WELLSBORO,+PA+16901&hl=en"
WEST MANCHESTER TOWNSHIP POLICE DEPT,GIANT,1255 CARLISLE RD,YORK,PA,17404,"http://maps.google.com/maps?q=1255 CARLISLE RD,+YORK,+PA+17404&hl=en"
WEST SENECA POLICE DEPARTMENT,WEST SENECA SENIOR CENTER,4620 SENECA STREET,WEST SENECA,NY,14224,"http://maps.google.com/maps?q=4620 SENECA STREET,+WEST SENECA,+NY+14224&hl=en"
WEST VIRGINIA STATE POLICE,WEST VIRGINIA STATE POLICE SGT J.R FLETCHER/3048223561,525 DEPOT STREET,ROMNEY,WV,26757,"http://maps.google.com/maps?q=525 DEPOT STREET,+ROMNEY,+WV+26757&hl=en"
WEST VIRGINIA STATE POLICE,WVSP-CHARLES TOWN SGT J.S. CHUMLEY/304-725-9779,409 INDUSTRIAL BLVD.,KEARNEYSVILLE,WV,25430,"http://maps.google.com/maps?q=409 INDUSTRIAL BLVD.,+KEARNEYSVILLE,+WV+25430&hl=en"
WEST VIRGINIA STATE POLICE,WVSP-KEYSER SGT. S.B. HUFFMAN/3047881101,"730 FORT ASHBY RDRT 1, BOX 172D",KEYSER,WV,26726,"http://maps.google.com/maps?q=730 FORT ASHBY RD,+KEYSER,+WV+26726&hl=en"
WEST VIRGINIA STATE POLICE,WVSP-MARTINSBURG SGT M.A. COLE/3042670001,14 TROOPER DR,MARTINSBURG,WV,25404,"http://maps.google.com/maps?q=14 TROOPER DR,+MARTINSBURG,+WV+25404&hl=en"
WESTSHORE ENFORCEMENT BUREAU NARC. TASK FORCE,BAY VILLAGE POLICE DEPARTMENT,28000 WOLF RD.,BAY VILLAGE,OH,44140,"http://maps.google.com/maps?q=28000 WOLF RD.,+BAY VILLAGE,+OH+44140&hl=en"
WESTSHORE ENFORCEMENT BUREAU NARC. TASK FORCE,FAIRVIEW PARK POLICE DEPARTMENT,20777 LORAIN RD.,FAIRVIEW PARK,OH,44126,"http://maps.google.com/maps?q=20777 LORAIN RD.,+FAIRVIEW PARK,+OH+44126&hl=en"
WESTSHORE ENFORCEMENT BUREAU NARC. TASK FORCE,LAKEWOOD POLICE DEPARTMENT,12650 DETROIT AVE.,LAKEWOOD,OH,44107,"http://maps.google.com/maps?q=12650 DETROIT AVE.,+LAKEWOOD,+OH+44107&hl=en"
WESTSHORE ENFORCEMENT BUREAU NARC. TASK FORCE,NORTH OLMSTED POLICE DEPARTMENT,27243 LORAIN ROAD,NORTH OLMSTED,OH,44070,"http://maps.google.com/maps?q=27243 LORAIN ROAD,+NORTH OLMSTED,+OH+44070&hl=en"
WESTSHORE ENFORCEMENT BUREAU NARC. TASK FORCE,ROCKY RIVER POLICE DEPARTMENT,21012 HILLIARD BLVD.,ROCKY RIVER,OH,44116,"http://maps.google.com/maps?q=21012 HILLIARD BLVD.,+ROCKY RIVER,+OH+44116&hl=en"
WESTSHORE ENFORCEMENT BUREAU NARC. TASK FORCE,WESTLAKE POLICE DEPT.,27300 HILLIARD BLVD.,WESTLAKE,OH,44145,"http://maps.google.com/maps?q=27300 HILLIARD BLVD.,+WESTLAKE,+OH+44145&hl=en"
WILKINS TOWNSHIP POLICE DEPT,WILKINS ELK LODGE,718 BROWN AVE,TURTLE CREEK,PA,15145,"http://maps.google.com/maps?q=718 BROWN AVE,+TURTLE CREEK,+PA+15145&hl=en"
WILLOWICK POLICE DEPARTMENT,WILLOWICK POLICE DEPARTMENT,30435LAKESHORE BLVD.,WILLOWICK,OH,44095,"http://maps.google.com/maps?q=30435,+WILLOWICK,+OH+44095&hl=en"
WINCHESTER CITY SHERIFF'S OFFICE,COURTHOUSE,5 NORTH KENT ST,WINCHESTER,VA,22601,"http://maps.google.com/maps?q=5 NORTH KENT ST,+WINCHESTER,+VA+22601&hl=en"
WINCHESTER CITY SHERIFF'S OFFICE,CVS PHARMACY,840 BERRYVILLE AV,WINCHESTER,VA,22601,"http://maps.google.com/maps?q=840 BERRYVILLE AV,+WINCHESTER,+VA+22601&hl=en"
WINCHESTER CITY SHERIFF'S OFFICE,ROTZ PHARMACY,1338 AMHERST ST,WINCHESTER,VA,22601,"http://maps.google.com/maps?q=1338 AMHERST ST,+WINCHESTER,+VA+22601&hl=en"
WINDBER BOROUGH POLICE DEPT,MARTELLA'S PHARMACY,901 GRAHAM AVE,WINDBER,PA,15963,"http://maps.google.com/maps?q=901 GRAHAM AVE,+WINDBER,+PA+15963&hl=en"
WOODSTOCK POLICE DEPARTMENT,WALMART NEAR FRONT ENTRANCE,461 W. RESERVOIR RD,WOODSTOCK,VA,22664,"http://maps.google.com/maps?q=461 W. RESERVOIR RD,+WOODSTOCK,+VA+22664&hl=en"
WYOMING COUNTY SHERIFF'S DEPARTMENT,ATTICA POLICE DEPARTMENT,43 EXCHNAGE STREET,ATTICA,NY,14011,"http://maps.google.com/maps?q=43 EXCHNAGE STREET,+ATTICA,+NY+14011&hl=en"
WYOMING COUNTY SHERIFF'S DEPARTMENT,PERRY POLICE DEPARTMENT,46 NORTH MAIN STREET,PERRY,NY,14530,"http://maps.google.com/maps?q=46 NORTH MAIN STREET,+PERRY,+NY+14530&hl=en"
WYOMING COUNTY SHERIFF'S DEPARTMENT,WYOMING COUNTY SHERIFF'S OFFICE,151 N. MAIN STREET,WARSAW,NY,14569,"http://maps.google.com/maps?q=151 N. MAIN STREET,+WARSAW,+NY+14569&hl=en"
YORK CITY POLICE DEPT,CENTRAL MARKET,34 W PHILADELPHIA ST,YORK,PA,17401,"http://maps.google.com/maps?q=34 W PHILADELPHIA ST,+YORK,+PA+17401&hl=en"
YOUNGSTOWN STATE UNIVERSITY PUBLIC SAFETY,YOUNGSTOWN STATE UNIVERSITY POLICE,266 WEST WOOD STREET,YOUNGSTOWN,OH,44555,"http://maps.google.com/maps?q=266 WEST WOOD STREET,+YOUNGSTOWN,+OH+44555&hl=en"
YOUNGSVILLE BOROUGH POLICE DEPARTMENT,YOUNGSVILLE MUNICIPAL BUILDING,40 RAILROAD STREET,YOUNGSVILLE,PA,16371,"http://maps.google.com/maps?q=40 RAILROAD STREET,+YOUNGSVILLE,+PA+16371&hl=en"
