Participant,CollectionSite,Address,City,State,Zip,MapURL
13TH JUDICIAL DTF,ELDORADO POLICE DEPARTMENT,402 NORTH WEST AVE,EL DORADO,AR,71730,"http://maps.google.com/maps?q=402 NORTH WEST AVE,+EL DORADO,+AR+71730&hl=en"
2D SECURITY FORCES SQUADRON,BARKSDALE AIR FORCE BASE EXCHANGE,4771 CURTISS RD,BARKSDALE AFB,LA,71110,"http://maps.google.com/maps?q=4771 CURTISS RD,+BARKSDALE AFB,+LA+71110&hl=en"
ALABAMA COUSHATTA POLICE DEPARTMENT,ALABAMA COUSHATTA POLICE DEPARTMENT,571 STATE PARK ROAD 56,LIVINGSTON,TX,77351,"http://maps.google.com/maps?q=571 STATE PARK ROAD 56,+LIVINGSTON,+TX+77351&hl=en"
ALEXANDER POLICE DEPARTMENT,ALEXANDRIA POLICE DEPARTMENT,1000 BOLTON,ALEXANDRIA,LA,71301,"http://maps.google.com/maps?q=1000 BOLTON,+ALEXANDRIA,+LA+71301&hl=en"
ALLEN POLICE DEPARTMENT,LOWERY FRESHMAN CENTER,300 BLK OF N GREENVILLE AVE.,ALLEN,TX,75002,"http://maps.google.com/maps?q=300 BLK OF N GREENVILLE AVE.,+ALLEN,+TX+75002&hl=en"
ANNA POLICE DEPARTMENT,ANNA POLICE DEPARTMENT,101 S. POWELL PARKWAY,ANNA,TX,75409,"http://maps.google.com/maps?q=101 S. POWELL PARKWAY,+ANNA,+TX+75409&hl=en"
ARGYLE POLICE DEPARTMENT,ARGYLE POLICE DEPARTMENT,506 N. HWY 377,ARGYLE,TX,76226,"http://maps.google.com/maps?q=506 N. HWY 377,+ARGYLE,+TX+76226&hl=en"
ARKADELPHIA POLICE DEPARTMENT,CLARK COUNTY COURTHOUSE,401 CLAY STREET,ARKADELPHIA,AR,71923,"http://maps.google.com/maps?q=401 CLAY STREET,+ARKADELPHIA,+AR+71923&hl=en"
ARLINGTON PD,ARLINGTON POLICE DEPARTMENT EAST DISTRICT,2001 NEW YORK,ARLINGTON,TX,76010,"http://maps.google.com/maps?q=2001 NEW YORK,+ARLINGTON,+TX+76010&hl=en"
ARLINGTON PD,ARLINGTON POLICE DEPARTMENT NORTH DISTRICT,620 W. DIVISION,ARLINGTON,TX,76011,"http://maps.google.com/maps?q=620 W. DIVISION,+ARLINGTON,+TX+76011&hl=en"
ARLINGTON PD,ARLINGTON POLICE DEPARTMENT SOUTH DISTRICT,1030 S.W. GREEN OAKS BLVD.,ARLINGTON,TX,76017,"http://maps.google.com/maps?q=1030 S.W. GREEN OAKS BLVD.,+ARLINGTON,+TX+76017&hl=en"
ARLINGTON PD,WALGREEN'S PHARMACY,4400 W. GREEN OAKS BLVD.,ARLINGTON,TX,76016,"http://maps.google.com/maps?q=4400 W. GREEN OAKS BLVD.,+ARLINGTON,+TX+76016&hl=en"
ATHENS POLICE DEPT,ATHENS PARTNERSHIP CENTER,201 W. CORSICANA ST,ATHENS,TX,75751,"http://maps.google.com/maps?q=201 W. CORSICANA ST,+ATHENS,+TX+75751&hl=en"
BALCH SPRINGS POLICE DEPARTMENT,BALCH SPRINGS POLICE DEPARTMENT,12500 ELAM ROAD,BALCH SPRINGS,TX,75180,"http://maps.google.com/maps?q=12500 ELAM ROAD,+BALCH SPRINGS,+TX+75180&hl=en"
BARTONVILLE POLICE DEPARTMENT,BARTONVILLE POLICE DEPARTMENT,1941 EAST JETER RD,BARTONVILLE,TX,76226,"http://maps.google.com/maps?q=1941 EAST JETER RD,+BARTONVILLE,+TX+76226&hl=en"
BASTROP COUNTY SHERIFF'S OFFICE,TRACTOR SUPPLY COMPANY,441 TEXAS 71,BASTROP,TX,78602,"http://maps.google.com/maps?q=441 TEXAS 71,+BASTROP,+TX+78602&hl=en"
BAYLOR POLICE DEPARTMENT,BAYLOR POLICE DEPARTMENT,1521 SOUTH 4TH,WACO,TX,76798,"http://maps.google.com/maps?q=1521 SOUTH 4TH,+WACO,+TX+76798&hl=en"
BAYTOWN POLICE DEPARTMENT,BAYTOWN POLICE DEPARTMENT RANDELL MORRIS,3200 NORTH MAIN STREET,BAYTOWN,TX,77521,"http://maps.google.com/maps?q=3200 NORTH MAIN STREET,+BAYTOWN,+TX+77521&hl=en"
BEAUMONT ROGERS PARK,ROGERS PARK,1455 DOWLEN ROAD,BEAUMONT,TX,77706,"http://maps.google.com/maps?q=1455 DOWLEN ROAD,+BEAUMONT,+TX+77706&hl=en"
BEAUREGARD PARISH SHERIFF'S DEPARTMENT,BEAUREGARD PARISH SHERIFF'S DEPARTMENT,412 BOLIVAR BISHOP DRIVE,DERIDDER,LA,70634,"http://maps.google.com/maps?q=412 BOLIVAR BISHOP DRIVE,+DERIDDER,+LA+70634&hl=en"
BEDFORD PD,BEDFORD POLICE DEPARTMENT,2121 L. DON DODSON DR.,BEDFORD,TX,76021,"http://maps.google.com/maps?q=2121 L. DON DODSON DR.,+BEDFORD,+TX+76021&hl=en"
BELLAIRE POLICE DEPARTMENT,BELLAIRE POLICE DEPARTMENT,7008 SOUTH RICE AVENUE,BELLAIRE,TX,77401,"http://maps.google.com/maps?q=7008 SOUTH RICE AVENUE,+BELLAIRE,+TX+77401&hl=en"
BELLMEAD POLICE DEPARTMENT,BELLMEAD POLICE DEPARTMENT,701 MAXFIELD ST.,WACO,TX,76705,"http://maps.google.com/maps?q=701 MAXFIELD ST.,+WACO,+TX+76705&hl=en"
BENBROOK PD,BENBROOK FIRE DEPARTMENT,528 MERCEDES ST,BENBROOK,TX,76126,"http://maps.google.com/maps?q=528 MERCEDES ST,+BENBROOK,+TX+76126&hl=en"
BI-STATE NARCOTICS TASK FORCE,TEXARKANA EMERGENCY CENTER,4646 COWHORN CREEK,TEXARKANA,TX,75503,"http://maps.google.com/maps?q=4646 COWHORN CREEK,+TEXARKANA,+TX+75503&hl=en"
BOWIE POLICE DEPARTMENT,BOWIE POLICE DEPARTMENT,302 LINDSEY STREET,DALLAS,TX,75230,"http://maps.google.com/maps?q=302 LINDSEY STREET,+DALLAS,+TX+75230&hl=en"
BRAZORIA COUNTY CONSTABLE PCT 3,REFLECTIVE BAY PARK @ SHADOW CREEK,12115 S. CLEAR LAKE LOOP,PEARLAND,TX,77584,"http://maps.google.com/maps?q=12115 S. CLEAR LAKE LOOP,+PEARLAND,+TX+77584&hl=en"
BRAZORIA COUNTY CONSTABLE PCT 3,STELLA ROBERTS RECYCLING CENTER,5800 MAGNOLIA,PEARLAND,TX,77584,"http://maps.google.com/maps?q=5800 MAGNOLIA,+PEARLAND,+TX+77584&hl=en"
BURLESON PD,BURLESON POLICE DEPARTMENT,1161 SW WILSHIRE BLVD,BURLESON,TX,76028,"http://maps.google.com/maps?q=1161 SW WILSHIRE BLVD,+BURLESON,+TX+76028&hl=en"
CADDO PARISH SHERIFF'S OFFICE,SHERIFF'S SAFETY TOWN,8910 JEWELLA AVENUE,SHREVEPORT,LA,71118,"http://maps.google.com/maps?q=8910 JEWELLA AVENUE,+SHREVEPORT,+LA+71118&hl=en"
CALHOUN COUNTY SHERIFF'S DEPARTMENT,CALHOUN COUNTY DETENTION CENTER PERMANENT DROP BOX,449 9TH ST,HAMPTON,AR,71744,"http://maps.google.com/maps?q=449 9TH ST,+HAMPTON,+AR+71744&hl=en"
CARROLLTON PD,CARROLLTON PD,2025 E JACKSON RD,CARROLLTON,TX,75006,"http://maps.google.com/maps?q=2025 E JACKSON RD,+CARROLLTON,+TX+75006&hl=en"
CARROLLTON PD,HEBRON VALLEY ELEMENTARY SCHOOL,4108 CREEK VALLEY BLVD,CARROLLTON,TX,75010,"http://maps.google.com/maps?q=4108 CREEK VALLEY BLVD,+CARROLLTON,+TX+75010&hl=en"
CEDAR HILL PD,WALGREENS,502 E. BELTLINE RD,CEDAR HILL,TX,75104,"http://maps.google.com/maps?q=502 E. BELTLINE RD,+CEDAR HILL,+TX+75104&hl=en"
CEDAR PARK POLICE DEPARTMENT,CEDAR PARK POLICE DEPARTMENT,911 QUEST PARKWAY,CEDAR PARK,TX,78613,"http://maps.google.com/maps?q=911 QUEST PARKWAY,+CEDAR PARK,+TX+78613&hl=en"
CELINA POLICE DEPARTMENT,CELINA FIRE DEPARTMENT,1413 S PRESTON RD,CELINA,TX,75009,"http://maps.google.com/maps?q=1413 S PRESTON RD,+CELINA,+TX+75009&hl=en"
CLAIBORNE PARISH S.O.,COURT HOUSE SQUARE,WEST MAIN STREET,HOMER,LA,71040,"http://maps.google.com/maps?q=WEST MAIN STREET,+HOMER,+LA+71040&hl=en"
CLEAR LAKE ISLAMIC CENTER,CLEAR LAKE ISLAMIC CENTER,17511 EL CAMINO REAL,HOUSTON,TX,77058,"http://maps.google.com/maps?q=17511 EL CAMINO REAL,+HOUSTON,+TX+77058&hl=en"
CLEBURNE PD,CLEBURNE MUNICIPAL COURT PARKING LOT,303 W. HENDERSON,CLEBURNE,TX,76033,"http://maps.google.com/maps?q=303 W. HENDERSON,+CLEBURNE,+TX+76033&hl=en"
CLEVELAND POLICE DEPARTMENT,CLEVELAND POLICE DEPARTMENT,226 PEACH STREET,CLEVELAND,TX,77327,"http://maps.google.com/maps?q=226 PEACH STREET,+CLEVELAND,+TX+77327&hl=en"
COALITION OF SUBSTANCE ABUSE PREVENTION,CHURCH OF CHAMPIONS,12922 CUTTEN RD,HOUSTON,TX,77066,"http://maps.google.com/maps?q=12922 CUTTEN RD,+HOUSTON,+TX+77066&hl=en"
COALITION OF SUBSTANCE ABUSE PREVENTION,COALITION OF SUBSTANCE ABUSE PREVENTION HOUSTON COMMUNITY COLLEGE,1010 WEST SAM HOUSTON PARKWAY NORTH(MAIN ENTRANCE),HOUSTON,TX,77043,"http://maps.google.com/maps?q=1010 WEST SAM HOUSTON PARKWAY NORTH,+HOUSTON,+TX+77043&hl=en"
COLLEYVILLE PD,COLLEYVILLE SENIOR CENTER,2512 GLADE RD,COLLEYVILLE,TX,76034,"http://maps.google.com/maps?q=2512 GLADE RD,+COLLEYVILLE,+TX+76034&hl=en"
COLONY PD,THE COLONY HIGH SCHOOL,4301 BLAIR OAKS,THE COLONY,TX,75056,"http://maps.google.com/maps?q=4301 BLAIR OAKS,+THE COLONY,+TX+75056&hl=en"
COLORADO COUNTY SHERIFF'S DEPARTMENT,COLORADO COUNTY SHERIFF'S DEPARTMENT,2215 WALNUT,COLUMBUS,TX,78934,"http://maps.google.com/maps?q=2215 WALNUT,+COLUMBUS,+TX+78934&hl=en"
COLORADO COUNTY SHERIFF'S DEPARTMENT,EAGLE LAKE POLICE DEPARTMENT,200 EAST POST OFFICE,EAGLE LAKE,TX,77434,"http://maps.google.com/maps?q=200 EAST POST OFFICE,+EAGLE LAKE,+TX+77434&hl=en"
COLORADO COUNTY SHERIFF'S DEPARTMENT,WEIMAR CITY HALL,106 EAST MAIN,WEIMAR,TX,78962,"http://maps.google.com/maps?q=106 EAST MAIN,+WEIMAR,+TX+78962&hl=en"
CONROE POLICE DEPARTMENT,CONROE POLICE DEPARTMENT,2300 PLANTATION DRIVE,CONROE,TX,77303,"http://maps.google.com/maps?q=2300 PLANTATION DRIVE,+CONROE,+TX+77303&hl=en"
COPPELL POLICE DEPT,COPPELL POLICE DEPARTMENT,130 TOWN CENTER BLVD,COPPELL,TX,75019,"http://maps.google.com/maps?q=130 TOWN CENTER BLVD,+COPPELL,+TX+75019&hl=en"
CORSICANA ISD POLICE DEPT.,FIRST BAPTIST CHURCH CHURCH PARKING,510 W. COLLIN,CORSICANA,TX,75110,"http://maps.google.com/maps?q=510 W. COLLIN,+CORSICANA,+TX+75110&hl=en"
CORYELL COUNTY SHERIFF'S OFFICE,CORYELL COUNTY SHERIFF'S OFFICE,510 LEON STREET,GATESVILLE,TX,76528,"http://maps.google.com/maps?q=510 LEON STREET,+GATESVILLE,+TX+76528&hl=en"
CROWLEY PD,CROWLEY PD,617 BUSINESS FM 1187 W,CROWLEY,TX,76036,"http://maps.google.com/maps?q=617 BUSINESS FM 1187 W,+CROWLEY,+TX+76036&hl=en"
CYFAIR VFD STATION 11,CYFAIR VFD STATION 11,18132 WEST ROAD,CYPRESS,TX,77433,"http://maps.google.com/maps?q=18132 WEST ROAD,+CYPRESS,+TX+77433&hl=en"
DAINGERFIELD PD,DAINGERFIELD/LONE STAR ISD HS PARKINGLOT,200 TIGER DR,DAINGERFIELD,TX,75638,"http://maps.google.com/maps?q=200 TIGER DR,+DAINGERFIELD,+TX+75638&hl=en"
DALLAS COUNTY COMMUNITY COLLEGE POLICE,CEDAR VALLEY COLLEGE/DCCCD,"3030 NORTH DALLAS AVE, PARKING LOT S-3",LANCASTER,TX,75134,"http://maps.google.com/maps?q=3030 NORTH DALLAS AVE, PARKING LOT S-3,+LANCASTER,+TX+75134&hl=en"
DALLAS COUNTY COMMUNITY COLLEGE POLICE,GARLAND CAMPUS/DCCCD NORTH LOT,675 W. WALNUT ST.,GARLAND,TX,75040,"http://maps.google.com/maps?q=675 W. WALNUT ST.,+GARLAND,+TX+75040&hl=en"
DALLAS COUNTY COMMUNITY COLLEGE POLICE,RICHLAND COLLEGE/DCCCD PARKING LOT E,12800 ABRAMS ROAD,DALLAS,TX,75243,"http://maps.google.com/maps?q=12800 ABRAMS ROAD,+DALLAS,+TX+75243&hl=en"
DALLAS COUNTY HOSP DIST PD,AMBULATORY SURGERY CENTER,4900 HARRY HINES BLVD,DALLAS,TX,75235,"http://maps.google.com/maps?q=4900 HARRY HINES BLVD,+DALLAS,+TX+75235&hl=en"
DALLAS COUNTY HOSP DIST PD,BLUITT-FLOWERS CENTER,303 E OVERTON RD,DALLAS,TX,75216,"http://maps.google.com/maps?q=303 E OVERTON RD,+DALLAS,+TX+75216&hl=en"
DALLAS COUNTY HOSP DIST PD,DEHARO-SALDIVAR CENTER,1400 N WESTMORELAND RD,DALLAS,TX,75211,"http://maps.google.com/maps?q=1400 N WESTMORELAND RD,+DALLAS,+TX+75211&hl=en"
DALLAS COUNTY HOSP DIST PD,GARLAND CENTER,802 HOPKINS ST,GARLAND,TX,75040,"http://maps.google.com/maps?q=802 HOPKINS ST,+GARLAND,+TX+75040&hl=en"
DALLAS COUNTY HOSP DIST PD,SOUTHEAST DALLAS CENTER,9202 ELAM RD,DALLAS,TX,75217,"http://maps.google.com/maps?q=9202 ELAM RD,+DALLAS,+TX+75217&hl=en"
DALLAS COUNTY HOSP DIST PD,VICKERY WOMEN'S HEALTH CENTER,8224 PARK LN,DALLAS,TX,75231,"http://maps.google.com/maps?q=8224 PARK LN,+DALLAS,+TX+75231&hl=en"
DALLAS ISD POLICE DEPARTMENT,DAVID W. CARTER HIGH SCHOOL,1819 W. WHEATLAND RD,DALLAS,TX,75232,"http://maps.google.com/maps?q=1819 W. WHEATLAND RD,+DALLAS,+TX+75232&hl=en"
DALLAS ISD POLICE DEPARTMENT,WOODROW WILSON HIGH SCHOOL,100 S. GLASGOW DR.,DALLAS,TX,75214,"http://maps.google.com/maps?q=100 S. GLASGOW DR.,+DALLAS,+TX+75214&hl=en"
DALLAS POLICE DEPARTMENT,BECKLEY SANER RECREATION CENTER,114 W. HOBSON AVE,DALLAS,TX,75224,"http://maps.google.com/maps?q=114 W. HOBSON AVE,+DALLAS,+TX+75224&hl=en"
DALLAS POLICE DEPARTMENT,DALLAS POLICE SUBSTATION NORTHEAST DIVISION,9915 E NORTHWEST HWY,DALLAS,TX,75238,"http://maps.google.com/maps?q=9915 E NORTHWEST HWY,+DALLAS,+TX+75238&hl=en"
DALLAS POLICE DEPARTMENT,EXALL RECREATION CENTER,1300 ADAIR,DALLAS,TX,75204,"http://maps.google.com/maps?q=1300 ADAIR,+DALLAS,+TX+75204&hl=en"
DALLAS POLICE DEPARTMENT,REDBIRD MALL - OUTREACH CENTER,3662 W. CAMP WISDOM RD.,DALLAS,TX,75237,"http://maps.google.com/maps?q=3662 W. CAMP WISDOM RD.,+DALLAS,+TX+75237&hl=en"
DE QUEEN POLICE DEPARTMENT,WAL-MART PARKING LOT,926 EAST COLLIN RAYE DRIVE,DE QUEEN,AR,71832,"http://maps.google.com/maps?q=926 EAST COLLIN RAYE DRIVE,+DE QUEEN,+AR+71832&hl=en"
DE QUINCY POLICE DEPARTMENT,DEQUINCY POLICE DEPARTMENT,101 SOUTH PINE STREET,DEQUINCY,LA,70633,"http://maps.google.com/maps?q=101 SOUTH PINE STREET,+DEQUINCY,+LA+70633&hl=en"
DEA SPONSORED,BARTON CREEK SQUARE MALL - PARKING LOT UNIV OF TEXAS-COLLEGE OF PHARMACY,2901 SOUTH CAPITOL OF TEXAS HIGHWAY,AUSTIN,TX,78746,"http://maps.google.com/maps?q=2901 SOUTH CAPITOL OF TEXAS HIGHWAY,+AUSTIN,+TX+78746&hl=en"
DEA SPONSORED,GEORGE MEMORIAL LIBRARY,1001 GOLFVIEW DRIVE,RICHMOND,TX,77469,"http://maps.google.com/maps?q=1001 GOLFVIEW DRIVE,+RICHMOND,+TX+77469&hl=en"
DEA SPONSORED,LEGACY HILLS PARK PAVILLION SUN CITY CENTER,200 DEL WEBB BLVD.,GEORGETOWN,TX,78626,"http://maps.google.com/maps?q=200 DEL WEBB BLVD.,+GEORGETOWN,+TX+78626&hl=en"
DEER PARK POLICE DEPARTMENT,DEER PARK POLICE DEPARTMENT,2911 CENTER STREET,DEER PARK,TX,77536,"http://maps.google.com/maps?q=2911 CENTER STREET,+DEER PARK,+TX+77536&hl=en"
DENISON POLICE DEPARTMENT,SENIOR CITIZENS CENTER,531 WEST CHESTNUT STREET,DENISON,TX,75020,"http://maps.google.com/maps?q=531 WEST CHESTNUT STREET,+DENISON,+TX+75020&hl=en"
DERIDDER POLICE DEPARTMENT,DERIDDER PD,200 SOUTH JEFFERSON STREET,DERIDDER,LA,70634,"http://maps.google.com/maps?q=200 SOUTH JEFFERSON STREET,+DERIDDER,+LA+70634&hl=en"
DIXIE INN POLICE DEPARTMENT,DIXIE INN POLICE DEPARTMENT,60 SHELL STREET,MINDEN,LA,71055,"http://maps.google.com/maps?q=60 SHELL STREET,+MINDEN,+LA+71055&hl=en"
DUBBERLY POLICE DEPARTMENT,DUBBERLY TOWN HALL,3465 HWY 531,DUBBERLY,LA,71024,"http://maps.google.com/maps?q=3465 HWY 531,+DUBBERLY,+LA+71024&hl=en"
DUNCANVILLE PD,DUNCANVILLE PD,203 E WHEATLAND RD,DUNCANVILLE,TX,75116,"http://maps.google.com/maps?q=203 E WHEATLAND RD,+DUNCANVILLE,+TX+75116&hl=en"
ELGIN POLICE DEPARTMENT,ELGIN POLICE DEPARTMENT,202 DEPOT STREET,ELGIN,TX,78621,"http://maps.google.com/maps?q=202 DEPOT STREET,+ELGIN,+TX+78621&hl=en"
ELLIS COUNTY CONSTABLE'S OFFICE PCT ONE,ENNIS ISD ADMINISTRATION BUILDING,303 KNOX ST,ENNIS,TX,75119,"http://maps.google.com/maps?q=303 KNOX ST,+ENNIS,+TX+75119&hl=en"
ELLIS COUNTY SO,COLEMAN JR. HIGH PARKING LOT,1000 N HWY 77,WAXAHACHIE,TX,75165,"http://maps.google.com/maps?q=1000 N HWY 77,+WAXAHACHIE,+TX+75165&hl=en"
EVERMAN POLICE DEPARTMENT,EVERMAN POLICE DEPARTMENT,404 W ENON AVE,EVERMAN,TX,76140,"http://maps.google.com/maps?q=404 W ENON AVE,+EVERMAN,+TX+76140&hl=en"
FAIRVIEW PD,FAIRVIEW FIRE STATION #1,500 SOUTH STATE HWY 5,FAIRVIEW,TX,75069,"http://maps.google.com/maps?q=500 SOUTH STATE HWY 5,+FAIRVIEW,+TX+75069&hl=en"
FARMERS BRANCH PD,FARMERS BRANCH POLICE DEPT,3723 VALLEY VIEW LANE,FARMERS BRANCH,TX,75244,"http://maps.google.com/maps?q=3723 VALLEY VIEW LANE,+FARMERS BRANCH,+TX+75244&hl=en"
FERRIS POLICE DEPARTMENT,GAZEBO ON THE TOWN SQUARE,100 TOWN PLAZA,FERRIS,TX,75125,"http://maps.google.com/maps?q=100 TOWN PLAZA,+FERRIS,+TX+75125&hl=en"
FLOWER MOUND PD,FLOWER MOUND HIGH SCHOOL,3411 PETERS COLONY,FLOWER MOUND,TX,75022,"http://maps.google.com/maps?q=3411 PETERS COLONY,+FLOWER MOUND,+TX+75022&hl=en"
FLOWER MOUND PD,MARCUS HIGH SCHOOL,5707 MORRISS RD,FLOWER MOUND,TX,75028,"http://maps.google.com/maps?q=5707 MORRISS RD,+FLOWER MOUND,+TX+75028&hl=en"
FORNEY POLICE DEPARTMENT,FORNEY POLICE DEPARTMENT,110 JUSTICE CENTER DR,FORNEY,TX,75126,"http://maps.google.com/maps?q=110 JUSTICE CENTER DR,+FORNEY,+TX+75126&hl=en"
FORT BEND COUNTY SHERIFF'S OFFICE,GUS GEORGE ACADEMY,1521 EUGENE HEIMANN CIRCLE,RICHMOND,TX,77469,"http://maps.google.com/maps?q=1521 EUGENE HEIMANN CIRCLE,+RICHMOND,+TX+77469&hl=en"
FORT BEND ISD POLICE DEPARTMENT,FORT BEND ISD POLICE DEPARTMENT FORT BEND ISD ADMINISTRATIVE BUILDING,16431 LEXINGTON BOULEVARD,SUGAR LAND,TX,77479,"http://maps.google.com/maps?q=16431 LEXINGTON BOULEVARD,+SUGAR LAND,+TX+77479&hl=en"
FORT WORTH PD,CVS PHARMACY,1200 N. BEACH ST.,FORT WORTH,TX,76111,"http://maps.google.com/maps?q=1200 N. BEACH ST.,+FORT WORTH,+TX+76111&hl=en"
FORT WORTH PD,HAZEL HARVEY PEACE CENTER,818 MISSOURI AVE,FORT WORTH,TX,76104,"http://maps.google.com/maps?q=818 MISSOURI AVE,+FORT WORTH,+TX+76104&hl=en"
FORT WORTH PD,NORTH DIVISION FWPD,8755 N RIVERSIDE DRIVE,FORT WORTH,TX,76137,"http://maps.google.com/maps?q=8755 N RIVERSIDE DRIVE,+FORT WORTH,+TX+76137&hl=en"
FORT WORTH PD,RIDGMAR MALL,1888 GREEN OAKS RD,FORT WORTH,TX,76116,"http://maps.google.com/maps?q=1888 GREEN OAKS RD,+FORT WORTH,+TX+76116&hl=en"
FORT WORTH PD,WALMART,7451 MCCART AVE.,FORT WORTH,TX,76133,"http://maps.google.com/maps?q=7451 MCCART AVE.,+FORT WORTH,+TX+76133&hl=en"
FULSHEAR POLICE DEPARTMENT,FULSHEAR POLICE DEPARTMENT,29255 FM1093,FULSHEAR,TX,77441,"http://maps.google.com/maps?q=29255 FM1093,+FULSHEAR,+TX+77441&hl=en"
GATESVILLE POLICE DEPARTMENT,GATESVILLE POLICE DEPARTMENT,200 N. 8TH STREET,GATESVILLE,TX,76528,"http://maps.google.com/maps?q=200 N. 8TH STREET,+GATESVILLE,+TX+76528&hl=en"
GLENN HEIGHTS PD,CITY HALL,1938 S. HAMPTON,GLENN HEIGHTS,TX,75154,"http://maps.google.com/maps?q=1938 S. HAMPTON,+GLENN HEIGHTS,+TX+75154&hl=en"
GRAMBLING CITY POLICE DEPARTMENT,POLICE STATION,2045 MLK DRIVE,GRAMBLING,LA,71245,"http://maps.google.com/maps?q=2045 MLK DRIVE,+GRAMBLING,+LA+71245&hl=en"
GRAND PRAIRIE POLICE DEPT.,GRAND PRAIRIE POLICE DEPARTMENT,1525 ARKANSAS LANE,GRAND PRAIRIE,TX,75052,"http://maps.google.com/maps?q=1525 ARKANSAS LANE,+GRAND PRAIRIE,+TX+75052&hl=en"
GRAPEVINE POLICE DEPT,GRAPEVINE POLICE DEPARTMENT,1007 IRA E WOODS AVE,GRAPEVINE,TX,76051,"http://maps.google.com/maps?q=1007 IRA E WOODS AVE,+GRAPEVINE,+TX+76051&hl=en"
GREENVILLE PD,GREENVILLE PD,3000 LEE STREET,GREENVILLE,TX,75401,"http://maps.google.com/maps?q=3000 LEE STREET,+GREENVILLE,+TX+75401&hl=en"
HARKER HEIGHTS POLICE DEPARTMENT,HARKER HEIGHTS POLICE DEPARTMENT,402 INDIAN TRAIL,HARKER HEIGHTS,TX,76548,"http://maps.google.com/maps?q=402 INDIAN TRAIL,+HARKER HEIGHTS,+TX+76548&hl=en"
HARRIS COUNTY CONSTABLE PRECINCT 8,HARRIS COUNTY CONSTABLE PRECINCT 8 BAY AREA ANNEX,16602 DIANA LANE,HOUSTON,TX,77062,"http://maps.google.com/maps?q=16602 DIANA LANE,+HOUSTON,+TX+77062&hl=en"
HARRIS COUNTY CONTABLE PRECINCT 4,THE RECREATION CENTER OF ROB FLEMING PARK THE WOODLANDS TOWNSHIP,6464 CREEKSIDE FOREST DR,SPRING,TX,77389,"http://maps.google.com/maps?q=6464 CREEKSIDE FOREST DR,+SPRING,+TX+77389&hl=en"
HARRIS COUNTY HOUSEHOLD HAZARDOUS COLLECTION FACL.,HARRIS COUNTY HOUSEHOLD HAZARDOUS COLLECTION FACL.,6900 HAHL ROAD,HOUSTON,TX,77040,"http://maps.google.com/maps?q=6900 HAHL ROAD,+HOUSTON,+TX+77040&hl=en"
HARRIS COUNTY SHERIFF'S OFFICE - FRANZ ROAD,HARRIS COUNTY SHERIFF'S OFFICE FRANZ ROAD STOREFRONT,19818 FRANZ ROAD,KATY,TX,77449,"http://maps.google.com/maps?q=19818 FRANZ ROAD,+KATY,+TX+77449&hl=en"
HARRIS COUNTY SHERIFF'S OFFICE DISTRICT 1,HARRIS COUNTY SHERIFF'S OFFICE DISTRICT 1 HARRIS COUNTY COURT HOUSE,6831 CYPRESSWOOD DR.,SPRING,TX,77379,"http://maps.google.com/maps?q=6831 CYPRESSWOOD DR.,+SPRING,+TX+77379&hl=en"
HARRIS COUNTY SHERIFF'S OFFICE DISTRICT 2,HARRIS COUNTY SHERIFF'S OFFICE DISTRICT 2 HUMBLE COURT HOUSE,7900 WILL CLAYTON PKWY,HUMBLE,TX,77338,"http://maps.google.com/maps?q=7900 WILL CLAYTON PKWY,+HUMBLE,+TX+77338&hl=en"
HARRIS COUNTY SHERIFF'S OFFICE DISTRICT 3,HARRIS COUNTY SHERIFF'S OFFICE DISTRICT 3 JIM FONTENO HARRIS COUNTY COURT HOUSE ANNEX 26 BUILDING,14350 WALLISVILLE RD,HOUSTON,TX,77049,"http://maps.google.com/maps?q=14350 WALLISVILLE RD,+HOUSTON,+TX+77049&hl=en"
HARRIS COUNTY SHERIFF'S OFFICE DISTRICT 5,HARRIS COUNTY SHERIFF'S OFFICE DISTRICT 5,23828 TOMBALL PARKWAY,TOMBALL,TX,77375,"http://maps.google.com/maps?q=23828 TOMBALL PARKWAY,+TOMBALL,+TX+77375&hl=en"
HARRISON COUNTY SHERIFF'S OFFICE,HARRISON COUNTY SHERIFF'S OFFICE,200 W. HOUSTON ST.,MARSHALL,TX,75670,"http://maps.google.com/maps?q=200 W. HOUSTON ST.,+MARSHALL,+TX+75670&hl=en"
HEFLIN POLICE DEPARTMENT,HEFLIN TOWN HALL,122 NORTH CHURCH STREET,HEFLIN,LA,71039,"http://maps.google.com/maps?q=122 NORTH CHURCH STREET,+HEFLIN,+LA+71039&hl=en"
HEWITT POLICE DEPARTMENT,HEWITT POLICE DEPARTMENT,100 PATRIOT COURT,HEWITT,TX,76643,"http://maps.google.com/maps?q=100 PATRIOT COURT,+HEWITT,+TX+76643&hl=en"
HIGHLAND PARK DEPT OF PUBLIC SAFETY,HIGHLAND PARK DPS,4700 DREXEL DR,HIGHLAND PARK,TX,75205,"http://maps.google.com/maps?q=4700 DREXEL DR,+HIGHLAND PARK,+TX+75205&hl=en"
HILLSBORO POLICE DEPARTMENT,HILLSBORO POLICE DEPARTMENT,303 N. WACO STREET,HILLSBORO,TX,76645,"http://maps.google.com/maps?q=303 N. WACO STREET,+HILLSBORO,+TX+76645&hl=en"
HOOD COUNTY SHERIFF'S OFFICE,HOOD COUNTY EMERGENCY OPERATIONS CENTER,401 DEPUTY LARRY MILLER DR,GRANBURY,TX,76048,"http://maps.google.com/maps?q=401 DEPUTY LARRY MILLER DR,+GRANBURY,+TX+76048&hl=en"
HOUSTON POLICE DEPARTMENT CLEAR LAKE STATION,HOUSTON POLICE DEPARTMENT CLEAR LAKE STATION,2855 BAY AREA BLVD,HOUSTON,TX,77058,"http://maps.google.com/maps?q=2855 BAY AREA BLVD,+HOUSTON,+TX+77058&hl=en"
HOUSTON POLICE DEPARTMENT METRO PARK N RIDE,HOUSTON POLICE DEPARTMENT METRO PARK N RIDE,3210 W. LAKE HOUSTON PKWY,KINGWOOD,TX,77345,"http://maps.google.com/maps?q=3210 W. LAKE HOUSTON PKWY,+KINGWOOD,+TX+77345&hl=en"
HOUSTON POLICE DEPARTMENT NORTH STATION,HOUSTON POLICE DEPARTMENT NORTH STATION,9455 W. MONTGOMERY RD,HOUSTON,TX,77088,"http://maps.google.com/maps?q=9455 W. MONTGOMERY RD,+HOUSTON,+TX+77088&hl=en"
HOUSTON POLICE DEPARTMENT SOUTH CENTRAL STATION,HOUSTON POLICE DEPARTMENT SOUTH CENTRAL STATION,2202 ST. EMMANUEL ST,HOUSTON,TX,77003,"http://maps.google.com/maps?q=2202 ST. EMMANUEL ST,+HOUSTON,+TX+77003&hl=en"
HOUSTON POLICE DEPARTMENT SOUTH GESSNER STATION,HOUSTON POLICE DEPARTMENT SOUTH GESSNER STATION,8605 WESTPLACE DR,HOUSTON,TX,77071,"http://maps.google.com/maps?q=8605 WESTPLACE DR,+HOUSTON,+TX+77071&hl=en"
HOUSTON POLICE DEPARTMENT WESTSIDE STATION,HOUSTON POLICE DEPARTMENT WESTSIDE STATION,3203 S. DAIRY ASHFORD,HOUSTON,TX,77082,"http://maps.google.com/maps?q=3203 S. DAIRY ASHFORD,+HOUSTON,+TX+77082&hl=en"
HUNTSVILLE POLICE DEPARTMENT,HUNTSVILLE POLICE DEPARTMENT HUNTSVILLE HIGH SCHOOL,515 FM 2821 ROAD EAST,HUNTSVILLE,TX,77320,"http://maps.google.com/maps?q=515 FM 2821 ROAD EAST,+HUNTSVILLE,+TX+77320&hl=en"
HUTCHINS POLICE DEPARTMENT,HUTCHINS POLICE DEPARTMENT,205 W. HICKMAN,HUTCHINS,TX,75141,"http://maps.google.com/maps?q=205 W. HICKMAN,+HUTCHINS,+TX+75141&hl=en"
IRVING POLICE DEPT,CRIMINAL JUSTICE CENTER,305 N O'CONNOR RD,IRVING,TX,75061,"http://maps.google.com/maps?q=305 N O'CONNOR RD,+IRVING,+TX+75061&hl=en"
IRVING POLICE DEPT,IRVING POLICE NORTH STATION PARKING LOT,5992 RIVERSIDE DRIVE,IRVING,TX,75039,"http://maps.google.com/maps?q=5992 RIVERSIDE DRIVE,+IRVING,+TX+75039&hl=en"
ITALY PD,ITALY PD,161 W. MAIN,ITALY,TX,76651,"http://maps.google.com/maps?q=161 W. MAIN,+ITALY,+TX+76651&hl=en"
JACKSONVILLE PD,JACKSONVILLE CHAMBER OF COMMERCE,526 E. COMMERCE ST,JACKSONVILLE,TX,75766,"http://maps.google.com/maps?q=526 E. COMMERCE ST,+JACKSONVILLE,+TX+75766&hl=en"
JASPER POLICE DEPARTMENT,JASPER POLICE DEPARTMENT,555 S MAIN STREET,JASPER,TX,75951,"http://maps.google.com/maps?q=555 S MAIN STREET,+JASPER,+TX+75951&hl=en"
JOHNSON COUNTY CONSTABLE'S OFFICE PCT. 1,GODLEY CITY HALL,104 S. MAIN,GODLEY,TX,76044,"http://maps.google.com/maps?q=104 S. MAIN,+GODLEY,+TX+76044&hl=en"
JOHNSON COUNTY CONSTABLE'S OFFICE PCT. 1,RIO VISTA CIVIC CENTER,201 TX-174,RIO VISTA,TX,76093,"http://maps.google.com/maps?q=201 TX-174,+RIO VISTA,+TX+76093&hl=en"
JOSHUA POLICE DEPARTMENT,JOSHUA COMMUNITY YMCA,1009 JOSHUA STATION BLVD.,JOSHUA,TX,76058,"http://maps.google.com/maps?q=1009 JOSHUA STATION BLVD.,+JOSHUA,+TX+76058&hl=en"
KATY ISD POLICE DEPARTMENT,KATY ISD POLICE DEPARTMENT KATY ISD LAW ENFORCEMENT CENTER,20370 FRANZ ROAD,KATY,TX,77449,"http://maps.google.com/maps?q=20370 FRANZ ROAD,+KATY,+TX+77449&hl=en"
KAUFMAN POLICE DEPARTMENT,KAUFMAN CITY HALL/PD,209 SOUTH WASHINGTON ST,KAUFMAN,TX,75142,"http://maps.google.com/maps?q=209 SOUTH WASHINGTON ST,+KAUFMAN,+TX+75142&hl=en"
KEMAH POLICE DEPARTMENT,KEMAH CITY HALL,1401 TX 146,KEMAH,TX,77565,"http://maps.google.com/maps?q=1401 TX 146,+KEMAH,+TX+77565&hl=en"
KENNEDALE POLICE DEPT,KENNEDALE POLICE DEPT,401 MUNICIPAL DR,KENNEDALE,TX,76060,"http://maps.google.com/maps?q=401 MUNICIPAL DR,+KENNEDALE,+TX+76060&hl=en"
KILLEEN POLICE DEPARTMENT,KILLEEN POLICE DEPARTMENT,3304 COMMUNITY BLVD.,KILLEEN,TX,76542,"http://maps.google.com/maps?q=3304 COMMUNITY BLVD.,+KILLEEN,+TX+76542&hl=en"
KLEIN ISD POLICE DEPARTMENT,KLEIN ISD POLICE DEPARTMENT,7407 LOUETTA ROAD,SPRING,TX,77379,"http://maps.google.com/maps?q=7407 LOUETTA ROAD,+SPRING,+TX+77379&hl=en"
LACY LAKEVIEW POLICE DEPARTMENT,LACY LAKEVIEW POLICE DEPARTMENT,503 E. CRAVEN AVE.,WACO,TX,76705,"http://maps.google.com/maps?q=503 E. CRAVEN AVE.,+WACO,+TX+76705&hl=en"
LAFAYETTE COUNTY SHERIFF'S OFFICE,LAFAYETTE COUNTY SHERIFF'S OFFICE PERMANENT DROP BOX,5 COURTHOUSE SQUARE,LEWISVILLE,AR,71845,"http://maps.google.com/maps?q=5 COURTHOUSE SQUARE,+LEWISVILLE,+AR+71845&hl=en"
LAKE DALLAS POLICE DEPARTMENT,LAKE DALLAS POLICE DEPARTMENT,212 MAIN ST,LAKE DALLAS,TX,75065,"http://maps.google.com/maps?q=212 MAIN ST,+LAKE DALLAS,+TX+75065&hl=en"
LAKEVIEW POLICE DEPARTMENT,LAKEVIEW POLICE DEPARTMENT TAYLOR LAKE VILLAGE CITY HALL,500 KIRBY ROAD,TAYLOR LAKE VILLAGE,TX,77586,"http://maps.google.com/maps?q=500 KIRBY ROAD,+TAYLOR LAKE VILLAGE,+TX+77586&hl=en"
LEESVILLE POLICE DEPARTMENT,WALGREENS,2008 S. 5TH STREET,LEESVILLE,LA,71446,"http://maps.google.com/maps?q=2008 S. 5TH STREET,+LEESVILLE,+LA+71446&hl=en"
LEWISVILLE PD,LEWISVILLE HIGH SCHOOL,1098 W. MAIN STREET,LEWISVILLE,TX,75067,"http://maps.google.com/maps?q=1098 W. MAIN STREET,+LEWISVILLE,+TX+75067&hl=en"
LIBERTY POLICE DEPARTMENT,LIBERTY POLICE DEPARTMENT,1906 LAKELAND DRIVE,LIBERTY,TX,77575,"http://maps.google.com/maps?q=1906 LAKELAND DRIVE,+LIBERTY,+TX+77575&hl=en"
LINCOLN PARISH S.O,SUPER ONE FOODS,1500 NORTH TRENTON STREET,RUSTON,LA,71270,"http://maps.google.com/maps?q=1500 NORTH TRENTON STREET,+RUSTON,+LA+71270&hl=en"
LITTLE ELM PD,LITTLE ELM PUBLIC SAFETY CENTER,88 W. ELDORADO PKWY,LITTLE ELM,TX,75068,"http://maps.google.com/maps?q=88 W. ELDORADO PKWY,+LITTLE ELM,+TX+75068&hl=en"
LOUISIANA STATE POLICE,LSP TROOP E BOI/NARC/ALEX,1710 ODOM ST,ALEXANDRIA,LA,71303,"http://maps.google.com/maps?q=1710  ODOM ST,+ALEXANDRIA,+LA+71303&hl=en"
LOUISIANA STATE POLICE,LSP TROOP G,5300 INDUSTRIAL DRIVE EXT.,BOSSIER CITY,LA,71111,"http://maps.google.com/maps?q=5300 INDUSTRIAL DRIVE EXT.,+BOSSIER CITY,+LA+71111&hl=en"
LUMBERTON POLICE DEPARTMENT,LUMBERTON POLICE DEPARTMENT,120 EAST CHANCE ROAD #A,LUMBERTON,TX,77657,"http://maps.google.com/maps?q=120 EAST CHANCE ROAD #A,+LUMBERTON,+TX+77657&hl=en"
MANSFIELD PD,MANSFIELD PUBLIC SAFETY BUILDING,1305 E. BROAD ST,MANSFIELD,TX,76063,"http://maps.google.com/maps?q=1305 E. BROAD ST,+MANSFIELD,+TX+76063&hl=en"
MARSHALL POLICE DEPARTMENT,MARSHALL POLICE DEPARTMENT LOBBY,"2101 EAST END BLVD, NORTH",MARSHALL,TX,75670,"http://maps.google.com/maps?q=2101 EAST END BLVD, NORTH,+MARSHALL,+TX+75670&hl=en"
MAYPEARL PD,MAYPEARL PD,104 E. SECOND,MAYPEARL,TX,76064,"http://maps.google.com/maps?q=104 E. SECOND,+MAYPEARL,+TX+76064&hl=en"
MCKINNEY PD,MCKINNEY PUBLIC SAFETY BUILDING,2200 TAYLOR BURK DR,MCKINNEY,TX,75071,"http://maps.google.com/maps?q=2200 TAYLOR BURK DR,+MCKINNEY,+TX+75071&hl=en"
MELISSA POLICE DEPARTMENT,MELISSA POLICE DEPARTMENT,3411 BARKER AVE,MELISSA,TX,75454,"http://maps.google.com/maps?q=3411 BARKER AVE,+MELISSA,+TX+75454&hl=en"
MESQUITE POLICE DEPARTMENT,MESQUITE POLICE DEPARTMENT,777 N. GALLOWAY,MESQUITE,TX,75149,"http://maps.google.com/maps?q=777 N. GALLOWAY,+MESQUITE,+TX+75149&hl=en"
METHODIST HEALTH SYSTEM POLICE DEPARTMENT,HITT AUDITORIUM AND SERVICE BUILDING PARKING LOT,221 W. COLORADO BLVD.,DALLAS,TX,75208,"http://maps.google.com/maps?q=221 W. COLORADO BLVD.,+DALLAS,+TX+75208&hl=en"
MIDLOTHIAN PD,ACE HARDWARE PARKING LOT,530 E. MAIN,MIDLOTHIAN,TX,76065,"http://maps.google.com/maps?q=530 E. MAIN,+MIDLOTHIAN,+TX+76065&hl=en"
MILFORD PD,MILFORD PD,107 S. MAIN,MILFORD,TX,76670,"http://maps.google.com/maps?q=107 S. MAIN,+MILFORD,+TX+76670&hl=en"
MONTGOMERY COUNTY CONSTABLE'S OFFICE PCT. 1,MONTGOMERY COUNTY CONSTABLE'S OFFICE PCT. 1,115 BUSINESS PARK DRIVE,WILLIS,TX,77378,"http://maps.google.com/maps?q=115 BUSINESS PARK DRIVE,+WILLIS,+TX+77378&hl=en"
MONTGOMERY COUNTY CONSTABLE'S OFFICE PCT. 3,GATEWAY BAPTIST CHURCH SGT. RYAN HUTSON,2930 RAYFORD RD,SPRING,TX,77386,"http://maps.google.com/maps?q=2930 RAYFORD RD,+SPRING,+TX+77386&hl=en"
MONTGOMERY COUNTY ISD POLICE DEPARTMENT,MONTGOMERY COUNTY ISD POLICE DEPT.,22825 HWY 105 W.,MONTGOMERY,TX,77356,"http://maps.google.com/maps?q=22825 HWY 105 W.,+MONTGOMERY,+TX+77356&hl=en"
MONTGOMERY COUNTY PRECINCT 4 CONSTABLE'S OFFICE,MONTGOMERY COUNTY PRECINCT 4 CONSTABLE'S OFFICE MONTGOMERY COUNTY ANNEX BUILDING,21130 US HWY 59,NEW CANEY,TX,77357,"http://maps.google.com/maps?q=21130 US HWY 59,+NEW CANEY,+TX+77357&hl=en"
MONTGOMERY COUNTY SHERIFF'S OFFICE,THE WOODLANDS TOWNSHIP TOWN HALL (FRONT PARKING LOT),2801 TECHNOLOGY FOREST BOULEVARD,THE WOODLANDS,TX,77381,"http://maps.google.com/maps?q=2801 TECHNOLOGY FOREST BOULEVARD,+THE WOODLANDS,+TX+77381&hl=en"
MURPHY PD,MURPHY PD,206 N. MURPHY RD,MURPHY,TX,75094,"http://maps.google.com/maps?q=206 N. MURPHY RD,+MURPHY,+TX+75094&hl=en"
NACOGDOCHES COUNTY SHERIFF'S OFFICE,NACOGDOCHES COUNTY SHERIFF'S OFFICE,2306 DOUGLASS HIGHWAY,NACOGDOCHES,TX,75964,"http://maps.google.com/maps?q=2306 DOUGLASS HIGHWAY,+NACOGDOCHES,+TX+75964&hl=en"
NACOGDOCHES POLICE DEPARTMENT,NACOGDOCHES POLICE DEPARTMENT UNIVERSITY MALL,1122 NORTH UNIVERSITY DRIVE,NACOGDOCHES,TX,75961,"http://maps.google.com/maps?q=1122 NORTH UNIVERSITY DRIVE,+NACOGDOCHES,+TX+75961&hl=en"
NOLANVILLE POLICE DEPARTMENT,NOLANVILLE POLICE DEPARTMENT,101 N. FIFTH STREET,NOLANVILLE,TX,76559,"http://maps.google.com/maps?q=101 N. FIFTH STREET,+NOLANVILLE,+TX+76559&hl=en"
OAK POINT POLICE DEPARTMENT,OAK POINT DEPARTMENT OF PUBLIC SAFETY,100 NAYLOR RD,OAK POINT,TX,75068,"http://maps.google.com/maps?q=100 NAYLOR RD,+OAK POINT,+TX+75068&hl=en"
ORANGE POLICE DEPARTMENT,ORANGE POLICE DEPARTMENT,201 8TH STREET,ORANGE,TX,77630,"http://maps.google.com/maps?q=201 8TH STREET,+ORANGE,+TX+77630&hl=en"
OUACHITA COUNTY SHERIFF'S DEPARTMENT,OUACHITA COUNTY SHERIFF'S DEPARTMENT PERMANENT DROP BOX,109 GOODGAME,CAMDEN,AR,71701,"http://maps.google.com/maps?q=109 GOODGAME,+CAMDEN,+AR+71701&hl=en"
PALMER POLICE DEPARTMENT,PALMER CITY HALL,113 W JEFFERSON,PALMER,TX,75152,"http://maps.google.com/maps?q=113 W JEFFERSON,+PALMER,+TX+75152&hl=en"
PARKER PD,PARKER PD DRIVEWAY IN FRONT OF POLICE DEPT.,5700 E PARKER ROAD,PARKER,TX,75002,"http://maps.google.com/maps?q=5700 E PARKER ROAD,+PARKER,+TX+75002&hl=en"
PASADENA POLICE DEPARTMENT,PASADENA POLICE DEPARTMENT THE SUMMIT ALTERNATIVE PROGRAM (PISD),1838 EAST SAM HOUSTON PARKWAY SOUTH,PASADENA,TX,77503,"http://maps.google.com/maps?q=1838 EAST SAM HOUSTON PARKWAY SOUTH,+PASADENA,+TX+77503&hl=en"
PLANO POLICE DEPARTMENT,CLARK HIGH SCHOOL,523 W SPRING CREEK PARKWAY,PLANO,TX,75023,"http://maps.google.com/maps?q=523 W SPRING CREEK PARKWAY,+PLANO,+TX+75023&hl=en"
PLANO POLICE DEPARTMENT,PLANO EAST SENIOR HIGH,3000 LOS RIOS BLVD,PLANO,TX,75074,"http://maps.google.com/maps?q=3000 LOS RIOS BLVD,+PLANO,+TX+75074&hl=en"
PLANO POLICE DEPARTMENT,PLANO SENIOR HIGH,2200 INDEPENDENCE PARKWAY,PLANO,TX,75075,"http://maps.google.com/maps?q=2200 INDEPENDENCE PARKWAY,+PLANO,+TX+75075&hl=en"
PLANO POLICE DEPARTMENT,PLANO WEST SENIOR HIGH SCHOOL,5601 WEST PARKER ROAD,PLANO,TX,75093,"http://maps.google.com/maps?q=5601 WEST PARKER ROAD,+PLANO,+TX+75093&hl=en"
PORT ARTHUR POLICE DEPARTMENT,PORT ARTHUR POLICE DEPARTMENT,645 4TH STREET,PORT ARTHUR,TX,77641,"http://maps.google.com/maps?q=645 4TH STREET,+PORT ARTHUR,+TX+77641&hl=en"
PRAIRIE VIEW A&M POLICE DEPARTMENT,PRAIRIE VIEW A&M POLICE DEPARTMENT,586 ANNE PRESTON ST,PRAIRIE VIEW,TX,77446,"http://maps.google.com/maps?q=586 ANNE PRESTON ST,+PRAIRIE VIEW,+TX+77446&hl=en"
PRESCOTT POLICE DEPARTMENT,PRESCOTT POLICE DEPARTMENT PERMANENT DROP BOX,128 W. MAIN ST.,PRESCOTT,AR,71857,"http://maps.google.com/maps?q=128 W. MAIN ST.,+PRESCOTT,+AR+71857&hl=en"
PRINCETON POLICE DEPARTMENT,PRINCETON POLICE DEPARTMENT,306 MAIN ST.,PRINCETON,TX,75407,"http://maps.google.com/maps?q=306 MAIN ST.,+PRINCETON,+TX+75407&hl=en"
PROSPER POLICE DEPARTMENT,PROSPER FIRE DEPARTMENT,1500 EAST FIRST STREET,PROSPER,TX,75078,"http://maps.google.com/maps?q=1500 EAST FIRST STREET,+PROSPER,+TX+75078&hl=en"
RED OAK PD,RED OAK PD,547 N METHODIST ST,RED OAK,TX,75154,"http://maps.google.com/maps?q=547 N METHODIST ST,+RED OAK,+TX+75154&hl=en"
RED RIVER ARMY DEPOT,RED RIVER ARMY DEPORT ACCESS CONTROL POINTS (GATES),100 JAMES CARLOW DRIVE,TEXARKANA,TX,75507,"http://maps.google.com/maps?q=100 JAMES CARLOW DRIVE,+TEXARKANA,+TX+75507&hl=en"
RICHARDSON POLICE DEPT,RICHARDSON CIVIC CENTER/SOUTH PARKING LOT,411 WEST ARAPAHO ROAD,RICHARDSON,TX,75080,"http://maps.google.com/maps?q=411 WEST ARAPAHO ROAD,+RICHARDSON,+TX+75080&hl=en"
RICHLAND HILLS PD,RICHLAND HILLS FD,3201 DIANA DRIVE,RICHLAND HILLS,TX,76118,"http://maps.google.com/maps?q=3201 DIANA DRIVE,+RICHLAND HILLS,+TX+76118&hl=en"
RICHMOND POLICE DEPARTMENT,RICHMOND POLICE DEPARTMENT,600 PRESTON STREET,RICHMOND,TX,77469,"http://maps.google.com/maps?q=600 PRESTON STREET,+RICHMOND,+TX+77469&hl=en"
ROANOKE PD,ROANOKE PD,609 DALLAS DR,ROANOKE,TX,76262,"http://maps.google.com/maps?q=609 DALLAS DR,+ROANOKE,+TX+76262&hl=en"
ROCKWALL POLICE DEPARTMENT,ROCKWALL POLICE COMMUNITY SERVICES,1113 RIDGE ROAD,ROCKWALL,TX,75087,"http://maps.google.com/maps?q=1113 RIDGE ROAD,+ROCKWALL,+TX+75087&hl=en"
ROUND ROCK POLICE DEPARTMENT,ROUND ROCK POLICE DEPARTMENT,2701 NORTH MAYS,ROUND ROCK,TX,78665,"http://maps.google.com/maps?q=2701 NORTH MAYS,+ROUND ROCK,+TX+78665&hl=en"
ROWLETT POLICE DEPT,ROWLETT COMMUNITY CENTER,5300 MAIN ST,ROWLETT,TX,75088,"http://maps.google.com/maps?q=5300 MAIN ST,+ROWLETT,+TX+75088&hl=en"
SANSOM PARK POLICE,SANSOM PARK FIRE STATION,5500 BUCHANAN ST,SANSOM PARK,TX,76114,"http://maps.google.com/maps?q=5500 BUCHANAN ST,+SANSOM PARK,+TX+76114&hl=en"
SEAGOVILLE PD,BROOKSHIRES FOOD PARKING LOT,125 HALL ST,SEAGOVILLE,TX,75159,"http://maps.google.com/maps?q=125 HALL ST,+SEAGOVILLE,+TX+75159&hl=en"
SHENANDOAH POLICE DEPARTMENT,SHENANDOAH POLICE DEPARTMENT SHENANDOAH CITY HALL,29955 IH-45 NORTH,SHENANDOAH,TX,77381,"http://maps.google.com/maps?q=29955 IH-45 NORTH,+SHENANDOAH,+TX+77381&hl=en"
SHERMAN POLICE DEPT,SHERMAN POLICE DEPT,317 S. TRAVIS,SHERMAN,TX,75090,"http://maps.google.com/maps?q=317 S. TRAVIS,+SHERMAN,+TX+75090&hl=en"
SILSBEE POLICE DEPARTMENT,SILSBEE POLICE DEPARTMENT,1104 NORTH 5TH STREET,SILSBEE,TX,77656,"http://maps.google.com/maps?q=1104 NORTH 5TH STREET,+SILSBEE,+TX+77656&hl=en"
SMITHVILLE POLICE DEPARTMENT,SMITHVILLE POLICE DEPARTMENT,105 N.W. 4TH STREET,SMITHVILLE,TX,78957,"http://maps.google.com/maps?q=105 N.W. 4TH STREET,+SMITHVILLE,+TX+78957&hl=en"
SOUTHLAKE PD,SOUTHLAKE PD,600 STATE ST,SOUTHLAKE,TX,76092,"http://maps.google.com/maps?q=600 STATE ST,+SOUTHLAKE,+TX+76092&hl=en"
STAFFORD POLICE DEPARTMENT,STAFFORD POLICE DEPARTMENT,2702 S. MAIN ST.,STAFFORD,TX,77477,"http://maps.google.com/maps?q=2702 S. MAIN ST.,+STAFFORD,+TX+77477&hl=en"
TARRANT COUNTY SHERIFF'S DEPARTMENT,TARRANT COUNTY CORRECTIONS CENTER MAIN LOBBY,100 N. LAMAR,FORT WORTH,TX,76196,"http://maps.google.com/maps?q=100 N. LAMAR,+FORT WORTH,+TX+76196&hl=en"
TEMPLE POLICE DEPARTMENT,TEMPLE POLICE DEPARTMENT,209 E. AVE. A,TEMPLE,TX,76501,"http://maps.google.com/maps?q=209 E. AVE. A,+TEMPLE,+TX+76501&hl=en"
TRAVIS COUNTY CONSTABLE - PRECINCT 5,TRAVIS COUNTY CONSTABLE - PRECINCT 5,1003 GUADALUPE STREET,AUSTIN,TX,78701,"http://maps.google.com/maps?q=1003 GUADALUPE STREET,+AUSTIN,+TX+78701&hl=en"
TRAVIS COUNTY CONSTABLE PRECINCT 1,TRAVIS COUNTY CONSTABLE - PRECINCT 1,"4717 HEFLIN LANE, SUITE 127",AUSTIN,TX,78721,"http://maps.google.com/maps?q=4717 HEFLIN LANE, SUITE 127,+AUSTIN,+TX+78721&hl=en"
TRAVIS COUNTY CONSTABLE PRECINCT 2,TRAVIS COUNTY CONSTABLE PRECINCT 2,"10409 BURNETT ROAD, #150",AUSTIN,TX,78758,"http://maps.google.com/maps?q=10409 BURNETT ROAD, #150,+AUSTIN,+TX+78758&hl=en"
TROPHY CLUB PD,TROPHY CLUB POLICE DEPT LOBBY,ONE TROPHY WOOD DRIVE,TROPHY CLUB,TX,76262,"http://maps.google.com/maps?q=ONE TROPHY WOOD DRIVE,+TROPHY CLUB,+TX+76262&hl=en"
TYLER POLICE DEPARTMENT,BROADWAY SQUARE MALL,4601 S BROADWAY,TYLER,TX,75703,"http://maps.google.com/maps?q=4601 S BROADWAY,+TYLER,+TX+75703&hl=en"
U.T. HEALTH SCIENCE CENTER AT TYLER,U.T. HEALTH SCIENCE CENTER AT TYLER,11937 US HWY 271,TYLER,TX,75708,"http://maps.google.com/maps?q=11937 US HWY 271,+TYLER,+TX+75708&hl=en"
UNIVERSITY PARK POLICE DEPT,UNIVERSITY PARK PD,3800 UNIVERSITY BLVD,DALLAS,TX,75205,"http://maps.google.com/maps?q=3800 UNIVERSITY BLVD,+DALLAS,+TX+75205&hl=en"
VAN ALSTYNE POLICE DEPARTMENT,VAN ALSTYNE POLICE DEPARTMENT,242 N. PRESTON AVENUE,VAN ALSTYNE,TX,75495,"http://maps.google.com/maps?q=242 N. PRESTON AVENUE,+VAN ALSTYNE,+TX+75495&hl=en"
VERNON PARISH SHERIFF'S OFFICE,VERNON POLICE DEPARTMENT,1204 SOUTH 4TH STREET,LEESVILLE,LA,71446,"http://maps.google.com/maps?q=1204 SOUTH 4TH STREET,+LEESVILLE,+LA+71446&hl=en"
WACO POLICE DEPARTMENT,WACO POLICE DEPARTMENT,3115 PINE AVENUE,WACO,TX,76701,"http://maps.google.com/maps?q=3115 PINE AVENUE,+WACO,+TX+76701&hl=en"
WATAUGA PD,WATAUGA PD,7101 WHITLEY RD,WATAUGA,TX,76148,"http://maps.google.com/maps?q=7101 WHITLEY RD,+WATAUGA,+TX+76148&hl=en"
WEBSTER POLICE DEPARTMENT,CITY OF WEBSTER FIRE STATION,18300 HIGHWAY 3,WEBSTER,TX,77598,"http://maps.google.com/maps?q=18300 HIGHWAY 3,+WEBSTER,+TX+77598&hl=en"
WEST UNIVERSITY PUBLIC WORKS FACILITY,WEST UNIVERSITY PUBLIC WORKS FACILITY,3800 MILTON,HOUSTON,TX,77005,"http://maps.google.com/maps?q=3800 MILTON,+HOUSTON,+TX+77005&hl=en"
WHEELER AVENUE BAPTIST CHURCH,WHEELER AVE BAPTIST CHURCH,3826 WHEELER AVE,HOUSTON,TX,77004,"http://maps.google.com/maps?q=3826 WHEELER AVE,+HOUSTON,+TX+77004&hl=en"
WILLIAMSON COUNTY SHERIFF'S OFFICE,WILLIAMSON COUNTY SHERIFF'S OFFICE,508 SOUTH ROCK STREET,GEORGETOWN,TX,78626,"http://maps.google.com/maps?q=508 SOUTH ROCK STREET,+GEORGETOWN,+TX+78626&hl=en"
WOODWAY PUBLIC SAFETY DEPARTMENT,WOODWAY PUBLIC SAFETY DEPARTMENT,920 ESTATES DRIVE,WOODWAY,TX,76712,"http://maps.google.com/maps?q=920 ESTATES DRIVE,+WOODWAY,+TX+76712&hl=en"
WYLIE PD,WYLIE POLICE DEPT,2000 N HWY 78,WYLIE,TX,75098,"http://maps.google.com/maps?q=2000 N HWY 78,+WYLIE,+TX+75098&hl=en"
