Participant,CollectionSite,Address,City,State,Zip,MapURL
ABILENE POLICE DEPARTMENT,TTUHSC SCHOOL OF NURSING,1718 PINE ST,ABILENE,TX,79601,"http://maps.google.com/maps?q=1718 PINE ST,+ABILENE,+TX+79601&hl=en"
ALABAMA COUSHATTA POLICE DEPARTMENT,ALABAMA COUSHATTA POLICE DEPARTMENT,571 STATE PARK ROAD 56,LIVINGSTON,TX,77351,"http://maps.google.com/maps?q=571 STATE PARK ROAD 56,+LIVINGSTON,+TX+77351&hl=en"
ALAMO HEIGHTS POLICE DEPARTMENT,ALAMO HEIGHTS POLICE DEPARTMENT,6116 BROADWAY,SAN ANTONIO,TX,78209,"http://maps.google.com/maps?q=6116 BROADWAY,+SAN ANTONIO,+TX+78209&hl=en"
ALEDO ISD PD,VANDAGRIFF ELEMENTARY SCHOOL,408 FM 1187 S,ALEDO,TX,76008,"http://maps.google.com/maps?q=408  FM 1187 S,+ALEDO,+TX+76008&hl=en"
ALLEN POLICE DEPARTMENT,LOWERY FRESHMAN CENTER,300 BLK OF N GREENVILLE AVE.,ALLEN,TX,75002,"http://maps.google.com/maps?q=300 BLK OF N GREENVILLE AVE.,+ALLEN,+TX+75002&hl=en"
ANNA POLICE DEPARTMENT,ANNA POLICE DEPARTMENT,101 S. POWELL PARKWAY,ANNA,TX,75409,"http://maps.google.com/maps?q=101 S. POWELL PARKWAY,+ANNA,+TX+75409&hl=en"
ARGYLE POLICE DEPARTMENT,ARGYLE POLICE DEPARTMENT,506 N. HWY 377,ARGYLE,TX,76226,"http://maps.google.com/maps?q=506 N. HWY 377,+ARGYLE,+TX+76226&hl=en"
ARLINGTON PD,ARLINGTON POLICE DEPARTMENT EAST DISTRICT,2001 NEW YORK,ARLINGTON,TX,76010,"http://maps.google.com/maps?q=2001 NEW YORK,+ARLINGTON,+TX+76010&hl=en"
ARLINGTON PD,ARLINGTON POLICE DEPARTMENT NORTH DISTRICT,620 W. DIVISION,ARLINGTON,TX,76011,"http://maps.google.com/maps?q=620 W. DIVISION,+ARLINGTON,+TX+76011&hl=en"
ARLINGTON PD,ARLINGTON POLICE DEPARTMENT SOUTH DISTRICT,1030 S.W. GREEN OAKS BLVD.,ARLINGTON,TX,76017,"http://maps.google.com/maps?q=1030 S.W. GREEN OAKS BLVD.,+ARLINGTON,+TX+76017&hl=en"
ARLINGTON PD,WALGREEN'S PHARMACY,4400 W. GREEN OAKS BLVD.,ARLINGTON,TX,76016,"http://maps.google.com/maps?q=4400 W. GREEN OAKS BLVD.,+ARLINGTON,+TX+76016&hl=en"
ATHENS POLICE DEPT,ATHENS PARTNERSHIP CENTER,201 W. CORSICANA ST,ATHENS,TX,75751,"http://maps.google.com/maps?q=201 W. CORSICANA ST,+ATHENS,+TX+75751&hl=en"
AUSTIN POLICE DEPARTMENT,HOUSEHOLD HAZARDOUS WASTE FACILITY,2514 BUSINESS CENTER DRIVE,AUSTIN,TX,78744,"http://maps.google.com/maps?q=2514 BUSINESS CENTER DRIVE,+AUSTIN,+TX+78744&hl=en"
AZLE PD,AZLE PD,613 SE PARKWAY,AZLE,TX,76020,"http://maps.google.com/maps?q=613 SE PARKWAY,+AZLE,+TX+76020&hl=en"
BALCH SPRINGS POLICE DEPARTMENT,BALCH SPRINGS POLICE DEPARTMENT,12500 ELAM ROAD,BALCH SPRINGS,TX,75180,"http://maps.google.com/maps?q=12500 ELAM ROAD,+BALCH SPRINGS,+TX+75180&hl=en"
BANDERA COUNTY SHERIFF'S OFFICE,BANDERA CITY HALL,511 MAIN STREET,BANDERA,TX,78003,"http://maps.google.com/maps?q=511 MAIN STREET,+BANDERA,+TX+78003&hl=en"
BANDERA COUNTY SHERIFF'S OFFICE,LAKEHILLS LIBRARY,7200 FM 1283,LAKEHILLS,TX,78063,"http://maps.google.com/maps?q=7200 FM 1283,+LAKEHILLS,+TX+78063&hl=en"
BARTONVILLE POLICE DEPARTMENT,BARTONVILLE POLICE DEPARTMENT,1941 EAST JETER RD,BARTONVILLE,TX,76226,"http://maps.google.com/maps?q=1941 EAST JETER RD,+BARTONVILLE,+TX+76226&hl=en"
BASTROP COUNTY SHERIFF'S OFFICE,TRACTOR SUPPLY COMPANY,441 TEXAS 71,BASTROP,TX,78602,"http://maps.google.com/maps?q=441 TEXAS 71,+BASTROP,+TX+78602&hl=en"
BAYLOR POLICE DEPARTMENT,BAYLOR POLICE DEPARTMENT,1521 SOUTH 4TH,WACO,TX,76798,"http://maps.google.com/maps?q=1521 SOUTH 4TH,+WACO,+TX+76798&hl=en"
BEDFORD PD,BEDFORD POLICE DEPARTMENT,2121 L. DON DODSON DR.,BEDFORD,TX,76021,"http://maps.google.com/maps?q=2121 L. DON DODSON DR.,+BEDFORD,+TX+76021&hl=en"
BELLMEAD POLICE DEPARTMENT,BELLMEAD POLICE DEPARTMENT,701 MAXFIELD ST.,WACO,TX,76705,"http://maps.google.com/maps?q=701 MAXFIELD ST.,+WACO,+TX+76705&hl=en"
BENBROOK PD,BENBROOK FIRE DEPARTMENT,528 MERCEDES ST,BENBROOK,TX,76126,"http://maps.google.com/maps?q=528 MERCEDES ST,+BENBROOK,+TX+76126&hl=en"
BEXAR COUNTY SHERIFF'S OFFICE,H-E-B PLUS STORE #13,"4100 NEW BRAUNFELS AVENUE @ FAIR AVE.,",SAN ANTONIO,TX,78223,"http://maps.google.com/maps?q=4100 NEW BRAUNFELS AVENUE @ FAIR AVE.,,+SAN ANTONIO,+TX+78223&hl=en"
BEXAR COUNTY SHERIFF'S OFFICE,H-E-B PLUS STORE #27,8219 MARBACH RD,SAN ANTONIO,TX,78227,"http://maps.google.com/maps?q=8219 MARBACH RD,+SAN ANTONIO,+TX+78227&hl=en"
BEXAR COUNTY SHERIFF'S OFFICE,H-E-B PLUS STORE #32,9238 TX LOOP 1604,SAN ANTONIO,TX,78249,"http://maps.google.com/maps?q=9238 TX LOOP 1604,+SAN ANTONIO,+TX+78249&hl=en"
BEXAR COUNTY SHERIFF'S OFFICE,H-E-B PLUS STORE #36,"6818 S. ZARZAMORA ST.,",SAN ANTONIO,TX,78224,"http://maps.google.com/maps?q=6818 S. ZARZAMORA ST.,,+SAN ANTONIO,+TX+78224&hl=en"
BEXAR COUNTY SHERIFF'S OFFICE,H-E-B STORE #10,2130 CULEBRA,SAN ANTONIO,TX,78228,"http://maps.google.com/maps?q=2130 CULEBRA,+SAN ANTONIO,+TX+78228&hl=en"
BIG SPRING POLICE DEPARTMENT,BIG SPRING MALL,1801 E. FM 700,BIG SPRING,TX,79720,"http://maps.google.com/maps?q=1801 E. FM 700,+BIG SPRING,+TX+79720&hl=en"
BOERNE POLICE DEPARTMENT,BOERNE POLICE DEPARTMENT,124 OLD SAN ANTONIO ROAD,BOERNE,TX,78006,"http://maps.google.com/maps?q=124 OLD SAN ANTONIO ROAD,+BOERNE,+TX+78006&hl=en"
BOWIE POLICE DEPARTMENT,BOWIE POLICE DEPARTMENT,302 LINDSEY STREET,DALLAS,TX,75230,"http://maps.google.com/maps?q=302 LINDSEY STREET,+DALLAS,+TX+75230&hl=en"
BRECKENRIDGE PD,FIRST BAPTIST CHURCH,301 SOUTH ROSE,BRECKENRIDGE,TX,76424,"http://maps.google.com/maps?q=301 SOUTH ROSE,+BRECKENRIDGE,+TX+76424&hl=en"
BROWNWOOD POLICE DEPARTMENT,AUSTIN/COGGIN LOT,1401 AUSTIN AVE,BROWNWOOD,TX,76801,"http://maps.google.com/maps?q=1401 AUSTIN AVE,+BROWNWOOD,+TX+76801&hl=en"
BROWNWOOD POLICE DEPARTMENT,BROWNWOOD POLICE DEPARTMENT,1050 W COMMERCE,BROWNWOOD,TX,76801,"http://maps.google.com/maps?q=1050 W COMMERCE,+BROWNWOOD,+TX+76801&hl=en"
BUDA POLICE DEPARTMENT,BUDA POLICE DEPARTMENT,"405 E. LOOP SOUTH, BUILDING #2",BUDA,TX,78610,"http://maps.google.com/maps?q=405 E. LOOP SOUTH, BUILDING #2,+BUDA,+TX+78610&hl=en"
BULVERDE CITY HALL,BULVERDE CITY HALL,30360 COUGAR BEND,BULVERDE,TX,78163,"http://maps.google.com/maps?q=30360 COUGAR BEND,+BULVERDE,+TX+78163&hl=en"
BURLESON PD,BURLESON POLICE DEPARTMENT,1161 SW WILSHIRE BLVD,BURLESON,TX,76028,"http://maps.google.com/maps?q=1161 SW WILSHIRE BLVD,+BURLESON,+TX+76028&hl=en"
BURNET COUNTY SHERIFF'S OFFICE,BURNET COUNTY SHERIFF'S OFFICE,1601 EAST POLK STREET,BURNET,TX,78611,"http://maps.google.com/maps?q=1601 EAST POLK STREET,+BURNET,+TX+78611&hl=en"
CARROLLTON PD,CARROLLTON PD,2025 E JACKSON RD,CARROLLTON,TX,75006,"http://maps.google.com/maps?q=2025 E JACKSON RD,+CARROLLTON,+TX+75006&hl=en"
CARROLLTON PD,HEBRON VALLEY ELEMENTARY SCHOOL,4108 CREEK VALLEY BLVD,CARROLLTON,TX,75010,"http://maps.google.com/maps?q=4108 CREEK VALLEY BLVD,+CARROLLTON,+TX+75010&hl=en"
CEDAR HILL PD,WALGREENS,502 E. BELTLINE RD,CEDAR HILL,TX,75104,"http://maps.google.com/maps?q=502 E. BELTLINE RD,+CEDAR HILL,+TX+75104&hl=en"
CEDAR PARK POLICE DEPARTMENT,CEDAR PARK POLICE DEPARTMENT,911 QUEST PARKWAY,CEDAR PARK,TX,78613,"http://maps.google.com/maps?q=911 QUEST PARKWAY,+CEDAR PARK,+TX+78613&hl=en"
CELINA POLICE DEPARTMENT,CELINA FIRE DEPARTMENT,1413 S PRESTON RD,CELINA,TX,75009,"http://maps.google.com/maps?q=1413 S PRESTON RD,+CELINA,+TX+75009&hl=en"
CIBOLO POLICE DEPARTMENT,CIBOLO POLICE DEPARTMENT,162 LOOP 539 EAST,CIBOLO,TX,78108,"http://maps.google.com/maps?q=162 LOOP 539 EAST,+CIBOLO,+TX+78108&hl=en"
CLEBURNE PD,CLEBURNE MUNICIPAL COURT PARKING LOT,303 W. HENDERSON,CLEBURNE,TX,76033,"http://maps.google.com/maps?q=303 W. HENDERSON,+CLEBURNE,+TX+76033&hl=en"
COALITION OF SUBSTANCE ABUSE PREVENTION,CHURCH OF CHAMPIONS,12922 CUTTEN RD,HOUSTON,TX,77066,"http://maps.google.com/maps?q=12922 CUTTEN RD,+HOUSTON,+TX+77066&hl=en"
COALITION OF SUBSTANCE ABUSE PREVENTION,COALITION OF SUBSTANCE ABUSE PREVENTION HOUSTON COMMUNITY COLLEGE,1010 WEST SAM HOUSTON PARKWAY NORTH(MAIN ENTRANCE),HOUSTON,TX,77043,"http://maps.google.com/maps?q=1010 WEST SAM HOUSTON PARKWAY NORTH,+HOUSTON,+TX+77043&hl=en"
COLLEYVILLE PD,COLLEYVILLE SENIOR CENTER,2512 GLADE RD,COLLEYVILLE,TX,76034,"http://maps.google.com/maps?q=2512 GLADE RD,+COLLEYVILLE,+TX+76034&hl=en"
COLONY PD,THE COLONY HIGH SCHOOL,4301 BLAIR OAKS,THE COLONY,TX,75056,"http://maps.google.com/maps?q=4301 BLAIR OAKS,+THE COLONY,+TX+75056&hl=en"
COMAL COUNTY SHERIFF'S OFFICE,BULVERDE SPRING BRANCH FIRE DEPARTMENT,353 RODEO DRIVE,SPRING BRANCH,TX,78070,"http://maps.google.com/maps?q=353 RODEO DRIVE,+SPRING BRANCH,+TX+78070&hl=en"
COMAL COUNTY SHERIFF'S OFFICE,COMAL COUNTY SHERIFF'S OFFICE,160 OAK DRIVE,NEW BRAUNFELS,TX,78132,"http://maps.google.com/maps?q=160 OAK DRIVE,+NEW BRAUNFELS,+TX+78132&hl=en"
COMANCHE POLICE DEPARTMENT,BROOKSHIRE'S GROCERY,404 W. CENTRAL AVE.,COMANCHE,TX,76442,"http://maps.google.com/maps?q=404 W. CENTRAL AVE.,+COMANCHE,+TX+76442&hl=en"
CONROE POLICE DEPARTMENT,CONROE POLICE DEPARTMENT,2300 PLANTATION DRIVE,CONROE,TX,77303,"http://maps.google.com/maps?q=2300 PLANTATION DRIVE,+CONROE,+TX+77303&hl=en"
COPPELL POLICE DEPT,COPPELL POLICE DEPARTMENT,130 TOWN CENTER BLVD,COPPELL,TX,75019,"http://maps.google.com/maps?q=130 TOWN CENTER BLVD,+COPPELL,+TX+75019&hl=en"
COPPERAS COVE POLICE DEPARTMENT,COPPERAS COVE POLICE DEPARTMENT,302 E AVENUE E,COPPERAS COVE,TX,76522,"http://maps.google.com/maps?q=302 E AVENUE E,+COPPERAS COVE,+TX+76522&hl=en"
CORSICANA ISD POLICE DEPT.,FIRST BAPTIST CHURCH CHURCH PARKING,510 W. COLLIN,CORSICANA,TX,75110,"http://maps.google.com/maps?q=510 W. COLLIN,+CORSICANA,+TX+75110&hl=en"
CORYELL COUNTY SHERIFF'S OFFICE,CORYELL COUNTY SHERIFF'S OFFICE,510 LEON STREET,GATESVILLE,TX,76528,"http://maps.google.com/maps?q=510 LEON STREET,+GATESVILLE,+TX+76528&hl=en"
CROWLEY PD,CROWLEY PD,617 BUSINESS FM 1187 W,CROWLEY,TX,76036,"http://maps.google.com/maps?q=617 BUSINESS FM 1187 W,+CROWLEY,+TX+76036&hl=en"
CYFAIR VFD STATION 11,CYFAIR VFD STATION 11,18132 WEST ROAD,CYPRESS,TX,77433,"http://maps.google.com/maps?q=18132 WEST ROAD,+CYPRESS,+TX+77433&hl=en"
DALLAS COUNTY COMMUNITY COLLEGE POLICE,CEDAR VALLEY COLLEGE/DCCCD,"3030 NORTH DALLAS AVE, PARKING LOT S-3",LANCASTER,TX,75134,"http://maps.google.com/maps?q=3030 NORTH DALLAS AVE, PARKING LOT S-3,+LANCASTER,+TX+75134&hl=en"
DALLAS COUNTY COMMUNITY COLLEGE POLICE,GARLAND CAMPUS/DCCCD NORTH LOT,675 W. WALNUT ST.,GARLAND,TX,75040,"http://maps.google.com/maps?q=675 W. WALNUT ST.,+GARLAND,+TX+75040&hl=en"
DALLAS COUNTY COMMUNITY COLLEGE POLICE,RICHLAND COLLEGE/DCCCD PARKING LOT E,12800 ABRAMS ROAD,DALLAS,TX,75243,"http://maps.google.com/maps?q=12800 ABRAMS ROAD,+DALLAS,+TX+75243&hl=en"
DALLAS COUNTY HOSP DIST PD,AMBULATORY SURGERY CENTER,4900 HARRY HINES BLVD,DALLAS,TX,75235,"http://maps.google.com/maps?q=4900 HARRY HINES BLVD,+DALLAS,+TX+75235&hl=en"
DALLAS COUNTY HOSP DIST PD,BLUITT-FLOWERS CENTER,303 E OVERTON RD,DALLAS,TX,75216,"http://maps.google.com/maps?q=303 E OVERTON RD,+DALLAS,+TX+75216&hl=en"
DALLAS COUNTY HOSP DIST PD,DEHARO-SALDIVAR CENTER,1400 N WESTMORELAND RD,DALLAS,TX,75211,"http://maps.google.com/maps?q=1400 N WESTMORELAND RD,+DALLAS,+TX+75211&hl=en"
DALLAS COUNTY HOSP DIST PD,GARLAND CENTER,802 HOPKINS ST,GARLAND,TX,75040,"http://maps.google.com/maps?q=802 HOPKINS ST,+GARLAND,+TX+75040&hl=en"
DALLAS COUNTY HOSP DIST PD,SOUTHEAST DALLAS CENTER,9202 ELAM RD,DALLAS,TX,75217,"http://maps.google.com/maps?q=9202 ELAM RD,+DALLAS,+TX+75217&hl=en"
DALLAS COUNTY HOSP DIST PD,VICKERY WOMEN'S HEALTH CENTER,8224 PARK LN,DALLAS,TX,75231,"http://maps.google.com/maps?q=8224 PARK LN,+DALLAS,+TX+75231&hl=en"
DALLAS ISD POLICE DEPARTMENT,DAVID W. CARTER HIGH SCHOOL,1819 W. WHEATLAND RD,DALLAS,TX,75232,"http://maps.google.com/maps?q=1819 W. WHEATLAND RD,+DALLAS,+TX+75232&hl=en"
DALLAS ISD POLICE DEPARTMENT,WOODROW WILSON HIGH SCHOOL,100 S. GLASGOW DR.,DALLAS,TX,75214,"http://maps.google.com/maps?q=100 S. GLASGOW DR.,+DALLAS,+TX+75214&hl=en"
DALLAS POLICE DEPARTMENT,BECKLEY SANER RECREATION CENTER,114 W. HOBSON AVE,DALLAS,TX,75224,"http://maps.google.com/maps?q=114 W. HOBSON AVE,+DALLAS,+TX+75224&hl=en"
DALLAS POLICE DEPARTMENT,DALLAS POLICE SUBSTATION NORTHEAST DIVISION,9915 E NORTHWEST HWY,DALLAS,TX,75238,"http://maps.google.com/maps?q=9915 E NORTHWEST HWY,+DALLAS,+TX+75238&hl=en"
DALLAS POLICE DEPARTMENT,EXALL RECREATION CENTER,1300 ADAIR,DALLAS,TX,75204,"http://maps.google.com/maps?q=1300 ADAIR,+DALLAS,+TX+75204&hl=en"
DALLAS POLICE DEPARTMENT,REDBIRD MALL - OUTREACH CENTER,3662 W. CAMP WISDOM RD.,DALLAS,TX,75237,"http://maps.google.com/maps?q=3662 W. CAMP WISDOM RD.,+DALLAS,+TX+75237&hl=en"
DEA SPONSORED,BARTON CREEK SQUARE MALL - PARKING LOT UNIV OF TEXAS-COLLEGE OF PHARMACY,2901 SOUTH CAPITOL OF TEXAS HIGHWAY,AUSTIN,TX,78746,"http://maps.google.com/maps?q=2901 SOUTH CAPITOL OF TEXAS HIGHWAY,+AUSTIN,+TX+78746&hl=en"
DEA SPONSORED,LEGACY HILLS PARK PAVILLION SUN CITY CENTER,200 DEL WEBB BLVD.,GEORGETOWN,TX,78626,"http://maps.google.com/maps?q=200 DEL WEBB BLVD.,+GEORGETOWN,+TX+78626&hl=en"
DEA SPONSORED,MASONIC LODGE,503 S. ANN,BRACKETTVILLE,TX,78832,"http://maps.google.com/maps?q=503 S. ANN,+BRACKETTVILLE,+TX+78832&hl=en"
DEA SPONSORED,TRACTOR SUPPLY COMPANY,421 E. MAIN STREET,UVALDE,TX,78801,"http://maps.google.com/maps?q=421 E. MAIN STREET,+UVALDE,+TX+78801&hl=en"
DEL RIO POLICE DEPARTMENT,DEL RIO CIVIC CENTER,1915 VETERANS BLVD,DEL RIO,TX,78840,"http://maps.google.com/maps?q=1915 VETERANS BLVD,+DEL RIO,+TX+78840&hl=en"
DUNCANVILLE PD,DUNCANVILLE PD,203 E WHEATLAND RD,DUNCANVILLE,TX,75116,"http://maps.google.com/maps?q=203 E WHEATLAND RD,+DUNCANVILLE,+TX+75116&hl=en"
ELGIN POLICE DEPARTMENT,ELGIN POLICE DEPARTMENT,202 DEPOT STREET,ELGIN,TX,78621,"http://maps.google.com/maps?q=202 DEPOT STREET,+ELGIN,+TX+78621&hl=en"
ELLIS COUNTY CONSTABLE'S OFFICE PCT ONE,ENNIS ISD ADMINISTRATION BUILDING,303 KNOX ST,ENNIS,TX,75119,"http://maps.google.com/maps?q=303 KNOX ST,+ENNIS,+TX+75119&hl=en"
ELLIS COUNTY SO,COLEMAN JR. HIGH PARKING LOT,1000 N HWY 77,WAXAHACHIE,TX,75165,"http://maps.google.com/maps?q=1000 N HWY 77,+WAXAHACHIE,+TX+75165&hl=en"
EVERMAN POLICE DEPARTMENT,EVERMAN POLICE DEPARTMENT,404 W ENON AVE,EVERMAN,TX,76140,"http://maps.google.com/maps?q=404 W ENON AVE,+EVERMAN,+TX+76140&hl=en"
FAIRVIEW PD,FAIRVIEW FIRE STATION #1,500 SOUTH STATE HWY 5,FAIRVIEW,TX,75069,"http://maps.google.com/maps?q=500 SOUTH STATE HWY 5,+FAIRVIEW,+TX+75069&hl=en"
FARMERS BRANCH PD,FARMERS BRANCH POLICE DEPT,3723 VALLEY VIEW LANE,FARMERS BRANCH,TX,75244,"http://maps.google.com/maps?q=3723 VALLEY VIEW LANE,+FARMERS BRANCH,+TX+75244&hl=en"
FERRIS POLICE DEPARTMENT,GAZEBO ON THE TOWN SQUARE,100 TOWN PLAZA,FERRIS,TX,75125,"http://maps.google.com/maps?q=100 TOWN PLAZA,+FERRIS,+TX+75125&hl=en"
FLOWER MOUND PD,FLOWER MOUND HIGH SCHOOL,3411 PETERS COLONY,FLOWER MOUND,TX,75022,"http://maps.google.com/maps?q=3411 PETERS COLONY,+FLOWER MOUND,+TX+75022&hl=en"
FLOWER MOUND PD,MARCUS HIGH SCHOOL,5707 MORRISS RD,FLOWER MOUND,TX,75028,"http://maps.google.com/maps?q=5707 MORRISS RD,+FLOWER MOUND,+TX+75028&hl=en"
FORNEY POLICE DEPARTMENT,FORNEY POLICE DEPARTMENT,110 JUSTICE CENTER DR,FORNEY,TX,75126,"http://maps.google.com/maps?q=110 JUSTICE CENTER DR,+FORNEY,+TX+75126&hl=en"
FORT WORTH PD,CVS PHARMACY,1200 N. BEACH ST.,FORT WORTH,TX,76111,"http://maps.google.com/maps?q=1200 N. BEACH ST.,+FORT WORTH,+TX+76111&hl=en"
FORT WORTH PD,HAZEL HARVEY PEACE CENTER,818 MISSOURI AVE,FORT WORTH,TX,76104,"http://maps.google.com/maps?q=818 MISSOURI AVE,+FORT WORTH,+TX+76104&hl=en"
FORT WORTH PD,NORTH DIVISION FWPD,8755 N RIVERSIDE DRIVE,FORT WORTH,TX,76137,"http://maps.google.com/maps?q=8755 N RIVERSIDE DRIVE,+FORT WORTH,+TX+76137&hl=en"
FORT WORTH PD,RIDGMAR MALL,1888 GREEN OAKS RD,FORT WORTH,TX,76116,"http://maps.google.com/maps?q=1888 GREEN OAKS RD,+FORT WORTH,+TX+76116&hl=en"
FORT WORTH PD,WALMART,7451 MCCART AVE.,FORT WORTH,TX,76133,"http://maps.google.com/maps?q=7451 MCCART AVE.,+FORT WORTH,+TX+76133&hl=en"
FREDERICKSBURG POLICE DEPARTMENT,FREDERICKSBURG POLICE DEPARTMENT,1601 EAST MAIN ST.,FREDERICKSBURG,TX,78624,"http://maps.google.com/maps?q=1601 EAST MAIN ST.,+FREDERICKSBURG,+TX+78624&hl=en"
GATESVILLE POLICE DEPARTMENT,GATESVILLE POLICE DEPARTMENT,200 N. 8TH STREET,GATESVILLE,TX,76528,"http://maps.google.com/maps?q=200 N. 8TH STREET,+GATESVILLE,+TX+76528&hl=en"
GLENN HEIGHTS PD,CITY HALL,1938 S. HAMPTON,GLENN HEIGHTS,TX,75154,"http://maps.google.com/maps?q=1938 S. HAMPTON,+GLENN HEIGHTS,+TX+75154&hl=en"
GRAND PRAIRIE POLICE DEPT.,GRAND PRAIRIE POLICE DEPARTMENT,1525 ARKANSAS LANE,GRAND PRAIRIE,TX,75052,"http://maps.google.com/maps?q=1525 ARKANSAS LANE,+GRAND PRAIRIE,+TX+75052&hl=en"
GRAPEVINE POLICE DEPT,GRAPEVINE POLICE DEPARTMENT,1007 IRA E WOODS AVE,GRAPEVINE,TX,76051,"http://maps.google.com/maps?q=1007 IRA E WOODS AVE,+GRAPEVINE,+TX+76051&hl=en"
GREENVILLE PD,GREENVILLE PD,3000 LEE STREET,GREENVILLE,TX,75401,"http://maps.google.com/maps?q=3000 LEE STREET,+GREENVILLE,+TX+75401&hl=en"
GUADALUPE COUNTY SHERIFF'S OFFICE,GUADALUPE COUNTY SHERIFF'S OFFICE,2617 N. GUADALUPE STREET,SEGUIN,TX,78155,"http://maps.google.com/maps?q=2617 N. GUADALUPE STREET,+SEGUIN,+TX+78155&hl=en"
HARKER HEIGHTS POLICE DEPARTMENT,HARKER HEIGHTS POLICE DEPARTMENT,402 INDIAN TRAIL,HARKER HEIGHTS,TX,76548,"http://maps.google.com/maps?q=402 INDIAN TRAIL,+HARKER HEIGHTS,+TX+76548&hl=en"
HARRIS COUNTY CONTABLE PRECINCT 4,THE RECREATION CENTER OF ROB FLEMING PARK THE WOODLANDS TOWNSHIP,6464 CREEKSIDE FOREST DR,SPRING,TX,77389,"http://maps.google.com/maps?q=6464 CREEKSIDE FOREST DR,+SPRING,+TX+77389&hl=en"
HARRIS COUNTY HOUSEHOLD HAZARDOUS COLLECTION FACL.,HARRIS COUNTY HOUSEHOLD HAZARDOUS COLLECTION FACL.,6900 HAHL ROAD,HOUSTON,TX,77040,"http://maps.google.com/maps?q=6900 HAHL ROAD,+HOUSTON,+TX+77040&hl=en"
HARRIS COUNTY SHERIFF'S OFFICE - FRANZ ROAD,HARRIS COUNTY SHERIFF'S OFFICE FRANZ ROAD STOREFRONT,19818 FRANZ ROAD,KATY,TX,77449,"http://maps.google.com/maps?q=19818 FRANZ ROAD,+KATY,+TX+77449&hl=en"
HARRIS COUNTY SHERIFF'S OFFICE DISTRICT 1,HARRIS COUNTY SHERIFF'S OFFICE DISTRICT 1 HARRIS COUNTY COURT HOUSE,6831 CYPRESSWOOD DR.,SPRING,TX,77379,"http://maps.google.com/maps?q=6831 CYPRESSWOOD DR.,+SPRING,+TX+77379&hl=en"
HARRIS COUNTY SHERIFF'S OFFICE DISTRICT 2,HARRIS COUNTY SHERIFF'S OFFICE DISTRICT 2 HUMBLE COURT HOUSE,7900 WILL CLAYTON PKWY,HUMBLE,TX,77338,"http://maps.google.com/maps?q=7900 WILL CLAYTON PKWY,+HUMBLE,+TX+77338&hl=en"
HARRIS COUNTY SHERIFF'S OFFICE DISTRICT 3,HARRIS COUNTY SHERIFF'S OFFICE DISTRICT 3 JIM FONTENO HARRIS COUNTY COURT HOUSE ANNEX 26 BUILDING,14350 WALLISVILLE RD,HOUSTON,TX,77049,"http://maps.google.com/maps?q=14350 WALLISVILLE RD,+HOUSTON,+TX+77049&hl=en"
HARRIS COUNTY SHERIFF'S OFFICE DISTRICT 5,HARRIS COUNTY SHERIFF'S OFFICE DISTRICT 5,23828 TOMBALL PARKWAY,TOMBALL,TX,77375,"http://maps.google.com/maps?q=23828 TOMBALL PARKWAY,+TOMBALL,+TX+77375&hl=en"
HEWITT POLICE DEPARTMENT,HEWITT POLICE DEPARTMENT,100 PATRIOT COURT,HEWITT,TX,76643,"http://maps.google.com/maps?q=100 PATRIOT COURT,+HEWITT,+TX+76643&hl=en"
HIGHLAND PARK DEPT OF PUBLIC SAFETY,HIGHLAND PARK DPS,4700 DREXEL DR,HIGHLAND PARK,TX,75205,"http://maps.google.com/maps?q=4700 DREXEL DR,+HIGHLAND PARK,+TX+75205&hl=en"
HILLSBORO POLICE DEPARTMENT,HILLSBORO POLICE DEPARTMENT,303 N. WACO STREET,HILLSBORO,TX,76645,"http://maps.google.com/maps?q=303 N. WACO STREET,+HILLSBORO,+TX+76645&hl=en"
HOLLYWOOD PARK POLICE DEPARTMENT,HOLLYWOOD PARK POLICE DEPARTMENT,2 MECCA DRIVE,HOLLYWOOD PARK,TX,78232,"http://maps.google.com/maps?q=2 MECCA DRIVE,+HOLLYWOOD PARK,+TX+78232&hl=en"
HONDO POLICE DEPARTMENT,HONDO POLICE DEPARTMENT,1101 16TH STREET,HONDO,TX,78861,"http://maps.google.com/maps?q=1101 16TH STREET,+HONDO,+TX+78861&hl=en"
HOOD COUNTY SHERIFF'S OFFICE,HOOD COUNTY EMERGENCY OPERATIONS CENTER,401 DEPUTY LARRY MILLER DR,GRANBURY,TX,76048,"http://maps.google.com/maps?q=401 DEPUTY LARRY MILLER DR,+GRANBURY,+TX+76048&hl=en"
HOUSTON POLICE DEPARTMENT METRO PARK N RIDE,HOUSTON POLICE DEPARTMENT METRO PARK N RIDE,3210 W. LAKE HOUSTON PKWY,KINGWOOD,TX,77345,"http://maps.google.com/maps?q=3210 W. LAKE HOUSTON PKWY,+KINGWOOD,+TX+77345&hl=en"
HOUSTON POLICE DEPARTMENT NORTH STATION,HOUSTON POLICE DEPARTMENT NORTH STATION,9455 W. MONTGOMERY RD,HOUSTON,TX,77088,"http://maps.google.com/maps?q=9455 W. MONTGOMERY RD,+HOUSTON,+TX+77088&hl=en"
HUNTSVILLE POLICE DEPARTMENT,HUNTSVILLE POLICE DEPARTMENT HUNTSVILLE HIGH SCHOOL,515 FM 2821 ROAD EAST,HUNTSVILLE,TX,77320,"http://maps.google.com/maps?q=515 FM 2821 ROAD EAST,+HUNTSVILLE,+TX+77320&hl=en"
HUTCHINS POLICE DEPARTMENT,HUTCHINS POLICE DEPARTMENT,205 W. HICKMAN,HUTCHINS,TX,75141,"http://maps.google.com/maps?q=205 W. HICKMAN,+HUTCHINS,+TX+75141&hl=en"
IRVING POLICE DEPT,CRIMINAL JUSTICE CENTER,305 N O'CONNOR RD,IRVING,TX,75061,"http://maps.google.com/maps?q=305 N O'CONNOR RD,+IRVING,+TX+75061&hl=en"
IRVING POLICE DEPT,IRVING POLICE NORTH STATION PARKING LOT,5992 RIVERSIDE DRIVE,IRVING,TX,75039,"http://maps.google.com/maps?q=5992 RIVERSIDE DRIVE,+IRVING,+TX+75039&hl=en"
ITALY PD,ITALY PD,161 W. MAIN,ITALY,TX,76651,"http://maps.google.com/maps?q=161 W. MAIN,+ITALY,+TX+76651&hl=en"
JACKSBORO PD,JACK COUNTY COURTHOUSE N SIDE,100 N MAIN,JACKSBORO,TX,76458,"http://maps.google.com/maps?q=100 N MAIN,+JACKSBORO,+TX+76458&hl=en"
JACKSONVILLE PD,JACKSONVILLE CHAMBER OF COMMERCE,526 E. COMMERCE ST,JACKSONVILLE,TX,75766,"http://maps.google.com/maps?q=526 E. COMMERCE ST,+JACKSONVILLE,+TX+75766&hl=en"
JOHNSON COUNTY CONSTABLE'S OFFICE PCT. 1,GODLEY CITY HALL,104 S. MAIN,GODLEY,TX,76044,"http://maps.google.com/maps?q=104 S. MAIN,+GODLEY,+TX+76044&hl=en"
JOHNSON COUNTY CONSTABLE'S OFFICE PCT. 1,RIO VISTA CIVIC CENTER,201 TX-174,RIO VISTA,TX,76093,"http://maps.google.com/maps?q=201 TX-174,+RIO VISTA,+TX+76093&hl=en"
JONESTOWN POLICE DEPARTMENT,JONESTOWN POLICE DEPARTMENT,18304 NORTH PARK DR.,JONESTOWN,TX,78645,"http://maps.google.com/maps?q=18304 NORTH PARK DR.,+JONESTOWN,+TX+78645&hl=en"
JOSHUA POLICE DEPARTMENT,JOSHUA COMMUNITY YMCA,1009 JOSHUA STATION BLVD.,JOSHUA,TX,76058,"http://maps.google.com/maps?q=1009 JOSHUA STATION BLVD.,+JOSHUA,+TX+76058&hl=en"
KATY ISD POLICE DEPARTMENT,KATY ISD POLICE DEPARTMENT KATY ISD LAW ENFORCEMENT CENTER,20370 FRANZ ROAD,KATY,TX,77449,"http://maps.google.com/maps?q=20370 FRANZ ROAD,+KATY,+TX+77449&hl=en"
KAUFMAN POLICE DEPARTMENT,KAUFMAN CITY HALL/PD,209 SOUTH WASHINGTON ST,KAUFMAN,TX,75142,"http://maps.google.com/maps?q=209 SOUTH WASHINGTON ST,+KAUFMAN,+TX+75142&hl=en"
KELLER POLICE DEPARTMENT,KELLER POLICE DEPARTMENT,330 RUFE SNOW DRIVE,KELLER,TX,76248,"http://maps.google.com/maps?q=330 RUFE SNOW DRIVE,+KELLER,+TX+76248&hl=en"
KENDALL COUNTY SHERIFF'S OFFICE,COMFORT COMMUNITY PARK,403 HIGHWAY 27,COMFORT,TX,78013,"http://maps.google.com/maps?q=403 HIGHWAY 27,+COMFORT,+TX+78013&hl=en"
KENNEDALE POLICE DEPT,KENNEDALE POLICE DEPT,401 MUNICIPAL DR,KENNEDALE,TX,76060,"http://maps.google.com/maps?q=401 MUNICIPAL DR,+KENNEDALE,+TX+76060&hl=en"
KERRVILLE POLICE DEPARTMENT,KERRVILLE POLICE DEPARTMENT,429 SIDNEY BAKER,KERRVILLE,TX,78028,"http://maps.google.com/maps?q=429 SIDNEY BAKER,+KERRVILLE,+TX+78028&hl=en"
KILLEEN POLICE DEPARTMENT,KILLEEN POLICE DEPARTMENT,3304 COMMUNITY BLVD.,KILLEEN,TX,76542,"http://maps.google.com/maps?q=3304 COMMUNITY BLVD.,+KILLEEN,+TX+76542&hl=en"
KLEIN ISD POLICE DEPARTMENT,KLEIN ISD POLICE DEPARTMENT,7407 LOUETTA ROAD,SPRING,TX,77379,"http://maps.google.com/maps?q=7407 LOUETTA ROAD,+SPRING,+TX+77379&hl=en"
LACY LAKEVIEW POLICE DEPARTMENT,LACY LAKEVIEW POLICE DEPARTMENT,503 E. CRAVEN AVE.,WACO,TX,76705,"http://maps.google.com/maps?q=503 E. CRAVEN AVE.,+WACO,+TX+76705&hl=en"
LAKE DALLAS POLICE DEPARTMENT,LAKE DALLAS POLICE DEPARTMENT,212 MAIN ST,LAKE DALLAS,TX,75065,"http://maps.google.com/maps?q=212 MAIN ST,+LAKE DALLAS,+TX+75065&hl=en"
LAKEWAY POLICE DEPARTMENT/BEE CAVE POLICE DEPT.,LAKEWAY POLICE DEPARTMENT,104 CROSS CREEK,LAKEWAY,TX,78734,"http://maps.google.com/maps?q=104 CROSS CREEK,+LAKEWAY,+TX+78734&hl=en"
LAMPASAS POLICE DEPARTMENT,LAMPASAS POLICE DEPARTMENT,301 EAST 4TH STREET,LAMPASAS,TX,76550,"http://maps.google.com/maps?q=301 EAST 4TH STREET,+LAMPASAS,+TX+76550&hl=en"
LEANDER POLICE DEPARTMENT,LEANDER POLICE DEPARTMENT,705 LEANDER DRIVE,LEANDER,TX,78641,"http://maps.google.com/maps?q=705 LEANDER DRIVE,+LEANDER,+TX+78641&hl=en"
LEWISVILLE PD,LEWISVILLE HIGH SCHOOL,1098 W. MAIN STREET,LEWISVILLE,TX,75067,"http://maps.google.com/maps?q=1098 W. MAIN STREET,+LEWISVILLE,+TX+75067&hl=en"
LITTLE ELM PD,LITTLE ELM PUBLIC SAFETY CENTER,88 W. ELDORADO PKWY,LITTLE ELM,TX,75068,"http://maps.google.com/maps?q=88 W. ELDORADO PKWY,+LITTLE ELM,+TX+75068&hl=en"
LIVE OAK POLICE DEPARTMENT,LIVE OAK POLICE DEPARTMENT,8022 SHIN OAK,LIVE OAK,TX,78233,"http://maps.google.com/maps?q=8022 SHIN OAK,+LIVE OAK,+TX+78233&hl=en"
MANSFIELD PD,MANSFIELD PUBLIC SAFETY BUILDING,1305 E. BROAD ST,MANSFIELD,TX,76063,"http://maps.google.com/maps?q=1305 E. BROAD ST,+MANSFIELD,+TX+76063&hl=en"
MARBLE FALLS POLICE DEPARTMENT,MARBLE FALLS POLICE DEPARTMENT,606 AVENUE NORTH,MARBLE FALLS,TX,78654,"http://maps.google.com/maps?q=606 AVENUE NORTH,+MARBLE FALLS,+TX+78654&hl=en"
MAYPEARL PD,MAYPEARL PD,104 E. SECOND,MAYPEARL,TX,76064,"http://maps.google.com/maps?q=104 E. SECOND,+MAYPEARL,+TX+76064&hl=en"
MCKINNEY PD,MCKINNEY PUBLIC SAFETY BUILDING,2200 TAYLOR BURK DR,MCKINNEY,TX,75071,"http://maps.google.com/maps?q=2200 TAYLOR BURK DR,+MCKINNEY,+TX+75071&hl=en"
MELISSA POLICE DEPARTMENT,MELISSA POLICE DEPARTMENT,3411 BARKER AVE,MELISSA,TX,75454,"http://maps.google.com/maps?q=3411 BARKER AVE,+MELISSA,+TX+75454&hl=en"
MESQUITE POLICE DEPARTMENT,MESQUITE POLICE DEPARTMENT,777 N. GALLOWAY,MESQUITE,TX,75149,"http://maps.google.com/maps?q=777 N. GALLOWAY,+MESQUITE,+TX+75149&hl=en"
METHODIST HEALTH SYSTEM POLICE DEPARTMENT,HITT AUDITORIUM AND SERVICE BUILDING PARKING LOT,221 W. COLORADO BLVD.,DALLAS,TX,75208,"http://maps.google.com/maps?q=221 W. COLORADO BLVD.,+DALLAS,+TX+75208&hl=en"
MIDLOTHIAN PD,ACE HARDWARE PARKING LOT,530 E. MAIN,MIDLOTHIAN,TX,76065,"http://maps.google.com/maps?q=530 E. MAIN,+MIDLOTHIAN,+TX+76065&hl=en"
MILFORD PD,MILFORD PD,107 S. MAIN,MILFORD,TX,76670,"http://maps.google.com/maps?q=107 S. MAIN,+MILFORD,+TX+76670&hl=en"
MINERAL WELLS PD,MINERAL WELLS PD,212 SOUTH OAK AVE,MINERAL WELLS,TX,76067,"http://maps.google.com/maps?q=212 SOUTH OAK AVE,+MINERAL WELLS,+TX+76067&hl=en"
MONTGOMERY COUNTY CONSTABLE'S OFFICE PCT. 1,MONTGOMERY COUNTY CONSTABLE'S OFFICE PCT. 1,115 BUSINESS PARK DRIVE,WILLIS,TX,77378,"http://maps.google.com/maps?q=115 BUSINESS PARK DRIVE,+WILLIS,+TX+77378&hl=en"
MONTGOMERY COUNTY CONSTABLE'S OFFICE PCT. 3,GATEWAY BAPTIST CHURCH SGT. RYAN HUTSON,2930 RAYFORD RD,SPRING,TX,77386,"http://maps.google.com/maps?q=2930 RAYFORD RD,+SPRING,+TX+77386&hl=en"
MONTGOMERY COUNTY ISD POLICE DEPARTMENT,MONTGOMERY COUNTY ISD POLICE DEPT.,22825 HWY 105 W.,MONTGOMERY,TX,77356,"http://maps.google.com/maps?q=22825 HWY 105 W.,+MONTGOMERY,+TX+77356&hl=en"
MONTGOMERY COUNTY PRECINCT 4 CONSTABLE'S OFFICE,MONTGOMERY COUNTY PRECINCT 4 CONSTABLE'S OFFICE MONTGOMERY COUNTY ANNEX BUILDING,21130 US HWY 59,NEW CANEY,TX,77357,"http://maps.google.com/maps?q=21130 US HWY 59,+NEW CANEY,+TX+77357&hl=en"
MONTGOMERY COUNTY SHERIFF'S OFFICE,THE WOODLANDS TOWNSHIP TOWN HALL (FRONT PARKING LOT),2801 TECHNOLOGY FOREST BOULEVARD,THE WOODLANDS,TX,77381,"http://maps.google.com/maps?q=2801 TECHNOLOGY FOREST BOULEVARD,+THE WOODLANDS,+TX+77381&hl=en"
MURPHY PD,MURPHY PD,206 N. MURPHY RD,MURPHY,TX,75094,"http://maps.google.com/maps?q=206 N. MURPHY RD,+MURPHY,+TX+75094&hl=en"
NACOGDOCHES COUNTY SHERIFF'S OFFICE,NACOGDOCHES COUNTY SHERIFF'S OFFICE,2306 DOUGLASS HIGHWAY,NACOGDOCHES,TX,75964,"http://maps.google.com/maps?q=2306 DOUGLASS HIGHWAY,+NACOGDOCHES,+TX+75964&hl=en"
NEW BRAUNFELS POLICE DEPARTMENT,HEADWATERS AT THE COMAL,333 EAST KLINGERMAN,NEW BRAUNFELS,TX,78130,"http://maps.google.com/maps?q=333 EAST KLINGERMAN,+NEW BRAUNFELS,+TX+78130&hl=en"
NOLANVILLE POLICE DEPARTMENT,NOLANVILLE POLICE DEPARTMENT,101 N. FIFTH STREET,NOLANVILLE,TX,76559,"http://maps.google.com/maps?q=101 N. FIFTH STREET,+NOLANVILLE,+TX+76559&hl=en"
OAK POINT POLICE DEPARTMENT,OAK POINT DEPARTMENT OF PUBLIC SAFETY,100 NAYLOR RD,OAK POINT,TX,75068,"http://maps.google.com/maps?q=100 NAYLOR RD,+OAK POINT,+TX+75068&hl=en"
PALMER POLICE DEPARTMENT,PALMER CITY HALL,113 W JEFFERSON,PALMER,TX,75152,"http://maps.google.com/maps?q=113 W JEFFERSON,+PALMER,+TX+75152&hl=en"
PARKER PD,PARKER PD DRIVEWAY IN FRONT OF POLICE DEPT.,5700 E PARKER ROAD,PARKER,TX,75002,"http://maps.google.com/maps?q=5700 E PARKER ROAD,+PARKER,+TX+75002&hl=en"
PLANO POLICE DEPARTMENT,CLARK HIGH SCHOOL,523 W SPRING CREEK PARKWAY,PLANO,TX,75023,"http://maps.google.com/maps?q=523 W SPRING CREEK PARKWAY,+PLANO,+TX+75023&hl=en"
PLANO POLICE DEPARTMENT,PLANO EAST SENIOR HIGH,3000 LOS RIOS BLVD,PLANO,TX,75074,"http://maps.google.com/maps?q=3000 LOS RIOS BLVD,+PLANO,+TX+75074&hl=en"
PLANO POLICE DEPARTMENT,PLANO SENIOR HIGH,2200 INDEPENDENCE PARKWAY,PLANO,TX,75075,"http://maps.google.com/maps?q=2200 INDEPENDENCE PARKWAY,+PLANO,+TX+75075&hl=en"
PLANO POLICE DEPARTMENT,PLANO WEST SENIOR HIGH SCHOOL,5601 WEST PARKER ROAD,PLANO,TX,75093,"http://maps.google.com/maps?q=5601 WEST PARKER ROAD,+PLANO,+TX+75093&hl=en"
PONDER POLICE DEPARTMENT,BETTY FOSTER LIBRARY,405 SHAFFNER,PONDER,TX,76259,"http://maps.google.com/maps?q=405 SHAFFNER,+PONDER,+TX+76259&hl=en"
PRAIRIE VIEW A&M POLICE DEPARTMENT,PRAIRIE VIEW A&M POLICE DEPARTMENT,586 ANNE PRESTON ST,PRAIRIE VIEW,TX,77446,"http://maps.google.com/maps?q=586 ANNE PRESTON ST,+PRAIRIE VIEW,+TX+77446&hl=en"
PRINCETON POLICE DEPARTMENT,PRINCETON POLICE DEPARTMENT,306 MAIN ST.,PRINCETON,TX,75407,"http://maps.google.com/maps?q=306 MAIN ST.,+PRINCETON,+TX+75407&hl=en"
PROSPER POLICE DEPARTMENT,PROSPER FIRE DEPARTMENT,1500 EAST FIRST STREET,PROSPER,TX,75078,"http://maps.google.com/maps?q=1500 EAST FIRST STREET,+PROSPER,+TX+75078&hl=en"
RED OAK PD,RED OAK PD,547 N METHODIST ST,RED OAK,TX,75154,"http://maps.google.com/maps?q=547 N METHODIST ST,+RED OAK,+TX+75154&hl=en"
RICHARDSON POLICE DEPT,RICHARDSON CIVIC CENTER/SOUTH PARKING LOT,411 WEST ARAPAHO ROAD,RICHARDSON,TX,75080,"http://maps.google.com/maps?q=411 WEST ARAPAHO ROAD,+RICHARDSON,+TX+75080&hl=en"
RICHLAND HILLS PD,RICHLAND HILLS FD,3201 DIANA DRIVE,RICHLAND HILLS,TX,76118,"http://maps.google.com/maps?q=3201 DIANA DRIVE,+RICHLAND HILLS,+TX+76118&hl=en"
ROANOKE PD,ROANOKE PD,609 DALLAS DR,ROANOKE,TX,76262,"http://maps.google.com/maps?q=609 DALLAS DR,+ROANOKE,+TX+76262&hl=en"
ROCKWALL POLICE DEPARTMENT,ROCKWALL POLICE COMMUNITY SERVICES,1113 RIDGE ROAD,ROCKWALL,TX,75087,"http://maps.google.com/maps?q=1113 RIDGE ROAD,+ROCKWALL,+TX+75087&hl=en"
ROUND ROCK POLICE DEPARTMENT,ROUND ROCK POLICE DEPARTMENT,2701 NORTH MAYS,ROUND ROCK,TX,78665,"http://maps.google.com/maps?q=2701 NORTH MAYS,+ROUND ROCK,+TX+78665&hl=en"
ROWLETT POLICE DEPT,ROWLETT COMMUNITY CENTER,5300 MAIN ST,ROWLETT,TX,75088,"http://maps.google.com/maps?q=5300 MAIN ST,+ROWLETT,+TX+75088&hl=en"
SAGINAW POLICE DEPARTMENT,SAGINAW FIRE DEPARTMENT #1,400 S. SAGINAW BLVD.,SAGINAW,TX,76179,"http://maps.google.com/maps?q=400 S. SAGINAW BLVD.,+SAGINAW,+TX+76179&hl=en"
SAN ANTONIO ISD,YOUNG MEN'S LEADERSHIP ACADEMY,415 GABRIEL ST.,SAN ANTONIO,TX,78223,"http://maps.google.com/maps?q=415 GABRIEL ST.,+SAN ANTONIO,+TX+78223&hl=en"
SANSOM PARK POLICE,SANSOM PARK FIRE STATION,5500 BUCHANAN ST,SANSOM PARK,TX,76114,"http://maps.google.com/maps?q=5500 BUCHANAN ST,+SANSOM PARK,+TX+76114&hl=en"
SCHERTZ POLICE DEPARTMENT,SCHERTZ POLICE DEPARTMENT,1400 SCHERTZ PARKWAY,SCHERTZ,TX,78154,"http://maps.google.com/maps?q=1400 SCHERTZ PARKWAY,+SCHERTZ,+TX+78154&hl=en"
SEAGOVILLE PD,BROOKSHIRES FOOD PARKING LOT,125 HALL ST,SEAGOVILLE,TX,75159,"http://maps.google.com/maps?q=125 HALL ST,+SEAGOVILLE,+TX+75159&hl=en"
SHAVANO PARK POLICE DEPARTMENT,SHAVANO PARK POLICE DEPARTMENT,900 SADDLETREE COURT,SHAVANO PARK,TX,78231,"http://maps.google.com/maps?q=900 SADDLETREE COURT,+SHAVANO PARK,+TX+78231&hl=en"
SHENANDOAH POLICE DEPARTMENT,SHENANDOAH POLICE DEPARTMENT SHENANDOAH CITY HALL,29955 IH-45 NORTH,SHENANDOAH,TX,77381,"http://maps.google.com/maps?q=29955 IH-45 NORTH,+SHENANDOAH,+TX+77381&hl=en"
SMITHVILLE POLICE DEPARTMENT,SMITHVILLE POLICE DEPARTMENT,105 N.W. 4TH STREET,SMITHVILLE,TX,78957,"http://maps.google.com/maps?q=105 N.W. 4TH STREET,+SMITHVILLE,+TX+78957&hl=en"
SOUTHLAKE PD,SOUTHLAKE PD,600 STATE ST,SOUTHLAKE,TX,76092,"http://maps.google.com/maps?q=600 STATE ST,+SOUTHLAKE,+TX+76092&hl=en"
STEPHENVILLE POLICE DEPARTMENT,TANGLEWOOD PHARMACY,2445 NORTHWEST LOOP,STEPHENVILLE,TX,76401,"http://maps.google.com/maps?q=2445 NORTHWEST LOOP,+STEPHENVILLE,+TX+76401&hl=en"
TARRANT COUNTY SHERIFF'S DEPARTMENT,TARRANT COUNTY CORRECTIONS CENTER MAIN LOBBY,100 N. LAMAR,FORT WORTH,TX,76196,"http://maps.google.com/maps?q=100 N. LAMAR,+FORT WORTH,+TX+76196&hl=en"
TARRANT COUNTY SHERIFF'S DEPARTMENT,TCSO NORTH PATROL,6651 LAKE WORTH BLVD.,FORT WORTH,TX,76135,"http://maps.google.com/maps?q=6651 LAKE WORTH BLVD.,+FORT WORTH,+TX+76135&hl=en"
TEMPLE POLICE DEPARTMENT,TEMPLE POLICE DEPARTMENT,209 E. AVE. A,TEMPLE,TX,76501,"http://maps.google.com/maps?q=209 E. AVE. A,+TEMPLE,+TX+76501&hl=en"
TEXAS A&M,TEXAS A&M,ONE UNIVERSITY WAY,SAN ANTONIO,TX,78224,"http://maps.google.com/maps?q=ONE UNIVERSITY WAY,+SAN ANTONIO,+TX+78224&hl=en"
TRAVIS COUNTY CONSTABLE - PRECINCT 5,TRAVIS COUNTY CONSTABLE - PRECINCT 5,1003 GUADALUPE STREET,AUSTIN,TX,78701,"http://maps.google.com/maps?q=1003 GUADALUPE STREET,+AUSTIN,+TX+78701&hl=en"
TRAVIS COUNTY CONSTABLE PRECINCT 1,TRAVIS COUNTY CONSTABLE - PRECINCT 1,"4717 HEFLIN LANE, SUITE 127",AUSTIN,TX,78721,"http://maps.google.com/maps?q=4717 HEFLIN LANE, SUITE 127,+AUSTIN,+TX+78721&hl=en"
TRAVIS COUNTY CONSTABLE PRECINCT 2,THE HILLS OF LAKEWAY,TWO CLUBS ESTATES PARKWAY,AUSTIN,TX,78738,"http://maps.google.com/maps?q=TWO CLUBS ESTATES PARKWAY,+AUSTIN,+TX+78738&hl=en"
TRAVIS COUNTY CONSTABLE PRECINCT 2,TRAVIS COUNTY CONSTABLE PRECINCT 2,"10409 BURNETT ROAD, #150",AUSTIN,TX,78758,"http://maps.google.com/maps?q=10409 BURNETT ROAD, #150,+AUSTIN,+TX+78758&hl=en"
TRAVIS COUNTY CONSTABLE PRECINCT 3,TRAVIS COUNTY CONSTABLE PRECINCT 3,"8656 HWY 71 W, BUILDING B, SUITE 132",AUSTIN,TX,78735,"http://maps.google.com/maps?q=8656 HWY 71 W, BUILDING B, SUITE 132,+AUSTIN,+TX+78735&hl=en"
TRAVIS COUNTY CONSTABLE PRECINCT 4,TRAVIS COUNTY CONSTABLE PRECINCT 4,4011 MCKINNEY FALLS PARKWAY #1100,AUSTIN,TX,78744,"http://maps.google.com/maps?q=4011 MCKINNEY FALLS PARKWAY #1100,+AUSTIN,+TX+78744&hl=en"
TROPHY CLUB PD,TROPHY CLUB POLICE DEPT LOBBY,ONE TROPHY WOOD DRIVE,TROPHY CLUB,TX,76262,"http://maps.google.com/maps?q=ONE TROPHY WOOD DRIVE,+TROPHY CLUB,+TX+76262&hl=en"
TYLER POLICE DEPARTMENT,BROADWAY SQUARE MALL,4601 S BROADWAY,TYLER,TX,75703,"http://maps.google.com/maps?q=4601 S BROADWAY,+TYLER,+TX+75703&hl=en"
U.T. HEALTH SCIENCE CENTER AT TYLER,U.T. HEALTH SCIENCE CENTER AT TYLER,11937 US HWY 271,TYLER,TX,75708,"http://maps.google.com/maps?q=11937 US HWY 271,+TYLER,+TX+75708&hl=en"
UNIVERSITY PARK POLICE DEPT,UNIVERSITY PARK PD,3800 UNIVERSITY BLVD,DALLAS,TX,75205,"http://maps.google.com/maps?q=3800 UNIVERSITY BLVD,+DALLAS,+TX+75205&hl=en"
WACO POLICE DEPARTMENT,WACO POLICE DEPARTMENT,3115 PINE AVENUE,WACO,TX,76701,"http://maps.google.com/maps?q=3115 PINE AVENUE,+WACO,+TX+76701&hl=en"
WATAUGA PD,WATAUGA PD,7101 WHITLEY RD,WATAUGA,TX,76148,"http://maps.google.com/maps?q=7101 WHITLEY RD,+WATAUGA,+TX+76148&hl=en"
WEATHERFORD POLICE DEPARTMENT,WEATHERFORD NINTH GRADE CENTER,1007 S. MAIN ST,WEATHERFORD,TX,76086,"http://maps.google.com/maps?q=1007 S. MAIN ST,+WEATHERFORD,+TX+76086&hl=en"
WHITE SETTLEMENT PD,WHITE SETTLEMENT SENIOR SERVICES CTR,8211 WHITE SETTLEMENT RD,FORT WORTH,TX,76108,"http://maps.google.com/maps?q=8211 WHITE SETTLEMENT RD,+FORT WORTH,+TX+76108&hl=en"
WILLIAMSON COUNTY SHERIFF'S OFFICE,WILLIAMSON COUNTY SHERIFF'S OFFICE,508 SOUTH ROCK STREET,GEORGETOWN,TX,78626,"http://maps.google.com/maps?q=508 SOUTH ROCK STREET,+GEORGETOWN,+TX+78626&hl=en"
WINDCREST POLICE DEPARTMENT,WINDCREST POLICE DEPARTMENT,8601 MIDCROWN,WINDCREST,TX,78239,"http://maps.google.com/maps?q=8601 MIDCROWN,+WINDCREST,+TX+78239&hl=en"
WOODWAY PUBLIC SAFETY DEPARTMENT,WOODWAY PUBLIC SAFETY DEPARTMENT,920 ESTATES DRIVE,WOODWAY,TX,76712,"http://maps.google.com/maps?q=920 ESTATES DRIVE,+WOODWAY,+TX+76712&hl=en"
WYLIE PD,WYLIE POLICE DEPT,2000 N HWY 78,WYLIE,TX,75098,"http://maps.google.com/maps?q=2000 N HWY 78,+WYLIE,+TX+75098&hl=en"
DEA MIDLAND,PALMER DRUG ABUSE PROGRAM POLO PARK RETIREMENT CENTER,2100 CASTLEFORD RD.,MIDLAND,TX,79705,"http://maps.google.com/maps?q=2100 CASTLEFORD RD.,+MIDLAND,+TX+79705&hl=en"
