Participant,CollectionSite,Address,City,State,Zip,MapURL
7TH PHILADELPHIA POLICE DISTRICT,7TH PHILADELPHIA POLICE DISTRICT,1701 BOWLER ST,PHILADELPHIA,PA,19115,"http://maps.google.com/maps?q=1701 BOWLER ST,+PHILADELPHIA,+PA+19115&hl=en"
ALDAN POLICE DEPARTMENT,ALDAN MUNICIPAL BUILDING,ONE WEST PROVIDENCE ROAD,ALDAN,PA,19018,"http://maps.google.com/maps?q=ONE WEST PROVIDENCE ROAD,+ALDAN,+PA+19018&hl=en"
ALEXANDRIA SHERIFF'S OFFICE,NEIGHBORHOOD PHARMACY FRONT OF THE BUILDING,2204 MT. VERNON AVENUE,ALEXANDRIA,VA,22301,"http://maps.google.com/maps?q=2204 MT. VERNON AVENUE,+ALEXANDRIA,+VA+22301&hl=en"
ALLENTOWN POLICE DEPARTMENT,GIANT FOOD STORE #6074,3015 W. EMMAUS AVENUE,ALLENTOWN,PA,18103,"http://maps.google.com/maps?q=3015 W. EMMAUS AVENUE,+ALLENTOWN,+PA+18103&hl=en"
ANNAPOLIS POLICE DEPARTMENT,ANNAPOLIS POLICE DEPARTMENT,199 TAYLOR AVENUE,ANNAPOLIS,MD,21401,"http://maps.google.com/maps?q=199 TAYLOR AVENUE,+ANNAPOLIS,+MD+21401&hl=en"
ANNE ARUNDEL CO,EASTERN DISTRICT,204 PASADENA ROAD,PASADENA,MD,21122,"http://maps.google.com/maps?q=204 PASADENA ROAD,+PASADENA,+MD+21122&hl=en"
ANNE ARUNDEL CO,HEADQUARTERS,8495 VETERAN'S HIGHWAY,MILLERSVILLE,MD,21108,"http://maps.google.com/maps?q=8495 VETERAN'S HIGHWAY,+MILLERSVILLE,+MD+21108&hl=en"
ANNE ARUNDEL CO,NORTHERN DISTRICT,939 HAMMONDS LANE,BALTIMORE,MD,21225,"http://maps.google.com/maps?q=939 HAMMONDS LANE,+BALTIMORE,+MD+21225&hl=en"
ANNE ARUNDEL CO,SOUTHERN DISTRICT,35 STEPNEY'S LANE,EDGEWATER,MD,21037,"http://maps.google.com/maps?q=35 STEPNEY'S LANE,+EDGEWATER,+MD+21037&hl=en"
ANNE ARUNDEL CO,WESTERN DISTRICT,8273 TELEGRAPH ROAD,ODENTON,MD,21113,"http://maps.google.com/maps?q=8273 TELEGRAPH ROAD,+ODENTON,+MD+21113&hl=en"
AVALON POLICE DEPT.,AVALON POLICE DEPARTMENT,3000 DUNE DRIVE,AVALON,NJ,08202,"http://maps.google.com/maps?q=3000 DUNE DRIVE,+AVALON,+NJ+08202&hl=en"
BALTIMORE CITY POLICE DEPARTMENT,BALTIMORE CITY PD CENTRAL DISTRICT,500 E. BALTIMORE STREET,BALTIMORE,MD,21202,"http://maps.google.com/maps?q=500 E. BALTIMORE STREET,+BALTIMORE,+MD+21202&hl=en"
BALTIMORE CITY POLICE DEPARTMENT,BALTIMORE CITY PD EASTERN DISTRICT,1620 EDISON HIGHWAY,BALTIMORE,MD,21213,"http://maps.google.com/maps?q=1620 EDISON HIGHWAY,+BALTIMORE,+MD+21213&hl=en"
BALTIMORE CITY POLICE DEPARTMENT,BALTIMORE CITY PD NORTHEASTERN DISTRICT,1900 ARGONNE DRIVE,BALTIMORE,MD,21218,"http://maps.google.com/maps?q=1900 ARGONNE DRIVE,+BALTIMORE,+MD+21218&hl=en"
BALTIMORE CITY POLICE DEPARTMENT,BALTIMORE CITY PD NORTHERN DISTRICT,2201 W. COLDSPRING LANE,BALTIMORE,MD,21215,"http://maps.google.com/maps?q=2201 W. COLDSPRING LANE,+BALTIMORE,+MD+21215&hl=en"
BALTIMORE CITY POLICE DEPARTMENT,BALTIMORE CITY PD NORTHWESTERN DISTRICT,5271 REISTERSTOWN ROAD,BALTIMORE,MD,21215,"http://maps.google.com/maps?q=5271 REISTERSTOWN ROAD,+BALTIMORE,+MD+21215&hl=en"
BALTIMORE CITY POLICE DEPARTMENT,BALTIMORE CITY PD SOUTHEASTERN DISTRICT,5710 EASTERN AVENUE,BALTIMORE,MD,21224,"http://maps.google.com/maps?q=5710 EASTERN AVENUE,+BALTIMORE,+MD+21224&hl=en"
BALTIMORE CITY POLICE DEPARTMENT,BALTIMORE CITY PD SOUTHERN DISTRICT,10 CHERRY HILL ROAD,BROOKLYN,MD,21225,"http://maps.google.com/maps?q=10 CHERRY HILL ROAD,+BROOKLYN,+MD+21225&hl=en"
BALTIMORE CITY POLICE DEPARTMENT,BALTIMORE CITY PD SOUTHWESTERN DISTRICT,424 FONT HILL AVENUE,BALTIMORE,MD,21223,"http://maps.google.com/maps?q=424 FONT HILL AVENUE,+BALTIMORE,+MD+21223&hl=en"
BALTIMORE CITY POLICE DEPARTMENT,BALTIMORE CITY PD WESTERN DISTRICT,1034 N. MOUNT STREET,BALTIMORE,MD,21217,"http://maps.google.com/maps?q=1034 N. MOUNT STREET,+BALTIMORE,+MD+21217&hl=en"
BALTIMORE COUNTY POLICE DEPARTMENT,PRECINCT 1 WILKENS,901 WALKER AVE.,CATONSVILLE,MD,21228,"http://maps.google.com/maps?q=901 WALKER AVE.,+CATONSVILLE,+MD+21228&hl=en"
BALTIMORE COUNTY POLICE DEPARTMENT,PRECINCT 11 ESSEX,216 N. MARLYN AVE.,ESSEX,MD,21221,"http://maps.google.com/maps?q=216 N. MARLYN AVE.,+ESSEX,+MD+21221&hl=en"
BALTIMORE COUNTY POLICE DEPARTMENT,PRECINCT 12 DUNDALK,428 WESTHAM WAY,BALTIMORE,MD,21224,"http://maps.google.com/maps?q=428 WESTHAM WAY,+BALTIMORE,+MD+21224&hl=en"
BALTIMORE COUNTY POLICE DEPARTMENT,PRECINCT 2 WOODLAWN,6424 WINDSOR MILL RD.,GWYNN OAK,MD,21207,"http://maps.google.com/maps?q=6424 WINDSOR MILL RD.,+GWYNN OAK,+MD+21207&hl=en"
BALTIMORE COUNTY POLICE DEPARTMENT,PRECINCT 6 TOWSON,115 W. SUSQUEHANNA AVE.,TOWSON,MD,21204,"http://maps.google.com/maps?q=115 W. SUSQUEHANNA AVE.,+TOWSON,+MD+21204&hl=en"
BALTIMORE COUNTY POLICE DEPARTMENT,PRECINCT 8 PARKVILLE,8532 OLD HARFORD RD.,PARKVILLE,MD,21234,"http://maps.google.com/maps?q=8532 OLD HARFORD RD.,+PARKVILLE,+MD+21234&hl=en"
BALTIMORE COUNTY POLICE DEPARTMENT,PRECINCT 9 WHITE MARSH,8220 PERRY HALL BLVD.,NOTTINGHAM,MD,21236,"http://maps.google.com/maps?q=8220 PERRY HALL BLVD.,+NOTTINGHAM,+MD+21236&hl=en"
BEACH HAVEN POLICE,BEACH HAVEN PUBLIC LIBRARY,THIRD STREET AND BEACH AVENUE,BEACH HAVEN,NJ,08008,"http://maps.google.com/maps?q=THIRD STREET AND BEACH AVENUE,+BEACH HAVEN,+NJ+08008&hl=en"
BENSALEM TWP POLICE DEPARTMENT,GIANT,2721 STREET RD,BENSALEM,PA,19020,"http://maps.google.com/maps?q=2721 STREET RD,+BENSALEM,+PA+19020&hl=en"
BOWIE POLICE DEPARTMENT,BOWIE POLICE STATION,15901 EXCALIBUR ROAD,BOWIE,MD,20716,"http://maps.google.com/maps?q=15901 EXCALIBUR ROAD,+BOWIE,+MD+20716&hl=en"
CALN TOWNSHIP POLICE DEPARTMENT,CVS,101 REECEVILLE ROAD,COATESVILLE,PA,19320,"http://maps.google.com/maps?q=101 REECEVILLE ROAD,+COATESVILLE,+PA+19320&hl=en"
CALVERT COUNTY SHERIFF'S OFFICE,MT. HOPE COMMUNITY CENTER,104 PUSHAW STATION RD.,SUNDERLAND,MD,20689,"http://maps.google.com/maps?q=104 PUSHAW STATION RD.,+SUNDERLAND,+MD+20689&hl=en"
CALVERT COUNTY SHERIFF'S OFFICE,NORTHEAST COMMUNITY CENTER,4075 GORDON STINNETT AVE.,CHESAPEAKE BEACH,MD,20732,"http://maps.google.com/maps?q=4075 GORDON STINNETT AVE.,+CHESAPEAKE BEACH,+MD+20732&hl=en"
CALVERT COUNTY SHERIFF'S OFFICE,SOUTHERN COMMUNITY CENTER,20 APPEAL LANE,LUSBY,MD,20657,"http://maps.google.com/maps?q=20 APPEAL LANE,+LUSBY,+MD+20657&hl=en"
CAMDEN POLICE DEPARTMENT,CAMDEN POLICE DEPARTMENT,1783 FRIENDS WAY,CAMDEN WYOMING,DE,19934,"http://maps.google.com/maps?q=1783 FRIENDS WAY,+CAMDEN WYOMING,+DE+19934&hl=en"
"CAROLINE COUNTY SHERIFF'S OFFICE, DENTON",DENTON WALMART,610 LEGION ROAD,DENTON,MD,21629,"http://maps.google.com/maps?q=610 LEGION ROAD,+DENTON,+MD+21629&hl=en"
CHARLES COUNTY GOVERNMENT,CHARLES COUNTY GOVERNMENT MAIN ENTRANCE PARKING LOT,200 BALTIMORE STREET,LA PLATA,MD,20646,"http://maps.google.com/maps?q=200 BALTIMORE STREET,+LA PLATA,+MD+20646&hl=en"
CHESWOLD POLICE DEPARTMENT,CHESWOLD POLICE DEPT,691 MAIN ST,DOVER,DE,19904,"http://maps.google.com/maps?q=691 MAIN ST,+DOVER,+DE+19904&hl=en"
CITY OF COATESVILLE POLICE DEPARTMENT,COATESVILLE POLICE DEPARTMENT,1 CITY HALL PLACE,COATESVILLE,PA,19320,"http://maps.google.com/maps?q=1 CITY HALL PLACE,+COATESVILLE,+PA+19320&hl=en"
CITY OF SEAFORD PD,CITY OF SEAFORD PD,300 VIRGINIA AVE,SEAFORD,DE,19973,"http://maps.google.com/maps?q=300 VIRGINIA AVE,+SEAFORD,+DE+19973&hl=en"
CLEMENTON POLICE DEPARTMENT,CLEMENTON POLICE DEPARTMENT,101 GIBBSBORO ROAD,CLEMENTON,NJ,08021,"http://maps.google.com/maps?q=101 GIBBSBORO ROAD,+CLEMENTON,+NJ+08021&hl=en"
COLLEGEVILLE POLICE DEPARTMENT,COLLEGEVILLE BOROUGH MUNICIPAL BUILDING,491 EAST MAIN ST,COLLEGEVILLE,PA,19426,"http://maps.google.com/maps?q=491 EAST MAIN ST,+COLLEGEVILLE,+PA+19426&hl=en"
DAGSBORO POLICE DEPARTMENT,DAGSBORO POLICE DEPARTMENT,33134 MAIN STREET,DAGSBORO,DE,19939,"http://maps.google.com/maps?q=33134 MAIN STREET,+DAGSBORO,+DE+19939&hl=en"
DELANCO TOWNSHIP POLICE DEPARTMENT,DELANCO TOWNSHIP POLICE DEPARTMENT,770 COOPERSTOWN ROAD,DELANCO,NJ,08075,"http://maps.google.com/maps?q=770 COOPERSTOWN ROAD,+DELANCO,+NJ+08075&hl=en"
DELAWARE CITY POLICE,DELAWARE CITY POLICE DEPARTMENT,407 CLINTON STREET,DELAWARE CITY,DE,19706,"http://maps.google.com/maps?q=407 CLINTON STREET,+DELAWARE CITY,+DE+19706&hl=en"
DELAWARE DEPARTMENT OF JUSTICE MFCU,SHIPLEY MANOR NURSING HOME,2723 SHIPLEY ROAD,WILMINGTON,DE,19801,"http://maps.google.com/maps?q=2723 SHIPLEY ROAD,+WILMINGTON,+DE+19801&hl=en"
DELAWARE RIVER & BAY AUTHORITY,CAPE MAY FERRY TERMINAL 609-889-7260,1200 SANDMAN BLVD.,CAPE MAY,NJ,08204,"http://maps.google.com/maps?q=1200 SANDMAN BLVD.,+CAPE MAY,+NJ+08204&hl=en"
DELAWARE RIVER & BAY AUTHORITY,LEWES FERRY TERMINAL,43 CAPE HENLOPEN DRIVE,LEWES,DE,19958,"http://maps.google.com/maps?q=43 CAPE HENLOPEN DRIVE,+LEWES,+DE+19958&hl=en"
DELAWARE RIVER AND BAY AUTHORITY POLICE,NEW CASTLE COUNTY AIRPORT,151 NORTH DUPONT HIGHWAY (RT. 13),NEW CASTLE,DE,19720,"http://maps.google.com/maps?q=151 NORTH DUPONT HIGHWAY (RT. 13),+NEW CASTLE,+DE+19720&hl=en"
DELAWARE STATE POLICE,CHRISTIANA CARE SURGI CENTER,4755 OGLETOWN STANTON ROAD,NEWARK,DE,19718,"http://maps.google.com/maps?q=4755 OGLETOWN STANTON ROAD,+NEWARK,+DE+19718&hl=en"
DELAWARE STATE POLICE,DELAWARE STATE POLICE - TROOP 2,100 LAGRANGE AVE,NEWARK,DE,19702,"http://maps.google.com/maps?q=100 LAGRANGE AVE,+NEWARK,+DE+19702&hl=en"
DELAWARE STATE POLICE,DELAWARE STATE POLICE - TROOP 3,3759 SOUTH STATE STREET,CAMDEN WYOMING,DE,19934,"http://maps.google.com/maps?q=3759 SOUTH STATE STREET,+CAMDEN WYOMING,+DE+19934&hl=en"
DELAWARE STATE POLICE,DELAWARE STATE POLICE - TROOP 7,18006 COASTAL HIGHWAY,LEWES,DE,19958,"http://maps.google.com/maps?q=18006 COASTAL HIGHWAY,+LEWES,+DE+19958&hl=en"
DELMAR POLICE DEPARTMENT,DELMAR POLICE DEPARTMENT,102 SOUTH PENNSYLVANIA AVENUE,DELMAR,MD,21875,"http://maps.google.com/maps?q=102 SOUTH PENNSYLVANIA AVENUE,+DELMAR,+MD+21875&hl=en"
DELRAN TWP. POLICE DEPARTMENT,DELRAN TWP. POLICE DEPARTMENT 856-461-4498,900 CHESTER AVE.,DELRAN TOWNSHIP,NJ,08075,"http://maps.google.com/maps?q=900 CHESTER AVE.,+DELRAN TOWNSHIP,+NJ+08075&hl=en"
DOUGLASS TOWNSHIP POLICE,GIANT,173 HOLLY RD,GILBERTSVILLE,PA,19525,"http://maps.google.com/maps?q=173 HOLLY RD,+GILBERTSVILLE,+PA+19525&hl=en"
DOWNINGTOWN POLICE DEPARTMENT,DOWNINGTOWN POLICE DEPARTMENT,10 WEST LANCASTER AVE.,DOWNINGTOWN,PA,19335,"http://maps.google.com/maps?q=10 WEST LANCASTER AVE.,+DOWNINGTOWN,+PA+19335&hl=en"
EAST GREENWICH TWP. POLICE DEPARTMENT,EAST GREENWICH TWP. POLICE DEPARTMENT 856-423-4322,159 DEMOCRAT RD.,MICKLETON,NJ,08056,"http://maps.google.com/maps?q=159 DEMOCRAT RD.,+MICKLETON,+NJ+08056&hl=en"
ELK TOWNSHIP POLICE DEPARTMENT,ELK TOWNSHIP POLICE DEPARTMENT,680 WHIG LANE,MONROEVILLE,NJ,08343,"http://maps.google.com/maps?q=680 WHIG LANE,+MONROEVILLE,+NJ+08343&hl=en"
ELKTON POLICE DEPARTMENT,ELKTON POLICE DEPARTMENT,100 RAILROAD AVENUE,ELKTON,MD,21921,"http://maps.google.com/maps?q=100 RAILROAD AVENUE,+ELKTON,+MD+21921&hl=en"
EMMAUS POLICE DEPARTMENT,EMMAUS POLICE DEPARTMENT,400 JUBILEE STREET,EMMAUS,PA,18049,"http://maps.google.com/maps?q=400  JUBILEE STREET,+EMMAUS,+PA+18049&hl=en"
FAIRFAX COUNTY POLICE DEPARTMENT,MOUNT VERNON DISTRICT POLICE STATION FRONT PARKING LOT -OPERATING 10 AM TO 2 PM-,2511 PARKERS LANE,ALEXANDRIA,VA,22306,"http://maps.google.com/maps?q=2511 PARKERS LANE,+ALEXANDRIA,+VA+22306&hl=en"
FELTON POLICE DEPARTMENT,FELTON POLICE DEPARTMENT,24 EAST SEWELL STREET,FELTON,DE,19943,"http://maps.google.com/maps?q=24 EAST SEWELL STREET,+FELTON,+DE+19943&hl=en"
GLASSBORO POLICE DEPARTMENT,GLASSBORO POLICE DEPARTMENT 856-881-1500,1 SOUTH MAIN STREET,GLASSBORO,NJ,08028,"http://maps.google.com/maps?q=1 SOUTH MAIN STREET,+GLASSBORO,+NJ+08028&hl=en"
GLOUCESTER COUNTY SHERIFF'S OFFICE,GLOUCESTER COUNTY STORE DEPTFORD MALL,1750 DEPTFORD CENTER ROAD,DEPTFORD,NJ,08096,"http://maps.google.com/maps?q=1750 DEPTFORD CENTER ROAD,+DEPTFORD,+NJ+08096&hl=en"
GLOUCESTER TWP. POLICE DEPARTMENT,GLOUCESTER TWP. POLICE HQ 856-228-4500,1261 CHEWS LANDING RD.,LAUREL SPRINGS,NJ,08021,"http://maps.google.com/maps?q=1261 CHEWS LANDING RD.,+LAUREL SPRINGS,+NJ+08021&hl=en"
GREENBELT POLICE DEPARTMENT,GREENBELT POLICE DEPARTMENT,550 CRESCENT ROAD,GREENBELT,MD,20770,"http://maps.google.com/maps?q=550 CRESCENT ROAD,+GREENBELT,+MD+20770&hl=en"
HARFORD COUNTY SHERIFF'S OFFICE,COUNTY OFFICE BUILDING PARKING LOT,220 SOUTH MAIN STREETCORNER OF BUSINESS RT 1 AND MAIN ST.,BEL AIR,MD,21014,"http://maps.google.com/maps?q=220 SOUTH MAIN STREET,+BEL AIR,+MD+21014&hl=en"
HARRISON TWP. POLICE DEPARTMENT,HARRISON TWP. POLICE DEPARTMENT 856-478-6839,199 COLSON LANE,MULLICA HILL,NJ,08062,"http://maps.google.com/maps?q=199 COLSON LANE,+MULLICA HILL,+NJ+08062&hl=en"
HARVEY CEDARS POLICE DEPT.,HARVEY CEDARS POLICE DEPT.,7606 LONG BEACH BLVD.,HARVEY CEDARS,NJ,08008,"http://maps.google.com/maps?q=7606 LONG BEACH BLVD.,+HARVEY CEDARS,+NJ+08008&hl=en"
HATFIELD TOWNSHIP POLICE DEPARTMENT,HATFIELD TOWNSHIP ADMINISTRATIVE BUILDING,1950 SCHOOL ROAD,HATFIELD,PA,19440,"http://maps.google.com/maps?q=1950 SCHOOL ROAD,+HATFIELD,+PA+19440&hl=en"
HAVRE DE GRACE POLICE DEPARTMENT,HAVRE DE GRACE POLICE DEPARTMENT,715 PENNINGTON AVENUE,HAVRE DE GRACE,MD,21078,"http://maps.google.com/maps?q=715 PENNINGTON AVENUE,+HAVRE DE GRACE,+MD+21078&hl=en"
HORSHAM TOWNSHIP POLICE DEPARTMENT,GIANT FOOD STORE,314 HORSHAM ROAD,HORSHAM,PA,19044,"http://maps.google.com/maps?q=314 HORSHAM ROAD,+HORSHAM,+PA+19044&hl=en"
HOWARD COUNTY POLICE DEPARTMENT,HC DRUGFREE,10451 TWIN RIVERS ROAD,COLUMBIA,MD,21045,"http://maps.google.com/maps?q=10451 TWIN RIVERS ROAD,+COLUMBIA,+MD+21045&hl=en"
HOWARD COUNTY POLICE DEPARTMENT,HOWARD COUNTY POLICE NORTHERN DISTRICT,3410 COURTHOUSE DR.,ELLICOTT CITY,MD,21043,"http://maps.google.com/maps?q=3410 COURTHOUSE DR.,+ELLICOTT CITY,+MD+21043&hl=en"
HOWARD COUNTY POLICE DEPARTMENT,HOWARD COUNTY POLICE SOUTHERN DISTRICT,11226 SCAGGSVILLE RD.,LAUREL,MD,20723,"http://maps.google.com/maps?q=11226 SCAGGSVILLE RD.,+LAUREL,+MD+20723&hl=en"
HYATTSVILLE CITY POLICE,HYATTSVILLE CITY POLICE DEPARTMENT,4310 GALLATIN STREET,HYATTSVILLE,MD,20781,"http://maps.google.com/maps?q=4310 GALLATIN STREET,+HYATTSVILLE,+MD+20781&hl=en"
KENNETT TWP POLICE DEPT.,KENNETT TWP POLICE DEPARTMENT,801 BURROWS RUN ROAD,CHADDS FORD,PA,19317,"http://maps.google.com/maps?q=801 BURROWS RUN ROAD,+CHADDS FORD,+PA+19317&hl=en"
LANCASTER COUNTY SHERIFF'S DEPARTMENT,LANCASTER SHERIFF'S OFFICE,8293 MARY BALL ROAD,LANCASTER,VA,22503,"http://maps.google.com/maps?q=8293 MARY BALL ROAD,+LANCASTER,+VA+22503&hl=en"
LAUREL POLICE DEPARTMENT,LAUREL POLICE DEPARTMENT,205 MECHANIC STREET,LAUREL,DE,19956,"http://maps.google.com/maps?q=205 MECHANIC STREET,+LAUREL,+DE+19956&hl=en"
LAUREL POLICE DEPARTMENT,LAUREL POLICE DEPARTMENT,811 FIFTH STREET,LAUREL,MD,20707,"http://maps.google.com/maps?q=811 FIFTH STREET,+LAUREL,+MD+20707&hl=en"
LAUREL SPRINGS POLICE DEPARTMENT,LAUREL SPRINGS POLICE DEPARTMENT,723 W. ATLANTIC AVENUE,LAUREL SPRINGS,NJ,08021,"http://maps.google.com/maps?q=723 W. ATLANTIC AVENUE,+LAUREL SPRINGS,+NJ+08021&hl=en"
LEWES POLICE DEPARTMENT,CITY OF LEWES BOARD OF PUBLIC WORKS,129 SCHLEY AVENUE,LEWES,DE,19958,"http://maps.google.com/maps?q=129 SCHLEY AVENUE,+LEWES,+DE+19958&hl=en"
LIMERICK TOWNSHIP POLICE DEPARTMENT,LIMERICK TOWNSHIP POLICE STATION,155 SOUTH LIMERICK ROAD,LIMERICK,PA,19468,"http://maps.google.com/maps?q=155 SOUTH LIMERICK ROAD,+LIMERICK,+PA+19468&hl=en"
LOGAN TOWNSHIP POLICE DEPARTMENT,LOGAN TWP. POLICE DEPARTMENT 856-467-0061,125 MAIN ST.,BRIDGEPORT,NJ,08014,"http://maps.google.com/maps?q=125 MAIN ST.,+BRIDGEPORT,+NJ+08014&hl=en"
LOWER MERION TWP. POLICE DEPARTMENT,LOWER MERION TWP. POLICE DEPARTMENT LOBBY,71 E. LANCASTER AVE.,ARDMORE,PA,19003,"http://maps.google.com/maps?q=71 E. LANCASTER AVE.,+ARDMORE,+PA+19003&hl=en"
LOWER POTTSGROVE TWP PD,SANATOGA FIRE DEPT,2222 E HIGH ST,POTTSTOWN,PA,19464,"http://maps.google.com/maps?q=2222 E HIGH ST,+POTTSTOWN,+PA+19464&hl=en"
LOWER PROVIDENCE POLICE DEPARTMENT,LOWER PROVIDENCE POLICE DEPARTMENT,100 PARKLANE DR,EAGLEVILLE,PA,19403,"http://maps.google.com/maps?q=100 PARKLANE DR,+EAGLEVILLE,+PA+19403&hl=en"
LUMBERTON TOWNSHIP PD,MUNICIPAL BLDG,35 MUNICIPAL DRIV,LUMBERTON,NJ,08048,"http://maps.google.com/maps?q=35 MUNICIPAL DRIV,+LUMBERTON,+NJ+08048&hl=en"
MACUNGIE BOROUGH POLICE DEPT,MACUNGIE POLICE DEPT,21 LOCUST ST,MACUNGIE,PA,18062,"http://maps.google.com/maps?q=21 LOCUST ST,+MACUNGIE,+PA+18062&hl=en"
MARLBOROUGH TOWNSHIP POLICE DEPARTMENT,MARLBOROUGH TOWNSHIP POLICE DEPARTMENT,6040 UPPER RIDGE ROAD,GREEN LANE,PA,18054,"http://maps.google.com/maps?q=6040 UPPER RIDGE ROAD,+GREEN LANE,+PA+18054&hl=en"
MARPLE TOWNSHIP POLICE DEPARTMENT,GIANT FOOD STORE,2910 SPRINGFIELD ROAD,BROOMALL,PA,19008,"http://maps.google.com/maps?q=2910 SPRINGFIELD ROAD,+BROOMALL,+PA+19008&hl=en"
MARYLAND NATURAL RESOURCES POLICE,NATURAL RESOURCE POLICE BROADNECK OFFICE,1070 EAST COLLEGE PARKWAY,ANNAPOLIS,MD,21409,"http://maps.google.com/maps?q=1070 EAST COLLEGE PARKWAY,+ANNAPOLIS,+MD+21409&hl=en"
MARYLAND NATURAL RESOURCES POLICE,NATURAL RESOURCES POLICE HILLSBORO OFFICE,3001 STARR ROAD,QUEEN ANNE,MD,21657,"http://maps.google.com/maps?q=3001 STARR ROAD,+QUEEN ANNE,+MD+21657&hl=en"
MARYLAND STATE POLICE,MSP BEL AIR BARRACK D POC: D/SGT. JEFF THOMAS,1401 BELAIR ROAD,BEL AIR,MD,21014,"http://maps.google.com/maps?q=1401 BELAIR ROAD,+BEL AIR,+MD+21014&hl=en"
MARYLAND STATE POLICE,MSP BERLIN BARRACK POC: D/SGT. RICK KLEBON,9758 OCEAN GATEWAY,BERLIN,MD,21811,"http://maps.google.com/maps?q=9758 OCEAN GATEWAY,+BERLIN,+MD+21811&hl=en"
MARYLAND STATE POLICE,MSP CENTREVILLE BARRACK POC: LT. DWAYNE BOARDMAN,311 SAFETY DRIVE,CENTREVILLE,MD,21617,"http://maps.google.com/maps?q=311 SAFETY DRIVE,+CENTREVILLE,+MD+21617&hl=en"
MARYLAND STATE POLICE,MSP EASTON BARRACK POC: D/SGT. MITCH PARKE,7053 OCEAN GATEWAY,EASTON,MD,21601,"http://maps.google.com/maps?q=7053 OCEAN GATEWAY,+EASTON,+MD+21601&hl=en"
MARYLAND STATE POLICE,MSP FORESTVILLE BARRACK POC: LT. ROLAND BUTLER,3500 FORESTVILLE ROAD,FORESTVILLE,MD,20747,"http://maps.google.com/maps?q=3500 FORESTVILLE ROAD,+FORESTVILLE,+MD+20747&hl=en"
MARYLAND STATE POLICE,MSP GLEN BURNIE BARRACK POC: SGT. EDWARD EICHER,6800 AVIATION BLVD.,GLEN BURNIE,MD,21061,"http://maps.google.com/maps?q=6800 AVIATION BLVD.,+GLEN BURNIE,+MD+21061&hl=en"
MARYLAND STATE POLICE,MSP GOLDEN RING BARRACK POC: D/SGT. CLARK,8908 KELSO DRIVE,ESSEX,MD,21221,"http://maps.google.com/maps?q=8908 KELSO DRIVE,+ESSEX,+MD+21221&hl=en"
MARYLAND STATE POLICE,MSP JFK HIGHWAY BARRACK POC: D/SGT. SHAWN WARD,15 TURNPIKE DRIVE,PERRYVILLE,MD,21903,"http://maps.google.com/maps?q=15 TURNPIKE DRIVE,+PERRYVILLE,+MD+21903&hl=en"
MARYLAND STATE POLICE,MSP LA PLATA BARRACK POC: D/SGT. KEVIN BEAUCHAMP,9500 MITCHELL ROAD,LA PLATA,MD,20646,"http://maps.google.com/maps?q=9500 MITCHELL ROAD,+LA PLATA,+MD+20646&hl=en"
MARYLAND STATE POLICE,MSP LEONARDTOWN BARRACK POC: D/SGT. WILLIAM ROSADO,23200 LEONARD HALL DRIVE,LEONARDTOWN,MD,20650,"http://maps.google.com/maps?q=23200 LEONARD HALL DRIVE,+LEONARDTOWN,+MD+20650&hl=en"
MARYLAND STATE POLICE,MSP NORTH EAST BARRACK POC: LT. STEPHEN KONOLD,2433 W. PULASKI HIGHWAY,NORTH EAST,MD,21901,"http://maps.google.com/maps?q=2433 W. PULASKI HIGHWAY,+NORTH EAST,+MD+21901&hl=en"
MARYLAND STATE POLICE,MSP PRINCESS ANNE BARRACK POC: D/SGT. KEEN,30581 PERRY ROAD,PRINCESS ANNE,MD,21853,"http://maps.google.com/maps?q=30581 PERRY ROAD,+PRINCESS ANNE,+MD+21853&hl=en"
MARYLAND STATE POLICE,MSP SALISBURY BARRACK POC: D/SGT. ROBERT PHILLIPS,2765 NORTH SALISBURY BLVD.,SALISBURY,MD,21801,"http://maps.google.com/maps?q=2765 NORTH SALISBURY BLVD.,+SALISBURY,+MD+21801&hl=en"
MARYLAND STATE POLICE,MSP WATERLOO BARRACK POC: D/SGT. MYERS,7777 WASHINGTON BLVD,JESSUP,MD,20794,"http://maps.google.com/maps?q=7777 WASHINGTON BLVD,+JESSUP,+MD+20794&hl=en"
MARYLAND STATE POLICE,PRINCE FREDERICK BARRACK POC: RANDY STEVENS,210 MAIN STREET,PRINCE FREDERICK,MD,20678,"http://maps.google.com/maps?q=210 MAIN STREET,+PRINCE FREDERICK,+MD+20678&hl=en"
MERCHANTVILLE BOROUGH POLICE DEPARTMENT,CVS PHARMACY,18 W MAPLE AVE,MERCHANTVILLE,NJ,08109,"http://maps.google.com/maps?q=18 W MAPLE AVE,+MERCHANTVILLE,+NJ+08109&hl=en"
MIDDLE TOWNSHIP POLICE DEPARTMENT,CVS PHARMACY,11 COURTHOUSE/SOUTH DENNISVILLE ROAD,CAPE MAY COURT HOUSE,NJ,08210,"http://maps.google.com/maps?q=11 COURTHOUSE/SOUTH DENNISVILLE ROAD,+CAPE MAY COURT HOUSE,+NJ+08210&hl=en"
MIDDLETOWN POLICE DEPARTMENT,MIDDLETOWN POLICE DEPARTMENT,130 HAMPDEN ROAD,MIDDLETOWN,DE,19709,"http://maps.google.com/maps?q=130 HAMPDEN ROAD,+MIDDLETOWN,+DE+19709&hl=en"
MILFORD POLICE DEPARTMENT,MILFORD POLICE DEPARTMENT,400 NE FRONT STREET,MILFORD,DE,19963,"http://maps.google.com/maps?q=400 NE FRONT STREET,+MILFORD,+DE+19963&hl=en"
MILTON POLICE DEPARTMENT,MILTON POLICE DEPARTMENT,101 FEDERAL STREET,MILTON,DE,19968,"http://maps.google.com/maps?q=101 FEDERAL STREET,+MILTON,+DE+19968&hl=en"
MONTGOMERY COUNTY DISTRICT ATTORNEY,UPPER MERION TOWNSHIP MUNICIPAL BUILDING,175 WEST VALLEY FORGE ROAD,KING OF PRUSSIA,PA,19406,"http://maps.google.com/maps?q=175 WEST VALLEY FORGE ROAD,+KING OF PRUSSIA,+PA+19406&hl=en"
MONTGOMERY TWP. POLICE DEPARTMENT,WEGMANS SUPERMARKET,1201 KNAPP ROAD,NORTH WALES,PA,19454,"http://maps.google.com/maps?q=1201 KNAPP ROAD,+NORTH WALES,+PA+19454&hl=en"
MOUNT LAUREL POLICE DEPARTMENT,WEGMAN'S SUPERMARKET,2 CENTERTON ROAD,MOUNT LAUREL,NJ,08054,"http://maps.google.com/maps?q=2 CENTERTON ROAD,+MOUNT LAUREL,+NJ+08054&hl=en"
NARCOTICS STRIKE FORCE,UNIVERSITY OF THE SCIENCES ROSENBERGER HALL,600 S 43RD STROOM 100,PHILADELPHIA,PA,19104,"http://maps.google.com/maps?q=600 S 43RD ST,+PHILADELPHIA,+PA+19104&hl=en"
NEW BRITAIN TOWNSHIP POLICE DEPARTMENT,GIANT,4275 COUNTY LINE ROAD,CHALFONT,PA,18914,"http://maps.google.com/maps?q=4275 COUNTY LINE ROAD,+CHALFONT,+PA+18914&hl=en"
NEW BRITAIN TOWNSHIP POLICE DEPARTMENT,NEW BRITAIN TOWNSHIP POLICE DEPARTMENT,207 PARK AVENUE,CHALFONT,PA,18914,"http://maps.google.com/maps?q=207 PARK AVENUE,+CHALFONT,+PA+18914&hl=en"
NEW CASTLE COUNTY POLICE DEPARTMENT,"NEW CASTLE COUNTY POLICE HEADQUARTERS CPL. PAUL J, SWEENEY PUBLIC SAFETY BUILDING",3601 N. DUPONT HIGHWAY,NEW CASTLE,DE,19720,"http://maps.google.com/maps?q=3601 N. DUPONT HIGHWAY,+NEW CASTLE,+DE+19720&hl=en"
NEW HANOVER TOWNSHIP POLICE DEPT,NEW HANOVER TOWNSHIP POLICE DEPT,2943 N CHARLOTTE ST,GILBERTSVILLE,PA,19525,"http://maps.google.com/maps?q=2943 N CHARLOTTE ST,+GILBERTSVILLE,+PA+19525&hl=en"
NEWARK POLICE DEPARTMENT,NEWARK POLICE DEPARTMENT,220 SOUTH MAIN STREET,NEWARK,DE,19711,"http://maps.google.com/maps?q=220 SOUTH MAIN STREET,+NEWARK,+DE+19711&hl=en"
NORTH WILDWOOD POLICE DEPARTMENT,NORTH WILDWOOD POLICE DEPARTMENT 609-522-2411,901 ATLANTIC AVE.,WILDWOOD,NJ,08260,"http://maps.google.com/maps?q=901 ATLANTIC AVE.,+WILDWOOD,+NJ+08260&hl=en"
NORTHAMPTON COUNTY SHERIFF'S OFFICE,NORTHAMPTON COUNTY SHERIFF'S OFFICE FRONT LOBBY,5211 THE HORNES,EASTVILLE,VA,23347,"http://maps.google.com/maps?q=5211 THE HORNES,+EASTVILLE,+VA+23347&hl=en"
NORTHUMBERLAND COUNTY SHERIFF'S OFFICE,NORTHUMBERLAND COUNTY SHERIFF'S OFFICE,195 JUDICIAL PLACE,HEATHSVILLE,VA,22473,"http://maps.google.com/maps?q=195 JUDICIAL PLACE,+HEATHSVILLE,+VA+22473&hl=en"
OCEAN VIEW POLICE DEPARTMENT,OCEAN VIEW POLICE DEPARTMENT,201 CENTRAL AVENUE,OCEAN VIEW,DE,19970,"http://maps.google.com/maps?q=201 CENTRAL AVENUE,+OCEAN VIEW,+DE+19970&hl=en"
PENNRIDGE REGIONAL POLICE DEPARTMENT,GRANDVIEW HOSPITAL,700 LAWN AVE,SELLERSVILLE,PA,18960,"http://maps.google.com/maps?q=700 LAWN AVE,+SELLERSVILLE,+PA+18960&hl=en"
PENNRIDGE REGIONAL POLICE DEPARTMENT,PENNRIDGE POLICE DEPARTMENT HQ,200 RIDGE ROAD,SELLERSVILLE,PA,18960,"http://maps.google.com/maps?q=200 RIDGE ROAD,+SELLERSVILLE,+PA+18960&hl=en"
PENNSYLVANIA STATE POLICE,WEGMANS,100 APPLIED BANK BLVD,GLEN MILLS,PA,19342,"http://maps.google.com/maps?q=100 APPLIED BANK BLVD,+GLEN MILLS,+PA+19342&hl=en"
"PENNSYLVANIA STATE POLICE- TROOP J, YORK",DELTA- CARDIFF VOUNTEER FIRE CO,500 MAIN ST,DELTA,PA,17314,"http://maps.google.com/maps?q=500 MAIN ST,+DELTA,+PA+17314&hl=en"
PERRYVILLE POLICE DEPARTMENT,PERRYVILLE POLICE DEPARTMENT,2 PERRYVILLE TOWN CENTER DRIVE,PERRYVILLE,MD,21903,"http://maps.google.com/maps?q=2 PERRYVILLE TOWN CENTER DRIVE,+PERRYVILLE,+MD+21903&hl=en"
PHILADELPHIA POLICE DEPARTMENT,FIRE DEPARTMENT ENGINE 19 / LADDER 8,300 E. CHELTEN AVENUE,PHILADELPHIA,PA,19120,"http://maps.google.com/maps?q=300 E. CHELTEN AVENUE,+PHILADELPHIA,+PA+19120&hl=en"
PHILADELPHIA POLICE DEPARTMENT,FIRE DEPARTMENT ENGINE 2 / LADDER 3,2426-32 N. 2ND ST.,PHILADELPHIA,PA,19133,"http://maps.google.com/maps?q=2426-32 N. 2ND ST.,+PHILADELPHIA,+PA+19133&hl=en"
PHILADELPHIA POLICE DEPARTMENT,FIRE DEPARTMENT ENGINE 22/LADDER 31,3270 COMLY ROAD,PHILADELPHIA,PA,19154,"http://maps.google.com/maps?q=3270 COMLY ROAD,+PHILADELPHIA,+PA+19154&hl=en"
PHILADELPHIA POLICE DEPARTMENT,FIRE DEPARTMENT ENGINE 33,4750 RICHMOND ST.,PHILADELPHIA,PA,19137,"http://maps.google.com/maps?q=4750 RICHMOND ST.,+PHILADELPHIA,+PA+19137&hl=en"
PHILADELPHIA POLICE DEPARTMENT,FIRE DEPARTMENT ENGINE 43 / LADDER 9,2108-14 MARKET ST.,PHILADELPHIA,PA,19103,"http://maps.google.com/maps?q=2108-14 MARKET ST.,+PHILADELPHIA,+PA+19103&hl=en"
PHILADELPHIA POLICE DEPARTMENT,FIRE DEPARTMENT ENGINE 45 / LADDER 14,2401 N. 26TH ST.,PHILADELPHIA,PA,19132,"http://maps.google.com/maps?q=2401 N. 26TH ST.,+PHILADELPHIA,+PA+19132&hl=en"
PHILADELPHIA POLICE DEPARTMENT,FIRE DEPARTMENT ENGINE 50 / LADDER 12,1325 W. CAMBRIA ST.,PHILADELPHIA,PA,19132,"http://maps.google.com/maps?q=1325 W. CAMBRIA ST.,+PHILADELPHIA,+PA+19132&hl=en"
PHILADELPHIA POLICE DEPARTMENT,FIRE DEPARTMENT ENGINE 51 / LADDER 29,5931 OLD YORK RD.,PHILADELPHIA,PA,19141,"http://maps.google.com/maps?q=5931 OLD YORK RD.,+PHILADELPHIA,+PA+19141&hl=en"
PHILADELPHIA POLICE DEPARTMENT,FIRE DEPARTMENT ENGINE 54,1913 N. 63RD ST.,PHILADELPHIA,PA,19151,"http://maps.google.com/maps?q=1913 N. 63RD ST.,+PHILADELPHIA,+PA+19151&hl=en"
PHILADELPHIA POLICE DEPARTMENT,FIRE DEPARTMENT ENGINE 57,5559 CHESTNUT ST.,PHILADELPHIA,PA,19139,"http://maps.google.com/maps?q=5559 CHESTNUT ST.,+PHILADELPHIA,+PA+19139&hl=en"
PHILADELPHIA POLICE DEPARTMENT,FIRE DEPARTMENT ENGINE 60 / LADDER 19,2301 S. 24TH ST.,PHILADELPHIA,PA,19145,"http://maps.google.com/maps?q=2301 S. 24TH ST.,+PHILADELPHIA,+PA+19145&hl=en"
PHILADELPHIA POLICE DEPARTMENT,FIRE DEPARTMENT ENGINE 62 / LADDER 34,9845 BUSTLETON AVE.,PHILADELPHIA,PA,19115,"http://maps.google.com/maps?q=9845 BUSTLETON AVE.,+PHILADELPHIA,+PA+19115&hl=en"
PHILADELPHIA POLICE DEPARTMENT,FIRE DEPARTMENT ENGINE 68 / LADDER 13,801 S. 52ND ST.,PHILADELPHIA,PA,19143,"http://maps.google.com/maps?q=801 S. 52ND ST.,+PHILADELPHIA,+PA+19143&hl=en"
PHILADELPHIA POLICE DEPARTMENT,FIRE DEPARTMENT ENGINE 7 / LADDER 10,3798 KENSINGTON AVE.,PHILADELPHIA,PA,19124,"http://maps.google.com/maps?q=3798 KENSINGTON AVE.,+PHILADELPHIA,+PA+19124&hl=en"
PHILADELPHIA POLICE DEPARTMENT,FIRE DEPARTMENT ENGINE 71 / LADDER 28,1900 COTTMAN AVENUE,PHILADELPHIA,PA,19111,"http://maps.google.com/maps?q=1900 COTTMAN AVENUE,+PHILADELPHIA,+PA+19111&hl=en"
PHILADELPHIA POLICE DEPARTMENT,FIRE DEPARTMENT ENGINE 73,7515 OGONTZ AVE.,PHILADELPHIA,PA,19150,"http://maps.google.com/maps?q=7515 OGONTZ AVE.,+PHILADELPHIA,+PA+19150&hl=en"
PHILADELPHIA POLICE DEPARTMENT,FIRE DEPARTMENT ENGING 36 / LADDER 20,7818 FRANKFORD AVE.,PHILADELPHIA,PA,19136,"http://maps.google.com/maps?q=7818 FRANKFORD AVE.,+PHILADELPHIA,+PA+19136&hl=en"
PHILADELPHIA POLICE DEPARTMENT,FIRE DEPARTMENT ENGING 9 / LADDER 21,6900 GERMANTOWN AVENUE,PHILADELPHIA,PA,19119,"http://maps.google.com/maps?q=6900 GERMANTOWN AVENUE,+PHILADELPHIA,+PA+19119&hl=en"
PHILADELPHIA POLICE DEPARTMENT,FIRE DEPARTMENT LADDER 2,101-15 N. 4TH ST.,PHILADELPHIA,PA,19106,"http://maps.google.com/maps?q=101-15 N. 4TH ST.,+PHILADELPHIA,+PA+19106&hl=en"
PHILADELPHIA POLICE DEPARTMENT,FIRE DEPARTMENT LADDER 30,6630 RIDGE AVE.,PHILADELPHIA,PA,19128,"http://maps.google.com/maps?q=6630 RIDGE AVE.,+PHILADELPHIA,+PA+19128&hl=en"
PHILADELPHIA SHERIFF'S OFFICE,18TH STREET APOTHECARY,113 SOUTH 18TH STREET,PHILADELPHIA,PA,19103,"http://maps.google.com/maps?q=113 SOUTH 18TH STREET,+PHILADELPHIA,+PA+19103&hl=en"
PHILADELPHIA SHERIFF'S OFFICE,STATE REPRESENTATIVES OFC OF ANGEL CRUZ,"3503 B STREET, #7",PHILADELPHIA,PA,19134,"http://maps.google.com/maps?q=3503 B STREET, #7,+PHILADELPHIA,+PA+19134&hl=en"
PINE HILL POLICE DEPARTMENT,PINE HILL POLICE DEPARTMENT,48 WEST 6TH AVENUE,PINE HILL,NJ,08021,"http://maps.google.com/maps?q=48 WEST 6TH AVENUE,+PINE HILL,+NJ+08021&hl=en"
PITMAN POLICE DEPARTMENT,PITMAN POLICE DEPARTMENT,110 S. BROADWAY,PITMAN,NJ,08071,"http://maps.google.com/maps?q=110 S. BROADWAY,+PITMAN,+NJ+08071&hl=en"
POTTSTOWN POLICE DEPARTMENT,BOROUGH OF POTTSTOWN,100 EAST HIGH ST,POTTSTOWN,PA,19464,"http://maps.google.com/maps?q=100 EAST HIGH ST,+POTTSTOWN,+PA+19464&hl=en"
PRINCE GEORGE'S COUNTY POLICE DEPARTMENT,"CENTRAL COLLECTION SITE DISTRICT III, PGPD",7600 BARLOWE ROAD,PALMER PARK,MD,20785,"http://maps.google.com/maps?q=7600 BARLOWE ROAD,+PALMER PARK,+MD+20785&hl=en"
PRINCE GEORGE'S COUNTY POLICE DEPARTMENT,DISTRICT 4 STATION - OXON HILL,5135 INDIAN HEAD HIGHWAY,OXON HILL,MD,20745,"http://maps.google.com/maps?q=5135 INDIAN HEAD HIGHWAY,+OXON HILL,+MD+20745&hl=en"
PRINCE GEORGE'S COUNTY POLICE DEPARTMENT,"NORTHERN COLLECTION SITE DISTRICT I, PGPD",5000 RHODE ISLAND AVENUE,HYATTSVILLE,MD,20784,"http://maps.google.com/maps?q=5000 RHODE ISLAND AVENUE,+HYATTSVILLE,+MD+20784&hl=en"
PRINCESS ANNE POLICE DEPARTMENT,PRINCESS ANNE POLICE DEPARTMENT,11780 BECKFORD AVENUE,PRINCESS ANNE,MD,21853,"http://maps.google.com/maps?q=11780 BECKFORD AVENUE,+PRINCESS ANNE,+MD+21853&hl=en"
QUEEN ANNE'S COUNTY SHERIFF'S OFFICE,QUEEN ANNE'S COUNTY SHERIFF'S OFFICE,505 RAILROAD AVENUE,CENTREVILLE,MD,21617,"http://maps.google.com/maps?q=505 RAILROAD AVENUE,+CENTREVILLE,+MD+21617&hl=en"
REHOBOTH BEACH POLICE DEPT,REHOBOTH BEACH POLICE DEPT,229 REHOBOTH AVE,REHOBOTH BEACH,DE,19971,"http://maps.google.com/maps?q=229 REHOBOTH AVE,+REHOBOTH BEACH,+DE+19971&hl=en"
ROCKLEDGE BOROUGH POLICE DEPARTMENT,ROCKLEDGE POLICE DEPARTMENT,1 PARK AVENUE,ROCKLEDGE,PA,19046,"http://maps.google.com/maps?q=1 PARK AVENUE,+ROCKLEDGE,+PA+19046&hl=en"
ROYERSFORD POLICE DEPARTMENT,ROYERSFORD POLICE DEPARTMENT,300 MAIN STREET,ROYERSFORD,PA,19468,"http://maps.google.com/maps?q=300 MAIN STREET,+ROYERSFORD,+PA+19468&hl=en"
SALEM CITY POLICE DEPARTMENT,SALEM CITY POLICE DEPARTMENT,129 WEST BROADWAY,SALEM,NJ,08079,"http://maps.google.com/maps?q=129 WEST BROADWAY,+SALEM,+NJ+08079&hl=en"
SEA ISLE CITY,SEA ISLE CITY POLICE DEPARTMENT 1ST FLOOR,233 JOHN F. KENNEDY BLVD.,SEA ISLE CITY,NJ,08243,"http://maps.google.com/maps?q=233 JOHN F. KENNEDY BLVD.,+SEA ISLE CITY,+NJ+08243&hl=en"
SELBYVILLE POLICE DEPT,CVS,36252 LIGHTHOUSE RD,SELBYVILLE,DE,19975,"http://maps.google.com/maps?q=36252 LIGHTHOUSE RD,+SELBYVILLE,+DE+19975&hl=en"
SELBYVILLE POLICE DEPT,SELBYVILLE TOWN HALL,68 W CHURCH ST,SELBYVILLE,DE,19975,"http://maps.google.com/maps?q=68 W CHURCH ST,+SELBYVILLE,+DE+19975&hl=en"
SMYRNA POLICE DEPARTMENT,ATLANTIC APOTHECARY,103 S. DUPONT BLVD.SUITE #2,SMYRNA,DE,19977,"http://maps.google.com/maps?q=103 S. DUPONT BLVD.,+SMYRNA,+DE+19977&hl=en"
SOUDERTON BOROUGH POLICE,SOUDERTON BOROUGH POLICE STATION,31 WEST SUMMIT ST,SOUDERTON,PA,18964,"http://maps.google.com/maps?q=31 WEST SUMMIT ST,+SOUDERTON,+PA+18964&hl=en"
SOUTHERN CHESTER COUNTY REGIONAL POLICE DEPARTMENT,GIANT FOOD STORES,350 SCARLETT ROAD,KENNETT SQUARE,PA,19348,"http://maps.google.com/maps?q=350 SCARLETT ROAD,+KENNETT SQUARE,+PA+19348&hl=en"
SOUTHERN CHESTER COUNTY REGIONAL POLICE DEPARTMENT,WEST GROVE BOROUGH BUILDING SCCRPD LOBBY,117 ROSEHILL AVE,WEST GROVE,PA,19390,"http://maps.google.com/maps?q=117 ROSEHILL AVE,+WEST GROVE,+PA+19390&hl=en"
SPRINGFIELD TWP PD,SPRINGFIELD TWP PD,1510 PAPER MILL RD,WYNDMOOR,PA,19038,"http://maps.google.com/maps?q=1510 PAPER MILL RD,+WYNDMOOR,+PA+19038&hl=en"
ST. MARY'S COUNTY SHERIFF'S OFFICE,ST. MARY'S COUNTY ELK'S LODGE,45779 FIRE DEPARTMENT LANE,CALIFORNIA,MD,20619,"http://maps.google.com/maps?q=45779 FIRE DEPARTMENT LANE,+CALIFORNIA,+MD+20619&hl=en"
ST. MARY'S COUNTY SHERIFF'S OFFICE,ST. MARY'S COUNTY SHERIFF'S OFFICE HQ,23150 LEONARD HALL DRIVE,LEONARDTOWN,MD,20650,"http://maps.google.com/maps?q=23150 LEONARD HALL DRIVE,+LEONARDTOWN,+MD+20650&hl=en"
STOCKTON UNIVERSITY POLICE DEPARTMENT,STOCKTON UNIVERSITY POLICE DEPARTMENT CAMPUS CENTER MAIN ENTRANCE,101 VERA KING FARRIS DRIVE,GALLOWAY,NJ,08205,"http://maps.google.com/maps?q=101 VERA KING FARRIS DRIVE,+GALLOWAY,+NJ+08205&hl=en"
SURF CITY BOROUGH POLICE DEPARTMENT,SURF CITY POLICE DEPARTMENT 609-494-8121,813 LONG BEACH BLVD.,BEACH HAVEN,NJ,08008,"http://maps.google.com/maps?q=813 LONG BEACH BLVD.,+BEACH HAVEN,+NJ+08008&hl=en"
TELFORD BOROUGH POLICE DEPARTMENT,INDIAN VALLEY PUBLIC LIBRARY,100 EAST CHURCH AVENUE,TELFORD,PA,18969,"http://maps.google.com/maps?q=100 EAST CHURCH AVENUE,+TELFORD,+PA+18969&hl=en"
TOWNSHIP OF LOWER,ACME MARKETS BAYSHORE MALL,3845 BAYSHORE RD.,NORTH CAPE MAY,NJ,08204,"http://maps.google.com/maps?q=3845 BAYSHORE RD.,+NORTH CAPE MAY,+NJ+08204&hl=en"
TOWSON UNIVERSITY POLICE,TOWSON UNIVERSITY UNIVERSITY UNION,8000 YORK RD.-2ND FLOOR LOBBY,BALTIMORE,MD,21252,"http://maps.google.com/maps?q=8000 YORK RD.-,+BALTIMORE,+MD+21252&hl=en"
UNIVERSITY OF MARYLAND BALTIMORE POLICE,SMC CAMPUS CENTER LOBBY,621 W. LOMBARD STREET,BALTIMORE,MD,21201,"http://maps.google.com/maps?q=621 W. LOMBARD STREET,+BALTIMORE,+MD+21201&hl=en"
UNIVERSITY OF MD BALTIMORE COUNTY POLICE,UMBC POLICE DEPARTMENT POLICE STATION,"1000 HILLTOP CIRCLE,LOT 8",BALTIMORE,MD,21250,"http://maps.google.com/maps?q=1000 HILLTOP CIRCLE,,+BALTIMORE,+MD+21250&hl=en"
UPPER DUBLIN TWP. POLICE DEPARTMENT,UPPER DUBLIN TOWNSHIP POLICE DEPT.,801 LOCH ALSH AVENUE,FORT WASHINGTON,PA,19034,"http://maps.google.com/maps?q=801 LOCH ALSH AVENUE,+FORT WASHINGTON,+PA+19034&hl=en"
UPPER MORELAND TWP. POLICE DEPT.,GIANT FOOD STORE,315 N YORK RD,WILLOW GROVE,PA,19090,"http://maps.google.com/maps?q=315 N YORK RD,+WILLOW GROVE,+PA+19090&hl=en"
UPPER MORELAND TWP. POLICE DEPT.,UPPER MORELAND TOWNSHIP POLICE DEPARTMENT,117 PARK AVENUE,WILLOW GROVE,PA,19090,"http://maps.google.com/maps?q=117 PARK AVENUE,+WILLOW GROVE,+PA+19090&hl=en"
UPPER PERK POLICE DEPT,UPPER PERK POLICE STATION,88 W. 6TH STREET,PENNSBURG,PA,18073,"http://maps.google.com/maps?q=88 W. 6TH STREET,+PENNSBURG,+PA+18073&hl=en"
UPPER PROVIDENCE TWP POLICE DEPT.,WEGMAN'S,600 COMMERCE DR,COLLEGEVILLE,PA,19426,"http://maps.google.com/maps?q=600 COMMERCE DR,+COLLEGEVILLE,+PA+19426&hl=en"
UPPER SOUTHAMPTON TOWNSHIP PD,RITE AID,1035 COUNTY LINE RD,HUNTINGDON VALLEY,PA,19006,"http://maps.google.com/maps?q=1035 COUNTY LINE RD,+HUNTINGDON VALLEY,+PA+19006&hl=en"
WASHINGTON METROPOLITAN POLICE DEPT,FIFTH POLICE DISTRICT,"1805 BLADENSBURG ROAD, NE",WASHINGTON,DC,20002,"http://maps.google.com/maps?q=1805 BLADENSBURG ROAD, NE,+WASHINGTON,+DC+20002&hl=en"
WASHINGTON METROPOLITAN POLICE DEPT,SEVENTH POLICE DISTRICT,"2455 ALABAMA AVENUE, SE",WASHINGTON,DC,20020,"http://maps.google.com/maps?q=2455 ALABAMA AVENUE, SE,+WASHINGTON,+DC+20020&hl=en"
WASHINGTON METROPOLITAN POLICE DEPT,SIXTH POLICE DISTRICT,5002 HAYES STREET NE,WASHINGTON,DC,20019,"http://maps.google.com/maps?q=5002 HAYES STREET NE,+WASHINGTON,+DC+20019&hl=en"
WASHINGTON SUBURBAN SANITARY COMMISSION,WSSC POLICE DEPARTMENT,14501 SWEITZER LANE,LAUREL,MD,20707,"http://maps.google.com/maps?q=14501 SWEITZER LANE,+LAUREL,+MD+20707&hl=en"
WASHINGTON TOWNSHIP POLICE DEPARTMENT,WASHINGTON TOWNSHIP POLICE,1 MCCLURE DRIVE,SEWELL,NJ,08080,"http://maps.google.com/maps?q=1 MCCLURE DRIVE,+SEWELL,+NJ+08080&hl=en"
WEST CONSHOHOCKEN POLICE DEPARTMENT,WEST CONSHOHOCKEN BOROUGH HALL,112 FORD STREET,WEST CONSHOHOCKEN,PA,19428,"http://maps.google.com/maps?q=112 FORD STREET,+WEST CONSHOHOCKEN,+PA+19428&hl=en"
WESTVILLE POLICE DEPARTMENT,WESTVILLE POLICE DEPARTMENT,167 BROADWAY,WESTVILLE,NJ,08093,"http://maps.google.com/maps?q=167 BROADWAY,+WESTVILLE,+NJ+08093&hl=en"
WHITEMARSH POLICE DEPARTMENT,WHITEMARSH TOWNSHIP POLICE STATION (LOBBY),616 EAST GERMANTOWN PIKE,LAFAYETTE HILL,PA,19444,"http://maps.google.com/maps?q=616 EAST GERMANTOWN PIKE,+LAFAYETTE HILL,+PA+19444&hl=en"
WILDWOOD CREST POLICE DEPT.,WILDWOOD CREST POLICE DEPT.,6101 PACIFIC AVE.,WILDWOOD CREST,NJ,08260,"http://maps.google.com/maps?q=6101 PACIFIC AVE.,+WILDWOOD CREST,+NJ+08260&hl=en"
WILDWOOD POLICE DEPARTMENT,WAWA CONVENIENCE STORE,400 WEST RIO GRANDE AVENUE,WILDWOOD,NJ,08260,"http://maps.google.com/maps?q=400 WEST RIO GRANDE AVENUE,+WILDWOOD,+NJ+08260&hl=en"
WILLINGBORO POLICE DEPARTMENT,WILLINGBORO TWP. MUNICIPAL BUILDING,1 REV. MARTIN LUTHER KING JR. DRIVE,WILLINGBORO,NJ,08046,"http://maps.google.com/maps?q=1 REV. MARTIN LUTHER KING JR. DRIVE,+WILLINGBORO,+NJ+08046&hl=en"
WINSLOW TWP. POLICE DEPARTMENT,WINSLOW TWP. POLICE DEPARTMENT 609-567-0700,125 SOUTH RT. 73,BRADDOCK,NJ,08037,"http://maps.google.com/maps?q=125 SOUTH RT. 73,+BRADDOCK,+NJ+08037&hl=en"
WOODBURY CITY,WOODBURY POLICE DEPARTMENT,220 S. BROAD ST.,WOODBURY,NJ,08096,"http://maps.google.com/maps?q=220 S. BROAD ST.,+WOODBURY,+NJ+08096&hl=en"
WOODBURY HEIGHTS POLICE DEPARTMENT,WOODBURY HEIGHTS POLICE DEPARTMENT 856-848-6707,500 ELM AVE.,WOODBURY HEIGHTS,NJ,08097,"http://maps.google.com/maps?q=500 ELM AVE.,+WOODBURY HEIGHTS,+NJ+08097&hl=en"
WOOLWICH TWP. POLICE DEPARTMENT,WOOLWICH TWP. POLICE DEPARTMENT,120 VILLAGE GREEN,WOOLWICH,NJ,08085,"http://maps.google.com/maps?q=120 VILLAGE GREEN,+WOOLWICH,+NJ+08085&hl=en"
