Participant,CollectionSite,Address,City,State,Zip,MapURL
19TH JUDICIAL DISTRICT DRUG TASK FORCE,HARRIS PHARMACY,1157 FORT CAMPBELL BLVD,CLARKSVILLE,TN,37042,"http://maps.google.com/maps?q=1157 FORT CAMPBELL BLVD,+CLARKSVILLE,+TN+37042&hl=en"
19TH JUDICIAL DISTRICT DRUG TASK FORCE,SANGO PHARMACY,2622 MADISON STREET,CLARKSVILLE,TN,37043,"http://maps.google.com/maps?q=2622 MADISON STREET,+CLARKSVILLE,+TN+37043&hl=en"
19TH JUDICIAL DISTRICT DRUG TASK FORCE,WALGREENS PHARMACY,2975 FORT CAMPBELL BLVD,CLARKSVILLE,TN,37042,"http://maps.google.com/maps?q=2975 FORT CAMPBELL BLVD,+CLARKSVILLE,+TN+37042&hl=en"
ADAIR COUNTY SHERIFF'S OFFICE,ADAIR COUNTY SHERIFF'S OFFICE TACO BELL (PICK UP IN PARKING LOT),899 JAMES TOWN STREET,COLUMBIA,KY,42728,"http://maps.google.com/maps?q=899 JAMES TOWN STREET,+COLUMBIA,+KY+42728&hl=en"
ALEXANDRIA POLICE DEPARTMENT,ALEXANDRIA POLICE DEPARTMENT/COMMUNITY CENTER,8236 W. MAIN ST,ALEXANDRIA,KY,41001,"http://maps.google.com/maps?q=8236 W. MAIN ST,+ALEXANDRIA,+KY+41001&hl=en"
ALGOOD POLICE DEPT.,ALGOOD CITY HALL LOBBY,215 W. MAIN STREET,COOKEVILLE,TN,38506,"http://maps.google.com/maps?q=215 W. MAIN STREET,+COOKEVILLE,+TN+38506&hl=en"
AMBERLEY VILLAGE,AMBERLEY VILLAGE FIRE DEPARTMENT,7149 RIDGE ROAD,CINCINNATI,OH,45237,"http://maps.google.com/maps?q=7149 RIDGE ROAD,+CINCINNATI,+OH+45237&hl=en"
"ANDERSON COUNTY, KY SHERIFF",ANDERSON APOTHECARY,90 PLAZA DRIVE,LAWRENCEBURG,KY,40342,"http://maps.google.com/maps?q=90 PLAZA DRIVE,+LAWRENCEBURG,+KY+40342&hl=en"
BLOOMINGTON POLICE DEPARTMENT,KROGER PARKING LOT,528 S. COLLEGE AVE.,BLOOMINGTON,IN,47403,"http://maps.google.com/maps?q=528 S. COLLEGE AVE.,+BLOOMINGTON,+IN+47403&hl=en"
BLOOMINGTON POLICE DEPARTMENT,KROGER PHARMACY PARKING LOT,1175 COLLEGE MALL RD.,BLOOMINGTON,IN,47401,"http://maps.google.com/maps?q=1175 COLLEGE MALL RD.,+BLOOMINGTON,+IN+47401&hl=en"
BLUE ASH POLICE DEPARTMENT,BLUE ASH MUNICIPAL AND SAFETY CENTER FRONT PARKING LOT,4343 COOPER RD,BLUE ASH,OH,45242,"http://maps.google.com/maps?q=4343 COOPER RD,+BLUE ASH,+OH+45242&hl=en"
BOONE COUNTY SHERIFFS OFFICE,BOONE COUNTY SHERIFFS OFFICE SIDE PARKING LOT,3000 CONRAD LANE,BURLINGTON,KY,41005,"http://maps.google.com/maps?q=3000 CONRAD LANE,+BURLINGTON,+KY+41005&hl=en"
BOONE COUNTY SHERIFFS OFFICE,UNION CITY BUILDING PARKING LOT,1843 MOUNT ZION RD,UNION,KY,41091,"http://maps.google.com/maps?q=1843 MOUNT ZION RD,+UNION,+KY+41091&hl=en"
BOONE COUNTY SHERIFFS OFFICE,WALTON KENTUCKY CITY BUILDING PARKING LOT,40 NORTH MAIN STREET,WALTON,KY,41094,"http://maps.google.com/maps?q=40 NORTH MAIN STREET,+WALTON,+KY+41094&hl=en"
BOWLING GREEN- WARREN CO DRUG TASK FORCE,BOWLING GREEN POLICE DEPARTMENT,911 KENTUCKY STREET,BOWLING GREEN,KY,42101,"http://maps.google.com/maps?q=911 KENTUCKY STREET,+BOWLING GREEN,+KY+42101&hl=en"
BOWLING GREEN- WARREN CO DRUG TASK FORCE,KENTUCKY STATE POLICE POST 3,3119 NASHVILLE ROAD,BOWLING GREEN,KY,42101,"http://maps.google.com/maps?q=3119 NASHVILLE ROAD,+BOWLING GREEN,+KY+42101&hl=en"
BOWLING GREEN- WARREN CO DRUG TASK FORCE,SAFETY CITY IN FRONT OF GREENWOOD HIGH SCHOOL,5065 SCOTTSVILLE ROAD,BOWLING GREEN,KY,42104,"http://maps.google.com/maps?q=5065 SCOTTSVILLE ROAD,+BOWLING GREEN,+KY+42104&hl=en"
BRACKEN COUNTY SHERIFF OFFICE,BRACKEN COUNTY FISCAL COURTHOUSE,116 W MIAMI STREET,BROOKSVILLE,KY,41004,"http://maps.google.com/maps?q=116 W MIAMI STREET,+BROOKSVILLE,+KY+41004&hl=en"
BROWN COUNTY SHERIFF OFFICE,BROWN COUNTY SHERIFFS OFFICE PARKING LOT,750 MOUNT ORAB PIKE,GEORGETOWN,OH,45121,"http://maps.google.com/maps?q=750 MOUNT ORAB PIKE,+GEORGETOWN,+OH+45121&hl=en"
BUTLER COUNTY SHERIFF'S OFFICE,LIBERTY TWP. PRINCETON GLENDALE FIRE STATION,6682 PRINCETON-GLENDALE RD.,HAMILTON,OH,45011,"http://maps.google.com/maps?q=6682 PRINCETON-GLENDALE RD.,+HAMILTON,+OH+45011&hl=en"
CALDWELL COUNTY SHERIFF'S OFFICE,CALDWELL COUNTY SHERIFF,100 E MARKET ST,PRINCETON,KY,42445,"http://maps.google.com/maps?q=100 E MARKET ST,+PRINCETON,+KY+42445&hl=en"
CHEATHAM CO SHERIFF OFFICE,REN-MAR CENTER,240 REN-MAR DRIVE,PLEASANT VIEW,TN,37146,"http://maps.google.com/maps?q=240 REN-MAR DRIVE,+PLEASANT VIEW,+TN+37146&hl=en"
CHEATHAM CO SHERIFF OFFICE,WALMART,1626 HWY 12- SOUTH,ASHLAND CITY,TN,37015,"http://maps.google.com/maps?q=1626 HWY 12- SOUTH,+ASHLAND CITY,+TN+37015&hl=en"
CINCINNATI PD,BRAXTON CANN,5818 MADISON ROAD,CINCINNATI,OH,45227,"http://maps.google.com/maps?q=5818 MADISON ROAD,+CINCINNATI,+OH+45227&hl=en"
CINCINNATI PD,HEALTH SOURCE OF OHIO,6131 CAMPUS LN,CINCINNATI,OH,45230,"http://maps.google.com/maps?q=6131 CAMPUS LN,+CINCINNATI,+OH+45230&hl=en"
CINCINNATI POLICE,CINCINNATI POLICE DISTRICT 3 SIDE LOT,2300 FERGUSON RD,CINCINNATI,OH,45238,"http://maps.google.com/maps?q=2300 FERGUSON RD,+CINCINNATI,+OH+45238&hl=en"
CINCINNATI POLICE,CINCINNATI POLICE DISTRICT 4 PARKING LOT,4150 READING ROAD,CINCINNATI,OH,45229,"http://maps.google.com/maps?q=4150 READING ROAD,+CINCINNATI,+OH+45229&hl=en"
CINCINNATI POLICE,KENARD KROGER PARKING LOT BY STREET,4777 KENARD AVE,CINCINNATI,OH,45232,"http://maps.google.com/maps?q=4777 KENARD AVE,+CINCINNATI,+OH+45232&hl=en"
CINCINNATI VA HOSPITAL,CINCINNATI VA HOSPITAL FRIDAY 4/27/18 @1100 - 1430/OPC CIRCLE,3100 VINE STREET,CINCINNATI,OH,45220,"http://maps.google.com/maps?q=3100 VINE STREET,+CINCINNATI,+OH+45220&hl=en"
CITY OF DEERPARK,"CITY OF DEERPARK 24HR DROP BOX ONLY, LOCATED IN POLICE LOBBY.",7777 BLUE ASH RD,CINCINNATI,OH,45236,"http://maps.google.com/maps?q=7777 BLUE ASH RD,+CINCINNATI,+OH+45236&hl=en"
CITY OF OXFORD,EAST PARK BY THE AMPHITHEATER,EAST PARK @ EAST HIGH ST.,OXFORD,OH,45056,"http://maps.google.com/maps?q=EAST  PARK @ EAST HIGH ST.,+OXFORD,+OH+45056&hl=en"
CITY OF READING POLICE DEPARTMENT,CITY OF READING POLICE DEPARTMENT POLICE DEPARTMENT LOBBY,1000 MARKET STREETREADING,CINCINNATI,OH,45215,"http://maps.google.com/maps?q=1000 MARKET STREET,+CINCINNATI,+OH+45215&hl=en"
CLARKSVILLE POLICE DEPARTMENT,CLARKSVILLE PD,1970 BROADWAY,CLARKSVILLE,IN,47129,"http://maps.google.com/maps?q=1970 BROADWAY,+CLARKSVILLE,+IN+47129&hl=en"
CLINTON POLICE DEPT.,CLINTON POLICE DEPT.,125 W. BROAD ST.,CLINTON,TN,37716,"http://maps.google.com/maps?q=125 W. BROAD ST.,+CLINTON,+TN+37716&hl=en"
COLES COUNTY SHERIFF'S OFFICE,WALGREENS,411 W. LINCOLN AVENUE,CHARLESTON,IL,61920,"http://maps.google.com/maps?q=411 W. LINCOLN AVENUE,+CHARLESTON,+IL+61920&hl=en"
COOKEVILLE POLICE DEPT.,ANDY'S PHARMACY,305 W. SPRING STREET,COOKEVILLE,TN,38501,"http://maps.google.com/maps?q=305 W. SPRING STREET,+COOKEVILLE,+TN+38501&hl=en"
CYNTHIANA POLICE DEPARTMENT,CYNTHIANA POLICE DEPARTMENT,420 E PLEASANT STREET,CYNTHIANA,KY,41031,"http://maps.google.com/maps?q=420 E PLEASANT STREET,+CYNTHIANA,+KY+41031&hl=en"
DANVILLE POLICE DEPARTMENT,DANVILLE POLICE DEPARTMENT/CITY HALL,445 W MAIN STREET,DANVILLE,KY,40422,"http://maps.google.com/maps?q=445 W MAIN STREET,+DANVILLE,+KY+40422&hl=en"
DEA,ARMY NATIONAL GUARD ARMORY,3000 E. DIVISION STREET,EVANSVILLE,IN,47711,"http://maps.google.com/maps?q=3000 E. DIVISION STREET,+EVANSVILLE,+IN+47711&hl=en"
DUBOIS CO. SHERIFF DEPT.,HOLLAND FIRE STATION,504 W MAIN ST,HOLLAND,IN,47541,"http://maps.google.com/maps?q=504 W MAIN ST,+HOLLAND,+IN+47541&hl=en"
DUBOIS CO. SHERIFF DEPT.,ST. ANTHONY FIRE STATION,4068 E 450 S,SAINT ANTHONY,IN,47575,"http://maps.google.com/maps?q=4068 E 450 S,+SAINT ANTHONY,+IN+47575&hl=en"
EMINENCE POLICE DEPARTMENT,EMINENCE POLICE DEPARTMENT,45 DEPOT AVE,EMINENCE,KY,40019,"http://maps.google.com/maps?q=45 DEPOT AVE,+EMINENCE,+KY+40019&hl=en"
FAIRFAX POLICE DEPARTMENT,FAIRFAX POLICE DEPARTMENT,5903 HAWTHORNE AVENUE,CINCINNATI,OH,45227,"http://maps.google.com/maps?q=5903 HAWTHORNE AVENUE,+CINCINNATI,+OH+45227&hl=en"
FAIRFIELD POLICE DEPARTMENT,FAIRFIELD POLICE DEPARTMENT,5230 PLEASANT AVE,FAIRFIELD,OH,45014,"http://maps.google.com/maps?q=5230 PLEASANT AVE,+FAIRFIELD,+OH+45014&hl=en"
FAIRFIELD TOWNSHIP POLICE DEPARTMENT,FAIRFIELD TOWNSHIP POLICE DEPARTMENT,6485 VONNIE VALE COURT,HAMILTON,OH,45011,"http://maps.google.com/maps?q=6485 VONNIE VALE COURT,+HAMILTON,+OH+45011&hl=en"
FLEMINGSBURG POLICE DEPARTMENT,FLEMINGSBURG POLICE DEPARTMENT,116 S MAIN CROSS STREET,FLEMINGSBURG,KY,41041,"http://maps.google.com/maps?q=116 S MAIN CROSS STREET,+FLEMINGSBURG,+KY+41041&hl=en"
FLORENCE POLICE DEPARTMENT,FLORENCE POLICE,8100 EWING BLVD,FLORENCE,KY,41042,"http://maps.google.com/maps?q=8100 EWING BLVD,+FLORENCE,+KY+41042&hl=en"
FLORENCE POLICE DEPARTMENT,KROGER PHARMACY FLORENCE,7685 MALL ROAD,FLORENCE,KY,41042,"http://maps.google.com/maps?q=7685 MALL ROAD,+FLORENCE,+KY+41042&hl=en"
FORT MITCHELL POLICE DEPARTMENT,FORT MITCHELL POLICE DEPARTMENT,2355 DIXIE HIGHWAY,FT MITCHELL,KY,41017,"http://maps.google.com/maps?q=2355 DIXIE HIGHWAY,+FT MITCHELL,+KY+41017&hl=en"
"FORT THOMAS, KENTUCKY POLICE DEPARTMENT",FT. THOMAS POLICE DEPARTMENT,130 N. FT. THOMAS AVE,FORT THOMAS,KY,41075,"http://maps.google.com/maps?q=130 N. FT. THOMAS AVE,+FORT THOMAS,+KY+41075&hl=en"
FRANKFORT POLICE DEPARTMENT,FRANKLIN COUNTY HEALTH DEPARTMENT EAST WEST CONNECTOR ROAD,851 EAST WEST CONNECTOR ROAD,FRANKFORT,KY,40601,"http://maps.google.com/maps?q=851 EAST WEST CONNECTOR ROAD,+FRANKFORT,+KY+40601&hl=en"
GLASGOW POLICE DEPARTMENT,WALMART,2345 HAPPY VALLEY RD.,GLASGOW,KY,42141,"http://maps.google.com/maps?q=2345 HAPPY VALLEY RD.,+GLASGOW,+KY+42141&hl=en"
GOODLETTSVILLE POLICE DEPARTMENT,GOODLETTSVILLE POLICE DEPARTMENT,105 SOUTH MAIN STREET,GOODLETTSVILLE,TN,37072,"http://maps.google.com/maps?q=105 SOUTH MAIN STREET,+GOODLETTSVILLE,+TN+37072&hl=en"
GRAINGER COUNTY SHERIFF'S DEPARTMENT,SMITH DRUG STORE,8120 RUTLEDGE PIKE,RUTLEDGE,TN,37861,"http://maps.google.com/maps?q=8120 RUTLEDGE PIKE,+RUTLEDGE,+TN+37861&hl=en"
GREEN TOWNSHIP POLICE DEPARTMENT,GREEN TOWNSHIP POLICE KIOSK IN THE LOBBY ONLY,6303 HARRISON AVE.,CINCINNATI,OH,45247,"http://maps.google.com/maps?q=6303 HARRISON AVE.,+CINCINNATI,+OH+45247&hl=en"
GREENBRIER POLICE DEPARTMENT,GREENBRIER PHARMACY,2239 HWY 41 S,GREENBRIER,TN,37073,"http://maps.google.com/maps?q=2239 HWY 41 S,+GREENBRIER,+TN+37073&hl=en"
GREENE COUNTY SHERIFF OFFICE,GREENE COUNTY GENERAL HOSPITAL NONE,1185 N 1000 W,LINTON,IN,47441,"http://maps.google.com/maps?q=1185 N 1000 W,+LINTON,+IN+47441&hl=en"
GREENHILLS POLICE,GREENHILLS MUNCIPAL BUILDING,11000 WINTON RD,CINCINNATI,OH,45218,"http://maps.google.com/maps?q=11000 WINTON RD,+CINCINNATI,+OH+45218&hl=en"
HAMILTON COUNTY SHERIFF'S OFFICE,MIAMI TOWNSHIP,3780 SHADY LANE,NORTH BEND,OH,45052,"http://maps.google.com/maps?q=3780 SHADY LANE,+NORTH BEND,+OH+45052&hl=en"
HAMILTON COUNTY SHERIFF'S OFFICE,VILLAGE OF SILVERTON,6943 MONTGOMERY ROAD,CINCINNATI,OH,45236,"http://maps.google.com/maps?q=6943 MONTGOMERY ROAD,+CINCINNATI,+OH+45236&hl=en"
HAMILTON POLICE DEPARTMENT,HAMILTON POLICE DEPARTMENT,331 SOUTH FRONT STREET,HAMILTON,OH,45011,"http://maps.google.com/maps?q=331 SOUTH FRONT STREET,+HAMILTON,+OH+45011&hl=en"
HARDIN COUNTY SHERIFF'S OFFICE,KROGER,3040 DOLPHIN DR,ELIZABETHTOWN,KY,42701,"http://maps.google.com/maps?q=3040 DOLPHIN DR,+ELIZABETHTOWN,+KY+42701&hl=en"
HARLAN POLICE DEPARTMENT,HARLAN POLICE DEPARTMENT,218 SOUTH MAIN,HARLAN,KY,40831,"http://maps.google.com/maps?q=218 SOUTH MAIN,+HARLAN,+KY+40831&hl=en"
HARRISON COUNTY SHERIFF'S OFFICE,HARRISON COUNTY SHERIFF'S OFFICE,113 W. PIKE ST.,CYNTHIANA,KY,41031,"http://maps.google.com/maps?q=113 W. PIKE ST.,+CYNTHIANA,+KY+41031&hl=en"
HART COUNTY SHERIFF'S OFFICE,HART COUNTY SHERIFF'S OFFICE,116 EAST UNION ST.,MUNFORDVILLE,KY,42765,"http://maps.google.com/maps?q=116 EAST UNION ST.,+MUNFORDVILLE,+KY+42765&hl=en"
HENDERSONVILLE POLICE DEPT.,HENDERSONVILLE PD,#3 EXECUTIVE PARK DR.,HENDERSONVILLE,TN,37075,"http://maps.google.com/maps?q=#3 EXECUTIVE PARK DR.,+HENDERSONVILLE,+TN+37075&hl=en"
HENRY COUNTY SHERIFF,HENRY COUNTY SHERIFF,123 N PROPERTY ROAD,NEW CASTLE,KY,40050,"http://maps.google.com/maps?q=123 N PROPERTY ROAD,+NEW CASTLE,+KY+40050&hl=en"
INDIANA BOARD OF PHARMACY,COMMUNITY HOSPITAL-SOUTH CAMPUS COMMUNITY HEALTH PD,1402 E COUNTY LINE RD,INDIANAPOLIS,IN,46227,"http://maps.google.com/maps?q=1402 E COUNTY LINE RD,+INDIANAPOLIS,+IN+46227&hl=en"
INDIANA BOARD OF PHARMACY,CVS #6256 POSEY COUNTY SHERIFF DEPT,700 E 4TH ST,MOUNT VERNON,IN,47620,"http://maps.google.com/maps?q=700 E 4TH ST,+MOUNT VERNON,+IN+47620&hl=en"
INDIANA BOARD OF PHARMACY,SAM'S CLUB JOHNSON COUNTY SHERIFF DEPT,1101 WINDHORST WAY,GREENWOOD,IN,46143,"http://maps.google.com/maps?q=1101 WINDHORST WAY,+GREENWOOD,+IN+46143&hl=en"
INDIANA STATE POLICE,INDIANA STATE POLICE DISTRICT 33,1500 N. PACKINGHOUSE RD. #200,BLOOMINGTON,IN,47404,"http://maps.google.com/maps?q=1500 N. PACKINGHOUSE RD. #200,+BLOOMINGTON,+IN+47404&hl=en"
INDIANA STATE POLICE,INDIANA STATE POLICE DISTRICT 34,2209 NEWTON STREET,JASPER,IN,47546,"http://maps.google.com/maps?q=2209 NEWTON STREET,+JASPER,+IN+47546&hl=en"
INDIANA STATE POLICE,INDIANA STATE POLICE DISTRICT 35,19411 HIGHWAY 41 NORTH,EVANSVILLE,IN,47725,"http://maps.google.com/maps?q=19411 HIGHWAY 41 NORTH,+EVANSVILLE,+IN+47725&hl=en"
INDIANA STATE POLICE,INDIANA STATE POLICE DISTRICT 42,902 SOUTH ADAMS STREET,VERSAILLES,IN,47042,"http://maps.google.com/maps?q=902 SOUTH ADAMS STREET,+VERSAILLES,+IN+47042&hl=en"
INDIANA STATE POLICE,INDIANA STATE POLICE DISTRICT 45,8014 HIGHWAY 311,SELLERSBURG,IN,47172,"http://maps.google.com/maps?q=8014 HIGHWAY 311,+SELLERSBURG,+IN+47172&hl=en"
INDIANA STATE POLICE,INDIANA STATE POLICE DISTRICT 52,8620 E. 21ST STREET,INDIANAPOLIS,IN,46219,"http://maps.google.com/maps?q=8620 E. 21ST STREET,+INDIANAPOLIS,+IN+46219&hl=en"
INDIANA STATE POLICE,ISP BLOOMINGTON,1500 N. PACKINGHOUSE RD.STE. 200,BLOOMINGTON,IN,47404,"http://maps.google.com/maps?q=1500 N. PACKINGHOUSE RD.,+BLOOMINGTON,+IN+47404&hl=en"
INDIANA STATE POLICE,ISP INDIANAPOLIS POST,8620 EAST 21ST STREET,INDIANAPOLIS,IN,46219,"http://maps.google.com/maps?q=8620 EAST 21ST STREET,+INDIANAPOLIS,+IN+46219&hl=en"
INDIANAPOLIS FIRE DEPARTMENT,IFD FIRE STATION 2,4120 MITTHOEFFER RD,INDIANAPOLIS,IN,46235,"http://maps.google.com/maps?q=4120 MITTHOEFFER RD,+INDIANAPOLIS,+IN+46235&hl=en"
INDIANAPOLIS FIRE DEPARTMENT,IFD FIRE STATION 23,1108 E THOMPSON RD,INDIANAPOLIS,IN,46227,"http://maps.google.com/maps?q=1108 E THOMPSON RD,+INDIANAPOLIS,+IN+46227&hl=en"
INDIANAPOLIS FIRE DEPARTMENT,IFD FIRE STATION 27,2918 E 10TH ST,INDIANAPOLIS,IN,46201,"http://maps.google.com/maps?q=2918 E 10TH ST,+INDIANAPOLIS,+IN+46201&hl=en"
JEFFERSON COUNTY SHERIFF'S OFFICE,JEFFERSON COUNTY SHERIFF'S OFFICE,531 COURT PLACE SUITE 600,LOUISVILLE,KY,40202,"http://maps.google.com/maps?q=531 COURT PLACE SUITE 600,+LOUISVILLE,+KY+40202&hl=en"
JENNINGS COUNTY SHERIFFS DEPARTMENT,JAY-C FOOD STORE,2325 NORTH STATE HIGHWAY 3,NORTH VERNON,IN,47265,"http://maps.google.com/maps?q=2325 NORTH STATE HIGHWAY 3,+NORTH VERNON,+IN+47265&hl=en"
KENTUCKY STATE POLICE POST 10,KENTUCKY STATE POLICE,3319 SOUTH US 421,HARLAN,KY,40831,"http://maps.google.com/maps?q=3319 SOUTH US 421,+HARLAN,+KY+40831&hl=en"
KENTUCKY STATE POLICE POST 11,LAUREL COUNTY HEALTH DEPARTMENT,525 WHITLEY STREET,LONDON,KY,40741,"http://maps.google.com/maps?q=525 WHITLEY STREET,+LONDON,+KY+40741&hl=en"
KENTUCKY STATE POLICE POST 15,KENTUCKY STATE POLICE POST 15,1118 JAMESTOWN STREET,COLUMBIA,KY,42728,"http://maps.google.com/maps?q=1118 JAMESTOWN STREET,+COLUMBIA,+KY+42728&hl=en"
KENTUCKY STATE POLICE POST 16,KSP POST 16,8298 KEACH DRIVE,HENDERSON,KY,42420,"http://maps.google.com/maps?q=8298 KEACH DRIVE,+HENDERSON,+KY+42420&hl=en"
KENTUCKY STATE POLICE POST 2,KENTUCKY STATE POLICE POST 2,1000 WESTERN KENTUCKY PARKWAY,NORTONVILLE,KY,42442,"http://maps.google.com/maps?q=1000 WESTERN KENTUCKY PARKWAY,+NORTONVILLE,+KY+42442&hl=en"
KENTUCKY STATE POLICE POST 3,KENTUCKY STATE POLICE POST 3,3119NASHVILLE RD.,BOWLING GREEN,KY,42101,"http://maps.google.com/maps?q=3119,+BOWLING GREEN,+KY+42101&hl=en"
KENTUCKY STATE POLICE POST 4,KENTUCKY STATE POLICE POST 4,1055 NORTH MULBERRY ST,ELIZABETHTOWN,KY,42701,"http://maps.google.com/maps?q=1055 NORTH MULBERRY ST,+ELIZABETHTOWN,+KY+42701&hl=en"
KENTUCKY STATE POLICE POST 5,KENTUCKY STATE POLICE,160 CITATION LANE,CAMPBELLSBURG,KY,40011,"http://maps.google.com/maps?q=160 CITATION LANE,+CAMPBELLSBURG,+KY+40011&hl=en"
KENTUCKY STATE POLICE POST 6,KSP POST 6,4265 DIXIE HIGHWAY,DRY RIDGE,KY,41035,"http://maps.google.com/maps?q=4265 DIXIE HIGHWAY,+DRY RIDGE,+KY+41035&hl=en"
KENTUCKY STATE POLICE POST 7,KENTUCKY STATE POLICE POST 7,"699 EASTERN BYPASS, RICHMOND, KY",RICHMOND,KY,40475,"http://maps.google.com/maps?q=699 EASTERN BYPASS, RICHMOND, KY,+RICHMOND,+KY+40475&hl=en"
KENTUCKY STATE POLICE POST 8,MOREHEAD POLICE DEPARTMENT,105 E MAIN STREET,MOREHEAD,KY,40351,"http://maps.google.com/maps?q=105 E MAIN STREET,+MOREHEAD,+KY+40351&hl=en"
KNOXVILLE POLICE DEPARTMENT,FOOD CITY,4805 N BROADWAY,KNOXVILLE,TN,37918,"http://maps.google.com/maps?q=4805 N BROADWAY,+KNOXVILLE,+TN+37918&hl=en"
LAFAYETTE POLICE DEPT.,LAFAYETTE POLICE DEPT,118 E LOCUST ST,LAFAYETTE,TN,37083,"http://maps.google.com/maps?q=118 E LOCUST ST,+LAFAYETTE,+TN+37083&hl=en"
LAWRENCE CO. SHERIFF'S OFFICE,LAWRENCE CO. SHERIFF'S OFFICE,1306 LEXINGTON AVE,LAWRENCEVILLE,IL,62439,"http://maps.google.com/maps?q=1306 LEXINGTON AVE,+LAWRENCEVILLE,+IL+62439&hl=en"
LAWRENCEBURG POLICE DEPT.,LAWRENCEBURG KROGER STORE DONALD B COMBS,880 W. EADS PKWY,LAWRENCEBURG,IN,47025,"http://maps.google.com/maps?q=880 W. EADS PKWY,+LAWRENCEBURG,+IN+47025&hl=en"
LEBANON POLICE DEPARTMENT,WALGREENS,606 S. CUMBERLAND ST.,LEBANON,TN,37087,"http://maps.google.com/maps?q=606 S. CUMBERLAND ST.,+LEBANON,+TN+37087&hl=en"
LEITCHFIELD POLICE DEPARTMENT,LEITCHFIELD POLICE DEPT,117 SOUTH MAIN STREET,LEITCHFIELD,KY,42754,"http://maps.google.com/maps?q=117 SOUTH MAIN STREET,+LEITCHFIELD,+KY+42754&hl=en"
LEXINGTON POLICE DEPARTMENT,KENTUCKY AMERICAN WATER COMPANY,2300 RICHMOND RD,LEXINGTON,KY,40502,"http://maps.google.com/maps?q=2300 RICHMOND RD,+LEXINGTON,+KY+40502&hl=en"
LIVINGSTON POLICE DEPARTMENT,LIVINGSTON POLICE DEPARTMENT,900 N. CHURCH ST,LIVINGSTON,TN,38570,"http://maps.google.com/maps?q=900 N. CHURCH ST,+LIVINGSTON,+TN+38570&hl=en"
LOCKLAND POLICE DEPARTMENT,LOCKLAND CHURCH OF NAZARENE,335 W WYOMING AV,LOCKLAND,OH,45215,"http://maps.google.com/maps?q=335 W WYOMING AV,+LOCKLAND,+OH+45215&hl=en"
LOUISVILLE METRO POLICE DEPARTMENT,KROGER,9440 BROWNBORO RD,LOUISVILLE,KY,40241,"http://maps.google.com/maps?q=9440 BROWNBORO RD,+LOUISVILLE,+KY+40241&hl=en"
LOUISVILLE METRO POLICE DEPARTMENT,KROGER PARKING LOT,291 N HUBBARD'S LN,LOUISVILLE,KY,40207,"http://maps.google.com/maps?q=291 N HUBBARD'S LN,+LOUISVILLE,+KY+40207&hl=en"
LOUISVILLE METRO POLICE DEPARTMENT,WALGREENS,2021 HIKES LANE,LOUISVILLE,KY,40218,"http://maps.google.com/maps?q=2021 HIKES LANE,+LOUISVILLE,+KY+40218&hl=en"
LOUISVILLE METRO POLICE DEPARTMENT,WALGREENS,3980 DIXIE HIGHWAY,LOUISVILLE,KY,40216,"http://maps.google.com/maps?q=3980 DIXIE HIGHWAY,+LOUISVILLE,+KY+40216&hl=en"
LOUISVILLE METRO POLICE DEPARTMENT,WALGREENS,7338 DIXIE HIGHWAY,LOUISVILLE,KY,40258,"http://maps.google.com/maps?q=7338 DIXIE HIGHWAY,+LOUISVILLE,+KY+40258&hl=en"
LOVELAND POLICE DEPARTMENT,LOVELAND ELEMENTARY AND PRIMARY SCHOOLS DRIVE THROUGH DROP OFF,600 LOVELAND MADEIRA ROAD,LOVELAND,OH,45140,"http://maps.google.com/maps?q=600 LOVELAND MADEIRA ROAD,+LOVELAND,+OH+45140&hl=en"
LOVELAND POLICE DEPARTMENT,LOVELAND POLICE DEPARTMENT LOBBY DROP BOX,126 SOUTH LEBANON ROAD,LOVELAND,OH,45140,"http://maps.google.com/maps?q=126 SOUTH LEBANON ROAD,+LOVELAND,+OH+45140&hl=en"
MARION POLICE DEPARTMENT,MARION POLICE DEPARTMENT CHIEF RAY O'NEAL,217 SOUTH MAIN STREET,MARION,KY,42064,"http://maps.google.com/maps?q=217 SOUTH MAIN STREET,+MARION,+KY+42064&hl=en"
MARKLEVILLE POLICE DEPARTMENT,MARKLEVILLE POLICE DEPARTMENT,10 SOUTH STATE ST,MARKLEVILLE,IN,46056,"http://maps.google.com/maps?q=10 SOUTH STATE ST,+MARKLEVILLE,+IN+46056&hl=en"
MARSHALL POLICE DEPARTMENT,MARSHALL FIRE PROTECTION DISTRICT FIRE DEPARTMENT CORNER OF ILLINOIS STATE HWY 1 AND ARCHER AVE,718 ARCHER AVE,MARSHALL,IL,62441,"http://maps.google.com/maps?q=718 ARCHER AVE,+MARSHALL,+IL+62441&hl=en"
"MERCER COUNTY, KY SHERIFFS OFFICE",MERCER COUNTY SHERIFFS OFFICE,207 WEST LEXINGTON ST,HARRODSBURG,KY,40330,"http://maps.google.com/maps?q=207 WEST LEXINGTON ST,+HARRODSBURG,+KY+40330&hl=en"
METRO NASHVILLE POLICE DEPARTMENT,KROGER,5544 OLD HICKORY BLVD.,HERMITAGE,TN,37076,"http://maps.google.com/maps?q=5544 OLD HICKORY BLVD.,+HERMITAGE,+TN+37076&hl=en"
METRO NASHVILLE POLICE DEPARTMENT,THE APOTHECARY,226 11TH AVE SOUTH,NASHVILLE,TN,37203,"http://maps.google.com/maps?q=226 11TH AVE SOUTH,+NASHVILLE,+TN+37203&hl=en"
MIAMI TOWNSHIP POLICE DEPT. - CLERMONT CO.,MIAMI TOWNSHIP POLICE DEPT. - CLERMONT CO. 24HR DROP BOX LOCATED IN LOBBY,5900 MCPICKEN DRIVE,MILFORD,OH,45150,"http://maps.google.com/maps?q=5900 MCPICKEN DRIVE,+MILFORD,+OH+45150&hl=en"
MONTEREY POLICE DEPARTMENT,FRED'S PHARMACY,250 E STRATTON AVE,MONTEREY,TN,38574,"http://maps.google.com/maps?q=250 E STRATTON AVE,+MONTEREY,+TN+38574&hl=en"
MONTEREY POLICE DEPARTMENT,MONTEREY DRUGS,201F NORTH ELMORE ST.,MONTEREY,TN,38574,"http://maps.google.com/maps?q=201F NORTH ELMORE ST.,+MONTEREY,+TN+38574&hl=en"
MONTGOMERY POLICE DEPARTMENT,MONTGOMERY SAFETY CENTER,10150 MONTGOMERY RD,CINCINNATI,OH,45242,"http://maps.google.com/maps?q=10150 MONTGOMERY RD,+CINCINNATI,+OH+45242&hl=en"
MOUNT STERLING POLICE DEPARTMENT,KROGER,810 INDIAN MOUND DRIVE,MOUNT STERLING,KY,40353,"http://maps.google.com/maps?q=810 INDIAN MOUND DRIVE,+MOUNT STERLING,+KY+40353&hl=en"
MOUNT STERLING POLICE DEPARTMENT,MT STERLING POLICE DEPT,35 SOUTH BANK STREET,MOUNT STERLING,KY,40353,"http://maps.google.com/maps?q=35 SOUTH BANK STREET,+MOUNT STERLING,+KY+40353&hl=en"
NORTHERN KENTUCKY DRUG STRIKE FORCE,BELLEVUE POLICE DEPARTMENT,616 POPLAR ST.,BELLEVUE,KY,41073,"http://maps.google.com/maps?q=616 POPLAR ST.,+BELLEVUE,+KY+41073&hl=en"
NORTHERN KENTUCKY DRUG STRIKE FORCE,CAMPBELL COUNTY POLICE DEPARTMENT,8774 CONSTABLE DR.,ALEXANDRIA,KY,41001,"http://maps.google.com/maps?q=8774 CONSTABLE DR.,+ALEXANDRIA,+KY+41001&hl=en"
NORTHERN KENTUCKY DRUG STRIKE FORCE,COLD SPRING POLICE DEPARTMENT,5589 EAST ALEXANDRIA PIKE,COLD SPRING,KY,41076,"http://maps.google.com/maps?q=5589 EAST ALEXANDRIA PIKE,+COLD SPRING,+KY+41076&hl=en"
NORTHERN KENTUCKY DRUG STRIKE FORCE,COVINGTON POLICE DEPARTMENT,1 POLICE MEMORIAL DR.,COVINGTON,KY,41014,"http://maps.google.com/maps?q=1 POLICE MEMORIAL DR.,+COVINGTON,+KY+41014&hl=en"
NORTHERN KENTUCKY DRUG STRIKE FORCE,DAYTON POLICE DEPARTMENT,514 6TH AVE.,DAYTON,KY,41074,"http://maps.google.com/maps?q=514 6TH AVE.,+DAYTON,+KY+41074&hl=en"
NORTHERN KENTUCKY DRUG STRIKE FORCE,EDGEWOOD POLICE DEPARTMENT,385 DUDLEY PIKE,EDGEWOOD,KY,41017,"http://maps.google.com/maps?q=385 DUDLEY PIKE,+EDGEWOOD,+KY+41017&hl=en"
NORTHERN KENTUCKY DRUG STRIKE FORCE,ERLANGER POLICE DEPARTMENT,505 COMMONWEALTH AVE.,ERLANGER,KY,41018,"http://maps.google.com/maps?q=505 COMMONWEALTH AVE.,+ERLANGER,+KY+41018&hl=en"
NORTHERN KENTUCKY DRUG STRIKE FORCE,FT. WRIGHT POLICE DEPARTMENT,409 KYLES LN.,COVINGTON,KY,41011,"http://maps.google.com/maps?q=409 KYLES LN.,+COVINGTON,+KY+41011&hl=en"
NORTHERN KENTUCKY DRUG STRIKE FORCE,KENTON COUNTY POLICE DEPARTMENT,11777 MADISON PIKE,INDEPENDENCE,KY,41051,"http://maps.google.com/maps?q=11777 MADISON PIKE,+INDEPENDENCE,+KY+41051&hl=en"
NORTHERN KENTUCKY DRUG STRIKE FORCE,NEWPORT POLICE DEPARTMENT,998 MONMOUTH ST.,NEWPORT,KY,41071,"http://maps.google.com/maps?q=998 MONMOUTH ST.,+NEWPORT,+KY+41071&hl=en"
NORTHERN KENTUCKY DRUG STRIKE FORCE,PARK HILLS POLICE DEPARTMENT,1106 AMSTERDAM RD.,PARK HILLS,KY,41011,"http://maps.google.com/maps?q=1106 AMSTERDAM RD.,+PARK HILLS,+KY+41011&hl=en"
NORTHERN KENTUCKY DRUG STRIKE FORCE,SOUTHGATE POLICE DEPARTMENT,301 W. WALNUT,SOUTHGATE,KY,41071,"http://maps.google.com/maps?q=301 W. WALNUT,+SOUTHGATE,+KY+41071&hl=en"
NORTHERN KENTUCKY DRUG STRIKE FORCE,VILLA HILLS POLICE DEPARTMENT,719 RODGERS RD.,VILLA HILLS,KY,41017,"http://maps.google.com/maps?q=719 RODGERS RD.,+VILLA HILLS,+KY+41017&hl=en"
NORTHERN KENTUCKY DRUG STRIKE FORCE,WILDER POLICE DEPARTMENT,520 LICKING PIKE,WILDER,KY,41071,"http://maps.google.com/maps?q=520 LICKING PIKE,+WILDER,+KY+41071&hl=en"
NORTHERN KENTUCKY UNIVERSITY POLICE,NKUPD,415 OLD JOHNS HILL ROAD,HIGHLAND HEIGHTS,KY,41099,"http://maps.google.com/maps?q=415 OLD JOHNS HILL ROAD,+HIGHLAND HEIGHTS,+KY+41099&hl=en"
NORWOOD POLICE,NORWOOD POLICE DEPARTMENT,4701 MONTGOMERY RD.,NORWOOD,OH,45212,"http://maps.google.com/maps?q=4701 MONTGOMERY RD.,+NORWOOD,+OH+45212&hl=en"
OLDHAM COUNTY SHERIFF'S OFFICE,LAGRANGE FIRE DEPARTMENT STATION 2,3637 W HWY 146,BUCKNER,KY,40010,"http://maps.google.com/maps?q=3637 W HWY 146,+BUCKNER,+KY+40010&hl=en"
OLDHAM COUNTY SHERIFF'S OFFICE,NORTH OLDHAM FIRE DEPARTMENT,1660 HIGHWAY 1793,GOSHEN,KY,40026,"http://maps.google.com/maps?q=1660 HIGHWAY 1793,+GOSHEN,+KY+40026&hl=en"
OLDHAM COUNTY SHERIFF'S OFFICE,OLDHAM COUNTY POLICE DEPARTMENT,1855 NORTH HIGHWAY 393,LA GRANGE,KY,40031,"http://maps.google.com/maps?q=1855 NORTH HIGHWAY 393,+LA GRANGE,+KY+40031&hl=en"
OLNEY POLICE DEPARTMENT,OLNEY POLICE DEPARTMENT,320 S. WHITTLE AVE,OLNEY,IL,62450,"http://maps.google.com/maps?q=320 S. WHITTLE AVE,+OLNEY,+IL+62450&hl=en"
OVERTON COUNTY SHERIFF'S DEPT.,FRED'S PHARMACY,890 OVERTON PLAZA,LIVINGSTON,TN,38570,"http://maps.google.com/maps?q=890 OVERTON PLAZA,+LIVINGSTON,+TN+38570&hl=en"
OWINGSVILLE POLICE DEPARTMENT,OWINGSVILLE POLICE DEPARTMENT,19 GOODPASTER AVE,OWINGSVILLE,KY,40360,"http://maps.google.com/maps?q=19 GOODPASTER AVE,+OWINGSVILLE,+KY+40360&hl=en"
PENDLETON COUNTY SHERIFF'S OFFICE,PENDLETON COUNTY SHERIFF'S OFFICE,202 CHAPEL STREET,FALMOUTH,KY,41040,"http://maps.google.com/maps?q=202 CHAPEL STREET,+FALMOUTH,+KY+41040&hl=en"
PERRY COUNTY RECYCLING MANGEMENT DISTIRCT,MEMORIAL HEALTH BRISTOW,26020 IN-145,BRISTOW,IN,47515,"http://maps.google.com/maps?q=26020 IN-145,+BRISTOW,+IN+47515&hl=en"
PERRY COUNTY RECYCLING MANGEMENT DISTIRCT,TELL CITY FIRE STATION,707 MOZART STREET,TELL CITY,IN,47586,"http://maps.google.com/maps?q=707 MOZART STREET,+TELL CITY,+IN+47586&hl=en"
PIERCE TOWNSHIP POLICE DEPARTMENT,PIERCE TOWNSHIP POLICE DEPARTMENT,950 LOCUST CORNER RD,CINCINNATI,OH,45245,"http://maps.google.com/maps?q=950 LOCUST CORNER RD,+CINCINNATI,+OH+45245&hl=en"
PROSPECT POLICE DEPARTMENT,KROGER,5929 TIMBER RIDGE DR.,PROSPECT,KY,40059,"http://maps.google.com/maps?q=5929 TIMBER RIDGE DR.,+PROSPECT,+KY+40059&hl=en"
PULASKI COUNTY SERIFF'S OFFICE,KROGER PHARMACY SOUTH LOCATION STONEGATE CENTER,50 STONEGATE CENTER,SOMERSET,KY,42501,"http://maps.google.com/maps?q=50 STONEGATE CENTER,+SOMERSET,+KY+42501&hl=en"
PUTNAM COUNTY SHERIFF DEPT.,NUNALLY DRUG STORE,226 WEST MAIN STREET,BAXTER,TN,38544,"http://maps.google.com/maps?q=226 WEST MAIN STREET,+BAXTER,+TN+38544&hl=en"
PUTNAM COUNTY SHERIFF DEPT.,WALGREENS,950 N WASHINGTON AVE,COOKEVILLE,TN,38501,"http://maps.google.com/maps?q=950 N WASHINGTON AVE,+COOKEVILLE,+TN+38501&hl=en"
PUTNAM COUNTY SHERIFF DEPT.,WALGREENS 5474,500 SOUTH WILLOW AVENUE,COOKEVILLE,TN,38501,"http://maps.google.com/maps?q=500 SOUTH WILLOW AVENUE,+COOKEVILLE,+TN+38501&hl=en"
RICHMOND POLICE DEPARTMENT,RICHMOND POLICE DEPARTMENT,1721 LEXINGTON RD,RICHMOND,KY,40475,"http://maps.google.com/maps?q=1721 LEXINGTON RD,+RICHMOND,+KY+40475&hl=en"
RICHMOND POLICE DEPARTMENT,RICHMOND POLICE DEPARTMENT MSUTTON@RICHMONDINDIANA.GOV,50 NORTH 5TH STREET,RICHMOND,IN,47374,"http://maps.google.com/maps?q=50 NORTH 5TH STREET,+RICHMOND,+IN+47374&hl=en"
ROBERTSON COUNTY SHERIFF'S OFFICE,CVS,903 MEMORIAL BLVD.,SPRINGFIELD,TN,37172,"http://maps.google.com/maps?q=903 MEMORIAL BLVD.,+SPRINGFIELD,+TN+37172&hl=en"
ROBINSON POLICE DEPARTMENT,CRAWFORD MEMORIAL HOSPITAL SOUTH DRIVE THRU ENTRANCE,1000 NORTH ALLEN STREET,ROBINSON,IL,62454,"http://maps.google.com/maps?q=1000 NORTH ALLEN STREET,+ROBINSON,+IL+62454&hl=en"
ROCKY TOP POLICE DEPARTMENT,ROCKY TOP POLICE AND FIRE DEPT.,104 LAWSON ST.,ROCKY TOP,TN,37769,"http://maps.google.com/maps?q=104 LAWSON ST.,+ROCKY TOP,+TN+37769&hl=en"
ROSS TWP POLICE DEPARTMNET,ROSS TWP. POLICE DEPARTMENT,4055 HAMILTON CLEVES RD,FAIRFIELD,OH,45014,"http://maps.google.com/maps?q=4055 HAMILTON CLEVES RD,+FAIRFIELD,+OH+45014&hl=en"
ROWAN COUNTY SHERIFF'S OFFICE,KSP POST 8 MOREHEAD,1595 FLEMINGSBURG ROAD,MOREHEAD,KY,40351,"http://maps.google.com/maps?q=1595 FLEMINGSBURG ROAD,+MOREHEAD,+KY+40351&hl=en"
RUSH COUNTY SHERIFF DEPARTMENT,RUSH MEMORIAL HOSPITAL 13TH STREET ENTRANCE,1300 N MAIN ST,RUSHVILLE,IN,46173,"http://maps.google.com/maps?q=1300 N MAIN ST,+RUSHVILLE,+IN+46173&hl=en"
RUSSELL COUNTY SHERIFF'S OFFICE,RUSSELL COUNTY SHERIFF'S OFFICE,410 MONUMENT SQUARE #109,JAMESTOWN,KY,42629,"http://maps.google.com/maps?q=410 MONUMENT SQUARE #109,+JAMESTOWN,+KY+42629&hl=en"
RUTLEDGE POLICE DEPT.,RUTLEDGE CITY HALL,8028 RUTLEDGE PIKE,RUTLEDGE,TN,37861,"http://maps.google.com/maps?q=8028 RUTLEDGE PIKE,+RUTLEDGE,+TN+37861&hl=en"
SCOTT COUNTY PARTNERSHIP PFS / CEASE OF SCOTT CO.,AUSTIN POLICE DEPARTMENT LOBBY 24/7 CONTROLLED AND NON-CONTROLLED MEDICATION DROP BOX,127 N. HIGHWAY 31,AUSTIN,IN,47102,"http://maps.google.com/maps?q=127 N. HIGHWAY 31,+AUSTIN,+IN+47102&hl=en"
SCOTT COUNTY PARTNERSHIP PFS / CEASE OF SCOTT CO.,SCOTT COUNTY SHERIFF'S DEPARTMENT LOBBY 24/7 CONTROLLED AND NON-CONTROLLED MEDICATION DROP,111 S. FIRST ST.,SCOTTSBURG,IN,47170,"http://maps.google.com/maps?q=111 S. FIRST ST.,+SCOTTSBURG,+IN+47170&hl=en"
SCOTT COUNTY PARTNERSHIP PFS / CEASE OF SCOTT CO.,"SCOTTSBURG WALMART DEA DRUG TAKE BACK: OCTOBER 27, 2018, 10AM-2PM",1618 W. MCCLAIN AVE.,SCOTTSBURG,IN,47170,"http://maps.google.com/maps?q=1618 W. MCCLAIN AVE.,+SCOTTSBURG,+IN+47170&hl=en"
SCOTT COUNTY SHERIFF'S OFFICE,SCOTT COUNTY SHERIFF'S OFFICE,575 SCOTT HIGH DRIVE,HUNTSVILLE,TN,37756,"http://maps.google.com/maps?q=575 SCOTT HIGH DRIVE,+HUNTSVILLE,+TN+37756&hl=en"
SHARONVILLE POLICE DEPARTMENT,SHARONVILLE MUNICIPAL BUILDING,10900 READING ROAD,CINCINNATI,OH,45241,"http://maps.google.com/maps?q=10900 READING ROAD,+CINCINNATI,+OH+45241&hl=en"
SHELBY COUNTY CORONER OFFICE,SHELBY COUNTY CORONER'S OFFICE,419 WASHINGTON STREET,SHELBYVILLE,KY,40065,"http://maps.google.com/maps?q=419 WASHINGTON STREET,+SHELBYVILLE,+KY+40065&hl=en"
SPENCER POLICE DEPARTMENT,GOSPORT TOWN HALL,13 SOUTH 3RD ST.,GOSPORT,IN,47433,"http://maps.google.com/maps?q=13 SOUTH 3RD ST.,+GOSPORT,+IN+47433&hl=en"
SPENCER POLICE DEPARTMENT,SPENCER POLICE DEPT.,"80 N WEST ST, 80 N. WEST STREET",SPENCER,IN,47460,"http://maps.google.com/maps?q=80 N WEST ST, 80 N. WEST STREET,+SPENCER,+IN+47460&hl=en"
SPRINGDALE POLICE DEPARTMENT,SPRINGDALE POLICE DEPARTMENT,12105 LAWNVIEW AVE.,CINCINNATI,OH,45246,"http://maps.google.com/maps?q=12105 LAWNVIEW AVE.,+CINCINNATI,+OH+45246&hl=en"
SPRINGFIELD TOWNSHIP POLICE DEPARTMENT,SPRINGFIELD TOWNSHIP POLICE DEPARTMENT,1130 COMPTON ROAD,CINCINNATI,OH,45231,"http://maps.google.com/maps?q=1130 COMPTON ROAD,+CINCINNATI,+OH+45231&hl=en"
SUMNER COUNTY SHERIFF`S OFFICE,BROWNS PHARMACY INSIDE MIKES FOODLAND STORE,1198 NEW HWY 52,WESTMORELAND,TN,37186,"http://maps.google.com/maps?q=1198 NEW HWY 52,+WESTMORELAND,+TN+37186&hl=en"
SUMNER COUNTY SHERIFF`S OFFICE,FREDS PHARMACY,114 WEST KNIGHT ST,PORTLAND,TN,37148,"http://maps.google.com/maps?q=114 WEST KNIGHT ST,+PORTLAND,+TN+37148&hl=en"
SUMNER COUNTY SHERIFF`S OFFICE,PERKINS DRUG STORE,532 HARTSVILLE PIKE,GALLATIN,TN,37066,"http://maps.google.com/maps?q=532 HARTSVILLE PIKE,+GALLATIN,+TN+37066&hl=en"
SUMNER COUNTY SHERIFF`S OFFICE,WALGREENS,104 HWY 52,PORTLAND,TN,37148,"http://maps.google.com/maps?q=104 HWY 52,+PORTLAND,+TN+37148&hl=en"
SUMNER COUNTY SHERIFF`S OFFICE,WALGREENS,198 E MAIN ST,HENDERSONVILLE,TN,37075,"http://maps.google.com/maps?q=198 E MAIN ST,+HENDERSONVILLE,+TN+37075&hl=en"
SUMNER COUNTY SHERIFF`S OFFICE,WALGREENS,365 NEW SHACKLE ISLAND,HENDERSONVILLE,TN,37075,"http://maps.google.com/maps?q=365 NEW SHACKLE ISLAND,+HENDERSONVILLE,+TN+37075&hl=en"
SUMNER COUNTY SHERIFF`S OFFICE,WALGREENS,455 LONG HOLLOW PIKE,GOODLETTSVILLE,TN,37072,"http://maps.google.com/maps?q=455 LONG HOLLOW PIKE,+GOODLETTSVILLE,+TN+37072&hl=en"
SUMNER COUNTY SHERIFF`S OFFICE,WALGREENS,585 HASHVILLE PIKE,GALLATIN,TN,37066,"http://maps.google.com/maps?q=585 HASHVILLE PIKE,+GALLATIN,+TN+37066&hl=en"
SUMNER COUNTY SHERIFF`S OFFICE,WALGREENS,914 GREENLEA BLVD,GALLATIN,TN,37066,"http://maps.google.com/maps?q=914 GREENLEA BLVD,+GALLATIN,+TN+37066&hl=en"
TENNESSEE TECH UNIVERSITY POLICE,TENNESSEE TECH UNIVERSITY LOBBY,242 E 10TH ST,COOKEVILLE,TN,38501,"http://maps.google.com/maps?q=242 E 10TH ST,+COOKEVILLE,+TN+38501&hl=en"
TRIGG COUNTY SHERIFF'S OFFICE,TRIGG COUNTY SHERIFF'S OFFICE,134 COMMERCE STREET,CADIZ,KY,42211,"http://maps.google.com/maps?q=134 COMMERCE STREET,+CADIZ,+KY+42211&hl=en"
TROUSDALE COUNTY SHERIFF'S OFFICE,TROUSDALE COUNTY SHERIFF'S DEPT,210 BROADWAY,HARTSVILLE,TN,37074,"http://maps.google.com/maps?q=210 BROADWAY,+HARTSVILLE,+TN+37074&hl=en"
UNION COUNTY SHERIFF'S OFFICE,UNION COUNTY SHERIFFS OFFICE,130 VETERANS STREET,MAYNARDVILLE,TN,37807,"http://maps.google.com/maps?q=130 VETERANS STREET,+MAYNARDVILLE,+TN+37807&hl=en"
UNIVERSITY OF CINCINNATI PUBLIC SAFETY DEPARTMENT,UNIVERSITY OF CINCINNATI PUBLIC SAFETY DEPARTMENT,51 W. CORRY BLVD.EDWARDS THREE,CINCINNATI,OH,45221,"http://maps.google.com/maps?q=51 W. CORRY BLVD.,+CINCINNATI,+OH+45221&hl=en"
"VILLAGE OF EVENDALE, OHIO",EVENDALE POLICE DEPARTMENT CHIEF NIEL KORTE,10500 READING RD,CINCINNATI,OH,45241,"http://maps.google.com/maps?q=10500 READING RD,+CINCINNATI,+OH+45241&hl=en"
WABASH COUNTY SHERIFF'S OFFICE,WABASH COUNTY SHERIFF'S OFFICE,120 E. 4TH STREET,MOUNT CARMEL,IL,62863,"http://maps.google.com/maps?q=120 E. 4TH STREET,+MOUNT CARMEL,+IL+62863&hl=en"
WAYNE COUNTY SHERIFF'S OFFICE,WAYNE COUNTY SHERIFF'S OFFICE,305 EAST COURT,FAIRFIELD,IL,62837,"http://maps.google.com/maps?q=305 EAST COURT,+FAIRFIELD,+IL+62837&hl=en"
WEBSTER COUNTY SHERIFF'S OFFICE,WEBSTER COUNTY SHERIFF'S OFFICE,25 US HWY 41 A SOUTH,DIXON,KY,42409,"http://maps.google.com/maps?q=25 US HWY 41 A SOUTH,+DIXON,+KY+42409&hl=en"
WEST CHESTER POLICE DEPARTMENT,WALGREENS PARKING LOT,7804 CINCINNATI-DAYTON ROAD,WEST CHESTER,OH,45069,"http://maps.google.com/maps?q=7804 CINCINNATI-DAYTON ROAD,+WEST CHESTER,+OH+45069&hl=en"
WHITE HOUSE POLICE DEPARTMENT,KROGERS,510 HWY 76,WHITE HOUSE,TN,37188,"http://maps.google.com/maps?q=510 HWY 76,+WHITE HOUSE,+TN+37188&hl=en"
WILSON COUNTY SHERIFF'S DEPARTMENT,WILSON COUNTY SHERIFF'S OFFICE,105 EAST HIGH STREET,LEBANON,TN,37087,"http://maps.google.com/maps?q=105 EAST HIGH STREET,+LEBANON,+TN+37087&hl=en"
WINCHESTER POLICE DEPARTMENT,WINCHESTER POLICE DEPARTMENT WINCHESTER POLICE DEPARTMENT,16 SOUTH MAPLE STREET,WINCHESTER,KY,40391,"http://maps.google.com/maps?q=16 SOUTH MAPLE STREET,+WINCHESTER,+KY+40391&hl=en"
WOODFORD COUNTY SHERIFF'S OFFICE,KROGER,KROGER WAY,VERSAILLES,KY,40383,"http://maps.google.com/maps?q=KROGER WAY,+VERSAILLES,+KY+40383&hl=en"
WOODFORD COUNTY SHERIFF'S OFFICE,KROGERS,212 KROGER WAY,VERSAILLES,KY,40383,"http://maps.google.com/maps?q=212 KROGER WAY,+VERSAILLES,+KY+40383&hl=en"
WOODFORD COUNTY SHERIFF'S OFFICE,MIDWAY CITY HALL,101 E MAIN ST,MIDWAY,KY,40347,"http://maps.google.com/maps?q=101 E MAIN ST,+MIDWAY,+KY+40347&hl=en"
WOODFORD COUNTY SHERIFF'S OFFICE,WOODFORD COUNTY SHERIFFS OFFICE SIDE OF COURT HOUSE ON COURT ST.,103 SOUTH MAIN ST,VERSAILLES,KY,40383,"http://maps.google.com/maps?q=103 SOUTH MAIN ST,+VERSAILLES,+KY+40383&hl=en"
