Participant,CollectionSite,Address,City,State,Zip,MapURL
AMADOR COUNTY SHERIFF'S OFFICE,AMADOR COUNTY SHERIFF'S OFFICE,700 COURT STREET,JACKSON,CA,95642,"http://maps.google.com/maps?q=700 COURT STREET,+JACKSON,+CA+95642&hl=en"
AMERICAN FORK POLICE DEPARTMENT,AMERICAN FORK POLICE DEPARTMENT,75 E. 80 N.,AMERICAN FORK,UT,84003,"http://maps.google.com/maps?q=75 E. 80 N.,+AMERICAN FORK,+UT+84003&hl=en"
AUBURN POLICE DEPARTMENT,AUBURN PUBLIC WORKS,1225 LINCOLN WAY,AUBURN,CA,95603,"http://maps.google.com/maps?q=1225 LINCOLN WAY,+AUBURN,+CA+95603&hl=en"
BAKER CITY POLICE DEPT,BAKER CITY POLICE DEPT,1768 AUBURN AVE,BAKER CITY,OR,97814,"http://maps.google.com/maps?q=1768 AUBURN AVE,+BAKER CITY,+OR+97814&hl=en"
BLACKFOOT POLICE DEPT,PATRIOT FIELD 217 WEST FRANCIS (AT THE CORNER OF FRANCIS AND ASH),FRANCIS AND ASH,BLACKFOOT,ID,83221,"http://maps.google.com/maps?q=FRANCIS AND ASH,+BLACKFOOT,+ID+83221&hl=en"
BOISE POLICE DEPARTMENT - DRUG FREE IDAHO,ADA COUNTY SHERIFF'S OFFICE,7200 BARRISTER DRIVE,BOISE,ID,83704,"http://maps.google.com/maps?q=7200 BARRISTER DRIVE,+BOISE,+ID+83704&hl=en"
BOISE POLICE DEPARTMENT - DRUG FREE IDAHO,FRED MEYER GARDEN CITY OF BOISE,5425 W. CHINDEN BLVD,GARDEN CITY,ID,83714,"http://maps.google.com/maps?q=5425 W. CHINDEN BLVD,+GARDEN CITY,+ID+83714&hl=en"
BOUNTIFUL POLICE,SMITH'S MARKETPLACE,555 S 200 W,BOUNTIFUL,UT,84010,"http://maps.google.com/maps?q=555 S 200 W,+BOUNTIFUL,+UT+84010&hl=en"
BRENTWOOD POLICE DEPARTMENT,BRENTWOOD POLICE DEPARTMENT CSO MICHELE KEADY,9100 BRENTWOOD BLVD,BRENTWOOD,CA,94513,"http://maps.google.com/maps?q=9100 BRENTWOOD BLVD,+BRENTWOOD,+CA+94513&hl=en"
CA DEPT. OF PUBLIC HEALTH - FOOD & DRUG,CARMICHAEL LIBRARY,5605 MARCONI AVENUE,CARMICHAEL,CA,95608,"http://maps.google.com/maps?q=5605 MARCONI AVENUE,+CARMICHAEL,+CA+95608&hl=en"
CA DEPT. OF PUBLIC HEALTH - FOOD & DRUG,ROBBIE WATERS POCKET-GREENHAVEN BRANCH LIBRARY,7335 GLORIA DRIVE,SACRAMENTO,CA,95831,"http://maps.google.com/maps?q=7335 GLORIA DRIVE,+SACRAMENTO,+CA+95831&hl=en"
CALAVERAS COUNTY SHERIFF'S OFFICE,ANGELS CAMP POLICE DEPARTMENT,200 MONTE VERDA STREET,ANGELS CAMP,CA,95222,"http://maps.google.com/maps?q=200 MONTE VERDA STREET,+ANGELS CAMP,+CA+95222&hl=en"
CALAVERAS COUNTY SHERIFF'S OFFICE,CALAVERAS COUNTY SHERIFF'S OFFICE TOYON MIDDLE SCHOOL,3412 DOUBLE SPRINGS ROAD,VALLEY SPRINGS,CA,95252,"http://maps.google.com/maps?q=3412 DOUBLE SPRINGS ROAD,+VALLEY SPRINGS,+CA+95252&hl=en"
CALDWELL POLICE DEPARTMENT,CALDWELL POLICE DEPT,110 S 5TH AVE,CALDWELL,ID,83605,"http://maps.google.com/maps?q=110 S 5TH AVE,+CALDWELL,+ID+83605&hl=en"
CASSIA COUNTY SHERIFF,SMITH'S FOOD KING PARKING LOT,937 E. MAIN,BURLEY,ID,83318,"http://maps.google.com/maps?q=937 E. MAIN,+BURLEY,+ID+83318&hl=en"
CITRUS HEIGHTS POLICE DEPARTMENT,CITRUS HEIGHTS POLICE DEPARTMENT,6315 FOUNTAIN SQUARE DRIVE,CITRUS HEIGHTS,CA,95621,"http://maps.google.com/maps?q=6315 FOUNTAIN SQUARE DRIVE,+CITRUS HEIGHTS,+CA+95621&hl=en"
CITY OF OAKLEY POLICE DEPARTMENT,CITY OF OAKLEY POLICE DEPARTMENT,3231 MAIN STREET,OAKLEY,CA,94561,"http://maps.google.com/maps?q=3231 MAIN STREET,+OAKLEY,+CA+94561&hl=en"
DAVIS COUNTY SHERIFF'S OFFICE,SMITH'S,2353 N. MAIN ST.,SUNSET,UT,84015,"http://maps.google.com/maps?q=2353 N. MAIN ST.,+SUNSET,+UT+84015&hl=en"
DEA - SACRAMENTO DISTRICT OFFICE,DEA - SACRAMENTO DISTRICT OFFICE,4328 WATT AVENUE,SACRAMENTO,CA,95821,"http://maps.google.com/maps?q=4328 WATT AVENUE,+SACRAMENTO,+CA+95821&hl=en"
DRAPER CITY POLICE DEPARTMENT,SMITH'S,212 E. 12300 S.,DRAPER,UT,84020,"http://maps.google.com/maps?q=212 E. 12300 S.,+DRAPER,+UT+84020&hl=en"
DRUG ENFORCEMENT ADMINISTRATION,UTAH STATE CAPITOL,350 STATE ST.,SALT LAKE CITY,UT,84111,"http://maps.google.com/maps?q=350 STATE ST.,+SALT LAKE CITY,+UT+84111&hl=en"
DUCHESNE COUNTY SHERIFF'S OFFICE,AL'S FOOD TOWN,150 E. HWY. 40,DUCHESNE,UT,84021,"http://maps.google.com/maps?q=150 E. HWY. 40,+DUCHESNE,+UT+84021&hl=en"
EAST CARBON P.D.,EAST CARBON POLICE DEPT.,101 W. GENEVA DR.,EAST CARBON,UT,84520,"http://maps.google.com/maps?q=101 W. GENEVA DR.,+EAST CARBON,+UT+84520&hl=en"
EL DORADO COUNTY SHERIFF'S OFFICE,EL DORADO COUNTY FIRE STATION 17,6430 PONY EXPRESS TRAIL,POLLOCK PINES,CA,95726,"http://maps.google.com/maps?q=6430 PONY EXPRESS TRAIL,+POLLOCK PINES,+CA+95726&hl=en"
EL DORADO COUNTY SHERIFF'S OFFICE,EL DORADO COUNTY SHERIFF'S OFFICE,300 FAIR LANE,PLACERVILLE,CA,95667,"http://maps.google.com/maps?q=300 FAIR LANE,+PLACERVILLE,+CA+95667&hl=en"
EL DORADO COUNTY SHERIFF'S OFFICE,EL DORADO COUNTY SHERIFF'S OFFICE SUBSTATION,"4355 TOWN CENTER BLVD., SUITE 113",EL DORADO HILLS,CA,95762,"http://maps.google.com/maps?q=4355 TOWN CENTER BLVD., SUITE 113,+EL DORADO HILLS,+CA+95762&hl=en"
EL DORADO COUNTY SHERIFF'S OFFICE,EL DORADO COUNTY SHERIFF'S OFFICE SUBSTATION,"6101 FRONT ST., SUITE 4",GEORGETOWN,CA,95634,"http://maps.google.com/maps?q=6101 FRONT ST., SUITE 4,+GEORGETOWN,+CA+95634&hl=en"
ELK GROVE POLICE DEPARTMENT,ELK GROVE POLICE DEPARTMENT,8400 LAGUNA PALMS WAY,ELK GROVE,CA,95758,"http://maps.google.com/maps?q=8400 LAGUNA PALMS WAY,+ELK GROVE,+CA+95758&hl=en"
ELMORE COUNTY SHERIFF'S OFFICE,ELMORE COUNTY SHERIFF'S OFFICE,250 AMERICAN LEGION BLVD,MOUNTAIN HOME,ID,83647,"http://maps.google.com/maps?q=250 AMERICAN LEGION BLVD,+MOUNTAIN HOME,+ID+83647&hl=en"
EMMETT POLICE DEPT,EMMETT POLICE DEPT (INSIDE POLICE LOBBY),501 E MAIN ST,EMMETT,ID,83617,"http://maps.google.com/maps?q=501 E MAIN ST,+EMMETT,+ID+83617&hl=en"
FALLON POLICE DEPARTMENT,CVS PHARMACY PARKING LOT,461 W. WILLIAMS AVE.,FALLON,NV,89406,"http://maps.google.com/maps?q=461 W. WILLIAMS AVE.,+FALLON,+NV+89406&hl=en"
FALLON POLICE DEPARTMENT,FALLON TRIBAL HEALTH CLINIC PARKING LOT,1001 RIO VISTA DR.,FALLON,NV,89406,"http://maps.google.com/maps?q=1001 RIO VISTA DR.,+FALLON,+NV+89406&hl=en"
FALLON POLICE DEPARTMENT,WALGREENS PHARMACY PARKING LOT,2020 RENO HWY.,FALLON,NV,89406,"http://maps.google.com/maps?q=2020 RENO HWY.,+FALLON,+NV+89406&hl=en"
FARMINGTON POLICE DEPARTMENT,SMITH'S FOOD & DRUG,1316 NORTH U.S. HIGHWAY 89,FARMINGTON,UT,84025,"http://maps.google.com/maps?q=1316 NORTH U.S. HIGHWAY 89,+FARMINGTON,+UT+84025&hl=en"
FOLSOM POLICE DEPARTMENT,FOLSOM POLICE DEPARTMENT,46 NATOMA STREET,FOLSOM,CA,95630,"http://maps.google.com/maps?q=46 NATOMA STREET,+FOLSOM,+CA+95630&hl=en"
FORT HALL TRIBAL PD,SHOSHONE-BANNOCK JR/SR HIGH SCHOOL,17400 HILINE ROAD,POCATELLO,ID,83202,"http://maps.google.com/maps?q=17400 HILINE ROAD,+POCATELLO,+ID+83202&hl=en"
GALT POLICE DEPARTMENT,GALT POLICE DEPARTMENT,455 INDUSTRIAL DRIVE,GALT,CA,95632,"http://maps.google.com/maps?q=455 INDUSTRIAL DRIVE,+GALT,+CA+95632&hl=en"
GRANGEVILLE PD,CITY COUNCIL CHAMBERS,225 WEST NORTH STREET,GRANGEVILLE,ID,83530,"http://maps.google.com/maps?q=225 WEST NORTH STREET,+GRANGEVILLE,+ID+83530&hl=en"
GRASS VALLEY POLICE DEPARTMENT,GRASS VALLEY POLICE DEAPRTMENT,129 S AUBURN ST,GRASS VALLEY,CA,95945,"http://maps.google.com/maps?q=129 S AUBURN ST,+GRASS VALLEY,+CA+95945&hl=en"
GUNNISON VALLEY POLICE DEPARTMENT,CENTERFIELD CITY HALL,130 S. MAIN ST.,CENTERFIELD,UT,84622,"http://maps.google.com/maps?q=130 S. MAIN ST.,+CENTERFIELD,+UT+84622&hl=en"
HILL AIR FORCE BASE,BASE EXCHANGE,7440 6TH STREET,HILL AFB,UT,84056,"http://maps.google.com/maps?q=7440 6TH STREET,+HILL AFB,+UT+84056&hl=en"
HILL AIR FORCE BASE,HILL AIR FORCE BASE COMMISSARY,7451 6TH STREET,HILL AFB,UT,84056,"http://maps.google.com/maps?q=7451 6TH STREET,+HILL AFB,+UT+84056&hl=en"
IDAHO FALLS POLICE DEPARTMENT,BONNEVILLE COUNTY COURTHOUSE,605 N. CAPITAL AVE,IDAHO FALLS,ID,83402,"http://maps.google.com/maps?q=605 N. CAPITAL AVE,+IDAHO FALLS,+ID+83402&hl=en"
IRON COUNTY SHERIFFS OFFICE,SMITH'S FOOD AND DRUG,633 SOUTH MAIN STREET,CEDAR CITY,UT,84720,"http://maps.google.com/maps?q=633 SOUTH MAIN STREET,+CEDAR CITY,+UT+84720&hl=en"
JEFFERSON COUNTY SHERIFF'S OFFICE,JEFFERSON COUNTY SHERIFF'S OFFICE,200 COURTHOUSE WAY,RIGBY,ID,83442,"http://maps.google.com/maps?q=200 COURTHOUSE WAY,+RIGBY,+ID+83442&hl=en"
KAYSVILLE POLICE DEPARTMENT,SMITH'S,1370 W. 200 N.,KAYSVILLE,UT,84037,"http://maps.google.com/maps?q=1370 W. 200 N.,+KAYSVILLE,+UT+84037&hl=en"
KIMBERLY-HANSEN POLICE DEPARTMENT,KIMBERLY-HANSEN CITY HALL,242 HWY 30,KIMBERLY,ID,83341,"http://maps.google.com/maps?q=242 HWY 30,+KIMBERLY,+ID+83341&hl=en"
LAS VEGAS METROPOLITAN POLICE DEPT.,ENTERPRISE AREA COMMAND PARKING LOT,6975 W. WINDMILL,LAS VEGAS,NV,89113,"http://maps.google.com/maps?q=6975 W. WINDMILL,+LAS VEGAS,+NV+89113&hl=en"
LAS VEGAS METROPOLITAN POLICE DEPT.,NORTHWEST AREA COMMAND,9850 W. CHEYENNE,LAS VEGAS,NV,89129,"http://maps.google.com/maps?q=9850 W. CHEYENNE,+LAS VEGAS,+NV+89129&hl=en"
LASSEN COUNTY SHERIFF'S OFFICE,LASSEN COUNTY SHERIFF'S OFFICE,1415 SHERIFF CADY LANE,SUSANVILLE,CA,96130,"http://maps.google.com/maps?q=1415 SHERIFF CADY LANE,+SUSANVILLE,+CA+96130&hl=en"
LASSEN COUNTY SHERIFF'S OFFICE,LASSEN COUNTY SHERIFF'S OFFICE SIERRA SHOPPING CENTER - SAFEWAY,2970 MAIN ST,SUSANVILLE,CA,96130,"http://maps.google.com/maps?q=2970 MAIN ST,+SUSANVILLE,+CA+96130&hl=en"
LATHROP POLICE SERVICES,LATHROP SENIOR CENTER,15707 FIFTH STREET,LATHROP,CA,95330,"http://maps.google.com/maps?q=15707 FIFTH STREET,+LATHROP,+CA+95330&hl=en"
LAYTON POLICE DEPARTMENT,SMITH'S FOOD & DRUG,1170 E. GENTILE ST.,LAYTON,UT,84040,"http://maps.google.com/maps?q=1170 E. GENTILE ST.,+LAYTON,+UT+84040&hl=en"
LEHI POLICE DEPARTMENT,MACEY'S SUPERMARKET,760 EAST MAIN,LEHI,UT,84043,"http://maps.google.com/maps?q=760 EAST MAIN,+LEHI,+UT+84043&hl=en"
LINDON POLICE DEPARTMENT,LINDON WALMART,585 NORTH STATE STREET,LINDON,UT,84042,"http://maps.google.com/maps?q=585 NORTH STATE STREET,+LINDON,+UT+84042&hl=en"
LODI POLICE DEPARTMENT,LODI POLICE DEPARTMENT,215 W. ELM STREET,LODI,CA,95240,"http://maps.google.com/maps?q=215 W. ELM STREET,+LODI,+CA+95240&hl=en"
MALHEUR COUNTY SHERIFF'S OFFICE,MALHEUR COUNTY SHERIFF'S OFFICE,151 B ST. WEST,VALE,OR,97918,"http://maps.google.com/maps?q=151 B ST. WEST,+VALE,+OR+97918&hl=en"
MARIPOSA COUNTY SHERIFF'S OFFICE,MARIPOSA COUNTY LAKE DON PEDRO TRANSFER STATION,9729 MERCED FALLS ROAD,LA GRANGE,CA,95329,"http://maps.google.com/maps?q=9729 MERCED FALLS ROAD,+LA GRANGE,+CA+95329&hl=en"
MARIPOSA COUNTY SHERIFF'S OFFICE,MARIPOSA SHERIFF'S OFFICE SUB STATION #1,10549 FISKE ROAD,COULTERVILLE,CA,95311,"http://maps.google.com/maps?q=10549 FISKE ROAD,+COULTERVILLE,+CA+95311&hl=en"
MCCALL POLICE DEPT,POLICE DEPT,550 DEINHARD LANE,MCCALL,ID,83638,"http://maps.google.com/maps?q=550 DEINHARD LANE,+MCCALL,+ID+83638&hl=en"
MERIDIAN ANTI-DRUG COALITION WITH MERIDIAN PD,BLUE CROSS OF IDAHO,3000 E. PINE AVE,MERIDIAN,ID,83642,"http://maps.google.com/maps?q=3000 E. PINE AVE,+MERIDIAN,+ID+83642&hl=en"
MORGAN COUNTY SHERIFF'S OFFICE,RIDLEY'S FAMILY MARKET,275 N. 300 W.,MORGAN,UT,84050,"http://maps.google.com/maps?q=275 N. 300 W.,+MORGAN,+UT+84050&hl=en"
NAMPA POLICE DEPARTMENT,NAMPA CIVIC CENTER,311 3RD ST. S,NAMPA,ID,83651,"http://maps.google.com/maps?q=311 3RD ST. S,+NAMPA,+ID+83651&hl=en"
NEPHI CITY POLICE DEPARTMENT,NEPHI CITY POLICE DEPARTMENT,42 EAST 200 NORTH,NEPHI,UT,84648,"http://maps.google.com/maps?q=42 EAST 200 NORTH,+NEPHI,+UT+84648&hl=en"
NEVADA COUNTY SHERIFF'S OFFICE,NEVADA COUNTY SHERIFF'S OFFICE,950 MAIDU AVENUE,NEVADA CITY,CA,95959,"http://maps.google.com/maps?q=950 MAIDU AVENUE,+NEVADA CITY,+CA+95959&hl=en"
NEVADA COUNTY SHERIFF'S OFFICE,NEVADA COUNTY SHERIFF'S OFFICE 2ND COLLECTION SITE LOCATION,17422 PENN VALLEY DRIVE,PENN VALLEY,CA,95946,"http://maps.google.com/maps?q=17422 PENN VALLEY DRIVE,+PENN VALLEY,+CA+95946&hl=en"
NORTH LAS VEGAS P.D.,NORTH LAS VEGAS PD NORTHWEST AREA COMMAND STATION,3755 W. WASHBURN RD.,NORTH LAS VEGAS,NV,89031,"http://maps.google.com/maps?q=3755 W. WASHBURN RD.,+NORTH LAS VEGAS,+NV+89031&hl=en"
NORTH OGDEN CITY POLICE,SMITH'S MARKET,2560 N. 400 E.,OGDEN,UT,84404,"http://maps.google.com/maps?q=2560 N. 400 E.,+OGDEN,+UT+84404&hl=en"
OGDEN POLICE DEPARTMENT,SMITH'S MARKET,1485 HARRISON BLVD,OGDEN,UT,84404,"http://maps.google.com/maps?q=1485 HARRISON BLVD,+OGDEN,+UT+84404&hl=en"
OGDEN POLICE DEPARTMENT,SMITH'S MARKETPLACE,4275 HARRISON BLVD,OGDEN,UT,84403,"http://maps.google.com/maps?q=4275 HARRISON BLVD,+OGDEN,+UT+84403&hl=en"
ONEIDA COUNTY SHERIFF'S OFFICE,ONEIDA COUNTY COURTHOUSE,10 COURT STREET,MALAD CITY,ID,83252,"http://maps.google.com/maps?q=10 COURT STREET,+MALAD CITY,+ID+83252&hl=en"
ONTARIO POLICE DEPARTMENT,ONTARIO CITY HALL FRONT ENTRANCE,444 SW 4TH ST,ONTARIO,OR,97914,"http://maps.google.com/maps?q=444 SW 4TH ST,+ONTARIO,+OR+97914&hl=en"
PAYSON POLICE DEPARTMENT,PAYSON MARKET,586 NORTH MAIN STREET,PAYSON,UT,84651,"http://maps.google.com/maps?q=586 NORTH MAIN STREET,+PAYSON,+UT+84651&hl=en"
PLACER COUNTY SHERIFF'S OFFICE,AUBURN JUSTICE CENTER,2929 RICHARDSON DRIVE,AUBURN,CA,95603,"http://maps.google.com/maps?q=2929 RICHARDSON DRIVE,+AUBURN,+CA+95603&hl=en"
PLACER COUNTY SHERIFF'S OFFICE,DEL ORO HIGH SCHOOL,3301 TAYLOR RD,LOOMIS,CA,95650,"http://maps.google.com/maps?q=3301 TAYLOR RD,+LOOMIS,+CA+95650&hl=en"
PLACER COUNTY SHERIFF'S OFFICE,GRANITE BAY HIGH SCHOOL,1 GRIZZLY WAY,GRANITE BAY,CA,95746,"http://maps.google.com/maps?q=1 GRIZZLY WAY,+GRANITE BAY,+CA+95746&hl=en"
PLACER COUNTY SHERIFF'S OFFICE,OLD TAHOE CITY FIRE STATION ABOVE COMMONS BEACH (9 AM--12 PM),300 NORTH LAKE BLVD,TAHOE CITY,CA,96145,"http://maps.google.com/maps?q=300 NORTH LAKE BLVD,+TAHOE CITY,+CA+96145&hl=en"
PLACER COUNTY SHERIFF'S OFFICE,PLACER COUNTY SHERIFF'S OFFICE COLFAX SUBSTATION,10 CULVER STREET,COLFAX,CA,95713,"http://maps.google.com/maps?q=10 CULVER STREET,+COLFAX,+CA+95713&hl=en"
PLEASANT GROVE POLICE DEPARTMENT,SMITH'S,210 E. 700 S.,PLEASANT GROVE,UT,84062,"http://maps.google.com/maps?q=210 E. 700 S.,+PLEASANT GROVE,+UT+84062&hl=en"
POCATELLO POLICE DEPARTMENT,POCATELLO POLICE DEPARTMENT CITY HALL PARKING LOT,911 N. 7TH AVE,POCATELLO,ID,83201,"http://maps.google.com/maps?q=911 N. 7TH AVE,+POCATELLO,+ID+83201&hl=en"
PRESTON POLICE DEPARTMENT,PRESTON POLICE DEPARTMENT,70 W. ONEIDA,PRESTON,ID,83263,"http://maps.google.com/maps?q=70 W. ONEIDA,+PRESTON,+ID+83263&hl=en"
PROVO POLICE DEPARTMENT,SMITH'S FOOD AND DRUG,48 S. 300 W.,PROVO,UT,84601,"http://maps.google.com/maps?q=48 S. 300 W.,+PROVO,+UT+84601&hl=en"
RIO VISTA POLICE DEPARTMENT,RIO VISTA POLICE DEPARTMENT,50 POPPY HOUSE ROAD,RIO VISTA,CA,94571,"http://maps.google.com/maps?q=50 POPPY HOUSE ROAD,+RIO VISTA,+CA+94571&hl=en"
RIPON POLICE DEPARTMENT,RIPON POLICE DEPARTMENT,259 N. WILMA AVE.,RIPON,CA,95366,"http://maps.google.com/maps?q=259 N. WILMA AVE.,+RIPON,+CA+95366&hl=en"
ROCKLIN POLICE DEPARTMENT,ROCKLIN FIRE STATION,2001 WILDCAT BLVD,ROCKLIN,CA,95765,"http://maps.google.com/maps?q=2001 WILDCAT BLVD,+ROCKLIN,+CA+95765&hl=en"
ROCKLIN POLICE DEPARTMENT,ROCKLIN POLICE DEPARTMENT,4080 ROCKLIN ROAD,ROCKLIN,CA,95677,"http://maps.google.com/maps?q=4080 ROCKLIN ROAD,+ROCKLIN,+CA+95677&hl=en"
ROOSEVELT CITY POLICE,STEWART'S MARKET PARKING LOT,300 W. HWY 40,ROOSEVELT,UT,84066,"http://maps.google.com/maps?q=300 W. HWY 40,+ROOSEVELT,+UT+84066&hl=en"
ROSEVILLE POLICE DEPARTMENT,MAIDU COMMUNITY CENTER KOREAN WAR MEMORIAL,1550 MAIDU DRIVE,ROSEVILLE,CA,95661,"http://maps.google.com/maps?q=1550 MAIDU DRIVE,+ROSEVILLE,+CA+95661&hl=en"
ROSEVILLE POLICE DEPARTMENT,ROSEVILLE HIGH SCHOOL,1 TIGER WAY,ROSEVILLE,CA,95678,"http://maps.google.com/maps?q=1 TIGER WAY,+ROSEVILLE,+CA+95678&hl=en"
ROSEVILLE POLICE DEPARTMENT,SUN CITY / DEL WEBB RETIREMENT COMMUNITY,7050 DEL WEBB BLVD,ROSEVILLE,CA,95747,"http://maps.google.com/maps?q=7050 DEL WEBB BLVD,+ROSEVILLE,+CA+95747&hl=en"
ROY CITY POLICE,KENT'S MARKET,3535 W. 5600 S.,ROY,UT,84067,"http://maps.google.com/maps?q=3535 W. 5600 S.,+ROY,+UT+84067&hl=en"
SACRAMENTO COUNTY SHERIFF'S OFFICE,SACRAMENTO COUNTY SHERIFF'S OFFICE CENTRAL DIVISION,7000 65TH STREET # B,SACRAMENTO,CA,95823,"http://maps.google.com/maps?q=7000 65TH STREET # B,+SACRAMENTO,+CA+95823&hl=en"
SACRAMENTO COUNTY SHERIFF'S OFFICE,SACRAMENTO COUNTY SHERIFF'S OFFICE NORTH DIVISION,5510 GARFIELD AVENUE,SACRAMENTO,CA,95841,"http://maps.google.com/maps?q=5510 GARFIELD AVENUE,+SACRAMENTO,+CA+95841&hl=en"
SACRAMENTO COUNTY SHERIFF'S OFFICE,SACRAMENTO SHERIFF'S DEPARTMENT EAST DIVISION,2897 KILGORE ROAD,RANCHO CORDOVA,CA,95670,"http://maps.google.com/maps?q=2897 KILGORE ROAD,+RANCHO CORDOVA,+CA+95670&hl=en"
SACRAMENTO POLICE DEPARTMENT,SACRAMENTO POLICE DEPARTMENT,5770 FREEPORT BLVD,SACRAMENTO,CA,95822,"http://maps.google.com/maps?q=5770 FREEPORT BLVD,+SACRAMENTO,+CA+95822&hl=en"
SALEM POLICE DEPARTMENT,SALEM POLICE DEPARTMENT,30 W. 100 S.,SALEM,UT,84653,"http://maps.google.com/maps?q=30 W. 100 S.,+SALEM,+UT+84653&hl=en"
SAN JOAQUIN COUNTY SHERIFF'S OFFICE,GARDEN ACRES COMMUNITY CENTER,607 S. BIRD AVENUE,STOCKTON,CA,95215,"http://maps.google.com/maps?q=607  S. BIRD AVENUE,+STOCKTON,+CA+95215&hl=en"
SAN JOAQUIN COUNTY SHERIFF'S OFFICE,LINCOLN CENTER SHOPPING CENTER,304 LINCOLN CENTER DRIVE,STOCKTON,CA,95207,"http://maps.google.com/maps?q=304 LINCOLN CENTER DRIVE,+STOCKTON,+CA+95207&hl=en"
SAN JOAQUIN COUNTY SHERIFF'S OFFICE,YOUNG'S PAYLESS MARKET,18980 N. HWY 88,LOCKEFORD,CA,95237,"http://maps.google.com/maps?q=18980 N. HWY 88,+LOCKEFORD,+CA+95237&hl=en"
SANDY CITY POLICE DEPARTMENT,SANDY POLICE DEPARTMENT,10000 SOUTH CENTENNIAL PARKWAY,SANDY,UT,84070,"http://maps.google.com/maps?q=10000 SOUTH CENTENNIAL PARKWAY,+SANDY,+UT+84070&hl=en"
SANTAQUIN CITY POLICE DEPT.,SANTAQUIN CITY POLICE DEPT,275 W. MAIN,SANTAQUIN,UT,84655,"http://maps.google.com/maps?q=275 W. MAIN,+SANTAQUIN,+UT+84655&hl=en"
SARATOGA SPRINGS POLICE DEPARTMENT,SMITH'S MARKETPLACE,689 N. REDWOOD ROAD,SARATOGA SPRINGS,UT,84045,"http://maps.google.com/maps?q=689 N. REDWOOD ROAD,+SARATOGA SPRINGS,+UT+84045&hl=en"
SOUTH JORDAN POLICE DEPARTMENT,SOUTH JORDAN POLICE DEPT/ CITY HALL,1600 WEST TOWNE CENTER DRIVE (10610 S),SOUTH JORDAN,UT,84095,"http://maps.google.com/maps?q=1600 WEST TOWNE CENTER DRIVE (10610 S),+SOUTH JORDAN,+UT+84095&hl=en"
SOUTH LAKE TAHOE POLICE DEPT,SAFEWAY PARKING LOT,1020 JOHNSON BLVD,SOUTH LAKE TAHOE,CA,96150,"http://maps.google.com/maps?q=1020 JOHNSON BLVD,+SOUTH LAKE TAHOE,+CA+96150&hl=en"
SOUTH OGDEN CITY POLICE,MACEY'S GROCERY,325 36TH STREET,OGDEN,UT,84403,"http://maps.google.com/maps?q=325 36TH STREET,+OGDEN,+UT+84403&hl=en"
SOUTH SALT LAKE POLICE DEPARTMENT,RITE AID,3250 S. 700 E.,SALT LAKE CITY,UT,84115,"http://maps.google.com/maps?q=3250 S. 700 E.,+SALT LAKE CITY,+UT+84115&hl=en"
SPANISH FORK POLICE DEPARTMENT,SPANISH FORK POLICE DEPARTMENT,789 W. CENTER ST.,SPANISH FORK,UT,84660,"http://maps.google.com/maps?q=789 W. CENTER ST.,+SPANISH FORK,+UT+84660&hl=en"
SPRINGVILLE POLICE DEPARTMENT,SPRINGVILLE CITY LIBRARY,45 SOUTH MAIN,SPRINGVILLE,UT,84663,"http://maps.google.com/maps?q=45 SOUTH MAIN,+SPRINGVILLE,+UT+84663&hl=en"
ST. GEORGE POLICE DEPARTMENT,SMITH'S PARKING LOT,20 NORTH BLUFF STREET,SAINT GEORGE,UT,84770,"http://maps.google.com/maps?q=20 NORTH BLUFF STREET,+SAINT GEORGE,+UT+84770&hl=en"
STANISLAUS DRUG ENFORCEMENT AGENCY,STANISLAUS COURTHOUSE,2260 FLOYD AVE,MODESTO,CA,95355,"http://maps.google.com/maps?q=2260 FLOYD AVE,+MODESTO,+CA+95355&hl=en"
STOCKTON POLICE DEPARTMENT,ARNOLD RUE COMMUNITY CENTER,5758 LORRAINE AVENUE,STOCKTON,CA,95210,"http://maps.google.com/maps?q=5758 LORRAINE AVENUE,+STOCKTON,+CA+95210&hl=en"
SYRACUSE POLICE DEPARTMENT,SMITH'S FOOD AND DRUG,951 WEST 1700 SOUTH,SYRACUSE,UT,84075,"http://maps.google.com/maps?q=951 WEST 1700 SOUTH,+SYRACUSE,+UT+84075&hl=en"
TOOELE CITY POLICE DEPARTMENT,WALMART,99 W. 1280 N.,TOOELE,UT,84074,"http://maps.google.com/maps?q=99 W. 1280 N.,+TOOELE,+UT+84074&hl=en"
TRACY POLICE DEPARTMENT,TRACY CITY HALL NORTH PARKING LOT,333 CIVIC CENTER DRIVE,TRACY,CA,95376,"http://maps.google.com/maps?q=333 CIVIC CENTER DRIVE,+TRACY,+CA+95376&hl=en"
TRUCKEE POLICE DEPARTMENT,GATEWAY SHOPPING CENTER PARKING LOT,11290 DONNER PASS RD.,TRUCKEE,CA,96161,"http://maps.google.com/maps?q=11290 DONNER PASS RD.,+TRUCKEE,+CA+96161&hl=en"
TUOLUMNE COUNTY SHERIFF'S OFFICE,JUNCTION SHOPPING CENTER,13775 MONO WAY,SONORA,CA,95370,"http://maps.google.com/maps?q=13775 MONO WAY,+SONORA,+CA+95370&hl=en"
U.S. ARMY GARRISON DUGWAY POLICE DEPT,DUGWAY PROVING GROUND FIRE STATION,BLDG 5212DOOLOTTLE AVE,DUGWAY,UT,84022,"http://maps.google.com/maps?q=BLDG 5212,+DUGWAY,+UT+84022&hl=en"
UINTA COUNTY SHERIFF'S OFFICE,BENEDICT'S,950 NORTH HWY 414,MOUNTAIN VIEW,WY,82939,"http://maps.google.com/maps?q=950 NORTH HWY 414,+MOUNTAIN VIEW,+WY+82939&hl=en"
UINTA COUNTY SHERIFF'S OFFICE,SMITH'S,70 YELLOW CREEK RD,EVANSTON,WY,82930,"http://maps.google.com/maps?q=70 YELLOW CREEK RD,+EVANSTON,+WY+82930&hl=en"
UINTA COUNTY SHERIFF'S OFFICE,UINTA COUNTY SHERIFFS OFFICE,77 CR 109,EVANSTON,WY,82930,"http://maps.google.com/maps?q=77 CR 109,+EVANSTON,+WY+82930&hl=en"
UNIFIED POLICE DEPARTMENT - TAYLORSVILLE,TAYLORSVILLE CITY HALL,2600 W TAYLORSVILLE BVD.,TAYLORSVILLE,UT,84129,"http://maps.google.com/maps?q=2600 W TAYLORSVILLE BVD.,+TAYLORSVILLE,+UT+84129&hl=en"
UNIFIED POLICE DEPARTMENT-RIVERTON,UNIFIED POLICE DEPARTMENT-RIVERTON,12810 S. REDWOOD RD.,RIVERTON,UT,84065,"http://maps.google.com/maps?q=12810 S. REDWOOD RD.,+RIVERTON,+UT+84065&hl=en"
UNIFIED POLICE DEPT. MIDVALE PRECINCT,HILLCREST HIGH SCHOOL PARKING LOT,7350 S. 900 E.,MIDVALE,UT,84047,"http://maps.google.com/maps?q=7350 S. 900 E.,+MIDVALE,+UT+84047&hl=en"
UNIFIED POLICE-MILLCREEK,MILLCREEK COMMUNITY CENTER,2266 E. EVERGREEN AVE.,SALT LAKE CITY,UT,84124,"http://maps.google.com/maps?q=2266 E. EVERGREEN AVE.,+SALT LAKE CITY,+UT+84124&hl=en"
UNIVERSITY OF UTAH POLICE,UNIVERSITY OF UTAH POLICE DEPARTMENT,1735 E. SOUTH CAMPUS DR.,SALT LAKE CITY,UT,84112,"http://maps.google.com/maps?q=1735 E. SOUTH CAMPUS DR.,+SALT LAKE CITY,+UT+84112&hl=en"
UTAH HIGHWAY PATROL,BEAVER EMS BLD,1090 N. MAIN,BEAVER,UT,84713,"http://maps.google.com/maps?q=1090 N. MAIN,+BEAVER,+UT+84713&hl=en"
WEISER POLICE DEPT,WEISER MEMORIAL HOSPITAL,645 E 5TH ST,WEISER,ID,83672,"http://maps.google.com/maps?q=645 E 5TH ST,+WEISER,+ID+83672&hl=en"
WEST JORDAN POLICE DEPARTMENT,SMITH'S,5710 W. 7800 S.,WEST JORDAN,UT,84081,"http://maps.google.com/maps?q=5710 W. 7800 S.,+WEST JORDAN,+UT+84081&hl=en"
WEST VALLEY POLICE DEPARTMENT,CVS PHARMACY,3148 W. 3500 S.,WEST VALLEY CITY,UT,84119,"http://maps.google.com/maps?q=3148 W. 3500 S.,+WEST VALLEY CITY,+UT+84119&hl=en"
WINNEMUCCA POLICE DEPT.,RIDLEY'S MARKET PARKING LOT,1125 W. WINNEMUCCA BL.,WINNEMUCCA,NV,89445,"http://maps.google.com/maps?q=1125 W. WINNEMUCCA  BL.,+WINNEMUCCA,+NV+89445&hl=en"
WOODS CROSS POLICE DEPARTMENT,WOODS CROSS POLICE DEPARTMENT,1555 SOUTH 800 WEST,WOODS CROSS,UT,84087,"http://maps.google.com/maps?q=1555 SOUTH 800 WEST,+WOODS CROSS,+UT+84087&hl=en"
YUBA CITY POLICE DEPARTMENT,YUBA CITY POLICE DEPARTMENT,"1545 POOLE BLVD.,",YUBA CITY,CA,95993,"http://maps.google.com/maps?q=1545 POOLE BLVD.,,+YUBA CITY,+CA+95993&hl=en"
YUBA COUNTY SHERIFF'S DEPARTMENT,YUBA COUNTY SHERIFF'S DEPARTMENT,1286 SCALES AVE,MARYSVILLE,CA,95901,"http://maps.google.com/maps?q=1286 SCALES AVE,+MARYSVILLE,+CA+95901&hl=en"
YUBA COUNTY SHERIFF'S DEPARTMENT,YUBA COUNTY SHERIFF'S DEPARTMENT,1765 RIVER OAKS BLVD,OLIVEHURST,CA,95961,"http://maps.google.com/maps?q=1765 RIVER OAKS BLVD,+OLIVEHURST,+CA+95961&hl=en"
UINTAH COUNTY SHERIFF'S DEPARTMENT,WALMART PARKING LOT,1851 W. US-40,VERNAL,UT,84078,"http://maps.google.com/maps?q=1851 W. US-40,+VERNAL,+UT+84078&hl=en"
