Participant,CollectionSite,Address,City,State,Zip,MapURL
ALTAMONTE SPRINGS POLICE DEPARTMENT,ALTAMONTE SPRINGS POLICE DEPARTMENT,451 EAST ALTAMONTE DRIVE,ALTAMONTE SPRINGS,FL,32701,"http://maps.google.com/maps?q=451 EAST ALTAMONTE DRIVE,+ALTAMONTE SPRINGS,+FL+32701&hl=en"
BAKER COUNTY SHERIFFS OFFICRE,CVS PHARMACY,121 WEST MACCLENNY AVENUE,MACCLENNY,FL,32063,"http://maps.google.com/maps?q=121 WEST MACCLENNY AVENUE,+MACCLENNY,+FL+32063&hl=en"
CALHOUN CO SHERIFF'S OFFICE,CALHOUN COUNTY SHERIFF'S OFFICE,20838 NE WC REEDER DRIVE,BLOUNTSTOWN,FL,32424,"http://maps.google.com/maps?q=20838 NE WC REEDER DRIVE,+BLOUNTSTOWN,+FL+32424&hl=en"
CASSELBERRY POLICE DEPARTMENT,CASSELBERRY POLICE DEPARTMENT 407-262-7616 X 1054,4195 S. US HWY 17-92,CASSELBERRY,FL,32707,"http://maps.google.com/maps?q=4195 S. US HWY 17-92,+CASSELBERRY,+FL+32707&hl=en"
CEDAR KEY POLICE DEPARTMENT,CEDAR KEY POLICE DEPARTMENT,490 2ND STREETPO BOX 339,CEDAR KEY,FL,32625,"http://maps.google.com/maps?q=490 2ND STREET,+CEDAR KEY,+FL+32625&hl=en"
CHARLTON COUNTY SHERIFF'S OFFICE,SOUTH EASTERN BANK,4233 2ND STREET,FOLKSTON,GA,31537,"http://maps.google.com/maps?q=4233 2ND STREET,+FOLKSTON,+GA+31537&hl=en"
CITY OF DELAND POLICE DEPARTMENT,DELAND POLICE DEPARTMENT,219 W. HOWRY AVE.,DELAND,FL,32720,"http://maps.google.com/maps?q=219 W. HOWRY AVE.,+DELAND,+FL+32720&hl=en"
CITY OF ORMOND BEACH PD,CITY OF ORMOND BEACH PD,170 WEST GRANADA BLVD,ORMOND BEACH,FL,32174,"http://maps.google.com/maps?q=170 WEST GRANADA BLVD,+ORMOND BEACH,+FL+32174&hl=en"
CLERMONT POLICE DEPARTMENT,WALMART,1450 JOHNS LAKE RD,CLERMONT,FL,34711,"http://maps.google.com/maps?q=1450 JOHNS LAKE RD,+CLERMONT,+FL+34711&hl=en"
COLUMBIA COUNTY SHERIFF'S OFFICE,CHEEK AND SCOTT PHARMACY,161 SW STONEGATE TER SUITE 105,LAKE CITY,FL,32024,"http://maps.google.com/maps?q=161 SW STONEGATE TER SUITE 105,+LAKE CITY,+FL+32024&hl=en"
CRESTVIEW POLICE DEPARTMENT,WALGREEN'S,2350 S. FERDON BLVD.,CRESTVIEW,FL,32536,"http://maps.google.com/maps?q=2350 S. FERDON BLVD.,+CRESTVIEW,+FL+32536&hl=en"
CRISP COUNTY SHERIFF¿S OFFICE,CRISP COUNTY SHERIFF¿S OFFICE,196 HWY. 300 SOUTH,CORDELE,GA,31015,"http://maps.google.com/maps?q=196 HWY. 300 SOUTH,+CORDELE,+GA+31015&hl=en"
DAYTONA BEACH SHORES DEPARTMENT OF PUBLIC SAFETY,DAYTONA BEACH SHORES DEPARTMENT OF PUBLIC SAFETY,3050 S ATLANTIC AVE,DAYTONA BEACH SHORES,FL,32118,"http://maps.google.com/maps?q=3050 S ATLANTIC AVE,+DAYTONA BEACH SHORES,+FL+32118&hl=en"
DOTHAN POLICE DEPARTMENT,DOTHAN HOUSTON COUNTY LIBRARY,445 NORTH OATES STREET,DOTHAN,AL,36303,"http://maps.google.com/maps?q=445 NORTH OATES STREET,+DOTHAN,+AL+36303&hl=en"
DRUG ENFORCEMENT ADMINISTRATION,ORANGE PARK MALL SEARS PARKING LOT (ON BLANDING BLVD),1910 WELLS ROAD,ORANGE PARK,FL,32073,"http://maps.google.com/maps?q=1910 WELLS ROAD,+ORANGE PARK,+FL+32073&hl=en"
DUNNELLON POLICE DEPARTMENT,DUNNELLON POLICE DEPARTMENT LOBBY,12014 S WILLIAMS ST,DUNNELLON,FL,34432,"http://maps.google.com/maps?q=12014 S WILLIAMS ST,+DUNNELLON,+FL+34432&hl=en"
EDGEWATER POLICE DEPARTMENT,EDGEWATER POLICE DEPARTMENT,135 E. PARK AVE.,EDGEWATER,FL,32132,"http://maps.google.com/maps?q=135 E. PARK AVE.,+EDGEWATER,+FL+32132&hl=en"
ELBERTA POLICE DEPARTMENT,ELBERTA POLICE DEPARTMENT,13062 MAIN STREET,ELBERTA,AL,36530,"http://maps.google.com/maps?q=13062 MAIN STREET,+ELBERTA,+AL+36530&hl=en"
ESCAMBIA COUNTY SHERIFF OFFICE,WALGREENS,1841 E OLIVE RD,PENSACOLA,FL,32514,"http://maps.google.com/maps?q=1841 E OLIVE RD,+PENSACOLA,+FL+32514&hl=en"
ESCAMBIA COUNTY SHERIFF OFFICE,WALGREENS,4497 MOBILE HWY,PENSACOLA,FL,32505,"http://maps.google.com/maps?q=4497 MOBILE HWY,+PENSACOLA,+FL+32505&hl=en"
ESCAMBIA COUNTY SHERIFF OFFICE,WALGREENS,5995 W MOBILE HWY,PENSACOLA,FL,32526,"http://maps.google.com/maps?q=5995 W MOBILE HWY,+PENSACOLA,+FL+32526&hl=en"
ESCAMBIA COUNTY SHERIFF OFFICE,WALGREENS,6314 NORTH 9TH AVE,PENSACOLA,FL,32504,"http://maps.google.com/maps?q=6314 NORTH 9TH AVE,+PENSACOLA,+FL+32504&hl=en"
ESCAMBIA COUNTY SHERIFF OFFICE,WALGREENS,700 NORTH PACE BLVD,PENSACOLA,FL,32505,"http://maps.google.com/maps?q=700 NORTH PACE BLVD,+PENSACOLA,+FL+32505&hl=en"
ESCAMBIA COUNTY SHERIFF OFFICE,WALGREENS,85 BEVERLY PARKWAY,PENSACOLA,FL,32505,"http://maps.google.com/maps?q=85 BEVERLY PARKWAY,+PENSACOLA,+FL+32505&hl=en"
EXPERIENCE WORKS RSVP/ALACHUA SHERIFF'S OFFICE,SENIOR RECREATION CENTER,5701 NW 34TH BLVD,GAINESVILLE,FL,32653,"http://maps.google.com/maps?q=5701 NW 34TH BLVD,+GAINESVILLE,+FL+32653&hl=en"
FERNANDINA BEACH POLICE DEPARTMENT,FERNANDINA BEACH POLICE DEPARTMENT FRONT LOBBY,1525 LIME STREET,FERNANDINA BEACH,FL,32034,"http://maps.google.com/maps?q=1525 LIME STREET,+FERNANDINA BEACH,+FL+32034&hl=en"
FLAGLER CO. SHERIFF'S OFFICE,FLAGLER COUNTY SHERIFFS OFFICE DISTRICT 2 OFFICE,160 CYPRESS POINT PKWY SUITE 107,PALM COAST,FL,32137,"http://maps.google.com/maps?q=160 CYPRESS POINT PKWY SUITE 107,+PALM COAST,+FL+32137&hl=en"
FLAGLER CO. SHERIFF'S OFFICE,PUBLIX,250 PALM COAST PKWY NE UNIT 1000,PALM COAST,FL,32137,"http://maps.google.com/maps?q=250 PALM COAST PKWY NE  UNIT 1000,+PALM COAST,+FL+32137&hl=en"
FLAGLER CO. SHERIFF'S OFFICE,PUBLIX,4950 BELLE TERRE PKWY,PALM COAST,FL,32137,"http://maps.google.com/maps?q=4950 BELLE TERRE PKWY,+PALM COAST,+FL+32137&hl=en"
FLAGLER CO. SHERIFF'S OFFICE,PUBLIX,800 BELLE TERRE PKWY,PALM COAST,FL,32164,"http://maps.google.com/maps?q=800 BELLE TERRE PKWY,+PALM COAST,+FL+32164&hl=en"
FLORIDA NATIONAL GUARD,HAMILTON SHERIFF'S OFFICE CHEEK AND SCOTT PHARMACY (JASPER),1150 US HWY 41 NWSUITE13,JASPER,FL,32052,"http://maps.google.com/maps?q=1150 US HWY 41 NW,+JASPER,+FL+32052&hl=en"
FLORIDA NATIONAL GUARD,SAINT JOHNS SHERIFF'S OFC/ANCIENT CITY KIDS DAY FRANCIS FIELD (11 AM - 3 PM),25 WEST CASTILLO DRIVE,SAINT AUGUSTINE,FL,32084,"http://maps.google.com/maps?q=25 WEST CASTILLO DRIVE,+SAINT AUGUSTINE,+FL+32084&hl=en"
GADSDEN COUNTY SHERIFF'S OFFICE,GADSDEN COUNTY SHERIFF'S OFFICE,339 EAST JEFFERSON STREET,QUINCY,FL,32351,"http://maps.google.com/maps?q=339 EAST JEFFERSON STREET,+QUINCY,+FL+32351&hl=en"
GLYNN/BRUNSWICK NARCOTICS ENFORCEMENT UNIT,BRUNSWICK POLICE DEPARTMENT,206 MANSFIELD STREET,BRUNSWICK,GA,31520,"http://maps.google.com/maps?q=206 MANSFIELD STREET,+BRUNSWICK,+GA+31520&hl=en"
GLYNN/BRUNSWICK NARCOTICS ENFORCEMENT UNIT,GLYNN COUNTY POLICE DEPARTMENT,157 PUBLIC SAFETY BLVD.,BRUNSWICK,GA,31525,"http://maps.google.com/maps?q=157 PUBLIC SAFETY BLVD.,+BRUNSWICK,+GA+31525&hl=en"
GULF BREEZE POLICE DEPARTMENT,GULF BREEZE POLICE DEPARTMENT,311 FAIRPOINT DRIVE,GULF BREEZE,FL,32561,"http://maps.google.com/maps?q=311 FAIRPOINT DRIVE,+GULF BREEZE,+FL+32561&hl=en"
HAVANA POLICE DEPARTMENT,HAVANA POLICE DEPARTMENT,121 E. 7TH AVENUE,HAVANA,FL,32333,"http://maps.google.com/maps?q=121 E. 7TH AVENUE,+HAVANA,+FL+32333&hl=en"
HOLLY HILL POLICE DEPARTMENT,HOLLY HILL POLICE DEPARTMENT,1065 RIDGEWOOD AVE,DAYTONA BEACH,FL,32117,"http://maps.google.com/maps?q=1065 RIDGEWOOD AVE,+DAYTONA BEACH,+FL+32117&hl=en"
JACKSON COUNTY SHERIFF'S OFFICE,JACKSON COUNTY FARMER'S MARKET,2844 MADISON STREET,MARIANNA,FL,32448,"http://maps.google.com/maps?q=2844 MADISON STREET,+MARIANNA,+FL+32448&hl=en"
LAKE CITY POLICE DEPT.,LAKE CITY POLICE DEPT.,225 NW MAIN BLVD,LAKE CITY,FL,32055,"http://maps.google.com/maps?q=225 NW MAIN BLVD,+LAKE CITY,+FL+32055&hl=en"
LAKE MARY POLICE DEPARTMENT,LAKE MARY POLICE DEPT,165 E CRYSTAL LAKE AVE,LAKE MARY,FL,32746,"http://maps.google.com/maps?q=165 E CRYSTAL LAKE AVE,+LAKE MARY,+FL+32746&hl=en"
LEVY COUNTY SHERIFF OFFICE,CEDAR KEY POLICE DEPARTMENT,490 2ND ST,CEDAR KEY,FL,32625,"http://maps.google.com/maps?q=490 2ND ST,+CEDAR KEY,+FL+32625&hl=en"
LEVY COUNTY SHERIFF OFFICE,CHIEFLAND POLICE DEPARTMENT,14 E PARK AVE,CHIEFLAND,FL,32626,"http://maps.google.com/maps?q=14 E PARK AVE,+CHIEFLAND,+FL+32626&hl=en"
LEVY COUNTY SHERIFF OFFICE,INGLIS TOWN HALL,135 HWY 40 WEST,INGLIS,FL,34449,"http://maps.google.com/maps?q=135 HWY 40 WEST,+INGLIS,+FL+34449&hl=en"
LEVY COUNTY SHERIFF OFFICE,LEVY COUNTY SHERIFF OFFICE,9150 NE 80 AVE,BRONSON,FL,32621,"http://maps.google.com/maps?q=9150 NE 80 AVE,+BRONSON,+FL+32621&hl=en"
LIVE OAK POLICE DEPARTMENT,CHEEK & SCOTT DRUGS,1520 S. OHIO AVE.,LIVE OAK,FL,32064,"http://maps.google.com/maps?q=1520 S. OHIO AVE.,+LIVE OAK,+FL+32064&hl=en"
LONGWOOD POLICE DEPARTMENT,LONGWOOD POLICE DEPARTMENT LOBBY,235 W. CHURCH AVE,LONGWOOD,FL,32750,"http://maps.google.com/maps?q=235 W. CHURCH AVE,+LONGWOOD,+FL+32750&hl=en"
MAITLAND POLICE DEPARTMENT,CITY OF MAITLAND CITY HALL,1776 INDEPENDENCE LANE,MAITLAND,FL,32751,"http://maps.google.com/maps?q=1776 INDEPENDENCE LANE,+MAITLAND,+FL+32751&hl=en"
MAITLAND POLICE DEPARTMENT,MAITLAND POLICE DEPARTMENT,1837 FENNELL STREET,MAITLAND,FL,32751,"http://maps.google.com/maps?q=1837 FENNELL STREET,+MAITLAND,+FL+32751&hl=en"
MARION COUNTY SHERIFF'S OFFICE,MARION COUNTY SHERIFF'S OFFICE CENTRAL OPERATIONS,692 NW 30TH AVE,OCALA,FL,34475,"http://maps.google.com/maps?q=692 NW 30TH AVE,+OCALA,+FL+34475&hl=en"
MASCOTTE POLICE DEPARTMENT,MASCOTTE POLICE DEPARTMENT LOBBY,529 E MYERS BLVD,MASCOTTE,FL,34753,"http://maps.google.com/maps?q=529 E MYERS BLVD,+MASCOTTE,+FL+34753&hl=en"
MONROEVILLE POLICE DEPARTMENT,MONROEVILLE POLICE DEPARTMENT,49 SOUTH MOUNT PLEASANT AVENUE,MONROEVILLE,AL,36460,"http://maps.google.com/maps?q=49 SOUTH MOUNT PLEASANT AVENUE,+MONROEVILLE,+AL+36460&hl=en"
NASSAU COUNTY SHERIFF'S OFFICE,NASSAU COUNTY SHERIFF'S OFFICE,77151 CITIZENS CIR,YULEE,FL,32097,"http://maps.google.com/maps?q=77151 CITIZENS CIR,+YULEE,+FL+32097&hl=en"
NEW SMYRNA BEACH POLICE DEPARTMENT,NEW SMYRNA BEACH POLICE DEPARTMENT,246 INDUSTRIAL PARK AVENUE,NEW SMYRNA BEACH,FL,32168,"http://maps.google.com/maps?q=246 INDUSTRIAL PARK AVENUE,+NEW SMYRNA BEACH,+FL+32168&hl=en"
OCALA POLICE DEPARTMENT,OCALA POLICE DEPARTMENT FRONT ATRIUM,402 SOUTH PINE AVENUE,OCALA,FL,34471,"http://maps.google.com/maps?q=402 SOUTH PINE AVENUE,+OCALA,+FL+34471&hl=en"
ORANGE CITY POLICE DEPARTMENT,ORANGE CITY POLICE DEPARTMENT,207 NORTH HOLLY AVE,ORANGE CITY,FL,32763,"http://maps.google.com/maps?q=207 NORTH HOLLY AVE,+ORANGE CITY,+FL+32763&hl=en"
OVIEDO POLICE DEPARTMENT,OVIEDO POLICE DEPARTMENT,300 ALEXANDRIA BLVD,OVIEDO,FL,32765,"http://maps.google.com/maps?q=300 ALEXANDRIA BLVD,+OVIEDO,+FL+32765&hl=en"
PASCO SHERIFF'S OFFICE,GULF VIEW SQUARE MALL OVERFLOW PARKING AREA,9409 US HIGHWAY 19,PORT RICHEY,FL,34668,"http://maps.google.com/maps?q=9409 US HIGHWAY 19,+PORT RICHEY,+FL+34668&hl=en"
PASCO SHERIFF'S OFFICE,THE SHOPS AT WIREGRASS IST FLOOR PARKING GARAGE,28211 PASEO DR,WESLEY CHAPEL,FL,33543,"http://maps.google.com/maps?q=28211 PASEO DR,+WESLEY CHAPEL,+FL+33543&hl=en"
PORT ORANGE POLICE DEPARTMENT,PORT ORANGE POLICE DEPARTMENT,4545 CLYDE MORRIS BLVD,PORT ORANGE,FL,32129,"http://maps.google.com/maps?q=4545 CLYDE MORRIS BLVD,+PORT ORANGE,+FL+32129&hl=en"
SANFORD POLICE DEPARTMENT,SANFORD POLICE DEPARTMENT,815 HISTORIC GOLDSBORO BLVD.,SANFORD,FL,32771,"http://maps.google.com/maps?q=815 HISTORIC GOLDSBORO BLVD.,+SANFORD,+FL+32771&hl=en"
SEMINOLE COUNTY SHERIFF'S OFFICE,SEMINOLE COUNTY SHERIFF'S OFFICE - MAIN OFFICE,100 ESLINGER WAY,SANFORD,FL,32773,"http://maps.google.com/maps?q=100 ESLINGER WAY,+SANFORD,+FL+32773&hl=en"
SEMINOLE COUNTY SHERIFF'S OFFICE,SEMINOLE COUNTY SHERIFF'S OFFICE EAST REGION,1225 E BROADWAY STR,OVIEDO,FL,32765,"http://maps.google.com/maps?q=1225 E BROADWAY STR,+OVIEDO,+FL+32765&hl=en"
SEMINOLE COUNTY SHERIFF'S OFFICE,SEMINOLE COUNTY SHERIFF'S OFFICE NORTH REGION,805 PRIMERA BLVD.,LAKE MARY,FL,32746,"http://maps.google.com/maps?q=805 PRIMERA BLVD.,+LAKE MARY,+FL+32746&hl=en"
SEMINOLE COUNTY SHERIFF'S OFFICE,SEMINOLE COUNTY SHERIFF'S OFFICE SOUTH REGION,120 W. PINEVIEW ST.,ALTAMONTE SPRINGS,FL,32714,"http://maps.google.com/maps?q=120 W. PINEVIEW ST.,+ALTAMONTE SPRINGS,+FL+32714&hl=en"
ST. AUGUSTINE POLICE DEPARTMENT,ST AUGUSTINE POLICE DEPARTMENT,151 KING ST,SAINT AUGUSTINE,FL,32084,"http://maps.google.com/maps?q=151 KING ST,+SAINT AUGUSTINE,+FL+32084&hl=en"
TALLAHASSEE POLICE DEPARTMENT,TALLAHASSEE POLICE DEPARTMENT,234 E. 7TH AV,TALLAHASSEE,FL,32303,"http://maps.google.com/maps?q=234 E. 7TH AV,+TALLAHASSEE,+FL+32303&hl=en"
VOLUSIA COUNTY SHERIFF'S OFFICE,VOLUSIA SHERIFF'S DIST 2 OFFICE,1706 S. WOODLAND BLVD.,DELAND,FL,32720,"http://maps.google.com/maps?q=1706 S. WOODLAND BLVD.,+DELAND,+FL+32720&hl=en"
VOLUSIA COUNTY SHERIFF'S OFFICE,VOLUSIA SHERIFF'S DIST 3 NORTH OFFICE,"1435 US HWY 1, SUITE D-3",ORMOND BEACH,FL,32174,"http://maps.google.com/maps?q=1435 US HWY 1, SUITE D-3,+ORMOND BEACH,+FL+32174&hl=en"
VOLUSIA COUNTY SHERIFF'S OFFICE,VOLUSIA SHERIFF'S DIST 3 SOUTH OFFICE,101 E. CANAL STREET,NEW SMYRNA BEACH,FL,32168,"http://maps.google.com/maps?q=101 E. CANAL STREET,+NEW SMYRNA BEACH,+FL+32168&hl=en"
VOLUSIA COUNTY SHERIFF'S OFFICE,VOLUSIA SHERIFF'S DIST 4 OFFICE,1691 PROVIDENCE BLVD.,DELTONA,FL,32725,"http://maps.google.com/maps?q=1691 PROVIDENCE BLVD.,+DELTONA,+FL+32725&hl=en"
VOLUSIA COUNTY SHERIFF'S OFFICE,VOLUSIA SHERIFF'S DIST 6 OFFICE,79 SOUTH CHARLES R. BEALL BLVD.,DEBARY,FL,32713,"http://maps.google.com/maps?q=79 SOUTH CHARLES R. BEALL BLVD.,+DEBARY,+FL+32713&hl=en"
WAKULLA COUNTY SHERIFFS OFFICE,WAKULLA COUNTY SHERIFF'S OFFICE ANNEX OUTSIDE FRONT DOOR,16 OAK STREET,CRAWFORDVILLE,FL,32327,"http://maps.google.com/maps?q=16 OAK STREET,+CRAWFORDVILLE,+FL+32327&hl=en"
WALTON COUNTY SHERIFF OFFICE,WALTON COUNTY SHERIFF OFFICE,752 TRIPLE G ROAD,DEFUNIAK SPRINGS,FL,32433,"http://maps.google.com/maps?q=752 TRIPLE G ROAD,+DEFUNIAK SPRINGS,+FL+32433&hl=en"
WAYNE COUNTY SHERIFF'S OFFICE & SAFE KIDS,WALMART,1100 N 1ST STREET,JESUP,GA,31545,"http://maps.google.com/maps?q=1100 N 1ST STREET,+JESUP,+GA+31545&hl=en"
WHITE SPRINGS POLICE DEPARTMENT,WHITE SPRINGS POLICE DEPARTMENT,10363 BRIDGE STREET,WHITE SPRINGS,FL,32096,"http://maps.google.com/maps?q=10363 BRIDGE STREET,+WHITE SPRINGS,+FL+32096&hl=en"
WILLISTON POLICE DEPARTMENT,WILLISTON POLICE DEPARTMENT,5 SOUTHWEST 1ST AVENUE,WILLISTON,FL,32696,"http://maps.google.com/maps?q=5 SOUTHWEST 1ST AVENUE,+WILLISTON,+FL+32696&hl=en"
WINTER SPRINGS POLICE DEPARTMENT,WINTER SPRINGS POLICE DEPARTMENT,300 N. MOSS RD,WINTER SPRINGS,FL,32708,"http://maps.google.com/maps?q=300 N. MOSS RD,+WINTER SPRINGS,+FL+32708&hl=en"
ZEPHYRHILLS POLICE DEPARTMENT,ZEPHYRHILLS POLICE DEPARTMENT,6118 8TH STREET,ZEPHYRHILLS,FL,33542,"http://maps.google.com/maps?q=6118 8TH STREET,+ZEPHYRHILLS,+FL+33542&hl=en"
MONTGOMERY POLICE DEPARTMENT,JONES DRUG,59 WEST FAIRVIEW AVE,MONTGOMERY,AL,36105,"http://maps.google.com/maps?q=59 WEST FAIRVIEW AVE,+MONTGOMERY,+AL+36105&hl=en"
MONTGOMERY POLICE DEPARTMENT,FRAZER UNITED METHODIST CHURCH,6000 ATLANTA HIGHWAY,MONTGOMERY,AL,36117,"http://maps.google.com/maps?q=6000 ATLANTA HIGHWAY,+MONTGOMERY,+AL+36117&hl=en"
MONTGOMERY POLICE DEPARTMENT,SOUTH CENTRAL,3003 EAST SOUTH BLVD,MONTGOMERY,AL,36109,"http://maps.google.com/maps?q=3003 EAST SOUTH BLVD,+MONTGOMERY,+AL+36109&hl=en"
SPANISH FORT POLICE DEPARTMENT,SPANISH FORT POLICE DEPARTMENT,30500 ST. HWY 181SUITE 618,SPANISH FORT,AL,36527,"http://maps.google.com/maps?q=30500 ST. HWY 181,+SPANISH FORT,+AL+36527&hl=en"
FAIRHOPE POLICE DEPARTMENT,FAIRHOPE POLICE DEPARTMENT,107 N SECTION STREET,FAIRHOPE,AL,36532,"http://maps.google.com/maps?q=107 N SECTION STREET,+FAIRHOPE,+AL+36532&hl=en"
GROVEHILL POLICE DEPARTMENT,CITY DRUGS,123 JACKSON STREET SOUTH,GROVE HILL,AL,36451,"http://maps.google.com/maps?q=123 JACKSON STREET SOUTH,+GROVE HILL,+AL+36451&hl=en"
THOMASVILLE POLICE DEPARTMENT,WALMART,34301 HIGHWAY 43,THOMASVILLE,AL,36784,"http://maps.google.com/maps?q=34301 HIGHWAY 43,+THOMASVILLE,+AL+36784&hl=en"
