Participant,CollectionSite,Address,City,State,Zip,MapURL
ACTON POLICE DEPARTMENT,ACTON POLICE STATION LOBBY KIOSK ACTON POLICE DEPARTMENT,371 MAIN ST,ACTON,MA,01720,"http://maps.google.com/maps?q=371 MAIN ST,+ACTON,+MA+01720&hl=en"
ALLENSTOWN POLICE DEPARTMENT,ALLENSTOWN POLICE DEPARTMENT DET. SGT. DAWN SHEA,40 ALLENSTOWN ROAD,ALLENSTOWN,NH,03275,"http://maps.google.com/maps?q=40 ALLENSTOWN ROAD,+ALLENSTOWN,+NH+03275&hl=en"
AMESBURY POLICE DEPARTMENT,AMESBURY POLICE DEPARTMENT THOMAS HANSHAW,19 SCHOOL ST,AMESBURY,MA,01913,"http://maps.google.com/maps?q=19 SCHOOL ST,+AMESBURY,+MA+01913&hl=en"
AMHERST POLICE DEPARTMENT,AMHERST POLICE DEPARTMENT MAIN LOBBY,175 AMHERST STREET,AMHERST,NH,03031,"http://maps.google.com/maps?q=175 AMHERST STREET,+AMHERST,+NH+03031&hl=en"
ANDOVER POLICE DEPARTMENT,WEST ELEMENTARY SCHOOL FRONT CIRCLE ON BEACON ST,58 BEACON ST,ANDOVER,MA,01810,"http://maps.google.com/maps?q=58 BEACON ST,+ANDOVER,+MA+01810&hl=en"
ARLINGTON POLICE DEPARTMENT,ARLINGTON POLICE DEPARTMENT,112 MYSTIC STREET,ARLINGTON,MA,02474,"http://maps.google.com/maps?q=112 MYSTIC STREET,+ARLINGTON,+MA+02474&hl=en"
ASHBY POLICE DEPARTMENT,ASHBY POLICE DEPARTMENT,893 MAIN ST.,ASHBY,MA,01431,"http://maps.google.com/maps?q=893 MAIN ST.,+ASHBY,+MA+01431&hl=en"
ASHLAND POLICE DEPARTMENT,ASHLAND POLICE DEPARTMENT LT. DAVID BEAUDOIN,137 MAIN STREET,ASHLAND,MA,01721,"http://maps.google.com/maps?q=137 MAIN STREET,+ASHLAND,+MA+01721&hl=en"
ATKINSON POLICE DEPARTMENT,ATKINSON POLICE DEPARTMENT,27 ACADEMY AVENUE,ATKINSON,NH,03811,"http://maps.google.com/maps?q=27 ACADEMY AVENUE,+ATKINSON,+NH+03811&hl=en"
ATTLEBORO POLICE DEPARTMENT,ATTLEBORO POLICE DEPARTMENT,12 UNION ST,ATTLEBORO,MA,02703,"http://maps.google.com/maps?q=12 UNION ST,+ATTLEBORO,+MA+02703&hl=en"
AUBURN POLICE DEPARTMENT,AUBURN SAFETY COMPLEX LOBBY,55 EATON HILL RD,AUBURN,NH,03032,"http://maps.google.com/maps?q=55 EATON HILL RD,+AUBURN,+NH+03032&hl=en"
AYER POLICE DEPARTMENT,WESTFORD POLICE DEPARTMENT,53 MAIN STREET,WESTFORD,MA,01886,"http://maps.google.com/maps?q=53 MAIN STREET,+WESTFORD,+MA+01886&hl=en"
BARNSTABLE POLICE DEPARTMENT,BARNSTABLE POLICE DEPARTMENT,1200 PHINNEY'S LANEPO BOX B,HYANNIS,MA,02601,"http://maps.google.com/maps?q=1200 PHINNEY'S LANE,+HYANNIS,+MA+02601&hl=en"
BARRINGTON POLICE DEPARTMENT,BARRINGTON POLICE DEPARTMENT,100 FEDERAL RD,BARRINGTON,RI,02806,"http://maps.google.com/maps?q=100 FEDERAL RD,+BARRINGTON,+RI+02806&hl=en"
BARRINGTON POLICE DEPARTMENT,BARRINGTON POLICE DEPARTMENT ROBERT WILLIAMS,774 FRANKLIN PIERCE HIGHWAY,BARRINGTON,NH,03825,"http://maps.google.com/maps?q=774 FRANKLIN PIERCE HIGHWAY,+BARRINGTON,+NH+03825&hl=en"
BEDFORD POLICE DEPARTMENT,BEDFORD POLICE DEPARTMENT JAMES GRAHAM,2 MUDGE WAYPOLICE DEPARTMENT,BEDFORD,MA,01730,"http://maps.google.com/maps?q=2 MUDGE WAY,+BEDFORD,+MA+01730&hl=en"
BEDFORD POLICE DEPARTMENT,BEDFORD SAFETY COMPLEX,55 CONSTITUTION DR.,BEDFORD,NH,03110,"http://maps.google.com/maps?q=55 CONSTITUTION DR.,+BEDFORD,+NH+03110&hl=en"
BELLINGHAM POLICE DEPARTMENT,BELLINGHAM POLICE DEPARTMENT,30 BLACKSTONE STREET,BELLINGHAM,MA,02019,"http://maps.google.com/maps?q=30 BLACKSTONE STREET,+BELLINGHAM,+MA+02019&hl=en"
BELMONT POLICE DEPARTMENT,BELMONT DEPARTMENT OF PUBLIC WORKS,37 C STREET,BELMONT,MA,02478,"http://maps.google.com/maps?q=37 C STREET,+BELMONT,+MA+02478&hl=en"
BERWICK POLICE DEPARTMENT,BERWICK POLICE DEPARTMENT,20 WILSON STREET,BERWICK,ME,03901,"http://maps.google.com/maps?q=20 WILSON STREET,+BERWICK,+ME+03901&hl=en"
BEVERLY POLICE DEPARTMENT,NORTH BEVERLY CVS PARKING LOT,19 DODGE ST,BEVERLY,MA,01915,"http://maps.google.com/maps?q=19 DODGE ST,+BEVERLY,+MA+01915&hl=en"
BILLERICA POLICE,BILLERICA POLICE,6 GOOD ST,BILLERICA,MA,01821,"http://maps.google.com/maps?q=6 GOOD ST,+BILLERICA,+MA+01821&hl=en"
BLACKSTONE POLICE DEPARTMENT,BLACKSTONE POLICE DEPARTMENT LT. GREGORY GILMORE,15 ST. PAUL STREET,BLACKSTONE,MA,01504,"http://maps.google.com/maps?q=15 ST. PAUL STREET,+BLACKSTONE,+MA+01504&hl=en"
BOSTON POLICE DEPARTMENT,BOSTON POLICE DEPARTMENT DISTRICT A-1,40 NEW SUDBURY ST,BOSTON,MA,02114,"http://maps.google.com/maps?q=40 NEW SUDBURY ST,+BOSTON,+MA+02114&hl=en"
BOSTON POLICE DEPARTMENT,BOSTON POLICE DEPARTMENT DISTRICT A-15,20 VINE ST,CHARLESTOWN,MA,02129,"http://maps.google.com/maps?q=20 VINE ST,+CHARLESTOWN,+MA+02129&hl=en"
BOSTON POLICE DEPARTMENT,BOSTON POLICE DEPARTMENT DISTRICT A-7,69 PARIS ST,EAST BOSTON,MA,02128,"http://maps.google.com/maps?q=69 PARIS ST,+EAST BOSTON,+MA+02128&hl=en"
BOSTON POLICE DEPARTMENT,BOSTON POLICE DEPARTMENT DISTRICT B-2,2400 WASHINGTON ST,ROXBURY,MA,02119,"http://maps.google.com/maps?q=2400 WASHINGTON ST,+ROXBURY,+MA+02119&hl=en"
BOSTON POLICE DEPARTMENT,BOSTON POLICE DEPARTMENT DISTRICT B-3,1165 BLUE HILL AVE,DORCHESTER CENTER,MA,02124,"http://maps.google.com/maps?q=1165 BLUE HILL AVE,+DORCHESTER CENTER,+MA+02124&hl=en"
BOSTON POLICE DEPARTMENT,BOSTON POLICE DEPARTMENT DISTRICT C-11,40 GIBSON ST,DORCHESTER,MA,02122,"http://maps.google.com/maps?q=40 GIBSON ST,+DORCHESTER,+MA+02122&hl=en"
BOSTON POLICE DEPARTMENT,BOSTON POLICE DEPARTMENT DISTRICT C-6,101 WEST BROADWAY,SOUTH BOSTON,MA,02127,"http://maps.google.com/maps?q=101 WEST BROADWAY,+SOUTH BOSTON,+MA+02127&hl=en"
BOSTON POLICE DEPARTMENT,BOSTON POLICE DEPARTMENT DISTRICT D-14,301 WASHINGTON ST,BRIGHTON,MA,02135,"http://maps.google.com/maps?q=301 WASHINGTON ST,+BRIGHTON,+MA+02135&hl=en"
BOSTON POLICE DEPARTMENT,BOSTON POLICE DEPARTMENT DISTRICT D-4,650 HARRISON AVE,BOSTON,MA,02116,"http://maps.google.com/maps?q=650 HARRISON AVE,+BOSTON,+MA+02116&hl=en"
BOSTON POLICE DEPARTMENT,BOSTON POLICE DEPARTMENT DISTRICT E-13,3347 WASHINGTON ST,JAMAICA PLAIN,MA,02130,"http://maps.google.com/maps?q=3347 WASHINGTON ST,+JAMAICA PLAIN,+MA+02130&hl=en"
BOSTON POLICE DEPARTMENT,BOSTON POLICE DEPARTMENT DISTRICT E-18,1249 HYDE PARK AVE,HYDE PARK,MA,02136,"http://maps.google.com/maps?q=1249 HYDE PARK AVE,+HYDE PARK,+MA+02136&hl=en"
BOSTON POLICE DEPARTMENT,BOSTON POLICE DEPARTMENT DISTRICT E-5,1708 CENTRE ST,WEST ROXBURY,MA,02132,"http://maps.google.com/maps?q=1708 CENTRE ST,+WEST ROXBURY,+MA+02132&hl=en"
BOURNE POLICE DEPARTMENT,BOURNE POLICE DEPARTMENT LOBBY,175 MAIN ST,BUZZARDS BAY,MA,02532,"http://maps.google.com/maps?q=175 MAIN ST,+BUZZARDS BAY,+MA+02532&hl=en"
BOW POLICE DEPARTMENT,BOW SAFETY CENTER,7 KNOX RD,BOW,NH,03304,"http://maps.google.com/maps?q=7 KNOX RD,+BOW,+NH+03304&hl=en"
BOXBOROUGH POLICE DEPARTMENT,BOXBOROUGH POLICE DEPARTMENT WARREN B RYDER,520 MASSACHUSETTS AVENUEPOLICE DEPARTMENT,BOXBOROUGH,MA,01719,"http://maps.google.com/maps?q=520 MASSACHUSETTS AVENUE,+BOXBOROUGH,+MA+01719&hl=en"
BRAINTREE POLICE DEPT.,BRAINTREE POLICE DEPARTMENT OFFICER RONALD SOLIMINI,282 UNION ST,BRAINTREE,MA,02184,"http://maps.google.com/maps?q=282 UNION ST,+BRAINTREE,+MA+02184&hl=en"
BRENTWOOD POLICE DEPARTMENT,BRENTWOOD POLICE,1 DALTON ROAD,BRENTWOOD,NH,03833,"http://maps.google.com/maps?q=1 DALTON ROAD,+BRENTWOOD,+NH+03833&hl=en"
BRIDGEWATER POLICE DEPARTMENT,BRIDGEWATER POLICE DEPARTMENT LOBBY,220 PLEASANT ST,BRIDGEWATER,MA,02324,"http://maps.google.com/maps?q=220 PLEASANT ST,+BRIDGEWATER,+MA+02324&hl=en"
BRISTOL POLICE DEPARTMENT,BRISTOL POLICE DEPARTMENT,395 METACOM AVE,BRISTOL,RI,02809,"http://maps.google.com/maps?q=395 METACOM AVE,+BRISTOL,+RI+02809&hl=en"
BROCKTON POLICE DEPARTMENT,BROCKTON COUNCIL ON AGING,10 FATHER KENNY WAY,BROCKTON,MA,02301,"http://maps.google.com/maps?q=10 FATHER KENNY WAY,+BROCKTON,+MA+02301&hl=en"
BROOKLINE POLICE DEPARTMENT,BROOKLINE PUBLIC SAFETY BUILDING COMMUNITY ROOM,350 WASHINGTON ST.,BROOKLINE,MA,02445,"http://maps.google.com/maps?q=350 WASHINGTON ST.,+BROOKLINE,+MA+02445&hl=en"
BROOKLINE POLICE DEPARTMENT,BROOKLINE SAFETY COMPLEX AMBULANCE BAY DRIVE THROUGH,3 POST OFFICE DR,BROOKLINE,NH,03033,"http://maps.google.com/maps?q=3 POST OFFICE DR,+BROOKLINE,+NH+03033&hl=en"
BURLINGTON POLICE DEPARTMENT,BURLINGTON PD,45 CENTER ST,BURLINGTON,MA,01803,"http://maps.google.com/maps?q=45 CENTER ST,+BURLINGTON,+MA+01803&hl=en"
BURRILLVILLE POLICE DEPARTMENT,BURRILLVILLE POLICE DEPARTMENT,1477 VICTORY HIGHWAY,HARRISVILLE,RI,02830,"http://maps.google.com/maps?q=1477 VICTORY HIGHWAY,+HARRISVILLE,+RI+02830&hl=en"
CAMBRIDGE POLICE DEPT,CAMBRIDGE POLICE DEPT,125 SIXTH ST,CAMBRIDGE,MA,02142,"http://maps.google.com/maps?q=125 SIXTH ST,+CAMBRIDGE,+MA+02142&hl=en"
CANDIA POLICE DEPARTMENT,CANDIA FIRE DEPARTMENT,11 DEERFIELD RD.,CANDIA,NH,03034,"http://maps.google.com/maps?q=11 DEERFIELD RD.,+CANDIA,+NH+03034&hl=en"
CENTRAL FALLS POLICE DEPARTMENT,CENTRAL FALLS POLICE DEPARTMENT LT. CHRISTOPHER REED,160 ILLINOIS STREET,CENTRAL FALLS,RI,02863,"http://maps.google.com/maps?q=160 ILLINOIS STREET,+CENTRAL FALLS,+RI+02863&hl=en"
CHELMSFORD POLICE DEPARTMENT,CHELMSFORD POLICE DEPARTMENT,2 OLDE NORTH RD,CHELMSFORD,MA,01824,"http://maps.google.com/maps?q=2 OLDE NORTH RD,+CHELMSFORD,+MA+01824&hl=en"
CHELSEA POLICE,CHELSEA POLICE DEPARTMENT,19 PARK STREET,CHELSEA,MA,02150,"http://maps.google.com/maps?q=19 PARK STREET,+CHELSEA,+MA+02150&hl=en"
CHESTER POLICE DEPARTMENT,CHESTER POLICE DEPARTMENT AARON P. BERUBE,84 CHESTER STREET,CHESTER,NH,03036,"http://maps.google.com/maps?q=84 CHESTER STREET,+CHESTER,+NH+03036&hl=en"
CITY OF MEDFORD,REAR OF CITY HALL LOT - MAIN SITE,85 GEORGE P HASSETT DRIVE,MEDFORD,MA,02155,"http://maps.google.com/maps?q=85 GEORGE P HASSETT DRIVE,+MEDFORD,+MA+02155&hl=en"
CITY OF MEDFORD,WEGMAN'S,3850 MYSTIC VALLEY PARKWAY,MEDFORD,MA,02155,"http://maps.google.com/maps?q=3850 MYSTIC VALLEY PARKWAY,+MEDFORD,+MA+02155&hl=en"
CITY OF PROVIDENCE,PROVIDENCE POLICE DEPARTMENT,325 WASHINGTON ST,PROVIDENCE,RI,02903,"http://maps.google.com/maps?q=325 WASHINGTON ST,+PROVIDENCE,+RI+02903&hl=en"
CITY OF PROVIDENCE,WALGREENS PHARMACY,1 POCASSET AVE,PROVIDENCE,RI,02909,"http://maps.google.com/maps?q=1 POCASSET AVE,+PROVIDENCE,+RI+02909&hl=en"
CITY OF PROVIDENCE,WALGREENS PHARMACY,533 ELMWOOD AVE,PROVIDENCE,RI,02907,"http://maps.google.com/maps?q=533 ELMWOOD AVE,+PROVIDENCE,+RI+02907&hl=en"
CLARKU,CLARK UNIVERSITY,950 MAIN STREETHIGGINS STUDENT CENTER,WORCESTER,MA,01610,"http://maps.google.com/maps?q=950 MAIN STREET,+WORCESTER,+MA+01610&hl=en"
COHASSET POLICE DEPARTMENT,COHASSET POLICE DEPARTMENT POLICE LOBBY KIOSK,62 ELM STREET,COHASSET,MA,02025,"http://maps.google.com/maps?q=62 ELM STREET,+COHASSET,+MA+02025&hl=en"
CONCORD POLICE DEPARTMENT,CONCORD POLICE DEPARTMENT DET. MATTHEW LANKHORST,35 GREEN STREET,CONCORD,NH,03301,"http://maps.google.com/maps?q=35 GREEN STREET,+CONCORD,+NH+03301&hl=en"
CRANSTON POLICE DEPARTMENT,CRANSTON POLICE DEPARTMENT,5 GARFIELD ST,CRANSTON,RI,02920,"http://maps.google.com/maps?q=5 GARFIELD ST,+CRANSTON,+RI+02920&hl=en"
CUMBERLAND POLICE,CUMBERLAND POLICE DEPARTMENT,1380 DIAMOND HILL ROAD,CUMBERLAND,RI,02864,"http://maps.google.com/maps?q=1380 DIAMOND HILL ROAD,+CUMBERLAND,+RI+02864&hl=en"
DANVERS PD,DANVERS POLICE DEPARTMENT,120 ASH ST,DANVERS,MA,01923,"http://maps.google.com/maps?q=120 ASH ST,+DANVERS,+MA+01923&hl=en"
DANVILLE POLICE DEPARTMENT,DANVILLE POLICE DEPARTMENT,206 MAIN STREET,DANVILLE,NH,03819,"http://maps.google.com/maps?q=206 MAIN STREET,+DANVILLE,+NH+03819&hl=en"
DEDHAM POLICE,DEDHAM POLICE MICHAEL D'ENTREMONT,600 HIGH STREET,DEDHAM,MA,02026,"http://maps.google.com/maps?q=600 HIGH STREET,+DEDHAM,+MA+02026&hl=en"
DEERFIELD POLICE DEPARTMENT,DEERFIELD POLICE DEPARTMENT,8 RAYMOND RD,DEERFIELD,NH,03037,"http://maps.google.com/maps?q=8 RAYMOND RD,+DEERFIELD,+NH+03037&hl=en"
DENNIS POLICE DEPARTMENT,DENNIS POLICE DEPARTMENT,90 BOB CROWELL ROAD,SOUTH DENNIS,MA,02660,"http://maps.google.com/maps?q=90 BOB CROWELL ROAD,+SOUTH DENNIS,+MA+02660&hl=en"
DERRY POLICE DEPARTMENT,DERRY POLICE HEADQUARTERS FRONT PARKING LOT,1 MUNICIPAL DR.,DERRY,NH,03038,"http://maps.google.com/maps?q=1 MUNICIPAL DR.,+DERRY,+NH+03038&hl=en"
DOVER POLICE DEPAQRTMENT,DOVER HQ LOBBY,3 WALPOLE ST,DOVER,MA,02030,"http://maps.google.com/maps?q=3 WALPOLE ST,+DOVER,+MA+02030&hl=en"
DOVER POLICE DEPARTMENT,DOVER POLICE DEPARTMENT,46 CHESTNUT ST,DOVER,NH,03820,"http://maps.google.com/maps?q=46 CHESTNUT ST,+DOVER,+NH+03820&hl=en"
DRACUT POLICE DEPARTMENT,DRACUT POLICE DEPARTMENT DEPUTY CHIEF DAVID CHARTRAND,110 LOON HILL ROAD,DRACUT,MA,01826,"http://maps.google.com/maps?q=110 LOON HILL ROAD,+DRACUT,+MA+01826&hl=en"
DUDLEY POLICE DEPARTMENT,DUDLEY POLICE DEPARTMENT,71 WEST MAIN ST,DUDLEY,MA,01571,"http://maps.google.com/maps?q=71 WEST MAIN ST,+DUDLEY,+MA+01571&hl=en"
DUNBARTON POLICE DEPARTMENT,DUNBARTON POLICE DEPARTMENT,18 ROBERT ROGERS ROAD,DUNBARTON,NH,03046,"http://maps.google.com/maps?q=18 ROBERT ROGERS ROAD,+DUNBARTON,+NH+03046&hl=en"
EAST BRIDGEWATER PD,EAST BRIDGEWATER POLICE DEPARTMENT,153 CENTRAL STREET,EAST BRIDGEWATER,MA,02333,"http://maps.google.com/maps?q=153 CENTRAL STREET,+EAST BRIDGEWATER,+MA+02333&hl=en"
EAST PROVIDENCE POLICE DEPARTMENT,EAST PROVIDENCE POLICE DEPARTMENT,750 WATERMAN AVE,EAST PROVIDENCE,RI,02914,"http://maps.google.com/maps?q=750 WATERMAN AVE,+EAST PROVIDENCE,+RI+02914&hl=en"
EASTON POLICE DEPARTMENT,EASTON POLICE DEPARTMENT,46 LOTHROP STREET,EASTON,MA,02356,"http://maps.google.com/maps?q=46 LOTHROP STREET,+EASTON,+MA+02356&hl=en"
ELIOT POLICE DEPARTMENT,ELIOT POLICE DEPARTMENT,27 DIXON ROAD,ELIOT,ME,03903,"http://maps.google.com/maps?q=27 DIXON ROAD,+ELIOT,+ME+03903&hl=en"
EPPING POLICE DEPARTMENT,EPPING POLICE DEPARTMENT CAPT. JASON NEWMAN,37 PLEASANT STREET,EPPING,NH,03042,"http://maps.google.com/maps?q=37 PLEASANT STREET,+EPPING,+NH+03042&hl=en"
EPSOM POLICE DEPARTMENT,EPSOM POLICE DEPARTMENT WAYNE B PREVE,980 SUNCOOK VALLEY HWY,EPSOM,NH,03234,"http://maps.google.com/maps?q=980 SUNCOOK VALLEY HWY,+EPSOM,+NH+03234&hl=en"
ESSEX POLICE DEPARTMENT,ESSEX POLICE DEPARTMENT,24 MARTIN ST.,ESSEX,MA,01929,"http://maps.google.com/maps?q=24 MARTIN ST.,+ESSEX,+MA+01929&hl=en"
EVERETT POLICE DEPARTMENT,EVERETT BOARD OF HEALTH,484 BROADWAYEVERETT CITY HALL,EVERETT,MA,02149,"http://maps.google.com/maps?q=484 BROADWAY,+EVERETT,+MA+02149&hl=en"
EVERETT POLICE DEPARTMENT,EVERETT POLICE DEPARTMENT,45 ELM ST,EVERETT,MA,02149,"http://maps.google.com/maps?q=45 ELM ST,+EVERETT,+MA+02149&hl=en"
EXETER POLICE DEPARTMENT,EXETER POLICE DEPARTMENT STEVEN BOLDUC,20 COURT STREET,EXETER,NH,03833,"http://maps.google.com/maps?q=20 COURT STREET,+EXETER,+NH+03833&hl=en"
FALL RIVER POLICE DEPARTMENT,BLESSED TRINITY CHURCH,1340 PLYMOUTH AVE,FALL RIVER,MA,02721,"http://maps.google.com/maps?q=1340 PLYMOUTH AVE,+FALL RIVER,+MA+02721&hl=en"
FALMOUTH POLICE DEPARTMENT,FALMOUTH POLICE DEPARTMENT,750 MAIN ST,FALMOUTH,MA,02540,"http://maps.google.com/maps?q=750 MAIN ST,+FALMOUTH,+MA+02540&hl=en"
FARMINGTON POLICE DEPARTMENT,FARMINGTON POLICE DEPARTMENT,160 MAIN ST,FARMINGTON,NH,03835,"http://maps.google.com/maps?q=160 MAIN ST,+FARMINGTON,+NH+03835&hl=en"
FOSTER POLICE DEPARTMENT,FOSTER POLICE DEPARTMENT FRONT LOBBY,182 HOWARD HILL RD,FOSTER,RI,02825,"http://maps.google.com/maps?q=182 HOWARD HILL RD,+FOSTER,+RI+02825&hl=en"
FOXBOROUGH POLICE DEPARTMENT,FOXBOROUGH POLICE DEPARTMENT,8 CHESTNUT STREET,FOXBORO,MA,02035,"http://maps.google.com/maps?q=8 CHESTNUT STREET,+FOXBORO,+MA+02035&hl=en"
FRAMINGHAM HEALTH DEPARTMENT,CITY OF FRAMINGHAM POLICE DEPARTMENT KITTY MAHONEY,1 WILLIAM H. WELCH WAYFRAMINGHAM,FRAMINGHAM,MA,01702,"http://maps.google.com/maps?q=1 WILLIAM H. WELCH WAY,+FRAMINGHAM,+MA+01702&hl=en"
FREMONT POLICE DEPARTMENT,FREMONT POLICE,425 MAIN ST,FREMONT,NH,03044,"http://maps.google.com/maps?q=425 MAIN ST,+FREMONT,+NH+03044&hl=en"
GARDNER POLICE DEPARTMENT,PRICE CHOPPER GROCERY/PHARMACY,560 MAIN ST,GARDNER,MA,01440,"http://maps.google.com/maps?q=560 MAIN ST,+GARDNER,+MA+01440&hl=en"
GEORGETOWN POLICE DEPARTMENT,GEORGETOWN POLICE DEPARTMENT,47 CENTRAL ST,GEORGETOWN,MA,01833,"http://maps.google.com/maps?q=47 CENTRAL ST,+GEORGETOWN,+MA+01833&hl=en"
GLOCESTER POLICE DEPARTMENT,GLOCESTER POLICE DEPARTMENT,162 CHOPMIST HILL ROAD,CHEPACHET,RI,02814,"http://maps.google.com/maps?q=162 CHOPMIST HILL ROAD,+CHEPACHET,+RI+02814&hl=en"
GLOUCESTER POLICE DEPARTMENT,ROSE BAKER SENIOR CENTER PARKING LOT LT. MICHAEL GOSSOM,6 MANUEL LEWIS STREET,GLOUCESTER,MA,01930,"http://maps.google.com/maps?q=6 MANUEL LEWIS STREET,+GLOUCESTER,+MA+01930&hl=en"
GOFFSTOWN POLICE DEPARTMENT,GOFFSTOWN POLICE DEPARTMENT,326 MAST ROAD,GOFFSTOWN,NH,03045,"http://maps.google.com/maps?q=326 MAST ROAD,+GOFFSTOWN,+NH+03045&hl=en"
GRAFTON POLICE DEPARTMENT,GRAFTON POLICE DEPARTMENT CHIEF NORMAND CREPEAU,28 PROVIDENCE ROAD,GRAFTON,MA,01519,"http://maps.google.com/maps?q=28 PROVIDENCE ROAD,+GRAFTON,+MA+01519&hl=en"
GROTON POLICE DEPARTMENT,GROTON POLICE DEPARTMENT,99 PLEASANT STREET,GROTON,MA,01450,"http://maps.google.com/maps?q=99 PLEASANT STREET,+GROTON,+MA+01450&hl=en"
GROVELAND POLICE DEPARTMENT,GROVELAND POLICE DEPARTMENT SGT. ERIC C. RYAN,181 MAIN STREETSTATION LOBBY,GROVELAND,MA,01834,"http://maps.google.com/maps?q=181 MAIN STREET,+GROVELAND,+MA+01834&hl=en"
HAMILTON POLICE DEPARTMENT,265 BAY ROAD HAMILTON PUBLIC SAFETY BUILDING,265 BAY ROADHAMILTON,SOUTH HAMILTON,MA,01982,"http://maps.google.com/maps?q=265 BAY ROAD,+SOUTH HAMILTON,+MA+01982&hl=en"
HAMPSTEAD POLICE DEPARTMENT,HAMPSTEAD POLICE DEPARTMENT,30 VETERANS WAY,HAMPSTEAD,NH,03841,"http://maps.google.com/maps?q=30 VETERANS WAY,+HAMPSTEAD,+NH+03841&hl=en"
HANSON POLICE DEPARTMENT,HANSON POLICE DEPARTMENT HQ,775 MAIN ST.,HANSON,MA,02341,"http://maps.google.com/maps?q=775 MAIN ST.,+HANSON,+MA+02341&hl=en"
HARVARD POLICE,HARVARD PUBLIC SAFETY BUILDING HARVARD POLICE,40 AYER ROAD,HARVARD,MA,01451,"http://maps.google.com/maps?q=40 AYER ROAD,+HARVARD,+MA+01451&hl=en"
HOLBROOK POLICE DEPARTMENT,HOLBROOK POLICE DEPARTMENT,300 SOUTH FRANKLIN ST,HOLBROOK,MA,02343,"http://maps.google.com/maps?q=300 SOUTH FRANKLIN ST,+HOLBROOK,+MA+02343&hl=en"
HOLLIS POLICE DEPARTMENT,HOLLIS POLICE DEPARTMENT,9 SILVER LAKE ROAD,HOLLIS,NH,03049,"http://maps.google.com/maps?q=9 SILVER LAKE ROAD,+HOLLIS,+NH+03049&hl=en"
HOLLISTON POLICE DEPARTMENT,HOLLISTON POLICE DEPARTMENT LT. CHAD THOMPSON,550 WASHINGTON STREET,HOLLISTON,MA,01746,"http://maps.google.com/maps?q=550 WASHINGTON STREET,+HOLLISTON,+MA+01746&hl=en"
HOOKSETT POLICE DEPARTMENT,HOOKSETT POLICE DEPARTMENT LT. JUSTIN SARGENT,15 LEGENDS DRIVE,HOOKSETT,NH,03106,"http://maps.google.com/maps?q=15 LEGENDS DRIVE,+HOOKSETT,+NH+03106&hl=en"
HOPKINTON POLICE DEPARTMENT,HOPKINTON POLICE DEPARTMENT JOSEPH BENNETT,74 MAIN STREET,HOPKINTON,MA,01748,"http://maps.google.com/maps?q=74 MAIN STREET,+HOPKINTON,+MA+01748&hl=en"
HUDSON POLICE DEPARTMENT,WALMART,254 LOWELL ROAD,HUDSON,NH,03051,"http://maps.google.com/maps?q=254 LOWELL ROAD,+HUDSON,+NH+03051&hl=en"
HULL POLICE DEPARTMENT,HULL POLICE DEPARTMENT FRONT LOBBY,1 SCHOOL STREET,HULL,MA,02045,"http://maps.google.com/maps?q=1 SCHOOL STREET,+HULL,+MA+02045&hl=en"
JAMESTOWN POLICE DEPARTMENT,JAMESTOWN POLICE DEPARTMENT,250 CONANICUS AVE,JAMESTOWN,RI,02835,"http://maps.google.com/maps?q=250 CONANICUS AVE,+JAMESTOWN,+RI+02835&hl=en"
KENNEBUNK POLICE DEPARTMENT,HANNAFORD SUPERMARKET OPERATED BY KENNUBUNK PD,65 PORTLAND ROAD,KENNEBUNK,ME,04043,"http://maps.google.com/maps?q=65 PORTLAND ROAD,+KENNEBUNK,+ME+04043&hl=en"
KENNEBUNK POLICE DEPARTMENT,KENNEBUNK POLICE DEPARTMENT LOBBY,4 SUMMER STREET,KENNEBUNK,ME,04043,"http://maps.google.com/maps?q=4 SUMMER STREET,+KENNEBUNK,+ME+04043&hl=en"
KINGSTON POLICE DEPARTMENT,CARRIAGE TOWNE PLAZA IN FRONT OF RITE AID,53 CHURCH ST.,KINGSTON,NH,03848,"http://maps.google.com/maps?q=53 CHURCH ST.,+KINGSTON,+NH+03848&hl=en"
KITTERY POLICE DEPARTMENT,KITTERY POLICE DEPARTMENT,200 ROGERS ROAD,KITTERY,ME,03904,"http://maps.google.com/maps?q=200 ROGERS ROAD,+KITTERY,+ME+03904&hl=en"
LEE POLICE DEPARTMENT,LEE POLICE DEPARTMENT,20 GEORGE BENNETT RD,LEE,NH,03861,"http://maps.google.com/maps?q=20 GEORGE BENNETT RD,+LEE,+NH+03861&hl=en"
LEICESTER POLICE DEPARTMENT,LEICESTER POLICE DEPARTMENT JAMES HURLEY,90 SOUTH MAIN STREET,LEICESTER,MA,01524,"http://maps.google.com/maps?q=90 SOUTH MAIN STREET,+LEICESTER,+MA+01524&hl=en"
LEICESTER POLICE DEPARTMENT,LEICESTER RECYCLING CENTER JAMES HURLEY,200 MANNVILLE STREET,LEICESTER,MA,01524,"http://maps.google.com/maps?q=200 MANNVILLE STREET,+LEICESTER,+MA+01524&hl=en"
LEOMINSTER POLICE DEPARTMENT,LEOMINSTER POLICE DEPARTMENT,29 CHURCH STREET,LEOMINSTER,MA,01453,"http://maps.google.com/maps?q=29 CHURCH STREET,+LEOMINSTER,+MA+01453&hl=en"
LINCOLN POLICE DEPARTMENT,LINCOLN POLICE DEPARTMENT,100 OLD RIVER ROAD,LINCOLN,RI,02865,"http://maps.google.com/maps?q=100 OLD RIVER ROAD,+LINCOLN,+RI+02865&hl=en"
LITTLE COMPTON POLICE DEPARTMENT,LITTLE COMPTON PUBLIC SAFETY COMPLEX LITTLE COMPTON POLICE DEPARTMENT,60 SIMMONS ROAD,LITTLE COMPTON,RI,02837,"http://maps.google.com/maps?q=60 SIMMONS ROAD,+LITTLE COMPTON,+RI+02837&hl=en"
LITTLETON POLICE DEPARTMENT,LITTLETON POLICE DEPARTMENT,500 GREAT RD,LITTLETON,MA,01460,"http://maps.google.com/maps?q=500 GREAT RD,+LITTLETON,+MA+01460&hl=en"
LONDONDERRY POLICE DEPARTMENT,LONDONDERRY POLICE DEPARTMENT,268A MAMMOTH ROAD,LONDONDERRY,NH,03053,"http://maps.google.com/maps?q=268A MAMMOTH ROAD,+LONDONDERRY,+NH+03053&hl=en"
LOWELL POLICE DEPARTMENT,"LOWELL GENERAL HOSPITAL, SAINTS CAMPUS",2 HOSPITAL DRIVE,LOWELL,MA,01852,"http://maps.google.com/maps?q=2 HOSPITAL DRIVE,+LOWELL,+MA+01852&hl=en"
LUNENBURG POLICE DEPARTMENT,LUNENBURG POLICE DEPARTMENT LT. THOMAS L GAMMEL,655 MASS. AVE.,LUNENBURG,MA,01462,"http://maps.google.com/maps?q=655 MASS. AVE.,+LUNENBURG,+MA+01462&hl=en"
LYNN POLICE DEPARTMENT,CVS PHARMACY,65 BOSTON STREET,LYNN,MA,01904,"http://maps.google.com/maps?q=65 BOSTON STREET,+LYNN,+MA+01904&hl=en"
LYNN POLICE DEPARTMENT,LYNN POLICE DEPARTMENT,300 WASHINGTON STREET,LYNN,MA,01902,"http://maps.google.com/maps?q=300 WASHINGTON STREET,+LYNN,+MA+01902&hl=en"
LYNNFIELD POLICE DEPARTMENT,LYNNFIELD POLICE DEPARTMENT,55 SUMMER STREET,LYNNFIELD,MA,01940,"http://maps.google.com/maps?q=55 SUMMER STREET,+LYNNFIELD,+MA+01940&hl=en"
MALDEN POLICE,MALDEN POLICE DEPARTMENT,800 EASTERN AVE,MALDEN,MA,02148,"http://maps.google.com/maps?q=800 EASTERN AVE,+MALDEN,+MA+02148&hl=en"
MANCHESTER BY THE SEA POLICE,MANCHESTER POLICE STATION,10 CENTRAL ST.,MANCHESTER,MA,01944,"http://maps.google.com/maps?q=10 CENTRAL ST.,+MANCHESTER,+MA+01944&hl=en"
MANCHESTER POLICE DEPARTMENT,CATHOLIC MEDICAL CENTER 195 MCGREGOR ST. PARKING LOT ACROSS FROM MAIN HOSPITAL.,100 MCGREGOR STREET,MANCHESTER,NH,03102,"http://maps.google.com/maps?q=100 MCGREGOR STREET,+MANCHESTER,+NH+03102&hl=en"
MANCHESTER POLICE DEPARTMENT,ELLIOT AT RIVER'S EDGE PHARMACY PARKING LOT,185 QUEEN CITY AVENUE,MANCHESTER,NH,03103,"http://maps.google.com/maps?q=185 QUEEN CITY AVENUE,+MANCHESTER,+NH+03103&hl=en"
MANCHESTER POLICE DEPARTMENT,MANCHESTER POLICE DEPARTMENT,405 VALLEY STREET,MANCHESTER,NH,03103,"http://maps.google.com/maps?q=405 VALLEY STREET,+MANCHESTER,+NH+03103&hl=en"
MANSFIELD POLICE DEPARTMENT,MANSFIELD POLICE DEPARTMENT DET. NICOLE BOLDRIGHINI,50 WEST STREET,MANSFIELD,MA,02048,"http://maps.google.com/maps?q=50 WEST STREET,+MANSFIELD,+MA+02048&hl=en"
MARLBOROUGH POLICE DEPARTMENT,MARLBOROUGH POLICE DEPARTMENT,355 BOLTON STREET,MARLBOROUGH,MA,01752,"http://maps.google.com/maps?q=355 BOLTON STREET,+MARLBOROUGH,+MA+01752&hl=en"
MARSHFIELD POLICE DEPARTMENT,MARSHFIELD POLICE DEPARTMENT,1639 OCEAN STREET,MARSHFIELD,MA,02050,"http://maps.google.com/maps?q=1639 OCEAN STREET,+MARSHFIELD,+MA+02050&hl=en"
MASHPEE POLICE DEPARTMENT,MASHPEE POLICE DEPARTMENT MASTER OFFICER ERIC PESTILLI,19 FRANK HICKS DR,MASHPEE,MA,02649,"http://maps.google.com/maps?q=19 FRANK HICKS DR,+MASHPEE,+MA+02649&hl=en"
MASON POLICE DEPARTMENT,MASON POLICE DEPARTMENT,38 DARLING HILL ROAD,MASON,NH,03048,"http://maps.google.com/maps?q=38 DARLING HILL ROAD,+MASON,+NH+03048&hl=en"
MBTA TRANSIT POLICE,MBTA TRANSIT POLICE DEPARTMENT,240 SOUTHAMPTON STREET,BOSTON,MA,02118,"http://maps.google.com/maps?q=240 SOUTHAMPTON STREET,+BOSTON,+MA+02118&hl=en"
MEDFIELD POLICE DEPARTMENT,MEDFIELD POLICE DEPARTMENT FRONT LOBBY,112 NORTH STREET,MEDFIELD,MA,02052,"http://maps.google.com/maps?q=112 NORTH STREET,+MEDFIELD,+MA+02052&hl=en"
MELROSE POLICE DEPARTMENT,WALGREENS PHARMACY RYAN HANLEY 781-665-1329,897 MAIN ST,MELROSE,MA,02176,"http://maps.google.com/maps?q=897 MAIN ST,+MELROSE,+MA+02176&hl=en"
MERRIMAC POLICE DEPARTMENT,MERRIMAC POLICE DEPARTMENT DAVID VANCE,16 EAST MAIN ST,MERRIMAC,MA,01860,"http://maps.google.com/maps?q=16 EAST MAIN ST,+MERRIMAC,+MA+01860&hl=en"
MERRIMACK POLICE DEPARTMENT,MERRIMACK POLICE DEPARTMENT FRONT PARKING LOT / DEPARTMENT ENTRANCE,31 BABOOSIC LAKE ROAD,MERRIMACK,NH,03054,"http://maps.google.com/maps?q=31 BABOOSIC LAKE ROAD,+MERRIMACK,+NH+03054&hl=en"
METHUEN POLICE DEPARTMENT,METHUEN POLICE DEPARTMENT LIEUTENANT JAMES GUNTER,90 HAMPSHIRE STREET,METHUEN,MA,01844,"http://maps.google.com/maps?q=90 HAMPSHIRE STREET,+METHUEN,+MA+01844&hl=en"
MIDDLEBOROUGH POLICE DEPT.,MIDDLEBOROUGH POLICE DEPT. TODD BAZAREWSKY,99 N. MAIN ST,MIDDLEBORO,MA,02346,"http://maps.google.com/maps?q=99 N. MAIN ST,+MIDDLEBORO,+MA+02346&hl=en"
MIDDLETOWN POLICE DEPARTMENT,MIDDLETOWN POLICE DEPARTMENT JASON RYAN,123 VALLEY ROAD,MIDDLETOWN,RI,02842,"http://maps.google.com/maps?q=123 VALLEY ROAD,+MIDDLETOWN,+RI+02842&hl=en"
MILFORD POLICE,MILFORD SENIOR CENTER,60 NORTH BOW STREET,MILFORD,MA,01757,"http://maps.google.com/maps?q=60 NORTH BOW STREET,+MILFORD,+MA+01757&hl=en"
MILFORD POLICE DEPARTMENT,MILFORD PD,19 GARDEN STREET,MILFORD,NH,03055,"http://maps.google.com/maps?q=19 GARDEN STREET,+MILFORD,+NH+03055&hl=en"
MILTON POLICE DEPARTMENT,MILTON POLICE DEPARTMENT LT. CHARLES CAPUTO,40 HIGHLAND STREET,MILTON,MA,02186,"http://maps.google.com/maps?q=40 HIGHLAND STREET,+MILTON,+MA+02186&hl=en"
NAHANT POLICE DEPARTMENT,NAHANT POLICE DEPARTMENT,198 NAHANT ROAD,NAHANT,MA,01908,"http://maps.google.com/maps?q=198 NAHANT ROAD,+NAHANT,+MA+01908&hl=en"
NARRAGASNETT POLICE DEPARTMENT,NARRAGANSETT POLICE DEPARTMENT SRO KEVIN O'CONNOR,40 CASWELL ST,NARRAGANSETT,RI,02882,"http://maps.google.com/maps?q=40 CASWELL ST,+NARRAGANSETT,+RI+02882&hl=en"
NASHUA POLICE DEPARTMENT,NASHUA DEPARTMENT OF PUBLIC WORKS,9 RIVERSIDE ST,NASHUA,NH,03062,"http://maps.google.com/maps?q=9 RIVERSIDE ST,+NASHUA,+NH+03062&hl=en"
NATICK POLICE DEPARTMENT,NATICK POLICE DEPARTMENT BRIAN GRASSEY,20 EAST CENTRAL ST,NATICK,MA,01760,"http://maps.google.com/maps?q=20 EAST CENTRAL ST,+NATICK,+MA+01760&hl=en"
NATICK POLICE DEPARTMENT,WEGMAN'S SUPERMARKET BRIAN GRASSEY,1245 WORCESTER ST,NATICK,MA,01760,"http://maps.google.com/maps?q=1245 WORCESTER ST,+NATICK,+MA+01760&hl=en"
NEEDHAM POLICE DEPARTMENT,NEEDHAM POLICE,99 SCHOOL ST,NEEDHAM,MA,02492,"http://maps.google.com/maps?q=99 SCHOOL ST,+NEEDHAM,+MA+02492&hl=en"
NEW BEDFORD POLICE DEPARTMENT,CITY OF NEW BEDFORD POLICE DEPARTMENT,871 ROCKDALE AVE,NEW BEDFORD,MA,02740,"http://maps.google.com/maps?q=871 ROCKDALE AVE,+NEW BEDFORD,+MA+02740&hl=en"
NEW BOSTON POLICE DEPARTMENT,NEW BOSTON POLICE DEPARTMENT,116 OLD COACH ROAD,NEW BOSTON,NH,03070,"http://maps.google.com/maps?q=116 OLD COACH ROAD,+NEW BOSTON,+NH+03070&hl=en"
NEWBURYPORT POLICE,NEWBURYPORT POLICE,4 GREEN STREET,NEWBURYPORT,MA,01950,"http://maps.google.com/maps?q=4 GREEN STREET,+NEWBURYPORT,+MA+01950&hl=en"
NEWINGTON POLICE DEPARTMENT,NEWINGTON POLICE SGT. TONY A. HARLAND,71 FOX POINT RD,PORTSMOUTH,NH,03801,"http://maps.google.com/maps?q=71 FOX POINT RD,+PORTSMOUTH,+NH+03801&hl=en"
NEWMARKET POLICE DEPARTMENT,NEWMARKET POLICE DEPARTMENT SCOTT KUKESH,70 EXETER STREET,NEWMARKET,NH,03857,"http://maps.google.com/maps?q=70 EXETER STREET,+NEWMARKET,+NH+03857&hl=en"
NEWTON POLICE DEPARTMENT,NEWTON POLICE DEPARTMENT CAPT. DENNIS BERUBE,1321 WASHINGTON ST.,WEST NEWTON,MA,02465,"http://maps.google.com/maps?q=1321 WASHINGTON ST.,+WEST NEWTON,+MA+02465&hl=en"
NEWTON POLICE DEPARTMENT,TRANSFER STATION,4 DUGWAY RD,NEWTON,NH,03858,"http://maps.google.com/maps?q=4 DUGWAY RD,+NEWTON,+NH+03858&hl=en"
NEWTON POLICE DEPARTMENT,WEGMAN'S,200 BOYLSTON STREET,CHESTNUT HILL,MA,02467,"http://maps.google.com/maps?q=200 BOYLSTON STREET,+CHESTNUT HILL,+MA+02467&hl=en"
NORTH ANDOVER POLICE DEPARTMENT,NORTH ANDOVER POLICE DEPARTMENT,1475 OSGOOD STREET,NORTH ANDOVER,MA,01845,"http://maps.google.com/maps?q=1475 OSGOOD STREET,+NORTH ANDOVER,+MA+01845&hl=en"
NORTH ATTLEBORO PD,NORTH ATTLEBORO PD,102 SOUTH WASHINGTON STREET,NORTH ATTLEBORO,MA,02760,"http://maps.google.com/maps?q=102 SOUTH WASHINGTON STREET,+NORTH ATTLEBORO,+MA+02760&hl=en"
NORTH BERWICK POLICE DEPARTMENT,NORTH BERWICK POLICE DEPARTMENT CHIEF STEPHEN C. PEASLEY,21 MAIN STREET,NORTH BERWICK,ME,03906,"http://maps.google.com/maps?q=21 MAIN STREET,+NORTH BERWICK,+ME+03906&hl=en"
NORTH HAMPTON POLICE DEPARTMENT,NORTH HAMPTON POLICE DEPARTMENT,233 ATLANTIC AVENUE,NORTH HAMPTON,NH,03862,"http://maps.google.com/maps?q=233 ATLANTIC AVENUE,+NORTH HAMPTON,+NH+03862&hl=en"
NORTH KINGSTOWN POLICE DEPARTMENT,NORTH KINGSTOWN POLICE DEPARTMENT HQ,8166 POST ROAD,NORTH KINGSTOWN,RI,02852,"http://maps.google.com/maps?q=8166 POST ROAD,+NORTH KINGSTOWN,+RI+02852&hl=en"
NORTH PROVIDENCE POLICE DEPARTMENT,NORTH PROVIDENCE POLICE DEPARTMENT LIEUTENANT MICHAEL TAVAROZZI,1967 MINERAL SPRING AVENUE,NORTH PROVIDENCE,RI,02904,"http://maps.google.com/maps?q=1967 MINERAL SPRING AVENUE,+NORTH PROVIDENCE,+RI+02904&hl=en"
NORTHBOROUGH POLICE DEPARTMENT,NORTHBOROUGH POLICE DEPARTMENT,211 MAIN STREET,NORTHBOROUGH,MA,01532,"http://maps.google.com/maps?q=211 MAIN STREET,+NORTHBOROUGH,+MA+01532&hl=en"
NORTHBOROUGH POLICE DEPARTMENT,WEGMAN'S,9102 SHOPS WAY,NORTHBOROUGH,MA,01532,"http://maps.google.com/maps?q=9102 SHOPS WAY,+NORTHBOROUGH,+MA+01532&hl=en"
NORTHBRIDGE POLICE DEPARTMENT,NORTHBRIDGE POLICE DEPARTMENT,1 HOPE STREET,WHITINSVILLE,MA,01588,"http://maps.google.com/maps?q=1 HOPE STREET,+WHITINSVILLE,+MA+01588&hl=en"
NORTON POLICE DEPARTMENT,NORTON POLICE DEPARTMENT,82 EAST MAIN STREET,NORTON,MA,02766,"http://maps.google.com/maps?q=82 EAST MAIN STREET,+NORTON,+MA+02766&hl=en"
NORWELL POLICE DEPARTMENT,NORWELL POLICE DEPARTMENT,300A WASHINGTON STREET,NORWELL,MA,02061,"http://maps.google.com/maps?q=300A WASHINGTON STREET,+NORWELL,+MA+02061&hl=en"
NORWOOD POLICE,NORWOOD POLICE DEPARTMENT,137 NAHATAN STREET,NORWOOD,MA,02062,"http://maps.google.com/maps?q=137 NAHATAN STREET,+NORWOOD,+MA+02062&hl=en"
NOTTINGHAM POLICE DEPARTMENT,NOTTINGHAM POLICE DEPARTMENT,139 STAGE RD,NOTTINGHAM,NH,03290,"http://maps.google.com/maps?q=139 STAGE RD,+NOTTINGHAM,+NH+03290&hl=en"
OGUNQUIT POLICE DEPARTMENT,OGUNQUIT POLICE DEPARTMENT,20 COTTAGE STREET,OGUNQUIT,ME,03907,"http://maps.google.com/maps?q=20 COTTAGE STREET,+OGUNQUIT,+ME+03907&hl=en"
PEABODY POLICE DEPARTMENT,PEABODY POLICE DEPARTMENT,6 ALLEN'S LANE,PEABODY,MA,01960,"http://maps.google.com/maps?q=6 ALLEN'S LANE,+PEABODY,+MA+01960&hl=en"
PELHAM POLICE DEPARTMENT,PELHAM POLICE DEPARTMENT MAIN LOBBY,14 VILLAGE GREEN,PELHAM,NH,03076,"http://maps.google.com/maps?q=14 VILLAGE GREEN,+PELHAM,+NH+03076&hl=en"
PEMBROKE POLICE DEPARTMENT,PEMBROKE POLICE,247 PEMBROKE STREET,PEMBROKE,NH,03275,"http://maps.google.com/maps?q=247 PEMBROKE STREET,+PEMBROKE,+NH+03275&hl=en"
PEPPERELL POLICE DEPARTMENT,PEPPERELL POLICE DEPARTMENT LOBBY KIOSK,59 MAIN STREET,PEPPERELL,MA,01463,"http://maps.google.com/maps?q=59 MAIN STREET,+PEPPERELL,+MA+01463&hl=en"
PETERBOROUGH POLICE DEPARTMENT,PETERBOROUGH POLICE DEPARTMENT,73 GROVE ST,PETERBOROUGH,NH,03458,"http://maps.google.com/maps?q=73 GROVE ST,+PETERBOROUGH,+NH+03458&hl=en"
PLAINVILLE POLICE DEPARTMENT,PLAINVILLE POLICE DEPARTMENT JAMES FLOYD,157 SOUTH STREET,PLAINVILLE,MA,02762,"http://maps.google.com/maps?q=157 SOUTH STREET,+PLAINVILLE,+MA+02762&hl=en"
PLAISTOW POLICE DEPARTMENT,RITE AID PHARMACY,31 GARDEN ROAD,PLAISTOW,NH,03865,"http://maps.google.com/maps?q=31 GARDEN ROAD,+PLAISTOW,+NH+03865&hl=en"
PLYMOUTH POLICE DEPARTMENT,NEW TESTAMENT CHURCH,1120 LONG POND ROAD,PLYMOUTH,MA,02360,"http://maps.google.com/maps?q=1120 LONG POND ROAD,+PLYMOUTH,+MA+02360&hl=en"
PORTSMOUTH POLICE,PORTSMOUTH POLICE DEPARTMENT,2270 EAST MAIN ROAD,PORTSMOUTH,RI,02871,"http://maps.google.com/maps?q=2270 EAST MAIN ROAD,+PORTSMOUTH,+RI+02871&hl=en"
PORTSMOUTH POLICE DEPARTMENT,PORTSMOUTH POLICE DEPARTMENT,3 JUNKINS AVE,PORTSMOUTH,NH,03801,"http://maps.google.com/maps?q=3 JUNKINS AVE,+PORTSMOUTH,+NH+03801&hl=en"
PROVINCETOWN POLICE DEPARTMENT,PROVINCETOWN POLICE DEPARTMENT,26 SHANK PAINTER ROAD,PROVINCETOWN,MA,02657,"http://maps.google.com/maps?q=26 SHANK PAINTER ROAD,+PROVINCETOWN,+MA+02657&hl=en"
PUTNAM POLICE DEPARTMENT,PUTNAM RIVERVIEW MARKETPLACE KENNEDY DR. PUTNAM,18 KENNEDY DRIVE,PUTNAM,CT,06260,"http://maps.google.com/maps?q=18 KENNEDY DRIVE,+PUTNAM,+CT+06260&hl=en"
QUINCY POLICE DEPARTMENT,QUINCY POLICE DEPARTMENT LT. PATRICK GLYNN,1 SEA STREET,QUINCY,MA,02169,"http://maps.google.com/maps?q=1 SEA STREET,+QUINCY,+MA+02169&hl=en"
RANDOLPH POLICE DEPARTMENT,RANDOLPH POLICE DEPARTMENT LT. JEFF CHAPLIN,41 SOUTH MAIN ST,RANDOLPH,MA,02368,"http://maps.google.com/maps?q=41 SOUTH MAIN ST,+RANDOLPH,+MA+02368&hl=en"
RAYMOND POLICE DEPARTMENT,HANNAFORD SUPERMARKET MICHAEL LABELL,2 FREETOWN RD.,RAYMOND,NH,03077,"http://maps.google.com/maps?q=2 FREETOWN RD.,+RAYMOND,+NH+03077&hl=en"
RAYNHAM POLICE DEPARTMENT,RAYNHAM POLICE DEPT,53 ORCHARD ST.,RAYNHAM,MA,02767,"http://maps.google.com/maps?q=53 ORCHARD ST.,+RAYNHAM,+MA+02767&hl=en"
RHODE ISLAND STATE POLICE,RHODE ISLAND STATE POLICE,1565 OLD LOUISQUISSETE PIKE,LINCOLN,RI,02865,"http://maps.google.com/maps?q=1565 OLD LOUISQUISSETE PIKE,+LINCOLN,+RI+02865&hl=en"
RHODE ISLAND STATE POLICE,RHODE ISLAND STATE POLICE,311 DANIELSON PIKE,NORTH SCITUATE,RI,02857,"http://maps.google.com/maps?q=311 DANIELSON PIKE,+NORTH SCITUATE,+RI+02857&hl=en"
RHODE ISLAND STATE POLICE,RHODE ISLAND STATE POLICE,7875 POST ROAD,NORTH KINGSTOWN,RI,02852,"http://maps.google.com/maps?q=7875 POST ROAD,+NORTH KINGSTOWN,+RI+02852&hl=en"
RHODE ISLAND STATE POLICE,RHODE ISLAND STATE POLICE,838 EAST MAIN ROAD,PORTSMOUTH,RI,02871,"http://maps.google.com/maps?q=838 EAST MAIN ROAD,+PORTSMOUTH,+RI+02871&hl=en"
RINDGE POLICE DEPARTMENT,RINDGE POLICE DEPARTMENT DANIEL ANAIR,158 MAIN STPO BOX 7,RINDGE,NH,03461,"http://maps.google.com/maps?q=158 MAIN ST,+RINDGE,+NH+03461&hl=en"
ROCHESTER POLICE DEPARTMENT,ROCHESTER POLICE DEPARTMENT,23 WAKEFIELD STREET,ROCHESTER,NH,03867,"http://maps.google.com/maps?q=23 WAKEFIELD STREET,+ROCHESTER,+NH+03867&hl=en"
ROCKLAND POLICE DEPARTMENT,ROCKLAND POLICE DEPARTMENT,490 MARKET ST,ROCKLAND,MA,02370,"http://maps.google.com/maps?q=490 MARKET ST,+ROCKLAND,+MA+02370&hl=en"
ROCKPORT POLICE DEPARTMENT,ROCKPORT POLICE DEPARTMENT,168 MAIN ST.,ROCKPORT,MA,01966,"http://maps.google.com/maps?q=168 MAIN ST.,+ROCKPORT,+MA+01966&hl=en"
ROLLINSFORD POLICE DEPARTMENT,ROLLINSFORD POLICE DEPARTMENT ROBERT DUCHARME,667 MAIN STREET,ROLLINSFORD,NH,03869,"http://maps.google.com/maps?q=667 MAIN STREET,+ROLLINSFORD,+NH+03869&hl=en"
ROWLEY POLICE DEPARTMENT,COUNCIL OF AGING CENTER,50 CENTRAL STREET,ROWLEY,MA,01969,"http://maps.google.com/maps?q=50 CENTRAL STREET,+ROWLEY,+MA+01969&hl=en"
SALEM POLICE DEPARTMENT,SALEM POLICE DEPARTMENT,9 VETERAN'S MEMORIAL PARKWAY,SALEM,NH,03079,"http://maps.google.com/maps?q=9 VETERAN'S MEMORIAL PARKWAY,+SALEM,+NH+03079&hl=en"
SALEM STATE POLICE,SALEM STATE POLICE LT. JACK MCCUNE,71 LORING AVENUE,SALEM,MA,01970,"http://maps.google.com/maps?q=71 LORING AVENUE,+SALEM,+MA+01970&hl=en"
SALISBURY POLICE DEPARTMENT,SALISBURY POLICE STATION FRONT LOBBY,181 BEACH ROAD,SALISBURY,MA,01952,"http://maps.google.com/maps?q=181 BEACH ROAD,+SALISBURY,+MA+01952&hl=en"
SANDWICH POLICE DEPARTMENT,SANDWICH POLICE DEPARTMENT,117 ROUTE 6A,SANDWICH,MA,02563,"http://maps.google.com/maps?q=117 ROUTE 6A,+SANDWICH,+MA+02563&hl=en"
SANFORD POLICE DEPARTMENT,SANFORD POLICE DEPARTMENT,935 MAIN STREET,SANFORD,ME,04073,"http://maps.google.com/maps?q=935 MAIN STREET,+SANFORD,+ME+04073&hl=en"
SAUGUS POLICE DEPARTMENT,SAUGUS POLICE STATION ROUNDHILL ST SIDE OF BUILDING,27 HAMILTON ST,SAUGUS,MA,01906,"http://maps.google.com/maps?q=27 HAMILTON ST,+SAUGUS,+MA+01906&hl=en"
SEABROOK POLICE DEPARTMENT,SEABROOK POLICE DEPARTMENT,7 LIBERTY LNSEABROOK POLICE DEPARTMENT,SEABROOK,NH,03874,"http://maps.google.com/maps?q=7 LIBERTY LN,+SEABROOK,+NH+03874&hl=en"
SHARON POLICE DEPARTMENT,SHARON PUBLIC SAFETY BUILDING SHARON POLICE DEPARTMENT MAIN ENTRANCE,213SOUTH MAIN STREET,SHARON,MA,02067,"http://maps.google.com/maps?q=213,+SHARON,+MA+02067&hl=en"
SMITHFIELD POLICE DEPARTMENT,SMITHFIELD POLICE DEPARTMENT,215 PLEASANT VIEW AVE,SMITHFIELD,RI,02917,"http://maps.google.com/maps?q=215 PLEASANT VIEW AVE,+SMITHFIELD,+RI+02917&hl=en"
SOMERSET POLICE DEPARTMENT,CVS PHARMACY,1587 BRAYTON POINT ROAD,SOMERSET,MA,02726,"http://maps.google.com/maps?q=1587 BRAYTON POINT ROAD,+SOMERSET,+MA+02726&hl=en"
SOMERSWORTH POLICE DEPARTMENT,SOMERSWORTH POLICE DEPT.,12 LILAC LANE,SOMERSWORTH,NH,03878,"http://maps.google.com/maps?q=12 LILAC LANE,+SOMERSWORTH,+NH+03878&hl=en"
SOMERVILLE POLICE DEPARTMENT,SOMERVILLE FIRE DEPARTMENT,6 NEWBURY ST,SOMERVILLE,MA,02144,"http://maps.google.com/maps?q=6 NEWBURY ST,+SOMERVILLE,+MA+02144&hl=en"
SOUTH BERWICK POLICE DEPARTMENT,COMMUNITY CENTER OPERATED BY SOUTH BERWICK PD,71 NORTON STREET,SOUTH BERWICK,ME,03908,"http://maps.google.com/maps?q=71 NORTON STREET,+SOUTH BERWICK,+ME+03908&hl=en"
SOUTHBRIDGE POLICE DEPARTMENT,SOUTHBRIDGE POLICE DEPARTMENT,1 MECHANIC STREET,SOUTHBRIDGE,MA,01550,"http://maps.google.com/maps?q=1 MECHANIC STREET,+SOUTHBRIDGE,+MA+01550&hl=en"
STONEHAM POLICE DEPARTMENT,STONEHAM POLICE DEPARTMENT,47 CENTRAL STREET,STONEHAM,MA,02180,"http://maps.google.com/maps?q=47 CENTRAL STREET,+STONEHAM,+MA+02180&hl=en"
STRATHAM POLICE DEPARTMENT,STRATHAM POLICE DEPARTMENT FRONT LOBBY,76 PORTSMOUTH AVE,STRATHAM,NH,03885,"http://maps.google.com/maps?q=76 PORTSMOUTH AVE,+STRATHAM,+NH+03885&hl=en"
SUDBURY POLICE DEPARTMENT,SUDBURY POLICE DEPARTMENT REAR PARKING AREA,75 HUDSON RD.,SUDBURY,MA,01776,"http://maps.google.com/maps?q=75 HUDSON RD.,+SUDBURY,+MA+01776&hl=en"
SWAMPSCOTT POLICE,SWAMPSCOTT POLICE DEPARTMENT,531 HUMPHREY STREET,SWAMPSCOTT,MA,01907,"http://maps.google.com/maps?q=531 HUMPHREY STREET,+SWAMPSCOTT,+MA+01907&hl=en"
TAUNTON POLICE DEPT.,TAUNTON POLICE DEPT MAIN LOBBY,23 SUMMER STREET,TAUNTON,MA,02780,"http://maps.google.com/maps?q=23 SUMMER STREET,+TAUNTON,+MA+02780&hl=en"
TEWKSBURY POLICE DEPARTMENT,TEWKSBURY POLICE DEPARTMENT,918 MAIN STREET,TEWKSBURY,MA,01876,"http://maps.google.com/maps?q=918 MAIN STREET,+TEWKSBURY,+MA+01876&hl=en"
TIVERTON POLICE DEPARTMENT,TIVERTON POLICE DEPARTMENT,20 INDUSTRIAL WAY,TIVERTON,RI,02878,"http://maps.google.com/maps?q=20 INDUSTRIAL WAY,+TIVERTON,+RI+02878&hl=en"
TOPSFIELD POLICE DEPARTMENT,TOPSFIELD POLICE DEPARTMENT DET. SGT. GARY HAYWARD,210 BOSTON STREET,TOPSFIELD,MA,01983,"http://maps.google.com/maps?q=210 BOSTON STREET,+TOPSFIELD,+MA+01983&hl=en"
TOWN OF HANOVER,TOWN OF HANOVER,665 CENTER STREET,HANOVER,MA,02339,"http://maps.google.com/maps?q=665 CENTER STREET,+HANOVER,+MA+02339&hl=en"
TOWN OF WEST WARWICK POLICE DEPARTMENT,WEST WARWICK POLICE DEPARTMENT HEADQUARTERS,1162 MAIN STREET,WEST WARWICK,RI,02893,"http://maps.google.com/maps?q=1162 MAIN STREET,+WEST WARWICK,+RI+02893&hl=en"
TOWN OF WEST WARWICK POLICE DEPARTMENT,WEST WARWICK YOUTH CENTER,40 FACTORY STREET,WEST WARWICK,RI,02893,"http://maps.google.com/maps?q=40 FACTORY STREET,+WEST WARWICK,+RI+02893&hl=en"
TOWNSEND MA POLICE,TOWNSEND POLICE DEPARTMENT,70 BROOKLINE STREET,TOWNSEND,MA,01469,"http://maps.google.com/maps?q=70 BROOKLINE STREET,+TOWNSEND,+MA+01469&hl=en"
TYNGSBOROUGH POLICE DEPARTMENT,TYNGSBOROUGH POLICE DEPARTMENT DEPUTY CHIEF SHAUN WOODS,20 WESTFORD ROAD,TYNGSBORO,MA,01879,"http://maps.google.com/maps?q=20 WESTFORD ROAD,+TYNGSBORO,+MA+01879&hl=en"
UNIVERSITY OF NEW HAMPSHIRE POLICE DEPARTMENT,UNIVERSITY OF NEW HAMPSHIRE HEALTH SERVICES UNH HEALTH SERVICES CLINIC,4 PETTEE BROOK LN,DURHAM,NH,03824,"http://maps.google.com/maps?q=4 PETTEE BROOK LN,+DURHAM,+NH+03824&hl=en"
UNIVERSITY OF NEW HAMPSHIRE POLICE DEPARTMENT,UNIVERSITY OF NEW HAMPSHIRE POLICE DEPARTMENT POLICE DEPARTMENT,18 WATERWORKS RD,DURHAM,NH,03824,"http://maps.google.com/maps?q=18 WATERWORKS RD,+DURHAM,+NH+03824&hl=en"
WAKEFIELD POLICE DEPARTMENT,WAKEFIELD POLICE DEPARTMENT PUBLIC SAFETY BUILDING LOBBY,1 UNION ST,WAKEFIELD,MA,01880,"http://maps.google.com/maps?q=1 UNION ST,+WAKEFIELD,+MA+01880&hl=en"
WALTHAM POLICE DEPARTMENT,WALTHAM POLICE DEPARTMENT REAR OF THE POLICE SATION PARKING LOT,155 LEXINGTON ST,WALTHAM,MA,02452,"http://maps.google.com/maps?q=155 LEXINGTON ST,+WALTHAM,+MA+02452&hl=en"
WAREHAM POLICE DEPARTMENT,WAREHAM POLICE DEPARTMENT,2515 CRANBERRY HWY,WAREHAM,MA,02571,"http://maps.google.com/maps?q=2515 CRANBERRY HWY,+WAREHAM,+MA+02571&hl=en"
WARWICK POLICE DEPARTMENT,WARWICK POLICE DEPARTMENT,99 VETERANS MEMORIAL DRIVE,WARWICK,RI,02886,"http://maps.google.com/maps?q=99 VETERANS MEMORIAL DRIVE,+WARWICK,+RI+02886&hl=en"
WATERTOWN POLICE DEPARTMENT,WATERTOWN POLICE DEPARTMENT JENNIFER CONNORS,552 MAIN STREET,WATERTOWN,MA,02472,"http://maps.google.com/maps?q=552 MAIN STREET,+WATERTOWN,+MA+02472&hl=en"
WAYLAND P.D.,WAYLAND P.D.,38 COCHITUATE ROAD,WAYLAND,MA,01778,"http://maps.google.com/maps?q=38 COCHITUATE ROAD,+WAYLAND,+MA+01778&hl=en"
WELLESLEY POLICE DEPARTMENT,WELLESLEY POLICE DEPARTMENT,485 WASHINGTON STREET,WELLESLEY,MA,02482,"http://maps.google.com/maps?q=485 WASHINGTON STREET,+WELLESLEY,+MA+02482&hl=en"
WELLFLEET POLICE DEPARTMENT,WELLFLEET POLICE DEPARTMENT,36 GROSS HILL RD,WELLFLEET,MA,02667,"http://maps.google.com/maps?q=36 GROSS HILL RD,+WELLFLEET,+MA+02667&hl=en"
WELLS POLICE DEPARTMENT,YORK HOSPITAL AT WELLS URGENT CARE OPERATED BY WELLS PD,114 SANFORD ROAD,WELLS,ME,04090,"http://maps.google.com/maps?q=114 SANFORD ROAD,+WELLS,+ME+04090&hl=en"
WEST NEWBURY POLICE DEPARTMENT,WEST NEWBURY PUBLIC SAFETY COMPLEX IN THE LOBBY NEAR THE DISPATCH WINDOW,401 MAIN STREET,WEST NEWBURY,MA,01985,"http://maps.google.com/maps?q=401 MAIN STREET,+WEST NEWBURY,+MA+01985&hl=en"
WESTMINSTER POLICE DEPARTMENT,WESTMINSTER POLICE DEPARTMENT,7 SOUTH STREET,WESTMINSTER,MA,01473,"http://maps.google.com/maps?q=7 SOUTH STREET,+WESTMINSTER,+MA+01473&hl=en"
WESTPORT POLICE DEPARTMENT,WESTPORT POLICE DEPARTMENT SUB STATION,596 C STATE ROAD,WESTPORT,MA,02790,"http://maps.google.com/maps?q=596 C STATE ROAD,+WESTPORT,+MA+02790&hl=en"
WESTWOOD POLICE DEPARTMENT,WEGMAN'S,169 UNIVERSITY AVE.,WESTWOOD,MA,02090,"http://maps.google.com/maps?q=169 UNIVERSITY AVE.,+WESTWOOD,+MA+02090&hl=en"
WESTWOOD POLICE DEPARTMENT,WESTWOOD POLICE DEPARTMENT,588 HIGH STREET,WESTWOOD,MA,02090,"http://maps.google.com/maps?q=588 HIGH STREET,+WESTWOOD,+MA+02090&hl=en"
WEYMOUTH POLICE DEPARTMENT,WEYMOUTH POLICE DEPARTMENT,140 WINTER STREET,WEYMOUTH,MA,02188,"http://maps.google.com/maps?q=140 WINTER STREET,+WEYMOUTH,+MA+02188&hl=en"
WILMINGTON POLICE,WILMINGTON POLICE LT. JOSEPH DESMOND,1 ADELAIDE ST,WILMINGTON,MA,01887,"http://maps.google.com/maps?q=1 ADELAIDE ST,+WILMINGTON,+MA+01887&hl=en"
WILTON POLICE DEPARTMENT,WILTON NH POLICE DEPARTMENT CHIEF ERIC L. OLESEN,"7 BURNS HILL ROAD, P.O. BOX 183",WILTON,NH,03086,"http://maps.google.com/maps?q=7 BURNS HILL ROAD, P.O. BOX 183,+WILTON,+NH+03086&hl=en"
WINCHESTER POLICE DEPARTMENT,WINCHESTER TRANSFER STATION OUTSIDE FRONT GATES,7 MCKAY AVE,WINCHESTER,MA,01890,"http://maps.google.com/maps?q=7 MCKAY AVE,+WINCHESTER,+MA+01890&hl=en"
WINDHAM POLICE DEPARTMENT,WINDHAM POLICE DEPARTMENT CHRISTOPHER VAN HIRTUM,4 FELLOWS ROAD,WINDHAM,NH,03087,"http://maps.google.com/maps?q=4 FELLOWS ROAD,+WINDHAM,+NH+03087&hl=en"
WINTHROP POLICE DEPARTMENT,WINTHROP POLICE DEPARTMENT,3 METCALF SQ.,WINTHROP,MA,02152,"http://maps.google.com/maps?q=3 METCALF SQ.,+WINTHROP,+MA+02152&hl=en"
WOBURN POLICE DEPARTMENT,WOBURN POLICE DEPARTMENT,25 HARRISON AVE,WOBURN,MA,01801,"http://maps.google.com/maps?q=25 HARRISON AVE,+WOBURN,+MA+01801&hl=en"
WOONSOCKET POLICE DEPARTMENT,CVS PHARMACY/WOONSOCKET PD DET. SGT. MARC CARDIN,1054 CASS AVE.,WOONSOCKET,RI,02895,"http://maps.google.com/maps?q=1054 CASS AVE.,+WOONSOCKET,+RI+02895&hl=en"
WOONSOCKET POLICE DEPARTMENT,WOONSOCKET POLICE DEPARTMENT DET. SGT. MARC CARDIN,242 CLINTON ST.,WOONSOCKET,RI,02895,"http://maps.google.com/maps?q=242 CLINTON ST.,+WOONSOCKET,+RI+02895&hl=en"
YARMOUTH POLICE DEPARTMENT,YARMOUTH POLICE DEPARTMENT,1 BRAD ERICKSON WAY,WEST YARMOUTH,MA,02673,"http://maps.google.com/maps?q=1 BRAD ERICKSON WAY,+WEST YARMOUTH,+MA+02673&hl=en"
YORK POLICE DEPARTMENT,DEERFIELD PLACE OPERATED BY YORK POLICE DEPARTMENT,117 LONG SANDS ROAD,YORK,ME,03909,"http://maps.google.com/maps?q=117 LONG SANDS ROAD,+YORK,+ME+03909&hl=en"
YORK POLICE DEPARTMENT,HANNAFORD SUPERMARKET OPERATED BY YORK POLICE DEPARTMENT,9 HANNAFORD DRIVE,YORK,ME,03909,"http://maps.google.com/maps?q=9 HANNAFORD DRIVE,+YORK,+ME+03909&hl=en"
YORK POLICE DEPARTMENT,SENTRY HILL ASSISTED LIVING OPERATED BY YORK POLICE DEPARTMENT,2 VICTORIA COURT,YORK,ME,03909,"http://maps.google.com/maps?q=2 VICTORIA COURT,+YORK,+ME+03909&hl=en"
YORK POLICE DEPARTMENT,YORKSHIRE COMMONS OPERATED BY YORK POLICE DEPARTMENT,611 YORK STREET,YORK,ME,03909,"http://maps.google.com/maps?q=611 YORK STREET,+YORK,+ME+03909&hl=en"
