Participant,CollectionSite,Address,City,State,Zip,MapURL
19TH JUDICIAL DISTRICT DRUG TASK FORCE,HARRIS PHARMACY,1157 FORT CAMPBELL BLVD,CLARKSVILLE,TN,37042,"http://maps.google.com/maps?q=1157 FORT CAMPBELL BLVD,+CLARKSVILLE,+TN+37042&hl=en"
19TH JUDICIAL DISTRICT DRUG TASK FORCE,SANGO PHARMACY,2622 MADISON STREET,CLARKSVILLE,TN,37043,"http://maps.google.com/maps?q=2622 MADISON STREET,+CLARKSVILLE,+TN+37043&hl=en"
19TH JUDICIAL DISTRICT DRUG TASK FORCE,WALGREENS PHARMACY,2975 FORT CAMPBELL BLVD,CLARKSVILLE,TN,37042,"http://maps.google.com/maps?q=2975 FORT CAMPBELL BLVD,+CLARKSVILLE,+TN+37042&hl=en"
ADAIR COUNTY SHERIFF'S OFFICE,ADAIR COUNTY SHERIFF'S OFFICE TACO BELL (PICK UP IN PARKING LOT),899 JAMES TOWN STREET,COLUMBIA,KY,42728,"http://maps.google.com/maps?q=899 JAMES TOWN STREET,+COLUMBIA,+KY+42728&hl=en"
ALEXANDER COUNTY SHERIFF'S OFFICE,EGYPTIAN HIGH SCHOOL,20023 DISWOOD RD,OLIVE BRANCH,IL,62969,"http://maps.google.com/maps?q=20023 DISWOOD RD,+OLIVE BRANCH,+IL+62969&hl=en"
"ANDERSON COUNTY, KY SHERIFF",ANDERSON APOTHECARY,90 PLAZA DRIVE,LAWRENCEBURG,KY,40342,"http://maps.google.com/maps?q=90 PLAZA DRIVE,+LAWRENCEBURG,+KY+40342&hl=en"
ARCOLA POLICE DEPARTMENT,ARCOLA POLICE DEPARTMENT,114 N. LOCUST,ARCOLA,IL,61910,"http://maps.google.com/maps?q=114 N. LOCUST,+ARCOLA,+IL+61910&hl=en"
BLOOMINGTON POLICE DEPARTMENT,KROGER PARKING LOT,528 S. COLLEGE AVE.,BLOOMINGTON,IN,47403,"http://maps.google.com/maps?q=528 S. COLLEGE AVE.,+BLOOMINGTON,+IN+47403&hl=en"
BLOOMINGTON POLICE DEPARTMENT,KROGER PHARMACY PARKING LOT,1175 COLLEGE MALL RD.,BLOOMINGTON,IN,47401,"http://maps.google.com/maps?q=1175 COLLEGE MALL RD.,+BLOOMINGTON,+IN+47401&hl=en"
BOONE COUNTY SHERIFFS OFFICE,BOONE COUNTY SHERIFFS OFFICE SIDE PARKING LOT,3000 CONRAD LANE,BURLINGTON,KY,41005,"http://maps.google.com/maps?q=3000 CONRAD LANE,+BURLINGTON,+KY+41005&hl=en"
BOONE COUNTY SHERIFFS OFFICE,UNION CITY BUILDING PARKING LOT,1843 MOUNT ZION RD,UNION,KY,41091,"http://maps.google.com/maps?q=1843 MOUNT ZION RD,+UNION,+KY+41091&hl=en"
BOONE COUNTY SHERIFFS OFFICE,WALTON KENTUCKY CITY BUILDING PARKING LOT,40 NORTH MAIN STREET,WALTON,KY,41094,"http://maps.google.com/maps?q=40 NORTH MAIN STREET,+WALTON,+KY+41094&hl=en"
BOWLING GREEN- WARREN CO DRUG TASK FORCE,BOWLING GREEN POLICE DEPARTMENT,911 KENTUCKY STREET,BOWLING GREEN,KY,42101,"http://maps.google.com/maps?q=911 KENTUCKY STREET,+BOWLING GREEN,+KY+42101&hl=en"
BOWLING GREEN- WARREN CO DRUG TASK FORCE,KENTUCKY STATE POLICE POST 3,3119 NASHVILLE ROAD,BOWLING GREEN,KY,42101,"http://maps.google.com/maps?q=3119 NASHVILLE ROAD,+BOWLING GREEN,+KY+42101&hl=en"
BOWLING GREEN- WARREN CO DRUG TASK FORCE,SAFETY CITY IN FRONT OF GREENWOOD HIGH SCHOOL,5065 SCOTTSVILLE ROAD,BOWLING GREEN,KY,42104,"http://maps.google.com/maps?q=5065 SCOTTSVILLE ROAD,+BOWLING GREEN,+KY+42104&hl=en"
BREESE POLICE DEPT.,BREESE POLICE DEPT.,500 N. 1ST STREET,BREESE,IL,62230,"http://maps.google.com/maps?q=500 N. 1ST STREET,+BREESE,+IL+62230&hl=en"
BUTLER COUNTY SHERIFF'S OFFICE,LIBERTY TWP. PRINCETON GLENDALE FIRE STATION,6682 PRINCETON-GLENDALE RD.,HAMILTON,OH,45011,"http://maps.google.com/maps?q=6682 PRINCETON-GLENDALE RD.,+HAMILTON,+OH+45011&hl=en"
CAIRO POLICE DEPARTMENT,CAIRO POLICE DEPARTMENT,1501 WASHINGTON,CAIRO,IL,62914,"http://maps.google.com/maps?q=1501 WASHINGTON,+CAIRO,+IL+62914&hl=en"
CALDWELL COUNTY SHERIFF'S OFFICE,CALDWELL COUNTY SHERIFF,100 E MARKET ST,PRINCETON,KY,42445,"http://maps.google.com/maps?q=100 E MARKET ST,+PRINCETON,+KY+42445&hl=en"
CAPE GIRARDEAU COUNTY SHERIFF'S OFFICE,CAPE GIRARDEAU COUNTY SHERIFF'S OFFICE,216 N. MISSOURI STREET,JACKSON,MO,63755,"http://maps.google.com/maps?q=216 N. MISSOURI STREET,+JACKSON,+MO+63755&hl=en"
CAPE GIRARDEAU POLICE DEPT.,CAPE GIRARDEAU POLICE DEPARTMENT,2530 MARIA LOUISE,CAPE GIRARDEAU,MO,63701,"http://maps.google.com/maps?q=2530 MARIA LOUISE,+CAPE GIRARDEAU,+MO+63701&hl=en"
CARBONDALE POLICE DEPARTMENT,CARBONDALE POLICE DEPARTMENT,501 SOUTH WASHINGTON STREET,CARBONDALE,IL,62901,"http://maps.google.com/maps?q=501 SOUTH WASHINGTON STREET,+CARBONDALE,+IL+62901&hl=en"
CARBONDALE POLICE DEPARTMENT,KROGGER OUTSIDE THE PHARMACY,501 GIANT CITY ROAD,CARBONDALE,IL,62901,"http://maps.google.com/maps?q=501 GIANT CITY ROAD,+CARBONDALE,+IL+62901&hl=en"
CHARLESTON DEPARTMENT OF PUBLIC SAFETY,CHARLESTON DEPT PUBLIC SAFETY HEADQUARTERS,204 N MAIN,CHARLESTON,MO,63834,"http://maps.google.com/maps?q=204 N MAIN,+CHARLESTON,+MO+63834&hl=en"
CINCINNATI POLICE,CINCINNATI POLICE DISTRICT 3 SIDE LOT,2300 FERGUSON RD,CINCINNATI,OH,45238,"http://maps.google.com/maps?q=2300 FERGUSON RD,+CINCINNATI,+OH+45238&hl=en"
CINCINNATI POLICE,KENARD KROGER PARKING LOT BY STREET,4777 KENARD AVE,CINCINNATI,OH,45232,"http://maps.google.com/maps?q=4777 KENARD AVE,+CINCINNATI,+OH+45232&hl=en"
CINCINNATI VA HOSPITAL,CINCINNATI VA HOSPITAL FRIDAY 4/27/18 @1100 - 1430/OPC CIRCLE,3100 VINE STREET,CINCINNATI,OH,45220,"http://maps.google.com/maps?q=3100 VINE STREET,+CINCINNATI,+OH+45220&hl=en"
CITY OF OXFORD,EAST PARK BY THE AMPHITHEATER,EAST PARK @ EAST HIGH ST.,OXFORD,OH,45056,"http://maps.google.com/maps?q=EAST  PARK @ EAST HIGH ST.,+OXFORD,+OH+45056&hl=en"
CLARKSVILLE POLICE DEPARTMENT,CLARKSVILLE PD,1970 BROADWAY,CLARKSVILLE,IN,47129,"http://maps.google.com/maps?q=1970 BROADWAY,+CLARKSVILLE,+IN+47129&hl=en"
CLINTON COUNTY SHERIFF'S DEPARTMENT,CLINTON COUNTY SHERIFF'S OFFICE,810 FRANKLIN ST.,CARLYLE,IL,62231,"http://maps.google.com/maps?q=810 FRANKLIN ST.,+CARLYLE,+IL+62231&hl=en"
COBDEN POLICE DEPARTMENT,COBDEN POLICE DEPARTMENT,112 EAST MAPLE,COBDEN,IL,62920,"http://maps.google.com/maps?q=112 EAST MAPLE,+COBDEN,+IL+62920&hl=en"
COLES COUNTY SHERIFF'S OFFICE,WALGREENS,411 W. LINCOLN AVENUE,CHARLESTON,IL,61920,"http://maps.google.com/maps?q=411 W. LINCOLN AVENUE,+CHARLESTON,+IL+61920&hl=en"
CRAWFORDSVILLE POLICE DEPT.,MONTGOMERY COUNTY HEALTH DEPARTMENT,110 W. SOUTH BOULEVARD,CRAWFORDSVILLE,IN,47933,"http://maps.google.com/maps?q=110 W. SOUTH BOULEVARD,+CRAWFORDSVILLE,+IN+47933&hl=en"
DANVILLE POLICE DEPARTMENT,DANVILLE POLICE DEPARTMENT/CITY HALL,445 W MAIN STREET,DANVILLE,KY,40422,"http://maps.google.com/maps?q=445 W MAIN STREET,+DANVILLE,+KY+40422&hl=en"
DEA,ARMY NATIONAL GUARD ARMORY,3000 E. DIVISION STREET,EVANSVILLE,IN,47711,"http://maps.google.com/maps?q=3000 E. DIVISION STREET,+EVANSVILLE,+IN+47711&hl=en"
DEA / ST. VINCENT HOSPITAL,ST. VINCENT HOSPITAL FRONT ENTRANCE - DOOR 1,2001 W 86TH ST,INDIANAPOLIS,IN,46260,"http://maps.google.com/maps?q=2001 W 86TH ST,+INDIANAPOLIS,+IN+46260&hl=en"
DECATUR POLICE DEPARTMENT,DECATUR POLICE DEPARTMENT,707 W. SOUTH SIDE DR,DECATUR,IL,62521,"http://maps.google.com/maps?q=707 W. SOUTH SIDE DR,+DECATUR,+IL+62521&hl=en"
DUBOIS CO. SHERIFF DEPT.,HOLLAND FIRE STATION,504 W MAIN ST,HOLLAND,IN,47541,"http://maps.google.com/maps?q=504 W MAIN ST,+HOLLAND,+IN+47541&hl=en"
DUBOIS CO. SHERIFF DEPT.,ST. ANTHONY FIRE STATION,4068 E 450 S,SAINT ANTHONY,IN,47575,"http://maps.google.com/maps?q=4068 E 450 S,+SAINT ANTHONY,+IN+47575&hl=en"
DUQUOIN POLICE DEPARTMENT,DUQUOIN POLICE DEPARTMENT LOBBY,304 E. POPLAR ST,DU QUOIN,IL,62832,"http://maps.google.com/maps?q=304 E. POPLAR ST,+DU QUOIN,+IL+62832&hl=en"
EDGEWOOD POLICE DEPARTMENT,EDGEWOOD POLICE DEPARTMENT,3405 NICHOL AVE,ANDERSON,IN,46011,"http://maps.google.com/maps?q=3405 NICHOL AVE,+ANDERSON,+IN+46011&hl=en"
EFFINGHAM COUNTY SHERIFF'S OFFICE,EFFINGHAM COUNTY SHERIFF'S OFFICE,101 N. 4TH STREET,EFFINGHAM,IL,62401,"http://maps.google.com/maps?q=101 N. 4TH STREET,+EFFINGHAM,+IL+62401&hl=en"
EMINENCE POLICE DEPARTMENT,EMINENCE POLICE DEPARTMENT,45 DEPOT AVE,EMINENCE,KY,40019,"http://maps.google.com/maps?q=45 DEPOT AVE,+EMINENCE,+KY+40019&hl=en"
FAIRFIELD POLICE DEPARTMENT,FAIRFIELD POLICE DEPARTMENT,5230 PLEASANT AVE,FAIRFIELD,OH,45014,"http://maps.google.com/maps?q=5230 PLEASANT AVE,+FAIRFIELD,+OH+45014&hl=en"
FAIRFIELD TOWNSHIP POLICE DEPARTMENT,FAIRFIELD TOWNSHIP POLICE DEPARTMENT,6485 VONNIE VALE COURT,HAMILTON,OH,45011,"http://maps.google.com/maps?q=6485 VONNIE VALE COURT,+HAMILTON,+OH+45011&hl=en"
FLORENCE POLICE DEPARTMENT,FLORENCE POLICE,8100 EWING BLVD,FLORENCE,KY,41042,"http://maps.google.com/maps?q=8100 EWING BLVD,+FLORENCE,+KY+41042&hl=en"
FLORENCE POLICE DEPARTMENT,KROGER PHARMACY FLORENCE,7685 MALL ROAD,FLORENCE,KY,41042,"http://maps.google.com/maps?q=7685 MALL ROAD,+FLORENCE,+KY+41042&hl=en"
FORT MITCHELL POLICE DEPARTMENT,FORT MITCHELL POLICE DEPARTMENT,2355 DIXIE HIGHWAY,FT MITCHELL,KY,41017,"http://maps.google.com/maps?q=2355 DIXIE HIGHWAY,+FT MITCHELL,+KY+41017&hl=en"
FRANKFORT POLICE DEPARTMENT,FRANKLIN COUNTY HEALTH DEPARTMENT EAST WEST CONNECTOR ROAD,851 EAST WEST CONNECTOR ROAD,FRANKFORT,KY,40601,"http://maps.google.com/maps?q=851 EAST WEST CONNECTOR ROAD,+FRANKFORT,+KY+40601&hl=en"
GLASGOW POLICE DEPARTMENT,WALMART,2345 HAPPY VALLEY RD.,GLASGOW,KY,42141,"http://maps.google.com/maps?q=2345 HAPPY VALLEY RD.,+GLASGOW,+KY+42141&hl=en"
GREEN TOWNSHIP POLICE DEPARTMENT,GREEN TOWNSHIP POLICE KIOSK IN THE LOBBY ONLY,6303 HARRISON AVE.,CINCINNATI,OH,45247,"http://maps.google.com/maps?q=6303 HARRISON AVE.,+CINCINNATI,+OH+45247&hl=en"
GREENCASTLE POLICE DEPARTMENT,GREENCASTLE HIGH SCHOOL 9 AM TO NOON,910 E. WASHINGTON ST.,GREENCASTLE,IN,46135,"http://maps.google.com/maps?q=910 E. WASHINGTON ST.,+GREENCASTLE,+IN+46135&hl=en"
GREENE COUNTY SHERIFF OFFICE,GREENE COUNTY GENERAL HOSPITAL NONE,1185 N 1000 W,LINTON,IN,47441,"http://maps.google.com/maps?q=1185 N 1000 W,+LINTON,+IN+47441&hl=en"
GREENHILLS POLICE,GREENHILLS MUNCIPAL BUILDING,11000 WINTON RD,CINCINNATI,OH,45218,"http://maps.google.com/maps?q=11000 WINTON RD,+CINCINNATI,+OH+45218&hl=en"
GREENVILLE POLICE DEPARTMENT,BOND COUNTY SHERIFF'S DEPARTMENT,403 S. SECOND ST,GREENVILLE,IL,62246,"http://maps.google.com/maps?q=403 S. SECOND ST,+GREENVILLE,+IL+62246&hl=en"
GREENVILLE POLICE DEPARTMENT,GREENVILLE POLICE DEPARTMENT,122 W. MAIN ST,GREENVILLE,OH,45331,"http://maps.google.com/maps?q=122 W. MAIN ST,+GREENVILLE,+OH+45331&hl=en"
GREENVILLE POLICE DEPARTMENT,GREENVILLE POLICE DEPARTMENT,404 S. THIRD ST,GREENVILLE,IL,62246,"http://maps.google.com/maps?q=404 S. THIRD ST,+GREENVILLE,+IL+62246&hl=en"
HAMILTON COUNTY SHERIFF'S OFFICE,MIAMI TOWNSHIP,3780 SHADY LANE,NORTH BEND,OH,45052,"http://maps.google.com/maps?q=3780 SHADY LANE,+NORTH BEND,+OH+45052&hl=en"
HAMILTON POLICE DEPARTMENT,HAMILTON POLICE DEPARTMENT,331 SOUTH FRONT STREET,HAMILTON,OH,45011,"http://maps.google.com/maps?q=331 SOUTH FRONT STREET,+HAMILTON,+OH+45011&hl=en"
HARDIN COUNTY SHERIFF'S OFFICE,KROGER,3040 DOLPHIN DR,ELIZABETHTOWN,KY,42701,"http://maps.google.com/maps?q=3040 DOLPHIN DR,+ELIZABETHTOWN,+KY+42701&hl=en"
HART COUNTY SHERIFF'S OFFICE,HART COUNTY SHERIFF'S OFFICE,116 EAST UNION ST.,MUNFORDVILLE,KY,42765,"http://maps.google.com/maps?q=116 EAST UNION ST.,+MUNFORDVILLE,+KY+42765&hl=en"
HENRY COUNTY SHERIFF,HENRY COUNTY SHERIFF,123 N PROPERTY ROAD,NEW CASTLE,KY,40050,"http://maps.google.com/maps?q=123 N PROPERTY ROAD,+NEW CASTLE,+KY+40050&hl=en"
HILLSBORO POLICE DEPARTMENT,HILLSBORO POLICE DEPARTMENT,447 SOUTH MAIN STREETSUITE 5,HILLSBORO,IL,62049,"http://maps.google.com/maps?q=447 SOUTH MAIN STREET,+HILLSBORO,+IL+62049&hl=en"
HILLSBORO POLICE DEPARTMENT,JOHN'S PHARMACY,300 SOUTH MAIN STREET,HILLSBORO,IL,62049,"http://maps.google.com/maps?q=300 SOUTH MAIN STREET,+HILLSBORO,+IL+62049&hl=en"
HILLSBORO POLICE DEPARTMENT,SULLIVAN'S DRUG STORE,325 SOUTH MAIN STREET,HILLSBORO,IL,62049,"http://maps.google.com/maps?q=325 SOUTH MAIN STREET,+HILLSBORO,+IL+62049&hl=en"
INDIANA BOARD OF PHARMACY,COMMUNITY CANCER CENTER-NORTH COMMUNITY HEALTH CAMPUS PD,7979 N SHADELAND AVE,INDIANAPOLIS,IN,46250,"http://maps.google.com/maps?q=7979 N SHADELAND AVE,+INDIANAPOLIS,+IN+46250&hl=en"
INDIANA BOARD OF PHARMACY,COMMUNITY HOSPITAL-SOUTH CAMPUS COMMUNITY HEALTH PD,1402 E COUNTY LINE RD,INDIANAPOLIS,IN,46227,"http://maps.google.com/maps?q=1402 E COUNTY LINE RD,+INDIANAPOLIS,+IN+46227&hl=en"
INDIANA BOARD OF PHARMACY,CVS #6256 POSEY COUNTY SHERIFF DEPT,700 E 4TH ST,MOUNT VERNON,IN,47620,"http://maps.google.com/maps?q=700 E 4TH ST,+MOUNT VERNON,+IN+47620&hl=en"
INDIANA BOARD OF PHARMACY,CVS PHARMACY #6658 PENDLETON PD,620 E STATE ST,PENDLETON,IN,46064,"http://maps.google.com/maps?q=620 E STATE ST,+PENDLETON,+IN+46064&hl=en"
INDIANA BOARD OF PHARMACY,SAM'S CLUB JOHNSON COUNTY SHERIFF DEPT,1101 WINDHORST WAY,GREENWOOD,IN,46143,"http://maps.google.com/maps?q=1101 WINDHORST WAY,+GREENWOOD,+IN+46143&hl=en"
INDIANA STATE POLICE,INDIANA STATE POLICE DISTRICT 14,5921 SR 43 NORTH,WEST LAFAYETTE,IN,47906,"http://maps.google.com/maps?q=5921 SR 43 NORTH,+WEST LAFAYETTE,+IN+47906&hl=en"
INDIANA STATE POLICE,INDIANA STATE POLICE DISTRICT 33,1500 N. PACKINGHOUSE RD. #200,BLOOMINGTON,IN,47404,"http://maps.google.com/maps?q=1500 N. PACKINGHOUSE RD. #200,+BLOOMINGTON,+IN+47404&hl=en"
INDIANA STATE POLICE,INDIANA STATE POLICE DISTRICT 34,2209 NEWTON STREET,JASPER,IN,47546,"http://maps.google.com/maps?q=2209 NEWTON STREET,+JASPER,+IN+47546&hl=en"
INDIANA STATE POLICE,INDIANA STATE POLICE DISTRICT 35,19411 HIGHWAY 41 NORTH,EVANSVILLE,IN,47725,"http://maps.google.com/maps?q=19411 HIGHWAY 41 NORTH,+EVANSVILLE,+IN+47725&hl=en"
INDIANA STATE POLICE,INDIANA STATE POLICE DISTRICT 42,902 SOUTH ADAMS STREET,VERSAILLES,IN,47042,"http://maps.google.com/maps?q=902 SOUTH ADAMS STREET,+VERSAILLES,+IN+47042&hl=en"
INDIANA STATE POLICE,INDIANA STATE POLICE DISTRICT 45,8014 HIGHWAY 311,SELLERSBURG,IN,47172,"http://maps.google.com/maps?q=8014 HIGHWAY 311,+SELLERSBURG,+IN+47172&hl=en"
INDIANA STATE POLICE,INDIANA STATE POLICE DISTRICT 51,9022 SOUTH SR 67,PENDLETON,IN,46064,"http://maps.google.com/maps?q=9022 SOUTH SR 67,+PENDLETON,+IN+46064&hl=en"
INDIANA STATE POLICE,INDIANA STATE POLICE DISTRICT 52,8620 E. 21ST STREET,INDIANAPOLIS,IN,46219,"http://maps.google.com/maps?q=8620 E. 21ST STREET,+INDIANAPOLIS,+IN+46219&hl=en"
INDIANA STATE POLICE,INDIANA STATE POLICE DISTRICT 53,1927 WEST US 40,GREENCASTLE,IN,46135,"http://maps.google.com/maps?q=1927 WEST US 40,+GREENCASTLE,+IN+46135&hl=en"
INDIANA STATE POLICE,ISP BLOOMINGTON,1500 N. PACKINGHOUSE RD.STE. 200,BLOOMINGTON,IN,47404,"http://maps.google.com/maps?q=1500 N. PACKINGHOUSE RD.,+BLOOMINGTON,+IN+47404&hl=en"
INDIANA STATE POLICE,ISP INDIANAPOLIS POST,8620 EAST 21ST STREET,INDIANAPOLIS,IN,46219,"http://maps.google.com/maps?q=8620 EAST 21ST STREET,+INDIANAPOLIS,+IN+46219&hl=en"
INDIANAPOLIS FIRE DEPARTMENT,IFD FIRE STATION 1,1903 W 10TH ST,INDIANAPOLIS,IN,46222,"http://maps.google.com/maps?q=1903 W 10TH ST,+INDIANAPOLIS,+IN+46222&hl=en"
INDIANAPOLIS FIRE DEPARTMENT,IFD FIRE STATION 2,4120 MITTHOEFFER RD,INDIANAPOLIS,IN,46235,"http://maps.google.com/maps?q=4120 MITTHOEFFER RD,+INDIANAPOLIS,+IN+46235&hl=en"
INDIANAPOLIS FIRE DEPARTMENT,IFD FIRE STATION 23,1108 E THOMPSON RD,INDIANAPOLIS,IN,46227,"http://maps.google.com/maps?q=1108 E THOMPSON RD,+INDIANAPOLIS,+IN+46227&hl=en"
INDIANAPOLIS FIRE DEPARTMENT,IFD FIRE STATION 27,2918 E 10TH ST,INDIANAPOLIS,IN,46201,"http://maps.google.com/maps?q=2918 E 10TH ST,+INDIANAPOLIS,+IN+46201&hl=en"
INDIANAPOLIS FIRE DEPARTMENT,IFD FIRE STATION 4,8404 N DITCH RD,INDIANAPOLIS,IN,46260,"http://maps.google.com/maps?q=8404 N DITCH RD,+INDIANAPOLIS,+IN+46260&hl=en"
JACKSON COUNTY SHERIFF'S OFFICE,JACKSON COUNTY HEALTH DEPARTMENT (DOUBLE BOXES),415 HEALTH DEPARTMENT ROAD,MURPHYSBORO,IL,62966,"http://maps.google.com/maps?q=415 HEALTH DEPARTMENT ROAD,+MURPHYSBORO,+IL+62966&hl=en"
JACKSON POLICE DEPARTMENT,JACKSON POLICE / FIRE COMPLEX,525 S. HOPE ST.,JACKSON,MO,63755,"http://maps.google.com/maps?q=525 S. HOPE ST.,+JACKSON,+MO+63755&hl=en"
JEFFERSON COUNTY SHERIFF'S OFFICE,JEFFERSON COUNTY SHERIFF'S OFFICE,531 COURT PLACE SUITE 600,LOUISVILLE,KY,40202,"http://maps.google.com/maps?q=531 COURT PLACE SUITE 600,+LOUISVILLE,+KY+40202&hl=en"
JENNINGS COUNTY SHERIFFS DEPARTMENT,JAY-C FOOD STORE,2325 NORTH STATE HIGHWAY 3,NORTH VERNON,IN,47265,"http://maps.google.com/maps?q=2325 NORTH STATE HIGHWAY 3,+NORTH VERNON,+IN+47265&hl=en"
JOHN A. LOGAN COLLEGE,LOT A JOHN A. LOGAN COLLEGE CAMPUS,700 LOGAN COLLEGE RD,CARTERVILLE,IL,62918,"http://maps.google.com/maps?q=700 LOGAN COLLEGE RD,+CARTERVILLE,+IL+62918&hl=en"
KENTUCKY STATE POLICE POST 1,KSP POST 1,8366 US 45 NORTH,HICKORY,KY,42051,"http://maps.google.com/maps?q=8366 US 45 NORTH,+HICKORY,+KY+42051&hl=en"
KENTUCKY STATE POLICE POST 15,KENTUCKY STATE POLICE POST 15,1118 JAMESTOWN STREET,COLUMBIA,KY,42728,"http://maps.google.com/maps?q=1118 JAMESTOWN STREET,+COLUMBIA,+KY+42728&hl=en"
KENTUCKY STATE POLICE POST 16,KSP POST 16,8298 KEACH DRIVE,HENDERSON,KY,42420,"http://maps.google.com/maps?q=8298 KEACH DRIVE,+HENDERSON,+KY+42420&hl=en"
KENTUCKY STATE POLICE POST 2,KENTUCKY STATE POLICE POST 2,1000 WESTERN KENTUCKY PARKWAY,NORTONVILLE,KY,42442,"http://maps.google.com/maps?q=1000 WESTERN KENTUCKY PARKWAY,+NORTONVILLE,+KY+42442&hl=en"
KENTUCKY STATE POLICE POST 3,KENTUCKY STATE POLICE POST 3,3119NASHVILLE RD.,BOWLING GREEN,KY,42101,"http://maps.google.com/maps?q=3119,+BOWLING GREEN,+KY+42101&hl=en"
KENTUCKY STATE POLICE POST 4,KENTUCKY STATE POLICE POST 4,1055 NORTH MULBERRY ST,ELIZABETHTOWN,KY,42701,"http://maps.google.com/maps?q=1055 NORTH MULBERRY ST,+ELIZABETHTOWN,+KY+42701&hl=en"
KENTUCKY STATE POLICE POST 5,KENTUCKY STATE POLICE,160 CITATION LANE,CAMPBELLSBURG,KY,40011,"http://maps.google.com/maps?q=160 CITATION LANE,+CAMPBELLSBURG,+KY+40011&hl=en"
KENTUCKY STATE POLICE POST 6,KSP POST 6,4265 DIXIE HIGHWAY,DRY RIDGE,KY,41035,"http://maps.google.com/maps?q=4265 DIXIE HIGHWAY,+DRY RIDGE,+KY+41035&hl=en"
LAFAYETTE POLICE DEPARTMENT,LAFAYETTE POLICE TRAINING CENTER,1301 SOUTH STREET,LAFAYETTE,IN,47901,"http://maps.google.com/maps?q=1301 SOUTH STREET,+LAFAYETTE,+IN+47901&hl=en"
LAFAYETTE POLICE DEPT.,LAFAYETTE POLICE DEPT,118 E LOCUST ST,LAFAYETTE,TN,37083,"http://maps.google.com/maps?q=118 E LOCUST ST,+LAFAYETTE,+TN+37083&hl=en"
LAWRENCE CO. SHERIFF'S OFFICE,LAWRENCE CO. SHERIFF'S OFFICE,1306 LEXINGTON AVE,LAWRENCEVILLE,IL,62439,"http://maps.google.com/maps?q=1306 LEXINGTON AVE,+LAWRENCEVILLE,+IL+62439&hl=en"
LAWRENCEBURG POLICE DEPT.,LAWRENCEBURG KROGER STORE DONALD B COMBS,880 W. EADS PKWY,LAWRENCEBURG,IN,47025,"http://maps.google.com/maps?q=880 W. EADS PKWY,+LAWRENCEBURG,+IN+47025&hl=en"
LEITCHFIELD POLICE DEPARTMENT,LEITCHFIELD POLICE DEPT,117 SOUTH MAIN STREET,LEITCHFIELD,KY,42754,"http://maps.google.com/maps?q=117 SOUTH MAIN STREET,+LEITCHFIELD,+KY+42754&hl=en"
LITCHFIELD POLICE DEPARTMENT,LITCHFIELD POLICE DEPARTMENT LOBBY DROP BOX,120 E. RYDER STREET,LITCHFIELD,IL,62056,"http://maps.google.com/maps?q=120 E. RYDER STREET,+LITCHFIELD,+IL+62056&hl=en"
LOUISVILLE METRO POLICE DEPARTMENT,KROGER,9440 BROWNBORO RD,LOUISVILLE,KY,40241,"http://maps.google.com/maps?q=9440 BROWNBORO RD,+LOUISVILLE,+KY+40241&hl=en"
LOUISVILLE METRO POLICE DEPARTMENT,KROGER PARKING LOT,291 N HUBBARD'S LN,LOUISVILLE,KY,40207,"http://maps.google.com/maps?q=291 N HUBBARD'S LN,+LOUISVILLE,+KY+40207&hl=en"
LOUISVILLE METRO POLICE DEPARTMENT,WALGREENS,2021 HIKES LANE,LOUISVILLE,KY,40218,"http://maps.google.com/maps?q=2021 HIKES LANE,+LOUISVILLE,+KY+40218&hl=en"
LOUISVILLE METRO POLICE DEPARTMENT,WALGREENS,3980 DIXIE HIGHWAY,LOUISVILLE,KY,40216,"http://maps.google.com/maps?q=3980 DIXIE HIGHWAY,+LOUISVILLE,+KY+40216&hl=en"
LOUISVILLE METRO POLICE DEPARTMENT,WALGREENS,7338 DIXIE HIGHWAY,LOUISVILLE,KY,40258,"http://maps.google.com/maps?q=7338 DIXIE HIGHWAY,+LOUISVILLE,+KY+40258&hl=en"
MARION COUNTY SHERIFF'S DEPT,MARION COUNTY SHERIFF'S DEPT,204 N. WASHINGTON STREET,SALEM,IL,62881,"http://maps.google.com/maps?q=204 N. WASHINGTON STREET,+SALEM,+IL+62881&hl=en"
MARION POLICE DEPARTMENT,MARION POLICE DEPARTMENT ALEX KENWORTHY,301 S. BRANSONMARION,MARION,IN,46952,"http://maps.google.com/maps?q=301 S. BRANSON,+MARION,+IN+46952&hl=en"
MARION POLICE DEPARTMENT,MARION POLICE DEPARTMENT CHIEF RAY O'NEAL,217 SOUTH MAIN STREET,MARION,KY,42064,"http://maps.google.com/maps?q=217 SOUTH MAIN STREET,+MARION,+KY+42064&hl=en"
MARKLEVILLE POLICE DEPARTMENT,MARKLEVILLE POLICE DEPARTMENT,10 SOUTH STATE ST,MARKLEVILLE,IN,46056,"http://maps.google.com/maps?q=10 SOUTH STATE ST,+MARKLEVILLE,+IN+46056&hl=en"
MARSHALL POLICE DEPARTMENT,MARSHALL FIRE PROTECTION DISTRICT FIRE DEPARTMENT CORNER OF ILLINOIS STATE HWY 1 AND ARCHER AVE,718 ARCHER AVE,MARSHALL,IL,62441,"http://maps.google.com/maps?q=718 ARCHER AVE,+MARSHALL,+IL+62441&hl=en"
MASSAC COUNTY SHERIFF'S DEPT,MASSAC COUNTY SHERIFF'S DEPT LOCATED IN THE LOBBY,515 MARKET ST,METROPOLIS,IL,62960,"http://maps.google.com/maps?q=515 MARKET ST,+METROPOLIS,+IL+62960&hl=en"
MATTOON POLICE DEPARTMENT,CVS PHARMACY,1316 CHARLESTON AVENUE,MATTOON,IL,61938,"http://maps.google.com/maps?q=1316 CHARLESTON AVENUE,+MATTOON,+IL+61938&hl=en"
MCLEANSBORO POLICE DEPARTMENT,MCLEANSBORO FIRE DEPARTMENT,108 SOUTH MARSHALL AVE,MCLEANSBORO,IL,62859,"http://maps.google.com/maps?q=108 SOUTH MARSHALL AVE,+MCLEANSBORO,+IL+62859&hl=en"
MERCER COUNTY SHERIFF'S OFFICE,FORT RECOVERY POLICE DEPARTMENT,201 SOUTH MAIN STREET,FORT RECOVERY,OH,45846,"http://maps.google.com/maps?q=201 SOUTH MAIN STREET,+FORT RECOVERY,+OH+45846&hl=en"
"MERCER COUNTY, KY SHERIFFS OFFICE",MERCER COUNTY SHERIFFS OFFICE,207 WEST LEXINGTON ST,HARRODSBURG,KY,40330,"http://maps.google.com/maps?q=207 WEST LEXINGTON ST,+HARRODSBURG,+KY+40330&hl=en"
MONTICELLO POLICE DEPARTMENT,MONTICELLO POLICE DEPARTMENT,301 N. HAMILTON,MONTICELLO,IL,61856,"http://maps.google.com/maps?q=301 N. HAMILTON,+MONTICELLO,+IL+61856&hl=en"
MT. VERNON POLICE DEPARTMENT,MT. VERNON POLICE DEPARTMENT,211 N. 10TH ST,MOUNT VERNON,IL,62864,"http://maps.google.com/maps?q=211 N. 10TH ST,+MOUNT VERNON,+IL+62864&hl=en"
MURPHYSBORO POLICE DEPARTMENT,KROGERS,550 E. INDUSTRIAL PARK ROADLOT 1,MURPHYSBORO,IL,62966,"http://maps.google.com/maps?q=550 E. INDUSTRIAL PARK ROAD,+MURPHYSBORO,+IL+62966&hl=en"
NEW BADEN POLICE DEPARTMENT,NEW BADEN POLICE DEPARTMENT,100 E. HANOVER STREET,NEW BADEN,IL,62265,"http://maps.google.com/maps?q=100 E. HANOVER STREET,+NEW BADEN,+IL+62265&hl=en"
NORTHERN KENTUCKY DRUG STRIKE FORCE,COVINGTON POLICE DEPARTMENT,1 POLICE MEMORIAL DR.,COVINGTON,KY,41014,"http://maps.google.com/maps?q=1 POLICE MEMORIAL DR.,+COVINGTON,+KY+41014&hl=en"
NORTHERN KENTUCKY DRUG STRIKE FORCE,EDGEWOOD POLICE DEPARTMENT,385 DUDLEY PIKE,EDGEWOOD,KY,41017,"http://maps.google.com/maps?q=385 DUDLEY PIKE,+EDGEWOOD,+KY+41017&hl=en"
NORTHERN KENTUCKY DRUG STRIKE FORCE,ERLANGER POLICE DEPARTMENT,505 COMMONWEALTH AVE.,ERLANGER,KY,41018,"http://maps.google.com/maps?q=505 COMMONWEALTH AVE.,+ERLANGER,+KY+41018&hl=en"
NORTHERN KENTUCKY DRUG STRIKE FORCE,FT. WRIGHT POLICE DEPARTMENT,409 KYLES LN.,COVINGTON,KY,41011,"http://maps.google.com/maps?q=409 KYLES LN.,+COVINGTON,+KY+41011&hl=en"
NORTHERN KENTUCKY DRUG STRIKE FORCE,KENTON COUNTY POLICE DEPARTMENT,11777 MADISON PIKE,INDEPENDENCE,KY,41051,"http://maps.google.com/maps?q=11777 MADISON PIKE,+INDEPENDENCE,+KY+41051&hl=en"
NORTHERN KENTUCKY DRUG STRIKE FORCE,PARK HILLS POLICE DEPARTMENT,1106 AMSTERDAM RD.,PARK HILLS,KY,41011,"http://maps.google.com/maps?q=1106 AMSTERDAM RD.,+PARK HILLS,+KY+41011&hl=en"
NORTHERN KENTUCKY DRUG STRIKE FORCE,VILLA HILLS POLICE DEPARTMENT,719 RODGERS RD.,VILLA HILLS,KY,41017,"http://maps.google.com/maps?q=719 RODGERS RD.,+VILLA HILLS,+KY+41017&hl=en"
OLDHAM COUNTY SHERIFF'S OFFICE,LAGRANGE FIRE DEPARTMENT STATION 2,3637 W HWY 146,BUCKNER,KY,40010,"http://maps.google.com/maps?q=3637 W HWY 146,+BUCKNER,+KY+40010&hl=en"
OLDHAM COUNTY SHERIFF'S OFFICE,NORTH OLDHAM FIRE DEPARTMENT,1660 HIGHWAY 1793,GOSHEN,KY,40026,"http://maps.google.com/maps?q=1660 HIGHWAY 1793,+GOSHEN,+KY+40026&hl=en"
OLDHAM COUNTY SHERIFF'S OFFICE,OLDHAM COUNTY POLICE DEPARTMENT,1855 NORTH HIGHWAY 393,LA GRANGE,KY,40031,"http://maps.google.com/maps?q=1855 NORTH HIGHWAY 393,+LA GRANGE,+KY+40031&hl=en"
OLNEY POLICE DEPARTMENT,OLNEY POLICE DEPARTMENT,320 S. WHITTLE AVE,OLNEY,IL,62450,"http://maps.google.com/maps?q=320 S. WHITTLE AVE,+OLNEY,+IL+62450&hl=en"
PADUCAH POLICE DEPARTMENT,KENTUCKY OAKS MALL MAIN ENTRANCE,5101 HINKLEVILLE RD,PADUCAH,KY,42001,"http://maps.google.com/maps?q=5101 HINKLEVILLE RD,+PADUCAH,+KY+42001&hl=en"
PANA POLICE DEPARTMENT,WALGREENS,108 SOUTH POPLAR STREET,PANA,IL,62557,"http://maps.google.com/maps?q=108 SOUTH POPLAR STREET,+PANA,+IL+62557&hl=en"
PERRY COUNTY RECYCLING MANGEMENT DISTIRCT,MEMORIAL HEALTH BRISTOW,26020 IN-145,BRISTOW,IN,47515,"http://maps.google.com/maps?q=26020 IN-145,+BRISTOW,+IN+47515&hl=en"
PERRY COUNTY RECYCLING MANGEMENT DISTIRCT,TELL CITY FIRE STATION,707 MOZART STREET,TELL CITY,IN,47586,"http://maps.google.com/maps?q=707 MOZART STREET,+TELL CITY,+IN+47586&hl=en"
PERRY COUNTY SHERIFF'S OFFICE,PERRY COUNTY SHERIFF'S OFFICE,12 E. WATER STREET,PINCKNEYVILLE,IL,62274,"http://maps.google.com/maps?q=12 E. WATER STREET,+PINCKNEYVILLE,+IL+62274&hl=en"
PREBLE COUNTY SHERIFF'S OFFICE,PREBLE COUNTY SHERIFF'S OFFICE,1139 PREBLE DRIVE,EATON,OH,45320,"http://maps.google.com/maps?q=1139 PREBLE DRIVE,+EATON,+OH+45320&hl=en"
PROSPECT POLICE DEPARTMENT,KROGER,5929 TIMBER RIDGE DR.,PROSPECT,KY,40059,"http://maps.google.com/maps?q=5929 TIMBER RIDGE DR.,+PROSPECT,+KY+40059&hl=en"
PULASKI SHERIFF'S OFFICE,PULASKI SHERIFF'S OFFICE,500 ILLINOIS AVEROOM A,MOUND CITY,IL,62963,"http://maps.google.com/maps?q=500 ILLINOIS AVE,+MOUND CITY,+IL+62963&hl=en"
RED BUD POLICE DEPARTMENT (5 SETS),COULTERVILLE POLICE DEPARTMENT,114 N. 4TH STREET,COULTERVILLE,IL,62237,"http://maps.google.com/maps?q=114 N. 4TH STREET,+COULTERVILLE,+IL+62237&hl=en"
RED BUD POLICE DEPARTMENT (5 SETS),DOEHRINGS PHARMACY,143 S. WASHINGTON,NASHVILLE,IL,62263,"http://maps.google.com/maps?q=143 S.  WASHINGTON,+NASHVILLE,+IL+62263&hl=en"
RED BUD POLICE DEPARTMENT (5 SETS),SPARTA POLICE DEPARTMENT,112 W. JACKSON,SPARTA,IL,62286,"http://maps.google.com/maps?q=112 W. JACKSON,+SPARTA,+IL+62286&hl=en"
RICHMOND POLICE DEPARTMENT,RICHMOND POLICE DEPARTMENT MSUTTON@RICHMONDINDIANA.GOV,50 NORTH 5TH STREET,RICHMOND,IN,47374,"http://maps.google.com/maps?q=50 NORTH 5TH STREET,+RICHMOND,+IN+47374&hl=en"
ROBERTSON COUNTY SHERIFF'S OFFICE,CVS,903 MEMORIAL BLVD.,SPRINGFIELD,TN,37172,"http://maps.google.com/maps?q=903 MEMORIAL BLVD.,+SPRINGFIELD,+TN+37172&hl=en"
ROBINSON POLICE DEPARTMENT,CRAWFORD MEMORIAL HOSPITAL SOUTH DRIVE THRU ENTRANCE,1000 NORTH ALLEN STREET,ROBINSON,IL,62454,"http://maps.google.com/maps?q=1000 NORTH ALLEN STREET,+ROBINSON,+IL+62454&hl=en"
ROSS TWP POLICE DEPARTMNET,ROSS TWP. POLICE DEPARTMENT,4055 HAMILTON CLEVES RD,FAIRFIELD,OH,45014,"http://maps.google.com/maps?q=4055 HAMILTON CLEVES RD,+FAIRFIELD,+OH+45014&hl=en"
RUSH COUNTY SHERIFF DEPARTMENT,RUSH MEMORIAL HOSPITAL 13TH STREET ENTRANCE,1300 N MAIN ST,RUSHVILLE,IN,46173,"http://maps.google.com/maps?q=1300 N MAIN ST,+RUSHVILLE,+IN+46173&hl=en"
RUSSELL COUNTY SHERIFF'S OFFICE,RUSSELL COUNTY SHERIFF'S OFFICE,410 MONUMENT SQUARE #109,JAMESTOWN,KY,42629,"http://maps.google.com/maps?q=410 MONUMENT SQUARE #109,+JAMESTOWN,+KY+42629&hl=en"
SALEM POLICE DEPARTMENT,SALEM POLICE DEPARTMENT,201 S. ROTAN AVE.,SALEM,IL,62881,"http://maps.google.com/maps?q=201 S. ROTAN AVE.,+SALEM,+IL+62881&hl=en"
SALINE COUNTY SHERIFF'S OFFICE,SALINE COUNTY COURTHOUSE PARKING LOT,10 E POPLAR ST,HARRISBURG,IL,62946,"http://maps.google.com/maps?q=10 E POPLAR ST,+HARRISBURG,+IL+62946&hl=en"
SCOTT COUNTY PARTNERSHIP PFS / CEASE OF SCOTT CO.,AUSTIN POLICE DEPARTMENT LOBBY 24/7 CONTROLLED AND NON-CONTROLLED MEDICATION DROP BOX,127 N. HIGHWAY 31,AUSTIN,IN,47102,"http://maps.google.com/maps?q=127 N. HIGHWAY 31,+AUSTIN,+IN+47102&hl=en"
SCOTT COUNTY PARTNERSHIP PFS / CEASE OF SCOTT CO.,SCOTT COUNTY SHERIFF'S DEPARTMENT LOBBY 24/7 CONTROLLED AND NON-CONTROLLED MEDICATION DROP,111 S. FIRST ST.,SCOTTSBURG,IN,47170,"http://maps.google.com/maps?q=111 S. FIRST ST.,+SCOTTSBURG,+IN+47170&hl=en"
SCOTT COUNTY PARTNERSHIP PFS / CEASE OF SCOTT CO.,"SCOTTSBURG WALMART DEA DRUG TAKE BACK: OCTOBER 27, 2018, 10AM-2PM",1618 W. MCCLAIN AVE.,SCOTTSBURG,IN,47170,"http://maps.google.com/maps?q=1618 W. MCCLAIN AVE.,+SCOTTSBURG,+IN+47170&hl=en"
SHELBY COUNTY CORONER OFFICE,SHELBY COUNTY CORONER'S OFFICE,419 WASHINGTON STREET,SHELBYVILLE,KY,40065,"http://maps.google.com/maps?q=419 WASHINGTON STREET,+SHELBYVILLE,+KY+40065&hl=en"
SIKESTON DEPARTMENT OF PUBLIC SAFETY,SIKESTON DEPARTMENT OF PUBLIC SAFETY,201 NORTH KINGSHIGHWAY,SIKESTON,MO,63801,"http://maps.google.com/maps?q=201 NORTH KINGSHIGHWAY,+SIKESTON,+MO+63801&hl=en"
SPENCER POLICE DEPARTMENT,GOSPORT TOWN HALL,13 SOUTH 3RD ST.,GOSPORT,IN,47433,"http://maps.google.com/maps?q=13 SOUTH 3RD ST.,+GOSPORT,+IN+47433&hl=en"
SPENCER POLICE DEPARTMENT,SPENCER POLICE DEPT.,"80 N WEST ST, 80 N. WEST STREET",SPENCER,IN,47460,"http://maps.google.com/maps?q=80 N WEST ST, 80 N. WEST STREET,+SPENCER,+IN+47460&hl=en"
SPRINGFIELD TOWNSHIP POLICE DEPARTMENT,SPRINGFIELD TOWNSHIP POLICE DEPARTMENT,1130 COMPTON ROAD,CINCINNATI,OH,45231,"http://maps.google.com/maps?q=1130 COMPTON ROAD,+CINCINNATI,+OH+45231&hl=en"
SUMNER COUNTY SHERIFF`S OFFICE,BROWNS PHARMACY INSIDE MIKES FOODLAND STORE,1198 NEW HWY 52,WESTMORELAND,TN,37186,"http://maps.google.com/maps?q=1198 NEW HWY 52,+WESTMORELAND,+TN+37186&hl=en"
SUMNER COUNTY SHERIFF`S OFFICE,FREDS PHARMACY,114 WEST KNIGHT ST,PORTLAND,TN,37148,"http://maps.google.com/maps?q=114 WEST KNIGHT ST,+PORTLAND,+TN+37148&hl=en"
SUMNER COUNTY SHERIFF`S OFFICE,WALGREENS,104 HWY 52,PORTLAND,TN,37148,"http://maps.google.com/maps?q=104 HWY 52,+PORTLAND,+TN+37148&hl=en"
TAYLORVILLE POLICE DEPARTMENT,TAYLORVILLE POLICE DEPARTMENT,108 W. VINE STREET,TAYLORVILLE,IL,62568,"http://maps.google.com/maps?q=108 W. VINE STREET,+TAYLORVILLE,+IL+62568&hl=en"
TAYLORVILLE POLICE DEPARTMENT,WALGREENS,315 N. WEBSTER,TAYLORVILLE,IL,62568,"http://maps.google.com/maps?q=315 N. WEBSTER,+TAYLORVILLE,+IL+62568&hl=en"
TRENTON POLICE DEPARTMENT,TRENTON POLICE DEPARTMENT,25 W. INDIANA STREET,TRENTON,IL,62293,"http://maps.google.com/maps?q=25 W. INDIANA STREET,+TRENTON,+IL+62293&hl=en"
TRIGG COUNTY SHERIFF'S OFFICE,TRIGG COUNTY SHERIFF'S OFFICE,134 COMMERCE STREET,CADIZ,KY,42211,"http://maps.google.com/maps?q=134 COMMERCE STREET,+CADIZ,+KY+42211&hl=en"
VANDALIA POLICE DEPARTMENT,VANDALIA POLICE DEPARTMENT,219 SOUTH 5TH STREET,VANDALIA,IL,62471,"http://maps.google.com/maps?q=219 SOUTH 5TH STREET,+VANDALIA,+IL+62471&hl=en"
WABASH COUNTY SHERIFF'S OFFICE,WABASH COUNTY SHERIFF'S OFFICE,120 E. 4TH STREET,MOUNT CARMEL,IL,62863,"http://maps.google.com/maps?q=120 E. 4TH STREET,+MOUNT CARMEL,+IL+62863&hl=en"
WAYNE COUNTY SHERIFF'S OFFICE,WAYNE COUNTY SHERIFF'S OFFICE,305 EAST COURT,FAIRFIELD,IL,62837,"http://maps.google.com/maps?q=305 EAST COURT,+FAIRFIELD,+IL+62837&hl=en"
WEBSTER COUNTY SHERIFF'S OFFICE,WEBSTER COUNTY SHERIFF'S OFFICE,25 US HWY 41 A SOUTH,DIXON,KY,42409,"http://maps.google.com/maps?q=25 US HWY 41 A SOUTH,+DIXON,+KY+42409&hl=en"
WEST CITY POLICE DEPT,WEST CITY POLICE DEPT.,201 S. BROWNING ST,WEST CITY,IL,62812,"http://maps.google.com/maps?q=201 S. BROWNING ST,+WEST CITY,+IL+62812&hl=en"
WHITE HOUSE POLICE DEPARTMENT,KROGERS,510 HWY 76,WHITE HOUSE,TN,37188,"http://maps.google.com/maps?q=510 HWY 76,+WHITE HOUSE,+TN+37188&hl=en"
WILLIAMSON COUNTY SHERIFF'S OFFICE,WILLIAMSON COUNTY ADMINISTRATIVE BUILDING,407 N. MONROE,MARION,IL,62959,"http://maps.google.com/maps?q=407 N. MONROE,+MARION,+IL+62959&hl=en"
WOODFORD COUNTY SHERIFF'S OFFICE,KROGER,KROGER WAY,VERSAILLES,KY,40383,"http://maps.google.com/maps?q=KROGER WAY,+VERSAILLES,+KY+40383&hl=en"
WOODFORD COUNTY SHERIFF'S OFFICE,KROGERS,212 KROGER WAY,VERSAILLES,KY,40383,"http://maps.google.com/maps?q=212 KROGER WAY,+VERSAILLES,+KY+40383&hl=en"
WOODFORD COUNTY SHERIFF'S OFFICE,MIDWAY CITY HALL,101 E MAIN ST,MIDWAY,KY,40347,"http://maps.google.com/maps?q=101 E MAIN ST,+MIDWAY,+KY+40347&hl=en"
WOODFORD COUNTY SHERIFF'S OFFICE,WOODFORD COUNTY SHERIFFS OFFICE SIDE OF COURT HOUSE ON COURT ST.,103 SOUTH MAIN ST,VERSAILLES,KY,40383,"http://maps.google.com/maps?q=103 SOUTH MAIN ST,+VERSAILLES,+KY+40383&hl=en"
