Participant,CollectionSite,Address,City,State,Zip,MapURL
ALBANY COUNTY SHERIFF,ALBANY COUNTY SHERIFF PATROL STATION,58 VERDA AVENUE,CLARKSVILLE,NY,12041,"http://maps.google.com/maps?q=58 VERDA AVENUE,+CLARKSVILLE,+NY+12041&hl=en"
ALBANY COUNTY SHERIFF,RCS COMMUNITY LIBRARY,95 MAIN STREET,RAVENA,NY,12143,"http://maps.google.com/maps?q=95 MAIN STREET,+RAVENA,+NY+12143&hl=en"
ALBANY NY POLICE DEPARTMENT,ALBANY COLLEGE OF PHARMACY CAR PORT (DRIVE UP DROP OFF),106 NEW SCOTLAND AVE.,ALBANY,NY,12208,"http://maps.google.com/maps?q=106 NEW SCOTLAND AVE.,+ALBANY,+NY+12208&hl=en"
ALBANY NY POLICE DEPARTMENT,ALBANY POLICE DEPT. SOUTH STATION,126 ARCH STREET,ALBANY,NY,12202,"http://maps.google.com/maps?q=126 ARCH STREET,+ALBANY,+NY+12202&hl=en"
ALBANY NY POLICE DEPARTMENT,CVS PHARMACY,885 CENTRAL AVE.,ALBANY,NY,12205,"http://maps.google.com/maps?q=885 CENTRAL AVE.,+ALBANY,+NY+12205&hl=en"
ALEXANDRIA POLICE DEPARTMENT,ALEXANDRIA TRANSFER STATION,29 SMITH RIVER RD,BRISTOL,NH,03222,"http://maps.google.com/maps?q=29 SMITH RIVER RD,+BRISTOL,+NH+03222&hl=en"
ALLENSTOWN POLICE DEPARTMENT,ALLENSTOWN POLICE DEPARTMENT DET. SGT. DAWN SHEA,40 ALLENSTOWN ROAD,ALLENSTOWN,NH,03275,"http://maps.google.com/maps?q=40 ALLENSTOWN ROAD,+ALLENSTOWN,+NH+03275&hl=en"
ALSTEAD POLICE DEPARTMENT,ALSTEAD POLICE DEPARTMENT,15 MECHANIC ST,ALSTEAD,NH,03602,"http://maps.google.com/maps?q=15 MECHANIC ST,+ALSTEAD,+NH+03602&hl=en"
AMHERST POLICE DEPARTMENT,AMHERST POLICE DEPARTMENT MAIN LOBBY,175 AMHERST STREET,AMHERST,NH,03031,"http://maps.google.com/maps?q=175 AMHERST STREET,+AMHERST,+NH+03031&hl=en"
AMHERST POLICE DEPARTMENT,WILDWOOD SCHOOL PARKING AREA,71 STRONG STREET,AMHERST,MA,01002,"http://maps.google.com/maps?q=71 STRONG STREET,+AMHERST,+MA+01002&hl=en"
ANDOVER POLICE DEPARTMENT,CIRCLE K,718 MAIN ST,ANDOVER,NH,03216,"http://maps.google.com/maps?q=718 MAIN ST,+ANDOVER,+NH+03216&hl=en"
ASHBY POLICE DEPARTMENT,ASHBY POLICE DEPARTMENT,893 MAIN ST.,ASHBY,MA,01431,"http://maps.google.com/maps?q=893 MAIN ST.,+ASHBY,+MA+01431&hl=en"
ASHLAND POLICE DEPARTMENT,ASHLAND POLICE DEPT.,20 HIGHLAND ST.,ASHLAND,NH,03217,"http://maps.google.com/maps?q=20 HIGHLAND ST.,+ASHLAND,+NH+03217&hl=en"
AUBURN POLICE DEPARTMENT,AUBURN SAFETY COMPLEX LOBBY,55 EATON HILL RD,AUBURN,NH,03032,"http://maps.google.com/maps?q=55 EATON HILL RD,+AUBURN,+NH+03032&hl=en"
BARNSTEAD POLICE DEPARTMENT,BARNSTEAD POLICE DEPARTMENT,119 SOUTH BARNSTEAD ROAD,CENTER BARNSTEAD,NH,03225,"http://maps.google.com/maps?q=119 SOUTH BARNSTEAD ROAD,+CENTER BARNSTEAD,+NH+03225&hl=en"
BARTLETT POLICE DEPARTMENT,BARTLETT POLICE DEPARTMENT BARTLETT TOWN HALL LOBBY,56 TOWN HALL ROAD,INTERVALE,NH,03845,"http://maps.google.com/maps?q=56 TOWN HALL ROAD,+INTERVALE,+NH+03845&hl=en"
BEDFORD POLICE DEPARTMENT,BEDFORD SAFETY COMPLEX,55 CONSTITUTION DR.,BEDFORD,NH,03110,"http://maps.google.com/maps?q=55 CONSTITUTION DR.,+BEDFORD,+NH+03110&hl=en"
BELCHERTOWN POLICE DEPARTMENT,BELCHERTOWN POLICE DEPARTMENT,PARK STREETTOWN COMMON,BELCHERTOWN,MA,01007,"http://maps.google.com/maps?q=PARK STREET,+BELCHERTOWN,+MA+01007&hl=en"
BELMONT POLICE DEPARTMENT,BELMONT NH POLICE DEPARTMENT,16 FULLER STREET,BELMONT,NH,03220,"http://maps.google.com/maps?q=16 FULLER STREET,+BELMONT,+NH+03220&hl=en"
BENNINGTON POLICE DEPARTMENT,BENNINGTON COUNTY SHERIFF'S DEPT FRONT LOBBY,811 US ROUTE 7 SOUTH,BENNINGTON,VT,05201,"http://maps.google.com/maps?q=811 US ROUTE 7 SOUTH,+BENNINGTON,+VT+05201&hl=en"
BENNINGTON POLICE DEPARTMENT,BENNINGTON POLICE DEPARTMENT FRONT LOBBY,118 SOUTH STREET,BENNINGTON,VT,05201,"http://maps.google.com/maps?q=118 SOUTH STREET,+BENNINGTON,+VT+05201&hl=en"
BENNINGTON POLICE DEPARTMENT,MANCHESTER POLICE DEPARTMENT FRONT LOBBY,6041 MAIN STREET,MANCHESTER CENTER,VT,05255,"http://maps.google.com/maps?q=6041 MAIN STREET,+MANCHESTER CENTER,+VT+05255&hl=en"
BENNINGTON POLICE DEPARTMENT,SOUTHWESTERN VERMONT MEDICAL CENTER FRONT LOBBY,100 HOSPITAL DRIVE,BENNINGTON,VT,05201,"http://maps.google.com/maps?q=100 HOSPITAL DRIVE,+BENNINGTON,+VT+05201&hl=en"
BENNINGTON POLICE DEPARTMENT,WINHALL POLICE DEPARTMENT FRONT LOBBY,113 VT ROUTE 30,BONDVILLE,VT,05340,"http://maps.google.com/maps?q=113 VT ROUTE 30,+BONDVILLE,+VT+05340&hl=en"
BERLIN POLICE DEPARTMENT,BERLIN POLICE DEPARTMENT,135 GREEN ST,BERLIN,NH,03570,"http://maps.google.com/maps?q=135 GREEN ST,+BERLIN,+NH+03570&hl=en"
BERLIN POLICE DEPARTMENT,BERLIN POLICE DEPARTMENT,240 KENSINGTON ROAD,BERLIN,CT,06037,"http://maps.google.com/maps?q=240 KENSINGTON ROAD,+BERLIN,+CT+06037&hl=en"
BETHLEHEM POLICE DEPARTMENT,BETHLEHEM POLICCE DEPARTMENT,2155 MAIN ST,BETHLEHEM,NH,03574,"http://maps.google.com/maps?q=2155 MAIN ST,+BETHLEHEM,+NH+03574&hl=en"
BETHLEHEM POLICE DEPARTMENT,ELM AVENUE PARK FRONT PARKING LOT,249 ELM AVENUE,DELMAR,NY,12054,"http://maps.google.com/maps?q=249 ELM AVENUE,+DELMAR,+NY+12054&hl=en"
BOSCAWEN POLICE DEPARTMENT,BOSCAWEN POLICE DEPARTMENT LT. JASON KILLARY,116 NORTH MAIN STREET,BOSCAWEN,NH,03303,"http://maps.google.com/maps?q=116 NORTH MAIN STREET,+BOSCAWEN,+NH+03303&hl=en"
BOW POLICE DEPARTMENT,BOW SAFETY CENTER,7 KNOX RD,BOW,NH,03304,"http://maps.google.com/maps?q=7 KNOX RD,+BOW,+NH+03304&hl=en"
BRADFORD POLICE DEPARTMENT,BRADFORD POLICE DEPARTMENT,2217 STATE ROUTE 114,BRADFORD,NH,03221,"http://maps.google.com/maps?q=2217 STATE ROUTE 114,+BRADFORD,+NH+03221&hl=en"
BRIDGTON POLICE DEPARTMENT,BRIDGTON COMMUNITY CENTER,15 DEPOT STREET,BRIDGTON,ME,04009,"http://maps.google.com/maps?q=15 DEPOT STREET,+BRIDGTON,+ME+04009&hl=en"
BRISTOL POLICE DEPARTMENT,BRISTOL POLICE DEPARTMENT,72 MUNSILL AVENUE,BRISTOL,VT,05443,"http://maps.google.com/maps?q=72 MUNSILL AVENUE,+BRISTOL,+VT+05443&hl=en"
BRISTOL POLICE DEPARTMENT,BRISTOL SENIOR COMMUNITY CENTER HOURS OF COLLECTION 10:00 A.M- 1:00 P.M,240 STAFFORD AVENUE,BRISTOL,CT,06010,"http://maps.google.com/maps?q=240 STAFFORD AVENUE,+BRISTOL,+CT+06010&hl=en"
BROOKLINE POLICE DEPARTMENT,BROOKLINE SAFETY COMPLEX AMBULANCE BAY DRIVE THROUGH,3 POST OFFICE DR,BROOKLINE,NH,03033,"http://maps.google.com/maps?q=3 POST OFFICE DR,+BROOKLINE,+NH+03033&hl=en"
BURLINGTON POLICE DEPARTMENT,BURLINGTON POLICE DEPARTMENT NORTH LOBBY,1 NORTH AVE,BURLINGTON,VT,05401,"http://maps.google.com/maps?q=1 NORTH AVE,+BURLINGTON,+VT+05401&hl=en"
CAIRO POLICE DEPARTMENT,HANNAFORD,223 MAIN STREET,CAIRO,NY,12413,"http://maps.google.com/maps?q=223 MAIN STREET,+CAIRO,+NY+12413&hl=en"
CALEDONIA COUNTY SHERIFF DEPT.,CALEDONIA COUNTY SHERIFF DEPT. DEAN SHATNEY,970 MEMORIAL DRIVE,SAINT JOHNSBURY,VT,05819,"http://maps.google.com/maps?q=970 MEMORIAL DRIVE,+SAINT JOHNSBURY,+VT+05819&hl=en"
CAMPTON POLICE DEPARTMENT,CAMPTON POLICE DEPARTMENT SGT. FOSS,12 GEARTY WAY,CAMPTON,NH,03223,"http://maps.google.com/maps?q=12 GEARTY WAY,+CAMPTON,+NH+03223&hl=en"
CANAAN POLICE DEPARTMENT,CANAAN POLICE DEPARTMENT 10 AM -2 PM,52 ROUTE 118,CANAAN,NH,03741,"http://maps.google.com/maps?q=52 ROUTE 118,+CANAAN,+NH+03741&hl=en"
CANDIA POLICE DEPARTMENT,CANDIA FIRE DEPARTMENT,11 DEERFIELD RD.,CANDIA,NH,03034,"http://maps.google.com/maps?q=11 DEERFIELD RD.,+CANDIA,+NH+03034&hl=en"
CANTERBURY POLICE DEPARTMENT,CANTERBURY POLICE DEPARTMENT CANTERBURY NH TOM BIBEAU,26 BAPTIST RD,CANTERBURY,NH,03224,"http://maps.google.com/maps?q=26 BAPTIST RD,+CANTERBURY,+NH+03224&hl=en"
CARROLL COUNTY SHERIFF'S OFFICE,CARROLL COUNTY ADMINISTRATION BUILDING LOBBY BOX OR PARKING LOT ON 10/27/18 FROM 10 AM - 2 PM,95 WATER VILLAGE ROAD,OSSIPEE,NH,03864,"http://maps.google.com/maps?q=95 WATER VILLAGE ROAD,+OSSIPEE,+NH+03864&hl=en"
CASTLETON POLICE DEPARTMENT,CASTLETON POLICE DEPARTMENT,263 VT ROUTE 30,CASTLETON,VT,05735,"http://maps.google.com/maps?q=263 VT ROUTE 30,+CASTLETON,+VT+05735&hl=en"
CHATHAM POLICE DEPARTMENT,CHATHAM PD,77 MAIN STREET,CHATHAM,NY,12037,"http://maps.google.com/maps?q=77 MAIN STREET,+CHATHAM,+NY+12037&hl=en"
CHESTERFIELD POLICE DEPARTMENT,CHESTERFIELD POLICE DEPARTMENT CHIEF DUANE CHICKERING,490 ROUTE 63PO BOX 231,CHESTERFIELD,NH,03443,"http://maps.google.com/maps?q=490 ROUTE 63,+CHESTERFIELD,+NH+03443&hl=en"
CHITTENDEN COUNTY SHERIFF'S OFFICE,PRICE CHOPPER SUPERMARKET,595 SHELBURNE ROAD,BURLINGTON,VT,05401,"http://maps.google.com/maps?q=595 SHELBURNE ROAD,+BURLINGTON,+VT+05401&hl=en"
CLAREMONT POLICE DEPARTMENT,CVS PARKING LOT DRIVE UP AND DROP OFF SITE,1 WALL STREET,CLAREMONT,NH,03743,"http://maps.google.com/maps?q=1 WALL STREET,+CLAREMONT,+NH+03743&hl=en"
COLCHESTER POLICE DEPARTNEBT,COLCHESTER POLICE DEPARTMENT CHIEF DOUGLAS ALLEN,835 BLAKELY ROAD,COLCHESTER,VT,05446,"http://maps.google.com/maps?q=835 BLAKELY ROAD,+COLCHESTER,+VT+05446&hl=en"
COLEBROOK POLICE DEPARTMENT,COLEBROOK TOWN HALL CHIEF STEPHEN R. CASS,17 BRIDGE STREET,COLEBROOK,NH,03576,"http://maps.google.com/maps?q=17 BRIDGE STREET,+COLEBROOK,+NH+03576&hl=en"
COLONIE POLICE DEPARTMENT,COLONIE POLICE DEPARTMENT COURT RM # 1,312 WOLF ROAD,LATHAM,NY,12110,"http://maps.google.com/maps?q=312 WOLF ROAD,+LATHAM,+NY+12110&hl=en"
COLUMBIA COUNTY SHERIFF'S OFFICE,COLUMBIA COUNTY SHERIFF'S OFFICE,85 INDUSTRIAL TRACT,HUDSON,NY,12534,"http://maps.google.com/maps?q=85 INDUSTRIAL TRACT,+HUDSON,+NY+12534&hl=en"
COLUMBIA COUNTY SHERIFF'S OFFICE,HILLSDALE SUB STATION,2684 STATE ROUTE 23,HILLSDALE,NY,12529,"http://maps.google.com/maps?q=2684 STATE ROUTE 23,+HILLSDALE,+NY+12529&hl=en"
CONCORD POLICE DEPARTMENT,CONCORD POLICE DEPARTMENT DET. MATTHEW LANKHORST,35 GREEN STREET,CONCORD,NH,03301,"http://maps.google.com/maps?q=35 GREEN STREET,+CONCORD,+NH+03301&hl=en"
COXSACKIE POLICE DEPARTMENT,COXSACKIE POLICE DEPARTMENT,119 MANSION STREET,COXSACKIE,NY,12051,"http://maps.google.com/maps?q=119 MANSION STREET,+COXSACKIE,+NY+12051&hl=en"
CT STATE POLICE TROOP C,CT STATE POLICE TROOP C,1320 TOLLAND STAGE RD.,TOLLAND,CT,06084,"http://maps.google.com/maps?q=1320 TOLLAND STAGE RD.,+TOLLAND,+CT+06084&hl=en"
CUMMINGTON POLICE DEPARTMENT,CUMMINGTON POLICE DEPARTMENT CUMMINGTON PUBLIC SAFETY COMPLEX,8 FAIRGROUNDS ROAD,CUMMINGTON,MA,01026,"http://maps.google.com/maps?q=8 FAIRGROUNDS ROAD,+CUMMINGTON,+MA+01026&hl=en"
DEERFIELD POLICE DEPARTMENT,DEERFIELD POLICE DEPARTMENT,8 CONWAY STREET,SOUTH DEERFIELD,MA,01373,"http://maps.google.com/maps?q=8 CONWAY STREET,+SOUTH DEERFIELD,+MA+01373&hl=en"
DOVER POLICE DEPT.,DOVER POLICE DEPARTMENT CHIEF RANDY JOHNSON,246 ROUTE 100,WEST DOVER,VT,05356,"http://maps.google.com/maps?q=246 ROUTE 100,+WEST DOVER,+VT+05356&hl=en"
DUBLIN POLICE DEPARTMENT,DUBLIN POLICE DEPARTMENT CHIEF TIMOTHY J. SUOKKO,1122 MAIN STREET,DUBLIN,NH,03444,"http://maps.google.com/maps?q=1122 MAIN STREET,+DUBLIN,+NH+03444&hl=en"
DUNBARTON POLICE DEPARTMENT,DUNBARTON POLICE DEPARTMENT,18 ROBERT ROGERS ROAD,DUNBARTON,NH,03046,"http://maps.google.com/maps?q=18 ROBERT ROGERS ROAD,+DUNBARTON,+NH+03046&hl=en"
EAST GRANBY RESIDENT TROOPERS OFFICE,EAST GRANBY RESIDENT TROOPER'S OFFICE,7 MEMORIAL DRIVE,EAST GRANBY,CT,06026,"http://maps.google.com/maps?q=7 MEMORIAL DRIVE,+EAST GRANBY,+CT+06026&hl=en"
EAST GREENBUSH POLICE DEPARTMENT,EAST GREENBUSH POLICE DEPARTMENT,225 COLUMBIA TURNPIKE,RENSSELAER,NY,12144,"http://maps.google.com/maps?q=225 COLUMBIA TURNPIKE,+RENSSELAER,+NY+12144&hl=en"
EAST HARTFORD POLICE,EAST HARTFORD PUBLIC SAFETY COMPLEX EAST HARTFORD POLICE HEADQUARTERS,31 SCHOOL STREET,EAST HARTFORD,CT,06108,"http://maps.google.com/maps?q=31 SCHOOL STREET,+EAST HARTFORD,+CT+06108&hl=en"
EASTHAMPTON POLICE DEPARTMENT,EASTHAMPTON PUBLIC SAFETY COMPLEX,32 PAYSON AVENUE,EASTHAMPTON,MA,01027,"http://maps.google.com/maps?q=32 PAYSON AVENUE,+EASTHAMPTON,+MA+01027&hl=en"
ELLINGTON RESIDENT TROOPERS OFFICE,ELLINGTON RESIDENT TROOPERS OFFICE,33 ARBOR WAY,ELLINGTON,CT,06029,"http://maps.google.com/maps?q=33 ARBOR WAY,+ELLINGTON,+CT+06029&hl=en"
ENFIELD POLICE DEPARTMENT,ENFIELD TRANSFER STATION,39 LOCKEHAVEN ROAD,ENFIELD,NH,03748,"http://maps.google.com/maps?q=39 LOCKEHAVEN ROAD,+ENFIELD,+NH+03748&hl=en"
EPSOM POLICE DEPARTMENT,EPSOM POLICE DEPARTMENT WAYNE B PREVE,980 SUNCOOK VALLEY HWY,EPSOM,NH,03234,"http://maps.google.com/maps?q=980 SUNCOOK VALLEY HWY,+EPSOM,+NH+03234&hl=en"
ESSEX COUNTY SHERIFF,ESSEX COUNTY SHERIFF'S OFFICE,702 STOWERSVILLE RD.,LEWIS,NY,12950,"http://maps.google.com/maps?q=702 STOWERSVILLE RD.,+LEWIS,+NY+12950&hl=en"
ESSEX POLICE DEPARTMENT,ESSEX POLICE DEPARTMENT,145 MAPLE STREET,ESSEX JUNCTION,VT,05452,"http://maps.google.com/maps?q=145 MAPLE STREET,+ESSEX JUNCTION,+VT+05452&hl=en"
ESSEX POLICE DEPARTMENT,KINNEY DRUGS PHARMACY,82 PEARL STREET,ESSEX JUNCTION,VT,05452,"http://maps.google.com/maps?q=82 PEARL STREET,+ESSEX JUNCTION,+VT+05452&hl=en"
FAIR HAVEN POLICE DEPARTMENT,FAIR HAVEN POLICE DEPARTMENT BONNIE ROSATI,5 NORTH PARK PLACE,FAIR HAVEN,VT,05743,"http://maps.google.com/maps?q=5 NORTH PARK PLACE,+FAIR HAVEN,+VT+05743&hl=en"
FRANKLIN & TILTON POLICE DEPARTMENT,CVS PHARMACY PARKING LOT,861 CENTRAL STCVS PARKING LOT,FRANKLIN,NH,03235,"http://maps.google.com/maps?q=861 CENTRAL ST,+FRANKLIN,+NH+03235&hl=en"
FRYEBURG POLICE DEPARTMENT,RITE AID PHARMACY OUTSIDE PARKING LOT,119 BRIDGTON ROAD AT 5 FRYEBURG PLAZA,FRYEBURG,ME,04037,"http://maps.google.com/maps?q=119 BRIDGTON ROAD AT 5 FRYEBURG PLAZA,+FRYEBURG,+ME+04037&hl=en"
FULTON COUNTY SHERIFF'S OFFICE,FULTON COUNTY SHERIFF'S OFFICE,2712 STATE HWY 29,JOHNSTOWN,NY,12095,"http://maps.google.com/maps?q=2712 STATE HWY 29,+JOHNSTOWN,+NY+12095&hl=en"
GARDNER POLICE DEPARTMENT,PRICE CHOPPER GROCERY/PHARMACY,560 MAIN ST,GARDNER,MA,01440,"http://maps.google.com/maps?q=560 MAIN ST,+GARDNER,+MA+01440&hl=en"
GILMANTON POLICE DEPARTMENT,GILMANTON POLICE DEPARTMENT,297 NH ROUTE 140,GILMANTON,NH,03237,"http://maps.google.com/maps?q=297 NH ROUTE 140,+GILMANTON,+NH+03237&hl=en"
GLASTONBURY POLICE DEPARTMENT,PARKS AND REC DEPARTMENT,2143 MAIN ST.,GLASTONBURY,CT,06033,"http://maps.google.com/maps?q=2143 MAIN ST.,+GLASTONBURY,+CT+06033&hl=en"
GOFFSTOWN POLICE DEPARTMENT,GOFFSTOWN POLICE DEPARTMENT,326 MAST ROAD,GOFFSTOWN,NH,03045,"http://maps.google.com/maps?q=326 MAST ROAD,+GOFFSTOWN,+NH+03045&hl=en"
GORHAM POLICE DEPARTMENT,GORHAM POLICE DEPARTMENT,20 PARK STREET,GORHAM,NH,03581,"http://maps.google.com/maps?q=20 PARK STREET,+GORHAM,+NH+03581&hl=en"
GOSHEN POLICE DEPARTMENT,GOSHEN POLICE DEPARTMENT,40A MAIN ST,GOSHEN,MA,01032,"http://maps.google.com/maps?q=40A MAIN ST,+GOSHEN,+MA+01032&hl=en"
GRAND ISLE COUNTY SHERIFF'S DEPARTMENT,ALBURGH FIRE DEPARTMENT,60 FIREHOUSE ROAD,ALBURGH,VT,05440,"http://maps.google.com/maps?q=60 FIREHOUSE ROAD,+ALBURGH,+VT+05440&hl=en"
GRAND ISLE COUNTY SHERIFF'S DEPARTMENT,SOUTH HERO RESCUE BUILDING,329 US RT 2,SOUTH HERO,VT,05486,"http://maps.google.com/maps?q=329 US RT 2,+SOUTH HERO,+VT+05486&hl=en"
GRANTHAM POLICE DEPARTMENT,GRANTHAM POLICE DEPARTMENT,300 ROUTE 10 SOUTH,GRANTHAM,NH,03753,"http://maps.google.com/maps?q=300 ROUTE 10 SOUTH,+GRANTHAM,+NH+03753&hl=en"
GREENFIELD POLICE DEPARTMENT,GREENFIELD POLICE DEPARTMENT,321 HIGH STREET,GREENFIELD,MA,01301,"http://maps.google.com/maps?q=321 HIGH STREET,+GREENFIELD,+MA+01301&hl=en"
GROTON POLICE DEPARTMENT,GROTON POLICE DEPARTMENT,99 PLEASANT STREET,GROTON,MA,01450,"http://maps.google.com/maps?q=99 PLEASANT STREET,+GROTON,+MA+01450&hl=en"
GUILDERLAND POLICE DEPARTMENT,PUBLIC LIBRARY AUXILIARY PARKING LOT,2228 WESTERN AVENUE,GUILDERLAND,NY,12084,"http://maps.google.com/maps?q=2228 WESTERN AVENUE,+GUILDERLAND,+NY+12084&hl=en"
HADLEY POLICE DEPARTMENT,HOPKINS ACADEMY HIGH SCHOOL,131 RUSSELL STREET,HADLEY,MA,01035,"http://maps.google.com/maps?q=131 RUSSELL STREET,+HADLEY,+MA+01035&hl=en"
HAMILTON COUNTY SHERIFF'S OFFICE,HAMILTON COUNTY JAIL,102 COUNTY VIEW DRIVE,LAKE PLEASANT,NY,12108,"http://maps.google.com/maps?q=102 COUNTY VIEW DRIVE,+LAKE PLEASANT,+NY+12108&hl=en"
HANOVER POLICE DEPARTMENT,HANOVER POLICE DEPARTMENT,46 LYME RD,HANOVER,NH,03755,"http://maps.google.com/maps?q=46 LYME RD,+HANOVER,+NH+03755&hl=en"
HARTFORD POLICE DEPARTMENT,HARTFORD POLICE DEPARTMENT,253 HIGH STREET,HARTFORD,CT,06103,"http://maps.google.com/maps?q=253 HIGH STREET,+HARTFORD,+CT+06103&hl=en"
HARWINTON RESIDENT TROOPER OFFICE,HARWINTON RESIDENT TROOPERS OFFICE,100 BENTLEY DRIVE,HARWINTON,CT,06791,"http://maps.google.com/maps?q=100 BENTLEY DRIVE,+HARWINTON,+CT+06791&hl=en"
HAVERHILL POLICE DEPARTMENT,HAVERHILL POLICE DEPARTMENT,2975 DARTMOUTH COLLEGE HIGHWAY,NORTH HAVERHILL,NH,03774,"http://maps.google.com/maps?q=2975 DARTMOUTH COLLEGE HIGHWAY,+NORTH HAVERHILL,+NH+03774&hl=en"
HENNIKER POLICE DEPARTMENT,HENNIKER POLICE DEPARTMENT,340 WESTERN AVE,HENNIKER,NH,03242,"http://maps.google.com/maps?q=340 WESTERN AVE,+HENNIKER,+NH+03242&hl=en"
HOLLAND POLICE DEPARTMENT,HOLLAND POLICE DEPARTMENT COMMUNITY ROOM 1ST FLR.,27 STURBRIDGE RD.,HOLLAND,MA,01521,"http://maps.google.com/maps?q=27 STURBRIDGE RD.,+HOLLAND,+MA+01521&hl=en"
HOLLIS POLICE DEPARTMENT,HOLLIS POLICE DEPARTMENT,9 SILVER LAKE ROAD,HOLLIS,NH,03049,"http://maps.google.com/maps?q=9 SILVER LAKE ROAD,+HOLLIS,+NH+03049&hl=en"
HOLYOKE POLICE DEPARTMENT,HOLYOKE PD NARCOTICS/VICE DIVISION,138 APPLETON ST,HOLYOKE,MA,01040,"http://maps.google.com/maps?q=138 APPLETON ST,+HOLYOKE,+MA+01040&hl=en"
HOOKSETT POLICE DEPARTMENT,HOOKSETT POLICE DEPARTMENT LT. JUSTIN SARGENT,15 LEGENDS DRIVE,HOOKSETT,NH,03106,"http://maps.google.com/maps?q=15 LEGENDS DRIVE,+HOOKSETT,+NH+03106&hl=en"
HOOSICK FALLS POLICE DEPARTMENT,HOOSICK FALLS PD STATION,24 MAIN STREET,HOOSICK FALLS,NY,12090,"http://maps.google.com/maps?q=24 MAIN STREET,+HOOSICK FALLS,+NY+12090&hl=en"
HOPKINTON POLICE DEPARTMENT,HOPKINTON POLICE DEPARTMENT,1696 HOPKINTON ROAD,HOPKINTON,NH,03229,"http://maps.google.com/maps?q=1696 HOPKINTON ROAD,+HOPKINTON,+NH+03229&hl=en"
HUDSON POLICE DEPARTMENT,WALMART,254 LOWELL ROAD,HUDSON,NH,03051,"http://maps.google.com/maps?q=254 LOWELL ROAD,+HUDSON,+NH+03051&hl=en"
JACKSON POLICE DEPARTMENT,JACSKON GRAMMAR SCHOOL,10 BLACK MT. RD.,JACKSON,NH,03846,"http://maps.google.com/maps?q=10 BLACK MT. RD.,+JACKSON,+NH+03846&hl=en"
JAFFREY POLICE DEPARTMENT,JAFFREY POLICE DEPARTMENT WILLIAM OSWALT,26 MAIN STREET,JAFFREY,NH,03452,"http://maps.google.com/maps?q=26 MAIN STREET,+JAFFREY,+NH+03452&hl=en"
JOHNSTOWN POLICE DEPARTMENT,JOHNSTOWN POLICE DEPARTMENT CITY HALL,33-41 EAST MAIN STREET,JOHNSTOWN,NY,12095,"http://maps.google.com/maps?q=33-41 EAST MAIN STREET,+JOHNSTOWN,+NY+12095&hl=en"
KEENE POLICE DEPARTMENT,KEENE POLICE DEPARTMENT,400 MARLBORO STREET,KEENE,NH,03431,"http://maps.google.com/maps?q=400 MARLBORO STREET,+KEENE,+NH+03431&hl=en"
LACONIA POLICE DEPARTMENT,LACONIA POLICE DEPARTMENT,126 NEW SALEM ST,LACONIA,NH,03246,"http://maps.google.com/maps?q=126 NEW SALEM ST,+LACONIA,+NH+03246&hl=en"
LAMOILLE COUNTY SHERIFFS DEPT,HARDWICK POLICE DEPT,56 HIGH ST,HARDWICK,VT,05843,"http://maps.google.com/maps?q=56 HIGH ST,+HARDWICK,+VT+05843&hl=en"
LAMOILLE COUNTY SHERIFFS DEPT,KINNEY DRUGS,155 S MAIN ST,CAMBRIDGE,VT,05444,"http://maps.google.com/maps?q=155 S MAIN ST,+CAMBRIDGE,+VT+05444&hl=en"
LAMOILLE COUNTY SHERIFFS DEPT,KINNEY DRUGS,97 MORRISVILLE PLAZA,MORRISVILLE,VT,05661,"http://maps.google.com/maps?q=97 MORRISVILLE PLAZA,+MORRISVILLE,+VT+05661&hl=en"
LAMOILLE COUNTY SHERIFFS DEPT,LAMOILLE COUNTY SHERIFFS DEPT LUCAS MARCOUX,162 COMMONWEALTH AVE,HYDE PARK,VT,05655,"http://maps.google.com/maps?q=162 COMMONWEALTH AVE,+HYDE PARK,+VT+05655&hl=en"
LAMOILLE COUNTY SHERIFFS DEPT,STOWE POLICE DEPARTMENT,350 SOUTH MAIN ST,STOWE,VT,05672,"http://maps.google.com/maps?q=350 SOUTH MAIN ST,+STOWE,+VT+05672&hl=en"
LANCASTER POLICE DEPARTMENT,LANCASTER POLICE DEPARTMENT CHIEF TIM CHARBONNEAU,11 MECHANIC ST,LANCASTER,NH,03584,"http://maps.google.com/maps?q=11 MECHANIC ST,+LANCASTER,+NH+03584&hl=en"
LEBANON POLICE DEPARTMENT,LEBANON PD,36 POVERTY LN,LEBANON,NH,03766,"http://maps.google.com/maps?q=36 POVERTY LN,+LEBANON,+NH+03766&hl=en"
LEBANON POLICE DEPARTMENT,QUAIL HOLLOW,365 N MAIN ST,WEST LEBANON,NH,03784,"http://maps.google.com/maps?q=365 N MAIN ST,+WEST LEBANON,+NH+03784&hl=en"
LEBANON POLICE DEPARTMENT,ROGERS HOUSE,55 N PARK ST,LEBANON,NH,03766,"http://maps.google.com/maps?q=55 N PARK ST,+LEBANON,+NH+03766&hl=en"
LEICESTER POLICE DEPARTMENT,LEICESTER POLICE DEPARTMENT JAMES HURLEY,90 SOUTH MAIN STREET,LEICESTER,MA,01524,"http://maps.google.com/maps?q=90 SOUTH MAIN STREET,+LEICESTER,+MA+01524&hl=en"
LEICESTER POLICE DEPARTMENT,LEICESTER RECYCLING CENTER JAMES HURLEY,200 MANNVILLE STREET,LEICESTER,MA,01524,"http://maps.google.com/maps?q=200 MANNVILLE STREET,+LEICESTER,+MA+01524&hl=en"
LEOMINSTER POLICE DEPARTMENT,LEOMINSTER POLICE DEPARTMENT,29 CHURCH STREET,LEOMINSTER,MA,01453,"http://maps.google.com/maps?q=29 CHURCH STREET,+LEOMINSTER,+MA+01453&hl=en"
LEVERETT POLICE DEPARTMENT,LEVERETT POLICE DEPARTMENT CHIEF SCOTT D. MINCKLER,95 MONTAGUE ROAD,LEVERETT,MA,01054,"http://maps.google.com/maps?q=95 MONTAGUE ROAD,+LEVERETT,+MA+01054&hl=en"
LINCOLN POLICE DEPARTMENT,LINCOLN POLICE DEPARTMENT,148 MAIN ST.,LINCOLN,NH,03251,"http://maps.google.com/maps?q=148 MAIN ST.,+LINCOLN,+NH+03251&hl=en"
LISBON POLICE DEPARTMENT,LISBON POLICE DEPARTMENT,46 SCHOOL ST.,LISBON,NH,03585,"http://maps.google.com/maps?q=46 SCHOOL ST.,+LISBON,+NH+03585&hl=en"
LITTLETON POLICE DEPARTMENT,LITTLETON POLICE DEPARTMENT,2 KITTRIDGE LANE,LITTLETON,NH,03561,"http://maps.google.com/maps?q=2 KITTRIDGE LANE,+LITTLETON,+NH+03561&hl=en"
LONGMEADOW POLICE DEPARTMENT,LONGMEADOW POLICE DEPARTMENT,34 WILLIAMS STREET,LONGMEADOW,MA,01106,"http://maps.google.com/maps?q=34 WILLIAMS STREET,+LONGMEADOW,+MA+01106&hl=en"
LUDLOW POLICE DEPARTMENT,LUDLOW POLICE DEPARTMENT,612 CHAPIN ST,LUDLOW,MA,01056,"http://maps.google.com/maps?q=612 CHAPIN ST,+LUDLOW,+MA+01056&hl=en"
LUNENBURG POLICE DEPARTMENT,LUNENBURG POLICE DEPARTMENT LT. THOMAS L GAMMEL,655 MASS. AVE.,LUNENBURG,MA,01462,"http://maps.google.com/maps?q=655 MASS. AVE.,+LUNENBURG,+MA+01462&hl=en"
MADISON POLICE DEPARTMENT,MADISON POLICE DEPARTMENT LOWER LEVEL OF TOW HALL,1923 VILLAGE ROAD,MADISON,NH,03849,"http://maps.google.com/maps?q=1923 VILLAGE ROAD,+MADISON,+NH+03849&hl=en"
MANCHESTER POLICE DEPARTMENT,CATHOLIC MEDICAL CENTER 195 MCGREGOR ST. PARKING LOT ACROSS FROM MAIN HOSPITAL.,100 MCGREGOR STREET,MANCHESTER,NH,03102,"http://maps.google.com/maps?q=100 MCGREGOR STREET,+MANCHESTER,+NH+03102&hl=en"
MANCHESTER POLICE DEPARTMENT,ELLIOT AT RIVER'S EDGE PHARMACY PARKING LOT,185 QUEEN CITY AVENUE,MANCHESTER,NH,03103,"http://maps.google.com/maps?q=185 QUEEN CITY AVENUE,+MANCHESTER,+NH+03103&hl=en"
MANCHESTER POLICE DEPARTMENT,MANCHESTER POLICE DEPARTMENT,405 VALLEY STREET,MANCHESTER,NH,03103,"http://maps.google.com/maps?q=405 VALLEY STREET,+MANCHESTER,+NH+03103&hl=en"
MASON POLICE DEPARTMENT,MASON POLICE DEPARTMENT,38 DARLING HILL ROAD,MASON,NH,03048,"http://maps.google.com/maps?q=38 DARLING HILL ROAD,+MASON,+NH+03048&hl=en"
MASSENA POLICE DEPARTMENT,KINNEY DRUGS,300 MAIN STREET,MASSENA,NY,13662,"http://maps.google.com/maps?q=300 MAIN STREET,+MASSENA,+NY+13662&hl=en"
MASSENA POLICE DEPARTMENT,MASSENA POLICE DEPARTMENT,60 MAIN STREET,MASSENA,NY,13662,"http://maps.google.com/maps?q=60 MAIN STREET,+MASSENA,+NY+13662&hl=en"
MECHANICVILLE POLICE DEPARTMENT,CVS PHARMACY PARKING LOT,12 SOUTH CENTRAL AVENUE,MECHANICVILLE,NY,12118,"http://maps.google.com/maps?q=12 SOUTH CENTRAL AVENUE,+MECHANICVILLE,+NY+12118&hl=en"
MEREDITH POLICE DEPARTMENT,MEREDITH POLICE DEPARTMNET CHIEF KEVIN MORROW,400 DANIEL WEBSTER HIGHWAY,MEREDITH,NH,03253,"http://maps.google.com/maps?q=400 DANIEL WEBSTER HIGHWAY,+MEREDITH,+NH+03253&hl=en"
MERRIMACK POLICE DEPARTMENT,MERRIMACK POLICE DEPARTMENT FRONT PARKING LOT / DEPARTMENT ENTRANCE,31 BABOOSIC LAKE ROAD,MERRIMACK,NH,03054,"http://maps.google.com/maps?q=31 BABOOSIC LAKE ROAD,+MERRIMACK,+NH+03054&hl=en"
MIDDLEBURY POLICE DEPARTMENT,MIDDLEBURY POLICE DEPARTMENT,1 LUCIUS SHAW LN.,MIDDLEBURY,VT,05753,"http://maps.google.com/maps?q=1 LUCIUS SHAW LN.,+MIDDLEBURY,+VT+05753&hl=en"
MILFORD POLICE DEPARTMENT,MILFORD PD,19 GARDEN STREET,MILFORD,NH,03055,"http://maps.google.com/maps?q=19 GARDEN STREET,+MILFORD,+NH+03055&hl=en"
MILTON POLICE DEPARTMENT,KINNEY DRUGS PHARMACY,3 CENTRE DRIVE,MILTON,VT,05468,"http://maps.google.com/maps?q=3 CENTRE DRIVE,+MILTON,+VT+05468&hl=en"
MILTON POLICE DEPARTMENT,MILTON POLICE DEPARTMENT CHIEF RICHARD KRAUSS,7 TOWNHOUSE RD,MILTON,NH,03851,"http://maps.google.com/maps?q=7 TOWNHOUSE RD,+MILTON,+NH+03851&hl=en"
MONTAGUE PD,MONTAGUE POLICE,180 TURNPIKE ROAD,TURNERS FALLS,MA,01376,"http://maps.google.com/maps?q=180 TURNPIKE ROAD,+TURNERS FALLS,+MA+01376&hl=en"
MOULTONBOROUGH POLICE DEPARTMENT,MOULTONBOROUGH POLICE DEPARTMENT,1035 WHITTIER HWY,MOULTONBOROUGH,NH,03254,"http://maps.google.com/maps?q=1035 WHITTIER HWY,+MOULTONBOROUGH,+NH+03254&hl=en"
NASHUA POLICE DEPARTMENT,NASHUA DEPARTMENT OF PUBLIC WORKS,9 RIVERSIDE ST,NASHUA,NH,03062,"http://maps.google.com/maps?q=9 RIVERSIDE ST,+NASHUA,+NH+03062&hl=en"
NEW BOSTON POLICE DEPARTMENT,NEW BOSTON POLICE DEPARTMENT,116 OLD COACH ROAD,NEW BOSTON,NH,03070,"http://maps.google.com/maps?q=116 OLD COACH ROAD,+NEW BOSTON,+NH+03070&hl=en"
NEW BRITAIN POLICE DEPARTMENT,NEW BRITAIN POLICE DEPARTMENT COMMUNITY ROOM - 1ST FLOOR,10 CHESTNUT STREET,NEW BRITAIN,CT,06051,"http://maps.google.com/maps?q=10 CHESTNUT STREET,+NEW BRITAIN,+CT+06051&hl=en"
NEW HAMPTON POLICE DEPARTMENT,NEW HAMPTON POLICE DEPARTMENT,24 INTERVALE ROAD,NEW HAMPTON,NH,03256,"http://maps.google.com/maps?q=24 INTERVALE ROAD,+NEW HAMPTON,+NH+03256&hl=en"
NEW LONDON POLICE DEPARTMENT,NEW LONDON POLICE DEPARTMENT DETECTIVE ERNEST ROWE,25 SEAMANS ROAD375 MAIN STREET,NEW LONDON,NH,03257,"http://maps.google.com/maps?q=25 SEAMANS ROAD,+NEW LONDON,+NH+03257&hl=en"
NEW YORK STATE POLICE,NEW YORK STATE POLICE CLIFTON PARK,5 MUNICIPAL PLAZASTATE ROUTE 146,CLIFTON PARK,NY,12065,"http://maps.google.com/maps?q=5 MUNICIPAL PLAZA,+CLIFTON PARK,+NY+12065&hl=en"
NEW YORK STATE POLICE,NEW YORK STATE POLICE SCHODACK,1485 STATE ROUTE 9,CASTLETON,NY,12033,"http://maps.google.com/maps?q=1485 STATE ROUTE 9,+CASTLETON,+NY+12033&hl=en"
NORTH GREENBUSH POLICE DEPARTMENT,NORTH GREENBUSH POLICE DEPARTMENT CHIEF ROBERT DURIVAGE,133 BLOOMING GROVE DRIVE,TROY,NY,12180,"http://maps.google.com/maps?q=133 BLOOMING GROVE DRIVE,+TROY,+NY+12180&hl=en"
NORTHAMPTON POLICE DEPARTMENT,JOHN F KENNEDY MIDDLE SCHOOL,100 BRIDGE RD,FLORENCE,MA,01062,"http://maps.google.com/maps?q=100 BRIDGE RD,+FLORENCE,+MA+01062&hl=en"
NORTHUMBERLAND POLICE DEPARTMENT,NORTHUMBERLAND POLICE DEPARTMENT,10 STATION SQUARE,GROVETON,NH,03582,"http://maps.google.com/maps?q=10 STATION SQUARE,+GROVETON,+NH+03582&hl=en"
ORANGE COUNTY SHERIFF OFFICE,KINNEY DRUGS PHARMACY,151 VT RT12,RANDOLPH,VT,05060,"http://maps.google.com/maps?q=151 VT RT12,+RANDOLPH,+VT+05060&hl=en"
ORANGE COUNTY SHERIFF OFFICE,KINNEY DRUGS PHARMACY,910 LOWER PLAIN ROAD,BRADFORD,VT,05033,"http://maps.google.com/maps?q=910 LOWER PLAIN ROAD,+BRADFORD,+VT+05033&hl=en"
ORANGE COUNTY SHERIFF OFFICE,ORANGE COUNTY SHERIFF OFFICE LT SCOTT CLOUATRE,11 VT RT 113,CHELSEA,VT,05038,"http://maps.google.com/maps?q=11 VT RT 113,+CHELSEA,+VT+05038&hl=en"
ORLEANS COUNTY SHERIFF'S DEPARTMENT,KINNEY DRUGS PHARMACY,55 SHATTUCK HILL ROAD,NEWPORT,VT,05855,"http://maps.google.com/maps?q=55 SHATTUCK HILL ROAD,+NEWPORT,+VT+05855&hl=en"
OSSIPEE POLICE DEPARTMENT,TROY POLICE DEPARTMENT,14 CENTRAL SQUARE,TROY,NH,03465,"http://maps.google.com/maps?q=14 CENTRAL SQUARE,+TROY,+NH+03465&hl=en"
OXFORD COUNTY SHERIFF'S OFFICE,OXFORD COUNTY SHERIFF'S OFFICE BETHEL SUB-STATION,18 MAYVILLE ROAD,BETHEL,ME,04217,"http://maps.google.com/maps?q=18 MAYVILLE ROAD,+BETHEL,+ME+04217&hl=en"
OXFORD COUNTY SHERIFF'S OFFICE,SACOPEE VALLEY HEALTH CENTER OPERATED BY OXFORD COUNTY SHERIFF'S OFFICE,70 MAIN STREET,PORTER,ME,04068,"http://maps.google.com/maps?q=70 MAIN STREET,+PORTER,+ME+04068&hl=en"
PD GRANBY CT,GRANBY POLICE DEPARTMENT,15 NORTH GRANBY ROAD,GRANBY,CT,06035,"http://maps.google.com/maps?q=15 NORTH GRANBY ROAD,+GRANBY,+CT+06035&hl=en"
PELHAM POLICE DEPARTMENT,PELHAM POLICE DEPARTMENT,2 SOUTH VALLEY RD,PELHAM,MA,01002,"http://maps.google.com/maps?q=2 SOUTH VALLEY RD,+PELHAM,+MA+01002&hl=en"
PEMBROKE POLICE DEPARTMENT,PEMBROKE POLICE,247 PEMBROKE STREET,PEMBROKE,NH,03275,"http://maps.google.com/maps?q=247 PEMBROKE STREET,+PEMBROKE,+NH+03275&hl=en"
PEPPERELL POLICE DEPARTMENT,PEPPERELL POLICE DEPARTMENT LOBBY KIOSK,59 MAIN STREET,PEPPERELL,MA,01463,"http://maps.google.com/maps?q=59 MAIN STREET,+PEPPERELL,+MA+01463&hl=en"
PETERBOROUGH POLICE DEPARTMENT,PETERBOROUGH POLICE DEPARTMENT,73 GROVE ST,PETERBOROUGH,NH,03458,"http://maps.google.com/maps?q=73 GROVE ST,+PETERBOROUGH,+NH+03458&hl=en"
PITTSFIELD POLICE DEPARTMENT,PITTSFIELD POLICE DEPARTMENT LT. JOHN SOULES,39 ALLEN STREET,PITTSFIELD,MA,01201,"http://maps.google.com/maps?q=39 ALLEN STREET,+PITTSFIELD,+MA+01201&hl=en"
PLAINFIELD POLICE DEPARTMENT,PLAINFIELD POLICE DEPARTMENT,110 MAIN ST,MERIDEN,NH,03770,"http://maps.google.com/maps?q=110 MAIN ST,+MERIDEN,+NH+03770&hl=en"
PLATTSBURGH POLICE DEPARTMENT,KINNEY DRUGS,288 CORNELIA ST,PLATTSBURGH,NY,12901,"http://maps.google.com/maps?q=288 CORNELIA ST,+PLATTSBURGH,+NY+12901&hl=en"
PLATTSBURGH POLICE DEPARTMENT,PLATTSBURGH PD,45 PINE STREET,PLATTSBURGH,NY,12901,"http://maps.google.com/maps?q=45 PINE STREET,+PLATTSBURGH,+NY+12901&hl=en"
PLYMOUTH POLICE DEPARTMENT,PLYMOUTH POLICE DEPARTMENT,334 MAIN STREET,PLYMOUTH,NH,03264,"http://maps.google.com/maps?q=334 MAIN STREET,+PLYMOUTH,+NH+03264&hl=en"
POTSDAM POLICE DEPARTMENT,KINNEY DRUGS,48 MAPLE STREET,POTSDAM,NY,13699,"http://maps.google.com/maps?q=48 MAPLE STREET,+POTSDAM,+NY+13699&hl=en"
RANGELEY POLICE DEPARTMENT,IGA SUPERMARKET OPERATED BY RANGELEY PD,2185 MAIN STREET,RANGELEY,ME,04970,"http://maps.google.com/maps?q=2185 MAIN STREET,+RANGELEY,+ME+04970&hl=en"
RENSSELAER CITY POLICE DEPARTMENT,NORTH END FIRE STATION,2 ST. FRANCIS PLACE,RENSSELAER,NY,12144,"http://maps.google.com/maps?q=2 ST. FRANCIS PLACE,+RENSSELAER,+NY+12144&hl=en"
RENSSELAER COUNTY SHERIFF'S OFFICE,WEST SAND LAKE FIRE DEPARTMENT,3697 NY-43,WEST SAND LAKE,NY,12196,"http://maps.google.com/maps?q=3697 NY-43,+WEST SAND LAKE,+NY+12196&hl=en"
RINDGE POLICE DEPARTMENT,RINDGE POLICE DEPARTMENT DANIEL ANAIR,158 MAIN STPO BOX 7,RINDGE,NH,03461,"http://maps.google.com/maps?q=158 MAIN ST,+RINDGE,+NH+03461&hl=en"
ROCKY HILL POLICE DEPARTMENT,ROCKY HILL POLICE DEPARTMENT STEVE MORGAN,699 OLD MAIN STREET,ROCKY HILL,CT,06067,"http://maps.google.com/maps?q=699 OLD MAIN STREET,+ROCKY HILL,+CT+06067&hl=en"
ROTTERDAM POLICE DEPARTMENT,ROTTERDAM PD,101 PRINCETOWN ROAD,ROTTERDAM,NY,12306,"http://maps.google.com/maps?q=101 PRINCETOWN ROAD,+ROTTERDAM,+NY+12306&hl=en"
RUTLAND COUNTY SHERIFF'S DEPARTMENT,DIAMOND RUN MALL,46 DIAMOND RUN MALL PLACE,RUTLAND,VT,05701,"http://maps.google.com/maps?q=46 DIAMOND RUN MALL PLACE,+RUTLAND,+VT+05701&hl=en"
SANBORNTON POLICE DEPARTMENT,SANBORNTON POLICE DEPARTMENT CHIEF STEPHEN HANKARD,565 SANBORN ROAD,SANBORNTON,NH,03269,"http://maps.google.com/maps?q=565 SANBORN ROAD,+SANBORNTON,+NH+03269&hl=en"
SARATOGA COUNTY SHERIFF OFFICE,CLIFTON PARK-HALFMOON EMERGENCY SQUAD,15 CROSSING BLVD.,CLIFTON PARK,NY,12065,"http://maps.google.com/maps?q=15 CROSSING BLVD.,+CLIFTON PARK,+NY+12065&hl=en"
SARATOGA COUNTY SHERIFF OFFICE,MOREAU EMERGENCY SQUAD,1583 ROUTE 9,FORT EDWARD,NY,12828,"http://maps.google.com/maps?q=1583 ROUTE 9,+FORT EDWARD,+NY+12828&hl=en"
SARATOGA POLICE DEPARTMENT,SARATOGA HOSPITAL MYRTLE STREET PARKING LOT- ER ENTRANCE,211 CHURCH STREET,SARATOGA SPRINGS,NY,12866,"http://maps.google.com/maps?q=211 CHURCH STREET,+SARATOGA SPRINGS,+NY+12866&hl=en"
SARATOGA POLICE DEPARTMENT,SARATOGA POLICE DEPARTMENT MAPLE AVENUE- BEHIND CITY HALL,474 BROADWAY,SARATOGA SPRINGS,NY,12866,"http://maps.google.com/maps?q=474 BROADWAY,+SARATOGA SPRINGS,+NY+12866&hl=en"
SCHENECTADY COUNTY SHERIFF'S OFFICE,SCHENECTADY COUNTY SHERIFF'S SUBSTATION,130 PRINCETOWN PLAZA,SCHENECTADY,NY,12306,"http://maps.google.com/maps?q=130 PRINCETOWN PLAZA,+SCHENECTADY,+NY+12306&hl=en"
SCHENECTADY POLICE DEPARTMENT,SCHENECTADY POLICE DEPARTMENT,531 LIBERTY ST.,SCHENECTADY,NY,12305,"http://maps.google.com/maps?q=531 LIBERTY ST.,+SCHENECTADY,+NY+12305&hl=en"
SCHODACK POLICE DEPARTMENT,POLICE DEPARTMENT,1797 COLUMBIA TURNPIKE,CASTLETON,NY,12033,"http://maps.google.com/maps?q=1797 COLUMBIA TURNPIKE,+CASTLETON,+NY+12033&hl=en"
SCOTIA POLICE DEPARTMENT,SCOTIA POLICE DEPARTMENT,4 NORTH TEN BROECK STREET,SCOTIA,NY,12302,"http://maps.google.com/maps?q=4 NORTH TEN BROECK STREET,+SCOTIA,+NY+12302&hl=en"
SHELBURNE POLICE DEPARTMENT,SHELBURNE POLICE DEPARTMENT,5420 SHELBURNE ROAD,SHELBURNE,VT,05482,"http://maps.google.com/maps?q=5420 SHELBURNE ROAD,+SHELBURNE,+VT+05482&hl=en"
SHERMAN RESIDENT TROOPER OFFICE,SHERMAN RESIDENT TROOPERS OFFICE,1 RT 39 N,SHERMAN,CT,06784,"http://maps.google.com/maps?q=1 RT 39 N,+SHERMAN,+CT+06784&hl=en"
SOUTH BURLINGTON POLICE DEPARTMENT,UNIVERSITY MALL,155 DORSET STREET,SOUTH BURLINGTON,VT,05403,"http://maps.google.com/maps?q=155 DORSET STREET,+SOUTH BURLINGTON,+VT+05403&hl=en"
SOUTH WINDSOR POLICE DEPARTMENT,SOUTH WINDSOR POLICE DEPARTMENT,151 SAND HILL RD,SOUTH WINDSOR,CT,06074,"http://maps.google.com/maps?q=151 SAND HILL RD,+SOUTH WINDSOR,+CT+06074&hl=en"
SOUTHAMPTON POLICE DEPARTMENT,SOUTHAMPTON FIRE/TOWN HALL PARKING LOT IF RAIN-INSIDE TOWN HALL,210 COLLEGE HIGHWAY,SOUTHAMPTON,MA,01073,"http://maps.google.com/maps?q=210 COLLEGE HIGHWAY,+SOUTHAMPTON,+MA+01073&hl=en"
SOUTHBURY POLICE,"SOUTHBURY POLICE DEPARTMENT SGT. BRIAN VAN NESS, #138",421 MAIN STREET SOUTH,SOUTHBURY,CT,06488,"http://maps.google.com/maps?q=421 MAIN STREET SOUTH,+SOUTHBURY,+CT+06488&hl=en"
SPENCER POLICE DEPARTMENT,CVS PHARMACY SGT MICHAEL BEFFORD,133 MAIN STREET,SPENCER,MA,01562,"http://maps.google.com/maps?q=133 MAIN STREET,+SPENCER,+MA+01562&hl=en"
SPRINGFIELD POLICE DEPARTMENT,CENTRAL HIGH SCHOOL,1840 ROOSEVELT AVE,SPRINGFIELD,MA,01109,"http://maps.google.com/maps?q=1840 ROOSEVELT AVE,+SPRINGFIELD,+MA+01109&hl=en"
ST. JOHNSBURY POLICE DEPARTMENT,ST. JOHNSBURY POLICE DEPARTMENT,1187 MAIN STREETSUITE 1,SAINT JOHNSBURY,VT,05819,"http://maps.google.com/maps?q=1187 MAIN STREET,+SAINT JOHNSBURY,+VT+05819&hl=en"
ST. JOHNSVILLE POLICE DEPARTMENT,KINNEY'S DRUGS,12 PARK PLACE,SAINT JOHNSVILLE,NY,13452,"http://maps.google.com/maps?q=12 PARK PLACE,+SAINT JOHNSVILLE,+NY+13452&hl=en"
ST. LAWRENCE COUNTY SHERIFF'S OFFICE,ST. LAWRENCE COUNTY SHERIFF'S OFFICE,48 COURT STREET,CANTON,NY,13617,"http://maps.google.com/maps?q=48 COURT STREET,+CANTON,+NY+13617&hl=en"
STATE POLICE TROOP L,TROOP L RESIDENT TROOPERS OFFICE,452 BANTAM RD,LITCHFIELD,CT,06759,"http://maps.google.com/maps?q=452 BANTAM RD,+LITCHFIELD,+CT+06759&hl=en"
SULLIVAN COUNTY SHERIFF'S OFFICE,SULLIVAN COUNTY MUNICIPAL COMPLEX SHERIFF JOHN SIMONDS,14 MAIN STREET,NEWPORT,NH,03773,"http://maps.google.com/maps?q=14 MAIN STREET,+NEWPORT,+NH+03773&hl=en"
SUNAPEE POLICE DEPARTMENT,SUNAPEE POLICE DEPARTMENT,9 SARGENT ROAD,SUNAPEE,NH,03782,"http://maps.google.com/maps?q=9 SARGENT ROAD,+SUNAPEE,+NH+03782&hl=en"
SUNDERLAND POLICE DEPARTMENT,SUNDERLAND POLICE DEPARTMENT,105 RIVER ROAD,SUNDERLAND,MA,01375,"http://maps.google.com/maps?q=105 RIVER ROAD,+SUNDERLAND,+MA+01375&hl=en"
SWANTON VILLAGE POLICE,SWANTON REXALL DRUGS,44 MERCHANTS ROW,SWANTON,VT,05488,"http://maps.google.com/maps?q=44 MERCHANTS ROW,+SWANTON,+VT+05488&hl=en"
THOMASTON POLICE DEPARTMENT,THOMASTON POLICE DEPARTMENT,158 MAIN ST,THOMASTON,CT,06787,"http://maps.google.com/maps?q=158 MAIN ST,+THOMASTON,+CT+06787&hl=en"
THORNTON POLICE DEPARTMENT,THORNTON POLICE DEPARTMENT KEN MILLER,16 MERRILL ACCESS ROAD,THORNTON,NH,03285,"http://maps.google.com/maps?q=16 MERRILL ACCESS ROAD,+THORNTON,+NH+03285&hl=en"
TICONDERGOA POLICE DEPARTMENT,TICONDEROGA POLICE DEPARTMENT,135 BURGOYNE ROAD,TICONDEROGA,NY,12883,"http://maps.google.com/maps?q=135 BURGOYNE ROAD,+TICONDEROGA,+NY+12883&hl=en"
TOWN OF NISKAYUNA POLICE DEPARTMENT,NISKAYUNA TOWN HALL,1 NISKAYUNA CIRCLE,NISKAYUNA,NY,12309,"http://maps.google.com/maps?q=1 NISKAYUNA CIRCLE,+NISKAYUNA,+NY+12309&hl=en"
"TOWN OF SOUTH HADLEY, POLICE DEPARTMENT","TOWN OF SOUTH HADLEY, POLICE DEPARTMENT CHIEF STEVE PARENTELA",41 BRIDGE STREET,SOUTH HADLEY,MA,01075,"http://maps.google.com/maps?q=41 BRIDGE STREET,+SOUTH HADLEY,+MA+01075&hl=en"
TOWNSEND MA POLICE,TOWNSEND POLICE DEPARTMENT,70 BROOKLINE STREET,TOWNSEND,MA,01469,"http://maps.google.com/maps?q=70 BROOKLINE STREET,+TOWNSEND,+MA+01469&hl=en"
TROOP B,TROOP-B,463 ASHLEY FALLS RD,NORTH CANAAN,CT,06018,"http://maps.google.com/maps?q=463 ASHLEY FALLS RD,+NORTH CANAAN,+CT+06018&hl=en"
TROY POLICE DEPARTMENT,OSSIPEE POLICE DEPARTMENT,7 DORE ST,CENTER OSSIPEE,NH,03814,"http://maps.google.com/maps?q=7 DORE ST,+CENTER OSSIPEE,+NH+03814&hl=en"
TROY POLICE DEPARTMENT,TROY POLICE DEPARTMENT,55 STATE STREET,TROY,NY,12180,"http://maps.google.com/maps?q=55 STATE STREET,+TROY,+NY+12180&hl=en"
TUFTONBORO POLICE DEPARTMENT,TUFTONBORO TRANSFER STATION,20 SARGENT'S CROSSING,CENTER TUFTONBORO,NH,03816,"http://maps.google.com/maps?q=20 SARGENT'S CROSSING,+CENTER TUFTONBORO,+NH+03816&hl=en"
UNIVERSITY OF VERMONT POLICE,UNIVERSITY OF VERMONT POLICE DUDLEY DAVIS CENTER FIRST FLOOR ATRIUM,284 EAST AVENUE,BURLINGTON,VT,05405,"http://maps.google.com/maps?q=284 EAST AVENUE,+BURLINGTON,+VT+05405&hl=en"
VERMONT STATE POLICE,VERMONT STATE POLICE - NEW HAVEN BARRACKS,2490 ETHAN ALLEN HIGHWAY,NEW HAVEN,VT,05472,"http://maps.google.com/maps?q=2490 ETHAN ALLEN HIGHWAY,+NEW HAVEN,+VT+05472&hl=en"
VERMONT STATE POLICE,VERMONT STATE POLICE - RUTLAND BARRACKS,124 STATE PLACE,RUTLAND,VT,05701,"http://maps.google.com/maps?q=124 STATE PLACE,+RUTLAND,+VT+05701&hl=en"
VERMONT STATE POLICE,VERMONT STATE POLICE - SHAFTSBURY BARRACKS,96 AIRPORT ROAD,SHAFTSBURY,VT,05262,"http://maps.google.com/maps?q=96 AIRPORT ROAD,+SHAFTSBURY,+VT+05262&hl=en"
VERMONT STATE POLICE,VERMONT STATE POLICE - ST. ALBANS BARRACKS,140 FISHER POND ROAD,SAINT ALBANS,VT,05478,"http://maps.google.com/maps?q=140 FISHER POND ROAD,+SAINT ALBANS,+VT+05478&hl=en"
VERMONT STATE POLICE,VERMONT STATE POLICE - WESTMINSTER BARRACKS,1330 WESTMINSTER HIGHTS ROAD,PUTNEY,VT,05346,"http://maps.google.com/maps?q=1330 WESTMINSTER HIGHTS ROAD,+PUTNEY,+VT+05346&hl=en"
VERMONT STATE POLICE - WILLISTON BARRACKS,VERMONT STATE POLICE - WILLISTON BARRACKS,2777 ST. GEORGE ROAD,WILLISTON,VT,05495,"http://maps.google.com/maps?q=2777 ST. GEORGE ROAD,+WILLISTON,+VT+05495&hl=en"
VERNON POLICE DEPARTMENT,WALGREENS,188 UNION ST,VERNON ROCKVILLE,CT,06066,"http://maps.google.com/maps?q=188 UNION ST,+VERNON ROCKVILLE,+CT+06066&hl=en"
VILLAGE OF MALONE POLICE DEPARTMENT,KINNEY DRUGS,485 E MAIN STREET,MALONE,NY,12953,"http://maps.google.com/maps?q=485 E MAIN STREET,+MALONE,+NY+12953&hl=en"
WAKEFIELD POLICE DEPARTMENT,WAKEFIELD NH PUBLIC SAFETY BUILDING WAKEFIELD NH PD,2017 WAKEFIELD ROAD,SANBORNVILLE,NH,03872,"http://maps.google.com/maps?q=2017 WAKEFIELD ROAD,+SANBORNVILLE,+NH+03872&hl=en"
WARREN COUNTY SHERIFF'S OFFICE,WARREN COUNTY SHERIFF'S OFFICE,1400 STATE ROUTE 9,LAKE GEORGE,NY,12845,"http://maps.google.com/maps?q=1400 STATE ROUTE 9,+LAKE GEORGE,+NY+12845&hl=en"
WASHINGTON COUNTY SHERIFF'S DEPARTMENT,BARRE CITY POLICE DEPARTMENT,15 FOURTH STREET,BARRE,VT,05641,"http://maps.google.com/maps?q=15 FOURTH STREET,+BARRE,+VT+05641&hl=en"
WASHINGTON COUNTY SHERIFF'S DEPARTMENT,MONTPELIER POLICE DEPARTMENT,1 PITKIN COURT,MONTPELIER,VT,05602,"http://maps.google.com/maps?q=1 PITKIN COURT,+MONTPELIER,+VT+05602&hl=en"
WASHINGTON COUNTY SHERIFF'S DEPARTMENT,NORTHFIELD POLICE DEPARTMENT,110 WALL STREET,NORTHFIELD,VT,05663,"http://maps.google.com/maps?q=110 WALL STREET,+NORTHFIELD,+VT+05663&hl=en"
WASHINGTON COUNTY SHERIFF'S DEPARTMENT,VERMONT STATE POLICE - MIDDLESEX BARRACKS,1080 US ROUTE 2,MIDDLESEX,VT,05602,"http://maps.google.com/maps?q=1080 US ROUTE 2,+MIDDLESEX,+VT+05602&hl=en"
WASHINGTON COUNTY SHERIFF'S DEPARTMENT,WASHINGTON COUNTY SHERIFF'S DEPARTMENT,10 ELM STREET,MONTPELIER,VT,05602,"http://maps.google.com/maps?q=10 ELM STREET,+MONTPELIER,+VT+05602&hl=en"
WASHINGTON POLICE DEPARTMENT,WASHINGTON POLICE DEPARTMENT,5 HALFMOON POND RD.,WASHINGTON,NH,03280,"http://maps.google.com/maps?q=5 HALFMOON POND RD.,+WASHINGTON,+NH+03280&hl=en"
WATERBURY POLICE DEPARTMENT,WATERBURY POLICE DEPARTMENT FRONT LOBBY SAFE DISPOSAL,255 EAST MAIN ST,WATERBURY,CT,06702,"http://maps.google.com/maps?q=255 EAST MAIN ST,+WATERBURY,+CT+06702&hl=en"
WATERVILLE VALLEY POLICE DEPARTMENT,WATERVILLE VALLEY DEPARTMENT OF PUBLIC SAFETY RUST MUNICIPAL BUILDING,14 TAC LANE,WATERVILLE VALLEY,NH,03215,"http://maps.google.com/maps?q=14 TAC LANE,+WATERVILLE VALLEY,+NH+03215&hl=en"
WATERVLIET POLICE DEPARTMENT,WATERVLIET POLICE DEPARTMENT,2-15TH STREET,WATERVLIET,NY,12189,"http://maps.google.com/maps?q=2-15TH STREET,+WATERVLIET,+NY+12189&hl=en"
WEBSTER POLICE DEPARTMENT,WEBSTER POLICE DEPARTMENT,851 BATTLE STREET,WEBSTER,NH,03303,"http://maps.google.com/maps?q=851 BATTLE STREET,+WEBSTER,+NH+03303&hl=en"
WEST HARTFORD POLICE DEPARTMENT,WETS HARTFORD PUBLIC WORKS LT SAM FERRUCCI,17 BRIXTON ST,WEST HARTFORD,CT,06107,"http://maps.google.com/maps?q=17 BRIXTON ST,+WEST HARTFORD,+CT+06107&hl=en"
WEST SPRINGFIELD POLICE DEPARTMENT,WEST SPRINGFIELD POLICE DEPARTMENT,26 CENTRAL STREET,WEST SPRINGFIELD,MA,01089,"http://maps.google.com/maps?q=26 CENTRAL STREET,+WEST SPRINGFIELD,+MA+01089&hl=en"
WESTMINSTER POLICE DEPARTMENT,WESTMINSTER POLICE DEPARTMENT,7 SOUTH STREET,WESTMINSTER,MA,01473,"http://maps.google.com/maps?q=7 SOUTH STREET,+WESTMINSTER,+MA+01473&hl=en"
WETHERSFIELD POLICE DEPARTMENT,WETHERSFIELD POLICE DEPARTMENT,250 SILAS DEANE HWY.,WETHERSFIELD,CT,06109,"http://maps.google.com/maps?q=250 SILAS DEANE HWY.,+WETHERSFIELD,+CT+06109&hl=en"
WILLIAMSBURG POLICE DEPT.,WILLIAMSBURG PHARMACY,49 MAIN ST,WILLIAMSBURG,MA,01096,"http://maps.google.com/maps?q=49 MAIN ST,+WILLIAMSBURG,+MA+01096&hl=en"
WILTON POLICE DEPARTMENT,WILTON NH POLICE DEPARTMENT CHIEF ERIC L. OLESEN,"7 BURNS HILL ROAD, P.O. BOX 183",WILTON,NH,03086,"http://maps.google.com/maps?q=7 BURNS HILL ROAD, P.O. BOX 183,+WILTON,+NH+03086&hl=en"
WINCHESTER POLICE DEPARTMENT,WINCHESTER POLICE DEPARTMENT LT. MIKE T. TOLLETT,6 PARKER STREET,WINCHESTER,NH,03470,"http://maps.google.com/maps?q=6 PARKER STREET,+WINCHESTER,+NH+03470&hl=en"
WINDHAM COUNTY SHERIFF'S OFFICE,BELLOWS FALLS POLICE DEPARTMENT,170 ROCKINGHAM STRREET,BELLOWS FALLS,VT,05101,"http://maps.google.com/maps?q=170 ROCKINGHAM STRREET,+BELLOWS FALLS,+VT+05101&hl=en"
WINDHAM COUNTY SHERIFF'S OFFICE,BRATTLEBORO POLICE DEPARTMENT,62 BLACK MOUNTAIN ROAD,BRATTLEBORO,VT,05301,"http://maps.google.com/maps?q=62 BLACK MOUNTAIN ROAD,+BRATTLEBORO,+VT+05301&hl=en"
WINDHAM COUNTY SHERIFF'S OFFICE,WILMINGTON POLICE DEPARTMENT,2 EAST MAIN STREET,WILMINGTON,VT,05363,"http://maps.google.com/maps?q=2 EAST MAIN STREET,+WILMINGTON,+VT+05363&hl=en"
WINDHAM COUNTY SHERIFF'S OFFICE,WINDHAM COUNTY SHERIFF'S OFFICE,11 JAIL STREET,NEWFANE,VT,05345,"http://maps.google.com/maps?q=11 JAIL STREET,+NEWFANE,+VT+05345&hl=en"
WINDSOR COUNTY SHERIFF'S DEPARTMENT,CHESTER POLICE DEPARTMENT,556 ELM STREET,CHESTER,VT,05143,"http://maps.google.com/maps?q=556 ELM STREET,+CHESTER,+VT+05143&hl=en"
WINDSOR COUNTY SHERIFF'S DEPARTMENT,HARTFORD POLICE DEPARTMENT,812 VA CUTOFF ROAD,WHITE RIVER JUNCTION,VT,05001,"http://maps.google.com/maps?q=812 VA CUTOFF ROAD,+WHITE RIVER JUNCTION,+VT+05001&hl=en"
WINDSOR COUNTY SHERIFF'S DEPARTMENT,LUDLOW POLICE DEPARTMENT,19 WEST HILL ROAD,LUDLOW,VT,05149,"http://maps.google.com/maps?q=19 WEST HILL ROAD,+LUDLOW,+VT+05149&hl=en"
WINDSOR COUNTY SHERIFF'S DEPARTMENT,NORWICH POLICE DEPARTMENT,10 HAZEN STREET,NORWICH,VT,05055,"http://maps.google.com/maps?q=10 HAZEN STREET,+NORWICH,+VT+05055&hl=en"
WINDSOR COUNTY SHERIFF'S DEPARTMENT,ROYALTON POLICE DEPARTMENT,2460 VT RT 14,SOUTH ROYALTON,VT,05068,"http://maps.google.com/maps?q=2460 VT RT 14,+SOUTH ROYALTON,+VT+05068&hl=en"
WINDSOR COUNTY SHERIFF'S DEPARTMENT,SPRINGFIELD POLICE DEPARTMENT,201 CLINTON STREET,SPRINGFIELD,VT,05156,"http://maps.google.com/maps?q=201 CLINTON STREET,+SPRINGFIELD,+VT+05156&hl=en"
WINDSOR COUNTY SHERIFF'S DEPARTMENT,VERMONT STATE POLICE - ROYALTON BARRACKS,2011 VT RT 107,SOUTH ROYALTON,VT,05068,"http://maps.google.com/maps?q=2011 VT RT 107,+SOUTH ROYALTON,+VT+05068&hl=en"
WINDSOR COUNTY SHERIFF'S DEPARTMENT,WEATHERSFIELD TRANSFER STATION WEATHERSFIELD POLICE DEPARTMENT,5024 VT RT 106,PERKINSVILLE,VT,05151,"http://maps.google.com/maps?q=5024 VT RT 106,+PERKINSVILLE,+VT+05151&hl=en"
WINDSOR COUNTY SHERIFF'S DEPARTMENT,WINDSOR POLICE DEPARTMENT,29 UNION STREET,WINDSOR,VT,05089,"http://maps.google.com/maps?q=29 UNION STREET,+WINDSOR,+VT+05089&hl=en"
WINDSOR COUNTY SHERIFF'S DEPARTMENT,WOODSTOCK POLICE DEPARTMENT,454 WOODSTOCK ROAD,WOODSTOCK,VT,05091,"http://maps.google.com/maps?q=454 WOODSTOCK ROAD,+WOODSTOCK,+VT+05091&hl=en"
WINHALL POLICE & RESCUE DEPT,WINHALL POLICE & RESCUE,113 VERMONT ROUTE 30,BONDVILLE,VT,05340,"http://maps.google.com/maps?q=113 VERMONT ROUTE 30,+BONDVILLE,+VT+05340&hl=en"
WOLCOTT CT. POLICE DEPT.,WOLCOTT POLICE DEPT.,225 NICHOLS RD,WOLCOTT,CT,06716,"http://maps.google.com/maps?q=225 NICHOLS RD,+WOLCOTT,+CT+06716&hl=en"
WOODBURY RESIDENT TROOPERS OFFICE,WOODBURY RESIDENT TROOPER'S OFFICE,281 MAIN STREET SOUTH,WOODBURY,CT,06798,"http://maps.google.com/maps?q=281 MAIN STREET SOUTH,+WOODBURY,+CT+06798&hl=en"
WORTHINGTON POLICE DEPARTMENT,COMPACTOR,64 HUNTINGTON ROAD,WORTHINGTON,MA,01098,"http://maps.google.com/maps?q=64 HUNTINGTON ROAD,+WORTHINGTON,+MA+01098&hl=en"
YORK COUNTY SHERIFF'S OFFICE,GOODWIN MILLS FIRE STATION OPERATED BY YORK COUNTY SHERIFF'S OFFICE,481 GOODWIN'S MILL ROAD,LYMAN,ME,04002,"http://maps.google.com/maps?q=481 GOODWIN'S MILL ROAD,+LYMAN,+ME+04002&hl=en"
YORK COUNTY SHERIFF'S OFFICE,HANNAFORD SUPERMARKET OPERATED BY YORK COUNTY SHERIFF'S OFFICE,20 SOKOKIS TRAIL,WATERBORO,ME,04087,"http://maps.google.com/maps?q=20 SOKOKIS TRAIL,+WATERBORO,+ME+04087&hl=en"
YORK COUNTY SHERIFF'S OFFICE,RITE AID DRUG STORE OPERATED BY YORK COUNTY SHERIFF'S OFFICE,151 MAPLE STREET,CORNISH,ME,04020,"http://maps.google.com/maps?q=151 MAPLE STREET,+CORNISH,+ME+04020&hl=en"
