Participant,CollectionSite,Address,City,State,Zip,MapURL
AMBERLEY VILLAGE,AMBERLEY VILLAGE FIRE DEPARTMENT,7149 RIDGE ROAD,CINCINNATI,OH,45237,"http://maps.google.com/maps?q=7149 RIDGE ROAD,+CINCINNATI,+OH+45237&hl=en"
ASHLAND KY POLICE,ASHLAND KY POLICE,201 17TH STREET,ASHLAND,KY,41101,"http://maps.google.com/maps?q=201 17TH STREET,+ASHLAND,+KY+41101&hl=en"
ATHENS POLICE DEPARTMENT,ATHENS ELKS LODGE PARKING LOT,600 WEST UNION STREET,ATHENS,OH,45701,"http://maps.google.com/maps?q=600 WEST UNION STREET,+ATHENS,+OH+45701&hl=en"
BARBERTON POLICE DEPARTMENT,THE OLD FIRST MERIT BUILDING,480 WEST TUSCAWARAS,BARBERTON,OH,44203,"http://maps.google.com/maps?q=480 WEST TUSCAWARAS,+BARBERTON,+OH+44203&hl=en"
BELLEFONTAINE POLICE DEPARTMENT,MARY RUTAN HOSPITAL (OUTSIDE MAIN ENTRANCE),205 PALMER AVE.,BELLEFONTAINE,OH,43311,"http://maps.google.com/maps?q=205 PALMER AVE.,+BELLEFONTAINE,+OH+43311&hl=en"
BELLEVUE POLICE DEPARTMENT,BELLEVUE POLICE DEPARTMENT,3000 SENECA INDUSTRIAL PKWY,BELLEVUE,OH,44811,"http://maps.google.com/maps?q=3000 SENECA INDUSTRIAL PKWY,+BELLEVUE,+OH+44811&hl=en"
BELMONT COUNTY SHERIFF'S OFFICE,OHIO STATE PATROL- ST. CLAIRSVILLE,51400 NATIONAL ROAD,SAINT CLAIRSVILLE,OH,43950,"http://maps.google.com/maps?q=51400 NATIONAL ROAD,+SAINT CLAIRSVILLE,+OH+43950&hl=en"
BELMONT COUNTY SHERIFF'S OFFICE,RIESBECK'S FOOD STORE,104 PLAZA DRIVE,SAINT CLAIRSVILLE,OH,43950,"http://maps.google.com/maps?q=104 PLAZA DRIVE,+SAINT CLAIRSVILLE,+OH+43950&hl=en"
BELMONT COUNTY SHERIFF'S OFFICE,RIESBECK'S FOOD STORE,4595 CENTRAL AVENUE,SHADYSIDE,OH,43947,"http://maps.google.com/maps?q=4595 CENTRAL AVENUE,+SHADYSIDE,+OH+43947&hl=en"
BEXLEY POLICE DEPARTMENT,BEXLEY POLICE DEPARTMENT DAWN OVERLY,559 NORTH CASSINGHAM ROADBEXLEY,COLUMBUS,OH,43209,"http://maps.google.com/maps?q=559 NORTH CASSINGHAM ROAD,+COLUMBUS,+OH+43209&hl=en"
BLUE ASH POLICE DEPARTMENT,BLUE ASH MUNICIPAL AND SAFETY CENTER FRONT PARKING LOT,4343 COOPER RD,BLUE ASH,OH,45242,"http://maps.google.com/maps?q=4343 COOPER RD,+BLUE ASH,+OH+45242&hl=en"
BOWLING GREEN POLICE DIVISION,BOWLING GREEN POLICE DIVISION,175 W. WOOSTER,BOWLING GREEN,OH,43402,"http://maps.google.com/maps?q=175 W. WOOSTER,+BOWLING GREEN,+OH+43402&hl=en"
BROWN COUNTY SHERIFF OFFICE,BROWN COUNTY SHERIFFS OFFICE PARKING LOT,750 MOUNT ORAB PIKE,GEORGETOWN,OH,45121,"http://maps.google.com/maps?q=750 MOUNT ORAB PIKE,+GEORGETOWN,+OH+45121&hl=en"
BROWN COUNTY SHERIFF OFFICE,ORSCHELN FARM & HOME PARKING LOT,206 STERLING RUN BLVD,MOUNT ORAB,OH,45154,"http://maps.google.com/maps?q=206 STERLING RUN BLVD,+MOUNT ORAB,+OH+45154&hl=en"
BUTLER COUNTY SHERIFF'S OFFICE,KROGER MARKETPLACE,7300 YANKEE RD,MIDDLETOWN,OH,45044,"http://maps.google.com/maps?q=7300 YANKEE RD,+MIDDLETOWN,+OH+45044&hl=en"
BUTLER COUNTY SHERIFF'S OFFICE,LIBERTY TWP. PRINCETON GLENDALE FIRE STATION,6682 PRINCETON-GLENDALE RD.,HAMILTON,OH,45011,"http://maps.google.com/maps?q=6682 PRINCETON-GLENDALE RD.,+HAMILTON,+OH+45011&hl=en"
BUTLER TOWNSHIP POLICE DEPARTMENT,BUTLER TOWNSHIP POLICE DEPARTMENT MAIN LOBBY,3510 SUDACHI DR,DAYTON,OH,45414,"http://maps.google.com/maps?q=3510 SUDACHI DR,+DAYTON,+OH+45414&hl=en"
CABELL COUNTY SHERIFF,DRUG EMPORIUM,3 MALL ROAD,BARBOURSVILLE,WV,25504,"http://maps.google.com/maps?q=3 MALL ROAD,+BARBOURSVILLE,+WV+25504&hl=en"
CALHOUN COUNTY SHERIFF,CALHOUN COUNTY SHERIFF,363 MAIN STSTE 204,GRANTSVILLE,WV,26147,"http://maps.google.com/maps?q=363 MAIN ST,+GRANTSVILLE,+WV+26147&hl=en"
CENTERVILLE POLICE DEPARTMENT,KROGER PARKING LOT,1095 S. MAIN ST.,CENTERVILLE,OH,45458,"http://maps.google.com/maps?q=1095 S. MAIN ST.,+CENTERVILLE,+OH+45458&hl=en"
CEREDO WV POLICE DEPT,CEREDO PD,766 B STREET,CEREDO,WV,25507,"http://maps.google.com/maps?q=766 B STREET,+CEREDO,+WV+25507&hl=en"
CHARLESTON POLICE DEPARTMENT,DOWNTOWN CHARLESTON YMCA,1114 QUARRIER ST,CHARLESTON,WV,25301,"http://maps.google.com/maps?q=1114 QUARRIER ST,+CHARLESTON,+WV+25301&hl=en"
CHILLICOTHE POLICE DEPARTMENT,KROGER PARKING LOT,887 N BRIDGE STREET,CHILLICOTHE,OH,45601,"http://maps.google.com/maps?q=887 N BRIDGE STREET,+CHILLICOTHE,+OH+45601&hl=en"
CINCINNATI PD,BRAXTON CANN,5818 MADISON ROAD,CINCINNATI,OH,45227,"http://maps.google.com/maps?q=5818 MADISON ROAD,+CINCINNATI,+OH+45227&hl=en"
CITY OF DEERPARK,"CITY OF DEERPARK 24HR DROP BOX ONLY, LOCATED IN POLICE LOBBY.",7777 BLUE ASH RD,CINCINNATI,OH,45236,"http://maps.google.com/maps?q=7777 BLUE ASH RD,+CINCINNATI,+OH+45236&hl=en"
CITY OF OXFORD,EAST PARK BY THE AMPHITHEATER,EAST PARK @ EAST HIGH ST.,OXFORD,OH,45056,"http://maps.google.com/maps?q=EAST  PARK @ EAST HIGH ST.,+OXFORD,+OH+45056&hl=en"
CITY OF READING POLICE DEPARTMENT,CITY OF READING POLICE DEPARTMENT POLICE DEPARTMENT LOBBY,1000 MARKET STREETREADING,CINCINNATI,OH,45215,"http://maps.google.com/maps?q=1000 MARKET STREET,+CINCINNATI,+OH+45215&hl=en"
CLARK COUNTY SHERIFF'S OFFICE,CLARK COUNTY SHERIFF'S OFFICE EAST DISTRICT OFFICE,3130 EAST MAIN STREET,SPRINGFIELD,OH,45503,"http://maps.google.com/maps?q=3130 EAST MAIN STREET,+SPRINGFIELD,+OH+45503&hl=en"
CLEARCREEK TOWNSHIP POLICE DEPARTMENT,CLEARCREEK TOWNSHIP POLICE DEPARTMENT,7593 BUNNELL HILL RD,SPRINGBORO,OH,45066,"http://maps.google.com/maps?q=7593 BUNNELL HILL RD,+SPRINGBORO,+OH+45066&hl=en"
CLINTON TOWNSHIP POLICE,CLINTON TOWNSHIP HALL FRONT ENTRANCE,3820 CLEVELAND AVE,COLUMBUS,OH,43224,"http://maps.google.com/maps?q=3820 CLEVELAND AVE,+COLUMBUS,+OH+43224&hl=en"
CLYDE POLICE DEPARTMENT,CLYDE POLICE DEPARTMENT,222 N. MAIN ST.,CLYDE,OH,43410,"http://maps.google.com/maps?q=222 N. MAIN ST.,+CLYDE,+OH+43410&hl=en"
COLUMBUS DIVISION OF POLICE,COLUMBUS HEALTH DEPARTMENT,240 PARSONS AVE,COLUMBUS,OH,43215,"http://maps.google.com/maps?q=240 PARSONS AVE,+COLUMBUS,+OH+43215&hl=en"
COPLEY POLICE DEPARTMENT,COPLEY POLICE DEPARTMENT,1280 SUNSET DRIVE,COPLEY,OH,44321,"http://maps.google.com/maps?q=1280 SUNSET DRIVE,+COPLEY,+OH+44321&hl=en"
DAYTON POLICE DEPARTMENT,DAYTON POLICE DEPARTMENT 1ST DISTRICT OFFICE,417 EAST HELENA STREET,DAYTON,OH,45420,"http://maps.google.com/maps?q=417 EAST HELENA STREET,+DAYTON,+OH+45420&hl=en"
DAYTON POLICE DEPARTMENT,DAYTON POLICE DEPARTMENT 2ND DISTRICT OFFICE,2721 WAYNE AVENUE,DAYTON,OH,45420,"http://maps.google.com/maps?q=2721 WAYNE AVENUE,+DAYTON,+OH+45420&hl=en"
DAYTON POLICE DEPARTMENT,DAYTON POLICE DEPARTMENT 3RD DISTRICT OFFICE,951 WASHINGTON STREET,DAYTON,OH,45402,"http://maps.google.com/maps?q=951 WASHINGTON STREET,+DAYTON,+OH+45402&hl=en"
DAYTON POLICE DEPARTMENT,DAYTON POLICE DEPARTMENT 5TH DISTRICT OFFICE,248 SALEM AVENUE,DAYTON,OH,45406,"http://maps.google.com/maps?q=248 SALEM AVENUE,+DAYTON,+OH+45406&hl=en"
DAYTON POLICE DEPARTMENT,DAYTON POLICE SAFETY BUILDING,335 W THIRD STREET,DAYTON,OH,45402,"http://maps.google.com/maps?q=335 W THIRD STREET,+DAYTON,+OH+45402&hl=en"
DELAWARE COUNTY SHERIFF'S OFFICE,KROGER,3975W. POWELL RD,POWELL,OH,43065,"http://maps.google.com/maps?q=3975,+POWELL,+OH+43065&hl=en"
DELTA POLICE DEPARTMENT,DELTA MEMORIAL HALL,401 MAIN STREET,DELTA,OH,43515,"http://maps.google.com/maps?q=401 MAIN STREET,+DELTA,+OH+43515&hl=en"
DODDRIDGE COUNTY SHERIFF'S DEPARTMENT,DODDRIDGE CTY SD,89 COURT ST,WEST UNION,WV,26456,"http://maps.google.com/maps?q=89 COURT ST,+WEST UNION,+WV+26456&hl=en"
DUBLIN POLICE,DUBLIN POLICE DEPARTMENT HEADQUARTERS ENTER ON DRIVE WEST OF TRAFFIC CIRCLE.EXIT AT TRAFFIC CIRCLE,6565 COMMERCE PKWY,DUBLIN,OH,43017,"http://maps.google.com/maps?q=6565 COMMERCE PKWY,+DUBLIN,+OH+43017&hl=en"
ENGLEWOOD POLICE DEPARTMENT,ENGLEWOOD GOVERNMENT CENTER,333 W NATIONAL ROAD,ENGLEWOOD,OH,45322,"http://maps.google.com/maps?q=333 W NATIONAL ROAD,+ENGLEWOOD,+OH+45322&hl=en"
FAIRFAX POLICE DEPARTMENT,FAIRFAX POLICE DEPARTMENT,5903 HAWTHORNE AVENUE,CINCINNATI,OH,45227,"http://maps.google.com/maps?q=5903 HAWTHORNE AVENUE,+CINCINNATI,+OH+45227&hl=en"
FAIRFIELD COUNTY SHERIFF'S OFFICE,DILEY RIDGE MEDICAL CENTER PARKING LOT,7911 DILEY ROAD,CANAL WINCHESTER,OH,43110,"http://maps.google.com/maps?q=7911 DILEY ROAD,+CANAL WINCHESTER,+OH+43110&hl=en"
FAIRFIELD COUNTY SHERIFF'S OFFICE,VIOLET TOWNSHIP MAINTENANCE GARAGE,490 N CENTER STCORNER OF N CENTER & STEMEN RD,PICKERINGTON,OH,43147,"http://maps.google.com/maps?q=490 N CENTER ST,+PICKERINGTON,+OH+43147&hl=en"
FAIRFIELD POLICE DEPARTMENT,FAIRFIELD POLICE DEPARTMENT,5230 PLEASANT AVE,FAIRFIELD,OH,45014,"http://maps.google.com/maps?q=5230 PLEASANT AVE,+FAIRFIELD,+OH+45014&hl=en"
FAIRFIELD TOWNSHIP POLICE DEPARTMENT,FAIRFIELD TOWNSHIP POLICE DEPARTMENT,6485 VONNIE VALE COURT,HAMILTON,OH,45011,"http://maps.google.com/maps?q=6485 VONNIE VALE COURT,+HAMILTON,+OH+45011&hl=en"
FAIRFIELD-HOCKING-ATHENS MAJOR CRIMES UNIT,KROGER,1735 N MEMEORIAL DR,LANCASTER,OH,43130,"http://maps.google.com/maps?q=1735 N MEMEORIAL DR,+LANCASTER,+OH+43130&hl=en"
FAYETTE COUNTY SHERIFF'S OFFICE,KROGERS PARKING LOT,548 CLINTON AVE,WASHINGTON COURT HOUSE,OH,43160,"http://maps.google.com/maps?q=548 CLINTON AVE,+WASHINGTON COURT HOUSE,+OH+43160&hl=en"
FAYETTE COUNTY SHERIFF'S OFFICE,SHERIFF'S ANNEX BUILDING,110 WEST MARKET STREET,WASHINGTON COURT HOUSE,OH,43160,"http://maps.google.com/maps?q=110 WEST MARKET STREET,+WASHINGTON COURT HOUSE,+OH+43160&hl=en"
FRANKLIN COUNTY SHERIFF'S OFFICE,KROGER,300 S. HAMILTON RD,GAHANNA,OH,43230,"http://maps.google.com/maps?q=300 S. HAMILTON RD,+GAHANNA,+OH+43230&hl=en"
FRANKLIN COUNTY SHERIFF'S OFFICE,KROGER,3637 S. HIGH ST,COLUMBUS,OH,43207,"http://maps.google.com/maps?q=3637 S. HIGH ST,+COLUMBUS,+OH+43207&hl=en"
FRANKLIN COUNTY SHERIFF'S OFFICE,KROGER,4656 CEMETERY RD.,HILLIARD,OH,43026,"http://maps.google.com/maps?q=4656 CEMETERY RD.,+HILLIARD,+OH+43026&hl=en"
FRANKLIN COUNTY SHERIFF'S OFFICE,KROGER,55 W. SCHROCK RD.,WESTERVILLE,OH,43081,"http://maps.google.com/maps?q=55 W. SCHROCK RD.,+WESTERVILLE,+OH+43081&hl=en"
FRANKLIN COUNTY SHERIFF'S OFFICE,KROGER,6095 GENDER RD,CANAL WINCHESTER,OH,43110,"http://maps.google.com/maps?q=6095 GENDER RD,+CANAL WINCHESTER,+OH+43110&hl=en"
FRANKLIN COUNTY SHERIFF'S OFFICE,KROGER,7625 SAWMILL RD.,DUBLIN,OH,43016,"http://maps.google.com/maps?q=7625 SAWMILL RD.,+DUBLIN,+OH+43016&hl=en"
FRANKLIN POLICE DEPARTMENT (LOBBY),FRANKLIN POLICE DEPT BOOTH FALL FESTIVAL POLICE BOOTH,FALL FEST BOOTHSOUTH MAIN ST @ EAST SECOND STREET,FRANKLIN,OH,45005,"http://maps.google.com/maps?q=FALL FEST BOOTH,+FRANKLIN,+OH+45005&hl=en"
FRANKLIN TOWNSHIP POLICE DEPARTMENT,FRANKLIN TOWNSHIP POLICE DEPT. FRANKLIN TOWNSHIP FIRE DEPT.,2193 FRANK RD,COLUMBUS,OH,43223,"http://maps.google.com/maps?q=2193 FRANK RD,+COLUMBUS,+OH+43223&hl=en"
FREMONT POLICE DEPARTMENT,FREMONT POLICE DEPARTMENT,1141 W. STATE ST.,FREMONT,OH,43420,"http://maps.google.com/maps?q=1141 W. STATE ST.,+FREMONT,+OH+43420&hl=en"
GREENE COUNTY SHERIFF'S OFFICE,BEAVERCREEK POLICE DEPARTMENT,1388 RESEARCH PARK DRIVE,DAYTON,OH,45432,"http://maps.google.com/maps?q=1388 RESEARCH PARK DRIVE,+DAYTON,+OH+45432&hl=en"
GREENE COUNTY SHERIFF'S OFFICE,FAIRBORN POLICE DEPARTMENT,70 W HEBBLE ROAD,FAIRBORN,OH,45324,"http://maps.google.com/maps?q=70 W HEBBLE ROAD,+FAIRBORN,+OH+45324&hl=en"
GREENE COUNTY SHERIFF'S OFFICE,GREENE COUNTY SHERIFF'S OFFICE,120 E MAIN STREET,XENIA,OH,45385,"http://maps.google.com/maps?q=120 E MAIN STREET,+XENIA,+OH+45385&hl=en"
GREENE COUNTY SHERIFF'S OFFICE,SUGARCREEK TOWNSHIP POLICE DEPARTMENT,4398 CLYO ROAD,DAYTON,OH,45459,"http://maps.google.com/maps?q=4398 CLYO ROAD,+DAYTON,+OH+45459&hl=en"
GREENHILLS POLICE,GREENHILLS MUNCIPAL BUILDING,11000 WINTON RD,CINCINNATI,OH,45218,"http://maps.google.com/maps?q=11000 WINTON RD,+CINCINNATI,+OH+45218&hl=en"
GREENVILLE POLICE DEPARTMENT,GREENVILLE POLICE DEPARTMENT,122 W. MAIN ST,GREENVILLE,OH,45331,"http://maps.google.com/maps?q=122 W. MAIN ST,+GREENVILLE,+OH+45331&hl=en"
GROVE CITY POLICE,GROVE CITY PD DRUG DROP BOX,3360 PARK ST,GROVE CITY,OH,43123,"http://maps.google.com/maps?q=3360 PARK ST,+GROVE CITY,+OH+43123&hl=en"
GROVEPORT POLICE DEPT,GROVEPORT POLICE DEPARTMENT,5690 CLYDE MOORE DR,GROVEPORT,OH,43125,"http://maps.google.com/maps?q=5690 CLYDE MOORE DR,+GROVEPORT,+OH+43125&hl=en"
GUERNSEY COUNTY SHERIFF'S OFFICE,RIESBECK'S FOOD MARKET,55 S 23RD STREET,CAMBRIDGE,OH,43725,"http://maps.google.com/maps?q=55 S 23RD STREET,+CAMBRIDGE,+OH+43725&hl=en"
HAMILTON COUNTY SHERIFF'S OFFICE,VILLAGE OF SILVERTON,6943 MONTGOMERY ROAD,CINCINNATI,OH,45236,"http://maps.google.com/maps?q=6943 MONTGOMERY ROAD,+CINCINNATI,+OH+45236&hl=en"
HAMILTON POLICE DEPARTMENT,HAMILTON POLICE DEPARTMENT,331 SOUTH FRONT STREET,HAMILTON,OH,45011,"http://maps.google.com/maps?q=331 SOUTH FRONT STREET,+HAMILTON,+OH+45011&hl=en"
HAMLIN POLICE DEPARTMENT,HAMLIN TOWN HALL,220-1 MAIN ST,HAMLIN,WV,25523,"http://maps.google.com/maps?q=220-1 MAIN ST,+HAMLIN,+WV+25523&hl=en"
HENRY COUNTY SHERIFF'S OFFICE,HENRY COUNTY SHERIFF'S OFFICE,123 E WASHINGTON,NAPOLEON,OH,43545,"http://maps.google.com/maps?q=123 E WASHINGTON,+NAPOLEON,+OH+43545&hl=en"
HILLIARD DIVISION OF POLICE,HILLIARD DIVISION OF POLICE,5171 NORTHWEST PARKWAY,HILLIARD,OH,43026,"http://maps.google.com/maps?q=5171 NORTHWEST PARKWAY,+HILLIARD,+OH+43026&hl=en"
HUBER HEIGHTS POLICE DEPARTMENT,HUBER HEIGHTS POLICE DEPARTMENT,6121 TAYLORSVILLE ROAD,DAYTON,OH,45424,"http://maps.google.com/maps?q=6121 TAYLORSVILLE ROAD,+DAYTON,+OH+45424&hl=en"
HUNTINGTON POLICE DEPARTMENT,CABELL HUNTINGTON HEALTH DEPARTMENT,703 7TH AVE HUNTINGTON,HUNTINGTON,WV,25701,"http://maps.google.com/maps?q=703 7TH AVE HUNTINGTON,+HUNTINGTON,+WV+25701&hl=en"
JACKSON COUNTY SHERIFF'S DEPARTMENT,KENNA VOLUNTEER FIRE DEPARTMENT,RT 21 AT PLEASANT VALLEY ROAD,KENNA,WV,25248,"http://maps.google.com/maps?q=RT 21 AT PLEASANT VALLEY ROAD,+KENNA,+WV+25248&hl=en"
JACKSON COUNTY SHERIFF'S DEPARTMENT,RAVENSWOOD VOLUNTEER FIRE DEPT,333 VIRGINIA STREET,RAVENSWOOD,WV,26164,"http://maps.google.com/maps?q=333 VIRGINIA STREET,+RAVENSWOOD,+WV+26164&hl=en"
JACKSON COUNTY SHERIFF'S DEPARTMENT,RIPLEY CITY HALL,203 SOUTH CHURCH ST,RIPLEY,WV,25271,"http://maps.google.com/maps?q=203 SOUTH CHURCH ST,+RIPLEY,+WV+25271&hl=en"
KANAWHA COUNTY SHERIFF'S OFFICE,KANAWHA COUNTY SHERIFF'S DETACHMENT CROSS LANES DETACHMENT/CPT MEADOWS,903 CROSS LANES DR,CROSS LANES,WV,25313,"http://maps.google.com/maps?q=903 CROSS LANES DR,+CROSS LANES,+WV+25313&hl=en"
KANAWHA COUNTY SHERIFF'S OFFICE,KANAWHA COUNTY SHERIFF'S OFFICE SISSONVILLE DETACHMENT/LT. L.. DEITZ,6438 SISSONVILLE DRIVE,SISSONVILLE,WV,25320,"http://maps.google.com/maps?q=6438 SISSONVILLE DRIVE,+SISSONVILLE,+WV+25320&hl=en"
KANAWHA COUNTY SHERIFF'S OFFICE,KANAWHA COUNTY SHERIFF'S OFFICE ST. ALBANS DETACHMENT/SGT. FLOWERS,6809 OHIO AVENUE,SAINT ALBANS,WV,25177,"http://maps.google.com/maps?q=6809 OHIO AVENUE,+SAINT ALBANS,+WV+25177&hl=en"
KENTUCKY STATE POLICE POST 14,KENTUCKY STATE POLICE,5975 STATE ROUTE US 60,ASHLAND,KY,41102,"http://maps.google.com/maps?q=5975 STATE ROUTE US 60,+ASHLAND,+KY+41102&hl=en"
KENTUCKY STATE POLICE POST 8,MOREHEAD POLICE DEPARTMENT,105 E MAIN STREET,MOREHEAD,KY,40351,"http://maps.google.com/maps?q=105 E MAIN STREET,+MOREHEAD,+KY+40351&hl=en"
KETTERING POLICE DEPARTMENT,KETTERING POLICE DEPARTMENT 10AM TO 2PM,3600 SHROYER ROAD,KETTERING,OH,45429,"http://maps.google.com/maps?q=3600 SHROYER ROAD,+KETTERING,+OH+45429&hl=en"
KNOX COUNTY SHERIFF'S OFFICE,DANVILLE POLICE DEPARTMENT,512 MARKET ST.,DANVILLE,OH,43014,"http://maps.google.com/maps?q=512 MARKET ST.,+DANVILLE,+OH+43014&hl=en"
KNOX COUNTY SHERIFF'S OFFICE,FOSTER'S HEALTHMART PHARMACY OUTSIDE OF BUILDING,4584 COLUMBUS RD,CENTERBURG,OH,43011,"http://maps.google.com/maps?q=4584 COLUMBUS RD,+CENTERBURG,+OH+43011&hl=en"
KNOX COUNTY SHERIFF'S OFFICE,FREDERICKTOWN POLICE DEPARTMENT,182 S. MAIN ST.,FREDERICKTOWN,OH,43019,"http://maps.google.com/maps?q=182 S. MAIN ST.,+FREDERICKTOWN,+OH+43019&hl=en"
LEBANON DIVISION OF POLICE,COUNTRYSIDE YMCA,1699 DEERFIELD RD.,LEBANON,OH,45036,"http://maps.google.com/maps?q=1699 DEERFIELD RD.,+LEBANON,+OH+45036&hl=en"
LEBANON DIVISION OF POLICE,KROGER (PARKING LOT),1425 COLUMBUS AVE,LEBANON,OH,45036,"http://maps.google.com/maps?q=1425 COLUMBUS AVE,+LEBANON,+OH+45036&hl=en"
LICKING COUNTY SHERIFF'S OFFICE,KROGER,350 EAST BROAD STREET,PATASKALA,OH,43062,"http://maps.google.com/maps?q=350 EAST BROAD STREET,+PATASKALA,+OH+43062&hl=en"
LOCKLAND POLICE DEPARTMENT,LOCKLAND CHURCH OF NAZARENE,335 W WYOMING AV,LOCKLAND,OH,45215,"http://maps.google.com/maps?q=335 W WYOMING AV,+LOCKLAND,+OH+45215&hl=en"
LORAIN COUNTY SHERIFF'S OFFICE,AMHERST POLICE DEPARTMENT,911 N LAKE STREET,AMHERST,OH,44001,"http://maps.google.com/maps?q=911 N LAKE STREET,+AMHERST,+OH+44001&hl=en"
LORAIN COUNTY SHERIFF'S OFFICE,AVON POLICE DEPARTMENT,36145 DETROIT ROAD,AVON,OH,44011,"http://maps.google.com/maps?q=36145 DETROIT ROAD,+AVON,+OH+44011&hl=en"
LORAIN COUNTY SHERIFF'S OFFICE,COLUMBIA TOWNSHIP FIRE STATION,25540 ROYALTON ROAD,COLUMBIA STATION,OH,44028,"http://maps.google.com/maps?q=25540 ROYALTON ROAD,+COLUMBIA STATION,+OH+44028&hl=en"
LORAIN COUNTY SHERIFF'S OFFICE,ELYRIA POLICE DEPARTMENT,18 WEST AVENUE,ELYRIA,OH,44035,"http://maps.google.com/maps?q=18 WEST AVENUE,+ELYRIA,+OH+44035&hl=en"
LORAIN COUNTY SHERIFF'S OFFICE,GRAFTON POLICE DEPARTMENT,1009 CHESTNUT STREET,GRAFTON,OH,44044,"http://maps.google.com/maps?q=1009 CHESTNUT STREET,+GRAFTON,+OH+44044&hl=en"
LORAIN COUNTY SHERIFF'S OFFICE,KIPTON VILLAGE HALL,299 STATE STREET,KIPTON,OH,44049,"http://maps.google.com/maps?q=299 STATE STREET,+KIPTON,+OH+44049&hl=en"
LORAIN COUNTY SHERIFF'S OFFICE,LAGRANGE POLICE DEPARTMENT,355 S CENTER STREET,LAGRANGE,OH,44050,"http://maps.google.com/maps?q=355 S CENTER STREET,+LAGRANGE,+OH+44050&hl=en"
LORAIN COUNTY SHERIFF'S OFFICE,LORAIN COUNTY SHERIFF'S OFFICE,9896 MURRAY RIDGE ROAD,ELYRIA,OH,44035,"http://maps.google.com/maps?q=9896 MURRAY RIDGE ROAD,+ELYRIA,+OH+44035&hl=en"
LORAIN COUNTY SHERIFF'S OFFICE,LORAIN POLICE DEPARTMENT,100 WEST ERIE AVENUE,LORAIN,OH,44052,"http://maps.google.com/maps?q=100 WEST ERIE AVENUE,+LORAIN,+OH+44052&hl=en"
LORAIN COUNTY SHERIFF'S OFFICE,NORTH RIDGEVILLE POLICE DEPARTMENT,7307 AVON-BELDON ROAD,NORTH RIDGEVILLE,OH,44039,"http://maps.google.com/maps?q=7307 AVON-BELDON ROAD,+NORTH RIDGEVILLE,+OH+44039&hl=en"
LORAIN COUNTY SHERIFF'S OFFICE,OBERLIN POLICE DEPARTMENT,85 S MAIN STREET,OBERLIN,OH,44074,"http://maps.google.com/maps?q=85 S MAIN STREET,+OBERLIN,+OH+44074&hl=en"
LORAIN COUNTY SHERIFF'S OFFICE,SHEFFIELD LAKE POLICE DEPARTMENT,609 HARRIS ROAD,SHEFFIELD LAKE,OH,44054,"http://maps.google.com/maps?q=609 HARRIS ROAD,+SHEFFIELD LAKE,+OH+44054&hl=en"
LORAIN COUNTY SHERIFF'S OFFICE,SHEFFIELD VILLAGE POLICE DEPARTMENT,4340 COLORADO AVENUE,SHEFFIELD LAKE,OH,44054,"http://maps.google.com/maps?q=4340 COLORADO AVENUE,+SHEFFIELD LAKE,+OH+44054&hl=en"
LORAIN COUNTY SHERIFF'S OFFICE,VERMILION POLICE DEPARTMENT,5791 LIBERTY AVENUE,VERMILION,OH,44089,"http://maps.google.com/maps?q=5791 LIBERTY AVENUE,+VERMILION,+OH+44089&hl=en"
LORAIN COUNTY SHERIFF'S OFFICE,WELLINGTON POLICE,117 WILLARD MEMORIAL SQ,WELLINGTON,OH,44090,"http://maps.google.com/maps?q=117 WILLARD MEMORIAL SQ,+WELLINGTON,+OH+44090&hl=en"
LOVELAND POLICE DEPARTMENT,LOVELAND ELEMENTARY AND PRIMARY SCHOOLS DRIVE THROUGH DROP OFF,600 LOVELAND MADEIRA ROAD,LOVELAND,OH,45140,"http://maps.google.com/maps?q=600 LOVELAND MADEIRA ROAD,+LOVELAND,+OH+45140&hl=en"
LOVELAND POLICE DEPARTMENT,LOVELAND POLICE DEPARTMENT LOBBY DROP BOX,126 SOUTH LEBANON ROAD,LOVELAND,OH,45140,"http://maps.google.com/maps?q=126 SOUTH LEBANON ROAD,+LOVELAND,+OH+45140&hl=en"
LUCAS COUNTY SHERIFF'S OFFICE,KROGER,8730 WATERVILLE SWANTON ROAD,WATERVILLE,OH,43566,"http://maps.google.com/maps?q=8730 WATERVILLE SWANTON ROAD,+WATERVILLE,+OH+43566&hl=en"
LUCAS COUNTY SHERIFF'S OFFICE,LUCAS COUNTY HEALTH DEPARTMENT,635 NORTH ERIE STREET,TOLEDO,OH,43604,"http://maps.google.com/maps?q=635 NORTH ERIE STREET,+TOLEDO,+OH+43604&hl=en"
LUCAS COUNTY SHERIFF'S OFFICE,SPRINGFIELD TOWNSHIP FIRE STATION #3,7145 GARDEN ROAD,MAUMEE,OH,43537,"http://maps.google.com/maps?q=7145 GARDEN ROAD,+MAUMEE,+OH+43537&hl=en"
LUCAS COUNTY SHERIFF'S OFFICE,VILLAGE OF WHITEHOUSE FIRE DEPARTMENT,10550 WATERVILLE STREET,WHITEHOUSE,OH,43571,"http://maps.google.com/maps?q=10550 WATERVILLE STREET,+WHITEHOUSE,+OH+43571&hl=en"
LUCAS COUNTY SHERIFF'S OFFICE,WASHINGTON TWP FIRE DEPARTMENT,2469 SHORELAND DRIVE,TOLEDO,OH,43611,"http://maps.google.com/maps?q=2469 SHORELAND DRIVE,+TOLEDO,+OH+43611&hl=en"
MADISON COUNTY SHERIFF'S OFFICE,MADISON COUNTY SHERIFF OPERATION CENTER,222 GARFIELD STREET,LONDON,OH,43140,"http://maps.google.com/maps?q=222 GARFIELD STREET,+LONDON,+OH+43140&hl=en"
MARION COUNTY SHERIFF'S OFFICE/MARION POLICE DEPT,OHIO HEALTH MARION MEDICAL CAMPUS,1050 DELAWARE AVENUE,MARION,OH,43302,"http://maps.google.com/maps?q=1050 DELAWARE AVENUE,+MARION,+OH+43302&hl=en"
MARYSVILLE DIVISION OF POLICE,WALGREENS,180 COLEMANS CROSSING BLVD,MARYSVILLE,OH,43040,"http://maps.google.com/maps?q=180 COLEMANS CROSSING BLVD,+MARYSVILLE,+OH+43040&hl=en"
MASON COUNTY SHERIFF'S OFFICE,MASON COUNTY SHERIFF'S OFFICE,200 SIXTH STREET,POINT PLEASANT,WV,25550,"http://maps.google.com/maps?q=200 SIXTH STREET,+POINT PLEASANT,+WV+25550&hl=en"
MASON COUNTY SHERIFF'S OFFICE,NEW HAVEN VOLUNTEER FIRE DEPT,407 5TH STREET,NEW HAVEN,WV,25265,"http://maps.google.com/maps?q=407 5TH STREET,+NEW HAVEN,+WV+25265&hl=en"
MAUMEE POLICE DIVISION,MAUMEE POLICE DIVISION,109 EAST DUDLEY ST,MAUMEE,OH,43537,"http://maps.google.com/maps?q=109 EAST DUDLEY ST,+MAUMEE,+OH+43537&hl=en"
MAUMEE POLICE DIVISION,ST LUKES HOSPITAL ENTRANCE YELLOW 3,5901 MONCLOVA,MAUMEE,OH,43537,"http://maps.google.com/maps?q=5901 MONCLOVA,+MAUMEE,+OH+43537&hl=en"
MECHANICSBURG POLICE DEPARTMENT,MECHANICSBURG POLICE DEPARTMENT MAIN OFFICE,18 N. MAIN ST.,MECHANICSBURG,OH,43044,"http://maps.google.com/maps?q=18 N. MAIN ST.,+MECHANICSBURG,+OH+43044&hl=en"
MECHANICSBURG POLICE DEPARTMENT,MECHANICSBURG POLICE DEPARTMENT NORTH LEWISBURG OFFICE,60 E. MAPLE ST.,NORTH LEWISBURG,OH,43060,"http://maps.google.com/maps?q=60 E. MAPLE ST.,+NORTH LEWISBURG,+OH+43060&hl=en"
MEDINA COUNTY DRUG TASK FORCE,MEDINA TOWNSHIP POLICE DEPARTMENT,4877 FENN ROAD,MEDINA,OH,44256,"http://maps.google.com/maps?q=4877 FENN ROAD,+MEDINA,+OH+44256&hl=en"
MEDINA COUNTY DRUG TASK FORCE,WADSWORTH POLICE DEPARTMENT,120 MAPLE STREET,WADSWORTH,OH,44281,"http://maps.google.com/maps?q=120 MAPLE STREET,+WADSWORTH,+OH+44281&hl=en"
MEDWAY DRUG ENFORCEMENT AGENCY,WOOSTER POLICE DEPARTMENT -SAFETY SERVICE CENTER,3333 BURBANK ROAD,WOOSTER,OH,44691,"http://maps.google.com/maps?q=3333 BURBANK ROAD,+WOOSTER,+OH+44691&hl=en"
MERCER COUNTY SHERIFF'S OFFICE,FORT RECOVERY POLICE DEPARTMENT,201 SOUTH MAIN STREET,FORT RECOVERY,OH,45846,"http://maps.google.com/maps?q=201 SOUTH MAIN STREET,+FORT RECOVERY,+OH+45846&hl=en"
METRICH DRUG TASK FORCE,ASHLAND COUNTY SHERIFF'S OFFICE,1205 E. MAIN ST.,ASHLAND,OH,44805,"http://maps.google.com/maps?q=1205 E. MAIN ST.,+ASHLAND,+OH+44805&hl=en"
METRICH DRUG TASK FORCE,BELLVILLE POLICE DEPARTMENT,320 BELL ST.,BELLVILLE,OH,44813,"http://maps.google.com/maps?q=320 BELL ST.,+BELLVILLE,+OH+44813&hl=en"
METRICH DRUG TASK FORCE,CAREY POLICE DEPARTMENT,127 N. VANCE ST.,CAREY,OH,43316,"http://maps.google.com/maps?q=127 N. VANCE ST.,+CAREY,+OH+43316&hl=en"
METRICH DRUG TASK FORCE,CRAWFORD COUNTY SHERIFF'S OFFICE,3613 STETZER RD.,BUCYRUS,OH,44820,"http://maps.google.com/maps?q=3613 STETZER RD.,+BUCYRUS,+OH+44820&hl=en"
METRICH DRUG TASK FORCE,FOSTORIA POLICE DEPARTMENT,213 S. MAIN ST.,FOSTORIA,OH,44830,"http://maps.google.com/maps?q=213 S. MAIN ST.,+FOSTORIA,+OH+44830&hl=en"
METRICH DRUG TASK FORCE,GALION POLICE DEPARTMENT,212 HARDING WAY EAST,GALION,OH,44833,"http://maps.google.com/maps?q=212 HARDING WAY EAST,+GALION,+OH+44833&hl=en"
METRICH DRUG TASK FORCE,GREENWICH POLICE DEPT.,3305 GREENWICH ANGLING RD,GREENWICH,OH,44837,"http://maps.google.com/maps?q=3305 GREENWICH ANGLING RD,+GREENWICH,+OH+44837&hl=en"
METRICH DRUG TASK FORCE,HANCOCK CO. SHERIFF'S OFFICE,200 W. CRAWFORD ST.,FINDLAY,OH,45840,"http://maps.google.com/maps?q=200 W. CRAWFORD ST.,+FINDLAY,+OH+45840&hl=en"
METRICH DRUG TASK FORCE,LEXINGTON POLICE DEPARTMENT,44 W. MAIN ST.,LEXINGTON,OH,44904,"http://maps.google.com/maps?q=44 W. MAIN ST.,+LEXINGTON,+OH+44904&hl=en"
METRICH DRUG TASK FORCE,MANSFIELD POLICE DEPARTMENT,1125 NATIONAL PARKWAY,MANSFIELD,OH,44906,"http://maps.google.com/maps?q=1125 NATIONAL PARKWAY,+MANSFIELD,+OH+44906&hl=en"
METRICH DRUG TASK FORCE,MARION COUNTY SHERIFF'S OFFICE MARION POLICE DEPARTMENT,1050 DELAWARE AVE.,MARION,OH,43302,"http://maps.google.com/maps?q=1050 DELAWARE AVE.,+MARION,+OH+43302&hl=en"
METRICH DRUG TASK FORCE,MONROEVILLE POLICE DEPARTMENT,9 MONROE STREET,MONROEVILLE,OH,44847,"http://maps.google.com/maps?q=9 MONROE STREET,+MONROEVILLE,+OH+44847&hl=en"
METRICH DRUG TASK FORCE,MORROW CO. SHERIFF'S OFFICE KROGER PARKING LOT,555 WEST MARION RD.,MOUNT GILEAD,OH,43338,"http://maps.google.com/maps?q=555 WEST MARION RD.,+MOUNT GILEAD,+OH+43338&hl=en"
METRICH DRUG TASK FORCE,MOUNT VERNON PD,11660 UPPER GILCHREST RD,MOUNT VERNON,OH,43050,"http://maps.google.com/maps?q=11660 UPPER GILCHREST RD,+MOUNT VERNON,+OH+43050&hl=en"
METRICH DRUG TASK FORCE,NORWALK POLICE DEPARTMENT,37 NORTH LINWOOD AVE,NORWALK,OH,44857,"http://maps.google.com/maps?q=37 NORTH LINWOOD AVE,+NORWALK,+OH+44857&hl=en"
METRICH DRUG TASK FORCE,RICHLAND CO. SHERIFF'S OFFICE,597 PARK AVE. EAST,MANSFIELD,OH,44905,"http://maps.google.com/maps?q=597 PARK AVE. EAST,+MANSFIELD,+OH+44905&hl=en"
METRICH DRUG TASK FORCE,SENECA CO. SHERIFF'S OFFICE,3040 S. ST. RTE. 100,TIFFIN,OH,44883,"http://maps.google.com/maps?q=3040 S. ST. RTE. 100,+TIFFIN,+OH+44883&hl=en"
METRICH DRUG TASK FORCE,SHELBY POLICE DEPARTMENT,31 MACK AVE,SHELBY,OH,44875,"http://maps.google.com/maps?q=31 MACK AVE,+SHELBY,+OH+44875&hl=en"
METRICH DRUG TASK FORCE,TIFFIN POLICE DEPARTMENT,51 E. MARKET ST. #4TIFFIN,TIFFIN,OH,44883,"http://maps.google.com/maps?q=51 E. MARKET ST. #4,+TIFFIN,+OH+44883&hl=en"
METRICH DRUG TASK FORCE,UPPER SANDUSKY POLICE DEPT,120 N. 7TH STREET,UPPER SANDUSKY,OH,43351,"http://maps.google.com/maps?q=120 N. 7TH STREET,+UPPER SANDUSKY,+OH+43351&hl=en"
METRICH DRUG TASK FORCE,WILLARD POLICE DEPARTMENT,425 FORT BALL RD.,WILLARD,OH,44888,"http://maps.google.com/maps?q=425 FORT BALL RD.,+WILLARD,+OH+44888&hl=en"
METRICH DRUG TASK FORCE,WYANDOT COUNTY SHERIFF'S OFFICE,125 E.WYANDOT AVE,UPPER SANDUSKY,OH,43351,"http://maps.google.com/maps?q=125 E.WYANDOT AVE,+UPPER SANDUSKY,+OH+43351&hl=en"
MIAMI COUNTY SHERIFF'S OFFICE,MIAMI COUNTY TRANSFER STATION,2500 N COUNTY ROAD 25A,TROY,OH,45373,"http://maps.google.com/maps?q=2500 N COUNTY ROAD 25A,+TROY,+OH+45373&hl=en"
MIAMI TOWNSHIP POLICE DEPARTMENT,MIAMI TOWNSHIP POLICE DEPARTMENT,2660 LYONS ROAD,MIAMISBURG,OH,45342,"http://maps.google.com/maps?q=2660 LYONS ROAD,+MIAMISBURG,+OH+45342&hl=en"
MIAMI TOWNSHIP POLICE DEPT. - CLERMONT CO.,MIAMI TOWNSHIP POLICE DEPT. - CLERMONT CO. 24HR DROP BOX LOCATED IN LOBBY,5900 MCPICKEN DRIVE,MILFORD,OH,45150,"http://maps.google.com/maps?q=5900 MCPICKEN DRIVE,+MILFORD,+OH+45150&hl=en"
MILTON POLICE DEPARTMENT,MILTON VOLUNTEER FIRE DEPARTMENT,341 E MAIN ST,MILTON,WV,25541,"http://maps.google.com/maps?q=341 E MAIN ST,+MILTON,+WV+25541&hl=en"
MONTGOMERY COUNTY SHERIFF'S OFFICE,MONTGOMERY COUNTY SHERIFF'S OFFICE,345 W. SECOND ST.,DAYTON,OH,45422,"http://maps.google.com/maps?q=345 W. SECOND ST.,+DAYTON,+OH+45422&hl=en"
MONTGOMERY POLICE DEPARTMENT,MONTGOMERY SAFETY CENTER,10150 MONTGOMERY RD,CINCINNATI,OH,45242,"http://maps.google.com/maps?q=10150 MONTGOMERY RD,+CINCINNATI,+OH+45242&hl=en"
MORAINE POLICE DEPARTMENT,KROGER,2917 W. ALEX BELL RD.,MORAINE,OH,45439,"http://maps.google.com/maps?q=2917 W. ALEX BELL RD.,+MORAINE,+OH+45439&hl=en"
MORGAN COUNTY SHERIFF'S OFFICE,EMA BUILDING,60 S. 4TH STREET,MCCONNELSVILLE,OH,43756,"http://maps.google.com/maps?q=60 S. 4TH STREET,+MCCONNELSVILLE,+OH+43756&hl=en"
MOUNDSVILLE POLICE DEPARTMENT,MOUNDSVILLE POLICE DEPARTMENT,608 TOMLINSON AVENUE,MOUNDSVILLE,WV,26041,"http://maps.google.com/maps?q=608 TOMLINSON AVENUE,+MOUNDSVILLE,+WV+26041&hl=en"
MUSKINGUM COUNTY SHERIFF'S OFFICE,MUSKINGUM COUNTY HEALTH DEPARTMENT PARKING LOT,205 N 7TH STREET,ZANESVILLE,OH,43701,"http://maps.google.com/maps?q=205 N 7TH STREET,+ZANESVILLE,+OH+43701&hl=en"
MUSKINGUM COUNTY SHERIFF'S OFFICE,RIESBECKS PICK'N SAVE,2200 JUNE PARKWAY,ZANESVILLE,OH,43701,"http://maps.google.com/maps?q=2200 JUNE PARKWAY,+ZANESVILLE,+OH+43701&hl=en"
NAPOLEON POLICE DEPARTMENT,NAPOLEON POLICE DEPARTMENT COLLECTED AT MAN UNIT,310 GLENWOOD AVE,NAPOLEON,OH,43545,"http://maps.google.com/maps?q=310 GLENWOOD AVE,+NAPOLEON,+OH+43545&hl=en"
NEW ALBANY POLICE DEPARTMENT,PLAIN TOWNSHIP FIRE DEPARTMENT,9500 JOHNSTOWN RD.,NEW ALBANY,OH,43054,"http://maps.google.com/maps?q=9500 JOHNSTOWN RD.,+NEW ALBANY,+OH+43054&hl=en"
NEW CONCORD POLICE DEPARTMENT,NEW CONCORD POLICE DEPARTMENT,2 WEST MAIN STREET,NEW CONCORD,OH,43762,"http://maps.google.com/maps?q=2 WEST MAIN STREET,+NEW CONCORD,+OH+43762&hl=en"
NITRO POLICE DEPARTMENT,NITRO POLICE DEPARTMENT,497 1ST AVENUE SOUTH,NITRO,WV,25143,"http://maps.google.com/maps?q=497 1ST AVENUE SOUTH,+NITRO,+WV+25143&hl=en"
NOBLE COUNTY SHERIFFS OFFICE,CALDWELL ELEMENTARY SCHOOL,44350FAIRGROUND RD,CALDWELL,OH,43724,"http://maps.google.com/maps?q=44350,+CALDWELL,+OH+43724&hl=en"
NOBLE COUNTY SHERIFFS OFFICE,SHENANDOAH ELEMENTARY SCHOOL,20977ZEP ROAD,SARAHSVILLE,OH,43779,"http://maps.google.com/maps?q=20977,+SARAHSVILLE,+OH+43779&hl=en"
NORTON POLICE DEPARTMENT,THE MEDICINE SHOPPE,3300 GREENWICH RD,NORTON,OH,44203,"http://maps.google.com/maps?q=3300 GREENWICH RD,+NORTON,+OH+44203&hl=en"
OLMSTED FALLS POLICE DEPARTMENT,OLMSTED FALLS POLICE DEPARTMENT,26100 BAGLEY ROAD,OLMSTED FALLS,OH,44138,"http://maps.google.com/maps?q=26100 BAGLEY ROAD,+OLMSTED FALLS,+OH+44138&hl=en"
OTTAWA HILLS POLICE DEPARTMENT,OTTAWA HILLS POLICE DEPARTMENT,2125 RICHARDS RD.,OTTAWA HILLS,OH,43606,"http://maps.google.com/maps?q=2125 RICHARDS RD.,+OTTAWA HILLS,+OH+43606&hl=en"
"PARKERSBURG, WV POLICE DEPARTMENT",CVS PHARMACY,2323 MURDOCH AVENUE,PARKERSBURG,WV,26101,"http://maps.google.com/maps?q=2323 MURDOCH AVENUE,+PARKERSBURG,+WV+26101&hl=en"
PERKINS TOWNSHIP POLICE DEPARTMENT,PERKINS TOWNSHIP POLICE DEPARTMENT,2610 COLUMBUS AVE,SANDUSKY,OH,44870,"http://maps.google.com/maps?q=2610 COLUMBUS AVE,+SANDUSKY,+OH+44870&hl=en"
PERRY TOWNSHIP POLICE DEPARTMENT,PERRY TOWNSHIP POLICE DEPARTMENT,7125 SAWMILL ROAD,DUBLIN,OH,43016,"http://maps.google.com/maps?q=7125 SAWMILL ROAD,+DUBLIN,+OH+43016&hl=en"
PERRYSBURG TOWNSHIP POLICE DEPARTMENT,PERRYSBURG TOWNSHIP POLICE DEPARTMENT,26711 LIME CITY ROAD,PERRYSBURG,OH,43551,"http://maps.google.com/maps?q=26711 LIME CITY ROAD,+PERRYSBURG,+OH+43551&hl=en"
PICKERINGTON POLICE DEPARTMENT,PICKERINGTON POLICE DEPARTMENT,1311 REFUGEE RD.,PICKERINGTON,OH,43147,"http://maps.google.com/maps?q=1311 REFUGEE RD.,+PICKERINGTON,+OH+43147&hl=en"
PIERCE TOWNSHIP POLICE DEPARTMENT,PIERCE TOWNSHIP POLICE DEPARTMENT,950 LOCUST CORNER RD,CINCINNATI,OH,45245,"http://maps.google.com/maps?q=950 LOCUST CORNER RD,+CINCINNATI,+OH+45245&hl=en"
PIQUA POLICE DEPARTMENT,PIQUA POLICE DEPARTMENT,100 N. WAYNE ST.,PIQUA,OH,45356,"http://maps.google.com/maps?q=100 N. WAYNE ST.,+PIQUA,+OH+45356&hl=en"
PLEASANTS COUNTY SHERIFF,PHILLIPS PHARMACY,329 2ND STREET,SAINT MARYS,WV,26170,"http://maps.google.com/maps?q=329 2ND STREET,+SAINT MARYS,+WV+26170&hl=en"
PREBLE COUNTY SHERIFF'S OFFICE,PREBLE COUNTY SHERIFF'S OFFICE,1139 PREBLE DRIVE,EATON,OH,45320,"http://maps.google.com/maps?q=1139 PREBLE DRIVE,+EATON,+OH+45320&hl=en"
PUTNAM COUNTY SHERIFF'S DEPARTMENT,PUTNAM COUNTY SHERIFF'S DEPARTMENT,SHERIFF'S DEPARTMENT3389 WINFIELD ROAD,WINFIELD,WV,25213,"http://maps.google.com/maps?q=SHERIFF'S DEPARTMENT,+WINFIELD,+WV+25213&hl=en"
PUTNAM COUNTY SHERIFF'S OFFICE,PUTNAM COUNTY SHERIFF'S OFFICE,1035 HERITAGE TRAIL,OTTAWA,OH,45875,"http://maps.google.com/maps?q=1035 HERITAGE TRAIL,+OTTAWA,+OH+45875&hl=en"
REYNOLDSBURG POLICE DEPARTMENT,REYNOLDSBURG POLICE DEPARTMENT EDWARD K KALLAY,7240 E. MAIN ST,REYNOLDSBURG,OH,43068,"http://maps.google.com/maps?q=7240 E. MAIN ST,+REYNOLDSBURG,+OH+43068&hl=en"
RICHMOND POLICE DEPARTMENT,RICHMOND POLICE DEPARTMENT MSUTTON@RICHMONDINDIANA.GOV,50 NORTH 5TH STREET,RICHMOND,IN,47374,"http://maps.google.com/maps?q=50 NORTH 5TH STREET,+RICHMOND,+IN+47374&hl=en"
ROSS COUNTY SHERIFF'S OFFICE,ROSS COUNTY LAW COMPLEX,28 N PAINT ST.,CHILLICOTHE,OH,45601,"http://maps.google.com/maps?q=28 N PAINT ST.,+CHILLICOTHE,+OH+45601&hl=en"
ROSS TWP POLICE DEPARTMNET,ROSS TWP. POLICE DEPARTMENT,4055 HAMILTON CLEVES RD,FAIRFIELD,OH,45014,"http://maps.google.com/maps?q=4055 HAMILTON CLEVES RD,+FAIRFIELD,+OH+45014&hl=en"
ROWAN COUNTY SHERIFF'S OFFICE,KSP POST 8 MOREHEAD,1595 FLEMINGSBURG ROAD,MOREHEAD,KY,40351,"http://maps.google.com/maps?q=1595 FLEMINGSBURG ROAD,+MOREHEAD,+KY+40351&hl=en"
SANDUSKY COUNTY SHERIFF'S OFFICE,EASTSIDE FIRE AND POLICE,506 PINE ST.,FREMONT,OH,43420,"http://maps.google.com/maps?q=506 PINE ST.,+FREMONT,+OH+43420&hl=en"
SHARON TOWNSHIP POLICE DEPARTMENT,SHARON TOWNSHIP POLICE DEPARTMENT,95 E. WILSON BRIDGE ROAD,WORTHINGTON,OH,43085,"http://maps.google.com/maps?q=95 E. WILSON BRIDGE ROAD,+WORTHINGTON,+OH+43085&hl=en"
SHARONVILLE POLICE DEPARTMENT,SHARONVILLE MUNICIPAL BUILDING,10900 READING ROAD,CINCINNATI,OH,45241,"http://maps.google.com/maps?q=10900 READING ROAD,+CINCINNATI,+OH+45241&hl=en"
SISTERVILLE POLICE DEPARTMENT,SISTERVILLE PD,200 DIAMOND ST,SISTERSVILLE,WV,26175,"http://maps.google.com/maps?q=200 DIAMOND ST,+SISTERSVILLE,+WV+26175&hl=en"
SPENCER POLICE DEPARTMENT,SPENCER POLICE DEPARTMENT,116 COURT ST,SPENCER,WV,25276,"http://maps.google.com/maps?q=116 COURT ST,+SPENCER,+WV+25276&hl=en"
SPRINGBORO POLICE DEPARTMENT,CITY OF SPRINGBORO MUNICIPAL BUILDING,320 W CENTRAL AVE.,SPRINGBORO,OH,45066,"http://maps.google.com/maps?q=320 W CENTRAL AVE.,+SPRINGBORO,+OH+45066&hl=en"
SPRINGDALE POLICE DEPARTMENT,SPRINGDALE POLICE DEPARTMENT,12105 LAWNVIEW AVE.,CINCINNATI,OH,45246,"http://maps.google.com/maps?q=12105 LAWNVIEW AVE.,+CINCINNATI,+OH+45246&hl=en"
ST. ALBANS POLICE DEPARTMENT,ST. ALBANS POLICE DEPARTMENT,51 6TH AVENUE,SAINT ALBANS,WV,25177,"http://maps.google.com/maps?q=51 6TH AVENUE,+SAINT ALBANS,+WV+25177&hl=en"
SUMMA HEALTH POLICE DEPARTMENT,SUMMA HEALTH MEDINA MEDICAL CENTER,3780 MEDINA RD,MEDINA,OH,44256,"http://maps.google.com/maps?q=3780 MEDINA RD,+MEDINA,+OH+44256&hl=en"
SUMMIT COUNTY SHERIFF / DRUG UNIT,SUMMIT COUNTY SHERIFF'S OFFICE / DRUG UNIT,393 E. TURKEYFOOT LAKE ROAD,AKRON,OH,44319,"http://maps.google.com/maps?q=393 E. TURKEYFOOT LAKE ROAD,+AKRON,+OH+44319&hl=en"
TUSCARAWS COUNTY SHERIFFS OFFICE,TRINITY TWIN CITY HOSPITAL,819 N. 1ST STREET,DENNISON,OH,44621,"http://maps.google.com/maps?q=819 N. 1ST STREET,+DENNISON,+OH+44621&hl=en"
TUSCARAWS COUNTY SHERIFFS OFFICE,UNION HOSPITAL SOUTH ENTRANCE,659 BOULEVARD,DOVER,OH,44622,"http://maps.google.com/maps?q=659 BOULEVARD,+DOVER,+OH+44622&hl=en"
UNION COUNTY SHERIFF'S OFFICE,PLEASANT VALLEY FIRE DEPARTMENT,650 WEST MAIN STREET,PLAIN CITY,OH,43064,"http://maps.google.com/maps?q=650 WEST MAIN STREET,+PLAIN CITY,+OH+43064&hl=en"
UNION COUNTY SHERIFF'S OFFICE,RICHWOOD POLICE DEPARTMENT,153 NORTH FRANKLIN ST,RICHWOOD,OH,43344,"http://maps.google.com/maps?q=153 NORTH FRANKLIN ST,+RICHWOOD,+OH+43344&hl=en"
UNION COUNTY SHERIFF'S OFFICE,UNION COUNTY SHERIFF'S OFFICE,221 WEST 5TH ST,MARYSVILLE,OH,43040,"http://maps.google.com/maps?q=221 WEST 5TH ST,+MARYSVILLE,+OH+43040&hl=en"
UNIVERSITY OF DAYTON POLICE DEPARTMENT,UNIVERSITY OF DAYTON POLICE DEPARTMENT,300 COLLEGE PARK,DAYTON,OH,45469,"http://maps.google.com/maps?q=300 COLLEGE PARK,+DAYTON,+OH+45469&hl=en"
UPPER ARLINGTON DIVISION OF POLICE,UPPER ARLINGTON POLICE DIVISION MUNICIPAL SERVICES CENTER,3600 TREMONT ROAD,UPPER ARLINGTON,OH,43221,"http://maps.google.com/maps?q=3600 TREMONT ROAD,+UPPER ARLINGTON,+OH+43221&hl=en"
"URBANA, OH POLICE DIVISION",KROGER PARKING LOT,1637 E. U.S. HWY. 36,URBANA,OH,43078,"http://maps.google.com/maps?q=1637 E. U.S. HWY. 36,+URBANA,+OH+43078&hl=en"
VAN WERT COUNTY SHERIFF'S OFFICE,VAN WERT COUNTY SHERIFF'S OFFICE,113 NORTH MARKET STREET,VAN WERT,OH,45891,"http://maps.google.com/maps?q=113 NORTH MARKET STREET,+VAN WERT,+OH+45891&hl=en"
VANDALIA DIVISION OF POLICE,VANDALIA KROGER,780 NORTHWOODS BLVD,VANDALIA,OH,45377,"http://maps.google.com/maps?q=780 NORTHWOODS BLVD,+VANDALIA,+OH+45377&hl=en"
VANDALIA DIVISION OF POLICE,VANDALIA POLICE DEPARTMENT,245 JAMES BOHANAN DR.,VANDALIA,OH,45377,"http://maps.google.com/maps?q=245 JAMES BOHANAN DR.,+VANDALIA,+OH+45377&hl=en"
VIENNA WV POLICE DEPARTMENT,VIENNA VOLUNTEER FD,609 28TH ST,VIENNA,WV,26105,"http://maps.google.com/maps?q=609 28TH ST,+VIENNA,+WV+26105&hl=en"
"VILLAGE OF EVENDALE, OHIO",EVENDALE POLICE DEPARTMENT CHIEF NIEL KORTE,10500 READING RD,CINCINNATI,OH,45241,"http://maps.google.com/maps?q=10500 READING RD,+CINCINNATI,+OH+45241&hl=en"
WAPAKONETA POLICE DEPARTMENT,WAPAKONETA POLICE DEPARTMENT,701 PARLETTE CT,WAPAKONETA,OH,45895,"http://maps.google.com/maps?q=701 PARLETTE CT,+WAPAKONETA,+OH+45895&hl=en"
WARREN COUNTY DRUG TASK FORCE,KROGER,5100 TERRA FIRMA DR.,MASON,OH,45040,"http://maps.google.com/maps?q=5100 TERRA FIRMA DR.,+MASON,+OH+45040&hl=en"
WASHINGTON COUNTY SHERIFF'S OFFICE,BELPRE SENIOR CENTER PARKING LOT,1614 WASHINGTON BLVD,BELPRE,OH,45714,"http://maps.google.com/maps?q=1614 WASHINGTON BLVD,+BELPRE,+OH+45714&hl=en"
WASHINGTON COUNTY SHERIFF'S OFFICE,BUCKEYE HILLS AREA AGENCY ON AGING PARKING LOT,1400 NEWPORT PIKE,RENO,OH,45773,"http://maps.google.com/maps?q=1400 NEWPORT PIKE,+RENO,+OH+45773&hl=en"
WASHINGTON COUNTY SHERIFF'S OFFICE,CORNER OF 2ND ST AND PUTNAM ST,CORNER OF 2ND ST AND PUTNAM ST,MARIETTA,OH,45750,"http://maps.google.com/maps?q=CORNER OF 2ND ST AND PUTNAM ST,+MARIETTA,+OH+45750&hl=en"
WASHINGTON COUNTY SHERIFF'S OFFICE,DEVOLA MEDICAL CENTER PARKING LOT,4727 STATE ROUTE 60,MARIETTA,OH,45750,"http://maps.google.com/maps?q=4727 STATE ROUTE 60,+MARIETTA,+OH+45750&hl=en"
WASHINGTON COUNTY SHERIFF'S OFFICE,FORT FRYE HIGH SCHOOL PARKING LOT,420 FIFTH STREET,BEVERLY,OH,45715,"http://maps.google.com/maps?q=420 FIFTH STREET,+BEVERLY,+OH+45715&hl=en"
WASHINGTON COUNTY SHERIFF'S OFFICE,"HARDWARE COMPONENTS, INC",1021 PARK AVENUE,NEW MATAMORAS,OH,45767,"http://maps.google.com/maps?q=1021 PARK AVENUE,+NEW MATAMORAS,+OH+45767&hl=en"
WASHINGTON COUNTY SHERIFF'S OFFICE,WASHINGTON COUNTY SHERIFF'S OFFICE 24HR DROP BOX LOCATED IN LOBBY,309 4TH STREET,MARIETTA,OH,45750,"http://maps.google.com/maps?q=309 4TH STREET,+MARIETTA,+OH+45750&hl=en"
WASHINGTON COUNTY SHERIFF'S OFFICE,WHITE OAK PHARMACY PARKING LOT,8465 STATE ROUTE 339,BARLOW,OH,45712,"http://maps.google.com/maps?q=8465 STATE ROUTE 339,+BARLOW,+OH+45712&hl=en"
WAYNESVILLE POLICE DEPARTMENT,WAYNESVILLE POLICE DEPARTMENT,1400 LYTLE ROAD,WAYNESVILLE,OH,45068,"http://maps.google.com/maps?q=1400 LYTLE ROAD,+WAYNESVILLE,+OH+45068&hl=en"
WEST CHESTER POLICE DEPARTMENT,WALGREENS PARKING LOT,7804 CINCINNATI-DAYTON ROAD,WEST CHESTER,OH,45069,"http://maps.google.com/maps?q=7804 CINCINNATI-DAYTON ROAD,+WEST CHESTER,+OH+45069&hl=en"
WEST JEFFERSON POLICE DEPARTMENT,JEFFERSON TOWNSHIP FIRE DEPARTMENT,745 WEST MAIN ST.,WEST JEFFERSON,OH,43162,"http://maps.google.com/maps?q=745 WEST MAIN ST.,+WEST JEFFERSON,+OH+43162&hl=en"
WEST VIRGINIA STATE POLICE,WEST VIRGINIA STATE POLICE SGT B K WELLMAN/3045285555,3339 US ROUTE 60 EAST,HUNTINGTON,WV,25705,"http://maps.google.com/maps?q=3339 US ROUTE 60 EAST,+HUNTINGTON,+WV+25705&hl=en"
WEST VIRGINIA STATE POLICE,WEST VIRGINIA STATE POLICE SGT R.E. RICHARDSON/3044204600,3828 STAUNTON TPK.,PARKERSBURG,WV,26104,"http://maps.google.com/maps?q=3828 STAUNTON TPK.,+PARKERSBURG,+WV+26104&hl=en"
WEST VIRGINIA STATE POLICE,WEST VIRGINIA STATE POLICE SGT R.J. DRAKE/3048243101,8021 COURT AVENUE,HAMLIN,WV,25523,"http://maps.google.com/maps?q=8021 COURT AVENUE,+HAMLIN,+WV+25523&hl=en"
WEST VIRGINIA STATE POLICE,WEST VIRGINIA STATE POLICE SGT. B.K. HAMMONTREE/3045587777,711 JEFFERSON ROAD,SOUTH CHARLESTON,WV,25309,"http://maps.google.com/maps?q=711 JEFFERSON ROAD,+SOUTH CHARLESTON,+WV+25309&hl=en"
WEST VIRGINIA STATE POLICE,WEST VIRGINIA STATE POLICE SGT. C.H.FLOWERS/304-586-2000,3389 WINFIELD ROAD,WINFIELD,WV,25213,"http://maps.google.com/maps?q=3389 WINFIELD ROAD,+WINFIELD,+WV+25213&hl=en"
WESTERVILLE DIVISION OF POLICE,WALGREENS,748 N. STATE ST,WESTERVILLE,OH,43082,"http://maps.google.com/maps?q=748 N. STATE ST,+WESTERVILLE,+OH+43082&hl=en"
WETZEL COUNTY SHERIFF'S OFFICE,NEW MARTINSVILLE FIRE DEPT,400 OHIO STREET,NEW MARTINSVILLE,WV,26155,"http://maps.google.com/maps?q=400 OHIO STREET,+NEW MARTINSVILLE,+WV+26155&hl=en"
WHITEHALL DIVISION OF POLICE,WHITEHALL DIVISION OF POLICE TRACY SHARPLESS,365 S. YEARLING RD.,COLUMBUS,OH,43213,"http://maps.google.com/maps?q=365 S. YEARLING RD.,+COLUMBUS,+OH+43213&hl=en"
WILLIAMSTOWN POLICE DEPT,WILLIAMSTOWN PD,100 WEST 5TH ST,WILLIAMSTOWN,WV,26187,"http://maps.google.com/maps?q=100 WEST 5TH ST,+WILLIAMSTOWN,+WV+26187&hl=en"
WILMINGTON POLICE DEPARTMENT,BLANCHESTER POLICE DEPARTMENT,318 E MAIN,BLANCHESTER,OH,45107,"http://maps.google.com/maps?q=318 E MAIN,+BLANCHESTER,+OH+45107&hl=en"
WILMINGTON POLICE DEPARTMENT,CVS OF WILMINGTON,120 E MAIN STREET,WILMINGTON,OH,45177,"http://maps.google.com/maps?q=120 E MAIN STREET,+WILMINGTON,+OH+45177&hl=en"
WILMINGTON POLICE DEPARTMENT,UHL'S,444 E WASHINGTON,SABINA,OH,45169,"http://maps.google.com/maps?q=444 E WASHINGTON,+SABINA,+OH+45169&hl=en"
WINFIELD WV POLICE DEPT,WINFIELD WV POLICE DEPARTMENT,3232 WINFIELD ROAD,WINFIELD,WV,25213,"http://maps.google.com/maps?q=3232 WINFIELD ROAD,+WINFIELD,+WV+25213&hl=en"
WIRT COUNTY SHERIFF'S DEPARTMENT,WIRT COUNTY SHERIFF'S DEPT,100 COURT SQURE,ELIZABETH,WV,26143,"http://maps.google.com/maps?q=100 COURT SQURE,+ELIZABETH,+WV+26143&hl=en"
WOOD COUNTY SHERIFF'S OFFICE,WOOD COUNTY SHERIFF'S OFFICE DET. SGT. ROD SMITH,1960 E. GYPSY LNBOWLING GREEN,BOWLING GREEN,OH,43402,"http://maps.google.com/maps?q=1960 E. GYPSY LN,+BOWLING GREEN,+OH+43402&hl=en"
WOOD COUNTY WV SHERIFF'S DEPARTMENT,LUBECK VFD,1340 HARRIS HWY,PARKERSBURG,WV,26101,"http://maps.google.com/maps?q=1340 HARRIS HWY,+PARKERSBURG,+WV+26101&hl=en"
WOOD COUNTY WV SHERIFF'S DEPARTMENT,MINERAL WELLS VFD,1695 ELIZABETH PIKE,MINERAL WELLS,WV,26150,"http://maps.google.com/maps?q=1695 ELIZABETH PIKE,+MINERAL WELLS,+WV+26150&hl=en"
WOOD COUNTY WV SHERIFF'S DEPARTMENT,WAVERLY VFD,15425 EMERSON AVE,WAVERLY,WV,26184,"http://maps.google.com/maps?q=15425 EMERSON AVE,+WAVERLY,+WV+26184&hl=en"
WORTHINGTON DIVISION OF POLICE,WORTHINGTON DIVISION OF POLICE,6555 WORTHINGTON GALLENA RD,COLUMBUS,OH,43085,"http://maps.google.com/maps?q=6555 WORTHINGTON GALLENA RD,+COLUMBUS,+OH+43085&hl=en"
