Participant,CollectionSite,Address,City,State,Zip,MapURL
AKRON POLICE DEPARTMENT,AKRON METRO REGIONAL TRANSIT CENTER VISITOR'S PARKING LOT,631 S BROADWAY STREET,AKRON,OH,44311,"http://maps.google.com/maps?q=631 S BROADWAY STREET,+AKRON,+OH+44311&hl=en"
ALBION DEPARTMENT OF PUBLIC SAFETY,FAMILY FARE SUPERMARKET DRUG TAKE-BACK DAYS ONLY,1406 N. EATON ST.,ALBION,MI,49224,"http://maps.google.com/maps?q=1406 N. EATON ST.,+ALBION,+MI+49224&hl=en"
ALLEGAN COUNTY SHERIFF'S OFC.,ALLEGAN COUNTY SHERIFF'S OFC.,640 RIVER ST.,ALLEGAN,MI,49010,"http://maps.google.com/maps?q=640 RIVER ST.,+ALLEGAN,+MI+49010&hl=en"
ALLEGHENY COUNTY POLICE - DISTRICT II,ALLEGHENY COUNTY POLICE DISTRICT II,1801 BROWNSVILLE RD.,SOUTH PARK,PA,15129,"http://maps.google.com/maps?q=1801 BROWNSVILLE RD.,+SOUTH PARK,+PA+15129&hl=en"
ALLEGHENY COUNTY POLICE DEPARTMENT,SOUTH PARK STATION,1801 BROWNSVILLE ROAD,SOUTH PARK,PA,15129,"http://maps.google.com/maps?q=1801 BROWNSVILLE ROAD,+SOUTH PARK,+PA+15129&hl=en"
ARCHBOLD POLICE DEPARTMENT,ARCHBOLD POLICE DEPARTMENT,405 E. LUTZ RD,ARCHBOLD,OH,43502,"http://maps.google.com/maps?q=405 E. LUTZ RD,+ARCHBOLD,+OH+43502&hl=en"
ATHENS POLICE DEPARTMENT,ATHENS ELKS LODGE PARKING LOT,600 WEST UNION STREET,ATHENS,OH,45701,"http://maps.google.com/maps?q=600 WEST UNION STREET,+ATHENS,+OH+45701&hl=en"
AURORA POLICE DEPARTMENT,AURORA POLICE DEPARTMENT,100 S. AURORA RD,AURORA,OH,44202,"http://maps.google.com/maps?q=100 S. AURORA RD,+AURORA,+OH+44202&hl=en"
AUSTINTOWN POLICE DEPARTMENT,AUSTINTOWN TOWNSHIP POLICE DISTRICT OUTDOOR DRIVE-THRU COLLECTION,92 OHLTOWN RD.,YOUNGSTOWN,OH,44515,"http://maps.google.com/maps?q=92 OHLTOWN RD.,+YOUNGSTOWN,+OH+44515&hl=en"
BAKER COLLEGE DPS,BAKER COLLEGE OF FLINT CAMPUS SAFETY OFFICE,1050 W. BRISTOL RD,FLINT,MI,48507,"http://maps.google.com/maps?q=1050 W. BRISTOL RD,+FLINT,+MI+48507&hl=en"
BARBERTON POLICE DEPARTMENT,THE OLD FIRST MERIT BUILDING,480 WEST TUSCAWARAS,BARBERTON,OH,44203,"http://maps.google.com/maps?q=480 WEST TUSCAWARAS,+BARBERTON,+OH+44203&hl=en"
BARRY COUNTY SHERIFF'S DEPARTMENT,BARRY COUNTY SHERIFF'S DEPARTMENT,1212 W STATE STREET,HASTINGS,MI,49058,"http://maps.google.com/maps?q=1212 W STATE STREET,+HASTINGS,+MI+49058&hl=en"
BATH TOWNSHIP POLICE DEPARTMENT,ACME MARKET JIM PEARL- MANAGER,3979 MEDINA RD.,AKRON,OH,44333,"http://maps.google.com/maps?q=3979 MEDINA RD.,+AKRON,+OH+44333&hl=en"
BEAVER POLICE DEPARTMENT,BEAVER POLICE DEPARTMENT FRONT LOBBY,601 W SOUTH RANGE RD,NORTH LIMA,OH,44452,"http://maps.google.com/maps?q=601 W SOUTH RANGE RD,+NORTH LIMA,+OH+44452&hl=en"
BELLEFONTAINE POLICE DEPARTMENT,MARY RUTAN HOSPITAL (OUTSIDE MAIN ENTRANCE),205 PALMER AVE.,BELLEFONTAINE,OH,43311,"http://maps.google.com/maps?q=205 PALMER AVE.,+BELLEFONTAINE,+OH+43311&hl=en"
BELLEVUE POLICE DEPARTMENT,BELLEVUE POLICE DEPARTMENT,3000 SENECA INDUSTRIAL PKWY,BELLEVUE,OH,44811,"http://maps.google.com/maps?q=3000 SENECA INDUSTRIAL PKWY,+BELLEVUE,+OH+44811&hl=en"
BELMONT COUNTY SHERIFF'S OFFICE,OHIO STATE PATROL- ST. CLAIRSVILLE,51400 NATIONAL ROAD,SAINT CLAIRSVILLE,OH,43950,"http://maps.google.com/maps?q=51400 NATIONAL ROAD,+SAINT CLAIRSVILLE,+OH+43950&hl=en"
BELMONT COUNTY SHERIFF'S OFFICE,RIESBECK'S FOOD STORE,104 PLAZA DRIVE,SAINT CLAIRSVILLE,OH,43950,"http://maps.google.com/maps?q=104 PLAZA DRIVE,+SAINT CLAIRSVILLE,+OH+43950&hl=en"
BELMONT COUNTY SHERIFF'S OFFICE,RIESBECK'S FOOD STORE,4595 CENTRAL AVENUE,SHADYSIDE,OH,43947,"http://maps.google.com/maps?q=4595 CENTRAL AVENUE,+SHADYSIDE,+OH+43947&hl=en"
BELMONT COUNTY SHERIFF'S OFFICE,RIESBECK'S FOOD STORE,56130 NATIONAL ROAD,BRIDGEPORT,OH,43912,"http://maps.google.com/maps?q=56130 NATIONAL ROAD,+BRIDGEPORT,+OH+43912&hl=en"
BEREA POLICE DEPARTMENT,BEREA ELKS LODGE #1815,626 N. ROCKY RIVER DR.,BEREA,OH,44017,"http://maps.google.com/maps?q=626 N. ROCKY RIVER DR.,+BEREA,+OH+44017&hl=en"
BERKLEY PUBLIC SAFETY,BERKLEY PUBLIC SAFETY LOBBY,2395 W 12 MILE,BERKLEY,MI,48072,"http://maps.google.com/maps?q=2395 W 12 MILE,+BERKLEY,+MI+48072&hl=en"
BEXLEY POLICE DEPARTMENT,BEXLEY POLICE DEPARTMENT DAWN OVERLY,559 NORTH CASSINGHAM ROADBEXLEY,COLUMBUS,OH,43209,"http://maps.google.com/maps?q=559 NORTH CASSINGHAM ROAD,+COLUMBUS,+OH+43209&hl=en"
BLOOMFIELD HILLS DEPARTMENT OF PUBLIC SAFETY,BLOOMFIELD HILLS DEPARTMENT OF PUBLIC SAFETY,45 E. LONG LAKE RD.,BLOOMFIELD HILLS,MI,48304,"http://maps.google.com/maps?q=45 E. LONG LAKE RD.,+BLOOMFIELD HILLS,+MI+48304&hl=en"
BLOOMFIELD HILLS DEPARTMENT OF PUBLIC SAFETY,CITY OF BLOOMFIELD HILLS DEPARTMETNOF PUBLIC SAFETY,45 E. LONG LAKE RD,BLOOMFIELD HILLS,MI,48304,"http://maps.google.com/maps?q=45 E. LONG LAKE RD,+BLOOMFIELD HILLS,+MI+48304&hl=en"
BLOOMFIELD TOWNSHIP POLICE DEPARTMENT,BLOOMFIELD TOWNSHIP POLICE DEPARTMENT,4200 TELEGRAPH ROAD,BLOOMFIELD HILLS,MI,48302,"http://maps.google.com/maps?q=4200 TELEGRAPH ROAD,+BLOOMFIELD HILLS,+MI+48302&hl=en"
BOARDMAN POLICE DEPARTMENT,BOARDMAN POLICE DEPARTMENT,8299 MARKET STREET,BOARDMAN,OH,44512,"http://maps.google.com/maps?q=8299 MARKET STREET,+BOARDMAN,+OH+44512&hl=en"
BOWLING GREEN POLICE DIVISION,BOWLING GREEN POLICE DIVISION,175 W. WOOSTER,BOWLING GREEN,OH,43402,"http://maps.google.com/maps?q=175 W. WOOSTER,+BOWLING GREEN,+OH+43402&hl=en"
BREMEN POLICE DEPARTMENT,CVS PHARMACY,1150 W. PLYMOUTH STREET,BREMEN,IN,46506,"http://maps.google.com/maps?q=1150 W. PLYMOUTH STREET,+BREMEN,+IN+46506&hl=en"
BRIGHTON POLICE DEPARTMENT,BRIGHTON POLICE DEPARTMENT,440 S THIRD STREET,BRIGHTON,MI,48116,"http://maps.google.com/maps?q=440 S THIRD STREET,+BRIGHTON,+MI+48116&hl=en"
BRIMFIELD POLICE DEPARTMENT,BRIMFIELD POLICE DEPARTMENT,1287 TALLMADGE RD,KENT,OH,44240,"http://maps.google.com/maps?q=1287 TALLMADGE RD,+KENT,+OH+44240&hl=en"
BROOKE COUNTY SHERIFF'S OFFICE,BROOKE COUNTY COURTHOUSE GREEN ROOM,632 MAIN STREET,WELLSBURG,WV,26070,"http://maps.google.com/maps?q=632 MAIN STREET,+WELLSBURG,+WV+26070&hl=en"
BROWNSTOWN TOWNSHIP POLICE DEPARTMENT,BROWNSTOWN POLICE DEPARTMENT,23125 KING ROAD,BROWNSTOWN,MI,48183,"http://maps.google.com/maps?q=23125 KING ROAD,+BROWNSTOWN,+MI+48183&hl=en"
BURTON POLICE DEPARTMENT,BURTON POLICE DEPARTMENT,4090 MANOR DRIVE,BURTON,MI,48519,"http://maps.google.com/maps?q=4090 MANOR DRIVE,+BURTON,+MI+48519&hl=en"
BUTLER TOWNSHIP POLICE DEPARTMENT,BUTLER TOWNSHIP POLICE DEPARTMENT MAIN LOBBY,3510 SUDACHI DR,DAYTON,OH,45414,"http://maps.google.com/maps?q=3510 SUDACHI DR,+DAYTON,+OH+45414&hl=en"
CALHOUN COUNTY SHERIFF,CALHOUN COUNTY SHERIFF,363 MAIN STSTE 204,GRANTSVILLE,WV,26147,"http://maps.google.com/maps?q=363 MAIN ST,+GRANTSVILLE,+WV+26147&hl=en"
CAMERON POLICE DEPARTMENT,CAMERON POLICE DEPARTMENT,44 MAIN STREET,CAMERON,WV,26033,"http://maps.google.com/maps?q=44 MAIN STREET,+CAMERON,+WV+26033&hl=en"
CANFIELD POLICE DEPARTMENT,CANFIELD POLICE DEPARTMENT JOSH WELLS,104 LISBON ST.,CANFIELD,OH,44406,"http://maps.google.com/maps?q=104 LISBON ST.,+CANFIELD,+OH+44406&hl=en"
CANONSBURG POLICE DEPARTMENT,SHOP AND SAVE GROCERY STORE,617 WEST PIKE STREET,CANONSBURG,PA,15317,"http://maps.google.com/maps?q=617 WEST PIKE STREET,+CANONSBURG,+PA+15317&hl=en"
CANTON MI POLICE DEPARTMENT,CANTON POLICE DEPARTMENT,1150 S. CANTON CENTER ROAD,CANTON,MI,48188,"http://maps.google.com/maps?q=1150 S. CANTON CENTER ROAD,+CANTON,+MI+48188&hl=en"
CARROLL TOWNSHIP POLICE DEPARTMENT,"MONONGAHELA VALLEY HOSPITAL, INC.",1163 COUNTRY CLUB ROAD,MONONGAHELA,PA,15063,"http://maps.google.com/maps?q=1163 COUNTRY CLUB ROAD,+MONONGAHELA,+PA+15063&hl=en"
CASS COALITION,CASS COUNTY SHERIFF'S OFFICE PERMANENT DROP BOX AVAILABLE 24/7,321 M-62,CASSOPOLIS,MI,49031,"http://maps.google.com/maps?q=321 M-62,+CASSOPOLIS,+MI+49031&hl=en"
CASS COALITION,FAMILY FARE RED BOX AVAILABLE,56151 M-51 SOUTH,DOWAGIAC,MI,49047,"http://maps.google.com/maps?q=56151 M-51 SOUTH,+DOWAGIAC,+MI+49047&hl=en"
CASS COALITION,HOWARD TOWNSHIP HALL,1345 BARRON LAKE ROAD,NILES,MI,49120,"http://maps.google.com/maps?q=1345 BARRON LAKE ROAD,+NILES,+MI+49120&hl=en"
CASS COALITION,MARCELLUS TOWNSHIP HALL,13163 MARCELLUS HWY,MARCELLUS,MI,49067,"http://maps.google.com/maps?q=13163 MARCELLUS HWY,+MARCELLUS,+MI+49067&hl=en"
CASS COALITION,ONTWA TWP/EDWARDSBURG POLICE DEPT EXTENDED RED MED BOX AVAILABLITY,26296 US-12,EDWARDSBURG,MI,49112,"http://maps.google.com/maps?q=26296 US-12,+EDWARDSBURG,+MI+49112&hl=en"
CASS COALITION,SILVER CREEK TOWNSHIP HALL,32764 DIXON ST,DOWAGIAC,MI,49047,"http://maps.google.com/maps?q=32764 DIXON ST,+DOWAGIAC,+MI+49047&hl=en"
CHARLESTON POLICE DEPARTMENT,DRUG EMPORIUM,1603 KANAWHA BLVDWEST,CHARLESTON,WV,25302,"http://maps.google.com/maps?q=1603 KANAWHA BLVDWEST,+CHARLESTON,+WV+25302&hl=en"
CHARLESTON POLICE DEPARTMENT,WALGREENS DRUGSTORE PARKING LOT,655 WASHINGTON STREET W,CHARLESTON,WV,25302,"http://maps.google.com/maps?q=655 WASHINGTON STREET W,+CHARLESTON,+WV+25302&hl=en"
CHARTIERS TOWNSHIP POLICE DEPARTMENT,CHARTIERS TOWNSHIP POLICE DEPARTMENT,2 BUCCANEER DRIVE,HOUSTON,PA,15342,"http://maps.google.com/maps?q=2 BUCCANEER DRIVE,+HOUSTON,+PA+15342&hl=en"
CHESTER POLICE DEPT,CHESTER POLICE DEPT,600 INDIANA AVE,CHESTER,WV,26034,"http://maps.google.com/maps?q=600 INDIANA AVE,+CHESTER,+WV+26034&hl=en"
CITY OF ANN ARBOR POLICE DEPARTMENT,ST. FRANCIS OF ASSISI CATHOLIC CHURCH,2250 E STADIUM BLVD,ANN ARBOR,MI,48104,"http://maps.google.com/maps?q=2250 E STADIUM BLVD,+ANN ARBOR,+MI+48104&hl=en"
CITY OF CLAIRTON POLICE DEPARTMENT,RITE AID DRUG STORE,623 ST. CLAIR AVE.,CLAIRTON,PA,15025,"http://maps.google.com/maps?q=623 ST. CLAIR AVE.,+CLAIRTON,+PA+15025&hl=en"
CITY OF HARPER WOODS,HARPER WOODS POLICE DEPARTMENT,19617 HARPER,HARPER WOODS,MI,48225,"http://maps.google.com/maps?q=19617 HARPER,+HARPER WOODS,+MI+48225&hl=en"
CITY OF WASHINGTON POLICE DEPT,CITY OF WASHINGTON POLICE DEPT,56 WEST STRAWBERRY AVE,WASHINGTON,PA,15301,"http://maps.google.com/maps?q=56 WEST STRAWBERRY AVE,+WASHINGTON,+PA+15301&hl=en"
CLARK COUNTY SHERIFF'S OFFICE,CLARK COUNTY SHERIFF'S OFFICE EAST DISTRICT OFFICE,3130 EAST MAIN STREET,SPRINGFIELD,OH,45503,"http://maps.google.com/maps?q=3130 EAST MAIN STREET,+SPRINGFIELD,+OH+45503&hl=en"
CLARKSBURG POLICE DEPARTMENT,CLARKSBURG POLICE DEPARTMENT,222 WEST MAIN STREETREAR LOT,CLARKSBURG,WV,26301,"http://maps.google.com/maps?q=222 WEST MAIN STREET,+CLARKSBURG,+WV+26301&hl=en"
CLEVELAND POLICE DEPARTMENT,CLEVELAND POLICE DEPARTMENT DISTRICT 1,3895 W 130TH STREET,CLEVELAND,OH,44111,"http://maps.google.com/maps?q=3895 W 130TH STREET,+CLEVELAND,+OH+44111&hl=en"
CLINTON TOWNSHIP POLICE,CLINTON TOWNSHIP HALL FRONT ENTRANCE,3820 CLEVELAND AVE,COLUMBUS,OH,43224,"http://maps.google.com/maps?q=3820 CLEVELAND AVE,+COLUMBUS,+OH+43224&hl=en"
CLINTON TOWNSHIP POLICE DEPARTMENT,CLINTON TOWNSHIP POLICE DEPARTMENT,37985 GROESBECK,CLINTON TOWNSHIP,MI,48038,"http://maps.google.com/maps?q=37985 GROESBECK,+CLINTON TOWNSHIP,+MI+48038&hl=en"
CLYDE POLICE DEPARTMENT,CLYDE POLICE DEPARTMENT,222 N. MAIN ST.,CLYDE,OH,43410,"http://maps.google.com/maps?q=222 N. MAIN ST.,+CLYDE,+OH+43410&hl=en"
CMHSAS OF ST. JOSEPH COUNTY,ST. JOSEPH COUNTY SHERIFF'S OFFICE,650 EAST MAIN STREET,CENTREVILLE,MI,49032,"http://maps.google.com/maps?q=650 EAST MAIN STREET,+CENTREVILLE,+MI+49032&hl=en"
COLUMBUS DIVISION OF POLICE,COLUMBUS HEALTH DEPARTMENT,240 PARSONS AVE,COLUMBUS,OH,43215,"http://maps.google.com/maps?q=240 PARSONS AVE,+COLUMBUS,+OH+43215&hl=en"
COPLEY POLICE DEPARTMENT,COPLEY POLICE DEPARTMENT,1280 SUNSET DRIVE,COPLEY,OH,44321,"http://maps.google.com/maps?q=1280 SUNSET DRIVE,+COPLEY,+OH+44321&hl=en"
CRESCENT TOWNSHIP POLICE,CRESCENT TOWNSHIP POLICE,225 SPRING RUN RD.,CRESCENT,PA,15046,"http://maps.google.com/maps?q=225 SPRING RUN RD.,+CRESCENT,+PA+15046&hl=en"
CUYAHOGA FALLS POLICE DEPARTMENT,CITY OF CUYAHOGA FALLS CITY HALL,2310 SECOND ST,CUYAHOGA FALLS,OH,44221,"http://maps.google.com/maps?q=2310 SECOND ST,+CUYAHOGA FALLS,+OH+44221&hl=en"
DAYTON POLICE DEPARTMENT,DAYTON POLICE DEPARTMENT 3RD DISTRICT OFFICE,951 WASHINGTON STREET,DAYTON,OH,45402,"http://maps.google.com/maps?q=951 WASHINGTON STREET,+DAYTON,+OH+45402&hl=en"
DAYTON POLICE DEPARTMENT,DAYTON POLICE DEPARTMENT 5TH DISTRICT OFFICE,248 SALEM AVENUE,DAYTON,OH,45406,"http://maps.google.com/maps?q=248 SALEM AVENUE,+DAYTON,+OH+45406&hl=en"
DAYTON POLICE DEPARTMENT,DAYTON POLICE SAFETY BUILDING,335 W THIRD STREET,DAYTON,OH,45402,"http://maps.google.com/maps?q=335 W THIRD STREET,+DAYTON,+OH+45402&hl=en"
DEARBORN HEIGHTS POLICE DEPARTMENT,DEARBORN HEIGHTS POLICE DEPARTMENT,25637 MICHIGAN AVE,DEARBORN HEIGHTS,MI,48125,"http://maps.google.com/maps?q=25637 MICHIGAN AVE,+DEARBORN HEIGHTS,+MI+48125&hl=en"
DEARBORN POLICE DEPARTMENT,DEARBORN POLICE DEPARTMENT,16099 MICHIGAN AVE,DEARBORN,MI,48126,"http://maps.google.com/maps?q=16099 MICHIGAN AVE,+DEARBORN,+MI+48126&hl=en"
DECATUR POLICE DEPARTMENT,DECATUR POLICE DEPARTMENT,112 SOUTH 7TH STREET,DECATUR,IN,46733,"http://maps.google.com/maps?q=112 SOUTH 7TH STREET,+DECATUR,+IN+46733&hl=en"
DEFIANCE COUNTY SHERIFF'S OFFICE,DEFIANCE COUNTY SHERIFF'S OFFICE,113 BIEDE AVE,DEFIANCE,OH,43512,"http://maps.google.com/maps?q=113 BIEDE AVE,+DEFIANCE,+OH+43512&hl=en"
DELAWARE COUNTY SHERIFF'S OFFICE,KROGER,3975W. POWELL RD,POWELL,OH,43065,"http://maps.google.com/maps?q=3975,+POWELL,+OH+43065&hl=en"
DELTA POLICE DEPARTMENT,DELTA MEMORIAL HALL,401 MAIN STREET,DELTA,OH,43515,"http://maps.google.com/maps?q=401 MAIN STREET,+DELTA,+OH+43515&hl=en"
DETROIT POLICE DEPARTMENT,DETROIT POLICE DEPARTMENT 10TH PRECINCT,12000 LIVERNOIS,DETROIT,MI,48206,"http://maps.google.com/maps?q=12000 LIVERNOIS,+DETROIT,+MI+48206&hl=en"
DETROIT POLICE DEPARTMENT,DETROIT POLICE DEPARTMENT 11TH PRECINCT,5100 E. NEVADA,DETROIT,MI,48234,"http://maps.google.com/maps?q=5100 E. NEVADA,+DETROIT,+MI+48234&hl=en"
DETROIT POLICE DEPARTMENT,DETROIT POLICE DEPARTMENT 12TH PRECINCT,1441 W 7 MILE,HIGHLAND PARK,MI,48203,"http://maps.google.com/maps?q=1441 W 7 MILE,+HIGHLAND PARK,+MI+48203&hl=en"
DETROIT POLICE DEPARTMENT,DETROIT POLICE DEPARTMENT 3RD PRECINCT,2875 W. GRAND BLVDSUITE 227,DETROIT,MI,48202,"http://maps.google.com/maps?q=2875 W. GRAND BLVD,+DETROIT,+MI+48202&hl=en"
DETROIT POLICE DEPARTMENT,DETROIT POLICE DEPARTMENT 4TH PRECINCT,4700 W. FORT,DETROIT,MI,48209,"http://maps.google.com/maps?q=4700 W. FORT,+DETROIT,+MI+48209&hl=en"
DETROIT POLICE DEPARTMENT,DETROIT POLICE DEPARTMENT 5TH PRECINCT,3500 CONNER AVE,DETROIT,MI,48215,"http://maps.google.com/maps?q=3500 CONNER AVE,+DETROIT,+MI+48215&hl=en"
DETROIT POLICE DEPARTMENT,DETROIT POLICE DEPARTMENT 6TH PRECINCT,11450 WARWICK,DETROIT,MI,48228,"http://maps.google.com/maps?q=11450 WARWICK,+DETROIT,+MI+48228&hl=en"
DETROIT POLICE DEPARTMENT,DETROIT POLICE DEPARTMENT 7TH PRECINCT,3501 CHENE ST,DETROIT,MI,48207,"http://maps.google.com/maps?q=3501 CHENE ST,+DETROIT,+MI+48207&hl=en"
DETROIT POLICE DEPARTMENT,DETROIT POLICE DEPARTMENT 8TH PRECINCT,21555 W. MCNICHOLS RD.,DETROIT,MI,48219,"http://maps.google.com/maps?q=21555 W. MCNICHOLS RD.,+DETROIT,+MI+48219&hl=en"
DETROIT POLICE DEPARTMENT,DETROIT POLICE DEPARTMENT 9TH PRECINCT,11187 GRATIOT,DETROIT,MI,48213,"http://maps.google.com/maps?q=11187 GRATIOT,+DETROIT,+MI+48213&hl=en"
DETROIT POLICE DEPARTMENT,DETROIT POLICE DEPARTMENT DOWNTOWN SERVICES,20 ATWATER,DETROIT,MI,48226,"http://maps.google.com/maps?q=20 ATWATER,+DETROIT,+MI+48226&hl=en"
DETROIT POLICE DEPARTMENT,ST. JOHNS CONNER CREEK 11TH PRECINCT SECONDARY,4777 E OUTER DRIVE,DETROIT,MI,48234,"http://maps.google.com/maps?q=4777 E OUTER DRIVE,+DETROIT,+MI+48234&hl=en"
DETROIT POLICE DEPARTMENT'S PRECINCT #9,DETROIT POLICE PRECINCT #9,11187 GRATIOT AVE,DETROIT,MI,48213,"http://maps.google.com/maps?q=11187 GRATIOT AVE,+DETROIT,+MI+48213&hl=en"
DODDRIDGE COUNTY SHERIFF'S DEPARTMENT,DODDRIDGE CTY SD,89 COURT ST,WEST UNION,WV,26456,"http://maps.google.com/maps?q=89 COURT ST,+WEST UNION,+WV+26456&hl=en"
DORMONT POLICE DEPARTMENT,CVS PHARMACY,3075 WEST LIBERTY AVENUE,PITTSBURGH,PA,15216,"http://maps.google.com/maps?q=3075 WEST LIBERTY AVENUE,+PITTSBURGH,+PA+15216&hl=en"
DUBLIN POLICE,DUBLIN POLICE DEPARTMENT HEADQUARTERS ENTER ON DRIVE WEST OF TRAFFIC CIRCLE.EXIT AT TRAFFIC CIRCLE,6565 COMMERCE PKWY,DUBLIN,OH,43017,"http://maps.google.com/maps?q=6565 COMMERCE PKWY,+DUBLIN,+OH+43017&hl=en"
EASTPOINTE POLICE DEPARTMENT,EASTPOINTE POLICE DEPARTMENT,16083 NINE MILE ROAD,EASTPOINTE,MI,48021,"http://maps.google.com/maps?q=16083 NINE MILE ROAD,+EASTPOINTE,+MI+48021&hl=en"
ENGLEWOOD POLICE DEPARTMENT,ENGLEWOOD GOVERNMENT CENTER,333 W NATIONAL ROAD,ENGLEWOOD,OH,45322,"http://maps.google.com/maps?q=333 W NATIONAL ROAD,+ENGLEWOOD,+OH+45322&hl=en"
FAIRFIELD COUNTY SHERIFF'S OFFICE,DILEY RIDGE MEDICAL CENTER PARKING LOT,7911 DILEY ROAD,CANAL WINCHESTER,OH,43110,"http://maps.google.com/maps?q=7911 DILEY ROAD,+CANAL WINCHESTER,+OH+43110&hl=en"
FAIRFIELD COUNTY SHERIFF'S OFFICE,VIOLET TOWNSHIP MAINTENANCE GARAGE,490 N CENTER STCORNER OF N CENTER & STEMEN RD,PICKERINGTON,OH,43147,"http://maps.google.com/maps?q=490 N CENTER ST,+PICKERINGTON,+OH+43147&hl=en"
FAIRFIELD-HOCKING-ATHENS MAJOR CRIMES UNIT,KROGER,1735 N MEMEORIAL DR,LANCASTER,OH,43130,"http://maps.google.com/maps?q=1735 N MEMEORIAL DR,+LANCASTER,+OH+43130&hl=en"
FAIRMONT POLICE DEPARTMENT,FAIRMONT POLICE DEPARTMENT PUBLIC SAFETY BUILDING,500 QUINCY STREET,FAIRMONT,WV,26554,"http://maps.google.com/maps?q=500 QUINCY STREET,+FAIRMONT,+WV+26554&hl=en"
FARMINGTON HILLS POLICE DEPARTMENT,FARMINGTON HILLS POLICE DEPARTMENT,31655 W ELEVEN MILE RD.,FARMINGTON HILLS,MI,48336,"http://maps.google.com/maps?q=31655 W ELEVEN MILE RD.,+FARMINGTON HILLS,+MI+48336&hl=en"
FENTON CITY POLICE DEPARTMENT,FENTON CITY POLICE DEPARTMENT,311 S. LEROY STREET,FENTON,MI,48430,"http://maps.google.com/maps?q=311 S. LEROY STREET,+FENTON,+MI+48430&hl=en"
FERNDALE POLICE DEPARTMENT,FERNDALE POLICE DEPARTMENT,310 E NINE MILE,FERNDALE,MI,48220,"http://maps.google.com/maps?q=310 E NINE MILE,+FERNDALE,+MI+48220&hl=en"
FINDLAY TOWNSHIP POLICE DEPARTMENT,FINDLAY TOWNSHIP POLICE DEPARTMENT,1271 ROUTE 30,CLINTON,PA,15026,"http://maps.google.com/maps?q=1271 ROUTE 30,+CLINTON,+PA+15026&hl=en"
FLINT TOWNSHIP POLICE DEPARTMENT,FLINT TOWNSHIP POLICE DEPARTMENT,5200 NORKO DR,FLINT,MI,48507,"http://maps.google.com/maps?q=5200 NORKO DR,+FLINT,+MI+48507&hl=en"
FLUSHING POLICE DEPARTMENT,FLUSHING POLICE DEPARTMENT,725 E MAIN STREET,FLUSHING,MI,48433,"http://maps.google.com/maps?q=725 E MAIN STREET,+FLUSHING,+MI+48433&hl=en"
FOLLANSBEE POLICE DEPARTMENT,FOLLANSBEE POLICE DEPARTMENT PL,872 MAIN STREET,FOLLANSBEE,WV,26037,"http://maps.google.com/maps?q=872 MAIN STREET,+FOLLANSBEE,+WV+26037&hl=en"
FRANKLIN COUNTY SHERIFF'S OFFICE,KROGER,300 S. HAMILTON RD,GAHANNA,OH,43230,"http://maps.google.com/maps?q=300 S. HAMILTON RD,+GAHANNA,+OH+43230&hl=en"
FRANKLIN COUNTY SHERIFF'S OFFICE,KROGER,3637 S. HIGH ST,COLUMBUS,OH,43207,"http://maps.google.com/maps?q=3637 S. HIGH ST,+COLUMBUS,+OH+43207&hl=en"
FRANKLIN COUNTY SHERIFF'S OFFICE,KROGER,4656 CEMETERY RD.,HILLIARD,OH,43026,"http://maps.google.com/maps?q=4656 CEMETERY RD.,+HILLIARD,+OH+43026&hl=en"
FRANKLIN COUNTY SHERIFF'S OFFICE,KROGER,55 W. SCHROCK RD.,WESTERVILLE,OH,43081,"http://maps.google.com/maps?q=55 W. SCHROCK RD.,+WESTERVILLE,+OH+43081&hl=en"
FRANKLIN COUNTY SHERIFF'S OFFICE,KROGER,6095 GENDER RD,CANAL WINCHESTER,OH,43110,"http://maps.google.com/maps?q=6095 GENDER RD,+CANAL WINCHESTER,+OH+43110&hl=en"
FRANKLIN COUNTY SHERIFF'S OFFICE,KROGER,7625 SAWMILL RD.,DUBLIN,OH,43016,"http://maps.google.com/maps?q=7625 SAWMILL RD.,+DUBLIN,+OH+43016&hl=en"
FRANKLIN TOWNSHIP POLICE DEPARTMENT,FRANKLIN TOWNSHIP POLICE DEPT. FRANKLIN TOWNSHIP FIRE DEPT.,2193 FRANK RD,COLUMBUS,OH,43223,"http://maps.google.com/maps?q=2193 FRANK RD,+COLUMBUS,+OH+43223&hl=en"
FREMONT POLICE DEPARTMENT,FREMONT POLICE DEPARTMENT,1141 W. STATE ST.,FREMONT,OH,43420,"http://maps.google.com/maps?q=1141 W. STATE ST.,+FREMONT,+OH+43420&hl=en"
FULTON COUNTY SHERIFF'S OFFICE,FULTON COUNTY JAIL DROP BOX,815 MADISON STREET,ROCHESTER,IN,46975,"http://maps.google.com/maps?q=815 MADISON STREET,+ROCHESTER,+IN+46975&hl=en"
FULTON COUNTY SHERIFF'S OFFICE,FULTON COUNTY SHERIFF'S OFFICE,129 COURTHOUSE PLAZA,WAUSEON,OH,43567,"http://maps.google.com/maps?q=129 COURTHOUSE PLAZA,+WAUSEON,+OH+43567&hl=en"
GIBRALTAR POLICE DEPARTMENT,GIBRALTAR POLICE DEPARTMENT,29450 MUNRO ST,GIBRALTAR,MI,48173,"http://maps.google.com/maps?q=29450 MUNRO ST,+GIBRALTAR,+MI+48173&hl=en"
GRAND BLANC TOWNSHIP POLICE DEPARTMENT,GRAND BLANC TOWNSHIP POLICE DEPARTMENT,5405 S SAGINAW STREET,FLINT,MI,48507,"http://maps.google.com/maps?q=5405 S SAGINAW STREET,+FLINT,+MI+48507&hl=en"
GRAND LEDGE POLICE DEPARTMENT,GRAND LEDGE POLICE DEPARTMENT,310 GREENWOOD,GRAND LEDGE,MI,48837,"http://maps.google.com/maps?q=310 GREENWOOD,+GRAND LEDGE,+MI+48837&hl=en"
GREEN TREE BOROUGH POLICE DEPARTMENT,GREEN TREE BOROUGH BUILDING,10 WEST MANILLA AVE.,PITTSBURGH,PA,15220,"http://maps.google.com/maps?q=10 WEST MANILLA AVE.,+PITTSBURGH,+PA+15220&hl=en"
GREENE COUNTY SHERIFF'S OFFICE,FAIRBORN POLICE DEPARTMENT,70 W HEBBLE ROAD,FAIRBORN,OH,45324,"http://maps.google.com/maps?q=70 W HEBBLE ROAD,+FAIRBORN,+OH+45324&hl=en"
GREENVILLE POLICE DEPARTMENT,GREENVILLE POLICE DEPARTMENT,122 W. MAIN ST,GREENVILLE,OH,45331,"http://maps.google.com/maps?q=122 W. MAIN ST,+GREENVILLE,+OH+45331&hl=en"
GROVE CITY POLICE,GROVE CITY PD DRUG DROP BOX,3360 PARK ST,GROVE CITY,OH,43123,"http://maps.google.com/maps?q=3360 PARK ST,+GROVE CITY,+OH+43123&hl=en"
GROVEPORT POLICE DEPT,GROVEPORT POLICE DEPARTMENT,5690 CLYDE MOORE DR,GROVEPORT,OH,43125,"http://maps.google.com/maps?q=5690 CLYDE MOORE DR,+GROVEPORT,+OH+43125&hl=en"
GUERNSEY COUNTY SHERIFF'S OFFICE,RIESBECK'S FOOD MARKET,55 S 23RD STREET,CAMBRIDGE,OH,43725,"http://maps.google.com/maps?q=55 S 23RD STREET,+CAMBRIDGE,+OH+43725&hl=en"
GUN LAKE TRIBE PUBLIC SAFETY DEPARTMENT,GUN LAKE TRIBE PUBLIC SAFETY,2869 MNO BMADZEWEN DR.,SHELBYVILLE,MI,49344,"http://maps.google.com/maps?q=2869 MNO BMADZEWEN DR.,+SHELBYVILLE,+MI+49344&hl=en"
HAMTRAMCK POLICE DEPARTMENT,SENIOR HOUSING PLAZA,2600 HOLBROOK,HAMTRAMCK,MI,48212,"http://maps.google.com/maps?q=2600 HOLBROOK,+HAMTRAMCK,+MI+48212&hl=en"
HANCOCK COUNTY SHERIFF'S OFFICE,HANCOCK COUNTY SHERIFF'S OFFICE,102 NORTH COURT STREET,NEW CUMBERLAND,WV,26047,"http://maps.google.com/maps?q=102 NORTH COURT STREET,+NEW CUMBERLAND,+WV+26047&hl=en"
HAZEL PARK POLICE,HAZEL PARK POLICE DEPARTMENT,111 E NINE MILE,HAZEL PARK,MI,48030,"http://maps.google.com/maps?q=111 E NINE MILE,+HAZEL PARK,+MI+48030&hl=en"
HEIDELBERG POLICE DEPARTMENT,WALGREENS,2055 WASHINGTON PIKE,CARNEGIE,PA,15106,"http://maps.google.com/maps?q=2055 WASHINGTON PIKE,+CARNEGIE,+PA+15106&hl=en"
HENRY COUNTY SHERIFF'S OFFICE,HENRY COUNTY SHERIFF'S OFFICE,123 E WASHINGTON,NAPOLEON,OH,43545,"http://maps.google.com/maps?q=123 E WASHINGTON,+NAPOLEON,+OH+43545&hl=en"
HILLIARD DIVISION OF POLICE,HILLIARD DIVISION OF POLICE,5171 NORTHWEST PARKWAY,HILLIARD,OH,43026,"http://maps.google.com/maps?q=5171 NORTHWEST PARKWAY,+HILLIARD,+OH+43026&hl=en"
HOLLAND POLICE DEPARTMENT,HOLLAND KROGER,7059 ORCHARD CENTRE DR,HOLLAND,OH,43528,"http://maps.google.com/maps?q=7059 ORCHARD CENTRE DR,+HOLLAND,+OH+43528&hl=en"
HOLLAND POLICE DEPARTMENT,HOLLAND POLICE DEPARTMENT,1245 CLARION AVENUE,HOLLAND,OH,43528,"http://maps.google.com/maps?q=1245 CLARION AVENUE,+HOLLAND,+OH+43528&hl=en"
HUBER HEIGHTS POLICE DEPARTMENT,HUBER HEIGHTS POLICE DEPARTMENT,6121 TAYLORSVILLE ROAD,DAYTON,OH,45424,"http://maps.google.com/maps?q=6121 TAYLORSVILLE ROAD,+DAYTON,+OH+45424&hl=en"
HUDSON CITY POLICE DEPARTMENT,HUDSON ACME PLAZA INSIDE THE ACME GROCERY STORE,116 W. STREETSBORO ST.,HUDSON,OH,44236,"http://maps.google.com/maps?q=116 W. STREETSBORO ST.,+HUDSON,+OH+44236&hl=en"
INDIANA BOARD OF PHARMACY,PARKVIEW WHITLEY HOSPITAL PARKING LOT WHITLEY COUNTY SHERIFF DEPT,1260 E STATE ROAD 205,COLUMBIA CITY,IN,46725,"http://maps.google.com/maps?q=1260 E STATE ROAD 205,+COLUMBIA CITY,+IN+46725&hl=en"
INDIANA STATE POLICE,INDIANA STATE POLICE DISTRICT 16,145 N. EEL RIVER CEMETERY RD.,PERU,IN,46970,"http://maps.google.com/maps?q=145 N. EEL RIVER CEMETERY RD.,+PERU,+IN+46970&hl=en"
INDIANA STATE POLICE,INDIANA STATE POLICE DISTRICT 22,5811 ELLISON ROAD,FORT WAYNE,IN,46804,"http://maps.google.com/maps?q=5811 ELLISON ROAD,+FORT WAYNE,+IN+46804&hl=en"
INDIANA STATE POLICE,INDIANA STATE POLICE DISTRICT 24,1425 MIAMI TRAIL,BREMEN,IN,46506,"http://maps.google.com/maps?q=1425 MIAMI TRAIL,+BREMEN,+IN+46506&hl=en"
INDIANA STATE POLICE,ISP PERU POST,1451 N. EEL RIVER CEMETERY RD.,PERU,IN,46970,"http://maps.google.com/maps?q=1451 N. EEL RIVER CEMETERY RD.,+PERU,+IN+46970&hl=en"
JACKSON COUNTY SHERIFF'S DEPARTMENT,KENNA VOLUNTEER FIRE DEPARTMENT,RT 21 AT PLEASANT VALLEY ROAD,KENNA,WV,25248,"http://maps.google.com/maps?q=RT 21 AT PLEASANT VALLEY ROAD,+KENNA,+WV+25248&hl=en"
JACKSON COUNTY SHERIFF'S DEPARTMENT,RAVENSWOOD VOLUNTEER FIRE DEPT,333 VIRGINIA STREET,RAVENSWOOD,WV,26164,"http://maps.google.com/maps?q=333 VIRGINIA STREET,+RAVENSWOOD,+WV+26164&hl=en"
JACKSON COUNTY SHERIFF'S DEPARTMENT,RIPLEY CITY HALL,203 SOUTH CHURCH ST,RIPLEY,WV,25271,"http://maps.google.com/maps?q=203 SOUTH CHURCH ST,+RIPLEY,+WV+25271&hl=en"
KANAWHA COUNTY SHERIFF'S OFFICE,KANAWHA COUNTY SHERIFF'S DETACHMENT CROSS LANES DETACHMENT/CPT MEADOWS,903 CROSS LANES DR,CROSS LANES,WV,25313,"http://maps.google.com/maps?q=903 CROSS LANES DR,+CROSS LANES,+WV+25313&hl=en"
KANAWHA COUNTY SHERIFF'S OFFICE,KANAWHA COUNTY SHERIFF'S OFFICE SISSONVILLE DETACHMENT/LT. L.. DEITZ,6438 SISSONVILLE DRIVE,SISSONVILLE,WV,25320,"http://maps.google.com/maps?q=6438 SISSONVILLE DRIVE,+SISSONVILLE,+WV+25320&hl=en"
KANAWHA COUNTY SHERIFF'S OFFICE,KANWHA COUNTY SHERIFF'S DEPT ELKVIEW DETACHMENT/LT. K. WHITE,902 MAIN ST,ELKVIEW,WV,25071,"http://maps.google.com/maps?q=902 MAIN ST,+ELKVIEW,+WV+25071&hl=en"
KENT POLICE DEPARTMENT,KENT POLICE DEPARTMENT NEW ADDRESS,301 S. DEPEYSTER ST.,KENT,OH,44240,"http://maps.google.com/maps?q=301 S. DEPEYSTER ST.,+KENT,+OH+44240&hl=en"
KENTWOOD POLICE DEPARTMENT,KENTWOOD POLICE DEPARTMENT,4742 WALMA AVENUE SE,GRAND RAPIDS,MI,49512,"http://maps.google.com/maps?q=4742 WALMA AVENUE SE,+GRAND RAPIDS,+MI+49512&hl=en"
KNOX COUNTY SHERIFF'S OFFICE,DANVILLE POLICE DEPARTMENT,512 MARKET ST.,DANVILLE,OH,43014,"http://maps.google.com/maps?q=512 MARKET ST.,+DANVILLE,+OH+43014&hl=en"
KNOX COUNTY SHERIFF'S OFFICE,FOSTER'S HEALTHMART PHARMACY OUTSIDE OF BUILDING,4584 COLUMBUS RD,CENTERBURG,OH,43011,"http://maps.google.com/maps?q=4584 COLUMBUS RD,+CENTERBURG,+OH+43011&hl=en"
KNOX COUNTY SHERIFF'S OFFICE,FREDERICKTOWN POLICE DEPARTMENT,182 S. MAIN ST.,FREDERICKTOWN,OH,43019,"http://maps.google.com/maps?q=182 S. MAIN ST.,+FREDERICKTOWN,+OH+43019&hl=en"
LAKE ORION POLICE DEPARTMENT,LAKE ORION POLICE DEPARTMENT,21 E. CHURCH ST.,LAKE ORION,MI,48362,"http://maps.google.com/maps?q=21 E. CHURCH ST.,+LAKE ORION,+MI+48362&hl=en"
LENAWEE COUNTY SHERIFF'S OFFICE,PROMEDICA BIXBY HOSPITAL,818 RIVERSIDE AVE,ADRIAN,MI,49221,"http://maps.google.com/maps?q=818 RIVERSIDE AVE,+ADRIAN,+MI+49221&hl=en"
LICKING COUNTY SHERIFF'S OFFICE,KROGER,350 EAST BROAD STREET,PATASKALA,OH,43062,"http://maps.google.com/maps?q=350 EAST BROAD STREET,+PATASKALA,+OH+43062&hl=en"
LIVINGSTON COUNTY SHERRIFF'S OFFICE,LIVINGSTON COUNTY SHERIFF'S OFFICE JAIL LOBBY,150 S HIGHLANDER WAY,HOWELL,MI,48843,"http://maps.google.com/maps?q=150 S HIGHLANDER WAY,+HOWELL,+MI+48843&hl=en"
LORAIN COUNTY SHERIFF'S OFFICE,AMHERST POLICE DEPARTMENT,911 N LAKE STREET,AMHERST,OH,44001,"http://maps.google.com/maps?q=911 N LAKE STREET,+AMHERST,+OH+44001&hl=en"
LORAIN COUNTY SHERIFF'S OFFICE,AVON LAKE POLICE DEPARTMENT,32855 WALKER ROAD,AVON LAKE,OH,44012,"http://maps.google.com/maps?q=32855 WALKER ROAD,+AVON LAKE,+OH+44012&hl=en"
LORAIN COUNTY SHERIFF'S OFFICE,AVON POLICE DEPARTMENT,36145 DETROIT ROAD,AVON,OH,44011,"http://maps.google.com/maps?q=36145 DETROIT ROAD,+AVON,+OH+44011&hl=en"
LORAIN COUNTY SHERIFF'S OFFICE,COLUMBIA TOWNSHIP FIRE STATION,25540 ROYALTON ROAD,COLUMBIA STATION,OH,44028,"http://maps.google.com/maps?q=25540 ROYALTON ROAD,+COLUMBIA STATION,+OH+44028&hl=en"
LORAIN COUNTY SHERIFF'S OFFICE,ELYRIA POLICE DEPARTMENT,18 WEST AVENUE,ELYRIA,OH,44035,"http://maps.google.com/maps?q=18 WEST AVENUE,+ELYRIA,+OH+44035&hl=en"
LORAIN COUNTY SHERIFF'S OFFICE,GRAFTON POLICE DEPARTMENT,1009 CHESTNUT STREET,GRAFTON,OH,44044,"http://maps.google.com/maps?q=1009 CHESTNUT STREET,+GRAFTON,+OH+44044&hl=en"
LORAIN COUNTY SHERIFF'S OFFICE,KIPTON VILLAGE HALL,299 STATE STREET,KIPTON,OH,44049,"http://maps.google.com/maps?q=299 STATE STREET,+KIPTON,+OH+44049&hl=en"
LORAIN COUNTY SHERIFF'S OFFICE,LAGRANGE POLICE DEPARTMENT,355 S CENTER STREET,LAGRANGE,OH,44050,"http://maps.google.com/maps?q=355 S CENTER STREET,+LAGRANGE,+OH+44050&hl=en"
LORAIN COUNTY SHERIFF'S OFFICE,LORAIN COUNTY SHERIFF'S OFFICE,9896 MURRAY RIDGE ROAD,ELYRIA,OH,44035,"http://maps.google.com/maps?q=9896 MURRAY RIDGE ROAD,+ELYRIA,+OH+44035&hl=en"
LORAIN COUNTY SHERIFF'S OFFICE,LORAIN POLICE DEPARTMENT,100 WEST ERIE AVENUE,LORAIN,OH,44052,"http://maps.google.com/maps?q=100 WEST ERIE AVENUE,+LORAIN,+OH+44052&hl=en"
LORAIN COUNTY SHERIFF'S OFFICE,NORTH RIDGEVILLE POLICE DEPARTMENT,7307 AVON-BELDON ROAD,NORTH RIDGEVILLE,OH,44039,"http://maps.google.com/maps?q=7307 AVON-BELDON ROAD,+NORTH RIDGEVILLE,+OH+44039&hl=en"
LORAIN COUNTY SHERIFF'S OFFICE,OBERLIN POLICE DEPARTMENT,85 S MAIN STREET,OBERLIN,OH,44074,"http://maps.google.com/maps?q=85 S MAIN STREET,+OBERLIN,+OH+44074&hl=en"
LORAIN COUNTY SHERIFF'S OFFICE,SHEFFIELD LAKE POLICE DEPARTMENT,609 HARRIS ROAD,SHEFFIELD LAKE,OH,44054,"http://maps.google.com/maps?q=609 HARRIS ROAD,+SHEFFIELD LAKE,+OH+44054&hl=en"
LORAIN COUNTY SHERIFF'S OFFICE,SHEFFIELD VILLAGE POLICE DEPARTMENT,4340 COLORADO AVENUE,SHEFFIELD LAKE,OH,44054,"http://maps.google.com/maps?q=4340 COLORADO AVENUE,+SHEFFIELD LAKE,+OH+44054&hl=en"
LORAIN COUNTY SHERIFF'S OFFICE,VERMILION POLICE DEPARTMENT,5791 LIBERTY AVENUE,VERMILION,OH,44089,"http://maps.google.com/maps?q=5791 LIBERTY AVENUE,+VERMILION,+OH+44089&hl=en"
LORAIN COUNTY SHERIFF'S OFFICE,WELLINGTON POLICE,117 WILLARD MEMORIAL SQ,WELLINGTON,OH,44090,"http://maps.google.com/maps?q=117 WILLARD MEMORIAL SQ,+WELLINGTON,+OH+44090&hl=en"
LOWELL POLICE DEPARTMENT,LOWELL POLICE DEPARTMENT,111 N MONROE,LOWELL,MI,49331,"http://maps.google.com/maps?q=111 N MONROE,+LOWELL,+MI+49331&hl=en"
LUCAS COUNTY SHERIFF'S OFFICE,KROGER,8730 WATERVILLE SWANTON ROAD,WATERVILLE,OH,43566,"http://maps.google.com/maps?q=8730 WATERVILLE SWANTON ROAD,+WATERVILLE,+OH+43566&hl=en"
LUCAS COUNTY SHERIFF'S OFFICE,LUCAS COUNTY HEALTH DEPARTMENT,635 NORTH ERIE STREET,TOLEDO,OH,43604,"http://maps.google.com/maps?q=635 NORTH ERIE STREET,+TOLEDO,+OH+43604&hl=en"
LUCAS COUNTY SHERIFF'S OFFICE,MONCLOVA TOWNSHIP FIRE DEPARTMENT,4395 ALBON ROAD,MONCLOVA,OH,43542,"http://maps.google.com/maps?q=4395 ALBON ROAD,+MONCLOVA,+OH+43542&hl=en"
LUCAS COUNTY SHERIFF'S OFFICE,SPRINGFIELD TOWNSHIP FIRE STATION #3,7145 GARDEN ROAD,MAUMEE,OH,43537,"http://maps.google.com/maps?q=7145 GARDEN ROAD,+MAUMEE,+OH+43537&hl=en"
LUCAS COUNTY SHERIFF'S OFFICE,VILLAGE OF WHITEHOUSE FIRE DEPARTMENT,10550 WATERVILLE STREET,WHITEHOUSE,OH,43571,"http://maps.google.com/maps?q=10550 WATERVILLE STREET,+WHITEHOUSE,+OH+43571&hl=en"
LUCAS COUNTY SHERIFF'S OFFICE,WASHINGTON TWP FIRE DEPARTMENT,2469 SHORELAND DRIVE,TOLEDO,OH,43611,"http://maps.google.com/maps?q=2469 SHORELAND DRIVE,+TOLEDO,+OH+43611&hl=en"
MACOMB COLLEGE POLICE,MACOMB COLLEGE POLICE SGT. ANTHONY GREENE,14500 E. 12 MILE RD. - K340,WARREN,MI,48088,"http://maps.google.com/maps?q=14500 E. 12 MILE RD. - K340,+WARREN,+MI+48088&hl=en"
MADISON COUNTY SHERIFF'S OFFICE,MADISON COUNTY SHERIFF OPERATION CENTER,222 GARFIELD STREET,LONDON,OH,43140,"http://maps.google.com/maps?q=222 GARFIELD STREET,+LONDON,+OH+43140&hl=en"
MADISON HEIGHTS POLICE DEPARTMENT,MADISON HEIGHTS POLICE DEPARTMENT,280 W 13 MILE ROAD,MADISON HEIGHTS,MI,48071,"http://maps.google.com/maps?q=280 W 13 MILE ROAD,+MADISON HEIGHTS,+MI+48071&hl=en"
MARION COUNTY SHERIFF'S OFFICE/MARION POLICE DEPT,OHIO HEALTH MARION MEDICAL CAMPUS,1050 DELAWARE AVENUE,MARION,OH,43302,"http://maps.google.com/maps?q=1050 DELAWARE AVENUE,+MARION,+OH+43302&hl=en"
MARION POLICE DEPARTMENT,MARION POLICE DEPARTMENT ALEX KENWORTHY,301 S. BRANSONMARION,MARION,IN,46952,"http://maps.google.com/maps?q=301 S. BRANSON,+MARION,+IN+46952&hl=en"
MARYSVILLE DIVISION OF POLICE,WALGREENS,180 COLEMANS CROSSING BLVD,MARYSVILLE,OH,43040,"http://maps.google.com/maps?q=180 COLEMANS CROSSING BLVD,+MARYSVILLE,+OH+43040&hl=en"
MASON COUNTY SHERIFF'S OFFICE,MASON COUNTY SHERIFF'S OFFICE,200 SIXTH STREET,POINT PLEASANT,WV,25550,"http://maps.google.com/maps?q=200 SIXTH STREET,+POINT PLEASANT,+WV+25550&hl=en"
MASON COUNTY SHERIFF'S OFFICE,NEW HAVEN VOLUNTEER FIRE DEPT,407 5TH STREET,NEW HAVEN,WV,25265,"http://maps.google.com/maps?q=407 5TH STREET,+NEW HAVEN,+WV+25265&hl=en"
MAUMEE POLICE DIVISION,MAUMEE POLICE DIVISION,109 EAST DUDLEY ST,MAUMEE,OH,43537,"http://maps.google.com/maps?q=109 EAST DUDLEY ST,+MAUMEE,+OH+43537&hl=en"
MAUMEE POLICE DIVISION,ST LUKES HOSPITAL ENTRANCE YELLOW 3,5901 MONCLOVA,MAUMEE,OH,43537,"http://maps.google.com/maps?q=5901 MONCLOVA,+MAUMEE,+OH+43537&hl=en"
MCDONALD POLICE DEPARTMENT,BURGETTSTOWN BOROUGH BUILDING,1509 MAIN STREET,BURGETTSTOWN,PA,15021,"http://maps.google.com/maps?q=1509 MAIN STREET,+BURGETTSTOWN,+PA+15021&hl=en"
MCDONALD POLICE DEPARTMENT,MCDONALD POLICE DEPARTMENT,151 SCHOOL STREET,MC DONALD,PA,15057,"http://maps.google.com/maps?q=151 SCHOOL STREET,+MC DONALD,+PA+15057&hl=en"
MECHANICSBURG POLICE DEPARTMENT,MECHANICSBURG POLICE DEPARTMENT MAIN OFFICE,18 N. MAIN ST.,MECHANICSBURG,OH,43044,"http://maps.google.com/maps?q=18 N. MAIN ST.,+MECHANICSBURG,+OH+43044&hl=en"
MECHANICSBURG POLICE DEPARTMENT,MECHANICSBURG POLICE DEPARTMENT NORTH LEWISBURG OFFICE,60 E. MAPLE ST.,NORTH LEWISBURG,OH,43060,"http://maps.google.com/maps?q=60 E. MAPLE ST.,+NORTH LEWISBURG,+OH+43060&hl=en"
MEDINA COUNTY DRUG TASK FORCE,MEDINA TOWNSHIP POLICE DEPARTMENT,4877 FENN ROAD,MEDINA,OH,44256,"http://maps.google.com/maps?q=4877 FENN ROAD,+MEDINA,+OH+44256&hl=en"
MEDINA COUNTY DRUG TASK FORCE,WADSWORTH POLICE DEPARTMENT,120 MAPLE STREET,WADSWORTH,OH,44281,"http://maps.google.com/maps?q=120 MAPLE STREET,+WADSWORTH,+OH+44281&hl=en"
MEDWAY DRUG ENFORCEMENT AGENCY,WOOSTER POLICE DEPARTMENT -SAFETY SERVICE CENTER,3333 BURBANK ROAD,WOOSTER,OH,44691,"http://maps.google.com/maps?q=3333 BURBANK ROAD,+WOOSTER,+OH+44691&hl=en"
MELVINDALE POLICE DEPARTMENT,MELVINDALE POLICE DEPARTMENT,3100 OAKWOOD BLVD,MELVINDALE,MI,48122,"http://maps.google.com/maps?q=3100 OAKWOOD BLVD,+MELVINDALE,+MI+48122&hl=en"
MERCER COUNTY SHERIFF'S OFFICE,FORT RECOVERY POLICE DEPARTMENT,201 SOUTH MAIN STREET,FORT RECOVERY,OH,45846,"http://maps.google.com/maps?q=201 SOUTH MAIN STREET,+FORT RECOVERY,+OH+45846&hl=en"
METRICH DRUG TASK FORCE,ASHLAND COUNTY SHERIFF'S OFFICE,1205 E. MAIN ST.,ASHLAND,OH,44805,"http://maps.google.com/maps?q=1205 E. MAIN ST.,+ASHLAND,+OH+44805&hl=en"
METRICH DRUG TASK FORCE,BELLVILLE POLICE DEPARTMENT,320 BELL ST.,BELLVILLE,OH,44813,"http://maps.google.com/maps?q=320 BELL ST.,+BELLVILLE,+OH+44813&hl=en"
METRICH DRUG TASK FORCE,CAREY POLICE DEPARTMENT,127 N. VANCE ST.,CAREY,OH,43316,"http://maps.google.com/maps?q=127 N. VANCE ST.,+CAREY,+OH+43316&hl=en"
METRICH DRUG TASK FORCE,CRAWFORD COUNTY SHERIFF'S OFFICE,3613 STETZER RD.,BUCYRUS,OH,44820,"http://maps.google.com/maps?q=3613 STETZER RD.,+BUCYRUS,+OH+44820&hl=en"
METRICH DRUG TASK FORCE,FOSTORIA POLICE DEPARTMENT,213 S. MAIN ST.,FOSTORIA,OH,44830,"http://maps.google.com/maps?q=213 S. MAIN ST.,+FOSTORIA,+OH+44830&hl=en"
METRICH DRUG TASK FORCE,GALION POLICE DEPARTMENT,212 HARDING WAY EAST,GALION,OH,44833,"http://maps.google.com/maps?q=212 HARDING WAY EAST,+GALION,+OH+44833&hl=en"
METRICH DRUG TASK FORCE,GREENWICH POLICE DEPT.,3305 GREENWICH ANGLING RD,GREENWICH,OH,44837,"http://maps.google.com/maps?q=3305 GREENWICH ANGLING RD,+GREENWICH,+OH+44837&hl=en"
METRICH DRUG TASK FORCE,HANCOCK CO. SHERIFF'S OFFICE,200 W. CRAWFORD ST.,FINDLAY,OH,45840,"http://maps.google.com/maps?q=200 W. CRAWFORD ST.,+FINDLAY,+OH+45840&hl=en"
METRICH DRUG TASK FORCE,LEXINGTON POLICE DEPARTMENT,44 W. MAIN ST.,LEXINGTON,OH,44904,"http://maps.google.com/maps?q=44 W. MAIN ST.,+LEXINGTON,+OH+44904&hl=en"
METRICH DRUG TASK FORCE,MANSFIELD POLICE DEPARTMENT,1125 NATIONAL PARKWAY,MANSFIELD,OH,44906,"http://maps.google.com/maps?q=1125 NATIONAL PARKWAY,+MANSFIELD,+OH+44906&hl=en"
METRICH DRUG TASK FORCE,MARION COUNTY SHERIFF'S OFFICE MARION POLICE DEPARTMENT,1050 DELAWARE AVE.,MARION,OH,43302,"http://maps.google.com/maps?q=1050 DELAWARE AVE.,+MARION,+OH+43302&hl=en"
METRICH DRUG TASK FORCE,MONROEVILLE POLICE DEPARTMENT,9 MONROE STREET,MONROEVILLE,OH,44847,"http://maps.google.com/maps?q=9 MONROE STREET,+MONROEVILLE,+OH+44847&hl=en"
METRICH DRUG TASK FORCE,MORROW CO. SHERIFF'S OFFICE KROGER PARKING LOT,555 WEST MARION RD.,MOUNT GILEAD,OH,43338,"http://maps.google.com/maps?q=555 WEST MARION RD.,+MOUNT GILEAD,+OH+43338&hl=en"
METRICH DRUG TASK FORCE,MOUNT VERNON PD,11660 UPPER GILCHREST RD,MOUNT VERNON,OH,43050,"http://maps.google.com/maps?q=11660 UPPER GILCHREST RD,+MOUNT VERNON,+OH+43050&hl=en"
METRICH DRUG TASK FORCE,NORWALK POLICE DEPARTMENT,37 NORTH LINWOOD AVE,NORWALK,OH,44857,"http://maps.google.com/maps?q=37 NORTH LINWOOD AVE,+NORWALK,+OH+44857&hl=en"
METRICH DRUG TASK FORCE,RICHLAND CO. SHERIFF'S OFFICE,597 PARK AVE. EAST,MANSFIELD,OH,44905,"http://maps.google.com/maps?q=597 PARK AVE. EAST,+MANSFIELD,+OH+44905&hl=en"
METRICH DRUG TASK FORCE,SENECA CO. SHERIFF'S OFFICE,3040 S. ST. RTE. 100,TIFFIN,OH,44883,"http://maps.google.com/maps?q=3040 S. ST. RTE. 100,+TIFFIN,+OH+44883&hl=en"
METRICH DRUG TASK FORCE,SHELBY POLICE DEPARTMENT,31 MACK AVE,SHELBY,OH,44875,"http://maps.google.com/maps?q=31 MACK AVE,+SHELBY,+OH+44875&hl=en"
METRICH DRUG TASK FORCE,TIFFIN POLICE DEPARTMENT,51 E. MARKET ST. #4TIFFIN,TIFFIN,OH,44883,"http://maps.google.com/maps?q=51 E. MARKET ST. #4,+TIFFIN,+OH+44883&hl=en"
METRICH DRUG TASK FORCE,UPPER SANDUSKY POLICE DEPT,120 N. 7TH STREET,UPPER SANDUSKY,OH,43351,"http://maps.google.com/maps?q=120 N. 7TH STREET,+UPPER SANDUSKY,+OH+43351&hl=en"
METRICH DRUG TASK FORCE,WILLARD POLICE DEPARTMENT,425 FORT BALL RD.,WILLARD,OH,44888,"http://maps.google.com/maps?q=425 FORT BALL RD.,+WILLARD,+OH+44888&hl=en"
METRICH DRUG TASK FORCE,WYANDOT COUNTY SHERIFF'S OFFICE,125 E.WYANDOT AVE,UPPER SANDUSKY,OH,43351,"http://maps.google.com/maps?q=125 E.WYANDOT AVE,+UPPER SANDUSKY,+OH+43351&hl=en"
MIAMI COUNTY SHERIFF'S OFFICE,MIAMI COUNTY TRANSFER STATION,2500 N COUNTY ROAD 25A,TROY,OH,45373,"http://maps.google.com/maps?q=2500 N COUNTY ROAD 25A,+TROY,+OH+45373&hl=en"
MICHIGAN STATE POLICE,MICHIGAN STATE POLICE BRIGHTON POST,4337 BUNO ROAD,BRIGHTON,MI,48114,"http://maps.google.com/maps?q=4337 BUNO ROAD,+BRIGHTON,+MI+48114&hl=en"
MICHIGAN STATE POLICE,MICHIGAN STATE POLICE FLINT POST,G-4481 CORUNNA ROAD,FLINT,MI,48532,"http://maps.google.com/maps?q=G-4481 CORUNNA ROAD,+FLINT,+MI+48532&hl=en"
MICHIGAN STATE POLICE,MICHIGAN STATE POLICE JACKSON POST,3401 COOPER STREET,JACKSON,MI,49201,"http://maps.google.com/maps?q=3401 COOPER STREET,+JACKSON,+MI+49201&hl=en"
MICHIGAN STATE POLICE,MICHIGAN STATE POLICE LANSING POST,7119 NORTH CANAL ROAD,LANSING,MI,48913,"http://maps.google.com/maps?q=7119 NORTH CANAL ROAD,+LANSING,+MI+48913&hl=en"
MICHIGAN STATE POLICE,MICHIGAN STATE POLICE MARSHALL POST (MOVED FROM COLDWATER),714 US HIGHWAY 27N,MARSHALL,MI,49068,"http://maps.google.com/maps?q=714 US HIGHWAY 27N,+MARSHALL,+MI+49068&hl=en"
MICHIGAN STATE POLICE,MICHIGAN STATE POLICE METRO NORTH POST,14350 W. 10 MILE RD.,OAK PARK,MI,48237,"http://maps.google.com/maps?q=14350 W. 10 MILE RD.,+OAK PARK,+MI+48237&hl=en"
MICHIGAN STATE POLICE,MICHIGAN STATE POLICE METRO SOUTH POST,12111 TELEGRAPH,TAYLOR,MI,48180,"http://maps.google.com/maps?q=12111 TELEGRAPH,+TAYLOR,+MI+48180&hl=en"
MICHIGAN STATE POLICE,MICHIGAN STATE POLICE MONROE POST,300 JONES AVENUE,MONROE,MI,48161,"http://maps.google.com/maps?q=300 JONES AVENUE,+MONROE,+MI+48161&hl=en"
MICHIGAN STATE POLICE,MICHIGAN STATE POLICE NILES POST,1600 SILVERBROOK AVENUE,NILES,MI,49120,"http://maps.google.com/maps?q=1600 SILVERBROOK AVENUE,+NILES,+MI+49120&hl=en"
MICHIGAN STATE POLICE,MICHIGAN STATE POLICE PAW PAW POST,43255 60TH AVENUE,PAW PAW,MI,49079,"http://maps.google.com/maps?q=43255 60TH AVENUE,+PAW PAW,+MI+49079&hl=en"
MICHIGAN STATE POLICE,MICHIGAN STATE POLICE WAYLAND POST,544 NORTH MAIN STREET,WAYLAND,MI,49348,"http://maps.google.com/maps?q=544 NORTH MAIN STREET,+WAYLAND,+MI+49348&hl=en"
MILAN POLICE DEPARTMENT,MILAN POLICE DEPARTMENT,35 NECKEL COURT,MILAN,MI,48160,"http://maps.google.com/maps?q=35 NECKEL COURT,+MILAN,+MI+48160&hl=en"
MILTON TOWNSHIP POLICE DISTRICT,MILTON TOWNSHIP POLICE DEPARTMENT,15992 MILTON AVE.,LAKE MILTON,OH,44429,"http://maps.google.com/maps?q=15992 MILTON AVE.,+LAKE MILTON,+OH+44429&hl=en"
MONONGAH POLICE DEPT,MONONGAH PD,430 BRIDGE ST,FAIRMONT,WV,26554,"http://maps.google.com/maps?q=430 BRIDGE ST,+FAIRMONT,+WV+26554&hl=en"
MONONGALIA COUNTY SHERIFF'S OFFICE,KROGER @ SUNCREST TOWN CNTR,500 SUNCREST TOWN CENTER DR,MORGANTOWN,WV,26506,"http://maps.google.com/maps?q=500 SUNCREST TOWN CENTER DR,+MORGANTOWN,+WV+26506&hl=en"
MONONGALIA COUNTY SHERIFF'S OFFICE,MONONGALIA COUNTY SHERIFF'S OFFICE,116 WALNUT STREET,MORGANTOWN,WV,26505,"http://maps.google.com/maps?q=116 WALNUT STREET,+MORGANTOWN,+WV+26505&hl=en"
MONTGOMERY COUNTY SHERIFF'S OFFICE,MONTGOMERY COUNTY SHERIFF'S OFFICE,345 W. SECOND ST.,DAYTON,OH,45422,"http://maps.google.com/maps?q=345 W. SECOND ST.,+DAYTON,+OH+45422&hl=en"
MONTPELIER POLICE DEPARTMENT,MONTPELIER POLICE DEPARTMENT,221 EMPIRE ST.,MONTPELIER,OH,43543,"http://maps.google.com/maps?q=221 EMPIRE ST.,+MONTPELIER,+OH+43543&hl=en"
MOON TOWNSHIP POLICE,MOON TOWNSHIP POLICE,1000 BEAVER GRADE RD,CORAOPOLIS,PA,15108,"http://maps.google.com/maps?q=1000 BEAVER GRADE RD,+CORAOPOLIS,+PA+15108&hl=en"
MORGAN COUNTY SHERIFF'S OFFICE,EMA BUILDING,60 S. 4TH STREET,MCCONNELSVILLE,OH,43756,"http://maps.google.com/maps?q=60 S. 4TH STREET,+MCCONNELSVILLE,+OH+43756&hl=en"
MORGANTOWN POLICE DEPARTMENT,KROGER,1851 EARL L. CORE ROAD,MORGANTOWN,WV,26505,"http://maps.google.com/maps?q=1851 EARL L. CORE ROAD,+MORGANTOWN,+WV+26505&hl=en"
MORGANTOWN POLICE DEPARTMENT,KROGER,350 PATTERSON DRIVE,MORGANTOWN,WV,26505,"http://maps.google.com/maps?q=350 PATTERSON DRIVE,+MORGANTOWN,+WV+26505&hl=en"
MOTT COMMUNITY COLLEGE PUBLIC SAFETY,MOTT COMMUNITY COLLEGE PUBLIC SAFETY BLDG,ENTRANCE @ PRESIDENTIAL DR AT GORMAN DRIVE,FLINT,MI,48503,"http://maps.google.com/maps?q=ENTRANCE @ PRESIDENTIAL DR AT GORMAN DRIVE,+FLINT,+MI+48503&hl=en"
MOUNDSVILLE POLICE DEPARTMENT,MOUNDSVILLE POLICE DEPARTMENT,608 TOMLINSON AVENUE,MOUNDSVILLE,WV,26041,"http://maps.google.com/maps?q=608 TOMLINSON AVENUE,+MOUNDSVILLE,+WV+26041&hl=en"
MT. LEBANON POLICE DEPARTMENT,MEDIC RESCUE TEAM SOUTH AUTHORITY,315 CYPRESS WAY,PITTSBURGH,PA,15228,"http://maps.google.com/maps?q=315 CYPRESS WAY,+PITTSBURGH,+PA+15228&hl=en"
MT. PLEASANT TWP. POLICE DEPARTMENT,MT. PLEASANT TWP. MUNICIPAL BUILDING,31 MCCARRELL RD.,HICKORY,PA,15340,"http://maps.google.com/maps?q=31 MCCARRELL RD.,+HICKORY,+PA+15340&hl=en"
MUSKINGUM COUNTY SHERIFF'S OFFICE,MUSKINGUM COUNTY HEALTH DEPARTMENT PARKING LOT,205 N 7TH STREET,ZANESVILLE,OH,43701,"http://maps.google.com/maps?q=205 N 7TH STREET,+ZANESVILLE,+OH+43701&hl=en"
MUSKINGUM COUNTY SHERIFF'S OFFICE,RIESBECKS PICK'N SAVE,2200 JUNE PARKWAY,ZANESVILLE,OH,43701,"http://maps.google.com/maps?q=2200 JUNE PARKWAY,+ZANESVILLE,+OH+43701&hl=en"
NAPOLEON POLICE DEPARTMENT,NAPOLEON POLICE DEPARTMENT COLLECTED AT MAN UNIT,310 GLENWOOD AVE,NAPOLEON,OH,43545,"http://maps.google.com/maps?q=310 GLENWOOD AVE,+NAPOLEON,+OH+43545&hl=en"
NAPOLEON POLICE DEPARTMENT,NAPOLEON POLICE DEPARTMENT COLLECTED AT MAN UNIT,401 GREENHOUSE ST,DEFIANCE,OH,43512,"http://maps.google.com/maps?q=401 GREENHOUSE ST,+DEFIANCE,+OH+43512&hl=en"
NEW ALBANY POLICE DEPARTMENT,PLAIN TOWNSHIP FIRE DEPARTMENT,9500 JOHNSTOWN RD.,NEW ALBANY,OH,43054,"http://maps.google.com/maps?q=9500 JOHNSTOWN RD.,+NEW ALBANY,+OH+43054&hl=en"
NEW CONCORD POLICE DEPARTMENT,NEW CONCORD POLICE DEPARTMENT,2 WEST MAIN STREET,NEW CONCORD,OH,43762,"http://maps.google.com/maps?q=2 WEST MAIN STREET,+NEW CONCORD,+OH+43762&hl=en"
NEW MIDDLETOWN POLICE DEPT,NEW MIDDLETOWN MUNICIPAL BUILDING,10711 MAIN STREET,NEW MIDDLETOWN,OH,44442,"http://maps.google.com/maps?q=10711 MAIN STREET,+NEW MIDDLETOWN,+OH+44442&hl=en"
NITRO POLICE DEPARTMENT,NITRO POLICE DEPARTMENT,497 1ST AVENUE SOUTH,NITRO,WV,25143,"http://maps.google.com/maps?q=497 1ST AVENUE SOUTH,+NITRO,+WV+25143&hl=en"
NOBLE COUNTY SHERIFFS OFFICE,CALDWELL ELEMENTARY SCHOOL,44350FAIRGROUND RD,CALDWELL,OH,43724,"http://maps.google.com/maps?q=44350,+CALDWELL,+OH+43724&hl=en"
NOBLE COUNTY SHERIFFS OFFICE,SHENANDOAH ELEMENTARY SCHOOL,20977ZEP ROAD,SARAHSVILLE,OH,43779,"http://maps.google.com/maps?q=20977,+SARAHSVILLE,+OH+43779&hl=en"
NORTON POLICE DEPARTMENT,THE MEDICINE SHOPPE,3300 GREENWICH RD,NORTON,OH,44203,"http://maps.google.com/maps?q=3300 GREENWICH RD,+NORTON,+OH+44203&hl=en"
NOVI POLICE DEPARTMENT,NOVI POLICE DEPARTMENT,45125 W 10 MILE RD,NOVI,MI,48375,"http://maps.google.com/maps?q=45125 W 10 MILE RD,+NOVI,+MI+48375&hl=en"
OAKLAND COUNTY SHERIFF'S OFFICE - LAKE ORION,OAKLAND COUNTY SHERIFF'S OFFICE SUB-STATION,2525 JOSLYN ROAD,LAKE ORION,MI,48360,"http://maps.google.com/maps?q=2525 JOSLYN ROAD,+LAKE ORION,+MI+48360&hl=en"
OAKLAND COUNTY SHERIFF'S OFFICE COMMERCE TWP.,OAKLAND COUNTY SHERIFF'S OFFICE (COMMERCE TWP) DRUG TAKE BACK DAY,9170 COMMERCE RD,COMMERCE TOWNSHIP,MI,48390,"http://maps.google.com/maps?q=9170 COMMERCE RD,+COMMERCE TOWNSHIP,+MI+48390&hl=en"
OFFICE OF GENESEE COUNTY SHERIFF,OFFICE OF GENESEE COUNTY SHERIFF ATLAS SUB-STAION,7386 GALE RD,GRAND BLANC,MI,48439,"http://maps.google.com/maps?q=7386 GALE RD,+GRAND BLANC,+MI+48439&hl=en"
OFFICE OF GENESEE COUNTY SHERIFF,OFFICE OF GENESEE COUNTY SHERIFF FENTON SUB-STATION,12060 MANTAWAUKA DRIVEFENTON,FENTON,MI,48430,"http://maps.google.com/maps?q=12060 MANTAWAUKA DRIVE,+FENTON,+MI+48430&hl=en"
OHIO COUNTY SHERIFF'S OFFICE,ELTON GROVE PHARMACY,102 E BETHLEHEM BLVD,WHEELING,WV,26003,"http://maps.google.com/maps?q=102 E BETHLEHEM BLVD,+WHEELING,+WV+26003&hl=en"
OLMSTED FALLS POLICE DEPARTMENT,OLMSTED FALLS POLICE DEPARTMENT,26100 BAGLEY ROAD,OLMSTED FALLS,OH,44138,"http://maps.google.com/maps?q=26100 BAGLEY ROAD,+OLMSTED FALLS,+OH+44138&hl=en"
ORCHARD LAKE POLICE DEPARTMENT,ORCHARD LAKE POLICE DEPARTMENT MON-FRIDAY 8AM-4PM EXCEPT ON HOLIDAYS,3955 ORCHARD LAKE RD.,ORCHARD LAKE,MI,48323,"http://maps.google.com/maps?q=3955 ORCHARD LAKE RD.,+ORCHARD LAKE,+MI+48323&hl=en"
OTTAWA HILLS POLICE DEPARTMENT,OTTAWA HILLS POLICE DEPARTMENT,2125 RICHARDS RD.,OTTAWA HILLS,OH,43606,"http://maps.google.com/maps?q=2125 RICHARDS RD.,+OTTAWA HILLS,+OH+43606&hl=en"
OWOSSO POLICE DEPARTMENT,OWOSSO POLICE DEPARTMENT,202 S WATER STREET,OWOSSO,MI,48867,"http://maps.google.com/maps?q=202 S WATER STREET,+OWOSSO,+MI+48867&hl=en"
"PARKERSBURG, WV POLICE DEPARTMENT",CVS PHARMACY,2323 MURDOCH AVENUE,PARKERSBURG,WV,26101,"http://maps.google.com/maps?q=2323 MURDOCH AVENUE,+PARKERSBURG,+WV+26101&hl=en"
PAULDING COUNTY SHERIFF'S OFFICE,PAULDING COUNTY SHERIFF'S OFFICE,500 EAST PERRY STREET,PAULDING,OH,45879,"http://maps.google.com/maps?q=500 EAST PERRY STREET,+PAULDING,+OH+45879&hl=en"
PERKINS TOWNSHIP POLICE DEPARTMENT,PERKINS TOWNSHIP POLICE DEPARTMENT,2610 COLUMBUS AVE,SANDUSKY,OH,44870,"http://maps.google.com/maps?q=2610 COLUMBUS AVE,+SANDUSKY,+OH+44870&hl=en"
PERRY TOWNSHIP POLICE DEPARTMENT,PERRY TOWNSHIP POLICE DEPARTMENT,7125 SAWMILL ROAD,DUBLIN,OH,43016,"http://maps.google.com/maps?q=7125 SAWMILL ROAD,+DUBLIN,+OH+43016&hl=en"
PERRYSBURG TOWNSHIP POLICE DEPARTMENT,PERRYSBURG TOWNSHIP POLICE DEPARTMENT,26711 LIME CITY ROAD,PERRYSBURG,OH,43551,"http://maps.google.com/maps?q=26711 LIME CITY ROAD,+PERRYSBURG,+OH+43551&hl=en"
PETERS TOWNSHIP POLICE DEPARTMENT,GIANT EAGLE,4017 WASHINGTON ROAD,MCMURRAY,PA,15317,"http://maps.google.com/maps?q=4017 WASHINGTON ROAD,+MCMURRAY,+PA+15317&hl=en"
PETERS TOWNSHIP POLICE DEPARTMENT,HEISLER'S MARKET,601 E. MCMURRAY ROAD,MCMURRAY,PA,15317,"http://maps.google.com/maps?q=601 E. MCMURRAY ROAD,+MCMURRAY,+PA+15317&hl=en"
PETERS TOWNSHIP POLICE DEPARTMENT,RITE AID PHARMACY,4185 WASHINGTON RD,MCMURRAY,PA,15317,"http://maps.google.com/maps?q=4185 WASHINGTON RD,+MCMURRAY,+PA+15317&hl=en"
PETERS TOWNSHIP POLICE DEPARTMENT,THE COUNTRY STORE,698 VENETIA RD,VENETIA,PA,15367,"http://maps.google.com/maps?q=698 VENETIA RD,+VENETIA,+PA+15367&hl=en"
PICKERINGTON POLICE DEPARTMENT,PICKERINGTON POLICE DEPARTMENT,1311 REFUGEE RD.,PICKERINGTON,OH,43147,"http://maps.google.com/maps?q=1311 REFUGEE RD.,+PICKERINGTON,+OH+43147&hl=en"
PIQUA POLICE DEPARTMENT,PIQUA POLICE DEPARTMENT,100 N. WAYNE ST.,PIQUA,OH,45356,"http://maps.google.com/maps?q=100 N. WAYNE ST.,+PIQUA,+OH+45356&hl=en"
PITTSBURGH BUREAU OF POLICE,ZONE #6 PITTSBURGH POLICE STATION COMMANDER STEVEN VINANSKY,312 SOUTH MAIN STREET,PITTSBURGH,PA,15220,"http://maps.google.com/maps?q=312 SOUTH MAIN STREET,+PITTSBURGH,+PA+15220&hl=en"
PITTSFIELD POLICE DEPARTMENT,"KROGER STORE, PITTSFIELD TWP. MI",3200 CARPENTER RD.,YPSILANTI,MI,48197,"http://maps.google.com/maps?q=3200 CARPENTER RD.,+YPSILANTI,+MI+48197&hl=en"
PITTSFIELD POLICE DEPARTMENT,PITTSFIELD TWP. POLICE DEPT. MAIN STATION,6227 W. MICHIGAN AVE,ANN ARBOR,MI,48108,"http://maps.google.com/maps?q=6227 W. MICHIGAN AVE,+ANN ARBOR,+MI+48108&hl=en"
PLEASANT HILLS POLICE DEPARTMENT,PLEASANT HILLS BOROUGH BUILDING,410 EAST BRUCETON RD,PITTSBURGH,PA,15236,"http://maps.google.com/maps?q=410 EAST BRUCETON RD,+PITTSBURGH,+PA+15236&hl=en"
PLEASANTS COUNTY SHERIFF,PHILLIPS PHARMACY,329 2ND STREET,SAINT MARYS,WV,26170,"http://maps.google.com/maps?q=329 2ND STREET,+SAINT MARYS,+WV+26170&hl=en"
PLYMOUTH TOWNSHIP POLICE,PLYMOUTH TOWNSHIP POLICE,9955 N HAGGERTY,PLYMOUTH,MI,48170,"http://maps.google.com/maps?q=9955 N HAGGERTY,+PLYMOUTH,+MI+48170&hl=en"
PUTNAM COUNTY SHERIFF'S DEPARTMENT,PUTNAM COUNTY SHERIFF'S DEPARTMENT,SHERIFF'S DEPARTMENT3389 WINFIELD ROAD,WINFIELD,WV,25213,"http://maps.google.com/maps?q=SHERIFF'S DEPARTMENT,+WINFIELD,+WV+25213&hl=en"
PUTNAM COUNTY SHERIFF'S OFFICE,PUTNAM COUNTY SHERIFF'S OFFICE,1035 HERITAGE TRAIL,OTTAWA,OH,45875,"http://maps.google.com/maps?q=1035 HERITAGE TRAIL,+OTTAWA,+OH+45875&hl=en"
REDFORD TWP POLICE DEPARTMENT,REDFORD TWP POLICE DEPARTMENT,25833 ELSINORE,REDFORD,MI,48239,"http://maps.google.com/maps?q=25833 ELSINORE,+REDFORD,+MI+48239&hl=en"
REYNOLDSBURG POLICE DEPARTMENT,REYNOLDSBURG POLICE DEPARTMENT EDWARD K KALLAY,7240 E. MAIN ST,REYNOLDSBURG,OH,43068,"http://maps.google.com/maps?q=7240 E. MAIN ST,+REYNOLDSBURG,+OH+43068&hl=en"
RIVER ROUGE POLICE DEPARTMENT,RIVER ROUGE POLICE DEPARTMENT,10600 W JEFFERSON AVENUE,RIVER ROUGE,MI,48218,"http://maps.google.com/maps?q=10600 W JEFFERSON AVENUE,+RIVER ROUGE,+MI+48218&hl=en"
RIVERVIEW POLICE DEPARTMENT,RIVERVIEW POLICE DEPARTMENT,14100 CIVIC PARK DR,RIVERVIEW,MI,48193,"http://maps.google.com/maps?q=14100 CIVIC PARK DR,+RIVERVIEW,+MI+48193&hl=en"
ROBINSON TWP. POLICE DEPARTMENT,THE MALL AT ROBINSON PARKING LOT NEAR DICK'S & GOLDEN CORRAL,1000 ROBINSON CENTRE DRIVE,PITTSBURGH,PA,15205,"http://maps.google.com/maps?q=1000 ROBINSON CENTRE DRIVE,+PITTSBURGH,+PA+15205&hl=en"
ROMULUS POLICE DEPARTMENT,ROMULUS POLICE DEPARTMENT,11165 OLIVE,ROMULUS,MI,48174,"http://maps.google.com/maps?q=11165 OLIVE,+ROMULUS,+MI+48174&hl=en"
ROSEVILLE POLICE DEPARTMENT,AMERICAN HOUSE EAST II SENIOR LIVING,18760 13 MILE RD,ROSEVILLE,MI,48066,"http://maps.google.com/maps?q=18760 13 MILE RD,+ROSEVILLE,+MI+48066&hl=en"
ROSEVILLE POLICE DEPARTMENT,ROSEVILLE POLICE DEPARTMENT,29753 GRATIOT,ROSEVILLE,MI,48066,"http://maps.google.com/maps?q=29753 GRATIOT,+ROSEVILLE,+MI+48066&hl=en"
ROYAL OAK POLICE DEPARTMENT,ROYAL OAK POLICE DEPARTMENT,211 EAST THIRD STREET,ROYAL OAK,MI,48067,"http://maps.google.com/maps?q=211 EAST THIRD STREET,+ROYAL OAK,+MI+48067&hl=en"
SALINE POLICE DEPARTMENT,SALINE POLICE DEPARTMENT,100 NORTH HARRIS,SALINE,MI,48176,"http://maps.google.com/maps?q=100 NORTH HARRIS,+SALINE,+MI+48176&hl=en"
SANDUSKY COUNTY SHERIFF'S OFFICE,EASTSIDE FIRE AND POLICE,506 PINE ST.,FREMONT,OH,43420,"http://maps.google.com/maps?q=506 PINE ST.,+FREMONT,+OH+43420&hl=en"
SHARON TOWNSHIP POLICE DEPARTMENT,SHARON TOWNSHIP POLICE DEPARTMENT,95 E. WILSON BRIDGE ROAD,WORTHINGTON,OH,43085,"http://maps.google.com/maps?q=95 E. WILSON BRIDGE ROAD,+WORTHINGTON,+OH+43085&hl=en"
SISTERVILLE POLICE DEPARTMENT,SISTERVILLE PD,200 DIAMOND ST,SISTERSVILLE,WV,26175,"http://maps.google.com/maps?q=200 DIAMOND ST,+SISTERSVILLE,+WV+26175&hl=en"
SOUTH LYON POLICE DEPARTMENT,SOUTH LYON PD,219 WHIPPLE ST,SOUTH LYON,MI,48178,"http://maps.google.com/maps?q=219 WHIPPLE ST,+SOUTH LYON,+MI+48178&hl=en"
SPENCER POLICE DEPARTMENT,SPENCER POLICE DEPARTMENT,116 COURT ST,SPENCER,WV,25276,"http://maps.google.com/maps?q=116 COURT ST,+SPENCER,+WV+25276&hl=en"
ST. JOSEPH COUNTY POLICE,CLAY FIRE STATION 21,18776 CLEVELAND ROAD,SOUTH BEND,IN,46637,"http://maps.google.com/maps?q=18776 CLEVELAND ROAD,+SOUTH BEND,+IN+46637&hl=en"
ST. JOSEPH COUNTY POLICE,CLAY FIRE STATION 25,12481 ANDERSON ROADBITTERSWEET AND ANDERSON,GRANGER,IN,46530,"http://maps.google.com/maps?q=12481 ANDERSON ROAD,+GRANGER,+IN+46530&hl=en"
ST. JOSEPH COUNTY POLICE,DROP BOX,401 WEST SAMPLE STREET,SOUTH BEND,IN,46601,"http://maps.google.com/maps?q=401 WEST SAMPLE STREET,+SOUTH BEND,+IN+46601&hl=en"
ST. JOSEPH COUNTY POLICE,MISHAWAKA FIRE STATION,333 EAST DOUGLAS ROAD,MISHAWAKA,IN,46545,"http://maps.google.com/maps?q=333 EAST DOUGLAS ROAD,+MISHAWAKA,+IN+46545&hl=en"
ST. JOSEPH COUNTY POLICE,NEW CARLISLE FIRE STATION,204 EAST MICHIGAN AVENUE,NEW CARLISLE,IN,46552,"http://maps.google.com/maps?q=204 EAST MICHIGAN AVENUE,+NEW CARLISLE,+IN+46552&hl=en"
ST. JOSEPH COUNTY POLICE,NORTH LIBERTY FIRE STATION,305 S. STATE ST.,NORTH LIBERTY,IN,46554,"http://maps.google.com/maps?q=305 S. STATE ST.,+NORTH LIBERTY,+IN+46554&hl=en"
STEUBENVILLE POLICE DEPARTMENT,KROGER,264 S. HOLLYWOOD PLAZA,STEUBENVILLE,OH,43952,"http://maps.google.com/maps?q=264 S. HOLLYWOOD PLAZA,+STEUBENVILLE,+OH+43952&hl=en"
STOW POLICE DEPARTMENT,STOW POLICE DEPARTMENT,3800 DARROW RD,STOW,OH,44224,"http://maps.google.com/maps?q=3800 DARROW RD,+STOW,+OH+44224&hl=en"
STRONGSVILLE PD,STRONGSVILLE PD,18688 ROYALTON,STRONGSVILLE,OH,44136,"http://maps.google.com/maps?q=18688 ROYALTON,+STRONGSVILLE,+OH+44136&hl=en"
STURGIS POLICE DEPARTMENT,STURGIS POLICE DEPARTMENT,122 N NOTTAWA STREET,STURGIS,MI,49091,"http://maps.google.com/maps?q=122 N NOTTAWA STREET,+STURGIS,+MI+49091&hl=en"
SUMMA HEALTH POLICE DEPARTMENT,SUMMA HEALTH MEDINA MEDICAL CENTER,3780 MEDINA RD,MEDINA,OH,44256,"http://maps.google.com/maps?q=3780 MEDINA RD,+MEDINA,+OH+44256&hl=en"
SUMMIT COUNTY SHERIFF / DRUG UNIT,SUMMIT COUNTY SHERIFF'S OFFICE / DRUG UNIT,393 E. TURKEYFOOT LAKE ROAD,AKRON,OH,44319,"http://maps.google.com/maps?q=393 E. TURKEYFOOT LAKE ROAD,+AKRON,+OH+44319&hl=en"
SYLVANIA POLICE DIVISION,CITY OF SYLVANIA POLICE,6635 MAPLEWOOD AVE.,SYLVANIA,OH,43560,"http://maps.google.com/maps?q=6635 MAPLEWOOD AVE.,+SYLVANIA,+OH+43560&hl=en"
SYLVANIA TOWNSHIP POLICE,SYLVANIA TOWNSHIP POLICE,4420 KING ROAD,SYLVANIA,OH,43560,"http://maps.google.com/maps?q=4420 KING ROAD,+SYLVANIA,+OH+43560&hl=en"
TALLMADGE POLICE DEPARTMENT,ACME FRESH MARKET,600 SOUTH AVENUE,TALLMADGE,OH,44278,"http://maps.google.com/maps?q=600 SOUTH AVENUE,+TALLMADGE,+OH+44278&hl=en"
TALLMADGE POLICE DEPARTMENT,TALLMADGE POLICE DEPARTMENT,53 NORTHEAST AVE,TALLMADGE,OH,44278,"http://maps.google.com/maps?q=53 NORTHEAST AVE,+TALLMADGE,+OH+44278&hl=en"
THE CENTER FOR URBAN YOUTH AND FAMILY DEVELOPMENT,HARTFORD MEMORIAL BAPTIST CHURCH,18700 JAMES COUSINS,DETROIT,MI,48235,"http://maps.google.com/maps?q=18700 JAMES COUSINS,+DETROIT,+MI+48235&hl=en"
THREE RIVERS POLICE DEPARTMENT,THREE RIVERS POLICE DEPARTMENT,333 W MICHIGAN AVENUE,THREE RIVERS,MI,49093,"http://maps.google.com/maps?q=333 W MICHIGAN AVENUE,+THREE RIVERS,+MI+49093&hl=en"
TUSCARAWS COUNTY SHERIFFS OFFICE,TRINITY TWIN CITY HOSPITAL,819 N. 1ST STREET,DENNISON,OH,44621,"http://maps.google.com/maps?q=819 N. 1ST STREET,+DENNISON,+OH+44621&hl=en"
TUSCARAWS COUNTY SHERIFFS OFFICE,UNION HOSPITAL SOUTH ENTRANCE,659 BOULEVARD,DOVER,OH,44622,"http://maps.google.com/maps?q=659 BOULEVARD,+DOVER,+OH+44622&hl=en"
UNION COUNTY SHERIFF'S OFFICE,PLEASANT VALLEY FIRE DEPARTMENT,650 WEST MAIN STREET,PLAIN CITY,OH,43064,"http://maps.google.com/maps?q=650 WEST MAIN STREET,+PLAIN CITY,+OH+43064&hl=en"
UNION COUNTY SHERIFF'S OFFICE,RICHWOOD POLICE DEPARTMENT,153 NORTH FRANKLIN ST,RICHWOOD,OH,43344,"http://maps.google.com/maps?q=153 NORTH FRANKLIN ST,+RICHWOOD,+OH+43344&hl=en"
UNION COUNTY SHERIFF'S OFFICE,UNION COUNTY SHERIFF'S OFFICE,221 WEST 5TH ST,MARYSVILLE,OH,43040,"http://maps.google.com/maps?q=221 WEST 5TH ST,+MARYSVILLE,+OH+43040&hl=en"
UNIVERSITY OF DAYTON POLICE DEPARTMENT,UNIVERSITY OF DAYTON POLICE DEPARTMENT,300 COLLEGE PARK,DAYTON,OH,45469,"http://maps.google.com/maps?q=300 COLLEGE PARK,+DAYTON,+OH+45469&hl=en"
UNIVERSITY OF MICHIGAN-FLINT DEPT OF PUBLIC SAFETY,UNIVERSITY OF MICHIGAN - FLINT DPS UCEN LOOP,400 MILL STREET,FLINT,MI,48502,"http://maps.google.com/maps?q=400 MILL STREET,+FLINT,+MI+48502&hl=en"
UNIVERSITY OF NOTRE DAME,UNIVERSITY OF NOTRE DAME POLICE DEPARTMENT,HAMMES MOWBRAY HALL,NOTRE DAME,IN,46556,"http://maps.google.com/maps?q=HAMMES MOWBRAY HALL,+NOTRE DAME,+IN+46556&hl=en"
UPPER ARLINGTON DIVISION OF POLICE,UPPER ARLINGTON POLICE DIVISION MUNICIPAL SERVICES CENTER,3600 TREMONT ROAD,UPPER ARLINGTON,OH,43221,"http://maps.google.com/maps?q=3600 TREMONT ROAD,+UPPER ARLINGTON,+OH+43221&hl=en"
UPPER ST. CLAIR POLICE DEPARTMENT,UPPER ST. CLAIR POLICE DEPARTMENT,1820 MCLAUGHLIN RUN ROAD,PITTSBURGH,PA,15241,"http://maps.google.com/maps?q=1820 MCLAUGHLIN RUN ROAD,+PITTSBURGH,+PA+15241&hl=en"
"URBANA, OH POLICE DIVISION",KROGER PARKING LOT,1637 E. U.S. HWY. 36,URBANA,OH,43078,"http://maps.google.com/maps?q=1637 E. U.S. HWY. 36,+URBANA,+OH+43078&hl=en"
VAN BUREN COUNTY SHERIFF'S OFFICE,ANTWERP TOWNSHIP ACTIVITY CENTER,24821 FRONT AVE,MATTAWAN,MI,49071,"http://maps.google.com/maps?q=24821 FRONT AVE,+MATTAWAN,+MI+49071&hl=en"
VAN BUREN TOWNSHIP POLICE DEPARTMENT,POLICE DEPARTMENT LOBBY 10:00 AM - 2:00 PM,46425 TYLER RD,BELLEVILLE,MI,48111,"http://maps.google.com/maps?q=46425 TYLER RD,+BELLEVILLE,+MI+48111&hl=en"
VAN WERT COUNTY SHERIFF'S OFFICE,VAN WERT COUNTY SHERIFF'S OFFICE,113 NORTH MARKET STREET,VAN WERT,OH,45891,"http://maps.google.com/maps?q=113 NORTH MARKET STREET,+VAN WERT,+OH+45891&hl=en"
VANDALIA DIVISION OF POLICE,VANDALIA KROGER,780 NORTHWOODS BLVD,VANDALIA,OH,45377,"http://maps.google.com/maps?q=780 NORTHWOODS BLVD,+VANDALIA,+OH+45377&hl=en"
VANDALIA DIVISION OF POLICE,VANDALIA POLICE DEPARTMENT,245 JAMES BOHANAN DR.,VANDALIA,OH,45377,"http://maps.google.com/maps?q=245 JAMES BOHANAN DR.,+VANDALIA,+OH+45377&hl=en"
VIENNA WV POLICE DEPARTMENT,VIENNA VOLUNTEER FD,609 28TH ST,VIENNA,WV,26105,"http://maps.google.com/maps?q=609 28TH ST,+VIENNA,+WV+26105&hl=en"
VILLAGE OF DUNDEE POLICE DEPARTMENT,VILLAGE OF DUNDEE POLICE DEPARTMENT,350 W MONROE ST,DUNDEE,MI,48131,"http://maps.google.com/maps?q=350 W MONROE ST,+DUNDEE,+MI+48131&hl=en"
VILLAGE OF LAKE ODESSA,VILLAGE OF LAKE ODESSA CHIEF KENDRA BACKING,839 4TH AVE,LAKE ODESSA,MI,48849,"http://maps.google.com/maps?q=839 4TH AVE,+LAKE ODESSA,+MI+48849&hl=en"
WALLED LAKE POLICE DEPARTMENT,WALLED LAKE POLICE DEPARTMENT,1499 E. WEST MAPLE RD,WALLED LAKE,MI,48390,"http://maps.google.com/maps?q=1499 E. WEST MAPLE RD,+WALLED LAKE,+MI+48390&hl=en"
WAPAKONETA POLICE DEPARTMENT,WAPAKONETA POLICE DEPARTMENT,701 PARLETTE CT,WAPAKONETA,OH,45895,"http://maps.google.com/maps?q=701 PARLETTE CT,+WAPAKONETA,+OH+45895&hl=en"
WARREN POLICE DEPARTMENT,ELKS LODGE,25950 SCHOENHERR,WARREN,MI,48089,"http://maps.google.com/maps?q=25950 SCHOENHERR,+WARREN,+MI+48089&hl=en"
WARREN POLICE DEPARTMENT,WARREN POLICE DEPARTMENT,29900 CIVIC CENTER BLVD.,WARREN,MI,48093,"http://maps.google.com/maps?q=29900 CIVIC CENTER BLVD.,+WARREN,+MI+48093&hl=en"
WASHINGTON COUNTY SHERIFF'S OFFICE,BELPRE SENIOR CENTER PARKING LOT,1614 WASHINGTON BLVD,BELPRE,OH,45714,"http://maps.google.com/maps?q=1614 WASHINGTON BLVD,+BELPRE,+OH+45714&hl=en"
WASHINGTON COUNTY SHERIFF'S OFFICE,BUCKEYE HILLS AREA AGENCY ON AGING PARKING LOT,1400 NEWPORT PIKE,RENO,OH,45773,"http://maps.google.com/maps?q=1400 NEWPORT PIKE,+RENO,+OH+45773&hl=en"
WASHINGTON COUNTY SHERIFF'S OFFICE,CORNER OF 2ND ST AND PUTNAM ST,CORNER OF 2ND ST AND PUTNAM ST,MARIETTA,OH,45750,"http://maps.google.com/maps?q=CORNER OF 2ND ST AND PUTNAM ST,+MARIETTA,+OH+45750&hl=en"
WASHINGTON COUNTY SHERIFF'S OFFICE,DEVOLA MEDICAL CENTER PARKING LOT,4727 STATE ROUTE 60,MARIETTA,OH,45750,"http://maps.google.com/maps?q=4727 STATE ROUTE 60,+MARIETTA,+OH+45750&hl=en"
WASHINGTON COUNTY SHERIFF'S OFFICE,FORT FRYE HIGH SCHOOL PARKING LOT,420 FIFTH STREET,BEVERLY,OH,45715,"http://maps.google.com/maps?q=420 FIFTH STREET,+BEVERLY,+OH+45715&hl=en"
WASHINGTON COUNTY SHERIFF'S OFFICE,"HARDWARE COMPONENTS, INC",1021 PARK AVENUE,NEW MATAMORAS,OH,45767,"http://maps.google.com/maps?q=1021 PARK AVENUE,+NEW MATAMORAS,+OH+45767&hl=en"
WASHINGTON COUNTY SHERIFF'S OFFICE,WASHINGTON COUNTY SHERIFF'S OFFICE 24HR DROP BOX LOCATED IN LOBBY,309 4TH STREET,MARIETTA,OH,45750,"http://maps.google.com/maps?q=309 4TH STREET,+MARIETTA,+OH+45750&hl=en"
WASHINGTON COUNTY SHERIFF'S OFFICE,WHITE OAK PHARMACY PARKING LOT,8465 STATE ROUTE 339,BARLOW,OH,45712,"http://maps.google.com/maps?q=8465 STATE ROUTE 339,+BARLOW,+OH+45712&hl=en"
WATERFORD TOWNSHIP POLICE DEPARTMENT,WATERFORD TOWNSHIP POLICE DEPARTMENT,5150 CIVIC CENTER,WATERFORD,MI,48329,"http://maps.google.com/maps?q=5150 CIVIC CENTER,+WATERFORD,+MI+48329&hl=en"
WAUSEON POLICE DEPARTMENT,WALMART,485 E AIRPORT HWY,WAUSEON,OH,43567,"http://maps.google.com/maps?q=485 E AIRPORT HWY,+WAUSEON,+OH+43567&hl=en"
WAUSEON POLICE DEPARTMENT,WAUSEON POLICE DEPT,230 CLINTON ST.,WAUSEON,OH,43567,"http://maps.google.com/maps?q=230 CLINTON ST.,+WAUSEON,+OH+43567&hl=en"
WEIRTON PD,WEIRTON POLICE DEPT,200 MUNICIPAL PLAZA,WEIRTON,WV,26062,"http://maps.google.com/maps?q=200 MUNICIPAL PLAZA,+WEIRTON,+WV+26062&hl=en"
WEST BLOOMFIELD POLICE DEPARTMENT,WEST BLOOMFIELD POLICE DEPARTMENT,4530 WALNUT LAKE ROAD,WEST BLOOMFIELD,MI,48325,"http://maps.google.com/maps?q=4530 WALNUT LAKE ROAD,+WEST BLOOMFIELD,+MI+48325&hl=en"
WEST JEFFERSON POLICE DEPARTMENT,JEFFERSON TOWNSHIP FIRE DEPARTMENT,745 WEST MAIN ST.,WEST JEFFERSON,OH,43162,"http://maps.google.com/maps?q=745 WEST MAIN ST.,+WEST JEFFERSON,+OH+43162&hl=en"
WEST VIRGINIA STATE POLICE,WEST VIRGINIA STATE POLICE SGT R.E. RICHARDSON/3044204600,3828 STAUNTON TPK.,PARKERSBURG,WV,26104,"http://maps.google.com/maps?q=3828 STAUNTON TPK.,+PARKERSBURG,+WV+26104&hl=en"
WEST VIRGINIA STATE POLICE,WEST VIRGINIA STATE POLICE SGT. C.H.FLOWERS/304-586-2000,3389 WINFIELD ROAD,WINFIELD,WV,25213,"http://maps.google.com/maps?q=3389 WINFIELD ROAD,+WINFIELD,+WV+25213&hl=en"
WESTERVILLE DIVISION OF POLICE,WALGREENS,748 N. STATE ST,WESTERVILLE,OH,43082,"http://maps.google.com/maps?q=748 N. STATE ST,+WESTERVILLE,+OH+43082&hl=en"
WESTSHORE ENFORCEMENT BUREAU NARC. TASK FORCE,BAY VILLAGE POLICE DEPARTMENT,28000 WOLF RD.,BAY VILLAGE,OH,44140,"http://maps.google.com/maps?q=28000 WOLF RD.,+BAY VILLAGE,+OH+44140&hl=en"
WESTSHORE ENFORCEMENT BUREAU NARC. TASK FORCE,FAIRVIEW PARK POLICE DEPARTMENT,20777 LORAIN RD.,FAIRVIEW PARK,OH,44126,"http://maps.google.com/maps?q=20777 LORAIN RD.,+FAIRVIEW PARK,+OH+44126&hl=en"
WESTSHORE ENFORCEMENT BUREAU NARC. TASK FORCE,LAKEWOOD POLICE DEPARTMENT,12650 DETROIT AVE.,LAKEWOOD,OH,44107,"http://maps.google.com/maps?q=12650 DETROIT AVE.,+LAKEWOOD,+OH+44107&hl=en"
WESTSHORE ENFORCEMENT BUREAU NARC. TASK FORCE,NORTH OLMSTED POLICE DEPARTMENT,27243 LORAIN ROAD,NORTH OLMSTED,OH,44070,"http://maps.google.com/maps?q=27243 LORAIN ROAD,+NORTH OLMSTED,+OH+44070&hl=en"
WESTSHORE ENFORCEMENT BUREAU NARC. TASK FORCE,ROCKY RIVER POLICE DEPARTMENT,21012 HILLIARD BLVD.,ROCKY RIVER,OH,44116,"http://maps.google.com/maps?q=21012 HILLIARD BLVD.,+ROCKY RIVER,+OH+44116&hl=en"
WESTSHORE ENFORCEMENT BUREAU NARC. TASK FORCE,WESTLAKE POLICE DEPT.,27300 HILLIARD BLVD.,WESTLAKE,OH,44145,"http://maps.google.com/maps?q=27300 HILLIARD BLVD.,+WESTLAKE,+OH+44145&hl=en"
WETZEL COUNTY SHERIFF'S OFFICE,NEW MARTINSVILLE FIRE DEPT,400 OHIO STREET,NEW MARTINSVILLE,WV,26155,"http://maps.google.com/maps?q=400 OHIO STREET,+NEW MARTINSVILLE,+WV+26155&hl=en"
WETZEL COUNTY SHERIFF'S OFFICE,THE HUNDRED CITY BUILDING,58 FOUR SEASONS DRIVE,HUNDRED,WV,26575,"http://maps.google.com/maps?q=58 FOUR SEASONS DRIVE,+HUNDRED,+WV+26575&hl=en"
WHEELING POLICE DEPT,MT DECHANTAL KROGER,200 MT DECHANTAL RD,WHEELING,WV,26003,"http://maps.google.com/maps?q=200 MT DECHANTAL RD,+WHEELING,+WV+26003&hl=en"
WHITE LAKE TOWNSHIP POLICE DEPT,WHITE LAKE TWP POLICE DEPT DEPARTMENT LOBBY DROP BOX,7525 HIGHLAND RD,WHITE LAKE,MI,48383,"http://maps.google.com/maps?q=7525 HIGHLAND RD,+WHITE LAKE,+MI+48383&hl=en"
WHITEHALL DIVISION OF POLICE,WHITEHALL DIVISION OF POLICE TRACY SHARPLESS,365 S. YEARLING RD.,COLUMBUS,OH,43213,"http://maps.google.com/maps?q=365 S. YEARLING RD.,+COLUMBUS,+OH+43213&hl=en"
WILLIAMS COUNTY SHERIFF'S OFFICE,WILLIAMS COUNTY SHERIFF'S OFFICE MICHELLE JACOB,"1425 E HIGH ST, SUITE 103BRYAN",BRYAN,OH,43506,"http://maps.google.com/maps?q=1425 E HIGH ST, SUITE 103,+BRYAN,+OH+43506&hl=en"
WILLIAMSTOWN POLICE DEPT,WILLIAMSTOWN PD,100 WEST 5TH ST,WILLIAMSTOWN,WV,26187,"http://maps.google.com/maps?q=100 WEST 5TH ST,+WILLIAMSTOWN,+WV+26187&hl=en"
WINFIELD WV POLICE DEPT,WINFIELD WV POLICE DEPARTMENT,3232 WINFIELD ROAD,WINFIELD,WV,25213,"http://maps.google.com/maps?q=3232 WINFIELD ROAD,+WINFIELD,+WV+25213&hl=en"
WIRT COUNTY SHERIFF'S DEPARTMENT,WIRT COUNTY SHERIFF'S DEPT,100 COURT SQURE,ELIZABETH,WV,26143,"http://maps.google.com/maps?q=100 COURT SQURE,+ELIZABETH,+WV+26143&hl=en"
WIXOM POLICE DEPARTMENT,WIXOM POLICE DEPARTMENT,49045 PONTIAC TRAIL,WIXOM,MI,48393,"http://maps.google.com/maps?q=49045 PONTIAC TRAIL,+WIXOM,+MI+48393&hl=en"
WOOD COUNTY SHERIFF'S OFFICE,WOOD COUNTY SHERIFF'S OFFICE DET. SGT. ROD SMITH,1960 E. GYPSY LNBOWLING GREEN,BOWLING GREEN,OH,43402,"http://maps.google.com/maps?q=1960 E. GYPSY LN,+BOWLING GREEN,+OH+43402&hl=en"
WOOD COUNTY WV SHERIFF'S DEPARTMENT,LUBECK VFD,1340 HARRIS HWY,PARKERSBURG,WV,26101,"http://maps.google.com/maps?q=1340 HARRIS HWY,+PARKERSBURG,+WV+26101&hl=en"
WOOD COUNTY WV SHERIFF'S DEPARTMENT,MINERAL WELLS VFD,1695 ELIZABETH PIKE,MINERAL WELLS,WV,26150,"http://maps.google.com/maps?q=1695 ELIZABETH PIKE,+MINERAL WELLS,+WV+26150&hl=en"
WOOD COUNTY WV SHERIFF'S DEPARTMENT,WAVERLY VFD,15425 EMERSON AVE,WAVERLY,WV,26184,"http://maps.google.com/maps?q=15425 EMERSON AVE,+WAVERLY,+WV+26184&hl=en"
WOODHAVEN POLICE DEPARTMENT,WOODHAVEN POLICE DEPARTMENT,21869 WEST RD.,WOODHAVEN,MI,48183,"http://maps.google.com/maps?q=21869 WEST RD.,+WOODHAVEN,+MI+48183&hl=en"
WORTHINGTON DIVISION OF POLICE,WORTHINGTON DIVISION OF POLICE,6555 WORTHINGTON GALLENA RD,COLUMBUS,OH,43085,"http://maps.google.com/maps?q=6555 WORTHINGTON GALLENA RD,+COLUMBUS,+OH+43085&hl=en"
WYANDOTTE POLICE DEPARTMENT,WYANDOTTE POLICE DEPARTMENT FRONT LOBBY 1ST-FLOOR,2015 BIDDLE AVE.,WYANDOTTE,MI,48192,"http://maps.google.com/maps?q=2015 BIDDLE AVE.,+WYANDOTTE,+MI+48192&hl=en"
